AAD_Filtered_TADAS_FILE
AAD_BASELINE_CORRECTION: BASELINE REMOVED
AAD_FILTER_TYPE: BUTTERWORTH
AAD_FILTER_ORDER: 1
AAD_LOW_CUT_FREQUENCY_HZ: 0.025
AAD_HIGH_CUT_FREQUENCY_HZ: 40.0
EVENT_NAME: 202302061024
EVENT_ID: 13207
EVENT_DATE_YYYYMMDD: 2023/02/06
EVENT_TIME_HHMMSS: 10:24:47.00000
EVENT_LATITUDE_DEGREE: 38.089
EVENT_LONGITUDE_DEGREE: 37.239
EVENT_DEPTH_KM: 7.0
HYPOCENTER_REFERENCE: AFAD
MAGNITUDE_W: 7.6
MAGNITUDE_W_REFERENCE: AFAD
MAGNITUDE_L: 
MAGNITUDE_L_REFERENCE: 
FOCAL_MECHANISM: 
NETWORK: TK
STATION_CODE: 4617
STATION_NAME: 
STATION_LATITUDE_DEGREE: 37.58551
STATION_LONGITUDE_DEGREE: 36.8303
STATION_ELEVATION_M: 544.0
LOCATION: Kahramanmaras_Elbistan_Turkiye
SENSOR_DEPTH_M: 
VS30_M/S: 574
SITE_CLASSIFICATION_EC8: B
MORPHOLOGIC_CLASSIFICATION: 
EPICENTRAL_DISTANCE_KM: 66.50
EARTHQUAKE_BACKAZIMUTH_DEGREE: 
DATE_TIME_FIRST_SAMPLE_YYYYMMDD_HHMMSS: 2023/02/06 10:24:33.5228790
DATE_TIME_FIRST_SAMPLE_PRECISION: millisecond
SAMPLING_INTERVAL_S: 0.01
NDATA: 10501
DURATION_S: 
STREAM: HNN
UNITS: cm/s^2
INSTRUMENT: sensor = GMS+/GEOSIG | digitizer = 
INSTRUMENT_ANALOG/DIGITAL: 
INSTRUMENTAL_FREQUENCY_HZ: 
INSTRUMENTAL_DAMPING: 
FULL_SCALE_G: 
N_BIT_DIGITAL_CONVERTER: 
PGA_CM/S^2: 55.974
TIME_PGA_S: 
BASELINE_CORRECTION: BASELINE REMOVED
FILTER_TYPE: BUTTERWORTH
FILTER_ORDER: 
LOW_CUT_FREQUENCY_HZ: 
HIGH_CUT_FREQUENCY_HZ: 
LATE/NORMAL_TRIGGERED: 
DATABASE_VERSION: 
HEADER_FORMAT: DYNA 1.2
DATA_TYPE: Acceleration
PROCESSING: Automatic Paolucci et al., 2011
DATA_TIMESTAMP_YYYYMMDD_HHMMSS: 
DATA_LICENSE: U (unknown license)
DATA_CITATION: Turkish Accelerometric Archive v 1.0 - Disaster And Emergency Management Presidency, Earthquake Department
DATA_CREATOR: AFAD
ORIGINAL_DATA_MEDIATOR_CITATION: : AFAD - Disaster And Emergency Management Presidency
ORIGINAL_DATA_MEDIATOR: AFAD PROCESS SERVICE
ORIGINAL_DATA_CREATOR_CITATION: AFAD PROCESS SERVICE
ORIGINAL_DATA_CREATOR: network: TK
USER1: GuestUser
USER2: 
USER3: 
USER4: 
[...]
-15.764502812717515
-12.80671394612409
-9.379783059141705
-7.922991729162273
-9.358244125964614
-13.487307547499066
-18.32025318535101
-20.921826855477967
-20.806357301231554
-17.956876729677223
-13.507674306656291
-10.361202897473094
-9.19110509972663
-9.430678558968776
-11.314024501847644
-13.492038191964223
-13.80550927947324
-13.625521101908296
-14.723012687030144
-16.216900428412924
-16.912766048059257
-15.812263499144574
-12.408681806118677
-7.194990864838578
-1.5690722736046998
2.5565798778924784
4.114496807661888
3.768625314172535
3.12127839028816
4.396303711989953
7.349545299709522
9.653178311045036
11.808322163762384
13.600266854039544
13.833939417526564
13.591603164722406
13.322499636629779
12.03781268047813
9.407920914086684
7.489313987936897
7.8725704637656095
9.934206796598115
13.10952104412361
16.2486086560529
18.291451940364656
18.787100473041097
17.66524059609438
15.981384880498506
14.298703219329536
12.799868482855768
12.411977511380744
14.168455811827753
16.594868746453184
17.243933305590442
17.10399747802158
16.791344080819588
15.248429122069766
12.35370798069774
8.666537501652869
5.69028841388176
3.4897159823173807
0.9328164623517662
-1.3427683684223988
-2.810437510617819
-4.889843314453227
-7.778090683608012
-10.448019992229366
-13.576110428922147
-16.10719351522091
-17.345867120053306
-19.780406127078102
-22.720408354924615
-25.104844556551505
-27.678180693494227
-28.62988153083573
-27.23944586244552
-24.600453548161017
-20.430912379836546
-15.640040002062365
-12.621315369185881
-10.546802739548099
-7.178622039838029
-2.611199583405022
1.5606683361280649
3.7160089791493944
4.751720199572629
6.176244433005799
7.559941085212836
8.345298073190396
9.204806979094721
10.337477901868603
10.739963323052615
10.253351917354417
8.96722569802456
7.80074740449667
7.742588267663428
7.762239401903558
6.660519630026142
4.191328450610061
1.620065531495549
0.054736938170033965
-0.664135114220242
0.20872065795162845
2.8787310990704507
5.447893569252007
5.396363421278728
2.324983517885114
-0.9374346405824433
-3.1041279988072485
-5.5854288763163895
-8.239631183227715
-10.18046184651864
-12.206922097329874
-13.756132363012986
-12.22092569578585
-8.547677286516027
-5.812679548373854
-5.090502360806768
-6.875816176286132
-9.841315378476693
-11.83145696819287
-12.447196382167512
-11.023006107684852
-7.082767682798863
-1.9108672899835875
2.8350185003968478
6.701801307354439
9.985067558097688
12.298018520328693
12.914060304343833
11.814453499299235
8.201623955309822
1.9408581642261205
-3.6734615690315104
-5.61574775155863
-3.318799445373321
0.360377379164508
2.1562314394698983
1.8915038423276367
-0.9073816523090085
-4.490572434714784
-6.330344020809283
-6.52792381624927
-5.222649086963352
-3.526750807685985
-1.9594546477935908
0.09196030438759359
2.237949981148066
3.9904198430668196
5.572065090918964
6.835558329921627
8.577222529551559
11.996453673244313
14.625796263532258
15.244319772714713
16.44094408379621
18.193649940875456
18.28297294268714
17.176923746508717
17.008988658373948
18.184032112087806
19.74882303852589
20.822504217776697
21.40373423177227
21.221229843082348
19.092982752883675
16.23013751394772
15.079219452164939
14.602066754959463
12.398543979967776
9.03319565726151
5.706281609878771
1.7054481990556494
-1.7441195220844359
-3.12697777769176
-4.196004882936381
-5.238697728856782
-5.943156553465355
-6.474671973479591
-5.613372381873198
-3.9366679170228114
-1.9634390438188707
0.1266682914057501
1.4916924241227423
3.2706085859469325
5.288418153303032
6.704621460712805
8.550176707537018
10.154010398941788
10.612600585638404
11.578046662819846
14.257688057779992
17.191553954766427
18.595890876740455
18.665287945806266
18.793645474894902
19.762252439191744
21.001340909233484
21.913217605230933
22.454821405109374
22.86445722902165
23.593380940734566
23.954630384872292
23.530163192613056
23.42221204344975
23.68316851636189
23.816447820318768
24.495358481854794
25.807654243441068
26.01805574825348
24.70121554094134
22.610588382791924
18.24175111472589
11.07943429177007
3.4584240154808787
-2.0406714028921846
-4.84326954037763
-5.930203277067439
-5.271898678952166
-3.3573828069167937
-1.4139819209386104
-0.17505971927528233
0.1951744551113729
0.5632825491987624
1.2552837632556062
2.8671950169360505
6.270524013959188
10.387508064907346
13.803231686052383
15.855007826622932
16.79058756888718
16.810701186833676
14.98428523780284
11.477464634622246
7.576778269526587
4.322567267653863
1.4701155413286273
-1.4597763809383866
-2.8577653045082902
-2.9032275112484496
-4.325297627410341
-6.667064428363013
-7.6726848978084865
-7.1852279447162015
-5.641895841026086
-3.480807621330966
-1.2214566770005801
0.5299604645117102
1.404006190838125
2.182942862931787
2.8471462166567028
2.610784452553196
0.75800416449064
-1.5396008913029324
-0.9484798438673111
2.047805357338231
4.152058590510729
4.867087737841117
5.8826794574394
6.91543967034606
6.785120816209692
7.376875882003949
9.470812584869227
11.17382975783173
11.574861467969004
10.69161395589643
10.799591621352802
13.990216206928979
17.540690093725328
18.31772435102235
16.744109358375418
14.28780913275949
9.752773031468289
2.4200028394576676
-3.8192452718440397
-6.65896650769086
-8.081083138428767
-9.647427820584337
-10.575361855878786
-10.620360791890255
-10.611881224247533
-9.202645886389854
-5.619049266014152
-1.6264921894880098
1.2526207430352518
3.0938770007737486
5.425052547020406
8.312534264579657
9.733290205481293
9.605694193891052
9.437969649189816
8.741256540075304
6.880767573665027
5.592802747956168
6.514516443380445
8.839860299791336
10.98451910054705
12.896214319874451
14.613252875593929
14.492119436597003
12.049811253574545
9.823425957982154
10.062784700382775
12.085426878576655
13.133710870771468
12.21406642346012
10.657588293292472
8.544595065412834
5.261276083908948
1.4628898368736711
-1.3448951894286814
-2.9463252859301914
-4.503601545653403
-6.207586347582832
-7.120702598203046
-7.451815275856134
-9.021930631150783
-11.62231979523695
-14.196949811100149
-17.715145009414922
-22.831672157506812
-28.06707925752943
-30.636622464006344
-30.16800345594069
-27.91050697894141
-23.599267870361246
-17.73338837287857
-12.53739621747875
-10.449556503015858
-10.871294702588555
-10.632819448473024
-9.976696093836965
-10.199323231860392
-9.722965055433859
-8.273191262380488
-7.5783502711505735
-7.584372256114384
-6.745891354971229
-5.744392429499347
-6.383302373078625
-8.149756137804404
-9.624298118802969
-9.873816982430462
-9.119259891029039
-8.51795271959982
-8.044105304788237
-7.641953463834993
-7.404344281451767
-6.19584253672616
-5.018399130922946
-5.989895521312495
-7.7930968927296025
-8.977055585816226
-10.313624046687423
-12.36118967069908
-15.027885911141457
-17.441792187036857
-19.579606497662745
-23.33500311982755
-28.333847217317196
-33.52769209266107
-39.367545920657165
-43.53287895335746
-44.256369326109365
-42.22998337600216
-37.979865727025064
-33.65548254309628
-30.4495077005811
-26.922596517275377
-22.857576776387884
-19.78002923327354
-18.711851232889952
-18.85371266982855
-18.969848571516888
-19.56707526728161
-21.374616825951
-23.42704400029694
-24.15741893626007
-23.288471372464095
-21.225782353379643
-18.59453746609216
-17.241076938285733
-17.522879722649492
-17.883324551346586
-16.807671212588122
-14.337220769033305
-13.057857041497863
-14.680890160939686
-18.596823915722346
-22.363366541804737
-24.731164886903073
-26.54323593978809
-27.28421786367034
-26.71086653254879
-25.26486199156044
-23.26228740326887
-20.7390693012557
-17.49673630262911
-14.963224210403203
-14.427648013768188
-15.215603025124155
-16.75777322307818
-19.207478356275267
-21.660497990152248
-23.06384166681268
-24.086953443777045
-26.56458469199025
-31.23666682481796
-36.991468525674975
-41.858931581289404
-44.32465712145702
-44.57470106424062
-42.4967735745388
-38.39821976548389
-33.46341575059308
-26.668629043739355
-17.45437533786501
-7.815735566093177
0.4840693518961505
6.9862643684460055
11.128216142001943
13.419125780058055
16.178035834915754
21.092023869238712
28.815751258794403
37.47017981885373
43.6526439773691
45.87272928224211
43.91122600525144
38.89603824529285
32.47037915948726
25.94156508158104
21.01994691222753
17.1221183964872
11.58803270177188
4.304201599724469
-2.4315083160650155
-5.929619343579437
-5.411788724065062
-3.355164346653945
-0.8662541784889976
1.7554839099224226
2.6276313574336516
2.1996352438867333
1.8358311472332949
1.743356358014921
3.490492993833428
8.22803793022977
13.98214438323703
18.561811831238295
21.430926664628895
21.862403939046043
20.123418484500828
17.817268614148276
15.280491985196466
13.025325058194637
11.977777878572322
11.463049851951713
11.566951947227425
12.768504296671816
13.877297133792394
13.983950505745756
12.62456286210885
9.952111699061483
7.059292592362118
4.7777800438478835
3.8203924917974432
3.7717291284000187
3.6511676901724766
2.450039548499834
-0.6843617438434362
-3.910929313000261
-5.831544169806811
-6.682216173207459
-5.515873679643941
-1.9156583378209828
2.5430410049365735
5.877646790494456
8.430312051907471
9.767711601477615
8.2728690917679
6.028183835058099
4.56710448602157
2.681997361598724
-0.05496581697679889
-3.9461706508322854
-8.61037072264124
-12.84298886376477
-16.382574045345322
-18.888780920236062
-20.06865857109188
-19.715765134160208
-17.37834302188358
-13.943881974784272
-10.79996204373296
-8.81772929734108
-7.53770431390345
-5.308953613145836
-1.974214560971238
1.5317981271235668
5.01705261447552
8.54006680951025
10.532905451699097
8.944326786529258
4.583578874897274
-0.6248328283425136
-5.939232204231171
-10.047972154674154
-11.471527228246554
-10.189422345924418
-6.530802676799236
-1.6084744488818747
3.0296650436990133
7.204906719925225
10.750985997461317
14.02923253882766
18.329961707801953
22.866241006316418
26.37087858593407
29.230336227397054
31.05230642876118
31.524030741871226
30.479372854520435
27.985055435232493
26.496798872911164
27.499623872541463
30.03101744390853
33.078712507499084
36.329808377824676
37.99065145123443
36.60202796829271
34.823396377114214
34.469358225733515
35.49075004275006
38.7390972968325
43.4849294427977
47.63863895866039
50.29414800563829
51.47473125009353
50.562104991952175
47.73457737397884
44.10101547792387
38.33313073349432
29.65704213582918
20.146471066237165
11.018736306644458
3.102816650689361
-3.6426740430628826
-9.106394408382522
-11.52365650061258
-11.747557764238499
-11.26982140356053
-10.160947731379661
-9.23340974727041
-9.522934938293416
-11.726680530834606
-15.627044018395958
-19.825688753009818
-23.623459113786627
-28.510528722203787
-33.69241579511917
-35.64356221545609
-34.398148428425394
-32.07284882249133
-28.893451831124526
-25.499941029193504
-23.691300835242572
-22.981157379296576
-22.137290549578797
-20.674716791895897
-17.374963110990286
-12.288912426928384
-7.0872111768399755
-3.7594477940421203
-3.02930075854519
-3.6532341548362552
-4.562257118728632
-6.2859899455509956
-8.357432431043494
-9.057818673036602
-8.984070243957802
-8.922492273877026
-8.398538828539161
-5.826754909592533
-0.24230506331151605
5.504820561496034
9.193116128483261
11.274933693851533
12.867174941343166
14.987539493660107
17.768916874552847
20.79222141830808
22.541465357327397
21.551068776097488
17.897047025640227
13.543632895325501
9.807783998764728
6.10060767986698
4.62736733224852
6.073118486079033
6.330024769540304
3.894683519273219
-0.2509664906715845
-5.080006513970732
-8.986760224611205
-10.740089875059862
-9.429954552070631
-6.016045161270526
-2.6635641965115955
0.7143642316012075
4.203796315357378
6.64329054561895
7.625333011297906
6.3885808286741605
3.119144158141195
-0.90400288075429
-5.836310412124182
-10.890619356904141
-14.1198386194699
-15.765287192860113
-16.291688411773
-15.784740388118564
-16.434223845682745
-18.945615029243932
-21.26208150669155
-22.714650798969586
-23.909099759185647
-23.965263110912638
-22.199561646018992
-20.214393177674054
-19.279753282144515
-19.87824909568919
-22.11722722767457
-25.78851612843371
-31.059438011538422
-36.676672593201545
-41.4706319033291
-45.33111208883517
-47.20973085861268
-47.13626707773085
-46.69687447830339
-46.210273932843045
-45.630489760521364
-45.64592840675945
-45.18837089342302
-42.870250331184074
-39.23604021204551
-34.62544655176822
-29.97741296056663
-26.864802863124517
-25.681670189509664
-26.404486312476813
-28.25108335537705
-30.208571367785755
-32.022734682720426
-33.54966613736085
-34.41120767524608
-34.29102938786186
-33.43363661190929
-33.83468685775448
-37.412021629030804
-42.32874164574663
-46.69355861161887
-50.71365351905897
-53.7060857689717
-54.167637094530754
-51.80384151828224
-49.03007406324843
-46.799557876111976
-43.375800419681916
-39.44621791554679
-36.865523156962595
-35.37114183564931
-34.440585577844665
-34.126221757806505
-33.20201368298047
-30.717380233361503
-26.579066281907128
-20.17693986467526
-12.603523080646976
-6.1057142868584275
-1.2884235910645918
2.423874830366107
5.221752920676931
6.602920525216739
6.49582232267691
6.235306605599793
7.312699532471162
9.411795338347853
10.988302185462732
10.46287577271365
8.090723989796093
6.003414238295912
4.391238665181795
2.0725852866136387
-0.7961221707777892
-4.071524635431141
-8.02913698027699
-12.227453444538204
-15.66740119332318
-18.102338088621078
-20.09406891532389
-21.173178835746928
-20.24544620784315
-17.527431559276447
-14.660202493157325
-12.648416291093469
-11.302041170888701
-11.08958987361486
-12.806025677708469
-16.008024447587328
-19.0720027001009
-20.509754289790244
-20.348556832422
-19.346196236306273
-17.792341002918654
-16.34510762492316
-15.63415251938551
-15.280510606923212
-13.863314620296858
-10.22510786798383
-5.302060383863829
-0.03481004174531991
5.012389773290727
8.477431450383193
10.017705028694754
9.91996071443502
9.128325107365793
8.084821452939124
5.909076268049384
3.1335713583018934
0.531902504326277
-2.283473814862921
-5.533683445233529
-8.193364996684336
-9.557234179119128
-9.773847841379087
-8.817402733391221
-7.770273123890255
-7.158320897044297
-6.269498875134833
-5.3149106215466935
-5.897673515229798
-8.930570913405612
-12.863030469636954
-16.00424168909402
-16.840209950572746
-15.2965523140306
-13.71877200636982
-12.29002901163735
-11.043597157629897
-10.985881892056682
-10.489166390268647
-8.846899916758593
-6.550813788514145
-3.4099993263618424
-0.31962539569962933
1.7741326775848945
2.887693276762296
3.7744736338293143
5.166739917475208
7.474844310927467
10.153476350622174
12.241348568912503
13.773946062069237
14.436131339462978
14.231323939373398
13.97316431652524
13.647327924571965
12.770247675477638
11.603052638271555
11.114201675675146
12.302416891845587
14.922112158225115
18.168796839074957
22.438145591610677
27.14405491511534
30.472545088517382
31.66843130432338
31.475056989140842
30.90001799219602
30.336841990305604
30.69181982356806
32.28269367623768
34.06206913132431
34.64844372836779
33.29217821123483
31.484755232637138
31.015138143812532
31.733960664228892
33.166923032138705
34.92066104638724
35.39381471750858
33.20793000263107
29.294844773690954
24.409959073836184
18.71259863695958
14.279535426930906
11.99925069105836
10.503915580411253
9.883781072033214
10.546817677110111
10.767157196456369
9.446925786928674
7.905372256991017
7.094866208245225
6.668082162387106
7.190843604403714
9.43806260217244
11.50660809813691
11.14472290376594
8.642527686416251
4.649331220137749
-0.2984386692735128
-5.3384174908467505
-9.503294298731182
-11.691952319329536
-13.199283077203106
-16.22532563150328
-20.15005591351786
-23.23815115306367
-24.90279596637299
-25.678552256364238
-25.562937208613928
-24.44685948207182
-23.355692874160493
-22.314987950716464
-20.661717207890003
-18.257796654167826
-15.300035767730574
-12.418932012951867
-9.624019569635504
-6.920433569059082
-4.352173383703641
-1.8314933699003109
0.22717178653078227
2.4351833535717105
5.197037856704811
7.84410007303794
10.385340860512882
13.017868828392858
15.730969743585149
18.371194868978034
20.89448735611626
23.066070716521608
23.93068551409422
23.248336530967126
21.919854489471494
20.837479720991528
20.052600299051722
19.178053870668354
18.017110814776977
16.472208338209512
15.131710039365238
14.540407312520621
14.23686670848318
14.102182811419118
14.341610736183162
14.5595096044898
14.332292453071478
13.875247092142509
14.008756150775802
14.925933141541488
15.827619518136423
16.293801576368075
16.408023358672366
16.23051968975422
15.942960374095128
16.1288027838682
17.904276134295063
20.972474697477594
23.70066643950381
25.36208490513939
26.054537358066153
27.61057443176491
30.738752026507797
33.38312037234387
35.243496421329446
36.912307031200214
38.42966254112803
39.79452965572164
40.64805833432154
40.877695720589706
40.241986189199594
39.292908153951835
38.54697727618914
37.74711833306707
37.52029842455791
37.65252009280453
37.461161766840505
36.817419551804946
34.52330323323754
30.332185359820308
26.298060823630106
24.306425420342197
23.87931612042539
23.408813945812618
22.069011923039962
19.53663737126088
16.728167559960205
15.058580986079049
14.375583362309827
14.188228521177981
14.946034087610506
17.172512673193594
20.787230984458173
24.890450062092984
29.277282381795033
34.8038340144651
40.661922168314895
45.09451701552486
47.58974016196941
48.514771231145076
48.63610770435646
48.65094833609897
48.73342956989296
48.98606899023751
49.16901738277037
48.38300304556831
47.00749716007936
46.04553735071896
45.13438371492273
43.93425714529448
42.64665221913642
41.13599892685555
39.07656787409551
37.0546058292898
36.26315535278893
36.79443170980307
37.99081166478294
38.811250607147194
38.27539127773572
36.55347460920442
33.90266506598523
30.29019847172026
26.440577334359126
24.131803644448024
24.79100063136566
27.819800628625483
31.62218954073399
35.232797931828635
38.62789281365476
41.71209491802149
43.66743784565325
44.72544491643624
46.36012381030721
48.682829073160356
50.578038211117224
51.151200181290584
49.73020933074608
46.92844488252049
44.03235923085445
41.765584573322364
40.57411529938801
