AAD_Filtered_TADAS_FILE
AAD_BASELINE_CORRECTION: BASELINE REMOVED
AAD_FILTER_TYPE: BUTTERWORTH
AAD_FILTER_ORDER: 1
AAD_LOW_CUT_FREQUENCY_HZ: 0.025
AAD_HIGH_CUT_FREQUENCY_HZ: 40.0
EVENT_NAME: 202302061024
EVENT_ID: 13207
EVENT_DATE_YYYYMMDD: 2023/02/06
EVENT_TIME_HHMMSS: 10:24:47.00000
EVENT_LATITUDE_DEGREE: 38.089
EVENT_LONGITUDE_DEGREE: 37.239
EVENT_DEPTH_KM: 7.0
HYPOCENTER_REFERENCE: AFAD
MAGNITUDE_W: 7.6
MAGNITUDE_W_REFERENCE: AFAD
MAGNITUDE_L: 
MAGNITUDE_L_REFERENCE: 
FOCAL_MECHANISM: 
NETWORK: TK
STATION_CODE: 2108
STATION_NAME: 
STATION_LATITUDE_DEGREE: 38.48776
STATION_LONGITUDE_DEGREE: 41.002003
STATION_ELEVATION_M: 920.0
LOCATION: Kahramanmaras_Elbistan_Turkiye
SENSOR_DEPTH_M: 
VS30_M/S: None
SITE_CLASSIFICATION_EC8: unknown
MORPHOLOGIC_CLASSIFICATION: 
EPICENTRAL_DISTANCE_KM: 331.38
EARTHQUAKE_BACKAZIMUTH_DEGREE: 
DATE_TIME_FIRST_SAMPLE_YYYYMMDD_HHMMSS: 2023/02/06 10:25:12.1658630
DATE_TIME_FIRST_SAMPLE_PRECISION: millisecond
SAMPLING_INTERVAL_S: 0.005
NDATA: 36501
DURATION_S: 
STREAM: HNN
UNITS: cm/s^2
INSTRUMENT: sensor = GEO-A200,/GEObit | digitizer = 
INSTRUMENT_ANALOG/DIGITAL: 
INSTRUMENTAL_FREQUENCY_HZ: 
INSTRUMENTAL_DAMPING: 
FULL_SCALE_G: 
N_BIT_DIGITAL_CONVERTER: 
PGA_CM/S^2: 7.947
TIME_PGA_S: 
BASELINE_CORRECTION: BASELINE REMOVED
FILTER_TYPE: BUTTERWORTH
FILTER_ORDER: 
LOW_CUT_FREQUENCY_HZ: 
HIGH_CUT_FREQUENCY_HZ: 
LATE/NORMAL_TRIGGERED: 
DATABASE_VERSION: 
HEADER_FORMAT: DYNA 1.2
DATA_TYPE: Acceleration
PROCESSING: Automatic Paolucci et al., 2011
DATA_TIMESTAMP_YYYYMMDD_HHMMSS: 
DATA_LICENSE: U (unknown license)
DATA_CITATION: Turkish Accelerometric Archive v 1.0 - Disaster And Emergency Management Presidency, Earthquake Department
DATA_CREATOR: AFAD
ORIGINAL_DATA_MEDIATOR_CITATION: : AFAD - Disaster And Emergency Management Presidency
ORIGINAL_DATA_MEDIATOR: AFAD PROCESS SERVICE
ORIGINAL_DATA_CREATOR_CITATION: AFAD PROCESS SERVICE
ORIGINAL_DATA_CREATOR: network: TK
USER1: GuestUser
USER2: 
USER3: 
USER4: 
[...]
-0.41480570639617204
-0.4758069903231234
-0.5683124219361367
-0.6349900826647908
-0.7306247513982126
-0.8358109632897003
-0.9255917748722172
-1.0304514473641877
-1.140711790051295
-1.2639457914202192
-1.3881035886677227
-1.5216180944449567
-1.654319531194936
-1.781438010966336
-1.9268970063428552
-2.0609088642938005
-2.187463028597514
-2.314845668046729
-2.4258788990736138
-2.540879622122231
-2.6518146079680394
-2.7515913768751736
-2.8459739691583503
-2.916064771647161
-2.969754431817352
-3.014432192724339
-3.032867854927704
-3.0163075816875
-2.9904152836892255
-2.9773207502973564
-2.961478225775472
-2.951864080877666
-2.980833749237111
-3.0345059342650584
-3.0852550388575644
-3.119967873853578
-3.1190722778606235
-3.083550064752859
-3.0083663882512606
-2.8951106308432966
-2.7629525637778265
-2.618702409799937
-2.4944387956081533
-2.400613169221735
-2.3197633622112015
-2.235880350516938
-2.134384885664942
-2.0042645348453556
-1.8229543538475472
-1.6052473609688644
-1.3708742684838613
-1.1419809156406278
-0.9463566538338322
-0.782397567528758
-0.6595462463640165
-0.575211415349199
-0.5213850339236898
-0.48946033205788847
-0.4532211786686838
-0.41056149213984927
-0.3867169172223719
-0.37715408047944315
-0.3736684852350917
-0.39675471005999696
-0.44906688531869615
-0.5385970223498999
-0.662080450729841
-0.8125744210689085
-0.9837792889322192
-1.1600267998405853
-1.3427032050192622
-1.513864591236647
-1.670233046000185
-1.8222118087327297
-1.9599039803957674
-2.0677788000547412
-2.1601980784464723
-2.2488934520701362
-2.3149449269388707
-2.3824115781496857
-2.4632045397954294
-2.5551405798733877
-2.661611601131368
-2.7632807783024647
-2.868038665975523
-2.9585471930082554
-3.0216400852844263
-3.0683387166061356
-3.083666168211469
-3.0817055304805776
-3.0761115789714895
-3.072911827544445
-3.071875964686506
-3.042751405508624
-2.9741772968034956
-2.870604264127784
-2.7238140389830434
-2.5490983989867138
-2.3669793668911048
-2.18177669378285
-2.024506089399421
-1.8860756567322885
-1.7527755597262775
-1.6317428441147968
-1.4964126118982355
-1.3372451006805992
-1.1486713412987126
-0.9446016024787931
-0.7352232032041566
-0.537031441164656
-0.3829844632769269
-0.2562164607518628
-0.16595017755571026
-0.10332538620765187
-0.03478303876882125
0.036624717960662835
0.13055471030662372
0.23535980112104476
0.3322560426201973
0.41572008766628793
0.4550329389977311
0.45224911019304
0.4179638885138862
0.36373305798241967
0.31320491373494114
0.2692588038822898
0.24035914679099205
0.22252107350967554
0.19927655861110277
0.1619680548226137
0.08910737539150107
-0.019304493590629457
-0.14613657261324756
-0.2682720660590064
-0.3774143051415401
-0.4772792239304401
-0.5537467895245821
-0.6005591518919944
-0.6230989990968334
-0.6330689559013897
-0.624015844079437
-0.6042378114210595
-0.5983058959292747
-0.6023932474347686
-0.6200205058124122
-0.6564681489367072
-0.7031455881125162
-0.7583600416255989
-0.8162051866351341
-0.8635196796627889
-0.8866011997534605
-0.8786254410542969
-0.8601821334141636
-0.8526095677668006
-0.8624331550191074
-0.8880695545183237
-0.9192764192070341
-0.9381647732249186
-0.9286473321811526
-0.8780195774273699
-0.7924844006598423
-0.6984454382024345
-0.5990103356425824
-0.5116115493923652
-0.4314391181421334
-0.3516882028344922
-0.3052943635476888
-0.26033669298595885
-0.2104928679557349
-0.16715908171461094
-0.10712280005451512
-0.055543885403522404
-0.014880006506995436
0.015079495122519214
0.015075592731404241
-0.011597206149703259
-0.05482973918549962
-0.10090313289683564
-0.15288084698495832
-0.20652693022683283
-0.25973070276697047
-0.31747217192952915
-0.3898149066122686
-0.482616660180747
-0.5861031291307474
-0.7116104940574525
-0.8471072824275492
-0.9759606491066202
-1.0915510875884125
-1.180407084839578
-1.248198975383478
-1.3047014616706178
-1.3641485336320538
-1.4295927326491609
-1.494140118622507
-1.549223556891825
-1.5875038681701665
-1.612398614168663
-1.6223780652262543
-1.6134606137380356
-1.5992584096592515
-1.570909656963673
-1.5104018117154336
-1.4363821397761716
-1.345438522636895
-1.2492890249086883
-1.1553042821450634
-1.0432169763311239
-0.9354517669732136
-0.8202401448478148
-0.7119289464249762
-0.6408507008181415
-0.5794176320924204
-0.5533545832951328
-0.5661884084242119
-0.5993414227444634
-0.6533336510334918
-0.6958906388887481
-0.7221441510518819
-0.7410009293139241
-0.7619762288461771
-0.7777393508287025
-0.7899012781275183
-0.8109686632837367
-0.8184008651628965
-0.8130404109481191
-0.7769094354207513
-0.720642805497294
-0.6648049832016661
-0.5856205653578033
-0.5074878834758287
-0.42421066354480036
-0.3282988458919278
-0.2328250984115249
-0.14552284084157488
-0.08658863149915413
-0.053320756187276705
-0.05839610652452283
-0.08835220138076155
-0.12991194151545804
-0.1688453871612604
-0.18291991203820834
-0.17444404078766373
-0.12241021614694128
-0.0626427254566661
-0.031098401775965838
-0.00392033680259319
-0.022707095393600902
-0.11733472973786763
-0.222534062000714
-0.3197991406890024
-0.3995604607590614
-0.4088396342424212
-0.356454913586683
-0.2753575663291156
-0.18632549155071093
-0.10562390375455363
-0.0721938811791306
-0.09204461947908502
-0.14121987976149797
-0.20466479082962213
-0.21826378168993457
-0.15720905032323515
-0.010499068656135865
0.22512420827006063
0.4962985532111425
0.763312289239537
0.9868847495380998
1.1242353443052389
1.159502656722434
1.13366664009661
1.1013211143739843
1.104679955227009
1.179011774863796
1.3044381810537937
1.4742557552488285
1.669394354645323
1.8084003569304798
1.8561198684407219
1.78909592053695
1.615266834975979
1.4157258899640282
1.2480235694558195
1.176571922717612
1.2230781727217208
1.3559807665367685
1.5614710727172039
1.7709346962836727
1.9116489724444752
1.9460027014579413
1.8557306286743644
1.6880614679881467
1.5063462550333666
1.3682511559953585
1.3249628678693188
1.3607016504357388
1.4383805492848323
1.5053792970011304
1.4893995936857611
1.3807046774186602
1.169194886454064
0.8863521684564418
0.6067175807598246
0.3740578874373506
0.24289033127119403
0.2166799490500372
0.2745938620292924
0.3691398853882254
0.4492726703770097
0.49304125046573066
0.4619763376510847
0.373508772303826
0.2789290263442213
0.20916780662339546
0.19815524070011697
0.26152451699626417
0.39008350630633687
0.575035622661646
0.7493381472358956
0.8631214679732947
0.9195156884768663
0.893981434629352
0.8213879150154608
0.7418234685985262
0.6661705841475997
0.6224447511813909
0.6103520312726393
0.624995543580652
0.6485583543471309
0.6723236555023001
0.7046308922100699
0.7200880800174941
0.7252554854928551
0.7642316488071477
0.8443420270622906
0.9617638609278656
1.1144456176261537
1.290918170568206
1.4852377801853136
1.665936567737769
1.792228846250796
1.8698909204544574
1.9191842182563814
1.9502926079837941
1.9751260311457504
2.004689937445257
2.045273514743217
2.1014643187490423
2.178529383601912
2.2467492634705617
2.280063231623104
2.2806203015450413
2.235330181266181
2.1665853601260974
2.1044264005192064
2.0507854390419107
2.0174438171383695
2.0024457868867835
1.9921827989695493
1.9798922082908392
1.9578305658474904
1.9130888936948338
1.8519311291963565
1.7871921770139194
1.7281569360845872
1.667070841101949
1.5952753929612133
1.540283518762265
1.4909046359520888
1.442162221406071
1.3981830506372144
1.3511760689739956
1.3162970417319486
1.2779957432949558
1.2475627394173228
1.235219151454495
1.2312846669205815
1.2438587360854103
1.2627462005190875
1.264882936824479
1.2352248688021903
1.1591254680863226
1.0345540927233878
0.9065159700338464
0.7860489412708257
0.6952231722785068
0.6559485648137436
0.6392047167124276
0.638210828671609
0.6134056822275441
0.5531806839225106
0.43688845898046086
0.26397378179021214
0.11120778912675679
-0.014152944509765201
-0.06667928312802965
-0.025963542589574222
0.0752001225271236
0.22919530251991424
0.3719401611299024
0.49130235430537156
0.5752167928375121
0.6128565711363843
0.6426878930457219
0.6892049946607864
0.7910499933369409
0.9451327784189255
1.153966750699421
1.3841811099554657
1.5713694922455432
1.7096785744382417
1.7698834610126222
1.76170305155064
1.715161218777553
1.6646224994549776
1.6686177983048505
1.7265515510281073
1.8400198198515683
1.994938458553139
2.1420842543212975
2.254834776448109
2.3104082867530558
2.301881649966196
2.2554785769309964
2.208915263238318
2.1980570148864467
2.2434674396692476
2.326743112249333
2.4365555404261334
2.5683032455643255
2.6793500382150555
2.7436630059835294
2.772991802116861
2.7809767495309594
2.78985337865176
2.8200961069233204
2.864438891659723
2.935421852856336
3.0186140203554293
3.0708947547958223
3.1046782396741945
3.1037524869894932
3.056733614757255
2.9940239066807024
2.9278996290475123
2.8785841675194406
2.862210819211553
2.8665907778765907
2.871060578706406
2.876361870162303
2.8643592966912474
2.8297552141226823
2.8042407748357907
2.779669043422512
2.7596482864509153
2.754051847895398
2.757114062163621
2.779204662774896
2.8105655369708384
2.8467268182449303
2.87556707741165
2.8823142839323252
2.880570837849607
2.872495291144578
2.855762669808315
2.8324628466546597
2.806165486720047
2.7775484578952754
2.750888659512498
2.7272030818561057
2.705434985275718
2.689313804609384
2.6678731024328934
2.6509639370594975
2.6401363755635123
2.6157649727808074
2.580759142198646
2.5334880477756587
2.484399113023268
2.444873444011826
2.4146053152977345
2.397991381411924
2.395781246912869
2.423362999316656
2.4687562580731455
2.511376546284944
2.549446061412791
2.575001175466297
2.5839548834686283
2.5770023756496796
2.567145938313696
2.555061268262441
2.557632992088183
2.5836423989875112
2.6056612028533195
2.6177601108253743
2.6137448993120795
2.5738973780431156
2.497497850771593
2.4018681551462366
2.287123575052314
2.177222190657538
2.08607117110202
1.991993375629392
1.9216455353708037
1.8720687685070543
1.8198593690680152
1.7760374429559447
1.7156252139257775
1.6339616389104885
1.5464294990393395
1.4427346837152657
1.3276171656233868
1.1979838031806591
1.0627221748704911
0.9203437897636602
0.7538669929631087
0.5840590213520676
0.40356195202343353
0.20442458118497853
-0.015835862970152572
-0.2619438973994134
-0.5207808747662676
-0.8135498396712995
-1.1336487046424768
-1.4618189820478165
-1.7881254014851846
-2.084064416257388
-2.344672075966818
-2.5597701177395473
-2.73286688000263
-2.8761291788197263
-2.984150223946997
-3.082490706534271
-3.1722036615765083
-3.2224102077657104
-3.236299428982356
-3.2029246339448902
-3.1078995962293146
-2.970760688178959
-2.7930373292395525
-2.5870108018911027
-2.379707107487754
-2.1904134629458487
-2.0414175428522143
-1.9022904726380907
-1.7542136311136816
-1.610151275419369
-1.4459213612279285
-1.268009987196414
-1.0926836942259168
-0.9267571327590929
-0.7983493823641018
-0.7094086325624543
-0.6618684401038307
-0.660507302953906
-0.6921324411757216
-0.7321223295291367
-0.7677636531032643
-0.8009150280478334
-0.8249552789306654
-0.8558799506016803
-0.8763054085122248
-0.8926106832168406
-0.9335236882963571
-0.9708815364453188
-1.0119123214775567
-1.0548843884686887
-1.0969446436480195
-1.1477148760383014
-1.2008603684035295
-1.2432609838529864
-1.2674083704300276
-1.3016694853651805
-1.3223609704013726
-1.3339218753167716
-1.3437061892735214
-1.3209891236016342
-1.3052650296181196
-1.2833587028380065
-1.2444058930544133
-1.2124378681017125
-1.1810779591449938
-1.1510814257330264
-1.107677063344849
-1.0498858714371941
-0.9871190534592618
-0.933423718001495
-0.8898021125408967
-0.8509273058918211
-0.8090209542931498
-0.7575690288969341
-0.7142891638492624
-0.6520404354517115
-0.5654934388777496
-0.476237219418893
-0.39016783564556384
-0.3218591034625664
-0.2608390268026943
-0.21241572272608794
-0.16782279948751233
-0.11552777269668751
-0.0546659037486908
0.01163867542962694
0.06684955570794385
0.1364503713264726
0.21614738607936562
0.294426816396858
0.3675604522222561
0.4108201914530846
0.4451979635047237
0.5058516493029067
0.6080443000393982
0.7414310806799863
0.8925540238563705
1.0625323022175361
1.2351259086869961
1.400653044763834
1.5708024460500105
1.7305625084481873
1.8739191851687158
2.0210161811948937
2.1692362787781296
2.3399728113861444
2.545553997730975
2.7755450447946997
3.0305769393289297
3.2738677083748056
3.5051508947795176
3.725833496336335
3.917113639093831
4.102472327057362
4.286319343179086
4.487190545678069
4.7053849337036215
4.937337062245193
5.184116206687739
5.401994787504172
5.590906026048067
5.748465717863029
5.872231525425121
5.987852225510193
6.1169299769864995
6.281474541442113
6.469675819339115
6.677540087899897
6.896398410629727
7.096894780510133
7.245525253986596
7.320209936894691
7.351351038546223
7.341170108208666
7.300000663074355
7.268650426376225
7.235398896574329
7.211006521162987
7.199568479584176
7.16594286557543
7.110475744089028
7.03854754723958
6.92437601011414
6.7673233624246505
6.575451028585761
6.338348077468169
6.090538352030199
5.835088906004638
5.582708963498343
5.367188286997968
5.167527080936109
4.989750042436965
4.820087483442878
4.636756277156487
4.439148025285107
4.2267174321515215
4.002084993495621
3.765546061129841
3.5514260907429995
3.3759538616310474
3.244457464193846
3.146664933159289
3.070141830959147
3.0137029058415536
2.9386609825316845
2.833127138778999
2.697360442310623
2.5284587230491744
2.335967095545474
2.1323119035076448
1.9396106257712569
1.7680758390108702
1.6332387167900209
1.5397217028061805
1.4730010974473917
1.421044695773145
1.36685269325314
1.2849832389425784
1.1754771906302188
1.0552469765169932
0.9379147883042741
0.8559659432166435
0.8112633544706777
0.8084532840996559
0.8484474860209972
0.915765944157707
1.0118228703238934
1.0930368052514978
1.1412991067049625
1.1437009308443162
1.0927097067873184
1.0343662187777358
0.9582365721400241
0.8810335005948255
0.8223162751832459
0.7431509400556409
0.6624967728639066
0.5820803769625318
0.4864635074176602
0.3844201237535274
0.2663541895955137
0.1389599187002861
-0.0025658725835197276
-0.15876567680704548
-0.30482492283974766
-0.43456399744959706
-0.5476130469886397
-0.6470417972512363
-0.7394879260297309
-0.8315367547697688
-0.9338689841394657
-1.0436912807178393
-1.1512198508585678
-1.256286158292939
-1.3497487480275496
-1.4185269035665775
-1.467199592410721
-1.5020098821530714
-1.531358368926631
-1.5531152875472833
-1.5609242446370095
-1.5807798782260893
-1.610265704157903
-1.6401117353320502
-1.687638085101988
-1.7312100895999862
-1.7740256736281432
-1.8137506019873737
-1.8281411117839974
-1.8296340440108882
-1.814597947477469
-1.8012554215894858
-1.7975600647600336
-1.802285644308558
-1.826866323109635
-1.8423567245388819
-1.8395275305731558
-1.820628785486678
-1.7628917629501735
-1.6659129207110108
-1.5296344714419825
-1.3511603687672418
-1.1764558297940344
-1.0069961009017538
-0.8244395577413215
-0.6507514686771209
-0.4452646221228684
-0.22092244028100538
-0.004391808919892779
0.23779391018686255
0.4819844696288225
0.7274180396681382
0.961338984799073
1.1630933102521566
1.3287001740450004
1.4348772154536809
1.513849033018587
1.5752169233295061
1.6079248306155187
1.6322234881576931
1.6429839791988732
1.6392962928712924
1.6202364067323154
1.5753006013165127
1.50580812473851
1.398895470283281
1.2659862697233721
1.121575103702235
0.9721680843411051
0.8256557640945857
0.6732252727678975
0.5342864507721216
0.3953856118269819
0.24241229296977998
0.09873346993094692
-0.04098617163488893
-0.18274254374655963
-0.30803426432734166
-0.41387940009698104
-0.516755366391489
-0.5949724722835462
-0.6695634378113077
-0.7619803219963402
-0.8369443031225071
-0.9207840510201223
-0.9933417535174394
-1.0258300732085304
-1.04203914088208
-1.0203211325776682
-0.9918396975738565
-0.9615378231048671
-0.9119904792570145
-0.871815084814693
-0.8138295831246185
-0.7533195441911964
-0.7086191343063919
-0.6673487061410992
-0.6542638916499051
-0.649072529509269
-0.6397013564290929
-0.646861124031476
-0.6651291116893009
-0.7013217591737344
-0.7494441043397514
-0.7933385035518851
-0.8552596115221534
-0.9273992452649639
-1.006956247170236
-1.1086548881550347
-1.2253101184064947
-1.3706618740353178
-1.5163467999479252
-1.6535262755384406
-1.7776594772070897
-1.886114365642145
-2.0177341120632537
-2.1099164741317566
-2.179319539263593
-2.2533945263617374
-2.2963298218878294
-2.3841198131527217
-2.4671809696141174
-2.5137402378227622
-2.5686301697620197
-2.5758283853185664
-2.5586092003659147
-2.506614181958582
-2.3994472045798436
-2.2770880165865557
-2.124567351873425
-1.9559615419161072
-1.7803098263665758
-1.6074152634798906
-1.44755626602921
-1.2906793508063894
-1.1216484699090392
-0.9341632914847026
-0.7689367644251432
-0.6068096489175424
-0.469060339696505
-0.3774828536843086
-0.28554798565332135
-0.2266846495230943
-0.2012171120507002
-0.18706072462158427
-0.1696710723306474
-0.1537888639234454
-0.15085108535186587
-0.13672067895552775
-0.1469603830265497
-0.16573554416863193
-0.17568599010046088
-0.19134357643472533
-0.16464219384818873
-0.08212557954410774
0.02543607013473611
0.12338030170706112
0.2323763706857545
0.3443715698135318
0.44480988329284665
0.5373918669990835
0.5511814028641201
0.5348684407018549
0.5200517349756063
0.4727243811175352
0.4482572254701184
0.41257807549606346
0.35942432142303793
0.32096492979851493
0.2399653669374008
0.10656876011241835
-0.04727614445275863
-0.17632981717389873
-0.28234964808795737
-0.40143003538320865
-0.48322182995909085
-0.5274935953685815
-0.5756478260473915
-0.6048450907619529
-0.6278100337289552
-0.6224603044506039
-0.5661777782411203
-0.5235002558337394
-0.48146269760243426
-0.4177140010044691
-0.3520172026007864
-0.2894196016031578
-0.2612635433008842
-0.23288315436641663
-0.18266551454650032
-0.12325239121586579
-0.03953554010115069
0.029493496480499346
0.06374456553667393
0.04599418011491558
-0.021800569933735307
-0.09665788348109201
-0.1899420511066929
-0.28553146125835754
-0.3561051113272022
-0.40762605835063537
-0.40763173324608837
-0.41181619451941626
-0.4701536969990947
-0.5258513087179842
-0.6296371602557682
-0.7850762140014196
-0.9580937563273495
-1.154433792302116
