AAD_Filtered_TADAS_FILE
AAD_BASELINE_CORRECTION: BASELINE REMOVED
AAD_FILTER_TYPE: BUTTERWORTH
AAD_FILTER_ORDER: 1
AAD_LOW_CUT_FREQUENCY_HZ: 0.025
AAD_HIGH_CUT_FREQUENCY_HZ: 40.0
EVENT_NAME: 202302061024
EVENT_ID: 13207
EVENT_DATE_YYYYMMDD: 2023/02/06
EVENT_TIME_HHMMSS: 10:24:47.00000
EVENT_LATITUDE_DEGREE: 38.089
EVENT_LONGITUDE_DEGREE: 37.239
EVENT_DEPTH_KM: 7.0
HYPOCENTER_REFERENCE: AFAD
MAGNITUDE_W: 7.6
MAGNITUDE_W_REFERENCE: AFAD
MAGNITUDE_L: 
MAGNITUDE_L_REFERENCE: 
FOCAL_MECHANISM: 
NETWORK: TK
STATION_CODE: 0129
STATION_NAME: 
STATION_LATITUDE_DEGREE: 38.259195
STATION_LONGITUDE_DEGREE: 36.210863
STATION_ELEVATION_M: 1456.0
LOCATION: Kahramanmaras_Elbistan_Turkiye
SENSOR_DEPTH_M: 
VS30_M/S: 965
SITE_CLASSIFICATION_EC8: A
MORPHOLOGIC_CLASSIFICATION: 
EPICENTRAL_DISTANCE_KM: 91.84
EARTHQUAKE_BACKAZIMUTH_DEGREE: 
DATE_TIME_FIRST_SAMPLE_YYYYMMDD_HHMMSS: 2023/02/06 10:24:40.3723390
DATE_TIME_FIRST_SAMPLE_PRECISION: millisecond
SAMPLING_INTERVAL_S: 0.01
NDATA: 11251
DURATION_S: 
STREAM: HNN
UNITS: cm/s^2
INSTRUMENT: sensor = ACEBOX/SARA | digitizer = 
INSTRUMENT_ANALOG/DIGITAL: 
INSTRUMENTAL_FREQUENCY_HZ: 
INSTRUMENTAL_DAMPING: 
FULL_SCALE_G: 
N_BIT_DIGITAL_CONVERTER: 
PGA_CM/S^2: 154.462
TIME_PGA_S: 
BASELINE_CORRECTION: BASELINE REMOVED
FILTER_TYPE: BUTTERWORTH
FILTER_ORDER: 
LOW_CUT_FREQUENCY_HZ: 
HIGH_CUT_FREQUENCY_HZ: 
LATE/NORMAL_TRIGGERED: 
DATABASE_VERSION: 
HEADER_FORMAT: DYNA 1.2
DATA_TYPE: Acceleration
PROCESSING: Automatic Paolucci et al., 2011
DATA_TIMESTAMP_YYYYMMDD_HHMMSS: 
DATA_LICENSE: U (unknown license)
DATA_CITATION: Turkish Accelerometric Archive v 1.0 - Disaster And Emergency Management Presidency, Earthquake Department
DATA_CREATOR: AFAD
ORIGINAL_DATA_MEDIATOR_CITATION: : AFAD - Disaster And Emergency Management Presidency
ORIGINAL_DATA_MEDIATOR: AFAD PROCESS SERVICE
ORIGINAL_DATA_CREATOR_CITATION: AFAD PROCESS SERVICE
ORIGINAL_DATA_CREATOR: network: TK
USER1: GuestUser
USER2: 
USER3: 
USER4: 
[...]
11.716512858363416
8.388876068752323
-14.376263549845016
-28.162791124438122
-27.265479800274527
-21.912176052279435
-10.329966305114642
6.475387098623865
13.887486234787206
1.7864100807103318
-17.292552897768662
-21.18498415989368
-2.385718945905278
22.972775173241768
27.077010865522833
9.25699555223436
-7.229761930412928
-19.272635658913767
-25.162126405514528
-13.64286564815281
2.1716110979553522
15.031436112580188
29.87279199853128
22.628115508202846
-5.2971929008524254
-11.133417232305725
2.1829558749504705
6.2030465406812665
7.9172525819926225
12.466490448946962
10.136537436119601
2.0855991713131656
-10.59987200117437
-24.178303742730296
-22.838831681057908
-3.8297590124962686
14.437581572745557
17.71560243720807
13.74780389982584
13.23681240008934
3.6883283756627043
-17.890088249321256
-24.10626034382412
-9.49179828997005
3.7172446869437743
10.162248180350977
10.915713954467062
-2.587710259580029
-23.818127109478883
-31.662829499896542
-18.322143260050876
3.732924884538006
12.568667250889419
1.935723170006876
-11.163832481141522
-14.472816603476982
-4.001789596598138
14.131503516301521
15.173929941434128
-3.893650362606636
-14.947295422465428
-6.753068276620095
3.0896224118292923
7.00214722075885
25.181845661132844
51.56758001813131
50.35029190651281
25.703595181111268
-2.4776512096294967
-30.644875308669356
-40.490620190276424
-27.25571570195959
-12.129432002530335
-7.22672213285716
-13.235360784251323
-9.799213478029003
19.260066990437892
42.90408998907286
34.39240403012054
11.980480383799785
1.2733324704653568
1.1080201330893025
-11.82327676756803
-30.16862891884553
-22.626173913320876
-3.5482700054374665
4.618988941491905
11.959141787251367
12.93911825948643
-8.041262887251277
-42.818227365016966
-60.029511128537074
-32.37287364753569
14.269444066471548
30.26976963804165
12.999917829724989
-9.10378003233685
-11.750415443815854
13.502690897547104
42.13032151042493
45.186384613375765
26.984803440671335
-1.8627287044170282
-36.57994353533574
-51.55448325743277
-26.694534530563768
15.979052740863956
42.31903449341114
42.82698082528444
27.56099931513527
7.422259601056066
-8.865708419865095
-13.349035807982714
-6.615588603943462
3.1903639427009174
3.5088877109950007
-11.103078409326029
-20.164184021969255
-8.195954473109902
6.110602416190939
9.357552423881806
8.513886776163286
1.2903163670689783
-15.760637104127099
-35.38485663751403
-53.97738100390073
-61.64532278743927
-47.62618977138788
-29.91198148001701
-23.21828605162469
-12.398558969581007
6.303678146580566
21.99895024317426
34.44070534397971
40.88777496522503
38.71373567420649
36.23061592428206
34.13857494017363
24.963487317667806
5.921852735733962
-16.21579107022038
-22.24095133966745
-9.112714552959542
0.029228154194882786
-3.4857737434329157
-7.856819961601035
-6.637815276704583
-6.7998921602289935
-16.84952870100342
-31.16280694663796
-36.92055339358068
-25.25666693639981
-4.160273656032212
6.9996486467467784
12.197362179021221
22.446614014663723
28.408173725000488
20.569344626536655
0.3574144787579966
-17.166734840375167
-15.943086642686621
-6.0016607231453865
-8.995462909135316
-19.285197470756543
-6.926496085574367
30.34362797969223
51.93569935939205
33.67489310399173
10.008025685859062
21.635160385708286
46.18188886878825
44.35278838545155
22.89511650464325
-7.547340737584396
-43.107001907553375
-52.27286145597787
-25.90252755203453
-5.715544496191107
-11.787186093251876
-20.85938816842381
-16.11916215598264
-2.9314823876687126
2.215786882602488
-8.50519479566364
-21.498200656372514
-19.730956642732203
-4.2629714251954764
2.8246449034253462
-4.0020293887090395
-0.15272148066806202
11.796231500371773
11.40010783644899
10.247703298666194
15.85047545687292
14.213630832017612
3.1098726748957173
-4.791196099080839
2.60599461413849
15.104040330476499
12.518775780432867
1.0090310493143015
-0.4395429844268785
17.44901969849622
44.22844493196433
47.41527829251069
15.202654131736768
-26.82961699189162
-53.12490688385766
-49.52798904284372
-20.104666188837783
7.393092832991769
24.716268389949306
45.46109570140712
52.35871735345031
20.598699886133186
-24.828004191688464
-37.450709480193325
-17.068121426243668
-1.2556797536186888
1.0115666700559387
-1.4535305825068827
-17.96333907604674
-33.02071506241299
-18.67401793122048
1.950647056846067
2.087402304174319
0.4473105028057706
3.9743319967667183
-2.5503686096827582
-0.6936495959894681
26.81242794874771
40.8492229465201
16.90064583128347
-8.886861657299391
-18.959905463548434
-25.795260889567366
-21.003921794323908
-2.719977306899904
15.490962532069352
29.23819374069804
31.749799997723407
19.454159200264165
-2.024940714404396
-28.58413171209494
-50.09336563943326
-47.509998470615
-14.695069514243567
21.029006418833983
28.629021990185738
17.000721767490205
12.254117473340399
12.686391799078335
11.764439832713004
25.780505829681832
41.11214278285358
27.121370985635505
3.943403869814199
-15.111058158669167
-35.87731468426684
-28.393406629970787
-2.9170842300822555
-15.359170589609613
-47.413867792343304
-39.73050409436075
0.9070128306941666
32.269163815902736
41.823374667970626
40.473085167783985
38.960901482846204
36.8592268539003
28.95651267286842
8.114057441404444
-24.090528419504007
-37.64295242524146
-22.73102659666176
-4.997453885281585
9.69922022862728
17.327618462568502
2.6000484240593797
-31.4772704233272
-56.37159575902858
-34.56350966203651
20.1939230581627
58.62128799794893
60.41390546663285
27.453372213686862
-1.687289165247217
3.754729985304755
3.774328007685673
-16.431072041683308
-17.020055686017187
12.73499907053598
50.81050865804018
61.952744916218485
31.088858233557453
-10.891027013559546
-38.54229178127679
-47.31192971967494
-36.12273107982625
-16.73143849524869
3.0017206343232985
20.47904903764364
27.399492332467773
27.81354011864246
32.17424709329137
39.321965430593494
39.147433071471546
29.50345404075577
22.73251873805968
23.838579026763874
24.680981977850703
16.494829699293614
5.0514070727668985
12.908147261392863
44.018847905479284
74.42793055030077
75.03007777072992
38.11843783715823
1.5131686178386183
0.8012482009645759
26.014689888752045
57.273791815039885
73.35739947642206
49.1712107089418
-2.7593100058331173
-36.803145879198716
-36.47189630441435
-19.106068040295803
-0.7318582931431427
2.7743014885981885
-4.698912462308663
4.1688149375286
30.179952263300194
50.045464841912604
46.76265779504002
22.409515418821677
2.763009486188999
4.27894542469213
17.02185836500023
32.59864600303421
55.729466525601374
79.58316415378872
85.73452258967309
77.36756646132484
61.609705091487825
38.494038721873665
27.631892836727094
30.77459930679837
18.371065910983727
-8.701072818506914
-22.098226937514685
-20.75747108821539
-21.875928125959657
-19.777170834695713
0.11438287126616264
27.515228723122338
39.86245672045817
38.654479497710916
35.66717196035802
18.04620666228096
-7.782497575673893
-14.392820975394118
-17.72629846937359
-27.628269142617846
-24.694914477893704
-21.50766265632612
-34.47263675155466
-54.10380830608099
-64.65890393120429
-58.34020890415722
-48.546731981034014
-40.51495331375054
-19.042034327917868
9.285018983907534
18.62115565635543
3.6348744910472637
-20.781663001235945
-37.76616953401839
-35.65185569935244
-20.13764577273793
-0.6432054692760866
15.605944006434564
8.739889088828072
-10.811139132872608
-10.026842560606184
2.674124241640208
9.191108905947367
10.125413596990533
13.991197447902039
33.09721494481757
44.655850237685264
23.495339417405038
-5.277651845115618
-29.496479138692923
-53.907088048685466
-50.60368480280793
-22.024022150847983
-5.6389270124170645
5.1065921011044875
15.844647616528349
0.9466352252826251
-22.790338488599588
-24.252122280013054
-15.364225027547317
-4.347181582191068
10.986104484843956
12.707952946631165
-6.7888771329390005
-30.521126837256425
-36.26453770192775
-17.065243220566074
10.157882305134878
45.155993773132586
90.91923027124189
103.21520250833366
61.133483317951516
7.025685766188394
-24.380687923176197
-26.528991449014143
-13.13715883505059
-8.71635627192785
-21.38298315145999
-42.81681294045308
-46.36274227796113
-12.045009461693452
26.8163785189569
28.86749589551563
5.598323804124977
-6.372541613175475
12.467821994051679
45.0952644958435
50.953236381727386
23.887893750692214
0.8334021213048683
1.1160985998155766
12.258647704300886
26.054000016951775
37.91740835519975
32.009347938520726
8.064597654839867
-7.111168919634443
-3.1259958935323713
-4.2567635340073435
-30.95198969272554
-72.33608682914159
-100.32509536376858
-96.62348911782196
-63.799671842741326
-15.96938842153743
31.37035382894053
62.48280576567074
68.01773732556899
52.736744406389896
26.68846339388963
-3.715169047358228
-24.68476209867831
-18.45009998651848
5.9127508399128175
28.671289755637485
58.38764849165759
93.30709342885218
97.50414271665231
63.49341954857275
26.541178281618205
6.799456081662577
-6.500953238538473
-19.484176002887065
-21.734140502159423
-13.786331389927831
-6.334336849074598
8.493613114749326
37.82465663750358
65.39498226461751
78.69696950551926
77.35845309545051
65.1093261852396
53.644066982691406
44.242341363589716
22.32511343843038
-16.041285584282665
-56.69244081728703
-84.3537775484576
-92.69123001988652
-81.58956712050849
-57.511789004791
-28.549306549064745
-0.6478123237343187
19.430732870324196
27.85502510705608
16.959688960125796
-9.873728572193185
-29.86421674946925
-43.843528840068636
-56.231814687414975
-45.79452890582328
-17.346233260458426
8.153995356937463
32.398594851462306
50.81726453908126
50.912883300079294
38.4729088827789
28.604702459468356
25.332062615843075
18.66459729459262
5.132945311475854
-7.3199210996190525
-18.936303317157414
-21.717771717610137
1.3253318356594606
30.920882419810347
39.49047416973027
34.3047943528043
20.204372119691076
-10.8250106413023
-53.48195777580779
-83.93043352115976
-79.94471235457463
-55.84586838414006
-34.26754170025138
-14.551161860929328
-9.243406047117011
-36.19963111594494
-80.89582380513008
-99.35046663312824
-61.544414708710974
-0.46946489339620956
40.84602579787865
62.09316991084308
62.195110122441164
43.94667849876104
24.314120399550138
6.38265570078258
2.442733618509444
25.486181302522525
51.34994891032093
54.166949846968144
34.295494135234435
-2.788054742615331
-43.44900457115705
-70.97733324775982
-85.51093565732694
-81.2624940382628
-50.86985022855087
-13.855546695644884
6.375272928553757
-3.6311594394905984
-42.92545978936232
-81.88842483498445
-88.46191107259567
-56.0870611676008
5.190835950676732
82.96136631960213
146.05659887900583
148.2883113941533
96.08168546963566
39.75720674152471
-5.602636589589024
-42.16521120286816
-60.20453273404245
-64.92725207606085
-60.62427526246981
-36.802570533284424
-1.3535399861390696
15.550130042665641
-0.6190026862352059
-34.43314977281682
-60.21135381829156
-54.83226673573421
-18.909193465933104
13.529301889977095
19.746514482306225
7.620926204835787
-13.499545362240925
-33.35300309983036
-34.74003447323891
-16.171914644466366
12.741686863789928
48.82791769274898
68.60461525585146
47.803200401839824
19.808201671480973
19.68162214241866
24.13232460786299
15.43070544650727
10.134836026738151
11.4395683816865
9.392496684577333
1.133688939035719
-17.93828162425322
-46.58552477243877
-75.79289779064861
-102.98025721091786
-119.67023918804084
-111.01446059083796
-78.88582462086228
-46.48254261691693
-35.223222982237615
-32.41607747445287
-12.903655404852131
12.596232860825447
18.705825411643776
8.078178435543045
5.125592869669141
25.31747692047201
49.89999381667761
47.360364490491385
26.55403709892301
14.833428064209903
4.991543319760155
-18.9362274423096
-58.55018915754801
-101.17535934179011
-112.25252489351165
-87.53915715903436
-65.69651399891636
-58.35763731673061
-43.70031479631447
-9.520894435253048
25.506898722151735
38.83845685663788
37.266891264350264
24.404241798070945
4.148908026947894
7.693363867197689
40.05570008997939
60.58339566834855
38.3853438425505
-12.495621548758264
-61.06150232395164
-98.49596592801393
-123.41040708364737
-134.87630561466446
-130.26194172699965
-99.49397061638564
-57.716530745323816
-21.977177060393362
13.48512678543415
47.11031347191617
82.87542741840294
107.85475000891518
80.59756096414402
13.469305023947756
-36.95278138815767
-59.08751608524078
-80.93798313782926
-105.58883466800732
-101.14598410652523
-45.80064411726488
32.6113168925667
65.64310994142105
29.04383716459442
-15.996728428078596
-18.694198939650327
0.059314841454019794
8.49602489904474
15.339386972538124
34.79709121357929
40.718650484559134
2.7292455346190745
-53.85889176319713
-74.70937932372745
-54.90809599559924
-30.57710414642657
-7.019838713985914
32.80861368556795
87.92919950488516
138.3028236267
151.6845487531575
114.5118577099043
47.74704216298929
-24.271730868934288
-86.49077790759101
-120.93529026384407
-111.91861196236786
-63.33612927535457
4.488916525800844
67.61306332578089
96.24409466496121
71.06804436177109
16.647731406619354
-22.231846897866827
-31.85246448224487
-19.080170110383268
3.4357404304901826
10.262734711227463
-5.303711696249599
-26.837137338752516
-45.210150900540796
-50.67973929124173
-33.187629300195475
-2.799487189219773
18.9028619190689
20.4402240064154
6.0930609909709865
-10.057456998859404
-23.074752539479242
-47.1236190309445
-72.54983898453969
-61.65345330021347
-17.301895050462733
26.36891259696997
52.047883932725604
53.139081056407335
34.72505205838738
4.392442490471773
-32.021129697032016
-45.539477266690085
-20.931373802681332
5.984616104338177
4.576970348558806
-10.5993948128235
-16.4974178734103
-17.992808333287275
-30.802367395325803
-44.097521125235744
-39.79811511520766
-23.099658528685655
-3.3530884123351257
9.574118466104096
12.883519772323012
23.732909739868244
39.87245893156062
35.19818902606324
3.6284557590503943
-28.564486796778798
-33.0514012913094
-20.606084104350327
-20.498190453099806
-35.69719832467633
-46.25064119502485
-38.17116601223055
-27.575443961154075
-28.839620650750916
-28.18481603776923
-21.808762448751857
-14.68347190556244
2.4848253710169
35.58487297076224
67.90529608463395
68.03622054300975
31.2733972428153
-16.510285532969625
-51.710527798695864
-54.942143885511484
-30.679491157425634
-3.9145922099348307
18.732529403140074
33.572860296092614
41.873110501260705
51.96986005050785
44.640402758082395
11.274582807289587
-24.67775605023236
-48.82707497466325
-58.499512673637454
-61.572848244815
-66.64203474170137
-68.11223804633474
-62.16071298011617
-46.63314398690698
-20.945156150556844
16.17510033251669
66.04715986967446
97.61464874498391
77.65183670310105
22.786754022190554
-34.93465787477889
-74.38333310455965
-77.71403182688651
-47.02995617774476
-7.328674707551506
19.30468387894355
32.988717880377465
37.45597025062618
20.99375699931349
-13.022891146913276
-38.936848338218965
-43.859615822774394
-31.531539916504023
-8.435034066103544
16.387748584948298
26.936960498223613
13.140314119710723
-13.134973216449296
-37.62892409982964
-54.53183862730805
-52.15546482839139
-23.205621323732153
21.16756708220253
60.020706709906875
79.12967043598246
80.03574504839186
68.24955871635416
40.961805878628276
-0.1866715406308605
-35.92417666921065
-49.02478592698208
-48.595605675459986
-50.251228169147566
-45.15768971778096
-15.672401091542444
29.157640246515545
54.59741328176944
41.120594297569184
6.6663201333308235
-21.162512007798
-25.944007133760042
-4.235952375522045
21.621716430492906
17.250358729946864
-16.416001840680195
-37.01040323113837
-26.678925184546564
-15.276362364865042
-14.276793005343904
-10.534842569058547
-7.127531004993624
-2.3970576401486583
13.130677588885835
30.385674880587906
38.86607217227563
44.73156528667194
55.22082584475536
66.34797272427416
70.39958512224027
64.81117745941347
52.142214379327065
29.674910954306725
-4.188409662505627
-27.239902666639928
-23.742655361268614
-17.649387014885992
-31.67015553272638
-58.25641185109586
-73.93338348901099
-60.489462227101825
-29.97613224435104
-4.681571735719816
12.297510144339578
14.365581385861677
-4.983594230565779
-25.531576981894382
-24.48067761274077
-6.908957924473992
4.651129173263453
1.1998883405625569
-8.185349877094763
-10.854759149122549
8.170099731145951
40.24165119651879
56.01207355548609
58.40019744549352
58.786979594161735
47.03414104698913
29.564265172703212
19.138222439498314
7.73813542798612
-12.081033930259231
-25.62442949407495
-9.349803461246367
23.08016256439397
29.500565947467784
4.717215044913621
-22.296772339924246
-35.77503845080153
-41.111666091930736
-45.12158763501971
-38.329440989628175
-8.161187859120044
34.68153239029903
64.74203960475275
67.7355049902905
51.85894503616979
35.112248799199065
20.266796513748094
6.652384143506953
8.121358977312228
21.12716403796983
23.774750694898472
13.092332912813635
-6.294002649681714
-26.990509506214327
-27.265394089123834
-5.316478502032257
18.87647514081521
38.5490841795647
44.7303730020055
23.173242296905443
-13.55258098718117
-43.34655357962247
-61.21218215744937
-64.26408522353401
-47.36897746650909
-17.118171537335
3.154276216039905
-6.859695496246323
-34.450250842423756
-54.20325062564944
-59.918241861154556
-47.081865237851446
-9.513677974281226
35.88564317269582
54.86038507406444
31.741145082138033
-15.050399819316638
-56.85332973193315
-71.57500902811812
-50.07252649425277
-5.30019604871256
36.99622342104296
50.83207972135019
29.35098344990039
-6.123894365123196
-33.39034643105506
-42.0822063202773
-34.858953131434205
-26.456161511795028
-17.43059138390749
2.8805423970436
27.422620787355658
45.91588960745525
65.88581916493732
81.99135520230709
66.0780308200144
22.72090306184955
-8.600850566239336
-12.304896811052522
1.847899908582973
18.866879609155664
24.612581811974106
24.480858999904495
25.981528885647585
21.834444569391007
15.701075553789329
16.22394753305289
21.69209867786728
31.44696723490734
42.20226028900321
47.8813449544042
46.98610855979874
35.729088998558936
11.347536857488816
-12.386030368529045
-16.205852293501952
-6.788947156361377
-3.815175672669537
-10.436138041301223
-22.535327380162627
-32.17159433097083
-27.580616511198713
-5.9141496098281445
17.824456462924942
15.140883770568115
-14.184509569892471
