AAD_Filtered_TADAS_FILE
AAD_BASELINE_CORRECTION: BASELINE REMOVED
AAD_FILTER_TYPE: BUTTERWORTH
AAD_FILTER_ORDER: 1
AAD_LOW_CUT_FREQUENCY_HZ: 0.025
AAD_HIGH_CUT_FREQUENCY_HZ: 40.0
EVENT_NAME: 202302061024
EVENT_ID: 13207
EVENT_DATE_YYYYMMDD: 2023/02/06
EVENT_TIME_HHMMSS: 10:24:47.00000
EVENT_LATITUDE_DEGREE: 38.089
EVENT_LONGITUDE_DEGREE: 37.239
EVENT_DEPTH_KM: 7.0
HYPOCENTER_REFERENCE: AFAD
MAGNITUDE_W: 7.6
MAGNITUDE_W_REFERENCE: AFAD
MAGNITUDE_L: 
MAGNITUDE_L_REFERENCE: 
FOCAL_MECHANISM: 
NETWORK: TK
STATION_CODE: 2106
STATION_NAME: 
STATION_LATITUDE_DEGREE: 38.4616
STATION_LONGITUDE_DEGREE: 40.647
STATION_ELEVATION_M: 1006.0
LOCATION: Kahramanmaras_Elbistan_Turkiye
SENSOR_DEPTH_M: 
VS30_M/S: None
SITE_CLASSIFICATION_EC8: unknown
MORPHOLOGIC_CLASSIFICATION: 
EPICENTRAL_DISTANCE_KM: 300.35
EARTHQUAKE_BACKAZIMUTH_DEGREE: 
DATE_TIME_FIRST_SAMPLE_YYYYMMDD_HHMMSS: 2023/02/06 10:25:08.3281310
DATE_TIME_FIRST_SAMPLE_PRECISION: millisecond
SAMPLING_INTERVAL_S: 0.01
NDATA: 18251
DURATION_S: 
STREAM: HNN
UNITS: cm/s^2
INSTRUMENT: sensor = GMS+/GEOSIG | digitizer = 
INSTRUMENT_ANALOG/DIGITAL: 
INSTRUMENTAL_FREQUENCY_HZ: 
INSTRUMENTAL_DAMPING: 
FULL_SCALE_G: 
N_BIT_DIGITAL_CONVERTER: 
PGA_CM/S^2: 9.178
TIME_PGA_S: 
BASELINE_CORRECTION: BASELINE REMOVED
FILTER_TYPE: BUTTERWORTH
FILTER_ORDER: 
LOW_CUT_FREQUENCY_HZ: 
HIGH_CUT_FREQUENCY_HZ: 
LATE/NORMAL_TRIGGERED: 
DATABASE_VERSION: 
HEADER_FORMAT: DYNA 1.2
DATA_TYPE: Acceleration
PROCESSING: Automatic Paolucci et al., 2011
DATA_TIMESTAMP_YYYYMMDD_HHMMSS: 
DATA_LICENSE: U (unknown license)
DATA_CITATION: Turkish Accelerometric Archive v 1.0 - Disaster And Emergency Management Presidency, Earthquake Department
DATA_CREATOR: AFAD
ORIGINAL_DATA_MEDIATOR_CITATION: : AFAD - Disaster And Emergency Management Presidency
ORIGINAL_DATA_MEDIATOR: AFAD PROCESS SERVICE
ORIGINAL_DATA_CREATOR_CITATION: AFAD PROCESS SERVICE
ORIGINAL_DATA_CREATOR: network: TK
USER1: GuestUser
USER2: 
USER3: 
USER4: 
[...]
2.26305553253742
2.228206897472418
2.213807088459989
2.200210886275305
2.225229391872449
2.307357993525789
2.441365636432035
2.618034267930293
2.825492355507328
3.049718183428991
3.271351129472919
3.4657592863636704
3.6092847829244086
3.6850797614915787
3.666605941528225
3.560137063161964
3.4224504336308805
3.2764729194688575
3.128592034025521
2.9832054965876362
2.8490425803483146
2.7498531960851333
2.6748472571025257
2.627103542781785
2.6114588602912385
2.596965657726639
2.5537055712317396
2.47011997497378
2.3451285155993356
2.170365226964493
1.9547092311515497
1.7301860744762734
1.5148188946895456
1.3133315357621096
1.1362215361250325
0.9892604304602771
0.8618002314148041
0.7376571468461415
0.6105533109689146
0.47330425425162975
0.3178323172745216
0.14711257284720952
-0.03073219948406022
-0.21648423919936507
-0.41971879886436975
-0.6441471160193116
-0.8754880568358843
-1.1062923066528967
-1.3430919057175115
-1.5743217957693392
-1.7980395856007265
-2.0052575570316717
-2.169236503291846
-2.262922150435547
-2.256545188516083
-2.148631969914891
-1.9578065983907098
-1.7131973705206995
-1.4336235586484218
-1.1454549078141734
-0.8829127324430331
-0.6496944998180844
-0.4548235036562967
-0.293620178382901
-0.1307645703355502
0.04987084294485115
0.23847436131803662
0.4129776977685397
0.555638959370627
0.6708531567450864
0.7582138008762165
0.8056507790168435
0.8066594837154661
0.7548621082290096
0.6728285692192809
0.6055812232724981
0.569377518456222
0.5684160784137722
0.6288884867993779
0.7682871878019116
0.9669494414269545
1.192999584746207
1.4036064060066715
1.546328525589578
1.5737359824678483
1.4825961352493413
1.30402708132102
1.0467070917726005
0.7395227362127942
0.38455657076583566
-0.026189615934753926
-0.46010671632748174
-0.8947315893188488
-1.2885837716756656
-1.617005283439673
-1.8405715095508923
-1.9196253143062818
-1.8623312163011734
-1.6895476330420283
-1.4734308265208942
-1.2686943380171147
-1.1094029782390264
-1.036906712332667
-1.0505437622433655
-1.129678489723285
-1.228808130482611
-1.3138108453939
-1.3846359007429332
-1.4286068807144208
-1.4275443924184195
-1.363761805473147
-1.2368025052219813
-1.0932881010906759
-0.9463844853162385
-0.7788242326343818
-0.5939508729599441
-0.3656140440200283
-0.0805676344008444
0.25882456353591354
0.6346297617856189
0.9845612954808336
1.2737370535981252
1.5108310069013136
1.703312348593273
1.8355363271397027
1.9034542024479615
1.9421928388598002
1.9868609711376641
2.034286633488239
2.0533546843205173
2.0448678954434634
2.0239624322705017
1.9831673004136308
1.94317851515405
1.9144343718109602
1.870438967215539
1.8115753000804562
1.7515955664695997
1.6962439829352747
1.6498384623907036
1.6154516676775146
1.618727669338396
1.6859203694891096
1.807444118664409
1.9745260437349978
2.1870134902317906
2.4307678799199803
2.6895899007649406
2.9411158140310945
3.170871832383118
3.3715761046090535
3.5317168388707056
3.632163417483174
3.622831424121109
3.4802717673422014
3.222798312624311
2.8958396431056213
2.558162960635026
2.23888463558664
1.965868533886824
1.7269916632850737
1.4991426292402947
1.288757090269382
1.0578418943333527
0.7730598489352475
0.4626595064935193
0.19384541307257766
0.004643418170972361
-0.1442624463040499
-0.29234329402331594
-0.46028169144124714
-0.6718010125273715
-0.9213969646728875
-1.2135411572012882
-1.5717218699271467
-1.991087960469685
-2.430463492879032
-2.8427515209868512
-3.226495126555781
-3.6009205846751056
-3.952549649606125
-4.259292690350855
-4.509565759456935
-4.697244564108799
-4.830098645431186
-4.9470210661448
-5.085286936861439
-5.241761980442366
-5.432300121058063
-5.663647577927145
-5.8968142483337616
-6.0710942603754114
-6.111105785191496
-5.997505040216013
-5.7401009194822095
-5.356387631102919
-4.9092833020364735
-4.481562884888476
-4.1451219046416385
-3.907267980076611
-3.7489628655395757
-3.6693164003503798
-3.6515483633502406
-3.6787691613439626
-3.7318345527429795
-3.8012174195189474
-3.892507658263747
-3.9957567603449586
-4.090916895173837
-4.172918551788063
-4.255930865662555
-4.315504099692514
-4.30436747327077
-4.183048404088056
-3.927795826199271
-3.554337077983238
-3.099626699152627
-2.629317059409284
-2.1903918453678615
-1.8041436154123458
-1.4866592333073085
-1.2339055994225214
-1.0562054435089299
-0.9683125897128642
-0.9325329247176075
-0.8687692332584007
-0.7854915120019943
-0.7538723260924157
-0.7734517887746045
-0.8149531088062316
-0.8536331717388139
-0.8605431344412389
-0.8040433171628012
-0.6815640055769553
-0.5460999868903169
-0.4114868748886241
-0.24932812284601608
-0.05101062462544754
0.20113987335198136
0.47096951701789896
0.687671974943172
0.8613208079851868
1.0160899961526608
1.1367923066931218
1.1657884157094496
1.105176914423189
1.0536384853010157
1.0499227644029079
1.1175118288628672
1.2885775130702009
1.5617962317757241
1.8845007288343476
2.147770426694463
2.305837309166367
2.391238943581048
2.4649957328598697
2.545675437986297
2.6001103505814807
2.6250484662105413
2.650429129080138
2.689240198601846
2.70956875667911
2.678900669703245
2.5694137440573352
2.397990563029184
2.2476943105778435
2.1781200508638876
2.2038354543489302
2.2980043101339978
2.436296323359156
2.6123666788431477
2.801725066127136
2.9621278603498804
3.077311633777032
3.18602321573705
3.2991397354386445
3.402303446985849
3.4883393258346094
3.5501604999109753
3.5955420757218515
3.6092052869607656
3.5739164580184117
3.5103108403351313
3.454202187589536
3.437715831989472
3.4783177711295274
3.5863873586441133
3.7531563070482625
3.922792340754031
4.058630303800887
4.167248385879891
4.237920471824778
4.249544333595858
4.21553834591659
4.176994713057878
4.127134382107943
4.023974840446989
3.8766477057077346
3.7058901871141074
3.5014083005963847
3.288893404424983
3.109574426022711
2.9506345804126757
2.750554380532688
2.503488580156694
2.289522805689952
2.126633770417548
2.010456060024089
1.9601453945753107
1.9644330119934956
2.041459790296505
2.195347527557719
2.380320065288445
2.546695369519856
2.681575944405157
2.804329598252838
2.9129734377014214
3.0089422534687498
3.0868335818175736
3.14042486882685
3.184497268018733
3.207246695498165
3.193761612571942
3.1193807640078637
2.9660290663393383
2.7712996964744954
2.5467391913226103
2.289288940363502
2.013906463426637
1.700291998403362
1.3343667346378159
0.9361515776980799
0.5380590474853164
0.13869202218615975
-0.2722083304385909
-0.6402178829952444
-0.8953429285332172
-0.9960514259237214
-0.9387505152967683
-0.7509173423267563
-0.471202701872518
-0.1748055621459676
0.04696281706093945
0.17057050180416927
0.2205606021039258
0.18599855264128573
0.035025501395259166
-0.2113752440419894
-0.4954624270066968
-0.7922368883807023
-1.059519839870347
-1.2222337629393916
-1.2335746093964488
-1.0763620442790192
-0.7295579003444596
-0.1811888865169528
0.5220113419498065
1.2943057436831422
2.0694068099778664
2.802252290478966
3.4278840609016625
3.9147355713618874
4.27957921525609
4.5198574589070795
4.642260475599702
4.653265783223383
4.557485609201173
4.372028978656433
4.0793951274262765
3.7034317662777947
3.308428534325238
2.931097930893756
2.599360302275149
2.316543859365791
2.093183732138845
1.9137889520310989
1.7541950541513323
1.6289946739577723
1.5171674072317318
1.4072296554945414
1.298158208291994
1.1597107835253613
0.9401310109758707
0.5932385921949138
0.14419091389319535
-0.3715586951984733
-0.9681583826645764
-1.6848543027741867
-2.5276597772286107
-3.4483487494654033
-4.397001357267584
-5.334083146357158
-6.2338773055657875
-7.094267923197318
-7.8809602266724115
-8.524377137798567
-8.993428406841513
-9.29199349044732
-9.439075543891265
-9.451430537771644
-9.360043279541708
-9.204655921124656
-8.988722624368167
-8.722582463313886
-8.436364717615048
-8.083444729097726
-7.578948081757161
-6.978935496240509
-6.375820186252385
-5.7719899191552715
-5.12155832134513
-4.415445189159202
-3.722667543018093
-3.066288649419688
-2.4139203004584453
-1.7489112004874665
-1.1042501938880083
-0.5320818007789212
-0.05822820727955346
0.3302836733084939
0.6460641276565531
0.8838525473193718
1.0776632980854284
1.2573271693445591
1.4208349306060108
1.5545512336075782
1.6550975061864854
1.7295594247876636
1.7990834441888603
1.879575066991433
1.9558658514634444
2.0317610377429105
2.1215892380294865
2.2047066561962687
2.256554602555105
2.2906767322425337
2.3166865035338544
2.3408820456002775
2.3839683455173937
2.450850479139492
2.530357102955063
2.5991407327132086
2.6436281935627703
2.6880221006498335
2.7366682506212525
2.758348724629167
2.732559663699058
2.6735628560723463
2.657848561577047
2.6973593782850234
2.7353393496966065
2.755001740794828
2.749448297079587
2.7481106589187765
2.765793297739112
2.761613275584597
2.7156582562462193
2.660882525973516
2.6297283327263323
2.5717440494121924
2.4227168504186487
2.211205697507916
1.9925878819993927
1.787899425946264
1.6377437179669387
1.6036368826873957
1.7274954435085694
1.9938983833258137
2.333740473032842
2.698912810605365
3.051710271980464
3.3472660575826643
3.585606265240061
3.7944813286811767
3.985908191314447
4.145391977540005
4.272541971461581
4.394280293764069
4.51632791470644
4.638908009141442
4.775817546443197
4.953315540880329
5.180876596543233
5.443179105511462
5.7281425841691265
6.025399309243785
6.335488892395731
6.626365387380886
6.857158111013648
7.01940364716671
7.089353510130259
7.05363643776581
6.945165763034939
6.775981918790024
6.52717538681805
6.197970195261257
5.789342981027563
5.321167291516369
4.8199210697820085
4.288871941678263
3.7321122505934072
3.183476726365292
2.677270770516567
2.2018270326590317
1.7747611449851373
1.4350048990775377
1.1507970887692063
0.8981868481412659
0.6881032707119888
0.5227245632958923
0.4016222615116534
0.3121727367721708
0.2548425291978371
0.2128601228892557
0.1473017484200911
0.0592075027998316
-0.012515517279516716
-0.04380167906140601
-0.02582483796808146
0.048369740862635846
0.16747133520622345
0.33203184800569774
0.5575319194903191
0.8725947287440186
1.2853772906378669
1.7544682936739675
2.2312363287985457
2.7033609849315177
3.1426357645235283
3.506465161937035
3.7988592220659325
4.006584201423366
4.124617736302063
4.179434629996005
4.195929527772875
4.1826944202663805
4.147381059080929
4.104177590680021
4.048238579492331
3.987544085624697
3.944107197182338
3.960182993341731
4.055287498896623
4.236942825411792
4.543245198008727
4.945904568089565
5.361307802455748
5.737896072724643
6.054369250754599
6.303675458005536
6.462716378637349
6.516021823711077
6.490323397259851
6.3963147372594085
6.225192689091427
5.9908248605054535
5.715112214408437
5.415621685153827
5.1238386069882464
4.86448789184639
4.666652810475403
4.539498031788584
4.448021711663532
4.380352074314771
4.311708601813692
4.188469892734032
3.971219199300154
3.6637660725813315
3.329633483626615
3.0345482964173898
2.816117174886754
2.7263546607047755
2.7966977928313588
2.9945166717608127
3.281240946888626
3.5979005732918647
3.8805601739566606
4.1187088885360685
4.325634975355349
4.512092047514274
4.647972060782129
4.70991165408887
4.6911572624202105
4.5534048087410515
4.2838898098745
3.860417178762299
3.280727870307371
2.586115786481997
1.8097357683604363
1.0033023820212301
0.2044625678589999
-0.5424635283234804
-1.2072337443418384
-1.7824990844011865
-2.234589796608178
-2.5599544889676187
-2.79910235606851
-3.0284295742816227
-3.282976927750999
-3.523507259788201
-3.7120116342889613
-3.8191539620207644
-3.828892019040993
-3.726102680376893
-3.5069865416335917
-3.2123518907318913
-2.868844673248211
-2.477137369782524
-2.079324990684509
-1.7263147861254697
-1.4377644556675047
-1.185302944397917
-0.9540792332950057
-0.7749104568015468
-0.6331767447410523
-0.5268198896312482
-0.47698391654489114
-0.49472703084187514
-0.5564361609922971
-0.6164094773893688
-0.6506719338683432
-0.6201426675960912
-0.5113431902538021
-0.30682223167474
-0.024890141746503433
0.2708899848201896
0.5450143409851781
0.7671946321845066
0.936694657421224
1.0404934062647817
1.0579370355958375
0.9989497743781163
0.9105897745617061
0.843254331364878
0.8051615619784089
0.8000958993335474
0.8142985145439582
0.8509982911418993
0.924761924830649
1.0239800902626108
1.131375635723235
1.2412151888809588
1.3613075587114536
1.45356520751677
1.4880471045763795
1.4552322342330275
1.3340626737532164
1.132322580814991
0.844480162281265
0.4578774143912303
-0.02786768535155787
-0.6260414907166005
-1.3266807880084672
-2.0828839155467778
-2.8774204056399224
-3.7175889544559975
-4.580564453087971
-5.428132871435059
-6.237050500330269
-7.007080980975662
-7.714336301287102
-8.328399720644757
-8.832239989853823
-9.196571159830132
-9.430738859008805
-9.54362315745935
-9.554506978358852
-9.486351569474273
-9.324924362989718
-9.113736728304687
-8.886032654606813
-8.638268900675586
-8.3901257817529
-8.15706692279008
-7.934131381724816
-7.693252771310789
-7.406815876436862
-7.064676290513414
-6.693874921939426
-6.336568403747097
-6.022425196418397
-5.773287806872137
-5.647450802010972
-5.668468213861399
-5.767584054168292
-5.933533085077461
-6.15033322147772
-6.361333270847147
-6.527758659735604
-6.599287886216692
-6.588217446501655
-6.484179258190245
-6.26562721404867
-5.940654979835858
-5.481494598736333
-4.885734038045864
-4.172754577477353
-3.4446609558615466
-2.7688887379836764
-2.192725818408333
-1.7839770931439354
-1.4997307766535932
-1.4003097719451842
-1.4816393670294874
-1.6164369636302305
-1.8062129145037813
-2.0322394464645575
-2.2557536354469603
-2.4923592662734557
-2.732327489718745
-2.9318094764419116
-3.0726414059088776
-3.128931935935837
-3.0552672602673123
-2.8625095157246565
-2.5787256711532933
-2.244721609405281
-1.8968817274659122
-1.5733604513389048
-1.346395123289032
-1.2007701284642909
-1.102296705966221
-1.0680524670323714
-1.0866541759736197
-1.1228153894175144
-1.128995601272757
-1.1002487582699443
-1.0812987766824722
-1.0856258061481479
-1.0726188201548874
-1.0322097720920957
-1.0001495476809108
-0.9566703570963144
-0.8158433636220167
-0.540088763299127
-0.16568741962140737
0.27208731016943216
0.7289112796906949
1.134210624384118
1.4550280753233624
1.6787376749348544
1.8047403233274169
1.8901982068675096
1.9647231353596706
2.05501524399279
2.160194986539406
2.22875279252802
2.262673473003485
2.2604414469894
2.2325142131087703
2.2284971112188714
2.2805154536555428
2.3999222231321107
2.594499902654927
2.8505115635985834
3.1444282213546737
3.4724501784566373
3.8256526524299317
4.196757758667443
4.548866375205371
4.842203308698769
5.102424683106653
5.337136842528978
5.5141203679051225
5.593270903925919
5.558967749405779
5.455868245097823
5.2992400485320745
5.099667485014236
4.8851790666270665
4.6760410155195675
4.508567925824556
4.361253606923487
4.207955407083479
4.050814307095915
3.9073644808894326
3.792364115127817
3.6649314602129075
3.5045451572124153
3.295659205314454
3.01455239665466
2.651122864493455
2.1936556820748785
1.6589128362530678
1.0869495187846108
0.5139119848760052
-0.02528382349419414
-0.5333865225279363
-1.0476717164466571
-1.5352570204533198
-1.9668833065282916
-2.356191285387501
-2.702222473014672
-3.0006678961708593
-3.2258135641797256
-3.356425325606864
-3.3621818807563613
-3.2631108032570952
-3.1337236791919443
-3.0132022387863078
-2.9390089935577226
-2.933324523844321
-3.010767536922191
-3.174286977452221
-3.384363186077191
-3.6114124936850263
-3.840264545118974
-4.063934338742982
-4.283635231983508
-4.4854362006071185
-4.641196030224748
-4.698716955804132
-4.6261915241706415
-4.452251469502896
-4.208228969670081
-3.9398799774151367
-3.6939436628116984
-3.486567757096116
-3.328651314269394
-3.176131722983068
-3.0092762481508375
-2.847559411089929
-2.6710729802999142
-2.4987926679011245
-2.346334945513479
-2.194346722875906
-2.0450271489606675
-1.9084200012020656
-1.7584218797204467
-1.561315709798478
-1.3435676191036396
-1.1481966124472212
-0.9950080874441319
-0.8793153332019089
-0.8310401789520102
-0.8841823968880378
-0.9890773887568638
-1.0993428066144533
-1.2136697300852712
-1.324092880043816
-1.413314284372838
-1.4893979161465063
-1.569435840277592
-1.6490366335410713
-1.7004561387356254
-1.6814417512508946
-1.559372525613973
-1.3099355777016972
-0.9446216357542528
-0.5111554762847228
-0.057337761361173877
0.3468473430038381
0.6499165872292394
0.8567375350105236
0.9958243038567808
1.0896731667521709
1.1520313443802261
1.2282970509768094
1.3523665647629246
1.4927820050176464
1.615147914850231
1.6921285112357454
1.662297487310972
1.494251625166607
1.186849524330369
0.7639256534015546
0.2857374003115106
-0.21670393048568187
-0.722666501357736
-1.2340643312212378
-1.7563775307091163
-2.277975241215014
-2.7973292473974674
-3.2907301755811194
-3.735223902555125
-4.1292752100828505
-4.448705706029865
-4.662686820328878
-4.783422122096249
-4.832161781303879
-4.817275252318059
-4.747393743145614
-4.6427494094914925
-4.537613547446187
-4.4741236810064375
-4.464844046974654
-4.499926687775577
-4.568403943144897
-4.637958122816751
-4.707192007376061
-4.779364057078737
-4.818716581558782
-4.824702274350277
-4.852148784716792
-4.936801727348369
-5.076806447629927
-5.2463281204019925
-5.4357048626511695
-5.660384663910236
-5.868343263612925
-5.995356915753066
-6.030193635213682
-5.9707508183924345
-5.819887039199949
-5.611830235025
-5.409251685393731
-5.21925891382312
-5.035659735713117
-4.891761697041119
-4.7987482609957315
-4.776086396244452
-4.803717143802804
-4.836664955086861
-4.875452037002606
-4.895893963605478
-4.886821584836632
-4.860843338148628
-4.8068838258178435
-4.703797960236399
-4.548545015441212
-4.366895338427894
-4.176175435201148
-3.9828786263311673
-3.7799858606233623
-3.556982247044653
-3.3372889163046784
-3.1413169681464677
-2.952947730632347
-2.7648817782650617
-2.6225640803285075
-2.5642991764146577
-2.547288754534465
-2.5416679302747758
-2.556915944411163
-2.5828723554210082
-2.6393733924739204
-2.752898546578422
-2.9368866330904115
-3.2027549883492474
-3.532354407168137
-3.9200687132197807
-4.350198470304035
-4.769102727534359
-5.147265938018715
-5.461979160950638
-5.703191786721238
-5.9073434261146325
-6.092238163751076
