AAD_Filtered_TADAS_FILE
AAD_BASELINE_CORRECTION: BASELINE REMOVED
AAD_FILTER_TYPE: BUTTERWORTH
AAD_FILTER_ORDER: 1
AAD_LOW_CUT_FREQUENCY_HZ: 0.025
AAD_HIGH_CUT_FREQUENCY_HZ: 40.0
EVENT_NAME: 202302061024
EVENT_ID: 13207
EVENT_DATE_YYYYMMDD: 2023/02/06
EVENT_TIME_HHMMSS: 10:24:47.00000
EVENT_LATITUDE_DEGREE: 38.089
EVENT_LONGITUDE_DEGREE: 37.239
EVENT_DEPTH_KM: 7.0
HYPOCENTER_REFERENCE: AFAD
MAGNITUDE_W: 7.6
MAGNITUDE_W_REFERENCE: AFAD
MAGNITUDE_L: 
MAGNITUDE_L_REFERENCE: 
FOCAL_MECHANISM: 
NETWORK: TK
STATION_CODE: 4614
STATION_NAME: 
STATION_LATITUDE_DEGREE: 37.48513
STATION_LONGITUDE_DEGREE: 37.29775
STATION_ELEVATION_M: 771.0
LOCATION: Kahramanmaras_Elbistan_Turkiye
SENSOR_DEPTH_M: 
VS30_M/S: 671
SITE_CLASSIFICATION_EC8: B
MORPHOLOGIC_CLASSIFICATION: 
EPICENTRAL_DISTANCE_KM: 67.35
EARTHQUAKE_BACKAZIMUTH_DEGREE: 
DATE_TIME_FIRST_SAMPLE_YYYYMMDD_HHMMSS: 2023/02/06 10:24:33.6674480
DATE_TIME_FIRST_SAMPLE_PRECISION: millisecond
SAMPLING_INTERVAL_S: 0.01
NDATA: 10501
DURATION_S: 
STREAM: HNE
UNITS: cm/s^2
INSTRUMENT: sensor = GMS+/GEOSIG | digitizer = 
INSTRUMENT_ANALOG/DIGITAL: 
INSTRUMENTAL_FREQUENCY_HZ: 
INSTRUMENTAL_DAMPING: 
FULL_SCALE_G: 
N_BIT_DIGITAL_CONVERTER: 
PGA_CM/S^2: 206.047
TIME_PGA_S: 
BASELINE_CORRECTION: BASELINE REMOVED
FILTER_TYPE: BUTTERWORTH
FILTER_ORDER: 
LOW_CUT_FREQUENCY_HZ: 
HIGH_CUT_FREQUENCY_HZ: 
LATE/NORMAL_TRIGGERED: 
DATABASE_VERSION: 
HEADER_FORMAT: DYNA 1.2
DATA_TYPE: Acceleration
PROCESSING: Automatic Paolucci et al., 2011
DATA_TIMESTAMP_YYYYMMDD_HHMMSS: 
DATA_LICENSE: U (unknown license)
DATA_CITATION: Turkish Accelerometric Archive v 1.0 - Disaster And Emergency Management Presidency, Earthquake Department
DATA_CREATOR: AFAD
ORIGINAL_DATA_MEDIATOR_CITATION: : AFAD - Disaster And Emergency Management Presidency
ORIGINAL_DATA_MEDIATOR: AFAD PROCESS SERVICE
ORIGINAL_DATA_CREATOR_CITATION: AFAD PROCESS SERVICE
ORIGINAL_DATA_CREATOR: network: TK
USER1: GuestUser
USER2: 
USER3: 
USER4: 
[...]
-3.1536804393337836
2.8251114695429376
11.878698166023215
20.087813806261778
24.11597064801054
20.87097162936225
11.005199049379248
1.2376205707377599
-1.5840130503755407
2.603007264414242
8.547329914376196
12.104604422027277
12.324210574280158
9.298561023258324
4.445714952040361
1.1448844208392017
2.64323312627404
8.200936360717293
14.510629898173056
20.234268847707817
25.0375692237619
27.797187419195332
26.87791019959537
22.766164832661733
18.081230870517864
13.899917606168946
11.105716761293225
10.766114526039464
11.774219895420522
10.559624736389585
6.275629559526973
3.6126538998104243
4.8397562677028825
9.480765510925883
15.401869772968237
18.267365689327498
17.421267015435152
12.97828659790711
5.0532007405046135
-4.803318612451174
-14.085720443720403
-18.451689160149414
-17.43111623360354
-12.523156879682679
-5.048226059078583
2.1447860049051535
6.212186258910377
6.009019018337632
3.621661532239978
0.7105339510030074
0.18973597247809906
3.456031640097626
8.364714711722451
12.494146674340497
12.180082376767622
8.120848593090432
2.5968975096010096
-2.684406932646657
-6.606686105564321
-10.088076987495588
-12.163476496675946
-12.732345978475797
-12.989331317833306
-14.201765945832758
-13.953022205199316
-9.06305709040071
-2.0832840791312828
3.2580038099671036
5.127128205401926
4.651145003408671
2.938096854396602
0.8704949502580274
0.6502110872562982
3.518066447184617
9.753692871138552
16.520444315627106
20.200566644603857
19.925872048048312
14.676748998934626
6.651490284294559
1.1477880064979358
-0.2042468818643811
1.388216083454114
2.298526921159216
0.455852410860724
-0.7029138472832241
1.862445794211305
4.0800667238996455
0.6049435656577049
-4.006169274674548
-1.7583582616812656
8.723000185410452
21.507872703530488
26.674550868623992
19.669188973260074
5.645158085521225
-6.939894683827208
-12.517840296658365
-11.44498619819007
-8.500118028268464
-8.239226666380484
-11.433262704065909
-17.787002742697005
-24.436079113903954
-25.071339670637766
-20.130064205811387
-13.903130671871331
-9.714931705338532
-7.090340790467292
-6.162643476889366
-7.640443884334094
-6.022828609569802
-1.5066590812556648
5.5896464941103
13.42395417321699
16.11689384275525
13.202677482454655
7.019934737334094
3.7233207578776155
2.365305425111029
2.222460318558251
6.165016380219762
7.927582038309173
2.900953700746366
-4.482818714122121
-4.45611655533862
2.5543336028861408
6.792171508178962
3.5780016760987903
-4.7437723341976685
-15.459448171750678
-28.938028562349412
-38.80122253315536
-39.510189855443095
-31.091472065305716
-19.041926049196984
-11.3853052530428
-7.036464054825255
-7.030999665714957
-14.85314542940415
-25.951180781110764
-33.796578494824146
-34.653008041618634
-25.985459072081973
-14.127065116402104
-8.5105812986437
-9.422925198318179
-13.97941714312195
-17.305383928395667
-17.803527346357598
-14.358762364983477
-6.379137453744631
-0.48337254976955013
-2.3734233922577705
-10.275833476946575
-15.466251751238158
-16.481109854925165
-15.546247629871516
-10.790598068807402
-5.106443454806714
-1.4971661395881948
-1.6307204298935898
-6.411080349295876
-15.91183530972475
-25.706213336174216
-26.618760444374594
-20.4198983421759
-13.51571398923835
-8.963557037214729
-7.654418113249173
-7.443058529204282
-7.37597269617802
-6.350836999551296
-6.337892280648702
-6.139020149308302
-4.01802234366746
-2.881091030038853
2.74614073920827
16.925262103438964
31.538685848774406
35.41626310668322
22.940410514145245
2.099957269313479
-10.124675719282825
-6.362986995657149
5.076005545507078
9.665248482611942
5.3474162534542415
0.651625629816371
-2.4199108642165874
-0.7949893830054651
8.429450150298639
15.261591075454291
10.047552201138336
-3.4958284191024735
-14.447946896829535
-10.385975682284663
0.3771009600839094
-1.9509078034816167
-12.118209757667607
-18.710212683395408
-17.644054421810715
-8.630429855761031
2.1886936988554333
3.7796967009928055
-10.189106605498395
-26.066802255675608
-26.918758375344918
-14.291795068954071
-2.975725135534424
-2.822357867508841
-14.259065910398244
-29.18484565207626
-39.836068764757286
-44.30800263948071
-41.08085245310037
-33.58772162684252
-25.94641309287445
-23.020277031445755
-24.128721450550916
-27.51374830877406
-39.385553804817675
-59.24688494660898
-76.97143340268336
-82.10883854519382
-75.4190391483103
-63.104094396900706
-43.35924634137784
-14.382093812568908
11.03621509685742
20.313477034885793
9.887520624376602
-11.040217694779868
-30.37248013347059
-50.38191257279578
-58.37024079869889
-42.74832134058124
-11.481394321669926
15.861373377481295
29.15702408960489
38.98553161597208
39.039809733730976
25.909985245499172
1.2528056169319528
-25.881414349558785
-28.773172832539565
-14.820787067193212
-4.207075664677271
1.6369841511528425
5.500074404545636
10.962139189159775
7.946478688403274
-2.7606179097028964
-6.621329533399916
-5.773274402152119
-6.126216424336062
-11.907845577436984
-20.674193563610512
-27.87606177658042
-31.917383436947755
-33.66825201926238
-34.46600647839241
-31.126619008143223
-28.930529104735403
-30.063213899065172
-29.194556899956382
-18.958236328109894
-5.126322364113846
-1.005023874017243
-7.7572293020617025
-25.07321579102347
-34.82296439555396
-27.475012649712806
-20.67154902920867
-20.61159290346237
-20.387122054728568
-12.609506896441166
-5.461196710610295
-6.304308344580609
-2.806595509681127
2.882126252076713
-3.547016535161111
-21.393088406953847
-41.272801552772684
-56.0087039387729
-59.753490314901086
-45.38988785424673
-16.740092046328503
3.4936193669651154
2.612557314907437
-3.3189641344547742
2.4111395090912318
21.02897472987259
29.662655948604097
5.512507697633339
-34.232756419114565
-58.41434571463093
-51.45839255249744
-25.020600234613333
-8.3440276114579
-19.34109268294556
-51.28744439669427
-81.09672810515828
-84.61295137291467
-56.49541778158074
-11.94907683625406
37.270338877475595
76.71906229902586
89.94604463449915
54.82142115869545
-7.243530405553136
-45.69643592699708
-59.27434549832885
-43.07239039189675
-18.68483476374342
-11.616582456633118
-22.413717375118974
-52.29996036555246
-59.35390411982153
-37.57537184153034
-11.352135297564779
-0.7756922534378073
-19.123452284890124
-43.00500485728808
-57.37990169339442
-63.16032835218133
-59.17370313688155
-49.876271146246005
-39.60197623988663
-23.640220523132704
-1.7966115482610123
28.106921921989667
45.25632373527651
34.13432998150657
4.185994183175089
-40.2384085265876
-71.69680411556851
-72.84565469088136
-46.577298413572926
-20.768693578765834
-15.908632658530859
-10.222144457856334
6.905807332818841
20.80890685265739
7.747613558774495
-21.522292700829023
-42.462908569868205
-52.42331453649786
-55.22484885200658
-54.555697659225935
-36.345109862199635
-9.561990744558159
-11.530030902554376
-44.79302052813746
-87.85068554114305
-106.50637836608207
-102.6909381577349
-95.49809502622858
-69.22490572135719
-37.59989615241422
-0.28354967011485643
35.92264437293429
42.066058132983805
21.15986175149367
-9.580393876428428
-37.19812406865847
-79.46868048244592
-106.46948556145819
-85.42692098732145
-32.63023404638689
29.75048876112278
58.482288196466506
37.454736961233465
-20.093334061117332
-62.36086295310718
-47.219210601351186
-4.655358011744273
21.270789555538695
7.102920300363271
-36.988692471156234
-76.37814233494349
-79.63011831600063
-39.660518307785864
23.30623827837008
67.29663695220245
68.89672468734203
17.472591862759884
-65.51090058288793
-106.31136926589205
-93.10437701876239
-45.801773116459294
-0.7015330625878677
6.463108437390446
12.120592788467762
20.812183883250643
24.006830807553804
25.8962259788405
5.3169753960366295
-23.122206554043153
-34.517618021070675
-30.949733869679626
-20.04320915617136
-12.899596439737884
-9.09177326523805
-2.0955495930115267
1.1571591459382826
-1.6136118040723737
-13.79373710085669
-32.050043062108855
-46.59275970760833
-65.58700980309644
-67.74704829115441
-35.2429141883675
8.650327705446916
47.36683605546962
57.659596193316034
41.73151007343734
20.739154701166974
-4.016136328697781
-13.054734545011588
4.661084511308949
37.520939722914655
67.14671204170068
74.90940137465813
65.0641032031931
40.84749417403238
5.927130489771926
-24.511937643678834
-46.39761610781008
-42.90133489117035
-8.087364040022107
38.981285542603814
80.64063766846338
91.76210662311681
60.21657455504856
-9.383748676075756
-80.69696484103349
-112.5884365910445
-91.19662985350742
-22.201167749197033
42.25468125557276
52.50824560239757
13.630336287177023
-36.03925696820617
-68.05238881033547
-72.91484986357281
-50.5984416714067
-18.213743372113164
1.6347807571558413
-3.331870694060865
-20.23028851754874
-26.374323077552813
-18.463377540823373
-10.902477575499763
-14.422653111260583
-25.091145777817935
-32.84098067234734
-34.01239572662834
-30.180170829585904
-24.64860388777331
-26.37846569312146
-25.04576629813077
-13.075931221642673
-6.121012439275403
-8.079402923350546
-7.4015624268120375
20.121609858935216
53.56918811069581
48.63373694896594
13.058704909143891
-36.610790917416224
-67.81752255628162
-59.45866317620406
-18.517075999606146
33.21919127610639
45.82871276353864
22.269969587005832
-15.420464485690784
-51.02206306626417
-76.16168403563351
-102.00339888363199
-109.03502083605946
-98.97141552097985
-70.6769395620673
-29.47259789287833
9.285065163837375
49.731950937806396
63.468713579639875
47.787705669868
11.728257710297527
-26.715478948705
-35.92922100172533
-16.053361916703988
25.100865080595252
39.073748182200106
12.142026694831022
-21.098755283745714
-45.80856134842237
-39.88392021596019
-22.202903324676335
-8.231879108238108
10.090864394643585
22.20869487900906
36.3499204102377
37.677866518309884
11.422521210479143
-22.44952067450061
-52.88400241746755
-58.546422648687816
-33.38887769472062
-0.2130311874592892
25.9224240540159
36.66598276082415
33.95465831371132
25.499533140720104
22.56094310193702
20.146030433534463
-2.3241627012342474
-36.8072929773427
-48.54182024268606
-13.904217972715044
48.78769993283926
87.30448057211235
82.46035445504647
56.411426099359836
11.705964079475189
-34.706736848705305
-56.49231046860389
-54.7558576648767
-21.630466318251127
23.30238326598892
40.23046470720363
32.551084933806315
15.918676188877553
1.4276849042428084
1.3512917300479912
5.943771174590452
9.244584864200576
8.67265319578066
7.221247521553641
20.0709542938437
29.779219573203868
24.816086420994907
-2.786566136789674
-47.444472788470364
-61.096869843806935
-38.23286812881536
0.80737197830346
30.40714351066738
27.756081815089964
5.318581064457948
-28.38557306962401
-57.01959844719244
-67.66933089669097
-50.939011360828054
-2.495414067975863
41.67624005995692
60.70736146050672
61.16828083888499
54.50506270381791
45.04230380056271
26.733584685125706
9.03042659588753
10.527782814352722
30.68069533199303
45.94363685114133
52.189856148429705
55.37063650088878
50.06816591130965
25.69750681265179
-14.842834721102964
-42.714070049687045
-47.02253859225381
-19.663962412502254
37.964991305337094
89.40768880981635
100.86221983958735
68.14606897391926
25.89614104583774
8.81097609323082
18.244019810012688
22.488026150793573
-7.291540943072042
-52.93254182821206
-77.51555874580252
-67.66781905783016
-22.01752880884179
41.13941768851316
74.71777480584461
72.633708395974
50.77353157980805
15.442476901529691
-0.2550896796919884
5.64020489795638
15.393204978180426
21.95121197116786
7.905524308199979
-17.05832296061737
-34.90613487289729
-39.64715592655029
-21.28640192955468
7.451768549561521
26.773004484842495
34.195586092791565
28.195551254265702
29.565436571064154
43.73480596214172
49.77118300860008
33.187223856380236
-3.0481397761876443
-14.793359241639934
8.400968636630875
38.20730140891863
46.35861410855242
28.015180936087063
16.727433206240555
16.94594041269346
16.063994252828667
8.726750202856934
-3.8221426798989513
-4.351163806630607
18.536668249736703
62.399333780161655
106.45861940999187
126.789369436084
124.16049620501168
98.62374135737919
41.82402153183959
-32.59939445034271
-82.82183300388773
-85.21046265486486
-58.55252346410837
-11.06654325393257
44.27831039399176
90.30338727898098
119.59057474476447
116.59632173058172
79.6140065661772
19.69348017961502
-26.175475661902645
-44.941786244549434
-49.56048385901535
-28.653081769830255
8.086756718992584
46.423157100451505
64.93575960963206
51.419799728336024
31.694606218261757
9.90490782271804
0.6019089658129052
16.964606996723536
43.82887890148077
63.80424982933389
55.825632704042725
39.99755432575331
42.53468435761968
61.56707370916379
76.31404318940729
51.036873067474865
-15.133439656819519
-76.91146253385274
-99.66058534623842
-71.42043146897016
16.451044333576522
110.22085514702977
176.41577746593597
207.4392801229699
175.79463182100136
127.19598086080518
72.03253203989088
24.902374693914897
23.272019976937898
32.76463686679533
36.02225354639867
20.48447243495396
11.096741527422758
26.975080946049243
28.921754284018753
14.658012948312813
-18.86401620897572
-67.77490897286056
-92.15428195179447
-82.46122678174147
-40.95193313809475
23.868840611544062
74.09509374372949
97.11612788132874
85.85642599971732
40.571244895253606
3.8589641321964407
1.5421713214293853
28.620215170309685
65.7622375423698
98.4426803610454
102.72011920642512
54.015153188828236
-15.444632695375043
-69.24392292391438
-90.00530100288553
-75.83440848282407
-36.36521136263365
8.731297371264272
18.39813520527321
-1.9442675220647554
-34.02037073920112
-56.754086980231996
-49.1611454064389
-39.95249451078952
-37.202217780531605
-28.34895779351807
-13.527530175339878
5.81718570889973
26.824421302605447
42.78573233886586
38.222355212889276
18.705001793180724
13.491514959813024
31.53239250279298
61.3919496285073
84.36364399940592
94.89292364052571
104.52054212557233
97.61259279410372
67.81861207599388
36.73120994494566
12.502905367771433
3.4330341755712532
0.7341615611249528
-17.39533020635784
-33.510703162395856
-37.87735723070491
-37.75069097236593
-20.238870026283344
3.9182829880123795
20.105443396382963
23.75235396782606
5.707595136212304
-25.318682963987538
-44.80067180385922
-32.544926526568815
-1.0577209341901739
29.15454114938549
59.21859029703707
93.34808793249653
109.1999179946838
85.40530387218388
43.11205615812433
12.406717542666772
15.113091691385952
56.98489384357723
102.44837579301614
97.28410260059599
33.4055885987448
-35.70693733379358
-65.8128594928377
-54.100451200323725
-9.360819998369486
28.641724000829065
29.191934115547305
-1.5996521071722818
-51.286161491311454
-63.41440407822949
-22.02787746643289
33.15872943052248
78.54627842623916
85.89776990068124
50.69759863487282
-5.378816475376163
-43.044155147971146
-37.070562240089366
9.842912372428392
55.65631712075791
52.85302487971527
26.496339268500865
-6.636703006580865
-33.43372095216516
-35.13632425382383
-17.83354044229485
6.048998683023493
3.8582608019346023
-11.251021127894925
-12.443635769651578
7.791084740893145
48.790745922957385
82.91797659821725
96.4554365490121
80.62889371748223
35.98661123065
-12.297994703524376
-38.9705083620944
-39.53025696401554
-19.370756607257498
12.397010464075956
45.94095719456754
74.89244003991487
82.42732699182034
66.36899455274181
39.37848841426316
16.789712375439862
3.8649907460380843
-1.129492020907291
5.002563297901036
15.17255288608878
21.14596582473308
8.485342144936812
-13.996183736077333
-22.910894641952737
-20.4065305732811
-7.008552269702349
3.8834634838610205
-0.010279232279533465
-16.735269479772473
-45.5743070650611
-64.13086094535684
-60.00250274392926
-39.175069349525664
-10.548529199607875
10.815613211520347
25.05864054076919
33.80337148177059
34.191429753308626
27.915658779427947
18.36669691186372
11.710686813359613
6.625100726425163
3.323418358064845
9.051959671403516
22.509206312243602
35.212854411844475
39.692974331839096
33.98575699754676
17.168582081407912
-7.734494040611611
-31.810782742299736
-50.310304952611325
-57.0984898474401
-51.63016400007607
-41.39419319889881
-29.45319052734986
-14.402264277471833
3.4229632251547355
13.832618443839058
4.642482740500315
-21.73558745983997
-48.401618432397036
-62.48551349488934
-54.8641132849597
-18.569621770320314
23.597756981613248
36.9467035604264
16.445970012095433
-18.015743498445207
-34.06395425379099
-20.709025346721273
-0.8242988777908768
4.366846404223784
-13.67800448811532
-39.91588549733906
-53.11942387103797
-48.20588295283498
-31.30255116205505
-22.87932183092575
-26.35585588145503
-26.772053427218435
-17.068199650568133
-0.03234464233972975
12.065594378940594
15.5464645701567
8.452928733709008
-4.526282623253094
-7.090796408319378
3.061500552824593
20.947043108145426
31.374620364046955
24.944279390353255
10.656071493134554
-2.6325842187870934
-9.237029641126544
-10.218847446950418
-2.8454828270522143
11.668416319404248
23.56886051353419
26.837813985464795
21.744266968395568
13.746766854291447
7.269089129944181
7.939648231393754
9.208803263899805
1.8098125574308195
-8.665324478019102
-19.674252600457244
-27.173873199392364
-27.96164713264011
-30.78335186393789
-34.75850930195578
-33.346872898117184
-30.24298186790641
-26.46521070451966
-22.132300491319427
-17.825105554461942
-12.035931392211248
-6.462759086910826
-0.16106178417056158
2.8197231324456875
-1.3792906355900407
-6.726182516918769
-10.88396068855745
-11.050936422305432
-3.315055225214186
8.775090483768158
21.355958302210354
28.046278520189162
21.046175420505435
5.965790597758914
-7.353669308400631
-14.490065819432276
-15.367804982422617
-16.782473214438117
-21.7512638580494
-29.118566481385688
-34.01859878144045
-27.710259510592056
-11.004047981604726
8.708950406750155
22.976649199747335
26.277362964778956
18.9617886552059
4.600484858495038
-11.362685919491069
-28.892225898578094
-45.813688920306454
-52.5135381629006
-46.924073873754025
-36.38662715117314
-27.73145751846635
-20.33896285439768
-7.53499297186428
6.563705238625437
11.210916809446749
4.390175577745802
-10.981962886790662
-24.36916824231283
-27.762494268224437
-17.217505972788246
3.828287496592951
18.025225015851948
18.88509278927092
5.676094031111633
-13.588135536740877
-25.215610288798626
-30.710734530224915
-32.6785775308688
-35.380987160254435
