AAD_Filtered_TADAS_FILE
AAD_BASELINE_CORRECTION: BASELINE REMOVED
AAD_FILTER_TYPE: BUTTERWORTH
AAD_FILTER_ORDER: 1
AAD_LOW_CUT_FREQUENCY_HZ: 0.025
AAD_HIGH_CUT_FREQUENCY_HZ: 40.0
EVENT_NAME: 202302061024
EVENT_ID: 13207
EVENT_DATE_YYYYMMDD: 2023/02/06
EVENT_TIME_HHMMSS: 10:24:47.00000
EVENT_LATITUDE_DEGREE: 38.089
EVENT_LONGITUDE_DEGREE: 37.239
EVENT_DEPTH_KM: 7.0
HYPOCENTER_REFERENCE: AFAD
MAGNITUDE_W: 7.6
MAGNITUDE_W_REFERENCE: AFAD
MAGNITUDE_L: 
MAGNITUDE_L_REFERENCE: 
FOCAL_MECHANISM: 
NETWORK: TK
STATION_CODE: 4613
STATION_NAME: 
STATION_LATITUDE_DEGREE: 37.5701
STATION_LONGITUDE_DEGREE: 36.35737
STATION_ELEVATION_M: 965.0
LOCATION: Kahramanmaras_Elbistan_Turkiye
SENSOR_DEPTH_M: 
VS30_M/S: None
SITE_CLASSIFICATION_EC8: unknown
MORPHOLOGIC_CLASSIFICATION: 
EPICENTRAL_DISTANCE_KM: 96.56
EARTHQUAKE_BACKAZIMUTH_DEGREE: 
DATE_TIME_FIRST_SAMPLE_YYYYMMDD_HHMMSS: 2023/02/06 10:24:41.1832220
DATE_TIME_FIRST_SAMPLE_PRECISION: millisecond
SAMPLING_INTERVAL_S: 0.01
NDATA: 11251
DURATION_S: 
STREAM: HNZ
UNITS: cm/s^2
INSTRUMENT: sensor = GMS+/GEOSIG | digitizer = 
INSTRUMENT_ANALOG/DIGITAL: 
INSTRUMENTAL_FREQUENCY_HZ: 
INSTRUMENTAL_DAMPING: 
FULL_SCALE_G: 
N_BIT_DIGITAL_CONVERTER: 
PGA_CM/S^2: 75.745
TIME_PGA_S: 
BASELINE_CORRECTION: BASELINE REMOVED
FILTER_TYPE: BUTTERWORTH
FILTER_ORDER: 
LOW_CUT_FREQUENCY_HZ: 
HIGH_CUT_FREQUENCY_HZ: 
LATE/NORMAL_TRIGGERED: 
DATABASE_VERSION: 
HEADER_FORMAT: DYNA 1.2
DATA_TYPE: Acceleration
PROCESSING: Automatic Paolucci et al., 2011
DATA_TIMESTAMP_YYYYMMDD_HHMMSS: 
DATA_LICENSE: U (unknown license)
DATA_CITATION: Turkish Accelerometric Archive v 1.0 - Disaster And Emergency Management Presidency, Earthquake Department
DATA_CREATOR: AFAD
ORIGINAL_DATA_MEDIATOR_CITATION: : AFAD - Disaster And Emergency Management Presidency
ORIGINAL_DATA_MEDIATOR: AFAD PROCESS SERVICE
ORIGINAL_DATA_CREATOR_CITATION: AFAD PROCESS SERVICE
ORIGINAL_DATA_CREATOR: network: TK
USER1: GuestUser
USER2: 
USER3: 
USER4: 
[...]
-11.250578235083882
-3.2446285038310334
-1.4500000289488026
-0.5383719587151948
3.442719598993365
3.4516733531756136
0.790690087880491
2.0268177595416765
2.806483054742111
2.4634994467889904
7.510466299286556
13.64872313362016
15.406148832011413
15.873916365842685
12.453666894483458
3.8906184194161497
-1.2756258146806418
-0.22441179086984667
0.8235205299263574
-2.793978849174867
-5.343124675452787
0.010753248513802164
6.702164839749809
8.753953873733249
8.738246504085605
5.928754923662231
-1.7363743160358847
-6.9744138910925155
-4.325493599706501
-4.49022786100567
-11.191998061540529
-14.247708470401866
-10.279583089273187
-3.822683282691393
-2.360074392563448
-2.768507441027166
1.6397442545923873
4.163155721381589
4.679110776109117
7.7919823823190635
7.088086394101487
1.3656555558295693
-0.96367049946939
2.9113898568540106
6.592085619002175
4.0763345469061525
-0.008278798126831117
0.30413653429931814
0.43923154087342525
-0.7298953661210119
-0.8754262027218546
-4.662779371578126
-10.736897567202488
-13.294647115561283
-15.018415550928372
-16.921600356702143
-13.163509850014297
-6.665655120522626
-4.899329110622979
-5.487153689999758
-5.810628954155508
-5.285548584907932
-2.6539207798601128
-1.9376031391207384
-3.7728636563342155
-1.0148927757947785
8.39196251548619
14.730957451497337
11.805720917059455
8.78685413938708
9.435792648492837
6.191034885962723
1.6055163629688882
1.1405700874626084
0.3721075822053558
-3.001491914174347
-6.659141146318972
-9.321348250886432
-9.824630690490158
-7.207705089456453
-2.1088675716988208
1.9712395465427623
3.3311262018561543
3.4405019464415343
1.206557356561345
-3.0849035442865786
-4.4457552549634105
-1.7889177099345097
1.6324950320239333
3.9582810486868625
1.8754375741006526
-1.8076976700685776
1.3535606236661268
5.8022178989308095
4.1345424335852
2.544211150045984
2.6921138018185506
1.0785099941094396
-0.07731107412250847
0.019446136137455803
-0.5337443880980597
-2.6541001571470155
-5.29306948191281
-4.7138204320849555
1.1039990820923014
8.153117250948922
11.00726671110576
10.938709137159181
9.735794621458105
3.670898377894405
-6.9611679844856305
-13.344110801664009
-11.156502637577173
-6.813574126559515
-1.9844416713172706
6.344215389203259
12.180474710329879
10.58047709471402
6.454823302182587
4.026569968130604
5.851642342260522
12.952192723760874
17.46952582021074
12.947594988732625
7.61989430044333
10.039603802383947
12.020379862097199
7.582582372351793
4.380878320043468
3.640216840981334
2.760142896967628
5.666602085053607
7.9733294213350545
0.6182547791106394
-7.564136647695078
-4.440266899144018
3.288754784257393
5.740885267963168
5.379625706070825
8.519004319142221
11.39883347769748
7.839035214989511
4.567011328464355
5.185208367906953
3.4168596075028823
2.2969621576895154
3.4609842561082553
-0.7949114483770231
-7.343332349064773
-10.745369768490121
-13.699322214721002
-13.645920823416626
-8.441405036394775
-0.09749841942839826
7.939568028351177
7.961173094661479
-0.40021410594813034
-7.682257876786782
-4.5608113453360675
5.989229257047628
10.163341398711973
5.239586014701648
1.1962674177879082
4.2735670570209585
9.994740146871907
11.28108373188088
9.213372086364842
8.990044042944564
7.663351751205835
2.5838762322251325
3.465236795581963
11.366614857140972
15.834901919300176
17.017427605026523
19.402932006933817
19.581796973186037
13.514269355727782
5.944026603645399
2.4779860095109996
2.2389353518670445
5.486628274372912
9.289028126722876
5.651452776334186
-1.6820374606823654
-4.260733620917913
-6.5926670152460245
-10.503099484026079
-12.44513178497709
-14.704063049507708
-13.808676477472506
-8.577778394739866
-5.4023989482127295
-5.338744539819978
-8.525348564958328
-13.182561466266353
-16.820676004317544
-18.36973421935812
-15.858295991633337
-12.79298002240932
-10.682775350815334
-7.226615013034814
-3.7842002824435452
-1.0398940045616425
1.4414089163951354
2.712538725981701
1.4916842557572565
-1.0629838797654574
-3.7507436696670835
-5.667314710749548
-3.2861344528794
2.553027090789726
4.748858198201254
-3.6635130927602155
-18.51376858169891
-27.104542011013546
-26.67079413793037
-20.860371191910023
-14.316979937535583
-15.008581071912014
-22.106591236185146
-23.36607913925942
-16.23041001263905
-12.650061129435155
-13.351414241191819
-10.932040603605758
-10.860733000693168
-19.15967793523483
-28.648363913016905
-30.734110737722265
-29.410523819580515
-28.00772602719324
-22.89207512990548
-20.041892856928634
-22.856102982886185
-22.430410786474553
-16.516610563558565
-10.037065013526137
-3.5584483026865907
2.839842507216214
3.744727881428149
-1.7122194310622108
-6.2073703445079085
-6.058262888745482
-3.283374239080316
-0.840129330905668
-1.5592299757240067
-6.76006726980139
-12.26676134570132
-13.814507585346645
-12.57929171396828
-7.019787450077054
2.5603602281516133
10.673108620754451
15.906479676917572
18.56643354036549
19.562111456121983
21.23993196238876
24.354590586382216
26.577373253253747
24.610859731555017
21.952668140282817
21.757643370508376
21.64204214099681
23.46761667470121
26.074327110523928
21.8793748811413
11.358288067221556
7.461630085514267
16.418452435745568
22.397503178120594
14.932552507057636
6.304218287118297
6.376338056490874
11.722751822851261
17.248096416005207
21.019189446182843
21.565086998839806
19.74707031512769
19.28636898719287
22.340294362848425
25.59408399887927
23.250196464928322
16.903908980982145
12.298256716577535
12.995577327809855
17.697612193926034
20.47030340071353
20.619223629763162
18.292124226241814
12.622282259024225
7.906342452964834
8.551618046233806
15.007824522169264
19.082441806682326
14.973253921005348
9.563701079610013
8.61096884236332
11.558928166015301
15.144328056089575
15.598336698644655
13.549640338830837
13.317924942908505
15.19308388116514
16.868203366502037
20.319065019941164
24.081546402014915
22.385423079210327
20.18221908996472
24.41306986427026
27.04443183733288
25.15901771151457
28.186828153072636
32.77866711695801
29.681658384047164
22.3458766427611
18.152146149068045
15.721383060147149
9.993378498613021
5.3841760373130665
5.603975102322677
7.922032085630343
14.166044546808791
21.010379480824948
22.22455049444658
21.145317057519925
20.297178333306466
19.520647137085056
22.30984191288851
29.174015414996248
32.0602455190529
26.13462458059162
17.23673356834246
11.307054263448268
10.214986261699607
10.690686926188706
9.703970087895327
10.327748572764415
12.25792419280179
15.840412946664934
20.729038238266966
16.697317642969285
5.03393739017293
-0.6811401823054614
-2.75914491240035
-7.420874030303007
-7.484937974615211
-2.2256884489282776
0.4480152623704974
0.2660265472385145
3.1631467137447435
10.528619760308052
13.383982395186136
8.328515154265508
2.8592796243750995
-0.7099632129826094
-4.609383557327607
-10.934646758287084
-16.957847931949907
-17.112632628704173
-14.028272603302987
-14.57464382149493
-18.60729153380345
-18.140455342108087
-14.966934222343172
-19.11812382129249
-23.621985247776085
-17.64513786324261
-10.699068434637926
-12.297826087461363
-15.949211778788786
-18.225793384328
-19.263221713475573
-14.86299181316055
-8.900247984118778
-6.950940416628438
-5.437970659988103
-2.7622882582373696
-3.2795800344243977
-5.429316301168185
-0.48035507040764586
10.129727479235598
11.86858355150391
3.3515687762620168
1.7832833761196534
5.38766876670979
3.313679040238458
5.7352078852009285
10.586888095892716
11.345492653174363
11.666997192322926
10.68329757428145
9.870741562835448
3.4459569382040556
1.5635107045291083
6.710694219376945
5.092597011864569
12.30105391510905
21.0967813103687
16.96413699141516
13.007596774565672
12.977939020157542
15.884633196735518
14.302799075362918
7.2539624032347625
5.1907905020974
4.054971417319559
-0.05712463619306597
-5.72229919646819
-14.20139899755679
-21.41673121068746
-27.5104842640582
-30.345505635023017
-28.116897422898326
-28.944536589317526
-30.898346770285517
-27.16543775135294
-19.958937237865513
-18.50697484553247
-21.6986668210968
-21.085516624229697
-21.47195752824184
-21.932059187025345
-19.28978018474024
-21.36169118043684
-24.146910560407044
-23.538336678256147
-26.0591824300339
-27.168375103223923
-24.193395601503425
-23.619244087187113
-24.487904990465292
-24.501852627369594
-23.46778214314574
-23.27360039403919
-27.067565613456193
-30.066253930728898
-30.085719830873135
-29.791524503397977
-26.476730306793307
-22.555298269429734
-21.70199351916678
-20.623400825263197
-18.29391615835081
-15.55312315199488
-13.194927878087595
-11.923488729281425
-9.356092680180796
-3.6671884309312555
2.000456510964668
3.3797984203918676
1.4398779036810514
2.1635741702644724
7.423353152231985
11.580068608936617
11.054071190003622
9.586227291361286
11.136809285542
13.307740132332244
11.80443681988111
8.000161873816415
7.7650441842458715
9.24618023780809
8.405420756464308
10.999496630181904
19.340085250385233
26.656010278101157
24.584890707032343
16.915241440748506
14.937969347748059
15.60379787668924
14.714676843872626
13.924998741482304
13.192230853351724
14.084968503923662
15.139998822383436
16.007914836380035
17.809292398437417
19.917398890053715
22.59947657051302
24.44978169135799
25.206463787673705
23.627071238082547
20.45007520159382
19.530034219035432
17.078634406441406
11.17118145441924
10.336172264379185
17.659860967192813
23.357096071505836
21.133757932396897
15.898170472193668
11.124096557692235
5.676579623818936
3.6343640440762637
5.943359364670209
4.074196950196771
0.6036141995238282
2.824028091919889
5.8122129292309
6.62457195510591
8.024812663975613
11.600957545111203
14.86660724927862
14.732666172185223
11.944995107684493
10.310069946354515
10.892126095625002
8.861964210397357
8.316088174725166
7.334891016588473
5.329095790491865
10.828881647282111
10.227102880600357
4.944937648804094
3.56746862497706
-1.1870801326833935
-2.549113811295993
-1.7777294996669206
-2.938160872008585
-1.7861811598091453
-3.0370782076010543
-8.185772254055319
-11.460002658712327
-16.190703610363403
-25.348664915911524
-29.844856104272573
-29.12682274670407
-28.849620639289
-32.496639103246586
-37.72010988690563
-35.81728351026036
-30.371936499312522
-25.79933484460457
-20.671485183773125
-15.119464813023272
-8.373432125559804
-5.787797541147273
-7.10522499550813
-4.065437553761078
-0.236750187130794
-0.14686041476746356
-0.6128898401380772
0.7662937618317098
3.452397795570514
2.5476991577508294
-0.4039973277963181
-0.30390067007923455
4.351098848054895
8.992916057990584
7.183007766826546
5.350361080752436
3.8802303585495617
-1.9849316715713585
-7.752325835033867
-7.598373740960239
-3.500521125225737
-2.6441584398979656
-2.722849588722288
-7.875695305314031
-11.777107376838545
-6.157038429301092
-12.461047266575246
-16.95707336008772
-6.282487317630876
-12.564389815770294
-21.785014784645625
-17.142903105918936
-15.8986994822215
-17.781220079527362
-32.803709546723006
-34.213692289342376
-13.140437682762197
-23.65573442430758
-35.27133038092633
-15.50420740548018
-8.254773969304212
-22.5526323902284
-34.87887107465691
-29.810832060741227
-13.59628174665732
-12.12723460951881
-18.75219547545857
-18.558502754738395
-20.304904291550653
-16.540735523289168
-10.428463129346873
-11.490398522621659
-6.003007922174943
4.638688346781761
0.5820659408213961
-0.2554157173635956
-7.6727671101207156
-22.520476458577374
2.060469423288223
-1.131156847792048
-25.385641426306115
-6.2110491190508
-2.681934948462154
-14.337330569634156
-13.13402853388239
-11.895756746493229
-16.516665904453387
-18.107239321364567
-24.860459101483492
-34.403588830810236
-21.393755224493592
-25.09131556476836
-44.46487731042206
-37.25784712822823
-29.972342260696283
-33.33584990955802
-28.482140244270795
-15.314529571265311
-13.31862819041541
-28.221439956943264
-12.632333195963982
13.805189806512407
7.0681824181253825
-0.7347160849532259
-4.8803275431929904
3.647877809441196
12.019671746724908
0.7893124759652959
0.30127783326031665
1.9494915466860825
-0.11749901625484792
4.745248156466776
0.20753220637202016
-0.02819869484694449
19.8210056616536
18.79388977017042
5.881891184373234
11.853037545626437
12.566613318937671
5.9371578801869145
3.414804381792707
3.5998333229044768
-5.842797124115671
-16.75685205680199
-12.23301315840102
-9.62420737098102
-18.240541214509694
-23.265314927987163
-7.651676676911485
-3.6998001109543788
-22.35984953377549
-11.431289810694386
7.189934879999028
-3.0802157880885352
-14.161725209484512
-2.1721420179825763
7.623826046799764
-8.298616883727458
-15.411213227895091
-13.561046089549484
-15.44513713322879
-18.685325314792994
-5.518360328803103
22.011981850555323
-34.35854216259238
-60.50721947961336
48.734662089557084
39.141085473515346
-66.40500284189206
-36.62865840024012
18.833294498175253
4.861799013813096
-2.5370111206554067
15.062997081123271
15.662767158756223
-18.932072252675017
-21.59838155025295
13.947416966170437
-2.544334680105403
-35.19858664946154
-1.7981963310870714
20.25055429935415
-14.597630762558122
-20.954348338879566
-6.24396485739044
-7.3157928523504205
-7.005941816375312
-4.753557269979717
2.9418987966833083
-7.81327806553895
-20.85744352480634
-0.5234020600058514
11.223394338790191
-0.3841351134426433
-9.059473997608267
-8.757158178600065
-10.118447735808761
-9.520732852248415
-0.12196542214177872
-2.6117888202333295
-6.244846195807629
-1.8284858416686796
-1.378470160952816
0.7432522634103939
-1.6034098516849273
-8.422711164404612
-4.152313113830681
1.5362027599827899
-12.186229241782392
-12.491262946631698
6.107806661833191
7.64871572812059
1.5091368216789791
-0.5153223230126981
2.0278375076374546
-6.102886104954447
-20.438515618279112
-20.343971204729517
-19.395499430184994
-23.089856117865757
-25.646641450854343
-25.388739377755687
-21.838246454100645
-24.444937113348953
-25.024854706700303
-13.004867827426724
-8.055907203054439
-11.588459839269833
-15.105341250953007
-18.357148871695482
-19.28412170755415
-18.323999085824266
-18.94143613040354
-23.486985782749112
-17.582129919543032
-3.0978463898608473
0.004082061740533728
-7.7703869314189085
-3.1545192231531693
7.990638086404662
2.867494902726465
-10.382754981146803
-17.197589098571864
-10.01627631168642
-5.853732552046088
-9.38404086226312
-9.253498293727615
-16.35374848142233
-17.103172684689312
-7.669696596619431
-12.313974738674368
-24.32282441524411
-31.15947526304844
-22.86436776936586
-15.393342134318111
-27.4396704636555
-24.540721301851914
-14.324909481421313
-14.265186454821471
-11.16949674460939
-16.713570952371246
-22.163391663916336
-22.695780980308257
-21.352772091314623
-12.750328426912152
-12.675449225379191
-19.23357427799941
-17.025406602144717
-11.924867985339914
-11.333114615964522
-15.974557828120755
-23.114444568831953
-28.209375478337076
-30.769680627815337
-22.72080579327605
-13.893255865857258
-20.283129848719263
-25.10392158415709
-21.549707532042177
-13.717417488509467
-11.475386232265317
-14.544742505688518
-3.0051072167001815
3.8167458876311717
1.086428158675545
0.3276256801268563
-8.92156993858461
-5.983591018514365
4.999348603630036
-3.2030630023445132
-14.065361107662117
-10.054064828420815
2.269167173876355
7.92862202671524
3.494102639433239
-7.99564664080419
-15.470614208601523
-5.648013683858558
0.7019172824429164
-2.071403117765887
4.795340394574819
13.589049612941114
9.179758666212207
-4.0140846685816545
-2.564087922099867
9.593597195833045
10.802016523041395
5.086991169877897
-7.380235652282718
-17.497668920486518
-13.291756993926283
-6.368082604105061
-5.126816732918745
-11.19737760228353
-15.605465024024518
-13.400662408065235
-7.747609722451506
-3.1871107773338156
-2.124734067239164
-2.6066531787028255
-10.184552602747921
-10.325387085744158
-3.4809032219582114
0.3489748436767152
9.00999453384479
11.957812307612121
16.079985621927325
18.392735110650182
9.843897224364204
12.556210613779383
14.079310057110611
5.706943683836607
5.840564544460758
7.166568466677345
9.885708517522538
14.331876735435621
9.0761061329371
10.208467375356921
24.706768652229087
31.203514949876592
26.725949169825803
21.347734745433105
19.568378175116266
23.076693466570145
18.750507108724346
5.32007853007418
1.1003388477557057
4.740963286743382
3.5897822912218595
-1.634535563712135
-0.7335865962463604
5.199033141870457
5.633106361728981
0.8972247657241895
-1.370939657818241
2.437542489397297
10.342502861583776
13.618940235406544
5.3578433287718
1.2959992694923956
10.499568045882059
8.41535699245118
-12.009134952343526
-24.192386894573147
-14.753706388295413
-1.2514548505684073
-1.39078223315362
-3.629634316490549
2.242675967771548
2.8088664264280636
-1.4845433170333546
-0.13724133159172994
-1.0944091674332739
-7.840529065072582
-11.811140409928704
-10.618799980299656
-2.961897451929467
3.1151835088916426
1.2564810371436452
4.017787404363097
11.100951836186336
13.352404460429494
5.719966379309387
-5.294233832496156
-0.18684971654462254
8.952406606105573
2.621631346165859
-8.384713293898571
-11.685671107758866
-7.960396360381714
-6.080478126475829
-9.119938570664484
-13.645227420965513
-14.337618135109597
-9.473237743206907
-7.2808385764322265
-8.529750082364766
-5.167177961353142
0.5369121132300609
-0.7592096307640072
-3.941732102553356
-4.8338689443515985
-4.945747307832857
1.9598231890733353
4.8074102997921235
-3.005457055818714
-7.766431306754854
-5.522036680041611
-0.5353706933507358
-2.0317375741059727
-9.131167288170152
-8.521293314232544
-1.3994138301623704
2.632249286741336
3.4822663978872788
7.198315200478429
12.525620135338542
13.4304123410925
7.719746761539636
0.30936678810244356
3.732833756908985
14.518546660425761
14.436009680004636
4.789484004819373
1.5079830828566878
2.517582391440994
-0.33635675697589734
1.5576141637636352
6.427084085601443
6.188216141094878
5.685869559113014
6.814663547801992
6.674548040964412
2.5736272919749514
2.9818770668382526
10.285809779210187
12.064642604280476
15.385195681082228
24.627364582581954
27.050419098731137
22.202587669197836
16.744769433072097
16.400495533777146
21.031841362455797
22.5213853715217
18.68999591727237
13.992674579490492
11.952873668848317
14.007176317264879
17.095456146588337
15.67900435722659
