AAD_Filtered_TADAS_FILE
AAD_BASELINE_CORRECTION: BASELINE REMOVED
AAD_FILTER_TYPE: BUTTERWORTH
AAD_FILTER_ORDER: 1
AAD_LOW_CUT_FREQUENCY_HZ: 0.025
AAD_HIGH_CUT_FREQUENCY_HZ: 40.0
EVENT_NAME: 202302061024
EVENT_ID: 13207
EVENT_DATE_YYYYMMDD: 2023/02/06
EVENT_TIME_HHMMSS: 10:24:47.00000
EVENT_LATITUDE_DEGREE: 38.089
EVENT_LONGITUDE_DEGREE: 37.239
EVENT_DEPTH_KM: 7.0
HYPOCENTER_REFERENCE: AFAD
MAGNITUDE_W: 7.6
MAGNITUDE_W_REFERENCE: AFAD
MAGNITUDE_L: 
MAGNITUDE_L_REFERENCE: 
FOCAL_MECHANISM: 
NETWORK: TK
STATION_CODE: 4616
STATION_NAME: 
STATION_LATITUDE_DEGREE: 37.37547
STATION_LONGITUDE_DEGREE: 36.83836
STATION_ELEVATION_M: 499.0
LOCATION: Kahramanmaras_Elbistan_Turkiye
SENSOR_DEPTH_M: 
VS30_M/S: 390
SITE_CLASSIFICATION_EC8: B
MORPHOLOGIC_CLASSIFICATION: 
EPICENTRAL_DISTANCE_KM: 86.81
EARTHQUAKE_BACKAZIMUTH_DEGREE: 
DATE_TIME_FIRST_SAMPLE_YYYYMMDD_HHMMSS: 2023/02/06 10:24:39.5078300
DATE_TIME_FIRST_SAMPLE_PRECISION: millisecond
SAMPLING_INTERVAL_S: 0.01
NDATA: 11251
DURATION_S: 
STREAM: HNZ
UNITS: cm/s^2
INSTRUMENT: sensor = GMS+/GEOSIG | digitizer = 
INSTRUMENT_ANALOG/DIGITAL: 
INSTRUMENTAL_FREQUENCY_HZ: 
INSTRUMENTAL_DAMPING: 
FULL_SCALE_G: 
N_BIT_DIGITAL_CONVERTER: 
PGA_CM/S^2: 28.054
TIME_PGA_S: 
BASELINE_CORRECTION: BASELINE REMOVED
FILTER_TYPE: BUTTERWORTH
FILTER_ORDER: 
LOW_CUT_FREQUENCY_HZ: 
HIGH_CUT_FREQUENCY_HZ: 
LATE/NORMAL_TRIGGERED: 
DATABASE_VERSION: 
HEADER_FORMAT: DYNA 1.2
DATA_TYPE: Acceleration
PROCESSING: Automatic Paolucci et al., 2011
DATA_TIMESTAMP_YYYYMMDD_HHMMSS: 
DATA_LICENSE: U (unknown license)
DATA_CITATION: Turkish Accelerometric Archive v 1.0 - Disaster And Emergency Management Presidency, Earthquake Department
DATA_CREATOR: AFAD
ORIGINAL_DATA_MEDIATOR_CITATION: : AFAD - Disaster And Emergency Management Presidency
ORIGINAL_DATA_MEDIATOR: AFAD PROCESS SERVICE
ORIGINAL_DATA_CREATOR_CITATION: AFAD PROCESS SERVICE
ORIGINAL_DATA_CREATOR: network: TK
USER1: GuestUser
USER2: 
USER3: 
USER4: 
[...]
-11.437736660897418
-9.696030726182787
-4.60156703256744
-0.38714550497414474
2.0783854130893364
5.1952646669703695
7.75074342184947
6.6291488875579745
5.146092083959898
3.836063267510729
0.16419128820443585
-5.144628445939524
-13.983248062372928
-21.40187087331998
-21.260503752298504
-17.08488027867993
-10.797312099032416
-3.3205147741317496
1.05188908124656
-0.07512999512744689
-2.486686648601592
-5.331628942786371
-10.613363391788655
-12.05332045979422
-7.5205375349188675
-2.2262961825179057
1.0254501770565698
1.311496575805245
-1.1183402764851522
-3.4244831986902695
-7.579102390689983
-13.29789453081491
-11.679344043834583
-5.232806717899088
2.4375918981828923
11.438926973507987
13.243922894439317
8.458032539291278
1.7241857227246078
-9.507682929089194
-20.360767691314965
-23.525339404148387
-18.092254201551228
-4.366902279586238
10.910818771999253
19.636113159575316
19.870552913957862
12.634718497275907
4.68062126002838
0.267539887482792
-1.3348791234271007
-2.595885540337224
-7.333726107652252
-9.223612096986853
-3.273920825427852
3.211629391085068
7.566341141384568
11.01716354909291
11.286838388283453
8.55816537726553
5.202116889151182
3.8514436918642727
5.55431678001821
6.567911662831444
2.919381417330577
-3.5599351923162392
-6.920067341674349
-4.716634498800114
0.5093760547339459
5.345058323727628
7.045702435214742
5.902594895528547
4.078341564518745
0.3333282653313858
-5.992630940223977
-11.219942012190135
-11.430392460393858
-6.30013488319144
-3.6565907998498037
-6.029732935944434
-8.649319230353592
-10.001536959716391
-6.80219565699619
-4.3052796936453035
-5.101458174557842
-2.047391338300075
2.9822807676069134
5.137511511406224
1.9867060281462328
-3.0057667734911284
-6.854111828709374
-10.66698467681596
-11.686210179585808
-10.534363539788712
-7.758378137205538
-3.1954555480497775
-2.344532702729643
-4.807850334638098
-2.7327895888371736
1.871556116242113
0.2411999683433603
-7.518285416005609
-14.796820366090337
-15.54901168162038
-7.812846612660433
4.173809611495652
7.845018702520979
0.6537689760540795
-4.706306475252853
-8.374849916197885
-9.664136887181396
0.8278126590470073
12.605603200296269
12.321889346099901
6.680797830070862
1.381609788126932
-4.144722522737526
-4.898793241983902
-0.2429089677572016
7.554488374343695
15.956749602388822
17.14811897444637
11.023681516479614
1.7705222610773845
-7.580537140254507
-10.333061465675728
-7.954603813686578
-7.123623673955358
-7.322019631146511
-7.799018212509797
-11.815407772391465
-18.12563264604019
-19.381751729774628
-16.101870658252935
-13.705966627925843
-8.435636083266601
-0.5407903438259
2.690559676001876
1.0309344069184674
-0.3100409573362741
1.461638671201095
0.19806663787201592
-5.878818569445734
-6.795534008192514
-3.1365499823743246
-0.42945809199792495
3.022936181517504
3.49552619781694
1.4225686797602557
2.2964476621033976
2.952073150554143
2.726488406326588
4.421036247972569
5.6931320678758786
2.3639091033004327
-3.0563846106198893
-3.18726178019429
2.49450382730578
8.988009549436839
10.235878206486552
7.3725736590760755
4.496325105470836
-0.8092425548225997
-4.96715579807163
-5.317345777351276
-7.407921086964221
-11.80203118287726
-12.800036847482518
-9.697190334635142
-8.839176055090643
-8.748060956339408
-4.0316459918896195
2.0743902726203203
4.917616157125573
5.726065056095085
4.44415758690401
-0.7864414952703142
-3.354315207452643
-1.4681770692483431
0.6687702128271078
7.635545694807451
17.483188227251514
20.403315928731526
14.860948717614546
4.102983066452973
-6.989657735031471
-12.806401364085259
-12.287969173478894
-7.919779024799744
-3.5593576071578656
-2.874198401953613
-4.325976255405065
-3.9894864845044973
-4.780485567696451
-8.415889223631583
-9.356513409455909
-7.025763871922543
-4.68753862437297
-4.349353632320586
-5.5618167615563
-4.171821092258501
-0.6628574968685751
2.0023916733248335
3.5777668851960316
4.20553253953055
5.228668900063768
6.326351345458221
5.100883592493307
2.8819126091860428
1.0419610222362425
-3.6152304419518493
-8.189676402152395
-4.893508135274479
3.452177277491002
9.14653857293722
11.370008441098335
11.403239247684285
9.471290089478243
6.9305479339709715
4.487541162344967
1.1696635622556477
-2.0520468746657317
-2.2337568365525624
-0.9790572207912998
-1.3032560643151976
-2.3122749212287577
-1.8783103488833839
0.8691676725548553
4.9566789714205965
9.039405360969022
9.796341564087902
7.447463725021881
3.8815117858600776
-4.893564442663802
-13.644322569506205
-14.589876564439889
-11.677181021104198
-7.0126499537042735
-2.8393684726691433
-1.0798992168458743
3.0698987376058358
9.341834973655784
12.246682568367811
10.96243325070395
8.668939837589454
4.80643590135734
-1.5113267591184256
-4.895966966739009
-3.5622637366409586
-2.140253557543909
0.12341434153802197
5.786773845718698
9.442546822155581
8.487064193898501
7.081086767162136
6.227691582520492
4.9546300229989395
4.719556612707102
4.303205286842622
-1.0656835479647164
-7.887240096011974
-10.280901939414093
-10.546590361742226
-11.14395906920508
-10.568054485725169
-4.53206250280554
6.379305650006273
14.072302493988353
16.43294123561047
18.660786162090208
18.293222917300987
11.142727063118798
4.815781788792993
3.6417350729466715
4.361821535454011
7.259758319902111
9.752593625878726
6.698373147128602
-0.9975419803320138
-8.814676495893654
-13.349086094080674
-13.037297043409948
-7.006131476910619
1.7580782215731443
8.386311713100286
14.161565667808084
18.754156926286434
17.808059995495835
12.579961540055113
6.457209322437049
2.897690900559525
4.392767823408209
7.803698393535257
10.628638273575627
13.29814891508931
13.273775764425164
10.315889434109858
9.38642354767123
10.749119972867376
11.607157423650122
11.558101086294794
10.836185755143932
11.797761001515903
12.972310831451578
9.161503496018604
3.180972219441495
-0.3079095412379512
-2.0511542776869907
-1.3355380410258395
0.21995686178512994
-1.5718317199210095
-4.3508681464919245
-5.2440408384596875
-4.386310085690549
-1.1581102859803356
4.194520496689561
9.540571461550188
10.140771577246042
4.062988471007607
-2.822080674457722
-5.371790509813622
-5.261945183635207
-5.586886910814054
-8.55059949662726
-13.568761963048585
-16.617995853457654
-17.741259197827045
-19.618509671998655
-20.684661484438976
-16.84759734550491
-8.953395417215042
-2.910295856798623
-0.45136659391621325
0.006627626374218528
-0.7041751045216383
-2.1365777802075634
-4.380502704072642
-6.029099406035091
-6.987456723923627
-7.76847046599874
-5.213467925962752
2.286273585442746
10.536741062871185
13.306078654037055
10.898318641574235
7.666842810696074
3.3565494964493636
-1.5403442192728385
-5.366312853010416
-8.927423639731096
-11.874738705821878
-13.28581194674165
-13.794635636883513
-13.361321937707102
-8.938091813636248
-0.42258833233313464
6.812431672478241
10.21338139726376
12.802955821395646
14.316172308248973
11.203040648633161
7.119653019296169
5.014743210099874
4.242864114836762
6.617017286126806
8.463312025318988
7.1949680042850295
4.781816525798962
1.0783313276310251
-1.8193170345167207
-3.05689870734779
-0.8541870023861057
5.301170988804695
6.443478602541846
1.4193783223591039
-2.246442083153684
-3.3492383939885673
-2.6345110902182873
-1.1391642168052905
0.19470523388289765
1.572066877001063
1.7899762629726315
1.1729390327472469
0.4948715518233185
-0.3202320883561532
-0.8119396071777892
-1.926798928972561
-2.725059717286584
-1.5639842156221717
-0.9758970074371022
-0.9125146743513276
1.041456193077815
3.216726217369186
2.7733917284074376
-0.8023916578557226
-4.861285053496659
-6.295244830545186
-2.6395079495937193
4.795570707976704
9.311027246607061
8.838393233967945
5.030363462795622
-1.4506305916657276
-6.831859401042287
-6.879016670005683
-2.1321780100871996
1.8581673566928978
2.0095952912008763
-0.06443289469381305
-4.290387614570632
-9.005529950912804
-12.430501769082491
-15.751261262759643
-15.70396328251456
-10.196388756131222
-2.494823322000164
4.209526408279267
6.240659106278356
3.9893403810423016
0.6580450152446073
-1.684503296747176
-2.0016539992304225
-1.4892086262776523
1.998236949287372
8.394211829689517
11.889122826568652
11.526914070915922
9.33532094670536
5.565780737797368
1.2499880421283427
-2.8007104436535784
-6.978381497593948
-10.33898820477098
-11.000592256811949
-7.031493212450658
1.5466330176946843
10.646097995576707
16.81689176205236
19.610661682955847
18.47320957154897
14.620495376845746
11.688067975350101
10.633659704168423
12.472123521623088
17.11000230485476
18.98798138106223
15.964346964795316
11.067853832262495
7.784710442539024
8.315116178486543
9.242828626751837
7.9109425795833275
7.418981931224658
6.974040368782464
4.105846317276558
1.1961338292530808
-0.7934771990020394
-2.656318421715261
-3.512347199575638
-2.7961496332729623
-1.888383067089597
-1.0145499985211412
2.050910937770617
6.495690056813619
9.360509611726718
8.769047123667233
3.021901250973717
-6.245646049155364
-13.623776695290843
-16.86133878870058
-17.758544718654903
-17.00507925169122
-15.890766384028954
-15.3773927553176
-12.580108309164205
-5.411635359299482
4.077513718607628
12.1093072714008
16.470326184976297
17.01503004923977
14.944480532778728
10.722721013310398
3.0706154179756378
-6.902176310106663
-14.889200409956706
-18.621173553705002
-19.117986807437514
-16.52797577118387
-11.36063841610045
-6.07452609263209
-1.6072681721722797
1.5558971567718074
2.475889505456736
2.279816467144481
3.064406499195557
4.553823974012699
4.8011424093703505
2.859242907409248
-0.5559924096907607
-1.6373977159708564
2.6141026221608175
9.665576801288541
15.986907355351608
19.335629166966392
18.859453393132817
17.16280992775285
16.95550024712637
17.377735367715992
15.878428061033485
12.614999602110942
10.123191526736488
8.563140632627809
7.30395803277478
6.284079795840856
3.702059957330132
1.0194629550876055
1.8565374771796002
4.682893968264249
6.731341279238709
6.674516846671847
4.641258030157673
3.1167061156750164
1.9436851298268585
-1.7518353824469184
-6.590105777266508
-7.511355301123437
-5.208546665276802
-2.931738622612686
-0.02226975390922532
1.8610442302015993
0.22116702928632262
-4.2717026826418065
-8.571750123504954
-9.196736731242103
-6.613260181539531
-2.785915989100332
1.0062218069160245
2.6819719658577026
1.3749460531213278
-1.7151987769689128
-4.80135487357096
-5.673452494145197
-3.1834873881228503
0.14446094133295734
1.9150822225395496
2.4398584085068413
1.0166850173959083
-1.9702436140475645
-3.5410024146609462
-3.6237508866099875
-5.2730052226068596
-8.77291763506661
-11.066144451959492
-11.060300780066575
-8.36665812571842
-3.1532165101550755
-0.05509597778863975
-0.505018061502664
-1.3013198084946715
-1.719342030436672
-0.8715760625784856
2.018901273695936
3.9995168159399372
2.0480222247299538
-1.9615383834628228
-5.2449476126775725
-9.007998322915798
-13.36798303356975
-16.524526888336137
-16.92980999487846
-13.80823407805521
-9.999418750634998
-6.1766462146192005
-1.4299371127081095
0.5338253271771066
-0.890081859261119
-2.54524829568897
-3.2191261177023267
-2.9945887678761998
-2.6870726021353977
-2.3537103992108803
-1.8838039573833256
-0.896057168198428
0.2396258087493204
-0.8978665262493162
-3.356811985260069
-4.45783226208874
-4.711256610927629
-4.1086066740699705
-1.398713805906688
2.9922985753870677
7.343856804635851
9.490514744220517
8.945757995468044
8.532080474217434
9.86805929059459
10.904985776148168
9.878843091895835
7.880664370404828
7.954698342312835
10.437514575465226
11.931079811527827
10.7431755506094
7.968583618342059
5.6904347455238735
6.158128688909945
8.924857056698439
10.047600240160762
8.057387794086331
6.545758833353761
6.8677164600686025
7.361144632693548
8.288762054418479
8.8538740426951
7.106961156369097
4.877432635237015
5.560193654229802
8.022250614128113
8.780295608147012
8.431993360208851
8.391047766689432
7.802812052127699
7.0695010660316795
6.277292899717381
4.740424033456382
4.030461329092531
4.845537897205142
5.048513156872594
3.4685249977958743
0.4042695301724712
-4.047714659346508
-8.691985265834514
-12.042253663292268
-13.929472905044632
-14.087064157514249
-12.57181157317615
-9.928385239421116
-6.655240467046999
-3.9224822168543914
-2.741824369976252
-3.6658772644357476
-5.572773026805736
-6.12654812802267
-5.603317659163659
-5.234999579017592
-5.1894620392395145
-6.397670470184977
-9.182636779890071
-12.52972666075786
-15.6008530055403
-17.779318815684636
-18.313597180690106
-17.233554841049415
-17.36241743179259
-20.04505448365285
-21.789238718895287
-20.32589336365545
-15.451060194223567
-8.095551724062284
-1.7096109098616394
1.591573891062018
0.10300972338747633
-7.663203481331601
-18.03746339301102
-25.5533250228488
-28.05637020931837
-26.086653018638014
-20.100785122069254
-11.003295117185532
-2.0314142719430515
4.9355603955671
9.020792298539835
9.667755996199313
9.623460632240512
9.731731255346656
8.171756562553506
5.481571720035519
1.9498351404407472
-3.4131228517944248
-9.659609155305294
-14.482295586998246
-16.061684140600743
-13.354937599783094
-7.988602195143494
-4.100342400358531
-3.7541471375866746
-5.350247957805765
-6.306147397263541
-5.151446181542063
-2.800545120994923
-1.0027878052831523
0.4863536781544337
3.151686742764495
7.43407388580593
10.676485108915129
10.605830321659148
9.09617582491817
7.252275995807404
3.3592550997021577
-0.8830267411895288
-2.4159620370253925
-3.2669273562946595
-4.302407143400182
-5.719288931148606
-8.512015542339368
-10.646067862935821
-13.136472658593899
-14.950310979184046
-13.497535813513172
-11.879366542466956
-9.078896520008827
-4.518632072576184
-3.8442629218923687
-6.166823218619926
-7.737495333206477
-9.8678519928698
-10.974567547240552
-7.493159816454576
-0.9115380132587529
4.237206491430848
7.217475986413368
9.582920434101235
9.161021636020665
6.455010991531382
4.291741204620466
3.4044999246525918
5.3588758336995035
8.251016767837527
8.364628394150232
4.302700732004564
-3.259111736141887
-9.43934705576682
-9.800329358131894
-5.517688086440875
-0.11117457073876222
5.453978691777072
9.805107986028299
10.83500496713375
8.813336598094402
2.573900481778562
-6.455756187509221
-12.652964815951034
-14.51129402117712
-15.064858255546136
-16.362139586783172
-17.05614478968551
-16.938073108229588
-17.72877085600587
-18.625230795314792
-16.37569573682716
-10.596876655193114
-5.2467520918216115
-1.0322789668444825
1.5538851114072778
-0.797330298233843
-4.524574061375237
-4.65925992883413
-2.3098142052513593
1.4106192233115395
5.207992456770894
7.046286931335038
6.841066744056329
5.519078097324601
4.194051748775096
4.08850583762419
5.40861793339991
5.012307558254839
1.6841606279975205
-1.9559810301563265
-5.09456952361078
-6.555326227509555
-5.924879921956114
-5.126167516235506
-4.659836135202948
-2.7843364137583198
0.007334936750717699
-0.3917191387721997
-4.33755185244769
-9.9774007611034
-14.090734167756931
-14.37025695342224
-14.4640410706634
-13.54287085288608
-9.744673164120861
-5.42315223808227
-0.48924362295354024
3.672074582946747
5.5201629065512385
4.965600086633269
2.095802758157133
-1.7372559557114688
-6.537555001484578
-9.813387165333477
-8.796100480264053
-6.218945492100391
-4.555575202791398
-4.281665553688973
-5.265471106789449
-7.018080512921667
-9.210448687778548
-10.03580229558298
-8.052631742959486
-4.059042788308232
-1.2740232982672521
-1.2618560502896534
-1.350866062424189
-1.534576260845416
-2.5329797110247365
-3.3247580368226557
-4.423704578709229
-4.506820899685072
-3.673652500920953
-4.306710783605483
-4.577062871863092
-1.700529455580245
1.6837989048762967
3.848455691601823
7.934525461220184
11.101790662393377
9.550437317545049
6.886889848076653
5.7578742426164355
6.302116342933281
7.152913242071776
5.483219080586926
1.1748679006543172
-2.7109322694179125
-3.860837090465576
-2.546263392350652
0.3939211103004044
3.253627336871676
2.9745140900678555
-1.3700499994538293
-7.112963249494489
-10.673790482163838
-10.796237929149546
-7.666095284145468
-1.2500807054013832
5.506880350167928
8.884625137191657
8.705898598851784
5.712132329687737
1.9266879761930291
0.046227377363496205
-1.697377511206094
-5.562584146856079
-10.127817456279276
-14.29410847740876
-15.654619918613314
-12.36222488028401
-7.517275937623284
-2.420191593998177
2.820109660912161
5.807729418978906
7.312819873230972
8.813326726728153
8.525879210328709
5.871737851120559
2.899146842793966
0.5918472723611719
-0.17948291472365846
2.837155497464475
8.829467876558562
14.424097880175378
16.288617542434114
12.284642088774975
4.177158000785258
-3.8355954755655763
-7.35241920949267
-4.803960179924337
0.29970310019820146
4.356562326512839
6.689165307412591
6.58257473791938
5.192624570881739
4.0179462784475435
0.39006509628458824
-5.175017247477649
-8.993693602399256
-9.931442799353961
-8.24913872857652
-7.486266716487548
-8.787350516515787
-7.653433961238459
-3.853357902286869
-1.2008364904255568
0.09235288333185515
2.2306907649485654
4.451438815120254
6.8526905264755875
11.707136155545616
14.399670313057978
11.440964956192657
7.561413143233165
4.9777602997921315
1.9769281069214115
-1.1410607823628278
-2.5090014192325185
-5.404173525645645
-11.206652167236156
-14.147518473696742
-13.899462482116279
-11.603233555855375
-7.524720707949927
-4.9700199123529405
-4.185774459005257
-6.239521897363732
-9.890003305315183
-10.757352386153606
-10.4645637055392
-8.290137857304133
-1.1285820782831173
5.608104853242343
6.652542023017501
5.114804170124803
3.2238899803652235
-0.7900701716855876
-3.344749743026519
0.7984877864440795
7.803909256807911
14.341757643757814
19.139405621634058
16.85549315365995
10.319285696866467
4.849675931864217
0.5693661811783988
-0.4390255841617771
1.959129827546047
5.669951030216515
7.84448043654509
6.465938467153571
2.7619372233766337
-1.2760551836582013
-1.1101313049424686
2.5716419843933838
1.9460428853124896
-0.9702108538437594
1.2967005364685522
6.570032146767322
8.80583281677058
6.534876287730563
3.0609757446553547
5.1689005621928885
9.618678817183884
6.436219244403681
4.2470511107562565
6.4414235111042135
-0.7010324629499555
-11.426826938497923
-12.176393428698276
-7.4209041660433535
-4.009049539857465
