AAD_Filtered_TADAS_FILE
AAD_BASELINE_CORRECTION: BASELINE REMOVED
AAD_FILTER_TYPE: BUTTERWORTH
AAD_FILTER_ORDER: 1
AAD_LOW_CUT_FREQUENCY_HZ: 0.025
AAD_HIGH_CUT_FREQUENCY_HZ: 40.0
EVENT_NAME: 202302061024
EVENT_ID: 13207
EVENT_DATE_YYYYMMDD: 2023/02/06
EVENT_TIME_HHMMSS: 10:24:47.00000
EVENT_LATITUDE_DEGREE: 38.089
EVENT_LONGITUDE_DEGREE: 37.239
EVENT_DEPTH_KM: 7.0
HYPOCENTER_REFERENCE: AFAD
MAGNITUDE_W: 7.6
MAGNITUDE_W_REFERENCE: AFAD
MAGNITUDE_L: 
MAGNITUDE_L_REFERENCE: 
FOCAL_MECHANISM: 
NETWORK: TK
STATION_CODE: 3139
STATION_NAME: 
STATION_LATITUDE_DEGREE: 36.58383
STATION_LONGITUDE_DEGREE: 36.41439
STATION_ELEVATION_M: 109.0
LOCATION: Kahramanmaras_Elbistan_Turkiye
SENSOR_DEPTH_M: 
VS30_M/S: 272
SITE_CLASSIFICATION_EC8: C
MORPHOLOGIC_CLASSIFICATION: 
EPICENTRAL_DISTANCE_KM: 182.55
EARTHQUAKE_BACKAZIMUTH_DEGREE: 
DATE_TIME_FIRST_SAMPLE_YYYYMMDD_HHMMSS: 2023/02/06 10:24:58.4797470
DATE_TIME_FIRST_SAMPLE_PRECISION: millisecond
SAMPLING_INTERVAL_S: 0.01
NDATA: 13501
DURATION_S: 
STREAM: HNZ
UNITS: cm/s^2
INSTRUMENT: sensor = GMS+/GEOSIG | digitizer = 
INSTRUMENT_ANALOG/DIGITAL: 
INSTRUMENTAL_FREQUENCY_HZ: 
INSTRUMENTAL_DAMPING: 
FULL_SCALE_G: 
N_BIT_DIGITAL_CONVERTER: 
PGA_CM/S^2: 17.115
TIME_PGA_S: 
BASELINE_CORRECTION: BASELINE REMOVED
FILTER_TYPE: BUTTERWORTH
FILTER_ORDER: 
LOW_CUT_FREQUENCY_HZ: 
HIGH_CUT_FREQUENCY_HZ: 
LATE/NORMAL_TRIGGERED: 
DATABASE_VERSION: 
HEADER_FORMAT: DYNA 1.2
DATA_TYPE: Acceleration
PROCESSING: Automatic Paolucci et al., 2011
DATA_TIMESTAMP_YYYYMMDD_HHMMSS: 
DATA_LICENSE: U (unknown license)
DATA_CITATION: Turkish Accelerometric Archive v 1.0 - Disaster And Emergency Management Presidency, Earthquake Department
DATA_CREATOR: AFAD
ORIGINAL_DATA_MEDIATOR_CITATION: : AFAD - Disaster And Emergency Management Presidency
ORIGINAL_DATA_MEDIATOR: AFAD PROCESS SERVICE
ORIGINAL_DATA_CREATOR_CITATION: AFAD PROCESS SERVICE
ORIGINAL_DATA_CREATOR: network: TK
USER1: GuestUser
USER2: 
USER3: 
USER4: 
[...]
3.9626977840026307
4.032756347876399
4.607314594367504
5.27585307689538
5.18200857442841
4.30282935902166
3.4685039402553954
3.0091341991976
2.2890508709063524
1.262991043115658
0.499983968328874
-0.10441450986722561
-0.6806663516435231
-0.9661681244096948
-1.2587569684830802
-2.0067106783033335
-2.698446722455846
-3.086198247076107
-3.5347449023866324
-3.568651955103842
-3.0772114179405685
-2.64914587729273
-2.00314053843756
-0.9616335582998795
0.1889891252856378
1.6307466904681018
3.2568661782720905
4.738940123714033
6.012330621163462
6.8110143429111165
7.142671078163683
7.261567512012127
7.155485242065117
6.453017112105086
4.848148304113013
3.1898956239731033
2.1375925991227853
1.1566149673018746
0.17029802334701882
-0.5975939714465339
-1.1777060888374191
-1.6791212177930028
-2.4742791774737984
-3.3338972233727855
-3.776232933227294
-4.1023175470989885
-4.320594723105887
-4.083355808658187
-3.5665441941761737
-2.9225450183538078
-2.4715208904301726
-2.4165986680112996
-2.321041765291581
-2.4156627871039826
-2.9025956828811608
-3.210814200165118
-2.956330325311678
-2.101999717879545
-1.1752128687111758
-0.6542594440059963
-0.723654725984861
-0.9756499731727595
-0.5616678835452393
0.07655842763119274
0.5864998096670374
1.429292821485977
2.35749625227669
3.3029599894823747
4.264443540203046
4.7137132331087805
4.722519543122898
4.6976424386832045
4.515375138671323
3.9731167724227148
3.268015812627121
2.5639301743288616
1.991686086558579
1.7181896306900766
1.4419357720070909
1.1220868476283392
1.3016784705653526
1.8771681319774955
2.0879271996179654
1.8468775902640817
1.6741225999566969
1.5387588234906135
1.2056166834025723
0.6538803320749645
-0.03147874257865432
-0.5622258821852084
-1.065907889443531
-1.7653586127577219
-2.5387619269219734
-3.3601110215149346
-4.223120151367513
-5.301350979912086
-6.640245434499509
-8.045809795857249
-9.647889344556258
-11.142514159576802
-12.06222931728716
-12.724097673592851
-13.021766457888997
-12.42198666852066
-11.242343632733327
-9.84252254230032
-8.019951752964046
-5.951144094645959
-4.141189090665647
-2.74427598296049
-1.6388890285548152
-0.580865744668813
0.270080289752439
0.5316862859964436
0.6914908973272103
1.093919117048655
1.3526130111280859
1.486677241126129
1.4647471056985781
0.9663314865893993
-0.01433510041016772
-1.126568761078932
-1.919050640054683
-2.353620245879682
-2.587490434286535
-2.543148011362434
-2.0425951395011666
-1.1127733990205286
0.0005633303303077828
1.3216357197837338
2.8478229517694116
4.064467746250261
4.6736520109532105
4.895523848912708
5.026396530525448
5.268677993202089
5.481943922595823
5.723959127211001
6.369885290076531
7.081029807067972
7.259648345383624
6.857708098239966
6.27779419608174
5.794855248582223
5.234159487974652
4.640663231618663
4.248061413789063
4.030496085630551
3.8435623597834288
3.614259299963432
3.205428675283761
2.3862914271980262
1.234032810409089
-0.008838919204184482
-1.3239680228613702
-2.7599011630351256
-4.0761358694187315
-5.070400574002322
-5.910587571171456
-6.4152819249214845
-6.2212033971357075
-5.712056277247534
-5.370217846289801
-5.1214287416966675
-4.7992627905528735
-4.266337617380785
-3.6210362819108806
-2.95976114357667
-2.0258344007073874
-0.7501869332182313
0.7601219023891226
2.073454000854414
2.644458669204064
2.4332445747720692
1.79680481391808
1.0077992819323947
-0.17160192496863444
-1.429080076750354
-2.292170287847152
-3.119241788253001
-3.901733959824041
-4.417409768522004
-4.6253247160029565
-4.727877165879755
-5.284257276744931
-6.307038179625288
-7.3500229979612834
-8.132599568485288
-8.789857586255367
-9.333337158521957
-9.487246171443967
-9.429593802675218
-9.365434615606981
-9.126827194700223
-8.399295422413715
-7.416613354636043
-6.763123606964705
-6.24394805828927
-5.6126341170237755
-4.949713211774468
-4.202551812176025
-3.3497180357808922
-2.3106640955131335
-1.212417399695464
-0.5017134215324233
-0.24337388192536882
0.011038654368552852
0.2619462340513162
0.14980008224187077
-0.1199485333424732
-0.6706069471413995
-2.001918631077148
-3.8394784868352203
-5.762237608005447
-7.329102471485714
-8.232679192031345
-8.653197071816967
-8.48427731594009
-7.868214203844127
-7.047003867028276
-5.875733278644086
-4.704017923321182
-3.671676151635877
-2.490767450450271
-1.4902913744150357
-1.040744226089565
-0.8818731274428667
-0.7266255486724474
-0.5989018428273689
-0.5938541667294356
-0.9169307155558034
-1.4914829837705947
-1.8909398963736752
-2.098697336372275
-2.2533634781355367
-2.2924129301447955
-2.1207548409091834
-1.7174933373731485
-1.2035263344368958
-0.678890233311892
-0.358817603277195
-0.29580012296684494
-0.031869271307724115
0.7421486754853284
1.757702942062725
2.6392026931670594
3.61029602405974
4.870337761922478
5.690665261829054
5.738879047229622
5.8330176992371
6.263314181945322
6.440525959512853
6.4538818699732
6.716880655975144
6.813508522209643
6.801713787529246
7.599040625289577
9.108850933659866
10.453787884173453
11.245727949794327
11.531899777015067
11.58044740698594
11.385477622007855
11.001900024436974
10.73689412465332
10.361667245128213
9.847642479108117
9.279042209808269
8.576917762456945
8.42400691432315
9.028462297699747
9.620572074200663
9.761811891230753
9.710545099569151
9.792761408459832
9.69796209392774
9.247850315109341
8.753777726881257
8.382571268362195
8.062817740212065
7.559536126316485
6.834539848413572
5.998099575588235
5.036135697595958
3.8951714113082945
2.610858850895942
1.260043900204858
-0.3411869921877748
-2.038561385724544
-3.3932325538512402
-4.419140532773038
-4.902676221472018
-4.724510696579319
-4.2993816042488255
-3.6742263469210372
-2.8887411678682
-2.2932400419217633
-1.6689581605039403
-0.7990232176263308
0.06187871296525374
0.8769376297485029
1.3316966710529818
1.5473439097521504
2.0400409333719485
2.2454926324986926
2.0694683029462233
2.0702216534580913
2.003411456112615
1.5917890912158537
0.8966326844105907
0.1470659638322197
-0.30364344190765996
-0.5566974567719544
-0.9216188033040552
-1.4860478783844653
-2.0852290192621434
-2.3449644574781296
-2.2129994007396734
-1.8759365563794608
-1.3675088812459444
-0.5347925105846393
0.6933693854266547
1.9146324467611966
2.7938194496725255
3.574686793906447
4.291824110803633
4.780448318033298
5.329652169711962
6.143784966492817
7.3553797789618525
8.53636044505517
8.914041865335047
8.614053205807641
7.586065799238528
5.8274199746002235
3.9029451521803353
1.7799260459080282
-0.8098106887488531
-3.7814896457678375
-6.921426897294972
-9.821013811864923
-12.06534326997779
-13.815825167119824
-15.242148302576531
-16.088324923660636
-16.426932235640393
-16.383323272602937
-15.848809171234366
-15.037161574335036
-14.185171319333177
-13.451331745079054
-12.52414864764082
-11.03365843223618
-9.659173164120421
-8.705858682485736
-7.706971604489457
-6.394072443995871
-5.2049806022950085
-4.360155839858782
-3.4120135627281956
-2.772590513212634
-2.6230972768904732
-2.4381845974255225
-2.178260897253735
-2.1849711016360094
-2.4779202285320645
-2.989441807992004
-4.055169147209492
-5.3569394746396375
-6.356111219778123
-7.082402076927046
-7.627739608408436
-7.788076885264387
-7.474704162166267
-7.250339314920973
-7.39544816712354
-7.6959924705264315
-8.057852869606583
-8.420982593375472
-8.600582332967567
-8.32505938697603
-7.824716124145601
-7.491222868892464
-6.949056564178444
-5.935305536564913
-4.840483170212467
-3.9430970202596796
-3.1449364597847738
-2.011554997714533
-0.7262762802968992
0.03707385848730089
0.6202426154077981
1.1541522715426789
1.2449340792643935
1.1196027455213011
0.5656493138803502
-0.675219397353992
-2.0926535110675175
-3.414194774256504
-4.837209468319246
-6.240712555835909
-7.3729766925243325
-8.605223967537114
-10.009617876053216
-11.022967848246047
-11.444922523678475
-11.43951009109926
-11.154356103750318
-10.556979637809873
-9.490257672149074
-8.271503370616294
-7.25305918517303
-5.954903597366012
-4.648847829398831
-4.026467261330335
-3.317501898846713
-2.196349542625925
-1.2696357974564128
-0.5759979621168437
-0.10189681694702751
0.00483902915202535
-0.07491900813015386
-0.4446615134107654
-1.4895730671442298
-2.469630036387668
-2.9963868555333253
-3.708916943998991
-4.277281793068603
-4.942692209425496
-6.123621420156185
-6.75999248173352
-6.569454544723762
-6.1668167617366745
-5.755236718312409
-5.0852559214431725
-4.0143477242388155
-2.82519981806497
-1.37923440635121
0.5073789226871936
2.600214859664067
4.699995930028361
6.839467479399503
9.021281499556755
10.739457439315284
11.993965109549274
12.892899739388557
13.155633763139527
13.375858225240448
13.568586152034172
13.022842343528573
12.015135828006384
11.216136329902218
10.575447972770823
9.536985731146363
8.400155664435363
7.731621439989965
7.441174169123422
7.363748874675976
7.350208127007658
7.492897337281628
7.847546145459331
8.468192865019773
9.559888239262488
10.781921863759175
11.934189676735656
12.827066179249732
13.198645179466464
13.668289814576465
14.386340024906751
15.084521031353049
15.808001020123982
16.13678801345132
15.956227814418499
15.661273226111868
15.485148256272195
15.308771458788815
14.832964513472664
14.20411465395252
13.67692011745405
13.009149918798771
12.092920859448236
11.25015605447193
10.45765330216348
9.738848663733865
9.31148018813521
8.885241058037067
8.468843617669496
8.1023101776892
7.251232461117558
6.515737214169217
6.964845299284275
7.699821981166057
7.712026705549585
7.890337150135169
8.431856618363815
8.276586478533504
7.843941479636921
7.870007700991251
7.843196390053125
7.74791857076576
7.825818732022863
7.7466934969536405
7.496028811617121
7.292829931524919
7.171583452820455
7.200964901488544
6.742997442908672
5.151238419934681
3.151924529711657
1.273496404132565
-0.019680516199847634
-0.14828802188719784
0.1684612199557762
0.46096744350898194
0.8419152128496961
0.7612112632634475
-0.09869206884383795
-0.9999839479735367
-1.2436558228443297
-1.3824756803289073
-1.940489358224557
-2.3572844735048766
-2.392885587779694
-2.359700909462971
-2.364513602247428
-2.3529312175836137
-1.956864463968561
-1.3338455387228196
-1.042462226762532
-0.5560817142062023
0.2861197235671608
0.6175780690006313
0.4548084892072712
0.22693180856990966
-0.7047932862232269
-2.6935735207469356
-4.678321022376
-6.261296254110278
-7.750933997003201
-8.733341563015971
-9.17469472545927
-9.74260907816909
-10.896299743403699
-12.225292434075104
-13.181017434636317
-14.057434294750243
-15.016777996407361
-15.837824428907636
-16.38044901419707
-16.535134677426374
-16.33400325895807
-15.773711234729094
-14.902658391554489
-14.107059371263457
-13.678795960493234
-13.412136623813952
-12.991040540060059
-12.461577466293514
-12.163839242523512
-12.210392042449957
-12.44795245903619
-12.785513692175607
-12.998925022172969
-13.003595398712344
-12.814822308664468
-12.425090321144744
-12.289543379383591
-12.232550001416186
-11.856732218836058
-11.870439790114867
-12.428424590342736
-12.726523599468788
-12.492838065936498
-12.357911687606078
-12.627846652494725
-12.886602210089704
-13.238012967068249
-13.551464796219284
-13.16400405629287
-12.390525449101371
-11.879843231695551
-11.645057522700263
-11.606161404448526
-11.492036195803996
-10.922682148042913
-10.032662841213375
-9.298614205699288
-8.88356026016433
-8.323336288243421
-7.721487857645239
-7.522150876129804
-7.195204855519031
-6.529714501684521
-5.914132423198844
-5.3310582912538305
-4.735186494522654
-4.376674473960169
-4.395000033689699
-4.504772385043579
-4.567780515529388
-4.557629140814696
-4.194012490034935
-3.621293872458444
-2.950928975733063
-2.025563187905556
-1.2497020184175287
-0.7995544705513186
-0.5880699116789022
-0.7165560650722975
-0.7296512323241063
-0.5296337884020208
-0.6099088920696687
-0.7263437731698812
-0.497687165932993
-0.025567294306619113
0.6770491303480897
1.3064363757540496
1.4078676557294683
1.2610604901228175
1.0766459684457583
0.7636662899762565
0.5626574725888679
0.6049632145602624
0.9057035343705168
1.5557193363607056
2.2042875135510562
2.650830176748297
3.5640776669779672
4.70552022220149
5.3502539949629755
6.025040003296635
6.704104966103023
6.770810587401101
6.40715280309021
6.194635167978451
6.489058485657798
6.924496973033228
7.185501566545244
7.415269804149279
7.4348573399504545
7.128267409386422
6.980831942662615
7.211884893925811
7.5976990602649845
8.0853324963997
8.588803994264001
9.221357712352315
10.20685431036205
11.333430709408677
12.351695083944223
13.281358170524873
14.133571229489066
14.684379239233657
15.106186991846908
15.657646677587877
15.790947002131364
15.383603730653842
15.111089918368835
15.231886838430286
15.546213675832545
16.023734838381255
16.74022999409536
17.294116536189573
17.15328587974333
16.39796497404014
15.332089250071267
13.984051660066276
12.41003070957559
10.810062055084448
9.393233496303107
8.228143504889951
7.029102443945386
5.603682902322339
4.1590214262229805
2.893918670515362
2.043270380228156
1.7284248528804527
1.615032949493801
1.4662763643284327
1.243179655818184
0.7549131828929408
0.037822009207152694
-0.4900785485420411
-0.9234697930782909
-1.4505278833091046
-1.3787146777132417
-0.7806603687119513
-0.523740679368109
-0.49738071156806096
-0.3244443587293812
-0.12026014616878103
0.068333115258796
0.3308288057328604
0.3584017973256385
0.06569966194599224
0.06490013827696471
0.3643494247416975
0.5683979050662357
0.8259633393219417
1.106842353700763
1.1953324827886136
0.9431428511385737
0.21586360961389828
-0.6244959786895696
-1.366956187732746
-2.1380445037990192
-2.8776591105036964
-3.618986495380484
-4.150974775719719
-4.115514338518516
-3.640025128331346
-2.9930588712113577
-2.132501084814595
-0.9154928066471799
0.47141633513199743
1.6259969889777095
2.4835463855779176
3.312793533978498
4.191107258434719
4.895435980306505
5.344667747696733
5.658440255323195
5.5440517990940075
4.749701520014917
3.562975173797206
2.1869257770870743
0.7842325491802629
-0.6335238659289746
-2.0471175259647754
-3.0219552220262833
-3.585127705930375
-4.057120331665433
-4.318276377477458
-4.420931880114323
-4.6848683016573265
-4.8314813945713215
-4.328126469338364
-3.697226154661862
-3.5643270452155242
-3.2782212254621057
-2.4182423245248534
-1.413635782332757
-0.3513311309000957
0.6640271673871083
1.388336819213794
2.019702032990377
2.5087392656754464
2.5331151514967747
2.2617677547409136
2.118916596003357
2.0748604171184506
1.786693387551196
1.2732135612447388
0.657650386636968
0.0768455082172752
-0.3666458352675759
-0.8066153291952469
-0.966754244551066
-0.6616158718416087
-0.18763853287107501
0.45485392427443544
1.04735511092786
1.1681586675294229
1.2254403772203284
1.6816796009516684
2.336794830389156
2.898430446369255
3.0820737023371176
2.816798220558441
2.226731727070307
1.3709999904213752
0.32087573271667236
-0.8951584050954366
-1.9749561127789
-2.7619356011784357
-3.3806993001772794
-3.523950905711341
-3.3006920120944074
-3.1965533915254034
-3.0732314299710257
-2.767157173532148
-2.3313786065250808
-1.6371451571728732
-0.8420448268701742
-0.4218483782879795
-0.11726225740241668
0.59788167544184
1.5514330869851523
2.497478352385703
3.4599892086414363
4.372854216247992
4.801332088201046
4.64749453578698
4.3332304066358525
3.828748893445229
3.084012631783823
2.339780852531853
1.5927451149673062
0.6898073645509022
-0.49693033909967543
-1.9646499682527263
-3.3720164608162415
-4.280066627373062
-4.731972669513496
-4.979994465917688
-5.068754607764079
-5.006112108092185
-4.730237430254662
-4.0097408760717785
-2.81619998401249
-1.6912746002356078
-1.0941028629479064
-0.8669493655131385
-0.8352185951952743
-1.0993830485965066
-1.5966766239013575
-2.0130318636663893
-2.0953241164856626
-1.8557049281713984
-1.6904237484897102
-1.8551076455118278
-2.1106274354898824
-2.605804975765285
-3.5590766998683847
-4.466796618007284
-5.033246458043788
-5.354560837193032
-5.542315811627068
-5.628845207648559
-5.452955291529258
-5.105273913380202
-4.615359695554412
-3.8384174026967033
-2.997670925167546
-2.341842733269778
-1.859610730320799
-1.5696437974920288
-1.6265782807030142
-1.9824994799956808
-2.4751228958126408
-3.150992572893372
-3.9893349260289046
-4.918036056940794
-5.973751213121291
-7.110891268079824
-8.130061524293112
-9.006562682061112
-9.986651174413366
-10.95053449356273
-11.48931810784433
-11.727302664929136
-12.055187265429844
-12.330895348538515
-12.23512754115064
-11.77419685647897
-11.129152705225174
-10.517350247891464
-9.894992244505998
-9.157410232713314
-8.534641544845709
-8.090867120754458
-7.713279340130479
-7.59604664861898
-7.656661307259758
-7.417823727422171
-6.877657286901365
-6.4106955068258555
-6.1574299455660135
-6.014950819780457
-5.8971960080424095
-5.824948166825069
-5.746971426970875
-5.551201004704182
-5.32566796509615
-5.114432848522437
-4.894859261201857
-4.914777073446057
-5.177295838100263
-5.336198237951617
-5.200807812822915
-4.730066797132959
-4.039306907501354
-3.2226384872658422
-2.3189096361469623
-1.531937770541338
-0.9786148639091563
-0.6620340487303005
-0.5024719114865659
-0.18878679244988805
0.4470521529213194
1.3464581116371401
2.443179693900709
3.471444004511046
4.239945478534574
5.048986027392618
6.066500108729708
6.830986799180266
7.191744403011658
7.502633756583213
7.785636172778145
8.08273691786661
8.542427079662177
9.05608723061055
9.558522118032496
10.07370440961379
10.621545496420229
11.193605779487417
11.799997711401813
12.471941347399776
13.107977106960229
13.747442403492013
14.523741254048655
15.177671974190728
15.415181082678117
15.269035410145325
14.827129696695103
14.194181817661969
13.488835386186118
12.838633082612665
12.357079413714406
11.817746034982854
11.107458175876701
10.591986897369749
10.475556108845966
10.757210072637958
11.12358383367549
11.08078412399199
10.759855580576382
10.550952635036877
10.441735656450872
10.231532530123216
10.009699788644264
9.965749838951648
10.148662243231678
10.503601329735794
10.817829714263073
11.08461478074792
10.691865785565524
9.321310405150887
8.54804528613015
8.575394291085136
8.420470293453851
8.35644953003788
7.924432704458017
7.131766913596632
6.541624905466231
5.416286975589487
