AAD_Filtered_TADAS_FILE
AAD_BASELINE_CORRECTION: BASELINE REMOVED
AAD_FILTER_TYPE: BUTTERWORTH
AAD_FILTER_ORDER: 1
AAD_LOW_CUT_FREQUENCY_HZ: 0.025
AAD_HIGH_CUT_FREQUENCY_HZ: 40.0
EVENT_NAME: 202302061024
EVENT_ID: 13207
EVENT_DATE_YYYYMMDD: 2023/02/06
EVENT_TIME_HHMMSS: 10:24:47.00000
EVENT_LATITUDE_DEGREE: 38.089
EVENT_LONGITUDE_DEGREE: 37.239
EVENT_DEPTH_KM: 7.0
HYPOCENTER_REFERENCE: AFAD
MAGNITUDE_W: 7.6
MAGNITUDE_W_REFERENCE: AFAD
MAGNITUDE_L: 
MAGNITUDE_L_REFERENCE: 
FOCAL_MECHANISM: 
NETWORK: TK
STATION_CODE: 0209
STATION_NAME: 
STATION_LATITUDE_DEGREE: 37.57763
STATION_LONGITUDE_DEGREE: 38.48251
STATION_ELEVATION_M: 613.0
LOCATION: Kahramanmaras_Elbistan_Turkiye
SENSOR_DEPTH_M: 
VS30_M/S: None
SITE_CLASSIFICATION_EC8: unknown
MORPHOLOGIC_CLASSIFICATION: 
EPICENTRAL_DISTANCE_KM: 123.12
EARTHQUAKE_BACKAZIMUTH_DEGREE: 
DATE_TIME_FIRST_SAMPLE_YYYYMMDD_HHMMSS: 2023/02/06 10:24:48.2502460
DATE_TIME_FIRST_SAMPLE_PRECISION: millisecond
SAMPLING_INTERVAL_S: 0.01
NDATA: 12501
DURATION_S: 
STREAM: HNN
UNITS: cm/s^2
INSTRUMENT: sensor = ACEBOX/SARA | digitizer = 
INSTRUMENT_ANALOG/DIGITAL: 
INSTRUMENTAL_FREQUENCY_HZ: 
INSTRUMENTAL_DAMPING: 
FULL_SCALE_G: 
N_BIT_DIGITAL_CONVERTER: 
PGA_CM/S^2: 33.424
TIME_PGA_S: 
BASELINE_CORRECTION: BASELINE REMOVED
FILTER_TYPE: BUTTERWORTH
FILTER_ORDER: 
LOW_CUT_FREQUENCY_HZ: 
HIGH_CUT_FREQUENCY_HZ: 
LATE/NORMAL_TRIGGERED: 
DATABASE_VERSION: 
HEADER_FORMAT: DYNA 1.2
DATA_TYPE: Acceleration
PROCESSING: Automatic Paolucci et al., 2011
DATA_TIMESTAMP_YYYYMMDD_HHMMSS: 
DATA_LICENSE: U (unknown license)
DATA_CITATION: Turkish Accelerometric Archive v 1.0 - Disaster And Emergency Management Presidency, Earthquake Department
DATA_CREATOR: AFAD
ORIGINAL_DATA_MEDIATOR_CITATION: : AFAD - Disaster And Emergency Management Presidency
ORIGINAL_DATA_MEDIATOR: AFAD PROCESS SERVICE
ORIGINAL_DATA_CREATOR_CITATION: AFAD PROCESS SERVICE
ORIGINAL_DATA_CREATOR: network: TK
USER1: GuestUser
USER2: 
USER3: 
USER4: 
-4.222362976821539
-10.968646978062585
-13.635966440570499
-13.173648180300855
-10.970672128401526
-5.648177216604831
2.8167247364048382
9.691043943679826
9.759196060092453
3.561133837411465
-3.7984357620956843
-6.6866837327575634
-1.7290102466139388
8.306846374201282
16.847982028527262
18.535188110749974
11.813220209170655
2.368166677881927
-2.7952743694363327
-4.023501701710714
-4.546282158269741
-5.001222834925351
-4.361147600847931
-2.183750680191306
0.15826330811541955
2.268172118387387
5.594686128974181
10.511295124414378
15.943449731640998
19.893467250899374
20.581793981334872
17.900616752150555
13.310112364931785
10.10951471713206
10.572834071350204
12.768922685266332
14.19096202522251
14.574332848715477
13.867551303167254
11.7094825713364
8.785393605097154
7.236327766659301
9.234565239060906
13.751484062992768
15.944351059808419
12.47801427463039
5.530661804323685
0.6835422204975313
2.1304910378888846
7.914677113111779
11.553750914630067
9.31293357354601
2.8164013717272067
-2.849416192095648
-2.1262966485559893
6.6253592895539954
18.778394875174012
26.642511839698667
25.99467003346493
19.379113112104314
12.90344914411293
9.870342207963942
9.536615652413698
11.154537636071694
14.014145420118629
16.82805419268228
19.914057989669992
23.671211862443364
26.096967768841782
23.537744656490972
15.091886545503158
6.115769385576201
2.1249109703794034
2.1348858698863027
1.9433819407151156
-0.6300988077457033
-4.069331185043073
-4.28463741743865
0.7586741632337624
6.890339722010567
7.916096189513441
3.43339951486303
-1.6414269322906507
-2.100266600807947
3.277737084976321
9.413453559027575
10.699920672861962
7.182322954920148
2.742607915227573
1.7578297638938765
6.6709531379681675
16.072064300095843
24.5534311396216
26.324717019810343
20.598721427104802
11.053464839938425
2.472831881713273
-1.106526395026079
0.9407314922742435
5.534203608893375
9.075001488929919
10.313084523920766
8.995705054766937
4.828578314633603
0.6753745267258159
-0.7752098802612627
-0.7981284974134885
0.5121770642878183
3.7354322157892748
7.75034179058254
12.871311735430018
18.015484447490852
19.314955198801222
15.682327443215573
9.589276572248012
4.689051927086449
4.238219577230231
8.513657893957816
14.309933791655583
17.39213913912809
15.406386380556267
9.094938263039035
1.69403166024645
-2.308832045528918
-0.3357390633404613
5.688784074780921
10.944569560640822
10.921829693283915
5.034043312819243
-1.9443651254680696
-4.538838798300812
-1.4934679961276507
3.984098714485829
6.38205686045755
1.9470677896440667
-7.399137830468739
-14.664230211410043
-13.417240903379941
-4.395063554355255
3.728292623888648
2.176924978563075
-9.677046070311155
-24.694412753496238
-33.5731323710743
-30.680759172490422
-18.790639260060814
-6.428621347192237
0.49453885982573
1.7986550355507314
-0.3031079079223357
-4.351035105164523
-8.711333447596276
-10.462875745622721
-8.228550717228703
-3.716941034295178
0.2714943054248022
1.4521675414397053
-0.5978146185694739
-3.9562932907794433
-6.19347494141107
-5.739701613125174
-2.652048717597497
0.4978658262995105
1.1489794709750487
-0.010599605220692487
-0.2102990061194433
2.8884871562093304
9.292586704115026
16.515678732563693
22.287117966249486
25.521932058909588
25.992789985119103
24.77253027194006
22.818875102539376
19.94613724496297
14.923569343277487
6.7661128472111285
-1.6558868665628155
-5.75493119170315
-5.290357241140881
-3.2024418598673248
-2.586373880518865
-4.867111750111701
-6.4783878370100165
-3.2806951306457486
2.007962899385699
3.764785015158739
0.5762167962997861
-4.4972941730036196
-6.718431400305772
-2.939518592227566
5.410384256983337
12.35079052328764
12.941395120814185
8.52611736039347
3.9417306332796738
2.253698767849189
2.3189566510483464
-0.22022301936688987
-7.090868547102011
-14.251569811722188
-16.463179234069045
-12.378394126008809
-5.144971408753109
-0.12241219352735418
-1.8866892696508692
-10.767717601540577
-21.41674237285337
-26.343418549152876
-21.84398165622193
-11.063102207904526
-0.9026041032382178
3.1740431158721845
0.17348647712007487
-4.859600618185817
-5.660395750059417
-1.927707173248583
2.7201134801948323
4.582643067964785
1.7374503709067741
-2.441425558352984
-3.421005787943779
-1.445697516007036
1.2142398421001317
2.4954965547948973
1.031673452596462
-2.4569911183002047
-6.396393064783219
-9.119579220493904
-7.727850054103143
1.143046632287677
15.819910802331668
26.42597166700704
23.87409333136696
10.072310074102957
-4.074694290434939
-7.421630257985962
2.637129148382654
16.071358866043166
19.16509744159509
10.310126889417152
0.914665868326697
0.4431724734194289
7.120014977420958
11.843699799051231
8.146149968558287
-0.9563304380005181
-7.198694669741975
-6.261833937280356
-0.5880846944564767
4.202835660081868
5.330074865530877
5.0751104428087555
6.081432771534071
8.8800016241244
13.048073564335988
15.019877073440975
9.878942704721482
-0.5434758568743353
-7.306622890717773
-3.836860772937247
7.376646238241237
17.82803816168267
20.1952548042693
13.242043539775185
3.0144774413810658
-3.0956123801335433
-3.5295925806729964
-1.428181577786745
-1.1550656249372024
-5.2430422466899405
-11.47111257002864
-16.14606954741849
-18.007067130590297
-17.533197529743717
-15.64953643900387
-12.423848227798418
-8.167492307904757
-5.169785714065117
-5.119288721133476
-7.520295086004508
-11.110086850608546
-14.384148227138535
-16.293554079658602
-16.665340100689303
-15.887193680891816
-14.941442245666643
-14.122314512823609
-12.661087137123667
-10.334053242312603
-8.184078106789366
-8.933811154962067
-14.750472324349493
-23.673129687901266
-31.3721537124804
-34.4186735051135
-31.81096129651383
-25.79808402439413
-19.39097652806228
-14.67061302352032
-13.36488732024075
-14.80832399899121
-15.93305407784027
-14.849395578771835
-11.459132556406967
-6.1423314471437305
0.045776117270439155
4.6723767160783725
5.059235164777039
1.233920437773853
-3.316660679127585
-4.3887059876951255
-1.6504112478257813
0.2179950067269211
-1.9599555407121332
-6.502186889027492
-10.822746028172714
-12.623705284503625
-10.275190074538695
-3.9168515938199646
4.774583878941539
11.025062110640015
10.57670551054099
5.269448617555219
-0.8704848202807485
-4.952329086552412
-5.5492511761272425
-5.674202558437368
-8.734494953404884
-12.449751614411356
-12.398140174049827
-7.627757027976508
-2.0533871531359864
-1.198282427314049
-6.214319716869593
-12.060364834455177
-11.747864107587253
-3.0941821633913666
8.141880648221028
12.70255630942216
6.862674360731515
-2.691924879904074
-6.40123734850812
-1.6795359429941679
7.006180709449802
11.572995444148571
6.826365311828107
-4.039395240830012
-14.888217016301024
-21.427856673033872
-21.299980654401697
-16.247846402709552
-10.397960813270412
-7.185175871600251
-8.548998579550803
-13.3208637662191
-17.818147837322467
-17.93524262598044
-12.252987567714209
-4.208266840594365
0.9735005375753968
-0.40032152530342807
-8.008654634367913
-16.871512316815625
-21.810171785953663
-20.052450663177137
-11.669289127432748
-1.1921544973324907
4.85582435332568
3.08449771167504
-4.9512170338311146
-13.86232833409836
-17.451640345291494
-13.955106303034023
-7.959182372813187
-5.321093835441718
-8.864159720609189
-18.069251463852815
-28.445709404473178
-33.208127632999755
-28.604896475751445
-17.004618158460385
-5.692950945082778
-1.7249872742975483
-5.363519372212666
-10.724932470341983
-11.867197919225845
-6.142132511606717
3.8142499000747945
12.090433646707222
15.092998898452947
12.23213783102592
4.822449212905993
-3.404558308897033
-7.372369395710222
-3.842149641119836
4.73105725793348
11.380697759792852
11.443414725783178
6.39936081174818
0.8944130905199508
-2.18329349712881
-3.5305496527623896
-5.757255798687891
-9.047497023946201
-9.727609420663802
-5.095797619318482
3.269698097340203
10.340386470262771
10.729658198831013
3.8865052449634336
-4.772402472664327
-8.597748718898726
-4.2869096794395505
6.175115169748967
15.979709468670942
18.261580103434284
12.091537783713216
2.20308326658226
-5.387609361671384
-7.187480615946838
-3.829422564929637
2.0960040313026536
7.4574271815338955
9.463407994702113
7.6497871795114065
3.463456710298071
0.43087901944600715
2.46817951507146
9.189292474314886
17.15747798386382
22.864321811817682
23.526515342098676
20.125450378504766
16.122184537848334
12.474326697476325
8.859643641575643
6.411649863836311
6.765874280235615
10.413243319473267
14.978384611565279
16.309346990079764
12.19010415010335
4.229760514790775
-2.4919743868302136
-3.431237730790574
0.8395400026354
5.321256786457202
5.39917077087588
1.6433961923088503
-1.8365975011305635
-2.7067627954913713
-0.6977968111613468
2.6006660846367766
3.735027647844613
1.5919079835862615
-1.1295861587632867
-1.0008974596432076
2.680290549729236
5.95694517432852
4.46318531278248
-1.5274401144206562
-8.7575420910277
-13.113115993196072
-11.771107824385057
-6.4076052304679045
-0.8727043162378173
2.771652116943441
5.116492800681289
8.456092183209956
13.515324887215193
17.737270671852627
16.704070746164962
7.844357535414054
-4.841047303804856
-12.955775090707595
-10.900037430276212
0.38905232844208254
13.091841893275163
17.858099827668195
12.730451524548812
4.360406883757507
0.1891117854969192
1.3009526504471007
3.0581904842263783
0.8402782510578313
-5.058124868382858
-9.189035032663638
-7.525128048335301
-2.5339525672677095
0.827420520556979
-0.018508650683205653
-4.194173274458574
-7.492475762388977
-6.1131611740726335
-1.050263464223005
3.561089487211301
5.05414660712178
3.5440868264220104
0.49303353820744816
-1.7614939334468955
-0.6153112389645605
4.467584185908541
11.140626075139759
15.06103770398325
12.319313881851809
4.28946323269099
-2.4885907573394688
-3.072453950715883
1.6743323627793125
6.303842089624238
6.09847294849752
2.123414715319993
-0.9661665595183044
-0.44805803468744604
2.6003271088465727
4.757522778754988
4.173416891201304
3.027131660833647
4.2108316547013755
7.551596256832682
10.791962200360068
12.467252728289836
13.576960336596425
16.206607897275326
19.547023714396147
19.27454033226149
12.415423130686577
1.990128605146819
-4.177987470142842
-1.6611962950674393
4.592382885796186
6.611193241017531
2.3242032161038275
-4.510465011281063
-7.925483913964381
-4.399794428700686
2.878954167672456
8.33204744732329
10.6483769588119
11.13273682717369
9.97944709048774
6.920927523517739
3.27487779973204
1.9353073328284582
4.978937624398675
11.071597968657272
15.476713916973512
14.077801626655686
7.157877937813152
-1.1341585703066852
-5.286075026151241
-2.29020795629092
5.896989714455107
14.885059175044171
20.20807704844269
19.019617507324313
12.938514818816458
6.437862316627246
2.8243888746606793
2.9310509165494043
4.691244523046691
4.9399745122353975
3.0518043559076964
0.475646937728454
-1.8122544931217948
-2.4598751900572022
0.6015078360470315
6.532042857725827
9.736691460773505
4.757427037494806
-6.5623098139430125
-15.976373400273557
-17.400372593504677
-11.124965452447348
-2.3148467029912876
2.35910146684673
0.3045463118946517
-5.745670098722609
-11.952167131022268
-15.45702871692283
-14.562188230572755
-9.798081141019203
-4.4381034720092485
-2.1520783691453587
-4.197323884351632
-9.312967317039806
-13.989156130681309
-14.296098183739225
-9.477666689922327
-2.386496355247615
2.8258312773063046
3.5565137995429965
0.03392788855219937
-6.028974755714755
-12.323751947239638
-16.03078162028546
-15.021014180766231
-10.258715488027944
-6.538330378349469
-8.46407966085944
-15.503700176203738
-22.076582943549948
-22.726115885981955
-17.78737255884788
-13.199477207851839
-13.486647121578823
-17.054325294532134
-19.16977658749762
-16.90681059425254
-11.425472097188727
-6.285122567898219
-3.7518291020511274
-3.592850531977002
-3.764557917112516
-2.1574782682983624
1.1537775821648188
3.7275695490082
2.5406213494579397
-2.6985832733809993
-8.131928554928143
-9.343575016391586
-5.706242376494328
-0.9650039677399095
0.8291226600888479
-0.9882063809909735
-4.115442463577859
-4.549442441013304
-0.6144329750051316
3.18196917509341
1.5696107473157888
-5.052882147607573
-11.956124188250808
-13.697300443208276
-8.400281064140902
-0.8098061659939416
1.8208072525903964
-2.5862571713084876
-9.630026294270895
-14.19432732194814
-13.758307716998125
-8.535470224705785
-2.393193422707145
0.9478318769947056
1.7013676911652984
0.8904575299540168
-0.4906914610069134
-1.0962740354736937
-1.7223825430592012
-3.0848037482330835
-3.9406448541459977
-3.9250457992546446
-3.8800365009419475
-5.597325379228003
-10.858618745905632
-17.48240906315121
-20.479977704774267
-17.331330832427366
-9.78628284288278
-2.9913236535551415
-1.9399965005941242
-6.820055070990288
-12.067583258022045
-10.777579344771652
-2.0905575907472183
8.168786504686496
14.301448813076231
13.986531008107459
8.993230272617753
4.70978855341838
4.6268207941923425
7.355513779545951
9.486255005049356
8.173438337008447
3.167408640384953
-2.109387835813894
-3.2879514435780712
0.9833799566925623
8.015666943799044
13.069281228038777
12.401717829615482
6.23381902926921
-0.2843960418856531
-0.9486632871739402
5.578036040637001
14.375075502720343
17.885914913566275
11.890807695377749
-0.3505926636056953
-10.895677893174062
-13.511725191015614
-7.998963003683395
0.2267895463997478
5.725506572651272
6.919122243229815
5.296807176755387
3.0728414068832435
1.066291616367618
-0.25744781112864074
-0.5198066351080466
-1.2211298871275422
-2.885957088694526
-3.7835250825066424
-3.3910368905602457
-2.2183014883569894
-0.9025138772374457
-0.7504696039836262
-2.109904537899883
-4.181954083827703
-6.239040954209055
-7.7409025378360665
-8.849678716284757
-10.201752127958002
-12.320616482882718
-14.796984561563173
-14.836740330581636
-10.089418447551154
-2.525416006840563
3.5276103762513507
4.581922021195388
-0.27155506578213195
-7.897225857062417
-12.77176160224292
-11.404192556318407
-5.4863756728918
-0.4783788805964662
-0.10362558640327768
-2.8808691565868547
-4.932823021665955
-4.457029168922797
-2.299914317447038
-1.085102990918914
-4.001363409392529
-10.812900361536196
-16.2920497150315
-15.165216286550903
-7.915675247978713
-1.2848917425403383
-1.8708474653218947
-8.695547052890278
-14.368060058408016
-13.417440279949577
-6.849711737116988
0.33688770735326923
3.4343331968176782
1.3434095867238611
-2.844435643229775
-5.725509522861965
-6.92065967819255
-7.555508432345684
-8.118624665939526
-8.43402591765241
-7.845497934101042
-5.82920507660913
-2.7517358704457826
0.4653067407730349
2.5093443207384096
2.1563426780649775
-0.2863227787053175
-2.8912458705293633
-3.390260477737456
-1.0208676653044748
2.4431738579815097
4.745052068032925
5.157991921220412
4.78084392860617
5.574540280490103
6.805735493258751
5.614964875772233
2.6219997427717825
1.8462829900676054
5.557059250490953
11.069953538890593
13.160866264645252
10.006726966671748
4.0057991870214
-0.40641592269574284
1.2136069467062267
8.473484823609109
16.159329648729152
19.87621414031745
18.466991002067672
13.676923558895169
8.790725591273851
6.881402498292773
9.174950288892278
13.929257395292922
17.860892533632217
18.063083162208063
14.213912591038216
9.146338531781899
4.528742273026093
0.17062860703103397
-2.7653803554348237
-3.4160399054353072
-2.8156345370237816
-2.069888775135995
-1.4476111837921029
-0.7793630267222942
-0.08281986243449294
0.3716079707830926
-0.261649217687984
-2.851619376570368
-6.213548715295338
-8.319133024054345
-9.042108924018322
-10.020147427729093
-12.529806422189449
-15.198434332648667
-15.863721501961892
-14.36227977255806
-11.138727615413696
-7.309859937748343
-5.042542307840561
-5.317137725229493
-7.610201382913884
-10.159571633474918
-10.704526723614249
-8.706556724308491
-5.418617096494537
-3.2866484500577458
-4.595386360668704
-8.159815280124873
-10.239104114337156
-8.971316922635188
-5.67681385982917
-3.527996282846764
-4.715116304777622
-7.966373844713262
-10.44397651429973
-10.593235714946305
-8.211815907205503
-4.772116941023731
-3.3739809515564025
-5.454168736152268
-8.721418969178863
-10.266633669226309
-9.726407443835841
-8.909696212112236
-9.626715511332321
-10.92434917081695
-9.99547815772894
-6.445783269472048
-2.5702888811701685
-0.9103347540966107
-2.431000147445239
-4.972790441177231
-5.200600537477097
-2.0982723314283986
2.6467230509742112
6.162445034919612
6.7086187032201074
4.697968583042792
1.4127347605873317
-1.3022444780157556
-1.340641527406797
1.3883448890230414
4.607553587631179
6.255354710246331
5.669627501229364
3.395530090274023
1.5371500165748626
2.151341464100637
4.885471124357458
7.888861719684158
9.156859218150947
6.968723221600424
2.272599844692534
-0.8613610302855806
0.659898765219487
6.288444245324596
13.069230703386857
17.529498486885107
16.944305933535748
11.297579257407323
4.959060422116476
3.450857145638567
7.756224675344375
14.36507016277915
19.023271119828856
18.785855818039515
13.802251254309455
7.634975065727766
4.039578952830183
4.012132238879184
5.6603790541823615
6.568602892792059
6.348712317250692
5.812483875622784
5.82265396068232
7.910211399752841
12.387305097905289
16.6049959221691
16.850208286487742
11.492439975777947
3.7101945057024492
-0.4385899145600879
1.9643657496177962
8.041161297610959
11.811335988951177
10.184275817491738
6.040957156883059
4.313918058435483
6.934559657936203
11.188370380761272
12.535151975104743
9.551589742245959
5.138516616433931
3.3238401148692436
5.1221862031821095
8.342900870407139
10.545211260012238
10.175380553800112
7.639559082789021
4.667324776326895
1.8380104195984537
0.2688433883147954
1.7903394583878882
5.58120580652173
9.377850180114839
11.722517429237765
11.40394198480878
8.259141151853996
3.843659712505075
0.26682049441106537
-0.983904118261997
-0.2225416192667067
1.4301469946217904
3.8598911008170393
6.515625152844117
7.929814422639009
6.8812085225791835
2.6984373799360957
-2.8266160107136855
-6.355952207780509
-7.122072948325883
-6.028999285912886
-2.8723499312107146
2.4042846972876393
7.871122171516826
10.990271757447372
10.7500697466127
7.700985639982228
4.140865750452263
2.9696233204570603
3.9180280009673747
4.318830670454988
3.6281861984035024
3.2639119240254164
3.5106281756683475
3.0674346244422277
