AAD_Filtered_TADAS_FILE
AAD_BASELINE_CORRECTION: BASELINE REMOVED
AAD_FILTER_TYPE: BUTTERWORTH
AAD_FILTER_ORDER: 1
AAD_LOW_CUT_FREQUENCY_HZ: 0.025
AAD_HIGH_CUT_FREQUENCY_HZ: 40.0
EVENT_NAME: 202302061024
EVENT_ID: 13207
EVENT_DATE_YYYYMMDD: 2023/02/06
EVENT_TIME_HHMMSS: 10:24:47.00000
EVENT_LATITUDE_DEGREE: 38.089
EVENT_LONGITUDE_DEGREE: 37.239
EVENT_DEPTH_KM: 7.0
HYPOCENTER_REFERENCE: AFAD
MAGNITUDE_W: 7.6
MAGNITUDE_W_REFERENCE: AFAD
MAGNITUDE_L: 
MAGNITUDE_L_REFERENCE: 
FOCAL_MECHANISM: 
NETWORK: TK
STATION_CODE: 3142
STATION_NAME: 
STATION_LATITUDE_DEGREE: 36.49797
STATION_LONGITUDE_DEGREE: 36.36612
STATION_ELEVATION_M: 139.0
LOCATION: Kahramanmaras_Elbistan_Turkiye
SENSOR_DEPTH_M: 
VS30_M/S: 539
SITE_CLASSIFICATION_EC8: B
MORPHOLOGIC_CLASSIFICATION: 
EPICENTRAL_DISTANCE_KM: 193.03
EARTHQUAKE_BACKAZIMUTH_DEGREE: 
DATE_TIME_FIRST_SAMPLE_YYYYMMDD_HHMMSS: 2023/02/06 10:25:00.2831870
DATE_TIME_FIRST_SAMPLE_PRECISION: millisecond
SAMPLING_INTERVAL_S: 0.01
NDATA: 13501
DURATION_S: 
STREAM: HNN
UNITS: cm/s^2
INSTRUMENT: sensor = GMS+/GEOSIG | digitizer = 
INSTRUMENT_ANALOG/DIGITAL: 
INSTRUMENTAL_FREQUENCY_HZ: 
INSTRUMENTAL_DAMPING: 
FULL_SCALE_G: 
N_BIT_DIGITAL_CONVERTER: 
PGA_CM/S^2: 10.381
TIME_PGA_S: 
BASELINE_CORRECTION: BASELINE REMOVED
FILTER_TYPE: BUTTERWORTH
FILTER_ORDER: 
LOW_CUT_FREQUENCY_HZ: 
HIGH_CUT_FREQUENCY_HZ: 
LATE/NORMAL_TRIGGERED: 
DATABASE_VERSION: 
HEADER_FORMAT: DYNA 1.2
DATA_TYPE: Acceleration
PROCESSING: Automatic Paolucci et al., 2011
DATA_TIMESTAMP_YYYYMMDD_HHMMSS: 
DATA_LICENSE: U (unknown license)
DATA_CITATION: Turkish Accelerometric Archive v 1.0 - Disaster And Emergency Management Presidency, Earthquake Department
DATA_CREATOR: AFAD
ORIGINAL_DATA_MEDIATOR_CITATION: : AFAD - Disaster And Emergency Management Presidency
ORIGINAL_DATA_MEDIATOR: AFAD PROCESS SERVICE
ORIGINAL_DATA_CREATOR_CITATION: AFAD PROCESS SERVICE
ORIGINAL_DATA_CREATOR: network: TK
USER1: GuestUser
USER2: 
USER3: 
USER4: 
[...]
-5.732715277615349
-5.4621204913433585
-5.045218394895018
-4.422540736882061
-3.966527708533639
-3.7230936669772388
-3.422095916604237
-3.1669554025495996
-2.5420984260447064
-1.8641701817177334
-1.30320450234151
-0.9799496662331735
-0.5293270888201146
0.3601846873490992
1.0165593359601985
1.8420554174319976
2.257474171232314
2.051055718849129
2.022631461579346
2.6081435168015914
3.902642105234227
4.187333956128786
3.9338810172021548
4.640662878091354
5.724857509635998
5.998731101249363
5.1863093074877415
5.242904942407923
5.655285434698984
5.008755336592938
4.036416518494282
2.858616188424273
2.2906648994987293
2.36773994729986
2.7731898004084448
2.455996158708187
1.0420417605856744
1.5025324276225496
2.3130443307386317
1.4590397367119412
0.9339083499162683
1.4977389464523034
2.5166951979040557
2.5554730139069117
2.367069736209125
3.0719156020945824
3.189956600441454
2.3129607198846514
1.9697231138127353
1.3817273225726179
0.23578161254382765
0.591868704590555
1.0271636525601033
0.5000577387841324
-0.061095573139892057
-0.6151644041912421
-0.7345886607949268
-0.8827469248448835
-1.2857434914469976
-1.5983565765701118
-1.3966026386667807
0.045134177711480296
1.3693608584323769
1.3676913784327318
1.4436723380257506
2.0652414837071436
2.199606734004151
1.9873414903470548
2.210879163194285
2.202075885141159
1.3294232337925045
0.19669181569142624
-1.0168197324602146
-2.3601693265343706
-3.6431241523127103
-4.013460614886822
-4.032323371441711
-4.892921185722341
-5.502314463484204
-5.664901166279384
-5.823116386131421
-5.985727580332468
-6.112213242182513
-5.95973262632628
-5.986705633663015
-5.9711435646732
-5.402572779748653
-4.346747450174921
-3.1979333397876895
-2.1888686661251175
-1.3685861521435703
-1.3604435200961456
-1.6811258935781546
-1.3222431782623087
-0.8383763481270226
-0.8224487008079477
-0.8168439299923913
-0.7070557093603566
-0.7308421441363774
-0.29497119537246447
0.5280112777599785
1.1161309923209026
1.4772515058045077
1.7193988322104652
2.261690774209201
3.111097277987979
4.175567221026169
5.4079415904494565
6.373120385863478
6.927387724859053
7.476128247223187
8.262479782285043
8.512711633236991
7.706745296884442
6.08883474286881
4.489915502058496
3.418070081495043
2.28665616542656
0.6633078256733694
-1.3430095349498696
-2.9094060640866113
-3.719855745660882
-4.474112823579821
-5.405047847144366
-6.2180660637510075
-6.619075098476211
-6.675531603329609
-6.872587456794559
-7.300982697886263
-7.278020845094279
-7.01283510436727
-7.407926391873975
-8.16990728780694
-8.68570502441733
-8.865614837273608
-9.066998851477711
-9.457034421764243
-9.38988555694957
-8.892935875432164
-8.085338076230997
-6.799862607070247
-5.809828152641172
-5.383532501240553
-5.303846695977407
-5.472676422706781
-5.87916505080006
-6.5715720596665275
-6.8831887280323345
-6.452320383061307
-5.915310721982253
-5.441583581726075
-4.8770386330668005
-4.511473772219228
-3.9842579316313094
-3.3976613511661258
-3.1310687516477103
-3.0975739295422455
-3.324557350911447
-3.511021655779537
-3.886545204763916
-4.285339431028997
-4.444853714185375
-4.219572831409314
-3.444781377499714
-2.897977461286727
-2.6250682628746733
-2.2097981293833695
-1.3631803456806881
-0.23985929883903584
0.6797380245985986
1.4391839739522532
1.9851542475231188
2.462833190624372
2.843028059877313
2.568686411247588
1.7232206045147995
0.8637536288573908
-0.05532879733778274
-1.118453414710237
-1.9868752198418398
-2.4032429321901345
-2.548092770355761
-2.6588409111367826
-2.5235284518144705
-1.9613274230005924
-0.6739260786669992
0.9656113593475278
2.0334546501882174
2.5867499550968174
2.7471541833521855
2.707466677194286
2.674598446446043
2.7551175915560635
3.3734261480588694
3.8016229555334826
3.971233227538761
4.612281611929307
5.330852519658134
6.171118856711718
6.919880429332804
7.431450036734191
8.014424757865433
8.35083890669784
8.427808070953311
8.332442015359403
8.092562767632296
7.391448689666545
6.107151827360881
5.16263506878737
4.619499380732865
3.675052924326833
2.567197464212392
1.955549902116156
1.466856240185114
0.638175175241262
-0.0775613432852316
-0.4744101437601021
-0.6858762434348993
-0.6031646595927728
-0.2768115777490835
-0.21855673891063063
-0.6156295724298789
-0.8954204525241116
-0.8734743508348655
-0.8471011375822475
-1.2877992642105218
-1.916871486544614
-1.9286461612072052
-1.6749329389839631
-1.9361611794643476
-2.7492079581726356
-3.211130436673215
-3.2286211478117
-3.226378062647623
-3.302360748640547
-3.8207741961844777
-4.199961724881648
-4.5271803176505845
-5.422790452790812
-6.568401579917507
-7.306915585850943
-6.9516560939883005
-6.052896778347234
-5.373876352308559
-5.025964767904698
-5.006016419453153
-4.816786898402779
-4.2264103511747635
-3.7338633359730875
-3.385140916254566
-2.7689539032965187
-1.9669506987702445
-1.3736133034643478
-1.0470610163815366
-0.77566874343424
-0.7018014486464783
-0.9559748208687034
-1.170473990913293
-1.040789817565019
-0.7545300952745497
-0.32089587088760585
0.08614038461466342
0.09211907107771412
0.3811942091776785
0.9643167995815805
1.0751907765981985
0.7901494594067404
0.3019282290962834
-0.11590357594393869
-0.6872775392664674
-1.5140683025749175
-2.1357311969859727
-2.3978292113298143
-1.9240074780248608
-0.9822480338686942
0.005184245989069433
1.0252423499552912
1.622273512756256
2.170266401346841
3.272685066590673
3.8450389742332565
3.1853215560701216
2.3740965916962944
1.853451487488832
1.2084099790884735
0.27527984819558227
-0.6200342868338242
-0.9707128436019247
-1.4260836446901908
-2.2254711531105014
-2.6021206335764204
-2.6440419748937756
-2.4021049493039643
-2.0015904968664775
-1.9193571484339993
-2.088883120536832
-2.339236621449042
-2.7442199605315807
-3.4685319193147826
-3.9382148367099252
-3.6843477866069962
-3.287448582536441
-3.199153849265757
-3.2014012470462694
-2.6983276477160567
-1.599145438179951
-0.5433551546868839
0.1710869764114322
0.7153215936063314
1.2544978674391336
1.6601657071914397
1.372735064713359
0.6110185507682158
0.14853287883387334
0.08417893286092663
0.1699991440576694
0.5673933489553377
1.6765244311950707
2.6875540947283114
3.166108882588375
3.828296329095709
4.405523635121256
4.613125733828086
4.58517987964553
4.521512647849899
4.439326500863865
3.879462959431231
3.2464286314098527
2.8550934230814873
2.8028073385582037
3.210115312084476
3.462091053727899
3.592413136521419
3.843267141591413
4.328680987346534
5.110219525461943
5.8798001541196765
6.589175720001484
7.050434604027237
7.191221288031365
7.098269828942292
6.906719739531141
6.858833832351251
6.76621709650208
6.358580283706335
5.591706007464014
4.814967370414069
4.353879813185324
3.7752947931752048
2.8920225872784875
2.263168294749378
1.8375535170271082
1.26629102697666
0.3525209966666788
-0.8859109587991462
-1.8818497887716348
-2.717382221318149
-3.4943731085756546
-3.94876555774441
-4.1517323200619645
-4.263805498024773
-4.517059855481236
-4.992407874261592
-5.6297592236214715
-5.856984470227369
-5.452066388296687
-5.00768414844236
-4.851483395919957
-4.9499850814425335
-4.963596956741433
-4.673541131297374
-4.162208494835471
-3.8406386223881426
-3.987032785483244
-4.342814168970941
-4.562664844569907
-4.294273312022837
-3.598833212303841
-2.691938163957663
-1.8682737817663053
-1.3081305083068446
-0.6985775036065552
-0.1126565379080139
0.42276224699479725
0.9242047660619027
1.1809479245045489
1.3211094171306945
1.3097906752282995
1.1478561177260647
1.0366444549689973
1.0850597165365596
1.1850273355014649
0.9301552201542861
0.4962085275400625
0.28524074760446194
0.04739532440070826
-0.2373492727042776
-0.3257346414390675
-0.35114084293639447
-0.6687147151566564
-1.3710764167829608
-1.894904643742135
-2.017073169641637
-1.9830831181322834
-1.7734788674236057
-1.337243264130759
-0.8131281283760715
-0.5565469648913832
-0.08085895990832792
0.9557050360297334
1.6430628195423564
1.8513659568773255
1.9365896402154008
1.751504550251228
1.2820814151849669
0.9971622319614329
1.167316172575239
1.0860526256851142
0.5712877128910923
0.05502430751413293
-0.3091675985030461
-0.45945502642840785
-0.7839977754588036
-1.3359827083469362
-1.8693562594818829
-2.262999307100827
-2.290813167430599
-1.976554253621132
-1.3751786082359656
-0.6267479840227831
0.1270265837445415
0.879431696158622
1.6728765061406237
2.673205966648617
3.9380358159820217
4.940157140879283
5.094414639990077
4.904946075577349
5.008676327967462
5.196809159000764
4.982426424780934
4.495752395613624
4.074050520035857
3.5080368815738003
2.749497267224987
2.1231876008730026
1.813387852625565
1.6096403365481644
1.7049304661137687
2.133449424928087
2.4079525543338334
2.4801373143881857
2.4167805121916017
2.5563247473257653
2.857063073689656
3.022409496665464
2.959374974304383
2.3666330801060647
1.5728610202599722
0.8103135912706061
0.11402803509686397
-0.1963750273544845
-0.4836153479899922
-0.7852840445763618
-0.5651591957314004
0.08074174451463409
0.3806432889461031
-0.09567154880319784
-0.6922144957450963
-1.1719289966087798
-1.629193200991266
-1.8436428726904979
-1.9941423087581167
-2.496572061942695
-3.0998117359040225
-3.0417822644953643
-2.9974659870029394
-3.3361910207272802
-3.2265666484900657
-2.673540338850882
-1.6748633937739341
-0.4390544154290877
0.41440571157522016
0.7574639523010563
0.7563759288299111
1.0897914620661275
1.7221612567350268
1.884568638250147
1.6221493802371192
1.1988256497641623
0.9321988437650803
0.9401799478686785
1.2040858119705022
1.3615148057289725
1.1479314963369909
1.3658997793588987
2.2191459101691295
3.3746906679930135
4.007564871654822
3.737161256290205
3.5623100420171476
3.6974494338258124
3.8415638817145012
3.824024342771682
3.9065634833761833
4.466253793178234
5.07861337292032
5.291048964214154
4.906747400533534
4.372447400828925
4.065779299122066
3.891152320771242
4.2828571657565435
4.724403702638995
4.085036761867464
2.8914061363852146
2.0018647665512064
1.4590331684242632
1.1875133635854755
1.0455282869278175
0.8364384773068606
0.5314772803779437
0.3320306158680649
0.3589968828227603
0.6957426363869516
1.1222092316018946
1.1707127691305037
1.1044760539826057
1.0461948852898968
0.9706827738457566
0.8717827588546704
0.36022421795341175
0.29034537970789215
1.1120658966204573
1.768411625517834
1.8852074833019934
1.6287392443044242
1.621870422515413
2.2947502192981024
2.971864499183201
3.0292020461151585
2.697197314493781
3.018934570935778
4.040817906349961
4.584512590467116
4.534041427431356
4.401225443580301
4.209105272863322
4.044856293515146
4.216958202174838
4.882411495626491
5.873212052343266
6.58178771710851
6.757798478442053
6.603484561638511
6.118276698569469
5.363400811149382
4.507626059451345
3.8836872645537115
3.425084174225875
2.894461161266619
2.6403695707809427
2.727469511034113
2.734511380752126
2.388811369001007
1.7934320049500614
1.3278076573788908
1.1076620432273527
1.039274551763842
1.026914701850058
0.9811938255237207
1.2090249841731626
1.6005120402022261
1.69682455049508
1.6406885056970804
1.5895193256063234
1.5774831482788043
1.7556175311129718
1.9367440972241963
1.6413650485462192
0.9688736542620807
0.3698395525302378
-0.1362056183588609
-0.6808942443362708
-1.1672164611258593
-1.6283808922851957
-2.139061915272359
-2.431922759488565
-2.521363216036899
-2.7111005066063325
-3.121732400138567
-3.423171811693802
-3.0287999601337967
-2.1801944904187662
-1.68999188845633
-1.5716178846426765
-1.4307853637009924
-1.3493192985615508
-1.2433428605591315
-0.7642866308540979
0.23789600213235423
1.2698863885515908
1.6713887078806036
1.9413283829150376
2.41664612544075
2.731533309527837
2.9397493626286972
2.9070322425023774
2.4159702714443645
1.5684136610681985
1.0068259773904111
0.9994558499057867
0.7006622288011386
0.1013018094458562
-0.13002389153982546
0.2767286143710058
1.0514433443958873
1.7614223046770212
2.439548955292474
3.111300726181382
3.7125978883493675
3.7659816133481683
3.3446989843790482
2.799402188826917
1.934823895950544
1.0271657129700167
0.3833914447082388
0.10462219017585932
-0.14690792736849395
-0.4201183853365854
-0.5135439656196187
-0.4013345186221509
-0.10966289812438691
0.018342269607457943
0.22770704082342877
0.10090763558919681
-0.7194955296324123
-1.2655646511060243
-1.0565820236178063
-0.45792817512920736
0.1317890047709741
0.5900455836725806
0.9381196039085994
1.4722856294503526
2.136854848077872
2.887930561637622
3.932005651904247
4.80070090480868
5.2566947769532355
5.846047212163048
6.722198171644707
7.39105648349207
7.858871620534197
8.34944123131375
8.768691836712067
9.232230556546375
9.814985004620413
10.249912758130687
10.204685987187245
9.979152102451144
10.07822427707896
10.204003168306041
10.263588056620529
10.356498429908187
10.134420039958368
9.573417981300015
9.073634006483465
8.937731346748967
8.618671981341537
7.970095448017642
7.450265294432628
6.987479082816961
6.74365812709902
6.513482057246534
6.188545575522514
5.879651371502545
5.559020583223785
5.462213995467737
5.019436087117147
4.205028932297463
3.419501200740706
2.598225370199953
1.9902668362154872
1.634417504631333
1.6831676516796983
1.765285177202674
1.5429990917418779
1.384930657723692
1.3460369250169897
1.4797931127579944
1.6018483946185493
1.5334338474306217
1.3514129102711019
1.1888013670440667
1.0472700738043461
0.9702009563244531
1.0500023091507042
0.9452118253038636
0.9866598402782133
1.6648845407898731
2.5988200754764166
3.401286613702673
3.8931011843397685
4.204916975094052
4.35751687576679
4.010363281330969
3.4107044892899525
2.990054934116264
2.64865763812878
2.2148639865117925
1.7667776003482294
1.3638578496017937
1.0623639918494883
0.9929350099953325
1.1981142149017605
1.4009010124089485
1.3015081422508816
1.3068412120093555
1.4176117689414405
1.5178027479001721
1.7561764555837103
1.8725748110411398
1.8859442294090691
1.6902993542761668
1.5020717188425652
1.5227150689017142
1.6269508441219922
1.9460847800517294
2.232768801934515
2.274877745285896
2.404230691485396
2.865300707653664
2.9277366104813822
2.3817703802566847
1.9732865275320648
1.7380312302814345
1.4565826840408176
1.216339401705742
0.8422646894179138
0.1047059959434505
-0.44057698465980466
-0.5639034777756445
-0.6979424577760563
-0.7786036163180313
-0.7535695289242924
-0.9063712679869055
-1.099259974933025
-0.8743427128107182
-0.8224572173868537
-1.3927683681857355
-1.8106868232512734
-1.8803254367590831
-1.8984524571195578
-2.17256361742718
-2.4941485100189746
-2.554531887473387
-2.709199091049043
-2.8049728092355806
-2.7223867625848057
-2.505960917996838
-2.2148824744811684
-1.8568486507056883
-1.400868709150187
-1.2863507625572304
-1.3613285136678337
-1.323500286685271
-1.1897117794704621
-1.1649957194644514
-1.4273645282036596
-1.5705487955095487
-1.4516909718770847
-1.1867738944511772
-0.7018792591984078
-0.14072824426593217
0.37502313154039446
1.040193751518757
1.787685631480828
2.4954600993150184
3.032677795377966
3.319720719806146
3.57361941582109
3.6417632411109477
3.506192016694977
3.226680837296118
2.893085111966211
2.868362792023776
2.8980395084298523
2.648401838286191
2.278452726039603
2.1778618015208324
2.426253184019948
2.5304823861507035
2.636260333702355
3.0995610055912803
3.3683895168910745
3.2297695884244
3.2050239023535663
3.4079038645342896
3.4173491485570056
3.061951290059164
2.6958212046027676
2.4102758731097915
1.9788189330660009
1.7160466483375467
1.6343896792335952
1.303095195718063
0.960030059647617
1.0042695815766964
1.144955594972539
0.8328313961725333
0.4535055075004732
0.46291603130391956
0.6220094074119561
0.5944908729212128
0.30749079234475696
0.10492680498517007
-0.009799075936436235
-0.20477832525666387
-0.5710726668014525
-0.8842554402074534
-0.9068784622863447
-0.8440456900667245
-0.9296444268721827
-1.395693625524376
-1.7426003514583601
-1.5986957666246973
-1.2650504472130013
-0.8891811008913281
-0.4377069701043159
0.17175140639085498
0.7170577599475587
1.0607289554416834
1.4001240871371734
1.6948450090228546
1.5789617041280861
1.3014517964326626
1.0889632854997249
0.7257633234130323
0.21493778727894383
-0.5403490268054714
-1.4977193366268235
-2.6055522082538087
-3.284303825655134
-3.440976382886149
-3.8388703593911377
-4.269311269129322
-4.491144096985432
-4.2317114810175065
-3.660004307153279
-3.3689548603077846
-3.112800014071971
-2.9464880153137236
-2.7840616398516707
-2.662756971564228
-2.7939612942397516
-2.7206179964625665
-2.5721879610843255
-2.499521751297402
-2.3577377790082474
-2.3270692525999177
-2.379864306074754
-2.2576389269714423
-1.8508635160525109
-1.5515488789714214
-1.4471328243485289
-1.2820586656610988
-1.2781279920689128
-1.5198613773192926
-1.9915181937418456
-2.4491748750645956
-2.547643663520934
-2.517785982420933
-2.6263418401176075
-2.832168766740283
-2.879297582291947
-2.5749826669926654
-2.0795986076206363
-1.8200996998656223
-1.6830433510101799
-1.3621744428287978
-1.0091638162256202
-0.8165631396973606
-0.7846276032200125
-0.5874002291068032
-0.43335506724044764
-0.6870078335273292
-1.241768403343059
-1.6579603117941368
-1.6586950581037356
-1.7388390166353986
-2.0278349806483087
-2.417040297909386
-2.8885782500559802
-3.2465932537035878
-3.388357645654442
-3.5911651407683283
-3.927425865008776
-3.862914137238334
-3.5991294272129575
-3.3458064979898605
-2.8741950011019837
-2.329159041423263
-1.8907429417347694
-1.7308632657741745
-1.817275465963645
-1.719062085932658
-1.1961356020257523
-0.6643214351663832
-0.4343445763783509
-0.6135547962192509
-1.0260866734749656
-1.2901856866547434
-1.3638465038610887
-1.3168856454277245
-1.436594031559953
-1.5766740448836605
-1.398836032918824
-0.8836552407212145
-0.3200371308573486
-0.0276969762753518
0.2651433643180709
0.6013160762675082
0.8413757140508623
0.8787515516724219
0.7763474134586487
0.7397834268206904
0.7450629952894614
0.821335795836847
0.8848379653832092
0.941948133867445
0.9371231464014875
0.7126172020614523
0.31684180276450624
0.14468851495003757
0.3190817590372895
0.2670619491610329
0.09596717342819103
-0.023964536972322387
-0.31579765875327986
-0.5810443258588099
-0.7006715011754738
-0.4773143829824614
-0.08073120139910404
0.17137093320067567
0.5369079385822519
