AAD_Filtered_TADAS_FILE
AAD_BASELINE_CORRECTION: BASELINE REMOVED
AAD_FILTER_TYPE: BUTTERWORTH
AAD_FILTER_ORDER: 1
AAD_LOW_CUT_FREQUENCY_HZ: 0.025
AAD_HIGH_CUT_FREQUENCY_HZ: 40.0
EVENT_NAME: 202302061024
EVENT_ID: 13207
EVENT_DATE_YYYYMMDD: 2023/02/06
EVENT_TIME_HHMMSS: 10:24:47.00000
EVENT_LATITUDE_DEGREE: 38.089
EVENT_LONGITUDE_DEGREE: 37.239
EVENT_DEPTH_KM: 7.0
HYPOCENTER_REFERENCE: AFAD
MAGNITUDE_W: 7.6
MAGNITUDE_W_REFERENCE: AFAD
MAGNITUDE_L: 
MAGNITUDE_L_REFERENCE: 
FOCAL_MECHANISM: 
NETWORK: TK
STATION_CODE: 0120
STATION_NAME: 
STATION_LATITUDE_DEGREE: 36.77006
STATION_LONGITUDE_DEGREE: 35.79005
STATION_ELEVATION_M: 35.0
LOCATION: Kahramanmaras_Elbistan_Turkiye
SENSOR_DEPTH_M: 
VS30_M/S: 439
SITE_CLASSIFICATION_EC8: B
MORPHOLOGIC_CLASSIFICATION: 
EPICENTRAL_DISTANCE_KM: 194.62
EARTHQUAKE_BACKAZIMUTH_DEGREE: 
DATE_TIME_FIRST_SAMPLE_YYYYMMDD_HHMMSS: 2023/02/06 10:25:00.5568450
DATE_TIME_FIRST_SAMPLE_PRECISION: millisecond
SAMPLING_INTERVAL_S: 0.01
NDATA: 13501
DURATION_S: 
STREAM: HNE
UNITS: cm/s^2
INSTRUMENT: sensor = CMG-5T/GURALP | digitizer = 
INSTRUMENT_ANALOG/DIGITAL: 
INSTRUMENTAL_FREQUENCY_HZ: 
INSTRUMENTAL_DAMPING: 
FULL_SCALE_G: 
N_BIT_DIGITAL_CONVERTER: 
PGA_CM/S^2: 25.015
TIME_PGA_S: 
BASELINE_CORRECTION: BASELINE REMOVED
FILTER_TYPE: BUTTERWORTH
FILTER_ORDER: 
LOW_CUT_FREQUENCY_HZ: 
HIGH_CUT_FREQUENCY_HZ: 
LATE/NORMAL_TRIGGERED: 
DATABASE_VERSION: 
HEADER_FORMAT: DYNA 1.2
DATA_TYPE: Acceleration
PROCESSING: Automatic Paolucci et al., 2011
DATA_TIMESTAMP_YYYYMMDD_HHMMSS: 
DATA_LICENSE: U (unknown license)
DATA_CITATION: Turkish Accelerometric Archive v 1.0 - Disaster And Emergency Management Presidency, Earthquake Department
DATA_CREATOR: AFAD
ORIGINAL_DATA_MEDIATOR_CITATION: : AFAD - Disaster And Emergency Management Presidency
ORIGINAL_DATA_MEDIATOR: AFAD PROCESS SERVICE
ORIGINAL_DATA_CREATOR_CITATION: AFAD PROCESS SERVICE
ORIGINAL_DATA_CREATOR: network: TK
USER1: GuestUser
USER2: 
USER3: 
USER4: 
[...]
1.8252523576394806
2.0374092935642527
2.2467021708494954
2.4269265357547782
2.543894195129187
2.4910985917348945
2.214076606363656
1.7565330195479474
1.110299100544542
0.2845960761543742
-0.6481520413573497
-1.5990937644189953
-2.4484426526982377
-3.078801128143774
-3.411102251991872
-3.4359036976383632
-3.1596608046383996
-2.574953635662477
-1.7179311959083012
-0.6734167133534938
0.46384213469244945
1.6041383817990973
2.679436236041447
3.6829109137642697
4.655624060336661
5.583235090193087
6.349331988233236
6.865663776322085
7.163380005780491
7.278437838741302
7.249347379444427
7.151340858043324
7.020470115611211
6.847488348773472
6.600702436538056
6.280465223265925
5.84057319222419
5.233430474747748
4.51551461424557
3.749377281182821
2.987402753019312
2.2814785189032243
1.6743826867314806
1.2069565741752621
0.9414864525520243
0.9144225151966449
1.0385220842515013
1.2055703091745773
1.3767146532164305
1.551375812572576
1.7178283265728733
1.8476379696765926
1.87750793317231
1.7495454896458038
1.4605336320047317
1.0422889233299957
0.5355297816424794
-0.0384317086222453
-0.6858851505563991
-1.396297591139644
-2.107426509930884
-2.79109650844969
-3.441143308103483
-4.0358339407281605
-4.570413177683708
-5.0763158468195275
-5.5644187849628715
-6.027615761002033
-6.477433781009257
-6.859765711292069
-7.072469850442649
-7.082655707838834
-6.890206031181663
-6.576506226626787
-6.203709521421433
-5.718635679382244
-5.098931628490862
-4.376611354431845
-3.630342967450456
-2.868224509561741
-2.0579944272473067
-1.2187133096101037
-0.34052620146022433
0.5749274311869151
1.5242354605446056
2.463086219235447
3.2874557853885196
3.9537300272525675
4.4484286312087535
4.744859358939761
4.800241062292586
4.685870968417229
4.485547526395971
4.185964085432122
3.8158367057139624
3.4378797553344405
3.076811238163208
2.6837558982648217
2.2353682183674697
1.791004358512749
1.4140203901552124
1.172749139466878
1.110656629219424
1.1317589373363888
1.0975679276841868
0.9160244670395578
0.4797602699230621
-0.2710529253181271
-1.2897686379403328
-2.4740452978427303
-3.733245226910041
-4.974228022829143
-6.092640368906787
-7.006480782208407
-7.661612570581377
-8.034436610426273
-8.120991431480617
-7.94545317295937
-7.537957690276691
-6.918609214468379
-6.139359644781145
-5.3005205448084665
-4.512684250238009
-3.8721723845296547
-3.4372950718338933
-3.233350049971817
-3.261244920116372
-3.4756199132905445
-3.841814966063219
-4.322119790491009
-4.848819305160586
-5.371234612729022
-5.813513306378911
-6.045103168528765
-5.986676981979907
-5.710215087151726
-5.330929067662369
-4.920751307801565
-4.504849035114189
-4.109706832020197
-3.7788599669055962
-3.527899895400602
-3.35101876785127
-3.1964805203538433
-2.988675681799592
-2.698961804434304
-2.381828333926909
-2.100179537848825
-1.8903166101143107
-1.747697896546651
-1.6164945178637833
-1.4384495200356164
-1.1515965353127078
-0.7341163716971638
-0.21242971791244145
0.4211099573687482
1.1605010412191212
1.9808253241672664
2.8372776310107084
3.662239054026507
4.413714515455815
5.061954541361369
5.653053862722576
6.275967823780506
6.939435592456498
7.572392662670752
8.070145393568417
8.337497247124224
8.378131795582634
8.253310653435163
8.020048677151669
7.716596829871026
7.367325756966088
7.019545431987925
6.676913584347277
6.339174318908202
6.066272467818272
5.848360111427463
5.600920573064399
5.207621491218296
4.557958789138183
3.5620559297025824
2.215391709957758
0.6095648302372684
-1.2489572588708227
-3.3210539530052277
-5.53787597310738
-7.795498132141921
-9.97389324762609
-12.041429345858505
-13.943078793874612
-15.626142043443016
-17.031083598411758
-18.05671120475169
-18.606165474159596
-18.63766678115394
-18.17784677561435
-17.299330596023772
-16.133184412368845
-14.831031604677557
-13.514969439741874
-12.232891912334575
-10.988312790245477
-9.822320190149494
-8.70320765952511
-7.606102106648807
-6.546372936676452
-5.5442966267684115
-4.593351164318546
-3.693729298295063
-2.9085027661582177
-2.236048244618016
-1.650590945730194
-1.1246085899753917
-0.6479328497634588
-0.22446379383236487
0.15044914607040655
0.49488360411907345
0.8570038498168646
1.2799551650370726
1.7758381157726169
2.3789813186661717
3.18578266399648
4.191317861323842
5.330863538079418
6.5409255008410465
7.671836515606348
8.599163537917196
9.226361710404158
9.551960060855887
9.645331276650085
9.59024504628937
9.46687858029302
9.3251690730466
9.167945330027187
8.978098689748549
8.747775993755798
8.468591953869975
8.153012363046225
7.821117188995608
7.5107790860762425
7.203842115459539
6.8503972958628045
6.427659969266081
5.8898644775457605
5.1857147729250235
4.328986924043761
3.356926300881117
2.3527318274508255
1.35362987403792
0.4550184365348194
-0.2957625206973033
-0.9746487318280928
-1.5085456849222187
-1.9151031018779594
-2.2824319630610574
-2.5822184041491467
-2.7581063550927674
-2.75935714229857
-2.5821589879092963
-2.23418634726552
-1.6941540961910821
-1.0169987672150094
-0.31301025023048573
0.3939120278873788
1.1198415661032457
1.844317577550778
2.523466140489392
3.1311976818799567
3.677021501424339
4.166412271919245
4.589328605496723
4.898137639214026
5.039027013525223
5.0372199089688525
4.966386193164055
4.9095721736061355
4.9566384659572575
5.167203552691307
5.492776084546853
5.8429411991836995
6.170761901718336
6.431555105294528
6.595768194202439
6.684434100744255
6.757026688612814
6.85217319005559
7.030561420955551
7.375241584405096
7.913805583798107
8.610512382665755
9.442508467099534
10.397764748282095
11.396640167103717
12.350638592386298
13.21917296472445
13.961642407001914
14.49874295313148
14.742860322213808
14.66278609732929
14.259914030501218
13.540074369869163
12.535239955812989
11.303514412293895
9.875713244834868
8.350739104262503
6.896119518268277
5.577330922340499
4.377385069512436
3.259827589727104
2.2088151295338974
1.2424098982519725
0.33505757085964566
-0.5569800149629546
-1.4685503108048392
-2.422540877317024
-3.3494644753766423
-4.1627583887368935
-4.827714714886884
-5.326069308926795
-5.689448209504292
-6.017353355387311
-6.346121691945648
-6.704855522554431
-7.148904351281158
-7.717830770636068
-8.423789074532866
-9.208069904732332
-10.009334219184025
-10.742776720860666
-11.306623125948626
-11.686968768645261
-11.897555904890455
-11.961596580841283
-11.916834133627821
-11.767431294713402
-11.472483536720361
-10.985686838286867
-10.319031486295133
-9.52852204664937
-8.673977470204608
-7.776871460256029
-6.841631512277266
-5.922226096180177
-5.082412803168374
-4.387059286859488
-3.861044720335637
-3.45643538418747
-3.139341985665876
-2.897455281628998
-2.73801150119357
-2.6497435213776117
-2.5980196910171793
-2.528296028172494
-2.341078330307606
-1.9821402712149796
-1.4542867034071474
-0.7216127484868161
0.2181571318333003
1.3338090748058105
2.6140049669841523
4.014687415818022
5.4882171359930725
6.976184385847918
8.379366054166164
9.60751833120864
10.576206503144729
11.26823417083846
11.71425358348331
11.91565934394477
11.818963585056126
11.375153880730288
10.59842821759474
9.553037960797568
8.294953002102977
6.9119413638045994
5.54122430875525
4.274913964984622
3.212137650852329
2.3911651366747337
1.773944513917629
1.2846377098192994
0.8838952766875438
0.6088427185701841
0.45254422270209005
0.410622796233309
0.4945037948524142
0.6662026981536094
0.9076379246722085
1.2001207249669135
1.5749786988030658
2.021166121543848
2.473679408413543
2.967869833643164
3.540406744331304
4.1687608253243
4.788259704293506
5.346116444917776
5.827281341725361
6.237509978009053
6.592291575405618
6.8522346400966665
6.954440913428679
6.913945539745893
6.784883524891618
6.587288877901923
6.315525096782308
5.990881603177407
5.602426478042887
5.1313859462310845
4.5625554800535975
3.8535432159360914
2.99366992186611
2.016211748415369
0.995996125350201
-0.009989846916299873
-1.002348141487887
-1.9764173549462094
-2.896265839792201
-3.7504965439838314
-4.527968339521365
-5.225982972273339
-5.843327488718089
-6.346623469906705
-6.7085358628442355
-6.903568814070101
-6.915516873955949
-6.736193388091782
-6.326095508907986
-5.680219020179305
-4.830310930962741
-3.77780279782299
-2.5714161854288347
-1.3276439777507378
-0.12731402082048887
0.9959398053280453
1.9787888056892282
2.754214101248371
3.3110530677440098
3.6834498136686498
3.893284327023562
3.9466775622760775
3.8561328592387367
3.648896206495456
3.3090775294759487
2.8111168640883903
2.17346947534181
1.4122579939295377
0.6015781294414313
-0.18802925224948486
-0.9285028822504298
-1.5831805218716746
-2.136722404283723
-2.5560531565940816
-2.843297213118692
-3.06213348417716
-3.2831304748460504
-3.537153667742132
-3.814665602324519
-4.078880959811504
-4.273697928258507
-4.432200659300673
-4.633741485940916
-4.944351678079472
-5.448229600896043
-6.189874176895828
-7.1380090280426245
-8.213343986164343
-9.333936591738258
-10.398136638770035
-11.265586095210182
-11.821488577070017
-12.021246522004015
-11.8468052730154
-11.307770846839832
-10.464569338948403
-9.311677113482006
-7.807825340532106
-5.989616233887795
-3.9747716045200447
-1.857039061013707
0.2941302042321604
2.4086448614457985
4.4582512148240445
6.401571571519101
8.164501577953818
9.692525653691861
11.015771697066006
12.154052759122152
13.088491798667528
13.800298239736756
14.279459493114766
14.53693030121908
14.572516683409917
14.441588743875371
14.200694033843975
13.812096914890503
13.286097637438521
12.62078731582153
11.810999034016705
10.889500168709205
9.8521353714064
8.720695212187971
7.545994867667522
6.416867341228309
5.406065983377896
4.536369701529427
3.7840799784123913
3.1475720307106365
2.6437985024258004
2.3194925160799156
2.2146778248042454
2.2763729554076746
2.4553622749677855
2.712180336018805
3.004113303738554
3.3038301353854904
3.62382562480023
3.9364461394630625
4.137965897945551
4.170753724144773
4.067982215617677
3.8743150855551445
3.580421152157285
3.1917440787619547
2.723065761693445
2.175605299932397
1.5736445757260507
0.9936657361538793
0.5302349853694197
0.26688083078099173
0.2574356838614847
0.47600149629246674
0.8862393336724704
1.4341042359559508
2.0797665159392325
2.806522394188007
3.605349356255049
4.4721189974043964
5.3092131004240715
6.0101943071436095
6.51956057106475
6.823490124261365
6.883993763906079
6.655134069154093
6.215240927888081
5.711852395968815
5.220695223539604
4.804173568482271
4.528547521185086
4.367408578809918
4.246601730831514
4.14992110201123
4.07815820462856
3.9717198500493884
3.7674416467705543
3.4514779654074608
3.002954315488992
2.42494689185298
1.823377499315077
1.2393743606687042
0.6651463886024616
0.13142709265863162
-0.32645902299973906
-0.7144129718239974
-1.0457696298982073
-1.2868556863534024
-1.4663277602393272
-1.6464484238631178
-1.8706234048873331
-2.1887452200297957
-2.6281158615384896
-3.1667089337604803
-3.734413435068121
-4.291281192743634
-4.800829443289821
-5.15560271876288
-5.265319711814948
-5.1231126464896946
-4.753861801175108
-4.164624777226471
-3.3916019001874305
-2.4972042250642246
-1.5148896894078632
-0.4428665548253065
0.6768570286656357
1.7897651868005349
2.892182868619757
3.9485838331998235
4.903226005160543
5.74658428071805
6.43733806009392
6.895455993533858
7.12153479134898
7.1197484606831605
6.897521926054504
6.467078662041593
5.862657989624232
5.159655926199585
4.38926138908014
3.6226251370298304
2.962381593714008
2.4859015890823666
2.2610437872270266
2.3340133001291212
2.7064778742807554
3.3491601747407604
4.210476543225462
5.202724643601634
6.1932547148745485
7.040251822470086
7.697677192210036
8.157514907885867
8.398207472032496
8.49198735493274
8.54198843036927
8.601199175144913
8.73712554743378
9.04068449372682
9.556023303611507
10.27451004185843
11.20305635619506
12.317322006126762
13.506588610427913
14.68122945177311
15.843661467735439
16.976746051836372
18.02089621525646
18.9555752816255
19.75637518268657
20.39098375058521
20.872530897177022
21.27023554907912
21.611464257391106
21.888438720280615
22.127673077776937
22.339797571403256
22.50491698459269
22.63695533416762
22.772799519992727
22.87681976333759
22.87158063524882
22.746594950715213
22.497315885963136
22.078997306192505
21.475757006462402
20.672549647766925
19.67796266499474
18.537514368887592
17.354984812516673
16.228534093965877
15.220142009783306
14.407961693618876
13.845565549401702
13.534684573256756
13.466451272077478
13.684298731085011
14.198031626266946
14.955533627740305
15.890102849176184
16.934066176341865
18.00862463743366
19.041285548030352
20.002949298167486
20.88432888476156
21.64275436455557
22.2657983744537
22.77095850263788
23.122358248682232
23.333755869135608
23.456004103429333
23.484934583967366
23.395400461933978
23.21548658757336
22.96669629881057
22.623936322285495
22.192336791078425
21.703223502078245
21.106154395038114
20.29976099628805
19.260325036343477
18.01431940683128
16.569791236419476
15.00558220196725
13.411699210563098
11.797647197541977
10.21246041903548
8.75887309621858
7.524770940254818
6.527768913818677
5.790687194239596
5.324865899959183
5.0398139210269655
4.840910657884597
4.774221241300024
4.935659841778699
5.271059188114287
5.702451744307843
6.187489104341146
6.69491455730739
7.247499681131733
7.9247988285050095
8.772219415972152
9.635294238090125
10.292713754640037
10.592564372962013
10.5651318910059
10.448724662739057
10.50511548773929
10.764546524934918
11.056855868825046
11.292021482200715
11.496787066724766
11.690887003725223
11.907505600077078
12.202245994701752
12.500447862778167
12.64534558923337
12.622549971502174
12.552959901633674
12.509641038690162
12.369909172940668
11.874843697093588
10.897323192355811
9.659056385261747
8.501810327583785
7.508451973597702
6.588407374440098
5.513145795597031
4.087183425912387
2.3199829577920075
0.35491302408403125
-1.4649127817492684
-2.883067863854889
-3.976392575729447
-4.914009005893284
-5.743795234139041
-6.373747034871653
-6.74255921038606
-6.858236274013353
-6.725161062575903
-6.396669181296328
-6.078939548478907
-5.963687493620427
-5.981813749299335
-5.935072787574257
-5.752113323596535
-5.583883995499967
-5.548080344821357
-5.6660761825839465
-5.843019427170099
-5.975705929460882
-6.190872765373146
-6.572863107903177
-7.032884205558435
-7.538061211134295
-8.089067468303382
-8.625625635734309
-9.065006131994028
-9.444661113245065
-10.015943690424042
-10.878102447886608
-11.873491084234052
-12.811010702068408
-13.631367497584447
-14.436830256073424
-15.33227016363427
-16.29971441671682
-17.19798904362359
-17.85859014363558
-18.225017876640923
-18.294594790924663
-18.007020149180327
-17.35592172559203
-16.400838866685646
-15.170655605559958
-13.677206048749454
-11.999176663880693
-10.324977390175437
-8.83967003473576
-7.61362222991602
-6.658481098454635
-5.947123965595837
-5.430629263336047
-5.041017177313383
-4.7361000314194746
-4.434571690451007
-4.063661033441016
-3.7127437010664237
-3.523423804584754
-3.5535854291070086
-3.753175461064452
-4.020664855676406
-4.263154696749299
-4.47828344644687
-4.66477650902457
-4.729798041736488
-4.670491426334697
-4.589777061739048
-4.5035090089988765
-4.365294834461562
-4.180601142624812
-4.006122061606913
-3.887843105413958
-3.7343352096953573
-3.4533515565400137
-3.0819414032146533
-2.669620282411787
-2.281853101330669
-1.9490441357459136
-1.6124052481588191
-1.223305511544957
-0.7798052465717372
-0.33476033236891645
0.05785696275326598
0.4406322382813233
0.8432136795416235
1.24516333607742
1.570253718851612
1.707289084801901
1.6303372544601848
1.4041410055598633
1.1317210460646698
0.9070143083686855
0.7410404113318836
0.5816265291706237
0.3825269044013899
0.13871067487482902
-0.13399204176021876
-0.42623818387594903
-0.7254079297985637
-1.0111078835412337
-1.2163588678567157
-1.3301394784733698
-1.3991571721154932
-1.455663664992482
-1.5050013099660453
-1.5003516572496463
-1.4134463907722066
-1.2801074538871038
-1.0956262041200444
-0.820478479785915
-0.43109005203268047
0.13327275143346673
0.9013677698315149
1.8513890465111784
2.925390033351362
4.009331138742237
5.001105255497991
5.841519248712221
6.498897879802167
6.9752301451686085
7.319827022863629
7.534258087084875
7.621267220260413
7.653215490217062
7.632704624364333
7.606119656583562
7.658682154516229
7.816855547839834
8.073169694179954
8.410170871616833
8.885282243418919
9.577771846666904
10.44588902292699
11.378090991554489
12.272491251261343
13.055795944399174
13.776166372956954
14.476015681369443
15.103794946595084
15.598113793515433
15.91150951295295
16.015881424813927
15.9022225435866
15.603118582031074
15.13847247041596
14.483771552707408
13.683115593107638
12.881198943031173
12.182073911744416
11.573699131859337
11.006775824017183
10.439287896675076
9.8360121661768
9.165975619891839
8.454326435800692
7.759982443990805
7.122467698613136
6.578603191470645
6.208537143336989
6.120780083591334
6.253938193708385
6.460615560038441
6.637731642444985
6.733599458087317
6.810499908357951
6.915343265071399
7.043148895011647
7.119013316196658
7.089216809686366
6.974628843425
6.7507470181775275
6.414815426534364
5.966652417957311
5.3581086334326455
4.596957444266256
3.773620270257784
2.953367133848987
2.155202194935877
1.4153769156565217
0.7460399265277372
0.13530150691189088
-0.4217878141095616
-0.9129052503946836
-1.2684782106686874
-1.481243539516509
-1.6273021257225726
-1.7907680845550793
-2.033001572066119
-2.303670826146527
-2.549767313155839
-2.802232772856129
-3.063565870604807
-3.302445242869897
-3.49419861631693
-3.678972240697483
-3.876327203143881
-4.036788143240282
-4.122311131363989
-4.083353677477639
-3.9035959026112756
-3.6182353621023418
-3.280536399298364
-2.9351426605126427
-2.591016292234309
-2.2634618750109703
-1.9880819243222028
-1.762818353061421
-1.6013031279527306
-1.531100111927799
-1.590180814287125
-1.8400067105930755
-2.315394487268982
-2.990250516847134
-3.7505579649297878
-4.5619312263356155
-5.438270492820075
-6.333777483630248
-7.199628041813889
-8.00759368735916
-8.816748613805707
-9.670040665296483
-10.551761723697783
-11.403307605353408
-12.143907079391619
-12.744215754847056
-13.143262493816366
