AAD_Filtered_TADAS_FILE
AAD_BASELINE_CORRECTION: BASELINE REMOVED
AAD_FILTER_TYPE: BUTTERWORTH
AAD_FILTER_ORDER: 1
AAD_LOW_CUT_FREQUENCY_HZ: 0.025
AAD_HIGH_CUT_FREQUENCY_HZ: 40.0
EVENT_NAME: 202302061024
EVENT_ID: 13207
EVENT_DATE_YYYYMMDD: 2023/02/06
EVENT_TIME_HHMMSS: 10:24:47.00000
EVENT_LATITUDE_DEGREE: 38.089
EVENT_LONGITUDE_DEGREE: 37.239
EVENT_DEPTH_KM: 7.0
HYPOCENTER_REFERENCE: AFAD
MAGNITUDE_W: 7.6
MAGNITUDE_W_REFERENCE: AFAD
MAGNITUDE_L: 
MAGNITUDE_L_REFERENCE: 
FOCAL_MECHANISM: 
NETWORK: TK
STATION_CODE: 3141
STATION_NAME: 
STATION_LATITUDE_DEGREE: 36.3726
STATION_LONGITUDE_DEGREE: 36.21973
STATION_ELEVATION_M: 111.0
LOCATION: Kahramanmaras_Elbistan_Turkiye
SENSOR_DEPTH_M: 
VS30_M/S: 338
SITE_CLASSIFICATION_EC8: C
MORPHOLOGIC_CLASSIFICATION: 
EPICENTRAL_DISTANCE_KM: 211.11
EARTHQUAKE_BACKAZIMUTH_DEGREE: 
DATE_TIME_FIRST_SAMPLE_YYYYMMDD_HHMMSS: 2023/02/06 10:25:03.3966060
DATE_TIME_FIRST_SAMPLE_PRECISION: millisecond
SAMPLING_INTERVAL_S: 0.01
NDATA: 14501
DURATION_S: 
STREAM: HNN
UNITS: cm/s^2
INSTRUMENT: sensor = GMS+/GEOSIG | digitizer = 
INSTRUMENT_ANALOG/DIGITAL: 
INSTRUMENTAL_FREQUENCY_HZ: 
INSTRUMENTAL_DAMPING: 
FULL_SCALE_G: 
N_BIT_DIGITAL_CONVERTER: 
PGA_CM/S^2: 25.713
TIME_PGA_S: 
BASELINE_CORRECTION: BASELINE REMOVED
FILTER_TYPE: BUTTERWORTH
FILTER_ORDER: 
LOW_CUT_FREQUENCY_HZ: 
HIGH_CUT_FREQUENCY_HZ: 
LATE/NORMAL_TRIGGERED: 
DATABASE_VERSION: 
HEADER_FORMAT: DYNA 1.2
DATA_TYPE: Acceleration
PROCESSING: Automatic Paolucci et al., 2011
DATA_TIMESTAMP_YYYYMMDD_HHMMSS: 
DATA_LICENSE: U (unknown license)
DATA_CITATION: Turkish Accelerometric Archive v 1.0 - Disaster And Emergency Management Presidency, Earthquake Department
DATA_CREATOR: AFAD
ORIGINAL_DATA_MEDIATOR_CITATION: : AFAD - Disaster And Emergency Management Presidency
ORIGINAL_DATA_MEDIATOR: AFAD PROCESS SERVICE
ORIGINAL_DATA_CREATOR_CITATION: AFAD PROCESS SERVICE
ORIGINAL_DATA_CREATOR: network: TK
USER1: GuestUser
USER2: 
USER3: 
USER4: 
[...]
-11.038076109278457
-13.074745199839436
-15.391431878015176
-17.880973386446467
-20.12368521415767
-21.6726904669953
-22.294089468069917
-22.01576209970683
-20.821352319247474
-18.623773163838106
-15.521220111855472
-11.75196744481856
-7.704678070190545
-3.9137862045284697
-0.5501090677585605
2.3235585884997976
4.422505204185963
5.686839135732133
6.378042816864341
6.76655948968484
6.713420615043102
6.1279134257064864
5.271392275361334
4.198317182994999
2.91559793420203
1.6275168716030919
0.4633640925752725
-0.6793468583290797
-1.7369880249715512
-2.151962845530845
-1.661127994080615
-0.9320197458568718
-0.535459985284019
-0.29284339343545596
0.18011684861252703
0.9856629169445531
1.6119385607107084
1.8754822375195694
2.086174339795513
1.9399965360855285
0.9979323810842967
-0.8587414275139253
-3.5531787464792224
-6.727860178477243
-9.858485299879927
-12.634757916809546
-15.084822690595336
-16.84226032754736
-17.39282105882363
-17.03967526986751
-16.454304830592346
-15.846363708838181
-14.891801475232683
-13.361815249093725
-11.614338365715966
-10.144426188255036
-8.835255105398216
-7.114943997819483
-4.756845013268261
-2.186130752128573
-0.259635452935871
0.7355287544066034
1.445250078561514
2.333520074570622
3.1006704946170283
3.27023570124606
2.9062603029347613
2.2256884236759227
1.358379105656673
0.31377979170135095
-1.3223886981175677
-3.424847802721304
-5.411772332984844
-7.165500544795308
-8.786782862765335
-10.32246920906767
-11.427997170863101
-11.656928754189227
-10.760878409410408
-8.885676061219804
-6.785739049067505
-4.872074307583878
-3.1364534843784218
-1.6098748690942937
-0.4524196043013663
0.04180389293782653
-0.032497327790444015
-0.1807692300126314
-0.015393126591309373
0.3190636366136215
0.6196468427363994
1.0805591245237274
2.0531156248627895
3.583164848708333
5.106856216115787
6.242609688384328
6.9675142206860805
7.327503201362738
7.597118875491649
7.983374225718449
8.428919130121077
8.778793558833758
8.992311911658817
8.996635402945138
8.450167351231247
6.978722286516724
4.80926322055317
2.677991666078934
0.9592934145706719
-0.34265573466572524
-1.2658422127679432
-1.7926307169943032
-1.734839284277439
-0.9203367104881467
0.5617452970308789
2.2206404632785923
3.590340564625944
4.629307287853975
5.21954962838443
5.019684252351113
4.060199054037288
2.8977558820654603
2.012526297572363
1.265864906950957
0.22890376123872597
-1.1090126465072423
-2.2985487634793644
-3.2666247334802
-4.50138202452648
-6.166393713198951
-8.221738701198998
-10.454022948482955
-12.200146407520599
-13.07684392083783
-13.142751518748168
-12.43659010664264
-10.792567034812246
-8.420265161531725
-5.669985763476451
-2.615279434611409
0.42393323497676433
3.5163313233730724
6.8265207777263806
9.95932939779974
12.652360185902731
14.859636794349388
16.436207888526923
17.272515867187252
17.350789583921223
16.237875819770526
13.872178145560902
11.193796004463925
8.743865192937132
6.2480281651057
3.6719237329791974
1.2681419715552957
-1.1687863637917237
-3.7692199936876936
-6.110858306506644
-8.027193774313838
-9.80023508823073
-11.59570381934478
-13.496403607165348
-15.349859976005975
-16.769359992314065
-17.804462907726595
-18.597813295707994
-18.98496259460628
-18.904530413288338
-18.507968320557683
-17.56206333636417
-15.716666167919463
-13.327334604671966
-11.091940288822718
-9.48696655274641
-8.129888731090627
-6.400734994306072
-4.307068022519772
-1.8245480286623217
0.910869563729338
3.358170782702267
5.310773135187251
7.021462759070406
8.3095552906091
8.717948687626965
8.410448852570955
7.6812534128103875
6.363726881251498
4.46641313748102
2.8662829582383638
1.4883500954819122
-0.8104817487991384
-3.4798374954811995
-5.649958348057156
-7.598375362652268
-9.583206667646037
-11.605359114091442
-13.300432358528386
-14.587257941532089
-15.539038810261388
-15.679272436051763
-14.966724340727794
-13.810377297053606
-11.986254052196179
-9.197394296756514
-6.001313703298766
-2.9865866780981847
0.0009491631771669286
3.227218153792254
6.299943838398077
8.595659298535208
10.117611965369338
11.672646390420955
13.611384899076581
14.867618414827106
14.841694161850343
13.54318908746454
11.326458472282221
9.388740976463152
7.662883973383153
5.182679869294876
2.1375699185720793
-0.24841281356758857
-1.4573897935372602
-2.114069702520149
-2.8933081242399004
-4.127013493361891
-5.089257895367925
-5.345534667708619
-5.672582439154841
-6.4076362786123315
-7.285360471586866
-7.844513282395932
-7.781390614752701
-7.239372313338289
-6.4809441147588505
-5.29495772252141
-3.1316588402827623
-0.2986010482993669
2.44362329083183
4.56151778076843
5.941089434542431
6.860916313232773
7.168468848365612
7.095594955188846
7.3725144633258495
7.492839569550652
6.333510598195115
4.710460441463985
3.8075083543434296
2.8851495801825355
1.4587537746948962
-0.29574420422007663
-1.897844786986373
-2.6962519205629523
-3.2147242023118854
-4.273639600210119
-6.165571411439378
-8.221906048639
-9.597255505944316
-10.881655542056274
-12.070148915439383
-12.528695911513585
-13.188856175868057
-14.46616060774649
-15.395247544577906
-15.499750131588748
-15.092646941490576
-14.704699081908394
-14.103765725027472
-12.781020784664932
-10.928354447848161
-8.963376847653246
-7.561959317342829
-7.181218348500028
-7.280420007226534
-6.989150030014095
-6.158465742461419
-5.557234246679827
-5.842557257293542
-6.391520350782516
-6.128744223184905
-5.7444885732552775
-6.862452776192999
-9.111265461193549
-10.752827309300795
-11.457276617259106
-12.285105841486482
-14.057489715239264
-16.293655505597968
-17.48200754253104
-17.315699108621324
-17.02163168464691
-16.97172745365061
-16.009726666565438
-13.81351913044061
-11.778933230105528
-10.575723890979226
-9.992602342685597
-10.063639497317498
-10.156878746551076
-9.922172024043862
-10.089914620965164
-10.82340655754217
-11.617200141159953
-12.146264044114478
-12.368824499273977
-12.69029656990514
-13.413904077447876
-13.808640581437084
-13.452709900951003
-13.184286499961411
-13.518191610182729
-13.991730457763738
-13.84941924942306
-12.866376148789534
-11.506542437654522
-10.081342929829503
-8.107897439038256
-5.473135350348156
-2.692064747450523
0.3356145138985695
3.5775122839815054
6.347361844965968
8.155302504682895
9.099309594031592
9.494477703059367
9.976385853898979
11.010642020393474
12.123448762661788
12.633691250029504
11.556812643787987
8.924662802538286
6.1983572192000915
4.054244192761971
3.1123650832705927
3.2365804450354934
3.0666026927943824
2.9147708241088366
3.3936022311444227
3.6522738347658943
3.5230497675837253
3.6505634603693
4.034577155699083
4.5923116262402095
5.642307057614933
7.350576825573934
9.299224077666125
10.85238603824084
12.430562695793828
14.152160104726288
15.12135537992379
15.587016830100199
15.724146280079857
15.048542787177801
13.749979420017047
11.774376161867096
9.238225908593403
6.832478810665256
4.687256327563699
2.24985096630695
-0.865130609470488
-4.210669848933803
-7.165932809084622
-9.309671937676944
-10.33116127969835
-10.468078044634012
-10.320144635723329
-10.266083836972596
-10.184203255676252
-9.518867294959984
-8.545594696015975
-8.33744799322101
-8.466833471845044
-7.955197458456108
-7.118882136380011
-6.44006002186917
-5.391596937096444
-3.2320001217125807
-0.7606723304325427
0.942792575126797
1.9752470263343989
3.0394575043005854
4.5280046384291905
5.784497844045972
6.738679642212363
7.914088697488123
9.248714268182768
10.529971159703322
11.494796353268137
12.034758155013947
11.93639940763681
11.536479158757801
11.639821803670442
11.961545851287259
11.691804177832564
10.78887600227796
10.155812305176863
10.191128753411633
10.002850869311134
9.334846729978159
8.874177529065339
8.51332740072601
7.700903452092774
6.355313919683093
4.594946144792737
2.6746615375622933
0.8394682766216909
-1.2111844935990437
-3.7616627135095166
-6.384221213702005
-8.877501533172016
-11.405731624426865
-13.361774371536924
-14.059410097143966
-13.886444923463907
-13.415597254765174
-12.674522772572246
-11.404095156452826
-9.37917698141014
-6.907670519113766
-4.738880973489388
-3.064738965027247
-1.3383651031465522
0.6091313452324375
2.41585399104639
3.4816520640950084
3.192979606825388
2.0672625315477435
1.5087987797499807
1.7288779543003188
1.8848236772140845
1.9219483779868471
1.787423398087233
1.0508173220907397
0.05764905760886667
-0.697281177461405
-1.2041971365297988
-1.78763980486262
-2.740874096127307
-4.032820622174064
-5.207453855325735
-5.494359974533823
-4.944933049697234
-4.695148317950771
-5.299504993843528
-5.998070291615582
-5.839624866381235
-4.599470194797233
-2.931102457427713
-1.8026489676265791
-1.2501136271955733
-0.5178915877695646
0.46841415530861386
1.400957479061464
2.269872872284956
3.0826784193902768
3.9787157842648218
4.825993045151379
5.244625046056261
5.210540835012236
4.879108009351398
4.14890141523276
2.9527279211972126
1.6140823670743507
0.4799867466433967
-0.15725289754456176
-0.43100438919752637
-0.7218225219177589
-0.9166687679214811
-0.7211601306270775
-0.15445512193920144
0.6014695702024981
1.746863287833348
3.4675797484102264
5.443200770389936
7.259823673943355
8.864973783118838
10.378905276630633
11.779084286211944
13.07724047880233
14.071519835169711
14.60744237216128
14.82519681380013
14.516700850556752
13.26097490380358
11.053332672014369
8.358860389554494
5.500808927008716
2.448612686317853
-1.0050911885724265
-4.761931653147199
-8.055735321641334
-10.577348867075418
-12.455251584409481
-13.486323207539625
-13.707484528416353
-13.295071118641133
-12.407592776123645
-11.076859008425558
-9.123354373585427
-6.8878990752528395
-4.826988346700569
-2.960230186733107
-1.4715619288717314
-0.6603776751170167
-0.253492809655378
0.3437254801476689
1.1107742651337378
1.5723488602897857
1.5488398363960523
1.48208556594845
1.7537195943408777
1.625343320279306
0.3893000000571224
-1.6148401241736752
-3.5269310785689107
-4.630748216855957
-5.204458889606859
-5.901004555763139
-6.638257611358425
-6.703146769257585
-5.7147491174826355
-3.946080017049224
-1.9032087900532357
-0.15000509604693207
1.389356756395775
3.0792738785027582
4.626707069292153
5.538740668906408
5.979181542802641
6.514192820106723
7.170698090711056
7.627688333192174
7.6107713208619225
6.985712698894558
5.992483976281212
4.904144840720777
3.653967305146488
2.214352960699565
0.9401242787597915
0.13068564201841895
-0.006019115648863346
0.7075563278203378
1.8765851645105678
2.9180132417940765
3.7655803114270183
4.708351864749548
5.737040954170967
6.362410610009307
6.444888550286101
6.4256857019637
6.632619066059201
7.002094256382721
7.37287535164588
7.732317083288597
8.388615143112187
9.347551750272036
9.92518400377599
10.25626461631864
10.964697072346617
11.789718113604685
12.580337027321177
13.541364667607734
14.44088588255345
14.921450827337512
14.853313605873588
14.2927821918487
13.481014856829917
12.415882103966384
10.991890393326372
9.299197911321409
7.218726556153389
4.950280041065717
2.8882152208618543
0.7962299795512433
-1.4956155763046322
-3.7311398729675695
-5.744500900861047
-7.555903816782908
-9.133999027160549
-10.302089692869696
-11.066948754143622
-11.589497624948967
-11.823156712136372
-11.946498513035277
-12.29062491151956
-12.494032036322409
-12.029648803822852
-11.15631518512212
-10.601566019860073
-10.33441848054144
-9.76666341600599
-9.32275410235254
-9.475453397797185
-9.693338527117177
-9.482162117291924
-8.87228925580039
-8.432520708719197
-8.20648282146427
-7.447504295358303
-5.929748374018562
-4.2947686298303305
-3.3686859836703578
-2.89096102798593
-1.9528074628310959
-0.25528257298994417
1.5865599543352664
2.697988362622502
3.313760877507501
4.056694000196954
4.9126762743713766
5.506739720325266
5.712384404535784
5.863093682790932
5.779613607932357
5.181968875599351
4.389900861322836
3.4914783487011163
2.323234958285572
1.294191397095933
0.7334635786964052
0.15065308298358154
-0.4115132227417692
-0.575300675687723
-0.6503266099829452
-0.8261554429060276
-0.8196172729761109
-0.05645790767499448
1.5987933554993523
3.3905345115163703
4.963822643795996
6.673863165277313
8.43668459663361
9.989990674868588
11.180424786961733
11.904613802567248
12.304600396800637
12.341443153850522
12.285035027463735
12.42039063496678
12.286854351973735
11.724908551443276
11.132144553121927
10.774924727654565
10.488629407991182
9.916736832605242
9.047448455305602
8.130623375455306
7.272670317086768
6.189310838389158
4.57499477434398
2.6290767319415056
0.5932625844562798
-1.6878717771300147
-4.261476676068352
-7.007656372731101
-9.931915381400366
-12.887412902734132
-15.696384974813611
-18.330057014117514
-20.75547430425247
-22.93561575656983
-24.583642052885267
-25.19265365704657
-24.695678807655238
-23.295157524521148
-20.91438287890949
-17.939335862913172
-15.220647432453832
-12.749135140724048
-10.044140919105512
-7.392384025525825
-5.092115115643085
-2.92107651026662
-0.6955395082305521
2.037982863193731
5.454629777976567
8.912944691132552
11.758574693895579
13.657989694525085
14.583975161256685
14.824830724732971
14.74068927318498
14.437596730548334
14.040639907049837
14.07168642990937
14.675992339584807
14.72635745268642
13.317618605296635
11.351652664226451
9.812634175072027
8.11500680396941
5.2570927681029165
1.80138689791201
-0.6242242324006013
-1.9316762181996046
-2.997795936473297
-3.708581291672528
-4.122260403022728
-4.4750267547530775
-4.453720217584997
-4.164598884252871
-3.9988369337017247
-4.084622350573891
-4.1371152943013305
-3.9562061221379143
-3.752562503781308
-3.3969653249048477
-2.514831041832458
-1.2775182584054419
-0.29527611097483275
0.14934777379382422
0.4838525467059639
1.2599470415853424
2.2113034781455196
2.436254162224253
1.7282854366363862
0.9429023594840534
0.292209460381181
-0.9231105396135171
-2.642343404324845
-4.145132581169015
-5.025552017417792
-5.366890921913418
-5.473309061200173
-5.421496752542869
-4.956321024231548
-3.830549030979589
-2.1926352115565435
-0.7569346937412689
0.167075546676225
1.2166571257127734
2.663474941315354
4.075512831375663
5.195449664816142
6.303352666732782
7.514675566853097
8.469701603863172
8.993994668793105
8.92981721027012
8.345847406258722
7.796588411187169
7.478249820870418
7.366917965913911
7.562629471348805
7.72262694195759
7.511476186791776
7.0318647766493525
6.28550372453704
5.252364679285311
4.168441227245502
3.324914057926106
2.6497483885663997
1.9599252767958697
1.5031446009754643
1.5222268266035142
1.6319665703795692
1.4231907335254714
1.2534475338054218
1.573099339422747
2.2889189836614605
2.9199208556387637
3.298658673309603
3.675466508759433
4.0288506485656965
4.40937566959899
4.74972499905823
4.772691374520964
4.610003783006748
4.303856870412002
3.5433455384286674
2.3528505045059322
1.2856768847426088
0.8368408808386631
1.1187572714518912
1.7100482938862498
2.4231875203231583
3.5830825177262016
4.987199139695167
6.1221307054137455
6.550898461957386
6.15960508146606
5.287909540913857
4.236815820022194
2.9271538956445413
0.9334718733468732
-1.3985014768741901
-3.0850218376971634
-4.129234706138537
-5.113773593126546
-6.078909749331933
-6.872148700138699
-7.317515688755947
-7.108753209653162
-6.41001262719921
-5.39624112952487
-3.734103052420452
-1.490607024436918
0.7842338886317695
2.606686914774587
3.9839959774999056
5.21977734809333
6.034960872170092
6.306382133756671
6.578786210943007
6.939979260852729
7.186782564809389
7.356368681386794
7.157081281251501
6.374456457282963
5.5398076945763535
4.912286241862105
4.1881696137366164
3.51626273161136
3.274162028235817
3.2412013581518107
2.8494035210181465
1.9775806258078035
0.7486525526029821
-0.6366879111389805
-1.816353473679293
-2.8536814181112002
-4.06105688197965
-5.437729298879287
-6.428007391013789
-6.819094581252129
-7.378182662123999
-8.459084051798918
-9.725455261741063
-10.838861336365303
-11.505838746592737
-11.711313003384115
-11.748150353063705
-11.833039288727749
-11.71067891049564
-10.920060548408802
-9.60120007838045
-8.171239228344874
-6.566044271583417
-4.760453096129115
-2.8809869004113215
-0.9871137516411702
0.5242355367994942
1.6675281820531522
2.835595104225522
3.8015689410062947
4.360945464881917
4.629071035295766
4.9190788830829
5.256051542176322
5.072431914958938
3.850238017176809
1.7906861163444212
0.2016177601931628
-0.511405001136805
-1.099243853745329
-1.6580450673943934
-1.6111353244902868
-0.44419441658981224
1.2174648826849228
2.557573169402416
3.2076680373768585
3.31581233704849
3.793155584494292
4.787960602385474
5.7184839494146384
6.116571125020356
6.258980806692366
6.805971141996338
7.339700766100905
7.3645793966754285
7.343098550622414
7.371695542550632
6.877475306867178
6.447505576988949
6.926760005390796
7.487008039283924
7.7049598082099715
8.263988885119138
9.12260048031839
10.21497478260339
11.930043375172156
13.353774913151678
13.68299978830463
13.996890931742435
14.88702705588316
15.69695179994564
15.89054157836807
15.596315858903077
15.322791427935698
15.33368230746982
15.255949402862775
14.682885105412288
13.982763601319961
13.089301660946067
11.542908906709519
9.688379473845377
7.674983071581384
5.244575779845905
2.9287365220631387
0.9216239204464195
-1.292199673327341
-2.9081708539896636
-3.0342820091014815
-2.1580527451949094
-1.1697710170304156
-0.5198258709926792
0.19718135973135778
1.2992537335733463
2.4197946714087335
2.946949060957419
2.798269776966473
2.846286481258716
3.663524347530751
4.570235748228334
4.282491417874113
2.3437264887863365
0.3823462461136995
0.2477479016816308
1.1528428337723584
1.2227835705425179
-0.060841781684774845
-2.08066702656103
-3.7426774181165503
-4.788978836667136
-6.313826771191695
-8.427951040526548
-9.831223130045165
-10.084163141104145
-9.665939843882887
-9.191879137977649
-9.199946652738628
-8.572121607607636
-6.150321610503703
-3.7683833888570186
-2.8705243451625915
-2.664712309999133
-2.381177080754284
-1.3960304572478404
-0.25294260361750165
0.017500706502466153
-0.15748882327048322
-0.649851851187184
-2.0498468987128757
-4.289100769389433
-6.913693859494443
-9.387637892517136
-10.946384675226001
-11.269661565567233
-10.942371868138165
-10.49702494547197
