AAD_Filtered_TADAS_FILE
AAD_BASELINE_CORRECTION: BASELINE REMOVED
AAD_FILTER_TYPE: BUTTERWORTH
AAD_FILTER_ORDER: 1
AAD_LOW_CUT_FREQUENCY_HZ: 0.025
AAD_HIGH_CUT_FREQUENCY_HZ: 40.0
EVENT_NAME: 202302061024
EVENT_ID: 13207
EVENT_DATE_YYYYMMDD: 2023/02/06
EVENT_TIME_HHMMSS: 10:24:47.00000
EVENT_LATITUDE_DEGREE: 38.089
EVENT_LONGITUDE_DEGREE: 37.239
EVENT_DEPTH_KM: 7.0
HYPOCENTER_REFERENCE: AFAD
MAGNITUDE_W: 7.6
MAGNITUDE_W_REFERENCE: AFAD
MAGNITUDE_L: 
MAGNITUDE_L_REFERENCE: 
FOCAL_MECHANISM: 
NETWORK: TK
STATION_CODE: 3139
STATION_NAME: 
STATION_LATITUDE_DEGREE: 36.58383
STATION_LONGITUDE_DEGREE: 36.41439
STATION_ELEVATION_M: 109.0
LOCATION: Kahramanmaras_Elbistan_Turkiye
SENSOR_DEPTH_M: 
VS30_M/S: 272
SITE_CLASSIFICATION_EC8: C
MORPHOLOGIC_CLASSIFICATION: 
EPICENTRAL_DISTANCE_KM: 182.55
EARTHQUAKE_BACKAZIMUTH_DEGREE: 
DATE_TIME_FIRST_SAMPLE_YYYYMMDD_HHMMSS: 2023/02/06 10:24:58.4797470
DATE_TIME_FIRST_SAMPLE_PRECISION: millisecond
SAMPLING_INTERVAL_S: 0.01
NDATA: 13501
DURATION_S: 
STREAM: HNN
UNITS: cm/s^2
INSTRUMENT: sensor = GMS+/GEOSIG | digitizer = 
INSTRUMENT_ANALOG/DIGITAL: 
INSTRUMENTAL_FREQUENCY_HZ: 
INSTRUMENTAL_DAMPING: 
FULL_SCALE_G: 
N_BIT_DIGITAL_CONVERTER: 
PGA_CM/S^2: 43.358
TIME_PGA_S: 
BASELINE_CORRECTION: BASELINE REMOVED
FILTER_TYPE: BUTTERWORTH
FILTER_ORDER: 
LOW_CUT_FREQUENCY_HZ: 
HIGH_CUT_FREQUENCY_HZ: 
LATE/NORMAL_TRIGGERED: 
DATABASE_VERSION: 
HEADER_FORMAT: DYNA 1.2
DATA_TYPE: Acceleration
PROCESSING: Automatic Paolucci et al., 2011
DATA_TIMESTAMP_YYYYMMDD_HHMMSS: 
DATA_LICENSE: U (unknown license)
DATA_CITATION: Turkish Accelerometric Archive v 1.0 - Disaster And Emergency Management Presidency, Earthquake Department
DATA_CREATOR: AFAD
ORIGINAL_DATA_MEDIATOR_CITATION: : AFAD - Disaster And Emergency Management Presidency
ORIGINAL_DATA_MEDIATOR: AFAD PROCESS SERVICE
ORIGINAL_DATA_CREATOR_CITATION: AFAD PROCESS SERVICE
ORIGINAL_DATA_CREATOR: network: TK
USER1: GuestUser
USER2: 
USER3: 
USER4: 
[...]
8.63874301612163
8.218318321539254
7.530546086876177
6.462308952936659
4.978571630420936
3.073447711761145
0.7254592936066337
-1.7943968678969997
-4.294551811559351
-6.74041099052533
-9.028411613035269
-11.025064265925048
-12.429802594397735
-13.005989562252587
-12.589470077120104
-11.316626229608723
-9.836666903839559
-8.56272562756364
-7.595952132502219
-6.976660110347383
-6.665499468727362
-6.6470710852523025
-6.903824184956319
-7.453632821508222
-8.143484026026915
-8.642530145719794
-8.662160205704204
-8.032866313004767
-6.8274959927264325
-5.104025774808484
-3.067559015267925
-1.26288216250508
0.07679544976545838
1.034532100112997
1.6988995059275103
2.0584673259143598
2.0249388579815015
1.7781678174660471
1.5028779748198946
1.294273582512652
1.2477941817374227
1.363309342527314
1.5666336775973722
1.5339814876784241
1.1917246188832193
0.6981476771477572
0.057759047335281505
-0.5609220993362117
-1.0961067257793329
-1.5135814305419146
-1.8100583348011916
-2.1755933941355967
-2.5219938136700315
-2.720947810949729
-2.82296997560255
-2.828072426750837
-2.6439963799408015
-2.2699086943509252
-1.7484178376136854
-1.178703351001076
-0.736357020701009
-0.2193161922958641
0.5457547057366323
1.389786975307817
2.193035985867359
2.935571251336717
3.728186600755735
4.770703633644158
6.061035015463809
7.4105786611234
8.7432708971307
9.880737065584606
10.48720843797881
10.350660823920254
9.439801189126518
7.884062215279462
5.901491869268115
3.6857189384214872
1.3424058538457362
-0.8799431972901338
-2.7913578790093667
-4.243675249043587
-4.900887546406279
-4.822894171841305
-4.289572723255767
-3.5172549222520524
-2.7503543340215653
-2.089888203975996
-1.6517577910934915
-1.4233255874365447
-1.2318275026285486
-1.037283939913591
-1.006984274145376
-1.1193409066707332
-1.069735302335248
-0.8290861577979922
-0.48042806975266356
-0.1502952013908485
0.17260462423766595
0.615783031015756
0.8492055615244676
0.8491883810292841
0.9424129829598891
1.1804068200514057
1.6099041001874148
2.300341604696699
3.3078783232274107
4.411579648404108
5.285852499496061
5.881485126745799
6.190071767262601
6.117227269098828
5.412858288306908
4.24894506216119
3.1860944443883907
2.3810069386524995
1.8591886417132713
1.6158140058591144
1.75083976455099
2.400831400886798
3.2272776271272936
3.7984253303974422
3.7339025105183064
2.907120177307957
1.6203612274327914
0.10776994931638652
-1.4266823038024226
-2.7038130802073526
-3.52508441314209
-3.9098561998337114
-4.038003308413112
-4.040459668713867
-4.085862901926616
-4.273707461310877
-4.585388612357023
-4.9540513246894715
-5.224286457313749
-5.4010985575343105
-5.488629649900592
-5.425421921274143
-5.42471701517659
-5.651253583462157
-5.987605768643434
-6.230283916420153
-6.40050293846459
-6.813878362005106
-7.5963754053237045
-8.637016195206197
-9.747883388987072
-10.714403807942592
-11.387012356783625
-11.691008670023223
-11.717959551264101
-11.38962714347124
-10.615952813836618
-9.589173168451605
-8.38494370986933
-7.184069925291112
-6.178702613612922
-5.415263450782914
-5.041994607830156
-5.000610241273849
-5.239630100372786
-5.854127023154814
-6.911248140914423
-8.384810323243256
-9.980112170559869
-11.494049298558906
-12.794782436299192
-13.757650316719994
-14.293235793298434
-14.227204676216267
-13.431954897122193
-11.598890648160063
-8.775133442858149
-5.421067718751748
-1.6449497042606687
2.5302692488987963
7.0104896017624005
11.505442962336472
15.594887305834154
18.973089331712035
21.258586907349454
22.38795283512339
22.710852600092938
22.507123993563503
21.857506110996102
20.907155552309934
20.093964824599738
19.6083472249013
19.408339603806372
19.555162560254832
20.00275479620221
20.827904542738818
21.925421573833788
22.946878903931154
23.845494991917388
24.51113662409873
24.648659535461366
23.994025550745118
22.36616647272035
19.825376672016777
16.643134357619644
13.11160828218943
9.35755321125107
5.525706226364829
1.7907008049357496
-1.6410290741044755
-4.397297447404792
-6.3572439294347864
-7.603027080282935
-8.273642639147429
-8.563302497907218
-8.529326648298273
-8.32986114500567
-8.070230578670257
-7.7675523014215315
-7.565856519557689
-7.357370978606801
-6.907521759414089
-6.162573248992596
-5.144476540635408
-3.955378908567076
-2.741438278627892
-1.6879999925269744
-0.9210514619046539
-0.41934158589139436
-0.10703340960054261
0.10354544536451953
0.25974939278568787
0.46086877269325494
0.793262884039439
1.2683491063011403
1.9914699594484364
3.060317071306778
4.339941851199842
5.476819952392237
6.228244318801504
6.529671611802012
6.482587833228626
6.27329128982419
5.861504980590833
5.221363184094083
4.371262923583794
3.2418026801758377
1.7635250416259733
-0.1410641730297913
-2.3092827776104756
-4.472708429331734
-6.544097604890744
-8.520618649192443
-10.337514047030327
-11.803161103265706
-12.677264305326386
-12.743478337912348
-11.872346074046924
-10.132314365650208
-7.812359795074766
-5.26927835948493
-2.9032976969619653
-0.9481861338313596
0.6577181152836159
2.051997540242952
3.3262454077619115
4.4962794237644275
5.795891071650358
7.3735277744929
9.164990995965375
11.17479539462687
13.119548841275495
14.749887774080893
15.92944415689701
16.315015721703702
15.551640818791936
13.446163988892467
10.22049178607164
6.38515226438002
2.6481233428350777
-0.34160141832416624
-2.311371703660965
-3.1030650892717757
-2.924695174312368
-2.2537251691902584
-1.405754216339099
-0.7358198245661954
-0.692293051790923
-1.6975509583349482
-3.7960815841152304
-6.625074456821432
-9.602371512100923
-12.018917419905108
-13.482861175415747
-13.719609159436082
-12.74200172076724
-10.895739521878488
-8.449501370734193
-5.984804683558951
-3.774376363679288
-1.954015852066205
-0.700028584171621
0.28196576264235856
1.001811167531784
1.5946293977225483
2.3682007411996397
3.461245625463381
4.9264890193914175
6.467608795889834
7.908493444198942
9.177881531765975
10.231496912367312
11.02085110458662
11.360599212407847
11.296489529838823
10.95159830585512
10.496184911945717
10.23775655212897
10.275358470960542
10.673130841361868
11.327458429904587
11.883664240225414
12.385779996563516
12.86209397663048
13.13389271439563
13.062514841487213
12.24884950133664
10.557476723327072
8.077171500641967
5.016826917134733
1.9632384491881094
-0.8220367812126851
-3.0878297290478898
-4.2775247619231855
-4.17396377056373
-3.006441650326811
-1.160313359939287
1.1939492292328149
3.6964736991731555
5.773216880953934
7.39107441709207
8.596575116549301
9.193828356739575
9.177697658761538
8.590259553302602
7.367189877325745
5.501951774828351
3.13086277204833
0.5521987877038708
-1.770193740950667
-3.7073870082209357
-5.317237231348156
-6.434532730358018
-7.3162915205324985
-8.26499145558484
-9.407232328787117
-11.007541112729788
-12.880934548431101
-14.614344970642357
-15.975155261578175
-16.869367042009962
-17.312774727492876
-17.33877642996418
-16.970956801723155
-16.215889661985145
-15.243572550977046
-14.271769012005121
-13.451309047817517
-12.925755598005633
-12.75385368840188
-13.01539743453182
-13.601576706991375
-14.16215528254757
-14.40192299127105
-13.99505501105649
-12.717497395232673
-10.551822668449049
-7.657319937869991
-4.418686142682211
-1.320213703581988
1.3161071110885414
3.5888892529394765
5.591683386204353
7.28225761575066
8.754736595786293
10.048178141686314
11.256786112372458
12.470010864610915
13.65116932214004
14.779020480807501
15.530229480780793
15.524242126638223
14.900536596098519
13.844362901096455
12.300158810664353
10.427829420533094
8.640590950769134
7.1203671557025405
5.844937894298076
4.86832449334399
4.188993667453403
3.763328028226795
3.4408761273799673
3.0582753733827714
2.6201743163033027
2.1666625386341156
1.82590798914903
1.807753632277191
2.2476816380827143
3.200909611512959
4.416930463937294
5.379456635095449
5.950170204640115
6.13332886576913
5.905545221161773
5.462886331270775
4.9377492858338625
4.51889085378255
4.475683614385357
4.894792534161238
5.656986414353933
6.589119932329708
7.501984587559614
8.179328760809817
8.376845324301279
7.819616728883565
6.467801283026925
4.554761024110181
2.2366786315630196
-0.4975098017017179
-3.3576742410145126
-6.004943234747113
-8.44854459285013
-10.485982556810685
-11.854602320773662
-12.493623930520192
-12.362602198361131
-11.529386875666932
-10.100643163936772
-8.3711281306029
-6.6487759154705905
-4.837909602873323
-2.712496600347075
-0.30848402404120884
2.117048229869545
4.248053207695613
5.750037894067484
6.604932100940604
6.990395081573596
6.959048497274192
6.736113563400798
6.5280608503841915
6.374652625477432
6.313535999821693
6.312806826919027
6.443798814067543
6.573330099782488
6.422914555919022
5.9737771841491645
5.152315752429836
3.834214389162452
1.891853815951425
-0.4939610072523951
-2.963083817936934
-5.522906491513026
-8.214520278038593
-10.802167809694636
-12.826804504345018
-14.19148762607196
-14.909068977157629
-14.732567645648137
-13.829671798257252
-12.435221566855132
-10.62552074969504
-8.492263449785828
-5.947851589246969
-3.0597519495629237
-0.03233510677397771
3.113385219276279
6.263591410234569
9.13718659895886
11.70437269069264
14.006108779243712
15.790012209607145
16.809264974805732
16.92237346664424
16.06138800905477
14.48124709896161
12.582444814498697
10.577649010795517
8.618771507641776
6.7710904301116726
4.928061837274075
2.9833863686735236
0.7775971498551527
-1.714964543054425
-4.259556419930368
-6.7120932638254045
-9.112365156379468
-11.551161329907295
-13.948715480377121
-16.12055997231136
-18.012519878839807
-19.582076253540603
-20.62766288844011
-20.81785417586734
-20.0489103467289
-18.351173769162745
-15.816435461692517
-12.653931408271545
-8.757767114649997
-4.280128095460729
0.43295681357439314
5.287290705181438
9.935045634163457
14.0968714415064
17.519798726831002
20.1602329394104
22.318857741741503
23.888188073762077
24.697976903559233
24.818966548404926
24.35475287158667
23.387079991339466
22.08776812429465
20.8277346739114
19.738027487310166
18.75786971414914
17.97531706137851
17.62863899390183
17.89051635706906
18.535322031757662
19.24896599735274
19.85419963793048
20.38322400157919
20.676617062502743
20.4407939645862
20.21425803229344
20.342880896328076
20.807658939069118
21.67839526171804
22.552625322562907
23.321120026600273
23.753220970798345
23.443878317613144
22.411362160970477
20.65573856318836
18.354244539602956
15.678439207773689
12.943437039139072
10.493270454496246
8.38057472841629
6.654394052193153
5.1340828687347635
3.9192471586028486
3.184031287720337
2.6124350643784124
2.0585210717701554
1.3225456145498247
0.22927079623131716
-1.0739335221448665
-2.5247503091125725
-4.006785424959695
-5.523118696604202
-7.051920669544327
-8.379917836386873
-9.421872237674693
-10.202607064524472
-10.853738183830371
-11.228699428158713
-11.338020736822251
-11.49145318957649
-11.664607946118029
-11.880812463334502
-12.164155109123215
-12.545527969688623
-13.25449420959872
-14.279537197214887
-15.443349890842487
-16.64551687566907
-17.77379905771004
-18.789049983882517
-19.583694546583125
-20.011737058549805
-20.020540922592854
-19.486214276348324
-18.362737011688836
-16.65590239356725
-14.329661868481168
-11.299187241327976
-7.748204044695418
-3.987355198340843
0.010146102875407821
4.04868065798935
7.784230346896628
11.083470832608434
13.80931000440903
15.950333496217068
17.60817248756333
18.76736177821938
19.342311360085013
19.394978867593192
18.963278840371032
18.052981917553414
16.941495379319573
15.71590097963644
14.437597686116952
13.313742810092213
12.158682090348721
10.904863523359646
9.610582008669537
8.266273457273432
6.8667314766575
5.1274949332270525
2.911881740518668
0.35185613716658937
-2.3959004157696815
-5.336949560573094
-8.563229715904942
-11.874285586059356
-15.063845103694415
-18.001775755082132
-20.574003959793174
-22.821772301295915
-24.755638533606763
-26.50793619094944
-28.166390998578713
-29.489503735899223
-30.4110205290005
-31.009278258539723
-31.333376139143624
-31.519858790719667
-31.55702257338572
-31.382399705848144
-31.062352996573576
-30.742955089753224
-30.502945608391087
-30.361071399992205
-30.438057834590435
-30.82913338470218
-31.517651991539466
-32.187689358498844
-32.34337138590003
-31.750404593432098
-30.275779784167856
-27.856187362889532
-24.756089275375437
-21.153166282480328
-17.237264400765074
-13.246062678239902
-9.076112173591145
-4.924457321487576
-0.8268291913108393
3.2413410582755997
7.199835462599737
11.390271581180501
15.771022531507354
20.285412059760162
24.765226915548286
28.82036256552089
32.28439693876236
35.18223083882285
37.61795012758209
39.481917562441744
40.92470348669216
42.01376831318118
42.66646379541576
43.012065982917825
42.7659182345102
41.71483670698409
40.17957585051715
38.0361785068146
35.028181681533106
31.236525361329093
26.628175519726508
21.426814412921846
16.07909954763019
10.730315177913878
5.30070347350129
-0.08218453225330793
-5.27249917551881
-10.168524891577404
-14.625378513957024
-18.71836768643897
-22.309935830108543
-25.13323559783039
-27.258585025326777
-28.868778757073322
-29.863458022210118
-30.079198722781893
-29.64464748458438
-28.503174151481083
-26.461298462154748
-23.49943817079669
-19.897184336188204
-16.173975712352096
-12.263838993503851
-7.987982715749224
-3.5918084719882577
0.8471861084792262
5.27739569146249
9.736251993625112
13.986969142715397
17.524639864288428
20.43000412626938
22.9164535649082
24.773990271554748
25.772319815328423
26.442055733299753
27.203831326265124
27.669921667043685
27.8514739870363
28.033870617253083
28.208156297307188
28.270942894119337
28.124398697695778
27.980025879495468
27.90366445962245
27.477050177444582
26.173279366545916
23.751971272600624
20.81080752928703
17.99559685646732
15.68396771321642
14.084356100289543
13.01050644628898
12.538843132986647
12.472718974591016
12.50147612435913
12.870060956971564
13.561848192121557
14.278672059246338
14.859389323980048
15.348258461451561
15.857596834791531
16.05083635625839
15.617100434049542
14.784151582149892
13.707500547034723
12.279448856908106
10.572839831933235
8.916511443971444
7.369227654217807
5.770746419434463
4.050436515165095
2.2196211950844353
0.3382459156745586
-1.8141099343779805
-4.37335365732763
-7.102078631887124
-9.986005624807698
-13.008124770985546
-15.959074577942946
-18.84693750087839
-21.65638828499234
-24.3550430775056
-26.816209502946887
-28.750431660423853
-30.11276982506881
-30.990719853276524
-31.436552086031565
-31.46095647032384
-31.302650621038712
-31.027201512326076
-30.347219419620977
-29.38316455865827
-28.287628398399875
-27.018789178514606
-25.577752135573544
-24.005705559499294
-22.379001805430324
-20.73045840568055
-19.271310952325454
-18.273018576126493
-17.678734242873443
-17.312638309756878
-17.174253788029826
-17.157673893835238
-16.94497593942797
-16.206112115073303
-14.963612065698612
-13.405890400924902
-11.558768894657417
-9.41117418331251
-7.114834116479717
-5.034382127391147
-3.117113300369081
-1.3430059524669236
0.15230665315184702
1.40182045370499
2.3956086359777915
3.338786435184677
4.186925136464642
4.891327681241392
5.529218171512169
6.092048189945517
6.735408432025041
7.436022076635403
8.313746571545549
9.527832195806099
10.813690395269617
11.974770307072406
13.021387309590107
13.989516935740658
14.744664486567606
15.224259020921139
15.654748438872149
16.08724457498036
16.51044584591034
16.710477875385074
16.460409178110794
15.829685439146301
14.611861977006022
12.487157203192977
9.25276820848627
5.058738694618792
0.23446994125653292
-4.98928834789295
-10.135447771521143
-14.943062025381211
-19.467651976075878
-23.445552251797757
-26.73959706375644
-29.612785226034713
-32.08441590127401
-34.08390627096636
-35.684908684562615
-37.10249363288014
-38.41111894564701
-39.287114567520796
-39.45133233789975
-38.90595032857573
-37.643705962884795
-35.27048062704844
-31.430917832009396
-26.318413726474596
-20.549074340981605
-14.646610840888206
-9.25415014282751
-4.71979507593465
-1.184057876469228
1.445497073919917
3.986514987539291
6.184265284723024
7.666529423333026
8.423065542455964
9.011574102124008
9.781123516767808
10.20912132610793
10.631103979481455
11.224041126899074
12.507280998998489
13.991713890175738
15.468673210853433
17.650906239630746
20.10315805675953
22.29609335834333
23.85998263386758
25.338588212757163
26.453434274548883
26.73568029599799
26.385555958928446
25.72184215118446
25.115719265024516
24.25191435471297
23.16792772941341
22.003329000370105
20.857601507067958
19.568818831952154
17.955936399422075
16.34240543805231
14.728522687200527
12.860989806023506
10.936816983971612
9.191784256917455
7.524961023513141
5.823491276791595
4.226946115913833
2.9229292636387836
1.8069180869011559
0.8604975791497157
-0.11016284312777921
-1.2552734197262585
-2.289165826598026
-3.2480452704351506
-4.33586720753319
-5.341627836586101
-6.075787924283843
-6.536626273922815
-6.797967146091973
-6.790020145182658
-6.43076516992336
-6.032939093081644
-5.715626789679538
-5.429246864674449
-5.0653122775111
-4.762253089765587
-4.6382130027580875
-4.280592621785209
-3.598027709035753
-2.732387790649526
-1.9407389512743802
-1.2890928731876823
-0.47257070248908173
0.452930235108652
1.1952231408427691
1.8410235904765417
2.6013732488228536
3.25287992903239
3.598849072484379
3.8387823032484274
4.151662854357257
4.415145522326034
4.452327849680563
4.252605460783986
4.094869836119534
3.9872800035328155
3.596593836180305
2.9191549158616836
1.9335980587240762
0.6556330788780765
-0.798010129330361
-2.2350879060483324
-3.3817141220791216
-4.218758998903595
-4.778237716355051
-5.122705673208646
-5.275917087561612
-5.232711731297546
-4.931325823194821
-4.059522600009291
-2.8183878535138005
-1.6784719801571937
-0.5299507407558008
0.6594760187470148
1.9065940218878255
3.1927393369759756
4.230468473857531
5.068577615541842
5.766586315894543
6.306707018768352
6.834925878924208
7.631477558051843
8.726814344664747
9.870208268872435
11.066394425589996
12.23681701821012
13.29687143532546
14.077450915050749
14.537269067011986
15.00569955604664
15.240571984197517
15.003504437612122
14.337685497903108
