AAD_Filtered_TADAS_FILE
AAD_BASELINE_CORRECTION: BASELINE REMOVED
AAD_FILTER_TYPE: BUTTERWORTH
AAD_FILTER_ORDER: 1
AAD_LOW_CUT_FREQUENCY_HZ: 0.025
AAD_HIGH_CUT_FREQUENCY_HZ: 40.0
EVENT_NAME: 202302061024
EVENT_ID: 13207
EVENT_DATE_YYYYMMDD: 2023/02/06
EVENT_TIME_HHMMSS: 10:24:47.00000
EVENT_LATITUDE_DEGREE: 38.089
EVENT_LONGITUDE_DEGREE: 37.239
EVENT_DEPTH_KM: 7.0
HYPOCENTER_REFERENCE: AFAD
MAGNITUDE_W: 7.6
MAGNITUDE_W_REFERENCE: AFAD
MAGNITUDE_L: 
MAGNITUDE_L_REFERENCE: 
FOCAL_MECHANISM: 
NETWORK: TK
STATION_CODE: 0123
STATION_NAME: 
STATION_LATITUDE_DEGREE: 37.00338
STATION_LONGITUDE_DEGREE: 35.34376
STATION_ELEVATION_M: 23.0
LOCATION: Kahramanmaras_Elbistan_Turkiye
SENSOR_DEPTH_M: 
VS30_M/S: 519
SITE_CLASSIFICATION_EC8: B
MORPHOLOGIC_CLASSIFICATION: 
EPICENTRAL_DISTANCE_KM: 206.13
EARTHQUAKE_BACKAZIMUTH_DEGREE: 
DATE_TIME_FIRST_SAMPLE_YYYYMMDD_HHMMSS: 2023/02/06 10:25:02.5383570
DATE_TIME_FIRST_SAMPLE_PRECISION: millisecond
SAMPLING_INTERVAL_S: 0.01
NDATA: 14346
DURATION_S: 
STREAM: HNE
UNITS: cm/s^2
INSTRUMENT: sensor = CMG-5T/GURALP | digitizer = 
INSTRUMENT_ANALOG/DIGITAL: 
INSTRUMENTAL_FREQUENCY_HZ: 
INSTRUMENTAL_DAMPING: 
FULL_SCALE_G: 
N_BIT_DIGITAL_CONVERTER: 
PGA_CM/S^2: 27.666
TIME_PGA_S: 
BASELINE_CORRECTION: BASELINE REMOVED
FILTER_TYPE: BUTTERWORTH
FILTER_ORDER: 
LOW_CUT_FREQUENCY_HZ: 
HIGH_CUT_FREQUENCY_HZ: 
LATE/NORMAL_TRIGGERED: 
DATABASE_VERSION: 
HEADER_FORMAT: DYNA 1.2
DATA_TYPE: Acceleration
PROCESSING: Automatic Paolucci et al., 2011
DATA_TIMESTAMP_YYYYMMDD_HHMMSS: 
DATA_LICENSE: U (unknown license)
DATA_CITATION: Turkish Accelerometric Archive v 1.0 - Disaster And Emergency Management Presidency, Earthquake Department
DATA_CREATOR: AFAD
ORIGINAL_DATA_MEDIATOR_CITATION: : AFAD - Disaster And Emergency Management Presidency
ORIGINAL_DATA_MEDIATOR: AFAD PROCESS SERVICE
ORIGINAL_DATA_CREATOR_CITATION: AFAD PROCESS SERVICE
ORIGINAL_DATA_CREATOR: network: TK
USER1: GuestUser
USER2: 
USER3: 
USER4: 
[...]
-6.140151169145832
-6.54057121453559
-6.897324676015072
-7.126527953791624
-7.137170376724672
-6.900634455941844
-6.41543275916328
-5.753751966066859
-5.035921594022925
-4.410030804448903
-4.017411847578203
-3.898648204390233
-4.060885494157031
-4.416693708295468
-4.898031108673417
-5.4592056908605535
-6.084470752321202
-6.845533985254985
-7.707776813137728
-8.675553102774545
-9.730494870898733
-10.862700839462835
-12.000158575323415
-13.013459120799617
-13.769195192123401
-14.146669632595367
-14.116355170672838
-13.671342760133976
-12.925762471946662
-12.023244835864697
-11.120508519877122
-10.331826009843313
-9.688210360657324
-9.22727827068029
-8.916938125610725
-8.65580821750819
-8.369548696987
-7.937957688927906
-7.3311851830387385
-6.565307440337446
-5.725776393774639
-4.969303155967144
-4.366835349653193
-4.001924276030569
-3.846939755064901
-3.9072423112620993
-4.148510742600118
-4.4622338219729825
-4.768487672902922
-4.97564913286349
-5.162834759963145
-5.392745712237254
-5.700861925634445
-6.110400726335208
-6.604977065939807
-7.188625352619652
-7.766315368429575
-8.299642951734704
-8.715959201576165
-8.98019851765724
-9.086939616508262
-8.951124430446006
-8.571282406236403
-7.943920748557559
-7.158628190563746
-6.24057881540418
-5.200417996865802
-4.027719097033031
-2.7500251639579827
-1.486105609589653
-0.25142895283828876
0.8631501382579458
1.8896606704799133
2.824312002971505
3.6106979574575053
4.201953294894445
4.4924995198799325
4.497945619063246
4.264039573376315
3.8945855263112565
3.4438590918681875
2.954570056520112
2.4915935912690297
2.0059729422647847
1.5019353128871327
0.9911091388000419
0.492414714746096
0.04102024537304183
-0.302759548262588
-0.5096146025107058
-0.6456161490191966
-0.7216676243410423
-0.7603172460941546
-0.7176584982946889
-0.5617555059743965
-0.26237297352776096
0.21175965754945567
0.7795094357719885
1.3891453306612906
1.995312471984331
2.5868678187691994
3.1401165501971517
3.615151615393148
3.9702865541156287
4.231101828435967
4.460471537743905
4.648423016018767
4.7514537208958565
4.617918604985822
4.185740076043127
3.5305673941127154
2.779031728711182
2.0912925840026166
1.5780336273762994
1.3208632791124184
1.3102030193929797
1.5031118415502798
1.9088971426268437
2.479431252568497
3.190123921148499
3.9688155114427124
4.74385144030984
5.495536141973261
6.226954845950896
6.967427910324108
7.687324220683035
8.337667860597113
8.844738686506576
9.07649238877715
8.986036095747384
8.559427337173613
7.868887678327024
7.033009019596364
6.125317174104607
5.262560573599548
4.511040628099454
4.041348125819976
3.8424459119445644
3.8795482270974775
4.06424679588883
4.347417705035965
4.728269335934938
5.126493815720613
5.580960791324152
6.0939390191216445
6.752565727675177
7.527363637758091
8.432325838333277
9.426293167231808
10.421796377893278
11.358739876556793
12.107588024336248
12.649361562364579
12.941192973289999
13.00571573719868
12.927136013286004
12.768991023478137
12.512892825752921
12.18264022431777
11.838834593215322
11.42948605291953
10.982151908106434
10.475921509087012
9.963975506914727
9.528917546156483
9.108800356693056
8.765933760406185
8.4486890240539
8.21530711217729
8.061754745836536
7.944352572309199
7.8688424855136745
7.7225715818936305
7.526369938938989
7.3039781646758275
7.2426562575652405
7.38630561822908
7.758378754094068
8.285446325665468
8.83629572694972
9.345554037291118
9.627536163181384
9.757209029309964
9.803312145395058
9.795905080436482
9.666094203664615
9.255235429180509
8.580337410780377
7.704699308194963
6.892739493559666
6.247662925500322
5.750325211260447
5.244093584126569
4.525279860211301
3.68520027264479
2.7569774463504144
1.8343347334644733
0.8671872711596809
-0.10997402093760568
-0.956357213235862
-1.6908608986587952
-2.253780154399608
-2.655643771748953
-2.923525807177187
-3.129514225605089
-3.3464909078579668
-3.593749771499151
-3.8932126094985158
-4.295533834105286
-4.914945095401828
-5.6981426276753995
-6.572090139973689
-7.466728747165274
-8.326074776284704
-9.100613347003515
-9.71789700195175
-10.261885669710816
-10.757282805319818
-11.278143473747463
-11.850119725945468
-12.444142409683673
-13.02168990224717
-13.389627666188296
-13.455592726354691
-13.17257465062512
-12.707710711715725
-12.27088474226129
-11.909989567343736
-11.637355579403998
-11.437828286412973
-11.30906237167479
-11.110160431316336
-10.675117886490048
-9.936630087606947
-8.856632985597109
-7.534086869689542
-6.1108002042530005
-4.783079326008349
-3.687968483687134
-2.8260652102966537
-2.1314557407546797
-1.4950986281483132
-0.8742389106283491
-0.2334766657977776
0.4585342995948802
1.2676574332366448
2.155784142130173
3.03584471501604
3.8468397953476554
4.523812942254174
5.089993013784693
5.548529069565118
5.967229168796129
6.318691641892872
6.50135261810191
6.429434445013681
6.0018669020860465
5.3265513262882695
4.569194552022317
3.9360740989098537
3.5065660443301496
3.2665692554198644
3.161362044516348
3.1203829493398865
3.1485222969336175
3.1734930424119585
3.150137697388997
3.0906931857676536
3.08034289169083
3.252995143961977
3.6102371965870548
4.069861954399835
4.480669752893324
4.699192728868433
4.596201312116759
4.176492213018646
3.5581312354946477
2.852866911278368
2.2228645879524227
1.7818563893593125
1.602877787660407
1.6486492429788908
1.8973558467732605
2.2682887559974185
2.585102136630772
2.809895140384773
3.066011268303987
3.4785971512361704
4.117370544074094
5.034288989521911
6.191910287438112
7.467987605676422
8.68586076797733
9.680334666636508
10.513297386206224
11.32714712605334
12.134811681495922
12.846361429934587
13.430892220535094
14.035741373889618
14.696533430348426
15.35550178955165
15.835287547808335
16.023866421074246
15.94588652193067
15.549205726309122
14.80519300454846
13.725617831513347
12.46094794137297
11.149312123675069
9.90346257104601
8.77818964647025
7.76389890149044
6.840869192735364
5.966867115252374
5.163736424832051
4.4358616655191145
3.82131558806006
3.273240618579926
2.759887379793
2.2929830042666652
1.8127211598216517
1.370268469953653
1.039270971508513
0.8099637106424379
0.5834606806200432
0.2719750842960873
-0.07820292510833254
-0.36739436600988995
-0.5283655644541688
-0.5245297217389572
-0.25247902541368183
0.337211762533585
1.1446818766535167
2.089600957291741
3.1132203722706295
4.100174571766602
4.862962289722207
5.293376184391364
5.426028203491451
5.3025757563191664
4.919789719263659
4.318719666017056
3.680687788964956
3.134287470281913
2.6237857413320564
2.059613256619887
1.366968749918468
0.5494988094462678
-0.3794160883990289
-1.3559581125613926
-2.333192972133035
-3.271133492211791
-4.149728432981165
-5.018831358873792
-5.894074455615657
-6.867249382367706
-7.950719533488291
-9.02131430518926
-9.961947524745222
-10.73271558408931
-11.34949452213312
-11.849392137246923
-12.213574933716384
-12.367125391901302
-12.292739966577363
-12.019035232767518
-11.598192003899644
-11.176307103029675
-10.778602564322693
-10.336292156150803
-9.776996035662739
-9.092981412166349
-8.447025000635476
-8.004924342454888
-7.755854746061118
-7.5171600078115635
-7.225323467966622
-6.939999202480939
-6.646015901484573
-6.2532814135411225
-5.826879665130142
-5.544628984175616
-5.53936643086068
-5.770352682036512
-6.086666609354574
-6.367030674928683
-6.495621488274394
-6.375800255571067
-5.976580595883332
-5.288600805157267
-4.360195276394485
-3.3842137346300394
-2.5385910437289767
-1.9645711650792939
-1.7381120634035607
-1.8091597969828328
-2.0043979025579017
-2.1196329429337673
-1.9938437419283763
-1.6297311570889967
-1.1300973953877238
-0.6446635046862117
-0.3389345639233488
-0.28566414105029303
-0.5033984588659156
-0.842790373738333
-1.1587860302637663
-1.3924405218615352
-1.455856023676794
-1.325704304829938
-1.1024972186955528
-0.9141301095333281
-0.8855935066403515
-1.0840260838605056
-1.4713743198658666
-2.011362801578187
-2.6813564317180694
-3.372321448306958
-3.9396630734687355
-4.259381092341033
-4.340183935825752
-4.2837480526725455
-4.176759836139127
-4.11549097265409
-4.0530439483002665
-3.925322974690534
-3.603637251538845
-2.899924592108516
-1.7442267792125201
-0.2293338725004529
1.4282077930008472
3.0507234078957888
4.510103155789772
5.80923421199898
6.974015129774477
8.045809281122434
8.986211987452602
9.701334023588847
10.266443172755718
10.87445333198168
11.686667312191663
12.789962530790023
14.159710266094207
15.551669155035587
16.72904090099422
17.521922438918143
17.892812203433486
17.83527633263025
17.403961614188596
16.757980980579347
16.09378643470217
15.591025809729137
15.287110078643463
15.13676144672948
15.089631943719391
15.107226612405189
15.024397934978836
14.649233640664084
13.887015092175131
12.952604429773336
12.229897436943723
11.959055159724139
12.104824350579003
12.451623066275356
12.866206172385807
13.31497209763417
13.751556091109084
14.053546401910323
14.140143843629504
14.019938484790194
13.841818606304752
13.769473064318781
13.918437400990692
14.253529628740756
14.640398896538228
14.92508413113444
15.02805488603137
14.954524951342977
14.696479047207523
14.304693622251744
13.730291476394235
12.966755307369978
12.025557818999983
10.9668256953082
9.92651973147735
8.908464618074348
7.8713878720635675
6.782589072882396
5.694481221144032
4.707152222076733
3.92343363368008
3.3715108993463256
3.0333695645910814
2.9075424053079635
2.9371666787001574
3.0129647822525407
2.999080289986412
2.888913218138711
2.672796370207653
2.3787867712761552
2.1236386581862
2.0331811772339092
2.1396592864065913
2.3464513862811955
2.5964346234200506
2.8479569282884487
3.1489418511698233
3.4433366599827493
3.6102692005381356
3.6339216868653437
3.586290368152456
3.540807245892651
3.5331330152530915
3.634919639087044
3.846336401024097
4.151856210292804
4.602042827135943
5.201923990831202
5.862806682771681
6.439054662331634
6.713135166750338
6.493506050994071
5.740194414517786
4.520334086918628
3.0591945758566275
1.6945800876167023
0.5441037564156451
-0.35400211716564745
-1.0730295659272338
-1.7144385220799578
-2.383919641428827
-3.2001826081050484
-4.1567266007336166
-5.210984573721084
-6.181487234353324
-6.8609691473420495
-7.065653826846185
-6.76265839678039
-6.076891458252631
-5.108866779125442
-3.9907829986493932
-2.8044364883214756
-1.6512789196591697
-0.6338506479967523
0.22513838703022354
0.811591673615046
1.1446613095399134
1.3908645834649065
1.7271634318272797
2.1994928408588503
2.6567039580904623
2.9205268671293085
2.9273845800538925
2.760576101059272
2.5788677804341837
2.4155286414760804
2.1827557550852252
1.8545230615305874
1.5264582372507591
1.247517945280435
0.9608835134358934
0.6241439418310022
0.2652504857332317
-0.008034131137325928
-0.17360978292323234
-0.2555003885678401
-0.17470069311786407
0.17761851660258385
0.8216111698475949
1.5718859926658155
2.2366966745556196
2.812313495390217
3.4254187558496483
4.226673393893763
5.157086376885871
6.077923317506286
6.864826080898553
7.457501924945299
7.852133810147092
8.027037146195738
8.064359652604622
8.0932481794925
8.142500822902361
8.21308681203977
8.330727069458348
8.51427663371257
8.786520137594907
9.148190444037116
9.478706365787481
9.671516312049455
9.744507802358013
9.870065486927144
10.278461477867012
11.073843661857623
12.169079877509938
13.41572806862846
14.706273013920482
15.888547188734973
16.82019932604768
17.487469651281934
17.99797851475528
18.424351919259273
18.683833119717942
18.692883897393475
18.467111119900746
18.028049579835816
17.374650261262797
16.410126811792818
15.185882744416915
13.841928572797968
12.374573240364317
10.845743928963385
9.297103507114999
7.836422321987142
6.684098740271084
5.940083751863452
5.55089430515067
5.347955137660293
5.197764652385495
5.049297046034543
4.862956842000491
4.644512493141641
4.437129056814445
4.235937620175012
4.030146279190155
3.7548958697341748
3.3303260356276487
2.7889683768914506
2.1174488164328933
1.2257725747300077
0.10046944521043075
-1.2040711017715284
-2.6047247699307152
-4.073176594785395
-5.6718567831973745
-7.449187541166248
-9.311448613312118
-11.051650995803914
-12.497041593063043
-13.568947648439451
-14.290914954197865
-14.812756120460143
-15.308389911246252
-15.836175780042332
-16.391659271264306
-16.97703998920968
-17.56847932434946
-18.209651093548715
-18.95027237692402
-19.710369354007362
-20.39153422009101
-20.979662713468187
-21.545038016586933
-22.268590043385924
-23.234072644192356
-24.319769492897933
-25.304652695232708
-26.00233683128237
-26.367809234447964
-26.43848312715574
-26.325665077800394
-26.158962818422882
-25.992106851125502
-25.843072705974343
-25.739544052193597
-25.713356553403536
-25.8483750243152
-26.202288000933905
-26.636809338989433
-26.93051743407343
-26.891780280671874
-26.438361689122047
-25.56125924109897
-24.355690193292233
-23.019304193266787
-21.733576196405703
-20.677654920646155
-19.92831860269345
-19.453507671726506
-19.1922518118535
-19.10179896915783
-19.05722588013903
-18.857624563061236
-18.369155155535378
-17.666588382909847
-17.051431277566593
-16.832060188789093
-17.0755267906912
-17.674349780379483
-18.452956238076446
-19.23467268275521
-19.8572979214733
-20.130210169118286
-19.923956162548695
-19.291287646956803
-18.345179011351597
-17.153012276530216
-15.890735949720874
-14.732404040714021
-13.715034606263208
-12.774169411529718
-11.803617360041446
-10.729503587826517
-9.507957389052116
-8.151518049134825
-6.679187662946747
-5.137961472986034
-3.686265800395666
-2.4794586161446834
-1.6475857957118567
-1.2392828201946755
-1.1977294255141977
-1.4552937084374649
-1.8572324634697739
-2.19009984412999
-2.3112891773337343
-2.199849359301023
-1.9308395065354735
-1.644288322822737
-1.4475742856887452
-1.4065969565655077
-1.5202463195299192
-1.7096858682792098
-1.936034836480056
-2.1645228794701277
-2.3588522348265135
-2.498769078678707
-2.5939796006566183
-2.6820617912967872
-2.8193420493235832
-2.978745522435356
-3.144833594295764
-3.382788538367073
-3.6954354740898205
-4.073932536499302
-4.526233757783837
-5.0363127293472045
-5.552184250570417
-5.981721867562387
-6.2912603505593685
-6.500613255075445
-6.613676595782017
-6.632070420945261
-6.578326408465575
-6.5553709230788195
-6.631266934263194
-6.749480914616292
-6.783245703137509
-6.641811727119743
-6.303794706811664
-5.854508625132028
-5.3893804567997545
-4.889075132668849
-4.255079537977544
-3.416606959720528
-2.4337535583390713
-1.4615947508397962
-0.605092792108318
0.08049253253719753
0.5537917845110293
0.7679134999834878
0.6931034662673476
0.3709600145972074
-0.15450972516234537
-0.8129160750468566
-1.4662526885975609
-1.9531555101841767
-2.2476479522170507
-2.4149616620517533
-2.5559549051986603
-2.733130031456997
-2.895822450649778
-2.975859264198626
-2.9572633405552846
-2.8647783848764368
-2.628407314419804
-2.2028864930892147
-1.6439704203696275
-1.00072639024016
-0.33056797969608936
0.3014237792565708
0.8322948901709102
1.1480407857878838
1.1334169896422615
0.7858879039259853
0.22825040209568223
-0.39229618054747606
-0.8964915705095435
-1.229753903951834
-1.478555417723742
-1.709239142696618
-1.9791910770912189
-2.3258797149452617
-2.7394665041422135
-3.133955091725882
-3.4668618959185773
-3.737047553043265
-3.9515043313975284
-4.085362386322418
-4.0962822373117005
-3.9889788880424932
-3.8374759198239605
-3.7336276123119876
-3.7496415863350125
-3.932124921493265
-4.275535138349081
-4.672432837855833
-5.002154577879969
-5.193215190813353
-5.257718320991821
-5.229083539574724
-5.163546681328135
-5.149701155412407
-5.2346569337761535
-5.4465100794970285
-5.876691892820189
-6.62396691493282
-7.6518152501087515
-8.834051943125543
-9.959070222530626
-10.782339013319458
-11.175682448904809
-11.132535131513457
-10.740880263885549
-10.265223012954154
-9.989550265417101
-10.026310046714809
-10.360709218747278
-10.946554436833287
-11.717828335504342
-12.56501870009231
-13.32942813794654
-13.822809224715634
-13.898652368321843
-13.575828274948059
-12.987125811990207
-12.305398133737992
-11.708977409327833
-11.36431200470267
-11.316999276103957
-11.427006547766904
-11.495543637899477
-11.362846717485791
-10.978113563320914
-10.352356080451921
-9.517651818430078
-8.577696472072208
-7.719756662621868
-7.0830966485486
-6.6932356257505745
-6.501912581992557
-6.421155894387169
-6.364360525253952
-6.217926763341532
-5.912854102830691
-5.427982647872519
-4.793293996323958
-4.172203264862121
-3.7680716454816174
-3.726597157909741
-4.094267670339584
-4.750814078630781
-5.510457152820917
-6.219727113576506
-6.767397617964591
-7.123187750504393
-7.270904663824104
-7.1696400573933525
-6.823438510724672
-6.3628667171037465
-5.9707040899376125
-5.706844809979066
-5.528720584746001
-5.34308019457884
-5.013032764189721
-4.468780738596045
-3.7181349039556384
-2.8703792645936974
-2.0590778327099537
-1.33091681070956
-0.6956898840615868
-0.14723313198302984
0.2606823228288942
0.5183865800613003
0.7044031783469101
0.8927007763162433
1.1061392028624426
1.2872512349693002
1.3725694668892867
1.3100218523290292
1.0541525943304384
0.623476207948834
0.03622004546498327
-0.7186825623581432
-1.6060517211365792
-2.515275826500417
-3.314125592289936
-4.000470497619011
-4.656862909652787
-5.403314713606497
-6.247975455785422
-7.116109873910635
-7.967359056209041
-8.802045462405383
-9.611128916206777
-10.29541668916121
-10.802518108162905
-11.106003762174543
-11.262446683948937
-11.348240568558722
-11.407832543821025
-11.53723233210871
-11.765037827672534
-12.105628199889289
-12.500582339015608
-12.853219169127234
-13.132808666954778
-13.323827302713676
-13.364261002920088
-13.204079013864607
-12.829923045805543
-12.288851675211227
-11.699251884458066
-11.14681126381626
-10.693164580829798
-10.370828087938687
-10.208013327938547
-10.196260552755112
-10.261685387547772
-10.324091911888829
-10.34282621083717
-10.288789054350785
-10.160565978209286
-9.947726787185003
-9.68854611396078
-9.457642523598757
-9.327359717182649
-9.402592150503224
-9.665895192564339
-10.033889300580555
-10.425600372384586
-10.702398549149436
-10.890477292968509
-11.029977894762975
-11.165659328524796
-11.33765920678224
-11.51367268890351
