AAD_Filtered_TADAS_FILE
AAD_BASELINE_CORRECTION: BASELINE REMOVED
AAD_FILTER_TYPE: BUTTERWORTH
AAD_FILTER_ORDER: 1
AAD_LOW_CUT_FREQUENCY_HZ: 0.025
AAD_HIGH_CUT_FREQUENCY_HZ: 40.0
EVENT_NAME: 202302061024
EVENT_ID: 13207
EVENT_DATE_YYYYMMDD: 2023/02/06
EVENT_TIME_HHMMSS: 10:24:47.00000
EVENT_LATITUDE_DEGREE: 38.089
EVENT_LONGITUDE_DEGREE: 37.239
EVENT_DEPTH_KM: 7.0
HYPOCENTER_REFERENCE: AFAD
MAGNITUDE_W: 7.6
MAGNITUDE_W_REFERENCE: AFAD
MAGNITUDE_L: 
MAGNITUDE_L_REFERENCE: 
FOCAL_MECHANISM: 
NETWORK: TK
STATION_CODE: 0118
STATION_NAME: 
STATION_LATITUDE_DEGREE: 37.03616
STATION_LONGITUDE_DEGREE: 35.31843
STATION_ELEVATION_M: 76.0
LOCATION: Kahramanmaras_Elbistan_Turkiye
SENSOR_DEPTH_M: 
VS30_M/S: 946
SITE_CLASSIFICATION_EC8: A
MORPHOLOGIC_CLASSIFICATION: 
EPICENTRAL_DISTANCE_KM: 205.81
EARTHQUAKE_BACKAZIMUTH_DEGREE: 
DATE_TIME_FIRST_SAMPLE_YYYYMMDD_HHMMSS: 2023/02/06 10:25:02.4848320
DATE_TIME_FIRST_SAMPLE_PRECISION: millisecond
SAMPLING_INTERVAL_S: 0.01
NDATA: 14501
DURATION_S: 
STREAM: HNZ
UNITS: cm/s^2
INSTRUMENT: sensor = CMG-5T/GURALP | digitizer = 
INSTRUMENT_ANALOG/DIGITAL: 
INSTRUMENTAL_FREQUENCY_HZ: 
INSTRUMENTAL_DAMPING: 
FULL_SCALE_G: 
N_BIT_DIGITAL_CONVERTER: 
PGA_CM/S^2: 24.263
TIME_PGA_S: 
BASELINE_CORRECTION: BASELINE REMOVED
FILTER_TYPE: BUTTERWORTH
FILTER_ORDER: 
LOW_CUT_FREQUENCY_HZ: 
HIGH_CUT_FREQUENCY_HZ: 
LATE/NORMAL_TRIGGERED: 
DATABASE_VERSION: 
HEADER_FORMAT: DYNA 1.2
DATA_TYPE: Acceleration
PROCESSING: Automatic Paolucci et al., 2011
DATA_TIMESTAMP_YYYYMMDD_HHMMSS: 
DATA_LICENSE: U (unknown license)
DATA_CITATION: Turkish Accelerometric Archive v 1.0 - Disaster And Emergency Management Presidency, Earthquake Department
DATA_CREATOR: AFAD
ORIGINAL_DATA_MEDIATOR_CITATION: : AFAD - Disaster And Emergency Management Presidency
ORIGINAL_DATA_MEDIATOR: AFAD PROCESS SERVICE
ORIGINAL_DATA_CREATOR_CITATION: AFAD PROCESS SERVICE
ORIGINAL_DATA_CREATOR: network: TK
USER1: GuestUser
USER2: 
USER3: 
USER4: 
[...]
8.027289302509127
8.61772800313803
9.240772803280427
9.78918783508225
10.165484075331786
10.500834895131119
10.75987569969115
10.94751603792035
11.20794733352669
11.433348224858781
11.605018523424425
11.80762916467119
11.993315515153872
12.167049018835353
12.408464380511399
12.713593893984214
13.030099531870347
13.378415300881402
13.772690664526584
14.15307431621224
14.497015224915854
14.81085956853193
15.158437984102601
15.457029589318946
15.668575008941124
15.780681322711965
15.76343344360668
15.75827672543614
15.710295069732442
15.526324768849321
15.302115954578193
15.113813954846725
14.86887992638064
14.534263898115272
14.235159691779224
13.953737355824382
13.696654514369369
13.44816043715856
13.244648069301414
13.114134025320528
12.869405510134618
12.467940632087608
12.000141677407951
11.512033464556826
10.974104753731377
10.364792056540656
9.745411103726488
9.23369023786279
8.884068662574418
8.659245600495867
8.477058953242912
8.28711430241011
8.044046852995418
7.707852788964292
7.245128347352315
6.71292548912198
6.147962917923518
5.534249212516401
4.915064135293544
4.272434580687871
3.6101125438932637
2.9487236735413793
2.3710360994791455
1.9841195081322447
1.7830175119370069
1.5643543066860575
1.2086217752686963
0.8204712499032596
0.44167841478331554
0.06470581922511988
-0.35940222996288274
-0.8065856137904222
-1.2360038004619802
-1.6126059376127253
-1.8911432196650704
-2.161607722832154
-2.4592061641259444
-2.660875867021178
-2.7932106341600855
-2.919541109919288
-3.0396309082818025
-3.279067193755613
-3.605892088841935
-3.87637733607279
-4.022436137065733
-4.113310257167069
-4.168596188834207
-4.226936337447409
-4.333293568528891
-4.438177035774078
-4.413137825787395
-4.368069082635062
-4.291870760489422
-4.162566953753657
-4.245676154618774
-4.3393922444358335
-4.39719401443115
-4.319030797879589
-4.059529279516546
-3.6994738991312768
-3.253410841093214
-2.812850995629629
-2.3558602321189785
-1.8626253421288634
-1.3388110249318024
-0.797229949487605
-0.27354194202039017
0.15314496509120634
0.5912239364019908
1.0423545541606418
1.5253075964374943
2.0986320230033004
2.7309190619289643
3.3419009015347765
3.9303152380462985
4.511058851795268
5.086751708598865
5.694656516380476
6.323558679575657
6.870465151250462
7.2655712592386035
7.546155316080291
7.688324664833406
7.729410806068613
7.740615387286048
7.7885296701207185
7.805116417303949
7.774869343574841
7.7064947340510725
7.686074912499822
7.713037835438039
7.730043865226094
7.7265086168612305
7.741711867036116
7.809129722624639
7.841549866284683
7.857132473700544
7.811887190682999
7.74750163998558
7.721879383110413
7.803240913832318
7.942911607199977
8.11958472294268
8.318208067406363
8.530288119580652
8.777391781935815
9.046339183798404
9.290285273881903
9.429672888702651
9.502604598924087
9.541699210585701
9.605956603709503
9.602350243807948
9.543080298701467
9.477225813341192
9.430971227098658
9.372965795762667
9.13218595167868
8.65259518241297
8.091785710608137
7.621895653566341
7.3076055906498985
7.08701395843578
6.749469713185137
6.265559351849784
5.683489570237108
5.043360991362664
4.467649533892234
4.04446193123683
3.754194082219783
3.515369648448903
3.343737487866626
3.3087678127536733
3.4008459034997887
3.488692968460558
3.525935086958082
3.587876792001887
3.709777999698323
3.8515530723260274
3.913059136687491
3.9603238873077635
4.061822138625525
4.237044975733925
4.394244118108749
4.480231137660375
4.538082326142908
4.607737599904358
4.69181799994826
4.797951089722997
4.950136259110351
5.061025934778976
5.129453662363853
5.25008378294584
5.457024418506309
5.6281042335922855
5.688012589078005
5.577789589022611
5.372796496338873
5.1466561962084585
4.9516892897989715
4.78843498532676
4.617961579544141
4.430971130304611
4.257793281577764
4.2363550325293415
4.323850277161424
4.376571350107401
4.319269184946535
4.189524853303549
4.028283839427233
3.893857150924019
3.785169028746202
3.7303992437905156
3.705858065617623
3.6470660448811847
3.5674864427005257
3.463161789742722
3.358885586436674
3.272584359376564
3.288596796727211
3.449003038185344
3.6040064097320723
3.7029251055669916
3.815927579260125
3.9532185873423664
4.092508377669231
4.1610973550942445
4.19636109075051
4.217717219054635
4.164669732859173
4.069106775680138
4.033973324275883
4.092697335553009
4.2050970837914665
4.3344339127961735
4.411062017606945
4.3798659994662765
4.301557874365874
4.2234870512955505
4.0799143177331425
3.8764951647635533
3.601263173359559
3.282251149903986
2.9550149434118587
2.640547855187016
2.3733530905523805
2.1371935048267274
1.8900720057086655
1.5054324695595385
0.9530421373087088
0.30429885279423147
-0.367521343222747
-1.062229923009863
-1.7538304145239316
-2.4271461060515236
-3.102483993101131
-3.768091391890479
-4.376710660735775
-4.961739846350524
-5.619157906847315
-6.29832808460516
-6.933345091173872
-7.522324664619631
-8.142787525692855
-8.794766624561042
-9.477460738344833
-10.17203026340128
-10.834061293112029
-11.538764652857429
-12.249211279915075
-12.868657187728962
-13.311359342213773
-13.568319595359712
-13.780420425299738
-13.986899879416631
-14.171368395531942
-14.330377612027924
-14.359698914251851
-14.173227818833693
-13.797745948964224
-13.373464581558915
-12.998675624252334
-12.639608913500776
-12.248544789177425
-11.792780219210126
-11.287678956955272
-10.766021963208313
-10.312012515970613
-10.002676931574403
-9.817439019476081
-9.74066713230514
-9.762063394290575
-9.7682820007473
-9.68539392733652
-9.551205231842465
-9.417148651493564
-9.368555331476324
-9.345733369600143
-9.2935276520087
-9.223486449964666
-9.161024128243453
-9.167996357564155
-9.267460355799384
-9.470668980933405
-9.743723292871817
-10.040496454062255
-10.302254893479603
-10.47184309916756
-10.536648614951968
-10.48865864908469
-10.382159221518869
-10.262587141026861
-10.06544345553705
-9.805959642136534
-9.491924769984937
-9.171817123402763
-8.919227982579585
-8.729712990006334
-8.603489551616457
-8.445379220669203
-8.280188847284577
-8.189053695274737
-8.116573468771778
-8.046139866972048
-7.986904487565429
-7.9580933994494005
-8.032939227983862
-8.25514425518537
-8.56497220367658
-8.88418399866144
-9.181062068783792
-9.50350587464049
-9.880827248557468
-10.244023594942519
-10.552472851888485
-10.764709806850552
-10.854236013222966
-10.908432070187791
-10.955850043730113
-11.029088775416175
-11.191277757813683
-11.344536982365806
-11.49511021723618
-11.759598903467232
-12.132404084306062
-12.54368693601786
-12.860341166883808
-13.054178405340071
-13.237107829375734
-13.440300172741647
-13.644778536292163
-13.77403025385718
-13.811045920974758
-13.830969350427278
-13.895753021294755
-13.934256568424614
-13.906500947767219
-13.882682554279842
-13.844610241584213
-13.78760187157311
-13.771839949417702
-13.76354429462757
-13.750760911543145
-13.712360201521667
-13.59121337557888
-13.440475169156025
-13.220404272901439
-12.94711331218532
-12.62910358199026
-12.285118536449797
-11.93077723663251
-11.545380289801061
-11.114910648385491
-10.686842783096054
-10.331235850874537
-10.057026113798191
-9.83628021548073
-9.63242292789004
-9.462593020152159
-9.368410949695042
-9.36427515661255
-9.413772164354208
-9.412443253459472
-9.335183368524435
-9.204643735552345
-8.99996257858321
-8.78707670006767
-8.498626484493807
-8.198870383023904
-7.9427355113506835
-7.722542978816203
-7.511579057152621
-7.370982250976663
-7.42737578359903
-7.474115877499085
-7.285638606812376
-7.587425594542578
-7.610538916976322
-7.09384991699886
-7.136463451189314
-7.166046805812408
-7.381605666479808
-7.162648492327006
-6.907647004723987
-7.1274663066075385
-7.0847078345379
-6.99592495995167
-6.864007130455224
-6.904643730221091
-6.801098236300169
-6.5242404821390565
-6.389432684950393
-6.444735088122139
-6.477553269703133
-6.2540182926369345
-6.1568803878151135
-6.351220293992696
-6.445396795643516
-6.450870146080669
-6.598012809879534
-6.851709067766835
-7.012272125284312
-7.058859172521146
-7.0920500924934835
-7.011257143188031
-6.816301277651048
-6.636547394670463
-6.437890418845605
-6.150612160223832
-5.8375984591465135
-5.467877172709357
-5.094022293585332
-4.715344409167991
-4.398481587051727
-4.093067249070652
-3.669174735960123
-3.191264106773392
-2.7478736461584403
-2.4131946677793032
-2.169359860295038
-1.9177772212343667
-1.6775962907168558
-1.479763433346044
-1.260626343684294
-1.0928452530226953
-1.024560757750899
-0.7413330372112754
-0.5219264178006394
-0.6147480369491025
-0.533658295881537
-0.4640363751251065
-0.39064088030979416
-0.37164987002570504
-0.43676017438721054
-0.4518468800310244
-0.40286308959377926
-0.25804801304793
-0.29344319991041373
-0.2797173397860056
-0.18590864465515933
-0.24098313352104886
-0.3530034735162461
-0.4133130095732478
-0.4339740686950283
-0.42054336665059083
-0.4001011910288869
-0.26373888496925413
0.032062745402116836
0.2830077444790917
0.4233802586018649
0.555267378988844
0.7429941193761608
0.9977431470241236
1.2895261912707372
1.5549206568068445
1.7045760624173336
1.7889392608032224
1.8483148125943485
1.8248659637150728
1.8286792902455857
1.7629947438332332
1.5770584820747635
1.3672665303803293
1.1239466271411165
0.8899687490658266
0.6721508786108823
0.4272217423507598
0.22553812405911808
0.09489083757932008
0.08914887969989473
0.13304561963782577
0.14922832962141025
0.15011468489222382
0.05865235307897699
-0.09285578050402157
-0.22128052560269523
-0.25793837579256806
-0.23773656206191462
-0.19087282538701292
-0.1590997689507812
-0.11239033694911424
0.0035412666932919034
0.160687819556629
0.353073469281193
0.6056677049515689
0.8793564951982619
1.1324377447339236
1.368651719363668
1.605308327153054
1.8603516596063605
2.082007312415496
2.2327736930466298
2.330706307263255
2.3551493601260316
2.282459794644786
2.099091447679256
1.8266343276113222
1.4962161163791594
1.1061091528580034
0.7210065554360819
0.3766420947569959
0.08693794599588674
-0.23910779871935256
-0.5951338242382697
-0.8941207005353328
-1.1688570450980227
-1.4280544550965277
-1.6995102568583156
-1.980657068104104
-2.2261486622298086
-2.413919676969697
-2.52952671045331
-2.642975421912869
-2.855721036055232
-3.1552266061574836
-3.4738108277405875
-3.7653687352799303
-4.046782691344683
-4.303810292263422
-4.514874960738681
-4.728457000344551
-4.933151948934272
-5.069687104638504
-5.066584640476012
-5.00881211448421
-5.014246321472046
-5.101141652855099
-5.25623406834079
-5.415334183807472
-5.613205955651754
-5.822372066277673
-6.0671954107339765
-6.333308083822596
-6.545357260520931
-6.7126767468463155
-6.850271651474796
-7.0537845381280055
-7.330282536774668
-7.632681890973525
-7.917405528436528
-8.152687983190296
-8.346752299014831
-8.522735240925261
-8.741107054174341
-8.994923980123884
-9.225143543642693
-9.436283271422983
-9.618516697256803
-9.766493761720794
-9.900769572612248
-10.086667955451077
-10.29605446958226
-10.459861344023787
-10.55958979727583
-10.517929938084341
-10.462346720623323
-10.503685434548174
-10.476228237316636
-10.313869626991275
-10.145227445092859
-10.008584640582734
-9.908540462790205
-9.90776263086585
-10.012018847412643
-10.035393514949142
-9.918530732776814
-9.778579774310963
-9.626085410718483
-9.440565492745236
-9.125997962377992
-8.748798946888456
-8.354637337314292
-7.936424369160603
-7.580430914706699
-7.295895737841151
-7.061854379243468
-6.808607784362947
-6.515784127478248
-6.2705280132259436
-6.07598821453495
-5.89541051285193
-5.6996388583429916
-5.459747136140344
-5.234339705357313
-5.029794459465147
-4.837847930901268
-4.647523809331851
-4.43812667751257
-4.2434228848919195
-4.050939970183696
-3.8149406902843395
-3.612991982778435
-3.557766787340424
-3.5984828724253637
-3.6625068377936785
-3.7644700175246135
-3.7555312673751184
-3.6387415637146447
-3.506064240599223
-3.268399972925365
-2.9289391072292634
-2.4718623116500527
-1.889396983956696
-1.2257948370183886
-0.4850187498919068
0.32387501109721395
1.1809502218420447
2.0247474680483433
2.8770842498341223
3.8080340131617176
4.720943030305574
5.5921014602070125
6.40644630198759
7.237101740023702
8.12945025592245
8.994227769482874
9.829080610875433
10.632199220398968
11.449552287795404
12.26601419847841
13.072946067284793
13.841862489175453
14.489344904210913
15.05952205550002
15.623160754431556
16.18121494629791
16.76019519041359
17.373318160902436
17.96312813047316
18.550376215636053
19.14013970049629
19.724859256331698
20.273121448800335
20.780159204759645
21.362584330259562
21.937010243653297
22.450706314954036
22.945543822704135
23.39909169767363
23.798000929520548
24.18706204707002
24.549200411734198
24.852924209979705
25.09379511074516
25.205810781111875
25.1724236791066
25.10512329967398
25.038895652170915
24.772266365721634
24.443673939180435
24.052689833315146
23.61932628299766
23.312926840353484
22.946001240528716
22.549893357948168
22.188974176743248
21.891020190413098
21.699276540439847
21.580137454043715
21.49939253196426
21.446418210384724
21.42962779789754
21.434005279650762
21.387841960679634
21.316125741989698
21.265148451260124
21.142202473655786
21.000758429233688
20.817456333170615
20.599066581345145
20.457266570672676
20.26525559031446
20.03106381716417
19.78999968721921
19.509921742056395
19.281119473870078
19.06891738518421
18.85777035696326
18.665759999952158
18.52577922208398
18.448433576016594
18.314802702658515
18.099098453287073
17.843269895576626
17.58004890201832
17.339674099994294
17.057716625192445
16.688216926278592
16.23913295786702
15.709210928911576
15.104723595199896
14.421473565346718
13.684505890558619
12.853281769218107
11.925678636160162
11.04005487683616
10.203115357414923
9.395475771902285
8.685863578397859
8.056612379509536
7.498762499245356
6.959655714786806
6.451351188258745
6.052618496531863
5.716749807927605
5.437052067258785
5.21253418505861
4.963328057120112
4.676140154608377
4.40279323896285
4.158087555121923
3.9143094000589933
3.627084409519282
3.437905199751211
3.406901972998175
3.4261928384637828
3.543182950875202
3.7207524131311405
3.9132508782623896
4.139360129419929
4.350444875685331
4.5338746673238735
4.65684600051143
4.671564283489864
4.610401843127073
4.52974373524395
4.41303512515007
4.300970859832964
4.297112320760804
4.35445703377415
4.38409283272185
4.357685404436872
4.2800722012056305
4.283597467133287
4.368227248215409
4.435555956732636
4.43246468103951
4.382346058012616
4.319099308017636
4.189774798707578
4.089625229187326
4.038786417200998
3.9715135047177874
3.868256310186993
3.726498624283982
3.597555159272898
3.4354161161031156
3.180239857563351
2.892503082480611
2.6449664426941695
2.454974780363006
2.278539225850213
2.1536200005793686
2.03925120118566
1.8897268408413619
1.7714526883011643
1.6538999229013231
1.5542482289067026
1.4540135098989733
1.3152576009833077
1.2376060703448646
1.1439774188854173
1.0139592314219086
0.8752962411642478
0.6871533743998864
0.5094708014829957
0.26084997332942467
-0.005075525235337681
-0.23434987959686693
-0.4504736886613489
-0.6779802399380344
-0.8982131601201923
-1.1433994685595141
-1.437803787711166
-1.6518027341728578
-1.744990364648292
-1.8018732364825465
-1.852465772457124
-1.8126404267604206
-1.6981726524565186
-1.5016906537833443
-1.2529373953973575
-0.9743102703810996
-0.6665622568514723
-0.4093846961640166
-0.23101229929650818
-0.09796248566084993
0.04835258683976996
0.23065427144726033
0.37007922838965507
0.45381344085175995
0.5334785491155843
0.5485112380240534
0.5440654762519203
0.6179426085088988
0.6894495525421895
0.7409256248633208
0.7854241812862938
0.8376264503358302
0.9118247106679515
0.9543043940141531
0.9619229670487801
0.950326427992266
0.9189405262871027
0.8797033317461767
0.7886906988432771
0.6148674107044956
0.4331508106518899
0.2648736038464767
0.06270319887522693
-0.19228899591462467
-0.5099975726669931
-0.8980254574280022
-1.3407404755056629
-1.8850177959459187
-2.5183780958545414
-3.211450751310632
-3.9155947969132536
-4.6110193800993144
-5.277038411157429
-5.8679064312504625
-6.39262584402009
-6.888908055676273
-7.382616085857573
-7.85563311735208
-8.241713721834014
-8.505162632955336
-8.693772947889915
-8.861528027003624
-9.061978140878985
-9.268760886825412
-9.500473459974154
-9.6986021510944
-9.860793013460075
-10.027146711810227
-10.206137132403617
-10.4102316483739
-10.61480525864611
-10.847291424374118
-11.120420176628102
-11.39992702981024
-11.604754149446697
-11.716177443461927
-11.789623195719265
-11.87037261038723
-11.940351857062513
-11.982031313619597
-11.991373085293342
-11.959382533458264
-11.945410142410728
-12.003732743952721
-12.103263730814014
-12.198882370190292
-12.270700284581258
-12.39398045109481
-12.582637686603608
-12.802694487956769
-13.034429276130105
-13.241213142372777
-13.45238489509149
-13.64259858724914
-13.779109467706157
-13.865205129366858
-13.851520139913456
-13.791798607060807
-13.707343144966522
-13.56418169969611
-13.447899459818073
-13.332189806038114
-13.181431237245453
-13.049327332175965
-12.90662967537225
-12.749064519161438
-12.603457513105651
-12.487382545397
-12.42307821773642
-12.337806510304333
-12.18978451844532
-12.038282425907283
-11.905478948567552
-11.782890899305302
-11.711022758650754
-11.632467938204483
-11.49619506755408
-11.389833015672544
-11.286027937268408
-11.164126646583314
-11.100477299231073
-11.02297797639416
-10.887612209711953
-10.728026594502893
-10.618771632420602
-10.573890302032098
-10.48312424897996
-10.318386535082833
-10.105970192328057
-9.891319698228058
-9.69085910796585
-9.475372683618744
-9.197738126882639
-8.87685868443042
-8.538255099574528
-8.224853014134254
-7.935120384118551
-7.648713495480597
-7.364134009837418
-7.031485915585092
-6.690932888488814
-6.423613088431479
-6.171522961009435
-5.879621152764445
-5.5793060659300835
-5.270015970971482
-4.978804153469711
-4.685953699425295
-4.363860294349096
-3.997515543275977
-3.6199834685138392
-3.253533088109597
-2.867640027153597
-2.4613041178712223
-2.0014722417320217
-1.480224511670352
-0.9618560178244039
-0.5043220535489541
-0.08912999214019073
0.3333556261467108
0.7712509313766668
1.2087929131376476
