AAD_Filtered_TADAS_FILE
AAD_BASELINE_CORRECTION: BASELINE REMOVED
AAD_FILTER_TYPE: BUTTERWORTH
AAD_FILTER_ORDER: 1
AAD_LOW_CUT_FREQUENCY_HZ: 0.025
AAD_HIGH_CUT_FREQUENCY_HZ: 40.0
EVENT_NAME: 202302061024
EVENT_ID: 13207
EVENT_DATE_YYYYMMDD: 2023/02/06
EVENT_TIME_HHMMSS: 10:24:47.00000
EVENT_LATITUDE_DEGREE: 38.089
EVENT_LONGITUDE_DEGREE: 37.239
EVENT_DEPTH_KM: 7.0
HYPOCENTER_REFERENCE: AFAD
MAGNITUDE_W: 7.6
MAGNITUDE_W_REFERENCE: AFAD
MAGNITUDE_L: 
MAGNITUDE_L_REFERENCE: 
FOCAL_MECHANISM: 
NETWORK: TK
STATION_CODE: 0122
STATION_NAME: 
STATION_LATITUDE_DEGREE: 37.4339
STATION_LONGITUDE_DEGREE: 35.82021
STATION_ELEVATION_M: 119.0
LOCATION: Kahramanmaras_Elbistan_Turkiye
SENSOR_DEPTH_M: 
VS30_M/S: 501
SITE_CLASSIFICATION_EC8: B
MORPHOLOGIC_CLASSIFICATION: 
EPICENTRAL_DISTANCE_KM: 144.43
EARTHQUAKE_BACKAZIMUTH_DEGREE: 
DATE_TIME_FIRST_SAMPLE_YYYYMMDD_HHMMSS: 2023/02/06 10:24:51.9173880
DATE_TIME_FIRST_SAMPLE_PRECISION: millisecond
SAMPLING_INTERVAL_S: 0.01
NDATA: 12501
DURATION_S: 
STREAM: HNN
UNITS: cm/s^2
INSTRUMENT: sensor = CMG-5T/GURALP | digitizer = 
INSTRUMENT_ANALOG/DIGITAL: 
INSTRUMENTAL_FREQUENCY_HZ: 
INSTRUMENTAL_DAMPING: 
FULL_SCALE_G: 
N_BIT_DIGITAL_CONVERTER: 
PGA_CM/S^2: 48.446
TIME_PGA_S: 
BASELINE_CORRECTION: BASELINE REMOVED
FILTER_TYPE: BUTTERWORTH
FILTER_ORDER: 
LOW_CUT_FREQUENCY_HZ: 
HIGH_CUT_FREQUENCY_HZ: 
LATE/NORMAL_TRIGGERED: 
DATABASE_VERSION: 
HEADER_FORMAT: DYNA 1.2
DATA_TYPE: Acceleration
PROCESSING: Automatic Paolucci et al., 2011
DATA_TIMESTAMP_YYYYMMDD_HHMMSS: 
DATA_LICENSE: U (unknown license)
DATA_CITATION: Turkish Accelerometric Archive v 1.0 - Disaster And Emergency Management Presidency, Earthquake Department
DATA_CREATOR: AFAD
ORIGINAL_DATA_MEDIATOR_CITATION: : AFAD - Disaster And Emergency Management Presidency
ORIGINAL_DATA_MEDIATOR: AFAD PROCESS SERVICE
ORIGINAL_DATA_CREATOR_CITATION: AFAD PROCESS SERVICE
ORIGINAL_DATA_CREATOR: network: TK
USER1: GuestUser
USER2: 
USER3: 
USER4: 
[...]
7.0302988393331445
5.719899733347097
1.7743240636368864
-3.5334385267388035
-8.85584558071508
-12.9881518774208
-15.200489852186651
-15.263364030043496
-13.37564253179474
-10.15116269221773
-6.4844582229463406
-3.3022310358085005
-1.137878720113288
0.1416708784951569
0.7527649717079118
0.7888684978944913
0.5874234973753396
0.8918541857171729
2.4003625544635465
4.793197171281149
7.328963068296532
9.448957191144249
10.47285723433374
9.868007742108965
7.79539049536068
5.211975441405996
3.3381314816946093
2.433289319489227
1.9754249977849607
1.416913437034512
0.4036954878495184
-0.8370570402260157
-1.6016472269240565
-1.2070557610525603
0.0424264807480685
1.032466999244157
0.8739678081388035
-0.3170084467219113
-1.7305891003220528
-2.5681693648709873
-2.321788604397506
-0.9049158592607999
1.2877611469441443
3.5066771734390745
4.613035155685132
3.71964097588031
1.0209198967756534
-2.7915393136202162
-6.310015215589115
-8.057014812744274
-7.817496856185034
-6.18910186194592
-4.024987298222627
-1.714444324462294
0.9273458248871097
3.268850997653439
4.023629712986528
2.4917414590611355
-0.9009382534966324
-4.733886889607303
-8.035684988440003
-10.441547683289482
-11.658236312326615
-11.873393822657723
-10.77778992683356
-7.735510569979215
-3.1708271012749414
1.680389456544359
5.631302793565122
7.6871651416453775
7.864170376390858
7.051330770540509
5.427743515051435
3.1152638594467144
0.6321733150668778
-1.7543303677724085
-3.859285056794866
-5.375833589110688
-6.059832686600806
-5.942369870860853
-5.60809804343962
-5.180019075724896
-4.051164592239188
-2.3484276596495204
-1.1176144876772331
-1.1918047107068979
-2.1582884288730506
-2.810786216679588
-1.6738093795597653
1.9569143789535
7.081093326755393
12.18560680073247
16.270395052051374
19.1296940204245
21.17906895878572
22.27435741540664
22.042765417907564
20.860452335700685
19.125123062476415
17.045551118322077
14.860106534571814
12.707828721180142
10.836048860065542
9.288217307725251
8.008722833482265
6.402764959047043
4.04798540159527
2.1290801622632975
1.3519540778923638
1.6252726006345348
3.1980927869649487
5.556331219154799
7.128910440537835
6.84881672686507
4.6809924725934895
1.2359591965477628
-2.4084935508809204
-5.712925729633607
-8.359817778217833
-9.74743836081277
-9.685193295131523
-8.328104240143741
-6.205615844321511
-4.171832365866111
-2.4624114348083666
-0.862934627880196
1.0735382593436713
3.794304665022074
7.126670526324586
10.163507926377507
12.240367600133157
13.275155096338086
13.326123042185733
13.061304929860325
12.57852353387135
11.235406024421712
8.54567250612184
4.704159696373769
1.5842769953711946
0.7354299867680562
2.2241066885066694
5.32449327640547
8.86521383242567
12.310021874605535
15.118087503434834
17.02771566624046
18.419353343145907
19.13128684971087
18.971598030679026
18.00326486273041
15.883230738839938
12.356811622134598
7.1476401419531195
0.47829860743417146
-6.184641796705802
-11.626842086952502
-15.606961819752712
-17.581724187951185
-17.48178722865701
-16.24578854754349
-14.69223702046231
-13.321582526591344
-12.15466102386983
-11.13952224159274
-10.568142313587913
-10.712763653994696
-12.044854470489957
-14.882731125901195
-18.679308200639763
-22.620263194838586
-25.712711386646355
-26.414045862919036
-23.727586754223644
-18.057412230087934
-11.043385054676811
-4.645911935190962
0.5923146716503033
4.733593893922282
7.149298366913083
7.263263981751343
5.7068363593794595
3.536574423914897
1.8168189318335979
1.750453744157438
3.700821156979869
7.499788721360267
12.913315171086523
18.765413898534963
23.4824013343118
26.229386940039024
26.225932011562204
23.069067162263355
17.31072892643069
9.566735676216615
0.6666570914638309
-7.792583439389596
-13.858087928026329
-16.97623166014393
-17.796743640633732
-16.500394916143485
-13.8896221200186
-11.190926724364452
-8.519455748077156
-5.371668724889365
-2.1697316289262485
0.05627180576611201
0.48418942162848194
-0.5919039467944903
-2.0900923136342264
-4.258195120352104
-7.8256916733098905
-11.872920030922838
-14.830922532735558
-16.685165556665634
-17.93267960213089
-18.46889198879448
-18.920144316253058
-19.23994658176409
-18.03747197054376
-14.942954340647795
-9.998970047403645
-3.7127005989399033
2.6009394457351336
8.298953626352082
13.361140616744528
17.684049500344273
20.932521116946937
22.998357610923787
24.05338625357732
24.03502871723189
22.864143439967943
20.559580242100928
17.12453548131447
13.064320927059558
9.122610693405617
5.78960356012127
3.6960400994950966
2.7548456680690516
2.378477375998596
2.2599129049014106
2.071589337186343
1.8507373428268203
1.7744929496967574
2.4002388325366257
3.8730072870496377
5.497793532552472
6.390662058404722
6.343729512048817
5.723964476241659
4.4295758298781145
3.086881324939297
2.4207244725691734
1.8580069797419478
0.6831315806644139
-1.9258174980745209
-6.317397647672972
-12.013187646513517
-18.09517125690887
-24.14091508472856
-29.984672029726088
-34.58204480606816
-37.50536524273386
-39.14671665624885
-40.092482488810845
-40.91354741811925
-41.52671617580598
-40.794902580423525
-37.95419832065519
-33.61007259623428
-28.828892456021006
-24.122244266893247
-19.27090994404308
-13.988082803558953
-8.545716807007473
-3.6262970984581004
0.3172840982876948
2.869353865381719
3.3980905228002474
2.0274488014514063
-0.5782036134684719
-3.454244809567166
-5.777240698968404
-7.543504296462669
-9.00368142425094
-10.792594040369671
-13.2162167635325
-15.91160611119406
-18.682278795184896
-21.52997851398395
-23.80410764573269
-24.95885802569324
-24.60226495737007
-22.63364905048818
-18.66360259670535
-11.82925818878655
-2.8524627188818457
6.503419422525282
14.701076945579793
20.38956782594872
23.003411711126642
23.53746602326806
22.58149458799195
20.480271576158163
18.088656008201113
16.002055580314387
14.523155621069153
13.713754351836492
13.218536416951984
12.256450613301055
10.40514517240003
8.004127415645657
6.106500355716682
4.690375658637247
3.2673935077187957
2.059819779593769
1.370472693786127
1.975825366164155
4.042280865222795
7.437188843779438
11.785355069916571
16.428076949681202
21.23772130137932
25.859731694549968
30.229622519568455
34.303718035149785
37.01737551744887
37.440370754739185
35.5577619004587
31.869634919752365
27.142106741436912
21.477282782961286
14.855006491798456
7.675594800434101
0.6561783407191175
-5.356167695895406
-9.904760024697719
-13.780780759839233
-17.953939212785112
-21.338732347026212
-22.566806092780517
-21.631985768660474
-19.714053086400803
-18.61774695944548
-19.25990001800125
-21.0283252978053
-22.546542383530753
-22.736440594824952
-21.490296852946322
-19.19450678723961
-16.260023602750092
-13.08778805791746
-10.329838776388048
-8.565606935103366
-8.439375691929756
-10.64438959797854
-14.84892800849704
-19.70613681071935
-23.8225272022306
-26.176827856082454
-25.960026710619378
-23.191739168229848
-18.583305713103606
-12.623111537372932
-5.730301048276912
1.06339268881721
6.795462290640803
11.233022786559495
14.822337487795046
18.433416037853167
22.41291023137428
25.95752479076503
28.064230518217343
28.52065455712867
27.3370203473154
25.68033021189328
24.44122550737614
23.05844155905306
21.65622124449845
19.955001113008876
17.510177387251883
14.490517438359012
10.818699276001508
7.1102667059889555
4.012538929533053
1.9202484451351576
0.9557784655114211
0.46205930318186544
0.29863928917413857
0.3199787681014765
0.5351409980288261
1.5610106041015785
3.0740793324810958
4.5426281022449135
5.98010714624871
7.367932296001327
8.577049530268324
9.567635227082949
9.875406541171595
8.958308299639503
6.528099145149747
3.1340692956199496
-0.08014025151650224
-2.7052569576473466
-4.042009662427761
-3.383661359764828
-0.9259271685283311
2.6402741636841505
6.409919751377875
9.372830751413959
11.553915773626995
13.55249461029919
14.969921432085108
15.07121529899942
13.795234929375674
11.994281681359183
10.680007366451829
9.590649295523324
7.830083743048686
5.1807234404548295
2.0190265797966873
-0.9625354485050603
-2.9996810192118133
-3.938921362332388
-4.458490727240203
-5.397564053555679
-6.581756126173152
-7.531630123912433
-8.268476978245557
-8.822847434713369
-9.376859372196272
-10.035614877295012
-10.561245487015558
-10.657688117938793
-9.648972743432346
-7.013055802210107
-3.23077594296561
0.6677006158796149
3.6072685791868655
5.253246978787975
5.870493208869747
5.701995329882068
4.936777276935713
2.9741458088866284
-0.9973957941192139
-6.792349259456925
-13.841594463868812
-20.833855629508776
-26.563102008317035
-30.488402576194858
-32.17827875044711
-31.6173876015748
-28.948378746895735
-24.767269309509846
-19.62055898059274
-13.696991913172898
-7.7245551552546345
-2.3613720120301642
1.9420074263928173
5.238460755969771
8.143903431451038
10.883790963348378
13.212628248919568
14.67663118018361
14.376494925681365
11.792295970640412
7.647385869657901
2.5730820689163054
-3.0987012839077845
-8.983559590700047
-14.822933110294064
-20.728719766872405
-26.574917089320778
-31.21532437956807
-33.82435056211718
-34.42063709082833
-33.272532655991235
-31.16660007001428
-29.302097956143495
-28.516114792700407
-28.14944949969819
-27.256729727050278
-24.810876087256368
-20.03685120611337
-13.842752109903996
-7.185662820146125
-0.6062138621176412
5.639857420021872
12.078576762373428
18.767241311419454
24.495741641553803
28.541316193608218
31.254082546225998
32.17772258896816
31.150640515553008
29.252642812725956
26.643569880558328
23.271645879225165
19.59614103370984
16.375008655174394
14.64930802185375
14.198285437254677
13.994137389044749
13.901792113390737
13.830369066229698
13.277210283671081
11.984969778335042
9.739099092807708
6.759793858838991
3.0124039387714783
-1.795590870994393
-7.568318243377376
-14.355446502802724
-22.197516349056734
-30.245097207723422
-36.574325489647556
-39.51042182065091
-38.626615572508875
-34.62468580757689
-28.562290634340492
-21.3640794228148
-13.948500283306908
-7.430721155768033
-2.490092171528713
0.691748220339244
2.169972925097784
2.5897892168748218
2.761653527872793
3.085056430314705
3.5184962443595524
4.055732261004281
4.783899354346695
5.872199253659906
7.698597693643118
9.472297684861694
10.40829922568913
10.507928031514526
9.844388403261307
9.398165718218754
9.377030960176732
9.206746541637775
8.406554255217829
6.5273508993582485
3.9709558062301133
1.7908499522139218
0.8782384713467247
1.6187327537440275
3.4799208871148983
5.6263381574944
7.389693702483101
7.890479259407017
7.758444959629724
7.466682663243252
6.735098490033346
5.9098130893619345
5.171805463530859
4.595033551942501
3.626905348447969
1.4295508649579243
-2.0764720578004425
-6.574604423748549
-11.5599135572053
-16.029097937315935
-19.360491584335616
-21.69368233160202
-23.462340484796023
-24.825214142722572
-25.552834002961127
-24.613797882502336
-21.7112316576604
-17.541460120145885
-12.37927126594116
-6.691748941248979
-1.205083314420681
3.8046605061495424
7.53080845888036
8.712576016895555
6.91181040962078
1.8984583443907372
-5.496470500228354
-13.337542328763156
-20.414609337501606
-26.2004558758746
-30.17366799374351
-32.45276720950213
-33.617483340355925
-33.92422246922094
-32.76818974611256
-30.917889813408458
-29.783778536218787
-28.93028975496467
-27.748743307443803
-26.10108563361913
-23.302239782961333
-18.728288941424925
-12.478141921054423
-4.927740198418452
3.329758339431159
11.844086496244488
19.858486448098986
25.832310188340806
28.388117004553138
27.326674095716047
23.353232801255697
18.345571816284068
14.33541186957541
12.582940216725484
13.143681844928157
14.580955855384337
16.185117057194432
17.776443469553303
18.980020018230064
19.919959750796878
19.952444895405037
19.289092278657282
18.629076941959653
18.466293352408115
19.098700890027107
20.38175646704315
22.36969578683657
24.774735805899194
27.24019287808024
29.877876305518754
32.93090836185748
35.571954741323744
36.62598400583199
35.798310372947775
33.39196917389088
30.213408063504797
27.048762486231116
23.854010709317656
22.097414803198447
23.159442730545017
26.44687382832649
31.223953531404042
35.653697909249026
37.10854528440209
35.32246395779835
30.770572025320437
25.056090126768172
20.078839088745248
16.117802208456176
13.469923463775702
11.961385060754715
11.320122240730722
11.390417027172006
12.053287293691758
13.381378158825333
15.309577730930133
16.497883488406426
15.947806034255501
13.760784636465338
10.203783028686923
6.323927663078094
2.5635294184573136
-1.0785661736335952
-4.644155680771683
-8.277132878701254
-11.485589165892204
-14.223003975555175
-16.731071195198712
-19.951094124097676
-24.785225129671396
-30.828230635410673
-36.96973684314978
-42.77501410811257
-47.528821058991674
-48.84931447415392
-46.63442266429547
-41.86357241824066
-35.515419854150124
-28.421916869825743
-19.77912619451446
-9.86560622313959
0.7284750472126936
11.702573099340974
22.20847968627918
31.366787563798507
37.74530299762646
40.92490481038256
42.19786248971697
42.683821011895446
42.82279804334413
42.67598983134326
42.24693149563974
41.87821735924208
41.539521501135006
40.228320136971746
37.041958045161365
31.13106674894904
22.672553663357288
13.344936909441396
4.519809893732587
-2.807775887943127
-7.224656809793996
-8.787150410696803
-7.866597040056735
-4.426788563678977
0.020229281748454397
3.998918417605483
7.209640348959586
9.616018267524554
10.780734397626663
10.269007072544323
8.43591710535215
5.472862017085219
1.838443959293891
-1.083018158533541
-3.2944791729383613
-5.255565971063071
-6.2830449424706
-6.693338343883935
-7.250075544607955
-8.256700864963369
-10.435610626275777
-14.218108338752144
-19.24859195587656
-25.456011985407333
-32.30568047489777
-38.013522690153636
-41.6652676176516
-42.66853433666427
-40.843579022733756
-37.08454054620237
-32.0537235527707
-26.062186652671233
-19.67963288566
-14.347463818702872
-10.179642884906889
-6.404372368604569
-3.0726872326095855
0.7448145666715884
4.749901824366148
8.500399489092649
12.4217047923807
15.649770569036928
18.131227963026124
20.610503591544123
22.982093177506215
24.357619260944386
24.95188881875099
25.494665173058358
25.610035191884425
25.476142813111807
25.49296333343246
25.541930569223382
25.513125531999286
25.143035599875066
23.779310558796467
20.506729270807302
15.816659229796384
10.268214286018619
3.214448145554904
-4.366979195839609
-11.114262585680065
-16.00722949702953
-18.343632271066955
-18.639059561339185
-17.611923698522794
-15.532560442324536
-12.54766287632686
-8.752947149177842
-4.117169820953149
0.17421157917467384
2.977929733917663
4.196135761626408
3.9266674390297145
2.554920010809727
-0.024334649893890784
-3.231011815208157
-6.936351359047503
-10.880131932656507
-13.649089385650644
-15.104657907372555
-14.553440098425455
-12.317109353635862
-9.739496654939918
-7.2775300144720445
-5.7740614987604575
-5.677449468632835
-6.064473796284161
-6.645614712821332
-7.531695078416889
-8.65036825861226
-10.357714539833745
-11.548425905085677
-12.067838243988469
-12.556592217643495
-12.268673412178426
-11.592438200273977
-10.196138885161565
-8.239355195794547
-6.139627217854588
-3.170605729310389
0.586320060310907
5.112319584176803
9.925905732931819
13.964067536180574
16.435696143031645
17.655463649964357
17.23412856645525
15.48210863182208
13.124935436454992
9.991075322652035
6.453245935254967
2.5250103823904415
-1.5221125560697057
-5.202242542085221
-8.9573592701933
-13.587290665266995
-18.516529724694774
-22.50726794404673
-25.22823386574054
-25.443998845779785
-23.064135064399565
-19.940650203221285
-16.915142755828967
-14.588596717196838
-13.969532960102198
-15.396156912033762
-17.70256334031492
-20.037216102872556
-21.87504335431179
-21.963091478114904
-19.776829170330124
-15.345371155756201
-9.484315865080312
-3.6511014113302847
1.7217675465725029
6.517265771640573
10.817940473249783
13.941337737288755
14.908696372930573
14.32135030191451
12.288618710397383
9.218765661543786
5.867382874430775
1.3660841906656653
-4.914810396484769
-12.15818029656903
-19.332215054007296
-25.872022514509844
-30.932530258659174
-33.54994131291022
-33.61496328771562
-31.758486403358432
-28.619321955288633
-25.25497564774634
-22.569820284072463
-20.1405046394723
-17.516423890860025
-15.683823104006676
-15.523781021040305
-16.604708733614316
-18.32150636448053
-19.475977506664208
-19.00842514657575
-17.094227394557077
-13.851004804177126
-9.079285217352577
-3.248782878313615
2.4509990901364422
7.316862998196176
11.139864207537853
13.058869732455763
12.556051096241777
10.064712326432263
6.225569655807201
1.6159248660684762
-3.352524643278436
-7.76503529184672
-10.855280973099163
-12.938295526673016
-14.073179338747842
-14.464557264912507
-14.340559180173415
-13.397297690567342
-12.279014376371313
-11.45921075003571
-10.750802459463324
-9.824673914610116
-8.858802081003983
-7.956548657963589
-6.538043822350134
-4.5450847073888845
-2.6025133500449855
-1.185777331018054
0.16261024008452066
2.187409882728684
4.99382628691982
7.6920669809476685
9.90216365466621
11.198027179567829
10.388649237229515
8.322784776413219
5.782700359488096
3.0404438567060117
1.101100692860241
0.061532874606640496
-0.12718743796089582
1.298926039794851
4.077289148255897
6.562491317053062
8.09028196500941
8.376311852075307
7.642731619932163
5.873041982955629
2.6164257537433113
-0.3987944693579669
-2.4479818391024084
-4.353497965912951
-5.275706190559341
-5.216240150846126
-4.133014988921768
-1.4227361378236483
1.5872998568070158
4.1757862416109655
5.802473219563058
6.059884798331603
6.577448558938835
7.252767492307493
7.426948693083895
7.388484028491112
7.200948965308001
8.052878799891484
9.837715872112552
11.91014284269517
14.15863422529002
15.593790328318507
15.851036136936502
14.967629656184704
12.851245126876119
10.494534003367587
8.861476715012635
7.87649636907999
8.065237483465443
9.638230652046932
11.987521262809075
14.688177742139311
17.765378874919623
21.262059055514506
23.751196233279643
24.358962435924802
23.4199458740443
20.88092258304973
16.43986173074663
10.41515556435632
2.873441151271442
-3.916861507605653
-7.259732624751131
-9.693572658018047
-11.75563488735681
-11.182159433199903
