AAD_Filtered_TADAS_FILE
AAD_BASELINE_CORRECTION: BASELINE REMOVED
AAD_FILTER_TYPE: BUTTERWORTH
AAD_FILTER_ORDER: 1
AAD_LOW_CUT_FREQUENCY_HZ: 0.025
AAD_HIGH_CUT_FREQUENCY_HZ: 40.0
EVENT_NAME: 202302061024
EVENT_ID: 13207
EVENT_DATE_YYYYMMDD: 2023/02/06
EVENT_TIME_HHMMSS: 10:24:47.00000
EVENT_LATITUDE_DEGREE: 38.089
EVENT_LONGITUDE_DEGREE: 37.239
EVENT_DEPTH_KM: 7.0
HYPOCENTER_REFERENCE: AFAD
MAGNITUDE_W: 7.6
MAGNITUDE_W_REFERENCE: AFAD
MAGNITUDE_L: 
MAGNITUDE_L_REFERENCE: 
FOCAL_MECHANISM: 
NETWORK: TK
STATION_CODE: 0123
STATION_NAME: 
STATION_LATITUDE_DEGREE: 37.00338
STATION_LONGITUDE_DEGREE: 35.34376
STATION_ELEVATION_M: 23.0
LOCATION: Kahramanmaras_Elbistan_Turkiye
SENSOR_DEPTH_M: 
VS30_M/S: 519
SITE_CLASSIFICATION_EC8: B
MORPHOLOGIC_CLASSIFICATION: 
EPICENTRAL_DISTANCE_KM: 206.13
EARTHQUAKE_BACKAZIMUTH_DEGREE: 
DATE_TIME_FIRST_SAMPLE_YYYYMMDD_HHMMSS: 2023/02/06 10:25:02.5383570
DATE_TIME_FIRST_SAMPLE_PRECISION: millisecond
SAMPLING_INTERVAL_S: 0.01
NDATA: 14346
DURATION_S: 
STREAM: HNZ
UNITS: cm/s^2
INSTRUMENT: sensor = CMG-5T/GURALP | digitizer = 
INSTRUMENT_ANALOG/DIGITAL: 
INSTRUMENTAL_FREQUENCY_HZ: 
INSTRUMENTAL_DAMPING: 
FULL_SCALE_G: 
N_BIT_DIGITAL_CONVERTER: 
PGA_CM/S^2: 18.929
TIME_PGA_S: 
BASELINE_CORRECTION: BASELINE REMOVED
FILTER_TYPE: BUTTERWORTH
FILTER_ORDER: 
LOW_CUT_FREQUENCY_HZ: 
HIGH_CUT_FREQUENCY_HZ: 
LATE/NORMAL_TRIGGERED: 
DATABASE_VERSION: 
HEADER_FORMAT: DYNA 1.2
DATA_TYPE: Acceleration
PROCESSING: Automatic Paolucci et al., 2011
DATA_TIMESTAMP_YYYYMMDD_HHMMSS: 
DATA_LICENSE: U (unknown license)
DATA_CITATION: Turkish Accelerometric Archive v 1.0 - Disaster And Emergency Management Presidency, Earthquake Department
DATA_CREATOR: AFAD
ORIGINAL_DATA_MEDIATOR_CITATION: : AFAD - Disaster And Emergency Management Presidency
ORIGINAL_DATA_MEDIATOR: AFAD PROCESS SERVICE
ORIGINAL_DATA_CREATOR_CITATION: AFAD PROCESS SERVICE
ORIGINAL_DATA_CREATOR: network: TK
USER1: GuestUser
USER2: 
USER3: 
USER4: 
[...]
1.6726146275479332
1.0180263589767988
0.31913083529133573
-0.2998373844948189
-0.6993149593716109
-0.8347329111130253
-0.7689547553197178
-0.6512184402816668
-0.6627341217943301
-0.8531672125961061
-1.1676399930859167
-1.505637483485723
-1.8588608155997368
-2.2539351683991242
-2.691457529072382
-3.10707985010604
-3.4237891002610397
-3.6073882011250467
-3.7001941351308103
-3.7491900470692454
-3.7950129542205384
-3.9036296629225236
-4.152340663136136
-4.533355018640889
-4.918091856321239
-5.207125071343251
-5.3279415660847
-5.331568182858952
-5.342420235734946
-5.369600253889624
-5.304200692650807
-5.162010400682607
-5.04762472422836
-4.920577331652834
-4.780242681935381
-4.753409123892019
-4.887533812782818
-5.064719362695229
-5.187495071940778
-5.261399435330011
-5.30979172996409
-5.414959659717883
-5.614548942842466
-5.846240505006508
-5.973708935911996
-5.908479099754216
-5.669699236905332
-5.393303118175432
-5.191224198420663
-5.133526920278881
-5.300301015657454
-5.619883593691763
-5.951727909634548
-6.2041615085079584
-6.420130304529715
-6.68525728279659
-6.927652758246887
-7.049769706534502
-7.059271730393696
-7.04952893704438
-7.015331783974862
-6.976519171148629
-6.9285638927465945
-6.746385660243015
-6.397150711053539
-5.860069048708921
-5.183558020170005
-4.454564088121467
-3.759055426775911
-3.188359608961876
-2.791531727221951
-2.593644501902507
-2.4743397420829214
-2.328626299762572
-2.190173393623553
-2.1028899977060975
-2.0887232506821283
-2.055745363837877
-1.9127290294566033
-1.5494856912210058
-0.9139885346387675
-0.19476813603117957
0.42298412002907587
0.8498180985897129
1.1101994521800773
1.2787072324560527
1.4238015649633526
1.6207553700745976
1.8560198387333253
2.1141946074101687
2.353109376565325
2.546478073933875
2.6964349038474733
2.8063412715894263
2.823428233463537
2.703326801643274
2.4993284385841967
2.2559552668823524
2.0416287659326815
1.8704666936745173
1.6883759480259566
1.522892259993579
1.437428396499548
1.4326043000228765
1.483543166174017
1.5441275279985665
1.5745686999727595
1.537261673265022
1.4324271702077114
1.2984796096050204
1.1651764071358541
1.0760186091450101
1.0915440589876237
1.2620350837082153
1.5067812825092666
1.7616861164037867
2.0559425721810096
2.3702693551940808
2.636726208523578
2.6969398355327687
2.5472439175993404
2.309924570923286
2.0426837776538354
1.8463081237209775
1.78640447556647
1.913496912377921
2.1413676344536134
2.3599171353367665
2.571106266466906
2.808219453652988
3.0701945248708857
3.302497886298154
3.455958359999888
3.5297074379496367
3.5084516091196662
3.3654464877470867
3.1266456636472366
2.8946581424886695
2.830110173314944
2.8292044338692985
2.6803561431007643
2.2832761646203834
1.7066852455809052
1.0975161714084252
0.5765752342070156
0.18718287326249164
-0.18300655143093986
-0.67235645733941
-1.2244576143460941
-1.7356166730145839
-2.176864400979022
-2.5558597034276493
-2.8879164119505765
-3.2387129901169636
-3.6843535369345384
-4.144889902557852
-4.516167575927645
-4.719134477413441
-4.810797253618074
-4.909137951542476
-5.066827223409875
-5.3184703920594085
-5.722979161429754
-6.3489630346041
-7.106474542100741
-7.81002277114836
-8.329417797225942
-8.6099316200489
-8.732805661329273
-8.849412092745604
-8.994748053961393
-9.17411170414949
-9.340330343965622
-9.424526228131686
-9.48846256455626
-9.557723516017822
-9.616873830389908
-9.631801272665328
-9.58545322203055
-9.434526857456374
-9.215767035074364
-9.101997241668986
-9.197877820401812
-9.385985011302179
-9.47076470903052
-9.431502123264004
-9.23293818805719
-8.835470549322169
-8.344645027803796
-7.917177551350163
-7.616069268458008
-7.442039610628317
-7.407211644844609
-7.479753031600065
-7.59041918356842
-7.687709200528906
-7.82366347953341
-8.017330502778954
-8.166952641298135
-8.17670961280855
-8.00638132393142
-7.756716714787033
-7.599143755152474
-7.614449749176781
-7.743045236700246
-7.797315726242608
-7.712384685101035
-7.552219303415556
-7.364819693233995
-7.159862618934258
-6.9662501201702645
-6.786147893967577
-6.584400557379285
-6.3680795190345725
-6.158717003095879
-5.9812995450055
-5.87613026291068
-5.819164691763072
-5.729133884405788
-5.5547871102914
-5.263993898470398
-4.907151183133447
-4.569781934520047
-4.305590969140084
-4.123047683081094
-3.9561206139979217
-3.722530495333207
-3.357865932769308
-2.8710633517432225
-2.390339128384751
-1.9334818576534825
-1.4935603576220573
-1.083228885670422
-0.7524444149893813
-0.5122912593070286
-0.30697017986135755
-0.14715863393185818
0.009840149259476894
0.2287032964274564
0.5345460688178464
0.9090824925310907
1.2446609530162702
1.4819849567196692
1.6770205668435227
1.830121466174499
1.8555464489599758
1.8539058047778498
1.9623099749946953
2.127180058021894
2.3582559862139005
2.72498789932881
3.19583879535475
3.6439938776561047
3.9957349986248247
4.203118312414145
4.28049146055491
4.253200266563892
4.154449463424238
4.090101004915226
4.185762069602888
4.485037169569251
4.859582647290481
5.227295854365707
5.56865560483041
5.872177580630365
6.137759022979888
6.271195977154695
6.204402656321846
5.9975722642910085
5.811050231982357
5.688961560153772
5.635739030781126
5.64751849853696
5.70318798714916
5.89590190844029
6.190511022720607
6.439360403581553
6.5928964991448
6.655070241888763
6.670900383655264
6.69602436023332
6.7069522823413905
6.678261363905132
6.601499907931414
6.489283270158428
6.353135910171445
6.179774615736614
5.955531019110171
5.624741077200133
5.143816504197486
4.566647895728451
4.033034926046326
3.701011540808074
3.555607913450049
3.49275644374141
3.527059153832597
3.609358002968034
3.662228187725112
3.6493450457042877
3.582099640266791
3.4982603249969597
3.4305384146704765
3.411726476249339
3.359882442151502
3.223374466341562
3.0301065871874204
2.8154887818379075
2.627438406219695
2.522359694105699
2.546414521577855
2.7132222064803475
2.9904239684430576
3.310967446373684
3.5520059428145623
3.7532762149187566
4.106040314894137
4.618363497853552
5.239678044205031
5.93342823475334
6.593765094600184
7.090004572252285
7.352903621493611
7.498577863636761
7.625340019525909
7.749354688807806
7.86216597383218
7.913086496951693
7.922730041731741
7.966129445744585
8.129799207228357
8.390932494004968
8.610327863709966
8.752463359395763
8.828829581177997
8.8489397943953
8.87927129986353
8.94631935627764
9.113012721663203
9.380653689905511
9.722522881358369
10.073127382379099
10.358134539901561
10.596921567810133
10.787465440380387
10.99364555004221
11.268841180874249
11.578986699793495
11.844322479237842
11.987040232719696
11.984743907356597
11.808386914027166
11.470499549182026
11.042548368792945
10.55138111688835
10.061191744526257
9.615582697784935
9.20795988342632
8.861854546279169
8.544644316261936
8.235208615161715
7.924964859424754
7.572675707677866
7.185898795295818
6.773419784410546
6.4172158465359495
6.220725211404719
6.217591899171899
6.311344394830996
6.3505375294564885
6.242685614216025
5.970019607224722
5.60011742622058
5.247482823299893
4.979319563886335
4.757631374867432
4.5039060881480735
4.2511493525384285
4.081022142946857
4.000301224285488
3.982164873699621
4.010183510850505
4.116731822822329
4.271889370379337
4.45866472407549
4.6675250387273115
4.953455533626648
5.351532046692144
5.78646431112388
6.1420231828642
6.328865192203496
6.363869802314019
6.272835100382248
6.140424450130192
6.02502574609296
5.949990180732471
5.869807857242049
5.693502316552416
5.428717657561693
5.181323197441201
5.092165723842575
5.16742434973128
5.317182233128886
5.483473771927199
5.596081972234629
5.643307241448343
5.720292573661683
5.8618300682473174
6.03269985370103
6.129613547724854
6.0986195793153675
5.976626346989757
5.802991477985324
5.600290148548708
5.387274138352816
5.20630974761049
5.069074122511888
4.974351923841264
4.958614136038233
5.039803015873845
5.17695465886362
5.301730465794947
5.367595536926722
5.374224403840005
5.3197514429485855
5.172936998094674
4.918517935785922
4.6007054799440485
4.316607506846042
4.12124319760774
4.046022986717738
4.0652769942236455
4.138750721795277
4.2387698226362005
4.299475327998753
4.281097259436266
4.222146216169975
4.18300303065992
4.19951150280696
4.278407104087879
4.474751283266217
4.82493284836138
5.261339809617366
5.70522417954222
6.114092989973336
6.413360642950838
6.482925678758037
6.332047972754724
5.978016561544185
5.50348937992381
5.082917888019113
4.798537860737273
4.645849111414578
4.582188154409412
4.56799170566056
4.601787127738783
4.648497974204644
4.704696373006096
4.738081010175737
4.7422101448960285
4.745522730594583
4.751172128246625
4.808222450900763
4.975330031212411
5.264390710853956
5.608019262642922
5.925255124355791
6.100248346352643
6.128066302152488
6.047519200196434
5.871219331202776
5.688532806050698
5.625107433137429
5.749236172943501
5.993169678716735
6.316516079568103
6.687508709443686
6.9532820818377346
7.051147716296314
7.020863805226386
6.9009087828853435
6.710533965796864
6.5050255760544795
6.359820196734021
6.254751162295337
6.132416001394373
5.9829569395825635
5.793112780224812
5.4915431411257885
5.068463360662677
4.58946066063392
4.139067436504713
3.6896709541335975
3.2097056128929538
2.77634358573967
2.4566417107589427
2.271244556141726
2.1895485546636735
2.1759585911336368
2.178196806347326
2.1576617183418696
2.077091822837587
1.845305738628295
1.4677694526614848
1.0759683467578691
0.7562931666148527
0.5252055868630425
0.38039827672566057
0.28157709584166024
0.18397567689616692
0.0478608105780076
-0.09102754060720261
-0.1495136406167871
-0.12810112616211963
-0.06774338171190111
0.0016218344946356208
0.04452587446102537
0.03732358287036843
-0.03776216604241393
-0.16501554111367722
-0.2999436651747222
-0.40072726846634266
-0.3900254468279543
-0.2656896511917409
-0.07468489329482803
0.12153622481766857
0.22342890317521297
0.225617994304956
0.23265888066573664
0.31153532510221615
0.5216354117879888
0.8790171338109506
1.3392123751190559
1.868368705517204
2.4113913561721136
2.8476275500902113
3.130585765293589
3.34314710484714
3.5560157713695926
3.808520390334141
4.075741164532849
4.2800699051836295
4.363639893929005
4.318764302975756
4.281885116069365
4.374946454570011
4.573510414120618
4.807713493181856
4.987526081890144
5.069097993779946
5.036595646426649
4.919334923790591
4.765344786156181
4.653561465988937
4.633506169685996
4.698358029817669
4.862482762392215
5.076354743524395
5.271902342406544
5.419358570560617
5.552797026525647
5.7328618058685885
5.9696220270937665
6.220664523249467
6.406179094118589
6.439021272452705
6.3250204826344305
6.1515626051914065
5.980279088276409
5.873928461243603
5.822399317576131
5.742389483691525
5.554715727942352
5.262741776913975
4.939323073120937
4.647380536458226
4.415890185795326
4.251930875976427
4.145469438715142
4.045250176281786
3.9126557442395895
3.7251742544542994
3.5156188332059544
3.295345267783779
3.0684963579906457
2.850837470750214
2.6485663722069743
2.4362951757117988
2.098106602769515
1.6761148266286265
1.2769888220987526
0.8686281901605641
0.44083709857754644
-0.024317778016557465
-0.5219719593042684
-0.9917851633288365
-1.4189040492378657
-1.8404201059912904
-2.2994979103799564
-2.7516581873687533
-3.2260505305851557
-3.7579883768736377
-4.269535776279618
-4.727261604949122
-5.1649448515803575
-5.65883509174188
-6.241930064622115
-6.897238534355432
-7.5931738333660945
-8.24484113471472
-8.76304610235794
-9.12035167147625
-9.34701833198761
-9.530758086317274
-9.760262647240681
-9.98525339118036
-10.149752014579326
-10.22132220685442
-10.179036010449458
-10.026566453149208
-9.78185217743217
-9.524787108201009
-9.318045196486054
-9.210469347865033
-9.170471500533063
-9.181137706046053
-9.200760984333145
-9.254632093932369
-9.436701222122595
-9.710469952774789
-9.985940885251626
-10.187745238933964
-10.315778931037443
-10.410083794106642
-10.454719359790696
-10.488313465195267
-10.562671785324207
-10.635186389619118
-10.690370311419235
-10.72407428702578
-10.76234771108061
-10.854428335868432
-11.046331990328033
-11.303080918885467
-11.536862187171096
-11.736405282663702
-11.991011271019525
-12.343933772934877
-12.785490963616322
-13.308573166884095
-13.928908568442239
-14.596765443249973
-15.209675981096206
-15.734219811818061
-16.18494759249854
-16.50178995229446
-16.62030009622803
-16.593025651440282
-16.471769675567096
-16.343337959478536
-16.27315125529965
-16.295365493166756
-16.383463851298593
-16.553187847690815
-16.773658028398074
-17.004235042415495
-17.25422035183466
-17.503877664630682
-17.747560129521265
-17.982604386704775
-18.215210380468516
-18.352952027698354
-18.38080193154809
-18.395700137102263
-18.42390617766502
-18.429352223064036
-18.349841218341556
-18.170633973213288
-17.937346083755905
-17.72125542736669
-17.580177855717846
-17.521211147690103
-17.51521684069391
-17.483987146115034
-17.402203473666
-17.29082388541607
-17.19065718375059
-17.143419676400278
-17.125357984645387
-17.153067613674217
-17.29014716954544
-17.472144720955992
-17.613495396547084
-17.65742962598759
-17.57899684336132
-17.457772721487206
-17.28331336944397
-17.085185108090965
-16.93093071191629
-16.86982803390777
-16.896142803941537
-16.93006017289585
-16.92431861110207
-16.87915865732765
-16.80010207886321
-16.71072177772499
-16.68809138509819
-16.72664009903488
-16.791896842200295
-16.906153921952928
-17.09777279505253
-17.271795061595288
-17.353009136930364
-17.391465378846288
-17.42430759403894
-17.485504140971535
-17.562298859134287
-17.654143650360428
-17.78444590369274
-17.925526699705433
-18.055724647423077
-18.140235216259978
-18.20941332329163
-18.251236338333825
-18.2045615851007
-18.100451495558744
-17.955096307972795
-17.815135415960633
-17.757698951217552
-17.7964524696739
-17.877407903116314
-17.889658229915078
-17.79759121487752
-17.667098221470646
-17.516159509602907
-17.390695494172384
-17.271153176446187
-17.10351959665489
-16.840815377813275
-16.481579350138023
-16.15442894643094
-15.890881860546576
-15.690927180614274
-15.540665646478477
-15.425330110364975
-15.31615386161325
-15.1879379285791
-15.030617561663057
-14.846003178386477
-14.66557202583469
-14.504915978895488
-14.374157041181022
-14.263733864837922
-14.119342506008408
-13.920178057911032
-13.703493854398673
-13.471379533831174
-13.213157394525991
-12.910671500114058
-12.541167115641105
-12.067875253312176
-11.490195685676623
-10.911713362748849
-10.402813831831804
-9.949497556350508
-9.565266683399509
-9.24815755089037
-8.9994931461655
-8.828572802010594
-8.71117921029382
-8.610760071863682
-8.461650035288027
-8.220866639330168
-7.93292706524494
-7.6491412992126895
-7.400110118668562
-7.230030162014987
-7.145677028968642
-7.130855390528147
-7.164680754461793
-7.200711844427951
-7.140465604812055
-6.958244097753178
-6.740517502837028
-6.5893808267012295
-6.5852278235488
-6.745220136212809
-6.9436963755966845
-7.068564323033605
-7.105094777926874
-7.022863719816013
-6.858375038994524
-6.657685965466086
-6.449339088894183
-6.2709575475682575
-6.159077247692642
-6.1055770498577555
-6.088389262651973
-6.095727078548166
-6.107707031882524
-6.104991252342897
-6.07645654535085
-6.000554614319906
-5.851436656634411
-5.6489366396864344
-5.4480041033159585
-5.274740839001577
-5.120150626646433
-4.994073408268241
-4.9107408656243665
-4.818415861313752
-4.656805240429801
-4.417643789550693
-4.139099896543592
-3.894274360284959
-3.7315720641626298
-3.6409014978514502
-3.5965794215181535
-3.5905640510408796
-3.6273368643260033
-3.710791452634676
-3.793473180249686
-3.8461895286360326
-3.8522478640237634
-3.831347401853039
-3.769190438172837
-3.647809793210583
-3.504955680005065
-3.3405442543084405
-3.182900756488603
-3.049213845766129
-2.9268253336346866
-2.8233516669420897
-2.690235667090706
-2.504464585792682
-2.28124366342067
-2.0549148326381506
-1.8570042679371337
-1.70784732913877
-1.5733408759995555
-1.4121575699528743
-1.261544843094812
-1.1966407329918378
-1.2137777765380764
-1.2907396361496393
-1.402245142358546
-1.4845784725682942
-1.5443927465092677
-1.5245484859788805
-1.4501903003042484
-1.3499211834393117
-1.212394638003641
-1.1057233665939534
-1.0309072686833385
-0.9668530468346991
-0.8781738515011527
-0.744557699540908
-0.6456928738200367
-0.5863358048412796
-0.579658286686546
-0.6350041053093645
-0.7317903413578994
-0.8755601306636535
-1.0942682481922545
-1.4126110029885983
-1.8025924959734931
-2.2020301322256417
-2.5163262417536822
-2.7100591876318996
-2.7520615047695647
-2.672780189386635
-2.4893532710854402
-2.2574959867249196
-1.9878384797201274
-1.6897833191638614
-1.3530671117516968
-0.9523563914430817
-0.5699374647904273
-0.19118742618049633
0.16271205657563217
0.5332359480218543
0.8953922103839375
1.228129382381206
1.5364321132619858
1.772940707903966
1.9761470370453156
2.150202575675767
2.342530153818286
2.5581671913522173
2.8244177959845485
3.161058279506488
3.5079164266595764
3.86733552844976
4.1719802867971865
4.434988827767752
4.632645416856804
4.752554250071561
4.853805994492715
4.92111314445267
4.997560019244545
5.060250295821692
5.140404796682096
5.214866486155103
5.284565855983468
5.363519184292952
5.40428071943432
5.498631708780307
5.657682225126125
5.880695459024099
6.134596572842391
6.3784615216595055
6.59837858918299
6.76987154107752
6.912980782177414
6.979939797176699
7.0473407885686665
7.11146162869336
7.155141062354317
7.2267265960222415
7.351513257515642
7.5811802018653465
7.854209105323005
8.154005400141164
8.439238307001391
8.70031463597775
8.921901433851371
9.13047031073822
9.415865506813244
9.766960461874168
10.18008958539017
10.574205581165998
10.914560658182593
11.183723908707337
11.368287336199256
11.559000482805024
11.746374854277118
11.993396185555637
12.259689885399103
12.444610516187765
12.56044287898232
12.621131542569954
12.733124646578087
12.895011100529887
13.10714962625449
13.339318378849747
13.532035747696918
13.72095310793337
13.907253427139686
14.12774171829086
14.391852516054255
14.69371840265334
15.033338051101692
15.371292841386396
15.64945186768896
15.871458579647156
16.058998941453066
16.242388031832718
16.442173070516894
