AAD_Filtered_TADAS_FILE
AAD_BASELINE_CORRECTION: BASELINE REMOVED
AAD_FILTER_TYPE: BUTTERWORTH
AAD_FILTER_ORDER: 1
AAD_LOW_CUT_FREQUENCY_HZ: 0.025
AAD_HIGH_CUT_FREQUENCY_HZ: 40.0
EVENT_NAME: 202302061024
EVENT_ID: 13207
EVENT_DATE_YYYYMMDD: 2023/02/06
EVENT_TIME_HHMMSS: 10:24:47.00000
EVENT_LATITUDE_DEGREE: 38.089
EVENT_LONGITUDE_DEGREE: 37.239
EVENT_DEPTH_KM: 7.0
HYPOCENTER_REFERENCE: AFAD
MAGNITUDE_W: 7.6
MAGNITUDE_W_REFERENCE: AFAD
MAGNITUDE_L: 
MAGNITUDE_L_REFERENCE: 
FOCAL_MECHANISM: 
NETWORK: TK
STATION_CODE: 2715
STATION_NAME: 
STATION_LATITUDE_DEGREE: 36.855364
STATION_LONGITUDE_DEGREE: 36.685618
STATION_ELEVATION_M: 431.0
LOCATION: Kahramanmaras_Elbistan_Turkiye
SENSOR_DEPTH_M: 
VS30_M/S: None
SITE_CLASSIFICATION_EC8: unknown
MORPHOLOGIC_CLASSIFICATION: 
EPICENTRAL_DISTANCE_KM: 145.61
EARTHQUAKE_BACKAZIMUTH_DEGREE: 
DATE_TIME_FIRST_SAMPLE_YYYYMMDD_HHMMSS: 2023/02/06 10:24:52.1194290
DATE_TIME_FIRST_SAMPLE_PRECISION: millisecond
SAMPLING_INTERVAL_S: 0.01
NDATA: 6688
DURATION_S: 
STREAM: HNN
UNITS: cm/s^2
INSTRUMENT: sensor = ACEBOX/SARA | digitizer = 
INSTRUMENT_ANALOG/DIGITAL: 
INSTRUMENTAL_FREQUENCY_HZ: 
INSTRUMENTAL_DAMPING: 
FULL_SCALE_G: 
N_BIT_DIGITAL_CONVERTER: 
PGA_CM/S^2: 11.902
TIME_PGA_S: 
BASELINE_CORRECTION: BASELINE REMOVED
FILTER_TYPE: BUTTERWORTH
FILTER_ORDER: 
LOW_CUT_FREQUENCY_HZ: 
HIGH_CUT_FREQUENCY_HZ: 
LATE/NORMAL_TRIGGERED: 
DATABASE_VERSION: 
HEADER_FORMAT: DYNA 1.2
DATA_TYPE: Acceleration
PROCESSING: Automatic Paolucci et al., 2011
DATA_TIMESTAMP_YYYYMMDD_HHMMSS: 
DATA_LICENSE: U (unknown license)
DATA_CITATION: Turkish Accelerometric Archive v 1.0 - Disaster And Emergency Management Presidency, Earthquake Department
DATA_CREATOR: AFAD
ORIGINAL_DATA_MEDIATOR_CITATION: : AFAD - Disaster And Emergency Management Presidency
ORIGINAL_DATA_MEDIATOR: AFAD PROCESS SERVICE
ORIGINAL_DATA_CREATOR_CITATION: AFAD PROCESS SERVICE
ORIGINAL_DATA_CREATOR: network: TK
USER1: GuestUser
USER2: 
USER3: 
USER4: 
-1.4448731360814686
-2.191873457185518
-1.8039705043736933
-1.997654539543379
-1.896707566485866
-1.9382479094298637
-1.919750713650278
-1.9186018687724586
-1.9181569422849807
-1.9198238968018235
-1.9018964744060651
-1.9257187010624737
-1.892807233200339
-1.9119267326326597
-1.9124769976249179
-1.8790881818831502
-1.937103215077239
-1.8693193057095168
-1.9145174144264916
-1.91714180279352
-1.8474179515669458
-1.9745967630663739
-1.8278180673692483
-1.9351536429071163
-1.9378729454259127
-1.7821718315468795
-2.1244599634927703
-1.6989959840304956
-2.2544952914060703
-2.7732591011252112
-0.4621942367881729
-0.27090619594365967
-1.0833219823757898
1.3088794227858531
2.534297232835325
2.0576667364623726
2.4628857163529103
3.6767423222192153
5.255772240941185
5.614437444271397
4.599791382442207
2.7257976232540204
1.0797007877123719
1.6705387255245783
3.6667304461822257
5.329890866230618
5.787202761688763
4.662728941329246
2.764375862069983
1.4155492918633674
1.5168911277334232
2.155510202657153
1.753696503358905
0.02448195788000672
-2.3702392887151014
-3.749501597584719
-3.050490276354149
-2.0768387180394225
-2.7372221607093183
-3.44521674222717
-2.031273882984988
0.44213194881914486
1.7716756744352693
1.2675285446921873
-0.6867679149149606
-3.3968601795898454
-5.3816514621991205
-5.198606003178421
-3.5580527675691114
-1.9508527161639049
-0.8969238653849358
-0.9443933901426824
-2.3568170915507185
-4.462780315465971
-5.9299664286514
-5.3713528941731905
-3.060637101801556
-0.5678750720023283
1.5927426176402684
3.824036005397077
5.516275663345297
5.1676196866694015
2.540947088028655
-0.8707245153722267
-3.210108514707615
-3.2839351835108217
-1.1704212119225903
1.9937368760781389
4.366398453247763
4.165747344881766
1.3877095951066998
-2.5542342492494154
-6.147650161439139
-7.679718617691002
-6.289526596255117
-3.214303804202223
-0.7468630226916574
-0.26039923621251676
-1.1811584991522912
-2.554165983707766
-4.380624840952139
-5.768479256331117
-5.263467412934787
-3.3868954636658004
-1.2770977245969957
0.6031116974678046
1.3028269227688094
0.2448739591374216
-1.7602521546198622
-2.7560880590802657
-0.8877411466379267
2.812189421598445
6.120181833148441
9.179665626928161
11.404771241483292
10.325724982632831
6.228842891109592
1.9580366079382594
-0.6399608933743854
-1.1408599274046536
0.3680970580119213
3.391477337868899
6.636903818315631
8.93024938456478
9.828651553703104
8.768836025334563
5.915450252140774
2.5902602696262464
0.05567385850984856
-0.6528220184960194
0.5426080005142249
2.3542775700622594
3.151705948117207
1.4616167074491055
-2.21728602223255
-4.703794759408726
-4.393483203990101
-3.149506982444146
-2.2808251374090953
-1.2878934008031182
-0.5712335549198714
-1.2568650566222288
-3.2430362701218316
-5.185275570652732
-5.66782642030125
-4.353922091380118
-1.9295999465289573
0.6624721898968445
2.1598623882823618
1.1269811876729219
-2.475340246511406
-6.389435711201282
-8.374716156643482
-8.310245678914004
-6.7905381810716365
-3.981382327735845
-0.716936440990466
0.9865277409618426
0.1299044679449831
-1.7888229391742827
-3.462318568002346
-4.678847903034483
-4.721871073216147
-3.6739331110739295
-2.5930426517554603
-1.8351394046010012
-1.3210827562931187
-0.9824404132126997
-0.9348927176100638
-1.0272218675644673
-0.5826465305754949
-0.05629527788197848
-0.7428325901090713
-2.4613642667056372
-3.907599099907869
-4.340691884324333
-3.498244188913343
-1.4144374621491465
1.2527617487881775
3.8714301544231287
5.592807484122072
5.639149472757243
5.175455869183312
5.2459214849873765
5.166611325142015
5.4197099952921945
6.567237798947063
7.066742253095102
6.115629840995713
4.94090904280734
4.427946828262911
3.9378309524296036
3.053352524156452
2.4969002047494273
2.795291369052706
4.098295992219929
5.627629468522628
5.45783001453843
3.195007679832837
0.333166028048663
-1.7610622254412769
-1.9989775722927199
-0.07752730628530563
2.1924033790394764
2.2209008974589866
0.007925034732844963
-1.7829527423836686
-1.748677006599445
-1.1958982392068618
-1.318464878586131
-1.4143735094474479
-0.2761407440682873
1.697046235580657
2.699745956001403
2.176729881456422
1.1726075354365142
0.4194051716076145
0.5656605993012
2.13118739702205
4.378139716845016
5.905026046621871
6.046885590028982
5.85883006125712
6.556545306833838
7.586016645964579
8.364100954705139
8.970861482093108
9.06778849750725
8.763339248098799
8.594421599640173
8.436513784096348
7.835338458352872
6.6133107395427295
4.999760451032046
3.593018030140904
2.7342749999713085
1.912785108926638
0.7575804157824546
-0.38847616689305914
-1.5225372440371523
-2.535863309184488
-2.673728891680659
-1.6104589302943326
0.15024818292632322
1.1576236204716681
0.39428822190535096
-0.8837057764663411
-1.2624552969187515
-0.7568479916280924
0.40810617101970825
1.4481993256945689
1.734429459846062
2.1409456005700918
2.7337993625931833
2.483134477438785
2.0504569547463336
2.525906067187963
3.1843672042006097
2.7647179242988087
1.1968168890041277
-0.11620429257332851
-0.2904471243991828
-0.3478796892663408
-0.876170619067316
-1.114912101437829
-0.6406479520619187
0.14142688580891277
0.12233435094821166
-1.1402393007268705
-2.4978899709429303
-3.435410029868228
-4.227435542231256
-3.8402224823101023
-1.522168176826707
1.3386408102361274
3.3232544476153203
4.619951793661439
5.343762341349028
4.19184001155348
0.7658711553644366
-2.3756838201862105
-2.8045026029733138
-1.1679721172769455
0.9111973065195267
2.6788689802660204
3.84229530507641
4.756518392476731
5.5997360268429865
5.670634157543733
4.980109787670545
4.258025182320576
3.6766140674993633
3.430461775261069
3.9012459756487003
4.782247643642164
5.243756224989872
5.041412055052284
5.187721668198719
6.837134571749796
9.560010667239784
11.514160700780995
11.154043962430702
8.668888315099672
6.056141763321222
5.1777668218944495
5.853936794151415
6.93552568715694
7.590593909964499
6.814117274933082
4.293164669479321
1.344133107854065
-0.20998352894553196
0.14577988184165885
0.847112319914453
0.9975478281334234
1.7852309335621097
3.2182960386504695
3.950143203195915
3.3957763082102135
1.6628128875387678
0.061590870945954085
0.1331178753475014
1.5345141740019048
3.205218665569606
5.079942266632611
7.0480349980099035
7.559386643224702
5.7039990852309765
3.4564204483102294
2.821910526824325
3.1643302844564403
3.3450729377964357
3.746388933970662
4.759542208711206
5.18546465703376
4.096346065960542
2.8152977570315323
3.058706133737538
4.30615372790884
4.696179224735236
3.9782852142742806
3.3044081705839963
2.6644111471112564
1.4572682816662177
0.3468909615616596
0.12703872445219655
0.2900170640980727
0.29566324786913223
0.5620594826658741
1.1909321780585016
1.7567185083665158
2.3377263846312255
3.073618422804709
3.460956087395999
2.9041265194511516
1.9653712038666002
2.006569279225173
3.0108814488136812
3.804305564709725
3.9925967311632493
3.9310968519713207
3.767697003882218
3.2193431629557514
2.4758582775333324
2.3237844872571394
2.706668271575338
2.9234644731988966
2.6822967703568836
2.1027027711832416
1.6983480749459292
1.7413982722878185
2.097677962953628
2.9473617305737894
3.978634094544324
4.34569711435151
4.348689320766716
4.680539721887904
4.703995495232256
3.641868757326292
2.064780461642192
0.9229516314800855
0.43610140467976405
0.39095406887983897
0.6665521391967785
1.3363447897753318
2.0772472307365963
2.186651108168169
1.9216044403492887
2.066452605491599
2.5684051704946076
3.083664219027323
3.2876196792428263
3.2344590656157615
3.9080499884127744
5.560215575236388
7.190485199428178
8.23462159704129
8.598454574170134
7.920072210766999
6.068919967229673
4.157253690080636
3.5221905261350694
3.5087708941267777
3.26531127102274
3.6211899107101315
4.509082384134256
4.624027738634374
3.6053227691847596
1.9801381846947128
0.41011064903880357
-0.7446145004066637
-1.2812667722653235
-0.9235195931443658
0.08123520185577444
1.1855703167974057
2.2572806288550993
3.2116638999869753
3.507662328746094
3.143886886201743
2.993050680816119
3.056115716707709
2.953294525384244
3.223049013972189
3.9699885481376294
4.674406924295545
4.903600540475762
4.2819869442784855
3.1873894328170342
2.443839599130126
2.1790087173886574
2.109226447056413
2.4463569115053083
3.325051354378608
4.039295619164119
4.503593261044811
5.350832790707332
6.047350370779505
5.708768010767583
4.45997876427791
2.8229799203302077
1.3188578607349895
0.39227400555026787
0.1218692586165475
0.25642205334833557
0.6820160066069595
1.5444166296835689
2.6697081821808055
3.352858710021768
3.1113999255345077
2.27893283202757
1.304067128224455
0.5280749145780195
0.44246409470114517
0.5418863431295045
0.15972112606864614
-0.012607599426082722
-0.11453881198908156
-1.2409757401976391
-3.092272458308844
-4.758019628785944
-5.480085434794473
-4.9768350126251955
-4.3660607292638804
-4.542896578226317
-5.009708142880587
-5.0583172876900075
-4.500178961237083
-3.668565040337167
-2.6002616015281865
-1.0621576350817417
0.1508601202547929
0.33369454966728185
0.283104131380873
0.4462127399783415
0.11670870279073714
-0.6876950272501337
-1.0007460657689455
-0.2911195520951978
0.6989535104855756
0.606078612420411
-0.3956488166542915
-1.1461952597640788
-1.5597895206614643
-1.5965555377129332
-1.3617809049571692
-1.7065156809190143
-2.102780363248206
-1.627204308219947
-1.0790727977833425
-0.9477524136126889
-0.7693097176170064
-0.9379663864277514
-1.6883514321821806
-1.8598559256737033
-1.095852224775515
-0.5295381147531415
-0.7394151095515713
-1.8315230497102737
-3.534879271744206
-4.445106336587983
-3.816706693920182
-2.387777250677892
-1.034452620420895
-0.4870576994980821
-0.9625146209344402
-1.7493917729929653
-2.125272092711468
-2.2029794801383495
-2.3282673254416286
-2.074606333270932
-1.0854417301568189
0.05409180880302078
0.8949060954945159
1.2028258993210363
0.5333648956405681
-0.6749180169819508
-1.2846718016439782
-0.99908379794252
-0.7171596512962563
-1.5423744609529542
-3.1267941049233343
-3.9247732142459535
-3.3109567156552964
-1.6941747339861961
0.02981984689295057
0.3909523036814031
-0.8935221205351106
-2.2006081871743564
-2.42444258372623
-2.1708762621098474
-2.233693112332085
-2.209886359349573
-1.6510677389610937
-1.6691379500037735
-2.9255372063353136
-4.019360711419006
-4.27468179605247
-4.579838122936919
-4.916945005225657
-4.398833356820039
-2.823386639433566
-1.2603299252096183
-1.3403375412078513
-3.1243302445395726
-4.986296405010186
-5.608748202501146
-4.712875525788263
-2.885809271049144
-1.1431924993637597
-0.5210580320451903
-1.4523856378836142
-3.077051038727986
-4.387600857996066
-4.732518524660765
-3.4617556809876646
-1.519695696495857
-0.6230057160980438
-0.8042255104407057
-1.5100993659969761
-2.633479584052111
-4.053988922794257
-5.40608714572317
-5.693604982618231
-4.438292885055264
-2.4060006541938637
-0.33895589958614786
0.8029787201951161
-0.34609610983184413
-3.6684340980092593
-7.140173325990554
-8.66108700920512
-7.689924210573613
-5.261715869329897
-2.621430475487057
-0.6659073543429908
-0.214016030501294
-1.1668926950162897
-2.592764714667562
-4.227225409665156
-5.792119216330823
-6.129395700123122
-4.8618557737849715
-3.0366953590379357
-1.8464800646514483
-1.7887538940036103
-2.599348904258635
-3.6797687043056677
-4.437012415751051
-4.5359184555694645
-4.167533654629367
-3.570692830742347
-2.729230245734534
-1.8505129755289909
-1.5359694582862762
-2.374426019094662
-3.953495667708338
-4.853993129361148
-4.662861301504456
-4.273789885299991
-3.9942358951070607
-3.6552430237032847
-3.26827698675282
-2.3546613606603986
-0.9328178042990596
-0.3281102862254955
-0.989163434100535
-1.7442060067326446
-1.9685904380843562
-2.024435100451687
-1.8960468019638532
-1.2839436776079982
-0.5307877071019409
-0.2786101619561089
-0.4637166238597954
-0.5813699287344704
-0.6060778453375044
-0.7949110165940104
-1.2855016801588854
-2.010316791738441
-2.3076372088047963
-1.5576023911010457
-0.24174208706327122
0.9365010255493342
2.0754215123306508
3.129182652132429
3.4808082804291605
3.0923187098601077
2.4660310300296047
1.6653672573127103
0.5532097837678773
-0.43705532878772296
-0.4124853357493158
0.5643784635487282
1.1766821702549881
0.9712817610238323
0.7743126284004961
0.9703009659939575
1.1209988713586698
0.7663918627755383
0.3608104505014013
0.779724922134188
1.6376926791719544
2.0379289154279183
2.1434213817779626
2.2086262074176877
1.8483621815417657
1.148594538446594
0.8366898801892352
0.8239908043540929
0.042483337747930054
-1.428262882991409
-2.0029335346059427
-1.16425022517769
-0.10513838288292285
0.3022172165165011
0.46427915974287476
0.872905750086056
1.0818172237798287
0.9666254289804734
1.2766351125250617
2.0581340373699195
2.754782705483899
3.1954340775006402
3.3615684480333003
3.026070242874668
1.8146785753616057
0.09137879790144328
-1.1670076199784651
-1.6347970444487625
-1.3292374084114562
-0.31798537590816267
0.8531006516774295
1.6391070250385231
1.839099894775581
1.282432439107946
-0.009685453124806398
-1.0042697160648548
-0.5695083588659936
0.6653853621685052
1.7043629696718252
2.6616932783243534
3.3175751131307747
2.9149387051468927
1.4598533716208089
-0.24413535965194108
-1.4690490086584382
-1.6826307022227884
-0.3954303666543808
1.680534025706162
3.0374487354976685
3.556952706130954
3.6837156653812024
3.0243049348502042
1.5392409137028333
0.19206748374585988
0.053473790356056636
0.9709497637735416
1.6190103370677211
1.3890826317949745
0.6967737323035057
-0.1098616825050434
-0.7970172691337867
-1.1377083918135535
-0.963917599631991
-0.3780013961537654
0.18422468833090505
0.7749766871229402
1.4752039506217738
1.3878506824303274
0.19734043779332605
-1.0472686658999306
-1.846827023559795
-2.5488072188080495
-3.1215190658168295
-3.295526705443372
-3.11938518690659
-2.934622599130352
-2.922034659343241
-2.6923045611556597
-1.7835148834245946
-0.41189701757046077
0.49450139649596864
0.34289303583342956
-0.02949045397476635
0.3150899298890967
0.8652594164202624
1.022131143827204
0.9880303852669886
0.9601326960766055
1.136000870533466
1.5959663852948744
1.920772107769779
1.646954743418297
0.5693454152413242
-1.0441065208124072
-2.286188139914346
-2.4249164945402852
-1.7949405712582132
-1.4044796730261484
-1.5718976386472903
-1.8054396719744408
-2.1984299397646963
-2.909708816387568
-3.171759881926253
-2.8813081611359848
-2.4949562777543934
-1.5604762735637585
-0.18305451434938047
0.6119235131598721
0.5919955174767759
0.34903397840891826
0.6198454573570802
1.2882763124226775
1.3427378963576508
0.6713241801382746
-0.22770551227479816
-1.2975314277668544
-1.915927374700312
-1.2675420159597541
0.24867843655015745
1.7135820247015898
2.7713550035036594
3.412219928387905
3.484482254965192
2.7493859200650386
1.5566897884413253
1.0236382135902378
1.512848568578057
2.0210133734848297
2.12085107659788
2.221070521234372
2.0408210392262336
1.362787509378456
0.8135908545987013
0.9619915489759218
2.0554852792255147
3.6019924326875574
4.275029911716078
3.668646232931571
2.6081147595489638
1.4997757244473227
0.4266641562010562
-0.09151620146316712
0.0637119493367517
0.45153620015461926
1.0952453411736152
2.0881969155452134
2.702450979366908
2.3210226427919842
1.7239974992724585
2.1356273287244143
3.1228078583785193
3.275517061877693
2.548146358778308
1.7851016449180237
1.2349284289127571
0.5878583610756453
-0.34910246140086504
-0.8503896627800612
-0.14717012469962892
1.3214005191664386
2.691779274978849
3.1190140103840602
2.289086552531795
1.0887435314580916
0.17378423554985267
-0.43498136435229734
-0.3836502243565045
0.4532593232986378
1.59689492570522
2.4486964631109918
2.8984520160285068
3.3690787189226192
3.6225330546394527
3.03655741236997
2.06237032706907
1.5776474629947974
1.7060832725276018
1.921472269087975
1.7528423209134332
1.3057055218870772
0.9076192243437268
0.6678745194251396
0.2746396218682318
-0.7881965614802618
-2.042677364332255
-2.3490323640399344
-1.7500346184029363
-0.9974141944944189
-0.1934985099997873
0.692465581101065
1.3683107840417539
1.581750129441525
1.3196886944642703
0.9771684243019694
0.9103879137175768
0.9587138413217712
1.0589575074617263
1.277871215864
1.470482268736653
1.7895789825461978
2.184144047670886
1.9696219231985561
1.2783191036545125
1.1896264015235796
2.0097181844074687
3.011318332711953
3.423766624915936
2.8166568708863196
1.2804354702539231
-0.3499606077195053
-1.0847868683792419
-0.7445581005299922
-0.060941145906293286
0.2593261893716158
0.3814691862359752
0.8243322115868346
1.4772536960321507
1.801373256960167
1.550398345132286
1.007005710619745
0.7895987156788602
1.1717442781945413
1.834616166556962
2.6070944760769543
3.390249098527317
3.7053265721158377
3.562888237273808
3.5144905924976917
3.628236222530991
3.589599721352335
2.9792415507671017
1.7001622275140287
0.6550252007471031
0.5632881621461533
0.9882216349810851
1.587621321889331
2.321013128718775
2.6039719365673726
2.0655348290769227
1.2830238060631216
0.9428529330894481
0.9724740872489194
1.0430449815687883
1.3858881240594505
2.054129688531306
2.305604525571087
1.9246093499383348
1.6926265568841707
1.8493807944784793
1.8459912340099318
1.7757421161156626
2.1621844493219253
2.7570362324162825
3.2242149395299635
3.851145050273405
4.623364248664691
5.005619713397432
4.762979634393992
3.953440800036121
2.593820604082814
1.1270827670555448
0.37218557070822755
0.2811204467366058
-0.20339011438954446
-1.3761591840444127
-2.1012698905334157
-1.73306952860451
-1.1373436274323068
-1.1853038593998724
-1.8769495627340842
-2.6538542485047762
-2.8995512840787114
-2.788071722372293
-2.737520500927084
-2.5326620922196255
-2.3249356284848566
-2.6349724975103372
-3.0758113337874793
-2.9591988380407317
-2.4777473741222704
-2.0986778229048717
-1.6128922807666621
-0.8571690628912523
-0.6466355060456124
-1.5651807542713478
-2.6626606501885792
-2.8040372784734076
-2.167773810742487
-1.2440787630210928
0.0005140888665997947
1.067329546685886
0.8507569026496685
-0.7178809789271828
-2.2335982865086272
-2.5692514093619767
-1.9700059821896476
-0.8359147824708376
0.6366541724155677
1.4495354364111797
0.8914064257778432
-0.363968912796525
-1.540949027442516
-2.438289116550485
