AAD_Filtered_TADAS_FILE
AAD_BASELINE_CORRECTION: BASELINE REMOVED
AAD_FILTER_TYPE: BUTTERWORTH
AAD_FILTER_ORDER: 1
AAD_LOW_CUT_FREQUENCY_HZ: 0.025
AAD_HIGH_CUT_FREQUENCY_HZ: 40.0
EVENT_NAME: 202302061024
EVENT_ID: 13207
EVENT_DATE_YYYYMMDD: 2023/02/06
EVENT_TIME_HHMMSS: 10:24:47.00000
EVENT_LATITUDE_DEGREE: 38.089
EVENT_LONGITUDE_DEGREE: 37.239
EVENT_DEPTH_KM: 7.0
HYPOCENTER_REFERENCE: AFAD
MAGNITUDE_W: 7.6
MAGNITUDE_W_REFERENCE: AFAD
MAGNITUDE_L: 
MAGNITUDE_L_REFERENCE: 
FOCAL_MECHANISM: 
NETWORK: TK
STATION_CODE: 3124
STATION_NAME: 
STATION_LATITUDE_DEGREE: 36.2387
STATION_LONGITUDE_DEGREE: 36.1722
STATION_ELEVATION_M: 84.0
LOCATION: Kahramanmaras_Elbistan_Turkiye
SENSOR_DEPTH_M: 
VS30_M/S: 283
SITE_CLASSIFICATION_EC8: C
MORPHOLOGIC_CLASSIFICATION: 
EPICENTRAL_DISTANCE_KM: 226.42
EARTHQUAKE_BACKAZIMUTH_DEGREE: 
DATE_TIME_FIRST_SAMPLE_YYYYMMDD_HHMMSS: 2023/02/06 10:25:06.0326230
DATE_TIME_FIRST_SAMPLE_PRECISION: millisecond
SAMPLING_INTERVAL_S: 0.01
NDATA: 14501
DURATION_S: 
STREAM: HNZ
UNITS: cm/s^2
INSTRUMENT: sensor = GMS+/GEOSIG | digitizer = 
INSTRUMENT_ANALOG/DIGITAL: 
INSTRUMENTAL_FREQUENCY_HZ: 
INSTRUMENTAL_DAMPING: 
FULL_SCALE_G: 
N_BIT_DIGITAL_CONVERTER: 
PGA_CM/S^2: 11.562
TIME_PGA_S: 
BASELINE_CORRECTION: BASELINE REMOVED
FILTER_TYPE: BUTTERWORTH
FILTER_ORDER: 
LOW_CUT_FREQUENCY_HZ: 
HIGH_CUT_FREQUENCY_HZ: 
LATE/NORMAL_TRIGGERED: 
DATABASE_VERSION: 
HEADER_FORMAT: DYNA 1.2
DATA_TYPE: Acceleration
PROCESSING: Automatic Paolucci et al., 2011
DATA_TIMESTAMP_YYYYMMDD_HHMMSS: 
DATA_LICENSE: U (unknown license)
DATA_CITATION: Turkish Accelerometric Archive v 1.0 - Disaster And Emergency Management Presidency, Earthquake Department
DATA_CREATOR: AFAD
ORIGINAL_DATA_MEDIATOR_CITATION: : AFAD - Disaster And Emergency Management Presidency
ORIGINAL_DATA_MEDIATOR: AFAD PROCESS SERVICE
ORIGINAL_DATA_CREATOR_CITATION: AFAD PROCESS SERVICE
ORIGINAL_DATA_CREATOR: network: TK
USER1: GuestUser
USER2: 
USER3: 
USER4: 
[...]
3.6062514081520467
2.998559390764433
2.3817576911182394
2.0616218436568703
2.043401023975149
2.1677456564415385
2.426790504539758
2.69920967148647
2.8668027718494797
2.9174309859156056
2.9367020164617124
2.9250456576912374
2.7829772536422235
2.5133935956618383
2.1876195380240415
1.9264605852805594
1.7351434100881098
1.5693069650219162
1.4583071220711181
1.3625935282436599
1.1948711546778805
0.9630625454506431
0.8647120031415955
1.0388695842473334
1.4033996129306285
1.8567840767522068
2.3834287980900197
2.9934406439654184
3.608399744186066
4.146497447657689
4.635411541218297
5.062751557955292
5.400086327348398
5.62819216224145
5.610348944796281
5.348088730675065
5.030289440671718
4.719934594258166
4.372045195645689
4.042108474848738
3.9554043331204407
4.151581867872649
4.3789962041742685
4.583912348154928
4.907547772361613
5.34266109059888
5.695952895422723
5.856267313112536
5.879803371093433
5.754177316425859
5.523071840525867
5.303243956025649
5.111315932603476
4.86960296385795
4.479594184943306
4.0015338990798215
3.502178826764497
2.985838668446939
2.4842573497802207
1.9551984826850748
1.4029641231139793
0.9179030363052448
0.5959617024025361
0.5051299897032213
0.6406561536527848
0.9221264289389551
1.1865119834285396
1.3666743753656538
1.4769697360285157
1.3492048975504798
0.9434903009980126
0.5654625691348495
0.3552950605672998
0.2107406685536484
0.13543950699238858
0.1573554470629962
0.18679839904694157
0.16512284397179364
0.10640352851809809
0.01983275504748117
-0.05609165257758523
-0.12451434509473489
-0.2310748985094047
-0.3150489969609716
-0.33938172103558634
-0.4004521728364767
-0.5790655881783906
-0.8168052415599659
-0.9355472453062516
-0.9587547422803983
-1.0359758090484708
-1.0357785919971345
-0.9393653538556628
-1.062964579701895
-1.5005442691493698
-2.0117545881405503
-2.3177646638242972
-2.410378523447531
-2.5787678363646145
-2.9390348107332316
-3.4691054609473704
-4.055384685106506
-4.46924586876
-4.727238833978418
-4.893421861452431
-4.89429124893632
-4.634773397870617
-4.26787462816751
-4.044231326327012
-3.9018802283097833
-3.854505200860437
-3.9979840927310692
-4.2956468603449025
-4.6636934449625995
-4.923755097929818
-4.9732110868651835
-4.844173562482184
-4.605184019589979
-4.334896822267016
-4.0660786301700345
-3.8075345571221826
-3.693093821774874
-3.821489338719601
-3.9930255806303028
-4.158674739569545
-4.3574910349686595
-4.362236789596847
-4.330075988683183
-4.453914377225815
-4.470500611110947
-4.272962556522986
-3.9561278112719633
-3.7295124867293232
-3.671906893933867
-3.651537763316187
-3.5964102465442687
-3.380788575747641
-3.1109241618282626
-2.9803784607308264
-2.813777909816763
-2.507397209350088
-2.1621228046768852
-1.8211828595226351
-1.433977620794665
-0.9524808157930622
-0.4565937265784131
0.03765783302633625
0.6091597130695381
1.1903773577494083
1.526040784903703
1.572359934851338
1.5501830549384241
1.4380804441004367
1.3106467746647168
1.477376851468687
1.8336737150728846
2.0940957063090786
2.309978627140139
2.542905282103424
2.7652412355411657
2.9691200289391326
2.9491307718901476
2.6917229755129752
2.4874769545006115
2.4002998058820735
2.223033412950265
1.9215384894043428
1.7433013800010135
1.6985435281572216
1.519786423198375
1.0784674803791328
0.5830321162792736
0.26696460451438886
0.07008151050397905
-0.047438868385176566
-0.0332059091554696
0.12579800594118423
0.2292222085019482
0.044426552280394244
-0.2508196787975896
-0.5176082249239694
-0.7994113444663744
-1.1563791490063142
-1.6190729973097773
-1.9600907649434458
-2.0863003404227745
-2.0761394222505927
-1.980563290459729
-1.9072925865672832
-1.8379400478609793
-1.7483416315901723
-1.6537722527141594
-1.4512524886608231
-1.0493938086281542
-0.5343303490223378
-0.010263582156110888
0.5236577341251168
0.9117964631773289
1.1290162342386831
1.4557602754476682
1.9102115110808584
2.3074584734554353
2.5580805814853838
2.641281271973784
2.6166254059769387
2.5199110065269252
2.3334957296989876
2.0896860558325674
1.8632970603810697
1.636814674123916
1.3327389521825646
0.9283575219925433
0.38510400491811025
-0.32116625648619856
-1.0516068985027383
-1.6422346429159065
-2.0838993128424943
-2.354175952709348
-2.496224349599072
-2.733906882233669
-3.116759991031049
-3.490715153369804
-3.745065979946798
-3.8615466535323364
-3.8697586372004453
-3.775087080787215
-3.6594844158045317
-3.6613878945921923
-3.7532250328216135
-3.800285090658614
-3.7451941037859227
-3.5501656460343076
-3.206923729029775
-2.8634531584455227
-2.619271804412916
-2.4392110601516173
-2.355698876943183
-2.4899531808019466
-2.7966644275816366
-3.035325353654458
-3.2449359040549437
-3.5566007767950207
-3.856383204761317
-4.1332835794128675
-4.390794140197547
-4.618759737041748
-4.9125444412889685
-5.183133728766944
-5.336147917948468
-5.460224361593982
-5.581480041841802
-5.676256193327583
-5.740188791157688
-5.843754550429768
-6.07837699060935
-6.2932125308475735
-6.282479962826315
-6.094343793253923
-5.95317574882509
-5.982824680489417
-6.105600860323429
-6.188761132593639
-6.191551995176385
-6.228348458624838
-6.291458618032618
-6.245225276595048
-6.0938438847859135
-5.8934280758429605
-5.621826962032685
-5.179770603246568
-4.589932001657323
-3.878162182716311
-2.985558896774032
-2.1074820313402345
-1.4645116232639843
-0.9302017970472783
-0.27645718283771265
0.43667651092987353
1.02386870530614
1.4382015114746143
1.776636708134292
2.2369221117313915
2.7223214539176515
3.1358025056369785
3.628374501500842
4.0779909985687945
4.400063171792875
4.680819404444796
4.894926571058815
4.9870442566375415
4.934463327772931
4.803154701257232
4.608740046252143
4.360274346512492
4.117156132807471
3.855240529271918
3.621138922790376
3.3951963281680917
2.9987039511508295
2.462402377434655
1.8709164877975315
1.2122996688316854
0.4949420230973875
-0.28900696332766473
-0.9804124000157097
-1.478984080272497
-1.8649835381114828
-2.0947261768328116
-2.2092145400302323
-2.351672690490464
-2.5195404602298006
-2.5745538737990805
-2.459346931175811
-2.3884582176470768
-2.5230728234173383
-2.697657783496589
-2.7476571572022253
-2.768022042740182
-2.8177113097283675
-2.7559702676101034
-2.442053683736713
-1.8728928381797214
-1.219745884990904
-0.5428680390586256
0.23868213536002825
1.0783997827258227
1.927497575808429
2.76628648330299
3.465101733301082
3.949140555654836
4.31005018123162
4.518172237828564
4.5050909292487935
4.268305737935073
3.7982554418803764
3.2567112004671124
2.6934393650341595
2.0753465788134893
1.473077758779045
0.9478528181271662
0.6053158622650858
0.4399022190566638
0.44285270379417085
0.6401673049486025
1.0144410807144781
1.6348453652698551
2.449161738612087
3.277950476289307
4.091340967598958
4.889277023025539
5.602658955191989
6.21412088723768
6.635944097825622
6.8461755439677585
6.971494510247157
6.955127347694687
6.728117867288422
6.38540053317526
6.000255273901515
5.621727731582037
5.195275300749699
4.598858781907974
3.950979271071814
3.4179965821530245
2.9365915565938083
2.4675222141676296
2.066767058378254
1.7170616156308312
1.3661286779948765
1.067790390093722
0.9275909105765956
0.9626075909349695
1.1149530945315467
1.3191498678241218
1.5217699210743196
1.646730013048697
1.6886237409646994
1.7252433835274048
1.8108948259314503
1.9766262060805049
2.136509273967423
2.1500775656512614
2.0460037761969927
1.9383228666585322
1.821367734689496
1.5988990062529678
1.2554491159886283
0.9402436945719337
0.7291791529572386
0.4113820664089568
-0.0823918512714776
-0.5834721474734381
-1.1686030878770564
-1.998412883982304
-3.0188496848178046
-4.0555284523433945
-4.9739227293165795
-5.704197846348183
-6.262915649482367
-6.791754805591862
-7.3082803115501065
-7.766360491341567
-8.187046351775388
-8.53679759760229
-8.765632767203355
-8.84243456498257
-8.780056775102103
-8.55779336428864
-8.026866179280852
-7.158646157098065
-6.241819642239895
-5.355019109910024
-4.358847264994281
-3.450634252731499
-2.710865244142859
-1.936172642264531
-1.0429432224517992
-0.05888993957714146
0.9477681635654854
1.8801966539189008
2.655168192263669
3.330663111740106
3.967757962869471
4.541556717730698
5.07936999458794
5.644593242508624
6.243717625830492
6.77715789642189
7.244180868985633
7.70037538472938
8.07027794119703
8.297635621544616
8.41727171780298
8.483444692031465
8.502388804324408
8.500241109887735
8.531553585289274
8.575165438102857
8.562064293667953
8.445775286128528
8.272316442320774
8.06623071278594
7.74634101598628
7.303059969071522
6.8142474203634515
6.342497870243666
5.953319090199863
5.669435991259826
5.411052810843056
5.097796314309891
4.719335299843244
4.341033385890783
4.000970243166922
3.6783190739004348
3.493941530690764
3.5457341991503517
3.7637596882096385
4.1604605904259016
4.7451525631684195
5.391370109237352
6.0363137488536855
6.647067328769867
7.168151322431443
7.629755111461136
8.059185375070866
8.468887251238026
8.874130400244928
9.31065810692757
9.811751062145627
10.339170788845207
10.842155863546472
11.18316828197695
11.322810894802238
11.401704806174914
11.444100113138706
11.42011571797609
11.26594639225964
10.925787091221725
10.511925635917107
10.12751185649661
9.762734709858451
9.351804665526236
8.867939245819676
8.395271987761937
7.968189974561919
7.572820385105324
7.263950676745095
7.093064814308489
7.095765244814253
7.187113014470314
7.207104649435549
7.171246739303175
7.159956935644902
7.116802598756605
6.93869311739717
6.651530807428837
6.283547961165056
5.761210532063882
5.099942976350584
4.399995258670737
3.666711250968072
2.8241722333069315
1.8891045698176372
0.9167045944544827
-0.07143804949313907
-1.0592254079149097
-2.1014766025459717
-3.116499971667463
-3.9425231036047936
-4.594858984608894
-5.150776062176291
-5.6607504891329725
-6.045144927021113
-6.284016562426594
-6.47210297599223
-6.510012273034958
-6.387121415237141
-6.28712223891748
-6.2877932800181515
-6.3091756528459015
-6.259627375253102
-6.23118048661918
-6.2443847297469866
-6.172698204081718
-6.034039909158822
-5.8760820522410535
-5.683836179097683
-5.533777654492263
-5.469601872925813
-5.4306771100659565
-5.529480811120191
-5.861905051826949
-6.238538214504253
-6.437401122436925
-6.487938596765356
-6.469184415010506
-6.28233187653761
-6.019173070525024
-5.840899258514554
-5.670628035795934
-5.333869148482357
-4.797684117816282
-4.290709899687321
-3.9809080708408517
-3.90995099915256
-3.963990528741237
-4.1271508041406175
-4.522260482308724
-4.8913519677725
-5.116640648869661
-5.315577150476667
-5.465919018143113
-5.559695769349068
-5.662030582074519
-5.862440236856586
-5.994082510168246
-5.955239863708339
-5.822731422665817
-5.54478193252276
-5.13728874292618
-4.624217142234074
-4.079644639390195
-3.5657056371842444
-2.986463993696513
-2.3794969639080996
-1.831957302512287
-1.3082004353202576
-0.7616384216229112
-0.2638255249588034
0.10966729842289064
0.4163760025027335
0.6955794431338476
0.9475500360649302
1.1005024937434351
1.1188758124255793
1.1016024948745824
1.2043835446024442
1.459046286643393
1.643118065082533
1.804066873388136
1.9718863265034092
1.9753434682301367
2.056694759555693
2.241861436083589
2.4870449260740264
2.979549589105471
3.490107298805615
3.9691140086489782
4.625068158063829
5.313116945295855
5.8517416446362525
6.347713161758377
6.844213982934536
7.176839417996779
7.349054226844864
7.351442193524416
7.161177038094751
6.834408858237823
6.343297528951758
5.804668322293517
5.33184351938356
5.018300342356979
4.992856521544919
5.143276371078919
5.397294192201556
5.715391485645737
5.867696301850715
5.80338706952573
5.645027245112674
5.489022737495883
5.365302610376384
5.137678464486293
4.76691049524007
4.419657107781632
4.170403840303894
3.924806831297971
3.557432965806914
3.090427675785016
2.655797993846047
2.2578534832937787
1.8888290747590581
1.5976688010370201
1.416904763564093
1.4418059975180064
1.5969850589317731
1.7002399364948777
1.780475628282302
1.8516553337626627
1.937264179238309
2.0888071545258273
2.2344798349598456
2.436282947945204
2.6300282604935905
2.6640020884552187
2.6751042863661603
2.713094217918061
2.6605135767660504
2.430554668944425
2.18789097392941
2.081384218633983
1.8978561745489158
1.5960078640825195
1.2490440896992188
0.8672615421146177
0.5109483294289748
-0.021862182218659234
-0.8382814387583658
-1.656274950279176
-2.274027699520989
-2.7119587054139926
-3.0788472771799245
-3.3724464142687447
-3.543324586219406
-3.7881579671019154
-4.156840054987137
-4.518684092530311
-4.945259607282168
-5.418238310515457
-5.888050695128304
-6.381676405315494
-6.858103744699948
-7.3960297553688585
-8.131825594171861
-9.001550563992895
-9.85459593041114
-10.587136360161363
-11.125486582828934
-11.482302238534437
-11.624538737615698
-11.615946339431913
-11.51537666677829
-11.184571268490265
-10.735923634431577
-10.3925480494665
-10.207473282149584
-10.039126901208354
-9.737666900800155
-9.368831184596836
-8.976156458909763
-8.577726269284607
-8.169451687247918
-7.768130070107896
-7.457880564735029
-7.196297980141595
-6.919991459580603
-6.648888114573314
-6.327777435862778
-5.891786105032834
-5.44314489445978
-5.106824411902825
-4.839188268854536
-4.394617550731413
-3.705442446488906
-2.974962713844419
-2.2415515298285946
-1.5125460875485552
-0.7836156301236289
0.01592563227033893
0.7741374405200904
1.4843636134975324
2.288040363122905
3.103618001195294
3.7548544763015568
4.2567211762622
4.795151636244586
5.3566214677784
5.768869301142123
6.130823120246452
6.539636172967019
6.889753054838287
7.1403558913915175
7.379057169184393
7.683004978297288
7.982441435658954
8.207048193571199
8.377675189651272
8.389014016361635
8.148632652477477
8.008223584863517
8.178023733394593
8.274508797137035
8.114145680583032
7.817328642160962
7.601971492882904
7.562402996675143
7.358490431853438
7.014682587856554
6.810232919749881
6.641007991707159
6.444670772654084
6.23848688378198
6.179851187992153
6.614335372560556
7.599960713136318
7.667754653037549
5.185724107663311
2.841618454519487
3.941923766841936
6.184907804835509
6.778535086881965
6.199615627526742
5.309214304595634
4.783878626953987
4.600224413599246
4.545183090539066
4.825357930040866
4.86641004445575
4.378660029479518
3.7410929717750796
3.252349762511576
2.8315269333617463
2.151639863726319
1.5394699733985264
1.1192477565706003
0.9752733757871243
1.5460208981261225
1.710219009379445
0.5134919536542117
-0.8633631472163742
-1.4425357445786842
-1.5734738121502065
-1.659107909211612
-1.105122788538612
-0.4641023781095018
-1.201609476341073
-1.9581603303919197
-1.9835658263568654
-2.6638511454826217
-3.4150781001414354
-3.5714058664435644
-3.398589651813533
-2.864148411033873
-2.5419132075881166
-2.471675848441745
-2.3373285488771653
-2.765709763383246
-3.6306906175896523
-3.347369884293991
-1.8302040937952562
-1.4703704823825385
-2.531175335576396
-2.567630590354552
-1.9912398490419725
-2.2034043213627195
-2.4384510944463873
-2.1881216086634674
-1.241008153956006
-0.45023425963871083
-0.1508246197329271
0.5829105714128062
0.7991550652777203
0.6559566329537945
1.2623346549133094
1.6618419775060378
2.194601543366956
3.534946821760087
4.140487962903643
4.1971795748178495
4.7033092304412625
4.638365126312381
4.147846069110805
4.189973202756976
4.710972663690047
4.907467405639817
3.8550458299079917
2.9482464610064762
3.649878416143702
4.027223948156242
2.5161705805415266
1.4158955549670675
1.7101184344600213
0.913201402472419
-0.6926068015742783
-1.134591101876414
-0.8602942485963384
-1.1037325117701922
-1.5999863441626425
-1.2025479305540707
-0.03358413764163986
1.0198590724891523
0.9649163760927122
0.40081957448727207
0.13009640577468942
-0.6882950948685957
-1.4015988098629568
-1.3725297670233032
-0.8722646497094305
-0.3688662736886007
-0.675309412046897
-1.0323823177826779
-1.3759890794324996
-2.765454632017907
-4.265374808237081
-5.005690901226616
-4.849909615114425
-3.673435846715585
-3.0180255515604384
-3.0298790055475635
-2.8940012298763262
-2.8602190268334398
-2.255370595519915
-2.130460982230024
-3.2256090451010473
-3.844473173324612
-3.7545781910170044
-3.4222389175642736
-3.192622783195026
-2.8670308303845804
-2.1574138659839166
-2.3477838246485354
-3.161390573196271
-2.9842695229726286
-2.179278152789323
-0.9252709952248874
0.7602694030946076
1.533850118394856
2.0520454468927922
3.5574711883405215
4.834729270637993
5.210049703256312
5.7257353715124655
7.157504464234582
9.036991814491332
10.17295317854457
9.945020506296002
9.19583540947759
8.667849108140516
8.159510980207097
8.307779506513297
8.51640092577723
7.176126266213393
5.558854609985746
4.862376122122656
4.090377298683365
2.942447872549927
2.0350456152468066
1.740273757783412
2.030861350805239
2.303073939659607
1.8470746427165208
0.7563540377146696
-0.010961180565166113
-0.10271262899176815
-0.2280227683071635
-0.5526736084383461
-1.088287224833629
-1.7861305944961625
-2.111599928633301
-1.73514056864054
-0.7999476050958431
-0.5504225991173207
-1.4699241813622776
-2.4401216989666348
-2.8675179391228
-2.9956514193193278
-2.71274702442953
-1.7454909252393882
-0.886369340290023
-0.3336376608252983
-0.0235663154546312
-0.4758655227246759
-0.6438316085862601
0.006046406845409389
0.5598123276846068
0.7097088923915031
0.6482718905688167
0.7453938785679906
0.8333646870398355
1.0347204210925909
1.8292257972978778
2.371348399453451
2.261691102155154
2.2729220935028183
2.6580177753238297
2.7468594397662587
2.0235191900258105
1.593634275830621
2.2740245908687844
3.061810131773065
2.980180313830766
2.435459634214473
2.2429339963779293
1.8129805131495471
1.1374091742937007
1.1849656646544793
1.2222537529677022
0.7699402035102779
0.6981712440808253
1.052009390054845
0.9996912598611539
0.3036856781925054
-0.10859300378316152
0.21713421149366807
0.09958187207746265
-0.7682187206158072
-1.0322040437149125
-0.5247892539065742
0.06212501596305037
0.2506183448683099
-0.2615909004157354
-0.8659230851610836
-1.3551611524361136
-1.8183011020546462
-1.727756308689436
-1.2735857885442305
-0.8455257134681395
-0.407944629442361
-0.006613092310410329
0.25564927796294495
-0.2419669145862072
-1.302261368923493
-1.6933952788907636
-1.381717708591944
-0.7524050804070654
