AAD_Filtered_TADAS_FILE
AAD_BASELINE_CORRECTION: BASELINE REMOVED
AAD_FILTER_TYPE: BUTTERWORTH
AAD_FILTER_ORDER: 1
AAD_LOW_CUT_FREQUENCY_HZ: 0.025
AAD_HIGH_CUT_FREQUENCY_HZ: 40.0
EVENT_NAME: 202302061024
EVENT_ID: 13207
EVENT_DATE_YYYYMMDD: 2023/02/06
EVENT_TIME_HHMMSS: 10:24:47.00000
EVENT_LATITUDE_DEGREE: 38.089
EVENT_LONGITUDE_DEGREE: 37.239
EVENT_DEPTH_KM: 7.0
HYPOCENTER_REFERENCE: AFAD
MAGNITUDE_W: 7.6
MAGNITUDE_W_REFERENCE: AFAD
MAGNITUDE_L: 
MAGNITUDE_L_REFERENCE: 
FOCAL_MECHANISM: 
NETWORK: TK
STATION_CODE: 2703
STATION_NAME: 
STATION_LATITUDE_DEGREE: 37.058
STATION_LONGITUDE_DEGREE: 37.35
STATION_ELEVATION_M: 840.0
LOCATION: Kahramanmaras_Elbistan_Turkiye
SENSOR_DEPTH_M: 
VS30_M/S: 758
SITE_CLASSIFICATION_EC8: A
MORPHOLOGIC_CLASSIFICATION: 
EPICENTRAL_DISTANCE_KM: 115.06
EARTHQUAKE_BACKAZIMUTH_DEGREE: 
DATE_TIME_FIRST_SAMPLE_YYYYMMDD_HHMMSS: 2023/02/06 10:24:46.8632280
DATE_TIME_FIRST_SAMPLE_PRECISION: millisecond
SAMPLING_INTERVAL_S: 0.01
NDATA: 12501
DURATION_S: 
STREAM: HNN
UNITS: cm/s^2
INSTRUMENT: sensor = CMG-5T/GURALP | digitizer = 
INSTRUMENT_ANALOG/DIGITAL: 
INSTRUMENTAL_FREQUENCY_HZ: 
INSTRUMENTAL_DAMPING: 
FULL_SCALE_G: 
N_BIT_DIGITAL_CONVERTER: 
PGA_CM/S^2: 93.682
TIME_PGA_S: 
BASELINE_CORRECTION: BASELINE REMOVED
FILTER_TYPE: BUTTERWORTH
FILTER_ORDER: 
LOW_CUT_FREQUENCY_HZ: 
HIGH_CUT_FREQUENCY_HZ: 
LATE/NORMAL_TRIGGERED: 
DATABASE_VERSION: 
HEADER_FORMAT: DYNA 1.2
DATA_TYPE: Acceleration
PROCESSING: Automatic Paolucci et al., 2011
DATA_TIMESTAMP_YYYYMMDD_HHMMSS: 
DATA_LICENSE: U (unknown license)
DATA_CITATION: Turkish Accelerometric Archive v 1.0 - Disaster And Emergency Management Presidency, Earthquake Department
DATA_CREATOR: AFAD
ORIGINAL_DATA_MEDIATOR_CITATION: : AFAD - Disaster And Emergency Management Presidency
ORIGINAL_DATA_MEDIATOR: AFAD PROCESS SERVICE
ORIGINAL_DATA_CREATOR_CITATION: AFAD PROCESS SERVICE
ORIGINAL_DATA_CREATOR: network: TK
USER1: GuestUser
USER2: 
USER3: 
USER4: 
[...]
-13.008952303955787
-12.831018899976762
-9.836369864430415
-10.320410024794
-3.868541418257066
5.997204497477449
8.562990967575026
11.23730822042779
8.271907670165135
-0.9256265166936586
-8.579092759125434
-16.176134130105982
-19.094780088876092
-19.88621279946358
-18.792028545341704
-16.464614544203965
-15.187335575765028
-12.318426344927811
-12.39007127603588
-6.084568532391657
10.873494142979139
14.862691375492682
11.57381454224862
17.26935680725329
12.630876346056919
-0.500177111394073
-2.7212351112719655
-1.5714643415590444
-0.9854227139955262
1.5977947620358954
-3.8097231546548658
-9.442509792568236
-13.438751315076424
-21.85497037716599
-21.805801327014176
-18.041170724909453
-16.432791620941096
-10.267123643570873
-7.169566889988381
-9.616664164070295
-8.945830062448863
-5.964141279919053
-2.011694198397539
3.7433764952325372
10.564593500667867
17.51212754496979
18.909790835554
15.7268818300229
10.98383278378037
3.0102159944735702
-4.253722574067887
-7.849522724996792
-9.006718238538985
-10.294861198738792
-7.54114134636511
-0.2589974983990628
6.751986810673086
10.846935026334876
10.830937790319057
10.87589905226483
5.735721345717251
0.09989673640621322
0.8644645457851445
-0.49494294854655024
-2.9755174833357425
-2.0753394679817454
-2.831882201262911
-4.415938711426872
-2.5483653639163473
-2.810978464642249
-2.3391778997884223
1.8931818172933632
2.5623307072872796
2.513685423118866
6.579824082667784
8.380872359192738
7.6516945104648295
8.198791818123759
3.3456436307114954
-6.226883025180434
-13.470257804211506
-20.39876711272536
-21.273731894102443
-16.03417150217242
-10.765624278259615
-3.7119851273444904
-1.4314953792381966
-5.167102709355362
-9.971988507826829
-13.676376555726307
-12.399005868337932
-7.18195198046632
-4.476220596921755
-1.4800358146070285
2.8547109282501983
2.912004772399432
3.0298309307283717
4.842557587961074
5.723703966337759
8.406222848118114
12.192388513557411
14.180003531416027
16.771227866956547
18.979933221861966
15.608657059838702
7.223485192752758
-1.2223962194108327
-12.387991482748049
-22.482799759370717
-23.69022814341758
-21.098004379251694
-17.36011724756206
-13.085085998546397
-8.49194265625589
-2.9850677133923424
1.6702704951439342
3.127742914406141
3.0024963403205702
4.783836559712978
6.813753480844857
5.528661988718927
2.069221689893709
0.261187262523697
-1.0163829000769433
-2.113868214005661
-2.23016334347011
-4.7791377278455505
-8.265617147161812
-7.722354348114506
-4.575873223388263
-0.7842331989758075
3.6701268716575703
6.5974836315854715
4.797361927332627
0.9028320545900992
-3.7871968256459994
-8.870039036814715
-9.36545505855923
-5.066146772276427
1.0355325554317067
5.866471489902275
8.056308690204096
9.33397949440284
12.157450987258674
15.166219429501487
15.848601157478818
14.432493131065998
11.752854844280746
8.776001251297966
7.924491985256238
8.874288204720465
8.921072187713682
8.622544201206763
8.851244818018024
8.54052640393545
6.655800996984874
2.8566669713969155
-1.596896462994047
-4.208484839677388
-3.2323189593767205
-0.09119091955732225
2.439399466801151
4.398012795427187
2.25244572254365
-2.1948985054912207
-3.5419704225561555
-2.8585650095771413
-0.3053920936855188
1.462407025374889
1.4924649134829784
1.6251199744958638
1.2288880939861873
0.8480122924914575
0.6014555330339798
0.48517998144129093
-1.0060366822597053
-3.837754411424445
-4.475769640869468
-4.3845184418945164
-2.0965105020962085
1.1224446978529372
-0.11330009717794452
-1.6135016470880994
-2.8050935229193326
-7.200039994468686
-12.819188752705351
-17.650028986656427
-22.322337478438865
-24.665735372415195
-19.77662078285276
-10.088027451509667
-2.338043452222975
2.3735697146073598
3.2494500968681193
1.1402600937931884
-1.1776008816997265
-4.145564887268511
-5.134618871071849
-3.8916462803268566
-1.5079866155949593
1.295223419163524
2.5074428676942615
3.110982373432334
2.3009587315653492
1.2624833067031984
0.1785188469181819
-1.882639019953776
-5.824445454564764
-14.518988218805449
-20.293859239812733
-19.63973680439412
-17.483725611216144
-12.227428280597158
-3.683608761066024
4.808216625529582
11.11639944307287
14.8589520855921
15.081832115692134
12.996128001430032
11.708390461372208
11.113127100583137
10.205056848934912
9.139261253002946
7.315525174018252
7.323869983913717
9.761548676912978
11.349756376114323
13.3862253745661
17.022984303553613
19.496897307949755
19.891372174329153
19.810842868513074
16.71456078161311
10.259747412292429
3.0843875042049382
-3.9050665722153406
-8.152984232951567
-9.966656033823202
-10.278872312825495
-8.11476165129438
-8.059814573949497
-11.410847919349584
-15.764329185248187
-21.993541735698884
-26.061801524021025
-23.828835306091083
-18.88982047471027
-12.37432322606641
-4.433528421093734
0.8503990049401513
5.031997334047131
9.751854329461231
13.549374740516265
19.021193358179005
25.28299622606034
26.148813093440754
23.58253094457415
21.434143444207336
18.342384005907622
14.240029524502276
11.844805356211003
9.349548913873733
4.8847713030892885
1.5008544208750214
-1.8204336246826391
-4.740112514220015
-5.3990086602805825
-4.8183130411757755
-4.389394404503715
-3.4685027877344856
-1.352652447348522
-0.006706419756802678
-0.6403464902501701
-0.18873904883169318
0.3769161844657725
0.30473208389359824
0.9132499123641553
-1.6649081979188833
-8.700581357387353
-19.91624186806696
-31.605204445996797
-40.25349577993541
-42.724802882373574
-41.506825195249185
-39.22478888042109
-33.00081753036057
-27.589354652342145
-23.48297440148395
-17.102124433642494
-8.450427947433658
0.9243934503641755
6.32469569398213
6.158712820419113
4.862537762488253
3.968123666913391
0.29247627780039953
-3.32035448609211
-2.5017465928659464
-1.9719604552809267
-2.275593827304155
-2.579791868226552
-3.3686845043370375
-5.820782576309083
-10.835739320737297
-15.764073300054738
-20.66442115239982
-24.773228380291716
-28.351130696062565
-30.277546158910223
-29.148604377664437
-23.227372661516892
-11.485015304727574
2.1794819510552466
14.103172840408842
23.248490284449748
26.18626874526548
25.17008328377653
24.630016282231857
23.066875958466497
19.888566728024905
14.354899723394013
8.010599402451081
0.7974905044348285
-6.845803689170495
-11.082743746001361
-12.681784322579492
-12.516303325007138
-12.3329553888092
-11.130944964289638
-4.790992148174301
-0.7697277830949814
-0.05944043738982785
2.171889715669864
3.398511382990656
3.285768881785956
5.704421118666216
8.757338685868612
9.306739063780594
10.8409824768559
9.410995349645072
4.250712395660709
-1.1590531000585844
-4.6428083813315855
-2.402879148214037
3.001149519878937
9.435589601524432
17.465150145174135
23.644907692477005
24.097822812863082
20.08744919176156
13.562754688415916
4.796252602120545
-2.282218316849779
-4.496760963496767
-5.179171830301123
-4.105631735698696
-0.5672819352323062
2.313979058047175
6.802424279133916
11.669779942137193
14.685193507196507
17.453189372854183
18.13975386668872
16.83655870211062
16.39253960624349
16.023640094139434
14.127384827377714
14.351362587493787
16.479753923814908
19.084826744663037
22.20374373833668
21.33246566614295
17.802136507363915
14.711328683226755
10.504734878330325
7.597881686228552
5.311086839868363
1.3612921472138895
0.9801457166249745
1.7341610084951486
-0.36528756265033246
-4.092739568741031
-9.20633512482016
-11.36189701806457
-9.183414171680614
-6.203998454360281
-3.095991216833059
0.012732190219088321
1.1289256972182669
0.7215520357707152
0.3871440500059962
-0.7290686441550267
-3.469457386115709
-5.524349034785324
-7.566805011659089
-9.779881057785135
-10.164962745484763
-13.021483803503424
-16.572972701520975
-13.913678862852981
-8.747396688029776
-3.6893041476777237
3.7971529770077863
9.076962524282838
7.5007499197208025
2.068437232438928
-5.059043980043759
-13.786903009544774
-19.751727310131468
-20.847772313811774
-18.25929079641206
-12.756612480639122
-7.782555820586002
-4.021694812009982
-1.3713605820005488
-2.2273428723563393
-4.060224250938298
-5.777242864517444
-9.969991322976174
-14.633124512586209
-19.63237222521579
-27.194877737847808
-32.94809811377049
-33.54578883150925
-31.023432690407393
-26.630337026408167
-18.420212047794504
-7.94746519553986
-0.11896402443626947
5.343286925741718
7.736712316039071
5.853062641216835
3.046488423840157
-0.8378167766315858
-6.46716693804567
-9.657775827082128
-10.03985014686833
-5.747202356391698
1.5069373558855936
5.2122659030948055
6.172333723586462
6.330032200190673
4.562539577553941
2.5702113839139273
3.2666817283703
2.503020538629042
-0.5192595966475186
-2.493853060051188
-4.215994242919609
-8.34137266881894
-13.47513129962378
-17.629471756077418
-21.720729503171377
-22.30729990975875
-18.899744669495302
-16.530199398848207
-14.866975466958621
-10.010148259534672
-3.284250296762996
2.123342909117266
7.062057897801065
9.8824902520528
6.996285109525168
2.307923181806266
-0.7469720011488583
-4.2199949110334085
-6.171299505435674
-5.597351359711601
-5.334440589098651
-3.516270969568765
-1.4043027189502024
-2.8659897650743957
-5.383163895813817
-7.927293492331653
-12.951527809380954
-18.3198103540079
-23.097961230782374
-28.636518527585327
-32.0030115286977
-33.315710063146625
-34.10288227601238
-32.01769337267398
-25.140787600028816
-17.403143958162797
-14.051312618404635
-12.808566617275583
-11.698070284204274
-10.69757594095256
-8.191415285374818
-6.440420707768508
-6.128784559714494
-8.339843076157635
-12.011913624824498
-12.509991910844372
-12.235645013468496
-8.837942036096065
-1.005426244126442
6.316199621762165
10.718915548723379
9.605360873978357
5.702399009658896
0.8048920317882178
-3.0883482916124287
-4.69385470624435
-7.008555824824304
-8.151271799799488
-9.854833239192482
-12.387265463165447
-11.934848196629371
-11.107501769785156
-8.00967698418897
-2.9021955204319942
0.26229244758861
3.4419215958773393
3.3731465766270436
0.8081926856102419
2.0614996099680774
2.8379545384529847
1.9826279685735388
7.000105109449678
13.800560609790034
17.53761230539772
21.46602834194209
24.180911406924967
22.294724042492096
17.936585309418266
12.134410292483887
3.485273044046386
-2.4949202894790945
-5.433748773075425
-11.012722138140957
-12.404901609894981
-9.21921871233551
-10.57455994706382
-9.582582177551279
-2.276151990605775
-1.388158481802134
-3.8102764905256734
-0.8635941108312156
-5.396647030660636
-8.784693416231875
-2.836122243315427
-2.009167798873035
-1.2584045273842166
2.0699610322241786
0.9750471451560538
-1.4762902331304306
0.05839490022409878
1.8010266097836494
1.0140921407948933
7.406811932052418
15.03848008136558
15.574518586740314
18.857197511686465
21.90950799200661
18.828688568460972
16.185073579505918
16.51418591086645
15.983948370064413
15.838541521953646
19.21068553222152
20.42080190802749
22.392108325530412
26.02204998411237
25.850865647768984
24.93910888775248
25.035435245076062
23.698532557236632
20.254338542924796
20.616890956711867
20.142463904757257
23.595864167088383
28.531820693405752
30.475449701666484
31.381231035308424
31.275385336294494
28.158361494117784
21.606337071175673
18.748026118002993
8.62479689840307
1.7763218617924699
0.611761960248465
-6.650305647907072
-8.210302188582567
-6.8541016990943255
-13.094038985294262
-12.378166448154614
-18.742658754899583
-24.524459937763357
-22.23030357435529
-26.78428067342623
-20.54150441791998
-13.817709740183473
-7.8306278225619135
-1.3700150566760867
3.614971490950255
11.260132316068383
15.139261130210382
17.797588140315696
24.278556122761994
25.635270376910636
20.79545114628775
22.433736936109486
22.17340217709888
13.763449440206463
13.07374453128865
8.414319962636563
11.421558289361077
10.860210653403412
6.394344742803423
22.150435859755717
25.752741888968814
30.424889246303795
18.718637086597262
8.100541623191445
21.447646187109957
19.35374121707367
17.14810814179335
22.583487495870006
21.74326460545349
20.22342803755765
20.229843858710296
20.800065793398968
12.22816435900905
7.827337390857242
12.261286107512236
9.634345520048884
14.586827711675959
23.573224353410122
28.80175885430221
29.57278867355271
29.22819931380635
20.72103668248059
10.270540925078882
0.5143586471766134
-6.694543174479774
-1.3368288959179278
-5.2460391576161545
-11.958228101802334
7.248325254147859
-7.471372596208585
-34.03845280614168
-17.207842173883538
-26.434798965221667
-33.79981336289172
-21.132678849024312
-36.17176524971337
-34.62986958860377
-14.625129015209032
-38.07726237725382
-57.364488029996444
-31.762558828203435
10.978689935167477
0.6738894985927094
-15.281261045119967
16.478272657978934
-10.46464902723402
-32.43015326632827
-4.369034678776255
-17.003262128245833
-48.39800991609948
14.705305528563935
91.89185370509429
7.982204485790628
-49.83474807839442
0.5651284300408236
-16.939226417531305
-46.47320499796205
-39.43677429578666
-18.913178723248578
-9.369357412673065
-33.300874287401875
-5.543526766430355
3.0667861552162354
-36.19718989825318
9.007342752061419
16.461364582343357
-14.138733113676786
23.045478579261424
22.088103813994042
13.716972531497513
29.464037114451724
23.25008391274318
21.875598385827846
28.66843087201785
24.529158726203164
13.329368946846548
16.39490281336618
35.11383614050132
25.743455140385546
16.09957848736045
20.424148975320787
1.4713112152922103
-3.438577312760242
-2.020922740516883
-16.66214116564134
-20.39474517632922
-10.358052058539721
-11.465316207837093
-13.675728950881643
-7.53745487449582
-6.743346335532352
-8.696379481483932
-3.4050155165651703
7.240394050545811
4.646330523353022
8.792124760429585
21.77178066892582
13.621637708565544
4.910098904295815
6.166271719444546
0.9451801790862623
-8.496333815437819
-7.826225072203811
-2.3395875251510105
-7.090157739094621
-3.3721755724261513
4.49038551059675
0.5018501914298521
-2.00958558405619
1.576789604406418
4.91400756462245
6.02142361759702
7.235785662386951
14.980406104229026
22.79406417844276
18.887924016485588
16.844461049780104
18.466576307819707
16.02842373902221
15.4196636157264
13.309734673137397
12.600143928719344
15.326477717823554
14.804732461998727
13.251743051585208
13.020779285246551
18.424567239155003
19.578841869806297
10.281271353619161
5.302720630353069
4.505493486469029
-0.5159809581556561
-7.2768284459125265
-12.578177371193743
-11.592242540319539
-10.292007813291354
-13.040071611079533
-10.122368576380559
-8.153597822582235
-9.434146414545253
-8.924239139533265
-10.671993139221888
-8.078704745625945
-3.6095534272407024
-8.330874917667357
-8.075081662800157
-7.118009849078983
-14.553966790487612
-16.202895860056117
-18.60803220596237
-25.10349319054662
-24.86663970828647
-24.194355395238013
-27.225649118815817
-29.496876956479163
-32.520676171334635
-33.44843668744592
-32.31958034740123
-31.15955281903346
-29.348735274633523
-28.380333261697313
-26.50083977538344
-23.60768343151515
-19.081026298126
-11.11559751210923
-9.550573130756865
-12.048348399748361
-7.8177208216744996
-4.851465368197333
-4.871992789991121
-0.13516794297321078
5.57058475000412
7.709625825307875
10.506361093880276
13.989949932195282
17.90919463624402
20.892427763324783
19.983756921256767
17.02909028203687
16.904391560235602
16.596611695109313
9.972628251804887
6.963782447305797
6.592295726543498
1.2515612674031844
-2.6198774617628726
-4.9222419898874925
-8.714862132905875
-11.659056601857271
-11.346310682649603
-7.932314816796661
-0.2669645329645713
11.921232694833108
21.05052227051861
26.01818318399815
32.1826993820044
35.552371593405546
34.90028526580582
33.50908318874822
29.699482995098485
23.55135075413153
16.548746966139706
10.056670950022532
2.124472655713405
-5.771048981644356
-8.822123482926388
-10.426508111451195
-10.902991443091866
-6.763540032801543
1.7293469696666977
8.745642560234387
12.624660587859632
18.00378548382826
21.202438435008535
21.21405254273979
21.594891972001843
22.12605419251498
20.14002592872313
17.755288682319346
19.09147981983034
17.591406118074122
14.063121584939998
11.649526282453742
7.206231917495797
2.4668612867478825
-1.4658895206780445
-6.734182674109744
-11.82848543387071
-14.949986754332253
-15.999722788019216
-16.94258116263902
-21.235372233324732
-21.34488007418824
-20.715691261812864
-22.41814868587561
-20.861358510385667
-20.825909444396274
-22.800136025537213
-24.211922283826052
-25.009647051389244
-24.855546901017778
-22.653801341356846
-19.152604206383458
-14.263205502996108
-7.568364062032574
-0.1051793888654659
6.805974187879118
9.879957848371443
9.321718466091198
12.380823542090646
16.465356240675227
18.113620828707177
21.991694859950925
23.64788145783834
18.67598407539432
10.06336564219074
0.7127833627203564
-7.841963579027352
-13.929668833767101
-19.343819737478043
-22.74574722671059
-21.66248293247718
-18.57078486008786
-12.076812686584228
-3.339734067013905
2.993050983332127
8.502180280716905
14.661155088893667
19.965741992022007
24.482757614111144
26.533567586050637
23.317954595056516
17.60905129816704
12.412500026130585
7.217246733669423
3.904175192629445
3.9708989888627766
4.857442652246577
5.715733628889264
7.731671926999517
9.41319910434092
9.438937624390869
7.489043364813775
4.464177426878687
3.114362463313283
4.421522783963867
8.011222880820423
13.940122770610666
21.919323720699232
29.734889252893645
33.384568754352195
33.538719900820944
30.303673624282673
22.50716022945904
15.03394245178843
8.916941332297672
3.379804159806093
2.4797233562149787
6.771617607485591
11.74257542677998
16.293443252719634
20.10723935635053
20.68508500613653
17.612141009965555
12.918910144868748
7.024453089256942
-1.271503981589298
-8.742352856550687
-14.825435079541702
-18.997407540743602
-19.41388861549422
-18.52748872210515
-17.571949662017936
-15.82604163867521
-12.988779379441963
-9.682429139500861
-5.76890538819196
-3.371223550532784
-5.102129431912014
-10.246750477899669
-17.50804639854855
-24.977293356745225
-28.413846237619797
-25.35696676943556
-16.694353756607015
-5.966048763980613
3.3413940010397174
9.811291866603499
12.224178446776872
11.174983082633032
7.480806002168776
1.7023664596506685
-5.222229423409635
-11.52918073805179
-17.286252613526898
-22.519927326646286
-23.329730568201967
-20.14355286773381
