AAD_Filtered_TADAS_FILE
AAD_BASELINE_CORRECTION: BASELINE REMOVED
AAD_FILTER_TYPE: BUTTERWORTH
AAD_FILTER_ORDER: 1
AAD_LOW_CUT_FREQUENCY_HZ: 0.025
AAD_HIGH_CUT_FREQUENCY_HZ: 40.0
EVENT_NAME: 202302061024
EVENT_ID: 13207
EVENT_DATE_YYYYMMDD: 2023/02/06
EVENT_TIME_HHMMSS: 10:24:47.00000
EVENT_LATITUDE_DEGREE: 38.089
EVENT_LONGITUDE_DEGREE: 37.239
EVENT_DEPTH_KM: 7.0
HYPOCENTER_REFERENCE: AFAD
MAGNITUDE_W: 7.6
MAGNITUDE_W_REFERENCE: AFAD
MAGNITUDE_L: 
MAGNITUDE_L_REFERENCE: 
FOCAL_MECHANISM: 
NETWORK: TK
STATION_CODE: 2703
STATION_NAME: 
STATION_LATITUDE_DEGREE: 37.058
STATION_LONGITUDE_DEGREE: 37.35
STATION_ELEVATION_M: 840.0
LOCATION: Kahramanmaras_Elbistan_Turkiye
SENSOR_DEPTH_M: 
VS30_M/S: 758
SITE_CLASSIFICATION_EC8: A
MORPHOLOGIC_CLASSIFICATION: 
EPICENTRAL_DISTANCE_KM: 115.06
EARTHQUAKE_BACKAZIMUTH_DEGREE: 
DATE_TIME_FIRST_SAMPLE_YYYYMMDD_HHMMSS: 2023/02/06 10:24:46.8632280
DATE_TIME_FIRST_SAMPLE_PRECISION: millisecond
SAMPLING_INTERVAL_S: 0.01
NDATA: 12501
DURATION_S: 
STREAM: HNZ
UNITS: cm/s^2
INSTRUMENT: sensor = CMG-5T/GURALP | digitizer = 
INSTRUMENT_ANALOG/DIGITAL: 
INSTRUMENTAL_FREQUENCY_HZ: 
INSTRUMENTAL_DAMPING: 
FULL_SCALE_G: 
N_BIT_DIGITAL_CONVERTER: 
PGA_CM/S^2: 27.650
TIME_PGA_S: 
BASELINE_CORRECTION: BASELINE REMOVED
FILTER_TYPE: BUTTERWORTH
FILTER_ORDER: 
LOW_CUT_FREQUENCY_HZ: 
HIGH_CUT_FREQUENCY_HZ: 
LATE/NORMAL_TRIGGERED: 
DATABASE_VERSION: 
HEADER_FORMAT: DYNA 1.2
DATA_TYPE: Acceleration
PROCESSING: Automatic Paolucci et al., 2011
DATA_TIMESTAMP_YYYYMMDD_HHMMSS: 
DATA_LICENSE: U (unknown license)
DATA_CITATION: Turkish Accelerometric Archive v 1.0 - Disaster And Emergency Management Presidency, Earthquake Department
DATA_CREATOR: AFAD
ORIGINAL_DATA_MEDIATOR_CITATION: : AFAD - Disaster And Emergency Management Presidency
ORIGINAL_DATA_MEDIATOR: AFAD PROCESS SERVICE
ORIGINAL_DATA_CREATOR_CITATION: AFAD PROCESS SERVICE
ORIGINAL_DATA_CREATOR: network: TK
USER1: GuestUser
USER2: 
USER3: 
USER4: 
[...]
-4.055044102151359
-3.772453321047818
-5.0806723923136055
-4.516253286997427
-0.033701900070128146
0.31348178240571295
0.8026636894598616
2.039036508758298
0.5588615476940562
-2.0844133652614576
-4.63359415278203
-4.902065179985912
-3.0271227948539954
-3.041865576732655
-4.109016779529476
-6.946768590888546
-10.052247851009216
-10.311830201034462
-9.215775597137236
-8.32770415385727
-9.682630428768064
-9.724948006606555
-7.8882583014154495
-6.212441520211793
-6.456821042679651
-8.758339900232716
-9.283803000432258
-10.634289626071329
-12.954158571168279
-12.857999203344919
-12.827435449351505
-14.718544892821264
-15.801889366817644
-14.20195942585758
-13.285182931741835
-10.030107501517119
-5.284854714305119
-3.027886625130049
-1.6232329843629014
-3.414851904570158
-6.364629737144209
-6.20209172003382
-4.756498667197964
-3.8177055805507423
-1.5519709853072068
0.9859862576782356
1.6451185727853068
0.6632049579637774
0.8828708966367884
2.274336076070928
2.355620390112578
0.5513644550143648
-3.090119956732642
-3.437045759086039
-1.9997439348650379
-2.6767004558396215
-1.5689721703037742
0.4152343867883403
2.1390689471236786
4.510259449570818
6.427813993851666
6.058943796974231
4.105848947261446
1.6544281288531983
-0.3301982606930976
0.09666091008085068
1.081912949684669
1.1077552837595641
0.08444673281161456
-0.9399272160245341
-3.4476683147656653
-6.7694987802825715
-8.30075359294814
-9.278414241371097
-10.871600421957403
-11.061404880515163
-9.125480737820254
-9.385411564353518
-9.97983467897511
-9.954716508962848
-10.270752339492333
-7.327692154705107
-4.493294230056016
-3.508983949248467
-1.5281836326178762
-0.4588152772837723
0.26018397892042133
2.265908779433743
4.889882929762657
8.288579935556475
9.911568528677373
9.342002159630079
8.909407253748107
7.550462753271918
6.457308916077702
5.274420479916267
4.373096785558727
5.449225435439333
6.400241144384663
8.530456598030728
9.341190340299422
5.309019013570938
-0.040485428932653895
-3.9592593113917025
-5.7635281141039565
-7.4902268247444415
-9.899829999783474
-12.376069648613717
-13.06468789945265
-10.981826185507199
-9.657229297158757
-7.422848608412049
-3.9674903118596934
-1.3658411883271075
1.002033312726171
3.0585789077466616
4.571082963360407
5.401435330333176
3.4589628127268144
-0.14965650538281206
-2.9291709518604865
-4.09042916780682
-1.860670912298721
1.7438483809268972
5.060575184162999
6.142862645071655
5.372715742379912
6.670880414318379
7.628449702409014
7.614274319992397
8.158203326905083
6.510824009941049
4.157870901755499
2.186582862396532
0.9572032645057016
-0.11000202389053731
-0.75681230864956
-1.362393330774619
-2.936820848320602
-4.0486675690419105
-4.604507362674138
-3.4229186633608126
-3.2540631621401395
-4.909681521533935
-9.391533029044727
-15.465171639432274
-18.092069472586964
-17.988301527320566
-16.700972831295406
-14.178173737682101
-11.655575517590052
-11.018548847491264
-11.710221002095505
-12.413057167543572
-13.32274349256047
-14.822808868337496
-16.9499424908032
-18.088793031051758
-17.41092083124305
-17.208126762030204
-17.981453135785035
-18.149575780984925
-16.76004707791905
-13.886017584480976
-10.87600426355891
-9.75807030328978
-9.629162186337359
-9.599711297519745
-9.595253326869638
-9.353489352895457
-8.158223343819579
-5.445310205398001
-3.33191483492477
-1.9747082500266573
-1.953738827394953
-2.475024240003613
-2.2443051871120194
-4.034364571910568
-6.289765489604195
-6.9498542437648405
-7.5079696815732095
-7.19475953601903
-5.463685844842326
-4.5978642201759
-3.984234932639941
-2.550345105355507
-2.0699840009389567
-1.9730447663282324
-1.7613489610910809
-1.1737352517228474
0.672862483619837
4.114288381357994
7.470466699546871
8.92033791777304
10.246297647103814
12.508072659433324
13.391582255578006
11.683128449671417
8.436345149812267
4.768474630009614
2.2284915180813822
1.3471471011053793
1.9542687558527094
3.8651852372771267
5.873961485403289
6.9129783502455835
7.005819357558207
7.378902820275261
8.114132248171298
9.954058117831446
10.026942268304689
6.792968953930899
4.67035082929942
3.419499647524105
4.2465392369428185
6.063854399401265
7.018254096111857
7.610191423563407
6.84498915217759
6.23686404130318
6.279978452726474
5.749926790716756
4.732754301285242
4.577996275500118
4.725837350694568
5.105940667072575
5.3381543204991635
4.899962446082747
3.508871228460535
0.34396980705639396
-2.969806009264401
-6.451844702223137
-8.670874184860686
-8.312610924018044
-9.830083804087076
-12.177469108347347
-13.341774723528136
-14.61314384997158
-14.544023918471758
-13.132214217114106
-12.681813494061151
-12.340470229309012
-10.449619938297348
-10.987621852546154
-12.511592430275433
-12.421004562240137
-14.045861825813157
-15.496487468173626
-15.508309854861869
-14.654213362048878
-12.838994000799
-11.79067953651839
-10.82702332594779
-11.42088327865681
-12.815542416535719
-11.864347425748578
-10.055417029147637
-7.919654407485684
-4.802776233984263
-1.6544866465178771
-0.4985553056306807
-0.774691300905635
-1.2331230959732362
-1.9205925678618958
-2.3697266964866173
-3.727845465422257
-5.988726898698426
-6.6756165447712075
-6.569889644398992
-5.224471278163464
-3.7595612902825977
-4.57182567504082
-5.707161859588147
-6.655632243200891
-5.474241859585835
-4.3373816577620445
-4.457446697955335
-2.5525238783381825
1.0699555433196521
4.474053076712051
7.847414641869994
13.040179225053116
16.871749311548434
19.559065793371644
22.198735623881202
21.24893706211957
17.019259839535255
11.939590988704229
6.825414877883831
2.6947200854833877
-0.13609019206399783
-2.5391390286821447
-2.767129694933017
0.047101254668315114
4.444034408539878
7.940479591566589
10.014921181750353
10.8358245952192
11.127560981622036
13.375928764337331
15.200969381001425
16.028012117323318
16.597800356870614
16.319345666611984
17.000231498264323
18.04699681432507
16.64920610883728
13.231011170108921
10.800085231995071
9.025717050928163
7.000010688362405
4.8231434770450825
4.38812759516392
6.618750340373557
8.35143878879434
10.59453029363249
13.647263597020588
14.83137801788624
15.569387920691938
14.419923530655167
10.693754604023765
7.798973061073451
4.274305392486517
0.7753639536087248
-2.261638609347588
-6.457918445531349
-9.440065658849633
-11.344116427737085
-11.623937237674728
-11.796565700261958
-13.136864715850773
-13.775571313412607
-12.894352518224412
-8.377433726816534
-4.200872208055671
-1.189835087792408
1.922770584911431
2.6817569714111977
4.957727540522988
7.688059066844141
8.219748897432616
7.448001544152878
5.051071429167368
2.7951883039499252
-0.26882363196355
-3.422520866876267
-6.4251494484188845
-10.06409143291301
-12.282102889495983
-11.347771702892205
-8.777197713437905
-7.404082620888897
-6.490557514339725
-6.2339666471470245
-5.344984829691688
-3.9255344002393744
-2.4904643258387744
-0.9777479971712957
0.427993800167386
0.6770373598551692
-1.9356265087842601
-4.5686542324936905
-5.661591684069189
-3.6050967075202385
0.2776969291157487
2.1664916318503997
3.5157742308553366
5.5648438717154844
7.0574576394546735
7.699611838421517
9.409870209126616
11.239863604828695
11.708345196098833
13.385709232905665
15.94037724374773
17.81895052022871
16.39891690795178
12.97653325825316
8.681900529669056
4.172639272330328
2.362526240770068
1.6753576995989166
2.4392775857935733
3.662228220541815
4.747303947499565
6.29967085193289
7.921245366504548
8.817416537422039
9.549725447055303
9.52271298220773
8.293326205291413
7.3429320424097595
7.454289199837914
8.012388769976308
6.848070907032444
6.63745199291742
7.711744008020415
7.312817394568532
5.19642035292761
1.4820768043116235
-3.488879745604806
-7.6137615225195105
-11.113957232399633
-11.699270911220054
-8.953626893894416
-7.191507805124556
-4.959914945195418
-3.4312739356844535
-3.736391235836755
-5.264859848236888
-6.40402805380654
-5.292405579978849
-4.7176356024953705
-5.53719304648369
-6.192230004698068
-7.082509861216529
-8.043705917138475
-7.906953632702529
-7.469968953939525
-7.9244240740487975
-8.538887194756319
-8.678348996883924
-8.640352773757291
-8.055790900052934
-6.563151062941701
-4.49611505573055
-2.0181764009010092
1.1350751817762161
1.9663792522496668
0.6710669562013307
0.738383406360544
1.9298055690574356
3.1472060720250776
3.6081822567418027
2.1877294657191935
0.7482828226270276
0.7722683752929995
2.159603950471086
5.333796395151678
7.85283933924219
9.99141252392898
12.693533433750426
15.412004131598696
16.9978876669415
16.280339320163872
14.335959068011459
12.04567403665921
9.875896221443634
8.373029523946611
6.0945927161221665
4.597959678887535
4.61492033405457
4.40364168855874
5.441909160679574
7.314411411614686
9.685302419582387
11.082831458339358
11.80308679907909
12.036261761390831
10.876642336630525
10.446045329952542
11.49631801308101
12.166395629043132
10.815764659628258
8.360395961184944
5.788884212979233
4.156108140741058
4.315300141384557
2.270336805114738
-3.2188971492110734
-7.928872325565642
-11.559876421769196
-13.439930411715812
-12.81932885115795
-10.338496250826179
-7.0974120824379305
-5.174852457507148
-4.046633631229057
-1.2149364182633546
2.693519115149031
6.224541787488036
8.999522754487783
9.735684994884778
9.54438407808457
9.350646658440436
8.568570568847052
7.744592947652799
6.1685206779578685
4.532041098796859
5.040141407938085
6.238150802968526
6.889110956705726
5.980102865826503
3.5054528850837774
3.2446372381987114
4.317706128567926
3.5802395186729017
2.4668303252789294
1.390797147165975
0.669181029427026
0.6894808693383259
1.5070729998209966
3.7209959381409563
6.139316009445735
5.452567585300194
2.5061541728620305
-0.37665819524120125
-2.8139919079900597
-3.751206626632138
-2.633547007468246
1.2313751977571425
4.207903728471773
4.574358585310038
2.588108018558387
0.5128713409575825
-0.2698725762640072
-1.5958556951359177
-3.371642911002582
-5.919412814814874
-7.8643104888851445
-9.316653571224276
-9.974417471075581
-9.579363672932441
-9.52254300179608
-8.547371143787878
-5.92325989271819
-5.073348534421163
-6.076004769914038
-7.07545339720629
-8.267293193987287
-7.753084798553199
-6.269644400845865
-4.5325784159858555
-2.8495571913371798
-2.194599932511282
-1.7014387359524794
-1.566204914645376
-1.9879432368797099
-2.577969040380603
-3.411418719291469
-3.6727285597022714
-2.8497485508300784
-0.8850342478585594
1.0174667945362692
1.4619435055587433
1.8302877226602257
2.4480646379376045
3.2040312218309484
3.1080784550911744
2.7428885486435477
2.484002508253079
0.6204855423986697
-1.2329853586048556
-3.148235236845709
-5.754365751840392
-7.869732110957628
-7.428812133973538
-5.383918708949357
-4.349603449301623
-2.763589629373495
-1.5160925773072975
-0.792159641511297
1.368573797812672
3.5908874421095267
5.445505493340615
6.570322036815085
6.927076356862583
6.950049257524147
5.817549666174362
4.069223903051803
1.366069313883928
-2.083647033283859
-5.4487178183335
-8.116340608788793
-9.109432715477078
-9.41379914950299
-9.781070439013005
-10.462451243420192
-12.203500907652211
-15.024915963441883
-16.870135858667926
-16.769396302841436
-17.337078223157004
-18.30169495207088
-15.5742497059235
-10.787766983858619
-7.419238707973325
-5.022048573698201
-4.35164576569946
-5.393951883291121
-7.88604168979499
-10.709946667993975
-11.33861002125957
-10.00604328889052
-7.381768649894729
-3.441495894210014
-0.014358115218931964
2.8138018132727245
5.675728608669811
6.8484351557000895
7.5974398408133474
8.344286646083324
9.089277179142762
9.004127188391912
6.592797312313179
3.1583773470132037
-0.2122227142549834
-1.8873516833728106
-2.3734564078791154
-2.0456080701337673
-1.853892306964524
-2.543663675778847
-2.653358597941093
-2.376861878080637
-2.318004603360788
-2.291798758830139
-2.095446868562302
-1.0230444253030724
1.1955738724734395
2.7157495583115097
3.44955925950558
5.25416310470175
7.983270709294386
10.480727252003383
11.979338658784028
11.991650790715559
10.468020618644545
8.56415718728764
9.086253155128425
10.89759045749506
12.158826618568735
13.596231454448969
14.292380735905738
13.114214571437417
11.159517747050224
9.622571299840516
6.950470313241255
3.0440487782147407
-0.29310691503200026
-0.7327893666418408
1.7322168809583378
3.9160897474234058
4.669053728986861
3.9273917534032488
1.7897677717295701
0.9443654463864042
1.5928589700615836
0.36488917522053194
-2.1020526869354654
-2.9634156215304976
-1.7602847969753943
-0.901026915884296
-1.432663071429491
-1.479615687608329
-2.6929022382041437
-5.445023019321546
-7.205234715463904
-7.867174859878244
-7.4430407473705635
-7.93410094331313
-9.655802720144806
-12.371680390959655
-16.08910003037966
-20.1250434063848
-24.56030698332932
-26.446690096978614
-27.215895128017
-27.286123120370288
-26.551445691782963
-25.75471488172889
-22.79576980413286
-19.43647608425767
-17.147876735354163
-14.866229434711531
-11.908372850469696
-8.471849334473628
-4.737324830662265
-0.8114930990567983
2.3038667364463046
2.4804510496736722
2.791141347427627
3.945763446435453
3.7650802605927725
4.940774560261577
7.586912472349796
10.021470137690246
11.772793156775704
13.062000507850685
13.935132072313719
13.789425557214093
11.945220399073998
10.138159927960098
9.728748842387771
9.046696828494463
6.0252365079213
1.3936134779620555
-1.7305960888099343
-3.0372645561768286
-2.4439241037131687
-1.091886229221298
-1.1996081586783263
-1.3928695878617143
-0.9909507179153612
-1.0348983434511463
-0.7090489513083976
0.09209018321084404
0.7353063314771708
0.6982820873910283
-0.036476952696184055
-0.2975148558310464
-0.22489546407361766
0.4174929933741291
1.393913189805683
1.7830182993788901
0.6244969233909307
-0.5039891010581454
-1.3833094220920321
-1.169075220035489
0.3921376440028518
0.7773423213118618
0.5885964288632192
-1.1674040298784971
-4.259910155191112
-6.48744275671513
-6.28742216692086
-4.724126899803238
-2.6687427311526934
0.3542017211912507
3.2724825361787917
3.8440236060460062
2.857890976441287
2.359495178303992
2.2511482799103146
2.902301942632829
4.05156350979108
5.045146633449899
6.346540607664454
8.394792020898722
10.033296628656963
10.907803872339121
11.435530968870024
12.107826345562973
13.991590268072919
15.191146968587049
13.699229392536589
11.239765002116302
8.199385855998042
5.954392131663904
4.389723832152516
2.8513013496050226
1.86599818928056
-0.11017765728365601
-3.5646839076722774
-6.725709522059722
-8.806757916859748
-10.816955537357055
-12.186490958160281
-13.59788100917517
-14.696131287775446
-13.903522565764415
-11.434695981163465
-8.029884954114271
-5.235985964665832
-4.21725241717252
-3.2754390258556443
-2.423363253661313
-1.9264749785242885
-0.8638800934810766
-1.0142927689913188
-3.0702385563031998
-5.588674919435756
-7.376262657807828
-8.293452295096577
-7.890687898195637
-6.831177734819258
-6.684704885679456
-6.471884923722015
-4.724373238847545
-1.8689746616851148
1.106170660729865
2.932698343202071
3.4822738661257024
2.63621110414517
0.369893930928339
-2.4016548372235915
-4.352566223799118
-4.540635631993645
-2.8006903576007884
1.0111214079722943
5.155730673025177
8.07232029352515
9.543606856470667
9.135840658493581
7.618173857586006
6.462856140604955
5.601732047455348
5.152783271344471
3.73129706702689
0.31435118908408305
-2.5561644482761734
-3.3669540112112135
-2.4281034707811924
-0.4376364081384651
1.7034790937650528
2.4924237579296253
2.045540067794865
1.3077398566838137
0.20012251316271606
0.28339568335889276
1.2498000294464648
1.836759720206872
2.142880885998126
1.2481833388205765
-0.013105487591229764
-0.6767109144512248
-1.2311049891983314
-1.2463718301698326
-2.2389380032468296
-5.165206102099434
-8.286935975548442
-9.91611878580303
-9.380324816160819
-7.932642756785671
-5.529450537488875
-3.3814257489566377
-1.5238629307925846
-0.04581345398474341
0.27834566452392195
1.399648543395898
3.077616278367516
5.135953328277015
6.7827332630083355
6.901947831537048
5.845820788391602
4.016223242905668
1.6141588792433652
-1.3348479638991955
-4.884373037388145
-8.045546147074544
-9.723642896104128
-10.072036558645982
-10.031940335599144
-9.039957141296703
-6.640262406446836
-3.6137748695418432
-0.5215064701992623
1.765037954218232
3.4748736506796774
5.007916276327618
6.136597596128969
7.686689643453945
10.079831052014002
10.500410074828727
9.414092439385852
8.429229991713212
5.248441086002461
0.7664268354847567
-2.132270680797998
-3.7394074233262296
-4.342087533823302
-5.118059743363008
-5.8045403005272185
-3.727905472302412
-0.41291338517745546
2.030397217377491
3.888986279754061
4.83204580853484
5.527471004064334
6.281145831534409
6.316810111139412
6.601789535342428
6.29092212172979
4.49499085144022
3.001500829997587
3.716478654608763
4.5605941799424885
4.713628216350335
5.737010431884349
7.6689232188044265
10.385551192270034
12.350661758505167
14.60903086440242
18.08517133785968
21.02775284671882
22.407779360545813
21.633222994966985
19.58893525785957
17.927753038743656
16.84157353865169
16.55261909738728
15.861772032991132
14.055331001799136
13.501650468942866
14.646560219074981
15.749309903369166
16.66805247340908
16.629945930508313
15.742950176659662
15.542756703578998
15.47683271579174
14.816886325191025
12.67343280357122
9.551079010085289
5.624631300362557
1.6929844395353781
-1.411581530170479
-3.1017639252217966
-3.903477755986228
-6.009043604843954
-7.18953042619767
-7.654030061416585
-8.92151792819155
-9.013421324040403
-8.017078593201196
-6.715712979205299
-4.546313130712096
-3.980836109456267
-5.257043342184729
-6.3884261346112385
-7.403801029074437
-7.477220199150724
-8.185927045280982
-9.391159297194593
-10.148141543161426
-11.625464090489672
-12.137011559269201
-12.116266961739182
-12.658794648450714
-12.88306062184143
-13.131606539062597
-13.007466353737954
-12.444765523308376
-12.734801164554739
-13.922761228736613
-14.47661003212974
-14.694597403738591
-13.197727747198233
-9.245707734142036
-4.057715122893521
1.6288103512500172
6.530721049776883
8.85089648666571
8.701102332634836
8.484231305529791
8.03572261202744
6.612384952651186
3.924908637288124
1.6651328035862867
-0.6538942670996136
-3.5583359643406194
-5.775244534573507
-7.919981341627856
-10.032670379950948
