AAD_Filtered_TADAS_FILE
AAD_BASELINE_CORRECTION: BASELINE REMOVED
AAD_FILTER_TYPE: BUTTERWORTH
AAD_FILTER_ORDER: 1
AAD_LOW_CUT_FREQUENCY_HZ: 0.025
AAD_HIGH_CUT_FREQUENCY_HZ: 40.0
EVENT_NAME: 202302061024
EVENT_ID: 13207
EVENT_DATE_YYYYMMDD: 2023/02/06
EVENT_TIME_HHMMSS: 10:24:47.00000
EVENT_LATITUDE_DEGREE: 38.089
EVENT_LONGITUDE_DEGREE: 37.239
EVENT_DEPTH_KM: 7.0
HYPOCENTER_REFERENCE: AFAD
MAGNITUDE_W: 7.6
MAGNITUDE_W_REFERENCE: AFAD
MAGNITUDE_L: 
MAGNITUDE_L_REFERENCE: 
FOCAL_MECHANISM: 
NETWORK: TK
STATION_CODE: 2718
STATION_NAME: 
STATION_LATITUDE_DEGREE: 37.00777
STATION_LONGITUDE_DEGREE: 36.6266
STATION_ELEVATION_M: 527.0
LOCATION: Kahramanmaras_Elbistan_Turkiye
SENSOR_DEPTH_M: 
VS30_M/S: None
SITE_CLASSIFICATION_EC8: unknown
MORPHOLOGIC_CLASSIFICATION: 
EPICENTRAL_DISTANCE_KM: 131.79
EARTHQUAKE_BACKAZIMUTH_DEGREE: 
DATE_TIME_FIRST_SAMPLE_YYYYMMDD_HHMMSS: 2023/02/06 10:24:49.7419380
DATE_TIME_FIRST_SAMPLE_PRECISION: millisecond
SAMPLING_INTERVAL_S: 0.01
NDATA: 12501
DURATION_S: 
STREAM: HNN
UNITS: cm/s^2
INSTRUMENT: sensor = GMS+/GEOSIG | digitizer = 
INSTRUMENT_ANALOG/DIGITAL: 
INSTRUMENTAL_FREQUENCY_HZ: 
INSTRUMENTAL_DAMPING: 
FULL_SCALE_G: 
N_BIT_DIGITAL_CONVERTER: 
PGA_CM/S^2: 34.473
TIME_PGA_S: 
BASELINE_CORRECTION: BASELINE REMOVED
FILTER_TYPE: BUTTERWORTH
FILTER_ORDER: 
LOW_CUT_FREQUENCY_HZ: 
HIGH_CUT_FREQUENCY_HZ: 
LATE/NORMAL_TRIGGERED: 
DATABASE_VERSION: 
HEADER_FORMAT: DYNA 1.2
DATA_TYPE: Acceleration
PROCESSING: Automatic Paolucci et al., 2011
DATA_TIMESTAMP_YYYYMMDD_HHMMSS: 
DATA_LICENSE: U (unknown license)
DATA_CITATION: Turkish Accelerometric Archive v 1.0 - Disaster And Emergency Management Presidency, Earthquake Department
DATA_CREATOR: AFAD
ORIGINAL_DATA_MEDIATOR_CITATION: : AFAD - Disaster And Emergency Management Presidency
ORIGINAL_DATA_MEDIATOR: AFAD PROCESS SERVICE
ORIGINAL_DATA_CREATOR_CITATION: AFAD PROCESS SERVICE
ORIGINAL_DATA_CREATOR: network: TK
USER1: GuestUser
USER2: 
USER3: 
USER4: 
[...]
-4.221789131157017
-6.1801130324193325
-7.700085428631565
-7.0203629295974626
-6.600135222884178
-7.386587468812506
-9.0233224432407
-11.052973949178662
-12.107783560253315
-11.77074739743266
-12.077851740169917
-13.18759471320249
-13.276983436855406
-11.960185256867602
-11.07260167268227
-12.155677915989221
-13.126713268075836
-12.785387382258577
-12.557954476781594
-14.179390522425486
-16.35057243956932
-16.15935079455568
-15.65557182518232
-15.553129878143832
-14.302234362802714
-13.752955966805258
-14.689184445969603
-14.879710717471132
-12.268393971784679
-9.30255403429701
-9.013774025225676
-8.955285062218794
-6.544012255455792
-2.6933396828937566
0.03453773973219171
1.145394950031508
2.627046143222149
3.7275462667691435
3.2011895366835255
2.4155667039477904
1.98838949608633
1.7004917702940965
1.8224874242844002
1.913069085847863
1.7882083743452135
2.3637507277193555
3.5431998042768944
5.322077705966759
7.401460682468229
8.527799068362143
9.44016547984474
11.142014237079026
13.148024562609757
14.41855393837215
14.558055326068416
14.13186004029969
13.88227789607288
15.009456066299622
16.61198462624607
16.122101639232433
14.196929015984235
13.294044702798534
13.597458928545414
14.192120934582242
14.960164064086833
16.4127463120872
19.413359406783133
22.940621671186445
24.421432583029972
23.395362960718792
21.602770973271593
20.38919410203264
19.73910219157969
19.14531689908099
17.39493763379289
14.284583744602978
11.560095289879955
9.409787825077434
6.7002353401376835
3.20738736406947
-0.5271953393916059
-3.7081482011763
-6.3015773281826215
-9.35241724233944
-11.831698548587523
-10.727423882852
-7.510435998170849
-6.109828062641115
-6.977289383461206
-7.356652478334022
-4.774313665744223
-1.9766727527746475
-2.438728523438794
-4.888358262963188
-7.640656656916404
-10.239763485616502
-11.444433543793819
-10.093645058043663
-7.4778784834674195
-6.779492697849804
-8.586720429405277
-9.323747730328392
-7.682465112465412
-6.870106049243058
-7.14506900769597
-6.166949988475494
-5.767451472142281
-8.2576102468085
-10.582585017738944
-10.240810378975727
-9.453386005663079
-9.636461795743234
-10.588172463658587
-12.181087097385724
-13.074030347982179
-12.227059955391473
-10.274838216533807
-9.325847676689623
-11.227638832649173
-13.58046450834657
-13.821879616217478
-13.475317135139909
-12.670317524865975
-11.56565190972417
-10.724935420830146
-8.466456506793195
-6.77697883112843
-8.33622185783169
-9.957435203515928
-9.3019949077251
-8.944149145039509
-8.271620215142098
-5.841337299216107
-3.9223542399730977
-1.8088399824114234
0.8212630182823426
3.547845955466439
7.417044319243927
10.707962305885678
12.534872025709864
13.509787251423301
13.590163795076215
12.601276004379825
11.10436293957079
10.68561113136884
10.338917493719261
7.782897397728565
4.127701697366556
1.6289246126866526
0.42034008007840756
-0.4496678717165568
-1.2368401275812875
-1.6539851119915778
-2.360199571972619
-3.5586402713893173
-4.886389937183319
-7.4268423727143675
-10.332472600685325
-10.719961003782078
-9.536052303323647
-9.466383187590356
-9.993903330223457
-9.898086594174105
-8.71287125842347
-7.610497790090644
-7.298000946350554
-4.748655826537245
-0.784161234464317
0.7885807688068925
0.38818605558565666
0.2133116632583645
3.044230329298915
7.97290489123927
9.98857535491526
9.460257033726704
10.115023851693826
11.94842727222129
14.775952543838764
18.93164252641316
21.94102870089066
22.911275365327054
24.011176183138367
26.258898561180384
28.416826027366117
28.524875383060653
27.225531350193627
26.483919853007546
26.883903640314884
27.567840103026064
27.120008007590215
26.93567948930292
28.248355521484815
28.87697130125989
26.94605924207754
22.552925505264998
18.114273780825883
16.677308644765418
17.103817651095184
15.625706149640093
12.375797632611429
9.734051015575522
8.210995500773784
7.170514290496929
4.842955979876947
1.6457781175569743
0.04090698689147648
-0.6827131475678816
-2.0228373915951616
-4.023788497832767
-5.640249072333853
-6.190701155425913
-6.876367693839474
-7.162477352873426
-6.909093524846778
-7.327821630160893
-6.72818153239791
-5.640735879432593
-7.388704917231184
-10.035173590828467
-9.010410951754077
-5.207069241312293
-2.794597705884985
-3.5492668942410694
-6.301049139170665
-8.423944894868887
-8.859364289203924
-8.510746073722041
-8.08143011503696
-7.53076027456186
-6.531326185898322
-5.23932859904402
-4.193221505925639
-3.754014520005699
-3.2778038652279426
-2.5646683093946856
-2.701605551793516
-3.965957845524119
-6.406029138532252
-8.813570915636983
-8.383842328639627
-6.305746001036498
-6.3350006521628215
-7.503448734510347
-6.445522147307106
-3.7566770471209017
-1.7286168655894627
-0.14856262289008718
0.8837862893335934
0.18760901936836125
-1.016488467758556
-0.5169650611240829
1.8553642598517415
3.885306634702683
4.061724053400417
3.95081878299401
4.979090800183046
6.6021999174567165
7.698343559850321
8.573365013731417
10.045462603557795
11.021946598498847
10.748077827494608
9.406468510769226
6.817633690615962
3.1794534955801628
0.4559990209608471
1.4031521155552105
5.006142518601291
7.5958272108779346
7.821490180706039
7.025539118422698
7.203611930829387
8.306462195338161
8.624879162906023
8.33493770966061
8.802962339207248
10.24773845468528
12.054097651207092
13.887432599628498
15.648038410036973
16.382625397912562
15.591093544144407
13.86564374979621
12.703270688694234
13.323047004481483
14.131124383753418
13.809540888749732
13.32589168745991
12.317623574470547
9.054110386563787
4.367098376747333
1.5088038325435524
1.7059641139980037
2.3979325615451885
1.1655054939659988
-0.22806656192352512
0.24367964120542188
0.6491951044027848
-0.7537681088413659
-2.9622647454959474
-5.039205621789159
-5.991348368683966
-4.140806811187353
0.021258600942683406
4.363826112792678
7.280181912180155
8.162023028386761
8.394103243686368
9.294048154421729
10.509000219030222
11.364161496078212
11.181744492568486
10.19485414691875
10.521882228657047
12.872102260777497
14.563883696456015
14.473535723640516
13.052301390148731
10.692623308877273
9.814842416611725
10.023410590681332
8.62823792771949
6.439194984924049
4.9284628740557475
3.94925469150571
3.1640823004259335
2.36144943235872
1.604474870932053
2.0610525968556903
4.460669907261047
7.419471769786031
9.591376821061877
10.533804300438073
10.523917371708757
10.982469994704944
12.306984885991456
12.712845445306517
11.610086628484371
11.117639636996753
12.407401136379825
14.146789586614402
14.724085485559502
13.765872491111619
11.939063950152107
9.820407057601392
7.730376340886872
5.866843783848633
4.173712670005737
2.9155981082869555
2.5566589821435697
3.06935322663644
3.569218449392314
3.4846597947282416
3.7707818842374903
5.011000214243935
6.5920858240412885
7.7872137693739765
8.13909289061207
8.309799438011032
8.504048395802496
7.071950908035134
3.421756440070456
-0.941034912810442
-4.6767805611219275
-7.670965401106546
-9.922647131141252
-10.672466582128726
-10.807819118491599
-12.507157097435098
-15.059048745595536
-17.26695350837519
-19.81854505930935
-22.040008636613187
-22.676743599766404
-22.27117772162018
-21.545676090464994
-20.24591929863512
-18.753200271627698
-17.71894445212475
-16.22710179436358
-13.682831929696173
-11.17192856375957
-9.121426906436087
-6.4966127450489255
-2.8147990489781036
0.29823207522150175
1.362488435207884
1.5639657822337287
1.3529712517863561
0.02418841648506347
-0.9452062645125845
-0.9937167007511759
-1.0460494352305123
-0.8321944960083358
-0.04434131222299132
1.743110334734215
3.9335954812776484
4.321963033373157
2.8443632626962
1.6919906397014586
1.9019202248496514
2.764447347590278
3.201950074141183
2.4373608521071186
0.8773166709044169
-0.5113974589800222
-2.0601656953972434
-3.5076068891505825
-4.258005733452709
-5.516278377476145
-7.477099511541829
-8.954521325167644
-9.949504756655854
-11.11732348741897
-12.538346805601554
-13.772375760740186
-14.251352001696066
-13.877208810115086
-12.743180965750206
-10.85166015696011
-8.599209594052075
-6.931235617220275
-6.390709755751379
-5.940964427534447
-5.847589721068292
-7.116390444901154
-7.940852654029377
-6.961398922057953
-5.068850035179014
-3.4854422519445243
-2.1443666288088594
-0.019800116678575844
3.1443562472380067
6.7447679962652005
9.758192763156568
12.836870150136946
16.707985926219393
19.68474781084169
21.429321019155317
23.032814353582676
24.62039179644812
26.36943988542397
28.07631411009299
29.18966476793116
29.93641840374477
29.93028289233989
28.098653730892714
24.909611706621515
22.295570978436466
21.462623676406373
21.299059521952206
19.46684425134892
15.034192383633597
9.386920514229946
4.722415743203849
2.174537521365326
1.1683217313866496
0.258286439186742
-0.9134432377251318
-2.4736350528445894
-5.255655874211188
-8.684097654431051
-11.066009454597333
-11.061905147890108
-9.170323714925999
-8.358482132257015
-10.23925821587345
-12.592183116971347
-13.008313708296377
-12.39770632152096
-13.089128592637463
-15.619848802920666
-17.970817958033212
-17.838332883503423
-16.375698266190117
-16.18076358095001
-16.315218871185223
-14.98260569772288
-13.168346540012427
-11.821594558112267
-11.002279895037221
-10.97512505107745
-10.745045538993102
-9.222866915910002
-7.222408074679647
-5.097245597134426
-2.419619898558589
-0.949397709828161
-1.8848699518371734
-3.4122315068172036
-4.873623770442737
-6.44641391785327
-6.596687978270429
-5.3987813199675285
-4.929676275631128
-4.918100931305448
-3.4943547110315705
-0.874902598526392
0.9692218154586103
0.165289906466932
-2.8083067551548835
-5.154283787126956
-5.333922807426163
-4.02042675106234
-2.8562778984177313
-2.6877636003217398
-3.234788922825224
-4.3198992754690435
-4.499459200264697
-3.199345039593744
-2.9876740553092316
-4.061251285866707
-4.472417997773197
-5.020204508048718
-6.108925043729345
-7.148439929004716
-8.575344332614254
-9.130788696415458
-7.936947803561428
-6.799262354798135
-6.907332719946623
-7.5110027278413725
-7.496184762130574
-6.648140542015727
-5.128009981586213
-3.8938944601883367
-3.948362088396612
-4.484026416090334
-5.042145504062208
-6.0614882577088744
-6.9093084470756505
-6.611287532871114
-5.180482434182004
-3.46995663357229
-2.071494350798079
-0.6491237463251448
1.523626179567329
4.45036287717341
6.546663240511257
6.7406315448638345
6.59113408467651
7.322217254278988
7.6198268392539275
7.098125925357164
6.9990129879874985
6.742054829006513
6.262864773667123
6.724668257167602
7.678487656229349
8.614175803383388
8.569160570209682
7.060884659201707
5.343555876967427
3.355516009304251
0.7990036072648062
-0.7910879068636617
-0.9453804667768477
-1.042785136774764
-0.93552997543544
-0.638704650422343
-1.604797594711119
-3.1180350837774986
-3.463230468423267
-2.54903769093743
-1.6279328565529736
-1.2356716573437667
-0.4684237546131026
0.9206161751836027
2.3134520228140785
2.8610834340184192
2.3975065183893802
2.3708910098582288
3.296559644172369
3.4980945362928453
2.6198349485276773
2.1687453763039803
2.6216519460653074
3.1768862826733293
3.2996334851799536
3.4419759676972883
3.9167058717626064
4.014176202654602
3.3670898801049804
3.348813071954846
4.786171189607982
6.571627172866722
7.4810463505169915
6.65991054372863
4.7236093590817205
2.979474792154021
2.299724209884982
3.125081144213824
3.2451913611971657
0.5199317765452901
-3.4156261940466712
-6.367422613136918
-7.984038156493602
-8.113279370124362
-6.634058692315015
-4.234641457794365
-1.362305006169934
2.25435263875793
6.3476036841870584
10.004412860616192
11.801904057163691
10.198752331964432
6.917920312119818
5.2780430163026875
5.250481399756792
5.209530316970679
4.117829990611698
1.4455952373537435
-2.156642397088276
-4.835177054860754
-5.502444355539
-5.43555391409566
-5.861100327712886
-6.105360659411886
-4.973290062446632
-2.549789934193134
-0.4358947446631105
0.5699883446923039
0.9098125059974009
1.1715766156085325
2.36999365759365
4.648496970332652
6.662319374421937
8.050835847131811
9.9223603376467
12.077939422103508
13.107222770100996
13.18970741510245
13.043214785877215
11.930188843998378
9.493828406133927
6.913477169481
5.452292428947303
4.808536421726152
3.8229134958220508
2.2164168387318
-0.0688227411449061
-2.5303487036875305
-4.365605389347574
-5.75946882048419
-6.84801611548159
-7.819053760577406
-8.528370126455098
-8.232482682193062
-6.952910263082022
-5.640925360220505
-5.423430225823498
-6.2222388603170575
-7.446536163883746
-8.680602229374504
-9.138123361871608
-9.621496301980118
-11.528346547511946
-13.934905389044793
-15.596309954085594
-16.949098863143455
-19.175095335591337
-22.943825539770067
-27.967584176526305
-32.284974672374766
-33.83265342955372
-33.88983685681778
-34.18406100637984
-33.328973997535584
-29.344087850648435
-23.062339032394938
-16.99991074638503
-12.654086974256325
-10.109731398084357
-6.959188753736064
-1.8964083707493329
2.474655626479648
5.441344293894745
8.699012208136972
11.77002775275491
13.791086683578168
14.646657170136107
14.575379394194064
15.447808881392055
16.93236096635278
17.60541293084209
18.107816172946254
17.773741651565324
16.407104746661595
14.662996713163311
12.091613386029458
9.12821272920593
6.784613824405668
5.55660701775467
4.623953232118645
2.8455884266981775
0.43778421595946837
-2.443241329314045
-5.916760660916542
-9.351132375386687
-11.121246321314247
-10.315027834404288
-8.583501016019667
-7.275688103034506
-6.165788220704417
-5.682047503456904
-6.248065107971271
-7.552085143504331
-9.697210346451556
-12.92526880752459
-16.24194158804617
-18.096527089160702
-17.504735175878057
-14.422727380906444
-11.102166963025807
-10.150910649428614
-10.764609030634992
-10.332374648531163
-8.613022515090277
-7.636348432413601
-8.294012145350496
-8.913315727914524
-7.263513153394899
-3.9248091858942895
-0.5194540935809557
3.6145460634567264
8.202887451644534
11.322557191495218
12.454099064790135
12.88348388947833
14.026504739263666
15.56041106781813
17.5179123972482
21.003881825713897
25.049203424391546
28.05397436563311
30.660279948491134
32.983785456251454
34.05583375834325
33.7579290141326
31.601824488633603
28.280873667153944
25.57936250891146
23.523645061513225
20.82149040485684
16.59603651994101
10.83420854304145
3.1769597828251954
-5.167024523012841
-11.216550933151863
-14.55766102289248
-17.04941606183819
-19.80691949474537
-22.62945529181767
-24.184502010786854
-23.27995719299421
-21.642550988135664
-21.6398086741443
-21.699640448502247
-20.390647131741574
-18.7175159933314
-15.70366971704669
-11.371222675436286
-8.127537307926694
-4.74834840873378
0.7626946616139921
5.914048277430232
8.616068245054436
10.030484952868775
10.669938235360245
10.56986243377567
10.213624066928736
8.777426088146234
5.456795617785493
0.9305980214150386
-3.679317589841054
-6.9848854919183845
-6.972174716757077
-3.950993640693453
0.21682694872351055
5.6579392774036785
10.967663804017665
13.913196240244801
15.106187172939713
15.486476860218001
14.844127903483663
12.875294491817106
10.571339896424968
6.630283411142299
-0.7490999311577038
-9.152587730230007
-18.080071466582712
-24.944167673902097
-26.637031117430666
-27.586153864867107
-29.336816546708615
-29.720731597537394
-29.660004691479962
-29.451499034128897
-27.290715062278114
-24.414800329768173
-22.069254490361853
-19.343367129548064
-15.394676298258345
-9.987736620608104
-8.139403181010774
-9.386684783985428
-8.465445453211926
-4.8102131074134045
1.4577838296478227
7.269430239783685
10.24161518519605
10.318413555448506
11.193424143238344
14.421552084716254
15.036024707775546
15.028434374169194
16.15542645478253
16.186287014618117
15.999379606412242
15.270999644947782
14.673733399313551
15.29849748498631
17.104697242882363
20.409758826432565
23.53726709716915
25.074373307501897
25.988249205329662
27.378736248378402
28.045277127564642
25.97145463248305
21.998149295707016
18.708666875271764
17.044065669260018
15.57282399877482
13.74771355592283
12.801473264942516
12.86437291544463
13.601694993306426
13.913576202913548
12.520518598477087
11.06572515051024
10.87487304964817
10.831722214862094
9.404913498568794
6.543756570679281
4.313975230814466
2.6075896965798715
0.11887599667597337
-2.699088344602027
-6.1648832875840105
-9.971735783830187
-13.770311205802312
-17.842319344782968
-20.45776122135963
-20.853418246727095
-19.9928458085516
-19.611309111137523
-20.995988428269342
-20.785591869517788
-17.340404251049158
-14.685103972559427
-14.464687777748658
-16.213233195604307
-19.001119784156494
-18.469819660609435
-13.471830546674473
-10.440923258201884
-12.584107448117855
-14.922057971119479
-13.531412635159477
-10.873690253884574
-10.519134996213534
-11.148281921972902
-10.053448685674919
-7.751799875797553
-5.102575159829774
-1.6941346844648875
1.873654113605673
4.287242050834219
5.331533140198525
6.212472703641628
8.046499061997583
10.506955349735739
13.699888979739743
16.397945457122105
15.636928871847827
12.067779936557729
8.385089148312286
5.440727224266495
2.374754126988077
-1.0931352089753583
-2.7640873915004995
-1.3372389497818906
1.3017764145133317
2.7704683465600106
1.8083426682051813
-1.6004827973546514
-4.921627849132708
-5.192931244316298
-3.1072176369083535
-1.7660013129898378
-2.508536931600305
-3.1395400950201715
-2.6254694624234216
-1.645110669280933
0.7034435207246746
1.8696335247883389
0.4866443297215024
0.08782928529926914
-0.7147165726171142
-4.22594918189571
-7.894379476446348
-9.61024666954532
-9.798802893550025
-9.529805284521936
-8.731942277203284
-6.998938581085039
-3.4747126526255707
1.5163503856216038
5.407345027375142
7.9130988419208625
10.705896684070634
13.706231035048082
16.382696320785882
18.31131880979842
18.070680015411373
16.136204843580472
13.683217225141936
10.810819824800282
8.681465838580497
7.341382438332949
5.486717273868096
1.8480667240749644
-2.1573263972729646
-3.964270618557093
-5.231234928812258
-6.6259794578600655
-7.578397868725296
-8.995673778296602
-9.329890570286317
-7.745704427675127
-5.343346122611282
-3.1962084125981325
-2.782810958278964
-3.1608294735046445
-3.3002700378889327
-4.609152183535332
-6.666103046665152
-7.762298300565607
-8.221768987393562
-8.936546933462159
