AAD_Filtered_TADAS_FILE
AAD_BASELINE_CORRECTION: BASELINE REMOVED
AAD_FILTER_TYPE: BUTTERWORTH
AAD_FILTER_ORDER: 1
AAD_LOW_CUT_FREQUENCY_HZ: 0.025
AAD_HIGH_CUT_FREQUENCY_HZ: 40.0
EVENT_NAME: 202302061024
EVENT_ID: 13207
EVENT_DATE_YYYYMMDD: 2023/02/06
EVENT_TIME_HHMMSS: 10:24:47.00000
EVENT_LATITUDE_DEGREE: 38.089
EVENT_LONGITUDE_DEGREE: 37.239
EVENT_DEPTH_KM: 7.0
HYPOCENTER_REFERENCE: AFAD
MAGNITUDE_W: 7.6
MAGNITUDE_W_REFERENCE: AFAD
MAGNITUDE_L: 
MAGNITUDE_L_REFERENCE: 
FOCAL_MECHANISM: 
NETWORK: TK
STATION_CODE: 8002
STATION_NAME: 
STATION_LATITUDE_DEGREE: 37.19156
STATION_LONGITUDE_DEGREE: 36.56195
STATION_ELEVATION_M: 593.0
LOCATION: Kahramanmaras_Elbistan_Turkiye
SENSOR_DEPTH_M: 
VS30_M/S: 430
SITE_CLASSIFICATION_EC8: unknown
MORPHOLOGIC_CLASSIFICATION: 
EPICENTRAL_DISTANCE_KM: 116.24
EARTHQUAKE_BACKAZIMUTH_DEGREE: 
DATE_TIME_FIRST_SAMPLE_YYYYMMDD_HHMMSS: 2023/02/06 10:24:47.0665590
DATE_TIME_FIRST_SAMPLE_PRECISION: millisecond
SAMPLING_INTERVAL_S: 0.01
NDATA: 12501
DURATION_S: 
STREAM: HNZ
UNITS: cm/s^2
INSTRUMENT: sensor = CMG-5T/GURALP | digitizer = 
INSTRUMENT_ANALOG/DIGITAL: 
INSTRUMENTAL_FREQUENCY_HZ: 
INSTRUMENTAL_DAMPING: 
FULL_SCALE_G: 
N_BIT_DIGITAL_CONVERTER: 
PGA_CM/S^2: 28.837
TIME_PGA_S: 
BASELINE_CORRECTION: BASELINE REMOVED
FILTER_TYPE: BUTTERWORTH
FILTER_ORDER: 
LOW_CUT_FREQUENCY_HZ: 
HIGH_CUT_FREQUENCY_HZ: 
LATE/NORMAL_TRIGGERED: 
DATABASE_VERSION: 
HEADER_FORMAT: DYNA 1.2
DATA_TYPE: Acceleration
PROCESSING: Automatic Paolucci et al., 2011
DATA_TIMESTAMP_YYYYMMDD_HHMMSS: 
DATA_LICENSE: U (unknown license)
DATA_CITATION: Turkish Accelerometric Archive v 1.0 - Disaster And Emergency Management Presidency, Earthquake Department
DATA_CREATOR: AFAD
ORIGINAL_DATA_MEDIATOR_CITATION: : AFAD - Disaster And Emergency Management Presidency
ORIGINAL_DATA_MEDIATOR: AFAD PROCESS SERVICE
ORIGINAL_DATA_CREATOR_CITATION: AFAD PROCESS SERVICE
ORIGINAL_DATA_CREATOR: network: TK
USER1: GuestUser
USER2: 
USER3: 
USER4: 
[...]
0.8387361275250167
-0.4550446165309866
-0.7149444347187732
-1.2276968335079623
-0.643220865215586
-0.5025329123295043
-2.939136647684512
-4.812952044105287
-4.160651529301317
-1.7740407479305014
0.39059486842659763
2.3842643646377013
3.892963856200513
1.630170042800576
-2.800912165730093
-4.791120572802958
-4.638783048362358
-3.6745695455110945
-0.943325934895865
2.724715750173266
4.563540928721188
5.98909948854734
8.674720183076218
8.178325912202704
3.148310774086468
-2.4953311454927882
-5.563108483332014
-3.3529780937434475
2.107790894411106
6.633589534177847
8.38581110944033
5.8446510302652905
0.9627323294334207
-3.0359247029421303
-6.167247930490312
-8.805220724163494
-10.779377181684154
-10.135392437883757
-5.419550961903426
0.15262051718352673
4.214744857621883
6.391611668788083
6.222131087233374
3.7016344657254883
-0.7716784943481068
-4.8598653377397785
-5.728712896648885
-4.019535736573658
-0.701503981499787
3.3236910385415044
3.541884743632427
-1.3116361720988277
-5.672260603021137
-6.646776237748966
-6.489549349048491
-5.609047971565655
-2.710790001334129
2.1086234210865524
5.577207150302085
3.858827974216047
-3.122663041345183
-11.214009630985425
-14.29082091732234
-9.551463230455802
-0.7162681865921472
5.340661578301326
7.031943815018684
7.491239901789682
6.103877775854011
1.2455407635486155
-5.079235626540492
-8.462764284520542
-6.403147215124573
-2.2291306494623138
0.5108699993526274
0.7800184590726525
-0.11518807384932649
-0.6332793786754651
-1.6750979707373608
-3.7905737707040883
-6.1379259789286085
-6.264751529689826
-2.9879932920141674
1.2678925770294989
3.969862071823552
4.91389173012617
4.208377566597796
3.789519938354638
4.715547537458236
5.35118005024564
5.850460001023972
4.536548092460045
0.8883419104195865
-0.8958850075449172
0.6145416898067266
2.55249474046116
2.9419130707583445
2.8130085218820056
3.165358399253917
3.6875991964018437
2.0318190468295416
-2.768357340115045
-7.4525400916220015
-10.669492833636031
-10.462736502948628
-5.460275858261257
0.04637919475282984
2.342294567189538
1.0852388988437884
-1.5929652618942431
-4.433205847722795
-8.020706026352313
-7.800876775849986
-1.5259870639065825
2.976344152959716
2.8873204643451196
4.1730859076347535
7.2670402828741985
8.196545910413551
8.33606711129733
7.516933980433803
2.471872614698057
-3.717096835915089
-5.700609228685221
-3.0724482065670253
0.954134338003151
3.3499094098516466
4.724368370643913
4.679613685898582
1.7112323426742722
-2.122696488784557
-5.651966542056278
-8.769652138175374
-8.898738333725674
-4.144895568078802
0.8800737446645461
3.2063623351808666
5.265968201581366
5.764500126054012
2.6290398021645385
-1.3035514517387143
-3.484222034430981
-2.778430130661682
0.13585260038176247
1.0680410088864152
-1.4497008754662093
-4.380681198087033
-3.4317526554971316
0.9021839675344144
3.199808039142405
0.5117767902855981
-2.3106187961823585
0.36083970437854546
6.856693402914044
12.228222910740461
11.818891888250478
6.492451660187714
2.4078105580347193
2.6359962208861747
4.704454211955119
5.42240906507509
4.778813148652215
4.645787448700456
6.188527544771592
7.588864871722352
6.253043663972435
3.47660396853727
1.9121267639694608
2.3341024254894114
4.132073170806862
6.346619487320125
6.979019366240496
6.011148213803216
4.963046296164353
1.973669099668032
-2.158650476013204
-3.8816195195800267
-2.59669659902029
1.0328806433079785
4.480308812635291
4.968648920999606
4.258114634813373
5.301395888636362
7.125488511825745
6.919634598907208
5.085429167377828
4.270569451593865
5.208251868355665
6.275557479031368
7.316746266688368
8.842473556662855
8.496762456711904
4.918986275149682
0.010171050246007346
-2.392750290175182
-1.5986393434404373
-2.420803260967348
-5.52398599176479
-7.2400918819333855
-6.848210170631693
-4.9765480084848885
-4.253287118178164
-5.595798159416643
-6.6743866238934215
-7.623988692086346
-8.788422293763569
-9.026808258311954
-7.11484560734567
-1.6982881768458373
4.680434226143018
5.220092577353042
-0.7504743932801344
-6.647361119160129
-8.600285202414328
-6.490204572714201
-2.8940859328455733
-1.294310804764014
-1.2146470993425225
-0.6301564094790869
-0.10829034541516364
-1.8274161486977825
-4.621647842181759
-6.850397352497556
-7.919802682731813
-5.18072194968357
-0.0183804503751802
2.4473146692284096
0.9574154220565331
-2.064862697821993
-4.628415172952465
-4.345897381479281
-0.613833092127879
2.5416206647484154
4.722406640864524
7.761100817686018
9.184366884011158
8.173654626075757
6.976694589330549
6.914630556513475
6.846569933644664
6.1341521413436935
3.8992430010498498
-0.2420003375318502
-2.479128591141439
-0.251632706423133
2.934671054521877
3.82034859140011
3.5906241069198046
2.1438712124975896
-1.107205173686741
-4.423032248697526
-4.41005219754853
-1.4601556901428618
0.31217087535507776
0.28053978176827543
0.5906139992322758
2.0075270377670464
3.17212809475119
2.302211978579797
0.019735460408124475
-0.3518240446393419
0.7212052655647927
0.5528985787054286
-0.5578367288782412
-2.889667625290785
-5.76599682926081
-6.895815788392097
-6.865442989053278
-6.474837227021933
-4.88450799292514
-3.0276619289437283
-3.433718529597918
-4.4716516114138205
-3.2685336089228376
-0.9184855912612798
0.05485802929834511
0.6565485368320902
2.883398403344522
5.396482365941124
6.921181106688929
5.452117979223735
1.5833751271634944
-2.25398154452454
-6.7188988010949675
-10.266694275058027
-7.70427992910451
1.1275184083139287
10.814893461229985
17.029920265818
17.636157645815473
13.86082633933234
7.602493474609041
0.7826735216796156
-3.309263739459353
-3.4821317653603603
-0.9619266905852044
2.656998308982889
4.85271336765506
3.129838877624945
-0.36128094985669523
-2.3351537208773694
-3.7063511539473866
-3.7743457083029304
1.255668442113948
9.354057428855489
15.209131319397205
16.70785298443291
13.155539743965102
5.492469656138877
-0.9687523571843489
0.05674813515474968
4.621243730526799
5.252244926282401
2.0123453886368567
-2.125365805449473
-4.339611814088623
-4.033983914107361
-3.104923902510446
-2.366683760226286
-1.798555128497511
-1.226597906845933
0.41198320760649554
1.4723962345898065
-0.0720241659255805
-2.0465294445651274
-2.68633441457606
-2.2649451202544
-0.2690908259205593
4.37727681733447
9.678320651229289
13.026249123390304
13.558251144902329
9.86886179231105
3.9339586640487916
-0.29512481082759867
-1.5878058692345716
-0.9870691159692944
1.966641968826698
7.872819514942091
12.24881665831714
11.084572687143408
5.698347714478449
-1.3278752795882
-7.404751987185993
-10.937134461709892
-11.575527462403485
-9.822003526949361
-8.58175372574862
-6.424441849423036
-0.7200176088572428
2.524951669276052
-0.9764170239057973
-6.107500640699218
-9.466848157553091
-11.92563022724047
-11.16280002168272
-6.769646463122054
-1.820908508733112
2.2561514528809776
5.397018785066708
7.185586622572721
4.247572191890162
-1.7324433005366309
-5.396255941567415
-6.153836021240125
-4.437689644558707
-1.4216186919526133
-0.39338641893172865
-2.9134605530128552
-4.4473824710906324
-1.897196815769548
2.0549562734473246
4.7806245247631445
5.687138287377098
6.2397846310510205
7.531604035940027
8.367651119219829
6.586143573606048
1.2436233804210262
-3.0484628844132446
-2.1962573619038888
1.4476654856062396
5.652101442950281
7.584818993918866
6.071495943642582
4.142240392274512
2.197919140729527
0.7686064578290366
1.9771204982449282
4.518175824690919
7.605776194132883
10.458536224751484
10.887194654647596
8.773232698674184
7.41293974092622
9.606049171335782
11.420232084383882
8.757849273367526
4.354219712416737
0.5661326449293901
-3.826361901565156
-8.057326435191998
-11.822232427970048
-14.820207739845795
-15.004628033586737
-10.648842377782056
-4.049538449598772
1.1570633922856548
7.657905063257074
14.929178271274983
17.226580798877876
16.144907322675557
15.100218524738006
12.828961533010855
9.591584862671581
5.805617092159547
2.7428006970185
2.214883414358526
2.2547937063110357
1.088122581517843
-1.4748141165734496
-6.636041003820156
-12.321276587346418
-14.969103187872404
-14.002327906364807
-10.01579140627302
-6.945582859926341
-6.609558874659466
-5.943598723505134
-3.806559407371943
-1.9049606357334252
-0.5811296917814525
0.9230331212772003
1.6337030415673874
1.3549955290506437
0.1824489763968946
-1.7325408791331647
-2.3329628233511106
-0.25347064370709355
3.6185723518704647
7.042634798358048
8.259739206481198
8.575570309836822
8.490235990631573
7.255472707168454
5.578902552844304
3.9319312727548454
3.1634747497574005
1.8475837476661243
-0.20060005713263024
-1.810650067158699
-4.091300797918141
-8.095217988878112
-12.738641219655028
-14.351173942896716
-11.383669657612847
-5.634315304301766
0.8629776591683777
6.404702424899943
8.79351720062567
8.231367044597798
5.526006420847688
1.5178887457527377
-0.9266638183835063
0.8264123320362176
5.0780635855271115
7.974584315625879
10.659191816253319
13.000251462471011
11.478566365992721
7.616592506799031
3.26327326421286
-1.2312912425816325
-2.767962609395435
-1.5906443806738633
-0.8864026981495419
-1.375133007852249
-2.2562807838627164
-5.139606241147326
-10.201750778009233
-13.373369618246945
-12.682420754141326
-9.672667805145469
-5.071337018316125
-0.408709643037046
0.5146337545490969
-0.9356947295979262
-1.9421996779915938
-2.040975353966362
-0.08243933435026612
3.6088521110957004
7.7146353993834955
10.679086133973964
9.847083927615346
5.423739488732902
2.991787057788674
2.473262556047827
-1.1930815678802902
-6.44118348218578
-9.422273023994277
-9.24971235073306
-6.603030560326403
-3.4928452508824632
-0.08328555107451593
4.024697213758495
7.355161422757699
9.304029063152726
10.189854800319141
13.35331181568427
15.905595327697359
14.19850258821119
8.760857769648249
2.8943204286171245
3.207529719044429
3.258251295909698
-0.3293970872845585
-5.452620533097961
-9.220849322350867
-5.982103925422616
0.4017743309369507
3.608429298706441
3.756589593876452
6.94466714101765
12.591918588798459
16.54666378307528
15.453278686086659
10.616864964676338
10.086604161797743
12.265310170749299
13.832474581746895
15.097160741275399
10.855545393463881
2.2128976997762138
-2.7856729899249326
-4.4723460617697635
-6.545057519872165
-8.551857318041039
-9.79169319380691
-8.963187469563799
-4.945152558417302
-3.9836166116969083
-9.731922957433142
-13.62944874835599
-13.525707663940294
-15.424897468618193
-17.253468468007988
-15.607997421352144
-12.711911673406213
-12.25797672398299
-15.528280316621599
-18.376600953758974
-19.60777820115331
-21.798486709536313
-21.534315727953707
-17.140046818544295
-11.214611920573606
-4.74393246621491
1.2155818494391268
4.448477760996793
1.6481018244180454
-3.379566648529894
-2.106370056615068
3.5786810082674365
6.263498870849812
5.301405328016049
2.5485845198247925
0.00662985146598389
0.4769310595135061
1.1025193392720969
-0.7174067807324639
-3.478703818774414
-8.44988361827199
-13.004386484320241
-13.308820283111165
-13.80974090860184
-16.625270383824148
-17.2844034149476
-15.973155101193404
-15.973567808111051
-15.027995656846803
-11.247986282146389
-7.233437346885108
-3.62734552073255
0.6647199798558696
3.33093390493063
4.791693601026602
7.507436636331929
10.185439503606263
12.212547714733583
12.77749169127083
10.709362861616569
7.087622075563802
5.300928052667164
5.972706128844115
5.9294161534917995
3.5038259051750833
-0.8745920223662031
-2.512790937687726
-0.23568585561312805
0.15243912639460505
-3.9083500412226293
-10.323516812744506
-15.583742668293338
-16.326276477666724
-10.26854311367101
-0.42383462240155323
6.418445534926497
7.573905243376286
5.873704031716443
3.250170519859541
1.2776728683881327
1.9593006978857646
2.4439433934633903
4.405507296944564
11.022102209438728
19.65865422890379
26.148336757769478
26.194474789663214
21.23849235038701
16.934553064103593
18.558271241329752
22.134265174492818
21.675184471556186
22.798778409786085
25.906324455882142
25.265582601309088
20.638275174973884
14.94601203741472
11.281830721410277
8.96503704604948
8.38045114280362
11.223651085109294
13.245621828833352
10.375028074707277
5.020644812978893
1.0224311556601922
-2.5731990039589294
-6.449458927161814
-6.03204849626474
-2.2171405277264524
-0.10977431348829043
0.22620007992065652
-1.5361663351895734
-4.704107061085103
-5.320962644047598
-3.4655095260587863
-1.835318765676787
-1.1748282466463942
-1.7799842051583088
-2.7144036160186222
-4.6330400808971355
-8.898724202034007
-14.074907718835561
-17.856410715087144
-18.69012622639975
-18.40829566503318
-17.86564660980528
-14.774374929390198
-11.416686160518235
-10.19104129497407
-9.011794013466282
-9.069071405485541
-11.947842028271172
-16.98451295141249
-21.972526037858973
-25.79413970543899
-28.659053971331666
-27.344675825980264
-20.210745663838782
-12.694529015408843
-11.005328912215528
-13.028046661587366
-17.242307564387726
-21.807736874784904
-20.861718673059585
-14.32468428293655
-6.101512471501873
-1.170534719224889
-0.1737630302922515
-0.8136571169533783
-1.8711087436628937
-0.3286722024619197
1.5405411573462797
0.23269917992030256
-0.4832761388784324
2.0389462477183926
4.94104693827589
2.973842857799112
-2.803854909155558
-6.641022937033636
-9.385039826582917
-11.801163153571233
-12.529537515357772
-11.432636490147855
-8.791146434374067
-6.076943184891779
-2.9792738589344263
0.8045220573406171
4.929840237662766
8.880264945966065
11.551158342456588
14.229067238075537
16.872804026109844
17.66461501950042
18.08358666626756
18.576066358919206
17.03949232599032
12.03230401015349
4.85729328235566
-0.22539603872265151
-1.2185173782163619
-1.1236716574671244
-1.4893363106842068
0.13868815798758846
3.1109615765247747
4.5295618936542645
2.5006168184034188
-4.345165833954503
-14.214175099131932
-20.66979889738099
-20.86609615317625
-16.783840397418885
-9.73124816044767
-5.321721950861171
-4.900833688043771
-4.186478464600685
-3.7438647256356794
-4.467093706088435
-7.997667294295515
-13.070620518140506
-13.285089132051692
-7.769931954778409
-2.1496764928677496
-1.1008657093693608
-2.278467793247569
-3.9420077797583324
-7.83274919449253
-12.121264799025846
-16.133123662134757
-17.832384976486907
-14.633688146739335
-9.221787621170053
-4.557481076572939
-2.16474050216182
-1.109320160095804
0.099532295911649
0.11761507420862137
-1.7879494007265277
-4.545489567851676
-5.036106371657025
-1.8255368279928252
1.717133065540868
5.162664949078086
8.309829701518186
10.118493358024736
13.975735051159482
19.296704930990906
21.896120745113002
21.942078525837246
19.982262008234148
15.956942284388509
13.81700112404351
14.601860496466157
15.58002730799757
15.41642057137209
15.18341306836268
17.57913987640093
20.73513371011537
23.36265826394254
24.85958633614604
23.12645520316006
20.174373071556868
16.911943274896835
13.378204608838823
13.623663037299904
17.331031452157507
19.089555096759184
17.053476577124492
10.9654195659935
2.907390071342566
-3.232701790852139
-5.364691646222634
-5.008094758899955
-4.015842080249382
-3.1223206009897737
-4.056824894645019
-5.054035227957573
-6.509507449641252
-9.179391393740355
-11.12810850126459
-12.230137241660755
-12.3391848113025
-11.10369783272807
-8.5539152851174
-6.308504846495928
-4.838967720064869
-2.6794206586074094
-1.3634064768099499
-1.7062240651644633
-2.6821924160070996
-6.11272654478728
-11.28430401372768
-15.382256740855356
-15.480404806079797
-11.811126876010812
-8.480674744735383
-6.650749020983899
-6.7103865961359
-7.7578582384865395
-7.5692192537696705
-7.83174968779192
-9.239739294579637
-8.25782496635054
-4.889517392651711
-1.4797295583307601
1.312291909973794
3.9707066112333176
4.8833767994191914
2.5201471360684597
0.20820502350213546
0.25071235476517867
0.8784503343930894
0.9500120182273666
0.8167217784107593
-0.3566784395287268
-3.5096823824692067
-8.185037963332508
-11.690594954602384
-13.734196842343405
-13.995105676707926
-11.43517468600094
-7.954791805841532
-4.9483626203863595
-2.938011236683657
-1.8639458380606573
-2.6342663275760057
-2.7340292572805973
-0.2756033186150377
0.8532336724222533
-0.18467562734276882
0.1542792835490396
1.8930956301949
2.4169757913793743
3.1270101436282447
5.384230084384555
7.097815086419819
6.588174226715719
3.544188601619634
-0.5343548022987505
-2.5327549698736793
-3.3033710331999204
-4.043733326938185
-3.365847201490221
-3.537316145737817
-4.9594614432665916
-5.579318236188699
-6.028524482500093
-6.358927457603929
-6.757524057013675
-6.370669052485964
-4.671899676052012
-2.9380050140258396
-2.2974346289444436
-4.3861265353107655
-8.720020711744821
-13.358962398517466
-17.62535890884136
-21.344573489012536
-21.57291552016955
-17.413948139016316
-14.67572481189539
-14.829370731630949
-13.495146232556852
-9.21486179711435
-2.5472667018757567
3.6633865225752875
7.434592285894566
8.991479532469938
7.65262924145729
4.0960473353967926
0.219081637745629
-1.2488873563064298
-1.6649364571995895
-1.8513171878621673
0.5777209546668097
3.416046048572542
5.1091775299484405
5.112634581076954
3.768190486599466
3.0845657961630595
3.267948350414151
5.302996347236344
8.679353915758185
13.038151532612439
18.27037694696485
21.08049531802496
20.417901142342508
18.75044045072678
18.09806694914127
18.135797844729538
17.352336455281694
14.089858832729048
8.675539748674232
3.4936633421165615
1.1307408412613573
2.0462215094629728
3.727562200333133
2.527437224730596
-2.0128785613426574
-6.266666372635243
-8.025618681411395
-8.13494111846478
-8.103344620781966
-6.691629138844641
-3.9249156788791653
-0.9589318473962469
1.4292404590941163
1.2796445410898023
-2.1255819536797573
-5.360604031170632
-4.778401929600371
-3.2852451191243803
-3.613471551370705
-6.518396495025667
-10.07733321641297
-12.381325156421148
-14.008873834715672
-13.154420248467433
-11.747280478802494
-11.571037375068313
-11.47485065181792
-12.915364323358705
-15.3550774244655
-15.782886594258336
-14.279631677634645
-12.760996438273471
-11.501108211545874
-9.418444379456563
-6.992416167550015
-5.341762044179886
-3.4648060715741864
-1.2217648654080637
1.4390727083122237
4.2547444904126
6.213058386446481
7.770140769343411
9.503792106071868
10.140680290196412
9.043413899640061
7.348808874255783
