AAD_Filtered_TADAS_FILE
AAD_BASELINE_CORRECTION: BASELINE REMOVED
AAD_FILTER_TYPE: BUTTERWORTH
AAD_FILTER_ORDER: 1
AAD_LOW_CUT_FREQUENCY_HZ: 0.025
AAD_HIGH_CUT_FREQUENCY_HZ: 40.0
EVENT_NAME: 202302061024
EVENT_ID: 13207
EVENT_DATE_YYYYMMDD: 2023/02/06
EVENT_TIME_HHMMSS: 10:24:47.00000
EVENT_LATITUDE_DEGREE: 38.089
EVENT_LONGITUDE_DEGREE: 37.239
EVENT_DEPTH_KM: 7.0
HYPOCENTER_REFERENCE: AFAD
MAGNITUDE_W: 7.6
MAGNITUDE_W_REFERENCE: AFAD
MAGNITUDE_L: 
MAGNITUDE_L_REFERENCE: 
FOCAL_MECHANISM: 
NETWORK: TK
STATION_CODE: 3135
STATION_NAME: 
STATION_LATITUDE_DEGREE: 36.40886
STATION_LONGITUDE_DEGREE: 35.8831
STATION_ELEVATION_M: 3.0
LOCATION: Kahramanmaras_Elbistan_Turkiye
SENSOR_DEPTH_M: 
VS30_M/S: 460
SITE_CLASSIFICATION_EC8: B
MORPHOLOGIC_CLASSIFICATION: 
EPICENTRAL_DISTANCE_KM: 222.04
EARTHQUAKE_BACKAZIMUTH_DEGREE: 
DATE_TIME_FIRST_SAMPLE_YYYYMMDD_HHMMSS: 2023/02/06 10:25:05.2794490
DATE_TIME_FIRST_SAMPLE_PRECISION: millisecond
SAMPLING_INTERVAL_S: 0.01
NDATA: 14501
DURATION_S: 
STREAM: HNN
UNITS: cm/s^2
INSTRUMENT: sensor = GMS+/GEOSIG | digitizer = 
INSTRUMENT_ANALOG/DIGITAL: 
INSTRUMENTAL_FREQUENCY_HZ: 
INSTRUMENTAL_DAMPING: 
FULL_SCALE_G: 
N_BIT_DIGITAL_CONVERTER: 
PGA_CM/S^2: 18.147
TIME_PGA_S: 
BASELINE_CORRECTION: BASELINE REMOVED
FILTER_TYPE: BUTTERWORTH
FILTER_ORDER: 
LOW_CUT_FREQUENCY_HZ: 
HIGH_CUT_FREQUENCY_HZ: 
LATE/NORMAL_TRIGGERED: 
DATABASE_VERSION: 
HEADER_FORMAT: DYNA 1.2
DATA_TYPE: Acceleration
PROCESSING: Automatic Paolucci et al., 2011
DATA_TIMESTAMP_YYYYMMDD_HHMMSS: 
DATA_LICENSE: U (unknown license)
DATA_CITATION: Turkish Accelerometric Archive v 1.0 - Disaster And Emergency Management Presidency, Earthquake Department
DATA_CREATOR: AFAD
ORIGINAL_DATA_MEDIATOR_CITATION: : AFAD - Disaster And Emergency Management Presidency
ORIGINAL_DATA_MEDIATOR: AFAD PROCESS SERVICE
ORIGINAL_DATA_CREATOR_CITATION: AFAD PROCESS SERVICE
ORIGINAL_DATA_CREATOR: network: TK
USER1: GuestUser
USER2: 
USER3: 
USER4: 
[...]
-11.250472148337543
-11.539472747360465
-11.610633469749741
-11.453046936213138
-11.320854561936988
-11.440965186074017
-11.936233689071225
-12.614565968686088
-13.299690167307075
-13.935258837860328
-14.448354479131456
-14.718033715690273
-14.537163435496582
-14.101100166619583
-13.621267755089637
-12.990253190775556
-12.33651302896644
-11.620444030604977
-10.638773032085
-9.591313079498859
-8.535901786801023
-7.20175472194987
-5.589690227088247
-3.9385990863079416
-2.6106565305713816
-1.8339470529097837
-1.2444928857581263
-0.5073277612646959
0.3859400336317088
1.3440694357104672
2.1478157608481445
2.8675005553037427
3.6774069623789223
4.558052792277387
5.413177445872959
6.083515085305215
6.405969962080481
6.340867759615089
6.127377706245424
5.839964624294543
5.591020698447616
5.443212031180086
5.109716020510581
4.680794197935737
4.249689568556358
4.032130648363496
4.059174622800131
3.7458443894959763
3.2009605222024176
2.815484796593722
2.475059618251318
2.067858432126147
1.6275914603978794
1.0409895406384773
0.43105138436909485
0.08287165727707327
-0.008469526494226425
0.0656549876304819
0.00451518776673052
0.12065930475361814
0.5552887795199768
0.5690762779276031
0.5082329284409046
0.778604770083742
0.9096822835494023
1.1067793836235635
1.6652316852649416
2.3276019453076993
2.9549544513260577
3.332743726802441
3.186829694284513
2.7709188963921303
2.134736846207879
1.1175396621474496
0.3505915957788252
-0.1814756958014507
-0.9571259331563048
-1.6723133460737971
-2.161249190588027
-2.251518068487016
-2.3566055167986493
-2.919057037923266
-3.431767057096854
-3.7555759843493024
-3.882737963444424
-3.83098153448049
-3.6395229468634227
-3.3569362797600566
-3.488739026880946
-3.8646536035878167
-3.9997398598244116
-4.093566721228194
-4.215402365804236
-4.4849390345145475
-4.9318737383489255
-5.144699936933141
-5.4141587936247255
-5.991773829311514
-6.693849443188503
-7.363493785157617
-7.417916378240009
-7.0244542538704655
-6.594395445532191
-6.1267539506634625
-6.052784821912859
-5.801914051686122
-5.194475393670596
-5.294910015473292
-5.629200903981908
-5.663710783491569
-5.463225687634413
-5.1997164751102884
-5.296288628549435
-5.014366266249645
-4.715157096803472
-5.067721843835589
-5.349572767430073
-5.6479062566795095
-6.050008780733371
-6.562581524481455
-6.911564762715203
-6.539775510125395
-6.157840285908143
-6.240849384100453
-6.5161216204001375
-6.8567692313862585
-6.870442067046557
-6.040513556808217
-4.577236465768557
-3.3352716780191
-2.770775093377775
-3.029498082297599
-3.5247638656604137
-2.5732629468294648
-0.7205616274913383
-0.13603253904171955
-0.1380542647196929
0.46014643386469345
1.305013380371049
2.2943964839642605
3.2657438918821526
4.180673944400821
4.963810087960915
5.226659590997608
5.073969436363449
4.899403656118179
4.844140014945321
4.656038241590059
4.222244240248888
3.4955133778731438
2.7511659521261334
2.898071980022098
4.045231123497936
5.445935106891687
6.663830508370817
7.461982104209431
7.774561520739562
7.887775193052525
7.391841794907239
5.673473014570273
3.5012301849832044
2.1921344667637848
1.6208487138863263
0.7658434858403945
0.06674685706178175
0.13312952110153617
0.6163519581194962
0.8368795439615688
0.25566972909563057
-0.46134443343703746
-1.057045824918086
-1.8115829565594388
-2.501975611669035
-3.1206814493711463
-4.164286867809781
-5.422161248547607
-5.371321790725303
-4.520344000431457
-4.295377781001349
-4.554360307050651
-4.937527992026909
-4.258739372014411
-2.8078609651163755
-2.4311867216787117
-2.8099434995335955
-3.063056757251898
-3.543853393870151
-4.514142473056443
-5.0729324936690405
-4.636622081066074
-3.814124403182497
-3.1956476928504243
-3.3518883336234384
-3.617339072214429
-3.268405946763449
-3.1911981951071327
-3.2283549820734305
-3.2468438614176756
-3.9917074259828746
-4.912663193768296
-5.096868980278066
-4.287678294273297
-3.3830850228192753
-3.7698104397644743
-4.812286500942414
-5.09089721731129
-4.796241784951813
-4.717984180371343
-5.228372576575477
-6.0583369606930395
-6.4279571014690395
-6.478854395285327
-6.710327089633116
-6.7426379229163285
-6.561286219934394
-6.281524125931283
-6.290727150123053
-6.809928956503517
-7.125955230012477
-7.650947185558935
-8.181874578287458
-7.714155953729421
-6.572536069291101
-5.510834352948024
-4.990386877646082
-3.7713349669406626
-1.4213347627782573
0.39969388610011836
1.3946399795439683
1.8243163696496445
1.9453803403414174
2.4938803773694604
3.3834989826217208
3.9952589800659166
4.120270928745419
3.7695179355324355
2.759260325891766
1.6384808534306514
1.4094811210567897
1.590809533864756
0.9932632889530191
-0.19977836114394656
-1.4815769982272375
-2.998522588687287
-4.185776990204579
-4.538218463643272
-4.5178825869956745
-4.218686010879025
-4.40822687373993
-6.094163460146976
-7.616063670328609
-7.524311626688675
-7.031920671506231
-7.713333875689043
-8.69496255226297
-7.730162365900809
-5.447017406819583
-2.9000075996804893
-1.3960863109842574
-1.5270289430349195
-0.05233130245826309
2.2746467679020936
3.480448975329785
4.384973705609593
3.358171488568191
1.0740681634030977
-0.46511546343900906
-1.570258346745195
-1.673617989470264
-1.0047639891484395
-0.9935303338759867
-1.2715592492635215
-0.8994519682908081
-1.0467457134942952
-3.0591705456264315
-5.95483434272312
-7.037627594587137
-5.183770160352451
-4.1144988025662315
-6.371726945542024
-8.943815159545775
-10.255197587854505
-10.467233843523308
-8.383057088908416
-5.074071699981802
-3.9152626736902616
-5.869143981510746
-8.47677424212595
-8.88948348701357
-5.443413324149374
-0.40731651656944545
0.9523130045364109
-1.6652182631438135
-3.9041763002347984
-4.070827381115581
-3.2579087768150345
-2.5939482804474845
-3.5114591320656214
-6.256705479250612
-8.654562681579364
-8.855917375620946
-7.9542483171011895
-7.423628698008174
-7.267318861372571
-7.712409832459733
-8.675300567224918
-10.526644284591454
-11.882015035868628
-10.510536789547352
-9.564424661787115
-10.242500431493006
-9.266557608083986
-6.843187986701216
-5.58367569390263
-7.270142607309179
-10.189526327616514
-10.72491853909894
-8.202951212546282
-6.134317809643549
-7.51598081995287
-9.206094911368467
-8.902571329325635
-8.268905095090645
-8.870319424064283
-10.15949310522277
-8.534993653100287
-5.0827977243398115
-2.8590028188212635
-1.5366373987588113
-2.2381570521886696
-3.837576063442362
-4.075877750050175
-3.494939600519771
-1.8979460169609188
-0.20679177067844734
-1.0404219548605178
-2.6354527864338557
-1.2596309518752633
1.9438091639295862
4.3656220282203275
4.820715076551537
3.7868995816820736
2.7403236251504124
1.709379140853758
1.672000365671304
3.544733414408836
7.022713986794899
9.590891684314151
7.751179594457741
4.300230756113867
3.4449483661207
5.6424173018479715
9.085676319737257
9.591281115461936
6.182969929895343
3.3441550373831044
4.522833630855892
7.735624980724059
10.080370760213723
10.640267716956707
7.574920304977455
1.6587586016145544
-0.5913308347901524
4.182084984787472
11.07143387332026
14.69374515385226
13.34746238746275
8.610130620727858
5.590081949616147
7.253153534926043
9.886910460138777
11.009772417011694
12.195892367618109
12.299565293505054
11.653821968701967
12.650966546056926
14.414200465637048
15.144727818857744
13.402850762361702
10.88547340419926
10.25048342484185
10.360448527458752
11.13682396266671
12.92147554160289
13.576659630395842
12.28788577952878
10.437761470249736
9.261717604123714
9.074691899871643
9.583689901699628
8.765887899753544
7.654873192442891
9.67282932211562
11.271590933543147
10.165601543527792
9.143745062895958
7.054045112106604
5.038369282928196
5.955690619501525
7.05101642107261
6.421284191948869
5.2043166286657785
5.651197879170002
7.6271878036934595
7.192277322063636
3.968747352622639
0.5472617048542155
-0.13502349525833285
3.6194027663697224
7.358618489819935
6.163266388558465
0.9900150314652875
-4.3793717968841435
-6.7352806864287444
-5.792393572724788
-3.6241757716823795
-1.4176530235958682
0.2731475432929607
0.9674388982074773
1.4485495348037165
2.5398949752971895
3.646125213089841
3.955290219354024
2.3150996023159496
-1.8851200418806637
-5.807854603282782
-7.2347229279608225
-6.576377835476426
-3.1657396395509485
1.7264270498063152
3.5439088458455834
1.8504698310725969
0.3976119166464504
-0.14744878827261457
-0.3266084868342278
-0.6588927607899107
-3.0248920434698685
-6.076269631345157
-6.731803232208028
-5.739983434882067
-6.468588261573707
-9.125764961990631
-10.037039333434535
-7.631797089354404
-4.375397597375373
-2.5754826820038286
-1.9177795867521865
-2.7561194121703014
-5.624532958020746
-8.116040690228221
-9.232301655765955
-9.936289243041758
-9.676771026068629
-7.4059553127118
-3.6638007194012725
-0.49828972774011393
1.4540619284115668
2.3199680179835327
2.092622874358148
2.085942132565445
1.9786219928813733
0.8061034730259709
0.5393591803398685
1.6103289681922737
2.6244955884679073
2.8228218594149177
0.8643111848457414
-1.5786227994615725
-2.217224452535263
-1.2029809466353845
1.0806977240966318
2.938146685353159
3.1902602793095425
1.2652454594882319
-1.8835984712448666
-3.9643118531483035
-4.604924014632466
-3.8459643325951656
-3.0385464921479652
-2.5555056997247845
-1.091017117486526
0.6791291502137287
1.989470089285061
1.9818649270735433
1.2735458081634385
1.8041669559410791
2.630451827127177
2.9685897637490974
2.7696440811820446
1.0185774235442944
-1.1965378676794616
-2.1707582788710917
-1.4820574072654937
-0.46444899558884495
-1.0969970674487006
-1.4218228063444909
0.2944532378859606
2.0067482207095875
1.652248863514873
-0.681479815764559
-3.0222222774473995
-5.089533947692294
-7.289035608131168
-9.44215975358552
-11.803235123233359
-12.877158770470208
-12.07789422152827
-10.780253032985732
-9.058256805691968
-6.637012661566204
-4.282806121312551
-3.2130477685227254
-3.4220045724720882
-2.642401204418021
0.35083720586292744
3.131768166653836
2.940054256754234
-0.41470431635874894
-4.456788402745885
-5.7287854596488
-3.6123274465202724
-0.18509148097610773
2.3824803180826284
2.916278133984655
1.8804587306909282
0.11701133233829111
-1.235199335491859
-1.6913969589046964
-2.026316519581731
-1.6330878421415034
-0.4948410701705148
0.6374463986724549
1.9912901791137991
2.2564395998771083
0.8705322465614326
-1.0408753303824192
-3.1143156882782637
-3.327624896505689
-0.42484218060781903
3.0485531424934793
5.602032696609215
6.551139139188567
4.295062341949716
-0.19268100081471173
-4.185995365096025
-6.300286603293545
-6.325974713963491
-4.537803815771532
-2.045324519899178
-0.021548547594422495
0.6653667175208254
-0.3975263718473874
-2.1045785754900286
-3.0473828581482896
-3.1394685210178084
-3.43549710208247
-4.119495661989321
-4.437836026981187
-4.9398050343098765
-6.128589618729221
-6.814415456342438
-6.945766283999697
-7.221426588870805
-5.620643633209319
-1.7869025620941148
1.3179847379661465
1.944324635647831
0.1485866399380799
-2.798252726134722
-5.8116591061618905
-7.735624084230776
-8.275761982446625
-8.394660782820807
-7.993129346568909
-7.387747818260943
-6.222856470770506
-3.9070970415535022
-1.7670948074578317
-0.6676464990626728
-0.7786058161050968
-1.3192734610036219
-0.45669180139825977
1.211870950067278
1.632121817752967
0.7562320369215823
-1.0292549841822634
-2.2513504595603755
-1.97698740454312
-1.9852185713907387
-2.092288126001329
-2.1408080040718485
-2.781711627513175
-2.840836005697548
-2.4908992842500823
-2.9895418495336727
-4.8233877831647805
-6.86930868372356
-7.326360041444054
-6.645478002512771
-6.303695875782833
-6.217808952977627
-5.292905170138228
-3.5048706611199125
-1.8700247118543603
-0.7750151945899336
0.3997137927559251
1.5383674453828011
1.4635696346367857
0.17188918230444558
-1.806352213577748
-3.3968673619573937
-2.842696525499022
-0.7814161732087734
0.8878873148974461
0.9822988768807946
-0.5933601966414983
-2.3080100714804948
-2.9868539853773757
-2.229331521464584
-0.20806238749832445
1.8205680361580452
2.9158346067699434
3.277372494090529
3.6933756637849737
4.7954655025647694
6.395419245634289
7.515033549429115
7.598574579149583
7.023980553020267
6.672184562388288
6.965796651909312
6.76689316619729
5.1139006267300555
3.1064610731906677
2.805657220020357
4.587868827376315
7.172845189398031
10.008070078214287
12.484576377212953
14.135036836649133
15.07307615887905
14.653620431371019
13.373496516867792
12.197471646494595
11.013421925667652
10.743633761824727
11.627381929370662
12.648161905135805
14.249887496858516
16.14097256440117
16.55492724392458
14.678756674606625
11.779724465117438
10.634081080792503
11.544193383305434
12.74280078398271
13.431336320971434
13.790218015745038
15.012241904902513
16.716066198733493
17.72959429326573
18.26530846813133
17.785621682382
16.321404854120747
14.327184755638768
11.663007800086518
10.168769352178158
11.254123261101993
13.408828855218301
14.804581105496917
14.706318197349663
14.022565399833352
13.54667521632577
12.051976041705963
9.918399541169318
8.809949173884473
7.858591089844277
5.811131929136863
3.148168876631716
1.4777557876082985
1.8141271763155444
2.6705961759470833
2.7759993149704236
2.6386534568489197
2.460494775009626
3.0310185144056527
4.185808039819288
3.622564772884538
1.6058502191322885
-0.27688534180493474
-2.112196210454579
-2.023406429809344
0.24927941356919558
1.1718453486466187
1.2273992709364112
1.491938410658465
1.0170958439632982
1.2291540812680675
1.7350420780555391
1.324790424509911
0.9031246695510684
0.5848597231087512
0.6607128361852147
1.440200659772654
1.6580088511158175
1.148541460418172
1.1004537239577763
1.3323756623053054
1.7109442523593525
2.8179598741412137
4.263936697292726
5.691251831261363
6.594082566235969
6.072340780977615
4.759944134252671
3.9546208472335187
4.083055909166183
4.677802662301761
5.026362477495324
5.153465983400391
5.133273758576681
5.360065156019359
6.265030532036945
6.793388536160537
6.829375919936728
7.880204105057312
9.753435339744298
10.93557412832407
10.966476967754124
10.587207761189722
10.416249082729747
9.862121988950022
8.765489668345268
8.248101041414333
8.662943450970763
9.277919843795472
9.44638588344219
9.091873349170669
8.13929874127035
6.4305640555641785
5.146270876623667
5.590499082035003
7.262523382841908
9.271379966456232
10.677437493022051
10.61467435171859
9.310468164493438
6.996975492064878
4.638912916031273
3.9573085224726943
4.648050032151674
5.231772696360286
4.651388702500797
2.7142331374530233
0.6251986261243262
-0.5387377981721946
-0.4296763909638799
0.8365148984275298
2.5573568946539007
4.307621833541408
5.823443369371603
6.486389786883754
5.972858885446362
4.469012649371918
2.1299945296668072
-0.5775901105218116
-2.6154024768998343
-3.273188055134105
-2.8581961710623274
-2.1068528658994925
-1.3271114283993695
-0.889891206732638
-1.0605184913741605
-1.5111956797634198
-1.9369306045473953
-2.305763174062657
-3.0696431527532457
-4.7519556019485645
-6.982672765564339
-8.936663442483747
-10.17756740830151
-10.615288825097416
-10.236612604309721
-8.87639941046474
-7.337684173156742
-7.077424555082233
-7.751968077020293
-8.690164585768672
-10.06536516650555
-11.149239640247181
-11.18212161666202
-10.342778448886815
-9.345896539727805
-8.993235959194385
-9.138490180506215
-9.276678810480185
-9.33662375932595
-9.263597567608938
-9.07399104682517
-8.464078815710955
-7.368886691212178
-6.451165539700736
-5.749263026395027
-4.899889884856532
-4.0207401067906545
-3.284409805329517
-2.602790545982667
-1.996654740899453
-1.7424996370411585
-1.8144834301968797
-2.2704313365441395
-3.3102515957618635
-4.2182113165310815
-4.417915954319439
-4.2991906629216565
-4.026441733989495
-3.6343801006744694
-3.1894963275368764
-2.542893533394679
-1.920855149353492
-1.7413882471387563
-1.9344921896301381
-2.158490606239916
-2.734800700985029
-4.050494574550771
-5.52490709359796
-6.653145791547645
-7.094011575112999
-6.549659321499459
-5.463480076433888
-4.2392488628074485
-3.272302529405015
-2.940367127324563
-2.887811348341924
-2.9413585689838477
-3.3859854631802686
-4.237098296946513
-5.135763860971491
-5.708924510091629
-5.850027570784328
-5.7657423701713535
-5.749250999557014
-5.6795123704164086
-5.473216533888097
-5.241433765675014
-4.8005790928535
-4.12733969390764
-3.8374044118815758
-4.407752019428694
-5.174090868646113
-5.571494663198009
-5.78388515636736
-5.676827737142271
-5.096666816564767
-4.152836979081214
-3.2872434191716153
-3.2095850504962686
-4.128039642849108
-5.707095029505482
-7.367335434327746
-8.512307998953204
-8.82877017161206
-8.367669245219622
-7.480938608979997
-6.56215760805277
-5.98377327195977
-6.170811374230651
-7.242716603265144
-8.64896769289026
-9.425526269994437
-9.054482139615576
-7.9541738834565825
-6.9532186323804765
-6.401784959336883
-6.116227135121615
-5.831921167244499
-5.335456408957651
-4.792094287832039
-4.475877190061363
-4.193613341476966
-3.641604521591101
-2.8812742346878966
-2.375440119199783
-2.405211303530502
-2.6733388334697796
-2.7731813964965104
-2.38447379964923
-1.3624469041859557
0.006167829357427768
1.4057193936129169
2.4435322621543745
2.680034111873415
2.35829609141744
1.7780755615564177
1.1108398114498839
0.7639398484333726
0.7722277964941611
1.2313676115797139
2.1274977137798214
2.847870504544858
3.2279928510700873
3.685019916888934
4.537614520492599
5.621218517463489
6.585756477990042
7.393226199263436
8.037265505938793
8.637686154140743
9.371528160836027
10.18292760787784
11.157715242603285
12.189352534509828
12.966659988308045
13.749981657218372
14.809750682738203
15.657455478339005
15.66266930645071
14.959103237922347
14.30414948990602
14.278685518283043
14.893635751244735
15.788851561194688
16.609956396193624
16.96775818173018
16.783045743791295
16.451243394261923
16.1813132310777
16.117444094574136
16.191503431015295
16.04888283111481
15.766581059615886
15.695486326759267
15.95408840326075
16.005424282735788
15.107520333287193
13.2933382595865
11.32987094450667
10.124517063385298
10.06399889274644
10.870370659247728
11.942878200182795
12.784041781016306
13.167553513741183
12.940762748034597
12.176473476234694
11.288801400063974
10.37996272202834
9.102557426607776
7.5720129678455645
