AAD_Filtered_TADAS_FILE
AAD_BASELINE_CORRECTION: BASELINE REMOVED
AAD_FILTER_TYPE: BUTTERWORTH
AAD_FILTER_ORDER: 1
AAD_LOW_CUT_FREQUENCY_HZ: 0.025
AAD_HIGH_CUT_FREQUENCY_HZ: 40.0
EVENT_NAME: 202302061024
EVENT_ID: 13207
EVENT_DATE_YYYYMMDD: 2023/02/06
EVENT_TIME_HHMMSS: 10:24:47.00000
EVENT_LATITUDE_DEGREE: 38.089
EVENT_LONGITUDE_DEGREE: 37.239
EVENT_DEPTH_KM: 7.0
HYPOCENTER_REFERENCE: AFAD
MAGNITUDE_W: 7.6
MAGNITUDE_W_REFERENCE: AFAD
MAGNITUDE_L: 
MAGNITUDE_L_REFERENCE: 
FOCAL_MECHANISM: 
NETWORK: TK
STATION_CODE: 0209
STATION_NAME: 
STATION_LATITUDE_DEGREE: 37.57763
STATION_LONGITUDE_DEGREE: 38.48251
STATION_ELEVATION_M: 613.0
LOCATION: Kahramanmaras_Elbistan_Turkiye
SENSOR_DEPTH_M: 
VS30_M/S: None
SITE_CLASSIFICATION_EC8: unknown
MORPHOLOGIC_CLASSIFICATION: 
EPICENTRAL_DISTANCE_KM: 123.12
EARTHQUAKE_BACKAZIMUTH_DEGREE: 
DATE_TIME_FIRST_SAMPLE_YYYYMMDD_HHMMSS: 2023/02/06 10:24:48.2502460
DATE_TIME_FIRST_SAMPLE_PRECISION: millisecond
SAMPLING_INTERVAL_S: 0.01
NDATA: 12501
DURATION_S: 
STREAM: HNZ
UNITS: cm/s^2
INSTRUMENT: sensor = ACEBOX/SARA | digitizer = 
INSTRUMENT_ANALOG/DIGITAL: 
INSTRUMENTAL_FREQUENCY_HZ: 
INSTRUMENTAL_DAMPING: 
FULL_SCALE_G: 
N_BIT_DIGITAL_CONVERTER: 
PGA_CM/S^2: 15.607
TIME_PGA_S: 
BASELINE_CORRECTION: BASELINE REMOVED
FILTER_TYPE: BUTTERWORTH
FILTER_ORDER: 
LOW_CUT_FREQUENCY_HZ: 
HIGH_CUT_FREQUENCY_HZ: 
LATE/NORMAL_TRIGGERED: 
DATABASE_VERSION: 
HEADER_FORMAT: DYNA 1.2
DATA_TYPE: Acceleration
PROCESSING: Automatic Paolucci et al., 2011
DATA_TIMESTAMP_YYYYMMDD_HHMMSS: 
DATA_LICENSE: U (unknown license)
DATA_CITATION: Turkish Accelerometric Archive v 1.0 - Disaster And Emergency Management Presidency, Earthquake Department
DATA_CREATOR: AFAD
ORIGINAL_DATA_MEDIATOR_CITATION: : AFAD - Disaster And Emergency Management Presidency
ORIGINAL_DATA_MEDIATOR: AFAD PROCESS SERVICE
ORIGINAL_DATA_CREATOR_CITATION: AFAD PROCESS SERVICE
ORIGINAL_DATA_CREATOR: network: TK
USER1: GuestUser
USER2: 
USER3: 
USER4: 
[...]
4.369252490374795
3.3949999271817917
1.617946275051048
0.22584862984552087
-1.3435475796307543
-1.4132318512678206
-0.5322095869878739
-1.1274555581955243
-1.6475463048722339
-1.320424982124879
-1.5432454029555298
-1.8182842816344422
-2.0608258300368756
-3.033343628464394
-4.454460512337421
-5.841057938008445
-6.787656881113814
-7.422850562220647
-7.4472657524689145
-5.463630479635999
-2.5202096620275762
-1.51118684065464
-2.452417305980837
-3.487695648343715
-3.8680032977969145
-3.20428287941472
-1.4556174581969175
-0.4615723165133289
-1.5054203654589782
-2.870255008373602
-3.525652228539714
-4.2233763765420935
-3.833851595537687
-1.6448207721911692
-0.5372725827996033
-1.5034047668513602
-1.1540058326555196
1.5149848830300239
4.246228301569515
6.0551418018005725
6.475234981509672
6.338138800578206
7.134200270017722
6.7290484761573595
4.276775075552475
2.6817784695373215
2.252299830314032
1.9850082257917505
1.9271954205112125
1.7308979027555853
1.7564418965459891
1.6481255769416638
1.1766204625952323
1.8377289706341502
2.488776371496021
1.2968789699732244
-0.5043634965503939
-1.9357370691899627
-2.408382884365401
-1.556560990953485
-0.571399911994704
0.37500790787884486
1.7132618020177561
2.8667104970905912
4.175242969161573
6.110189030039134
7.886348963414956
9.162926153535453
10.190416846107908
11.122238613185184
12.12624910479977
12.258992633758824
10.254376948548497
6.8907599316272234
4.3704672662683866
4.030857368359423
4.885820001403908
5.195462144292572
4.396489433224987
2.1551309124808316
-0.5793616287900584
-1.695734804617346
-1.5551568881793312
-1.4548945882353506
-1.304917563031368
-1.8358792571190663
-3.1159957469435744
-2.9402752024940586
-1.6027217820402773
-1.1651329937641084
-0.0023419124762244893
2.631891652208569
3.3776949388029722
1.4659186754254099
-0.12411845266109536
0.632929825019046
2.7680205451619986
4.112795206810351
4.742310519283877
5.33623348260927
5.076933786765912
4.357893683290458
4.704413572150935
5.947394133364533
6.317837706392313
4.787660716934344
2.2712645107035905
0.5894828253211027
0.548738400834103
1.1860807022082764
1.7029800635778096
2.615667176563228
4.262901626211369
5.315252442524135
3.733057807808115
0.8110982449086851
-0.0964957023865973
0.761710466795889
0.9558603263206376
-0.767159129758809
-3.3791761286457005
-4.392484872427052
-3.981562920519565
-3.272377176997955
-1.869737173001913
-0.8535756882598728
-0.7244607075508561
-0.5004229812319346
-0.20879983732671006
0.8545451352219393
2.5781747511347843
3.0133753700534607
1.59229794853317
-1.140945227359227
-3.5182012938389065
-4.103893278280772
-4.074762421237658
-4.605421821917888
-5.992870604868233
-7.3276953015493485
-7.185238243564906
-7.925043051513006
-11.012864558879134
-12.54115673059483
-11.162870482305525
-10.034881744679844
-9.951102803608647
-9.323453999919954
-8.75678762256938
-10.018080312623093
-12.15064186728638
-13.22968066782164
-13.417747367539349
-13.544059782652491
-13.89104887604111
-13.867881426789015
-12.451890256029913
-10.68154592356307
-10.528585228371323
-11.553073952001089
-12.284964211833262
-12.048705465852859
-10.184786981648156
-7.389904976274039
-6.515998072982915
-8.514261890286756
-10.367663485034118
-9.27270861778976
-5.74400941852661
-2.270459023504738
-0.5737076966989348
0.7352644867645499
3.4059201632832408
5.03284784701248
3.999064966764135
3.715581341876769
5.710334281693764
7.755052815269995
8.773514158795976
8.537764087032885
7.546018402900696
6.940721761222
6.590371256158922
6.70883789513602
7.0688029019616145
5.841433564637049
3.29287462449885
1.7038536581450918
2.2825277022987227
3.4093104672513324
1.8837193008299367
-1.3257511009511118
-2.4777914018737994
-2.229048731318888
-2.6484534992582716
-2.5778978171941627
-2.302934540372995
-4.132863267567996
-6.638448681437889
-7.683343633064797
-8.298169317592787
-8.060353354555224
-6.71949346750216
-6.633673159993193
-7.221836229288939
-6.823608161370082
-6.12680066196983
-4.878981643771445
-3.3988703178301245
-2.9729139985881505
-2.773176171344168
-2.894268984250525
-4.419106106399849
-5.542661517465157
-4.823948501739578
-3.165187569064079
-0.9477897964682667
0.8215541633704828
0.572317960689383
-0.8065159162678406
-1.3819161398745177
-1.0004933364403161
-1.1412949044220244
-2.642277296391854
-4.197470008640452
-4.22405565217043
-3.0493305368917523
-2.0148120526577395
-1.55898697354495
-1.382374269079236
-1.4450974646091845
-2.0044058643512317
-2.6496750854409674
-1.9343367510536238
-0.06098203039601522
0.9844990756952833
0.6339079148975832
-0.6508527646367543
-1.7587078868112764
-1.5542436916961901
-0.6528858733419918
0.7045422885146153
2.3304684062910255
2.3955330426348795
0.9574705329768883
0.500766837799749
1.8731482267530533
3.5904510260013884
4.45357931152158
4.541071822129964
4.355327504905391
4.603118612720345
5.667824993275454
6.957005670153143
7.807674890781341
8.557319261989571
9.634130107513958
10.200430121261887
9.76677396022418
9.439357192213055
9.736386321301355
9.95780974377968
9.895854919992157
9.816269552937975
9.779873441506279
10.207433525967039
11.148569377761195
11.636553487047891
11.446878690435584
10.722831705018873
9.4185580114886
8.399921350092148
7.866938500736622
7.844241011920283
8.903209427748207
9.762645540301163
9.603481073111256
9.658846080474182
10.25746355134701
10.532019240010271
10.178398816913424
10.403413745166429
11.44003276162031
12.088445364819078
12.244988888092038
10.871260116575044
8.221030639446502
7.135292241544647
6.878908408128156
6.155173203450615
5.350750945632227
2.878535918727636
-0.25343893493633557
-1.3359795935446894
-1.6717825045196435
-2.7894834039593097
-3.81692699234578
-3.703319503667454
-2.5898366933178347
-1.8932965728645563
-2.0985898738017794
-2.0701521699392025
-1.6980876100655438
-1.6522504479631657
-1.1634079130921173
-0.36350632926995596
-0.8149133921127393
-1.5286311918020234
-1.0669985632559218
-0.6913553257898096
-1.2057428884355295
-1.6962294650698995
-1.3179181850400572
-0.7118522385798206
-1.286586768019246
-1.9775580984929462
-0.8935230862492684
0.6614893819952461
0.9884150655590836
0.6443619699371631
-0.06498178847490058
-1.056313039718105
-1.3524001969025607
-1.0806412581207707
-0.8242546803196201
-0.516748658620988
-1.0773138786191538
-2.7236698776376898
-4.6625353218792345
-7.107763693025744
-8.851473757505207
-8.463437999156024
-7.065579189624856
-5.454846421143899
-4.648520164965169
-5.308885506204104
-4.765436526701636
-2.830230974937699
-2.8229221842677035
-4.3328114171036125
-4.894929055315636
-3.981309781639685
-2.5809635643157463
-2.2713899452359403
-2.2668334270609654
-1.2822291407378488
-0.5944925932719136
-0.33071924353920656
0.12193049601521902
0.599841366070212
1.6776330032652143
2.208155097072552
1.7978817344720774
2.4332554610988235
2.85244370535455
1.7839415239450185
0.8461970616751632
0.275697802844316
0.17527036965562737
0.44513180520085305
-0.18356815522271178
-1.1655467913253883
-1.6982022332190985
-2.3990166365771115
-3.1355682820918678
-3.292478334054969
-3.6635478604645852
-5.052209098143338
-6.397993935706942
-6.917167716071115
-6.743435553153743
-6.103533373351737
-5.803257935387437
-5.573104736812082
-4.801724826989577
-4.034247048222744
-3.684367528057724
-4.297592649858154
-5.317543755408992
-5.544714003434323
-5.7918333843809435
-6.432758881294593
-6.596624964542852
-6.001237167571055
-4.680802088832384
-3.3848088769350717
-2.7613872779174398
-2.038656714025137
-0.5608307315154439
0.7859055890098996
1.4760945326465662
2.41405616806881
3.1571339558153015
3.123056662001357
4.006432211305038
5.882358115291557
6.657096066019001
6.3069464808215585
6.56811678829122
7.598438011236617
7.917400321449387
7.584427627181828
8.049330155690074
9.370899834311798
10.710249902427638
11.736361018599446
12.709129482373836
13.922037669487418
14.59412761141059
13.53653713224994
11.412613655131699
9.997350457981648
9.445551867575935
9.301006830941054
9.655789712251266
9.93920551916038
10.013298239805355
10.02031558594134
9.323065823019277
8.247959489446659
7.066533577214698
5.350334791169119
4.140462823326764
3.7675536282668656
2.6232057538714137
0.7720662895549559
-0.22095783715211456
-0.11574245737766972
0.2078844036856797
-0.3735296203507501
-1.907260706114641
-3.018316478570689
-3.8054165133964104
-5.4249793541713816
-7.26702378607828
-7.985509341977555
-7.185904678885921
-6.513714756954911
-7.783904248413589
-9.620975756788237
-10.937574000710415
-12.553998354852084
-13.124630704047421
-11.805915408568602
-10.970233017150534
-11.291783387320772
-11.26567010313436
-10.93975553575437
-10.595488645893942
-10.255374889825145
-11.14943461717251
-12.98428880655889
-13.670659780880207
-12.875850804511565
-11.73664335537429
-10.486597197689532
-8.745327719637476
-7.732361055925722
-8.661733863748772
-9.93732517469648
-10.176963710371904
-10.119495606800397
-10.767684227317668
-11.747994568981312
-10.945108443191923
-8.508744271799205
-7.137557860473743
-6.958774121012681
-6.638529553082922
-5.944826316519254
-4.953501732860438
-4.000371747880289
-3.504094410791301
-3.7231153743418206
-4.309697466977495
-4.762815326632912
-5.1663417689829085
-4.918197077507574
-3.3103534248024293
-0.8916069052284059
0.9057055924126269
1.1724948230069303
1.10952734629837
1.1786041246061056
0.20623263516741772
-0.45253503685179186
0.46690463300947427
1.054371824753572
0.6291604671016706
0.6712688212447819
1.4383008131551356
1.7465156645146565
1.0421467668540858
-0.37016227841904126
-2.086050266713319
-2.9432208037201386
-2.3687809902202
-1.6070832638789427
-1.6370451850358363
-2.57688967227638
-3.662307261753236
-4.278225354575424
-5.356105330551195
-6.4476222800801075
-6.3958893903542515
-6.115706789406643
-6.401516487113421
-7.345798771153207
-7.860933127564824
-6.675498633214503
-5.676804093995515
-5.930854886264078
-5.9586516187279495
-6.045539087346847
-6.416595843153481
-5.568140128873105
-3.096625690392532
-0.3910495630925345
1.0005134416230017
0.9724185504849003
0.4950485467390053
0.7142465380606875
1.8111758472718968
2.4616154720098216
2.645236697430452
3.1164275636708854
3.0639393928658722
2.8731723556234123
4.248590363067331
7.386238149718895
10.673957577304174
12.02117525833052
11.208121555721256
9.388238372082602
7.807286313634027
7.42535062829749
7.563719186537763
7.890375693114757
8.307785429571558
7.56213720165353
6.79021138743818
7.259963777553525
7.718607149568107
8.338407926038583
9.268212299503954
9.764829175143545
10.595537521343935
11.267957529352636
10.8499302737327
10.665066184137562
11.162325786608477
11.576921804661373
11.6290933775388
10.948625984790688
9.736103868011828
8.922582711361585
9.511772195002433
11.554055366568225
13.443657649561247
14.08524189624581
13.777969729868168
13.301122011088719
13.002987053090285
12.035379876326424
10.83862799742835
10.701693731576025
10.689893925558394
10.366191330780286
10.411368711100112
10.17873763196045
9.359978066331214
8.51798521804607
8.044786580780903
7.979802140533588
7.4132356275706455
5.795127808518525
4.398003437368783
4.475926608481091
4.888782397073843
3.829078073126253
2.091981527853496
1.0634034515106854
0.27670767612142105
-0.46554041712203137
-1.1189452983854722
-2.331440889378315
-3.9390262185376685
-5.789449864219478
-8.169589169746894
-10.091306946981009
-10.237776952253418
-8.986422416797025
-8.180479894395452
-8.661576680895681
-9.76482800009657
-11.247935038676426
-12.534180545175984
-13.021651026748003
-13.102981003402256
-12.3726113170222
-10.974341281145488
-10.061171487895493
-9.641306155998096
-10.008486361102817
-11.15589510364391
-11.54247730832108
-11.035838741674096
-11.046357438713228
-11.742598344195102
-12.039626289926783
-11.70802344685405
-11.634990785021362
-12.154714508170677
-13.066394111982776
-14.039520842075792
-14.369641923382023
-14.26327670898275
-14.286550931356091
-13.688354432697144
-12.798165332172836
-12.915438918681952
-12.771396475717802
-11.469027250177596
-10.738868645046269
-10.903083881417208
-11.063886509601204
-11.050403020619058
-10.171551406832124
-8.55333742548017
-7.806955648584333
-8.01335114448996
-7.8296102591809
-6.819428132484301
-5.4163165889144365
-4.778892765152084
-5.575957739274545
-6.251447551589112
-5.695780525092583
-4.6138647147389165
-2.954611551458084
-0.7400801664434115
0.8845658763832693
1.9033311136757125
3.035753721193518
3.595055645893058
3.256266298298608
3.6719589165139728
5.036511297819374
5.680936317694869
5.693691303138432
5.813205636643955
6.436280804326725
7.805561425985307
8.720527169014334
9.44447994175023
11.167449912045837
12.504916080501303
13.258451399275913
14.560030609748605
15.391663939730103
15.146710342661995
14.841780586493712
15.217908195362334
15.745860328178003
15.369524817923304
14.057285664826924
12.302338420010775
11.200618983099409
11.436847129111309
11.54267184901258
11.045505080219458
10.87696866073734
10.959473960990461
11.580530920570249
12.402023756384693
11.878694969320438
10.048671123532124
7.921640448917149
6.149784497312921
4.951860998591523
3.8772078157816345
2.733949171132793
1.6915966707037233
0.9650837303138415
0.758432276299629
0.9925802147877558
1.4337054585207285
0.95557474882597
-1.0323712506763074
-2.976117774316428
-4.294248388159897
-5.208617326900979
-4.701295841922609
-3.534725497019155
-3.6907111394604084
-5.051136513705909
-6.2762020860251235
-6.240197129941363
-5.27010388089898
-4.45602554538241
-3.857801491668785
-3.644464215859737
-3.3619908587086043
-2.095008842036612
-0.9211545811594041
-0.08292547947334168
1.4152939293443894
2.3583098660125392
1.5282367392270233
-0.166055909631066
-1.2981651809151393
-1.6296594984169754
-1.8238357606118518
-1.792885776464108
-2.0341467035343195
-3.1419314360984405
-3.726546913696173
-3.3433455170489803
-2.986611165351721
-3.1993814976955948
-4.137962038458508
-4.639086461963713
-3.9893388006519532
-3.1268394150879173
-2.5807246684897605
-2.4774090422863697
-2.2948207880903304
-1.807163680973824
-2.320497071694254
-3.636645200332587
-4.147809567106729
-4.285913785886968
-5.194817246751009
-5.808869658447422
-5.117790900620707
-4.454037348498542
-4.137354158635512
-3.314275029869671
-2.902501061843809
-3.231985881933626
-3.0759845953906506
-2.0363343927848923
-0.649494120110618
0.4361746513438547
0.9527599047062645
0.4622593512677343
-1.2142070408166536
-2.714229536035772
-3.2143109565134576
-3.196438305660168
-2.595546371136702
-1.6593072929140782
-1.345505497336106
-1.7671134197943772
-1.9516414414555407
-0.9134223008170919
0.8356388545836629
2.2897801395970774
3.8345497435652796
5.191492248897846
5.2640035239639404
5.018385401994173
5.530298072428653
5.915346735899243
5.742906841295811
5.419686621161471
5.083444377075559
5.306054736966558
6.176810438440752
6.679392351653228
6.88500133784876
7.027061363347165
5.984139568842636
4.14258265604104
3.009373478698622
2.6382502710909597
2.664491342987878
2.5203378309008415
1.8782390480297693
1.4057105494440796
1.2307398198673216
1.4446591585647703
1.6851472345385432
0.41720009004378394
-0.9320449814260787
0.18306873204918556
2.131139136445739
3.2126074828332145
3.783470831552768
3.645208877551615
3.6224179254982083
4.737818330810262
6.09441635374874
6.4890860619013155
5.762487845139969
4.806148779759307
4.028336096972081
3.285374836386153
2.714083856012262
1.947687883731138
1.3403440086455363
1.2457258469035999
0.5904507381223034
-0.4995871350639212
-1.006907888911105
-0.9542587745536328
-0.9415554968579508
-1.175026501757892
-0.9662147648293192
-0.7283481610641173
-1.2778626635665216
-1.4159635000555129
-1.4019759214272558
-3.0457762915605375
-4.765628316250504
-4.615256792325475
-4.013664075368735
-3.5073490795106856
-2.6187254277209315
-2.424274027478788
-2.5420949298603333
-1.9926057163948365
-1.850782699366892
-2.2701453229509676
-2.6501903823001007
-3.4764387639571908
-4.268681014966852
-4.3332171517131295
-4.366478481305229
-3.931143348573483
-2.144146080025703
-0.5417597200672791
0.05313430236674437
0.8937401115594931
1.856929377774826
2.297704192845968
2.3580275094026826
1.729069791909942
0.7504474957925084
0.45102129419126546
0.707330085987712
0.85006455782073
0.8458333364606205
0.7013838652918928
0.3420205163758425
0.21606603153009415
0.35508885289043657
0.28743561753383506
0.3700130269809165
0.5980165567835812
0.19092206761065822
-0.4764713015229571
-0.9670590736352177
-1.7751166983232483
-2.4713079317444198
-2.553504374033738
-2.650777297186248
-2.5683922603829967
-1.9587679676142382
-1.9528845834987503
-2.7414465251149096
-3.196436824068243
-3.299762490919593
-3.765782389422256
-4.84069203663732
-5.7998604070417406
-5.70974962464789
-4.941247330933504
-3.988928712046766
-3.130052386071061
-2.9187319937160185
-2.456023205898763
-1.1678673797753907
-0.6961375677653667
-1.1719100084993517
-0.976202487672493
-0.6009758620966718
-0.9441347079444738
-0.7262927401785254
0.223964917318277
0.32390475250817996
0.13265496870429602
0.8766182285032027
1.5823284207489456
1.7898308772667932
1.9424757505362615
1.5932659328543075
1.312109737549226
1.4874298740939444
0.5255460412709483
-1.2548765730076659
-2.1388647200299906
-2.5190694152337083
-2.771189536746219
-2.5462891831296064
-2.493613577868036
-3.0810828736494313
-3.9170396033273125
-4.825332126009041
-5.253115892034194
-4.446110748654201
-3.5909034450759463
-3.5348070689882265
-3.031202035559293
-2.4814419162229946
-2.754950430608722
-2.6800391452115964
-1.9145154030188256
-1.223028842701636
-0.9011263337325734
-0.7184561889429335
-0.34320621228467185
0.08734688457426304
0.5621159539725347
0.8848940511003969
0.7911371525497526
0.5174091403091362
-0.16461801345108895
-0.3160918966405799
1.3509227776632045
2.8831279855737693
2.953454426455144
3.236760485648289
3.7498478677581177
3.5706847276239237
3.581918848142523
3.778280288992159
3.4984193220154007
3.7599511397542176
4.312674089302178
3.5163246013313767
2.394455521354769
2.1100169346510733
1.3058666333273508
-0.155079578800186
-1.000636862094786
-1.289868784989567
-1.4086475619199008
-1.4263704324296849
-1.8751141675918364
-2.7585536695696558
-3.341248221681872
-3.8513653677086723
-4.808067826796004
-5.526403855300034
-5.578105635690287
