AAD_Filtered_TADAS_FILE
AAD_BASELINE_CORRECTION: BASELINE REMOVED
AAD_FILTER_TYPE: BUTTERWORTH
AAD_FILTER_ORDER: 1
AAD_LOW_CUT_FREQUENCY_HZ: 0.025
AAD_HIGH_CUT_FREQUENCY_HZ: 40.0
EVENT_NAME: 202302061024
EVENT_ID: 13207
EVENT_DATE_YYYYMMDD: 2023/02/06
EVENT_TIME_HHMMSS: 10:24:47.00000
EVENT_LATITUDE_DEGREE: 38.089
EVENT_LONGITUDE_DEGREE: 37.239
EVENT_DEPTH_KM: 7.0
HYPOCENTER_REFERENCE: AFAD
MAGNITUDE_W: 7.6
MAGNITUDE_W_REFERENCE: AFAD
MAGNITUDE_L: 
MAGNITUDE_L_REFERENCE: 
FOCAL_MECHANISM: 
NETWORK: TK
STATION_CODE: 2106
STATION_NAME: 
STATION_LATITUDE_DEGREE: 38.4616
STATION_LONGITUDE_DEGREE: 40.647
STATION_ELEVATION_M: 1006.0
LOCATION: Kahramanmaras_Elbistan_Turkiye
SENSOR_DEPTH_M: 
VS30_M/S: None
SITE_CLASSIFICATION_EC8: unknown
MORPHOLOGIC_CLASSIFICATION: 
EPICENTRAL_DISTANCE_KM: 300.35
EARTHQUAKE_BACKAZIMUTH_DEGREE: 
DATE_TIME_FIRST_SAMPLE_YYYYMMDD_HHMMSS: 2023/02/06 10:25:08.3281310
DATE_TIME_FIRST_SAMPLE_PRECISION: millisecond
SAMPLING_INTERVAL_S: 0.01
NDATA: 18251
DURATION_S: 
STREAM: HNZ
UNITS: cm/s^2
INSTRUMENT: sensor = GMS+/GEOSIG | digitizer = 
INSTRUMENT_ANALOG/DIGITAL: 
INSTRUMENTAL_FREQUENCY_HZ: 
INSTRUMENTAL_DAMPING: 
FULL_SCALE_G: 
N_BIT_DIGITAL_CONVERTER: 
PGA_CM/S^2: 5.872
TIME_PGA_S: 
BASELINE_CORRECTION: BASELINE REMOVED
FILTER_TYPE: BUTTERWORTH
FILTER_ORDER: 
LOW_CUT_FREQUENCY_HZ: 
HIGH_CUT_FREQUENCY_HZ: 
LATE/NORMAL_TRIGGERED: 
DATABASE_VERSION: 
HEADER_FORMAT: DYNA 1.2
DATA_TYPE: Acceleration
PROCESSING: Automatic Paolucci et al., 2011
DATA_TIMESTAMP_YYYYMMDD_HHMMSS: 
DATA_LICENSE: U (unknown license)
DATA_CITATION: Turkish Accelerometric Archive v 1.0 - Disaster And Emergency Management Presidency, Earthquake Department
DATA_CREATOR: AFAD
ORIGINAL_DATA_MEDIATOR_CITATION: : AFAD - Disaster And Emergency Management Presidency
ORIGINAL_DATA_MEDIATOR: AFAD PROCESS SERVICE
ORIGINAL_DATA_CREATOR_CITATION: AFAD PROCESS SERVICE
ORIGINAL_DATA_CREATOR: network: TK
USER1: GuestUser
USER2: 
USER3: 
USER4: 
[...]
0.39434968315040186
0.44578049222288574
0.5012540557404561
0.5602221499588445
0.5970921791263689
0.62316781127087
0.6497727660431984
0.6887813015130039
0.7617521084439448
0.8321696674842044
0.8480733546459844
0.8297467775073825
0.805162818305449
0.7951830415926702
0.8238452196124583
0.85728046133068
0.8627375377794168
0.860268808566015
0.8886793919827675
0.9454048495350397
1.0011162122738886
1.0809193921711833
1.1886442563113346
1.273294061214981
1.315791186580941
1.3210389920198566
1.2762482173449756
1.175696916089402
1.0614189695828393
0.9726139994883065
0.905549967591069
0.8126980657629567
0.6557856035805203
0.46226583559560425
0.2186560107943905
-0.06317045714343394
-0.280417440453894
-0.41301785291128956
-0.4850920312706123
-0.5164545898342968
-0.5564940238768779
-0.6157342080328349
-0.6738870934331709
-0.7197192555918982
-0.7517224774382526
-0.7844128884826334
-0.8699706888009331
-1.0460017068589484
-1.2418320655295938
-1.3826526397156462
-1.4694093232473755
-1.4604062847185801
-1.345921560534132
-1.1738625961083549
-0.9501769156321318
-0.7082109764456219
-0.46690586525073097
-0.23171465494545412
-0.06078559264718675
0.030148167605026574
0.0725923017584504
0.05357858196327186
-0.053264128928606914
-0.222169480356826
-0.4090776087989078
-0.6002986255181264
-0.8196344699899787
-1.0694144014047733
-1.3005732073152285
-1.48598729393391
-1.6311340021391887
-1.6723882751070045
-1.5567274919002958
-1.3859420898824708
-1.2220419064089525
-1.0119238920252855
-0.7491963287417792
-0.4378226636193641
-0.07002462776617095
0.31915107457530706
0.6971205996157978
1.065981284674098
1.4215534079913315
1.7160312771341137
1.9146982939360127
2.0377865089576184
2.1037934554367115
2.1332300390057957
2.123197021836057
2.0325488655211217
1.8639829320494141
1.6488377521348525
1.4014606881677125
1.1457855208078611
0.9072798462598799
0.7054773223014674
0.5928605706214831
0.5652572370558803
0.5240730723576215
0.40662014598969026
0.2625931266622185
0.1531909101584296
0.015859146978062663
-0.1894329570080407
-0.3892635774984858
-0.5335968352265262
-0.6064725442066888
-0.6330252562688017
-0.6624985481311836
-0.6851270770552302
-0.6894342122427565
-0.7022645520294896
-0.7373761553490703
-0.7622496041744834
-0.7419156234520113
-0.6685967692384762
-0.5489216594526406
-0.4062753089148211
-0.208246608232179
0.06029130443727624
0.28998516100400207
0.41074708905993274
0.4569094007712864
0.4401890296857313
0.3277367687053771
0.12257282067865727
-0.11822878206873363
-0.35855895196314996
-0.6030659827640871
-0.8205729046725336
-0.9842856383592307
-1.140873723224101
-1.285430822037428
-1.3695379776836911
-1.4114949364174905
-1.4179660720038019
-1.3977946604478588
-1.3753492093802735
-1.3274666012699838
-1.2524661604689271
-1.1614555027189375
-1.0617566308487063
-0.9682797098800677
-0.8775421621123631
-0.7842553500742415
-0.6634874431998302
-0.5248475854589254
-0.3758358907836742
-0.17700256518840016
0.029920934375004777
0.2132337810732108
0.42477326141563704
0.666326985341795
0.89419902703672
1.087930086353096
1.2440951708811583
1.3645235451021898
1.4630643191328734
1.5391936887206559
1.5358222804342776
1.3800878924565396
1.0915753558296089
0.7648766383810413
0.4532762515709361
0.1870509088680116
-0.006981006288625038
-0.16163554165844887
-0.31165261467139344
-0.46230042084095013
-0.6150136829481774
-0.734377395568447
-0.8092864751137271
-0.8846793744808369
-0.9935443528980521
-1.127647625528886
-1.2676037479769506
-1.4463783942995847
-1.662789001200325
-1.8583715040204605
-2.024895787836875
-2.1266451023491184
-2.112966714002251
-2.0361483009775805
-1.9471440362950962
-1.8300632899524543
-1.6793379608901107
-1.5159056341169839
-1.3812673298228304
-1.3061723340787463
-1.262891000328856
-1.1941288714280491
-1.0710862257260585
-0.9104970193034858
-0.7468492306309111
-0.5880833513380204
-0.40409131982712826
-0.20005532114324262
-0.03040342617939645
0.1081319263472373
0.24785887671440582
0.33707740894813787
0.34224255534068415
0.3323393458103243
0.30974510708781705
0.23291855825085175
0.14584186652805362
0.09435713083356641
0.07133189496240604
0.043489618967064485
0.03775584869148508
0.08427567480860526
0.12272620840017597
0.12267178820554629
0.12378019633211515
0.17229853238500845
0.22637522602977456
0.2193038130134247
0.21160333602049763
0.24636765019198795
0.2768925958100165
0.2955893408689178
0.3100689415442083
0.3029506343570444
0.27548287240094566
0.2562737118657879
0.2803258469539527
0.29486073380561834
0.23425991574341767
0.1453942580889753
0.06445123722209027
-0.0075930622040803995
-0.08379581676479485
-0.16142629653526283
-0.2340321918505729
-0.3184261518034398
-0.36566798594592337
-0.38172757600536794
-0.4194836704014915
-0.46571043640342447
-0.524174986838749
-0.6205584308041941
-0.7526842049370605
-0.8886574327807482
-1.0533084831526418
-1.2580433677630156
-1.437402894558955
-1.580649373540388
-1.6851005953666622
-1.7516241851237768
-1.8212110184418404
-1.9041620189871677
-1.9871734033914632
-2.037432523769944
-2.0409413631932543
-2.01864484702691
-1.9532904277307401
-1.8327888258182878
-1.6749800161369257
-1.4601024060541763
-1.166991100386111
-0.80679151602956
-0.4233699698073503
-0.07559090451941293
0.19935957724574305
0.3747156353715824
0.45276406749846076
0.45667372697525677
0.40481576777798267
0.35165831228075545
0.3251507973356754
0.27457352111875266
0.20500682476479598
0.13350580495344924
0.02024836404418479
-0.0891407590372695
-0.16732001195050034
-0.2500168728019736
-0.3165054959585809
-0.3871605845793922
-0.4735549089735631
-0.5444912116962259
-0.5980409293064562
-0.6324819886585814
-0.6738155927193837
-0.6968514620239618
-0.6533112087682955
-0.6019961284439236
-0.5872820155996192
-0.5773057894542832
-0.5576945480307548
-0.5318610962957886
-0.48554493611386107
-0.421932066807988
-0.3325854809738593
-0.19991201837485845
-0.06254731066807377
0.06152526918984139
0.16071440605498355
0.2017856781485848
0.22000012216966974
0.27154349801245065
0.36479585204088455
0.48207412494069046
0.6115443209988931
0.761350506554626
0.9474841276019828
1.1364513160260181
1.2484867355874254
1.2489019492207758
1.152270255113967
0.982955627703341
0.7720429108731147
0.5424218462568307
0.30737981673375486
0.08564419090380922
-0.1288131630700586
-0.3325517513757371
-0.4979572875980812
-0.6477840349681632
-0.7814691303590704
-0.867792815909556
-0.9100079160724764
-0.9169488086122399
-0.8879295650223232
-0.807512925066198
-0.6952317921084965
-0.5625856026036276
-0.3984843046478614
-0.23489747439316008
-0.11042714317322075
-0.04669300561984278
-0.017665935218493002
-0.0022113953645213824
-0.01163247552871912
0.004354755990959713
0.09810039317718823
0.2331978698717798
0.3498855993050184
0.404925768034864
0.3798947426421941
0.3464631289011548
0.3600962193643668
0.41011037055565563
0.49460310253035705
0.5617541703530425
0.5766298752783506
0.564171591646049
0.5548669381603588
0.5686685574154202
0.6134005379648614
0.6928483350469883
0.7601354658733075
0.7983752893279916
0.8458095464433395
0.8837535606416871
0.8707883875319843
0.808896331987787
0.7232445010184712
0.6338109742733394
0.5614033185375702
0.5365466136156326
0.5645706761018098
0.647732580384847
0.80552336459319
1.0059103106502798
1.2015977668377904
1.4113595101115148
1.6391345343180372
1.832912782995804
2.0109955374323247
2.2038879576864865
2.365475231321342
2.4293489565351885
2.368184543634401
2.241239178041843
2.0737874980611175
1.8855964827953762
1.7340659789077328
1.6036347878953958
1.479241108225164
1.3501131378362206
1.2088080234580374
1.0644285194786365
0.9203872952169222
0.7927789837747663
0.7008096466008202
0.637174237436666
0.5441939457792189
0.4299137562697111
0.3141965012460525
0.22730701451943455
0.19983050092713908
0.1845274372271187
0.22596541512391757
0.3189789810665212
0.42002840534422403
0.5304674081211144
0.6137289128255825
0.6420365043911855
0.5616567694169035
0.44014366253319015
0.31103390180848267
0.11829970209659375
-0.08316063281951364
-0.27872611138139985
-0.47604136964183696
-0.6825799977812158
-0.8676766414795609
-0.9782023949751384
-1.060554158707054
-1.1556669751133066
-1.256996822038948
-1.3145617506469447
-1.3258650912581065
-1.3471485983382248
-1.3603669961062894
-1.3523799364020759
-1.3359933959720272
-1.3098100583537107
-1.2771108944457412
-1.2186080623052882
-1.1273216955802878
-1.019027260012741
-0.8686954502152201
-0.6634864707214252
-0.49235358270718044
-0.3881569239878638
-0.2977793903971951
-0.24918076509662127
-0.2358810534377515
-0.21465462324789633
-0.20025204950407696
-0.19083860897197774
-0.17166105120866984
-0.1281042953495515
-0.07373179604365775
-0.0028483350057773877
0.13647318376633072
0.3546960311594731
0.6206429810636078
0.8934312484779602
1.1383864847672733
1.3440131257291863
1.5287900128831264
1.6996314222381674
1.8667698360231733
2.068508336955131
2.2743140576974046
2.404088110860038
2.4816974558653517
2.5623338159657054
2.63908475890904
2.7174343073313723
2.8116348007003324
2.932231735454794
3.0614561759116787
3.1705085863995723
3.2658525740874977
3.3732314940783197
3.4987275458903535
3.612557223611258
3.7161793201775106
3.831605300290836
3.947024468554112
4.065112162650809
4.204683506799779
4.327513023501097
4.4127162885751146
4.504116108441193
4.614484263539584
4.711221663312264
4.788211587058495
4.8717304932516985
4.916070166477613
4.884808600957129
4.814477056091874
4.678557698364708
4.443862526340925
4.142981310141382
3.823373044079208
3.5022896804676265
3.16978556313915
2.8456409000413467
2.537803176357553
2.2159368302842806
1.8586656547535585
1.474984560122539
1.0846783923760566
0.7078752850746461
0.38485915553310474
0.11088647770145385
-0.12115170639223255
-0.2877537789249052
-0.42571422350623683
-0.5673321120678668
-0.7263472652319282
-0.9092515057226007
-1.1244436618742033
-1.3893239105347723
-1.6543673411834352
-1.9047878553631579
-2.159700053673626
-2.400751530587073
-2.6135998474679716
-2.785816523493296
-2.926364610526586
-3.0440845250808546
-3.158243614434325
-3.3092117626574225
-3.4961611456229518
-3.670835234192931
-3.8425203482369823
-4.022763917450252
-4.154142512404892
-4.271461167376196
-4.378213063334316
-4.416217763262903
-4.388971275042812
-4.260755975410751
-4.066433786247557
-3.8527002615496846
-3.6197585303733995
-3.4159469367961064
-3.21622240232344
-3.0092101805399976
-2.8179553460031532
-2.6696916776268114
-2.591222528825287
-2.5515094145584
-2.570359212287901
-2.6134617233416244
-2.609839645614714
-2.556120313330362
-2.4560964259568725
-2.335379482947017
-2.167867616984426
-1.946763539070202
-1.7338434952930166
-1.5464601894403445
-1.375337144845641
-1.2135933331403188
-1.0576518610898336
-0.886785700761746
-0.7074553902610616
-0.5479413336237922
-0.37931564423239267
-0.1851572636147565
0.02259486936711747
0.2094221621212566
0.37764594723329
0.5819705794625589
0.7833221241238862
0.9447583685645735
1.0749717297446548
1.1584465961588557
1.1906450475134007
1.1794828653493021
1.1465082445270638
1.0768956625809847
0.9627929398881531
0.8243653161457816
0.658861067249712
0.4924316775527603
0.34312925227533403
0.16881677430964245
-0.035272834229824857
-0.2523430812903811
-0.5181391945902541
-0.8308260627493814
-1.173787837889207
-1.529147957995891
-1.87677321372843
-2.227702587244401
-2.56240506003834
-2.8483332274085607
-3.070216257924017
-3.265362545299271
-3.4499339914339715
-3.580274066067713
-3.6454030087647173
-3.6630096194798294
-3.6524275566638824
-3.61603925202493
-3.5730701212713045
-3.5468735758228416
-3.5455188901396055
-3.5987397247621495
-3.710487478715692
-3.845697732754058
-3.984527284371065
-4.1251056594024575
-4.271318546429104
-4.426075548264077
-4.5575076707566895
-4.638966424900847
-4.698425177796952
-4.749141068856898
-4.749321114490265
-4.704467795965289
-4.676155558568442
-4.668497280726478
-4.654469148947742
-4.63058553088235
-4.6117696425371015
-4.59355671910468
-4.55627114638353
-4.488606039000358
-4.369344358193095
-4.202737095094114
-3.9873222592708206
-3.7069117932103914
-3.3877236252033036
-3.0764721682797997
-2.79444713678393
-2.54603564394202
-2.3422511602721343
-2.171509145544915
-2.0411890594658773
-1.9750697069559058
-1.9132940971374137
-1.8163435792459948
-1.7286939386024385
-1.6445544126584812
-1.538451981606828
-1.4034083257241095
-1.2118864756396133
-0.9770433029817329
-0.701696463658039
-0.35982112400061983
0.01207061946194069
0.4021047450027367
0.8149053656469404
1.2090758455089368
1.5718152279340656
1.926950338166805
2.289421397567251
2.644755562721052
3.033247495286468
3.485465176743147
3.956714030063488
4.424417905479981
4.860878748704591
5.244008214712216
5.560672841331527
5.801838450877813
5.987562693578095
6.104053106455499
6.127333462900474
6.080594462741595
5.976308373697767
5.845301299835784
5.7524890728571565
5.676525115529421
5.58198534639004
5.470077126511331
5.328079390728422
5.168998925907245
4.9954706565720635
4.819120046887886
4.669310643162144
4.527520142365594
4.354361225611216
4.138196261949289
3.894646426171674
3.615832687894652
3.291346105824946
2.9307035488827586
2.5691204686700626
2.2572680674006222
1.9843486973979343
1.72578193092722
1.484432714268769
1.2838842369422756
1.14221987265499
1.0471653681792208
1.011317742362728
1.0520341339093933
1.1481588402246703
1.2534984424257098
1.3682054458095794
1.4925723126624313
1.5760717151948787
1.6284288420603321
1.6686761632146245
1.6757991148578892
1.6533143642365142
1.6304604124181505
1.6358671851797644
1.6545161156634212
1.6750072553574407
1.7182219107889487
1.7758376149409603
1.826973092881859
1.8718778299324383
1.9276815402865903
2.0068090560805176
2.106021352756367
2.232208425205325
2.3706340730658826
2.482130548830647
2.5833490625597557
2.6887707019437457
2.7534014580432498
2.778274430502595
2.788234768731429
2.7577512228238086
2.70303872005801
2.666851329883065
2.6140782338565827
2.537339856592074
2.4917805289351604
2.4812206697382364
2.5122557866965334
2.587506602457746
2.673990575645986
2.7921762228844362
2.9347149090674503
3.0494444646296963
3.121810329706977
3.157355605980994
3.167456529933253
3.1412930958237113
3.0901355289901584
3.024183062286561
2.9153596044797894
2.74375620581124
2.5078893168211027
2.218854350352857
1.8932764480883826
1.5641291763257332
1.2199424151362144
0.849147612488772
0.4657238235821138
0.06670665474891707
-0.3014902752081859
-0.6059178560206111
-0.8564291441806744
-1.0712618786203971
-1.2837441707428583
-1.492803587689682
-1.7054592013217509
-1.9289100184255028
-2.1547666313969116
-2.412760543643337
-2.6735897018038783
-2.9186431997965063
-3.17113836937276
-3.3504780380067394
-3.38359129438078
-3.2850602330861114
-3.0916714671734913
-2.777496355748227
-2.3330816192749997
-1.8458362223214357
-1.332739074371614
-0.80990500833903
-0.3232393850943718
0.1250203264262793
0.4959359426727142
0.780494430907109
1.0146374745535673
1.2452572678667333
1.5014178810633236
1.7496648027901152
1.956870791646852
2.098245872590818
2.1538302664252766
2.1353496061446298
2.0530839512573915
1.9195899832616852
1.7560340668058092
1.57935092332805
1.386250934303728
1.1645334240419007
0.9332065312886281
0.6869380965329822
0.42592721410222445
0.2041848437268598
0.04313580839781951
-0.06277250581753821
-0.1198598384360708
-0.15657460311494883
-0.18044195596096665
-0.17061906818361594
-0.12269976738360745
-0.05782348335043686
0.026686807804534363
0.12707139642877843
0.18564079567264896
0.19499512896907595
0.18252620455915594
0.14983586036069388
0.08949498059489427
0.009265503354348744
-0.09122570196484404
-0.2570014822376753
-0.4689297600650379
-0.6711894353353426
-0.8449695288413958
-0.9730599599683073
-1.0594235138042503
-1.1370197271122295
-1.2057632491010637
-1.2427939908929384
-1.2672569368652986
-1.2804190459423905
-1.265988359587201
-1.2219298149517137
-1.1493492943499402
-1.071656289344119
-1.009874603043796
-0.9499443014153883
-0.8825528528600378
-0.8326356606624938
-0.7696398413939977
-0.6885602305086947
-0.659582522028863
-0.6690320240919899
-0.690267140068521
-0.752091144823299
-0.833686193930401
-0.8717250601044473
-0.8691243724554333
-0.8425235001718668
-0.7649037689666608
-0.6601178792701016
-0.5492148906579668
-0.416606113476157
-0.269485974351526
-0.12147281209326387
0.01887758612488267
0.14476586279321188
0.23813155632181976
0.3147017443955161
0.3986525333360065
0.43260597526204264
0.40980759708301495
0.385749882485074
0.35376832205841996
0.3006166001072909
0.20251516248378026
0.04384138221634431
-0.17985695913903163
-0.44911591530985673
-0.6835950931601644
-0.8719184151296588
-1.0039137629491925
-1.0294382617913063
-0.9812969167472699
-0.9266459783652963
-0.8848399112006181
-0.8111292070451512
-0.6791672012136877
-0.5277649788317773
-0.375635331235436
-0.22678334883943385
-0.10816237178337833
0.002038215031906024
0.14271111374897139
0.32398337647253644
0.5396290036522055
0.7735320183870336
1.0248304499383538
1.2639437729355452
1.4879181436240851
1.7092639225404471
1.92103703522271
2.143641839729616
2.348650797767958
2.513726611921378
2.651302304352935
2.7480664930832357
2.8079466049149397
2.8335388214224917
2.8057747654537915
2.7331066094390133
2.629564159841485
2.5004295261647447
2.385399214282064
2.2820828177568853
2.176776662689479
2.1060412114524647
2.0490464943186706
1.9761856953996149
1.8984387893218895
1.800241092749445
1.6666318130116882
1.5131398401242981
1.348177316105492
1.154170906427273
0.9377750797853613
0.7446417991372924
0.5973499413557197
0.5033139663166843
0.4603998475929207
0.43547947448185476
0.4157708800130247
0.410700437689837
0.40172493662386594
0.35988071819428386
0.28684672772961284
0.1947742617141839
0.11122977339602699
0.050586278083258905
-0.02489031989515225
-0.12987251251370574
-0.25232211404640953
-0.3895036928902255
-0.5312119740364597
-0.6693018345142412
-0.8077293422150826
-0.9707372160418423
-1.1667069094942262
-1.3617118477825862
-1.5208895458807097
-1.6081718612072209
-1.6230651175235793
-1.563836245715582
-1.4025436616976175
-1.1865563703706312
-0.9691137429514562
-0.7509670025008269
-0.5268368211048986
-0.306281427614616
-0.08227594163876391
0.14728246241314294
0.34310229142975585
0.4886053374322122
0.5705936692192678
