AAD_Filtered_TADAS_FILE
AAD_BASELINE_CORRECTION: BASELINE REMOVED
AAD_FILTER_TYPE: BUTTERWORTH
AAD_FILTER_ORDER: 1
AAD_LOW_CUT_FREQUENCY_HZ: 0.025
AAD_HIGH_CUT_FREQUENCY_HZ: 40.0
EVENT_NAME: 202302061024
EVENT_ID: 13207
EVENT_DATE_YYYYMMDD: 2023/02/06
EVENT_TIME_HHMMSS: 10:24:47.00000
EVENT_LATITUDE_DEGREE: 38.089
EVENT_LONGITUDE_DEGREE: 37.239
EVENT_DEPTH_KM: 7.0
HYPOCENTER_REFERENCE: AFAD
MAGNITUDE_W: 7.6
MAGNITUDE_W_REFERENCE: AFAD
MAGNITUDE_L: 
MAGNITUDE_L_REFERENCE: 
FOCAL_MECHANISM: 
NETWORK: TK
STATION_CODE: 0127
STATION_NAME: 
STATION_LATITUDE_DEGREE: 37.816183
STATION_LONGITUDE_DEGREE: 35.92044
STATION_ELEVATION_M: 614.0
LOCATION: Kahramanmaras_Elbistan_Turkiye
SENSOR_DEPTH_M: 
VS30_M/S: 583
SITE_CLASSIFICATION_EC8: B
MORPHOLOGIC_CLASSIFICATION: 
EPICENTRAL_DISTANCE_KM: 119.52
EARTHQUAKE_BACKAZIMUTH_DEGREE: 
DATE_TIME_FIRST_SAMPLE_YYYYMMDD_HHMMSS: 2023/02/06 10:24:47.6311480
DATE_TIME_FIRST_SAMPLE_PRECISION: millisecond
SAMPLING_INTERVAL_S: 0.01
NDATA: 12501
DURATION_S: 
STREAM: HNE
UNITS: cm/s^2
INSTRUMENT: sensor = ACEBOX/SARA | digitizer = 
INSTRUMENT_ANALOG/DIGITAL: 
INSTRUMENTAL_FREQUENCY_HZ: 
INSTRUMENTAL_DAMPING: 
FULL_SCALE_G: 
N_BIT_DIGITAL_CONVERTER: 
PGA_CM/S^2: 62.723
TIME_PGA_S: 
BASELINE_CORRECTION: BASELINE REMOVED
FILTER_TYPE: BUTTERWORTH
FILTER_ORDER: 
LOW_CUT_FREQUENCY_HZ: 
HIGH_CUT_FREQUENCY_HZ: 
LATE/NORMAL_TRIGGERED: 
DATABASE_VERSION: 
HEADER_FORMAT: DYNA 1.2
DATA_TYPE: Acceleration
PROCESSING: Automatic Paolucci et al., 2011
DATA_TIMESTAMP_YYYYMMDD_HHMMSS: 
DATA_LICENSE: U (unknown license)
DATA_CITATION: Turkish Accelerometric Archive v 1.0 - Disaster And Emergency Management Presidency, Earthquake Department
DATA_CREATOR: AFAD
ORIGINAL_DATA_MEDIATOR_CITATION: : AFAD - Disaster And Emergency Management Presidency
ORIGINAL_DATA_MEDIATOR: AFAD PROCESS SERVICE
ORIGINAL_DATA_CREATOR_CITATION: AFAD PROCESS SERVICE
ORIGINAL_DATA_CREATOR: network: TK
USER1: GuestUser
USER2: 
USER3: 
USER4: 
[...]
-4.398372376427747
-11.23397018943661
-16.48306094506951
-17.912769489867554
-16.219377242210104
-14.158655297970357
-11.359217041286298
-7.466415762244852
-2.9645692031308704
1.911687773269386
4.855679874376395
6.381074025348395
8.933748406130618
10.264923086215271
8.91892164116482
5.775847613089426
1.147507923840716
-3.3157121375754466
-7.6131978826522735
-11.857634904185188
-12.874048384849083
-10.171527426458178
-6.567312500163265
-3.422249748392758
-1.819364834173505
-2.690311992332355
-3.648796091028993
-1.1513742927017077
6.275527592149045
17.158422784583937
25.480163316478873
26.15129168026851
19.871993896401857
9.316248541328907
-0.9703817395815437
-6.76421372790504
-9.397083859011465
-11.35032068385682
-11.831182040050248
-9.454268604658642
-4.014587446088371
3.645048801226503
9.55925965633247
8.880581668560138
2.687099049129839
-4.3074288854807365
-8.899240707069897
-10.174004071712828
-10.013557300618757
-8.728190112253865
-4.750067626755723
0.6111911812045536
6.380043004088437
12.247660209454065
15.062258045898473
12.708916671610446
7.068604320683542
2.1791008677842134
0.6333927883968811
0.6282641081211108
-1.136015531323694
-5.907934369296496
-12.672313194170671
-17.40383620205625
-15.547721164176696
-7.3131792732011
2.557775826424466
8.783367087338975
8.611240476622976
4.268129163967447
0.3539670044185821
-1.749541523246581
-2.383593599927421
-1.204636213129367
0.40458667367218454
0.9923426001771508
1.5721191860040677
2.7074233146425257
3.036781400814908
2.1145627830237643
1.256820312766181
0.5354991691447457
-0.7287406462688162
-1.5079181543090214
-1.5731273634342933
-2.4592315595822933
-4.916372817166768
-8.046714360031837
-10.162818265279716
-11.479257744747258
-13.736385458133492
-16.74544406844529
-18.994835873590876
-18.905432460115176
-15.265779703493184
-8.839675235539556
-1.731074810447702
3.8026362135301683
6.015966930492507
5.232366775759602
3.766646704575062
4.551762832570875
9.42485958230657
16.599059246268116
21.42058994379454
21.709626006450723
19.94117658264921
19.481925001016535
21.118505537563795
22.466612056790673
20.648739574845106
16.06775822134081
10.881148299008888
5.5201660995804325
-0.7107475145347518
-8.655142175666102
-17.339304668658404
-21.16583976004832
-15.446196496405667
-3.891907358126184
4.707013833752327
4.520904299738094
-2.123115228503744
-7.82645809796364
-10.029338547517453
-11.524161446840468
-14.755949081222814
-20.271344539508004
-24.529310810912712
-23.58910855978459
-18.56805689806349
-10.442545505978917
1.4675802217849105
14.403519971931264
22.488175362240348
20.875255482802576
11.197160530410134
0.5772012358686152
-5.8302367870286655
-6.4099241168520695
-2.702812564489547
0.9064511907717209
1.1442748586190794
-2.9237065894449463
-9.530624674573971
-14.41526958756874
-15.591879895137243
-14.127748849722717
-11.561792344983889
-10.241343906541001
-10.630924354437195
-9.297161090748894
-4.09641737463114
3.030678093160595
9.699467963556234
15.164874136644277
18.80330073945833
19.57445702386192
17.48971234714419
14.32021232423186
11.407605999095829
7.528507318051959
2.7915304401845753
0.5813372118031763
1.4707943878677598
3.4095874714726153
6.083023468878116
8.312516856251023
8.247794967650904
6.928513986916186
6.660705761157115
7.756653987092864
8.352052779822818
7.13046330886278
3.9322395995708486
-1.2539138468287105
-5.950991775979951
-7.360142946262029
-7.743772719475668
-9.550193877481867
-11.184281944595831
-12.257942685957072
-13.488850885826757
-13.97222787112576
-14.441354751447575
-16.389985942188872
-17.858303180694694
-15.905575788475968
-10.675931233863533
-4.827151390483745
-2.028632798033831
-3.718545973594232
-7.121269727554577
-10.276749055477762
-12.740525409961934
-13.626637380210065
-14.897125500892848
-17.728183136480492
-19.959076572668987
-21.081589689844836
-21.389420416086843
-21.86675493028493
-24.608507322300344
-28.561604113524137
-30.26499709274694
-26.56968100602558
-17.596539619245643
-8.577109601220707
-2.680007757269589
2.0884344782551887
6.391265596876576
9.29177192881884
10.941098304213657
11.013348090114146
10.008463227668646
9.796727357679469
10.69360743300852
11.270240084555837
9.426131364727212
5.035339336802954
0.7367765618527902
-1.8828304935419589
-2.001760550205883
0.16480174620241755
1.5066131474222433
0.2553167982277943
-2.856131957934037
-6.646859601558683
-10.817292090149852
-16.775867148172424
-22.692713098174085
-25.442530023775742
-25.671120184269846
-21.939424351222943
-13.98699855452415
-8.072318608779014
-7.752944041109498
-11.482445259478828
-15.524951016117576
-14.490996348961193
-8.204424121053824
-2.37488827785247
-0.5102031290395106
-1.7129555111353991
-3.3310245959626754
-3.1797424650574073
-1.1878313841254813
0.2703375424171985
-0.8723168113180076
-3.4921374417068107
-5.29195200204989
-5.2165930418105155
-3.296927366622191
-0.5756484796449322
2.86261264003071
8.08111943481455
14.322271305346062
20.076720629980443
23.808161978824554
23.522741699290126
19.85314617398383
14.891362451223248
9.910892014515602
6.760861273795423
5.41428722494023
3.211446522052475
-0.9215242614804838
-5.670373311722208
-9.644029830742083
-12.656609880395221
-15.430243282580847
-19.244807471258646
-23.904236109529638
-25.306204609248507
-19.862750620903313
-9.109632577276157
2.4357631793408716
9.07276633552988
7.562475852353081
2.0496654372711
-1.7357759987980925
-3.5982384861137513
-4.348725830948879
-3.257027114280178
-1.0363751490501685
1.9375451327455153
5.738844462127521
9.476827591115718
13.291053898058191
16.9925722706509
19.547889025818463
20.52755731447221
18.890359892000394
14.34951803623149
7.741620849310717
-0.27392599130297013
-8.491911664725603
-16.05085105802389
-21.587795269586856
-23.26779068900617
-21.127936283070305
-16.463027762915942
-13.252850951468588
-15.480134835649572
-20.282564526564727
-22.52187542241186
-21.31349849346553
-18.40153116717526
-16.4063612698425
-17.181762799688244
-19.2166185030005
-19.1343893837766
-16.25853228272631
-11.919315487314892
-5.930961154454075
2.4669509135918775
13.06734840985661
23.113687413557706
27.7405185103499
24.77765234001346
16.454325788551838
8.63959377115863
6.9257905124153245
10.635417112613789
15.39912431532113
17.56989026998812
15.038959718451109
9.389795347623307
4.037265712208957
0.49008106028955767
-1.8617393650512768
-5.471525607084857
-11.973177361659323
-19.726922354767307
-26.62293283271472
-31.287955574588967
-31.831581681084124
-28.31039257276027
-23.455362402544566
-19.48853498793032
-17.60575653407536
-18.328919221194216
-20.432765722591512
-21.668317149464656
-20.992691683568207
-19.331015854327852
-17.825379574874948
-16.338128284764526
-14.06560464113466
-10.628858134259453
-6.8382756075918065
-4.229620085966914
-3.57870054845087
-4.375428350343084
-5.2290532437657316
-5.0879905364299765
-3.754534049999556
-0.8920672837697888
2.882680378139874
5.373891031351271
5.65335584176745
4.65084886169593
4.2134168474969345
6.824889849768126
12.426418868226259
17.546726865557215
19.417668147840956
17.811985602478742
14.030420405725817
9.537390801809694
4.895009707142044
0.374146307175378
-3.9606129512672323
-8.282571578884452
-11.408521727987571
-11.988913771837138
-10.767040918022994
-8.77307251616464
-6.366159386825579
-4.719328177510705
-4.848521042420152
-6.589455240776142
-9.451375646581596
-12.451709275216384
-14.750984442465965
-16.824320533730422
-18.498882185976715
-18.053670373153157
-15.226356594475783
-12.044830675143857
-10.545505991747207
-11.964196045313084
-15.974486293066883
-19.92368739967045
-21.528385170979952
-20.184294619979255
-15.562044372014904
-9.085077691272412
-3.6888611605250503
-0.9175386279969129
-1.4064495636015992
-4.386729631805675
-6.461380449058918
-4.971150119405673
-0.10182260083190489
5.775867738835903
8.982824535645584
8.932252387773866
9.053892708876274
10.810390718649652
12.8044056192283
13.528776829620522
11.87805036949422
8.546987705426217
4.849377782829428
0.9568580202819523
-2.3592941707203097
-4.314855116310793
-5.118051392585998
-4.78316987954937
-3.754795083950848
-2.475952603298245
0.024706508298188188
3.9147909793537012
7.484449383855639
9.43420334320414
9.804107515139544
9.858337541917605
11.022063622173944
13.187937546306204
14.401006287758639
11.752866770360948
4.804239201307626
-3.451127236916641
-10.240661275256569
-13.727031324756691
-13.675836771306138
-12.235764718627179
-10.50410901559052
-8.548339597424373
-6.955062386783184
-5.827528632339707
-6.088377570744895
-8.09483059753369
-9.624648765998296
-9.296474531784805
-7.04055547115726
-2.9678238109429587
1.4390889985659958
5.13287198814317
7.742453313280957
8.725153541458376
9.71019905206134
12.637869574616982
17.06811525338562
21.70599331280539
24.83733119530329
25.8016233054274
25.54247234524588
24.078276046648767
21.81430257240645
20.002265137803306
18.045462911756637
14.96935309927651
11.082958300313221
7.336033936753254
4.884752170506753
3.3548139354633277
1.4126929965623831
-1.0011998608840702
-4.152057635064354
-8.807045020761162
-14.337044174335677
-19.92406776357119
-24.786391013065504
-26.823035354914893
-25.55040309883367
-23.060140738154878
-19.53874909591461
-13.758163392736527
-6.218287752940819
2.4555478343686694
11.493425905751268
19.472826253978504
26.2190633777892
31.3437042827465
34.014385111004295
35.16261874614545
35.803667769365155
36.467813546959775
38.326079056284854
40.51596164524877
39.12959691580188
31.830993508756368
20.714765317772095
9.68150221298095
2.078526633754519
-0.5019233447513306
0.1941325518225952
1.2959673572073338
2.353014983918845
4.843921605147124
9.32853047534861
13.50301596500909
14.797986495237062
14.0953790011726
14.269025687342507
17.57576886072449
23.687381089189568
28.873235499383235
30.01864509686595
27.203364924160386
22.1866640760744
16.824988965011286
11.041826639484857
4.451387291083103
-1.5129260941544558
-6.333005655900615
-9.418704393574199
-8.627094223053314
-3.3843047374200506
5.801836697699226
17.694518392453535
28.951681702636456
36.29456115278347
38.00461945956807
35.422002480897525
32.6097295146774
31.344198322517432
30.666534239291963
29.292453179405083
25.42215327359787
18.804822750495987
11.893291121423916
6.4574730067538955
1.754103747451551
-2.837281406563957
-6.080719051348791
-6.833719679174436
-4.077378340349111
3.385087765421673
13.08157979973164
19.01596439166132
17.766582498491317
11.563988706224801
4.68460941509751
-2.043617171696313
-9.614328369569415
-17.05396719721622
-22.920245588852374
-24.197533148180288
-18.399350513735797
-9.68331157208696
-2.4992784549852067
3.465209431688376
8.154662595427519
12.140115921754727
16.943564972549954
21.661054083264993
25.095888114701058
26.799479252010368
26.69685958945375
25.6368630844
24.095809105482623
22.510838770031267
20.87577636881004
17.28017588017986
11.238486135152877
5.1955801612361645
1.0689758504875628
-0.045933837382200304
1.173627740606184
0.20554556920345063
-5.611233086682567
-14.859245361700701
-26.387920515368798
-36.275908755193406
-38.74774538005884
-34.08005582088728
-26.279285421245138
-17.760938183882327
-9.7081085495052
-2.1652357164305642
6.043378573589615
14.666024722639628
19.763190107749764
18.702724516317335
13.890728920583415
7.518272851504838
0.8272686163136765
-3.5572128825536673
-4.702484002054627
-3.5368588066809408
-1.3379715683569584
-0.02967014921834975
0.08717571095381076
0.3560814386454791
1.3739072550840232
4.004174486090342
8.049048243201025
11.03836280783292
13.000602199794242
15.64643646312432
19.105776240542387
23.991853223200682
29.831781637392087
35.475057060776386
40.58951451555438
42.12895355428314
38.647958804360016
33.66439844704928
29.33314115682769
24.810220617559
18.313901527690494
9.073833185395744
-0.9805175540790491
-9.422481439017828
-15.25051444756022
-18.707149859672942
-20.24038989957572
-19.961495697435712
-18.46254889895036
-16.005421246688204
-12.113398577939211
-6.517730057624059
1.2769549018862247
11.150551253626183
20.454769898248816
25.768084679326932
26.66558172845382
25.725560573208515
25.528232172563037
27.24441742928029
30.81873250140747
35.028877703323836
38.1467088701265
39.76296351710659
40.57603985515695
39.85406731540157
36.62399719503037
31.857977448915914
25.406504540324367
15.5060822046704
3.171022427527404
-8.654986334689703
-18.35109400108437
-25.146624089243126
-28.99439026556458
-30.18689597134962
-28.44413692308077
-24.215251173058984
-18.93908180752052
-13.91385428703088
-10.148422459057336
-8.15944280900801
-7.14017020951211
-5.416804056677316
-2.483280576345603
1.692562272836245
7.881453246386293
15.902524704178258
25.16871204222621
35.33018202878363
45.0859963935197
53.255876611736085
58.9614330059351
61.39080027422515
60.936391177511226
58.862453370492524
57.031200208715596
56.61226134591957
56.113062722188225
53.15034076704241
46.816414100521925
38.24304048562236
30.59093799333338
26.611615194607324
25.947263225752426
25.904071783174473
23.53140725151386
17.513760918461998
9.973734536741347
4.874070956856585
3.8540203259297803
5.776325986247349
8.198952215117059
7.568262867551694
2.6587990576508234
-3.3429722536615665
-7.70567824871111
-10.416906149499587
-11.32834904148734
-9.87373692872212
-6.758413961444563
-3.5406231777332358
-1.2729385614838802
-0.27328918672887603
-0.20840449055547736
-0.41883944003320245
0.33882593287319024
3.7901850642117845
10.04785695762551
18.051564740572744
25.49719036829223
28.045037919558048
24.293053775402583
16.060392419996774
5.015504850507753
-5.603649261581596
-13.748137365873804
-20.326469422083008
-25.357539379699187
-28.88372473502407
-31.713750825097346
-34.04657210012235
-35.80687863130805
-36.05789857122584
-33.93477839804998
-29.16751941714301
-21.003504619935885
-10.238054983286505
0.8591774469652343
10.730818404777184
17.298198323706828
18.78829481149351
15.365142655838577
8.824648718660464
3.3365033349344406
1.5093077353328948
1.6598867784182987
2.6483868845442418
4.328049787083023
5.82260073298815
6.832858038851288
7.664300847883243
9.663943131498877
13.280558962986387
17.491893130487373
23.42654567404911
31.157919889032843
36.48019825749188
35.348161584696705
26.70534581779123
13.197031134375006
0.552004462089693
-6.505776409537813
-8.20234928651321
-7.9592151092728285
-6.309527750702567
-2.5731946844037674
0.97311321974515
2.8089219331345308
2.115925464688122
-2.5045143092500086
-10.500416429922756
-20.667940088145905
-30.397409494087977
-36.66158829506815
-39.44466905206256
-38.3917327507839
-34.263897066277224
-31.067292030931508
-29.84691235999742
-28.149071458627667
-23.486979829617145
-14.859893629810186
-4.427024099583096
4.822098638068391
11.132119727080212
12.483791134303067
8.97597923648618
3.947299834122683
-1.2421391283101528
-6.02803909179653
-8.848631637409834
-12.31738876024512
-18.337030348790663
-23.2349344076405
-25.040256704572563
-23.82423749066562
-17.642516646795244
-6.6897419020610664
4.78559546285867
14.441365530545733
22.310996980515654
27.141306827425904
28.974743377342758
28.4963875431231
25.940686233213626
22.261994709364863
16.335927016576225
7.580479487051516
-3.491642505833862
-15.977967601072754
-24.979693702831092
-29.365691451291553
-33.01132498051161
-35.76553352603552
-36.6073819099363
-35.16721675468045
-30.53238751422343
-24.09228774991083
-16.84373003894465
-9.7880611215457
-6.111989106229324
-6.405200072886651
-8.158317887976644
-9.368367550603141
-8.446537893071152
-5.07600259481203
-1.0446549071729974
1.62463319168469
2.079715219064222
1.7416092906146279
2.737541538843363
4.890934770523404
6.701376831584748
7.097816745049565
6.383328950287553
6.514460923129802
8.862910158147585
12.422724689729987
15.043830422023309
16.203164219296642
16.224854607889633
14.422137805542013
11.41874482080215
8.18536401979025
3.8790389044287643
-1.5134039675713877
-7.444659466302265
-14.14910091688666
-21.4307604391804
-28.663850312380212
-34.92489429834325
-39.51452889522359
-42.433151098006626
-44.348462052835075
-46.80278260709343
-50.210718458157864
-52.5890089232502
-52.19325040885181
-49.34910019326773
-44.78588956884537
-39.135976861732736
-33.78738723102865
-28.310408934438726
-20.20796833924815
-9.095139466551622
3.123279170990634
14.646461038984391
24.142725249410436
30.14160642133229
31.917168275132717
31.180879553676007
29.882301127706693
28.475614171722416
27.79823404356943
28.295664728614536
29.319039592095386
30.62660569332184
32.16975092197142
33.57092144742865
33.67182095513627
31.706704204393695
29.095152878577576
26.849211468903277
24.46869285710605
22.1703661534434
19.4399693155976
14.01918335244873
5.452785113380089
-4.398066507220217
-14.820024528547219
-24.5152612351093
-30.621219438076256
-34.42365852944883
-39.37986779715213
-45.64354243390634
-52.285728139301796
-57.16254971487777
-57.23911550723132
-53.046468821684904
-47.5558601262893
-42.819973713692306
-39.33353750785953
-36.23801948539478
-32.146904831034924
-26.575019651810177
-20.58996590616315
-15.446242989011669
-12.671894295133832
-13.610794063397648
-16.758128576194956
-19.738134057010047
-21.231100277116724
-20.336022128807425
-17.880907734168847
-15.114321072111172
-13.700728750225965
-16.539066125529946
-23.03594011024885
-29.180014780870035
-32.09392753223108
-31.942560784097548
-32.070441620031445
-34.14782621192292
-36.792022037005445
-39.77337810862165
-42.25332001072252
-42.592355427959745
-41.546242754080176
-39.68655402583686
-36.26305478592128
-31.450592724262446
-26.323547040166464
-21.97402687417226
-18.167524091234068
-14.017717481123471
-9.758007807236089
-5.563049521907723
-1.8889565229668324
0.561588170350174
3.316411538373666
7.502195709405455
11.846023221094299
16.2219209362245
21.135092308537168
25.785791637220374
29.614611900451692
31.585386461391796
30.43371840864271
26.610905475738203
20.95432162853078
15.160391677469166
11.40518715112594
9.176487096898379
7.3826386770075585
5.692677054089256
2.8764177800954216
-1.5624340137582502
-7.019717234798883
-12.87408770776993
-18.147789544867432
-21.854237745341226
-24.15022669151082
-26.129595178167953
-26.92823081413447
-23.978493576648766
-17.367462972909212
-9.390298310252835
-1.8703635775617387
