AAD_Filtered_TADAS_FILE
AAD_BASELINE_CORRECTION: BASELINE REMOVED
AAD_FILTER_TYPE: BUTTERWORTH
AAD_FILTER_ORDER: 1
AAD_LOW_CUT_FREQUENCY_HZ: 0.025
AAD_HIGH_CUT_FREQUENCY_HZ: 40.0
EVENT_NAME: 202302061024
EVENT_ID: 13207
EVENT_DATE_YYYYMMDD: 2023/02/06
EVENT_TIME_HHMMSS: 10:24:47.00000
EVENT_LATITUDE_DEGREE: 38.089
EVENT_LONGITUDE_DEGREE: 37.239
EVENT_DEPTH_KM: 7.0
HYPOCENTER_REFERENCE: AFAD
MAGNITUDE_W: 7.6
MAGNITUDE_W_REFERENCE: AFAD
MAGNITUDE_L: 
MAGNITUDE_L_REFERENCE: 
FOCAL_MECHANISM: 
NETWORK: TK
STATION_CODE: 0124
STATION_NAME: 
STATION_LATITUDE_DEGREE: 37.4087
STATION_LONGITUDE_DEGREE: 34.87911
STATION_ELEVATION_M: 791.0
LOCATION: Kahramanmaras_Elbistan_Turkiye
SENSOR_DEPTH_M: 
VS30_M/S: 583
SITE_CLASSIFICATION_EC8: B
MORPHOLOGIC_CLASSIFICATION: 
EPICENTRAL_DISTANCE_KM: 220.84
EARTHQUAKE_BACKAZIMUTH_DEGREE: 
DATE_TIME_FIRST_SAMPLE_YYYYMMDD_HHMMSS: 2023/02/06 10:25:05.0718050
DATE_TIME_FIRST_SAMPLE_PRECISION: millisecond
SAMPLING_INTERVAL_S: 0.01
NDATA: 14501
DURATION_S: 
STREAM: HNN
UNITS: cm/s^2
INSTRUMENT: sensor = CMG-5T/GURALP | digitizer = 
INSTRUMENT_ANALOG/DIGITAL: 
INSTRUMENTAL_FREQUENCY_HZ: 
INSTRUMENTAL_DAMPING: 
FULL_SCALE_G: 
N_BIT_DIGITAL_CONVERTER: 
PGA_CM/S^2: 15.079
TIME_PGA_S: 
BASELINE_CORRECTION: BASELINE REMOVED
FILTER_TYPE: BUTTERWORTH
FILTER_ORDER: 
LOW_CUT_FREQUENCY_HZ: 
HIGH_CUT_FREQUENCY_HZ: 
LATE/NORMAL_TRIGGERED: 
DATABASE_VERSION: 
HEADER_FORMAT: DYNA 1.2
DATA_TYPE: Acceleration
PROCESSING: Automatic Paolucci et al., 2011
DATA_TIMESTAMP_YYYYMMDD_HHMMSS: 
DATA_LICENSE: U (unknown license)
DATA_CITATION: Turkish Accelerometric Archive v 1.0 - Disaster And Emergency Management Presidency, Earthquake Department
DATA_CREATOR: AFAD
ORIGINAL_DATA_MEDIATOR_CITATION: : AFAD - Disaster And Emergency Management Presidency
ORIGINAL_DATA_MEDIATOR: AFAD PROCESS SERVICE
ORIGINAL_DATA_CREATOR_CITATION: AFAD PROCESS SERVICE
ORIGINAL_DATA_CREATOR: network: TK
USER1: GuestUser
USER2: 
USER3: 
USER4: 
[...]
1.200695495078696
1.0069824601645647
0.7310255177336077
1.1342079385843142
1.9817979028092148
2.8798633056571337
3.593746797186347
3.7763767488690174
3.6198752343777096
3.589869951246887
3.843130148839067
4.181103902951996
3.8399255111597164
2.4590082834999945
0.7586777109252154
-0.49763447915432507
-0.9101049577844089
-0.39213941083698284
0.3342043854169403
0.22723144285596625
-0.5587533320770827
-1.0642976616253583
-0.8929575914571668
-0.24238325211001385
0.16711130022454143
0.7934542365656104
1.7853020394497707
2.2937638509046514
1.9106720682004728
1.0616353974980948
0.1902230080792697
-0.6675135205381921
-1.4025140667463485
-1.8930633416909166
-1.5916184275087828
-0.4173101775443796
1.1617619060100102
2.4177298941504315
3.284555671255336
3.7592112373386817
3.6094716221199614
3.9342317077839373
4.937162840435218
5.90746620905495
6.405297399752376
6.207381670145488
5.669629382603565
5.081007460292594
5.079856877729651
6.023395269438335
7.364679390095663
8.794288555339284
10.08593211152507
10.90138135445242
11.1591467715067
10.533384960254832
9.268349746340549
8.472500995220411
8.576802666208474
8.948957247431805
8.90298695275482
8.17361201706421
7.167728695200763
6.492969967781869
6.2871573703432695
6.690152971582754
7.631938222421325
8.703867347565856
9.5476756095397
9.855855487736216
9.804126104672914
9.673282739561376
9.608930943287088
9.931420580865785
10.487119079467549
10.714392290051586
10.558129898579766
9.821376802520259
8.750932280071915
7.849475866568337
6.954807838188761
6.1503220793302145
5.667707532374016
5.6082459396477775
6.017661001369432
6.508544050206735
6.9510428834091496
7.424280186486283
7.7836891023205395
8.26708767918918
8.489821461399977
8.477369383865856
8.320198269425614
7.522719142576407
6.620431566623206
6.05113641225459
5.481589740894293
4.72446885743187
3.846981024219705
3.1222130770191527
2.8835596897923663
3.080336164433956
3.9159135374854945
5.301109005938512
6.452172951061347
6.965912738049108
6.789856143133186
6.3512772886032565
5.848224928515694
5.257056373616295
4.993129870072009
5.2116604468840935
5.904392736015896
6.651582279713781
6.688393904110933
5.835983935809342
4.617874742500727
3.7575198947120594
3.6419154990073106
4.028938702617935
4.447883579323664
4.519455137863286
3.8224788229187485
2.941796846169562
2.759923281691623
3.960261912936676
5.898227648370856
6.8830768182007285
6.978267027611189
6.275963671419586
5.124813716603055
4.420111401142403
4.156130452174514
4.020577254558703
3.919195020119005
3.796737110563959
3.7223557173622015
3.577365749850375
3.088205242212104
2.654521138874718
2.5453466004472625
2.87794842430922
3.5814518747557686
3.840052502896032
3.5008918239560938
2.954502336680324
2.2851943298126827
1.458492666935325
0.6857577514373563
0.05074560206519423
-0.3914611326684411
-0.537272183978977
-0.8355504666033615
-1.387818399759599
-1.9530263666314032
-2.380340192027142
-2.274623991260936
-1.7903558694884727
-1.2194079325898375
-0.23493143106024747
0.8065953292700677
1.8233603340355318
3.0127159412540863
3.686578935765
3.730407406339122
3.661050352566695
3.3174164339286327
3.005418430154277
3.0832829266565436
3.483755833369317
4.182585717508826
4.813524831408408
5.43903328651241
6.347777638811486
7.430749206259277
8.546271098117517
9.168342976011553
9.211615034743451
8.935168364518894
8.173719527451288
7.290951874506594
6.457144211414045
5.923611314985666
5.513416962726017
4.573707196713941
3.6865634898184436
3.581043178845776
4.801770795151153
6.667368392845585
8.057192892960527
8.682025268785646
8.068690992319151
6.821712432769527
5.766471833551434
5.557086527408471
6.145267796106367
6.814848891618004
7.235947008491936
7.266917127999055
7.4642355081233696
8.088741261928776
9.075816836795191
10.329110175763807
11.144023178131205
11.025466893134297
10.249433456393321
9.594820946772888
9.858406082532976
10.639077610850492
10.857461822020142
10.523510822131223
9.836425224022511
8.99901290048146
8.83893011248049
9.550182936006362
10.935435738054426
12.42596800221686
13.186161537118696
13.12557552674044
12.502514779948514
11.32387962671811
9.959559117589942
8.909753759643195
8.53330562848843
9.151663870370982
10.311717002783793
11.291319435386685
11.560135417286896
11.081177273468015
10.40812719037948
10.104357846785282
9.973086748443496
9.943225630920214
10.122738096993343
10.114031037240906
9.463617558316788
7.966912720957933
6.520460125288209
6.348140631316974
7.599291280957081
9.146697440989554
9.850061932258718
9.424314407968541
8.083824622952797
6.18302464925651
4.045286222881653
2.010170001803166
0.07596736414732305
-1.7122097626099209
-3.0595494861229056
-3.418961366340136
-3.078648498285545
-2.917509837914618
-3.425552710313345
-4.300802390226926
-4.544959177197703
-4.136175350101498
-3.583834512867166
-3.1241106526796516
-2.6051708331847756
-1.9470563059945014
-1.3221237607431557
-0.8502308163672233
-0.5101430650836268
-0.6116802001067934
-1.7248813411626194
-3.5822519355408593
-5.215253066102443
-5.8874189961528
-5.66903032357321
-5.194628408399665
-4.8978799772433845
-4.447547765634405
-3.791648873175741
-2.99625905217411
-1.9442391470359903
-0.8899171279955765
0.16027209799330644
0.662378520482481
0.7119851197592592
0.97861266935416
0.9977844646648204
0.3735664315984045
-1.0370694025116491
-2.583099475754409
-3.1945243109112536
-2.698320149769358
-1.505980508628211
-0.7809896632867599
-0.8644757099115228
-0.9263127632990856
-0.4112346715385561
0.7044585276598825
1.5199493931326686
1.1007139216970574
-0.623473221270212
-2.661594474877803
-3.669211293168325
-2.9502476082797173
-1.108358856415314
-0.08399149209912384
-0.41914247519132536
-1.0370524586283019
-1.102408010804818
-0.1296372320587649
1.231522257112803
2.110219673074566
2.0026475062983367
0.5172501621369365
-1.8834089986860707
-4.3970039129867615
-5.960793804406566
-5.643744613496065
-3.5755606579600516
-1.0866101945685305
0.23604541261411227
-0.04628500853364248
-1.802391022999588
-3.892148945418501
-4.782087131465262
-4.436575407385601
-3.525138914720001
-3.3732748836239854
-4.456579097544987
-5.6799930665055625
-6.37539126439228
-6.224425207116272
-5.289284242074669
-4.515118859043448
-4.439146504627949
-4.433897193977349
-3.5602612249790972
-1.1028540809913212
1.9382795391703507
3.8839337559659057
4.294845199154652
3.276632019460816
1.9081881449120455
1.4520489789691748
2.065626503039651
2.769495458609621
2.2115344038159366
0.1430983163287165
-2.5864132682085836
-4.466817841846351
-4.13941805898551
-1.4915915081909552
2.244127072008163
5.412661774183533
6.903713083419225
6.772708640352214
5.859943406905546
4.8251485743037135
3.904442494796956
2.865809016914293
1.3495576605366884
-0.871730685604514
-3.4824150048277396
-5.486690148431572
-5.6675247431734626
-3.353969889138152
0.5649561137345935
4.27957502869582
6.571307157707876
7.110541070397554
6.555814024267853
5.5926073556619285
4.060264201449105
1.747134017688044
-1.017665906880105
-3.7067779153884515
-5.737593562719763
-6.592894573480645
-6.259778871317588
-5.138238848320566
-3.8232548669159594
-3.6602070349959495
-5.252427047285933
-7.384683064099038
-8.815363974675575
-9.086316253707064
-8.78288362678529
-8.457410200317431
-8.045452322595139
-7.602922721444517
-7.10655753780597
-5.8665504835430315
-3.86198444219423
-2.4810367009534238
-2.787497726500502
-4.482668566955372
-6.758775778328305
-9.314424190056018
-12.040883572971468
-13.665274508064307
-12.792689771769778
-10.136323466322574
-7.234961681443439
-4.762545520029789
-1.9805490891298234
1.5145681736431524
4.73605991568519
6.929728646330681
7.537443487204385
6.787945418320807
5.620892077366412
4.054062991068482
1.306936891354667
-2.434375365637835
-5.839635697496444
-7.294317160390925
-5.46388652905358
-1.2196715886400868
3.1332901422969184
5.718465711477238
6.186253796485753
5.467791786396158
3.601147512007832
0.8097060174973126
-1.3625732606498033
-2.0587670978753216
-1.5205250709070974
0.05007673407744549
1.6660707344770906
2.146784600099255
2.0552431477486777
2.1478947081793023
3.2561826443702486
5.693945591932533
8.103186555329774
9.26110329635577
8.545358727947534
5.8503475769535545
2.2647542349160927
-0.9013804555364892
-2.5245860134484484
-2.057114713643305
-0.3512502516703114
1.2902768296638203
2.0257947327710037
2.005368199461638
1.7756147388031358
1.2388406425828773
0.04232745956574689
-2.246020898100022
-5.10107136067703
-6.338725566752652
-4.550262545934098
-0.576473069630264
2.7624155929501604
2.7628687512880594
-0.6700212216754642
-4.9095748355613305
-7.5220311358824175
-8.3912458248037
-8.391302543746203
-7.975671723697101
-7.74021410193227
-7.915512132268232
-7.8143232086639705
-7.0442497340017525
-5.518908362743044
-3.3444872588571863
-1.5215175195768675
-1.2026785275414498
-2.0275910269557094
-2.6662430743064114
-2.6891550745687596
-2.91161492096545
-3.952310598700804
-5.875099259133569
-8.399601186712367
-10.654987625566909
-11.319328500482449
-9.929928126862139
-7.228774944025195
-4.672631548721326
-3.2452092192512287
-2.245723634361826
-0.2645818708338163
3.3489958046755093
7.235696443035038
8.544411261558862
6.163182239678019
1.2567839662029314
-4.040952321147596
-7.641809559856768
-9.058548382748288
-8.87658873753871
-7.487790886730745
-4.93715263697467
-1.5207898393731556
1.8403874941031741
4.278716496636446
5.360011287813637
5.007796281265954
4.003194260288712
3.076959852009626
2.2863656793394185
1.2254818221241108
-0.6786926675634416
-2.843628909979982
-4.147052959590733
-3.3865763438916097
-0.799286736874444
1.2458015718488051
1.4022647459043733
-0.027856066192181325
-1.8981387287488265
-2.983649403734097
-3.3380768096619837
-3.901037663486785
-4.9995344589733675
-6.679616183238365
-8.448488947744274
-9.775778775197333
-10.36925875799222
-9.53966100476673
-7.232885167877773
-5.132068050724786
-4.2764066559889
-4.181047820126742
-4.118385550715357
-3.5024377094673635
-2.948059425306702
-3.55221243393317
-4.7065800725293405
-5.855730695715608
-6.942951584914931
-7.06308837210304
-6.2855734780264045
-5.012556060466086
-3.673425486686568
-2.2654425481791822
-0.4095106293802163
1.2251125332299326
1.8428940686448911
0.942609088527005
-0.9809378324994449
-2.995138909789464
-4.389454024404822
-4.7308603527224795
-3.8352287440182
-1.9379054582964939
-0.04408081194002094
1.323434048281527
1.886143137591339
1.581845940003636
0.4785177127762095
-1.2727916644823456
-2.9967114316551435
-4.383414568706833
-5.612805139253539
-6.66790599881381
-7.55127628741473
-7.753480380096454
-6.032046837758572
-2.202992049945766
2.0494950317377048
4.765947942020356
5.022812077629655
3.5057138142595243
1.836476356593579
0.9677049257274156
0.5775615241027614
-0.6365797356650778
-3.902245943715554
-8.915150260901456
-12.843219923303748
-12.65383845546812
-8.841333952392315
-5.039412270296186
-3.6239690612859916
-3.4605840407135102
-2.99819731388658
-1.5831429600394382
0.662824347110075
2.654217055745323
3.10363081035312
1.313841646893313
-1.3052970244239732
-2.767138830137866
-2.2029885101410476
-0.537833934966964
0.49072455576194196
0.5906531677895572
0.22566603531939855
-0.7103673482745945
-2.404230290034511
-4.092591302804926
-4.9014422975330145
-4.43030401171007
-2.6521020335536227
-0.014398185510575133
2.1079126569628484
3.498702366592652
4.3261447509134605
4.7775830777383295
5.35475548381759
6.211593896566188
5.623519321268601
3.9093707162736244
1.8621198141835358
-0.48444226749149943
-1.55490315660561
-1.697492353270743
-0.18012711382620836
1.5939224263070424
2.0824700302492962
1.3587760126340709
0.3457685951097192
0.8526869987579487
2.0990441485878364
3.2015730116851455
3.974515409260488
4.774918590003108
5.21216907865868
4.98626222935273
4.242992491060125
3.1121659831277393
2.6157415748547326
2.8283984346458655
3.187109399377798
3.0851777122196493
2.3799792484951934
1.1860176385654877
0.24853723404076372
0.4005689036980779
1.591459843463345
2.9817232014946926
2.9168295901763037
1.4923575169026833
-0.05147369998483363
-0.7663967699829035
0.2875440603767711
2.1453283849482028
4.149205698036374
5.9586623791763165
7.02679150479844
7.379085553034972
6.656060346715286
5.144552449152493
3.4776238510798767
2.065359312882994
1.1163349608667992
0.8868932704976332
0.833733804649711
0.18598729832730806
-0.7345108706713454
-1.617220991311347
-1.5196646973849695
0.04243113621885765
2.467400435180476
4.501337710662488
4.759316364380817
4.012386815713847
3.9402061152243557
4.925579081724904
6.182393167937867
7.042182156073896
7.239284010859573
7.430029716027392
7.950921655684451
7.906975029458013
6.787388976844097
4.583638029940661
2.944325480811611
3.459385921108812
5.801473330410703
9.181207718804002
12.439729488008801
14.547654539868926
14.758328564156205
13.027570322799633
10.07378810635882
6.91189279442423
3.8939075113840267
1.1439770044745978
-0.9165246314984719
-2.0376025928971075
-1.9649496586660649
-0.8800677377599467
1.0680796356368476
3.3892854001868993
4.831814258619864
4.339085568248193
1.8624388023282685
-1.1060704413576747
-3.4128973151832094
-4.203546211002559
-2.880535150940549
-0.9569974433482495
-0.25530920412544167
-0.4356914669606063
-0.2629961168093834
-0.10947634646258175
-0.2143937905908951
0.11540306517540844
0.6505714465132758
-0.20255927127258821
-2.934163847159213
-4.936397821623378
-4.192615140948047
-2.204017520204934
-1.2952159062471313
-1.5891151460745672
-1.7076525822171595
-1.2135540934677946
-0.6962354573713735
-0.18639080209966905
0.18935393976066764
0.4692990694450039
0.6779820852196982
0.08047676572033079
-1.5448440870881421
-4.005456161179411
-6.423991088331346
-6.81568340319257
-4.189224241194307
0.06743070429649978
3.3955532936335313
4.7319205106194175
4.555911591947172
3.4308015333610338
2.3359871860382726
1.4366441879503182
0.2505125588689694
-1.2728029616655223
-2.751473941262294
-3.534141086147932
-3.1034225374480644
-1.513311740684089
0.847811591945916
3.51764840028755
5.740355021979933
7.2336576822920255
7.968838654610933
7.771161244884829
6.577396610879469
4.418584196268071
1.6533079675967621
-0.7863471549516556
-2.443790794683794
-3.203925853973774
-2.165930878390594
0.4870088738099468
3.592213647446934
5.761312526678289
6.0034056496993395
5.020887816362042
3.848865040083735
2.926583823840565
2.0949501717685153
1.1156275241190503
-0.21951357964131862
-2.222900521303814
-4.338589228209257
-5.773330948563642
-6.52043716866658
-7.148621864422522
-7.402084789745613
-6.321503099103515
-3.8411572819997875
-1.308874566824445
-0.5035274539761477
-1.2142266934581678
-2.792352104797899
-4.322258634231166
-4.7044571089723295
-3.8363339243403876
-1.795276480516233
0.2593473166608416
1.671563817137621
1.7777013071527483
0.2314205348784534
-1.5716004386691937
-1.9875453890923567
-0.5086439192707531
1.4080725346363416
1.8583345080475693
0.0094381706489079
-3.406204195669778
-6.674053043804234
-7.7277106123678685
-6.2382703393000805
-3.910901298199069
-2.1057536278935185
-1.4831580838727378
-1.9649190621258503
-3.039792827443456
-4.004649551461407
-3.957893602818699
-2.689234437038565
-0.7558870331622772
1.2935905514860757
3.571536295597262
5.583097018180368
6.5254762778743975
6.1470808008321
4.5548896191771435
2.528883787087379
0.5899774257645124
-0.9576987907718406
-1.8290743574986361
-2.00854353390208
-1.7477896649795523
-1.2379650597657794
-0.3504809639354138
1.0212107045029872
2.5699405710679284
3.540522330459207
3.23061927937555
1.7430317412625402
-0.21852868107083862
-2.1072418025647446
-3.4673896836997757
-3.790361201610819
-3.049513203812228
-2.385267690395205
-2.426413884340994
-2.381203385246689
-1.9011283895696265
-1.3525751467322085
-1.1406379634448462
-0.8921651426415859
-0.49628081299792043
-1.2950915026808252
-3.2199925766275923
-4.722899266961667
-5.145911663077936
-4.891026330286714
-4.87629743267179
-5.202144034160961
-5.687413571021441
-6.056866928360189
-5.859958087634767
-4.99677076090796
-3.894788337538478
-3.366316305306974
-3.672956688389857
-4.9994174044407
-7.0642365119323385
-8.899503579126513
-9.797405675642612
-9.748958997018862
-9.11475264540195
-8.063800998108949
-6.783136260036461
-5.80326814494721
-5.194968050737137
-4.739957887722325
-4.718698705252848
-5.3190755947256205
-6.8275024983357815
-8.722240661028744
-9.963791088593284
-10.212127401987996
-9.461345835696047
-8.355563595034202
-7.353697223464179
-6.603010451881594
-6.31877955677442
-7.037742151918599
-8.961140598581753
-11.017666714807078
-12.41546194337122
-12.810676762348272
-12.137977131067055
-10.803113964277502
-9.447651817447797
-8.576192663114
-7.783861497151085
-6.419373945481251
-4.916069598811851
-4.584630301270086
-5.6456398590760415
-6.916958633713543
-7.419179516405953
-7.230760442185165
-6.8838399405400414
-6.52683086575476
-6.473741140968488
-6.764107343176139
-7.193749579253209
-7.795970925143649
-8.337962226422375
-8.809907389030702
-9.20653727491581
-9.190369016413422
-8.783179919104343
-8.27763001473611
-7.6847521749275876
-7.060307135202701
-6.62622977571988
-6.461503058601608
-6.385851097624854
-6.237741470825856
-5.942643233314339
-5.713495019901312
-5.9313961744795
-6.592854836311333
-7.495177564077657
-8.334268592836136
-8.788121475879631
-8.678511751577615
-8.100188074576591
-7.284560121766554
-6.404344448445017
-5.559754967281192
-4.962703839133659
-4.641069169499691
-4.226242154951486
-3.696454039830674
-3.9128574396853484
-5.460253098289785
-7.776756373687762
-9.68367555332018
-10.032191342587678
-8.5875110451602
-6.05248969199953
-3.711434314812805
-2.620812706980385
-2.643534818652256
-2.6773787376549962
-2.0067332204801147
-1.1827604264603118
-0.8823843010843192
-1.1942951494417653
-1.7909089093176958
-2.1104264931044
-1.7594451794996837
-0.7660838758125479
0.13016261080454722
0.07048840327664947
-1.102455980190023
-2.623014922925291
-3.5308764501918084
-3.3879607731425385
-2.427414859105108
-1.5144808787626334
-1.2448896675717138
-1.5539556487615929
-1.9767066817828145
-2.37238306595161
-2.706752279743622
-2.672781593716455
-2.3503310835456985
-1.9601146668944076
-1.935199263923151
-2.266709600757401
-2.566077425191678
-2.59240551122848
-1.7763493451136136
-0.5373257395328276
0.3539250356397379
