AAD_Filtered_TADAS_FILE
AAD_BASELINE_CORRECTION: BASELINE REMOVED
AAD_FILTER_TYPE: BUTTERWORTH
AAD_FILTER_ORDER: 1
AAD_LOW_CUT_FREQUENCY_HZ: 0.025
AAD_HIGH_CUT_FREQUENCY_HZ: 40.0
EVENT_NAME: 202302061024
EVENT_ID: 13207
EVENT_DATE_YYYYMMDD: 2023/02/06
EVENT_TIME_HHMMSS: 10:24:47.00000
EVENT_LATITUDE_DEGREE: 38.089
EVENT_LONGITUDE_DEGREE: 37.239
EVENT_DEPTH_KM: 7.0
HYPOCENTER_REFERENCE: AFAD
MAGNITUDE_W: 7.6
MAGNITUDE_W_REFERENCE: AFAD
MAGNITUDE_L: 
MAGNITUDE_L_REFERENCE: 
FOCAL_MECHANISM: 
NETWORK: TK
STATION_CODE: 3134
STATION_NAME: 
STATION_LATITUDE_DEGREE: 36.82763
STATION_LONGITUDE_DEGREE: 36.20485
STATION_ELEVATION_M: 29.0
LOCATION: Kahramanmaras_Elbistan_Turkiye
SENSOR_DEPTH_M: 
VS30_M/S: 374
SITE_CLASSIFICATION_EC8: B
MORPHOLOGIC_CLASSIFICATION: 
EPICENTRAL_DISTANCE_KM: 167.34
EARTHQUAKE_BACKAZIMUTH_DEGREE: 
DATE_TIME_FIRST_SAMPLE_YYYYMMDD_HHMMSS: 2023/02/06 10:24:55.8608700
DATE_TIME_FIRST_SAMPLE_PRECISION: millisecond
SAMPLING_INTERVAL_S: 0.01
NDATA: 13501
DURATION_S: 
STREAM: HNN
UNITS: cm/s^2
INSTRUMENT: sensor = GMS+/GEOSIG | digitizer = 
INSTRUMENT_ANALOG/DIGITAL: 
INSTRUMENTAL_FREQUENCY_HZ: 
INSTRUMENTAL_DAMPING: 
FULL_SCALE_G: 
N_BIT_DIGITAL_CONVERTER: 
PGA_CM/S^2: 30.571
TIME_PGA_S: 
BASELINE_CORRECTION: BASELINE REMOVED
FILTER_TYPE: BUTTERWORTH
FILTER_ORDER: 
LOW_CUT_FREQUENCY_HZ: 
HIGH_CUT_FREQUENCY_HZ: 
LATE/NORMAL_TRIGGERED: 
DATABASE_VERSION: 
HEADER_FORMAT: DYNA 1.2
DATA_TYPE: Acceleration
PROCESSING: Automatic Paolucci et al., 2011
DATA_TIMESTAMP_YYYYMMDD_HHMMSS: 
DATA_LICENSE: U (unknown license)
DATA_CITATION: Turkish Accelerometric Archive v 1.0 - Disaster And Emergency Management Presidency, Earthquake Department
DATA_CREATOR: AFAD
ORIGINAL_DATA_MEDIATOR_CITATION: : AFAD - Disaster And Emergency Management Presidency
ORIGINAL_DATA_MEDIATOR: AFAD PROCESS SERVICE
ORIGINAL_DATA_CREATOR_CITATION: AFAD PROCESS SERVICE
ORIGINAL_DATA_CREATOR: network: TK
USER1: GuestUser
USER2: 
USER3: 
USER4: 
[...]
6.389753440246796
5.7690961586235
5.14408276375457
4.077995146242016
2.5905849656144646
1.4571322667675162
0.8989512757298649
0.046998688393989456
-1.6302754172476168
-3.341766042245951
-3.5740457984813707
-1.7870999510447294
0.9004807200764344
2.903847268440339
3.6073047438269175
3.3293886392670675
2.121264355325507
0.14329518481389578
-1.63893228303247
-2.3416524267370984
-1.9056585207803667
-0.6492345490892266
0.9977715728667159
2.424613859634626
3.288174898621184
3.554433305777246
3.3492806633676406
2.749710997399259
1.608565916116437
-0.19024796013205733
-2.2755769540842588
-3.6757499231333797
-3.7134604705185428
-2.502817572513342
-0.6235813946374493
1.1414195292035427
2.284551474554229
3.019197530416868
3.7317642298134954
4.110395999494968
3.7004161932251023
2.91086259011051
2.442781302910955
2.2392705356304474
1.7222217293896065
0.6191372578350607
-0.5838021709372246
-1.1639200346696827
-1.0883386593060171
-0.7137100116806445
-0.2146025229920857
0.044657846362661034
-0.515602517341402
-1.8085032009172979
-2.8821218556772257
-3.194954444596469
-3.144678418035026
-3.153581589640748
-3.4527224459098025
-4.018351046081577
-4.504332985813639
-4.60958260119343
-4.089975617302214
-3.19634168921927
-2.7936364765471793
-3.410319960184863
-4.534039380576365
-5.264013588619468
-5.347425099356073
-5.229240359286726
-5.241089918440597
-4.8613362926781605
-3.656496755423141
-2.0932996164818176
-0.5822217296965434
1.0475908155688205
2.9619232980771217
4.850468649452514
6.015051047375766
5.816890748329865
4.587783649175276
3.589610722171273
3.462112381619375
3.6756893284539083
3.5883448297507745
3.366408892375214
3.526744069964677
3.9658745138522904
3.9578988875796823
2.911182136793188
1.360649397349129
0.20539174447005515
-0.6702547637431213
-1.6440892701948755
-2.8395996915051698
-3.8946621319451182
-4.255873380443473
-4.200228889515507
-3.976001591287655
-3.448518561342776
-2.8270771918453024
-2.6240311700258068
-3.1840602420732584
-4.121402178707572
-4.961241156229703
-5.724646760021207
-6.242769868504564
-6.363997912008961
-6.508865758640621
-6.730518515662775
-6.305788393969433
-4.941117518419226
-3.1461867130640866
-1.6144794580594946
-0.79055704180842
-0.5489442282257608
-0.6272084827454423
-1.0226577636021275
-1.7157288299791362
-2.392960249803671
-2.639902847936888
-2.531576635723183
-2.1539161672374902
-1.1121564868942742
0.7454294719165304
2.816799993577168
4.218873483624521
4.482009477263091
3.7754364484178677
2.7497585879630786
2.0574879116303877
1.9720338634686776
2.2300695309191183
2.580071126757393
3.215759863302403
4.112987191042987
4.745181366431043
4.8027444573197835
4.505219283342339
4.017287103440922
3.221755213171467
1.8558526125038153
0.0218404522725041
-1.546261844303674
-2.063602784443595
-1.5522718833358902
-0.7394052389410867
0.1566449083391452
1.0562732769282799
1.5777149559146366
1.5257048295487918
1.0140295850282837
0.5341395987002285
0.4048372863582816
0.6792849654202051
1.098874667057852
1.3141474456801754
1.4938952487482333
1.5427643232888268
0.9664245125305044
-0.2898751130244501
-1.7385842739661301
-2.6365379105063966
-2.469505572144753
-1.3896388789856842
0.03404062018675685
1.2755859042055595
1.799559280868879
1.502777067102977
0.9974831881364105
0.8355238205896149
1.2368488132657576
1.9421031426590807
2.3290880013620305
2.2917501671294636
2.1632550045424734
2.056145708253526
1.9582045284119416
1.9953388586180703
1.9570318908044704
1.3092247105218076
0.1923025545457573
-0.6399130079723444
-0.49360531436927996
0.8613315658958316
2.64569618045294
3.58927764514064
2.8852021503162746
0.6855402916866428
-1.7787685560682212
-3.39924886271838
-4.0666048089000455
-4.038530355424819
-3.5089192253546595
-2.5698265401396347
-1.2637765169783053
-0.076701057639662
0.5694831887178117
1.061472868531936
1.7061451291822793
2.306521323292447
2.345486073528206
1.4109769271811494
0.02775747532491464
-0.8822149085080359
-0.9812676235398041
-0.7138238863355381
-0.5797043304409414
-0.28131021418121405
0.7637955302439724
2.352681257291086
3.7527707951665406
4.660686694545283
4.966969732523012
4.580975918833882
3.7569567575645197
3.1307989400981864
3.2423427922333823
3.6724747357937586
3.7695018366496225
3.6359885831621757
3.3296547997100587
2.4957180989485632
1.1361768371158945
-0.20247421084488212
-0.9505828727203396
-1.1086665126000264
-1.0236857290388464
-0.6102964897290444
0.3018708423510772
1.1633728841299038
1.1088952762393227
0.18976408395551853
-0.8960536847583676
-1.961150102209376
-2.9447173763029206
-3.3290585949584943
-2.5420253364504406
-0.8320910083877638
0.7487193447599683
1.717040007959116
2.68731340672919
4.011874505774738
5.022243476163716
5.230700106342081
4.877762922015003
4.352859652427043
3.727378491835121
2.8337831025323323
1.9021143640465867
1.591379764854208
2.283862963552598
3.5235585191585246
4.538663440875478
4.97431744444538
4.931431700890985
4.730336600491778
4.639759553099899
4.702061416462452
4.453504785574957
3.582036095477049
2.5350636174205095
1.9203575526261258
1.6633327065631565
0.8862517973182091
-0.6002743763428129
-1.9697678308052413
-2.546545200571678
-2.0551784136010443
-0.8322403607706811
0.41841410435631976
1.4782162359337676
2.3086812707796978
2.559607388958001
2.1402646617820253
1.3417323322102328
0.8833089195395344
1.401974521076956
2.250741287966893
2.477606889724848
1.9862463145011322
1.4994034992002958
1.751462949877134
2.406789919254938
2.890559325209342
3.00291793524846
2.941015274504734
3.1293279328990007
3.422133250956002
3.7253728999110334
3.9835964277835116
3.924153809955352
3.643344805544569
3.029238408973663
1.816645626947077
0.10304901160025849
-1.5035565489670148
-2.2386941505435964
-2.1536388154469304
-1.8200973428012952
-1.6178259997508315
-1.4787908089805817
-1.0565432250039202
-0.37079654039541093
0.3205950295149953
1.1126938820097565
2.0991683330228774
2.7585443879934903
2.7632997372321295
2.6651842409289923
3.1174847446922063
4.060201241564509
4.609040643817541
4.118964433253297
2.9849234999510026
1.9915809057214457
1.7745002947595527
2.4275437087699756
3.3356452221927277
3.9331950414066568
4.0036387135399085
3.512773141371189
2.823970825984186
2.3689311634057044
2.20540064045099
2.0926927055856295
1.8997404243482687
1.6912321284132463
1.4672253297842381
1.5251551069775335
2.279348424388961
3.6171854485278763
4.897614764736785
5.4741506266906885
5.160151770718426
4.3882779036928
3.950222248308788
3.912832678444381
3.9962464941958746
4.106004502588944
3.811607118331945
3.1887292490851626
2.875445122155153
3.3279248609196443
4.42209691790304
5.605672522226244
6.525253339607792
6.851555176866424
6.605311054634099
5.97385686339415
5.127154452950898
4.578058062768444
4.5070862970075405
4.738425086838166
5.088024627653436
5.489513778243485
5.8695423226021175
6.117922992568724
6.297859126616069
6.447516431761423
6.758776516969219
7.289641361467101
7.895275842203218
8.472620203399355
8.666018851273225
8.428786121453616
8.24946175367866
8.378905409817152
8.598095831516597
8.519938536081133
7.7980758252377
6.328218956671069
4.3685556122502405
2.6210832672798587
1.7287501939967385
1.700750563363725
2.1051813901904395
2.459601529907007
2.713412139958537
2.8620170790513138
2.8372699966466017
2.746340958410321
2.634029464771631
2.567538436653173
2.283144017256588
1.6321546365278
1.0684260291259098
0.9356238755759422
1.2090258362408373
1.679816238527943
2.1357143562301055
2.389826058844259
2.089961853538932
1.0799204079247118
-0.31249899369001716
-2.0040557211701158
-3.878839713203518
-5.274712912272376
-5.804182210165436
-5.662437147919605
-5.204808330919461
-4.484116077298815
-3.555827442376873
-2.902049441910116
-3.0068195263354864
-4.004654349901199
-5.568747517159326
-7.310237008264444
-8.822583463139816
-9.447235010529777
-9.100520602389937
-8.277550547132106
-7.232595760093879
-6.060633793106596
-4.879427136305946
-4.011575721778597
-3.6484914488100015
-3.412431990022759
-3.221471109065297
-3.2372718149361126
-3.725897089379703
-4.922611054914231
-5.98015703328073
-6.156860575613973
-5.61958437562204
-4.747376008523328
-3.9727134066951537
-3.545480943384111
-3.5858344989842053
-4.084659609953013
-4.739846474508179
-5.114699131153403
-5.205261048132775
-5.2095660347748405
-5.015746548824297
-4.538715848325089
-3.6376478562681736
-2.5650324369308684
-1.9672091873747664
-1.6383920403041041
-1.4927324924746141
-1.9690453584027028
-2.9187265173353794
-4.082939109139574
-5.000883836820085
-5.042034044617209
-4.308491804580754
-3.456514993965878
-3.115672019262708
-3.6562432732604817
-4.568071754256103
-5.1365035229537135
-5.5427780695614395
-6.182597929443789
-7.122219387378873
-8.03078804968635
-9.067616316587394
-10.39943795239896
-11.351587253035046
-11.77645590665041
-11.929050841618103
-12.1470533774115
-12.73020048143498
-13.290861153319863
-13.367089101944106
-12.870089531299536
-11.76780513750606
-9.939644607106251
-7.706895353628941
-5.615237754142755
-3.768127624264986
-2.236400867202588
-0.8882600704140374
0.35940195509197853
0.9749187762894973
0.6911430646446747
-0.14663941426464489
-0.9669782860532969
-1.456451988922134
-1.5671488094651265
-1.356856187425313
-1.1080918692461854
-0.8589087678719277
-0.5983817556409305
-0.5658427928177435
-1.067552062978618
-1.877725363776713
-2.1113805233055265
-1.3448850607158573
0.1675138797878417
1.5219415485280665
1.9945888364759108
1.95739261004951
1.738117822261566
1.1595424858217955
0.331648881401303
-0.06458009620455822
0.46095257012666585
1.599421756461957
2.766965321742524
3.7206292033716744
4.640705077219024
5.55961499708463
6.01081110038847
5.8733138856549845
5.438109274285252
4.74778731243406
3.9797767654375167
3.4533387010298844
3.484605292316454
4.191481070817772
5.214193154424898
6.421847055174383
7.673269732302647
8.391213632604588
8.387124128919309
8.027617586227427
7.624968456245138
7.16938668462794
6.723580555440762
6.41885204718697
6.7739388604580775
8.345621874279413
10.327080497055134
11.84446420622912
12.707058239103317
13.017710653706976
13.40061845768532
13.906344761954994
13.774521384323968
12.305505374166879
10.228774089778407
8.698192397965267
7.165066721093446
5.117446264626073
2.873912069861208
1.1266067647091447
0.6051091193394068
0.9253075906345976
1.3719933721918767
1.3878781568937986
0.8472941234748534
0.21634917171327217
-0.7568630532355619
-2.394468831962742
-4.168601723497542
-5.773875659280499
-6.927489443622275
-6.9167230598814085
-5.911628676971637
-5.12262539381814
-5.132191722136821
-5.436492832638957
-5.6899201347383865
-5.6608033298285765
-5.149037086786707
-4.248904218720827
-2.7840619471947132
-1.066345078195395
0.23832258957031474
0.897632933697653
1.206025765757174
1.8698551720227115
2.8831253541527686
3.7194252112620996
4.191129506846828
4.715065628482136
5.775098888506343
7.049635456348581
8.112728943773343
8.61445506901184
8.524836274153333
8.215159956022669
7.390741930142095
6.0711879419717665
5.017724002977637
4.653190874332532
5.123992699257574
6.325286679167904
7.804126233573795
8.850099080878705
9.334880472249878
9.850555569956573
10.239965893794002
10.212819133139815
9.892452088432258
9.30461720715744
8.83440305312201
8.67717728887554
8.73441383990988
8.773561625365328
8.682701954834856
8.757706690129035
8.99114440136024
9.438144932524182
10.16480459485842
10.901921489105234
11.404100638542875
11.6078111188699
11.67166212425124
11.54432517730157
11.20219624558404
10.474784358772276
8.925578424110283
7.148825921947911
5.841155751609227
4.892309396940963
4.228778152096614
3.3984097626738397
1.7958750053470012
-0.864414310647672
-4.231926486445785
-7.67697138233026
-11.269377543367826
-14.295351265098583
-15.583097616755786
-15.02883994059062
-12.738896685463915
-9.292461452368103
-5.776919826615153
-2.9974833616915078
-1.279445910418919
-0.5961363366116891
-1.2270966219613704
-2.917723172631179
-4.670314305609465
-6.223242640396598
-7.565232377674342
-8.545966999290819
-9.198462616405736
-9.202811883755462
-8.603323558261893
-7.746078559690016
-6.6002930463046345
-5.0729736875922855
-2.826911371960977
-0.07683113495255862
2.8473533411461758
5.5600748858651645
6.796237358712498
6.450102633537258
5.509882899510765
4.514465548925783
2.8155058861821045
0.31038377502812486
-1.527845031027768
-2.7699709965535235
-3.9429564290736723
-6.037670040291378
-9.456778868169664
-12.217596264000031
-13.837124488591284
-14.54507755909101
-15.323640717192092
-16.188085080319652
-15.679545053091676
-15.38685643771263
-16.296484405068167
-17.704855370209692
-19.61824887475065
-21.900999420391354
-23.8112272966008
-25.074037654492592
-26.535537553774915
-28.224249877758393
-29.22148005323574
-29.686284856076526
-30.440143247989134
-30.540296746139077
-29.04014173234035
-26.77459744367941
-25.409162733267834
-25.1128137388966
-24.65184801119071
-23.835618963890784
-21.539287491159847
-18.135394105694584
-14.997733773134017
-11.325557690219284
-7.015364354057508
-2.245130780635678
2.9944232226939764
8.840106378578216
14.455392369715879
18.032968342537398
19.49689372478272
20.054647896021315
20.350666159449325
20.057653871691517
19.38753316305448
18.949569231166603
18.767250522646165
18.933439888073284
19.471015508561273
19.561191431451114
19.639436170000916
21.163095210240296
23.134873882054755
24.26258137803498
25.27000271081423
26.620703327004684
27.257555124763698
26.590078735008248
25.606438648109393
25.37097179890497
26.088924735544943
27.3011761258447
28.362443220133425
28.57375215385283
28.051767342170848
27.3425735664097
26.588798053498635
26.1680781412165
25.220815666854847
22.70471732549091
19.960013230163714
18.278359479712325
17.06935087535947
14.779156228728041
11.064684385748969
7.356787339232019
4.185906581578554
1.3995596813356848
-0.6125175957215439
-1.3293148179450616
-0.5162829475288763
0.3652442966309892
-0.31295454423611907
-1.8676909184194321
-2.9937604020978132
-3.7130603247723233
-5.151645177233298
-7.778914610915455
-11.506957085868937
-16.10806800965326
-20.044635748774578
-22.56168763013553
-24.23148181762489
-25.519557388519193
-25.83896131829137
-24.24981694785119
-21.935271236326997
-19.728241438713074
-17.595402118316503
-16.27005836989504
-15.80177739007626
-15.591191197274457
-15.09213350724579
-13.943502327198978
-11.696819117381974
-8.382312704114687
-5.17587668293123
-3.1264931360678783
-2.325160774735231
-2.5421903737620806
-3.142718916211619
-3.5236802646061545
-3.3237476738531635
-2.3263791267324527
-0.9349384650225369
0.32177290515633705
1.1820061703475604
2.038836188222999
2.4878212940184183
2.2106934188663514
2.0879497508538143
2.316082680123522
2.672075387564899
2.0303384425208972
0.33982289284790684
-0.4974967088764415
0.027853383090683553
0.8033959235036647
1.326037026303146
1.8586840891774892
2.1743508586751337
3.0067643484581588
4.63579866053339
5.300385433920411
4.412606256237014
2.932871415826489
1.9522384474431027
2.0767700511601026
2.1517505417385308
0.7264004202786272
-2.057902349007419
-4.549721567737125
-5.1397940590452516
-4.900421699440208
-3.7953452294901826
0.08960318936460214
5.3396320461657005
9.815622538100182
13.086187824277022
15.23954260127368
16.66805671940215
17.557750358629125
18.23558236644109
18.3092836485399
16.637812894022062
12.85685211513475
7.655715263362719
2.9731970220327835
-0.3500034095244349
-3.6806154693695423
-7.547594402960736
-11.179277510287115
-14.293450388126605
-16.96079362545737
-18.539612305735265
-19.105663503491467
-19.590152651052197
-20.02229454998263
-20.114418471445152
-19.480482718884026
-18.16863481636426
-16.510050308904766
-14.025796852548288
-10.748209475638143
-6.8400444214105685
-2.4228213608939484
1.3235860047628736
3.8866928894448405
5.246600693718484
5.937465461013377
6.947528054516564
7.860861819642553
8.005544670410753
6.638050760353271
4.608356506417288
3.8712927999952016
4.420143677350626
5.573423326778602
6.084290390292769
6.097123000639983
6.765055985181534
6.882343498351387
5.768719571031396
4.519749313316171
3.577689194425829
2.823105397826934
2.747934375819553
3.787540281909638
5.648718141655699
7.800103712753634
9.72023820910997
11.128586128251175
12.075170219586374
12.537604644189122
12.728862468652084
12.89278972242014
12.980097252569895
13.361464240093584
13.660377072725428
13.18836306233753
11.236768268427015
7.544836305949535
4.0944129818805415
2.097417576316663
1.6041963768511374
1.4748286368090628
0.194972668299332
-1.0683267204132354
-2.196173746190159
-4.711221522702588
-8.3115879171193
-10.933371662345573
-11.412047875858276
-10.226359583096617
-8.75795648076422
-8.363772409042518
-8.073766790536714
-6.89032132904638
-5.055037607311713
-3.639056300854682
-3.7121498689912666
-4.723440408441749
-7.243179758968876
-11.297563927026067
-14.861500179335229
-16.83245084637475
-16.96311524230898
-15.95182732137426
-14.86943494671117
-14.24996549209372
-14.507108534990843
-15.038500874293321
-14.826080644672787
-13.67828606317686
-12.07447160610982
-11.04199709786323
-10.721081418665516
-10.403903217577986
-10.293659153374273
-10.826128589937293
-11.720967181475363
-12.007755807956853
-11.078315684149668
-9.790685927209791
-8.353212408008716
-5.812880657053121
-2.7361055566961046
-0.33188119701051766
1.4926665771985328
3.2120839332743576
5.122941425632643
7.056725763400754
8.361383790476047
8.994000564284963
9.339100977890732
9.12305557177283
7.490212267814007
5.2826858252351405
4.381506818703682
4.161662906836532
3.0556644276969624
1.1050577017110499
-0.8232661294801659
-1.5218074591375261
-0.27165577796897955
1.3468856375050904
2.0551709828828657
2.8800267133970525
3.96243251664895
3.414553347574955
-0.09293198921154858
-4.907711917812081
-9.5731419448171
-14.12594601537357
-17.525916676696426
-18.970063518623903
-18.811416190371773
-17.935623576088425
-16.85016088034144
-16.239509296513152
-16.41143040430093
-16.36425772469506
-15.93564165423762
-14.729987083496574
-12.358979840286954
-9.768189474674568
-6.935179921013138
-3.371125606687868
0.4834029683002896
3.3287631258653727
4.16732389102453
2.948252635325585
-0.3829541802898544
-4.198861616745272
-6.051077650159209
-5.480802317245748
-2.5578082686911574
1.3000501329045038
2.9532416150024754
