AAD_Filtered_TADAS_FILE
AAD_BASELINE_CORRECTION: BASELINE REMOVED
AAD_FILTER_TYPE: BUTTERWORTH
AAD_FILTER_ORDER: 1
AAD_LOW_CUT_FREQUENCY_HZ: 0.025
AAD_HIGH_CUT_FREQUENCY_HZ: 40.0
EVENT_NAME: 202302061024
EVENT_ID: 13207
EVENT_DATE_YYYYMMDD: 2023/02/06
EVENT_TIME_HHMMSS: 10:24:47.00000
EVENT_LATITUDE_DEGREE: 38.089
EVENT_LONGITUDE_DEGREE: 37.239
EVENT_DEPTH_KM: 7.0
HYPOCENTER_REFERENCE: AFAD
MAGNITUDE_W: 7.6
MAGNITUDE_W_REFERENCE: AFAD
MAGNITUDE_L: 
MAGNITUDE_L_REFERENCE: 
FOCAL_MECHANISM: 
NETWORK: TK
STATION_CODE: 0119
STATION_NAME: 
STATION_LATITUDE_DEGREE: 36.568
STATION_LONGITUDE_DEGREE: 35.39
STATION_ELEVATION_M: 22.0
LOCATION: Kahramanmaras_Elbistan_Turkiye
SENSOR_DEPTH_M: 
VS30_M/S: 485
SITE_CLASSIFICATION_EC8: B
MORPHOLOGIC_CLASSIFICATION: 
EPICENTRAL_DISTANCE_KM: 235.22
EARTHQUAKE_BACKAZIMUTH_DEGREE: 
DATE_TIME_FIRST_SAMPLE_YYYYMMDD_HHMMSS: 2023/02/06 10:25:07.5480280
DATE_TIME_FIRST_SAMPLE_PRECISION: millisecond
SAMPLING_INTERVAL_S: 0.01
NDATA: 14501
DURATION_S: 
STREAM: HNE
UNITS: cm/s^2
INSTRUMENT: sensor = CMG-5T/GURALP | digitizer = 
INSTRUMENT_ANALOG/DIGITAL: 
INSTRUMENTAL_FREQUENCY_HZ: 
INSTRUMENTAL_DAMPING: 
FULL_SCALE_G: 
N_BIT_DIGITAL_CONVERTER: 
PGA_CM/S^2: 11.760
TIME_PGA_S: 
BASELINE_CORRECTION: BASELINE REMOVED
FILTER_TYPE: BUTTERWORTH
FILTER_ORDER: 
LOW_CUT_FREQUENCY_HZ: 
HIGH_CUT_FREQUENCY_HZ: 
LATE/NORMAL_TRIGGERED: 
DATABASE_VERSION: 
HEADER_FORMAT: DYNA 1.2
DATA_TYPE: Acceleration
PROCESSING: Automatic Paolucci et al., 2011
DATA_TIMESTAMP_YYYYMMDD_HHMMSS: 
DATA_LICENSE: U (unknown license)
DATA_CITATION: Turkish Accelerometric Archive v 1.0 - Disaster And Emergency Management Presidency, Earthquake Department
DATA_CREATOR: AFAD
ORIGINAL_DATA_MEDIATOR_CITATION: : AFAD - Disaster And Emergency Management Presidency
ORIGINAL_DATA_MEDIATOR: AFAD PROCESS SERVICE
ORIGINAL_DATA_CREATOR_CITATION: AFAD PROCESS SERVICE
ORIGINAL_DATA_CREATOR: network: TK
USER1: GuestUser
USER2: 
USER3: 
USER4: 
[...]
-1.5058066340509892
-1.782447860781099
-2.0422121273842766
-2.300489250021944
-2.5494557153321056
-2.7888565523790194
-3.05950066415839
-3.2906866980770384
-3.4960070788490007
-3.715649301050401
-3.862484150714915
-3.967046919865456
-4.095222627105906
-4.203994858060427
-4.219554046895052
-4.154363111605498
-4.057823684528413
-3.8415395576001994
-3.598021771249369
-3.372712384307598
-3.1509689461251886
-2.965521349629003
-2.751654934742551
-2.5111457682820117
-2.271281976669358
-2.0274036875320154
-1.8376750586219202
-1.6875159943155411
-1.5573017381624763
-1.5087311084393809
-1.4525578568378088
-1.3476719196038336
-1.2361327764151075
-1.1261143653238121
-1.0217291500742662
-0.9603470707477166
-0.9152984184803685
-0.8596865187830561
-0.8152510791135489
-0.7768191108561658
-0.7306982496999985
-0.6897787252109437
-0.670657389242523
-0.6615342491931743
-0.6589300733840232
-0.7114018275343295
-0.7915260158712947
-0.8715797710321995
-0.9881181804128909
-1.0974091321776132
-1.1959441314483825
-1.284587017529776
-1.3548852144999823
-1.3880170682149477
-1.3950594397257927
-1.3919514005043587
-1.3819571121654737
-1.3714696795319594
-1.3678765894673772
-1.3766233607197988
-1.446204759546111
-1.566942838762388
-1.6852538005406947
-1.8101922236480663
-1.9194087396725172
-1.9973590951107363
-2.011603244353213
-1.9797342312762447
-1.8740036338417272
-1.7247718172620143
-1.5535772005957333
-1.3395910880597897
-1.131800503350567
-0.9402612782074015
-0.7671488518500492
-0.5916947408047767
-0.3970468679418927
-0.16818261017603117
0.08883299852944056
0.36827027584975197
0.6394248924745262
0.880110988132209
1.0775721607159796
1.2145253681578994
1.3197576892130425
1.4574174472814954
1.637591129307194
1.8406292746216353
2.056614046232555
2.249193514159038
2.4123263271978295
2.511806180166364
2.5781811766112517
2.669270609060841
2.7721583047147935
2.9219872522688055
3.0752457331522
3.198977002692014
3.2868464227006045
3.3140322158589925
3.328283958393366
3.367988865147054
3.4979520852477686
3.7013134438599766
3.943688627894951
4.2249801192369
4.488178404088303
4.697314194313693
4.880971846070739
5.050439853805687
5.233104758430412
5.422572025887445
5.5847290396342695
5.727770130273679
5.841664552321208
5.903926389647964
5.92611293236605
5.9456983940726325
5.96466847488893
5.967124068083969
5.9328245805955815
5.860330827079034
5.709336473912966
5.4846874566433685
5.195440474521362
4.855107383124388
4.493103649984591
4.137541489746098
3.754017347793049
3.357256915955143
2.9710040759190908
2.6018342190994748
2.2974194477835144
2.0473081845241285
1.89616286631241
1.7846339464220073
1.688206704628992
1.572982557823735
1.4222053540627904
1.256300615232099
1.0913911345189162
0.9819144863630955
0.9192028874477808
0.8910062420511553
0.831141053621477
0.7333930621773651
0.5908477169403169
0.4177634356725799
0.29134845557987943
0.21997714920177575
0.17940426478008345
0.12350151028126823
0.07458120456661083
0.008516440527546383
-0.09878447300297143
-0.2047163291369834
-0.259091047752981
-0.22704137647622813
-0.16645023319765143
-0.0997158739073085
-0.050682330311835784
-0.0038731113693729357
0.03190084134085797
0.08360244449916575
0.1842846640610509
0.2981125047688459
0.39671195309097124
0.46760209227213556
0.4945041947422634
0.4125236865509499
0.27052043533336045
0.1031196673078694
-0.0708241176437953
-0.2542641550690966
-0.4499324445247503
-0.650973915175258
-0.8970267863517767
-1.164990839822668
-1.4270860623656267
-1.6258319724695265
-1.7560996104391178
-1.8190046829440065
-1.8035020302832478
-1.7213040544185392
-1.5935596410805153
-1.4996806410257693
-1.3703657733569483
-1.1922472112945974
-1.004857743944682
-0.7881162315806742
-0.5563229794514437
-0.34998887995294975
-0.18887204850794928
-0.013888958429550836
0.15906465242968565
0.3818066153246698
0.6380314255603916
0.8917500375101982
1.1548875181802323
1.3483176423537035
1.4412948363422768
1.4617479121948103
1.4259019088605072
1.3610951303581635
1.2962780523268767
1.2361107561228177
1.1817582142684293
1.086521633621321
0.9709362316299106
0.832643304900146
0.701261928805942
0.6033157601094111
0.5219275724364232
0.4911697702447671
0.47563012439097657
0.3961304695628849
0.25763226054857397
0.09320814385809278
-0.11011793322254573
-0.31208852124596365
-0.47574017976914657
-0.5937245253634893
-0.6958871022418495
-0.7973438245821098
-0.8941912717574289
-0.9841713276954539
-1.0582840848551092
-1.1192522291081182
-1.154614221821036
-1.1750219757806801
-1.1812390723496076
-1.1951300720922768
-1.2135953408820348
-1.211727006149486
-1.2126389229110046
-1.1613144845371322
-1.04590790090628
-0.9130140511880875
-0.797128743192304
-0.7222717050390145
-0.6839306698132506
-0.6949504307594233
-0.7439541921673349
-0.7860531929782052
-0.8192721768634905
-0.8746565585890975
-0.957403369958082
-1.0702408871360887
-1.2112381887881245
-1.4269308823227351
-1.6343829649786046
-1.7807679943208299
-1.9309138997168358
-2.039552840130677
-2.0822921887370485
-2.092493893922402
-2.0984175427230842
-2.0613544624451254
-1.9850186126698397
-1.9129987158463855
-1.8181534901889997
-1.7124484195993994
-1.6196073953435648
-1.5268272033417494
-1.4401449211841042
-1.3378026013517066
-1.2346854825143396
-1.1336240556692831
-1.0267929307005532
-0.8855661941417793
-0.7278909145498683
-0.5798991408878736
-0.40629642480401545
-0.1919999744850658
0.06302500332039575
0.3005162301941646
0.6149097620269035
0.9175786562665947
1.2169829148325242
1.5665031788974266
1.8459804843408965
2.1821618379761696
2.5589130568049945
2.9446320874373004
3.33787699208727
3.7429097803367357
4.162734296012819
4.53220309990592
4.861401066301935
5.148603339021341
5.384859684304354
5.5549870175958
5.646298107387663
5.684578785619113
5.712152954253466
5.707049058614517
5.651208534514541
5.596719437418474
5.5364723162064635
5.487568974188565
5.480051250131955
5.532109370976176
5.669570782803193
5.883827369571725
6.13629029304003
6.387162842633312
6.626194820380008
6.816551544130955
6.97873503098998
7.0986033770915755
7.219378122247729
7.369898473244135
7.492880617226853
7.595772920665549
7.709346778935925
7.814856360764177
7.863941002481596
7.863600040589368
7.8418283530234465
7.793186811472096
7.690485221382202
7.549096948310186
7.40171625202809
7.276641751407373
7.0922998179954835
6.866203913827882
6.6200388182511825
6.331005967119896
6.036802759165529
5.748289313020608
5.486167351678608
5.246939123687487
5.061638457081017
4.8852816717596035
4.715904216602007
4.589944483856842
4.487824966478354
4.412825577603516
4.396779019287228
4.412248605569157
4.403854527038596
4.378305025637417
4.354212525923686
4.33534588460445
4.3041748289891855
4.2734259628008955
4.229533957712787
4.155082159610943
4.059709773141324
3.961020571651506
3.8729977472888657
3.8137964237321844
3.796100401470281
3.796577904859618
3.7774110158726786
3.743696337132631
3.6815308379002163
3.5862335222205584
3.4813006733179495
3.3765519650268496
3.308123546786553
3.230842631278278
3.098206952407027
2.9484151608199918
2.8521413877300814
2.7763912946961975
2.65185417280673
2.530675909273169
2.4846628997272884
2.417790068171583
2.2224586213139466
1.9702373345778175
1.7057059216358332
1.4126050103537697
1.0784703451917002
0.75346717152888
0.5075586284313635
0.25723023337391515
-0.047460879776787535
-0.2956554549749982
-0.5150254449932568
-0.747587983999816
-0.935070641631485
-1.0734129029318797
-1.1846500106230582
-1.2980609658361666
-1.4072615829454285
-1.5048717418542557
-1.5967982574050472
-1.693997190166416
-1.8005760792535104
-1.9037871672827895
-1.9961747167837345
-2.0884106868365517
-2.1597039108106557
-2.2079126134582245
-2.249782720118428
-2.286031252134174
-2.3399441613764327
-2.4031836372210242
-2.4612934812737395
-2.4823995672179398
-2.46507043828538
-2.408707117695408
-2.3323809001111417
-2.2994794653674178
-2.2868843570605857
-2.279120950624381
-2.2996469824341377
-2.310229062548173
-2.2910960464287093
-2.2968111841309087
-2.3671709761311033
-2.4794211037428373
-2.637705964452931
-2.883064645629559
-3.1400554941578553
-3.3588470958132657
-3.5287061851501464
-3.678136001386639
-3.8331090012953712
-3.8974368557866503
-3.8583197425519926
-3.7882246313559227
-3.7347581156234604
-3.624268026272619
-3.482290379411596
-3.465394873467884
-3.5421193265219606
-3.6176190156224655
-3.727128283474553
-3.8810120734861724
-4.0424578632005685
-4.184074907947059
-4.308965869234864
-4.474923316920846
-4.643949872141802
-4.762084907834631
-4.837035394644611
-4.850801152161559
-4.7845527781192025
-4.686111967585713
-4.58607426426423
-4.469594267487858
-4.372861476310898
-4.313590303778483
-4.236118025556933
-4.132866250958287
-4.029731611655089
-3.9045626198319443
-3.7400752439643354
-3.5661887806290316
-3.391348465312642
-3.22473534211922
-3.064497817410096
-2.8834334560331834
-2.675568942055726
-2.429586854591087
-2.1489697398715415
-1.828955044912602
-1.4878954533684778
-1.1467645531883421
-0.8601356031253967
-0.6386564576126237
-0.45666492238523443
-0.2883527035653207
-0.11655662996722801
0.06346194385897837
0.29820238304720287
0.5525426555055445
0.8320055866118198
1.1450680209641957
1.4769404387831835
1.84455402055886
2.2368500514710736
2.634101665871039
3.0174910112282296
3.3680194111028907
3.637986482328484
3.8622419196090534
4.073519132921704
4.246220167304725
4.410946941708348
4.569646889637
4.709997497201853
4.828617866047165
4.919242837574496
4.9664506549449685
4.974877023646668
4.978186007322594
4.9353962292781794
4.816873233498815
4.688450974827903
4.572931043758059
4.428431453820596
4.279156216524381
4.165520064985394
4.085558823735437
4.010172408231652
3.900728135503241
3.7845151546033216
3.6755655741966433
3.548052918829652
3.4196458067550375
3.303107528506116
3.1907366601469103
3.0897502630109086
3.0198523872388905
2.9730761534886065
2.942071750307697
2.9303033569128916
2.937618582800742
2.947503308853438
2.9510940826274052
2.9808052980305995
3.0446742518114087
3.110167711220979
3.190753274672775
3.2689097135846534
3.289731314932586
3.312004425273163
3.340105303233733
3.3836132779057015
3.4586576887175
3.5470337501800895
3.647330971028982
3.7146172197912617
3.718636914373071
3.6557789788149497
3.584532230503938
3.508502457997168
3.4336664567441564
3.355091027791786
3.2327469816063004
3.0698389694272916
2.8721604160617513
2.626683801755174
2.3522028575830616
2.1399245994376708
1.9764115051443367
1.803142536485303
1.6506099156709408
1.5316230965486126
1.4100422963904096
1.2988137894676244
1.2149673984843528
1.1594702822066547
1.1312904851443133
1.0954314036717985
1.0361425987955053
0.9768537223904148
0.9434704601303664
0.9326851014135619
0.9281617687624082
0.9587573807335864
1.0198776654025485
1.0875501604984097
1.1290380590348292
1.1182669274756782
1.10573194052122
1.088687638419153
1.05624856576991
0.9943675912413978
0.8972581642517781
0.768891554180874
0.5735205331175126
0.30560858793017687
-0.002073787967380559
-0.3148033099695225
-0.6008230111568801
-0.8449086302924183
-1.0471017649168057
-1.2263900606935696
-1.3852273649562805
-1.507285921045305
-1.5983562005018264
-1.6510753180658408
-1.668333372091241
-1.6383448411394288
-1.5939244716365253
-1.5543485414460598
-1.5031841724028439
-1.4400698099937328
-1.3668717522048788
-1.3034660291886317
-1.2009568797754362
-1.0689378239902787
-0.9517656197527905
-0.8046288097427116
-0.6423499515689932
-0.4992656296207097
-0.37654311473795954
-0.25321150682471866
-0.14135474298693468
-0.060093379800741906
0.04362513315753818
0.20020819881211258
0.3971401304465087
0.5823050870004917
0.7444132486916654
0.9055708480087001
1.0578480400741725
1.2031706984276271
1.3807595719039525
1.6055767154747416
1.8512280169108
2.0738827597608407
2.2545201454486263
2.4005486583140687
2.526719422973094
2.672145035096608
2.832963129296082
2.9583893379047996
3.0277662393503175
3.056933170002595
3.057077654601989
3.0485795988530935
3.0626972271167054
3.1276833696493123
3.2373234294408286
3.3608701387059408
3.4730332364439254
3.5763001209315277
3.689519897636729
3.832393627954674
3.996013500241313
4.177770167798687
4.361218515042534
4.527061474120677
4.685627718167992
4.8288451837991895
4.9948930543789025
5.201648546323832
5.4129769678964
5.621715836170035
5.806930561712952
5.95852094075203
6.10368689581201
6.240666215030527
6.388338104752682
6.5557513831446395
6.712492554347653
6.834105731342737
6.929565071954147
6.990586977910279
7.05195763475238
7.139242700419943
7.231580547057222
7.386842616906545
7.589867861153971
7.825561611765816
8.13816120921238
8.516805941581032
8.924552412536292
9.343480130668942
9.761400927977231
10.162060753447687
10.52587421168757
10.833341574555222
11.069929606913052
11.22452281488223
11.286658635330873
11.287168931006494
11.254486181661568
11.180375884620629
11.077634186286524
10.944311800011691
10.785963405208566
10.59060640298345
10.386876667379324
10.19379659320296
10.01608670216558
9.872347302305432
9.749257038958667
9.650232390117647
9.575842788098191
9.534485251898209
9.525830038945324
9.56509492851803
9.65955590180342
9.785054500272727
9.913382134845454
10.008529037088481
10.071393899985107
10.135871679325483
10.188739715544113
10.247149582706951
10.314894339307616
10.359530147398333
10.349863212819287
10.279194022014547
10.198347874529317
10.117431938814779
10.05423627124268
10.01881681456485
9.98519270855821
9.92875290357706
9.821645859029443
9.648136070109667
9.433875239950202
9.21106261026959
8.966180008195764
8.715136055688081
8.478930774155552
8.229830405220262
7.960458165733697
7.6568851466056564
7.3054753139857
6.911622362337692
6.5008121723925605
6.069343101446557
5.623874289487529
5.185870946021959
4.744873213328536
4.314008051113343
3.901465914299372
3.5162763902887813
3.149528699437595
2.8163465247473827
2.5013948069273475
2.2119573563801094
1.9546694661242854
1.6866060159612004
1.4334041939167845
1.1883724373937399
0.9610400636351699
0.7706293006667353
0.624297494697194
0.5227913105685787
0.4278042761148145
0.3405999329059937
0.24468066062571803
0.12529242539681298
-0.004807009822036788
-0.1419147724353501
-0.27726060610058456
-0.4060915245263063
-0.5462029728215816
-0.705537134634161
-0.8793012995771884
-1.0552438556431936
-1.2093333145494165
-1.3349321028638965
-1.4208285198252049
-1.4839270910338898
-1.5260858883171036
-1.5445194495980346
-1.54519143119881
-1.5260562927404957
-1.5000205971024707
-1.4896105117152165
-1.50555285603229
-1.5579314745321544
-1.6372771748756298
-1.7242320387376813
-1.7955287192583964
-1.827816068804058
-1.837553881407345
-1.8204431844854931
-1.8106446270813228
-1.7891140748740868
-1.755399454170788
-1.699595774783604
-1.6045732071164573
-1.5034821237837477
-1.3910612760789338
-1.289869167420963
-1.1874615075534203
-1.0795328627788003
-0.9493755295043637
-0.7833186831877695
-0.6018737754735458
-0.424666333776809
-0.27905285575545724
-0.189103283999381
-0.14244448371022805
-0.11477474301849878
-0.08720554684653867
-0.06343171089419958
-0.0380209839428546
-0.011848793472568385
-0.0014895582069248217
-0.0053326448352169235
-0.014472618021163727
-0.023024302875978526
-0.035872870828314515
-0.045560763935722955
-0.07763422296832498
-0.13086686773432715
-0.19188729386637393
-0.24360279111303149
-0.2933089032926098
-0.3618834539559017
-0.45142831241421677
-0.575954010305686
-0.7433803728508052
-0.9287769855386128
-1.116887195531071
-1.3284637044978198
-1.5573890527655596
-1.7979865768775696
-2.05240563571344
-2.315503208990134
-2.562454226072644
-2.7607731773380286
-2.887858364236174
-2.9556085013334386
-2.97513184893635
-2.958385239537706
-2.9180475738534595
-2.860965245704679
-2.7948051650989636
-2.711908043164645
-2.6311008512564253
-2.5695138266355255
-2.544864878181127
-2.557983175503
-2.598430614553598
-2.6560861322128386
-2.715489993491353
-2.813575428028634
-2.9364326949230084
-3.0778385288825674
-3.240914478023732
-3.400384499230393
-3.5509096832565397
-3.67017097822428
-3.76273774955059
-3.8166572322345034
-3.848736137419349
-3.906974098627002
-4.012047027357249
-4.1247283597326065
-4.231854683053202
-4.337061105590153
-4.438503592509443
-4.542800921636573
-4.650363091378758
-4.760264852031936
-4.869426120683963
-4.97114141849755
-5.042127472688557
-5.080824018930328
-5.067300585387204
-5.025998823934948
-4.955427878969229
-4.869888773280095
-4.786255331415691
-4.701851017767238
-4.63033033139947
-4.5618828749434694
-4.4740696410083425
-4.3495104012312
-4.214859808348164
-4.05658540743361
-3.8884804840484013
-3.7271912079253453
-3.5614001902117187
-3.4200384939811013
-3.2949529093367476
-3.1602319407091106
-3.0023652203373583
-2.8169324208773565
-2.623029246753341
-2.4218384423902037
-2.220575700436431
-2.0184077966956027
-1.8632727142907881
-1.7503000313367227
-1.6634285137329257
-1.6230563307920178
-1.5884433373508364
-1.5594932794343441
-1.4922761400358882
-1.4054399838119263
-1.3325685347498042
-1.240240599762935
-1.1067325749848158
-0.9240422121911491
-0.7013201132339973
-0.42786196836287815
-0.09150324383132
0.29243828202374805
0.6959467491693079
1.1218779194403639
1.55407020028672
1.9964726846769485
2.4201066801699485
2.8014607044807556
3.136754047026568
3.4095804228280975
3.6565607680796446
3.859842271092309
4.033571153927361
4.202297579145182
4.350948031770065
4.470217728514909
4.562544253489136
4.655352965661544
4.729259159150524
4.796529344992698
4.872687591335404
4.954782115141433
5.0568275774754365
5.169759526838301
5.282324393910704
5.417028369073478
5.59168462278581
5.779647576134909
5.958743211177685
6.131759189131655
6.280747417896173
6.385107563460894
6.4750399441548785
6.556496436421144
6.598104616285379
6.58329236242166
6.529130587018394
6.4383778315868705
6.313028488676276
6.162549434605496
6.005113472145133
5.851588508800315
5.699276103794668
5.5471810078262775
5.3896615400484755
5.246147449868897
5.117362249431048
5.006211316464952
4.921103042320146
4.8579358121372005
4.80928944357855
4.7949764099396415
4.83320422571079
4.90158860364623
5.006714295221211
5.1167806164278815
5.192871751926667
5.260531950224368
5.303245195380731
5.331833491334518
5.388337536886808
5.462185465582298
5.541457708232787
5.631257092197293
5.686652258748431
5.6769168546305595
