AAD_Filtered_TADAS_FILE
AAD_BASELINE_CORRECTION: BASELINE REMOVED
AAD_FILTER_TYPE: BUTTERWORTH
AAD_FILTER_ORDER: 1
AAD_LOW_CUT_FREQUENCY_HZ: 0.025
AAD_HIGH_CUT_FREQUENCY_HZ: 40.0
EVENT_NAME: 202302061024
EVENT_ID: 13207
EVENT_DATE_YYYYMMDD: 2023/02/06
EVENT_TIME_HHMMSS: 10:24:47.00000
EVENT_LATITUDE_DEGREE: 38.089
EVENT_LONGITUDE_DEGREE: 37.239
EVENT_DEPTH_KM: 7.0
HYPOCENTER_REFERENCE: AFAD
MAGNITUDE_W: 7.6
MAGNITUDE_W_REFERENCE: AFAD
MAGNITUDE_L: 
MAGNITUDE_L_REFERENCE: 
FOCAL_MECHANISM: 
NETWORK: TK
STATION_CODE: 4409
STATION_NAME: 
STATION_LATITUDE_DEGREE: 38.56063
STATION_LONGITUDE_DEGREE: 37.49076
STATION_ELEVATION_M: 1055.0
LOCATION: Kahramanmaras_Elbistan_Turkiye
SENSOR_DEPTH_M: 
VS30_M/S: None
SITE_CLASSIFICATION_EC8: unknown
MORPHOLOGIC_CLASSIFICATION: 
EPICENTRAL_DISTANCE_KM: 56.86
EARTHQUAKE_BACKAZIMUTH_DEGREE: 
DATE_TIME_FIRST_SAMPLE_YYYYMMDD_HHMMSS: 2023/02/06 10:24:31.8713520
DATE_TIME_FIRST_SAMPLE_PRECISION: millisecond
SAMPLING_INTERVAL_S: 0.01
NDATA: 10501
DURATION_S: 
STREAM: HNE
UNITS: cm/s^2
INSTRUMENT: sensor = ACEBOX/SARA | digitizer = 
INSTRUMENT_ANALOG/DIGITAL: 
INSTRUMENTAL_FREQUENCY_HZ: 
INSTRUMENTAL_DAMPING: 
FULL_SCALE_G: 
N_BIT_DIGITAL_CONVERTER: 
PGA_CM/S^2: 218.040
TIME_PGA_S: 
BASELINE_CORRECTION: BASELINE REMOVED
FILTER_TYPE: BUTTERWORTH
FILTER_ORDER: 
LOW_CUT_FREQUENCY_HZ: 
HIGH_CUT_FREQUENCY_HZ: 
LATE/NORMAL_TRIGGERED: 
DATABASE_VERSION: 
HEADER_FORMAT: DYNA 1.2
DATA_TYPE: Acceleration
PROCESSING: Automatic Paolucci et al., 2011
DATA_TIMESTAMP_YYYYMMDD_HHMMSS: 
DATA_LICENSE: U (unknown license)
DATA_CITATION: Turkish Accelerometric Archive v 1.0 - Disaster And Emergency Management Presidency, Earthquake Department
DATA_CREATOR: AFAD
ORIGINAL_DATA_MEDIATOR_CITATION: : AFAD - Disaster And Emergency Management Presidency
ORIGINAL_DATA_MEDIATOR: AFAD PROCESS SERVICE
ORIGINAL_DATA_CREATOR_CITATION: AFAD PROCESS SERVICE
ORIGINAL_DATA_CREATOR: network: TK
USER1: GuestUser
USER2: 
USER3: 
USER4: 
[...]
19.600907891882613
15.908253150487766
9.021920028391342
2.599784059349471
-1.515273276000537
-5.785994557060406
-10.686570759739382
-13.389311687486993
-14.648427135222857
-12.976696423314298
-5.752237448489067
-2.4524888549992476
-8.318578283420383
-14.4970136584232
-18.93319311392321
-21.089501840219977
-12.24140282064268
6.3884533909413665
22.14819348614597
26.409983232728244
18.56472646288407
4.246181074917771
-8.807476117917105
-18.658369748885626
-26.776586575369702
-27.03197938875292
-16.183216420695523
-5.6628751288905175
-3.3472576707542743
-7.16279602663502
-12.296171298717677
-10.004274567324853
-1.328021734066289
3.841510258957742
5.062483100689422
4.847159639118613
4.9377617307608865
6.9525736017123085
6.347413348868774
1.8882972479395124
-2.3465494871893116
-2.380276935772233
4.3076821597647825
10.292282037158387
10.377737749564265
13.38056727676408
20.66395913324931
23.09449920714502
20.379217517118043
17.212443715528302
12.097498714172719
4.510674121251473
-0.8751352304921179
-4.58015204725893
-10.022384071088261
-15.48439634523179
-21.361270592915883
-28.23337973785464
-30.420090562083306
-27.158085937309302
-26.014620692192143
-28.40019570124258
-27.427631172363846
-21.123971187287246
-13.101864724182288
-5.8231239378987105
-0.2761263804177101
4.364691616980514
6.983672116693664
5.1526106754783445
1.1093607644868186
-0.6659515450548402
2.021468855331917
4.472319917442825
2.050604945075627
-0.7675720312365627
-2.4204247617784107
-6.220515138079624
-10.937928279836278
-14.089966404595309
-14.939593317793413
-13.775553142822055
-10.881833203449283
-9.415077704338138
-13.935918650199053
-22.75122805751862
-32.0482023563295
-37.01377684249738
-36.080390333111225
-39.28383944461508
-49.52161275116847
-55.832903573635065
-53.4094578921646
-46.20233614272483
-38.6225548188941
-31.80327062063817
-25.36340808578197
-18.58274002542117
-9.119486408970205
-0.514875978721684
2.8675084757445473
7.477631548364412
17.672020013265584
26.586557597795107
27.422858242030134
22.41405829340889
17.617597102962257
14.551112864219505
15.325865227076003
19.71067112983174
20.180173485463776
18.68843303041008
21.374462810551496
21.84740052319608
15.210538034568144
6.969996054384324
5.476157205178531
9.589817657895884
8.080710781166939
2.5868771109349935
1.3588102860638402
-1.5886073947412078
-10.181951993361064
-17.39364075732576
-15.724625151873799
-5.413802641286624
1.3839712016542642
1.544152158351544
7.190095995678193
16.29675189251976
18.246902496167035
14.769714187818755
8.634958512581145
3.3278297453847405
5.293674183853198
10.8603556963084
15.008737215707198
17.959599952116566
16.789556054983294
14.333134382393565
18.117169423735987
25.223252139802497
29.241969427985325
27.871408759586238
21.67632982723535
18.8436282778581
23.352175374122602
24.925465719884123
20.232197006861615
18.953908792098463
23.13515526715273
26.24702156069129
26.528007386109625
25.574706312162757
23.472897080207677
20.97946831305708
17.963146713659423
14.099559315189328
10.614273274466411
6.63978988972492
4.612366327747515
7.671361662418479
8.326048399996035
0.092482967560106
-12.893053048611783
-22.70947648345106
-22.25180957053549
-14.300680298450013
-10.852560589063916
-13.532602316198687
-12.674956663496797
-8.209154475417794
-6.8153013433917575
-7.1704491301322175
-10.280923066307144
-17.87243945220741
-20.350238637000828
-15.901587816993178
-14.242184499861121
-14.901874789450344
-12.345625987954358
-9.92116122153495
-13.545987044497734
-20.045368074476784
-22.12537244792527
-19.75782908875457
-15.077407134494656
-11.127878453900331
-12.05684769281837
-14.488489877934905
-16.53410965846401
-19.716576686430283
-19.06155501677683
-14.31639323960862
-12.081990482696561
-15.704852792346033
-24.099183386665082
-28.048447853317654
-19.741561710006835
-6.0381866394693695
2.1684374594041795
1.1396407210592594
-5.4206975795508825
-12.215799929735725
-19.533885062934797
-26.39073630880394
-26.694208662699566
-18.389568361739055
-7.509965779884682
-2.778973270024439
-2.299601982946788
1.8828823354441968
6.192856546256248
8.480570517487724
14.481234735595542
18.728517720251652
15.12985885291161
11.756229684875022
12.603335370637643
12.273348057792832
9.658954363004282
5.544348318752759
-0.25126862055777505
-4.5550866478329874
-8.183169370812093
-15.055995649795337
-17.64601696749726
-3.4106525906342786
21.957344789087298
38.08682266754037
38.99513842037984
33.792320831105364
28.26976765177696
28.470036075458832
34.1823725872559
33.29264146170758
27.07720276747414
24.804420935330267
21.251884440487924
14.23860152974299
9.667210454560864
7.7173156486315
8.704016303281932
11.43413277877595
10.795821735475018
4.881288945313392
-6.729254887224121
-15.501177518690499
-8.49384181100924
5.320877088071695
8.229409161913793
5.12552984963658
10.716555826859937
24.389859244251713
34.46447068251838
35.07200764971191
30.48659453364934
26.760827175820364
25.875123904228158
28.224994380743954
31.995302779183387
33.8097846756104
34.86769281929574
33.8553974628119
28.35907572729956
25.852285701210313
27.66361505855683
27.438377981509888
25.687038082858578
20.391752022458725
10.578133571490108
3.2921896376627564
3.072557787787066
6.52806370927813
4.944203967309526
0.14071521270416754
-0.14599999098466407
0.14087270930304868
-0.9704900983467604
-1.6446751140537712
-2.8377837710578975
-1.6702419373615098
0.5227138712297472
-1.9239025766696347
-7.5089060254848565
-7.557641652580113
1.212409117488037
9.731341708004567
13.573699360657555
13.799451256814098
7.049724704979524
1.0971216539878026
7.206629269505942
17.41473681884855
20.96834179016399
22.694673121239482
28.810638806163496
31.580303168377412
21.325706773892353
6.835013687879351
4.314781890534293
12.292615590368563
21.35921231156477
30.68934458021244
35.98814544994097
32.21467703618464
28.3484211287273
30.019872933837707
28.088965819427116
17.7098998834022
5.666630168917486
-1.2167578148183353
-3.8698326874403195
-5.89167543001918
-8.100821616888945
-12.485400299981514
-18.02816073253869
-18.7336838544587
-13.353666679947438
-4.420008837683343
3.675323990231032
7.484871949723642
10.648449085195544
13.326421457821393
9.081120131075462
-2.568764181391001
-13.966912575374174
-19.26697534279798
-24.13624095122599
-34.89049721258278
-45.69671194589957
-49.705484836391754
-47.161812430556374
-40.494604367390146
-30.17559761314967
-17.40918419777177
-8.348906020102804
-5.900755459053219
-6.123576570252751
-8.252803407349713
-13.902385788581343
-19.385013639824255
-20.542189106635647
-20.959937731966523
-24.272351170596554
-24.979078494538378
-20.163471713060954
-12.434230817775552
-0.23269327874279852
10.642553202511674
11.314694881282428
11.431721648519307
20.29272348794864
28.997572443397047
29.70060579810203
25.102284985070924
17.789041977469946
6.94049423939382
-2.687258629412732
-5.180772634019767
-4.206941930519001
-3.7143643784703313
-1.433429075213259
4.012415566128876
7.174406692996632
4.367188622570426
2.0127226985548687
-2.408336589142864
-16.355431339312
-31.9100735562196
-45.50483923672069
-54.98529150972854
-46.92800793901635
-28.724076041474504
-23.048640200969317
-30.081442810710477
-37.006525543076265
-39.32167345726939
-35.601870532673416
-25.31675663142169
-17.408065850458378
-18.30719860604473
-19.387508335674063
-14.241576798774382
-5.797812159520468
0.8760397045446481
0.8329267918259889
-4.618785061575087
-13.146621304825024
-22.5023347926004
-26.38989224478127
-26.241160971456424
-25.73896731230295
-24.3427074830461
-24.686280212960575
-25.659963208855583
-25.357225575020298
-24.95096245691568
-22.0252470035223
-17.201834941647842
-13.596320589401898
-12.387056940526293
-14.192968313948686
-15.914185644382655
-15.111911711179786
-9.144800541806609
5.786979827478441
21.60833362288759
28.53763171369095
34.383335932307936
46.52939115537777
53.13151009293844
45.343200819407954
35.39289315789039
34.1666601744668
35.537555764592554
30.612395668735214
19.854317328223413
10.375496268219422
4.328251063086453
-1.0196976866953606
-4.7926509611104535
-8.737219406178836
-16.76315130490089
-26.354066987484458
-30.9683402737967
-26.09209336068737
-18.27753366688931
-17.577362421045535
-19.892410129336334
-17.894347530417658
-12.745649354448767
-6.5686495687170545
-1.0313225455400086
3.545665159295166
10.451626139349587
20.127453724945973
27.819807729114537
29.370642305440334
25.988153815335657
23.055155342988094
23.82528008277539
27.142330216635948
29.877039569805618
31.02385390319864
32.0097826344484
30.58624571058968
26.553921423112634
26.39314250463464
30.29830160774727
32.53917620564549
34.25123443563834
41.91125483411015
52.203173009486235
49.98845678026419
34.06526890040796
21.261597200328836
16.787304510383727
13.388426896390712
13.570861892235635
21.29348570880304
26.318762032083704
23.034606492542174
22.00898725506162
30.79450136853774
45.10812450073913
54.86584491590533
57.30643115149331
61.35598752595905
69.42124034366013
74.91896018439208
74.47527409840897
69.84204413371805
65.2391200798016
59.825793300912636
50.60723201254244
37.49887473123627
19.12471861489052
1.8707439570331985
-3.7666965493342714
-1.0700941275014342
3.121656123436042
8.49034441311295
11.655388904897693
7.2372455287976765
-2.1920540722876956
-7.825044464201199
-7.011338070000814
-4.726301541094351
-3.9815845962581364
-4.038028486516427
-5.066472684353766
-8.323960031822743
-8.32772908185162
0.24369992553063033
12.980612988711417
25.716575838140752
34.09548328344498
41.3445467765566
50.59085960246039
48.69408244915662
44.379133137758934
43.941215821949804
32.228892749583174
26.572274936292768
26.753219556717518
19.61378778211344
24.792124723810296
28.63501083584674
27.991913397042843
35.07295432931948
17.693657172799504
-3.611455197391889
-0.4347535882505502
-11.046185003929391
-20.645903682987438
-9.188956007953847
-15.956656803139378
-24.96003346846564
-14.317753686755005
-14.832895303294752
-14.098963702098239
-3.6227832912065483
-7.69636626433197
-5.690855089578392
5.257769915642887
-1.390068758780673
-17.749790276554563
-25.067645902718414
-15.714307243297634
-15.566432883553071
-28.524542494352346
-24.552129148949312
-26.655838290038655
-28.424443414021347
-10.027473131923935
-7.7191791952390485
-5.840530544431966
-3.7725338189304187
-17.764852486236514
-0.7688081594308056
15.465777256871409
-16.1442699407784
-28.06484493465875
18.520104847836084
42.85546843203059
-6.7444519685346265
-40.10500209696824
-13.011691258477738
9.05123150122706
2.7130924216508645
-13.995837129896513
-9.18893231146006
-4.371057345320131
-27.623279810799925
-18.244017406396942
5.603019787473794
-7.874937007455557
-18.346561327630013
-10.177503345091548
-1.684282555854979
-10.332224187976816
-30.983856115447626
-34.096629832968304
-13.684117835160151
-4.3535835395823765
-50.34800283590653
-81.98464696542327
-39.3678594931014
-2.7654858807079536
13.938034450479455
4.704732311466077
-48.12826846111284
-45.15934839054515
-6.319287937960589
6.082600945402187
36.989388368077876
27.090480474152603
-19.18570666908457
-10.150875075057511
-3.4082441659824285
-19.269890919374145
-26.216694974251883
-35.82275347062781
-26.700930657956782
-29.27666477042409
-47.93136909299701
-27.754470379355922
-3.315229184283741
4.3357107874642855
15.20467219708523
21.7062457009528
23.53448598034398
-9.903778332020098
-48.34320211716765
18.14029012042215
81.39955399090768
-1.3949478141189862
-19.503024319631965
53.892862335864514
-32.53555124262577
-88.51481305284062
19.18112239419871
60.73041542237321
61.18629528223284
-2.1940015167791915
-74.69823024590065
78.38209200038484
123.58285319401766
-51.14883102791319
-28.384673024432846
82.82316272995544
85.40693043031347
48.67552089829971
-30.809592335247753
-41.716776225898336
27.960157394261824
43.5562997154
9.551572346511088
-3.402869161333038
30.869601586576565
17.226779349571856
-25.325500338347872
6.349445732239639
17.271984621620152
11.198635888009575
20.978505463577726
-11.838865715739075
-0.8271172296619683
11.416756020023026
-60.1034247080185
-78.44060850422423
-1.324379609646578
68.15063746565447
72.8055928553717
21.92200404070326
-55.169767018670456
-43.490638810061306
99.59072949685124
137.09935079147462
29.766260697265817
-52.25233999520758
-48.78202140879772
100.94903832690912
130.33864763116884
-47.338975979377125
6.630133801842295
63.156158919207016
-144.351695455195
-105.27134212348312
73.90171395784255
24.819941159969357
59.408545047243265
74.35275706525901
-136.67216311292947
-93.8328029564687
139.2543392300414
60.339805763219225
-125.90956801927602
-85.35777021572835
75.91143371431174
73.51919089649279
-58.00335053390992
-34.32255291807105
-74.14710692147142
-203.293918612259
-18.062889882110078
144.83106895338372
28.26410361115923
-54.292292866492005
-84.44861113777488
-12.049612224587479
61.15026052424657
-63.662173654133795
-86.77760373589942
-23.543267592762223
-44.80128473094957
32.81308638078256
88.25144106811922
-10.024215232762458
-108.47234634442955
-83.18165823202361
56.07886076572381
68.91690481186218
-32.25923170298951
-15.168711701367874
-20.182550390183177
-70.40128630023257
14.896194701938008
69.47269066259196
-9.868219567646502
-79.90563602639453
-117.6131349305414
-62.88761777960314
80.53037512619233
87.5017920766921
-40.19445842426387
-118.68058885645365
-98.1717167906488
2.656163851716465
82.82675694653466
53.397483530315476
-20.423923908043452
-43.33484316707521
-43.07831516707161
-68.11074722660095
-0.4693078540071283
131.89071108657726
43.86585849714417
-188.20253265408914
-181.1767921760333
38.79785775105798
128.46190562287038
7.481254996228478
-96.89418910314288
-32.020338564910645
45.06937594202073
-6.465388446971332
-38.68024701147694
-34.53024369752588
-84.48892980966932
-70.91617103735136
-34.30540170897239
-49.20893053154159
-14.994595621022048
-12.932567247033559
-64.43129958954884
-88.88285078520529
-112.47921891931146
-68.27888815496594
-15.234546988085823
-27.938436951368544
-6.9699842080372525
-15.149612497686283
-26.938585807457844
25.731416588373616
12.026038892594219
-8.612217491641514
6.912603875168921
-53.91341357775266
-106.41468649750016
-43.02900687749367
71.8079742358083
99.18200523246695
22.0129120468955
-35.58391564748063
-41.756226515620796
-26.194483058873363
-12.741242493255024
-18.04916251326337
-16.37524140488663
-19.74046410704081
-23.270951580192197
-25.81372049755693
-37.87372586064977
9.977196578989252
38.165554993683884
-20.705223987980126
-1.6819837329515155
21.93873442437567
-69.61633684198922
-64.13776839398857
32.930970684560016
32.70239943133393
1.5746353874168777
-19.096739193863197
-42.76171191662762
-6.711065792254398
-3.680332802255838
-83.0425673069311
-89.17524123410934
-31.35696678293617
-35.3682596404669
-91.63195252751399
-129.05788075776502
-68.82105316856814
18.18663874029355
1.9147684258948554
8.113532604523199
62.74147215871722
-6.014786023667314
-68.17134743325629
5.304732021307485
63.1603489916708
81.53597564246728
43.621343719381215
-85.73049177177083
-97.98388248192555
3.5886191106695002
25.123186061429998
36.95777419720962
39.555402166159034
-12.311894764848262
14.324889289235603
71.91675690209985
57.43666187007317
25.766514941399233
-9.380043606741088
-30.29681754179078
-20.20157423393142
11.050155541063075
71.25170975506906
58.9819808603858
-31.250668695734014
-34.2614224159737
1.7936747820152241
-12.938230857661113
15.659061160929149
40.74641184847801
-21.85834449828749
-37.50111341507552
25.461197757510114
25.566915887832817
-5.937892837523936
18.274329177830083
38.819588397625104
24.078649038889598
-22.57250855575061
-61.454931489627924
-3.0075679527379737
76.5789219245237
63.646693588470484
-5.766426246529628
-51.17261999162712
-17.598718316005716
23.772009108509053
16.77492766923197
26.659345041416664
18.78471213108125
-21.073871207685823
-8.263537728831711
29.254627345122014
29.211589605169518
-4.80191771565844
-46.550421877906125
-52.13005683714605
-9.990293156986642
29.337815703912504
29.303500458899155
1.5546115406750916
-30.896585921788954
-26.686285693638506
1.2199575585753142
0.8485881911388342
20.41954181688591
68.20131341037809
78.73548284601003
51.49055181061316
-15.819717907475802
-58.708215387405524
-0.32370556596716954
53.298181341597235
37.24731398974235
8.424635389957611
-20.01166123463672
-19.183719541589035
7.614546517811322
5.096726446162097
20.70725494652443
78.1550703125187
74.78662720818116
-3.3433120918482118
-36.76971116197982
2.569772513408991
16.68579834955798
-1.0837469803931779
4.312681297582132
-5.078248788239405
-22.18039603602008
-0.37499472295130876
15.452539943008325
18.650520416615723
36.878182278957794
34.913050976969586
10.772654960186422
-0.7166406349141456
-0.6896927184256857
2.326622074972706
1.9179277556366625
-13.340437715988472
-32.289766070794336
-51.956911262019744
-69.0027920515773
-37.13420295922906
9.253962973103542
-4.687949854805171
-21.530758086844525
-19.974375581262496
-30.48384135647971
13.086163484042801
64.31786279772402
33.93441186945468
18.654750504424563
47.40069491349673
43.89456879992468
31.02992403291182
26.3197747780243
19.627642567775478
26.10122500191545
12.181364033642163
-15.423536772294005
16.555512887951487
63.737734632179084
39.6548498079829
1.7536981042328121
6.021386898087282
8.12891755855255
9.109425345836831
23.679121429692703
15.701309806418207
9.488102357610982
29.676134250274874
33.77017505409695
26.101408241216866
12.312207414221287
-22.952019773812218
-33.77145117628274
-17.608758226476372
-19.045701274890803
-19.978615767790032
-12.070246026548235
-19.566269373639244
-24.026481682816748
-8.918221003717509
-14.593476271069601
-44.58988652649232
-38.84571900298927
-15.172102520213638
-27.970540266159276
-40.261430982899185
-23.239307984085862
-1.0976977125414555
20.275238326505264
24.007838284507113
-7.959004526458167
-39.1004154784419
-33.447752131045455
-14.062104290041166
-2.736518264434686
17.092630977949963
26.2536266969749
6.208240226976521
8.947654769038296
34.199666708858736
33.063459921191715
18.877337179639056
-1.0207495948718637
-14.680197490268974
8.147008695642146
23.714226906502613
5.499348610493295
