AAD_Filtered_TADAS_FILE
AAD_BASELINE_CORRECTION: BASELINE REMOVED
AAD_FILTER_TYPE: BUTTERWORTH
AAD_FILTER_ORDER: 1
AAD_LOW_CUT_FREQUENCY_HZ: 0.025
AAD_HIGH_CUT_FREQUENCY_HZ: 40.0
EVENT_NAME: 202302061024
EVENT_ID: 13207
EVENT_DATE_YYYYMMDD: 2023/02/06
EVENT_TIME_HHMMSS: 10:24:47.00000
EVENT_LATITUDE_DEGREE: 38.089
EVENT_LONGITUDE_DEGREE: 37.239
EVENT_DEPTH_KM: 7.0
HYPOCENTER_REFERENCE: AFAD
MAGNITUDE_W: 7.6
MAGNITUDE_W_REFERENCE: AFAD
MAGNITUDE_L: 
MAGNITUDE_L_REFERENCE: 
FOCAL_MECHANISM: 
NETWORK: TK
STATION_CODE: 4624
STATION_NAME: 
STATION_LATITUDE_DEGREE: 37.5361
STATION_LONGITUDE_DEGREE: 36.91765
STATION_ELEVATION_M: 466.0
LOCATION: Kahramanmaras_Elbistan_Turkiye
SENSOR_DEPTH_M: 
VS30_M/S: 280
SITE_CLASSIFICATION_EC8: C
MORPHOLOGIC_CLASSIFICATION: 
EPICENTRAL_DISTANCE_KM: 67.65
EARTHQUAKE_BACKAZIMUTH_DEGREE: 
DATE_TIME_FIRST_SAMPLE_YYYYMMDD_HHMMSS: 2023/02/06 10:24:33.7197830
DATE_TIME_FIRST_SAMPLE_PRECISION: millisecond
SAMPLING_INTERVAL_S: 0.01
NDATA: 10501
DURATION_S: 
STREAM: HNE
UNITS: cm/s^2
INSTRUMENT: sensor = GMS+/GEOSIG | digitizer = 
INSTRUMENT_ANALOG/DIGITAL: 
INSTRUMENTAL_FREQUENCY_HZ: 
INSTRUMENTAL_DAMPING: 
FULL_SCALE_G: 
N_BIT_DIGITAL_CONVERTER: 
PGA_CM/S^2: 79.746
TIME_PGA_S: 
BASELINE_CORRECTION: BASELINE REMOVED
FILTER_TYPE: BUTTERWORTH
FILTER_ORDER: 
LOW_CUT_FREQUENCY_HZ: 
HIGH_CUT_FREQUENCY_HZ: 
LATE/NORMAL_TRIGGERED: 
DATABASE_VERSION: 
HEADER_FORMAT: DYNA 1.2
DATA_TYPE: Acceleration
PROCESSING: Automatic Paolucci et al., 2011
DATA_TIMESTAMP_YYYYMMDD_HHMMSS: 
DATA_LICENSE: U (unknown license)
DATA_CITATION: Turkish Accelerometric Archive v 1.0 - Disaster And Emergency Management Presidency, Earthquake Department
DATA_CREATOR: AFAD
ORIGINAL_DATA_MEDIATOR_CITATION: : AFAD - Disaster And Emergency Management Presidency
ORIGINAL_DATA_MEDIATOR: AFAD PROCESS SERVICE
ORIGINAL_DATA_CREATOR_CITATION: AFAD PROCESS SERVICE
ORIGINAL_DATA_CREATOR: network: TK
USER1: GuestUser
USER2: 
USER3: 
USER4: 
[...]
4.851034580143585
-1.4456885099960708
-7.294845495322915
-11.258498455201945
-12.791339084133094
-12.544990942988813
-11.765848139667181
-11.735423539680362
-13.012885763999517
-14.807028543550711
-15.758707941942504
-15.281248958815107
-14.043762304528528
-13.521354594422727
-14.37683356789441
-15.9146412022911
-16.943695314536246
-16.92136273433358
-16.497379610906975
-15.927931192399079
-14.609510086342508
-12.660152755749305
-11.32625288374751
-11.517068579523217
-12.509528275806971
-13.223246970218597
-12.880255166261888
-10.030821933079663
-4.237231726553329
2.9274175606887574
10.493504033094654
18.698840947334222
27.32085333538451
35.379798230555195
41.47193457047762
44.411291829100534
43.95163050156173
41.283491876622215
38.54270948493706
36.772724610845756
35.296008219661154
32.974755283173685
29.438710898266567
25.388669916088453
21.397809128092245
16.926257620346068
11.182246292140805
4.35590627445789
-2.1954005146943305
-6.717720991515122
-8.698455708948512
-9.191570308901914
-9.205244392967984
-8.99441538814768
-8.226981737951249
-6.6207353629240036
-5.097862671633521
-4.917932151246091
-5.528530578915057
-5.272478772697181
-3.9469042593475394
-2.8754414083348268
-2.8950275117272652
-3.5804012316687506
-3.9326270391861673
-3.2261010968663166
-1.8903253777437297
-1.0170217958842998
-0.6337988094162287
0.17114151759925392
1.9388500724934852
4.6303543619066465
7.991129410204831
11.901166323291934
16.685880880243754
22.763754144580396
29.75138365394523
36.743961738274656
43.18999340453903
48.62608932244354
52.46501706362152
54.21036548426402
53.45688818184584
50.126020717285876
44.727797974755994
38.640667040622056
33.72731345889759
30.468818596629713
27.470590246092975
23.658403015821076
18.992077170652568
13.107490977810453
5.867448629465209
-1.6313088030149687
-7.882316561762091
-11.50247758389622
-11.858445981932444
-10.213668354411851
-9.128423550284761
-10.379679068024622
-13.762238030874304
-18.05421129496426
-22.83185795935527
-28.136111351479773
-33.143339528938064
-36.681320380013226
-37.57781533424904
-35.22531532697483
-30.780825940342353
-25.66416221917365
-20.19255901037542
-14.631494528864568
-9.465721595882949
-5.0661575037342965
-1.8940406694899332
0.1597575663290428
2.224466092243708
4.984684672112874
7.744992452801725
9.152445341493058
8.360576353630206
5.4627587270380475
0.7270566807404084
-5.266074860941958
-11.340895488273574
-16.38186604998412
-19.497055555351054
-20.32403352451056
-19.037055056065363
-15.946930759436661
-11.772373474998396
-7.540815057308728
-3.885722792480074
-1.4836386763553908
-1.316180245099865
-3.428851620551479
-6.735647928294692
-9.58115988610562
-10.549972122011258
-9.359022862375248
-6.5592420254541235
-3.431758911353138
-1.5636190742134648
-1.9361985934937398
-4.871377285983422
-9.823394643721812
-15.225770820129055
-19.223837777817838
-20.725976919898756
-19.987770764307115
-17.855217398400182
-14.87401990401687
-12.04029614021739
-10.64522682106756
-10.469250447620574
-10.364407724517108
-10.197971674249915
-10.23332420952182
-9.938692407049402
-9.06350872651746
-8.345341871057814
-8.147022103038566
-8.291032386554416
-9.104112941045694
-10.609163665079718
-11.836736502832846
-11.915999492351645
-10.481551592430602
-7.365415267191147
-2.6585658005873434
3.041566521953646
8.802054609862275
13.759145707651019
16.95893774699082
17.840480755425574
16.5732489530886
13.800913602902455
10.830476718891408
8.710415230733974
7.175914071912704
5.445237817191264
3.966748933043596
4.236654149592755
6.75116444154
10.631897661994248
14.6051333245041
17.50167766131426
18.59806187831831
18.439473337049517
18.012282148141942
17.1815268787046
15.759729430925569
13.714509239638817
10.125284441918435
4.368588195741888
-2.4796258150545563
-8.489864416363051
-11.957106631628157
-11.573496762811663
-7.5794560118172365
-2.440562603128171
0.6585415852565434
0.12436138151242225
-3.0726832187760644
-6.439804068715016
-7.651809053325724
-6.292329346988522
-3.6096196421082993
-0.46035303433710373
2.857609917047171
6.132276067446922
9.486836530070573
12.884905435415709
15.678902032622611
17.17621027569928
17.84243438426189
19.206570996548344
22.17151570933166
26.0828908580835
29.279747218588163
30.144944786993054
27.89384227510232
23.334315337045794
18.299555465382454
13.470397707274547
8.113938376278117
2.0331824214234975
-3.55647816053681
-6.764941967122284
-6.152765137891061
-1.9737234594027093
3.5272643070764347
7.452236528851601
8.65077139262182
8.716764827535668
9.482175695140544
11.223624290912074
13.698787032142922
17.048749641608996
21.22594598482817
25.208075656578142
27.94996038002172
29.018330230896076
27.948187513256673
24.462625236261708
19.53973184743699
15.05202126733482
11.695009975478772
9.044920263797085
7.108089864226122
5.8088722190382756
4.571144526003743
3.282352268892841
2.3080598963052377
1.5966172773166865
0.48691743419853595
-1.4400103260506543
-3.7818551281775585
-5.6547849407041895
-6.31671705116844
-5.611429172645997
-3.647665858825419
-0.5498427330948956
3.464002979859773
8.359352009683965
13.621077794996562
17.66182508621816
19.142899987030212
17.876883184048268
14.361971702925064
9.053942419517767
2.021127175726972
-6.289251151860064
-14.511386443334288
-21.191038798204243
-26.00649374855336
-29.898930808528924
-33.846728840922545
-37.63984863953929
-39.75705552644911
-38.1991370836112
-32.18398064712935
-23.865857837180844
-17.066587575445716
-14.10786483547374
-14.565241296680888
-16.247638769196374
-17.620886296117483
-18.764453268232142
-19.78698942696009
-20.14427995005516
-19.370886630268952
-17.431677138644982
-14.823205953796982
-12.398635129950987
-10.578724334710248
-9.741359559042316
-10.707375717114557
-13.821766447476726
-18.763709161654024
-24.624961882220518
-30.167641087450512
-34.553479962261115
-37.45167499753425
-38.872332168710216
-38.8537859843387
-37.56471871465885
-35.208815911538615
-31.520048832054
-26.17896306085919
-19.018839788499626
-10.11976036977097
-0.521782833182927
8.384927478812616
16.25267406261343
23.41669892574208
29.529104324742217
33.58742273828655
35.19286661134717
34.85892305029798
33.19274126075061
30.87152915415021
28.998845191155688
28.19254177619095
28.028516977620065
27.788859173610632
26.60130925118364
23.567185233196497
18.942928247289228
14.303785492497587
11.339052833507111
10.843300749610108
12.407000579906716
14.744035486601787
16.314492105050057
16.534491065909254
16.172440164453644
16.1525016633952
16.85523096584064
17.937065783828515
18.64328787710916
18.97730068669277
19.484912336932553
19.769411827441093
18.86529981447045
16.315709296795312
12.196208038187775
7.772114709313209
5.036796234225902
4.387002073058681
4.200007236385696
2.6264017242569535
-0.804685090788164
-5.161860526635311
-9.123185538359866
-11.628222880284643
-12.225131538564241
-11.018306483219268
-8.506962981472327
-5.6028058403534375
-3.374360357887143
-2.6617021131972733
-3.313040617988199
-4.293344598447222
-5.465141514919011
-7.611285545499338
-10.732827927082845
-14.469537039311529
-18.663786879421373
-22.684779521189395
-26.106807329803623
-29.415033218155347
-33.005276859972064
-35.95022990962545
-36.506972203674934
-33.72336524569203
-28.058605806757487
-21.005527964109838
-13.93356485861485
-7.118778230796147
-0.11294625360269199
7.331466253771753
14.819109331192903
21.47897188983745
26.17535154244974
28.074819525755895
27.466172701551397
25.737567337751585
23.77711213281626
21.1403818335245
18.05812132909709
15.79675467640722
14.600053405324322
13.778410977923652
13.298575673087186
13.834400664657649
15.499678375215211
17.744027258888973
20.251105726988467
22.904698855555218
25.388736606160972
27.4219326906927
28.985774535776553
30.12076656737553
30.872769846470334
31.268746020607875
30.97508141666313
29.25667250313191
25.461674273487766
19.405700597360607
11.627554851843295
3.4839689218871537
-3.7408809465561577
-9.772709446728857
-14.850815222348503
-18.96333439702059
-21.776487435495007
-22.675632596678792
-21.313066736903735
-18.02301573764905
-12.993744882704116
-6.13148025672329
2.099890731463083
10.525235519228254
17.75981309352506
23.161039343035576
27.036132927204186
29.48699720688372
30.295508392415872
29.83590087195852
28.689714504491963
27.579352357377115
27.385466218405497
27.936071058445457
28.539197276536626
29.477448078236584
31.3306856771524
33.65745557602073
35.37738296581231
35.539672221253724
33.71729685902463
30.70718949195131
28.038616203328793
26.458430489060675
25.418097868991886
23.493008451647476
19.433136817437187
13.920959363427247
9.591648898118157
8.011559984841599
7.78296576746734
6.421681400235105
2.6579038003696214
-3.0589409859950685
-9.31965657752157
-14.856722089002682
-19.033650117196668
-22.215352172386602
-25.323492611535197
-28.93407383528342
-33.388989461969345
-38.60191580118657
-43.98933619304913
-49.29876270428279
-54.55826499362751
-59.298922763592664
-62.66397852088034
-64.21910397911445
-63.914367904485616
-61.306780730434895
-55.88174085142355
-48.13999943662712
-39.51625971689081
-31.70946782163442
-26.2930992902978
-23.800531628875678
-23.771765937423346
-25.427588354572478
-27.479340220679532
-28.82427126355274
-29.263835687249443
-29.3390602665259
-29.910922835999223
-31.49441437454985
-33.89480098009037
-36.128399824144324
-37.19576973201869
-36.68468329535711
-34.09491937744409
-28.99707456136611
-22.00262902004583
-14.586164208186178
-8.109606516609155
-2.9389289036780872
1.340007821650972
4.819274688106231
7.5771900162017625
10.203214188035238
13.32878313546501
17.898127367099246
24.404382778612064
31.31429427420508
35.93132877969118
36.268986882883794
32.13537049421472
24.95299598154002
16.390408195336253
7.337951893665498
-2.126176085357287
-11.846595416588192
-20.929879008331632
-28.111570918203856
-32.630037917748034
-34.85833656136938
-35.889089682299286
-36.65037158352015
-37.3246949493794
-37.37859906285589
-36.31344327500901
-34.0923377739937
-30.933697529024318
-27.016697582117835
-22.461667213802865
-17.581007391747196
-13.070310236240521
-9.93455452550731
-8.814057356621866
-9.565730975747563
-11.165763570813208
-12.040010903398526
-11.186144174500102
-8.433581306036974
-3.9819204626226576
2.0964377990884495
9.66301327963411
17.892611155648005
25.49181112381182
31.173247064880165
34.30786735457965
34.64183364742999
31.879225049663678
26.66045606319026
20.42477557126121
14.123017933160604
8.068281362177512
2.4855748417392554
-2.6922503681180157
-7.824072717702299
-12.344837022188063
-15.114978212314364
-16.195795164279815
-15.734500755608865
-12.975878801630405
-7.976340837478921
-1.6122436553732358
4.982936156520304
10.15669946968044
12.38392112470887
11.167321498447356
7.636917122786763
3.757170633244132
0.7420119065221858
-1.6017789679083383
-4.226176471703955
-7.323551316292779
-10.077246020378112
-11.608247700400128
-11.755343592156205
-11.336788296664855
-11.36715456823998
-12.434698058975634
-14.386133275470284
-16.105837362551608
-16.423166537079123
-15.102665873164083
-12.464673249627664
-8.674463563048409
-3.9571605804769225
1.1368701248941326
5.567976180588939
8.243306609669213
9.472373383252231
10.988254274975144
14.042859844321704
18.258649320311026
21.981705875226194
23.244963135526056
20.70022536495649
14.14141263450513
5.342405768167705
-2.466596666841567
-7.249786037015677
-9.011357911907867
-8.348064015774243
-5.918539589438112
-2.6695244919667167
0.46952363052701657
2.8744906565392654
4.422472235053183
5.220127591983679
5.136033714718414
4.382928760936384
3.79411227317722
3.4813135457141646
2.166779073298337
-1.4709840176846827
-7.517019061604467
-15.116294364212568
-22.916154636572653
-28.92713871199228
-31.698773982919448
-31.17047838656458
-27.7317996755359
-22.363618403026013
-16.739124142961302
-11.853163059042512
-7.901279387095088
-5.01635146353804
-3.0281538111508417
-1.451348089210718
-0.11717511722207848
0.9698447921780519
1.6950366889071555
1.665553676514259
1.071596181292508
0.613272571501601
0.7371718799231748
1.771849477409039
4.225410701429503
8.546561985391659
14.042833867999374
19.087389890270316
22.199907480508028
22.472319388702232
20.35844723193267
17.43086325173328
14.762766967436443
11.710205494205107
6.395927107937058
-1.9301741017495082
-11.523243631289558
-19.9345556612559
-25.937717734169865
-29.49964808469939
-31.081654495759874
-30.91408866337181
-28.83026863101985
-24.59679555878953
-18.658397563193063
-11.761460525507884
-3.7663603105534973
5.6941486871868285
16.195105536389608
26.672658708670085
36.44327880240259
45.6083839969862
54.302600194764544
62.18153027645938
68.53564052085245
72.94406248485407
75.70890367577398
77.71888019076135
79.43493308938552
80.41213666821133
80.25033569465393
78.74622060208279
76.22757283617543
73.46687168848369
70.30345349076559
65.845003664544
59.3819665758915
50.9515434625253
41.07614339024705
30.240821463119037
19.46183017271612
9.636098281267778
0.6475428128590589
-7.766551817259357
-15.166526588754946
-20.63685221914694
-23.399774283695017
-23.388550537495767
-21.60671596175042
-19.473191632453137
-18.060236170476895
-17.533278188657036
-16.852868069460314
-14.876253454936675
-11.335909926182039
-6.772275199927647
-2.0268321688912936
2.190316586362931
5.236195548493972
6.808667665954399
7.033719410712619
6.2597831748849675
5.208437995379549
4.556547362678281
4.547543386024685
5.0606149188767
5.906536212536572
7.183489071370338
9.123844844744871
11.550452939231642
13.578648705367018
14.239910412050769
13.027799860105263
10.1110351476803
6.323068362032501
2.3957874718454018
-1.717614169043623
-6.4527517886837655
-11.594461573007985
-16.256046381441674
-19.746283748129578
-21.9566632490997
-23.042975846133253
-23.125967189888186
-22.42287913411939
-21.312193057360467
-20.074802412874387
-19.021555852133925
-18.662664215087183
-19.130653123896558
-20.085582376813225
-20.8909404602088
-20.90912295513235
-19.894110947629525
-17.860017967831247
-15.026427234121991
-11.053539945611204
-5.2067398900091435
2.1684777338590395
9.737449576594825
16.008071493692686
19.989770581531605
21.55140116558985
21.04949587823755
18.7243894435554
14.697420786981406
9.510869417803013
3.9436890296157645
-1.3130821575809317
-5.744196342348295
-9.052279239031368
-11.34184244859485
-13.44954118692242
-16.140051646887102
-19.484357176847784
-22.879343137994788
-24.98241255490548
-24.569807690051384
-21.746671360413796
-17.87029523100578
-14.33494547337223
-11.92811263474668
-10.531149833465381
-9.080469950543092
-6.664218272877634
-3.6467036498366747
-1.3982415266825565
-0.8699231139001632
-1.7389840012889395
-2.931077985351695
-3.6500226750194127
-3.805916351334008
-4.0684920105402265
-5.387338632929685
-7.6697058967103695
-9.867357462321698
-11.28073928942022
-11.940443783474944
-12.193023720326893
-11.932178855613468
-10.577570850473244
-8.114400186775914
-5.427669101030343
-3.3890383643598185
-2.4220835145641226
-2.9401622398357112
-5.306183041143709
-9.844563380690348
-16.683388206815803
-24.737910914141697
-31.85788291335263
-36.44959917766172
-38.610037835141796
-39.6583705276896
-40.8610450868683
-42.98027597598841
-45.98660061462842
-48.841514099390885
-50.61926528103707
-51.257107477965775
-50.65916006518135
-48.15783466539215
-43.11550237708848
-35.289139287636765
-24.883972823172982
-12.894673053180327
-0.9587765417993425
9.53057584621988
17.714468339733166
23.193419935006798
26.37625820594721
28.092313136925153
28.753492274805367
28.34836915038796
27.2599080942587
26.46196543410204
26.502550771125716
27.04064545939934
27.48865672370998
27.599736726032024
27.249809458105254
26.38217293215167
25.225960268326183
23.8379509526481
22.02013975743568
19.707302134728238
16.967285817807028
13.815583947751954
10.149480286830503
5.97129115509965
1.447401710624061
-2.912300812125959
-5.992824554163296
-6.831809425456736
-5.517594042224047
-2.991404341347947
-0.0006861633911190469
3.5282970405782628
8.029366823149626
13.858591908195002
21.367043210402016
30.25915472272388
38.8111678006125
45.299058306733535
49.346743290132416
51.11794847690819
50.81499636581504
48.98630305718207
46.33960065364743
43.14998451905793
39.49456916958837
35.79608290912062
32.541687965401856
29.681857562415157
26.755120307248305
23.688888959675666
20.602896455266194
17.410828664912426
14.37921633855625
12.172336466862875
11.550011000249658
13.315916406429288
17.67190852982053
23.5017015074729
28.82095037749369
31.975265026197764
32.69113296489231
32.25219728177684
32.14802209089507
32.567856618087426
32.87559422153097
33.16926702479765
34.043485665037466
35.4092360825888
36.62386944448229
36.90771921006332
35.71487937715004
33.399155011346025
31.210276625689843
30.18099088984507
30.453260252886068
31.858345282218135
34.043808362315886
36.115657044553366
36.938973464404974
35.93628180767396
33.39774155732312
29.99138874168331
26.361192161891886
22.84344011131214
19.319165724983343
15.62630191054527
12.249918077558583
10.335685120769238
10.532695047690225
12.168259862771334
13.723792135654506
13.936956789231392
12.334287117552593
9.119912925702144
5.293628044296192
1.9316029088076516
-0.5084103855634368
-1.7443088482134357
-1.8985011387231838
-1.93466965968115
-3.047085730188338
-5.57536635486082
-8.8095263615212
-11.496207368188445
-12.44660214609431
-11.424508508301086
-9.053373406201455
-6.163410084513238
-3.546099262768052
-1.6323918193742228
-0.3768263815027598
0.47687217936519843
1.1535822486982588
1.758419040737762
2.2939387253277403
3.0105865951003814
4.564311042692394
7.273780946860252
10.537658856370527
13.736405116956549
16.977150408271974
20.41476882899355
23.886567282614
27.15484656555038
29.93988865569058
31.762209514781272
32.16354216351951
31.328768538838858
29.85570489627577
28.174649221054523
26.664873719468883
25.823767770320213
26.274788411066666
28.433950464415357
32.18811991663268
37.12452808663377
42.571318385785595
47.45664678256654
50.56213181440761
51.449814465344275
50.85611953491477
49.53570359915224
47.42158258257392
43.89919799625054
38.48499967840925
31.428983086266317
23.736099334817226
16.767783362483936
11.358466067510015
7.324639922553829
3.9275614554610567
