AAD_Filtered_TADAS_FILE
AAD_BASELINE_CORRECTION: BASELINE REMOVED
AAD_FILTER_TYPE: BUTTERWORTH
AAD_FILTER_ORDER: 1
AAD_LOW_CUT_FREQUENCY_HZ: 0.025
AAD_HIGH_CUT_FREQUENCY_HZ: 40.0
EVENT_NAME: 202302061024
EVENT_ID: 13207
EVENT_DATE_YYYYMMDD: 2023/02/06
EVENT_TIME_HHMMSS: 10:24:47.00000
EVENT_LATITUDE_DEGREE: 38.089
EVENT_LONGITUDE_DEGREE: 37.239
EVENT_DEPTH_KM: 7.0
HYPOCENTER_REFERENCE: AFAD
MAGNITUDE_W: 7.6
MAGNITUDE_W_REFERENCE: AFAD
MAGNITUDE_L: 
MAGNITUDE_L_REFERENCE: 
FOCAL_MECHANISM: 
NETWORK: TK
STATION_CODE: 0128
STATION_NAME: 
STATION_LATITUDE_DEGREE: 37.250287
STATION_LONGITUDE_DEGREE: 35.062788
STATION_ELEVATION_M: 236.0
LOCATION: Kahramanmaras_Elbistan_Turkiye
SENSOR_DEPTH_M: 
VS30_M/S: 494
SITE_CLASSIFICATION_EC8: B
MORPHOLOGIC_CLASSIFICATION: 
EPICENTRAL_DISTANCE_KM: 213.03
EARTHQUAKE_BACKAZIMUTH_DEGREE: 
DATE_TIME_FIRST_SAMPLE_YYYYMMDD_HHMMSS: 2023/02/06 10:25:03.7275410
DATE_TIME_FIRST_SAMPLE_PRECISION: millisecond
SAMPLING_INTERVAL_S: 0.01
NDATA: 14501
DURATION_S: 
STREAM: HNN
UNITS: cm/s^2
INSTRUMENT: sensor = ACEBOX/SARA | digitizer = 
INSTRUMENT_ANALOG/DIGITAL: 
INSTRUMENTAL_FREQUENCY_HZ: 
INSTRUMENTAL_DAMPING: 
FULL_SCALE_G: 
N_BIT_DIGITAL_CONVERTER: 
PGA_CM/S^2: 19.074
TIME_PGA_S: 
BASELINE_CORRECTION: BASELINE REMOVED
FILTER_TYPE: BUTTERWORTH
FILTER_ORDER: 
LOW_CUT_FREQUENCY_HZ: 
HIGH_CUT_FREQUENCY_HZ: 
LATE/NORMAL_TRIGGERED: 
DATABASE_VERSION: 
HEADER_FORMAT: DYNA 1.2
DATA_TYPE: Acceleration
PROCESSING: Automatic Paolucci et al., 2011
DATA_TIMESTAMP_YYYYMMDD_HHMMSS: 
DATA_LICENSE: U (unknown license)
DATA_CITATION: Turkish Accelerometric Archive v 1.0 - Disaster And Emergency Management Presidency, Earthquake Department
DATA_CREATOR: AFAD
ORIGINAL_DATA_MEDIATOR_CITATION: : AFAD - Disaster And Emergency Management Presidency
ORIGINAL_DATA_MEDIATOR: AFAD PROCESS SERVICE
ORIGINAL_DATA_CREATOR_CITATION: AFAD PROCESS SERVICE
ORIGINAL_DATA_CREATOR: network: TK
USER1: GuestUser
USER2: 
USER3: 
USER4: 
[...]
-3.9807886913183363
-2.9704979788501586
-1.4067537188524295
-0.6975877179512568
-0.9154971989443512
-1.002314889393685
-0.5452590059253773
-0.30132329489722587
-1.0570384969644535
-2.3515093019978477
-3.0423421482306092
-3.004769787870293
-2.9940089733287056
-3.373647730491792
-3.9790239287477167
-4.507494053663605
-4.888482345298157
-5.229648119436289
-5.298756670859996
-4.884785823661702
-4.272009982417008
-3.7771287261321707
-3.35837139128514
-2.825712955532948
-2.365466000514496
-2.3978185364895164
-2.8560520325537437
-3.2876056250805044
-3.386065897859704
-3.2667810172581677
-3.4616603280311162
-4.399204565505714
-5.815305951393291
-6.874118144413379
-7.2337367543113675
-7.4572977987150235
-7.968541361553251
-8.568402798570736
-8.996923740655534
-9.3667823721904
-9.903498406608401
-10.447199874050016
-10.751344846045377
-10.88385763222769
-10.879553722874261
-10.448775937780146
-9.500711454633565
-8.561017067898407
-7.99614474140308
-7.525035211016859
-6.776170488867743
-5.69366730305243
-4.605111592736171
-3.8435156094581986
-3.1096715269550392
-1.8449970982392954
-0.2720307311971716
1.0933452146004028
2.4108057786121413
3.741046007418649
4.812457310425943
5.628342666563898
6.1287294936542525
6.341159627389993
6.546630315126124
6.755153124557378
6.798157010797364
6.521575670491663
5.814237938727185
4.828926521927057
3.9174771002700286
3.2074584185698014
2.489445383913753
1.6477618929764237
0.7910805134475715
0.03822475083623063
-0.605171362912036
-1.290714616212774
-1.9103473870911536
-2.1188726436257643
-2.249405247005553
-2.92822404322068
-3.9387065791330023
-4.724345568501892
-5.086372697263995
-5.115410350779727
-5.048315138699203
-4.733123556684258
-3.9540863672157704
-3.201691602055704
-2.97415267111863
-3.315947531433182
-4.068027679965152
-4.747230051647953
-4.901984968556705
-4.436230793433443
-3.485639850515425
-2.5955214534041664
-2.4489794289002083
-3.1608335854875045
-4.288694051642019
-5.397012536257832
-6.395019031438224
-7.352941835322595
-8.196013512412305
-8.69483467597913
-8.760731690203443
-8.708928523062092
-8.848832922960842
-9.167425641940762
-9.800341630132511
-10.849445264745606
-11.748429673239402
-11.797218866272202
-10.975228198366024
-9.742203599933237
-8.535081755521016
-7.500695880481557
-6.4200679517284795
-5.308027540244157
-4.662692990109415
-4.417277750463609
-3.6773943191250607
-2.03424391981977
-0.1302559737709058
1.458464557169617
2.913478674375421
4.310654900681854
5.257445853016711
5.599029938030192
5.576049161194376
5.401697400773207
5.03016556566452
4.477281708541086
4.111396074367925
4.103255621440537
4.057459506539324
3.6165088787567274
2.9380998606433515
2.2697226610545296
1.3574684530501218
-0.2609555398116574
-2.434486508782029
-4.403279844239159
-5.76843288334044
-6.802125403091479
-7.6106162825730355
-7.917501413661198
-7.561216642283976
-6.696209255465842
-5.992320338804246
-5.936121536312401
-6.147612774271713
-6.505507965874944
-7.131448293193296
-7.532478543739522
-7.55951379290996
-7.467364757966952
-7.208204147747592
-6.864592310992121
-6.6617320463851275
-6.801835381024186
-7.314927128618753
-7.832691937146568
-8.184262291986974
-8.460274943899831
-8.53122887042339
-8.373705918885578
-8.158691736251606
-7.872378027528334
-7.455648840561888
-7.102701469572158
-6.977031460865935
-6.749130069653841
-6.200432921698786
-5.756390874103591
-5.538101817278368
-5.195650873200635
-4.672208373174737
-4.023202459138636
-3.190411362535575
-2.0777913339191305
-0.771527448923753
0.44762466033114295
1.554589715082598
2.569792232154529
3.5401981620913796
4.376252306723716
4.511190965385081
4.353929321239072
4.974659992822264
6.065022107974049
7.029128465806233
7.841247889221467
8.225795540810669
8.192551368366331
7.884075930545329
7.409983927217198
7.533169376520488
8.400172268249541
9.335309765882787
10.107494596920835
10.42427267982006
10.29542842114969
10.16866270159065
9.929514003294871
9.476863201257515
8.721914524681177
7.654287049429319
6.515069430260005
5.140387951875444
3.9985704303345826
3.628234653341928
3.6069264633833877
3.9500863214062436
4.565233814577268
4.945557754347323
4.989952985873881
4.584161371720487
3.9361896198128656
3.2593142162210857
2.6183164797201894
2.6284145202157694
3.362988616931045
4.179549708135273
4.833272910158851
5.34270908794363
5.669140289930452
6.024201500903476
6.767517451488957
7.443184053871711
7.354215548633053
6.647015246179974
5.941283845031656
6.619205796392081
8.948039463431437
10.755223287012097
11.55970668432051
12.460601721935463
12.705819018335138
11.726404896185915
10.18386359751178
8.71056355294086
7.769498900082387
6.886948742923116
5.580660593930242
4.508473188123562
4.187047278664132
4.310068524674043
4.079810811746314
3.163544135426327
2.278418619655032
1.7020902887481666
1.0048341629154238
0.4821775603109174
0.3197114658221172
0.23421758146968213
0.7862456342779732
1.9197093157122447
2.639827544893971
3.275176933355576
4.22775769959634
4.792445057587972
4.764785044868982
4.557172826285685
4.72618809518794
5.733486713208574
7.338784429865666
8.74233309981884
9.36783222839004
9.6463336984222
10.38931337418737
11.403791604680793
11.866031252150004
11.479923656770353
10.734353671353967
10.187811433311529
9.624586741580229
8.890778530941265
8.60485129641649
8.707989868907639
8.415345889067787
7.5704348668413886
6.299639826088033
4.822735212546046
3.523449850837598
2.392619653880401
1.4200455438564892
0.8297361729297786
0.6050942478381537
0.33645933584394505
-0.25251275082806207
-0.6895300475736899
-0.7003770432481286
-0.6357157125972174
-0.48016867321843243
-0.2033277588446824
-0.029208154882666943
0.09057529051174543
0.34898092514158713
0.7043381465834974
0.4572344644486498
-0.7328503396992863
-1.854105386665486
-2.3490533278580794
-2.723989871819911
-3.039505086344949
-3.269513499774855
-3.7419074687576765
-4.259740339280674
-4.610575442823964
-5.276339725789588
-6.204837484240327
-6.393364348328868
-5.754890858089181
-5.356854491708829
-5.4000343302636145
-5.314316628605192
-4.873942438209411
-3.711018774797164
-1.789504675129967
-0.2057653025030187
0.04035091232472117
-0.520129355000525
-0.47740915111236937
0.42957343566308137
1.4387473281467658
1.9795011578731159
1.4382911327105945
-0.11207820742845785
-1.8031721673838137
-3.100566542477271
-3.367905742912792
-2.4706254933197456
-1.2214517522810842
0.08634588097610277
1.2222710140991144
1.6424731958733407
1.3506471778441123
0.4866195359576481
-0.3145072753459106
0.008108707776777784
1.185663335327616
2.2464315594045154
3.0350148448737184
3.65101117453987
4.022664899046141
4.036447573894523
3.6908059988861903
3.294753053094414
3.238994642891436
3.9743985054430455
5.5191602477582515
7.2336120906016665
8.954520808486976
10.680057656377969
11.984914453077216
12.973160400556441
13.813229816086315
14.11297729019897
13.656575710885305
12.674077125801363
11.860930011749558
11.619947782687124
11.552888473025686
11.798905440911753
12.734409750137266
13.634489694340308
13.861997002669037
13.489306243127073
12.476978443068722
11.143199570163764
10.273194879053406
10.247231383142312
10.816320746366834
11.591447579684619
12.701881624264464
14.123413999982555
14.961376423762733
14.810321558586146
14.110849369249534
13.139433619834543
12.2892152933183
11.880906900488974
11.593771845763868
11.201961550760434
10.850732773172068
10.562935060758786
10.064923837077034
9.198683645789483
8.369568062716295
7.878522728537208
7.609266295518095
7.596775921702439
7.751588698140484
7.864335752944455
8.014078086664783
8.271268798073235
8.653962841889031
8.884988317747101
8.428312529742415
7.693413829551789
7.6000976076652265
8.034601560521072
8.439665699277512
8.718722379506367
8.9091870844627
9.022926288389074
8.891320743375294
8.148373877199498
6.7873238797702395
5.242652821415551
4.1323704756418405
3.924671160445271
4.333824936708005
4.8162782480249495
5.364708558191527
5.909147388510575
6.201270099075218
6.360902215038996
6.479432056003922
6.402559021179826
6.157191867861264
5.976578460699306
5.84546377151024
5.516139744909396
5.127389131602722
4.88951910682783
4.492073831204468
3.7125784297095814
2.858173002852111
2.3558427304253353
2.2410248013889524
2.1163413588238513
1.7003566784722677
1.1753251012551054
1.0175373586181997
1.3962083775510783
1.9175252945602421
2.2991127091894255
2.518429995255547
2.6024890626521646
2.8775164357527054
3.595630916296214
4.608877640320686
5.634520268369528
6.234898568302537
6.173854181534978
5.888179486641709
5.729935472103233
5.346964766826321
4.649604351096919
4.227166892120629
4.4293232778898135
5.123504864605789
5.737413015724867
5.467516482704306
4.258278105406954
2.6580943563177994
1.0180372532223472
-0.37830461633829504
-1.3849295132633415
-2.1059300308047586
-2.417980359834805
-2.055880375281859
-1.3458409160566014
-1.105394639554219
-1.5460038352072523
-1.8192762173043466
-1.0755413245299577
0.23095057372028846
0.9328565416191883
0.8955277686929762
0.8721771402044372
1.126571580686786
1.388132018640934
1.6348482085854603
2.3338016931251344
3.991453461133329
6.4952270366222855
9.081767881373102
11.119265081282947
12.603374552680451
13.760870668586918
14.463273179824247
14.269826914716775
13.338373396413706
12.72147627239493
13.008031810834547
13.561719837831632
13.775980522026806
13.991818089723049
14.432241748174208
14.521107320658318
13.932206540024024
13.00162193507865
12.097283992659866
11.353679091881535
10.696216597830848
10.073745196874096
9.782179313330822
10.223096788927863
11.064104223605142
11.43231734337194
11.134378387002357
10.469643149879168
9.676824279487498
9.061412202921684
8.596542356101063
8.019185810796282
7.228299790706881
6.435366956337005
6.101738010965953
6.066833472920775
5.915720458958801
5.761459110717442
5.586592202377403
5.360721680072979
5.161500216055923
4.76897255652847
4.133920331940321
3.5099630145372673
3.16717005732663
3.0230844509797365
2.6918806779950164
2.233892735302918
1.9268169443393497
1.8276417780077767
1.9132409147838243
2.0561538812754674
2.206085502092739
2.3651421043403764
2.501370783500298
2.586987885659584
2.4602497124664287
2.1220868868148677
1.8294634806836803
1.7831262570113378
1.9087965671759854
1.7541269232302783
1.1017220770282858
0.2738729529575462
-0.43122804404368875
-0.7719100040566851
-0.6079450418751463
-0.3532462370778954
-0.4156313990003761
-0.5629744901779038
-0.6515980659365534
-0.9026615365885946
-1.3204056041382581
-1.731751414960321
-1.9773189948214156
-2.0332725572591928
-1.9534474042620162
-1.758226335759002
-1.6676484867890327
-1.6448672455001105
-1.4136095123461587
-1.051379889965928
-0.5333584645538323
0.11652979866983325
0.6807125322024585
1.1111490102262493
0.9691499463796045
-0.028184818670895923
-1.3200218119085234
-2.4699648569727914
-3.4976523270466515
-4.423543562750039
-5.143481625013939
-5.925535735897327
-7.3190450468884825
-8.882196650457113
-9.766908180121854
-10.065897337498466
-9.849260691122018
-8.793013896720483
-7.404782099445674
-6.814518292366648
-7.296930649821199
-8.031198599498996
-8.386824358620062
-8.669818236834052
-9.533280378617455
-10.905407564704564
-11.694129572025428
-11.167803072182378
-9.93721108719375
-9.019362175768803
-8.679657019113192
-8.180243225609379
-6.8956088568086376
-5.118907052169705
-3.137622618625273
-1.223630981550535
0.0474624120265438
0.6503588053233358
0.7418173650085111
0.23292891837844013
-0.3891577411426983
-0.340636995977846
0.5561935275791382
1.8876518082484022
3.2559220617966558
4.635735098114337
5.840289978317487
6.485336136693538
6.81222090345796
7.38389208605126
8.351004022282694
9.449961403511917
10.005776151366465
9.41531021841462
7.943559798589436
6.6208529322681615
6.092579536351196
5.570330214582837
3.972661488893163
1.589673468483798
-0.6960269209779071
-2.3621946545124235
-3.2223162028363195
-3.6560114172538567
-4.062880185702444
-4.272222058696146
-4.085810023643538
-3.773444031058305
-3.883323618148331
-4.676874064011277
-6.073139480857677
-7.647542592691438
-8.352054951956104
-7.511084993089106
-5.707986286660346
-3.9288299974805705
-2.5769369332661274
-1.5378904318213786
-0.92468287665406
-0.7442694141085885
-0.21898644301544448
1.155124599822589
3.0365347013524735
5.045405481484879
6.9771137435108335
8.468584038513773
8.977893576348928
8.316523606762763
6.718550952670072
4.44242324459995
1.9302062536666171
-0.5898426456814604
-3.3969016718353298
-6.365424274394522
-9.05258375886971
-11.425540885480947
-13.689372862728153
-15.946020893481554
-17.647070558544936
-18.077609315956764
-17.59538954566101
-16.89955185002249
-16.254920159639514
-15.844651689405085
-15.646469720732984
-15.80857270743287
-16.747276534016216
-18.296113095360827
-19.65021363763514
-19.840497242953738
-18.343783774466264
-15.528177582465238
-12.29590058143426
-9.538525560859744
-7.546767730631978
-5.993745710741333
-4.8898183135495294
-4.5383165869860616
-4.5207998126218625
-3.9171286904999505
-2.1969128381026124
0.44965744448975853
3.332894007444109
6.163537357256144
9.170459206159384
11.966514061749011
13.619585244045727
14.066600644278479
14.217875222156923
14.4243128893319
14.282845586126193
13.786072042811998
13.005608927430824
11.756343467468266
9.882585166383896
6.819384650436949
2.494821092058263
-1.9594311340748727
-5.595111723700172
-7.771651204311166
-8.06561745301843
-7.2981421422145925
-6.66490855952243
-6.395722196983288
-5.876970316962942
-4.245062634117747
-1.6471317771343075
0.7314813088758314
2.7495534639619783
5.351785543985721
8.387731882132647
10.593702228973813
11.293994365211473
10.67144203252719
8.984134141026397
6.520580041694715
3.7476460542447207
0.6954587301712657
-2.6263047826149326
-5.332615760214686
-6.916032509954672
-7.7739373020052716
-7.948265975997092
-7.549808797021127
-7.115928219679485
-6.413116532797533
-5.116544133201157
-4.329378732955539
-4.774444358965956
-5.334237035425553
-5.810023525054654
-7.1939662524963195
-9.039672383145525
-10.651822922317207
-11.908608953685173
-12.358240904313975
-12.264125278178135
-11.977668049255506
-11.325737020673966
-10.891538626401942
-11.160599243585912
-11.929665058557076
-12.874154746503377
-13.423352197724425
-13.399168398546214
-13.248687946939809
-13.488501019343797
-14.290199399523702
-15.44016234592985
-16.606743554617324
-16.801904854782457
-15.345888023151304
-13.054194072877477
-10.612021157092899
-8.535372653840033
-7.7342037117285525
-8.036538502398704
-8.579887459773843
-8.876647261336469
-8.548104165902002
-7.562078229912638
-6.322690680455837
-4.918470645165805
-3.2199657676955136
-1.6476316286342587
-0.4195757767786893
0.9612498970446679
2.5899980346349842
3.932918159431132
4.4861983150034925
4.320813871285965
3.691404966298164
2.487035158208164
1.3414288895901874
1.40854259744003
3.0043846272985704
5.648089032555664
8.151898764969548
9.976735561859197
12.03196072200444
14.407429425575286
15.489854046017347
13.842138374716162
10.101757789030533
6.021203012508012
1.7404640447629183
-3.247806238334603
-8.163706704431066
-11.837008182439789
-13.1753084699577
-12.063029467572697
-10.205829550535183
-8.7681781645396
-7.402026218073894
-6.327052168298406
-6.297239327453632
-6.957718253192967
-7.006717687564599
-5.574005144743522
-2.8174875222829243
0.36427596746469104
2.3214825566904636
1.6953990223136015
-0.4403879115385113
-1.4482116888258096
-0.14523735498607335
2.748682053029583
5.865895242890248
7.740783472090752
7.535910041340513
5.345603823708254
1.681561454783482
-2.2251100695984696
-4.922015437909409
-5.980387511467133
-5.585650148561795
-3.9231099395510296
-1.2778592125098478
1.3228750375361382
2.4374405642680648
1.8378801762613348
-0.05655977316622652
-2.723118422654362
-4.690212506056439
-4.962559203045391
-4.321885888624049
-3.9144354069409673
-4.376002892765441
-6.4350467958004876
-9.10611851389218
-9.704274025452124
-9.248009151896209
-10.659742754597136
-11.770311536738346
-9.20152199012428
-5.139410120200259
-3.1454756397848134
-2.1309141608380746
-0.04846747184400952
1.8616005200097459
1.9303401721179776
0.44000596509654333
-0.7824587974690784
-0.7168990548519792
-0.5750204085674985
-0.8165159183646218
-0.5660412762765478
0.16125751108781824
0.3600798075121217
-0.5691262459455458
-1.5885436020275157
-2.1024044038391625
-2.937565709588143
-3.724271324926382
-3.4852017023393653
-2.565134928547922
-2.0847315149411587
-2.4868652823106294
-3.154854771557241
-3.90931799574495
-4.817288821625625
-5.218462396900201
-5.010199296899747
-4.879573653193078
-5.116605816328625
-5.424632677217799
-5.458993359374793
-5.1489008307548465
-4.4604559053475965
-3.4959110843429677
-2.5361564572963524
-1.5832938256950206
-0.7880729687049056
-0.8354489415161819
-2.1027018083221893
-3.987721085514373
-5.458537066987734
-6.198344036728888
-6.474731683671913
-6.3586918353900135
-6.057703054399429
-5.699647524418834
-5.096009206022004
-4.563140620550214
-4.548566498096425
-4.990475213622796
-5.262682808082069
-4.395469452511969
-2.4963613919549785
-0.8577597194141297
-0.49921516532822624
-1.5573381253364373
-3.2681996096345314
-4.8696694203640964
-6.150353992761123
-6.933892629583038
-7.105354974776813
-6.427671330374532
-4.744786255105971
-2.5452718594396337
-0.3876203438438523
1.2146696649753428
2.002239236523169
2.597566377434677
3.3971684890682856
3.8661535027360734
3.6190175114831264
3.0042766614606213
2.7225371655883195
3.105003973790904
3.679239288145059
3.646715513082695
2.838125351788515
1.9259930105662786
1.4132567568975942
0.9888941000295821
0.4299541385024714
0.32838436200257337
1.107384935644392
2.1743909145091114
2.8820260835482263
3.3087116750915895
3.6760481904017404
3.7453978444700913
2.9001092110012014
1.0096084977969664
-1.1514882357168763
-2.840969652186
-3.986655007659466
-4.783312156201697
-5.138540221523043
-4.876062863648877
-4.22489000263926
-3.364685513983669
-2.590072137056305
-2.7902257537214386
-4.055742321401466
-5.261611363340691
-5.588008690885498
-4.928947364439318
-3.553863583180165
-2.0501015022594813
-0.9779082251741095
-0.3328031348451531
0.40875303230349097
1.5453053762628108
2.897996634892209
4.067381776186954
4.574568754576585
4.14867308756301
2.8714677290530837
1.200681031645954
