AAD_Filtered_TADAS_FILE
AAD_BASELINE_CORRECTION: BASELINE REMOVED
AAD_FILTER_TYPE: BUTTERWORTH
AAD_FILTER_ORDER: 1
AAD_LOW_CUT_FREQUENCY_HZ: 0.025
AAD_HIGH_CUT_FREQUENCY_HZ: 40.0
EVENT_NAME: 202302061024
EVENT_ID: 13207
EVENT_DATE_YYYYMMDD: 2023/02/06
EVENT_TIME_HHMMSS: 10:24:47.00000
EVENT_LATITUDE_DEGREE: 38.089
EVENT_LONGITUDE_DEGREE: 37.239
EVENT_DEPTH_KM: 7.0
HYPOCENTER_REFERENCE: AFAD
MAGNITUDE_W: 7.6
MAGNITUDE_W_REFERENCE: AFAD
MAGNITUDE_L: 
MAGNITUDE_L_REFERENCE: 
FOCAL_MECHANISM: 
NETWORK: TK
STATION_CODE: 3147
STATION_NAME: 
STATION_LATITUDE_DEGREE: 35.902362
STATION_LONGITUDE_DEGREE: 36.064358
STATION_ELEVATION_M: 419.0
LOCATION: Kahramanmaras_Elbistan_Turkiye
SENSOR_DEPTH_M: 
VS30_M/S: None
SITE_CLASSIFICATION_EC8: unknown
MORPHOLOGIC_CLASSIFICATION: 
EPICENTRAL_DISTANCE_KM: 264.57
EARTHQUAKE_BACKAZIMUTH_DEGREE: 
DATE_TIME_FIRST_SAMPLE_YYYYMMDD_HHMMSS: 2023/02/06 10:25:10.1031620
DATE_TIME_FIRST_SAMPLE_PRECISION: millisecond
SAMPLING_INTERVAL_S: 0.01
NDATA: 18251
DURATION_S: 
STREAM: HNZ
UNITS: cm/s^2
INSTRUMENT: sensor = ACEBOX/SARA | digitizer = 
INSTRUMENT_ANALOG/DIGITAL: 
INSTRUMENTAL_FREQUENCY_HZ: 
INSTRUMENTAL_DAMPING: 
FULL_SCALE_G: 
N_BIT_DIGITAL_CONVERTER: 
PGA_CM/S^2: 4.460
TIME_PGA_S: 
BASELINE_CORRECTION: BASELINE REMOVED
FILTER_TYPE: BUTTERWORTH
FILTER_ORDER: 
LOW_CUT_FREQUENCY_HZ: 
HIGH_CUT_FREQUENCY_HZ: 
LATE/NORMAL_TRIGGERED: 
DATABASE_VERSION: 
HEADER_FORMAT: DYNA 1.2
DATA_TYPE: Acceleration
PROCESSING: Automatic Paolucci et al., 2011
DATA_TIMESTAMP_YYYYMMDD_HHMMSS: 
DATA_LICENSE: U (unknown license)
DATA_CITATION: Turkish Accelerometric Archive v 1.0 - Disaster And Emergency Management Presidency, Earthquake Department
DATA_CREATOR: AFAD
ORIGINAL_DATA_MEDIATOR_CITATION: : AFAD - Disaster And Emergency Management Presidency
ORIGINAL_DATA_MEDIATOR: AFAD PROCESS SERVICE
ORIGINAL_DATA_CREATOR_CITATION: AFAD PROCESS SERVICE
ORIGINAL_DATA_CREATOR: network: TK
USER1: GuestUser
USER2: 
USER3: 
USER4: 
[...]
-1.4474991176892429
-1.3515523953188198
-1.2604730174840302
-1.1717187365858683
-1.0677088466346283
-0.9535399820981388
-0.8269973945386035
-0.7230942869952918
-0.6678819876188449
-0.6323029766683722
-0.5709519832827185
-0.4717122561252243
-0.3799841964150572
-0.2910022698054457
-0.1821424633824745
-0.09370068455705342
-0.018362690968650286
0.05958128798423214
0.10638913563214356
0.11725026027828059
0.12326413566623916
0.15341925322368855
0.1881557445561956
0.21942262324845138
0.26631115293048774
0.3106105489611347
0.3772826118397417
0.4717446144279102
0.5469138367761728
0.6288942587644454
0.7147985309736549
0.7824567135864698
0.8560593748468027
0.921349904841576
0.9901839633010345
1.0755693889646452
1.1429893202826196
1.1765333195447247
1.1607422481036547
1.1011266115542888
1.0217924213964842
0.9643122346265306
0.9632184281602927
0.9588466293699628
0.9208833416101214
0.8858082021815473
0.8627493080673774
0.8570890948888884
0.8415361943377553
0.8049517599176065
0.7782676024207674
0.7347964270604764
0.6454744969427645
0.5371818172729916
0.4396748731400889
0.3226305220993776
0.16589291600604278
0.035707960284141325
-0.07416531754937909
-0.2023960570755139
-0.29806294699219016
-0.37920210737285054
-0.4744142502621021
-0.5179813693314335
-0.5252815934146885
-0.5592962097407899
-0.6050389093039529
-0.6621673234027766
-0.7415859466114937
-0.8165341075635424
-0.8780597034904709
-0.9229878623691677
-0.9691960183142111
-1.0313967783722813
-1.079850349340079
-1.130242582934734
-1.1862304147293299
-1.2258373843415418
-1.2643346058370488
-1.2743847740317407
-1.2630791607339098
-1.254724128459702
-1.238892742369802
-1.2537060647630762
-1.2442594247770722
-1.1776920763550467
-1.1449149165134584
-1.121484087743423
-1.0956488193609757
-1.092610770830057
-1.0598231692150573
-1.0219627590193463
-1.0178084251172668
-1.0250910768826569
-1.0020281315384059
-0.9292037181828208
-0.8280728310020151
-0.6825007217123731
-0.540298109599276
-0.4515626350884395
-0.358949217216997
-0.28157698358878974
-0.22820356613957896
-0.16504460085389513
-0.10948036404559719
-0.04207422789970882
0.024440540917052278
0.08137606868137796
0.14093156493143041
0.18737443898753683
0.2553650548985391
0.322641081409996
0.3657860874415434
0.40946122306928795
0.4345989609004275
0.4807431751875221
0.5206806541272336
0.4970213662818191
0.4708428492810212
0.42184753410637077
0.3369583392928811
0.2682314780768313
0.21296237074869998
0.1723187527321324
0.13597223244002235
0.11128146619597029
0.09306620009622842
0.05520102468061555
0.030945253287857955
0.005645273778268573
-0.03899073478039986
-0.0937913813187889
-0.1760931588750266
-0.248270234159422
-0.30197104365777105
-0.3691726264414129
-0.428644049782703
-0.461221948460833
-0.47653808424220767
-0.47890566191956685
-0.45452359057658837
-0.4168207990735253
-0.3771640477542749
-0.32096091304515717
-0.2558471385049246
-0.17231735435199155
-0.07613153216264712
0.020797166317939864
0.12205578410532567
0.19600726794565693
0.26815258590278246
0.3428081308998701
0.3973179083519223
0.4998581487188914
0.6041807816175884
0.664321748677659
0.7686559067303118
0.8876534712363221
0.9990886075783776
1.1421445594156305
1.2560837466064994
1.3621640796666918
1.5474653495812798
1.7638138271940091
1.9652713558496717
2.17717443966587
2.358046625683781
2.4849660209049946
2.616801567621902
2.7581689486014858
2.9005269050333786
3.0325210628100274
3.1257380001779267
3.2321049517681124
3.3331202635806094
3.3713696757012452
3.4176402132115364
3.468010698743666
3.485845432470785
3.5138348371200827
3.5254842625942175
3.5265467781568955
3.541983746746098
3.508456685832383
3.4187897997638412
3.2850539600320783
3.105799582546655
2.9282509240419268
2.778119096992926
2.660426857477233
2.554379527603646
2.4350782769543105
2.3118660256157564
2.1796493381630175
2.06131901181549
1.9600136464028002
1.8282470910221393
1.691298226552207
1.573004921765312
1.4606710353379058
1.3760799564360906
1.3110864957299189
1.2458036152176255
1.1905217852519887
1.1424536953392384
1.0770762504014795
0.9689858097496221
0.8193881878215121
0.647167590301983
0.4753971867108576
0.3265529518522129
0.1963818612741371
0.07077816354229668
-0.04503565491943857
-0.14474397422399152
-0.24482353971089693
-0.3495917964022223
-0.4242169326917193
-0.45668099521908767
-0.48264664198248464
-0.5065649887604146
-0.4930242253983254
-0.44954121634047234
-0.37994623536927785
-0.26912799923263764
-0.1506150486436954
-0.0029664353855462463
0.183653276038994
0.336433340638473
0.48895468595698727
0.6606451179282514
0.7895560612241852
0.8871885143622441
0.9659322243896598
1.0449252723480138
1.1107311964299518
1.1166038130081473
1.1139685002194568
1.1033224266109607
1.0581553071795036
1.014426900568141
0.9575504025322884
0.8907419462821087
0.8190904706961055
0.7202690286356737
0.6081655614775795
0.48967960539820554
0.3660793175461068
0.22703277998718302
0.10146123211485227
0.02523662931273281
-0.05191931598996602
-0.1314162257810895
-0.1904889711978252
-0.23194546564791013
-0.24152644014061284
-0.23819791941565108
-0.22169096888025697
-0.20557618016827736
-0.19018265192140849
-0.14571441244397126
-0.13994334017949295
-0.16811588583475515
-0.16256003123482143
-0.158827652425884
-0.17022462760779528
-0.18553911940381088
-0.20129383213359667
-0.22472374501864079
-0.26077080368748373
-0.2700361323189044
-0.2701510116022868
-0.2786224134977167
-0.2713615241165511
-0.26735659379237664
-0.26805330338951716
-0.2741165634247173
-0.2994806095659345
-0.34618251197441646
-0.4101375544669544
-0.4626984376286745
-0.5209290867163331
-0.5930672307146456
-0.6405043834487566
-0.6958052599264744
-0.7720170230298853
-0.8229541210302991
-0.8596418934720582
-0.8939671281273387
-0.9103671675148348
-0.9240283395481147
-0.9466326046194831
-0.9732763003411149
-0.9999191233894047
-1.0176825991164817
-1.037449969764039
-1.0699062698157982
-1.1044745087210526
-1.1435294963212341
-1.1897328764860766
-1.2175541958209979
-1.1961112189991399
-1.1523350753317774
-1.1274260817307662
-1.094039730519802
-1.0451157901181525
-0.9950396020023832
-0.9227435891747974
-0.8539828691867393
-0.7924039424948882
-0.688346478802722
-0.5574668724571111
-0.43189586607319436
-0.30674458953224476
-0.16474770239221567
-0.018074894241893832
0.09395402171233233
0.19335594441406057
0.3035287483431729
0.4069047948023656
0.5208983783635731
0.6331023238796244
0.714913788280928
0.7992896778609423
0.8740500742386063
0.8889803666842422
0.8687000913015889
0.8628475409527769
0.9029277027867096
0.9874475994608823
1.0643332552045097
1.148269426257549
1.293493438955945
1.4523505980148965
1.6053095154095935
1.7984671655461715
1.986771524734384
2.1323054179000263
2.260272423177326
2.3453763838995716
2.402346393769782
2.4766632303379326
2.520644175944687
2.5242224469383427
2.5240035161699708
2.502614391742524
2.490278302137876
2.5121641956665286
2.518710808710939
2.531279010602637
2.6042397231375483
2.7041567675215137
2.787659987924752
2.877725337343999
2.9876941027869504
3.0830484057930607
3.1796130091179227
3.2894410861871006
3.361579499271716
3.4142699556417497
3.466497643766992
3.471399435944323
3.429818143100292
3.377587418001205
3.353468348652251
3.3279829848041103
3.2736266882877745
3.2550664039860298
3.23139612666132
3.1959204941991075
3.2016254867660177
3.1521637587245483
3.0917247728722685
3.077394146055226
3.013550509679836
2.9468224578163342
2.881542897505024
2.7985761568373113
2.761127711018712
2.7149046422111534
2.674840328851713
2.6627756551577284
2.618865945254687
2.6058912512623116
2.6114278244138074
2.585141131296633
2.5855044137703134
2.5740778281159216
2.517709506242152
2.454350912052531
2.3606624528611397
2.229011036671626
2.0772996848477128
1.9368543720397142
1.812702490075856
1.6659224933830226
1.5451062074874158
1.4484050952441951
1.3158627684925661
1.2124420376824743
1.1387197650824672
1.0387833624055631
0.9497694544055315
0.8739278180316069
0.7859246799540054
0.7164833060137189
0.688730077548822
0.634728745902516
0.5354807265312453
0.4765828360421942
0.41176586227061657
0.28927330979568794
0.16800981795577127
0.03000791458510206
-0.10056603719132953
-0.1827617477977113
-0.2789596099682721
-0.3681618546624863
-0.42808658700296415
-0.500817991966729
-0.5375911953891586
-0.5578232099001025
-0.6181609408588549
-0.6080542758599101
-0.5283408681137111
-0.4976165629755817
-0.47467594299481364
-0.42843313708069186
-0.37968987213998096
-0.3452068101113964
-0.36703814330061185
-0.38716073386066757
-0.3943497513201912
-0.432963377269457
-0.45215445915354174
-0.4839988450072611
-0.551479333574298
-0.6105532530139623
-0.7025066119157705
-0.8082060129763002
-0.8791548469372149
-0.9522648795141708
-1.0628983659350226
-1.1933363662332577
-1.2855312119551074
-1.3440519557435486
-1.3849949150575969
-1.4005691848073119
-1.4323579054732924
-1.4455970071282709
-1.4273256229289946
-1.4505157290447495
-1.453976668192392
-1.4045074050246285
-1.3850705527212537
-1.3874395005250775
-1.3723651109234531
-1.3413318172295747
-1.2893911117854557
-1.2173455672921665
-1.152344371302833
-1.1114246053037984
-1.0430129693606518
-0.9370752184365294
-0.8577023784227811
-0.7937520957344958
-0.7305748529086593
-0.7043637965338192
-0.6999762309764969
-0.691907182205286
-0.7024817256371273
-0.740936318206743
-0.7718226606171565
-0.8057785324114388
-0.8472633472690476
-0.8432035853433758
-0.8563188489039082
-0.9118090413556258
-0.9006505444531049
-0.8609855302107683
-0.8401433352387211
-0.7794470588997612
-0.713414954565429
-0.6777624958705499
-0.6484366276941744
-0.6164917073187741
-0.5935370455674533
-0.5983362839269191
-0.5890102744092223
-0.5689025385289744
-0.5753106157191143
-0.5311869348836048
-0.45925546434969805
-0.4194463002305971
-0.34840730611452403
-0.3121104752176276
-0.31219387628567113
-0.2438709960263425
-0.2131416135724091
-0.22438317611189668
-0.19697329384873496
-0.2167937231452378
-0.26668643947061216
-0.2815940265413732
-0.2803991475733886
-0.2851028173999431
-0.3134243977990627
-0.33848567538743174
-0.3662030195419079
-0.4018508531026024
-0.3857680652585902
-0.3297233386819668
-0.317587527785367
-0.33693730905558067
-0.25470166489270774
-0.11992407438734562
-0.07073249215023618
0.005289555072818288
0.1251517061009018
0.17588051776991576
0.26305715723023626
0.3972688365991501
0.45874844546411725
0.5456066359128249
0.6362825696920075
0.6278115178870002
0.6796552901555127
0.7028203665984192
0.6385874133430074
0.649459686682493
0.518244417258527
0.3862367315422221
0.4718498315805024
0.4506483431961252
0.4328525843517732
0.4227132056180886
0.2588100852194567
0.27330225207263414
0.35539817047684796
0.3009917291205244
0.2692227371423363
0.24770832121525613
0.2538301825829718
0.26122529376609444
0.22739611532896067
0.18251630787385997
0.09627808121740614
0.052790518927224445
0.007769268580896599
-0.11818911181309348
-0.18752413796222153
-0.2283540486838155
-0.30439182977832935
-0.33395348443660544
-0.36521288885069253
-0.399943531988008
-0.30938381309115454
-0.20022369568746543
-0.19530317557720336
-0.1597804068214418
-0.10657534387658743
-0.15242441235738455
-0.19029140881623852
-0.14360237763490832
-0.13155868632010312
-0.17563824915454068
-0.16585515710111917
-0.203236895931154
-0.2999572573211231
-0.27580708488281347
-0.3274648151033076
-0.48716852668625493
-0.4968507495090726
-0.5037986196476697
-0.5389249715320621
-0.5256034314086203
-0.5688693599945449
-0.5848436779718327
-0.6104267153488488
-0.6594541424458222
-0.625551623020426
-0.6134466123567118
-0.5821740620938928
-0.5402665186433736
-0.5728172671600351
-0.5480278294293203
-0.5395843854902941
-0.603967708753306
-0.5842546591812187
-0.5234141590855456
-0.5548763304653919
-0.6428389172507638
-0.6747038131991966
-0.7309652078404179
-0.8242399025463734
-0.7545723540525056
-0.6688256919718351
-0.7191340745251514
-0.7133595930729488
-0.7054345964305627
-0.7457064416747845
-0.6742587644528858
-0.6167651507523637
-0.6143849192168254
-0.5197941759278817
-0.45556699470099754
-0.41661033197823805
-0.33086017505547993
-0.33612092169866337
-0.3164250780485938
-0.2124766527705902
-0.15109062719805427
-0.05039502672351946
0.053524766607951565
0.14409676795891868
0.3082533910876919
0.43636393883395097
0.5555214085430226
0.7082218151101072
0.811759854822788
0.9513402185555787
1.107000997031775
1.1587124804226454
1.252229539481867
1.4584646917989919
1.575147882524261
1.6914209940728422
1.963692702746645
2.1535193631459846
2.278662926883603
2.5166403889272
2.7598051342101333
3.018801633486651
3.284475048326563
3.4775241154493735
3.6485014476991853
3.807020338783767
3.9582737399125842
4.052552869445644
4.118797704549263
4.2372332910095
4.27947059230714
4.29563816039613
4.338603911939473
4.268380647328314
4.232782849280626
4.271008278203911
4.231042028502545
4.248745124442306
4.314670867965492
4.252931848218654
4.171262869053681
4.167462019266668
4.148407854845775
4.118815687866535
4.146674502877572
4.140843419226355
4.08479424765852
4.092329706449866
4.0969618470437865
4.056856749087498
4.014379778372811
3.9439365194945153
3.9224456949429682
3.9455918827179692
3.9038374091272874
3.8295852862088573
3.773798878077199
3.7133394016379513
3.6178378473202537
3.563131560161316
3.5297795580936397
3.4039991411466657
3.2810808532278823
3.1324862000314817
2.9502166748778715
2.8555129880774337
2.6694188975065423
2.4494757111266794
2.34990062233276
2.2078657486245126
2.1175625277575723
2.0958635359491864
2.0216934256865726
1.995015604171283
1.9408982365229384
1.8864030734902304
1.9253398452415407
1.883869911267775
1.822902491193244
1.817844466547268
1.761441230045144
1.7113555843550945
1.6528854888602942
1.5945855797820698
1.5932966307318346
1.506411500769371
1.3611573055276716
1.2746746056729337
1.218113976597828
1.1528196178089105
1.0081804337429168
0.8943581837893148
0.8704134363000573
0.7651976208208232
0.6502438552222637
0.5717277874420446
0.472927940419795
0.4502775330951995
0.42122740726500135
0.3466534596647799
0.34019826223593785
0.3134018238812724
0.22347728659487737
0.1937307504932671
0.23731927403532477
0.24792037835550637
0.23982633532302514
0.25607096304899357
0.25002510406967143
0.2851317503218734
0.2953476778839081
0.21485870719507183
0.20996041960596992
0.17227579833814718
0.07728892781706148
0.06086840349699986
-0.028973163966720474
-0.08285223904365455
-0.040619453323384506
-0.08051551490017453
-0.061975694473610746
-0.022232954249075117
-0.023345264473156806
0.06104058296003099
0.11074137570857284
0.14428038129589538
0.20782574352807118
0.22915672965636485
0.2960639228308546
0.36591105486681796
0.3663808715037717
0.31184079150218874
0.24131829961447848
0.2729072434916124
0.3195046203101857
0.2781216649069047
0.22303170682403242
0.16340447600738403
0.15119390926517623
0.20465861076823727
0.22830177319208073
0.2264949712238355
0.18561205190775348
0.11655574081358702
0.14769403958334856
0.2112174247532671
0.202749658350008
0.19934521254390794
0.17309394159659447
0.11355612578174706
0.1149965792391702
0.1217510089050509
0.09104699018294138
0.07911173897994318
0.04990176939504001
-0.0223002788860991
-0.05783157403020122
-0.051792278176407615
-0.028112426892419957
0.045969228482474644
0.08930669564789125
0.06740894080681434
0.06480700210893679
0.07426559457649053
0.09079388745621328
0.13437219160859773
0.18331305966874678
0.18461864677766668
0.16729393167834775
0.20145497324979278
0.1684396377902534
0.11570233771177371
0.14189506562682166
0.058053734066572105
-0.03964220789424897
-0.07415917539815056
-0.1678805767840971
-0.15085817134834698
-0.15792201720295737
-0.33929467236956545
-0.41731070406555276
-0.45229957326367165
-0.516316811524736
-0.5223915866990501
-0.5961848696810382
-0.6530007031762493
-0.6463658740563324
-0.7279155901275104
-0.7986382982302154
-0.790582555737618
-0.80585457529792
-0.8906989104301563
-1.0046813164132293
-1.0538461247188062
-1.0834816388066697
-1.1617748129825811
-1.182338107327159
-1.1500321332288561
-1.1804870124050526
-1.231329154034464
-1.2579282847283477
-1.2937946103445737
-1.2899466309089371
-1.2417612111775032
-1.2289338072719724
-1.2429481849398665
-1.2651463100188989
-1.2990006447772218
-1.3264948855951708
-1.3275321500973958
-1.2591385260626287
-1.2232176910434118
-1.2888434962584674
-1.2711074496266008
-1.170248229597786
-1.0746904300344882
-0.9489762306952698
-0.9103157855936337
-0.9020718275588561
-0.787208845088195
-0.7539944568562675
-0.7874369654479004
-0.7262407142872798
-0.7152567567047268
-0.7551208869222932
-0.6815652080558293
-0.6138401063852695
-0.6572298655520336
-0.6826308583862969
-0.6315916024784624
-0.5615276645281708
-0.5062427329934994
-0.4592679874432075
-0.43110302398154243
-0.46380202562484746
-0.5211973130353899
-0.481074850464175
-0.3578498965791939
-0.32831856257913766
-0.32862642674914455
-0.2629713384140366
-0.3486392953021954
-0.4640163855509324
-0.38942964768006216
-0.36348131778865006
-0.45534739351402437
-0.6041754030745399
-0.7051676563658313
-0.5981757676608643
-0.5668736187868016
-0.695191569824915
-0.7240449364382259
-0.7041284662635079
-0.7011247898699882
-0.7193293526034118
-0.7051916079256291
-0.647048336406853
-0.7031214601699162
-0.769753403027654
-0.7546760188820809
-0.7438012429862995
-0.7311680600430365
-0.7459112227287372
-0.8036568914682595
-0.9236905956269482
-0.9743787453711232
-0.8962094430288782
-0.9576430157461664
-1.031173580781496
-1.0169065669464639
-1.0937000936370278
-1.040415980813627
-0.9685854027748448
-1.0502551800852813
-1.0012959621089579
-1.0139442110334769
-1.0842870245180223
-0.9112166053949637
-0.8492913280126627
-0.9276163759701181
-0.8760635565988721
-0.8439491247841202
-0.7753969931396009
-0.6941476177103161
-0.7377001860826037
-0.715919697047459
-0.6683385254871953
-0.6854838616690053
-0.6880127980478783
-0.7545757931349318
-0.8215704684795266
-0.7795578647199128
-0.7495215402785598
-0.8236819750551523
-0.8787136212328965
-0.7645281394178847
-0.6626010214295136
-0.7148030145591588
-0.7796724153797832
-0.8263078627682393
-0.7752391684935238
-0.6642904433906458
-0.6648221660626271
-0.6176546413850065
-0.5878018069399535
-0.6874696885202387
-0.6653107330743641
-0.5928245237283942
