AAD_Filtered_TADAS_FILE
AAD_BASELINE_CORRECTION: BASELINE REMOVED
AAD_FILTER_TYPE: BUTTERWORTH
AAD_FILTER_ORDER: 1
AAD_LOW_CUT_FREQUENCY_HZ: 0.025
AAD_HIGH_CUT_FREQUENCY_HZ: 40.0
EVENT_NAME: 202302061024
EVENT_ID: 13207
EVENT_DATE_YYYYMMDD: 2023/02/06
EVENT_TIME_HHMMSS: 10:24:47.00000
EVENT_LATITUDE_DEGREE: 38.089
EVENT_LONGITUDE_DEGREE: 37.239
EVENT_DEPTH_KM: 7.0
HYPOCENTER_REFERENCE: AFAD
MAGNITUDE_W: 7.6
MAGNITUDE_W_REFERENCE: AFAD
MAGNITUDE_L: 
MAGNITUDE_L_REFERENCE: 
FOCAL_MECHANISM: 
NETWORK: TK
STATION_CODE: 6302
STATION_NAME: 
STATION_LATITUDE_DEGREE: 37.2342
STATION_LONGITUDE_DEGREE: 39.7509
STATION_ELEVATION_M: 550.0
LOCATION: Kahramanmaras_Elbistan_Turkiye
SENSOR_DEPTH_M: 
VS30_M/S: 936
SITE_CLASSIFICATION_EC8: A
MORPHOLOGIC_CLASSIFICATION: 
EPICENTRAL_DISTANCE_KM: 240.66
EARTHQUAKE_BACKAZIMUTH_DEGREE: 
DATE_TIME_FIRST_SAMPLE_YYYYMMDD_HHMMSS: 2023/02/06 10:25:08.4861440
DATE_TIME_FIRST_SAMPLE_PRECISION: millisecond
SAMPLING_INTERVAL_S: 0.01
NDATA: 14501
DURATION_S: 
STREAM: HNE
UNITS: cm/s^2
INSTRUMENT: sensor = CMG-5T/GURALP | digitizer = 
INSTRUMENT_ANALOG/DIGITAL: 
INSTRUMENTAL_FREQUENCY_HZ: 
INSTRUMENTAL_DAMPING: 
FULL_SCALE_G: 
N_BIT_DIGITAL_CONVERTER: 
PGA_CM/S^2: 19.340
TIME_PGA_S: 
BASELINE_CORRECTION: BASELINE REMOVED
FILTER_TYPE: BUTTERWORTH
FILTER_ORDER: 
LOW_CUT_FREQUENCY_HZ: 
HIGH_CUT_FREQUENCY_HZ: 
LATE/NORMAL_TRIGGERED: 
DATABASE_VERSION: 
HEADER_FORMAT: DYNA 1.2
DATA_TYPE: Acceleration
PROCESSING: Automatic Paolucci et al., 2011
DATA_TIMESTAMP_YYYYMMDD_HHMMSS: 
DATA_LICENSE: U (unknown license)
DATA_CITATION: Turkish Accelerometric Archive v 1.0 - Disaster And Emergency Management Presidency, Earthquake Department
DATA_CREATOR: AFAD
ORIGINAL_DATA_MEDIATOR_CITATION: : AFAD - Disaster And Emergency Management Presidency
ORIGINAL_DATA_MEDIATOR: AFAD PROCESS SERVICE
ORIGINAL_DATA_CREATOR_CITATION: AFAD PROCESS SERVICE
ORIGINAL_DATA_CREATOR: network: TK
USER1: GuestUser
USER2: 
USER3: 
USER4: 
[...]
-10.506011745804017
-8.508080621977394
-5.612933454885778
-3.2129168803645873
-1.8913296478298292
-1.616764228723709
-2.7740220237018547
-4.851068026058622
-6.434267490172787
-6.7998434693819405
-5.949320481967401
-4.5535421765067055
-3.349173505749104
-2.3070388718825807
-1.3806464818937831
-0.5107724024265349
0.6410877512818214
1.5475181116347068
1.7104521231162975
1.681892491531984
1.6856019729712513
1.573593973022791
1.9256586227976769
2.8221038997285346
4.890242474801351
7.665220691499395
8.816462453572155
8.493891591176931
6.989952916879389
3.956129678281043
0.5166207183265439
-2.8451425065153146
-5.821513944245741
-6.767888291984834
-5.25971381102339
-2.347923754409654
0.3507288429248341
1.8543712467645803
2.570325932977476
2.3603835136909703
1.5709182580821104
0.919673360779815
0.7157055317989429
1.2356319555347965
2.2344751050559384
2.3916113914389308
0.8723154540544528
-0.7868990901750668
-1.864650730239842
-2.7545793224737265
-2.4515006483027206
-0.48301492631747633
1.7544075682336087
3.2680883811353576
3.5842752137594163
1.8478506362720575
-0.9583765456944175
-3.85018317444855
-7.376823566661003
-10.730159140762368
-12.707374977256492
-13.476327660557265
-13.494781817689747
-12.984687725155405
-12.466222287714949
-12.164076680414968
-11.601104417207024
-10.198413948901933
-8.0563729039771
-6.4062248966381565
-5.657896136312825
-5.5871389346149956
-6.351799942644107
-7.44349006248909
-8.521587970598405
-9.294851541077557
-9.415616486188013
-9.312594381608902
-9.36221098369751
-8.903714972017195
-6.8104927917627425
-3.2666191429818987
0.3481251420427754
3.1582260094044927
4.6319517711302804
4.239778327613346
2.590014571347503
1.0479025428815611
0.02625663705975956
-0.6512626452004191
-0.6089582121109565
0.576436348964043
2.5389581904781666
4.209871335040333
4.807648799202558
4.439785054122877
3.97559418809424
3.73420326813682
2.8795886203680503
1.6454021826433627
1.2050778715217703
1.6070882977949106
2.4010027377619823
3.3859921174363414
4.802796914035982
6.597148281701304
7.3872126360042545
6.2622429658137
4.010176680413838
1.6267022896052898
-0.34922231816534816
-1.7474458611501877
-2.8556397426195437
-3.504669064740477
-3.1484282224313405
-1.7102909368443286
0.49219804798016603
2.80196509804354
4.349788187092757
4.87852975411453
4.8955042476737365
4.622076434992119
3.9077726830172757
2.903104585930328
1.5383368375503559
-0.6358836682852195
-3.6086654695277876
-6.82362842566359
-9.340257332046606
-10.298431309625618
-9.22979192414732
-6.2688454351870035
-2.3632527456265433
1.3098846429326287
4.141895730021647
5.763331846708129
5.226533914495843
2.622518675922848
-0.6787398340479469
-3.2587591215645646
-3.9988658150141085
-2.917223058857779
-0.45575576725708783
2.5365965770127974
4.540083525275847
4.682998020637295
3.522225990167824
2.1094871721539037
1.0061215585479217
0.2657144787764953
-0.3080870082561495
-0.3922849213161378
0.404200113744681
1.6088599283912344
2.1658961345739467
2.1316146975841677
2.5105968743033937
3.45455834074763
4.349686225420846
4.739972042333329
4.997809879914564
5.474398154264622
6.067802407308486
6.341088099662667
5.9948343711828995
5.669857668903028
5.908975565173917
6.631053230044148
7.312179245272794
7.0698838154581685
5.156243780553318
1.8593282387660046
-1.3896521719726413
-3.511020260340988
-4.4352977136632825
-3.8161651418891513
-1.2874898733485627
2.0905584068644925
4.553110973261417
4.928916754206439
3.9964384122912193
3.6112396019057167
4.432475653706416
5.898073110630376
6.820270412886082
6.811387545605909
7.003530083798742
7.438416906162029
6.641718169598368
4.655717140743114
3.0010966344448375
2.22286784156505
1.9888525783878295
2.3031490154261487
2.938363335657372
2.911908854961248
1.3454407203651266
-1.4464902547964114
-4.076868419592332
-4.9091978311790285
-3.651669444083476
-1.7682819597301926
-0.6737700231903537
-0.742400266132606
-1.712378979048128
-3.0461995104775745
-4.094650316586159
-4.46287482800457
-4.181277210521183
-3.7241927584112706
-3.5049695452502143
-3.132362139639254
-2.0103645483400654
-0.23960078559442655
2.031907179186761
4.508818526935477
6.677747947543869
8.244709740833336
8.958260461222899
8.70804529356901
7.679532808291444
5.890843263637485
3.2183233411416396
0.5161636563085704
-1.046348164787317
-1.464158298896257
-1.399050755278343
-1.3657864398927297
-1.458296700796726
-1.2061430183957007
-0.11122567534461579
1.9558809852071934
4.387029082734421
6.104202181873757
6.493720795699322
6.042582719469475
5.226804420808345
4.126370724784645
3.1053003921086892
2.427956062555263
2.324277531161856
3.1270533902951048
4.762081425436817
6.411435189388325
7.430270837134234
7.415740959572821
6.321027903611539
4.438394313805817
2.092633421068241
-0.2600620766622201
-2.5344747189696655
-4.681416115025773
-6.487133392364825
-7.692412425708829
-7.910706585997624
-7.0136196381511775
-5.317572568856396
-3.3969926335206893
-1.4492582290658598
0.3346321984411213
1.5669970231727965
2.3451124331585014
2.88224678720573
2.8025038697877553
1.922248866490455
0.7384301297864498
-0.46092331663112573
-1.1497453621665874
-1.4327625762787897
-2.08195368701676
-3.0669474748333916
-4.316035963473373
-5.636813214940041
-5.776538493010296
-4.300201056042512
-2.51054792327599
-1.4548490563558654
-1.032457079991407
-0.509958141459239
0.673134084479161
2.4408238102219633
4.322112148741898
6.321416110266325
8.578804933148158
10.523354608145516
10.901127885440731
9.245224165855635
6.419576667723936
3.4629786321393254
1.2367183427640258
-0.3525620251795255
-1.6800941160005423
-2.370728972195648
-2.7141691381439967
-3.3371264354859904
-4.289660263099863
-5.661068218877572
-7.436948485958389
-9.637783869866327
-11.945312286990877
-12.99211684156535
-12.444283915459437
-11.345087568124802
-9.768848835263146
-7.87608953598031
-6.131366466081587
-4.363734642856111
-3.0641994101948717
-2.62857471630875
-2.1982021860920242
-1.5706400439248942
-1.0050777036494511
-0.20202285514949678
1.3285133617268619
3.9584807791872736
6.2960667719719146
6.7072903477151735
5.534928424338345
4.318616042546409
4.078404530803348
5.163406277591043
6.9686875504755665
8.097975614288986
8.00992892123173
6.868836294395432
5.284502986762737
3.5984895499794916
2.152423979237245
1.3419172489206808
0.5414367659711397
-0.5354350603446797
-1.054356354490602
-0.6371403320240216
0.807096530802008
2.966632470090468
4.639641861231843
5.286395096254807
5.639819147245696
6.279463408407799
6.543086040201797
6.019611474881136
5.186082983537993
4.527262845122769
3.6305637234193413
1.8435011328063422
-0.0458642349567927
-1.7083654183915533
-3.7237180286459366
-5.949698081107212
-8.245416717328101
-9.983969730932282
-10.251541519574635
-9.14148608454957
-7.2771553779260705
-5.073256663073946
-2.7976053657206497
-0.6744304812355457
1.2327683834611594
2.52477427753166
2.4055437390707377
0.6413264144649782
-1.7620078262213006
-3.7635679710432646
-4.983243165203065
-5.036866627967069
-3.963262025284444
-2.2011433306341623
-0.04506547397066319
2.1834536997187675
4.053602156769869
5.3676459691180005
6.631476669799294
8.155505646380423
9.322179781681388
9.3138704042868
8.074076133209411
6.306245441593385
4.176041333175898
1.246649532775758
-2.7687467397111085
-7.335817124567592
-10.98042743237915
-12.488912004365815
-12.150099938752884
-10.961541920166333
-9.139172002524061
-6.77774997045161
-4.299328712225275
-2.2952407006619038
-1.5072251680393216
-1.887214333041881
-2.6053151243043344
-3.271424663119954
-4.049221675002229
-4.918267685486111
-5.808736399441891
-6.657492840487762
-7.0131899799590895
-6.595676639994474
-5.559370357652567
-3.9686278449112278
-1.6976795477705509
0.8784773990023628
2.5970512560873846
2.591092662229991
1.4163922067994066
0.22020708795426033
-0.4645463560194275
-0.620192290607388
-0.7544090190407785
-1.299459129623058
-1.8891283866948838
-1.9257442175437438
-1.8811510527518673
-2.942482013852059
-4.9130809804715705
-6.085067800412999
-5.533006933394865
-3.685482037074633
-1.0674130779390938
1.6187399940213216
2.949959432708928
2.0765688525006256
0.2723942924687985
-1.0793445590294322
-1.7435631914393122
-1.7835554260805508
-1.2982677791985668
-0.04944103205827705
1.6811199982298457
3.178364708368361
3.9257299851055776
3.690483597606707
2.7601379504455057
1.5868640731700006
0.7170941407427631
0.18706642047308494
-0.2542296655573935
-0.9076110462262619
-2.3890458005415813
-3.9950754312660037
-4.171756043961948
-2.9114995780252566
-2.0270656614941873
-2.815107185243338
-4.6080301899154
-6.323116488634369
-7.527342126275447
-8.44989164719568
-9.193481471453069
-9.204866187166258
-8.039563379447392
-6.179585843220979
-4.514217564457724
-3.2242059108181453
-2.0506192426269987
-1.298512239799082
-1.4200182631787888
-1.8501836867081258
-1.6590496250475415
-0.467319147070924
0.9553699587370068
1.2141283246869077
-0.1618120260645536
-1.8641831998032772
-1.7686759770796827
0.6336461872444349
3.624315837273497
5.613843952147619
6.926541891117676
8.248541353587902
9.07630166993603
8.647956174329996
7.552752555470606
6.624199347292934
5.896876776004316
4.923291247317758
3.37768508231045
2.0518085388318505
1.8016250008381183
2.0789384441283043
1.6181437349788044
0.3396228045248396
-0.48190413482309014
-0.32723834511592875
-0.5185377988202574
-1.789035265208806
-3.1646827057831417
-3.8638034185002876
-4.167623722673125
-4.828226093967572
-6.165866048524232
-7.498406322887344
-7.6260904510438055
-6.394798843067387
-4.8812326224719405
-3.859052639321834
-3.34685509229853
-3.4798634305249436
-4.5089738825794035
-6.079285050984537
-7.514189657189253
-8.154512360459696
-7.403659889939658
-5.575848962329089
-3.4927120180466726
-1.2525770347149328
1.6629159433536076
5.403168133971062
8.811844957893012
10.579329512482595
11.203021295261541
11.828280188798516
12.647033500049494
13.134377124849106
12.664106187065686
11.559291060144034
10.380000179461316
8.44581138191148
5.212255976698326
1.4397897413954017
-1.7303701977145323
-4.162791728793777
-6.691425675691984
-9.435974567071497
-11.600666259783788
-12.43879559224415
-11.901682836649512
-10.066522070391592
-6.41028770140211
-0.7783121490840075
5.445534812401505
10.531250192313761
13.306617245375621
13.291058732011845
10.868763475453324
6.4089105651362885
1.2215998209562766
-2.3234175650100335
-3.342570523597711
-2.938028496279035
-2.224516420908703
-1.697583450450692
-1.4735057900990058
-1.4241977677713062
-0.9637616445383556
0.027014622068383006
1.084819709100254
2.530051176416956
4.489458337386713
6.123212029143156
6.8965345650635435
7.426729827871327
8.204724983926667
8.657439401885888
7.722190445675707
5.245706025855062
1.9042004841686753
-1.4951606416388072
-4.233249456246782
-6.0554238353651755
-6.478027262550664
-4.8862933217991085
-1.5291528661613951
2.260907926849124
5.3145110917727845
7.091785058762396
6.809310214979664
4.780949103489743
2.3181211513983615
-0.6106644493975991
-3.911816812071264
-6.592703769831175
-8.991577235880177
-11.711952732428163
-13.420463052511815
-13.303855798679649
-12.22710438692511
-10.837370917365792
-9.548208774015366
-8.40932077191458
-7.629203675206281
-7.11274322006549
-5.6977444803093
-3.0700193130875904
-0.3303809346314959
2.51056530238129
6.254245959045746
9.632573172958647
11.41213491347815
11.949118425277355
11.505591232871389
9.952960509421846
8.150814543884538
7.598938510752979
8.289591614968371
8.855230732000747
7.769376413739173
5.268422409520201
3.0132390607387554
1.5699909667293985
0.6667204743093921
0.09360917794573835
-0.8615806910153665
-2.082345061534001
-3.4628222877234967
-6.4198270914245965
-10.152410871943111
-11.736008372176034
-11.261954898289346
-10.865723178223966
-10.901701341358155
-11.032872652951566
-10.782837888340966
-9.921097840213465
-9.14681733340408
-8.681911910842567
-7.749706064655065
-5.89541314355022
-4.099116573804668
-3.480934136640758
-3.2404433645048583
-1.5740412755201945
1.399378232686901
3.972390516967205
5.522634512452065
6.602213547047789
7.547036813444652
8.630387417120135
9.567544175813
9.061224320639447
6.77263564721539
3.652444523298884
0.580884113486436
-1.9666886510935098
-3.9188859086030465
-4.862341825211686
-4.517870013854949
-3.291219229834527
-1.9108916167798828
-0.9967095379824461
-0.04035701385756388
0.9351093842031313
0.19916965711035767
-3.229586428472443
-8.213192654832381
-12.855016002692635
-16.025687055051026
-17.29050146514307
-17.32823636965179
-17.088441934078883
-16.249609958565923
-14.819944637408973
-13.020449039023907
-11.058686691863006
-9.568345625506876
-7.951924445297406
-5.434700378904194
-2.3791339430881124
1.2215802182389734
5.90789016567876
11.160021476849966
15.551937960139943
18.312915861183814
19.500394276265013
19.54797295259501
18.702579684203787
16.780286489577414
13.427275516248478
8.316961455179815
2.2478555413055337
-3.1096282201739895
-7.083042298344173
-9.623729097399902
-10.82571548822264
-11.054494760731508
-10.69265088417733
-10.612723928438715
-10.755285340148212
-10.077508156385658
-8.87117128113727
-8.26497244745239
-8.367300636627752
-8.648392813282724
-9.232047575905064
-10.551790990469803
-12.462828849492118
-13.990285912525158
-14.11405410693882
-13.22727526226098
-12.0439900277261
-9.951185067219994
-6.999919722909065
-4.540445692656221
-3.219124886172287
-2.799389105925774
-2.6139567665058627
-2.186276514174108
-2.2383480961268165
-2.768476448847702
-2.7210462208044928
-2.1937549217724546
-1.5486649765875444
-1.2843178613688906
-1.741606649952272
-2.365917288103731
-3.1442933121324996
-4.917820981722206
-7.356893801403118
-8.585102125661743
-8.546080601070651
-8.574381215367055
-8.552847847505639
-7.782319542871357
-6.895662214714182
-6.517947240960886
-6.069379329114518
-5.0355237252440945
-3.0087573890753756
-0.788634383549626
0.12289965930493964
-0.8534404424138806
-2.4232501298058775
-2.495481932254009
-1.2556072438383017
-0.1367230808437454
0.6756077933242812
2.4294730212745983
5.337865858594368
8.28874630925383
10.531464278939126
12.048472057934461
13.120543250473514
13.625243747371101
13.298871871950112
12.08596049385462
10.651200570197688
9.255479671450098
7.4813147243685485
5.640500788712243
4.215607797877263
3.0138958336903436
1.9415484033802906
0.9899635818167335
-0.011365472960354063
-0.5492391274266376
-0.2160587962525992
0.3101049689920019
-0.19986666453831683
-1.4723656513273722
-2.195245484666697
-2.1603347103359725
-1.6825968430354385
-1.3358870513633225
-1.7137558973132272
-2.834070724787139
-4.3349114169122664
-5.740335477406221
-6.125018558586436
-5.06166401473794
-3.9548202396826215
-3.666400604970544
-3.664851931956637
-3.598132286285316
-3.27105182845436
-2.552654081017488
-1.857067075903244
-2.350408665909612
-4.463718683883675
-7.3122798881819095
-9.376404122783576
-9.709274753806076
-8.69318677097358
-6.619066862985592
-2.782391170569449
2.9092306850575556
8.535625789931323
12.077521539366897
13.429973324030462
13.993013926431624
14.023179086739798
11.948147631993983
7.963523045302432
4.319881589341214
1.8945975448108399
-0.15388251061800656
-2.5324270072259316
-4.869960690165301
-6.672430430691843
-7.9537500763421685
-9.399404501148151
-10.917598974972613
-11.092421955012508
-10.071777625813517
-9.322887403920076
-9.499272021923481
-9.446360252546967
-8.104231727005725
-6.044834509518964
-4.234834915890275
-3.0065646701450195
-1.9355140591455642
-0.7581081063523047
0.529017555694468
2.1363723539555326
4.217805731118706
6.150164738341845
6.905695119866123
6.0337910310915746
4.2580701518433415
2.2581497638078325
-0.26186991190232567
-2.9135637425739547
-4.284425620035634
-4.003985458346422
-3.2490732339614414
-2.887832389533506
-2.58843949753493
-1.6333334364683123
-0.5470999918917834
-0.6181758101637441
-1.5968544427007811
-1.7685890528653407
-0.7050234398853231
0.38126820628200603
0.7578660294829556
0.7831494542349225
1.3256330102410885
2.378675393246759
3.45477360986802
4.6168365033277405
5.990323765096609
7.489049097565683
8.478395515443072
8.140831934839033
6.9361902785412015
6.434414793376739
7.482131964601321
9.586773189790028
11.91462408093167
13.93355639560921
15.604305844237818
16.5589400424017
16.518948945560297
16.08904923104326
15.068531731251923
12.884127243702745
10.055073470040586
7.497726087822123
5.216992676044478
3.3130212212263865
2.301075094329068
1.9659527142170572
2.114532432162817
2.2796151286313533
2.024601126127
1.9878267206922695
2.183231063635641
2.2777484916316872
2.3899332444038297
2.4641609172798646
2.889295200189136
4.2392602073430625
5.185601264653026
4.512517959425494
3.15178942906149
1.308175670337388
-0.7208181743848969
-2.1615315428194086
-2.871826097377537
-3.270202764955658
-3.5027127134672167
-3.7091330190539544
-3.885741092079806
-3.611422541431367
-2.911035988286119
-2.2619139986083874
-2.1440515353162213
-2.274210544084517
-2.233459902592403
-1.5632153309583015
-0.8812527424702243
-0.31228212351318935
0.42974673838660077
0.8088204596557577
1.0649691379530881
1.3811414197880167
1.240137249288582
0.8646415058163442
0.9278869704612507
1.3177749252037998
1.77899297804178
1.728468727818962
0.7161290673074172
-0.5193145224472198
-0.9515178079263142
-1.0793752893172779
-1.6708918462532847
-2.0774571609272656
-1.6022434303403088
-0.28498279372906576
1.2508562734416515
2.5744839488850677
3.6176973489390707
3.9602931357092794
3.8277391818114985
3.9856034642859006
4.492605355173309
4.6907329651832
3.772228305738742
0.9629276501104659
-3.353349844259572
-8.10157191426767
-11.980026192929897
-13.754771233142655
-13.840406075486937
-13.30003662558801
-12.821635230019185
-11.959426488953394
-9.89719942786863
-6.516375513012086
-3.0300825692492035
-0.26995444540522784
2.0575815528475663
3.7590791546625035
4.5061420317053305
4.509448535924485
4.9698015655455245
6.150094791362982
7.1944265581934
8.192241929050802
9.840083712194959
11.641245132628454
12.247881041298491
11.21408140946258
9.562061287451389
8.094220524103008
6.465370368322406
5.04885420988613
4.687534602837933
5.316419496087687
5.716507115330258
4.236610163935768
0.43846148429627024
-4.058681273963116
-7.437665948441328
-9.199280886420148
-9.110145517102284
-7.006257567230912
-3.433932348213439
