AAD_Filtered_TADAS_FILE
AAD_BASELINE_CORRECTION: BASELINE REMOVED
AAD_FILTER_TYPE: BUTTERWORTH
AAD_FILTER_ORDER: 1
AAD_LOW_CUT_FREQUENCY_HZ: 0.025
AAD_HIGH_CUT_FREQUENCY_HZ: 40.0
EVENT_NAME: 202302061024
EVENT_ID: 13207
EVENT_DATE_YYYYMMDD: 2023/02/06
EVENT_TIME_HHMMSS: 10:24:47.00000
EVENT_LATITUDE_DEGREE: 38.089
EVENT_LONGITUDE_DEGREE: 37.239
EVENT_DEPTH_KM: 7.0
HYPOCENTER_REFERENCE: AFAD
MAGNITUDE_W: 7.6
MAGNITUDE_W_REFERENCE: AFAD
MAGNITUDE_L: 
MAGNITUDE_L_REFERENCE: 
FOCAL_MECHANISM: 
NETWORK: TK
STATION_CODE: 4611
STATION_NAME: 
STATION_LATITUDE_DEGREE: 37.7472
STATION_LONGITUDE_DEGREE: 37.28426
STATION_ELEVATION_M: 1097.0
LOCATION: Kahramanmaras_Elbistan_Turkiye
SENSOR_DEPTH_M: 
VS30_M/S: 731
SITE_CLASSIFICATION_EC8: B
MORPHOLOGIC_CLASSIFICATION: 
EPICENTRAL_DISTANCE_KM: 38.21
EARTHQUAKE_BACKAZIMUTH_DEGREE: 
DATE_TIME_FIRST_SAMPLE_YYYYMMDD_HHMMSS: 2023/02/06 10:24:23.6947120
DATE_TIME_FIRST_SAMPLE_PRECISION: millisecond
SAMPLING_INTERVAL_S: 0.01
NDATA: 10501
DURATION_S: 
STREAM: HNZ
UNITS: cm/s^2
INSTRUMENT: sensor = CMG-5T/GURALP | digitizer = 
INSTRUMENT_ANALOG/DIGITAL: 
INSTRUMENTAL_FREQUENCY_HZ: 
INSTRUMENTAL_DAMPING: 
FULL_SCALE_G: 
N_BIT_DIGITAL_CONVERTER: 
PGA_CM/S^2: 72.573
TIME_PGA_S: 
BASELINE_CORRECTION: BASELINE REMOVED
FILTER_TYPE: BUTTERWORTH
FILTER_ORDER: 
LOW_CUT_FREQUENCY_HZ: 
HIGH_CUT_FREQUENCY_HZ: 
LATE/NORMAL_TRIGGERED: 
DATABASE_VERSION: 
HEADER_FORMAT: DYNA 1.2
DATA_TYPE: Acceleration
PROCESSING: Automatic Paolucci et al., 2011
DATA_TIMESTAMP_YYYYMMDD_HHMMSS: 
DATA_LICENSE: U (unknown license)
DATA_CITATION: Turkish Accelerometric Archive v 1.0 - Disaster And Emergency Management Presidency, Earthquake Department
DATA_CREATOR: AFAD
ORIGINAL_DATA_MEDIATOR_CITATION: : AFAD - Disaster And Emergency Management Presidency
ORIGINAL_DATA_MEDIATOR: AFAD PROCESS SERVICE
ORIGINAL_DATA_CREATOR_CITATION: AFAD PROCESS SERVICE
ORIGINAL_DATA_CREATOR: network: TK
USER1: GuestUser
USER2: 
USER3: 
USER4: 
[...]
6.389510647145005
6.399752631083531
9.748004445263417
18.961059381065894
26.2599177134127
21.457247595738497
9.924553024317138
6.330981539166335
14.174123583347333
20.8886418778668
12.331242115437746
-8.982646190528024
-20.495077503221605
-11.77900526799076
2.9198969097949736
8.558253967493973
0.8580842775657068
-12.310148222936538
-18.74220909148189
-11.653309782100612
0.2344316561748143
7.144519313832324
10.208189161516932
11.101357689502594
8.275287328330187
2.2577934519588534
-1.4885732861700745
-2.5010758690559824
-5.2222274201122305
-7.313214095140395
-4.270070019427053
1.0582013497307694
4.24966220043203
4.162250208435655
0.3007085811214823
-5.689368981055462
-7.211935803847574
1.6175776374468387
8.984775984288337
1.2639503882729861
-8.113107154911694
-5.982855224750808
1.8798789126349602
8.708052824519905
8.228470566100508
2.4192499967458634
3.327424794973524
14.04626077998456
23.061873750754895
20.952009627165744
13.023864569692792
11.804113521030235
15.208976428273298
8.101798858284496
-9.455405123006308
-22.9549599890251
-25.925228341948074
-24.98944385328255
-25.14649783893619
-22.49568327072646
-16.67792923739734
-13.516313978273276
-8.944189914511496
3.086629062785388
12.775859553258256
11.07417971470207
-0.7363059884605041
-13.31857853665601
-12.556073381958058
-0.930988972801544
5.3407040092175295
1.0647542431628096
-2.552824478488043
3.2095038255710753
12.880663624126496
19.277573671473043
18.178158394387143
8.586944671734159
2.6943976756287036
6.385985438103471
9.033260224105629
5.188244258808624
-5.694460973205929
-13.696788640812935
-10.236401030826443
-4.373510143045536
0.4498795161422849
7.016663715980257
12.558255876982148
9.550003461343538
2.113620736309611
2.924997605541827
9.10458456263766
11.944151597733176
11.749537754906061
13.539278534742314
22.03189197066115
35.25262870879147
42.94252050444362
38.6779828219003
28.271165468780353
21.617703624354064
21.56517708998133
26.304767912842774
29.688965369871042
25.94054836312288
21.81195496426897
21.488829096111736
22.73664446325781
28.830437980531798
33.767911387438566
24.23593908043875
2.4372270295492564
-8.073570345568834
5.785027315950659
27.963379707769814
41.54057740524087
42.3121144470659
32.35200897007088
22.818993765693705
20.98509970616751
19.62881567192774
15.094793888593106
14.251879594148171
17.29621708167427
15.782427372909645
4.769306800764783
-11.237059756737226
-22.042648873734848
-25.194848984189562
-26.343542448623797
-30.47083310201697
-36.8091330787503
-44.683809679850626
-48.314310319160086
-43.138565129282185
-37.995102466978906
-35.763214544146706
-30.881062127606366
-25.582482841365586
-24.23969905249702
-24.003538210444965
-21.052633025294384
-16.206124567925784
-18.325953149860677
-27.75420249706231
-29.50530830397644
-21.550951474962087
-17.235073042144673
-22.85120404808668
-31.431021230413847
-31.62238692544879
-23.515681045541374
-18.554131282258453
-21.006509806627296
-27.384432269854234
-32.55245195022077
-33.747345953376076
-25.30995673651295
-9.829672983769186
0.7523854150527634
2.1456340687599806
-2.708843175920411
-6.920824894679858
-7.49291183146828
-7.083442436993006
-6.524895342562267
-0.9182253863537414
9.81995775335361
21.8062126257869
31.64109888305025
35.725567486203104
35.05453622419164
32.25315464429671
26.891961767470974
17.724024354587144
7.944082148589643
0.5311946518989877
-4.289597816215607
-6.697817303408374
-5.484488213567926
-0.43011690295523813
2.076343958731523
-2.6620294920138887
-15.113243769380828
-22.83953099783697
-10.975622000423186
11.208337181550197
26.387147423190722
30.012163785122862
24.275681731184644
14.07139315582236
6.294254377972792
4.401573388846936
5.2247460947888165
5.525290652411647
5.907789189252502
6.470630030393363
6.059071992206439
-1.2944110831812186
-15.530044469990594
-22.144997221749303
-13.536265118623179
-1.9438811778438578
-5.124223785572789
-19.00819814963424
-27.542274058649397
-26.59660377605629
-19.860160342896442
-22.463857857767714
-40.00954514488759
-57.661022467648024
-60.77845405817493
-40.47540055243184
-16.158298640964812
-10.979178935081084
-17.00188744525722
-15.08542824449389
0.16223725385395638
19.738375818112186
31.89577948122101
26.43357285040594
9.583414042999147
0.01328532107152333
5.6887129257209255
17.033799461796423
20.45755870876227
14.022527232391116
6.117950453900027
4.2038892386807065
10.047813349811317
21.20240240259425
29.621562200313544
25.7778437129351
16.633354332356753
16.714875117309212
21.616895932046443
20.781302143174543
16.831419173612776
14.080516153697488
13.91349791458195
14.551453871537843
15.989444247556449
20.782390973139552
24.732914791038233
26.144387060062733
26.731659851812356
19.613734935527688
1.1466093496622578
-18.05580361213102
-23.410847499774018
-15.220723276006128
-9.203029203560458
-8.153863916233842
-3.219560296940409
6.89106735439257
9.769900425747473
1.9434435629340994
1.7177173581893193
11.465969612605626
15.35257948210602
12.405045884879119
16.136447914464608
29.379595605630936
39.17416837557476
36.059513111574795
22.07826262791612
6.124663958064249
-1.3807349211690745
-1.6536512774995793
-0.47976885792533247
-0.9547912211096921
-8.301666912641902
-20.05320217853091
-28.541999716402685
-25.66959369449626
-10.262338419972039
6.293411324350397
13.091778351020706
7.049003417385316
-6.55204285104063
-16.28889179748935
-17.07499851243521
-13.350714822247424
-9.713650531076773
-10.24516581199831
-12.65245605002002
-9.296109969815916
0.17144558540853239
10.691280704263251
15.54649567224694
16.493129080849975
17.439542987835107
16.242976634641174
12.738011905340235
11.445755256809111
17.696614251739046
24.094517097328165
21.563747070298994
15.499556029854519
12.449644355212182
11.287030630321704
10.959363152690523
9.44011780371463
5.734306732694143
4.630522426065661
7.676460775571151
12.301721195272801
13.123741556618118
8.58659841627267
9.897496767543519
21.981407656069212
34.93823605251212
37.080846633833424
32.866767803120815
34.55441891081097
38.212940555265
34.3727513364204
23.78756146052537
13.621390740083203
8.660978611619914
7.12268154422722
6.052043400853552
7.425274603917508
10.943348570940843
14.557511484661875
16.602130808027574
14.230234661279018
8.963741348482527
8.101813359482419
15.111968930101622
23.277465088992734
24.581792015725902
20.036086876862132
16.872668001158235
16.49962767916721
14.044859866110667
11.466809185315139
12.0450008922668
10.569781961505448
4.70795398077162
0.7378245086721276
5.668137831500314
16.426930812093985
21.566789516080078
15.856499230309556
3.7056065376457537
-4.058070537784884
1.8187137384035428
18.54675684761536
31.284115486586032
28.935522322619704
14.921711304677821
3.3051497118305897
5.9616640072948766
13.694927592195853
11.164555749839653
-3.2682944809171035
-16.29439839741743
-15.355597669053639
-6.44836833298804
-1.8324641290084693
-2.061167782992919
-1.7210971131521389
1.651210474684478
5.813675226171998
6.848855196938054
3.533242484874993
-1.9664931029368944
-4.54018847275138
-1.870454572978927
1.8941622765233888
3.8209759097026352
2.103906506118517
-8.667915509085049
-18.840860520609453
-14.12114846644452
-1.0857243758543533
5.796780904014437
2.6926744798493742
-3.2455531483496167
-2.701496567408229
6.637423915627103
18.17463415530904
20.14738833993077
7.352912837690972
-12.989851619873047
-22.476870124104323
-13.693963838198858
2.7073796256032594
19.266738150258796
28.68648008778942
27.127324587972854
23.711892489430348
22.13596771674252
16.957041209645904
4.334916496868087
-9.62890399572213
-10.959705493886027
1.3639495784878986
19.51290519597514
33.37784982214645
35.35815773172121
31.02307018320697
26.925681601895977
25.296627024441737
25.512630538264258
23.225991051869403
15.242210103277325
0.6974175445286961
-14.703870229724629
-26.94899174340957
-34.51425909253881
-34.62848254767964
-32.402353002670644
-34.327272449056316
-34.9424397842236
-28.45221080996397
-13.834386439944048
-5.032372046393326
-13.776032222525643
-25.856591606403725
-28.783960981602203
-24.330152652863173
-21.21621478096464
-23.368985888753706
-26.8620192847906
-27.32347267352596
-27.893020882889935
-29.02486058967755
-27.611374314783045
-29.358215875646863
-31.430817994895005
-21.243363691185195
-3.694250528084695
8.461878222904373
11.501832530087617
12.145304069915127
16.934573337255546
19.414343765318645
17.403860038327736
14.017166274131599
10.84548824768452
10.121791315382358
7.497393010635289
-1.5327906660472717
-8.275798148554058
-6.251269605297268
-0.0043863609392881305
0.40163843827267615
-7.731672164715937
-14.274073722878612
-11.594108606560713
0.08724305514754901
8.826427897076561
5.551753298297786
-6.183551733779962
-17.001667628890694
-19.365147397185773
-11.519995430761373
2.3576454322366667
15.394498905669874
21.810036114022108
18.635955241132343
7.875521451642052
2.118106078151434
15.821446616272487
34.00024327368561
33.32777657071905
17.95966785308151
6.317823499192765
3.0305803729663325
2.594728796183482
5.645274044784829
10.725154864230955
12.979176456875413
8.909535437310087
0.6129879687957491
-6.529781646661969
-11.822573458218585
-18.863094431516696
-32.22533415474586
-47.973823288132806
-50.229716871168776
-31.53905765272489
-8.928891488999287
0.6654638916665452
-0.945091961482583
-9.00124280346391
-14.060561646001451
-10.0419209123414
-7.078424044403096
-12.627684179678363
-21.971631099034443
-31.23977567117205
-32.42630503783284
-22.26306065804214
-15.195156724518588
-17.677263024544825
-26.87377796173224
-39.5592811738097
-44.58589319471213
-35.73112311821438
-22.47486303135383
-15.737645388648454
-16.368574202754335
-14.339118359167804
-6.248077557555537
-0.7177474832495832
1.6022417017844501
4.482820629753776
5.356473376808298
4.123196040791884
1.2275525422187368
1.6779412211983833
6.454564886192534
7.252836323031475
0.9591828495082753
-8.34592262276214
-15.308640661624702
-19.441036819775373
-18.67939398446619
-14.597898224225169
-14.435497872368728
-17.646434204858515
-15.904464667036812
-9.6043843556692
-5.942009049504078
-7.663949803141789
-9.575909389690656
-12.227568504591256
-16.49703297940692
-14.587505549212707
-4.502119264921617
7.867825302052361
9.484948284208762
-1.17760688270505
-6.412662173280344
-4.240252915558119
-8.868908943950194
-17.629061654229865
-20.28424650967983
-14.31739717094027
-7.3862792837688795
-10.814761194723637
-21.503788965125313
-24.713841314589654
-13.142130984494216
-2.149565348351981
-13.640420574276963
-34.94728559361637
-39.267009421126154
-32.56075455950508
-33.375409921647844
-39.63388706164765
-39.35158483915964
-29.070369398619935
-14.56111491488505
-2.0885706807819235
8.51416766605101
17.540972687093102
17.684629026852136
3.6929539566447755
-15.268160192687265
-25.7819496916918
-23.359049619906518
-7.992320713113139
13.802220528264975
29.154021851608885
31.227058949050758
24.99449645575125
20.05536311837415
22.444880250664966
29.14987904955489
25.64091310156364
10.316528349333055
-5.438144829042849
-13.181960262764086
-13.258421797927456
-12.373563852710902
-7.241999393642739
-1.0870150071924864
-4.576187078126314
-9.476249534917358
-0.8860249362513187
16.162867925124033
30.353129265862
36.44359598624392
31.89297730885753
21.022815316609154
11.114743485154744
4.1288687871202
1.9419623796601546
3.2465428639789033
4.500547359439916
5.955235000330932
6.989040841190246
8.494921952996126
13.357264614980528
18.164028814480943
18.998851669929987
15.955186528807822
15.591582622231329
20.603630417088464
23.013376140926987
19.275364259404146
10.909325808748036
1.9540464774885775
-1.868228202664026
1.415949513678569
2.777498905678858
-0.5468666383667276
0.9884311511232214
8.955665109600028
17.036183189757693
13.684693284535465
-0.13928056695551788
-8.633866115874746
-2.035092448804648
24.20775333632066
49.08960954551943
44.56186966134612
25.834385934713108
16.15555586885856
15.585397639670697
19.552107201270868
17.117386726681126
5.038646665553149
-11.155738110670232
-21.970505629863656
-19.70433866064141
-8.485278189913792
-8.478555781558399
-23.275273602487452
-38.4090703429588
-40.65110464066759
-29.397346790043223
-18.77930933792493
-19.12436805181766
-29.608024252825707
-36.90314142671407
-36.51450009365689
-35.946012287234545
-43.66750454362253
-47.61878375453163
-37.78615839363955
-30.618605449497593
-33.94286994014949
-34.186328742677986
-26.257381627401585
-19.22589995003891
-8.357721776326102
8.011156122263763
14.848745653701839
8.149527279626414
-0.9045153026834637
-0.9477684709611646
4.958695270810337
14.038851691559358
29.466794587858193
45.32399078332191
52.82778941181012
55.29207509506931
57.931301365710645
58.930352805319856
65.13010265906473
72.23676799271111
72.12634028067676
57.60395713038723
29.092756214599095
15.405180612626124
21.786725777993773
36.916839532414976
47.425581238701035
50.87464103751501
48.93148018302265
43.73767786499038
33.396198020417145
17.508385031914603
9.982367378287286
7.6529337232939945
-2.6507931207024282
-19.81689141011691
-30.571826863415886
-29.283658870659657
-19.77852247775943
-15.376368226878908
-25.191103392816228
-35.45527691436919
-32.97442351389576
-27.44693569714212
-25.525768409110736
-30.55905289399685
-34.64626035047059
-34.12912511620005
-36.496146617174574
-37.333946120697334
-34.084683225317534
-34.634985676536644
-40.91018511631623
-40.45911345634213
-30.185065463593656
-21.621248630469008
-19.561401818389367
-17.07559009134083
-12.93418210218603
-14.460473698779824
-22.57378109104846
-28.46333984213848
-24.216227826089444
-10.782920845753312
8.25558485331057
13.461002444241272
1.3513834945472185
-7.183532891090335
-4.029665829385604
8.281537722691676
14.13906453508607
4.573776184308933
-5.9672061598462065
-2.974351906162346
10.252370055682528
21.25080205199767
28.56804803384085
36.37227318528637
40.96553527574016
41.35369912852416
39.943665510711405
35.89766550514602
28.44989876408507
20.001943625728195
8.281215892094346
-2.7619308110117613
-9.292452735487366
-13.592310150464579
-12.693683808234354
-1.14964148321398
13.52292260432588
15.476787914172297
7.4959961585919475
1.7586369717729617
0.640129623549777
-3.3165470271641273
-15.655791977995014
-29.993897651772198
-36.7091641966413
-32.543364046499754
-22.160027034651076
-12.589474472531673
-8.925072998807364
-12.533926176633894
-11.22370468185849
3.3684168217942334
21.13600135271884
24.83052289761714
11.662702158850502
-4.409476768917952
-10.673586590422541
-7.686578168428983
-1.8188971251437867
0.3422696909083723
-0.6792850053951128
1.3705885446632795
8.435029474588122
12.91036566600825
6.0358414370940645
-3.013796435542617
-4.179489122750775
0.9251434571590343
5.945442924789317
5.942330493455057
0.9944337897159626
5.409545962230103
21.642591668655538
32.87782601407592
27.05151029275555
12.348412972550841
9.485634614681608
14.264665380362517
13.671682685731756
8.589279452656479
8.378532881908574
12.19372263584072
12.058455337871408
15.4061067912769
20.59002778858716
20.1362962005208
14.274235210699715
5.943167723659393
0.01577577437579949
-1.1511041087653446
-4.993005057060099
-15.723364749495357
-24.181378902710467
-30.004530836845273
-33.22820387224097
-28.30702275333262
-16.17364291501117
-6.841162965608793
-4.032102411869546
-3.026989122996626
-2.8954617942311964
2.21409480260316
13.832239749994978
19.538216028258894
13.298523043505456
4.052354715906662
-0.5326135655901811
-1.2914324362933123
-4.685685350110693
-13.773510647219025
-26.46075464604099
-35.18061105514541
-31.20813287913327
-20.27007652941243
-12.524979927319954
-15.839184315519603
-28.19248204865823
-36.74783081881999
-36.99617313376947
-31.016720777594124
-21.03945141012075
-12.722954658419951
-9.788423215194896
-13.801715628152404
-20.71933842388645
-21.41538493522223
-16.176930656170832
-10.783062835044142
-12.51609662991983
-23.845987502732658
-33.187396427908496
-32.7182600851906
-26.152826060806746
-16.092990692719074
-8.444993354516411
-8.910539476339148
-12.265811496902378
-11.001274224428826
-5.597921713971206
-1.3981440739645363
1.2790894921454379
4.594676293898219
9.124309062105096
12.940562464314127
16.92271686393344
14.778809270928042
1.7452040990276607
-8.759896967395527
-7.065607844319994
1.8467393539373578
9.327388218908862
14.562760489622713
19.090138314786287
21.45436100752948
18.67336253691463
11.81355629503272
11.42468123815517
20.776246421476635
28.779818997657024
23.334543210109768
4.9381651718962996
-8.179100369767191
-5.278155503479239
3.2585975244300425
4.934013423207064
1.2645149465916163
1.6647487621766728
12.09560706244589
23.513591385666018
26.351790858229247
25.878079931862388
24.51066862599684
21.871113175517834
20.872050548714796
22.349218896233563
22.32068606579554
16.667773188888887
10.537383529228427
8.74965315202738
8.55986256471381
5.3869195322454795
-2.0341256737089783
-9.830897299528782
-15.997110091515502
-17.619374929395274
-14.437890976087782
-10.194012194117658
-12.684782139496487
-22.423204730357035
-29.276165994440287
-29.70835015021875
-19.902766101484353
-3.4644190120321436
7.100110919737205
4.753511566845325
-0.9658796487431283
4.133473183157898
20.73512321550341
40.07333919926201
48.388285465606984
44.82999790950314
37.56361476768525
29.582189473710436
27.911187233409418
34.73021016876539
35.87240648061991
25.76269275964987
12.624327830063507
3.972184058828936
1.903495433316205
2.8776598165916494
1.8978790330657276
0.6743743227683834
2.258889163364112
1.139351499462949
-4.000320614939715
-10.430454600262525
-18.897723422583887
-29.183825112197848
-40.978180856653466
-53.351573900380465
-62.5560107328675
-67.68029865424027
-69.80799855686969
-65.7697912871695
-54.381931223589085
-41.93142977122765
-34.84496274343405
-33.51639894542405
-37.16379555633572
-40.56905196897828
-35.15054029877898
-25.497725979299407
-22.236649355986845
-25.955718272728262
-25.703530003410314
-9.502020659584932
14.89940948823334
26.69928335867775
20.323558940125196
9.679665164184417
7.495699641325339
16.508602774416513
33.811507300471256
46.52065627956385
45.048746282823906
31.339369216022465
19.45214784692329
20.407758474419214
26.116466531876092
22.599907742761737
