AAD_Filtered_TADAS_FILE
AAD_BASELINE_CORRECTION: BASELINE REMOVED
AAD_FILTER_TYPE: BUTTERWORTH
AAD_FILTER_ORDER: 1
AAD_LOW_CUT_FREQUENCY_HZ: 0.025
AAD_HIGH_CUT_FREQUENCY_HZ: 40.0
EVENT_NAME: 202302060117
EVENT_ID: 13194
EVENT_DATE_YYYYMMDD: 2023/02/06
EVENT_TIME_HHMMSS: 01:17:32.00000
EVENT_LATITUDE_DEGREE: 37.288
EVENT_LONGITUDE_DEGREE: 37.043
EVENT_DEPTH_KM: 8.6
HYPOCENTER_REFERENCE: AFAD
MAGNITUDE_W: 7.7
MAGNITUDE_W_REFERENCE: AFAD
MAGNITUDE_L: 
MAGNITUDE_L_REFERENCE: 
FOCAL_MECHANISM: 
NETWORK: TK
STATION_CODE: 0119
STATION_NAME: 
STATION_LATITUDE_DEGREE: 36.568
STATION_LONGITUDE_DEGREE: 35.39
STATION_ELEVATION_M: 22.0
LOCATION: Kahramanmaras_Pazarck_Turkiye
SENSOR_DEPTH_M: 
VS30_M/S: 485
SITE_CLASSIFICATION_EC8: B
MORPHOLOGIC_CLASSIFICATION: 
EPICENTRAL_DISTANCE_KM: 167.32
EARTHQUAKE_BACKAZIMUTH_DEGREE: 
DATE_TIME_FIRST_SAMPLE_YYYYMMDD_HHMMSS: 2023/02/06 01:17:40.8668310
DATE_TIME_FIRST_SAMPLE_PRECISION: millisecond
SAMPLING_INTERVAL_S: 0.01
NDATA: 13501
DURATION_S: 
STREAM: HNN
UNITS: cm/s^2
INSTRUMENT: sensor = CMG-5T/GURALP | digitizer = 
INSTRUMENT_ANALOG/DIGITAL: 
INSTRUMENTAL_FREQUENCY_HZ: 
INSTRUMENTAL_DAMPING: 
FULL_SCALE_G: 
N_BIT_DIGITAL_CONVERTER: 
PGA_CM/S^2: 43.463
TIME_PGA_S: 
BASELINE_CORRECTION: BASELINE REMOVED
FILTER_TYPE: BUTTERWORTH
FILTER_ORDER: 
LOW_CUT_FREQUENCY_HZ: 
HIGH_CUT_FREQUENCY_HZ: 
LATE/NORMAL_TRIGGERED: 
DATABASE_VERSION: 
HEADER_FORMAT: DYNA 1.2
DATA_TYPE: Acceleration
PROCESSING: Automatic Paolucci et al., 2011
DATA_TIMESTAMP_YYYYMMDD_HHMMSS: 
DATA_LICENSE: U (unknown license)
DATA_CITATION: Turkish Accelerometric Archive v 1.0 - Disaster And Emergency Management Presidency, Earthquake Department
DATA_CREATOR: AFAD
ORIGINAL_DATA_MEDIATOR_CITATION: : AFAD - Disaster And Emergency Management Presidency
ORIGINAL_DATA_MEDIATOR: AFAD PROCESS SERVICE
ORIGINAL_DATA_CREATOR_CITATION: AFAD PROCESS SERVICE
ORIGINAL_DATA_CREATOR: network: TK
USER1: GuestUser
USER2: 
USER3: 
USER4: 
[...]
1.1790943341105766
1.6858028310276825
2.2508308830778136
2.794629101335091
3.0777752722708405
3.1411645736094065
3.1803625915130382
3.1962724861657823
3.069372348409445
2.893182274488796
2.8077521867842106
2.904124144358158
3.1915538324691597
3.627954838350523
4.041406061500642
4.233029847707195
4.05767535683893
3.583832105506849
3.2371748113030083
3.3112333293307636
4.007138319618512
5.467946003515429
7.3589409239551005
8.92091154658665
9.60755137428416
9.28422118528537
8.069431665285542
6.503954712024826
5.428565039046261
5.457296416243415
6.486828136466288
7.964354815363728
9.229378146768916
9.915729923507763
9.970611614466277
9.381393540146442
8.45310563256339
7.784974602455081
7.752533866381226
8.221434186585999
8.803063293061738
9.059638394623443
8.60586549791316
7.48474840764493
6.284455255557241
5.59064060378771
5.658653111148139
6.1495683390700995
6.476670352430214
6.417929388531926
5.981631499028247
5.337179212900247
4.866100222436718
4.853531869778752
5.279173949906025
5.657971325576899
5.299480461777919
3.6653227732787914
0.8331417510074772
-2.1573562074749337
-4.349834957862228
-5.172128291670879
-4.6328060953292916
-3.4749869087330527
-2.307818013471358
-1.474078221469139
-1.1424360424644908
-0.8923959031068511
-0.2602967547932518
0.7811332425725983
1.9078255355530331
2.621842309215661
2.6156203598788172
1.9615083503079596
1.3592089810002121
1.4026250869046162
2.2449022624011676
3.4917951174379116
4.237178864163882
3.9021842331835765
2.544320747498263
0.9250913651251204
0.15517879045184363
0.6457080799522574
2.027383334668508
3.3869073460849735
3.876096641688016
3.1671810876443285
1.5578540789304232
-0.004297109516662594
-0.8277153790130034
-0.6609513144940921
0.15017235963387407
0.8492029478830572
0.7526003280956489
-0.18633225780924675
-1.5706789039775741
-2.705938580846146
-2.9314692023178366
-2.0684152033757184
-0.35492116986397926
1.593620849626438
3.2286156608724688
4.170348492734025
4.462282296937048
4.076946390585844
3.248615976193339
2.4278735455338647
2.0006895913715415
1.9120790395939227
1.6229132950636462
0.8925287845300808
-0.23545086094867973
-1.4434961708159528
-2.3847346347433884
-2.882653101164178
-3.002336120030128
-2.627961118503013
-1.9156084282102055
-1.3427501276958766
-1.342120755889187
-1.7337557591032375
-1.5161675716910383
0.028253040606961762
2.687236867079084
5.645781955200752
8.039498800800889
9.280118861427837
9.061313471181077
7.635946906854641
6.124503861472087
5.3796525767476036
5.687818210415313
6.490604490218544
6.688556827623987
5.637698205374162
3.3592440330295794
0.4430501353728856
-2.0678267927347544
-3.052133598204521
-2.20387960048474
-0.4184522515650468
0.7996764949618567
0.7546363588229985
-0.5254706552623022
-2.3220521338638975
-3.5008066337505426
-3.3252061493427028
-1.9614580441562266
-0.9483394912691964
-1.728815105140312
-4.462269386603415
-8.333063827240125
-12.126607097732975
-14.69612896576191
-15.721692471791073
-15.644343912428383
-15.087195004977135
-14.667917900970496
-14.468741358237551
-14.10021612217227
-12.993195061576142
-10.996217591559182
-8.822839678195914
-7.50286416421307
-7.5688218569529715
-8.571273945803602
-9.75788165142926
-10.752732728201142
-11.158526195150822
-10.923549455922661
-10.45084108103213
-10.027009210820532
-9.485699849542346
-8.52870397101474
-7.211932680787535
-5.8327612470009464
-4.92789995507458
-4.4184019134387675
-3.6368690849484007
-2.012565864603166
0.563700164585753
3.675835962953016
6.6576981230314045
8.69886392557493
9.380817492358396
8.898646172488995
8.216767149913323
8.498572969866917
9.91917891234534
11.626144659679115
12.571886949104787
12.14026290651085
10.177113677847592
7.3326587698322285
4.532164177196542
2.369195009695034
1.3318134220246842
1.2618280201269731
1.511961644260711
1.3764356190677876
0.5639780751119946
-0.5274416173381068
-1.2535667393426624
-1.445215943846158
-1.2890348680469312
-0.8872384298090483
-0.061449212598454685
1.3541499845933544
2.988667859552558
4.424600594549509
5.241740824290328
5.371983585362731
5.073864639767366
4.757244488097968
4.900812222610866
5.581187990091816
6.390774970672914
6.832795138900968
6.608041306501615
5.708250671642574
4.584726161736152
3.924036938794458
4.26432519095147
5.331696299579661
6.199986661483188
5.933394480196818
4.241233688276338
1.8004952597687505
-0.16348707137065313
-0.7545457329881798
0.16940079602720734
1.8111288322538581
2.6756100479351286
1.8875644671293175
-0.22285793544844598
-2.4095807565470944
-3.728498171998259
-4.267736053404633
-4.681168481178826
-5.730556426022201
-7.989960169493199
-11.21603953350714
-14.368372804300106
-16.695230803912693
-18.100090294441927
-18.964894163841628
-19.842369959840124
-21.02364921728113
-22.269193698290074
-22.998105617707125
-22.635071818312003
-20.969711209280543
-18.451821743057888
-15.92746381028868
-13.963180722183179
-12.649047841865437
-11.67804034550649
-10.585586688978411
-9.107215701277049
-7.300669847164838
-5.381554906531738
-3.771047330370069
-3.016349979896372
-3.176410503073039
-3.6613724588414107
-3.7603064605513286
-3.1142811361005998
-1.676026275077597
0.07755946351553829
1.6864047111976819
3.0536677291032044
4.430955054725053
6.280165048757804
8.730978845954514
11.460872069256276
13.857978337947227
15.59481643947473
16.726086294030676
17.523439584717796
18.417002724155076
19.57994996159923
20.794691020756243
21.532090995641664
21.215673940325445
19.65461856228194
17.095905561905404
14.266089690682833
12.068755035226935
11.02395483872608
10.905705246896222
11.187542381775925
11.240714932671043
10.517374536447022
8.979916336469659
6.94933346434744
4.861531317169873
3.2451774755670195
2.370151103103621
1.7863152647516012
0.6093278097515749
-1.5184974950760557
-3.881744603563587
-5.378516670200887
-5.4531779189807725
-4.549373871884988
-3.6254654962120774
-3.791513130364213
-5.54177156470387
-8.370752369478815
-11.190257227089536
-13.068532421888557
-13.713565281200262
-13.480232023706815
-13.256730644950823
-13.834236189492952
-15.332629337265665
-16.6795934674359
-16.960173509309197
-16.3415300016311
-15.454304469803223
-15.198200972148392
-16.332769697094033
-18.930633316302316
-22.17450420889541
-24.95447353532923
-26.447389746335567
-26.487891508637635
-25.652851959243595
-24.641095855183597
-23.8042724473397
-23.237827016005085
-23.027424097668433
-22.90971630686889
-22.35706102222048
-20.97866252985277
-18.822740355882928
-16.242791463965727
-13.330929092075067
-9.976535403986043
-6.268836153997772
-2.4794329171521547
0.9949964998625253
3.459487124591932
4.854841108479604
5.723521808864716
6.353391817522482
6.839961931540039
7.457334600013006
8.137517720090983
8.467292735557349
8.305037431334721
7.558601734462648
6.543056618440919
5.847592023984316
5.625426530333093
5.565241141252406
5.615082555894824
5.919751259212835
6.3754660020807785
7.052750787270553
8.15964836247172
9.617930637292245
11.358148443114782
13.189580139869086
14.722281207542592
15.506542505869138
15.228462536867061
13.989916076919304
12.11325852312988
9.99021110400417
8.042520052293497
6.772150668054334
6.190245511839577
5.772771517968823
5.117099190101344
4.389236229959284
3.8984993861674955
3.815316981091092
3.8609887907203198
3.261395755258196
1.4337757680441952
-1.6849626829633293
-5.4502662497338195
-8.879035008002466
-10.947295517844502
-11.154583386426674
-9.70787955336236
-7.534788805016864
-5.733145996503932
-4.726507146946977
-4.5360674446521
-4.670259798075352
-4.6690651863467
-4.443214961008805
-3.8609135111820225
-3.0869920345666015
-2.3961505200004485
-1.7692825714991398
-1.3286397845653735
-1.2886797442439597
-1.3954976997095945
-1.415746683426143
-1.2939090094444807
-0.8672499173682785
-0.08083345403893029
0.9262480569586431
1.8616087534677241
2.381196225958282
2.246905107845651
1.7219299095727476
1.1209980042230752
0.3976402718897354
-0.3579925870262287
-1.3703461019333734
-2.8374771409828603
-4.4207823355277975
-5.739707931154049
-6.542904287469702
-6.82147519510394
-6.865642350092018
-6.9795928742437185
-7.033724000252725
-6.620708751125482
-5.590965620855109
-4.180450553584807
-2.4878212825847488
-0.7921045034125967
0.674795764072642
1.7590491086467668
2.0125739407978425
1.261155678814342
-0.20125190725021275
-1.7686688435547557
-2.719113950801831
-2.9287695483824074
-2.6238808112070617
-1.9376641445035683
-1.051997927563828
-0.08546309353476118
0.6694619277335243
1.4006075562935565
1.85337072146716
1.9456170194421742
2.0518330052254847
2.173088125416043
2.518687833725755
3.0238290363904876
3.499290462741765
3.945359091383165
4.332893676672534
4.875304098705554
5.818430423375019
6.809740125968429
7.589325307004388
7.916783535856666
7.548793079191535
6.500198502629388
4.991866411439827
3.2815942458554512
1.6435249638316265
0.18965435640042694
-0.8855926385859356
-1.3386872085742547
-1.1982236938291058
-0.424385443934569
0.33618492753675805
0.3481586375180295
-0.21000843475085998
-0.8499935406558533
-1.1087972764411715
-0.7072306116632706
0.3269458555377115
1.784313017950805
3.4258749347357877
5.1130567320536375
6.655113358129462
7.946412256074129
8.856155533004864
9.117994073590834
8.9751663320943
9.158535178816065
10.083266927993533
11.881205660051787
14.300744984463341
16.753415109303347
18.468714512217772
18.91705281111313
18.06723675874171
16.808959851460997
16.27454298624591
16.561606785751632
17.415344802743917
18.370545328457993
19.181354900800216
19.542408787012594
19.114531255523886
18.106620980173695
17.07825959675392
16.309309856158652
15.848141524147222
15.889080027310452
16.346408578799203
16.80436379945452
16.925239111729518
16.95875915375153
17.068070806640694
17.12857444723682
17.168728546687404
17.175062560167014
16.890301822214845
15.54067218628536
12.57115128294077
8.452222207108022
4.272659636439566
0.8144789858291713
-1.6541742526182839
-3.016857147900337
-3.449520567883348
-3.4123581755191674
-3.358103960129163
-3.2092758086954047
-2.731051559387806
-1.4389835254211094
1.0578272598368965
4.386447586822326
7.641051105380156
9.621235981932289
9.64327520108934
7.91513867836861
5.259094218362697
2.3455461902160755
-0.40060446819154466
-2.414893734202145
-3.313565813745334
-3.4669018497453794
-3.425469586435055
-3.4159996432051014
-3.6080463309367348
-3.638553360166872
-2.6700200437440693
-0.3462011002175431
2.798318394004609
5.621899541483506
7.23880880099059
7.504360030899646
6.781933738189736
5.85369873109097
5.582650539023574
6.216632000127486
7.347295457307865
8.150273980371729
7.999230437126321
6.884746867277435
5.009250176055669
3.0046548590878923
1.4082808838271563
0.3447218756806816
0.04595997841042349
0.6585582775214511
2.040784929177823
3.9365083799872105
5.8298583833401425
7.183895680414041
7.99302397789579
8.490088460689305
9.10202583724804
9.896382544554225
10.705916310602149
11.375735894484619
11.30977893422819
10.29903268249544
8.62284322630082
6.751805831989853
5.2496850620827225
4.088113653376297
2.512159880586855
-0.09197110987322307
-3.639602407130681
-7.61789820207354
-11.337262405166017
-14.058347274310638
-15.294467192536143
-15.549169785335703
-15.481392313593876
-15.076995343283718
-14.460227800600723
-13.826893402712283
-12.745593607715897
-10.787579443253208
-8.518643821578191
-6.766505507785352
-6.162257965051323
-6.656693662450999
-7.652103115992726
-8.404445561368961
-8.179390941380671
-6.992238330832921
-5.495257416840541
-4.446696522668527
-4.019037149870395
-3.8931957786046643
-3.710890779957884
-2.954993654970987
-1.2997318428145823
0.5558291268977975
1.6709476016746039
1.4244134027683903
-0.008532765895663572
-2.106931513149895
-4.503282094003062
-6.613547075849031
-8.341843048846734
-10.0844693673928
-11.937416686108229
-13.174540604882285
-13.497842747709146
-13.110585290373365
-12.282496157358144
-11.332247302645348
-10.666026893802682
-10.619779704730504
-11.16270887095201
-11.548389894214415
-10.39335395295677
-7.123800133425068
-2.4589322686365893
2.013241927387359
5.452382371926053
8.278513438873585
11.03255480498333
13.713811127843133
16.013101451989986
17.87081197819187
18.653625834272123
17.656259522367506
15.321404000553217
12.661169976454193
10.589144921359374
9.266857038812931
8.460297474046856
7.572775082071287
6.150806134033851
4.357180963351676
2.6052889174121683
1.5005297695026658
1.465126155063924
2.3818860497604506
3.411903356352353
3.552821511160087
2.2408449618663733
0.04295880179847695
-2.163522758854364
-4.255341388072745
-6.158463794960426
-7.724685371014667
-9.267217499652663
-11.531419520164594
-15.033022507660592
-19.446790235370152
-24.001830138726735
-28.27983099648995
-32.15730922199096
-35.45667664045246
-38.331793939954075
-40.82049104981738
-42.69908511392537
-43.47288837963379
-42.947487440322774
-41.68795928257344
-40.18700051356369
-38.70516920105785
-37.30765341697392
-36.37611025372411
-36.245661879495515
-36.40759834431764
-35.95256661239922
-34.60784158636285
-32.64834895096962
-30.466527481987644
-28.075603126171398
-25.34165026809061
-22.273552797848346
-19.032444587266387
-15.56442963503497
-11.57178343186844
-7.262185424158404
-3.073001887226729
0.32818083382001617
2.722629299213291
4.509608039074716
6.006872223581296
7.110933321344346
7.955874423996367
8.972515360155318
10.242729426491309
11.650188265890048
12.987138239219732
13.922231945580258
14.176087743986448
13.811156866502724
12.94366309075471
11.934274735320816
11.470907141284131
12.080098825072284
13.796247535983792
16.05677408883154
17.936953015913552
18.476618150273065
17.102310451560122
14.051585423887385
10.405701155081365
7.239313660415659
5.032059494790578
3.773607004264897
3.1589212087853378
2.774118666914349
2.5075108797361243
2.8320521773786385
3.7557370502243344
4.802800432832872
5.718171952611308
6.337892750907426
6.395119339459028
6.144574599709055
6.345835325398539
7.177607006920162
7.909043921688384
7.4912033442402075
5.746718345557718
3.066249137323183
-0.11389514278254348
-3.047168857023594
-4.818274711788104
-5.6400394538019025
-6.318689810261021
-7.250522989497078
-8.37920809358909
-9.37414131912613
-10.281547450916584
-10.514221662574945
-9.450404534654146
-7.222578465707111
-4.731464667798219
-2.837799030514162
-1.8416960870563917
-2.2261686879193654
-4.0451143838479915
-6.157304125768567
-7.154078228448514
-7.089993679633003
-6.6266574028559875
-5.929336692126861
-5.168263196532788
-4.718483354982924
-4.622006191702422
-4.3229810988724156
-2.9348181485969227
-0.11096490886992162
3.5486930472414215
7.382618307729504
10.771486240790393
13.27132737606442
14.864163815792422
15.850268309081432
16.561759636177722
16.823962505155006
15.688537664196534
12.470130095017472
7.591532034719495
2.0533433079449583
-2.707706243127743
-5.852203710597302
-7.490186204359335
-8.397377724373793
-9.434387195163525
-10.49273605317321
-10.593832468608088
-8.699540204083258
-4.609465994307429
0.677083122618813
5.223532232795254
7.400143143617282
6.694326175837181
4.1083045262077516
1.3405543297499818
-0.17634761173918884
0.28984098546396936
1.8829547171968155
2.8641883980893073
2.342710230810846
0.14806493478608027
-2.829340048586033
-4.843914806563814
-4.616971608223491
-1.8280286906893266
1.9618498635952037
4.645527716833191
5.38295308793333
4.735060726352221
3.962457994315034
4.091315993817375
5.3299912445823905
7.200153281741778
8.213242843646261
7.179505390175823
4.147064331033849
-0.038541566938641796
-3.671158592775657
-4.926954461654927
-3.420647506211176
-0.7719821163620398
1.0957880908968334
0.9314754387836613
-1.330914728450168
-4.772089018424214
-8.027568747342833
-9.936535127152936
-9.656885317581471
-7.212518415226885
-4.15447876747098
-2.11450966356083
-1.315784221321849
-1.2192371492272176
-1.5322415031389858
-1.6588646720088356
-0.7759823356727269
1.467072091045148
4.826568328832715
8.103975994291606
10.17152843476465
10.923533349248729
10.494283650333083
9.34717092023795
8.287670517199992
7.995893110808896
8.594912575548696
9.9838183082775
12.144157121558216
14.883604340017351
17.673935914853075
20.133028957341693
22.502686511493792
24.73067216864225
26.314762879141607
26.95750771678924
26.42455477156943
24.824763300846218
22.77855911289382
20.48274620563793
17.442838215649463
13.591397348516477
9.63623009118305
6.155096502139103
3.6706884801963526
2.680527310606525
2.682679726403143
2.4108123231232077
0.7823381510139209
-2.1130777498472693
-4.839058921111715
-6.030452456757184
-5.213004210883721
-2.577855795902019
0.879861759497507
3.5122693040611477
4.474283884536566
4.197714964828627
3.5027116985988425
3.0354863953641367
2.7201221711170662
1.9675881899935406
0.04642395546874953
-3.8007240848908226
-9.162707403998706
-14.359618169774638
-18.086291193819743
-20.23209326918406
-20.918973684029247
-20.437629590288733
-19.336744076673252
-17.86002065567327
-15.90609793243967
-13.289417308732467
-10.177622026628049
-6.9111690220432225
-4.030093954921142
-1.5509338506234382
0.8646793813270277
2.8532804099975433
4.23383311672697
5.443141355427196
6.7011699834859115
7.595051409888996
7.426496500304783
5.9875552615873024
3.6771619843986563
1.3434636244450022
-0.22383709650210118
-0.9978936524872783
-1.388043611079616
-2.0594559333515337
-3.450328370207422
-5.090255548819405
-6.072662979438323
-5.695398085014855
-3.712919508056569
-0.39564908473594346
2.799826973403597
4.223823101144614
3.7264934294811836
2.438978193257999
1.7271682442884735
2.02361925577267
3.129080342349628
4.346297662925403
4.899153725732852
4.309103954027736
2.837461457959489
1.734245582896955
1.9026258369776579
3.4117985142028315
5.457227694831026
7.326829410776353
8.807801132062291
9.814642174360154
10.646869054401375
11.464909464489534
12.130274727575168
12.610119825432502
12.98329104200219
13.394340210158127
13.668892894803058
13.504765256816288
13.090020820157854
12.47946765629037
11.322650144344648
9.760009930492775
8.386484294534048
7.4270103758482025
6.753351721478785
6.203243639656149
5.737648613778241
4.96049507876613
3.2894269455538985
0.8750054847005839
-1.522316989741623
-3.346596963201011
-4.551953341611188
-5.568663345638675
-6.551202502441686
-6.982264335158047
-6.899184424514166
-6.97889331372876
-7.721547739038915
