AAD_Filtered_TADAS_FILE
AAD_BASELINE_CORRECTION: BASELINE REMOVED
AAD_FILTER_TYPE: BUTTERWORTH
AAD_FILTER_ORDER: 1
AAD_LOW_CUT_FREQUENCY_HZ: 0.025
AAD_HIGH_CUT_FREQUENCY_HZ: 40.0
EVENT_NAME: 202302060117
EVENT_ID: 13194
EVENT_DATE_YYYYMMDD: 2023/02/06
EVENT_TIME_HHMMSS: 01:17:32.00000
EVENT_LATITUDE_DEGREE: 37.288
EVENT_LONGITUDE_DEGREE: 37.043
EVENT_DEPTH_KM: 8.6
HYPOCENTER_REFERENCE: AFAD
MAGNITUDE_W: 7.7
MAGNITUDE_W_REFERENCE: AFAD
MAGNITUDE_L: 
MAGNITUDE_L_REFERENCE: 
FOCAL_MECHANISM: 
NETWORK: TK
STATION_CODE: 4630
STATION_NAME: 
STATION_LATITUDE_DEGREE: 37.344912
STATION_LONGITUDE_DEGREE: 36.806037
STATION_ELEVATION_M: 531.0
LOCATION: Kahramanmaras_Pazarck_Turkiye
SENSOR_DEPTH_M: 
VS30_M/S: 347
SITE_CLASSIFICATION_EC8: C
MORPHOLOGIC_CLASSIFICATION: 
EPICENTRAL_DISTANCE_KM: 21.89
EARTHQUAKE_BACKAZIMUTH_DEGREE: 
DATE_TIME_FIRST_SAMPLE_YYYYMMDD_HHMMSS: 2023/02/06 01:17:06.0526130
DATE_TIME_FIRST_SAMPLE_PRECISION: millisecond
SAMPLING_INTERVAL_S: 0.01
NDATA: 5370
DURATION_S: 
STREAM: HNN
UNITS: cm/s^2
INSTRUMENT: sensor = ACEBOX/SARA | digitizer = 
INSTRUMENT_ANALOG/DIGITAL: 
INSTRUMENTAL_FREQUENCY_HZ: 
INSTRUMENTAL_DAMPING: 
FULL_SCALE_G: 
N_BIT_DIGITAL_CONVERTER: 
PGA_CM/S^2: 178.562
TIME_PGA_S: 
BASELINE_CORRECTION: BASELINE REMOVED
FILTER_TYPE: BUTTERWORTH
FILTER_ORDER: 
LOW_CUT_FREQUENCY_HZ: 
HIGH_CUT_FREQUENCY_HZ: 
LATE/NORMAL_TRIGGERED: 
DATABASE_VERSION: 
HEADER_FORMAT: DYNA 1.2
DATA_TYPE: Acceleration
PROCESSING: Automatic Paolucci et al., 2011
DATA_TIMESTAMP_YYYYMMDD_HHMMSS: 
DATA_LICENSE: U (unknown license)
DATA_CITATION: Turkish Accelerometric Archive v 1.0 - Disaster And Emergency Management Presidency, Earthquake Department
DATA_CREATOR: AFAD
ORIGINAL_DATA_MEDIATOR_CITATION: : AFAD - Disaster And Emergency Management Presidency
ORIGINAL_DATA_MEDIATOR: AFAD PROCESS SERVICE
ORIGINAL_DATA_CREATOR_CITATION: AFAD PROCESS SERVICE
ORIGINAL_DATA_CREATOR: network: TK
USER1: GuestUser
USER2: 
USER3: 
USER4: 
[...]
-10.054288748127398
5.543534413655397
16.539854843216617
10.676764403171262
5.7950481080760685
4.992842479030637
6.964294522025738
4.919995302431209
-3.229242169336751
-0.7875678085259564
4.421271603963421
-0.9574844768016549
1.3069805423006906
14.406922258949727
17.4848063013453
8.602683180881954
2.3914946550818064
0.5586542573998569
-2.3231638981060456
-2.1794657521712826
-2.915335902117741
-9.504065630921982
-9.166156613344029
1.502586106595795
8.363335230636705
-3.4742066143453214
-26.590086618174794
-25.745405882602785
-0.8682244478851264
11.857672680376973
12.99820526802043
20.09392198750551
25.81156507036254
23.187725398732454
21.20119559297896
21.95734860205341
14.988077630950649
4.150983002816696
-0.10779814206173405
-2.1308561952117744
-8.728513318043042
-22.604906848548993
-36.023588668583955
-37.10733061960392
-28.613951145121124
-9.980709132271425
21.961315432042973
43.129055717210456
34.539980975760294
22.108950322723793
21.031118976660697
6.429809899992705
-18.39911532993086
-25.406606622885377
-18.484236167536828
-12.570778405507138
-8.498201863694748
-9.099338482947983
-21.974344507922403
-30.27974179780776
-10.399949413689983
17.331447014647882
42.406588993375514
78.39241383440721
88.61793498808456
50.46521200352744
6.877567765121879
-13.93822145953928
-5.959104505648502
30.21640604031084
59.56884188677886
53.48942550669367
26.54126649357105
-8.740408507022558
-50.51744025317954
-82.2629560186354
-96.75720101197572
-93.22368919426337
-70.76049927127956
-49.34238650337219
-26.026287292673896
9.300429725855327
17.95247613480685
2.636769172148945
15.352603286154253
33.75528522745684
15.026094936913104
-3.94105744275936
12.400667507359644
28.31643771511736
16.216392073113838
7.615243670154207
15.525830644974699
12.26844059427026
-4.425025500947485
-24.659764546988416
-45.941098798005456
-44.07577858693113
-12.920667889501098
10.948529506801414
13.762895275026379
18.629741426117285
22.833659662725033
0.8218635359524386
-32.9413916793949
-40.586940777237345
-12.834418501591538
32.04339704681864
58.06187405242501
48.91483950528681
31.080535392552978
14.991628237674233
-12.607026199654804
-38.342565680967624
-34.90482982251427
-1.6001893367906757
19.71519333011003
3.7532609040382505
-3.3534962825083476
16.817356142763487
22.46493046150206
24.374241881461035
47.64882964970064
60.59063622204726
46.539387069468454
13.594257997710612
-35.60379648865244
-82.47575154971086
-115.51935069409797
-135.8382429041225
-124.19404497546175
-74.17344685499422
-24.22763226472718
-11.51947628051626
-20.70869407377224
-13.163579321242976
12.858002256314013
43.23653117067887
74.76207769086115
91.89719663885187
78.62570858819272
36.88464325876295
2.820448660476134
15.14680196840452
34.86342255627063
23.773716303373913
17.03140362758714
27.955568504878617
44.34796252986202
59.31507548920371
54.03115536483237
44.471349437902816
55.86620314153985
57.48936936231
24.183048472398365
-8.84263423250081
-15.647169947797046
-24.65614396057781
-46.98220558460715
-57.65353981846155
-51.43867186948746
-31.2323536219404
3.572515739207294
35.87903916223043
51.38939097169996
54.28579604020545
45.508013639394
20.85440604907386
0.4721061567316902
10.29566364668122
29.786670772411227
24.93781652579962
8.374507662749942
8.461091304110399
9.507839919561448
-27.47509042775315
-84.74873111779317
-100.76748608478802
-69.88217125957944
-35.07060623951851
-1.835783849731201
48.90158145293931
86.38870222029887
61.63393128401006
-5.370400020764155
-56.82763090276732
-60.67575703363522
-26.42626667712677
-10.026003843873696
-27.758328555804727
-25.059923520865787
3.5498090083426086
14.419641266361904
9.461242946914771
16.767563911213998
26.60594200129555
11.968917440860046
-3.80632076769506
6.874614150813792
12.612675962621946
4.164570159018433
11.856668231066985
19.756567938696012
-1.7300580417743763
-27.93798265015891
-26.72231441253821
-13.24267260413048
-18.097595924328967
-24.477828005147327
12.511445578658767
70.96557778543138
84.18649415307699
49.06384673003597
10.894224580410578
-6.283058435892051
-20.854599739234928
-57.077258860004335
-90.83951051567777
-94.67770443724899
-71.06057153751046
-24.534454065352364
16.54363084117934
27.562968827737762
19.132532977282366
-7.292674818480415
-46.019325790060314
-59.76134097039279
-25.40548669877787
11.71903803768863
-1.1820752104878303
-17.048867870187884
0.9158560941266203
-6.018914519978858
-24.406818177590157
9.082184576273033
48.86869195382487
34.615217740866996
-11.950792104994372
-34.3249712269571
-9.498304112616458
15.299988034644992
8.70510492728634
-6.402069868994423
-21.650614990044648
-29.57822815353232
-29.536622017035047
-32.31350915506741
-8.236953581880318
50.581659351999704
90.49426705862538
75.55249437653936
34.68680224355303
23.69449385824723
33.262087580018665
19.11378809992607
-5.017845752527348
-17.867623106583963
-17.68849041617218
0.6153872260230171
20.576181529259156
27.164772774161133
16.638728522313507
-17.483321214754223
-51.60704733431805
-49.607473191273456
-22.627498276753318
-12.376705586549022
-11.334706787977046
8.984859232601023
7.224565068323199
-29.04619827978894
-33.226264652147435
-11.294308004818546
-0.9382582221370215
17.907040819132515
29.528838450397622
19.039957353514698
15.517891701949448
6.117480561188695
-17.89353811159019
-29.34890862655966
-23.372899869963316
-4.930999096418275
1.412459048007111
-11.203454819579605
5.822353776986608
19.719078220419213
-43.24053695606282
-114.81088514737853
-110.51228738168497
-60.4389765576462
-17.006786194026226
-9.204300048492618
-18.169461367214467
-12.306030328218633
-21.822902279441752
-31.897593345168772
10.53205308106147
51.05162377744447
45.22654342389934
29.107178564434108
2.129273458174112
-26.888271262931642
-30.274329951303226
-41.59668792483446
-75.07188722753469
-83.56821001418191
-44.71152896394906
7.690231204817826
31.124384886162982
28.237195990903217
26.92051698499442
24.563705221760294
6.787239125628951
-11.34098674566734
-20.194471541298235
-29.45214039649956
-24.85114132958607
-11.546894248808933
-17.797598577361285
-8.758673705048619
33.393262028263656
50.42860309797196
28.27617204727288
-6.068583436705654
-36.39244537555753
-38.611478924069836
-26.803670509783288
-21.8506979809655
-6.751132326633425
2.7287957812285093
0.7566800470952362
11.70353538920962
14.159310155178888
10.001605176902608
25.66173182259629
45.3815055762518
74.24462852977739
103.83781829716864
96.84116816495623
68.87996087173102
18.148141345482948
-60.80915264297041
-105.17174225112727
-109.9956599451979
-110.44507528372279
-80.11877153215411
-48.038521930911806
-78.25934481742169
-109.76844215318701
-72.50132129827156
-28.784348862994648
-33.65265595114861
-43.64098867603605
-14.79212591632867
38.45483408391134
65.29777915488464
43.043509443758516
-2.0558411396346656
-37.75250736533572
-45.03053808559415
-44.8119809712862
-39.813777854407334
9.256171861419833
50.767368883585945
32.093590172851144
-1.2271007161098757
-49.111346513397415
-107.66042880782712
-120.7276904983187
-97.68167510290985
-63.80066091428676
-15.82163448803734
30.84556414298735
51.84398909714208
32.804845591193654
-4.452756303450077
-21.537245764697172
-15.891368761672494
-7.865435309282633
-4.019842751600613
6.840321493170655
13.93934453508093
-8.193293532817995
-42.197333284610586
-55.99246627028643
-47.130140678451255
-21.73000513136118
20.306206273140926
73.2352662505949
120.71125266877999
149.09130402592194
148.9044490521543
130.60391054852758
124.91161116067035
116.98792994668045
73.77818896444657
15.343236478488619
-40.45216443210775
-84.4501809399165
-87.90474835945479
-66.6944452497118
-41.09758951588865
9.794890576453444
48.38157436767106
32.733644964745835
11.065996520194433
3.6431371075628265
-8.879746356984
-10.725155336904622
-7.936955522367949
-17.29609707632118
-23.966734935450006
-11.686594471527137
17.257123634507252
28.674084298467058
17.892320600582426
31.271064514945646
55.23910072443423
39.735296513097644
8.681510656077146
5.575998817066219
8.090988276325376
-6.612589819054891
-7.198519410530023
9.461500133322247
10.673296689998867
-12.162052807370282
-54.84534624307107
-71.96199845887791
-31.534814495995533
-4.112103106502212
-14.74553247855417
-3.136434297017245
20.543922606939923
22.761803787765718
18.87309296303417
13.855084896119145
5.4725840060460795
-3.788823663512409
-16.440829952665084
-31.30691529662796
-50.04914439674266
-56.34722535584183
-26.81255058234542
11.972080152726848
17.350314043012894
-12.116996467549143
-49.09227906603378
-64.162927643467
-58.88623099252408
-56.17474650165069
-51.962210357327194
-36.51807821537981
-21.550369671429852
-19.810944252072048
-34.29117317548241
-42.11293949485242
-20.854422676032563
7.437497348941368
28.87647402958408
60.61052040319118
90.45645144158931
89.08664217146772
62.88851016113706
46.59037866295651
54.14037577059786
58.586260207628904
46.48485681926337
44.545175472625466
71.65552086973844
110.71378092915542
122.37570476099668
94.83723378456257
56.388612547595244
28.08955446654276
19.881510323085163
21.288010602554014
15.699082364033652
21.788861487137446
33.30704791736762
34.084016050559825
47.28181487954672
62.484154836321125
64.6529637994237
67.4681215821376
58.90866387782297
40.556815564103985
31.75699175501828
27.572786038885745
24.84977699116355
23.26153267960285
11.062729648406517
-12.583193418447284
-29.713419935911446
-30.47264309835045
-22.89239970395718
-18.904106769388378
-27.12535467429561
-40.072194780181285
-40.29137484995052
-24.322954211394148
-9.787263905129857
-11.293886960069587
-9.413047609851002
3.9634501106849798
2.737568692549165
0.9099991753140482
28.681496175480486
50.717972438680846
28.142853552353824
-10.646050590764318
-36.087552495543584
-55.72772628074464
-70.4133882565611
-90.41908089906248
-126.91531511991226
-134.28731610148517
-82.87280050357234
-27.558287250370242
-16.334658928753854
-22.465221955973707
-1.8299284621897451
48.728389159184424
108.21140943586265
144.81160272595355
132.63652671077583
105.97518421470721
103.9939821340303
96.27931657757482
65.5761229725092
38.45129242793187
19.86027680649892
5.338358116840314
-4.486245140426722
-14.44501431952472
-14.779928597268885
4.028514665338331
25.659838220070462
33.741062384803534
35.381856786645336
43.24439780959725
55.17654121896701
64.3365153755184
64.85379842025652
41.33696898887479
-8.133854888290827
-55.3193014971615
-83.9720749258904
-104.1070604639072
-115.79499169093965
-120.37972241939559
-140.8458434408331
-170.77116306058517
-172.3742557945516
-149.43803594574445
-113.01883628098471
-34.08053033185732
72.89213728322953
146.37782948022598
167.9512165623078
150.42694694123554
105.18449824728448
58.57347434960132
33.3004945031673
22.90038406901783
16.13497601119296
5.590718171671164
-12.026072521447027
-7.589549557353887
18.062477794140808
16.117632092365078
11.658887153598467
38.071842929382115
46.37775921713405
40.259721546575015
68.29374723476947
113.71253875847277
143.17949045520427
150.63300967925326
146.28862984513978
134.65297099821902
99.59833140347861
38.05751984575572
-24.334949364480572
-54.79549286581621
-46.48236672456609
-23.569060089177476
-10.308074153747645
-26.845553109489547
-65.8102646690282
-88.57899555349249
-94.35028824048779
-99.80357856443756
-76.96971300707784
-12.087563126972464
46.271094337644705
54.71623995885197
24.410149344422358
-17.32984866084889
-49.94668345800548
-61.57950492743813
-73.66768556908707
-96.1081422036813
-91.41197993286345
-57.07105842138945
-28.133638110598625
-8.030901556752763
-3.6970506552986353
-20.960770730271747
-24.279425208110215
-4.151912805355945
8.442403870372406
10.862365523915406
27.98581968882257
59.43133008519216
68.80013593449233
49.68585254113412
33.87838648550905
14.804192157622156
-21.61630166183027
-43.179158883847684
-33.64638972872077
-25.03643686863501
-39.938070206351554
-44.55402932255814
1.1366841287792624
63.02128324847044
88.78023122715729
93.96031519660833
100.73219964864754
90.78325791469358
71.19601388309177
63.91342095066291
44.164657770214546
5.56623192310165
-8.654774488894944
-5.017787179194756
-18.19904342473319
-23.46030829137568
-0.273375620858999
31.337245415638762
54.37117324503632
49.48909431612737
28.772438748814068
27.505379374423587
19.83667465813929
-27.442522160615837
-91.73944073228016
-140.36062842951011
-147.48240063938235
-117.36098958673674
-89.330636334265
-76.92587863882162
-54.18169692939525
-5.012610744930716
32.01637501382237
15.281787204803877
-14.515906754663014
-3.7891152569214017
25.05924617667295
34.79387959461677
31.037399327341465
29.650553076252756
21.272161767884697
-16.432290761140965
-86.80593141900863
-160.68629968522032
-182.2075523992087
-120.49816112776541
-23.515788140555053
37.7772151934922
51.64168858018872
45.33827085643579
34.52970701177641
26.877728173819673
31.248668488613045
40.429127400600585
50.12684032961965
75.01375592330709
95.55863287223771
62.622959259674595
-19.60879499682968
-102.09649867835614
-159.35373326947771
-178.4759411599008
-148.47801271957886
-100.03980242825253
-69.82395937571204
-43.570687887665784
5.5377443429431406
60.86456977788353
75.60858919978418
47.52583672895012
25.644454440068852
32.3887539997307
54.72011840180688
70.69116797921203
64.41351933412172
42.197547714993895
9.410286925495098
-22.58401914558265
-28.21543977513862
-4.883138621292743
33.7888541139368
71.2663609866339
101.30346032097496
134.55120349959319
145.17914231373288
102.0199911608997
45.769692014515186
17.818067357039716
-13.277889273640588
-73.67557877758627
-116.92512810580479
-114.51936330792384
-115.92278145563674
-129.4929035977107
-102.27157179880409
-41.903574164196705
8.499131900119488
36.74132114724366
38.22050323761112
26.67333658947679
30.313581335364074
44.21688095886718
38.33507431557555
13.539162835103054
0.6901069362376924
-10.822774672871772
-46.06095393709189
-68.81784193360375
-50.56162067433563
-25.99869626555482
-27.85380383958087
-46.318432447532494
-53.665899752407206
-42.945024741446666
-28.016642388313112
-28.7779323142947
-53.71866380302348
-67.53222336191381
-41.58495305596365
-0.28146031261087934
41.960972117719905
91.75163668668064
137.88711047732312
157.55193274495832
136.21798341156932
88.21168081639829
31.779839684534036
-32.21166778523544
-82.01505071771521
-87.64812507896795
-57.08377868212534
-34.910841291257356
-51.03781426766446
-63.481637551504406
-33.489595813215125
-12.053209616157112
-29.00110738051591
-25.447866133444226
26.328592454145923
71.30014849545839
73.52337967358541
72.53542329739136
86.94078949707162
76.64767685625992
40.23182975655251
3.131719452876026
-26.524675316505927
-29.633289990408056
-24.74096193934199
-38.43450665287621
-29.872855651037764
2.2744557557559415
6.195123226065942
-9.751377523856066
-18.488650951618517
-26.053953632482926
-33.85467501595194
-33.40880641676832
-28.748634422152023
-31.238513132886222
-26.20346877690172
0.2895803102643229
15.670986827826246
0.8976768212095327
-7.0032436001075
23.163435755766162
65.70170749796137
71.20906505964746
36.039729377901516
-9.292784352035063
-48.466187106220474
-72.9536455392201
-85.44242472867181
-84.02373782489525
-43.89072587872552
17.940116048431904
57.658056717420095
89.7137946076945
125.56872629421699
127.12018669620925
96.98205345484395
69.35892881224225
35.51055381626981
-11.191850663856188
-45.26058116737633
-53.4217045146336
-36.139691479093486
-0.28930720255167336
32.06249759080941
44.8845591668814
39.575351546825594
24.491878283284485
13.121406821310819
9.579540790588332
12.88869347261283
32.42394570763658
44.148927397870665
20.1214155203567
0.2748924452327075
-2.9905627214697925
-29.223775510914205
-62.1408924512745
-75.91035764695162
-77.48019507916187
-75.35497300837613
-88.89546618346908
-90.33212128481124
-47.049772278409016
-26.989345380333905
-50.80438912986069
-36.229507878537376
13.79341973092561
36.369263463469956
35.20930115371977
36.42764683349005
48.1444242010582
58.62214548663846
50.6945246569839
32.47128061963605
12.334488072468519
-1.361653228626933
-1.1931498403567748
-3.143331079864025
-3.886961183304293
2.400778072523237
-9.012584543274674
-36.736197954243444
-56.44255849772538
-55.952000531173255
-33.60308495755913
-9.392366829758426
-5.16452170199233
-10.9343067860132
-8.275788200499171
-11.804684370579881
-42.01482204502343
-71.72097114131054
-60.36906131742801
-20.905252186029188
4.734279593421875
13.513927137037914
27.014637228539275
47.59707894870666
58.05117537448408
32.691554199114556
-2.337729859084653
10.847472166438681
36.939336469716224
28.684455607290143
30.57390810662618
51.5631919325472
46.92234127711155
30.39157410954835
37.25267527180663
46.36669941512633
28.173151957068995
3.5707750821231676
-15.650389792323654
-44.47300434622401
-56.09034147617168
-34.60306232468349
-15.157001632027495
2.621353240520601
40.793275163394526
74.68635748687934
61.778930528059334
0.7744454079767865
-48.767627879539816
-45.631100576737246
-33.583609925442516
-44.38664141564571
-38.84959104337642
-5.1079707737845
13.055731429964665
2.6462226395673256
-6.073757037177725
-3.614814019602262
-0.6616112547634685
8.269360724687882
18.203140641010854
9.295536841614723
-5.355038601702965
-10.85552460462424
-25.40406973223653
-44.99384140926295
-50.17476139916129
-56.09418689368242
-68.92879879974198
-55.812330004605506
-8.37747557591302
20.006728905348947
-11.428806374822631
-52.56064639072467
-42.63356876155936
-21.116043519643867
-40.47127490507634
-65.00035881089383
-57.87275785852906
-40.579102901872226
-37.633961764634684
-49.49078484865297
-54.142034680011456
-34.529420990228516
-8.39137823684763
4.136293176002878
13.429864055787428
37.384020262754085
53.67606244422834
29.280108377147464
-6.437476170888239
-16.36857584705463
-14.194620989795583
-10.49300185835104
-0.290419331987496
13.100804699790336
18.049961655662347
8.605460694915196
14.529604846054479
58.52401943547061
99.98429462871371
104.7273439407874
97.5447188145635
103.37379812727255
113.77327057489784
99.69177138090764
47.096539756114055
0.13268603148452768
-7.122001184733838
-13.701744467684087
-31.621043845173897
-18.339075480255012
