AAD_Filtered_TADAS_FILE
AAD_BASELINE_CORRECTION: BASELINE REMOVED
AAD_FILTER_TYPE: BUTTERWORTH
AAD_FILTER_ORDER: 1
AAD_LOW_CUT_FREQUENCY_HZ: 0.025
AAD_HIGH_CUT_FREQUENCY_HZ: 40.0
EVENT_NAME: 202302060117
EVENT_ID: 13194
EVENT_DATE_YYYYMMDD: 2023/02/06
EVENT_TIME_HHMMSS: 01:17:32.00000
EVENT_LATITUDE_DEGREE: 37.288
EVENT_LONGITUDE_DEGREE: 37.043
EVENT_DEPTH_KM: 8.6
HYPOCENTER_REFERENCE: AFAD
MAGNITUDE_W: 7.7
MAGNITUDE_W_REFERENCE: AFAD
MAGNITUDE_L: 
MAGNITUDE_L_REFERENCE: 
FOCAL_MECHANISM: 
NETWORK: TK
STATION_CODE: 4619
STATION_NAME: 
STATION_LATITUDE_DEGREE: 37.58702
STATION_LONGITUDE_DEGREE: 36.86616
STATION_ELEVATION_M: 633.0
LOCATION: Kahramanmaras_Pazarck_Turkiye
SENSOR_DEPTH_M: 
VS30_M/S: 545
SITE_CLASSIFICATION_EC8: B
MORPHOLOGIC_CLASSIFICATION: 
EPICENTRAL_DISTANCE_KM: 36.73
EARTHQUAKE_BACKAZIMUTH_DEGREE: 
DATE_TIME_FIRST_SAMPLE_YYYYMMDD_HHMMSS: 2023/02/06 01:17:08.5005960
DATE_TIME_FIRST_SAMPLE_PRECISION: millisecond
SAMPLING_INTERVAL_S: 0.01
NDATA: 2267
DURATION_S: 
STREAM: HNZ
UNITS: cm/s^2
INSTRUMENT: sensor = GMS+/GEOSIG | digitizer = 
INSTRUMENT_ANALOG/DIGITAL: 
INSTRUMENTAL_FREQUENCY_HZ: 
INSTRUMENTAL_DAMPING: 
FULL_SCALE_G: 
N_BIT_DIGITAL_CONVERTER: 
PGA_CM/S^2: 0.012
TIME_PGA_S: 
BASELINE_CORRECTION: BASELINE REMOVED
FILTER_TYPE: BUTTERWORTH
FILTER_ORDER: 
LOW_CUT_FREQUENCY_HZ: 
HIGH_CUT_FREQUENCY_HZ: 
LATE/NORMAL_TRIGGERED: 
DATABASE_VERSION: 
HEADER_FORMAT: DYNA 1.2
DATA_TYPE: Acceleration
PROCESSING: Automatic Paolucci et al., 2011
DATA_TIMESTAMP_YYYYMMDD_HHMMSS: 
DATA_LICENSE: U (unknown license)
DATA_CITATION: Turkish Accelerometric Archive v 1.0 - Disaster And Emergency Management Presidency, Earthquake Department
DATA_CREATOR: AFAD
ORIGINAL_DATA_MEDIATOR_CITATION: : AFAD - Disaster And Emergency Management Presidency
ORIGINAL_DATA_MEDIATOR: AFAD PROCESS SERVICE
ORIGINAL_DATA_CREATOR_CITATION: AFAD PROCESS SERVICE
ORIGINAL_DATA_CREATOR: network: TK
USER1: GuestUser
USER2: 
USER3: 
USER4: 
0.005589005654794195
-0.001078663050705603
-0.004543165493962019
0.0005602723982013571
0.00031470883626847897
0.0022023150650544525
-0.005032304602920325
-0.00016540933460585134
0.001670626742697665
0.0001453955509454236
-0.001822591983088101
-0.002580962688623446
0.003101246644271525
-0.0011677339954880464
-0.0005614079557647245
-0.0047868448337544025
0.003251297818520717
0.004250225316913866
-0.004105446209092407
-0.0020022546650295047
-0.00012843428048154426
0.003034246900372084
-0.00445930127087419
-0.0004426379617703133
-0.00013240514912005844
0.0008860434888272801
-0.0006137741402514324
-0.005923734353155579
0.0034523076940270875
0.001810799294368435
9.410577345397068e-05
-0.003931338627907101
0.0012597994322574952
0.002927568667490645
-0.002433495066338105
-0.0024447085536164676
-0.000865846624998539
0.006170893781714308
-0.00251650453008702
-0.003383122448819723
-0.0005833470526001893
0.002108776543763615
-0.0004411735233383054
-0.005608977021382795
0.0009515079882694111
0.0015314257153184573
0.0028002517532742834
-0.004121111973602606
-0.00020011668369033852
0.00427197165405086
0.00120393690770564
-0.0017447117184392173
-0.00513930311737468
0.0050243243556577855
0.001803424517989644
-0.004204400660541983
-0.004274733974592879
0.0038041181482728246
0.0034097742099989626
-0.00423537499306991
-0.0005336122502605577
0.001308235109872597
0.006442606074564438
-0.003432955813803671
-0.0031048471894732648
0.0033973502144143083
0.0024337431198745278
-0.00021749299374264637
-0.005530428246457373
0.004238414836951299
0.0033750848389419064
-0.0007006366571658074
-0.006071708537376132
0.0007885987171355547
0.0074866647443586525
-0.0020106633841956295
-0.002662710338204761
-0.0013457728795128856
0.0062167692868291165
0.0005934766253720686
-0.003209981182446034
-0.0006806041424805391
0.004304956977622376
0.0021508750156820694
-0.009494616890196777
0.002328054718450872
0.005323024298485964
0.0030036679612398124
-0.0042491539241095305
-0.003097924914827828
0.00749242272250996
-0.00026197224458773057
-0.00415556304872096
-0.002361793349979535
0.005745109706887256
0.0008251481145600692
-0.004708542016178198
-0.0014910818630260831
0.00432163514431613
0.004098683454228242
-0.0063777764320788275
-0.0016233294638444376
0.0026244023801364844
0.0049648049364687105
-0.004858432365379261
-0.004553553192332522
0.006274534985005114
0.0031042356499093042
-0.0015603898597250135
-0.005454794010251661
0.007118699908066039
0.002667331969050462
-0.0027168016920122028
-0.0011482407222088596
0.00040786158777973095
0.007257048976849433
-0.005648187772929715
-0.004753921605416223
0.0018564932307452353
0.004368465292353059
-0.0026012241396103637
-0.006104636543159663
0.005096414321959182
0.004091051021985633
-0.002069081712817951
-0.005985444489188565
0.0034657353314693357
0.0031580007870301357
-0.002571005324029435
-0.005921737263582114
-0.00048142050475980886
0.008705253176597965
-0.0028449490403569563
-0.004606000359462171
-0.00036867801398355736
0.006294756207933867
-0.0022030938485965877
-0.007673597760786041
0.004336154633052245
0.004880174055833988
0.0010649924643581221
-0.007773605673113598
0.0010502104125670092
0.005769347289448273
0.00022032368226221458
-0.00459981136414311
-0.0015493670127739987
0.009247395209410187
1.185840540554912e-05
-0.003521385022204083
-0.0019123671057638138
0.005307630426095538
0.0016234155193194835
-0.005715737828164861
-0.00020648550325954635
0.0013029888916807207
0.004842918785646593
-0.005786141778626215
-0.003894122113976941
0.004361805991724393
0.002896298201663191
-0.0030270016758987286
-0.004514367434524992
0.006832831569660347
0.000850813603060584
-0.00453430670810047
-0.004136839280159687
0.0039006584919349255
0.004703022410553912
-0.005708703951594784
-0.0035359247369987743
0.0034004738825599333
0.0061352323025101385
-0.007613636042832251
-0.004326857990071014
0.004984289725615125
0.0035682640948996058
-0.0008144221724146538
-0.004853215155557805
0.005637336845521267
0.0034238835071480496
-0.0034923227928120217
-0.0050612310182799975
0.0022149527412883537
0.003996043442654443
-0.0045606710367483245
-0.004901323377390521
0.0011615391929255712
0.0066968838915030665
-0.004755201904583962
-0.005385715912179826
-0.0005455596174109992
0.004635073414232753
0.0019895448204501113
-0.009797109118048406
0.0013136287517986804
0.005065268801060521
0.00040289635119739747
-0.005652249601183494
-0.0013844407759802814
0.0060488293187048745
-0.00029276223357489804
-0.004903985715406591
-0.002742743145533967
0.005961122166891852
-0.00043883053723055325
-0.0036487692273866022
-0.0016162855117060945
0.004407114818344417
0.0032931378619315247
-0.007511976295351402
-3.97878624689796e-05
0.002626012294410279
0.004791088865689056
-0.005530149763944116
-0.00536264386501581
0.006713127835521035
0.0027111887673575076
-0.001334228217732167
-0.0067192063082287075
0.0068114078458871965
0.004812669067243566
-0.0063297974669454336
-0.004175402201635199
0.0017920676177880905
0.006394634800557073
-0.0041901628911648146
-0.0034995838801405435
0.0012518535469030888
0.005885768890178156
-0.001971244848232571
-0.00541637658846974
0.0032062433960357846
0.0027329040345782578
0.0015958766815146218
-0.007822986682387668
0.00012013019945463382
0.005290095475432521
-0.0008785182383302371
-0.004793387687330562
-0.0020074877598884946
0.006965303756020482
-0.0015326218198387733
-0.005241195104843151
-0.0023630330863054555
0.006955147816232135
0.0006326574733902854
-0.006733745898992591
0.00016303858673976095
0.0015536032218955987
0.00456583599790689
-0.007949157091219962
-0.002154313912827875
0.007052147472917642
0.0023536103107934026
-0.003492411519065497
-0.005017216685981675
0.0073307641536784806
0.002601358714872307
-0.0038171275863747266
-0.005638373174975339
0.003138762612159585
0.003566047070618823
-0.00449729643920406
-0.002149611111488403
-0.0013788107085397992
0.006070079014704862
-0.003414243650397678
-0.0050486138828899785
0.002847652263344224
0.0039189367634039655
-0.00016209738492005052
-0.00631542469595644
0.002902858739442469
0.003302472634038368
0.0005442632508732162
-0.003736278980521302
0.0004089783425428244
0.0049616919773176294
-0.0010883572496626591
-0.0029073241524906275
-0.001975421528113292
0.0042170520099210585
-0.0009008765295193989
-0.002019155184676458
-0.001837902706941165
0.002973253043615703
0.004437981602653406
-0.006114595274635634
-0.0007337307442823721
0.002605765190369869
0.0018811284626015993
-0.005004097574401787
-0.002470641484870213
0.0023202283546457573
0.0010543015704375857
-6.790571230078661e-05
-0.00576729265511342
0.002631271851816941
0.0018810175352732108
-0.000485181936346426
-0.004962635023799471
-0.0013019090887916164
0.006048426090223381
-0.0031903704287254363
-0.002991294847900869
-0.0017141813184630677
0.005478025411083867
-0.00015129225216973206
-0.003949916200294199
-0.00024533464912849097
-0.0005612976604515759
0.0033230265412229547
-0.005321866749458983
-0.0016966921964823667
0.002341809431707612
0.002829698373742429
-0.002323334872114515
-0.004399429502064862
0.004308261212063269
0.0014372415633189673
-0.002004363418288808
-0.005147647562699051
0.00410452153448044
0.0025244671873047133
-0.0029482316861286716
-0.0015294346722981172
0.0010835304196068574
0.007001447825274986
-0.0036661147138252028
-0.0025432215239522774
0.0004187341952707523
0.0032221237114378218
-0.0007583017947035303
-0.0050025431806561315
0.0028495702533240714
0.0008093201486887361
0.0008651507998573711
-0.004063508199169671
0.0015880212877162295
0.002628673459742924
0.001309550297047641
-0.0007660032241379298
-0.005391348205934065
0.006183204776525245
-0.0003051070572918309
-0.0015115912961948302
-0.0006983555718222586
0.0012407956769588404
0.0031903565460527842
-0.004470323674616832
-0.00017177077975483946
-6.278716842755635e-06
0.0024567433414030312
-0.00036898384834788004
0.0002851935502033888
0.0021067909656878304
0.0015669158723561872
0.0010540655180837858
-0.004173420730822541
0.001434224526144424
0.00014650418632088823
0.0013885869430711626
-0.0019896202921779135
-0.0018343299046785298
0.0029892673914075764
0.0005292089478414857
0.0002116170306137798
-0.004329483571729028
0.0030844240393940745
0.0018540366345557605
-0.0022267669209979626
-0.0015182628956781836
0.0024356810825098313
0.0037500341016385285
-0.0030013707727416334
0.0016149858985010526
4.7259179864182375e-05
0.003391559942274386
-0.0010604491124593341
-0.00251699198413396
0.00332400955715187
-0.00024180419285852318
0.0011806528979608113
-0.003072472737691301
0.002428530805780166
-0.00017857424882118244
0.0003639751462819706
0.0008708936851999765
-0.004483282312681583
0.004520373050661811
0.00012632927228819568
-0.0011663939781172935
-0.002465064271123677
0.0011398317574513573
0.0022425407750277164
-0.003025647900237064
0.0006403873490557241
0.0007341484697964687
0.0012723053323703195
-0.0009639687598716456
0.0017429155785286094
-0.001793460845567543
0.0031446628892494743
0.001801900257736929
-0.004964905827826962
0.0031901416956210933
-0.0009645562140158408
0.0038938225156851295
-0.0013293403728051236
-0.0016086463950222537
0.005590369532508028
-4.342928402791006e-05
-0.0016843292171595488
-0.002217135915900516
0.003348757477791803
-0.0016453354283600117
-0.0010605883050448697
-0.0015515462141955387
0.0014450783478565392
0.004620626135862211
-0.0030793268428367347
-0.0017034812787089125
-0.002007642778702415
0.00500960355489395
-0.0013133124453841836
-0.003385199956715948
0.001398771606061642
0.00013853960397934182
0.0021503485149818227
-0.0027970010041906924
0.0016851290472340186
0.0003816060881413917
0.0002599095417747362
-0.0014422949442741936
-0.0015530340478463198
0.0022300337154188554
0.0001048138042486175
-0.00018669290822018655
-0.003172743795270998
0.0016841447180971506
-0.0003975290820298384
0.00046666866076605174
-0.0021296084811322944
0.001154579483957232
0.004379935307776079
-0.0049121453502022246
0.0013929876895792614
-0.0026003853689863412
0.0023751873537006182
0.0010152052988522402
-0.003977499290606949
0.0026854383815482353
0.0006619897694160839
0.0018855320731593925
-0.004226942091005551
0.0016347709255311212
0.00374433290693153
-0.0002767106404403627
-0.002541846219911893
-0.0019714881126651675
0.003425043864978427
-0.001679212199623694
0.0003328978676157153
-0.002846062880382603
0.0007361395672195581
0.0038109363539504055
-0.002856066501101403
-0.003377301778972395
-0.00036095162690394345
0.0028080923972091283
-0.0029246671051337053
-0.003529371356903955
-0.0006663234138505768
0.005716897470799411
-0.0006774883351602727
-0.003106002088604299
0.003230680200564951
0.00019670257777995971
0.0029142793681072414
-0.0053324177556351585
-0.0005376981056468532
0.0036869881810319555
-3.827722452417082e-05
-0.0024543914256620726
-0.004942200888410196
0.00495594623601937
-0.0002854749677724112
-0.0003626130760067812
0.0004611634295582767
0.0016085241631792434
0.0020010360429569066
-0.0036891017950854794
-0.00039449047930183824
-0.0006977211335069261
0.0035726747835422823
-0.0017421796296237203
-0.002366096373510017
0.0012876498637058999
0.0007977990551734613
0.0002613353862503638
-0.004168576063403872
0.0002490256694582761
-0.0008229214864140955
0.0016837473445512556
-0.0019460253189807167
-0.00029164543308410633
0.0033744912458344937
-0.0028085095178518272
0.0003424342439640778
-0.0026320019866377044
0.0010417955890427942
-4.524405104512713e-05
-0.0024309613758468802
-0.0014080795305496216
0.0012098293377246036
0.004382417691575764
-0.0023356692600868217
0.0006940453345112209
-0.0010444246741785099
0.0006258164837308641
0.000558644642524828
-0.0015634591528013908
0.0016751180742724412
0.0008079030244514541
0.0012470041590519347
-0.0025062034079897256
0.0011718647761723964
-0.0022687087944553075
-0.0001222032812068899
0.00054999468040901
-0.002927879479928782
0.0037459101073535053
-0.0006366232140894289
0.001593569740781586
-0.0011117057496592001
0.0014425706254475618
0.0024912684875912153
-0.0009873152306934063
0.0019599218682887836
-0.002678234472891053
0.0018417357715365867
-0.0006573034935309822
-0.000168571633198983
0.0007592000178018174
0.0008731756458200863
0.002576630402524996
-0.001234368998440986
0.00031437563746577004
-0.0008661762682206678
0.0014997157567297177
-0.0016658101235945346
0.0011238340638640492
-0.0016694736021617752
-0.0016170254794889614
0.003258359682880227
-0.0029509826393448644
0.0033491886455516216
0.00013738919293012754
0.002161852363100613
-0.001812162439919467
-0.003509243181110594
0.0014766417038215038
-0.003218055377048977
0.0025078520936755912
-0.0029570828928018747
0.0012010654791317704
0.0014347088469442762
0.00013659422462124644
0.002168429565575444
-0.002788389858767187
0.001893893911767322
-0.0006878107271797674
-0.00015696758316697434
-0.00258224091051367
0.0014004998727837762
0.0025073108952148654
-2.106823180449185e-05
0.0024399114268957166
-0.0003847326462368025
0.00164094985001958
-0.003311490166530193
0.0007822316121975784
0.0002659465720575377
0.0003317629740351227
-9.470620914834583e-05
-0.0028169832962023226
0.003864515341870923
-0.0018934780308555602
0.0010391667557876879
-0.002218125740758867
0.0008148505056626975
0.003973409411652986
-0.002540462317866461
0.000778107826535386
-0.0011074534818018185
0.0025973288898047567
-0.0012516722960848566
-0.00027113531628571586
0.0013858198946684174
0.00014770044984950217
0.0001894114070931401
-0.0017918309970421742
0.0013749017164011131
-0.00180611877143104
0.0027552178522898345
-0.001334391037222699
0.000356274981196509
0.003218740452733976
-0.00020338443783508565
0.0017334901656517016
-0.0035662260219407084
0.0012922777538687355
-6.354686639642442e-06
-0.00012961500259727675
-0.00026197357205523807
0.002353127829179834
0.002192833125956704
-0.004196428878917731
0.0018059718698609627
-7.55914046065131e-05
0.0032324930998619407
-0.0013960721714934398
-0.0023698098027738336
0.0012657347591213432
-0.0005860650396467405
0.002708093680862037
-0.0013245717980855155
0.0013176623236310864
-0.0014011398011115224
0.0013560587798149971
0.0009305105326895825
-0.0014024444225989301
0.0019429789286287498
4.1001590317083426e-05
0.001399602356215647
-0.0036052485585430674
0.0030629874231233576
0.0006444880947155936
-0.00106576556147326
0.002157549048648973
-0.0008587442023740451
0.00263678339417552
-0.0014981161707769113
0.0010004096315710592
-0.0014476952605355108
0.0019556392923728927
0.002375236454013753
-0.0031342035102353894
0.0004586695216996472
0.0007861819007730535
0.0025773635005301786
-0.00343394652575449
0.0008063215419736099
0.0017828261775899178
-8.923936700041034e-05
-0.0007043754183666084
-0.002740932764892346
0.0028079887823051885
0.00037097732463386047
0.002784565626129634
-0.002171737895101951
0.0007460988282634796
0.00337504554019781
-0.0022805043550959327
0.000208743560400531
-0.0018413011116688613
0.0033208818685033486
0.0004917506409017835
-0.0015976483093156928
-0.0003352076307976492
0.0005909675955546069
-7.7528336258338e-05
-0.0030682301518330474
0.0021830000812453143
9.496696670558994e-05
0.0009604818365581151
-0.0008531917796058413
-0.001104745851761157
-0.0007788388240512667
0.0012129789237525172
0.001765324201844946
-0.00478997120410771
0.0020812021875378996
0.00014940472797215357
-4.370100530668614e-05
-0.0017088665526696438
-0.00027043487262193826
0.003113253275354766
-0.0029254892100243116
0.0015243888889027299
-0.001721935477870671
0.0026763030454913304
0.0008255230410010175
-0.0017621938605333638
0.0013214196941732676
-0.002013312775688887
0.0036057251943658027
-0.0018074622229867939
-0.0012053099528300665
5.8708974807871245e-05
0.0013746137840471074
0.002661768045558821
-0.00113383570473637
0.00021073482451268867
-0.00027740900349871656
0.0023233051411196064
-0.003315393740812354
-0.0018120558865663443
-2.5089978092013675e-05
0.0016134052373710669
-7.329020577428954e-06
-0.005452577629247678
0.0016401065301124543
0.0001842838347501958
0.0020993454170442497
-0.0024064583300720693
0.0002828402524058318
0.0044011200891826375
-0.0008383367807549612
-0.0005236934637662871
-0.004209408783710768
0.003945130981708715
-0.0006033112567655699
-0.001815781079331415
0.0009608162037075588
-0.00045345273410563535
0.0018342085591292116
-0.0032519123165638073
0.0036529265557437678
0.0018963943422478158
0.0006294712793902985
-0.0012748982697659242
-0.0026544794602212066
0.0013842381027578587
0.0003069259495802301
0.000657951110008293
-0.003440531358716502
0.003746189275644956
0.0024336640003583716
-0.0004315857938554837
-0.00014937295987920232
-0.0004886342928834622
0.0018407593136538338
-0.0007194352130627273
0.0023477116715672586
-0.003136022856260714
0.0016189343002222722
0.0009605168599054353
-0.0016455495700690337
0.0008587907877938307
-0.0010051124752756024
0.00445189582019308
-0.002448267536389405
0.00028284602302127684
0.00046068421310540664
0.00036916527407874323
0.001003170470674199
-0.0018687757826214802
0.0027308924298570275
-0.0007905736935155817
0.0019818991316953197
-0.0017837460197349714
0.00013546034563572705
0.0005304227823734966
-0.0010436908698464884
0.0017188765865689777
-0.0008652035658408765
0.0037818054727113038
-0.00015769112424869296
0.0006701668706080406
-0.0021042155792241014
0.0012712462118828842
0.0013151771813009324
-0.0036084881633492876
0.0034106919823423875
-0.0001668910838279912
0.0022404218239540363
-0.0017323580930678575
-0.00029551258785829763
0.0001504143135899934
0.0005108733659241326
0.003461105555914998
-0.004316866004090801
0.0019998136266363925
0.0003501914751566026
0.0013843751572370422
7.149979688323533e-05
-4.469845821333804e-05
0.002169453870143282
-0.0007251338938784716
0.001336928648639355
-0.004025506557528977
0.002237244131069343
0.00022301900765603512
0.00046312374825562767
0.0011236197609912554
-0.00039006874789556994
0.0025355772287446844
-0.0018976028989013708
0.002517038738164528
-0.0030647713503541927
0.0005647430847178591
0.000677263922831213
0.0006184488835984255
0.0031940677796362033
-0.004001300592653944
0.0020183565388837287
-0.0016359610213624205
-0.0009496223848379209
-0.0007080593092548725
0.001522595079569957
0.000580738025428183
-0.0032523015303013046
0.0024269730999905742
