AAD_Filtered_TADAS_FILE
AAD_BASELINE_CORRECTION: BASELINE REMOVED
AAD_FILTER_TYPE: BUTTERWORTH
AAD_FILTER_ORDER: 1
AAD_LOW_CUT_FREQUENCY_HZ: 0.025
AAD_HIGH_CUT_FREQUENCY_HZ: 40.0
EVENT_NAME: 202302060117
EVENT_ID: 13194
EVENT_DATE_YYYYMMDD: 2023/02/06
EVENT_TIME_HHMMSS: 01:17:32.00000
EVENT_LATITUDE_DEGREE: 37.288
EVENT_LONGITUDE_DEGREE: 37.043
EVENT_DEPTH_KM: 8.6
HYPOCENTER_REFERENCE: AFAD
MAGNITUDE_W: 7.7
MAGNITUDE_W_REFERENCE: AFAD
MAGNITUDE_L: 
MAGNITUDE_L_REFERENCE: 
FOCAL_MECHANISM: 
NETWORK: TK
STATION_CODE: 0140
STATION_NAME: 
STATION_LATITUDE_DEGREE: 37.56261
STATION_LONGITUDE_DEGREE: 35.52924
STATION_ELEVATION_M: 322.0
LOCATION: Kahramanmaras_Pazarck_Turkiye
SENSOR_DEPTH_M: 
VS30_M/S: None
SITE_CLASSIFICATION_EC8: unknown
MORPHOLOGIC_CLASSIFICATION: 
EPICENTRAL_DISTANCE_KM: 137.11
EARTHQUAKE_BACKAZIMUTH_DEGREE: 
DATE_TIME_FIRST_SAMPLE_YYYYMMDD_HHMMSS: 2023/02/06 01:17:35.6704660
DATE_TIME_FIRST_SAMPLE_PRECISION: millisecond
SAMPLING_INTERVAL_S: 0.01
NDATA: 12501
DURATION_S: 
STREAM: HNE
UNITS: cm/s^2
INSTRUMENT: sensor = ACEBOX/SARA | digitizer = 
INSTRUMENT_ANALOG/DIGITAL: 
INSTRUMENTAL_FREQUENCY_HZ: 
INSTRUMENTAL_DAMPING: 
FULL_SCALE_G: 
N_BIT_DIGITAL_CONVERTER: 
PGA_CM/S^2: 25.879
TIME_PGA_S: 
BASELINE_CORRECTION: BASELINE REMOVED
FILTER_TYPE: BUTTERWORTH
FILTER_ORDER: 
LOW_CUT_FREQUENCY_HZ: 
HIGH_CUT_FREQUENCY_HZ: 
LATE/NORMAL_TRIGGERED: 
DATABASE_VERSION: 
HEADER_FORMAT: DYNA 1.2
DATA_TYPE: Acceleration
PROCESSING: Automatic Paolucci et al., 2011
DATA_TIMESTAMP_YYYYMMDD_HHMMSS: 
DATA_LICENSE: U (unknown license)
DATA_CITATION: Turkish Accelerometric Archive v 1.0 - Disaster And Emergency Management Presidency, Earthquake Department
DATA_CREATOR: AFAD
ORIGINAL_DATA_MEDIATOR_CITATION: : AFAD - Disaster And Emergency Management Presidency
ORIGINAL_DATA_MEDIATOR: AFAD PROCESS SERVICE
ORIGINAL_DATA_CREATOR_CITATION: AFAD PROCESS SERVICE
ORIGINAL_DATA_CREATOR: network: TK
USER1: GuestUser
USER2: 
USER3: 
USER4: 
[...]
13.353482708031917
12.32176680875952
11.444893046610524
10.555191511087978
8.989548258652327
6.5425792818357635
3.979469972364247
2.070491885203031
0.2910064183721175
-2.1429875018026356
-4.579776085692693
-5.920784432690099
-5.9427133061139745
-4.774941620120364
-2.620248910935824
-0.1442519977053879
1.9464581650746873
3.3972033925048524
3.943117139948237
3.2658902609576552
1.6496800243972563
-0.36515843257625935
-2.7020707606239247
-5.1891967526717195
-7.155642796364033
-8.177770005817456
-8.120561905011508
-7.103378728912198
-5.940180444395912
-4.94974982466674
-3.5734901174376286
-1.782840902475669
0.07780650970234217
1.418258098254353
1.6729645795130876
1.5080714209246118
1.4947010810818504
1.5243991152667142
2.0948444955746655
3.1643410749740912
3.8406723186021203
3.7279789032983723
3.104210528683844
2.8165915202429788
3.164787440221568
3.464451416680132
3.4175827811768014
3.0374095133013452
2.246223060468814
1.1614015850117059
-0.11751565350404423
-1.2812934579835153
-2.030198305493132
-2.6934566532550215
-3.7318146208162406
-5.130333045044952
-6.152810183691967
-5.933223527590557
-4.640880373333233
-3.1670648822478986
-2.0941060939572456
-1.280455957001591
-0.23652535582704562
0.842480797838585
1.3503632990104746
1.1417786744372833
0.31561579607238766
-0.7022272779881711
-1.4778706578034242
-2.231120951418856
-3.033475373808327
-3.67528689286694
-4.4035670426413756
-5.261965477798023
-5.5811392581480685
-4.63109875751373
-2.3363967598057886
0.6514329249066447
3.7457820431983246
6.4984134450667925
7.99941754090995
7.423632277774952
4.886647049949684
1.4229114788416348
-2.2469615315343963
-6.337635927530201
-10.484128621463253
-13.811724872425602
-16.153682566493824
-17.03353101011251
-15.81442767770665
-13.11088432938641
-9.996646079326533
-7.028633675902605
-4.45408719152671
-2.290946450880334
-0.20199165577723546
2.2080639767833627
4.687535435631056
6.571397859371205
7.862961901871366
9.05342301775883
10.051234874756224
10.424983924878456
10.355155359177216
10.204225359485086
9.606418425396217
8.201602691411798
6.548684220823117
5.368845000729453
4.998542245819619
5.561194386850862
6.509520302087243
6.700100152966398
5.534330985553632
3.579067536800917
1.8107272593846953
0.6341549573320838
0.25630774009398655
1.006503036205091
2.59944155620846
4.183269236126379
4.977417723733437
4.377297893932951
2.2513958660072477
-0.5094328016122117
-2.525540255100044
-3.293204287882053
-3.190932212958247
-2.4495916689959727
-0.9737485061117339
1.2672673892496624
3.8682603657365324
5.95519829259262
6.721192209765315
5.933044210838687
4.0297455964110425
1.8933868198535846
0.367149752967345
-0.33060070289448956
-0.7006599250714884
-1.455329905401839
-2.7991244641509403
-3.927786284845847
-4.095578456539957
-3.9555856960886118
-4.387738713335504
-5.054831659067721
-5.1481885350958745
-4.5986329688279435
-3.9823088650193306
-3.6983665554296916
-4.149313515449609
-5.766912071081647
-7.961325699602793
-9.599565874370466
-10.119039665348266
-9.31279047603853
-7.283209860998624
-4.409471196038704
-0.8453324655902222
3.623488615764945
9.006850705600998
14.4796803532125
18.983743763472937
21.683812466917818
21.91961866841966
19.907392981946447
16.546085142240937
12.61016940893555
8.323841455639176
3.4132685399993044
-1.883119946590021
-7.096664328109946
-12.251102330142324
-17.207005563055194
-21.29915099767668
-23.242143655138847
-22.466499605995338
-20.125130574329557
-16.96245218504712
-12.69548795215021
-7.255616946198945
-0.978540423002717
5.163691133261582
9.948818881430709
12.79559301763744
14.252665666286562
15.264282101180639
15.723404507665018
15.248084488041322
13.658802038634178
10.537910526939024
6.525364490222566
2.7317055783011335
-0.4331440896620224
-2.4051527188822277
-3.3422484353068294
-4.06135062140576
-4.4621433780787845
-5.127020932745562
-7.278054849903673
-10.298895474784008
-12.453718767451436
-12.560005077299405
-10.861573113861196
-7.6786924982697595
-2.388929117451784
3.758614026709957
9.420280763022586
14.74513533292061
18.16681486098958
18.61852666147842
16.131357142550975
11.036105215767426
6.12593348058162
2.6800095075335215
-0.30022065070885606
-2.7358745416108525
-4.589531974528349
-5.351505212396568
-4.748542450780188
-3.7100468324236306
-2.5186465115467125
-1.4653157554895548
-0.7750813434117333
-0.43528160415325556
-1.2997478022789715
-3.5625634485768622
-5.83615433796694
-6.802734597918163
-6.617793529507815
-6.200107441372517
-5.6982668650449275
-4.417758894676421
-1.9627327203394163
0.5640653534230031
1.720667481686152
1.8718780683430711
2.1594495276946586
2.759665357827773
3.4244852965305292
4.158214444506558
4.721667476640575
4.770624740719015
4.8130600385211615
5.611531488279796
7.285040432212448
9.765353636225521
12.455879104042172
14.249974621203878
14.773843794315388
14.057466886527576
12.201575895480984
9.721069874073063
6.856935866103314
3.802661944353216
1.193902837364762
-0.5321901027811378
-1.515547422233876
-2.2808782191746824
-3.105539818158968
-4.240008863212271
-6.091385182485348
-8.307398866717069
-10.421254162760707
-12.148592845816554
-12.429789618309611
-10.802663725393812
-8.16630778070027
-4.970899697301593
-1.1371398699478752
3.041486911866777
7.4469528923945605
11.71815581958644
14.893152697333797
16.644069895956225
17.12109073694669
16.305704513883263
14.179879983502442
11.015474884845348
7.6786976480842295
4.615066441463435
1.7694857961534485
-1.0224070286157847
-4.6070265556146275
-8.598088098517978
-11.75719967305292
-14.580137865065392
-17.233343269006582
-18.806571842995798
-19.04349227137929
-18.002326369444045
-15.931595289526662
-12.835913203979162
-8.706369090762342
-4.334860700166219
-0.21526522128856132
3.1777996338818757
5.589944741213207
8.309690043804723
11.904534990040345
15.195203979156194
17.23715651730382
17.773034215347515
16.731133869895338
13.784152942280128
9.505651161116878
5.447277873963751
1.7083996444094645
-2.1722767197661454
-6.304762842083545
-10.59777686178345
-13.334957839035681
-13.88559779595097
-13.59066406969173
-12.414068822004557
-10.576406388306903
-9.587680393594221
-9.963196432619947
-11.188669443606285
-12.584398975107803
-13.988287517523508
-14.979103703289864
-14.531444843666176
-13.02398515176573
-11.54852471055529
-10.155515003008983
-8.884528656503246
-8.023758169552336
-7.4371374423365
-6.880196722261419
-6.037203924801803
-4.659395471808453
-2.4745913444247494
0.8718851074392141
4.467899823051365
7.257319857361414
9.476353294479145
10.375265851805915
9.18920764021278
7.279861131047667
5.607954049026913
3.604649647244329
0.7456430834355982
-2.3649989983488373
-4.711100058538191
-6.498927330223532
-7.792261377348234
-7.561545080833707
-5.869816934312429
-3.815332108793912
-1.640704286692216
0.9894794220198935
3.7892971449662616
6.16750501164602
8.165309029285751
9.795103186517164
10.209757668279337
8.878161514423486
6.441342188842047
3.881245191203349
1.9434572993285018
0.7643917618507856
-0.11490603238556123
-1.0428117725398813
-2.4760109613152848
-4.616991010984988
-6.428410143206314
-6.735779614418145
-5.422382782791615
-3.2955965694944624
-1.5696782218076455
-0.9304377113212587
-1.4420112807791605
-2.9964007456633728
-4.870309376490605
-5.627137539846898
-4.374364631861141
-1.6013168044654547
1.738972249864798
4.775650808693542
6.821393072503565
8.415181088044074
10.372752356864478
12.187771133561947
13.396458580144548
14.144399396928561
14.313506798881177
14.037682580385429
13.582827416100802
12.787341759109987
11.553281393995146
10.018431762715867
8.349387821362642
6.363523429374689
3.6114932711117342
0.26331129701679
-2.9464127607686112
-5.412863317844642
-6.6990765042599785
-6.302459199723514
-4.2163054420440504
-1.792666324590655
-0.5018375606115205
-0.27959666970317026
-0.15036901535021172
0.7157180453209181
2.3727942697900573
4.221155647817561
5.948638756315052
7.491551749551211
8.720131659637612
9.61717172551299
10.252693559751437
10.523286528507928
9.928150001169447
8.331464505831697
6.100933825601935
3.0771694397074594
-0.906599425998828
-5.476373727393628
-10.018583450763847
-13.844201317583916
-16.933760503883448
-19.385137688487184
-21.045322621729394
-22.250585107856715
-22.508813739763013
-20.945483676164418
-18.01228620611145
-13.687327246769865
-7.277010140499607
0.3922751806897331
7.2017639777557605
11.620339885074104
14.160902208000318
16.366682861787723
18.457094639881163
19.51334363360612
19.126212462998723
17.48341877225717
14.812192925781993
11.792267427146234
9.038650072840142
6.043623022279209
2.4245829001647867
-1.3374495862634874
-5.00215436960974
-8.30136604324233
-10.419174360959069
-10.869351387656845
-9.980176512996856
-8.303670736586993
-6.1531465776725955
-3.847764031296685
-1.543361863322408
1.3013382334775045
5.223632449165644
9.726240279971826
13.486609478097021
15.273472285768099
15.154754896269726
14.608892853550948
14.478874192167044
13.99291261075632
12.180120716699063
8.927748323771658
5.021502536098353
1.314899567995177
-2.2756501229587442
-5.950565899042399
-8.823339511947296
-9.943510678201436
-9.757489210560815
-9.407857904054584
-9.580652687281859
-10.476489939575284
-11.647407464508266
-12.49931488826541
-13.26983702055381
-14.181143054447869
-14.581534278593764
-13.753317972286215
-11.462687299388488
-7.63167868066424
-2.4905169976071186
2.8186585627317955
6.744953041866819
8.35390512853708
7.763823926480869
6.0421988028937506
4.358704391401498
3.4598903686462834
3.2587470978371744
2.8320219765804695
1.541600000426645
-1.2655682821810328
-5.6385752959007736
-9.776820375214447
-12.639092643127213
-14.929142678342041
-17.37867272641057
-19.737239009853486
-20.101619014321606
-17.750418900076728
-14.146218129879395
-9.650726158722813
-4.22601160331789
1.3712475506254156
6.670692624415717
11.430624539286756
15.4664525232293
17.948653216938045
18.203941508232486
17.007447661963347
14.87784661472878
11.885467430956943
8.733186696778722
5.888185967520593
3.4801919209018575
1.647288072166365
-0.05578574682603836
-2.415131951692884
-5.5813961954056905
-8.853907960442623
-11.283949696961136
-12.592221075334868
-13.007532856633391
-12.08940302337252
-9.567873952463376
-6.494151323362333
-3.803751035881934
-1.6247105982309404
0.06291456953991727
1.2381553195604165
1.601815121364322
1.4732060031405991
1.9777324146220099
2.9422426569881095
3.4349502597547406
3.502476539689304
3.373942890277665
3.6000615143283854
4.705658230707849
6.073119011643832
6.975462570522116
6.601441640787623
4.505357059826821
1.5474993297563358
-1.3029835208924971
-3.2294719491716246
-3.988844971459305
-3.7519447782546926
-2.778833165607497
-2.4113154837351436
-2.80888479723101
-3.368752299562883
-4.901422470037114
-6.9241722222740485
-8.265090084983203
-8.589586491150405
-7.71594254112433
-6.503517235600731
-5.529203335806115
-4.773988659036976
-4.33149278786813
-3.488188413187463
-2.035991026107867
-0.2087784053207873
2.2887241353290513
5.188204526888853
8.036337717728886
10.395603183622093
11.44498194762658
10.940626496983077
8.98641715436776
5.287489843990651
0.025087253796632344
-6.04050018724428
-12.086565546352944
-16.555576551255463
-18.04676749875752
-16.899160260048962
-14.522430653286492
-12.588932006719565
-12.029489372102535
-11.963302180352317
-11.04650506052906
-9.12229076710147
-7.1107843718761385
-5.947636173206868
-5.490256794392758
-4.989477292557212
-4.3994463761249785
-4.222295476805899
-4.497073551771824
-4.624789460393325
-4.32211062524017
-4.211687487457928
-4.637191525720418
-4.772571171048759
-3.7532074760020446
-1.5238796520530995
1.5956080663253596
5.185775823800241
8.865955127734134
12.489521751172672
15.843729559831797
18.087959672543814
18.09872129861664
15.778299097996305
11.861545974639686
6.587468294611433
0.2720805882698264
-6.003849147555063
-11.137134544030388
-14.230115553196338
-14.8560440896222
-13.431941530429373
-10.76229177571638
-7.699164908488007
-4.9395046497024175
-2.7432648304144998
-0.9456993651880042
0.7195208883192625
2.342640839741611
3.829374025294627
4.908628601953978
5.5405918535326
6.0641699165450555
6.798396459733466
8.062308713298844
9.862229605149293
11.800951398554984
13.426249505664417
14.175283691597572
13.894255696542032
12.942797961904537
11.65207599397111
10.01478125081159
7.552087317585589
4.039490869501416
-0.45184892214980565
-5.429055267881131
-9.721155749172047
-13.450180606507885
-17.108957552377138
-19.165878864063938
-18.690420075684777
-16.832785454946247
-14.828397862162584
-13.25273195244142
-11.666635391609804
-9.031880114762313
-5.348833358837731
-1.358681028392926
2.920987499887934
7.890448210698413
13.53161497382484
19.178626634250914
23.561281888920906
25.841043933996634
26.0802315469337
24.76074841521011
22.452941902011766
19.116349888580512
14.718438436455198
9.574881526498192
3.336461245732429
-3.5491217060702303
-9.459370984800064
-13.845669570921293
-16.926256620865818
-18.98173400236675
-20.62553619797039
-21.878039689372553
-22.218583309561208
-21.33886414404787
-18.792456448058793
-13.96281521433429
-6.93593586668526
0.5948120143224708
6.36452700455498
9.614404702033593
11.078054862250474
12.380587476209135
14.492039073372366
16.158905553642118
16.08535574215194
13.982754328661084
10.154349143118298
6.129359446857576
2.8088711720943853
-0.2675493653766896
-3.897427836086693
-8.238541039994125
-11.664706980448706
-13.460630549991482
-14.295480641656184
-13.794029555564327
-12.265767983241524
-10.4434678366788
-7.836503656918736
-4.2532552352964235
-0.4082239129072401
2.9771452183230847
6.04210155431843
8.977407296811759
10.935832337826811
11.335493592734789
11.182434592077753
11.848318195615294
12.926398689012709
12.993636184085236
11.45420528840628
9.252580576936662
8.089137680234911
7.693819414751485
6.661934613374992
3.972675194711821
-0.9992774501549727
-6.024569329982214
-9.13238953078569
-11.401989872145359
-12.363933951704485
-10.746293690002641
-7.257906990577023
-3.6043982608509118
-1.4160194364690482
-0.17238646331927104
1.288626459617308
2.526119368762789
3.785468805936387
5.305112221736639
5.669330095600472
5.002110979602363
5.2369655040499925
6.281687924764509
6.412322884058886
4.579388607010076
0.9398025163284516
-3.3641054113250433
-7.869473736724206
-11.813972236804025
-13.752075547123399
-14.517458359867888
-14.996374478407544
-14.699132159235472
-13.961420708706429
-12.897665978470393
-12.02674895126926
-11.929922608772806
-11.490812508953162
-10.409090428960749
-9.198930613010363
-7.772508534704413
-6.1596569453469785
-4.311611830319179
-2.479274001092171
-0.5960312825279255
1.6000294392410375
2.698054715155619
1.627148374595452
-0.74518268251089
-3.4705824520717643
-6.0385427795563125
-8.028176946995982
-9.31119380761863
-10.059081436190334
-9.976754478447106
-8.280375747028751
-5.368853024219144
-2.4612627067928323
-0.14244554977602403
1.1953085545114865
1.5277418476666353
1.384679503896117
0.9593106177352136
0.08951786399770603
-1.1623637918429484
-2.3702167443576214
-3.3725792039823563
-4.101096491628942
-4.020523291603819
-3.0759060102666957
-1.5085022779998265
0.6748728591489591
2.784420820490445
3.8959467343258454
3.6319930623469703
2.1216419687496737
-0.04478831928557766
-2.1960381368022435
-3.761442340382416
-4.302169997343689
-3.2223913491014797
-0.43904841430442243
2.776860996983497
5.608577776140425
8.082286261010195
9.957680513411994
11.39523957948734
12.565508033626358
13.536694939408713
14.869927799063554
16.62921724534499
18.133813866244893
18.65303355518964
18.367515467428245
18.223514614832332
18.02675716062889
16.98949624963098
15.475880077840959
14.223261620278205
13.540095711299854
13.561436103574472
13.840787910684
13.344430487470126
11.617817038887331
8.9295815290308
5.658029938054826
2.1644776362340696
-1.212836185156714
-3.561491382477304
-4.0544274015047055
-3.0922982438584787
-0.9913216410084537
2.114229837097916
5.167638692260746
7.262313098079062
8.123024031477396
7.550901305991811
5.5935137172272285
2.6431332698833208
-0.6438569479007277
-3.6520663790691446
-5.976494140118074
-7.368513098726383
-8.113893128076825
-8.832772168367732
-9.397659255563408
-8.850946563044154
-6.922726393391575
-4.5354486203887365
-2.507015344870529
-1.2593439848474783
-1.0403420427195633
-1.5478008918173727
-2.409759760085359
-3.3685548357116875
-3.7899993738700655
-2.951085549814719
-0.6213142044875486
2.5179614214838373
5.172180577448285
6.501883655949694
6.652838052962703
6.220119951097198
5.396791680128566
4.376394373277963
3.8987917093842546
4.339975505257105
5.526136481499307
6.98523337556902
7.805131150553119
7.68638740771009
6.948035127503988
5.462984831814569
3.263776892339097
0.8265032281254935
-1.3957552632560295
-3.0144140009678453
-4.080382356666422
-4.965682092154589
-5.929473964977826
-7.092483224014532
-7.930818205498883
-7.545314328600601
-5.988595477424771
-3.9173719446276425
-1.79422059953588
-0.3040248848335433
0.21913429868398548
0.139130361164435
-0.058770931653141574
0.14656839197287308
0.34986226834724043
-0.8492939019448593
-4.297314093790025
-9.05426155839156
-12.572635370186857
-13.529663333841517
-12.090574959444472
-8.407685571209853
-3.8735841813500165
0.716133865735259
5.437569693148489
8.561610668038655
9.822291788140296
10.984486273149118
12.29893566951656
13.136064057421832
12.64076158810659
10.532255779038843
7.752473404836071
4.658646706154992
1.099303280488841
-2.4818598328522494
-5.2729838660510895
-7.108622599980107
-8.724834988824885
-10.42340898497452
-12.23548922947152
-14.350941817660397
-16.314511335085363
-17.53100908846891
-17.636882911141935
-16.177569384151706
-12.865957378155521
-7.846095053332084
-2.058709595248656
2.889070142482605
6.015851045659391
7.855884411868361
9.254686085991441
10.1545347776853
10.353718997333441
9.646107804354598
7.622335229686554
4.783964219889583
2.363928594362758
0.9279302632536087
0.022131197505218154
-1.0116575462060893
-2.07560365839813
-2.842007691050734
-3.3242721003704547
-3.037122391742658
-1.4223793598821184
1.04250154980963
3.5257725798299036
5.484519224076443
6.438318310331496
6.103239047561253
4.600980091329461
2.3397356470353707
-0.08284552350743539
-2.030559888681189
