AAD_Filtered_TADAS_FILE
AAD_BASELINE_CORRECTION: BASELINE REMOVED
AAD_FILTER_TYPE: BUTTERWORTH
AAD_FILTER_ORDER: 1
AAD_LOW_CUT_FREQUENCY_HZ: 0.025
AAD_HIGH_CUT_FREQUENCY_HZ: 40.0
EVENT_NAME: 202302060117
EVENT_ID: 13194
EVENT_DATE_YYYYMMDD: 2023/02/06
EVENT_TIME_HHMMSS: 01:17:32.00000
EVENT_LATITUDE_DEGREE: 37.288
EVENT_LONGITUDE_DEGREE: 37.043
EVENT_DEPTH_KM: 8.6
HYPOCENTER_REFERENCE: AFAD
MAGNITUDE_W: 7.7
MAGNITUDE_W_REFERENCE: AFAD
MAGNITUDE_L: 
MAGNITUDE_L_REFERENCE: 
FOCAL_MECHANISM: 
NETWORK: TK
STATION_CODE: 2704
STATION_NAME: 
STATION_LATITUDE_DEGREE: 37.00879
STATION_LONGITUDE_DEGREE: 37.80215
STATION_ELEVATION_M: 524.0
LOCATION: Kahramanmaras_Pazarck_Turkiye
SENSOR_DEPTH_M: 
VS30_M/S: 721
SITE_CLASSIFICATION_EC8: B
MORPHOLOGIC_CLASSIFICATION: 
EPICENTRAL_DISTANCE_KM: 74.10
EARTHQUAKE_BACKAZIMUTH_DEGREE: 
DATE_TIME_FIRST_SAMPLE_YYYYMMDD_HHMMSS: 2023/02/06 01:17:19.8531720
DATE_TIME_FIRST_SAMPLE_PRECISION: millisecond
SAMPLING_INTERVAL_S: 0.01
NDATA: 10501
DURATION_S: 
STREAM: HNE
UNITS: cm/s^2
INSTRUMENT: sensor = CMG-5T/GURALP | digitizer = 
INSTRUMENT_ANALOG/DIGITAL: 
INSTRUMENTAL_FREQUENCY_HZ: 
INSTRUMENTAL_DAMPING: 
FULL_SCALE_G: 
N_BIT_DIGITAL_CONVERTER: 
PGA_CM/S^2: 160.640
TIME_PGA_S: 
BASELINE_CORRECTION: BASELINE REMOVED
FILTER_TYPE: BUTTERWORTH
FILTER_ORDER: 
LOW_CUT_FREQUENCY_HZ: 
HIGH_CUT_FREQUENCY_HZ: 
LATE/NORMAL_TRIGGERED: 
DATABASE_VERSION: 
HEADER_FORMAT: DYNA 1.2
DATA_TYPE: Acceleration
PROCESSING: Automatic Paolucci et al., 2011
DATA_TIMESTAMP_YYYYMMDD_HHMMSS: 
DATA_LICENSE: U (unknown license)
DATA_CITATION: Turkish Accelerometric Archive v 1.0 - Disaster And Emergency Management Presidency, Earthquake Department
DATA_CREATOR: AFAD
ORIGINAL_DATA_MEDIATOR_CITATION: : AFAD - Disaster And Emergency Management Presidency
ORIGINAL_DATA_MEDIATOR: AFAD PROCESS SERVICE
ORIGINAL_DATA_CREATOR_CITATION: AFAD PROCESS SERVICE
ORIGINAL_DATA_CREATOR: network: TK
USER1: GuestUser
USER2: 
USER3: 
USER4: 
[...]
51.38344700824151
63.85788215984268
82.5206376992307
83.4191141986785
63.515397964262
23.428740887282547
-12.472552907335606
-22.583153218000653
-26.122228516011134
-49.36417310282581
-77.36021799601882
-65.91018562876481
-31.276977912713082
-23.78400261937802
-18.002263488798192
-5.629499569101788
2.0542194719094673
21.45227239112567
41.50228460970887
59.251321787486766
77.01888908841646
64.81342909980435
29.262838947579482
7.889968176683073
0.7825904613718511
5.955843667726169
11.599863444547017
4.673183295067163
8.130514631042887
31.015086597544837
51.19247467514802
55.2408562470719
38.38057994378061
19.441338805743843
15.698821168412955
7.046987613213775
-7.985989392424563
-21.54942958308624
-48.190122861834645
-85.10354831706998
-103.11031513470468
-89.36569235371327
-51.06825583772172
-19.881340687142185
-6.445758512358579
-2.738558257650328
3.0026094666644476
12.871167301022181
-0.4403250907924341
-15.104748743336545
-0.21778878980423722
9.56996825593654
3.838002146385898
6.522796617110654
-0.7790503080442163
-17.48430661528149
-15.682466370482397
-3.68215448404688
15.068917085167586
42.52725794624997
48.53971506169426
36.74413263277247
30.799922285158683
38.76860824316078
33.35184118287007
30.99503310798656
57.7672343042823
69.94262500665994
77.23402272181814
92.59290050958352
71.86530580360301
29.168132145136816
7.660897728042668
-4.842705027495289
-26.639181852335533
-35.23823633014983
-14.997391420357575
-17.09053806943411
-33.89111766029212
-13.021487760193828
31.835772395098815
69.58405049133795
83.418073049073
88.22711097987064
91.3835214776408
69.17934049305887
38.36642234630295
8.841606838390094
-22.896728283163473
-38.110953536251884
-42.25462883980017
-44.757517155159704
-40.53559904321631
-29.878200295201193
-11.030075260509536
7.092546094849631
10.242674281386735
14.199298681440537
32.611942579793464
44.19423984364269
45.75996455754526
51.00885517413601
40.93303456173765
21.73438438192035
16.354158137055848
12.473159890011111
11.155747929701834
29.402651148175334
40.65088052172946
32.403561948858815
29.2087932929948
29.66121621585637
17.98993513267995
-4.454123160094395
-25.958998791756247
-37.08148865821699
-35.75304461521154
-38.91807127966747
-44.63307935519836
-27.371174081018893
-0.041912159093495244
13.123802274060456
16.490581164975165
19.202054766270273
33.862441235242265
61.14414780454725
75.25022199304848
55.09792649458375
17.81977263138802
-17.763238728773636
-53.51530655812711
-69.29761874265445
-46.25664542553194
-24.329379161751515
-26.128130292682126
-25.413651574118216
-21.52832502059286
-26.729173614924882
-44.3937167912466
-44.68181249801279
-24.446457821582964
1.4634334379276852
23.137917220148363
26.782844259638757
47.16283276654512
64.17265161033687
50.33666910074094
23.379756607892737
3.6140760828357164
-5.078165213214597
-21.48795842185492
-29.789068688720608
-27.77039436634184
-20.12956320253616
-11.245526518215327
-11.330462849083219
-0.46405435045787075
11.08537722707096
-2.9594204794179375
-24.358162684453564
-28.065387723564623
-19.30952388809143
-10.794204122822507
-19.095584976581083
-44.289787567069304
-49.85466720063347
-54.72663557500645
-73.78983204073197
-66.80537378365943
-33.662469590721535
2.5563933390009437
24.781121280964452
29.027556198716724
32.98501343683555
41.5866190878784
24.397513037440667
-23.90186812367114
-40.272671770794375
-30.71981575958574
-49.02903700887227
-64.02333728879384
-70.88650162583203
-71.78640116207566
-53.75617974956494
-19.31490026400668
25.991733980175663
51.87873944582404
59.1713161070101
54.99814128694825
23.175259901430625
-15.15903569956431
-28.948348290401242
-16.33214128711473
-7.903714003712462
-9.875250064217873
4.937161354448994
14.283263675505596
17.510553075102194
26.79441554918264
39.87998144407604
58.08668485620657
65.029162654034
48.83565181437651
45.39275063800627
44.0402330350996
-4.528185602346655
-27.78509485623275
-14.617087375512282
-35.066533568615014
-46.34826590890519
-40.9398590430077
-42.7826106201055
-45.56658184873246
-47.10588992395995
-26.00280015201199
-21.202269653958297
-35.06221010701375
-32.90931228118952
-37.030129956187295
-39.06099084670929
-25.360513312726564
-22.61568417869245
-26.592714530950186
-10.921534424465067
16.994072750025715
26.173749853691817
11.158324907403447
-2.8807427777755086
-16.6479089660397
-38.63291868375453
-45.85429498591256
-53.15742710126863
-81.35233679726589
-101.96139255347558
-70.9820572143545
-17.121836624808584
-1.6308901422119362
10.320729771080533
36.56485545373388
61.89057735574202
93.73799031999572
123.86139646596541
143.14189908737046
141.17386815432863
118.69584431454238
86.06108261104139
38.64862568335457
-13.035122172096484
-41.054806908273484
-39.046444794179294
-31.464056391258797
-8.493113029901057
27.08983881923052
38.8343748627491
41.94048948706427
41.414574432807626
22.90990035255486
1.9418675198992457
-7.229465073927013
-4.029228445005149
-16.968526293859796
-41.61041140862216
-36.34477007379247
-31.268594836512978
-53.478919145693695
-72.75097121998107
-56.123753284573375
-3.363509492747448
23.43363036157381
18.008480940487566
29.602147236718874
44.265700004493375
35.377679130761166
-2.9887314380043835
-41.686551123662255
-62.189627311653766
-70.76067448414499
-67.74888366692791
-77.82080970213578
-62.752655998810056
3.640033321881213
34.32220591959827
19.44011239329415
30.968105327572232
62.952972003629874
68.50211149778684
45.84392853796248
30.664251946301565
33.44442596931509
25.94980147876318
-13.904363351848628
-41.78747271665581
-31.338725538507255
-16.426023948457225
-13.4500266835372
-2.0289719507615525
29.561703246525607
37.35074255824582
35.27913379293266
41.09118063647812
32.794646936991896
16.351704433522684
12.194127386662473
24.019527357351915
6.9378754724124585
-13.287765793390124
12.827943791433706
24.634340323159105
15.522092100193746
24.563874206783797
29.210308311251254
41.36449306889257
57.64743824072222
57.91262075921134
48.607528878217835
27.36706477392794
15.361667844566703
19.36036514105067
24.325351692957895
26.743633279316114
25.423467383645328
21.474863486262862
18.474759457084065
7.102047402135901
-17.110817483372
-24.84124645772496
-19.738792729227214
-14.217538624879928
3.3756863713386687
22.51904608446415
50.37768151429505
70.50816928861138
59.26135504117468
49.08124149537949
30.699796172242106
9.89622286211411
3.957705531953198
-1.18155401153933
-4.580196476856628
-31.001938574735245
-63.5361181610626
-68.2958887755475
-70.22162398779919
-73.37195034874054
-55.633986479181466
-20.99129397837641
-2.4315032593809978
-6.034230488204001
-0.9303774688009936
0.4191850886326722
-13.27231283179113
-33.454270287772104
-48.014120264942036
-49.77650649638313
-57.5140592553585
-87.00025949209834
-99.17600709922951
-55.679675725179365
-10.015326429401902
-3.5637399835824675
-1.2327107314082686
9.696277764331667
26.075864918966545
44.33475384198558
38.58288964413706
14.024675835239059
-11.00284152221104
-37.40315173524116
-54.37071767179281
-54.271334973927864
-49.74302613443843
-34.50328627481939
-12.550075351180261
-7.3539582397060705
-13.069053796790604
-9.883778366431471
2.967605494220177
26.36245439748656
39.76416814568479
37.09790468584673
30.817514882041024
17.80366513166684
6.390720108043629
2.267759261002587
-0.6811687500258938
-4.080471851536512
-7.9535435268190176
-12.633081758286135
-13.347063402093184
-24.336414749335464
-35.35811808781826
-25.929785720462743
-20.00813193196071
-23.564940723639708
-16.30869158574229
-18.863919510063027
-44.78855315596711
-52.250725584554594
-46.66911762360123
-54.98316081300866
-53.289455964289616
-42.569491880547496
-43.15745474952871
-46.385311251676384
-33.544521884331786
-6.966641896595894
14.046815281224767
37.71461024944481
70.22773242119995
86.71326272268632
91.27680310021867
99.72618842564414
82.97527267184628
45.030748675904626
7.193192603917402
-17.24406307213393
-12.016280705253234
-21.341822872977712
-27.919287210072234
-25.45027161559549
-27.63150983239968
3.686316967392868
27.822843229858037
35.635514308136464
43.17312698622649
23.92489211634867
13.621071546949182
18.85254225139621
-5.793801228140419
-22.68669716999152
-29.6211907648128
-69.84539154548393
-94.05531404472073
-83.31841231060775
-85.0347713907202
-75.9295194756353
-43.57892978824264
-32.43757762152754
-28.394211189079453
-9.649059640471554
6.0679656682020315
4.0005913900918255
-8.220058219926981
-9.299097497437241
-7.202247192289135
-7.98387861210391
-1.3384856692614415
1.1116395284677172
-9.999427683861434
-21.472128877140783
2.4842765856035944
44.07238625365644
56.115254311373825
43.61783604906577
20.810288334505284
7.0091042982974905
16.839137289584073
30.531964876581178
44.457433096966824
75.40041144692437
102.0532215472255
114.62513756326369
135.93993900153845
152.03109798492392
148.55476808398456
144.77441551265446
135.62546957226567
111.73113818621081
73.86160497725564
36.363197114316925
10.055420933027177
-30.75154342442666
-84.20034426266626
-110.44751490534354
-108.12040502458022
-100.08868485341479
-75.60993091346066
-31.775067299611866
-1.911348437727929
9.22440336353423
21.21423718567034
14.60934730108328
22.40272879181344
46.250089840037596
32.58324200890653
22.016097173437117
9.162084078617342
-27.22360872627747
-51.123442751994546
-51.701983749347235
-41.5435800914516
-24.29662588007593
-3.01210142452958
12.592231044458257
25.3349340703649
27.796178137236357
22.136809680245392
18.483052290161357
20.224540423483997
8.246630578798817
-12.02363379582463
-6.2205235657875635
14.62920039422725
33.170702748377394
27.76894047535511
-0.6557593648052458
-6.903980796089601
-2.598716083611284
-24.947906017552484
-40.37082613863226
-20.62855682477353
-22.156250361147997
-50.50642067085633
-58.56923792121893
-63.94588827513359
-64.82059318814545
-45.43981877853943
-10.018776419332154
29.542067916774364
51.04510455822402
60.12832094884204
49.664831920150725
15.923210717566743
-6.891555171890769
-11.190312220181985
-11.010085923883329
-17.354663018267672
-6.187785510216976
14.736461421554413
-0.9382719890250096
-34.60204085040297
-49.078290412253466
-21.414266378458905
16.400231240051234
12.823446747185542
5.190287577603894
20.82711695988913
41.38513186704861
48.40218820289454
40.76059377160868
43.83506428521195
46.33786490086471
39.96245339783963
32.98055303336741
19.843805371409033
-1.1818248092261188
-18.780381788806114
-22.67816578529885
-19.026903240070464
-21.0489688113676
-8.964663319728915
32.55827729197839
66.52197700405162
75.73821982386649
94.54513429833342
124.79295633405481
135.74062664144566
128.52824027698853
112.7701815413241
77.31002154048879
28.04712808720884
-6.520752717021267
-25.788380393008744
-45.10367943584856
-81.20397285980526
-121.05703215135135
-121.63594664534067
-92.91599371136898
-56.01266415200643
3.8829703941189373
74.03701227329164
123.24496645069253
144.53403655793736
145.8679533528097
120.19769740923574
78.73355726177726
64.22957595942363
67.77728901646108
43.67398805840212
6.603448144390986
-24.811193450292176
-67.66566800185444
-104.9550367801408
-109.88277182850328
-107.98003239867468
-128.148662770287
-127.89442059576663
-81.82088569052759
-32.29388033474553
5.79160864410103
50.983266725238614
84.76920974422845
79.33258755449764
65.13411061563903
54.29906137137543
25.415421207179584
-8.098158035572775
-26.998638520842892
-38.5032782071093
-71.90559128387318
-110.74518040534421
-106.14028611698951
-80.66070004488344
-48.300885238151096
-27.596213429633412
-41.37267858547498
-53.929694509185005
-57.319777250245735
-57.65371594077986
-35.1121505393847
-10.419125768042056
-10.572226937801982
12.163531430983607
51.60684183268553
72.2462414962659
75.58638202175078
68.54285601087805
64.71664831772577
54.48810189468477
36.05835981623061
14.526432419506085
-5.710577215400352
-14.932108972605771
-26.955336321515603
-34.50820046984068
-30.755623598658723
-31.98325112425888
-17.997840355031045
7.560134237072232
8.467451891513655
1.6017430093121685
-4.420612643271841
-8.834606599931268
-5.995647216053905
-23.94732533835969
-47.947893487884826
-64.52537028637752
-76.24827502934153
-79.45764180605404
-72.05111131245881
-56.00541607728813
-55.66329692262565
-48.811513138681626
-15.766560119284907
9.048987262831243
33.57081497659883
58.778427961680535
56.30801529322759
62.122498648253064
90.92151641924282
105.20500303536078
96.90071534028019
73.52310231565131
28.248837010189337
-24.61182891929789
-52.59754656075512
-63.81482648940212
-87.72727101284381
-108.12013326009699
-103.39381140194634
-97.5144354227493
-101.35743033138213
-76.7545873681155
-18.56129120800384
26.804900547364568
67.33637016772067
123.06239063589176
153.67981587708252
158.96794206478725
158.34771377056433
125.70379664919955
76.84971150523592
47.85164052518585
31.027204566406237
-5.963378012639134
-31.071178675847445
-13.108913636137592
-15.273616779777074
-34.72457064798692
-14.804199596848797
7.420965507594149
-20.840127903522937
-48.16316263999934
-28.394455205645084
-16.679120452247254
-22.686908398196376
-5.5392345471896665
-5.686114196241972
-18.38845669841368
-10.018085667592533
-2.8979802077184167
6.732900014193037
9.311590732134047
10.558513665577907
19.131832327963743
18.453522712538295
2.290369240831455
-19.064955810921834
-34.005920788793404
-40.9513762472059
-41.80982578406646
-31.888637762920524
-7.882808758736244
20.36378693252043
29.189812226866852
14.508284851467996
8.571124456715195
7.080692207766893
-4.517959831325606
-0.013898928820018835
10.947900669143346
-19.620820442597154
-67.59801419571599
-90.8446592440183
-109.79203000283945
-125.70271000542506
-96.40333037980272
-38.35287822862471
-6.560520659701373
7.588273508644715
7.314267330793151
-1.1538387239841543
1.4794599469061236
-3.0913244061590253
-21.093196576200512
-41.64095911386424
-50.9525241014233
-60.65558519308127
-62.46002874287825
-30.99549060326082
5.171492434773291
6.558960589487919
4.247157923193934
24.47486408150056
41.717443835467456
46.11990465559914
32.93393139812072
7.913509175787963
-8.383413638842729
-24.85278369099087
-40.37657038707541
-29.7466715644168
-16.76202776049552
-10.389795636966744
4.198924973974086
9.375519743041849
10.901636456737554
25.63993232859237
36.74049479201337
29.53956156993939
21.569829085880112
26.780654540701338
27.472271329241142
11.055896774090375
-2.162246142596016
1.4185013909600044
7.601958192240935
16.144158194802916
45.45279886017236
78.64764770337761
79.8910230720983
71.63110265701583
66.74053545193337
54.17681866396965
46.04029229570736
24.658215696754
1.5911036434832433
0.455374033036972
-10.511531338629924
-22.199920867715946
-12.235019172913965
-3.1758430748566115
-9.677868293907103
-20.168209171057732
-14.962737030441092
-0.8893105007562674
10.193683387803164
25.135901292528057
45.14062940532183
52.844790768485126
34.55061487133309
23.155786298132305
23.64008485333635
4.791944446087214
-6.353313292481149
10.206842109177305
15.522664763029406
2.524477455914888
2.612738715469912
9.602572841947506
1.3820695263725549
-12.292627155090464
-20.707013376771073
-12.537554885502267
15.835841519197666
24.192103672191397
9.636212580911854
8.115131514784744
9.529952654495506
-5.12187557881031
-28.257941159013374
-47.45544080045015
-62.71211674149796
-90.00686765476732
-111.16576628602476
-95.01857738024394
-41.96478846466089
5.646860640998992
17.506489413958164
27.06157685909044
46.52635255925375
49.815331963281366
35.190248307838026
27.656990278059816
29.957962122798612
22.09210213901011
10.049290279662376
3.0888439689922214
-7.481448171694009
-23.033131913469813
-32.28076330103826
-29.476501257370355
-30.15991793308384
-47.472255272494586
-59.72928054511174
-59.91407723787577
-72.81709119973938
-84.44066314604007
-79.94353909844527
-69.77295137105386
-48.792115275660585
-29.537723582614454
-21.505306370333702
6.401959344805497
42.52418986509566
63.130866173077386
79.22608741664287
89.54867830741787
82.8577833872557
48.116606945958424
17.19708641689211
-2.6482265853615217
-26.072291481089117
-30.354499677609663
-43.71894535429746
-57.670153056445976
-40.601129088194185
-34.65591162451491
-38.25679557291377
-31.744796460557403
-15.108475308235121
-6.634493072581257
-5.169919553607402
3.6516687484184573
-2.3044904868763707
-11.792360847952132
-19.405545768288423
-23.96915488751602
-17.005139568149932
-6.582723265085663
6.129248787088586
9.536647830542254
4.875243381635162
15.220904014797311
32.45131578055353
32.65100848447326
25.8429513616216
20.737682063014486
9.137967015023655
-4.366828529938802
-27.46662388761669
-52.428195065186415
-52.406113103129066
-45.27557029904642
-22.97702054479431
16.554323910875986
31.804181160920315
31.542544862409116
18.963878668746926
-4.790297263583015
-1.4808861557455273
23.422478669543178
28.701323377257815
28.77082574980083
40.208764033538785
48.16676969126673
39.15485432020027
17.11988363221492
0.6089156492797803
-14.329456974787513
-24.326316412555478
-16.303674535428772
-0.9413703473909153
17.82120533262353
30.891176242534662
25.49492515368761
20.59567227533419
11.443356613183463
-1.4737614870970543
-6.206866043069756
-25.654059473818336
-30.566599321897147
-8.66000105767311
-8.329184594547412
-17.522412928147975
-22.573409679797038
-23.329973977990967
-21.228788073506777
-25.255456006120415
-20.84132371994876
-18.633146839299624
-33.45031250712527
-36.072088794926415
-22.99090047903611
-19.3479651258681
-30.03730456767158
-50.05185537257858
-63.96118309607718
-65.42710695347205
-54.19335084286152
-45.20938579218824
-42.65334361090288
-32.67713811998937
-34.450874399877875
-33.93817173722474
-14.848883240679664
-4.64676729366596
3.9475068744367827
10.096488786818387
-5.348435437196491
-17.622421326879127
-22.60730583727496
-21.7948552790901
-0.7840375654825141
12.852404812643352
20.89220194943174
26.29602375097518
6.947307039932247
3.5090461483887965
35.737583111815795
67.14037089374271
83.51732302539
97.07727580745856
105.34275743137958
105.71810446630488
107.0407084796186
105.3643283514665
101.6423728999527
99.14223163311672
90.78589190601926
82.7761843809931
79.10419616491244
63.46083717640062
38.48970926273697
17.447621940861968
