AAD_Filtered_TADAS_FILE
AAD_BASELINE_CORRECTION: BASELINE REMOVED
AAD_FILTER_TYPE: BUTTERWORTH
AAD_FILTER_ORDER: 1
AAD_LOW_CUT_FREQUENCY_HZ: 0.025
AAD_HIGH_CUT_FREQUENCY_HZ: 40.0
EVENT_NAME: 202302060117
EVENT_ID: 13194
EVENT_DATE_YYYYMMDD: 2023/02/06
EVENT_TIME_HHMMSS: 01:17:32.00000
EVENT_LATITUDE_DEGREE: 37.288
EVENT_LONGITUDE_DEGREE: 37.043
EVENT_DEPTH_KM: 8.6
HYPOCENTER_REFERENCE: AFAD
MAGNITUDE_W: 7.7
MAGNITUDE_W_REFERENCE: AFAD
MAGNITUDE_L: 
MAGNITUDE_L_REFERENCE: 
FOCAL_MECHANISM: 
NETWORK: TK
STATION_CODE: 2101
STATION_NAME: 
STATION_LATITUDE_DEGREE: 37.93088
STATION_LONGITUDE_DEGREE: 40.20278
STATION_ELEVATION_M: 692.0
LOCATION: Kahramanmaras_Pazarck_Turkiye
SENSOR_DEPTH_M: 
VS30_M/S: 519
SITE_CLASSIFICATION_EC8: B
MORPHOLOGIC_CLASSIFICATION: 
EPICENTRAL_DISTANCE_KM: 287.35
EARTHQUAKE_BACKAZIMUTH_DEGREE: 
DATE_TIME_FIRST_SAMPLE_YYYYMMDD_HHMMSS: 2023/02/06 01:17:59.0282390
DATE_TIME_FIRST_SAMPLE_PRECISION: millisecond
SAMPLING_INTERVAL_S: 0.01
NDATA: 18251
DURATION_S: 
STREAM: HNN
UNITS: cm/s^2
INSTRUMENT: sensor = CMG-5T/GURALP | digitizer = 
INSTRUMENT_ANALOG/DIGITAL: 
INSTRUMENTAL_FREQUENCY_HZ: 
INSTRUMENTAL_DAMPING: 
FULL_SCALE_G: 
N_BIT_DIGITAL_CONVERTER: 
PGA_CM/S^2: 77.079
TIME_PGA_S: 
BASELINE_CORRECTION: BASELINE REMOVED
FILTER_TYPE: BUTTERWORTH
FILTER_ORDER: 
LOW_CUT_FREQUENCY_HZ: 
HIGH_CUT_FREQUENCY_HZ: 
LATE/NORMAL_TRIGGERED: 
DATABASE_VERSION: 
HEADER_FORMAT: DYNA 1.2
DATA_TYPE: Acceleration
PROCESSING: Automatic Paolucci et al., 2011
DATA_TIMESTAMP_YYYYMMDD_HHMMSS: 
DATA_LICENSE: U (unknown license)
DATA_CITATION: Turkish Accelerometric Archive v 1.0 - Disaster And Emergency Management Presidency, Earthquake Department
DATA_CREATOR: AFAD
ORIGINAL_DATA_MEDIATOR_CITATION: : AFAD - Disaster And Emergency Management Presidency
ORIGINAL_DATA_MEDIATOR: AFAD PROCESS SERVICE
ORIGINAL_DATA_CREATOR_CITATION: AFAD PROCESS SERVICE
ORIGINAL_DATA_CREATOR: network: TK
USER1: GuestUser
USER2: 
USER3: 
USER4: 
[...]
15.17507482894577
12.129063581878977
7.858719020184657
3.314175340341954
-0.9539938680704908
-4.547536971545383
-7.96432072061807
-12.388400598003717
-17.968417640967527
-23.028306326634286
-25.99171124519858
-27.042518737562723
-26.975360839221047
-25.367362941822318
-21.70976956084198
-16.905063116604385
-12.05285694028479
-7.429597154049575
-2.282866709828233
4.305549376133385
11.883380011106404
18.793463376654266
22.807466468393393
22.485071751998095
18.672321361391237
13.662823309778192
9.04003269987586
5.1656194707979335
1.9114939155786215
-0.6691504037086328
-2.488796546254172
-4.399285160743758
-7.2712021517514955
-11.007560349031612
-15.113849763584849
-19.634050257348882
-24.547671067204426
-29.58235936971926
-33.743251934996344
-35.459287381953146
-33.484235594996946
-28.24540981256554
-20.646800147437133
-12.012935327968298
-2.751978070420135
4.102404282074581
7.668241033641962
16.006319469967707
20.132934189378386
11.552887585555354
6.657514264010844
10.051476175586332
10.150326229216487
7.3542279461970494
7.544223202928988
7.751551209284896
7.202598968477957
9.72227334810993
14.384631557850616
18.615202388956163
22.167907046686395
24.317302633251177
24.174960604019994
22.560410426332584
21.011846359919318
19.584315639146233
17.473045072279085
15.06034619591512
13.572671493073331
13.199187307526357
12.956015241896646
12.259142646151934
11.209063629267193
10.315859353969891
10.21003799247907
10.669075849129836
10.890715149695883
11.263976266291092
12.454760743294933
14.69093782412258
18.019351217653774
21.042946875643473
21.574505307346566
18.680771196741972
12.789707565798535
5.233770869319828
-2.361214485235748
-9.330853734271235
-15.834062040094826
-21.324569837131744
-24.499598685519935
-24.30610537570553
-20.20306787177207
-12.63817815128714
-4.105648507315583
2.157352919014532
4.669320753135012
3.462233395133052
-0.6115509128929647
-6.230038737403334
-12.529813499784881
-18.68767189462419
-23.323936050248506
-24.949561604467267
-22.542653718168637
-16.259666743477343
-6.750063985150357
5.387085655827333
19.207149803550077
33.30360962432311
45.476017924760995
53.79720155937114
58.107061718352846
59.5458104111547
58.72871694921474
55.61770356048506
50.77506961259402
44.844475657572936
37.30360093507209
27.99911925501307
19.156509919728244
13.556821357604827
11.897148974288623
13.01097916311259
15.966723295924863
20.382049569057795
24.841146666366843
26.917468766997164
25.767786457907615
22.033750911076346
16.785347704525932
10.87362970352909
3.1994338420858273
-6.627692074288291
-17.035347741110876
-26.61703744529436
-34.288951199149984
-38.993802290204805
-39.76996340716508
-37.13767068448578
-33.49175106865788
-30.200928963609954
-26.321706060409205
-19.983905592893866
-10.223887242320261
1.7175018013937513
12.36893343472413
18.082838559422036
18.02216620047062
14.084994466563323
8.619285739675254
3.39302026169585
-0.7566995824947385
-4.148148008580281
-7.494404634882446
-10.827147477472723
-12.864868537281463
-12.300391664951741
-8.993862455747175
-3.256181313861623
3.8543138644533395
9.690907733606286
12.22523618405402
11.38592128076079
7.50909676920055
1.5531545686817434
-4.981467882439882
-10.895440385074982
-15.313804095174552
-18.38559589312614
-20.34291094692357
-20.718059054186632
-19.482213613942307
-15.949724862943793
-9.82295635309341
-3.750759658681839
-0.6216810181393123
-1.0588642154239403
-4.018555473341457
-7.691803272191299
-10.566903233982057
-12.361885723764898
-13.506447873914867
-13.14518611618315
-10.261764718066843
-5.802718805913969
-1.4966050661508756
1.199356471171317
1.8936210924690007
1.3261178087977716
-0.44511234022035184
-4.248932772643459
-9.834692846466877
-16.171608826847567
-23.58356433560048
-31.765716308026068
-37.78243491747748
-39.25926615879848
-37.08596974001905
-34.71974837637908
-35.55130986193225
-40.4596175032162
-47.12177683242189
-52.08785338965157
-53.78227365779988
-52.546991978408535
-48.49023275484359
-41.72694272407727
-34.3774503646835
-28.308504534138052
-23.504215040724745
-19.978234369636006
-18.082414627212806
-17.41401092025569
-16.822371400848407
-16.096452403962648
-15.567653824855848
-14.670402579802788
-12.674844440284428
-9.49484319411394
-5.534073442477088
-1.029478242507851
3.8177435185104667
8.075995089244966
10.293715290321153
9.566664525663457
6.743479539964393
3.6294441209907693
1.0710836537918733
-0.9539761181791379
-2.236618732269285
-2.1251184975894932
-0.1986609064937804
3.546307092522538
8.51808543148473
13.09129086966707
15.049358991614046
13.469964222810589
10.138328217159557
7.20863647552279
4.948908965395668
3.220308651024516
2.304036211675214
2.43793622167183
3.8223041171813796
6.2690035140791425
9.865954561057382
14.972295048067107
21.177101112142463
27.09328840336031
31.507356594029556
34.33108680806669
35.35935856056176
33.94805139989746
29.38169488558044
21.62217810609621
11.867138781491695
1.4941998470041995
-8.217143941630003
-15.738669195455701
-19.49373080535323
-19.020467229347105
-15.476901684928935
-10.317622600731514
-4.586824321876177
1.362016017855899
8.027113180271867
15.85944038130477
24.566908479342473
33.4956852252118
41.63661696229613
46.99199474750702
47.93111711715562
43.93498092457339
35.32158760547335
24.266307905490713
13.656824580097235
4.697272195141419
-2.0564900607342995
-5.539811970552794
-5.543933739255131
-3.1516167736457974
0.1035017844495163
3.946191662904629
9.210583139371698
15.575762974304576
21.214670427817417
24.139763410067154
23.08110769170532
17.865568619246922
10.249242628931642
3.3134116619133103
-0.25001241786341005
0.6743362326488984
4.5364550711693195
8.757894842310112
12.632825401920751
17.016611754375973
22.676603313128876
29.27191807762107
35.205515550251846
39.0987554011575
40.30215392274092
37.97787527537226
32.331354332475094
26.074408939469546
22.272713984992823
21.654735392039893
22.986000903553176
24.566854784513172
24.86443955564962
22.807918354591948
19.15643077814672
16.190440697256985
15.216165256372774
15.274213134813087
14.335349962089273
12.08608704490975
9.471632319689062
6.676791517710757
4.015061648052054
2.0693927785985036
-0.10298024048984197
-3.9216621406647376
-9.269264213951661
-14.979277673499688
-20.392432156517383
-25.386701903936228
-29.157235530388594
-30.534680929545004
-29.004857175574617
-24.994194828986462
-19.666646952017924
-14.699578955435987
-11.45339794448531
-10.273401760270566
-11.062888204244526
-13.729729341051854
-18.009727885176808
-23.121715899178643
-27.858476585908587
-31.325153521145356
-32.680116694803935
-31.044285062475286
-25.97104359043295
-17.963694235020178
-9.012738917805313
-1.715455453935737
2.2069059693684667
2.397466689993115
-0.47688353988684157
-5.468782078146525
-11.832396288700394
-18.377444575996094
-23.420742382870404
-25.709427426626124
-24.982597237383665
-21.930430256294258
-18.016574034767043
-14.120291442371272
-9.949130346334586
-5.839567142394274
-3.06002015557595
-2.4752919045787185
-3.731804788871797
-5.691964816418542
-7.63957021514045
-8.943850651367592
-8.779264300049423
-7.0139980834810025
-4.310172749908646
-1.3364069383946668
1.6872772553203799
4.6746003074955045
7.67428638812927
10.248763158082957
11.488006396029462
10.784869266444776
7.90331201229741
3.269893132617164
-1.8794341173838636
-6.20955835579937
-9.058820416749374
-10.951451721515657
-12.714787354068706
-14.125978941262671
-14.861190882411881
-15.42091786536926
-15.992861084788734
-15.521755674344783
-13.341270981240116
-9.774316427610483
-5.059878524481993
0.5423720509378627
6.804368081997838
13.83576465280927
21.545172727330144
29.178592540132414
35.42764115527076
38.880951703696894
38.96031831794094
36.620963282737726
33.339556420747236
29.922278615215387
26.776913936700442
24.18676156780624
22.223056611269048
20.241083667881554
17.53564498208375
14.100489963031466
10.198088340333513
5.85746442747164
1.0182409605148819
-4.154869587429793
-9.425385921818604
-14.792887450595774
-20.160713037000274
-24.345438433065492
-25.74170342714036
-23.46526664404161
-17.876905928001204
-10.227823895580734
-2.02804456419359
5.220491938771926
10.451386714423098
13.31383178701733
14.168943252140444
13.510543651232664
11.407211871461516
8.096485739337142
3.896046692976613
-1.3868749180212019
-7.7678478284068015
-14.66029107750364
-20.452672444048524
-23.42626556765883
-23.07828825416808
-20.464500634708145
-17.371429478056506
-15.15832785633094
-14.432064462659461
-14.498682129164054
-14.584218293999461
-14.987952440296741
-15.902096522186438
-16.81683347068952
-17.173511324906755
-16.417261204750556
-14.704349686242136
-12.997342594122173
-11.970749792124035
-12.131181887864049
-13.11298174069924
-13.129644042788101
-10.516348424574677
-5.490379097273187
0.2472577404415186
5.603673413312408
10.543297649793253
15.318011263697436
20.08433714504783
24.719849847100214
28.75295123601551
31.4117888024706
31.810043414546463
29.88582014455165
27.253839487668785
25.482667556787185
24.714760185592674
25.309483926799754
28.515296773090178
34.63329195097215
42.174701665465086
49.19290042908841
54.07916823536373
55.7108984453866
53.822595151032786
48.8542168519504
41.57148811127344
32.93923955668357
23.65022930698923
13.719352749603555
3.6528222157903096
-5.203972492560126
-12.244559786534138
-17.71691028087592
-21.552437089470178
-23.698013049432216
-24.787383000977442
-25.57338420975809
-26.399916666707533
-27.65568137355315
-29.52428788976
-31.592411143414346
-33.28756352715736
-33.84152348686152
-32.79880809103325
-30.534799564948976
-27.867461626590526
-25.44059442104146
-23.16141745402915
-20.712559225596742
-17.810678712433088
-14.10866952039258
-10.525730135059762
-8.298986033659359
-6.772294527571964
-4.379525620447866
-1.0460292530008244
1.9558985594759442
3.9914843931907957
5.238238754213159
5.7239248609474505
5.247699392648228
3.528826441237857
0.47783043672441167
-3.4624316663003505
-7.399121912102604
-10.152372444622307
-11.655621070628206
-12.954024157880562
-14.69249238126876
-16.746261302397286
-18.42724807041681
-18.910802119548734
-18.210647302198304
-17.152422940786977
-16.081699646139597
-15.121752388083168
-14.572879851419302
-14.094294076987639
-12.682730302271567
-10.336427080047443
-8.507692449726461
-8.355843855204233
-9.605851776631367
-11.309262292475537
-12.829004598565028
-13.60587761673998
-13.26616429947911
-12.66812402660782
-13.19407498952619
-14.663037896648543
-15.323798722535708
-13.653182681895746
-9.865717603550591
-5.603599228628372
-1.6358092318822592
1.8038317791257052
3.7990487070637813
4.492631628912307
4.512989726216468
3.793045675408433
2.564811373369487
1.2951834801425082
0.05104436095371003
-0.9531644772539593
-1.2757593308806023
-1.0558432981763768
-1.3732282241989338
-2.7425157013613397
-4.461522741912315
-5.149277725616779
-3.3505089626212703
0.3149923032435323
4.265081646886222
7.592619549547096
10.134344221734914
11.742339397632767
11.732781715831678
10.657684483633059
9.671390031900831
8.732253522656888
7.529034639501645
6.962374755814917
7.6306127680323765
8.310084427481337
8.091957210817146
7.89424061741157
8.899673350214975
11.122369939685406
13.847663983513648
16.755094904884945
19.722499864927915
22.084404682499624
23.769326783477837
25.64455983612811
27.556156457432564
28.333551022324418
27.27404777050717
24.82885225225855
22.3509613164296
20.409263211436677
18.496094598353977
15.974039913264367
12.292221159611497
7.229832986912048
1.4470742403047878
-3.832337129817614
-8.312107015461434
-12.558999960955896
-17.10516238977383
-22.261995614915104
-27.67926014339517
-32.339478404417434
-35.32362224536485
-36.48839991551184
-36.519903001306254
-36.0464582257228
-35.088229801167685
-33.88415214014809
-33.38020374198802
-34.03011701022314
-35.0138826945335
-35.98074326139974
-37.71135730573534
-40.14589232633567
-42.256678754471885
-44.22669171084917
-47.175322927557126
-50.71000949735542
-52.95612768738865
-52.629598044335374
-49.517335824006835
-43.77953260855786
-36.01651009191961
-27.00706466382998
-17.45499957136718
-8.526681852761387
-1.8879360360156126
1.4075607328114548
1.9011840087086098
1.305724543542483
1.0308061388584757
1.117223227575313
1.0644354298962477
1.053046740327088
1.5881231661987851
3.021387806089742
5.826462065177229
10.393384182350909
16.207794642552813
21.67919972175687
25.64244233154888
28.198020318217164
29.997053963726263
31.447670593384824
32.53596196696655
33.43696483816239
34.510581100530736
35.47054368538819
35.54385943775499
35.06335849201974
35.624032616403355
38.17047836623121
42.01053151102949
46.29576714490585
50.89099785268575
55.954692244832444
61.777926596194035
67.9352250952094
73.08584951635409
76.05346784426654
76.5392833061975
75.10389380696382
71.8509678494415
65.43571894179303
54.912266117998804
42.35053020685796
31.770617118948525
24.863569634658504
20.183237087622675
15.906050402407061
11.947204847703324
9.032727378809954
7.363660107599612
7.170928655414581
8.434053883002724
10.603933315077402
12.816484738916005
14.234645591158817
14.504722673131251
13.6836178697321
12.136320092728813
10.6263465773973
9.655132916177655
8.472228359431584
5.434983648810073
-0.1784106626577966
-7.340643674852938
-14.280986165925702
-19.68189645672505
-23.162992236268078
-24.691361797442674
-24.68161486756761
-24.64140520564704
-25.58894506263854
-27.08264839499502
-28.20651540380218
-28.50078413771962
-28.417368279815115
-28.800440589839116
-30.234136514546854
-32.60077476629281
-35.22434575141946
-37.42491225287756
-38.881305271313636
-40.09472959138725
-41.91539364922367
-43.88140714880071
-44.49436949838253
-43.49732950521934
-42.07167929702461
-40.39985855958647
-37.25088230047474
-32.406347897487315
-27.30294688579244
-23.099304816870955
-19.285020887744906
-14.767129228084658
-9.399934974384772
-3.7565734260272885
1.1673844569786014
3.973690713804925
4.028251412781039
2.0999500278556296
-0.3293676967608169
-2.3543652044507013
-4.165029921042279
-6.294636122694046
-9.12870991006381
-12.800406070971691
-16.894863731202292
-20.26426277677628
-21.675868815153063
-20.68859721987142
-18.063274374810433
-15.229800060812382
-12.416534153654226
-8.668440708112737
-4.3110612089684786
-0.9432269516328531
0.4861061495324591
0.37556116836920717
-0.28181375529550334
-0.7476227069908556
-1.0507565678930633
-1.7920093393400973
-2.8747689645286485
-3.284261642811035
-2.1255941609369358
0.489018490833767
3.1301915576702206
4.016273654168942
3.0591138383142003
1.4733605411108703
-0.15698420388516413
-2.0926188328930206
-4.442571093769427
-6.5167468088944
-7.697908801290481
-8.1544759513706
-8.07674182648277
-7.9266948560435235
-8.759278933391487
-10.257066741581138
-10.44752674365575
-8.407296628953773
-5.6571829599652705
-4.387195409963368
-4.987882449777036
-5.8717516569478345
-5.605457379638325
-4.083680967758579
-2.3632060459147692
-1.8809328572838049
-3.5871172552849884
-7.539875099844543
-11.57956811149342
-12.12672671418701
-8.171511979468908
-2.488580849934176
1.8185726885336464
4.407121186254208
7.016079803929342
11.057672856398186
16.68633062180941
22.9313860936722
27.922672690360944
30.16285788345091
29.32967923946744
25.510036646104563
19.693728994768758
13.753035122655609
8.834225911968362
5.5116974076971035
4.277483153703754
4.566961217770514
4.401304040815614
1.9423478050220078
-2.863285450318678
-8.165680199509914
-11.45518360147115
-11.050150603276935
-7.910685197897009
-5.919752348988251
-7.8327439784401385
-11.860226999287285
-14.871424096616305
-16.532721265458
-17.898679386792256
-19.03215217652106
-19.112856932565986
-17.335946764448842
-14.132257902521145
-11.306097088211633
-9.704330957750516
-7.991692732210055
-4.346135751694514
1.8365501337915688
9.640842954360705
17.391813796314604
23.64758256812555
26.96305124269144
26.516141079586898
24.09018895179707
22.23745331474352
21.10357133667592
19.64966050176857
17.70780370189576
15.610209353398723
14.185223596515774
13.335172222216302
10.676054911650075
5.007437015722613
-1.3544199917881925
-5.23199455395805
-5.399606023955119
-2.3598576596055736
2.3118430119027145
5.759316660923423
5.522150530029096
1.9876273048077853
-2.3463698889672036
-5.917896228168386
-9.019845822446559
-12.415606756983513
-15.641526929597271
-17.319394085328458
-18.064721693052455
-20.9611839646931
-27.353434443648663
-34.632194133562116
-39.96892521349932
-42.356245159686246
-41.44505928143497
-38.91133052821716
-38.403222769014995
-40.90435514991196
-43.665513479710896
-44.16646755618219
-41.856997767515516
-37.72389066588456
-34.318965916075115
-34.04578001276169
-36.08690132860374
-37.47425068752789
-36.630878896541134
-34.27069748841199
-32.153297324876874
-31.203830093576798
-30.526292019911562
-28.40427307382901
-24.06252121635688
-18.468509452135955
-13.553141486539197
-10.714241940190952
-9.692132922287856
-8.827823102518122
-7.158335619754674
-5.708025257010428
-5.694583626272437
-6.770063588273906
-7.47443501276296
-6.343933711753573
-3.632634903816349
-1.4507662399335182
-0.7572968647676542
0.16202921218890515
2.704403987662944
5.592727165007368
6.601040642020514
4.9733495349920345
2.682377654348738
2.0252766933399613
2.303214857007294
1.990732352535278
1.367473597048349
0.9403921209017758
0.22317383103471566
-0.5390415130412719
0.07884192312579026
2.364325411548333
4.912771354124469
6.511156362277852
7.515326186903435
9.230155787277043
11.4864633737009
12.57321461344248
12.033603286867807
10.480845579125484
7.842113975937798
4.768307847840152
3.297967056789015
4.213066197106897
6.266668973054519
8.333918135219918
10.380281857667178
12.558578206405608
14.820298436837481
17.1518265098823
19.39995675888879
20.522574135962053
19.035134641590982
15.28886243955447
11.137187527181585
6.755900137083161
0.7421598577587064
-6.073459997803079
-10.626983282687185
-11.456881844709969
-9.329027301550706
-5.732917540924444
-2.028854148291091
0.7736254072094496
2.032209778172132
2.5923193489170964
4.591770282137685
8.646753148507186
13.05030587742475
16.54108567765115
19.256142676016847
20.90195625519166
20.13923412366358
16.274599478422243
11.10387926644978
7.2499385060057815
4.758855973652145
2.21761453283449
