AAD_Filtered_TADAS_FILE
AAD_BASELINE_CORRECTION: BASELINE REMOVED
AAD_FILTER_TYPE: BUTTERWORTH
AAD_FILTER_ORDER: 1
AAD_LOW_CUT_FREQUENCY_HZ: 0.025
AAD_HIGH_CUT_FREQUENCY_HZ: 40.0
EVENT_NAME: 202302060117
EVENT_ID: 13194
EVENT_DATE_YYYYMMDD: 2023/02/06
EVENT_TIME_HHMMSS: 01:17:32.00000
EVENT_LATITUDE_DEGREE: 37.288
EVENT_LONGITUDE_DEGREE: 37.043
EVENT_DEPTH_KM: 8.6
HYPOCENTER_REFERENCE: AFAD
MAGNITUDE_W: 7.7
MAGNITUDE_W_REFERENCE: AFAD
MAGNITUDE_L: 
MAGNITUDE_L_REFERENCE: 
FOCAL_MECHANISM: 
NETWORK: TK
STATION_CODE: 8004
STATION_NAME: 
STATION_LATITUDE_DEGREE: 37.379888
STATION_LONGITUDE_DEGREE: 36.097633
STATION_ELEVATION_M: 819.0
LOCATION: Kahramanmaras_Pazarck_Turkiye
SENSOR_DEPTH_M: 
VS30_M/S: 426
SITE_CLASSIFICATION_EC8: B
MORPHOLOGIC_CLASSIFICATION: 
EPICENTRAL_DISTANCE_KM: 84.20
EARTHQUAKE_BACKAZIMUTH_DEGREE: 
DATE_TIME_FIRST_SAMPLE_YYYYMMDD_HHMMSS: 2023/02/06 01:17:24.0836510
DATE_TIME_FIRST_SAMPLE_PRECISION: millisecond
SAMPLING_INTERVAL_S: 0.01
NDATA: 11251
DURATION_S: 
STREAM: HNN
UNITS: cm/s^2
INSTRUMENT: sensor = ACEBOX/SARA | digitizer = 
INSTRUMENT_ANALOG/DIGITAL: 
INSTRUMENTAL_FREQUENCY_HZ: 
INSTRUMENTAL_DAMPING: 
FULL_SCALE_G: 
N_BIT_DIGITAL_CONVERTER: 
PGA_CM/S^2: 168.426
TIME_PGA_S: 
BASELINE_CORRECTION: BASELINE REMOVED
FILTER_TYPE: BUTTERWORTH
FILTER_ORDER: 
LOW_CUT_FREQUENCY_HZ: 
HIGH_CUT_FREQUENCY_HZ: 
LATE/NORMAL_TRIGGERED: 
DATABASE_VERSION: 
HEADER_FORMAT: DYNA 1.2
DATA_TYPE: Acceleration
PROCESSING: Automatic Paolucci et al., 2011
DATA_TIMESTAMP_YYYYMMDD_HHMMSS: 
DATA_LICENSE: U (unknown license)
DATA_CITATION: Turkish Accelerometric Archive v 1.0 - Disaster And Emergency Management Presidency, Earthquake Department
DATA_CREATOR: AFAD
ORIGINAL_DATA_MEDIATOR_CITATION: : AFAD - Disaster And Emergency Management Presidency
ORIGINAL_DATA_MEDIATOR: AFAD PROCESS SERVICE
ORIGINAL_DATA_CREATOR_CITATION: AFAD PROCESS SERVICE
ORIGINAL_DATA_CREATOR: network: TK
USER1: GuestUser
USER2: 
USER3: 
USER4: 
[...]
-33.0165622442434
-20.879893204161064
1.481708527028739
24.231860288315133
34.287710979085155
36.69085208743139
31.027609351824058
10.009141357545824
-20.11299404410489
-48.75531971357712
-70.91683333075888
-82.88293629421064
-88.75331584041541
-92.05708897291017
-90.33183685398792
-90.09628753254863
-85.72635248004858
-75.25348393283761
-76.89876222313116
-71.91647581207724
-50.730856899590364
-41.78928996840343
-28.962198302744223
0.8659981682354307
22.58832173866284
35.827934444526285
44.310975571879446
42.099649981705745
40.39559147301274
51.19129345746043
65.11533140884124
72.93260467226112
79.5647079926125
81.24935589043547
82.89142596249076
86.51945303637704
72.04050669434488
52.7923749410255
45.670458934541124
36.52582208967753
29.178664797528953
29.17283438612098
29.488581228065442
32.401093172469594
40.226149950481656
44.5920592913468
39.34705249641557
31.140303938404138
17.59031364467375
-2.510630203397181
-16.570062391488264
-21.542782443168125
-16.433443641537746
-7.387847465360683
-2.87552873355914
-2.3732851964615698
-11.11662860467456
-17.069046247455315
-12.431950049221223
-11.069382417807308
-6.70565679393559
4.479086830911942
16.718129676979057
28.238064568335233
28.494416945809412
21.19079673101093
13.99090373633007
4.090035481691429
-0.36245078353328003
4.115410886783911
11.759732334334673
19.882655152280684
19.154542162175204
5.922787873298584
-13.804636918393802
-38.94517217708096
-58.159793279877256
-66.89710170184486
-72.78121572110793
-64.0772601847515
-51.70324072450187
-49.703091702617066
-33.70254292874688
-7.64439796382292
16.491791713438033
38.722568046901095
44.45582444575762
39.37336401464446
19.13981092807358
-19.997164001373584
-48.68358662574696
-64.05504439501952
-70.32553347401128
-59.19502321889273
-43.295001621938624
-34.94500995219826
-34.611147634907
-38.89067247365363
-39.46158176646313
-34.564891794110935
-29.73626782892769
-19.578757040908133
-11.32554821151337
-22.561450408965204
-31.990221153350177
-30.90729381967831
-34.48653076120158
-30.27064543430675
-16.559031048703602
3.7003827446086905
25.13293976949772
34.023583133531844
45.64197724475698
54.409864647899724
50.51863832535883
53.12063616800786
53.148200497591816
47.70315986376725
47.22715497421884
42.37529770920636
33.00705671889706
19.12312981631439
-4.294812652417659
-30.372328508354553
-48.84263133449611
-62.68279845313925
-76.86950561857772
-79.01390451202721
-65.36144001876244
-44.518584079916785
-24.183322046743765
-3.9751260529887946
22.822553125084642
38.59022716990462
41.24055517577454
49.381845825461355
56.48164450868412
61.16109115638256
57.02514664905773
41.097824449997404
22.524503896261837
-4.60722952635047
-22.714295975681917
-36.872709278480144
-56.734431685727465
-41.38908231601966
-13.504392692586665
-2.8774482442803753
17.630703075598998
33.38976813868652
38.83512921205988
55.42359197767586
72.74127542371332
74.7121699347011
63.94626286820235
52.49637870947287
33.965028358985315
6.48874995874387
-20.68911648635582
-43.38784321331974
-44.94580782146964
-41.83371654352846
-45.59277922511153
-28.76043324728235
-9.818217824194326
-3.180168589255208
-0.2889641644109905
-13.329004968757928
-30.13280979690592
-45.15806272907484
-53.83326710649027
-36.13459398097461
-16.08089753682146
-3.8301215214617637
18.880429013494208
39.62215335386355
51.29067307312725
53.270747477511684
38.5705136658327
17.209581129871797
-1.2993341371920877
-13.344595935749956
-17.364645661892776
-21.59659788843068
-31.964160000741636
-47.38334686493736
-58.81502887392815
-60.01746927589787
-62.03910048367471
-63.36160659133368
-52.11600035633594
-39.49178962782466
-32.19044153287774
-22.778472889728658
-13.32823670870961
-5.825805426757075
0.7194446073786838
7.730298475444952
14.020089622132287
9.41220518736326
-5.232394598083644
-16.111276318782632
-18.42418421409577
-15.578799451998691
-9.970507338661186
-1.0597678513615851
11.545385207932503
26.016952110170624
40.529119333801965
52.461499598808174
57.12174144447254
54.44023911128097
54.54778072247146
61.852642814216644
64.60911792572648
54.817234625376415
37.74453836548114
18.9945243949343
-1.2667782357477606
-18.05591955867761
-18.823364078753965
0.16959539067278853
30.50348875569268
57.65891132664939
70.17708249395979
72.34513696824057
65.7780690864342
49.031459648283644
34.968533066832556
26.079233409983587
20.090480335301528
24.03653438247036
30.857997159905807
31.056503171628496
21.356937162376862
-0.4394457577492228
-28.965345985002056
-62.03274798220475
-94.79701426333705
-116.42182838599537
-117.72678349532438
-99.81123190093324
-79.09598623679722
-51.06503843376713
-16.540220803239787
-0.9392007027022975
7.408136363619358
14.557481058225399
8.954131086444397
5.367972598202712
0.23563722404186555
-9.599178819792806
-20.061620235775507
-34.09602839527383
-42.01929945753186
-63.807846323172704
-93.05709652171033
-90.4720577892917
-78.65473574444964
-63.52658838486453
-24.582740147470535
17.37700169286754
51.22218210164385
75.31251341474788
83.4933994743507
78.16069644891786
60.99702420278615
38.84526702453501
14.955463132218984
-7.436779770696483
-19.0559869297151
-20.038632901097507
-16.3928925422512
-14.042251849281522
-13.844415918679791
-12.412602668154753
-8.13927933325651
0.21052005259883494
10.022799981357942
20.96522671354105
37.070862104076696
55.35210262485204
71.7091267341099
86.80370872814372
94.22930515240019
83.96910434466467
59.549078205962914
32.982138471283285
11.643542183593372
-4.489219987305829
-17.761029113478724
-26.841603991418836
-29.06521780526095
-21.33037724769396
-11.319723806895702
-9.50799158075997
-9.797729229723085
-10.947153061936811
-11.05868227673246
-9.12081202980773
-12.54032739272257
-7.354818521298762
-2.8830507312859166
-11.76169743473266
-4.219276874483681
5.21858888587548
-2.6560945272834102
-6.999307673585649
-10.657855466338106
-9.697239353992167
-7.8704828859292375
-16.675139546014254
-19.68108089245641
-29.154086166521953
-50.61372708458964
-63.67069238565539
-75.65788853349511
-84.86390330474096
-84.44769078836939
-83.6940667549804
-82.0899509474123
-77.98422170268395
-69.63970242602402
-55.28350806200179
-39.82446406519664
-25.142948948140464
-12.373399070957326
-2.710184293982551
2.254823920229323
-2.0025802988808103
-15.012856429006213
-30.260446386961995
-41.40433025211918
-45.380859406279995
-40.48143941933478
-27.913060344693417
-14.727515049031455
-5.620667845999218
0.11506776653119259
4.670050057602683
9.68260935820896
12.792412850733482
12.554337112133897
12.668006603264848
17.337593750607223
24.700887113930865
27.21344741143737
24.592493177401877
18.81176882909864
6.441294108741212
-6.673636495192049
-11.98136686829667
-9.471797727300043
-1.2205539962121466
7.432153356755097
9.648587158481376
0.8913321015335294
-18.54842167512363
-42.23636618554373
-61.81543726066372
-67.45697677000376
-56.749044614926895
-37.768310682603264
-17.502856708774097
-2.8489365110005447
0.48556785033700606
-5.274526527136113
-14.778103393789785
-22.609218648866815
-23.24695723194152
-17.04764175890206
-8.192671406338809
2.914896552988961
14.082737188385872
24.698278209009004
39.875712682836046
54.97567191954356
64.9639751852657
72.33150876916672
71.59887922648232
65.11572534075776
62.526673596443274
58.86512276002159
52.75660159644397
47.85826055228107
42.13885084852674
41.01089220198402
45.20250946663539
46.410771389129685
47.92569799350766
55.82757112577229
62.92133305255397
58.54927113487426
43.44573147512234
23.713262398965043
2.790612963046302
-11.66501209434042
-16.1817773761699
-18.819124683347596
-23.360533346263523
-23.267772459541458
-12.509969070047752
5.123760155891144
21.788569733193995
36.7985732496076
52.3692321730834
65.7078697395682
72.29657017481523
71.69803811161431
64.49626863156172
50.63935648117346
35.811834102407964
26.884541914604945
23.94599532426612
24.173293930538957
25.033048474238058
24.37051545528257
21.763380861422597
21.42013489090431
27.64861737223031
33.43060922622492
29.930786852913766
19.69762532688633
8.143241569368094
-1.4733892816814687
-9.173622501127461
-15.788958983135783
-17.887311762430098
-17.318543814676403
-17.85069262708494
-16.890088529852694
-15.16654674301927
-14.078429687197298
-12.061185722251851
-9.801020825404803
-4.799013442909172
5.867221489874911
18.787412612967188
30.006661541303995
36.01405919982208
38.22471462441634
40.75334354833129
35.56544038493427
22.168680356373397
11.678508045106202
0.7041148214515763
-14.149734086407728
-32.92233981310398
-54.19764244537758
-68.46159374139351
-75.47759536815788
-69.98361110878368
-55.24019113918667
-49.30139831236595
-35.79887024673767
-12.17644741033611
-6.66416278647349
-7.81458890700145
0.4739011987448859
6.591603359282055
6.079014756035977
0.24359552976217522
-13.1935443409198
-33.02057099069312
-52.365945155796695
-69.04372661143283
-84.49546251033394
-91.82451724618898
-85.22952129739943
-67.55190391593969
-42.58750957724645
-11.520974622663964
21.130102716259337
47.125839854553604
65.76793787116951
80.01487255622618
89.6076954278884
96.39985344790131
98.66082442688263
91.86438943537287
77.42787589051598
53.711528194671665
21.711059232234547
-5.429776053765738
-22.572533457123455
-28.999193677366836
-20.233502831077214
-6.262027462818535
4.0825533731701285
9.518018528382877
2.782547605654698
-6.198086690980643
-1.755946661901241
5.844271350654636
5.068546686366961
0.22655251279402364
-3.8742303780775784
-3.5868841895924692
2.621431558823841
8.431909000627321
13.762402122985113
21.745050739651482
24.519247567609902
22.468544012761082
19.573028856812073
13.87593110544195
10.905426773255316
7.461809264274645
-2.3428470037373033
-16.63208503162159
-32.96121202566976
-40.67919553713128
-41.560005168611724
-34.32781719797173
-12.439705557785887
-0.5562484902628646
4.93910715674841
21.544392118469318
23.069744281600236
14.981987188554804
21.622541759020017
30.134133984428267
36.34864487465514
43.56333193935595
40.86169931462079
26.58515629715959
9.261177359378767
-11.517967309116326
-37.341291108428564
-59.77062566514908
-72.04912843682219
-68.33118914276739
-48.65441437714668
-23.88295257810939
3.191810939670919
31.13048562249624
49.112000393204845
51.67669507685857
42.771098799311986
24.501731095322114
4.999932359202677
3.6249243521834598
16.78900389853329
28.1691751199968
39.47587682120455
43.591706038031006
31.541086345961876
7.876661571259847
-25.971504208436734
-61.94811902036223
-91.55680424759423
-111.38614629095851
-113.05426562249416
-95.93236690979323
-67.91595458946608
-41.305647617327324
-21.732388577916367
-6.188636118043882
-4.422758904253111
-9.385155678859183
2.7762171875804165
23.98747514081589
42.68463008501298
55.958396999923046
52.447081760453706
42.59209415696012
39.4389534893365
34.52763711359751
26.59254373763113
20.046431025700336
15.771215186004364
13.254833036985646
7.283093687159741
-2.8305454232750007
-10.990427870611033
-10.121130896850373
4.120200809522301
28.470037474808038
57.06387936299447
83.39909174134321
97.59877246628409
94.68213535196742
81.00333989535109
69.0672254369149
63.95146034897878
61.526664189537264
64.4600523623401
77.49434342572091
92.12357359979796
96.02991289271141
85.88829067548077
67.51679297420836
48.64919748133325
33.37997711211351
27.43088778159121
36.371750608411055
52.27862737047529
61.662468961834826
60.99947173463574
49.755270576928524
32.085666871019455
13.91519046684086
-5.338470938718192
-19.141561511032506
-31.24618342692156
-53.48668129088832
-76.35934100782252
-97.44430958103334
-119.0043277127148
-133.44848989401459
-143.90532717209516
-146.068244758058
-133.5686182108942
-112.65307036314
-89.0751396330575
-72.98583024678398
-64.7181609203763
-56.365758251872705
-49.41047522465883
-38.672846634471476
-24.154123067567017
-20.23922744104341
-20.422764320335187
-16.24027651343949
-24.11380102109394
-28.805994624034575
-9.99535481182292
1.1008566527612365
8.715525429927256
34.380874655781014
39.939352221982524
14.531917996358933
-19.299681136054858
-55.988107291606156
-74.52816757765919
-64.42226735708721
-34.2474119746265
12.578315239148726
57.74969855283534
91.01466284990519
118.16677015189627
130.6357892607072
128.40085997195197
128.55585463248838
136.07504957794401
145.7584417498838
151.09118036165907
142.4309627071756
119.20096540247287
88.53018905579744
49.892380520581014
8.764076280904083
-23.22532509218008
-44.638085242519615
-46.45785781944048
-25.746576857972105
-4.962675297676497
5.610136306540962
9.693610662383962
5.3318302687937855
-5.914917287256916
-22.588416441115488
-44.989369887611595
-69.06991154452562
-92.12797112884738
-117.59538376337245
-141.2012435662653
-155.49691807986846
-166.65770342625484
-168.37326508712988
-158.44780624099718
-157.74032386479797
-158.87939657001286
-152.78347402555843
-153.00652048081133
-149.32380656412585
-130.1917340448515
-100.9392020464057
-64.43673988432377
-24.428093641363024
15.132160812868978
43.6117821891864
50.63274649972869
45.043559246205525
44.73621098990844
57.70570465680009
77.69334905537538
98.16802455399134
112.54577640060486
109.80840958797941
95.65096198528629
82.66372550147426
72.59077488442172
68.76334760834538
67.5564104383423
67.25296250203489
75.66146582605714
80.22826367847182
71.95357731765839
57.779378710842416
32.212215429263686
1.1353109572345663
-22.83690363121498
-40.587092384311845
-47.34338052863652
-45.89690560192536
-46.03615360048036
-44.58305256358953
-39.06949286694183
-33.10385931761833
-28.6080418783859
-23.153229151517785
-16.7411784060379
-13.697088875411833
-9.689723080771952
3.278709626317033
25.321594035823253
51.72133519710756
78.9460402923933
101.29709209357968
102.23428325866536
73.48497529643491
32.89170017482939
1.6503259221463842
-13.599581824667126
-12.21925498003411
4.353459383660852
21.016334852479737
20.809795224013858
11.524420436601961
5.193341593119764
0.15710879400133893
0.5245861820724339
10.793026564765611
26.68480674382448
45.5254642579079
59.47745445394342
56.94536513605022
43.73340367933607
33.343964375583575
30.067118793758382
36.99649047363628
51.033259211699466
64.37335800210778
71.41838824925689
61.22996414102175
36.107485141286205
13.077468733367427
-1.816406298417762
-11.424204716164267
-14.044926162680573
-2.0516418908658287
14.33137188894942
16.69558557287107
9.856286192142932
-3.477212798915648
-21.155021803030866
-31.967070987291443
-40.174454078302674
-44.01143686392454
-34.33478033302545
-21.98594707317847
-17.99658680286725
-15.592581608229438
-8.292430454853335
-0.14182613009226644
11.64643307110483
26.368820663197063
32.61617492598006
33.836062277012125
31.33920293409948
19.648853834537295
8.14539706930567
0.5310126721653042
-11.611007295649967
-25.448638035886617
-28.392028152081437
-25.769176333368986
-24.939211042775057
-13.599371885772564
-0.7158389112967469
3.316756627232034
14.711905931121144
23.87647618204701
14.230453269114882
-2.5366602571769548
-16.4200304566794
-23.70495821962055
-23.40900894389832
-20.65485072405797
-19.85916596112121
-21.09515447214916
-19.03040017220517
-11.980216144735161
-7.341115415050832
-8.773850270590176
-10.780786779514733
-14.861934573920918
-25.054991930806892
-32.70563650753616
-36.95154372898811
-45.125789243778996
-56.3724744592465
-70.32107872586276
-80.13576137867743
-79.3697384154729
-73.35308006726774
-60.84642890359087
-44.03157566130732
-28.914361912860752
-9.33747119471576
15.380306882995004
40.702380720462905
61.58565645770187
74.80188676763721
87.83968482045586
94.85532744713151
89.65497548118803
85.68934623161005
77.03215473276664
50.52146700067075
16.839191472313267
-15.56814900500993
-44.70180720322073
-64.04595753159144
-73.4086589203179
-71.3106635030243
-54.50135437400461
-37.59516274404031
-27.90956112543747
-10.962714075646733
11.249933354862032
29.148318244252792
47.81463026813677
64.8364477945735
72.34432151185928
70.16990469877092
59.78579145091198
43.754245302564286
22.807099752335528
-1.8828319547062933
-22.2686735844361
-35.71264323792985
-43.77240272668583
-45.18768999319894
-46.142528143859636
-45.70193887487052
-40.6292698049161
-47.7461410036923
-69.70830273892206
-88.59618741967822
-99.70784874656535
-102.67979087784998
-92.06920972727141
-71.01104503399102
-45.816724948851274
-13.83313293012657
18.055688200734703
37.63163368540423
49.18808973731397
51.11744433542789
44.22354161756449
37.22377603484564
21.252302377147842
1.7358868804281986
-7.750677356385439
-14.193518109815848
-15.317366301164528
-8.905164662819937
-4.093166666024723
-2.152272812435901
0.9980789987768259
13.533009161163484
30.633496610716264
38.7218736390304
48.20971700374909
61.046680273627516
58.443938040614775
43.68499873277624
25.9665788794087
7.5206505869058295
-6.402205329261882
-17.346447931265118
-17.22489313709426
-5.736362967786548
-1.0223129509997977
2.2789449313588865
10.776367660861807
19.214604650009143
32.179509084370025
46.81052626611618
59.56764065540609
65.92047162650931
58.02913116022095
49.22407741921611
51.39677549791347
60.52080850946036
72.29152578973361
79.43341639544856
77.20752643358986
63.907682778860185
40.164324528608645
13.905138723272918
-11.854116360873833
-37.49794383211011
-57.2111179933465
-62.16212212152384
-52.180827288039346
-48.02742839217117
-57.95289379219426
-63.21290694044352
-68.80784973260333
-85.8130657568862
-94.6896400367251
-86.39517582720418
-67.93920168393534
-43.87194945877875
-22.721278062546638
-8.817998391037552
-4.77249427331774
-8.65938995365146
-9.719591037858587
-6.91768000558796
-4.174494159259396
2.5453750611737838
15.570303844591157
23.739329039825723
22.26600814745869
27.464004527096417
36.44792696623662
33.3302214461016
27.720205391069044
24.16225383322038
15.21714588226102
3.669599146211734
-7.837214995939666
-17.46220782779698
-24.512256666520276
-28.950927307673606
-26.129067273277997
-17.153697826651985
-5.520935377121948
8.13546746241223
19.846914140683804
29.413526819897672
40.725358811960085
50.503721425556776
52.2083908740936
46.91452119476662
43.482185498018055
46.42474317839251
48.032165444249976
42.33262350392975
32.84288534193982
23.666956260270414
19.352773909426503
19.681063745855862
18.833634135767323
