AAD_Filtered_TADAS_FILE
AAD_BASELINE_CORRECTION: BASELINE REMOVED
AAD_FILTER_TYPE: BUTTERWORTH
AAD_FILTER_ORDER: 1
AAD_LOW_CUT_FREQUENCY_HZ: 0.025
AAD_HIGH_CUT_FREQUENCY_HZ: 40.0
EVENT_NAME: 202302060117
EVENT_ID: 13194
EVENT_DATE_YYYYMMDD: 2023/02/06
EVENT_TIME_HHMMSS: 01:17:32.00000
EVENT_LATITUDE_DEGREE: 37.288
EVENT_LONGITUDE_DEGREE: 37.043
EVENT_DEPTH_KM: 8.6
HYPOCENTER_REFERENCE: AFAD
MAGNITUDE_W: 7.7
MAGNITUDE_W_REFERENCE: AFAD
MAGNITUDE_L: 
MAGNITUDE_L_REFERENCE: 
FOCAL_MECHANISM: 
NETWORK: TK
STATION_CODE: 0125
STATION_NAME: 
STATION_LATITUDE_DEGREE: 37.01519
STATION_LONGITUDE_DEGREE: 35.79577
STATION_ELEVATION_M: 25.0
LOCATION: Kahramanmaras_Pazarck_Turkiye
SENSOR_DEPTH_M: 
VS30_M/S: 208
SITE_CLASSIFICATION_EC8: C
MORPHOLOGIC_CLASSIFICATION: 
EPICENTRAL_DISTANCE_KM: 114.62
EARTHQUAKE_BACKAZIMUTH_DEGREE: 
DATE_TIME_FIRST_SAMPLE_YYYYMMDD_HHMMSS: 2023/02/06 01:17:31.8047210
DATE_TIME_FIRST_SAMPLE_PRECISION: millisecond
SAMPLING_INTERVAL_S: 0.01
NDATA: 12501
DURATION_S: 
STREAM: HNE
UNITS: cm/s^2
INSTRUMENT: sensor = CMG-5T/GURALP | digitizer = 
INSTRUMENT_ANALOG/DIGITAL: 
INSTRUMENTAL_FREQUENCY_HZ: 
INSTRUMENTAL_DAMPING: 
FULL_SCALE_G: 
N_BIT_DIGITAL_CONVERTER: 
PGA_CM/S^2: 83.123
TIME_PGA_S: 
BASELINE_CORRECTION: BASELINE REMOVED
FILTER_TYPE: BUTTERWORTH
FILTER_ORDER: 
LOW_CUT_FREQUENCY_HZ: 
HIGH_CUT_FREQUENCY_HZ: 
LATE/NORMAL_TRIGGERED: 
DATABASE_VERSION: 
HEADER_FORMAT: DYNA 1.2
DATA_TYPE: Acceleration
PROCESSING: Automatic Paolucci et al., 2011
DATA_TIMESTAMP_YYYYMMDD_HHMMSS: 
DATA_LICENSE: U (unknown license)
DATA_CITATION: Turkish Accelerometric Archive v 1.0 - Disaster And Emergency Management Presidency, Earthquake Department
DATA_CREATOR: AFAD
ORIGINAL_DATA_MEDIATOR_CITATION: : AFAD - Disaster And Emergency Management Presidency
ORIGINAL_DATA_MEDIATOR: AFAD PROCESS SERVICE
ORIGINAL_DATA_CREATOR_CITATION: AFAD PROCESS SERVICE
ORIGINAL_DATA_CREATOR: network: TK
USER1: GuestUser
USER2: 
USER3: 
USER4: 
[...]
13.998128470584636
9.677349070665906
5.391205822514021
1.409663060920898
-2.466784911748196
-6.270257222332161
-9.391711072856268
-11.419637299294402
-12.4457802795217
-12.482553654977758
-11.47482084275446
-9.897758774279803
-8.270673747362126
-7.002716153997247
-6.354613508805167
-5.9782646775872825
-5.464130592495569
-4.897085316789834
-4.2557137982061555
-3.185935991614466
-1.8183822273257377
-0.6417747671808259
0.342315495804593
1.3984331329043114
2.696245209391641
4.3136940135527695
6.2663589317845325
8.423246806330797
10.613622511283994
12.501910130361315
13.642573586478091
13.805841641653494
12.94848328541124
11.214775758087828
9.069135176071617
7.047256930476922
6.0732433199589675
6.643271286739721
8.005525950339768
9.72055624623521
11.66867753870813
13.810266852545363
16.150841903902748
18.243904235262665
19.669927040336418
20.418501425430623
20.254857324713864
18.732166433823995
15.947790880129913
12.188646786780113
7.797118307087509
3.4060748208004648
-0.24379336519352587
-2.7153366373852217
-3.7925952995587506
-3.4810762354738336
-2.125276606373548
-0.22367911560616915
1.6781214047552788
3.105664428860984
3.497312126864794
2.3969056954602297
0.0394745676059232
-2.8339078071937935
-5.981495518968273
-9.422757193980669
-13.03058669839393
-16.582154349824304
-19.580250418437227
-21.709454905320797
-22.863174071819195
-22.769535775946842
-21.652151964189258
-20.040422573883877
-18.18230934867003
-16.267717813263793
-14.566556787859813
-13.285069326652673
-12.550638311455996
-12.519640069538822
-13.01647549846589
-13.73329552346305
-14.184962477838683
-13.732372589447435
-12.365156793522603
-10.636073851502488
-9.01775781813946
-7.624412064376205
-6.343616523145481
-5.284402373965264
-4.722553177443613
-4.7506263707156275
-4.925700476606012
-4.69216786120264
-3.733212625027681
-1.9608694165223441
0.49123690840540163
3.400695540235662
6.451199404894716
9.492892542299412
12.429039547524155
15.226444935081902
17.558072138111452
19.193517513230017
20.40270390113669
21.052258055021216
20.574485539791365
19.027491995749745
17.00068785000558
14.499362264703798
11.237760039992015
7.228712491986309
2.335821324775494
-3.499418489821547
-9.588718288758386
-14.88697146548662
-18.990397813187297
-22.286857905742952
-24.781852353139858
-26.187651905182136
-26.897951508081086
-27.251821730703973
-27.06854945501282
-26.243599000349025
-24.739403727979724
-22.49956422765414
-19.807225892904782
-17.25288723218188
-15.225866309129437
-13.900726552409223
-13.47890940466418
-13.916370284564131
-14.94255481000888
-16.2564397523949
-17.652243631129547
-19.04536083332233
-20.223940438399296
-20.99930264942698
-21.319652775079764
-21.090853170491666
-20.517505405238218
-20.152922521710707
-20.086863058426765
-20.1355628701145
-20.240856807943825
-20.12469804348083
-19.404831211972194
-17.953010458242982
-15.702139812777173
-12.525119658085707
-8.891403086327859
-5.572296024363207
-3.125637818106127
-1.8660093028505138
-1.7110985266834093
-2.36190391202099
-3.620717793252938
-5.446107634606192
-7.404971762545779
-9.11474818736233
-10.257927323104164
-10.840929630754376
-10.962713257157862
-10.884662770167461
-10.772691096839385
-10.555237899251262
-10.674690032228716
-11.207726323241248
-12.079058419166548
-13.287254141418051
-14.72438149645494
-15.91676425304515
-16.795488821077104
-17.88881150421351
-19.094784672580875
-19.661422695358933
-19.14674820333279
-17.551070638366298
-15.210952279757752
-12.634205809360873
-10.106067801218634
-7.540705089219628
-4.998670862280093
-2.670366584157376
-0.5574338961343787
1.2151122111876616
2.8745283987210595
4.787172107213145
6.907390315343874
8.836547355803724
10.148660602860568
10.766819202154773
10.682772878914053
9.931449562478884
8.727768211996898
7.321927606019703
6.150266135027677
5.429711836374794
5.25475567360708
5.279370737532567
5.074636553791528
4.912068533369303
4.773365572680469
4.260350827974202
3.2114930337842456
1.6515911057650248
-0.7807684957519552
-4.179110610462677
-7.8634653729799755
-11.234608819367732
-14.100738131997211
-16.412608395446025
-18.19369334530553
-19.62957968567165
-20.606770414893067
-20.976032361220373
-20.747432074196734
-20.228122478516685
-19.449972470256586
-18.395948404596496
-17.585130306542748
-17.260571992543458
-17.222808150613712
-17.412842661186716
-18.219999424385104
-19.609627358275777
-21.252278534000663
-22.737381025190015
-23.474379359757158
-22.852258375120577
-20.87867201047881
-17.820546350769582
-13.445976594992688
-8.012944919195323
-2.36112575949491
2.703597180463365
6.878478088201812
10.135809691520597
12.472638178935425
13.806886399469462
14.287648966818582
14.41743573114542
13.981173016052322
12.860637532542784
11.2907753906554
9.45225686937877
7.412873486416425
5.1782644212762685
3.6711430038122446
3.3290940211413553
3.7399302799768317
4.876297180150086
6.864253985996142
9.646323440200382
12.775883255836009
15.900284390505943
18.798893074738398
21.179420858786646
22.364869975905645
22.110908999820442
20.568262845030517
17.82693234592539
14.431108573478626
11.039848254279908
8.420151603248932
6.657716976233662
5.772994323923383
5.391719715637912
5.0133329033770355
4.592093953906281
4.194606309141675
4.201817338511399
4.615068189620269
5.068048359000567
5.322462630621275
5.711124647162136
6.6025783843937065
7.890612569689122
9.366931250615265
10.96861481447763
12.33603131485105
13.26753636874607
13.811454301444316
14.201892729432403
14.652400224369144
15.143601353610954
15.452951729240331
15.377434382674018
15.125942279433373
14.85739362499484
14.499902183422037
14.252149790177368
14.529809560683633
15.022478409338994
15.188434654794799
15.010618854777618
14.291204501901518
12.922838762097115
10.811269634021226
8.00691033261057
5.124771473857405
2.9390747580619485
1.117390113666901
-1.4191165961141285
-4.631811808298871
-7.912223801143883
-11.191502968143727
-14.693243671726746
-17.86047158225047
-20.101110859770284
-21.229585265254954
-21.287889850579326
-20.443382669524173
-18.819211761982
-16.59002278268392
-14.076344334805404
-11.710654855069123
-9.70003712057968
-7.534998435541802
-4.723326875460985
-1.3710439330299535
2.112766298817735
5.746286209895965
10.033522213347132
14.709413660701017
19.170811209577163
23.72662724762569
28.4429590073174
32.7003765409768
36.00876390520296
38.456498083010295
40.30096159001751
41.41053415575068
42.15177300319126
42.78284549917075
43.38556690417046
44.275137088437916
45.4119020164098
46.39432051207059
46.98541642125769
47.33017202478145
47.52552387379297
47.39400751962349
46.776807831647936
45.58984218008367
44.04658125445587
42.36650141044
40.74868979556656
39.21667537946948
37.837564567900635
36.389971015232256
34.55206766773447
32.70440556794955
31.264624321699646
30.35112725812404
29.805161489363332
29.537226399420874
29.58761400844524
29.738813221775008
29.815085377212352
29.475729400201445
28.231959644184776
26.01522146542606
23.15143855828539
19.587866209904707
15.28836374731639
10.755913497335692
6.230632548598496
2.0766172873919992
-1.1034996420505556
-3.021760783859756
-3.9239245077861167
-3.899784034163467
-3.0538524101599154
-1.599900175689638
0.32574997222748614
2.672872142940697
5.220497000695458
7.761737106349348
10.165913225955462
12.292729338680228
14.316524601519092
15.885355342546202
16.638042645843097
16.74866312081084
16.220540170979472
14.97998669379202
13.193004652791261
10.841813393349804
7.997810362339837
5.082048180891668
2.333647136854306
-0.14477730678343848
-2.2626337032054065
-3.9337588700736323
-5.258760909186114
-6.054932277644922
-6.126725433814533
-5.8873554920127225
-5.824807855154665
-6.123636019453295
-7.044428566880161
-8.625917666337505
-10.57418092203999
-12.727203310644922
-14.757542644810492
-16.356114037948014
-17.25303460979061
-17.488719621587176
-17.24141052464043
-16.732465652987667
-16.563654391550788
-17.018148031236834
-18.095804704163598
-19.825248457159837
-21.686139144891815
-23.21608722872308
-24.524898646562256
-25.253128696151837
-25.430477644106844
-25.310280682701272
-25.24799310071644
-25.449482532739296
-25.426507902811764
-25.143220524515968
-24.763565593891975
-24.246438540812594
-23.43457908929672
-22.626546152762884
-21.68299398018264
-20.3505573721779
-18.991785049162086
-17.58548444393281
-15.986397539869742
-14.291912797367466
-12.566358236253597
-10.865498362421787
-9.571466084354748
-8.674905521321978
-7.872860169136494
-6.872346461897963
-5.45768186509661
-3.8236094923657595
-2.3206018819580474
-1.0276440714433797
-0.03763875501039843
0.37426838052444433
0.4949489962841989
0.5823107209230244
0.5144059817257791
0.4271278214977424
0.8332475664174598
1.8381418395238067
3.138407174520262
4.2510313002446996
4.554384170632076
3.7803485636222547
2.5028791633628535
1.5406655306524597
1.4389804235047705
2.6290884702836004
5.357779452406359
9.30011881427397
13.725543380036715
17.888567007687044
21.137377528468893
22.969859498544547
23.022283490166497
21.36492415473112
18.20968850051233
14.026749444565718
9.692180033982769
5.937702501047386
3.296935537834513
2.3928860917580272
3.3264571041347235
5.6813977240356826
8.86990119322691
12.200614905026827
15.216652304617842
17.5149792890293
18.660845178507852
18.20879158605514
16.07155689904285
12.910814142828569
9.298403908823719
5.598495715285462
2.166136897119912
-1.215175324789258
-4.495999937856755
-7.473019768897303
-10.240740487968674
-12.643015638838968
-14.5218110481655
-15.726673185327536
-15.87687481045489
-14.799539102804214
-12.379373889789719
-8.593151510449516
-4.347169082238972
-0.7411916585165643
2.0432643576041394
4.429085537236451
6.441430171111731
7.946834708754974
9.02806478318016
9.848949997578803
10.567263105532385
11.010767003688391
10.891263962152372
10.381391273498103
9.699851739893148
8.710129171833609
7.526098659251985
6.124664256282555
4.164471845165266
1.4444786107991412
-2.0965544681659423
-5.899439218178681
-9.3869442414828
-12.31933385204223
-14.413852494963136
-15.71946503690024
-16.557388211349046
-16.93666310271654
-16.75048128729602
-16.40234791866843
-16.06364782852778
-15.444931839552211
-14.543435529819815
-13.309105214256348
-11.57047586178988
-9.42674992814277
-6.785438668603167
-3.4345878786675392
0.5557311662689958
5.035141823370553
9.79740963508377
14.427848351176971
18.649750589416822
22.351840777940918
25.87372575867144
29.214172564693968
31.72994681846708
33.0375948477033
32.79422658846773
31.384005521352403
29.646596794940113
27.595393973075943
25.277659480602757
23.03657758600444
20.681590899663064
17.977159518606246
15.11620027614909
12.664728207486883
11.11803902884863
10.553627480311793
10.462992616223426
10.652213970202434
11.169276612485017
11.8021042107328
12.43605973869483
13.093883696621083
13.889113887431778
14.58327534236565
14.681455106468107
13.624535943914951
11.38128601687605
8.4751183225875
5.104588664531419
1.690159780151667
-1.1449307704341658
-3.241181350373269
-4.704997043163118
-5.704056061259323
-5.948554071483808
-5.3853835127861895
-4.568604783495727
-3.785438638342215
-2.701164021880913
-1.0631901239092485
1.1212348101665686
3.9705321717326547
7.397200514780553
10.645609491714236
13.20151410489555
15.140931133226976
16.19412280839744
16.23250618779375
15.7634941786876
14.97059020790365
13.435973118663155
11.060141119855349
8.14120193208543
5.317513102456253
3.0636998390085903
1.474806978015923
0.5396021149839898
0.19546429379683294
0.34071243340692914
0.4181185810917608
-0.10532182106463808
-1.3244413825978756
-3.0255292309270847
-4.83999094225412
-6.621805030741509
-8.31918569639323
-9.899813236841132
-11.881996074992056
-14.860979738947856
-18.92302998040556
-23.861958660616448
-29.070666539106426
-34.000832788237624
-38.05176467427251
-40.69862876500549
-41.657203207373094
-40.79856393593993
-38.256961294186866
-34.15573200412328
-28.836551970523832
-22.821851058024198
-16.3998873984858
-9.744300152621634
-3.5629765598588334
1.782107192611078
6.669433420761626
11.174509827483991
15.439053614326337
19.8713015043456
24.827308856360073
30.57423328976285
37.173971428200616
44.00830967664759
50.11474339503716
54.923379395812965
58.291091417238476
59.9808222659075
59.91290735579679
58.358319840850875
55.79680709559902
52.29740113406241
47.455105930722446
41.721450590978
35.93001678522602
29.841288880157414
23.324333803839863
16.902703704030877
10.790142695749747
5.082136605564993
0.014799356446683065
-4.4414522225563
-8.896414576044451
-14.314637004602963
-21.17937509298864
-28.975755418210206
-37.4517152002055
-46.07199790459532
-54.185022649662145
-61.2945582266643
-67.23877809725577
-72.55965285752524
-77.55142847655438
-81.44546113181269
-83.41007218824713
-83.9385972413551
-83.9200803005146
-83.76948815748123
-82.94627561530531
-81.0879161282536
-78.47995492475907
-75.2357634981471
-71.48104887146793
-67.37914792321975
-62.94703572573487
-57.66589779402092
-51.276202336847696
-44.15807259028911
-36.61720101687966
-29.176095623060853
-21.664176714810587
-13.693667702886579
-5.329046162737132
3.7469339576988747
13.830330957249043
24.250268696938406
33.92928780475334
42.53183170942445
49.305495859575416
54.47916980000869
58.44953058973702
60.670095738227616
62.04535017399802
63.49239957666738
64.1814673486467
63.74669115690165
62.679716828253234
61.29992358496622
60.22133239255957
59.638098197905116
59.82891244926802
60.71723922830176
61.6619426264396
62.75975243284368
63.87535255519049
64.1057916979656
62.664127376741476
59.940337628817616
56.466073848927586
52.31915891792328
47.78615944147123
43.25124435393719
39.41966942716908
36.31212053420195
33.51325922106064
30.81509077295415
28.135291384418807
25.07558550029209
21.546811733500544
18.083087551243512
15.044200659628194
12.522199611500763
10.25837002958857
8.514110372628576
7.15357646403657
4.9950327621012
1.9525919982469122
-0.7330780344475079
-3.6762111325790294
-8.236065321791626
-12.831614251126906
-16.240699994557865
-20.117504974865152
-25.49444745688131
-30.610818973242438
-34.7091329276711
-39.326983684963245
-44.51144452177785
-48.86601196653216
-51.85868546578508
-53.68708228279126
-54.16458116035897
-52.981860679715425
-50.75106626919317
-47.65825389566744
-43.649286465970555
-39.806545578379136
-36.21581132781743
-32.10233038012998
-27.86037120008704
-24.614116559903675
-22.279583099489727
-20.25590983751816
-19.15589199892151
-18.37119092008251
-15.869880462556626
-11.996039541942647
-7.375020653360875
-1.3679547366571938
6.611293637025083
16.472339912310023
26.779285071040142
36.989991871174695
46.21720000682013
53.40917656529219
58.79353346834583
62.92111405675373
66.29935926942402
68.45098251675464
69.72346520983399
70.59176219834076
70.9109098806246
70.04533375926482
67.52662092399935
63.734065211029694
58.63226696253109
52.53829266989109
46.269060769194
40.254676681616516
33.97336479366
27.22577731930877
20.625360527776927
14.239847588012076
7.9122475061319495
1.3179542862450027
-5.3600283073098005
-11.173177982258709
-16.06082482135458
-20.444944713287523
-23.74459282101775
-25.596661897139228
-26.681223631802055
-27.1882838413024
-27.422566591548193
-27.59778370815214
-26.989209781594827
-24.838420808093314
-21.73198530415076
-18.128673085301855
-13.923681875012983
-9.312507179131359
-4.23008658476595
1.2391677203419307
5.86309598881254
9.267107438677286
11.809383687505045
13.530107360187392
14.873951316019314
16.06418245647669
17.362140814151534
18.68391777987387
19.913575776282638
20.2161631727854
19.61826071254858
18.597589218153225
16.889631714809905
14.811905865455454
12.628301335863283
10.459753876404127
8.393669134447999
6.44829520202007
4.627998991132442
3.0510978386031
2.366961073885136
2.1022303988236324
1.604425135472179
1.0790664647994876
0.5975517508415082
0.21019240859825594
-0.05813309508314417
-0.4786033674160175
-1.1803265787642225
-1.242729574772158
0.25064301799183447
3.2098546202286125
7.073232615644381
11.398055499841334
15.362416751587846
18.402366397223158
20.25123709400991
20.535295777690312
19.005567910434294
16.67171941328245
14.61924130531184
12.650031816889335
10.312831007782524
7.647251641615584
4.573150077405952
0.9134026462567878
-3.4564930446983406
-8.532077350513042
-13.9166090765015
-19.210301710918966
-24.23255267245765
-29.07320539126831
-33.53661863452287
-37.22062112784841
-40.487005810925005
-43.58975235762981
-46.01428472021996
-47.79279163170518
-49.96623726001591
-53.11297011986612
-55.96148637271407
-57.87604117274378
-59.52999736158801
-61.16817967401215
-61.359282489557
-59.10088054926204
-55.936966450456964
-53.36811807599474
-50.79462336175793
-46.553278928702895
-40.36644717327041
-33.175564290451604
-25.79548044862982
-18.713119544263837
-11.52737273462597
-3.988190418470676
3.476624529292261
10.189231142985784
15.906359871069997
20.3442515041195
23.49769605965658
26.153128992423348
29.230891787889878
32.82024592121304
36.62258657056487
40.25355265129192
43.5803795914048
47.20893425721694
51.44610071330288
55.930420519807974
59.89141835142359
63.46246242688643
66.40921439117074
68.32550413531533
68.95284225275846
67.84438286698479
65.32180352739468
61.626292778900215
56.72373933592662
51.20513217835792
45.43249983222096
39.74051139794422
34.7179054990818
30.359182032348176
26.65042931398968
23.592376688177072
20.706497891416788
17.888844195634924
14.792856532660304
11.815961749405973
9.660230420383126
7.528270747618132
5.058962640527377
2.820391919919002
2.009410954405452
2.600149095304255
3.9675174791954326
6.118622661865983
8.175484204656046
9.707497813421204
10.436652091511554
9.969079051027444
8.653009284803174
6.833459543888432
4.401992283906736
1.11876132353589
-2.5775466137514638
-6.310631386123636
-10.197777498278384
-14.481664193576494
-19.245497130395602
-24.08091967884582
-28.343095735701393
-31.85346545373094
-34.733442357943424
-37.063069032426164
-38.66553652057888
-39.52750234511259
-40.0123228793266
-39.90248148231729
-38.83098661932655
-37.25772388238924
-35.82708764316499
-34.65089782845363
-33.37548643153189
-32.11584083984033
-30.9181868429948
-29.84631232544617
-29.04308867809248
-28.060707747719057
-26.527951508325536
-24.60991952301605
