AAD_Filtered_TADAS_FILE
AAD_BASELINE_CORRECTION: BASELINE REMOVED
AAD_FILTER_TYPE: BUTTERWORTH
AAD_FILTER_ORDER: 1
AAD_LOW_CUT_FREQUENCY_HZ: 0.025
AAD_HIGH_CUT_FREQUENCY_HZ: 40.0
EVENT_NAME: 202302061024
EVENT_ID: 13207
EVENT_DATE_YYYYMMDD: 2023/02/06
EVENT_TIME_HHMMSS: 10:24:47.00000
EVENT_LATITUDE_DEGREE: 38.089
EVENT_LONGITUDE_DEGREE: 37.239
EVENT_DEPTH_KM: 7.0
HYPOCENTER_REFERENCE: AFAD
MAGNITUDE_W: 7.6
MAGNITUDE_W_REFERENCE: AFAD
MAGNITUDE_L: 
MAGNITUDE_L_REFERENCE: 
FOCAL_MECHANISM: 
NETWORK: TK
STATION_CODE: 0123
STATION_NAME: 
STATION_LATITUDE_DEGREE: 37.00338
STATION_LONGITUDE_DEGREE: 35.34376
STATION_ELEVATION_M: 23.0
LOCATION: Kahramanmaras_Elbistan_Turkiye
SENSOR_DEPTH_M: 
VS30_M/S: 519
SITE_CLASSIFICATION_EC8: B
MORPHOLOGIC_CLASSIFICATION: 
EPICENTRAL_DISTANCE_KM: 206.13
EARTHQUAKE_BACKAZIMUTH_DEGREE: 
DATE_TIME_FIRST_SAMPLE_YYYYMMDD_HHMMSS: 2023/02/06 10:25:02.5383570
DATE_TIME_FIRST_SAMPLE_PRECISION: millisecond
SAMPLING_INTERVAL_S: 0.01
NDATA: 14346
DURATION_S: 
STREAM: HNN
UNITS: cm/s^2
INSTRUMENT: sensor = CMG-5T/GURALP | digitizer = 
INSTRUMENT_ANALOG/DIGITAL: 
INSTRUMENTAL_FREQUENCY_HZ: 
INSTRUMENTAL_DAMPING: 
FULL_SCALE_G: 
N_BIT_DIGITAL_CONVERTER: 
PGA_CM/S^2: 17.931
TIME_PGA_S: 
BASELINE_CORRECTION: BASELINE REMOVED
FILTER_TYPE: BUTTERWORTH
FILTER_ORDER: 
LOW_CUT_FREQUENCY_HZ: 
HIGH_CUT_FREQUENCY_HZ: 
LATE/NORMAL_TRIGGERED: 
DATABASE_VERSION: 
HEADER_FORMAT: DYNA 1.2
DATA_TYPE: Acceleration
PROCESSING: Automatic Paolucci et al., 2011
DATA_TIMESTAMP_YYYYMMDD_HHMMSS: 
DATA_LICENSE: U (unknown license)
DATA_CITATION: Turkish Accelerometric Archive v 1.0 - Disaster And Emergency Management Presidency, Earthquake Department
DATA_CREATOR: AFAD
ORIGINAL_DATA_MEDIATOR_CITATION: : AFAD - Disaster And Emergency Management Presidency
ORIGINAL_DATA_MEDIATOR: AFAD PROCESS SERVICE
ORIGINAL_DATA_CREATOR_CITATION: AFAD PROCESS SERVICE
ORIGINAL_DATA_CREATOR: network: TK
USER1: GuestUser
USER2: 
USER3: 
USER4: 
[...]
-9.639854390748049
-9.661938375960787
-9.902219836273641
-10.300799310642782
-10.86898741880717
-11.45476385671137
-12.0388726142186
-12.533626134612028
-12.99345601582262
-13.455513228742488
-13.820987407101084
-14.065496537631098
-14.200522665397829
-14.331211322327267
-14.480885445219153
-14.710572685187618
-15.070407750789473
-15.502812527769354
-15.96973931038999
-16.37034524339912
-16.62320091645666
-16.649473193879476
-16.48978865610844
-16.215637175253683
-15.763253203747139
-15.08460913130471
-14.079259639407269
-12.88162065423159
-11.56267821120475
-10.180494798068194
-8.765387711854785
-7.243767659198023
-5.693989139539744
-4.219731576253679
-2.92045640125735
-1.808233467045378
-0.7510753081227088
0.0564557308944645
0.5827102887288577
0.6846219678742835
0.28406705616853
-0.43096373380598113
-1.605151383726237
-3.050701593975473
-4.914222543265452
-6.858764198853423
-8.689375424753337
-10.28811156601033
-11.44663491396768
-12.340778268685584
-12.775600424622104
-12.868172886524768
-12.5044114450622
-11.827418816893225
-10.816192975750173
-9.56982222459853
-8.13018309923844
-6.498582499496882
-4.9224936518155085
-3.357294195169717
-1.9522603843908144
-0.5954760720652431
0.558052414687847
1.5630817844049336
2.3868232603951642
2.9046055425107635
3.282852873181523
3.510197140790439
3.8284256110016748
4.138434663443978
4.495455332650001
4.837591502457984
4.935914351783846
4.8722775734863095
4.559705149160096
4.320067117061372
4.080735169319068
3.924616888927425
3.9099668597010027
3.900194281876365
4.0631968574181565
4.199089319909757
4.427396933976721
4.515014791056695
4.4583006617635315
4.338639475737752
4.065931721056642
3.7337776280374
3.0915635884534916
2.3418490819301128
1.5349678062606837
0.8570370184273405
0.350544908089683
-0.20389858893483606
-0.7030363749704267
-1.1727918530441062
-1.335998939297995
-1.3836782847593116
-1.4055083615914425
-1.3552230685823943
-1.2822758276437847
-1.0568662212522073
-0.9275769850923391
-0.876804664022292
-1.0541264834976811
-1.3075962409305566
-1.4386992997951513
-1.4892231997890764
-1.3649338571289131
-1.3055272146180397
-1.24142902958413
-1.2260833695020583
-1.2601179221922227
-1.2942341910799688
-1.3977911940110561
-1.4029665965485327
-1.4018353949083717
-1.3172606636581907
-1.2524540861989883
-1.222037416380061
-1.1655392884192928
-1.22690310134126
-1.3798277450963246
-1.7349566798733542
-2.0788451627014113
-2.4016388892516134
-2.6376321745272264
-2.732346715789883
-2.819490794653497
-2.832050007737795
-2.907541999205886
-3.028116426935598
-3.3466855274677823
-3.792480527637121
-4.212476495247548
-4.584180607872065
-4.673146432335656
-4.484934449007056
-4.020743990389945
-3.4349101337415804
-2.795342462383694
-2.071726491473108
-1.2996565144251047
-0.412523228461886
0.44648884764529384
1.366869160575185
2.3915418496077665
3.492895651684959
4.64338912165127
5.654961569524852
6.513335658501559
7.138999714606707
7.694015044295408
8.264145243589237
8.791779812844387
9.232902080529731
9.478195503726967
9.605138422224364
9.561371867524793
9.417976172795793
9.192236057069719
8.967264490439884
8.882283437544828
8.981459082869812
9.405092072452225
9.991764530961738
10.588730719332924
11.003574257646036
11.243111233600672
11.471819193879536
11.73461732706262
12.139524263984288
12.59661011159024
13.082883886937658
13.532943041855551
13.872779503757343
14.045211800174163
13.923499080506357
13.511652160813094
12.821557989965253
12.100811194222324
11.479681531515409
11.043087209074208
10.785438542709116
10.551494535397264
10.324343600564946
10.034582228989272
9.79203068134097
9.550356170520846
9.28401642296564
9.073937190355236
9.036972815893499
9.312591599935786
9.75571348800424
10.3054066668216
10.860740278585284
11.337752986399028
11.629609354606922
11.678910730954769
11.711835808967558
11.910912324338536
12.393539523365428
12.97538179682642
13.47939462862367
13.899032529162724
14.163688585370656
14.13055267911317
13.524896955053842
12.3708065842307
10.852543190497355
9.212325713928024
7.586262896353659
5.98044500537541
4.3587503237739424
2.596126133523052
0.831119350075688
-0.8760186799548362
-2.5283849921746233
-4.19048691468648
-5.810481180896499
-7.159686216179963
-8.115055020541678
-8.526832398782696
-8.550451088021834
-8.341991948318478
-8.005566423991148
-7.569890986615642
-6.9558488526886535
-6.183636283121947
-5.226990016653959
-4.195262783797885
-3.149763045721283
-2.171273230608832
-1.3557550927774362
-0.7596907556701237
-0.4944075591351456
-0.5629243506050481
-0.9547301950751547
-1.586788221968196
-2.2966407123847357
-2.8258817258366107
-3.00546909100778
-2.948673515284695
-2.7996804425338495
-2.640638888240277
-2.445442679686781
-2.197846915603825
-2.0039621800286245
-1.9336625388571465
-1.9877088446331515
-2.080932352421694
-2.1578631625789098
-2.2149755666019946
-2.277939087405489
-2.423708638709082
-2.4940469451834355
-2.413866953159743
-2.234706729898081
-2.159982972658772
-2.326225697277244
-2.721442524607563
-3.2744047910937017
-3.7790543280115956
-4.227403931984456
-4.652773391230339
-5.058251901520844
-5.31859376916546
-5.340414696602724
-5.0976330821079
-4.672739481739326
-4.339056704728045
-4.1607683991372255
-4.065390378400218
-4.035429769375478
-4.056278910018384
-4.125376300241978
-4.24968713871251
-4.539391524331036
-5.04927237576296
-5.817381644953563
-6.829534163382706
-7.901006559153967
-8.83627006751097
-9.533852839102915
-10.031479150272412
-10.335472176169533
-10.612529212584962
-11.007333520690159
-11.535330881225924
-12.140931517101015
-12.735238442061918
-13.322085513860607
-13.814091967358777
-14.111496143840153
-14.115292036713871
-13.864970604355701
-13.536502837037286
-13.297656745395553
-13.244395020307168
-13.192201500937713
-12.889738619491437
-12.319788083885028
-11.628459447852045
-11.035396867466432
-10.550706432288113
-10.024329341316594
-9.255384648370887
-8.365859060646267
-7.616546142925027
-7.069459800730202
-6.622058785561373
-6.067255926535446
-5.47451111489085
-5.089492960826299
-5.22172795036637
-5.8875770577266495
-6.864913867484064
-7.954006953584612
-8.986575365008962
-9.801367572687976
-10.181948571680689
-9.980657140703107
-9.283591046530699
-8.344447511765583
-7.445666854505876
-6.728033683704295
-6.31930906920609
-6.248385461264706
-6.360160310994612
-6.35781989096452
-5.818739317994492
-4.600221835308556
-2.965396110952537
-1.4248382263604094
-0.08912117309639621
1.1531101651530866
2.237988755494312
2.972103897781187
3.122713299510813
2.805948024550599
2.4007349133204685
2.3507647369240474
2.669303676971578
2.9609596157648115
2.7952599556052635
2.1112997079188713
1.2103867510261674
0.3477997377863762
-0.48120364791916087
-1.533528844866855
-2.8127945039374858
-4.0804927957677535
-5.041765268640369
-5.556032871864367
-5.676588970390995
-5.491358000789897
-4.88678805318989
-3.694877004880955
-2.008469748308703
-0.13222714369954347
1.7085021496841195
3.4827737590160237
5.174226773202903
6.671508542704403
7.802075244219505
8.553204212167799
9.057430273604401
9.509102963519483
9.901462077127928
10.131455105517322
10.09974750627338
9.840865822200879
9.48004699929096
8.862859212910696
7.824611278905567
6.4404244490810285
5.086686469547379
4.046104081063472
3.3556588534587672
2.8154269434653805
2.312494374144323
2.0064935192025346
2.102937696075339
2.6434314841223503
3.460139877105064
4.383093317500911
5.283046889760074
6.159106572956282
6.942218988686803
7.485509004225451
7.669988958839435
7.534873564751768
7.298311744460544
7.238584150244628
7.555795308656026
8.162455895154098
8.90547567454236
9.68113351469336
10.385160460371152
10.903220340009904
11.079672289868057
10.893139116817183
10.468000713342088
10.066521742984088
9.800550936013977
9.627811140700155
9.536605002123409
9.667722941200665
10.114644299753408
10.802364451159542
11.54412077604088
12.104996234372154
12.459017018797933
12.622530284281629
12.577564990103399
12.238675672168519
11.61583222042929
10.808139813017933
9.989972445311984
9.324456408176404
8.833702053505217
8.532047093636267
8.443043646336797
8.503663282209617
8.569889286247092
8.560895889409647
8.48450715695777
8.386728706078923
8.42137445775001
8.650480499872057
9.016042447111131
9.522202318996372
10.136671842416957
10.774037513730917
11.248050010918025
11.500964670578334
11.539563049610443
11.425653104187006
11.21457820533499
10.888293373698957
10.466356915738315
9.942900726009333
9.363755171196152
8.684081737093532
7.89394411000491
7.056667110352538
6.272546387290948
5.700826418846436
5.394334685469911
5.340983011626313
5.433669469271606
5.48869840979878
5.40580804626126
5.170840818632212
4.808688393886644
4.266314708739835
3.551379255198477
2.7708796171245877
2.0496419125825525
1.5411616492961322
1.3924155085297312
1.5636725336545372
1.7643535142228803
1.7897684914580456
1.7477952774512722
1.8326211968590158
2.16038257061475
2.672647839706467
3.1873573557600303
3.6418352543493104
4.139104079697262
4.835121259448451
5.696321192660007
6.622640578817231
7.580564430161779
8.480429019373714
9.18768253011887
9.535558267290716
9.501399049252187
9.196319335783686
8.740890918836454
8.288382268509439
7.868678563967019
7.520420949525887
7.234141226772404
6.999824079597366
6.876597470579933
6.871679853808202
6.976064104312488
7.076127430546589
7.076333761414024
6.873378011576616
6.424235903929534
5.8524656996343944
5.236576854246439
4.620272908048349
4.026099590853304
3.5746869222300046
3.3206108964192906
3.1449046352090955
2.8926931785631056
2.4758681340123374
1.933127232204172
1.324763067416182
0.6291765926872634
-0.2071917120093812
-1.1059825369351526
-1.904464472814784
-2.4870501618676144
-2.873556334566051
-3.107806344460367
-3.1505444715884834
-2.9961917513247416
-2.7585353913010966
-2.4980934264775674
-2.2510598951575735
-2.0066988586997287
-1.771426800458301
-1.6716985841107415
-1.7658845501549232
-2.0211949028059673
-2.3075748972242405
-2.518744216343243
-2.6124063481215463
-2.6279213191854587
-2.5774717509810214
-2.4172268275165023
-2.1663677963473407
-1.897916517319454
-1.7030746481569843
-1.591372714937455
-1.4631704824515992
-1.1518225355413179
-0.6953302795570173
-0.2843652711273631
-0.03367504269410569
0.04229902196323272
0.10729089839633722
0.32334014319018356
0.6454752772993028
1.0356562410951584
1.5477289106845633
2.2040878465786298
2.9600259988755955
3.673642954321371
4.152426005858135
4.285660091300018
4.15814778042837
3.990711275865135
3.966733959750407
4.112007251525429
4.417105263656342
4.810861888462146
5.192057662794542
5.499546188067316
5.6305246501746264
5.528652627012616
5.218319446373378
4.795210446537468
4.334413943056581
3.856806575523624
3.384788263903708
3.053784216309613
2.977766336270753
3.1448673697273652
3.4399535950256834
3.708730634641134
3.864362417502867
3.8607710327902702
3.757391019022968
3.681894432617714
3.723580132583604
3.9426692186640477
4.356496853296184
4.926660586738554
5.618402314217216
6.387248324620275
7.076549473222697
7.50691787889434
7.577148155038494
7.267831892008025
6.579869733934724
5.610222588288657
4.590669538006688
3.767644840750996
3.2794138313345202
2.992046998704157
2.7216399030236453
2.40714376227098
2.121590867732673
1.9666587085978853
1.9745774535362404
2.0835591798310706
2.1854181065946277
2.232648539268009
2.1684213134823356
1.9525770256958646
1.6446511139202444
1.3101456408773633
1.0082437099336305
0.7684648183295142
0.5378588750949606
0.28676710844996245
0.06401984127569078
-0.06718584108382773
-0.09635948379415274
0.04217047724108061
0.3391615913994118
0.7004913016200768
1.034504214710674
1.2718566655686023
1.378477647588392
1.2364870102233683
0.7646473606839707
0.025030242569975384
-0.8977579984336151
-1.9266786621084497
-3.013521853222664
-4.114066831719839
-5.205758024701337
-6.323193759121944
-7.456661700569017
-8.581456388117012
-9.589810963383396
-10.32065263221894
-10.67794813045853
-10.6806089145534
-10.405550040335426
-9.959218876783392
-9.450122297702396
-8.980409062034436
-8.585174025460692
-8.204752753920426
-7.811682273855772
-7.378557461014002
-6.895098184776688
-6.356542867060423
-5.763277274986978
-5.229809011507622
-4.8881619666261
-4.801443625886977
-4.965120915352969
-5.286309023420603
-5.640487363636284
-5.950813027617971
-6.178479814469919
-6.315255145572602
-6.357116597424661
-6.215348057675735
-5.860882655644766
-5.429839116304468
-5.099417528509554
-5.036097285836744
-5.313929653373037
-5.900465805920979
-6.703400135026801
-7.692857219999173
-8.86818253093923
-10.174388568445462
-11.494223530178347
-12.684129585488938
-13.737745738604627
-14.748893108048636
-15.766243231243532
-16.714963331510653
-17.471037978132966
-17.974989369753363
-18.22420464901723
-18.299085872654338
-18.229443090848463
-17.93017512962001
-17.325955317961913
-16.396598989777175
-15.270123156091612
-14.123801114657425
-13.12363797536288
-12.288852578630053
-11.575820875645428
-10.952039371419115
-10.39531430990993
-9.958654589439636
-9.700990801107793
-9.641755781501294
-9.753506694875728
-10.078438045613943
-10.619379902168605
-11.278822079562403
-11.919284204841675
-12.420328889875943
-12.741235007649658
-12.857403403021635
-12.802529809281983
-12.605858279651454
-12.250205753458177
-11.813528574148702
-11.416442178971325
-11.108239691368873
-10.8099663358884
-10.458969600977168
-10.012135314733955
-9.477895624321592
-8.900310816318706
-8.272723148588446
-7.637390393109233
-6.98656067161184
-6.355504402084073
-5.818187494561564
-5.415724167450399
-5.165398890729767
-5.0366385533078075
-5.034111884335925
-5.159237369622623
-5.42350817699058
-5.815213477971361
-6.288495367299536
-6.824839269323279
-7.41184846743913
-8.0797765125747
-8.760573638719304
-9.36533538600476
-9.776736355141418
-9.911920765311383
-9.811512995774047
-9.499461734880871
-8.988640516713106
-8.278269522613446
-7.411583279599536
-6.555435717989128
-5.87889229976826
-5.417588194828563
-5.137726891224537
-5.013461758175155
-5.0363858406536535
-5.0799627473137
-5.059016299545623
-4.937582638988079
-4.685325870384081
-4.336276251610386
-3.86059987863391
-3.230923813125796
-2.458645112808051
-1.6735809529567525
-1.0283031431597394
-0.5657257969082068
-0.3131765686108998
-0.212694001366802
-0.23393949639465922
-0.2632758425282974
-0.21525434072809518
-0.08801919484743292
0.12283367691184678
0.3455446666791283
0.6206707109246234
1.0001539868898022
1.5962183305818647
2.4940189599332703
3.6362972398661717
4.890800676724893
6.085019466402802
7.143146312190451
8.038341200750132
8.771160668491733
9.271421579570573
9.496414312901086
9.561903457953912
9.594979730045475
9.706322040528356
9.895062251340587
10.071676332212114
10.169552030846758
10.148372343949918
10.014480152609078
9.796209350002202
9.50967872963301
9.149260710307274
8.749765048006061
8.428134740455373
8.20872131705851
7.9737123778855885
7.593382464439682
7.033912515468512
6.395245443836447
5.836398485882951
5.4712856725201915
5.30771144069897
5.2844238083261565
5.336679382209006
5.4572668831701145
5.56159452357741
5.536983579360847
5.274714197106146
4.710527261624904
3.897553426914564
2.925864750999487
1.9233392004678496
1.0093971079879558
0.31036712703050456
-0.13764814673279008
-0.32159050586586263
-0.25281833943811416
0.002357483916166379
0.4500169804169575
1.0468952629362231
1.6966962524877918
2.3197289759121453
2.8412852036179816
3.2774527588442464
3.589683800004695
3.7348114527240246
3.664175396403084
3.331302428997921
2.774890157270107
1.9957675725889388
1.0513291563627452
-0.07638991147774532
-1.411517893561175
-2.924923954054145
-4.573953567541381
-6.2986197784331655
-8.074126945966565
-9.773356541389765
-11.306602309306394
-12.565584211711933
-13.580021565947963
-14.381837526184249
-14.921602761169476
-15.26551208357057
-15.448005484577719
-15.541975740654582
-15.600827313631127
-15.675953358544785
-15.733478170677323
-15.652026188504982
-15.377150218744115
-14.90931545862161
-14.283884804089306
-13.540055426101738
-12.73953315343063
-11.929540728042413
-11.075254813751425
-10.114335507943279
-8.99689805662975
-7.669009811883483
-6.192775220994689
-4.746374786574874
-3.5874257127029674
-2.7563410627142617
-2.2118139060739614
-1.9522679289982272
-1.9335394010065377
-2.263206560937889
-2.848667658073409
-3.6783985173780054
-4.57595025213681
-5.3863371721916415
-6.047289213878516
-6.47865993732381
-6.75978034387285
-6.815281874471052
-6.718687849539652
-6.447411446617158
-6.075936825467391
-5.707674743572882
-5.299898283315493
-4.8416940580639425
-4.2123628502696695
-3.533143163466505
-2.9470958115179102
-2.528800526790133
-2.2717067333879366
-2.06563236767644
-1.9385666059801403
-1.92302602269743
-2.0751428755156542
-2.3144639880352322
-2.550512956074709
-2.7597449475781453
-2.9392737341569917
-3.1924546367816435
-3.5132491212066848
-3.8932544746346007
-4.258375261859896
-4.567376984679802
-4.790573252126766
-4.893919071105569
-4.931117703316283
-4.815802783811428
-4.480088265345432
-3.884882048445097
-3.1565887690666408
-2.4822969176752023
-2.0201977040028023
-1.8571118049587243
-1.91375797682829
-2.1690354609148925
-2.5087610154918156
-2.86467209169257
-3.196343343841385
-3.390318805581059
-3.414840043100193
-3.2258015223280236
-2.9185899393350447
-2.5400547924109627
-2.0983140022985975
-1.5691709591756933
-0.9506949561244982
-0.3023294418286749
0.34903784161756685
1.0134617423676149
1.7991691027220835
2.6746647486248643
3.5178298308475267
4.237515222811309
4.815134876079961
5.404417986763036
6.086264590916346
6.809205965517695
7.456822071921428
8.010987437551128
8.47127293358334
8.789016438086716
9.051403442394111
9.242389504680549
9.371506857273525
9.45764514794153
9.554845008980344
9.721287987083988
9.93372204856938
10.13189267807774
10.223235412945865
10.2403925291666
10.256962744492736
10.299547383213747
10.330728196906296
10.297589237500782
10.269797493064932
10.322636399766553
10.525464431164277
10.75383514850363
10.881299992601578
10.934852861712454
10.909124615403591
10.824844861597407
10.629969727902358
10.37313151015816
10.059111700782262
9.679837327766995
9.250640363328397
8.762398596793352
8.300526003840831
7.809970828820871
7.250437551523587
6.531135254766782
