AAD_Filtered_TADAS_FILE
AAD_BASELINE_CORRECTION: BASELINE REMOVED
AAD_FILTER_TYPE: BUTTERWORTH
AAD_FILTER_ORDER: 1
AAD_LOW_CUT_FREQUENCY_HZ: 0.025
AAD_HIGH_CUT_FREQUENCY_HZ: 40.0
EVENT_NAME: 202302060117
EVENT_ID: 13194
EVENT_DATE_YYYYMMDD: 2023/02/06
EVENT_TIME_HHMMSS: 01:17:32.00000
EVENT_LATITUDE_DEGREE: 37.288
EVENT_LONGITUDE_DEGREE: 37.043
EVENT_DEPTH_KM: 8.6
HYPOCENTER_REFERENCE: AFAD
MAGNITUDE_W: 7.7
MAGNITUDE_W_REFERENCE: AFAD
MAGNITUDE_L: 
MAGNITUDE_L_REFERENCE: 
FOCAL_MECHANISM: 
NETWORK: TK
STATION_CODE: 0144
STATION_NAME: 
STATION_LATITUDE_DEGREE: 37.731023
STATION_LONGITUDE_DEGREE: 35.45968
STATION_ELEVATION_M: 649.0
LOCATION: Kahramanmaras_Pazarck_Turkiye
SENSOR_DEPTH_M: 
VS30_M/S: None
SITE_CLASSIFICATION_EC8: unknown
MORPHOLOGIC_CLASSIFICATION: 
EPICENTRAL_DISTANCE_KM: 148.09
EARTHQUAKE_BACKAZIMUTH_DEGREE: 
DATE_TIME_FIRST_SAMPLE_YYYYMMDD_HHMMSS: 2023/02/06 01:17:37.5577960
DATE_TIME_FIRST_SAMPLE_PRECISION: millisecond
SAMPLING_INTERVAL_S: 0.01
NDATA: 12501
DURATION_S: 
STREAM: HNE
UNITS: cm/s^2
INSTRUMENT: sensor = ACEBOX/SARA | digitizer = 
INSTRUMENT_ANALOG/DIGITAL: 
INSTRUMENTAL_FREQUENCY_HZ: 
INSTRUMENTAL_DAMPING: 
FULL_SCALE_G: 
N_BIT_DIGITAL_CONVERTER: 
PGA_CM/S^2: 14.786
TIME_PGA_S: 
BASELINE_CORRECTION: BASELINE REMOVED
FILTER_TYPE: BUTTERWORTH
FILTER_ORDER: 
LOW_CUT_FREQUENCY_HZ: 
HIGH_CUT_FREQUENCY_HZ: 
LATE/NORMAL_TRIGGERED: 
DATABASE_VERSION: 
HEADER_FORMAT: DYNA 1.2
DATA_TYPE: Acceleration
PROCESSING: Automatic Paolucci et al., 2011
DATA_TIMESTAMP_YYYYMMDD_HHMMSS: 
DATA_LICENSE: U (unknown license)
DATA_CITATION: Turkish Accelerometric Archive v 1.0 - Disaster And Emergency Management Presidency, Earthquake Department
DATA_CREATOR: AFAD
ORIGINAL_DATA_MEDIATOR_CITATION: : AFAD - Disaster And Emergency Management Presidency
ORIGINAL_DATA_MEDIATOR: AFAD PROCESS SERVICE
ORIGINAL_DATA_CREATOR_CITATION: AFAD PROCESS SERVICE
ORIGINAL_DATA_CREATOR: network: TK
USER1: GuestUser
USER2: 
USER3: 
USER4: 
[...]
0.4173708206357955
1.2593800999019604
2.092062977817481
2.6739292891532114
2.8915481552402076
2.8313293357477822
2.7046320750082704
2.615921783473507
2.422928998819871
1.9961575063917631
1.356694004737745
0.5170679926484124
-0.3871879842299192
-0.9892699041671036
-0.9024215346850998
-0.048445239652299146
1.1219517180919065
1.8837190214642603
1.8390823837955015
1.233147423415937
0.6620913498405675
0.5901110020141568
1.0704039676170773
1.7598303021856707
2.2694974370706817
2.454075843127685
2.36778566965025
2.117719670922892
1.803401624563352
1.5336127067592915
1.4084650768747216
1.4199104541224792
1.42958361617923
1.2971182772886192
0.9843690218857631
0.6077998579606488
0.3287677333541638
0.12423785857004416
-0.1415005721721825
-0.3943518916961853
-0.2583191492603394
0.46189988936710774
1.4827321773402136
2.4119322958857317
2.926852503858417
2.7753188440693366
1.9439573184499408
0.8398994592489699
0.06459052753014964
-0.17879037012871293
-0.1059256975566438
-0.09971077762372768
-0.5258759855569352
-1.4058490030104527
-2.5160422077361972
-3.5962888337629706
-4.286077760893207
-4.266022998452425
-3.3944430977979807
-1.7514029786023284
0.2738183558126678
2.2002274376587727
3.610305825277079
4.12860544468473
3.6857659206912334
2.604666012920492
1.3982043807607942
0.5688984007133938
0.211586521603313
-0.10257454847749932
-0.6606596181642169
-1.214703958651914
-1.3894647128240951
-0.9486741393369783
0.09239473672127758
1.335195567363311
2.246210807006432
2.5677978073851153
2.413151811839876
1.9009485962915307
0.93006792511661
-0.4247597159787346
-1.6292677505424655
-1.9914234685181522
-1.1542970163776314
0.511711632765192
2.091368337495906
2.9280418209114214
3.03769864533308
2.740183804814606
2.259829683873726
1.6489289625756618
0.7475299186489813
-0.6190973183259704
-2.2236216723413547
-3.5605232846025343
-4.225862390834265
-4.067432373179207
-3.337759308297992
-2.498774448733742
-1.86144224912174
-1.4988659628917917
-1.1642479060548514
-0.563501931598969
0.24435829750454285
0.9929454955027184
1.3785887683120905
1.273717971293497
0.9681536596247298
0.9062731592390406
1.374507453274862
2.3578466261292994
3.49396297760208
4.320444433095565
4.64677388242816
4.675241967596102
4.645440698117614
4.410272941934488
3.6110426205989143
2.2144153187797126
0.6069691488441465
-0.6725530144299665
-1.1612441001197251
-0.8311588444170316
-0.22096166357034652
0.0788712902019982
-0.05881282602158422
-0.3484119944647517
-0.5408493807990307
-0.6385189218948134
-0.6510087082931715
-0.5491325290646613
-0.3675777262498342
-0.16719245459162302
-0.05603743395880904
-0.1715175604492337
-0.6003448911924898
-1.2419551379332048
-1.865712657711529
-2.30749875503665
-2.3653487333397996
-1.822634824410828
-0.7660784190690608
0.4800514151374233
1.6132435503865172
2.2769066915324987
2.095887782633405
1.009558686858015
-0.5320456423561658
-1.7698727647141106
-2.132561956028777
-1.590386110359244
-0.566025708853845
0.4207265370846787
1.0137327118255433
1.1086486091285446
0.8341352654577482
0.4427097115256992
0.14958009580598275
0.02071340085934663
0.003128393971409473
0.06037119863835734
0.21115633752858134
0.31895258047372255
0.017364346424880786
-0.9284832355036708
-2.2740013907352408
-3.376756228369078
-3.6401489604114845
-2.9105317686180765
-1.4703099326442024
0.038763953181798406
0.8870988533654269
0.7970977682162245
-0.08114611146150373
-1.3662382594292626
-2.5496632251637674
-3.377095006462582
-3.961429653332238
-4.557962886082589
-5.275434762079224
-5.9875454250651154
-6.422949652062769
-6.155986449304718
-4.883506171028745
-2.740187030522617
-0.14314457457942611
2.3889444194540896
4.319213741514677
5.340341061797003
5.372521941812492
4.278106006172031
2.00403026715045
-1.0790490604501057
-4.315655931611902
-7.165141573153649
-9.329534003160449
-10.55004306089209
-10.554209265365309
-9.264802800108699
-6.826443418744731
-3.545866476439331
0.050927737104311394
3.267302253852877
5.5294348668779385
6.671487092156387
6.813424538572364
6.196751484704298
5.090000882305824
3.5538716721430457
1.5183069171214834
-0.8659629491496524
-3.1561307552822546
-4.921243446744371
-5.848960456156084
-5.814952058860575
-5.013279929482595
-3.684777883209943
-2.0617956332538347
-0.5477991700170058
0.3875957792067087
0.4802276029872918
-0.08824862309672513
-0.8147114678042766
-1.3118622250299792
-1.54442220953763
-1.6217782373294463
-1.597299943088199
-1.5673530697026907
-1.585050372957669
-1.552377736767456
-1.353357025619325
-0.8683700071430518
0.025532336442918704
1.3837135617592826
3.037959995203442
4.555007332940274
5.432316815178078
5.204651890373608
3.729079643994295
1.3388859356568943
-1.4615478883983684
-4.164168369014587
-6.410360156061725
-8.070913299195265
-9.014711215338723
-9.105392512719062
-8.365829837008905
-6.912269466462319
-4.890438335036265
-2.5855591564913536
-0.3983406758459043
1.4210039097360805
2.8284748787485205
3.8126845902721933
4.162286874995159
3.526529835413589
2.0273963350309856
0.27977476089428377
-1.2583365078692184
-2.4517795818959023
-3.370104877172455
-4.057950608503695
-4.385063431110395
-4.23302089034662
-3.4674361455029343
-2.067815864467383
-0.5186916035962029
0.3502747827774546
-0.02598499578523072
-1.4680843091579483
-3.1732933655503004
-4.267523155411823
-4.3183501953206775
-3.6271542794078715
-2.8455092445610912
-2.3561281563552297
-2.20793507168953
-2.2946510849993484
-2.5184614131387493
-2.7432674528412413
-2.63620922077133
-1.9920812195579263
-1.0445381451632338
-0.1586644753378354
0.5132900154323435
1.0716526681191496
1.6503069131211734
2.2176228510661096
2.703126843788905
2.990841275409583
2.893328976464343
2.372094266529465
1.4963893396735872
0.3205390417405819
-0.9954448548025684
-2.107609579852802
-2.692643684383391
-2.679555314977186
-2.2023267138433984
-1.5206917504006774
-0.8638534654945909
-0.2799030174732105
0.17202395584968144
0.35108204450455205
0.1487886855819613
-0.4569059640783347
-1.3247486444479268
-2.244678536044101
-2.9983891287328226
-3.4814453009244337
-4.007001808954111
-4.9900659758988555
-6.343889037763228
-7.48038760825903
-7.711779642819441
-6.77329129506332
-5.102306043714122
-3.50958210791648
-2.5652326638486462
-2.3789845408317802
-2.8073605464050484
-3.497402818341963
-3.930534635446483
-3.7431133387480355
-2.9372532801154705
-1.8970737671831637
-1.190311447836323
-1.0808331554881034
-1.3519194930530292
-1.6411535187660142
-1.683464045725651
-1.3308470785853304
-0.6293492271960183
0.1879175017487385
0.8916465523018726
1.3754649472776455
1.6985729097298858
1.8622825109631287
1.6046079280199503
0.7621045667113611
-0.51177242320897
-1.9184215992830216
-3.148938713953939
-3.958232856938584
-4.192960402019509
-3.947983099669884
-3.462230143811443
-2.7533753511483083
-1.7411880947919682
-0.5079225541837711
0.754420788735334
1.734113877043092
2.1553056600166913
2.0908260616159953
1.749733642486984
1.2436280393831196
0.6639263770973891
0.08934316226402875
-0.3448755192407256
-0.46853852300103205
-0.183414294479994
0.6006499946726451
1.911044114957806
3.470365964907092
4.713358251026583
5.074710594040104
4.255527876868561
2.491549341288022
0.45639670826223766
-1.3519127454264812
-2.895501884040069
-4.1840314257467535
-4.921339538614866
-4.791673644684544
-3.858201809894996
-2.367392674160378
-0.4706801632262671
1.4775231836457865
2.877877531889387
3.4340704967455413
3.294379895401848
2.7754800515689912
2.0866744294341357
1.210804974053637
0.14134574957443008
-0.9281774667048995
-1.754421253271596
-2.3074075784384283
-2.7009021409137057
-2.9077603442106836
-2.8588163093766497
-2.6261775410842896
-2.311689499983606
-1.9930145096735827
-1.7359468670516043
-1.5694852577565797
-1.5638430255459617
-1.6732338079359896
-1.5977788120946586
-1.162941618902176
-0.5934140917033511
-0.37500334209923375
-0.8869115448128738
-1.9432111791698987
-2.822444513821244
-2.9525252404512816
-2.3073220775225374
-1.1160445310037368
0.38247119011248853
1.8957754534985178
3.0511002138660177
3.4422822009215075
2.8147726889794136
1.462319101479937
0.1639569327191255
-0.5516757522247056
-0.7576382609723877
-0.7484573742988226
-0.7436045258999014
-0.8986242977354582
-1.208631769076637
-1.4547823655288892
-1.3060656448902463
-0.3392262020046672
1.7254973542966212
4.587697011784285
7.548794109614007
9.905555055632556
10.939734997087303
10.226343137997786
7.924981405400103
4.4604827535234035
0.37097208149361843
-3.5749324631376482
-6.635773603172371
-8.352357671928857
-8.388793138232328
-6.60209993815786
-3.3571061945862333
0.5982110637095194
4.383433551270731
7.0944695758981124
8.112275157701028
7.376525832191614
5.31301495937518
2.527132176858374
-0.42459007498422985
-3.0668410357733693
-4.980240447468789
-5.886017880260138
-5.770320933766259
-4.814376384310831
-3.349481609583806
-1.6407662310290527
0.23846115824369246
1.7598882059019225
2.411639615097821
2.327352273369472
1.293033756883997
-0.6527195866455663
-2.6396496360481443
-4.198685907556895
-5.152676769364845
-5.363717849612514
-5.115137497996612
-4.5938863893823045
-3.7267020651297136
-2.5225629354298653
-1.0198472978899351
0.6748704021648791
2.4580316945019725
4.257061952857701
5.757724567491062
6.592195794834119
6.547743721716583
5.509616449790357
3.7596618572263707
2.002697397956543
0.7884954930862739
0.23437834095408974
0.2574290389215371
0.5355266573873045
0.4628325585350903
-0.23913901127818657
-1.2375288520450198
-1.9041748989244298
-1.5899333046775164
-0.13170996599091808
1.8275916841463
3.4299133991571114
4.18752022618984
3.9903486393176606
3.017254061705292
1.5169978095257517
-0.23625058189212358
-1.8249450364484971
-2.8793429236691708
-3.223702604745897
-2.939907670750772
-2.3129878270637936
-1.597174363697233
-0.8802977566692756
-0.02670059466871877
1.087582279713451
2.2283656944699075
2.9417295878685206
3.031001802522674
2.648640944154773
1.9545373076672814
1.0021433970025433
-0.12101674734631754
-1.2144549400164613
-2.1142678495759974
-2.8617659964534443
-3.477214000243745
-3.789970211222087
-3.6697414119111276
-3.053491766340204
-1.8917482120097155
-0.48482830224779105
0.6168483751305808
1.161525593979612
1.2596820257053984
1.1381699812905222
0.9279732659919083
0.6453990538708603
0.34722108012202346
0.16948860840508592
0.2788568349899191
0.7706493708660469
1.5113674987149848
2.1225074695784674
2.1112272770444793
1.209233523276408
-0.26099729866885363
-1.7357407864610086
-2.8433610008891006
-3.312927018463559
-3.0319079227393035
-2.0104601646190505
-0.26615979448132154
1.8959093903050148
3.834055385337829
4.991815984729398
5.093594117659011
4.1578973419406475
2.51935537589195
0.5951059719269659
-1.2694023185635162
-2.8382171890392636
-4.073318998339063
-4.88567388019904
-4.979450364675978
-4.22499208561255
-2.8956868492996146
-1.455209852941757
-0.2693684400531569
0.44886882329544703
0.6380323240308029
0.477884628598436
0.345860551872507
0.5320830723419949
0.986485082050631
1.548198587663867
2.196672704507962
2.839166386308575
3.2368231591895245
3.1418939692797605
2.3508864592579046
0.911269216819435
-0.7153144182216002
-1.9539323930118861
-2.543623043639205
-2.5315187922616675
-2.1461944868572416
-1.831840185932434
-1.9993622517593452
-2.725572988798056
-3.8085529852715676
-4.877885869697241
-5.562605128120915
-5.677361851132426
-5.162226002588972
-3.993441833082193
-2.3304770629412928
-0.6406091063555449
0.5557903874348976
1.0524421416206526
1.0858717127685948
0.9807578866983819
0.8911517366612348
0.9381225393710533
1.019571402715012
0.8803202667091024
0.4972384217326253
-0.031277415588232445
-0.6455859051616627
-1.182009548773179
-1.2852201363546776
-0.6706826240764201
0.5575272997523477
2.0079003920734264
3.2326992456994383
3.8679801205044733
3.913293209076585
3.685571613525819
3.307678059600783
2.637602993195875
1.739968093759326
0.9725276198246012
0.6311159566237213
0.7263420574737939
1.0361042606818194
1.3769331422635713
1.6136884326175973
1.5779783824957672
1.3613725876993887
1.2533201000450023
1.3784697298004747
1.789444882736467
2.4275932837608347
2.887687460824959
2.7614809535813296
2.0114405852661306
0.8247784881095609
-0.6255120876503626
-2.3058048517628023
-4.101982395844421
-5.539063240511987
-6.068708325532869
-5.485028184796584
-4.022685942404039
-2.107221250922576
-0.005435428925811215
2.2546113060892004
4.681347306562942
6.983352503775476
8.701432742949939
9.561378338516821
9.37737077208198
8.074796728726662
5.869537708781588
3.1729352308929726
0.4617235784677736
-1.8168116040511793
-3.3779897730975623
-4.157724669408931
-4.304203091469055
-3.9987388063489973
-3.2108611161701006
-1.79955703052855
0.32457711814099965
3.14701186126097
6.4913144986808575
10.028735761239561
13.099995224163383
14.77459849583206
14.522110270837704
12.520559288476687
9.355082870278824
5.7882440116621146
2.5581148047320177
0.1353730095214559
-1.353042258684451
-1.946211802647434
-1.627794761380488
-0.4546409124057979
1.1772572932513314
2.6587620115043142
3.608369251439223
3.9617670166693384
3.85129878873448
3.5595754012682175
3.107485579267977
2.335244762712347
1.4855204180432453
0.9315042890257509
0.786380743394054
0.9794551314696106
1.310101455614523
1.5063427227835233
1.3304867063591639
0.772029596758329
0.08357514135989397
-0.41034588375672953
-0.4467101522349166
0.13607809373321833
1.2947567539877516
2.6939186743197627
3.956007144776764
4.916601423763503
5.579263779011654
5.987503042170612
6.109745039232001
5.870849109391142
5.267206498182275
4.337667484761525
3.054783326437762
1.417303156328051
-0.29854970355353316
-1.5417835896925267
-1.7964580492244941
-0.9700142344349243
0.452164481077721
1.749831960889318
2.4139979308673736
2.2988796400898193
1.6860788225087617
1.1751042780942629
1.1889746460762483
1.6818527309666522
2.3956993931081354
3.04679937772975
3.317203217934865
3.0499632012822926
2.3863013414994403
1.5888109864776132
0.9161103743363114
0.5326483941009966
0.37615546446983766
0.32715975873578296
0.39854833700097025
0.6238665999066123
0.9766967449117677
1.3858777094484065
1.7961160092452528
2.211721680424294
2.560305527569575
2.6770978399844307
2.4588076559752663
1.9395354014760025
1.2837597547377628
0.704598075139847
0.43613149982637894
0.24766362017567806
0.7682533047907021
1.2217011539807463
0.5543877357248693
0.963306070210075
0.9204131097987641
-0.6278595754733577
-1.3108130663202915
-1.5508174431275343
-1.270271355592918
-0.4640220341957292
0.3722359532164375
0.9875724955561488
0.9879572862260134
0.7483983984595975
-0.07201597148632427
-1.438032812648185
-2.8428913263558666
-3.923645191034261
-4.021996322109412
-3.117235086776724
-1.5955950032676842
0.21271787934040065
1.822819158379188
2.8127029984065572
2.9764490835858863
2.375413329836677
1.2468412930386124
0.08484279085735445
-0.7355717689224474
-1.0181341044697645
-0.4895453120571366
0.7697750574396823
2.415614837569958
3.9422901739240457
4.940301630864142
5.180751875090964
4.408692069892622
2.8312957333551547
1.1564835112047098
0.07814954645892593
-0.4139400477291008
-0.6727182609223241
-0.7707272832088915
-0.7245386918756734
-0.3654154134122406
0.4514576216371512
1.5106271097717132
2.6685586357571682
4.002418552287963
5.417703607312015
6.629338359652494
7.197662221860189
6.795291747181812
5.644093497778043
4.286377359974868
3.0737569945979586
2.1381546647955845
1.4985892131472967
1.0436393819700545
0.7399471951482479
0.6363892584004281
0.8968536731493149
1.627941786376349
2.5699418585799263
3.3916953781604615
3.8455419990945794
3.8992334553839014
3.8482140693984723
3.6952044899549774
3.3277887246261537
2.9563577898293
2.5615733922584076
2.1930026415625274
2.0532162734815147
2.1312385497401984
2.331089233235194
2.380339576467429
2.209267971823029
1.8439777335786371
1.2296857160264114
0.6621811664530959
0.26162308177123716
0.1086463446371854
0.5328669555455133
1.1563242750065346
1.605564566180699
2.0726791120314054
2.4537679322429238
2.8427841281220654
3.3584011036797525
3.6969641536499918
3.750028318573825
3.5328584933839493
3.205861449637721
2.983281046625902
2.804765376459446
2.7700290801181895
3.0343483917505
3.1944554275026498
2.7899685396057534
1.7033017557232673
0.09673855348190327
-1.4266162348773794
-2.2578982888279455
-2.09398850192677
-0.8817168099203179
0.9101154847057503
2.44441402076198
3.3784378933352746
3.696395931485972
3.419592831462526
2.9731191798750243
2.715563237318815
2.7702583665457228
3.105309563764413
3.350604174089032
3.3062576038268214
3.0098865031705664
2.328685629811866
1.3728974347719258
0.5782348696630659
0.26182843097371306
0.35649847418218444
0.6265071565734058
1.1412382921863293
1.7436778169578366
2.170119298628419
2.6660054308485326
3.244082159642846
3.637739227538858
3.7830179225639124
3.763467198072824
3.689529482248434
3.139428758856763
2.334071835114366
1.8106773476984772
1.146545690557156
0.6133999724129104
0.3586049595772092
-0.07875590480082982
-0.7121507894850995
-1.2027356746858693
-1.3016981173579054
-1.4676738892596826
-1.5247591690229014
-1.318250971883493
-1.5056840880692821
-1.7986522678869972
-1.9471444330926213
-2.231887476830722
-2.4667713381723133
-2.547638560998952
-2.3326076353996785
-1.7848446339429718
-1.1852145045456555
-0.5737044283045568
-0.15043875153233094
-0.023935010411461732
-0.04431305200095248
-0.38954730411577004
-1.0912745839218476
-2.052854151058421
-3.0977968585834406
-3.8654456359087903
-4.380977662289293
-4.573463435025613
-4.39350641097461
-3.9565164944513924
-3.085555158793189
-1.8575236344580504
-0.43678176094651605
1.0033892177632677
2.1669813944658496
3.0387118865681852
3.5780191966714416
3.570896782022498
2.978633956241205
2.1227971144076054
1.150499046800352
0.018239437406802193
-0.9203029921854091
-1.3686073509022592
-1.5632728089061638
-1.8682972333382992
-2.3952803198490593
-3.1178035884890125
-3.6197886635499996
-3.478151351811212
-2.717001731076203
-1.3722795186920098
0.2844079302312052
1.9039049724832429
3.1806701348555526
3.7067647051273926
3.5702698570542006
3.087356562444116
2.3220210100969503
1.462820084594623
0.6560348336444571
-0.03071392417694936
-0.10482410498969642
0.20379029256704898
0.33820552286524
0.917107078010259
1.7355626891364238
1.8327967249815187
