AAD_Filtered_TADAS_FILE
AAD_BASELINE_CORRECTION: BASELINE REMOVED
AAD_FILTER_TYPE: BUTTERWORTH
AAD_FILTER_ORDER: 1
AAD_LOW_CUT_FREQUENCY_HZ: 0.025
AAD_HIGH_CUT_FREQUENCY_HZ: 40.0
EVENT_NAME: 202302060117
EVENT_ID: 13194
EVENT_DATE_YYYYMMDD: 2023/02/06
EVENT_TIME_HHMMSS: 01:17:32.00000
EVENT_LATITUDE_DEGREE: 37.288
EVENT_LONGITUDE_DEGREE: 37.043
EVENT_DEPTH_KM: 8.6
HYPOCENTER_REFERENCE: AFAD
MAGNITUDE_W: 7.7
MAGNITUDE_W_REFERENCE: AFAD
MAGNITUDE_L: 
MAGNITUDE_L_REFERENCE: 
FOCAL_MECHANISM: 
NETWORK: TK
STATION_CODE: 2107
STATION_NAME: 
STATION_LATITUDE_DEGREE: 38.14594
STATION_LONGITUDE_DEGREE: 39.48379
STATION_ELEVATION_M: 714.0
LOCATION: Kahramanmaras_Pazarck_Turkiye
SENSOR_DEPTH_M: 
VS30_M/S: None
SITE_CLASSIFICATION_EC8: unknown
MORPHOLOGIC_CLASSIFICATION: 
EPICENTRAL_DISTANCE_KM: 234.92
EARTHQUAKE_BACKAZIMUTH_DEGREE: 
DATE_TIME_FIRST_SAMPLE_YYYYMMDD_HHMMSS: 2023/02/06 01:17:52.5013950
DATE_TIME_FIRST_SAMPLE_PRECISION: millisecond
SAMPLING_INTERVAL_S: 0.01
NDATA: 14501
DURATION_S: 
STREAM: HNN
UNITS: cm/s^2
INSTRUMENT: sensor = CMG-5T/GURALP | digitizer = 
INSTRUMENT_ANALOG/DIGITAL: 
INSTRUMENTAL_FREQUENCY_HZ: 
INSTRUMENTAL_DAMPING: 
FULL_SCALE_G: 
N_BIT_DIGITAL_CONVERTER: 
PGA_CM/S^2: 74.757
TIME_PGA_S: 
BASELINE_CORRECTION: BASELINE REMOVED
FILTER_TYPE: BUTTERWORTH
FILTER_ORDER: 
LOW_CUT_FREQUENCY_HZ: 
HIGH_CUT_FREQUENCY_HZ: 
LATE/NORMAL_TRIGGERED: 
DATABASE_VERSION: 
HEADER_FORMAT: DYNA 1.2
DATA_TYPE: Acceleration
PROCESSING: Automatic Paolucci et al., 2011
DATA_TIMESTAMP_YYYYMMDD_HHMMSS: 
DATA_LICENSE: U (unknown license)
DATA_CITATION: Turkish Accelerometric Archive v 1.0 - Disaster And Emergency Management Presidency, Earthquake Department
DATA_CREATOR: AFAD
ORIGINAL_DATA_MEDIATOR_CITATION: : AFAD - Disaster And Emergency Management Presidency
ORIGINAL_DATA_MEDIATOR: AFAD PROCESS SERVICE
ORIGINAL_DATA_CREATOR_CITATION: AFAD PROCESS SERVICE
ORIGINAL_DATA_CREATOR: network: TK
USER1: GuestUser
USER2: 
USER3: 
USER4: 
[...]
8.239369192110809
10.714060612451798
11.915048996502358
10.359264973762269
5.62779902550235
-1.2444814837201525
-8.629206745458392
-15.38575401139641
-21.56017457444649
-27.684502835792937
-33.48424741367957
-38.13389131898573
-40.51862403788446
-39.71152198112551
-35.644123836137304
-28.568447650032756
-19.438960836399616
-9.342520773640187
1.1340687815972195
11.247137341246647
20.201809635402082
27.657950950549033
33.635752145345386
37.979265700837985
40.618198513115196
41.5949592435096
40.814708298649606
38.448041697792746
35.01775130479379
30.868668887361185
25.682960951139673
19.34898867826276
12.50772434765847
5.701864026044768
-0.8627919440323344
-7.004783943296448
-12.14059071775605
-15.621099346344964
-17.296321448911353
-17.899067764338778
-18.123038460378957
-17.328242524758515
-14.717010212749582
-10.887794783648177
-7.070057409596239
-4.250480359680391
-3.1567624968340846
-3.631851991235381
-4.556530415546618
-4.397709376016528
-3.1363858518092065
-2.1958750541687087
-2.178286728911404
-2.60365533774599
-2.413117559073394
-1.2598484202926847
-0.14491485435869172
0.12347078472061299
-0.273317538824066
-0.8141945103107073
-0.6411272219010277
1.0399180912472508
3.6032799923678307
6.212805876526075
8.636100303409457
10.70366784297462
12.240643198958868
13.206377021843979
13.663168353345688
13.155158230807803
11.367624645528975
8.800857186425599
6.417196219269583
4.833061763638978
4.231156407349572
4.567716157659593
5.750767178665804
7.7459546868856455
10.14939694522277
12.490619814123333
14.888915134460062
17.681938409469304
20.746612890776237
23.221429315370745
23.780010131666337
21.97801207058627
18.972117846863117
16.227868466401294
14.325563103732952
12.935930279509007
11.244314766766148
8.879049432946422
6.464462664468143
5.376139488803576
6.711362795761016
9.874683962849705
13.491873612589162
16.86396143119607
20.182546054799428
23.894859596665345
27.687457273578904
30.5403857553327
31.576624397114056
30.48364243907332
26.933545711747232
21.052433790429127
13.951335659186036
6.911240862223707
0.8722528400858636
-3.697839276526078
-7.4676964139140445
-11.72755523838744
-17.033599957938645
-22.775693563377317
-27.14139827078542
-28.296980078960402
-25.937394431157212
-21.82016007523477
-18.73520025412285
-18.135320972558283
-19.468857952092097
-21.4065083928942
-22.70586665831073
-22.429308093713114
-20.66250454770236
-18.009335999287167
-14.721979465190051
-11.328575971138157
-7.858446449588962
-3.337184594831237
3.0557695457331127
10.679688628598171
17.7129293445956
22.86601841420104
25.795152241373057
26.801024380654717
26.522182146423916
25.625698111166354
24.76684788768362
24.250267767674444
24.189994876953097
23.501266932928644
20.47159351362076
14.352820723862774
4.9722274129242425
-6.704785965588586
-18.396690704023634
-27.988345618234106
-34.3914885907989
-37.525565799134895
-38.048650689678055
-36.25117117467113
-32.21518426129689
-26.21264173353235
-18.827460828604156
-11.34216305459674
-5.15806460089569
-0.14570531500203202
4.524093613153012
8.884458400989562
12.294185800415542
13.815459412250792
13.406578096909776
11.884752085798876
9.4809538300834
5.78740942917181
0.26362596872787003
-7.101698493968859
-14.90528724683006
-21.51068925342443
-26.115503909893334
-28.879199040663732
-30.136129281323424
-30.4936307064389
-30.44070240097647
-29.462257424344347
-26.895401837218593
-22.431847572370927
-16.24930824467138
-9.10129266896394
-2.1144569440789818
4.567211598392359
11.725679401831137
19.34154874594183
26.052836532434053
30.016533180179362
30.28491400350462
27.381338812501568
22.663164802185445
17.734832969101383
13.77796973033136
10.719614585426429
7.667949663139773
3.5551038772115806
-2.0244551831131266
-8.012873268395055
-12.814256734925301
-15.745444749019619
-17.321762420045008
-17.885617588256398
-16.79843252554533
-13.463500200612284
-8.644530976175988
-4.18535017559891
-1.4307092673685984
-1.0112877049462232
-2.4061269568458727
-4.748404008746316
-8.759320805650333
-14.77451891205477
-21.427007211796735
-26.884106049622957
-29.651530459184368
-28.960832322624494
-24.970059920949165
-18.73005915259439
-11.153070950390664
-3.1445934487872464
4.374056220064512
11.098766957848657
16.83575453663219
21.593204594969755
25.418606044451078
27.65086860220948
28.1235464704329
27.481908633063316
26.26719136042917
25.026972283573805
23.70209327788017
21.7087130917095
18.814364234799857
15.000464943977647
10.178076908577728
3.8636231452715526
-3.478009166106856
-9.314484686773962
-11.170176587791879
-9.458645587813754
-7.094903319400942
-6.167764793084915
-6.498341684009782
-6.954471563791998
-6.98915885075799
-6.911120417435292
-7.350293730363217
-8.748655456152369
-11.047417911709774
-13.057764491095888
-13.730343944872157
-13.703957955065965
-13.419194845138948
-12.459580177175187
-10.641480262990946
-7.9947782259626505
-4.33394311026411
0.6753763994119132
6.808717561098919
12.855176809279433
17.26640916769521
18.869283792569618
17.502535554536
14.358353022834041
10.715904164824407
7.475602503877963
5.352520687599023
4.613561718734214
4.977206575717505
5.971305661467546
7.151232671769266
8.294870943334729
9.366316327067024
10.3208458874817
10.698899900189272
9.676255548143507
7.107009643032741
3.283266662870975
-1.6185886247748253
-6.949794111617864
-11.547902355219133
-14.58975506579577
-15.776993414165588
-15.260735776377446
-13.822039220650073
-12.234570141069343
-11.06372993188818
-10.418982918324502
-9.812787943477531
-9.296617661492405
-8.816915734705654
-8.075774642801363
-7.3072900680152655
-6.422746379419618
-4.998061389418961
-3.276628824492707
-1.4990395843127542
0.7102457549807847
3.4397212218909794
6.358132286169824
8.72790413469969
9.883525248566595
9.73592109955642
8.653291775570974
7.292086296991123
5.702102015082249
3.669099551543387
0.6932402930020565
-3.6177368197598354
-8.577893816200735
-13.267655836428014
-17.04453405777987
-19.591598654339613
-21.061495707433007
-21.877699409970184
-22.13287454497274
-21.944469949676574
-21.810028518453183
-21.995681857871034
-22.591252815973295
-23.654949222500743
-24.999251356924255
-25.93671853352135
-25.556047623862117
-23.42869764190383
-19.79842405582972
-15.392026177232252
-10.654855855234052
-5.568550399001129
-0.21977256504156947
5.106534899107982
9.9795689272384
13.759418771819043
15.76794488909319
15.702663721946932
13.713734768478936
10.084199883881226
5.626778065145365
1.430063101990765
-2.18555144432603
-5.3050174186558055
-7.973055056093962
-9.773826194255552
-9.975713445428575
-8.297538704488892
-5.069054849063169
-1.2617959308486146
2.313841620670283
5.597476106990177
8.92244631458711
12.531417826524386
15.867062996072537
17.456384707563956
16.16231420760878
11.900510644615599
5.21467878746389
-2.8199499909028587
-10.427970123760904
-15.877770147374624
-17.93909084379683
-15.821926847557867
-9.575458232924055
-0.3300217196568915
10.008663089058242
19.571232915251016
27.312644978613235
33.32349363957935
38.103729277749785
41.55716507138867
42.82670532809005
40.8796765772388
35.00272683695346
25.614168512938445
14.449209882541542
3.2384345004538764
-6.887246873508926
-15.194567161049093
-21.39846447306657
-25.18608859454403
-26.533995496018534
-26.58138204072447
-26.44163178576073
-25.961031466338156
-24.552240960420477
-22.532824831871757
-20.913082484485944
-19.849138641323872
-18.518179645647162
-15.919412723442493
-11.550769923539455
-6.155537198839115
-0.6090540543229754
4.831160936784598
9.474860276100229
12.80082343212307
15.036481796968431
16.360216986881436
16.844813354534608
17.227611762156545
18.199138027540826
19.088456457219166
18.999647249288532
18.235495815818762
17.689810590948102
17.638914987358135
17.943975881989783
18.602066992446836
19.591199568406402
21.022576747319665
22.808333689057267
24.349111406703248
25.30327291365173
25.477515133873176
24.360244315018573
21.70231732879117
17.777785166391904
12.904267761787315
7.678415447287841
3.30019399507499
0.6658757777872816
-0.2650316542703385
0.16894304651860212
1.6274476376588367
3.9172348232278975
7.134846704934212
11.071464554415122
15.181940708477315
18.745998475509495
20.8166963415741
20.857489974856538
18.77856734231318
14.807690546709141
9.504125660495948
3.4045067011078958
-2.5658560014327847
-7.524695065344465
-11.62542236479265
-15.855160430390725
-21.070226993210166
-27.6576108687009
-35.81667060974331
-44.917063686366774
-53.062725834335346
-58.269848512656125
-59.62272674257591
-57.17983564797584
-51.608438799906686
-44.24384752954698
-36.03510655016495
-26.766356756909204
-16.070401283213585
-4.119959487185702
7.746875092449684
17.571715890358224
24.679034221471994
29.318712314223184
31.602354539808136
31.688980725281553
29.579666347139593
25.613419101368155
20.99491345975671
16.878243953607594
13.602350775657936
11.465924525491458
10.540050935568175
10.089841998892597
8.714378218356504
4.821184248723894
-1.5918244662556722
-9.222156591027394
-16.265156399359935
-20.563356225929397
-21.591081872323315
-20.86500908110678
-20.169841801659665
-20.794907723571633
-22.615463248774855
-24.47362730620944
-25.270655690946974
-23.897733900137478
-20.69319170263168
-17.021893953135518
-13.089773830192877
-8.441215610087127
-3.396359269409242
1.1175775899121239
4.2388362081217545
6.1170221079830185
7.295512733953046
7.96077093576676
8.51416196806077
9.278508392279312
10.488551562624504
12.4699792855915
15.463089706412168
19.009409949174902
21.83227112057484
23.001190218491782
22.772595773758887
21.4867249341818
19.296448638419974
16.795823006549824
14.499699955986575
12.412443042608162
10.338782543661983
8.473313201449395
6.988734328235326
5.432894666372318
3.3650531099101935
0.8272953787170899
-1.594643222351917
-2.9573040137444346
-2.693936312121212
-1.3904448529325726
-0.38138787780568867
-0.7535188096097911
-2.2495128543673317
-3.3722846037647836
-2.865309412259387
-0.7468270032466046
2.105199968657934
4.531439042989225
5.327027799277242
4.1319498949466915
1.3870907605537945
-2.3919402004322703
-6.729945792927089
-11.062481439723115
-15.105370055753076
-18.868689962577765
-22.024114662185642
-23.818501880554656
-24.18314253079224
-23.58866253050072
-22.722174181616563
-22.788211902845575
-24.377391401996753
-26.41243326293676
-27.326061833814364
-26.518828899774725
-24.65592867907991
-22.718970090990222
-21.043033373498922
-19.391564704912067
-17.50827012386467
-15.013332481375631
-11.619727971424746
-7.491039124413436
-2.769354739999008
2.291597265635027
7.52286851848894
13.001392701380968
18.573309977874224
23.636263692524736
27.28668443619227
29.004386467285038
28.288263146426633
24.804805731378103
18.582897851441505
10.384086174339135
1.210607298252034
-7.6949865797605295
-14.939570342778383
-21.407596626588266
-28.175366186169292
-34.221067609905916
-39.04487921991681
-41.97160292618627
-43.82691048396152
-45.80181804547381
-47.67738420823911
-49.752733696666944
-49.96307053562177
-47.41607827460586
-42.631646026787855
-35.63619020027168
-27.293497053143735
-19.02893954146508
-11.526848861547764
-4.837296269938972
1.4491199256395668
7.528142430574519
12.676822965070734
16.054155225908634
17.0572741717503
15.501507339428722
11.695354508915944
6.598509987946093
1.4628031615650676
-3.2272594683673512
-7.166719979470366
-10.067513443817202
-12.215383585062725
-13.668891189807278
-14.233321594352336
-13.452870292689587
-11.645926678238416
-9.081016870126536
-5.8874310187682575
-2.569044170892771
-0.21946739681760072
0.051084921478355985
-2.2841065410426173
-6.285407072928698
-9.975915892534054
-12.340343704900745
-13.232781129535049
-13.42106602435115
-13.612623891577558
-13.576144122699212
-12.7177248697694
-10.976481200402898
-8.609717797658647
-6.278546114642697
-4.219343295101199
-2.659906740658388
-1.8745154343128614
-1.8310002310788005
-2.4362456176614455
-3.6035657383892716
-5.557066039068808
-7.851809686785806
-10.525941028916646
-13.38638884370066
-15.416315330853163
-15.862684568950149
-14.662503724035789
-12.520170072999234
-9.696931736078241
-6.694264060788355
-4.0449521783890825
-0.7918353924133203
3.125494588462054
7.8670609063428
14.579217406090482
22.906205443224025
31.68628384648678
39.553350416398615
44.918879379558014
47.47632297716102
47.86008435089427
45.9395344226786
41.84018397488225
36.709461961987294
30.850912995467077
24.800617237597876
19.27540409378417
14.47143095653521
10.92995995113851
9.27141778299013
9.156766225017982
9.589657655869802
10.961323254921437
12.576801608751413
14.959558674700421
18.68876990468324
23.559891323064573
29.536253138515402
35.89511934121396
43.21879193324876
51.13879904810178
58.935051438634225
66.2233539088665
71.87003679624915
74.91577648904094
75.12249760443207
73.0545863123673
69.60696230482672
64.3764120285177
58.03548707133205
51.66441955933557
44.621240835967455
36.54290714609161
27.0614669947413
15.487518685128654
2.814565697787022
-9.217037276735896
-20.303957471164086
-30.368431401289325
-39.160020116598965
-46.76596288570844
-53.33344839369387
-58.37089881224213
-60.793095225497424
-60.12097962130456
-56.36600337613912
-49.92238700031665
-42.23632047757472
-35.48532197653793
-30.872397554127225
-27.901768550605976
-24.923279322192275
-20.10679298331894
-12.6855788919339
-3.0735952439662695
7.76794730464856
19.29162857993282
30.880072136453954
41.875489631549165
51.70869149320833
59.791566036133894
65.83013044199305
69.32504531574607
69.70242160550968
66.85946030725482
61.19280611771783
53.32103719046085
43.83467141707682
33.096642770174974
20.96515022080993
7.431960732110832
-6.706130649876037
-19.766717044893948
-30.103984676939866
-37.113367732227694
-40.77703901541951
-41.36222133384591
-39.194777489062304
-35.57541015831761
-31.719707492809917
-27.27601289695452
-21.09406025403558
-12.304937224612306
-1.8009074856416727
8.559434065805544
17.745040471296793
25.58667616173166
32.080171466098506
37.375258918015795
41.92125042132245
45.52431681781505
47.158528005210634
46.046474057804424
41.468039042954686
33.21044642646675
22.38652084633682
9.970202887282218
-3.2014335530899842
-16.19081156269611
-28.585541084264236
-39.81770777709869
-48.990893037204586
-55.78036634965872
-60.42101945024182
-62.53111088330595
-61.45928293401146
-56.49550960237422
-47.05946812926999
-33.40611406379474
-16.92644212579564
-0.26065933535438124
14.082807161468834
25.054646297414855
33.83108502627074
42.55807976256314
52.32141952635886
62.17494013515601
69.76702367515475
72.3932365778578
67.18656490971227
53.78021973826076
35.39813149444436
16.050090570442322
-1.8529044596469337
-16.6346353051174
-26.781341616655315
-32.350299599525734
-35.35459530821113
-36.85989356102905
-37.04584724388559
-36.16810639498173
-33.96549301709718
-31.81556538597283
-31.04735433584484
-31.602761503093717
-31.965846648350517
-31.192853544526198
-29.62938079405712
-26.951416134401043
-22.6626774825365
-16.445746806756667
-8.993040958155042
-2.318698876091831
1.096881123678508
0.14612174213362145
-4.218231792962252
-10.699561533392068
-17.938024139902502
-24.140392933484677
-28.678696843761568
-31.30857077727735
-31.85758136071476
-30.782249846362898
-28.78797043021495
-26.618007840113627
-23.96486443089057
-19.839306709874652
-14.097535519383987
-7.631055879856088
-1.7812736817767176
2.7806296334943528
5.970304584515676
8.221630792857987
10.362136282227592
13.458790932280676
17.59373135485017
22.01232257157898
26.677509222183655
31.50317141395459
36.396647868508595
40.58582449585298
43.07828834954097
43.90302009741269
43.159095566849466
41.50167387584863
39.67143257611657
37.19941709554461
33.28063567553277
27.90750507365225
22.714277123946523
19.605495700911273
18.861204739823755
19.716162813139412
21.76620907217124
23.624030374627115
23.697311254400017
21.694746935234807
18.303213504406106
15.300050427465163
13.6886505329561
11.681682584138066
8.135720217953445
4.678732806803398
2.807113401211246
2.9333889272257863
4.9531379698618645
8.86945838781609
14.409132045187535
20.851478737156967
27.873801014461343
35.309481698341976
42.31691151420813
47.9795908581714
52.29802249146008
54.86476592202679
54.85118328600888
51.94244361199698
46.38296336495829
39.18527847213341
31.902846867877482
25.987192740495107
20.90044162008855
14.782466540070425
7.319083087523294
-0.6721055893670556
-8.54657581171931
-15.928159075667441
-22.760046216069757
-28.79336775156685
-33.469048831389806
-36.54318329765246
-38.0070511258515
-37.68826372705207
-35.99709418176611
-33.15354265385377
-29.320375364217682
-25.17451705855789
-20.58718621204478
-15.298671137071906
-8.86075173977187
-0.16096841368586876
9.437922721752855
16.87340531597279
20.788699220950665
21.11857302746287
18.493326182955073
14.709436279855462
11.538978619446546
9.162934090836176
7.1542270939983
4.965144271172367
2.3301052013433092
-0.7911251869302672
-4.875718300371174
-10.723010058508857
-18.768335612981545
-28.419530881130363
-38.13440591589552
-45.72294995573458
-49.96225940116622
-50.50580501542799
-46.953515846612945
-39.779024304084274
-29.993086717144223
-18.99818527602077
-8.224003846801914
1.924572603645376
10.890425016186173
17.925165251841353
23.13679729175617
26.338165583967537
26.84111687837946
24.709590127930444
20.150620792683995
13.786759458086667
7.4361929912604054
3.039488654627072
1.432771616840589
2.2826502703836566
4.557477165271329
7.498537692871133
11.01132033975832
14.7068996428954
18.11511658279214
21.157124290886603
23.413231503167385
24.771051793503606
25.287007463454714
24.783788817210468
24.04031582569308
24.113790483380257
25.37833498447875
27.797442444528595
31.09953802744809
34.47144228213279
37.35016166767102
39.85349075183328
41.869510560441235
43.40791374829981
45.153384291119856
47.60706204131535
50.74405701150036
53.26493608888973
53.44862212968135
51.316535482861795
48.578872517190085
46.81863675628782
46.74605997856877
48.08437708326567
49.948159108659866
52.00858612505573
54.18599558318521
56.3259222586116
58.03086002684218
58.845533474100804
58.29770097017496
55.66486960100251
50.463382271632746
42.81063860364904
33.3764971670807
22.694129329776267
11.052050256594208
-0.5626861321046785
-11.49533521793308
