AAD_Filtered_TADAS_FILE
AAD_BASELINE_CORRECTION: BASELINE REMOVED
AAD_FILTER_TYPE: BUTTERWORTH
AAD_FILTER_ORDER: 1
AAD_LOW_CUT_FREQUENCY_HZ: 0.025
AAD_HIGH_CUT_FREQUENCY_HZ: 40.0
EVENT_NAME: 202302061024
EVENT_ID: 13207
EVENT_DATE_YYYYMMDD: 2023/02/06
EVENT_TIME_HHMMSS: 10:24:47.00000
EVENT_LATITUDE_DEGREE: 38.089
EVENT_LONGITUDE_DEGREE: 37.239
EVENT_DEPTH_KM: 7.0
HYPOCENTER_REFERENCE: AFAD
MAGNITUDE_W: 7.6
MAGNITUDE_W_REFERENCE: AFAD
MAGNITUDE_L: 
MAGNITUDE_L_REFERENCE: 
FOCAL_MECHANISM: 
NETWORK: TK
STATION_CODE: 2715
STATION_NAME: 
STATION_LATITUDE_DEGREE: 36.855364
STATION_LONGITUDE_DEGREE: 36.685618
STATION_ELEVATION_M: 431.0
LOCATION: Kahramanmaras_Elbistan_Turkiye
SENSOR_DEPTH_M: 
VS30_M/S: None
SITE_CLASSIFICATION_EC8: unknown
MORPHOLOGIC_CLASSIFICATION: 
EPICENTRAL_DISTANCE_KM: 145.61
EARTHQUAKE_BACKAZIMUTH_DEGREE: 
DATE_TIME_FIRST_SAMPLE_YYYYMMDD_HHMMSS: 2023/02/06 10:24:52.1194290
DATE_TIME_FIRST_SAMPLE_PRECISION: millisecond
SAMPLING_INTERVAL_S: 0.01
NDATA: 6688
DURATION_S: 
STREAM: HNE
UNITS: cm/s^2
INSTRUMENT: sensor = ACEBOX/SARA | digitizer = 
INSTRUMENT_ANALOG/DIGITAL: 
INSTRUMENTAL_FREQUENCY_HZ: 
INSTRUMENTAL_DAMPING: 
FULL_SCALE_G: 
N_BIT_DIGITAL_CONVERTER: 
PGA_CM/S^2: 12.000
TIME_PGA_S: 
BASELINE_CORRECTION: BASELINE REMOVED
FILTER_TYPE: BUTTERWORTH
FILTER_ORDER: 
LOW_CUT_FREQUENCY_HZ: 
HIGH_CUT_FREQUENCY_HZ: 
LATE/NORMAL_TRIGGERED: 
DATABASE_VERSION: 
HEADER_FORMAT: DYNA 1.2
DATA_TYPE: Acceleration
PROCESSING: Automatic Paolucci et al., 2011
DATA_TIMESTAMP_YYYYMMDD_HHMMSS: 
DATA_LICENSE: U (unknown license)
DATA_CITATION: Turkish Accelerometric Archive v 1.0 - Disaster And Emergency Management Presidency, Earthquake Department
DATA_CREATOR: AFAD
ORIGINAL_DATA_MEDIATOR_CITATION: : AFAD - Disaster And Emergency Management Presidency
ORIGINAL_DATA_MEDIATOR: AFAD PROCESS SERVICE
ORIGINAL_DATA_CREATOR_CITATION: AFAD PROCESS SERVICE
ORIGINAL_DATA_CREATOR: network: TK
USER1: GuestUser
USER2: 
USER3: 
USER4: 
3.6905323638280865
5.61185647508513
4.615047537051953
5.109516207227129
4.847617906427569
4.959694713633666
4.901959099147084
4.907614648115812
4.895656869281323
4.896917631728067
4.860769131442607
4.898221115112109
4.839785459589012
4.866225727196506
4.863019379036272
4.801890107954898
4.893275168412225
4.7763887866144845
4.844343883869405
4.845296165566085
4.722666411954569
4.927515889442783
4.680899773340315
4.849441723083904
4.8507240942984575
4.583135202887008
5.1348410598691405
4.407677865004165
5.260168828352605
5.8250791827447115
1.6079689352625393
2.242981768367967
6.696796303201808
5.907969352102711
4.606689281353611
3.606127943261515
1.518791496096014
1.4890657839043664
2.5612855420496814
3.4352672732253815
2.7633877294928104
0.7172279769593248
-0.024046888772737113
-0.40257684636112595
-2.943808226445868
-6.6470113024096
-8.264993566376608
-7.268912631697494
-5.300933608646901
-3.790952313154654
-3.983686539780468
-4.761926200111301
-4.5484120836301125
-3.4222783983497673
-1.526553715828345
-0.2414771780862194
-1.1918162840155848
-2.931806258836584
-3.181226403294257
-2.1558544557941737
-1.0715754047859525
-1.042276148720628
-2.3172477690809767
-3.2729764484286807
-2.9725526095584676
-1.3050006026367194
1.4448096839086506
3.081187279143323
2.4523785115238597
0.675324195706446
-0.7458398256246584
-0.5633489950999193
0.3677318765305654
0.20877385274367305
-0.7083770095983809
-1.1485535966995983
-1.0712532441506648
-0.7010974130633784
0.32021709520161723
1.2467450338312944
0.5256538847590682
-1.1681594083512308
-1.494437073253901
0.4727970784360145
2.9351501332617738
3.022320409018831
0.274245693188951
-2.936901943684622
-4.188398604319112
-3.568215319767567
-2.806034400430505
-1.6708348229556156
0.03626339138996271
0.32427986737046216
-0.5107798166332982
-0.9444952027288431
-1.782491477951986
-3.433246855687378
-5.342528910169128
-6.905082329939452
-6.5366260538280905
-3.5479330636167825
-0.12741604329803596
0.9383115139160486
-0.7370290605389331
-3.627558223549904
-5.751310383291853
-5.771722191521762
-4.126057495593769
-2.2433235778120864
-1.2453077668633286
-1.0687312154661315
-1.4133537091801478
-2.697962847988973
-3.7856030458204604
-3.408406502049166
-2.401529585375419
-1.474073817531018
-1.322262633327396
-1.6383459683326411
-0.7511273676850949
0.20311323503479942
-1.1252839552782978
-4.866197725547112
-9.28580224300975
-11.519674787841566
-10.300707973669702
-6.598525654456316
-2.7060162094038485
-1.2063740523366848
-1.5854737835301087
-2.4319064699345976
-4.252994434455601
-6.674515444933218
-8.601554997325742
-9.340386236604507
-9.001138084792977
-8.069626089505597
-5.469962415591603
-1.7687482831637469
0.35640369294077834
0.5254219110268855
-0.6844576325681785
-2.3283858967147903
-2.9705313030993956
-3.4113343119518698
-4.525548742514224
-6.453965222051261
-9.750847802348863
-12.01546872907281
-10.889195419169342
-8.609727904902229
-6.847333762952702
-5.031080257238723
-3.638360986964939
-3.4711311057053216
-4.507681585959744
-5.445421086980604
-5.533233357702918
-5.846907266045715
-6.133857782308312
-5.879109582092487
-6.176948780565846
-7.092787767460422
-7.726215170268907
-7.668875721396907
-7.855380664372474
-9.340022692261407
-10.430804739693036
-9.755505391686988
-9.443126460670033
-10.826423391790154
-11.694175105604248
-10.639410537296042
-8.610021456171363
-5.972036054788836
-3.8552387877642955
-3.0551234007386547
-2.1551576510968644
-1.9507064768911098
-3.459113360649357
-5.480206672726146
-7.750542961542011
-9.291465521061504
-9.345921300334227
-8.852797906339216
-8.332641999877909
-8.347686103688854
-7.730779571678818
-5.562501465023181
-4.318435257014963
-4.677974707898306
-5.242917311136339
-5.6496915224706665
-6.004910326846897
-7.476556845590608
-9.61033362280646
-9.20718150322821
-6.21003055758593
-4.11713071164454
-3.5622311574996233
-2.947771956938194
-3.0968927651761287
-4.3703986312074505
-5.333437272698351
-5.820582499365672
-5.5996650528787
-4.568057878670608
-3.697575210228202
-2.7823109294071973
-1.6720849804758695
-1.6970221628532667
-2.865235444414441
-3.3593452286744854
-3.07106122642161
-2.8480423245291897
-2.1975237898876565
-1.9583395528825418
-3.131162032864511
-5.093197043867973
-7.371550926511975
-8.472124185868328
-7.883943447526853
-6.734955812732975
-5.020543702857878
-3.6714462679265427
-3.514033604369505
-4.353080576617446
-5.96561402876381
-5.901942227138012
-3.321039674325138
-0.6117120196961849
1.6217016240338347
3.598602096150736
4.487298079425562
4.180926837227847
4.0014162947907765
4.631259303269192
4.712413925619994
3.5411931574430615
1.8981194769600467
0.4546329278669963
-0.4610783002011155
-1.0991618625652526
-1.286157872365505
-0.6475564376968643
0.0006747758520670999
0.820757558908765
2.1736523744284284
1.6397042443894259
-1.1970830827878507
-3.197650219301714
-3.8825982136115624
-3.9083136499037407
-2.3586811490866597
0.17677215697094523
2.4186219475904935
3.249801852100285
2.087187200371581
0.13951990530682645
-2.325532908131579
-4.996709234278473
-5.831718194799613
-5.071998427925107
-4.267487130249383
-3.297735847380133
-2.395444649328412
-2.0640890322401884
-1.8741658559867165
-1.9591124449171071
-2.4398147990293078
-2.1846748640806206
-0.9999120931113642
0.02301461310956679
0.5336473146211375
0.23176061124235395
-1.203297192960332
-3.0067297354837956
-4.044549826920461
-3.1289662369805735
-0.3581222342910645
1.8818608260587424
1.732316025294745
-0.7076443157846016
-3.655873818720481
-4.465319178593035
-2.939385945259963
-0.8765061118228642
0.9542772264079687
2.2094161742858107
2.874703286089685
3.4791577198281187
3.905380801137675
3.5664821506642266
2.153632443167807
0.4508687653850243
0.20523784549287796
2.0177931786295806
4.001818687814089
3.90105837940508
2.196140717012679
0.9347158933587189
0.8177816185885314
0.8992627086180909
0.5602877196803231
0.7888022499956769
1.0188035207729147
-0.5958396053035071
-2.655369691842769
-3.222904201931316
-2.462538299651168
-1.065306853625999
-0.5135366748484325
-1.2406831475578046
-2.252302702713498
-3.281390126277895
-3.8411845481900064
-3.2744457185101012
-1.8406593638966073
-0.4604138900920919
-0.18729401215210814
-1.2538744004928233
-2.6933042297662166
-3.0588664532999976
-2.4753081225733164
-2.191866891653124
-1.82983687045763
-0.739762094429905
0.5943497782415735
1.3259463535678995
0.6225582778977881
-1.012714552182653
-2.3693081566563747
-2.4594578480074443
-0.5845658153028066
2.2574289271717123
4.449399496376874
5.166949984583609
4.781317381319456
4.188387063346042
2.4087838790346603
-0.4532324992722595
-1.571387724658752
0.1558287164655007
3.353146183676431
5.488796098554497
5.4303286349687285
4.467041540428226
2.901395327303512
0.8312407764878508
-1.0636791528355645
-2.5512160419028613
-2.662161072934798
-1.3569157540170624
0.09937442830231802
0.7544988289095784
0.43029641655175166
-0.2535654477223905
-1.7319788681348602
-3.297126302038751
-2.7820699496919157
-1.2651402337618434
0.1474747035713365
1.9730617436609463
2.8062722963766817
1.9648262040783482
0.5357241716942347
-0.5595797172431994
-0.2922357154648383
1.3601069679619529
2.966918681015914
3.2415618168837423
1.9892167362487576
0.2614918778806289
-0.4116670270714362
-0.45598579510304704
-2.034129351146911
-4.20190691626551
-3.9550699757389904
-1.6406576430037558
0.6265879115844195
1.2262271077084528
-0.5650496036608419
-3.1370325684357407
-4.829943899996486
-5.314580323824762
-4.540961458721434
-3.0441269731011666
-1.1698572696088907
0.14405245681605838
-0.42906560417695333
-1.794080420493141
-2.533601056247996
-2.9059388985544627
-3.206301920278682
-3.27909323905763
-2.8333005942740415
-2.7171789774307573
-3.404466600245844
-3.1851486579898767
-2.268800110931486
-2.4730185070954422
-2.942782742224612
-2.50205947881476
-1.5535545283529777
-0.3684044457117086
0.3590663258099315
-0.6714449605479585
-2.9100271885514974
-4.033246936132995
-3.5545974437212573
-2.86976713452941
-2.688541568671472
-3.2099070484670356
-3.954860434886438
-4.146125973641989
-4.230371806114151
-4.698431509760022
-5.2303083777558514
-5.14970360813259
-4.650686859480093
-5.174528857328292
-6.222346829355678
-6.44484919211701
-6.5892312412308165
-6.5105947411012846
-5.294560560869799
-3.778616389046191
-3.0592687002314802
-3.12844924598544
-2.8128694718469753
-1.5832525566890268
-0.421947637772533
0.04127201625250265
-0.4262836911354568
-1.4603670971402622
-1.827930454801119
-1.1928143239132
-0.33744340827203434
-0.010872617831308967
-0.1721562478980714
-0.39427666365947045
-0.7136651289656255
-1.2043221185031088
-1.7056494470493246
-2.167561933182885
-2.8238871731883606
-3.264459934719508
-2.6302495173403293
-1.6985308843242821
-1.295225502394233
-1.1960475863490088
-1.7088437565996317
-2.3109288201579625
-2.8065746305881807
-4.240077448266972
-5.513315485485295
-5.213380777568483
-4.075038260516957
-2.9404076749305554
-2.2615508828435753
-2.3739214210558965
-3.4838432879354935
-4.791694234817274
-4.430545456121604
-2.982898747098555
-2.7798372811180174
-3.50464857435977
-3.956742351521964
-4.271880171512342
-4.018427738154505
-3.2862098469143475
-2.933043385869058
-2.1366587479339447
-0.9707996947961897
-0.6415510920957066
-0.3704706942444392
-0.7112918323023957
-2.8670381840505006
-4.697997794338601
-5.001448106298152
-4.184903476205581
-1.9109928998423795
0.17453955406878266
0.8011983546988211
1.1562133743874377
0.8978243479496985
-1.0105668898702826
-3.6922632837214717
-5.549179628940704
-5.31348723041418
-2.835154456796873
0.3075588297949148
2.1004958362226027
2.236013721303543
1.9389119282607894
2.012939682352674
2.2694443654885363
2.289881306773638
2.2634953298417395
2.297487604254551
1.949061152545561
1.7546694035209076
2.3537310266542537
2.803750905365972
2.1215868442752344
0.34662507788414276
-1.4655085368453677
-1.9586544039843612
-1.7129108524530237
-1.9618299100556218
-2.1481757381097015
-2.2456323610830466
-3.109669632476204
-4.200445122543525
-4.889236715721889
-5.146856523460771
-4.9304453103873955
-4.548073236945836
-4.083299641348576
-3.6893942872211847
-3.574455284769703
-3.377176201150432
-3.3299846488411387
-3.7366757018463717
-4.203438735479311
-4.750349344472723
-5.24921054129986
-4.972476954596875
-3.570539112281956
-1.6998115418248305
-0.8406066154222833
-1.404261047523705
-2.3194180374746964
-3.0346085195135957
-3.0839234762368917
-2.0521599360489517
-1.5740200717993549
-2.6618162737119198
-3.439176694677236
-3.095112458312719
-2.719223070070619
-2.5358725662488584
-2.034786462687355
-1.195646667222726
-1.176539333445422
-2.1972535759585954
-2.6014102814332474
-2.7981062746570586
-3.870645053690638
-4.457858096211266
-4.022910738644278
-3.266571969618935
-2.458030511607713
-1.9329491998768296
-1.7409192294978484
-2.1832303870923204
-3.376030580908187
-4.803325926977174
-6.798735521393499
-8.996040877859441
-9.758111292079683
-8.878860955849953
-7.623988352334617
-7.502149610036944
-8.799939402266297
-9.563878681045905
-8.614128290345299
-7.166661107632897
-6.274989877811038
-6.095087308233598
-6.224647600859986
-5.7374985955144595
-4.573353977288045
-3.6627825203297077
-3.5637539945702743
-3.6588900337871753
-2.877728291644013
-1.201173700549501
0.7048749363910911
1.7732061919491466
0.8670638170563898
-0.9253821622534165
-1.5999767730358994
-1.6980143025757723
-2.621760773544234
-3.875352713492386
-4.414384626537269
-4.227464727265155
-3.7222348168765214
-3.4253954191761156
-3.6159831514649436
-3.7622770027887786
-3.687568323221411
-3.569005712058237
-2.7674653313048485
-1.2091020529895895
-0.0271364424924056
0.11148745291472162
-0.5877306422196937
-1.4413358021818294
-1.9444210023318684
-2.476082026647548
-2.8722114939157724
-2.101903453338116
-0.6309844336943436
0.09484569992120198
-0.06883112075462283
-0.3393178422705288
-0.599286469434687
-1.9525708805783004
-4.333063670465389
-5.381402742988578
-4.004721890297285
-1.1974609448368219
1.2994034019109586
1.4402068633988425
-0.055058042518285916
-0.8324009362440571
-1.4518886442952905
-3.0601269072054063
-4.4419509742978525
-4.377447964232495
-3.3687369441306076
-2.1484835592925426
-0.9099667542346043
-0.5119695713004032
-1.7653636836220268
-3.870677108105356
-4.939779759892134
-4.218054671969846
-3.112952205568581
-2.276673901354279
-1.1363781198092315
-0.34260836079247725
-0.5009960334127851
-1.1766218472562764
-1.2370359690395043
0.13142756364957972
1.335552570270266
1.00118785401741
0.2845244349495522
0.14593796830303352
0.47075997983544066
0.7541908633033632
0.6021442290435994
0.4056320884473127
0.3852672224851569
0.6208351807047677
1.3384953105248076
1.6297727986207713
0.6483034217132188
-0.9561128213359775
-2.136949264109734
-2.330534927155465
-2.320506980761751
-2.932680895239884
-3.1333518317164546
-2.5171836168832002
-2.1572173396548933
-2.342691487763125
-2.5945763296555047
-2.645621637843217
-2.8351835433827572
-3.2869717196922767
-3.669938171922325
-4.066362796626641
-4.076389604598336
-3.3156327945186073
-2.4845070435232133
-2.0940866642630924
-2.2213061260378546
-2.6868534184119
-3.1938576817948237
-3.400833423928503
-2.579082327344337
-1.167564123426352
-0.3573343864812566
0.06653424699023408
0.6477873947622341
1.4128506510422796
2.0686952794689324
2.047221223743061
1.807696510777707
2.3393366584015176
3.4629712371453913
4.427672275338535
4.7635871390516655
4.153537775030011
2.413309823309821
-0.0016989821790711346
-1.8562182743064661
-2.3257846310518686
-1.2979162954024932
0.9273342462081084
3.1205151925397963
4.282603230281298
4.370179189071275
3.4136893017129
2.0545449474811273
1.239148552397344
1.4634750094854134
2.967313496939851
4.860523803266338
5.971058600982108
6.266190623865423
5.7674930199174375
4.624233712378498
3.5146773403459832
2.793033633185954
2.9478396298202045
4.175792224875848
5.266690896267344
5.551083413355322
5.710788267240396
5.760704344264078
5.604108048924238
5.849339468810776
6.473527117978673
6.845504129416464
6.430328113262735
5.86923194424344
6.366623498042202
6.552218966263236
5.121012992355277
4.087763687993073
4.604820876633058
5.888164561204723
7.091090540017403
6.8749149149138455
5.315731146474661
3.7739790930928576
3.025687411664842
3.7197146155592637
4.999631787497843
5.246204730919329
4.759811677482345
4.64642995756341
5.362553983824067
6.207990832182721
6.610047198764406
7.497970915560837
8.92303441673949
9.986214499088588
10.74048810226794
11.072177969140078
10.688462425140823
9.693392706933864
7.940100372881065
6.166543448555029
5.824433939777892
6.586192011793156
7.416458792894429
8.245187540572644
8.340546575558216
7.419901067090625
6.9650332242273825
7.132125109639106
6.759807818764232
5.996447895610434
5.481017175690447
5.387222569655308
5.853744452654546
6.600290190149108
6.916454206191063
6.688743434472594
6.54064615901902
6.9049054612335485
7.317588648700624
6.75363511755675
5.64652880240775
5.875452795478045
7.251356777629471
7.585041717940187
6.37534976010427
4.992303188964509
4.5483870654664615
5.346784320486721
6.632205146546785
6.8446099434804815
5.9080242068333515
5.519166485931182
6.078824174656675
6.28071083574052
5.415354148121936
4.100190793885652
3.4013211944536508
3.6551006600955622
4.564955953692172
5.684101179451755
6.343058858742383
6.376201246868205
6.087555580909934
5.835914036478212
6.004270517942455
6.2633697294714
6.464422935581232
6.890438018262531
7.083595886746858
7.024562946291467
6.7574506309961455
5.815928372406517
5.191032134313685
5.595172016661235
5.790005522659001
5.206443128888613
4.609044254120959
4.394656230272185
3.9532014504483284
2.778630797261712
1.245180515358233
-0.3849904371516185
-1.6896575554254245
-1.8701432056544225
-1.0323062858176226
0.5336902295234126
2.6754782106867534
4.260679996505021
4.229274380445753
2.846408375768255
1.5224170117734177
1.5568204362116422
2.563819185964288
3.472725872286653
4.0812550072371065
4.729114811240378
5.736345934359399
6.705685491120194
6.710279111264533
5.645339121519027
4.5187798678500535
4.168642367842713
4.144869120191851
3.810933505284265
3.4664025126963405
3.5659435549884955
4.295404887852387
5.367271107301126
5.80891048310782
5.0040452415392185
3.650289612403596
2.8999989040196517
2.6891230426962798
2.045900694844922
1.0246674833435023
0.9546109054635865
2.3676214685016275
3.97165404836684
4.6092377893786995
4.6307442091288635
4.852283551737442
5.424782098419169
5.966108589667048
6.413022417918038
6.626146304255208
6.30023954126389
5.965305116317456
5.9395990731245005
5.977838130893465
6.423980639896601
7.147465356114308
7.114689357325842
6.123174396534091
5.035037005669539
4.251495495640625
3.4656891952433218
2.582203313027364
1.7242096489433059
1.1547215620027662
0.8082540087145217
0.05293305101446427
-0.5827929466063939
-0.0012629523122099084
1.0260573820268797
1.4660832883951078
1.6408310644189534
1.3938740929503621
0.2839524830564859
-1.021626298805849
-1.8303027146832662
-1.9265546024444684
-1.2765374146101718
-0.33180853392997756
0.41443049849391583
0.7269234206503576
0.4346584128970063
-0.21454850001748493
-0.4798413139486018
-0.3927146858142171
-0.6234433629798429
-0.4948287351679811
0.41905659356233727
0.548765978933419
-0.9256327423468704
-2.8920964718811533
-3.783304978055231
-3.051564170549274
-1.560127109093599
0.11421356624952372
1.8892566655513594
2.935416128236197
2.492133178274589
1.1350495917257117
0.07271287559335823
-0.29370970574899913
-0.2564620550909147
-0.11015850342989097
-0.0023778594867916447
0.0392098646839088
0.0499937688435825
0.19562704317694604
0.020694512690686562
-1.0887324768707813
-2.2858471384952965
-2.542868854402728
-1.973098471846742
-1.2056299308617016
-1.050332169878176
-1.6765536140874433
-2.2288653834767933
-1.996035090873343
-1.33737839423848
-1.0539540477485903
-1.3938655005800706
-1.966005772408879
-2.0496007586810214
-1.7954427051783628
-2.168795456666982
-3.072843302875482
-3.6741859049001833
-3.310712645438798
-2.212788068740603
-1.781225972779258
-2.03532874612457
-2.135182064702129
-2.8295803503860304
-4.372051795717765
-5.535845678849836
-5.3391964046625455
-4.285648921171129
-4.008064895030794
-4.397076985405482
-4.160321210033093
-3.700970866793315
