AAD_Filtered_TADAS_FILE
AAD_BASELINE_CORRECTION: BASELINE REMOVED
AAD_FILTER_TYPE: BUTTERWORTH
AAD_FILTER_ORDER: 1
AAD_LOW_CUT_FREQUENCY_HZ: 0.025
AAD_HIGH_CUT_FREQUENCY_HZ: 40.0
EVENT_NAME: 202302061024
EVENT_ID: 13207
EVENT_DATE_YYYYMMDD: 2023/02/06
EVENT_TIME_HHMMSS: 10:24:47.00000
EVENT_LATITUDE_DEGREE: 38.089
EVENT_LONGITUDE_DEGREE: 37.239
EVENT_DEPTH_KM: 7.0
HYPOCENTER_REFERENCE: AFAD
MAGNITUDE_W: 7.6
MAGNITUDE_W_REFERENCE: AFAD
MAGNITUDE_L: 
MAGNITUDE_L_REFERENCE: 
FOCAL_MECHANISM: 
NETWORK: TK
STATION_CODE: 4405
STATION_NAME: 
STATION_LATITUDE_DEGREE: 38.8107
STATION_LONGITUDE_DEGREE: 37.9396
STATION_ELEVATION_M: 1147.0
LOCATION: Kahramanmaras_Elbistan_Turkiye
SENSOR_DEPTH_M: 
VS30_M/S: 579
SITE_CLASSIFICATION_EC8: B
MORPHOLOGIC_CLASSIFICATION: 
EPICENTRAL_DISTANCE_KM: 100.81
EARTHQUAKE_BACKAZIMUTH_DEGREE: 
DATE_TIME_FIRST_SAMPLE_YYYYMMDD_HHMMSS: 2023/02/06 10:24:44.4126980
DATE_TIME_FIRST_SAMPLE_PRECISION: millisecond
SAMPLING_INTERVAL_S: 0.01
NDATA: 12501
DURATION_S: 
STREAM: HNZ
UNITS: cm/s^2
INSTRUMENT: sensor = CMG-5T/GURALP | digitizer = 
INSTRUMENT_ANALOG/DIGITAL: 
INSTRUMENTAL_FREQUENCY_HZ: 
INSTRUMENTAL_DAMPING: 
FULL_SCALE_G: 
N_BIT_DIGITAL_CONVERTER: 
PGA_CM/S^2: 121.881
TIME_PGA_S: 
BASELINE_CORRECTION: BASELINE REMOVED
FILTER_TYPE: BUTTERWORTH
FILTER_ORDER: 
LOW_CUT_FREQUENCY_HZ: 
HIGH_CUT_FREQUENCY_HZ: 
LATE/NORMAL_TRIGGERED: 
DATABASE_VERSION: 
HEADER_FORMAT: DYNA 1.2
DATA_TYPE: Acceleration
PROCESSING: Automatic Paolucci et al., 2011
DATA_TIMESTAMP_YYYYMMDD_HHMMSS: 
DATA_LICENSE: U (unknown license)
DATA_CITATION: Turkish Accelerometric Archive v 1.0 - Disaster And Emergency Management Presidency, Earthquake Department
DATA_CREATOR: AFAD
ORIGINAL_DATA_MEDIATOR_CITATION: : AFAD - Disaster And Emergency Management Presidency
ORIGINAL_DATA_MEDIATOR: AFAD PROCESS SERVICE
ORIGINAL_DATA_CREATOR_CITATION: AFAD PROCESS SERVICE
ORIGINAL_DATA_CREATOR: network: TK
USER1: GuestUser
USER2: 
USER3: 
USER4: 
[...]
4.075789872072357
10.33412811729125
13.703865042040091
14.681650546111056
12.5535895093177
9.920953539141752
10.101955557897819
11.412770272018768
13.186344324563574
15.904898807807333
14.36003055046439
15.605105869214077
19.891319727237562
15.515817419631809
11.222773617932015
11.85205736491549
6.12534065374548
0.5268577741457376
2.923224767074844
7.613601262735563
6.411967989376488
2.798903841425089
4.293951664763321
6.028161187986127
3.329274187299662
-0.321649617419528
-1.2043756303452675
2.245541537448708
8.707526454747923
8.558292916764001
6.56206472771841
8.766503224667069
9.009930856897489
5.528184871205624
1.1482184430572728
-0.6917455239531953
-3.0864479011181167
-5.15865890921563
-4.181470226589515
-3.5689331963408883
-6.096446966000174
-7.9855121343084825
-1.8867355311962961
5.599265116639937
1.8117438106011692
-6.788237583472328
-4.983345548126907
0.5506482315499305
0.8218729642395438
4.159036449458325
6.826610590464306
5.001028575681748
1.6403291866232315
4.1673535280778236
13.288438859492778
14.19034084058957
10.234261098305959
8.6817462138321
8.676074069087129
9.969419521318043
7.575360730929963
-0.07369989197802519
-5.607514376251545
-2.6898738586556186
-0.8141869195828595
-4.348203137448832
-7.384735834637689
-4.958010102083651
-0.5756499163176373
-2.8033332151506003
-3.9878715210163085
-0.6144581829304514
5.024521927127346
10.236078811084415
7.470432591966388
-2.101077357696198
-5.835600159213233
-5.680786944470789
-2.905684668182332
6.384838092512605
10.188840853582155
10.672547635694881
10.108508369909648
5.517091487168045
3.37740810369569
2.692042314267379
1.347740711503909
-1.6295022185227197
-7.798954104666726
-12.536867644456922
-12.778035589480991
-6.956933671834477
4.256841781676838
7.284006582301171
4.086764564922007
3.036180093962684
-2.1430663253969278
-8.790948720932114
-12.248959745758585
-17.01927490476902
-22.511016664361946
-25.930706903746565
-26.8863101815359
-23.7095495419308
-24.214048773272914
-26.89369850940819
-20.147562685604136
-4.6871758622960025
3.3036890813355475
-3.8310372383253797
-10.200511072084
-2.590810320858518
8.103138886590449
8.448117663632866
7.519388182433077
11.811709360806748
10.582866765180379
3.676662791355428
-3.8268161571416575
-10.456823248712638
-5.335391679935789
1.2305912603317233
-2.0912729861018438
-1.7491595236804678
3.530867018205993
0.5898664266642066
-7.503705153265291
-8.991402603681165
-5.547188834600905
1.57603657215602
9.802324318853204
14.766054930083612
11.192660747500025
5.442818681890336
9.772734993164036
18.348487737521925
20.008751217561166
18.576259106793568
15.598005551275913
8.689903722452122
2.4735171384546857
-5.572928090371766
-6.647743950643685
2.1214677746654633
4.593241222716425
5.045388733330983
10.382378771942216
10.562410046140467
3.9509777763969667
1.927211331777168
4.080823333419378
3.698268454567352
-2.409154937664884
-12.537797718947552
-12.227345264311428
-4.941555906272852
0.8685784387868568
4.25917496660855
9.29645549424153
11.620277892579697
5.418078796486597
2.946827564647081
5.823642122511737
8.965722288892044
8.048820996917723
2.5259520825813526
4.8775297388166114
18.18707753920264
20.343125172965568
7.186636010882577
0.47654467120336774
2.584478864371518
2.2234474561178383
0.44037232206052845
-4.499752451472592
-11.772898506464283
-19.505768435482253
-23.099802432807397
-20.18333138036525
-24.039491581393452
-22.54332319348437
-9.73263099510966
-6.89613831396531
-13.029252095415176
-6.761175038238668
1.7007481856007827
-1.9540514666404205
-5.192200895176041
0.3275099217833728
9.099309832111249
9.55254880984757
7.139113081641824
8.678579977867548
12.041369679569469
11.248373584641488
13.520840351058984
23.52540989333409
27.70301114741675
24.590073950009046
25.19407643143709
24.12384811853883
12.890695225672525
7.015208185232299
12.228765663989728
11.727525580523592
4.338296964171706
-3.082109486339583
-4.272698003182179
4.71143928034071
1.3804208180259108
-1.4940923924607525
11.06072928895439
10.396198948851946
-2.083344310160111
-6.583180757849809
-8.358020903752669
-8.49272831916922
-6.995787888411786
-8.086425227371425
-3.9837530916245614
-1.685026351265823
-7.6652615336620675
-4.268635842874119
5.692376453439642
1.294320189072776
-6.4372093057920585
-4.467346016687071
2.494200387330181
3.232842392505835
1.7340035820987645
6.285199488073778
6.516931610980849
4.302348548640535
4.916178413266044
5.043384426274972
5.132530660090123
6.201768724026075
4.184545229137029
1.5806915557995196
-0.3108128294913062
-3.216402562146745
-0.00042658687196877275
6.100807683423068
8.609571853682379
0.18550259164086882
-13.023520362592999
-6.884880232098822
1.0055727360747562
-8.954343733231354
-12.964027037879731
-9.057057795915652
-7.055323858042513
-3.976413502575773
-1.6768358838393531
-0.8916139012621735
-4.489537693281429
-5.273329890784819
1.6065651392337799
-0.8180532921394693
-9.548141347664103
-6.597470879760871
-0.2061529040366338
2.3050030984208263
6.571948415851191
7.480549514009326
4.3570142096747775
3.2833780681641183
7.442942431216742
7.746403511172879
-4.771073147560281
-12.822996562122068
-8.863013109693988
-7.625622678626663
-10.647853792183989
-10.04710659641977
-7.064817970651905
-8.391807136280507
-11.757828793385212
-11.194737989291317
-10.832727799385916
-10.952326700406182
-5.244417747051187
-4.4340631055971045
-10.35904182175327
-5.032549709669515
3.2297536638559667
6.281184175301052
5.263741642742307
11.165778451726457
19.974598542666733
14.607502130959988
8.554607092659133
12.914568155263929
16.214355503179153
10.66526083969975
6.868858473351734
7.980036263138459
15.71024998223705
19.47882022819655
15.243764080557401
16.371135457102763
18.814961128939657
18.313154648807235
20.69985451898248
20.651951450644862
20.29737759361169
25.08040195455917
24.672643837637352
19.815142622864137
17.80177461830233
18.070504646165862
17.121433244103596
13.524905405067638
15.649055879151447
21.70711699828978
17.254759238529562
9.282141052574822
6.469583838069847
13.717814618687393
19.456236056240726
17.071961954393927
24.431912398579573
24.785788648304756
9.70720377724305
8.575111486234508
15.881561485633739
11.842639809395012
7.3789172374453145
3.554679553962986
-2.9056254036828295
1.3073167323405679
8.021770348184589
-4.466342715116208
-16.46083396073134
-6.7078974682898815
7.503965860739003
8.665160307383152
-1.0312717117875088
-8.450853273383553
-5.620926997203764
-3.6073660452787166
-8.387563007029945
-8.715260205281986
-3.8495058047556645
-3.9775122036205466
-10.000713075521935
-11.920372655676095
-14.716988653495255
-15.739937976935067
-5.461739655791309
1.2896202370944352
-8.221865579160474
-18.294835645523865
-10.463788351171791
-0.7194139462286608
-4.75460921690198
-8.164221022789237
2.4748343336167826
11.869036408660785
0.3394884614902076
-11.27329535026077
-10.850056246163106
-10.845008563868095
-9.124000778405101
-6.134468069073136
-4.8991874105641875
-2.928192247936985
-5.05944877936143
-8.414183803398627
-2.7581264546368343
6.9925238663800675
11.475683505532729
8.476238144030983
3.863427112984467
5.681212748858605
0.4734230215777839
-11.350877752545886
-3.300615927432955
8.597551465257624
3.9690817861720005
-3.389910949071996
-5.190356359300913
-1.9439039861987255
-0.12004872563077668
-5.84263664153687
-3.266896705145418
-0.10042538362824874
-11.912071128774807
-12.70315395984141
-2.0597736396888493
1.2703743886374774
2.202306549288892
-1.216997030956071
-6.688315249824736
-5.476301819567524
1.4147072028616017
7.8540151804786
14.43606111701205
20.45286972130115
17.22952878389424
12.160162681858985
9.974210946065728
8.454310699102885
16.118799837273066
26.248421539721353
23.355080576494267
19.297711096454908
20.920452807649426
23.132867800404824
21.256438273625008
9.951826990182035
1.3980257876572613
12.381058788880463
24.535285210374784
12.374378210880456
-6.982833838819457
-9.948158396447045
-1.996892032762788
-5.523454255916844
-9.303626405788284
-1.071501875344736
0.3302057466216598
1.8687080144246688
7.5139369223152315
3.737905588206161
3.0994042100733905
2.701984927160746
-0.8805678747463007
4.50559544040603
0.8734622421290152
-15.071165795907215
-17.15969240892001
-3.8482404735258777
0.5428927395325205
-2.526795907489015
-2.9117985887915987
-3.539435073299289
-4.474712812662594
-3.3013443186221467
-2.7440729305905207
-9.264837097722964
-11.891647806531639
-11.499086240660027
-16.252635293210858
-14.461523859749382
-5.6628524892120335
-3.1494739481535237
-5.5658477491014855
-4.161934032911607
-2.572573243285577
-2.1219312656754257
0.23510380081408297
-0.8245647051354931
0.17596130558157477
1.92980563568501
0.8273534200287453
-4.232819033659106
-5.952302903493433
-2.2352845003350073
-6.372104960271465
-5.43939098508947
1.599730537347953
3.4588381201055
-0.3360663901805559
-2.2757035882560976
-0.2875912999114051
-1.7103603627251847
-6.902834596314961
-1.7606490041995437
3.404487428583759
-8.604961086964664
-22.565872315735806
-17.27139328798748
-4.813550817203778
-11.240859663233135
-19.277932847278574
-18.503616379104624
-15.046734843102294
-12.131675754771907
-7.695195862301685
-4.770034244521988
-5.786132114711556
2.4848614197952927
8.975966596755315
-3.0112419853861274
-11.665382731486972
3.2404602338437027
12.80716597699884
5.360985595589999
4.775044753534594
0.023346643116276
-11.886588721646595
-8.743310447716318
-4.667959632913315
-0.34230537500122993
4.241559468013267
3.2091842903965198
9.632245804287296
7.120852589515775
-9.182441358910449
-10.540303854967387
3.606082124104802
6.931981132428925
0.05295048857013028
-0.9757587453264897
0.26012224554907243
-2.827988985062191
-0.4052461302408366
10.903245457426125
9.66691299639647
3.295117873373293
7.865569552537731
2.2776585412065766
-12.462194399043112
-15.05402627453627
-6.510785110339799
-2.5067473907649616
-9.962203366338498
-15.963818198390474
-10.070569850121197
-14.038835820450636
-10.625831834327293
1.8221580053631035
-6.520635781023905
-20.783410213580456
-16.025875626929952
-6.056770581757575
3.4951049352474666
-1.2804560430129432
-17.49783076565127
-3.015140537508036
0.31048628313959103
-4.063337492954246
3.0721032528892644
2.81548793308093
13.2000724793527
-4.7483396813879795
-23.797527354571763
-1.5225513967174134
-7.064457690796989
-2.750124601566129
7.411984092903845
-16.919715766421554
-7.20346791229546
21.87655167819219
7.8898338669238415
-8.772838514681345
21.52462135810625
10.552407094736648
-17.36841968818227
26.852240300435035
40.693452749781436
8.487513747323263
-11.72688260826909
2.416466361387817
41.893008055554084
27.71066610194809
-20.915628197493483
-42.58504120832801
-42.98870785918585
-13.351407893409752
5.451605763698114
-4.134983270807304
-24.49090529463836
-25.952298952247187
-1.1474556263339255
-21.38825322012351
-3.8381838388396714
31.902705872150552
7.454707839181154
5.662652051579104
2.590937514951696
-5.601672128991754
23.575719652774087
34.91515284552535
7.879137275921456
-23.613264982908888
-16.835452846631355
-44.08536423486709
-40.41717303444157
66.78276411327877
43.56670972826309
-66.06135755038832
-84.10125817623755
-19.04052924736044
-8.519965956942263
-58.05869293734107
-25.840975872587805
-9.0632294647628
-10.660187860908389
-27.959549563941945
-32.19750818620007
-19.596804997906013
-51.94815587644436
-47.50491745081561
-0.2500918477845217
-2.5269988045466274
-41.532911130554766
-36.08148619870314
-22.600642775570172
-42.982581096858425
-17.3417749807873
9.958396894278954
-14.776128130489983
-55.23128702836142
-35.45939800387978
-0.5793280465580462
-21.352276799459826
12.50504729422028
-6.585619208210137
-62.887787559435296
-21.389998978861524
32.969082481971924
8.000717741820308
-22.815205196889423
-11.540882523930849
35.15209569516894
-1.7308527589100449
-45.673835207209216
-31.037854377562585
-22.911488862511828
23.776274861187865
26.018744552942188
22.0557982541452
48.852276129603034
13.99537315217785
-9.783472523398554
-21.243966343641112
11.015755619726582
58.93772117894789
57.73001197377884
46.19755578126549
4.200410316383485
9.114149312944532
30.54205191069186
-10.609818267841598
17.386154587094687
-3.1336221018291766
-31.022616046174353
59.244005165700806
28.80071319916318
-24.217897008561874
-5.6986867152635465
-24.800497499346676
55.299069637899166
50.06667651396996
-46.20907786666492
-2.231374473126335
-48.78645297845897
-42.20019897832751
-13.441853719231604
-62.55112513867132
34.354987627366555
54.45526898366504
-59.92903798814972
-30.97318857448527
28.240859054472594
9.83918293809011
36.16368942370065
54.93137396403115
-51.476110567260704
-14.61327817450522
58.506926754019446
-50.945097263159546
-73.03840611151064
84.28780112571945
121.28183980545077
-12.294261812081773
20.3449665397162
38.07451912026595
-4.84701300446461
28.92058657808967
-39.05018411830311
9.943188160296204
70.34266479395093
-51.55627833706595
-66.12523327840913
12.17866836165642
-7.055215708798724
0.8581937561719607
56.24095890618699
-19.954065961763064
-15.175393423216077
-25.932628947192157
-58.00874239417732
26.025728306786355
-10.326184485361765
-9.13760688300949
49.20591656171385
-1.5048809304134436
1.1991227006872454
59.61618491959898
35.829994405715176
5.32706144016351
17.14349568012486
-27.843777026200883
-19.784518861644138
15.065411768401622
-2.5527759297948527
-3.1770693387335838
-42.36028977368635
-74.58187390820362
-17.055216292240505
7.4687157947922405
-27.841432722278064
-9.82214075985818
21.77630849926701
18.6444997035144
-26.146272112217275
-61.06501757247141
12.11128382669942
-2.4783358545976357
-75.49408045306919
-21.151363076197693
-17.263410902194394
-55.95703750384159
-29.826226082245462
-8.858671566920496
-11.529697486256863
-4.291139675248113
3.8614001728566323
35.72523438189878
5.547883285289483
-13.965882189334206
-4.939209518936914
5.759748614491976
24.931612772055658
-87.2558723216451
-52.4405846056652
60.92346059324903
-21.446793079803612
-35.666689728844034
26.637610606994343
15.57868565692968
15.816017452767916
32.078890475634786
18.915293359482252
-6.432998827510305
-4.234658575078606
1.0218889447893764
-4.139174082477057
8.64614235137643
-37.9176037393841
23.171008568675667
70.4143136869485
5.026875519301045
23.664936948342536
42.68988918368337
48.399047223888815
33.246541528831585
10.22373467181063
5.890356333010962
7.240386830074096
37.13764803421123
0.3105495872297501
-13.299692683552628
43.467792658961365
11.807230395589269
9.416727460041638
31.23138088611531
-2.5983836101899787
-5.042759557534047
23.999104817607634
12.028351645283108
-9.438436793503634
6.9056782012566496
16.5409112871763
-13.106704345393673
-58.745549271002425
9.7964610011962
19.16363000444063
-43.66184961802913
12.582901408852145
-41.66229023923877
-109.6864521799029
23.31354501159027
45.67154412776421
-19.5769143729053
36.166290091676025
1.4684549569741379
-50.12333277887301
-10.760266317628952
16.11669498955519
-36.29404396189326
-46.4731607261548
14.030459659467555
-12.337907914707582
-31.91048554386952
-32.226053199527314
-24.171450840880446
30.311880185952415
26.85838732652115
-34.14629165552586
-68.07769391704743
-34.475366498273175
26.586395296806664
67.11662099195559
56.099093389473026
32.3762835117036
25.667918094770084
2.0967017500054297
-6.784141642686119
38.86383338019531
51.69793743754419
14.96026881674723
-7.520056695065682
5.783446156791648
12.134091235455925
-14.119574571191718
-7.122218567913509
5.954151539676313
8.049961852232753
-36.07704360839201
-81.62034404213031
9.611179196568091
86.55041834640835
12.549168343506118
10.200057596597823
3.487202739983419
-17.543437160479492
0.29002465280407197
-64.38372453899535
-40.80776378281545
37.129794348236544
0.3581270800897164
-29.793729837742234
22.45207623644972
58.50573381300406
58.20459233817046
62.995965222646
31.69970487316772
-42.776169980563644
-35.45982030295162
-3.48084043462439
-26.546654498348634
-31.34967886002158
-19.67508957366384
-20.63758951124577
-20.483543252174943
-37.02390648616793
-4.313379525484961
15.365278780628117
-1.576133694678701
19.41215481473265
0.3350083566688099
6.768234369985924
24.271192781925798
2.281747537284206
20.881908117295893
67.66775185965078
44.81118924036963
20.478278631549173
37.057611365641435
44.55474650619929
32.12848979574048
49.02074675764612
88.3510848549226
52.55710646704968
1.528854983292841
28.677056979865547
8.766938740942647
-25.982315049081233
-18.27684470527209
-58.490829096825784
-38.94758490695622
-5.64838085168793
-3.963748588985386
0.19943752526885705
-24.701847287644174
-27.590686029290453
7.11405274727236
36.44957028558467
30.54361901771186
14.873387233761632
24.666797411433002
28.802465556595997
29.154913630457873
29.09497378991296
26.62694811459427
38.361703734134366
32.21484754826979
3.835156339523275
8.249067541840661
26.730880125397523
28.270181639629026
11.065551692862558
38.34954023926627
30.75069756155009
-18.971340034419768
-5.596796370194508
8.7081359607747
22.283829099017503
28.178801215352255
-12.897568166474247
-2.901862342642783
44.98788509255715
20.688788263477402
44.29196952235859
45.2464408752451
-5.585144471344165
13.559399418195198
34.08491915457663
-4.8978027010111616
-17.216798058997753
-3.7658867742479245
-6.531486425175022
6.737136110145737
7.610239417822975
-9.218739049977339
-10.908865297288985
16.790060015388416
11.086108262785617
-7.950380105534417
13.26779053875648
0.7863901971576779
-33.231897029316045
-14.99974504914469
9.114304377223208
1.1143515139079692
-10.915891123011418
-23.564112118310327
-39.91854643686734
-27.002437569113308
-4.591098980091615
-1.2368943043121194
-4.1296958264503365
17.54957577894164
18.943847850540944
3.45324915632732
16.768802295865413
20.458835350551237
1.0723522015531104
-10.955387284677974
10.51363782350941
18.15662981531025
4.337177520291666
-7.243438591823249
2.5658290398369603
4.603324634754653
-12.068486313505725
-3.7911626860790233
-6.134918191081085
-14.295447653605848
-14.659012413883646
-18.868693591449638
-7.4238027112702945
-12.812105480885114
-18.89313169357972
-0.5356024286005092
-13.979640896721792
-16.659138465515255
15.439158602454441
22.550451642869458
2.690466413784781
