AAD_Filtered_TADAS_FILE
AAD_BASELINE_CORRECTION: BASELINE REMOVED
AAD_FILTER_TYPE: BUTTERWORTH
AAD_FILTER_ORDER: 1
AAD_LOW_CUT_FREQUENCY_HZ: 0.025
AAD_HIGH_CUT_FREQUENCY_HZ: 40.0
EVENT_NAME: 202302061024
EVENT_ID: 13207
EVENT_DATE_YYYYMMDD: 2023/02/06
EVENT_TIME_HHMMSS: 10:24:47.00000
EVENT_LATITUDE_DEGREE: 38.089
EVENT_LONGITUDE_DEGREE: 37.239
EVENT_DEPTH_KM: 7.0
HYPOCENTER_REFERENCE: AFAD
MAGNITUDE_W: 7.6
MAGNITUDE_W_REFERENCE: AFAD
MAGNITUDE_L: 
MAGNITUDE_L_REFERENCE: 
FOCAL_MECHANISM: 
NETWORK: TK
STATION_CODE: 2104
STATION_NAME: 
STATION_LATITUDE_DEGREE: 38.2644
STATION_LONGITUDE_DEGREE: 39.759
STATION_ELEVATION_M: 919.0
LOCATION: Kahramanmaras_Elbistan_Turkiye
SENSOR_DEPTH_M: 
VS30_M/S: None
SITE_CLASSIFICATION_EC8: unknown
MORPHOLOGIC_CLASSIFICATION: 
EPICENTRAL_DISTANCE_KM: 221.13
EARTHQUAKE_BACKAZIMUTH_DEGREE: 
DATE_TIME_FIRST_SAMPLE_YYYYMMDD_HHMMSS: 2023/02/06 10:25:05.1223730
DATE_TIME_FIRST_SAMPLE_PRECISION: millisecond
SAMPLING_INTERVAL_S: 0.01
NDATA: 14501
DURATION_S: 
STREAM: HNZ
UNITS: cm/s^2
INSTRUMENT: sensor = GMS+/GEOSIG | digitizer = 
INSTRUMENT_ANALOG/DIGITAL: 
INSTRUMENTAL_FREQUENCY_HZ: 
INSTRUMENTAL_DAMPING: 
FULL_SCALE_G: 
N_BIT_DIGITAL_CONVERTER: 
PGA_CM/S^2: 18.556
TIME_PGA_S: 
BASELINE_CORRECTION: BASELINE REMOVED
FILTER_TYPE: BUTTERWORTH
FILTER_ORDER: 
LOW_CUT_FREQUENCY_HZ: 
HIGH_CUT_FREQUENCY_HZ: 
LATE/NORMAL_TRIGGERED: 
DATABASE_VERSION: 
HEADER_FORMAT: DYNA 1.2
DATA_TYPE: Acceleration
PROCESSING: Automatic Paolucci et al., 2011
DATA_TIMESTAMP_YYYYMMDD_HHMMSS: 
DATA_LICENSE: U (unknown license)
DATA_CITATION: Turkish Accelerometric Archive v 1.0 - Disaster And Emergency Management Presidency, Earthquake Department
DATA_CREATOR: AFAD
ORIGINAL_DATA_MEDIATOR_CITATION: : AFAD - Disaster And Emergency Management Presidency
ORIGINAL_DATA_MEDIATOR: AFAD PROCESS SERVICE
ORIGINAL_DATA_CREATOR_CITATION: AFAD PROCESS SERVICE
ORIGINAL_DATA_CREATOR: network: TK
USER1: GuestUser
USER2: 
USER3: 
USER4: 
[...]
3.159357617766548
3.4244456039743643
3.700818868918775
3.832076089030764
3.7699566343632256
3.7496975833524124
3.7113337422391095
3.696767829930595
4.028498493442428
4.29678489339549
4.566916840159881
5.017884489364967
5.395023847181392
5.539795611615774
5.451472859459102
5.366490465824501
5.21025758036037
5.055556510100107
5.11597151500662
5.191855325261758
5.26811799661641
5.394950521715184
5.420135326665005
5.429745959226692
5.511323656068537
5.617438157014081
5.667130028162568
5.5153693997107816
5.280276861572043
5.222922441030688
5.196013378208017
4.979890792296305
4.674756346395492
4.287861251415318
3.8298196252079966
3.423543561365084
3.080468183499138
2.770724998703214
2.6252209966090976
2.6461607998720793
2.6227706153500994
2.6245264510404893
2.702052861814203
2.8597956770756507
3.054550031430417
3.1543905751904693
3.320287118272717
3.498635086217639
3.585388984425602
3.5817530184390094
3.5139765923979254
3.4975931630959582
3.2956225663022622
3.0149106767969562
2.6532314152503775
2.058295211859691
1.7609058465919896
1.6710767278720124
1.4610177859002318
1.3265097082501092
1.180350744946813
0.8637297547066202
0.49484434659432736
0.2202254761281635
-0.010179433357570067
-0.3773403856859572
-0.7573576180403927
-0.9972883629042516
-1.256750887664481
-1.4259207972385324
-1.4366383635514564
-1.3950653453978068
-1.3127811265032356
-1.261583729776698
-1.1433641542845006
-1.0618590675026094
-1.1145094811014264
-1.1344724251578275
-1.2233253667089699
-1.3974342655026708
-1.596155929392643
-1.9012145794984066
-2.1918363392708606
-2.3531322233672043
-2.69227941795577
-3.283064705094569
-3.6706155432362957
-4.008749908687915
-4.6323933841699265
-5.215956301049037
-5.807350032510526
-6.518561528823995
-7.062723381633609
-7.672716160131954
-8.247392725180385
-8.595904022001895
-8.952210777827057
-9.137360150972535
-9.397157578285775
-9.647180458292825
-9.579465148646756
-9.540647830801982
-9.355167283463889
-9.09677911302931
-8.979532742928022
-8.778837129174098
-8.816988958776976
-9.099593371288167
-9.236446105705106
-9.330708670267013
-9.245377384362275
-9.056820287731977
-9.008786824856632
-8.91957880404519
-8.896782370724681
-8.919425445050576
-8.88500963210079
-8.80739229241197
-8.79993312929544
-8.940011837976215
-8.88011520939079
-8.654213145515095
-8.468594056713071
-8.288792665970016
-8.184635821582654
-8.165501501006617
-7.89470100385673
-7.458229450171626
-7.2708443920575405
-6.954490618365305
-6.495996751551266
-6.120865591124327
-5.57217103753446
-4.943557008628859
-4.342380247901305
-3.898942561652151
-3.424147619584797
-2.6881966615749984
-2.110701711431838
-1.476331777086208
-0.7757923216403095
-0.5110537204629114
-0.2575045775937636
0.2583958980986288
0.7907246974642218
1.2934522690231358
1.887239424228876
2.638651028948432
3.329284832376895
3.8209259672165796
4.260943672896842
4.502217278655523
4.492284424098015
4.652444768416708
4.8156613125976735
4.791190703188301
4.738588739036662
4.666128990891896
4.711703210779424
4.714582749970048
4.790502011616218
5.027188417772386
5.000318505469788
4.788166517399644
4.6148985810385685
4.4628258759521
4.154559896892685
3.6930960231240646
3.087463515946896
2.4499928342607684
2.051629610269882
1.6889717493479999
1.5797982889910547
1.78341829544053
1.8627560904966878
1.9377072240160769
2.064478858077305
2.0938643806054715
2.027321701085207
2.0747700944691965
2.1952179084217294
2.1232725787769846
2.0938866848538904
2.1959533581664203
2.258360149857957
2.447180078282382
2.6919625081965988
2.8385401269458708
3.1232742227381385
3.4660013868112323
3.641269985002753
3.6563635075551577
3.584176490839293
3.3900012167693574
2.9556021264144983
2.5850267842983943
2.3149341330751554
1.9077789607598814
1.4993819642609505
1.2003490356750728
0.994143251125242
0.8364450809572622
0.8221726389287312
0.8672524608466748
0.9535593372587159
1.216394422106819
1.49091739922201
1.8425094137404274
2.2447937654449324
2.390710243972064
2.467387690905845
2.626118827409705
2.5893290236367017
2.485315153501881
2.3512716808612564
2.0754819856341276
1.808162427828766
1.4781921061533299
1.1499066512012723
0.8117460465792659
0.45354496651183285
0.18142711451050525
-0.05211762878997268
-0.24202535543411982
-0.40116257808197986
-0.45467943859690557
-0.3993518595185649
-0.2799861996100518
-0.12489185075488421
0.1815410919031563
0.664413074464772
1.0413279736115089
1.3211467431988768
1.6200930388838277
2.01009805987911
2.455150019198252
2.8658640469550756
3.349103540268568
3.8803302941092914
4.322999991768047
4.6527121046590025
4.890566594431364
5.086007866231323
5.32645884059002
5.54109900660017
5.650992024477909
5.504707198923252
5.318189551616383
5.209786605087789
4.986285934306358
4.961548201716738
4.715878067036652
4.56942756012933
4.457119128687588
3.9444654073409824
3.983814219193862
3.786049555482539
3.4640238305258797
3.290205182687859
2.953454970054896
3.0604872280802193
3.045431583765051
3.0897552628641223
3.137870253342319
3.0109321394098796
3.016616827004229
2.950338498603709
2.9641148722627166
3.0531414870024625
3.174421851787741
3.2954706776703784
3.4937450495029925
3.61132672209282
3.5178886279550254
3.4798648334099456
3.441769768084382
3.314062924193598
3.2469242887532923
3.3119660196990064
3.447768713481824
3.774157182048646
4.064376362586147
4.217904613026526
4.321844389091852
4.159400378475352
3.9407916997552315
3.6550590522918256
3.2397488869764337
2.848996001814557
2.495860805970354
2.308219158199798
2.0989744704684874
1.719384742673905
1.3315089619416351
0.8735272719812169
0.21500555014529182
-0.43029929328385563
-0.8872121908479522
-1.2619175920961354
-1.625618062212987
-1.9405624549676468
-2.1631687557580097
-2.5211593582231333
-2.905266021170899
-3.0185068260496735
-3.13540138514932
-3.1952983572924607
-3.0812461514969813
-3.120387327274583
-3.203402195635332
-3.036036185520085
-2.8523830098602496
-2.7319179892500722
-2.369954637215158
-2.0238961265884847
-1.761287009711815
-1.340085944686074
-1.066563925121475
-0.9419552554288964
-0.8428200655797741
-0.82403481574668
-0.822038188699779
-0.931029264216995
-0.9958596632775026
-1.038908248766681
-1.1750292263529514
-1.1606305055465058
-1.1724557323851499
-1.240865674204099
-1.2084299111580155
-1.1146927213726865
-1.0094414042356692
-0.9961148012118809
-1.0912528480046573
-1.2857950794686652
-1.4081653046471874
-1.7260469069447502
-2.30368192511561
-2.693579597336545
-3.0739829313197995
-3.3836621648579204
-3.4959990895657893
-3.452533984788667
-3.1257281159124215
-2.8187795912921674
-2.541059340353224
-2.305759637616866
-2.382141668462927
-2.6174514094625496
-3.0719467090473107
-3.7714813808408456
-4.556161144099568
-5.432639433981014
-6.321684674191226
-7.091920959484876
-7.711491411793604
-8.336852189423805
-9.031850005933649
-9.77580204638486
-10.504068095859434
-11.097904066135479
-11.533174197657464
-11.836636074141953
-12.109419659259494
-12.369138921232166
-12.617449108290053
-12.88762692548538
-13.13448320808928
-13.212157823151312
-13.158588393285934
-13.00299333219955
-12.561466351218323
-12.128846614893131
-11.757773733415902
-11.338255292063948
-11.030382782165923
-10.57359090805038
-10.117002393110937
-9.72624692386358
-9.227307885406619
-8.74302918366975
-8.080020298884357
-7.350961975407107
-6.702873823784998
-6.017692651255323
-5.2450379795563675
-4.379388555566705
-3.4880392291524904
-2.596393589491767
-1.8455379184961
-1.16084306596828
-0.5054539362034998
0.017313537198405466
0.5408430752794471
0.9716338715786333
1.1231174922136324
1.134721428268206
1.0875271823820973
0.9392660613682481
0.8339351513766837
0.7638436060522021
0.7179274586653311
0.6680551334717405
0.5307706712271442
0.5368188210882698
0.510913495110057
0.31243823447725766
0.13870852866478647
-0.15593703366966985
-0.5418107528092385
-0.8065100206704211
-0.8710230602186192
-0.8725993427828361
-0.9040218336310738
-0.7834303008147747
-0.39636830268843076
0.12250145153120132
0.6017186914353417
1.0539197757980518
1.4014236060965768
1.8042855407866445
2.2323143607085303
2.5585555455991438
2.953028019166498
3.1327829971660877
3.3462614589912727
3.61830311503747
3.6249925442130086
3.5949683951991416
3.351894437987449
2.992023184680487
2.5403559485872416
1.9669575414296843
1.3992179787804755
0.7239452544729937
0.1982228798331065
-0.21753893290547852
-0.6592364259196004
-0.917997368438855
-0.8679004246784547
-0.818044129144207
-0.7607382451049333
-0.262192723684339
0.19535485836596636
0.4896640742046864
0.7585238173494233
0.9489709377735992
1.3800675390021808
1.681100841870078
1.9350966460322914
2.2443479391204946
2.3351015216965396
2.441922180790817
2.365152971127126
2.328045967557618
2.424862219229164
2.252902610960968
1.9282453204044276
1.629303880972536
1.443392151789814
1.0603473141908726
0.7047881155764819
0.7122892847076021
0.5561080939779027
0.2725139102836376
0.10572080944470964
0.03765272306960376
-0.09064720919797853
-0.27344137573387695
-0.22490518725388753
-0.1820487672603461
-0.19028822086188849
-0.3092864430279797
-0.5464514994549684
-0.678289226743873
-0.9850528099147783
-1.4209923473077675
-1.787072432432036
-1.9826672959857565
-2.0707174646749533
-2.1597589027134494
-2.050583069378019
-1.9488099969623909
-1.8113802387874613
-1.4218235020551508
-1.056776803248793
-0.7220608668675222
-0.2861104037774107
0.18353666198181393
0.5565601023060414
0.8655654720062091
1.2612556634395884
1.4861355104423246
1.464060895206722
1.6240537947137792
1.8245110564779001
1.8581396630069404
2.106626991391682
2.4748973056473034
2.679691774390459
2.8168516034876148
2.868168957478719
3.0270900305124333
3.423051909096861
3.6267990993392694
3.774982474350922
4.300030805636564
4.787757414523489
5.0491719467114375
5.558682506836079
6.034477012812667
6.177917251422028
6.599559091106575
7.122076949609305
7.533669280360087
8.22092622959125
9.120422228481537
10.123227607454067
11.003325898381169
11.859095977539344
12.626654530036795
13.139235916827893
13.612350871922551
13.832653216302704
13.88376561212778
13.922632640512635
13.939028382077083
13.759121944797817
13.44336694405896
13.123576550834867
12.49976295390614
12.118442297693836
11.726587276778119
11.15017846299803
10.844153433979102
10.376665755557388
10.113875961441545
9.764266166249012
9.215893614026866
8.930565627575882
8.39928725250193
7.837007795106576
7.232262427443095
6.507709360776027
5.888317575663296
5.198301689156382
4.515271005630371
3.876155965611732
3.3196762234548336
2.5114699947173977
1.563977313141382
1.125713739432445
0.5994028748228031
-0.026072851347293605
-0.4266268304616977
-1.0577811309144578
-1.4173424464892637
-1.6043937873082015
-1.8209275655290016
-1.682008771213731
-1.5129628786891383
-1.3333830685843533
-1.3239747830284865
-1.1424265801335893
-0.7551420942724837
-0.9381574556580291
-1.121879587927926
-1.329494798533854
-1.7866284398215242
-2.199452777196393
-2.8918772728536526
-3.501409506696352
-3.9502302146206563
-4.720910946753637
-5.409750858817719
-6.028070036046287
-7.056001318323067
-7.880246628812077
-8.524170062314552
-9.415407255418334
-10.14212385763173
-10.864767479388375
-11.480201839457376
-12.167507263336665
-12.95280865479908
-13.341372659515255
-14.043042472172248
-14.647306426328553
-14.808659783834155
-15.195259146321963
-15.224025077830497
-15.079856240793092
-15.098820315097944
-14.82591370558107
-14.60509251295972
-14.365557403598736
-14.089474873585731
-14.025235575705045
-13.730567824670347
-13.564948239680435
-13.501619239006406
-13.030604836891701
-12.864037556276013
-12.966457118734333
-12.82584319617841
-12.798573847878293
-12.746843163353205
-12.459620633017527
-12.307334390894889
-12.11402418618806
-11.876003446074032
-11.775514721024
-11.405078717943734
-10.936109399971045
-10.382968276095793
-9.645874556301358
-8.984285540009504
-8.096986885416362
-7.18314880386737
-6.290458773389278
-5.20710701366219
-4.264035352265469
-3.333174550333032
-2.4341668220988715
-1.640415212385585
-1.0242623810062006
-0.5138172403092349
0.0431001379090913
0.366197982140376
0.9559549868579286
1.5744684722575648
1.708607788063216
1.9572791531067244
2.002518118300106
1.5466441400145317
1.3392387845933846
1.3978391672322343
1.2720440777216582
1.3231987349986598
1.5138821970189122
1.641388022048153
1.7190144103184357
1.8774677095890258
2.181755475417985
2.0510322082587416
2.2347108404196994
2.972643408380611
3.469290531047465
4.3025983744272285
5.2891545195011975
6.032618327128513
6.912635959787594
7.824186862382178
8.89466694916432
9.930772164166209
10.890596786678907
12.259997469967505
13.480958760100453
14.383231024520006
15.408006708567788
16.313390399084867
16.93524043014578
17.595763023564537
18.226433094869186
18.51771495570525
18.709135619081696
18.64385621571536
18.40753315848566
18.173912841840092
17.56935161409327
17.110186528642252
16.845621213226096
16.3718233204899
15.995949756687692
15.624854788272382
15.092915383470826
14.624242321315847
14.199549767483704
13.600276823252361
13.082779610882667
12.810596098773896
12.48660636574975
12.19600014265227
12.085432205880139
11.929027019684948
11.629562407894252
11.30010536019078
10.981783223928986
10.735554805474706
10.567673221487803
10.414817558818815
10.357353206690906
10.340861181372118
10.168376518491405
9.92397545619474
9.508055964486731
8.86097189574235
8.31710662586322
7.606437724323776
6.771257362362778
6.111099337954053
5.387600394623446
4.763861508220759
4.302087120817254
3.90148668384785
3.441727964068354
3.023136415436476
2.917299178299327
2.788056199036506
2.546799521101856
2.4916110767847037
2.351923487879836
1.9038354157365318
1.6528295737725245
1.3264901306058205
0.7633581837668241
0.4601130454048005
-0.032180256907213496
-0.5672620865988168
-1.0072118573361573
-1.694350924439668
-2.2843302878102176
-2.8770591627757707
-3.5522172362658027
-4.072566011333595
-4.650030327310701
-5.186107499698126
-5.293074765916193
-5.402282825586474
-5.734633655241691
-5.912554198869674
-6.172308793803135
-6.6862806631106935
-7.168311249059793
-7.507323867356911
-7.90866173935482
-8.49856398012358
-9.106581467391743
-9.671224651535567
-10.19682625852845
-10.618185460195798
-11.098610944185157
-11.588810337204233
-11.78309061428601
-11.908536857263819
-12.139226542243993
-12.351313495916811
-12.560601904779329
-12.773756804324286
-12.891958645435823
-12.785426281426744
-12.78167595445042
-12.90690544857475
-12.86886812120235
-12.843411945956372
-12.757344005914245
-12.529292325261316
-12.183732994391903
-11.793729105070405
-11.371409039312049
-10.698289527705878
-9.961899087971444
-9.211228869175827
-8.303838674772116
-7.281579330814197
-6.1344120130071
-4.95120521539977
-3.968606886804523
-3.001922958619824
-1.8235091604553746
-0.8907551188638126
0.07086146117622358
1.198327872474346
1.9627100114809646
2.6555986023496474
3.300125366137321
3.8889530024257457
4.460624561819713
4.960899657130282
5.5701644595913535
6.0984595460091
6.680001914859141
7.23406751001783
7.598588556814508
7.909529925170449
8.041053458926214
8.187090859234546
8.28131656892771
8.222974892054872
8.11891856672326
7.772080886953491
7.2521001288648845
6.709326954676978
6.1625799332241264
5.647363819852827
5.227058414969646
4.776530118752221
4.267395452347639
3.9136898346615463
3.535271662705679
3.1346573603001158
2.880887608981116
2.7180200958044223
2.6339256702063345
2.4905748071118516
2.3183293215966816
2.1022098269245246
1.7731314953311765
1.5402874379261113
1.336842800524063
1.1512598887381074
1.0169887812602567
0.8011004972336823
0.6017583430414071
0.2874934713872871
0.08571020595338208
0.21162833851541601
0.27875591605146577
0.3497576716690449
0.3329971949476852
0.19632239015767167
0.18933355640717045
0.09740517791633306
-0.14214699311669626
-0.2584468538090564
-0.45086498001631087
-1.0028454457961375
-1.4243520591760166
-1.6220110598603936
-1.781971411514305
-1.7111024532032808
-1.5928092831708132
-1.4454237508270706
-1.0490622264573761
-0.5758936174663196
-0.16347839572155082
0.2945290801647499
0.7208202709103562
1.0956122222201072
1.507656462140786
1.9156512317559167
2.2696804573983953
2.498072500762003
2.6606941351538946
2.85774823634203
3.0056708115196837
2.9223379165462484
2.754404045302962
2.523889806742641
1.9779622875027831
1.3756523568849692
0.7213457195983491
-0.17496572162857862
-1.1032234047663476
-2.0869028486108667
-3.122555819143474
-4.101108726916837
-5.20826553455255
-6.369269264568029
-7.397273203233823
-8.439728644877311
-9.2125541648082
-9.694899014618471
-10.248973849883841
-10.593422960198154
-10.906894829300846
-11.380369001691886
-11.599128079072043
-11.652997693084398
-11.766100099941882
-11.885452482700607
-12.012512086714649
-12.066382349140666
-11.86990783161579
-11.624867337682076
-11.423718295118226
-11.203076667194841
-10.970143088657855
-10.523782023762971
-10.144888723536361
-9.745514833143922
-9.179985635181987
-8.77670782649471
-8.006986476779934
-7.171116040127712
-6.623621319494769
-5.707409452895482
-4.782393420979856
-3.9912084461685975
-3.070553884538292
-2.0357023388493967
-1.0121971496062816
-0.28571632964283894
0.42491763985936143
1.2079561118191027
1.9536895409627892
2.552433512527327
3.0219106321931006
3.681998092800274
4.280424881408756
4.743028963736868
5.2246236951240235
5.668772715569245
6.023343813413713
6.183783066108285
6.322260898908715
6.5140967952207705
6.598402350069824
6.63275822133002
6.656577494178834
6.595176555358925
6.611939240293969
6.745660639580695
6.795683792713348
6.7894009302068525
6.8785804616906345
7.066737256032579
7.321087199941797
7.5082556218887495
7.509697861249094
7.474700829214921
7.205169928860715
6.718931315044893
6.34248085427855
5.77178179101525
5.011626417069389
4.401541299276986
3.7555771430703127
2.9987015647456037
2.391915706822253
1.9245936771856567
1.5622313613541523
1.1785056100129407
0.6304076762051137
0.21285170432374054
-0.058686833287234515
-0.27667563772737286
-0.4473158971380275
-0.7441043043671713
-1.012873765355645
-1.1849438662754224
-1.4516302369396143
-1.819653731567059
-2.229712481019953
-2.5578590332683615
-2.7899238789005985
-3.019553328535773
-3.253600066627612
-3.4219503004499137
-3.355467658173347
-3.1663885182348745
