AAD_Filtered_TADAS_FILE
AAD_BASELINE_CORRECTION: BASELINE REMOVED
AAD_FILTER_TYPE: BUTTERWORTH
AAD_FILTER_ORDER: 1
AAD_LOW_CUT_FREQUENCY_HZ: 0.025
AAD_HIGH_CUT_FREQUENCY_HZ: 40.0
EVENT_NAME: 202302061024
EVENT_ID: 13207
EVENT_DATE_YYYYMMDD: 2023/02/06
EVENT_TIME_HHMMSS: 10:24:47.00000
EVENT_LATITUDE_DEGREE: 38.089
EVENT_LONGITUDE_DEGREE: 37.239
EVENT_DEPTH_KM: 7.0
HYPOCENTER_REFERENCE: AFAD
MAGNITUDE_W: 7.6
MAGNITUDE_W_REFERENCE: AFAD
MAGNITUDE_L: 
MAGNITUDE_L_REFERENCE: 
FOCAL_MECHANISM: 
NETWORK: TK
STATION_CODE: 0139
STATION_NAME: 
STATION_LATITUDE_DEGREE: 37.400943
STATION_LONGITUDE_DEGREE: 35.445322
STATION_ELEVATION_M: 238.0
LOCATION: Kahramanmaras_Elbistan_Turkiye
SENSOR_DEPTH_M: 
VS30_M/S: None
SITE_CLASSIFICATION_EC8: unknown
MORPHOLOGIC_CLASSIFICATION: 
EPICENTRAL_DISTANCE_KM: 175.29
EARTHQUAKE_BACKAZIMUTH_DEGREE: 
DATE_TIME_FIRST_SAMPLE_YYYYMMDD_HHMMSS: 2023/02/06 10:24:57.2284120
DATE_TIME_FIRST_SAMPLE_PRECISION: millisecond
SAMPLING_INTERVAL_S: 0.01
NDATA: 13501
DURATION_S: 
STREAM: HNE
UNITS: cm/s^2
INSTRUMENT: sensor = GMS+/GEOSIG | digitizer = 
INSTRUMENT_ANALOG/DIGITAL: 
INSTRUMENTAL_FREQUENCY_HZ: 
INSTRUMENTAL_DAMPING: 
FULL_SCALE_G: 
N_BIT_DIGITAL_CONVERTER: 
PGA_CM/S^2: 37.502
TIME_PGA_S: 
BASELINE_CORRECTION: BASELINE REMOVED
FILTER_TYPE: BUTTERWORTH
FILTER_ORDER: 
LOW_CUT_FREQUENCY_HZ: 
HIGH_CUT_FREQUENCY_HZ: 
LATE/NORMAL_TRIGGERED: 
DATABASE_VERSION: 
HEADER_FORMAT: DYNA 1.2
DATA_TYPE: Acceleration
PROCESSING: Automatic Paolucci et al., 2011
DATA_TIMESTAMP_YYYYMMDD_HHMMSS: 
DATA_LICENSE: U (unknown license)
DATA_CITATION: Turkish Accelerometric Archive v 1.0 - Disaster And Emergency Management Presidency, Earthquake Department
DATA_CREATOR: AFAD
ORIGINAL_DATA_MEDIATOR_CITATION: : AFAD - Disaster And Emergency Management Presidency
ORIGINAL_DATA_MEDIATOR: AFAD PROCESS SERVICE
ORIGINAL_DATA_CREATOR_CITATION: AFAD PROCESS SERVICE
ORIGINAL_DATA_CREATOR: network: TK
USER1: GuestUser
USER2: 
USER3: 
USER4: 
[...]
1.7621592495808585
1.3163053489009862
0.7122904811520854
0.27752514713409704
0.15331256112879227
0.28234178359167245
0.5420924360864015
0.7978415718315887
1.022494645300279
1.3341407853966039
1.7983112368357261
2.2708123620369087
2.503031205407976
2.333942685644576
1.8363918232043175
1.2899596094746573
0.9368127814248554
0.8696538945731828
1.066330964026463
1.4318748651227822
1.8448926476376
2.1853729686845336
2.4024434510650186
2.527165282977247
2.610187109285619
2.675423100259665
2.678229380351986
2.539178939773976
2.22571936598751
1.7808781052992848
1.3122056993694613
0.909077693395328
0.5623327368916796
0.22868602305402377
-0.03578790741533573
-0.08950044183937247
0.11319296100132901
0.462065183414983
0.8223768097179703
1.1103791349308538
1.26792606052208
1.2234018703616616
0.8894827737444032
0.26972372785869103
-0.44969211828793926
-0.9934807622448937
-1.195021026743233
-1.107135403559508
-0.9366147950381705
-0.8727879385021342
-0.9586262996038967
-1.0539701073913892
-0.9195175675460459
-0.4414052441927204
0.29225928993017786
1.0611634113709951
1.6629811627239415
2.076776766592118
2.392799920778088
2.7427072708231015
3.1233414971261366
3.3677326051838015
3.34460492750101
2.88975595791048
1.9732871815124298
0.80978228171345
-0.407165651442456
-1.5378184643058128
-2.482195092152374
-3.2322126179530892
-3.802240116958574
-4.167566101312307
-4.290691391423401
-4.202232851607578
-4.014478874630532
-3.8135939526489344
-3.614964515859444
-3.314752864921488
-2.688757138334546
-1.6240884744100637
-0.27324293371296143
1.0440793749018835
2.0806413186183796
2.7988399420552623
3.3310197433861424
3.8673847992637604
4.436205855134263
4.830818338162973
4.782299299632331
4.219002690192719
3.3678563378662134
2.507773659246915
1.779672614959362
1.193283050220464
0.6590678227736401
0.04354938839725897
-0.7172616443735684
-1.482912250811281
-1.9901589375771322
-2.0817374246258553
-1.8213657476235938
-1.3777190475449017
-0.8760844204516257
-0.4064997650002377
-0.026358617862316178
0.2694419962815055
0.5704001905795547
0.9420853445676679
1.3213992218706923
1.633235258299018
1.835811344750684
1.8942043530090977
1.783997611546574
1.4939078812112754
1.1031835317217316
0.7044095229617966
0.2736419297926617
-0.2681712297184865
-0.9268071033263918
-1.5611140957092458
-1.9707755379312966
-1.999558922857249
-1.5996765764596665
-0.8961764099944267
-0.18024015549289546
0.2423941219871073
0.3098250371980034
0.16292186853752713
-0.04078962528150644
-0.14165363437126122
-0.0602419482289899
0.14420277697870465
0.32948549241056446
0.369873289821049
0.24265433944264106
-0.04257610873873383
-0.5259833651043521
-1.2673962343532403
-2.2279412082867367
-3.1911579081675003
-3.9318736753801256
-4.382121578379998
-4.566377524435493
-4.508877591649972
-4.249007740899022
-3.847355663328818
-3.3151807751179523
-2.6192439242441274
-1.693760722517562
-0.5278598515180382
0.7109107707523449
1.8505159715357071
2.84465782503686
3.694693040905501
4.415164009788311
5.027196647935327
5.560275614958555
6.033294727047653
6.397405533302047
6.5325198003915865
6.343109072694396
5.805439691578664
4.968850515715031
3.998231743715042
3.1496033441935687
2.6138132793715467
2.3853523711173894
2.302688489615059
2.1737040078777317
1.9130086088266252
1.5662981606421518
1.1859736422434195
0.746250597974101
0.1986626428186823
-0.43933376925011103
-1.1048848955653934
-1.722516499437916
-2.2409860085264386
-2.688938232611061
-3.1107535062719327
-3.4788304296284154
-3.7013323569361845
-3.7273384873141557
-3.6267082962775086
-3.537226127057397
-3.5704272454766266
-3.7251433593444565
-3.884316428813132
-3.909765187017716
-3.732375014460041
-3.38699181539676
-2.951320595227811
-2.483242461763528
-2.0656708913967434
-1.816596859684906
-1.7776994286669496
-1.853417354950537
-1.8575424298269467
-1.5965216746555804
-0.9871939114131288
-0.11969854554654122
0.7862881506872953
1.481671624275667
1.7673946531590292
1.5524638489903282
0.9413559765504796
0.199686216287191
-0.4311166810155957
-0.8562106397632983
-1.121571375120545
-1.350168432830145
-1.6466867149193454
-2.031204670740287
-2.427076834562265
-2.6996562091590324
-2.7717359127260544
-2.6473933969144325
-2.316400158178378
-1.7417326032402562
-0.9670926309509598
-0.18077279944373026
0.4206180830914138
0.7821256081356877
1.0082881278562916
1.286087480076124
1.7074322957119559
2.2019275035739
2.63571410740922
2.927706820367171
3.0953761753742097
3.1802905261691996
3.196580467091866
3.1119479531754637
2.8709518981544404
2.4762936299592666
1.9530228507226555
1.3421953988113784
0.6932858484493982
-0.03190320614259364
-0.8817551776470699
-1.8209858440784767
-2.774453623203049
-3.648472059965747
-4.377231377068748
-4.987488628863143
-5.542724133952887
-6.016075926886668
-6.249563999529193
-6.097007937743968
-5.588594808798087
-4.932594501294156
-4.377302904006467
-4.023889660902123
-3.8172923236981755
-3.6977776702428904
-3.693948453307264
-3.8591700267182736
-4.139452038078331
-4.387988512162838
-4.456537126313114
-4.2545617860655875
-3.8005304433940994
-3.225155337809267
-2.696196730382871
-2.3224036621568525
-2.1094342957517296
-1.9940732779390566
-1.914579836725252
-1.8715050743665487
-1.948537317352721
-2.220198966306647
-2.652050522678025
-3.119563905190609
-3.495338099391744
-3.706832518675417
-3.729018994804223
-3.5754654306015765
-3.269666230490285
-2.8402022877790016
-2.339253149091526
-1.8264682881818923
-1.391063171347895
-1.1358066433388223
-1.1261585833137344
-1.3268768473800818
-1.5676790477356892
-1.6662422733870597
-1.5553478126933178
-1.2851543889988313
-0.9549493360799348
-0.6499709210264316
-0.40499097550134794
-0.22628416903304974
-0.1416560641235211
-0.23412333521391385
-0.6011424797736312
-1.1791784129564207
-1.7702100709127713
-2.197660455511991
-2.4147538664475676
-2.4916249979334024
-2.3976430136919746
-2.1585862072837654
-1.9958306976751412
-2.141660072218904
-2.7697483542068366
-3.8168867172645795
-4.972516750763153
-5.941115550542453
-6.6108573733677405
-7.020899572877721
-7.216603639519089
-7.226745122465902
-7.081606608424132
-6.823173742945762
-6.482091540324109
-6.039443320100371
-5.4525797439643595
-4.723154822214895
-3.9801777183352685
-3.411222951435237
-3.130138420677446
-3.1269382210755854
-3.3286479474091575
-3.6766679656299006
-4.054676378989828
-4.282517987810153
-4.239772835823777
-3.9391404187959775
-3.4390397453612307
-2.7208162715015067
-1.740004027911611
-0.5545177218784927
0.6725936887872409
1.793923347009455
2.7351855170331674
3.4685546089952877
3.9626301498476724
4.196130855016243
4.230851602114984
4.1806354678953035
4.1347407217882415
4.109094073962066
4.022856367548946
3.7697407275805883
3.352271884724607
2.9202296112432378
2.668457626619826
2.7323686511000953
3.129934747815066
3.7746153594605483
4.55935578010363
5.378383777550771
6.146684370718997
6.844128029748232
7.475437399049425
7.996045600676566
8.284083533941827
8.227891141153384
7.8394146986057205
7.2616890010339326
6.635601521718065
5.920970111527865
4.96072633597576
3.682693659070757
2.139219723122796
0.46791981267571786
-1.1203067531946693
-2.4151012300036183
-3.349752677518931
-4.061317684507056
-4.777858963664924
-5.61243438828669
-6.492183258546317
-7.26046788036616
-7.8134211689855695
-8.156369817411957
-8.310027238080927
-8.254315263233675
-7.945862606097439
-7.35892883833911
-6.573490229734557
-5.744301388446449
-4.989093863761777
-4.346180354735268
-3.7366397017792155
-2.9861738605297288
-2.0281821758594187
-0.9932292955023178
-0.05296527259333776
0.7135791985669505
1.3667963567683314
2.068847817143647
2.9746242848087907
4.107937013119854
5.357386736046349
6.605946277994553
7.765200988015556
8.76491780131103
9.53675796822068
9.990028926113698
10.069131345549746
9.76012145182453
9.113919638996546
8.263158296649701
7.296249349269084
6.218470126721691
5.023090564995887
3.716750514162861
2.281052629356643
0.6880401077862357
-1.0704254919365994
-3.052120401481745
-5.327451875732494
-7.904201608535606
-10.653867414833906
-13.315938847479128
-15.65121968563416
-17.434928036783145
-18.646897675558478
-19.551691166875504
-20.287845774754235
-20.843306388758133
-21.196809816131974
-21.2414992660054
-20.907636241428172
-20.317401700660064
-19.743730469844365
-19.4874647726477
-19.71599877778287
-20.35990770965801
-21.16842733361112
-21.78963034896597
-21.92465164282278
-21.51991565369066
-20.721900831043605
-19.69883188658642
-18.519698819307944
-17.16546280132366
-15.628390655282706
-13.977115018194317
-12.352561066785563
-10.84072791814311
-9.426417949064332
-8.089304353722676
-6.819948211535708
-5.65375103645865
-4.662398271245624
-3.883673024455188
-3.37877815028582
-3.233893197953613
-3.4862408845987183
-4.067749814200582
-4.808483481877027
-5.516649450877633
-6.0241711489473575
-6.210285478599842
-5.999620591459638
-5.466126777444531
-4.786139362686345
-4.088995736597069
-3.5599571012550033
-3.295644819013208
-3.189082428054576
-3.135395017218459
-3.098051673267752
-3.1484930755647835
-3.449250459196729
-4.112620745608209
-5.115317878904886
-6.265390716476667
-7.282734650034492
-7.998178551916092
-8.44047124730333
-8.70516913779271
-8.858915462850478
-8.958996141552925
-9.016378836441714
-9.022059580739278
-8.975252463347433
-8.804771008521522
-8.386637945480647
-7.657325899438106
-6.676525965091756
-5.577299238868102
-4.481730668282332
-3.4445034935610455
-2.447271333930341
-1.408551844275694
-0.20764605431335043
1.1910615885263156
2.6937514280253385
4.1989763147734385
5.657610677556923
7.009319423637991
8.15630837688547
9.053571326110049
9.727919080227542
10.1895609052802
10.414411656737801
10.38158080297373
10.114645548031573
9.712481878961276
9.298531521301587
8.91644034027377
8.574307163196023
8.217170807951033
7.729984712363923
7.190568554647388
6.746001770185396
6.487808221340485
6.5414256458556475
6.866817157887572
7.2519076499198345
7.473275268113597
7.328294986485402
6.746691167512004
5.834597431916881
4.7888363094816535
3.7817874943958776
2.826408510322879
1.7876495223708546
0.5180746170240954
-1.0680475876688296
-2.9804472857474713
-5.151094378654823
-7.431950275051997
-9.59512189831299
-11.432115924434418
-12.721737624576274
-13.357147273279175
-13.51100396287293
-13.135245295118073
-12.116259230738239
-10.677146142110253
-8.992099994090562
-7.152204864066667
-5.193408152043547
-3.1431685990015574
-1.1621207150238972
0.6205671370388487
2.1305657077864955
3.348127915993281
4.34531705410821
5.248830263776065
6.22977757403789
7.395130274037716
8.656547123758125
9.786572364805949
10.567314663055438
10.84648384989105
10.569085444630575
9.754217430427722
8.449283197504009
6.739101011296202
4.785074458964515
2.8607367101757077
1.1468771386903907
-0.33314511678421416
-1.5159359315560055
-2.315897233704311
-2.7026186077173775
-2.716449350582327
-2.4453219058203226
-2.0003749601807774
-1.5512202160457633
-1.2710301388849423
-1.2243649127149208
-1.3944948196421176
-1.7766778630428306
-2.3610661316795016
-3.0902735142521065
-3.874795756281189
-4.598762920350203
-5.188790860831963
-5.645680116189811
-5.8890058075187115
-5.7614950808449175
-5.180988150828063
-4.190536076258532
-2.96005790879582
-1.671359329603926
-0.4117954826669605
0.8113990066588508
1.9898411679388248
3.030717179075246
3.8385196742320993
4.437682117357183
4.931091453145162
5.390703916307513
5.848192335076014
6.267272242814176
6.480742056789874
6.297261553146207
5.63363886756984
4.587200803193403
3.412078504738859
2.351618654999762
1.5676679825274293
1.1222568538535866
0.9861743987103839
1.09634288084613
1.360033263532151
1.802289954618965
2.4900901963317916
3.275345904284266
3.9658789400626793
4.497605478269191
4.871553663449974
5.04466504645511
4.882368830926314
4.2763771328764175
3.2109025382198952
1.7657941017114194
0.1300011450013925
-1.5021282877151358
-3.044473542612697
-4.499112399159281
-5.8671564562987415
-7.098477543969234
-8.158935699880066
-9.025543454327977
-9.590733535770497
-9.786875455345134
-9.692342186957449
-9.433140607831916
-9.143866974838705
-8.909366752206255
-8.73789395038567
-8.668207392760138
-8.77440450315017
-9.06070839110965
-9.428341413588365
-9.724158057620448
-9.754446528770982
-9.312296833800144
-8.270887617513868
-6.630101636633477
-4.469402204272021
-1.8740296853553835
1.0421735629320201
4.040478373831574
6.8096653746419085
9.15703692955126
11.072059323399959
12.62008957512555
13.862810056837366
14.908102569950554
15.929053744017304
17.118279142668587
18.650364367595603
20.54759271500305
22.64532923106298
24.794835038880173
26.945641159407362
29.051697020589206
31.05501784210399
32.88658344227654
34.46649564737645
35.74839945503405
36.73874351821679
37.46256610277174
37.90267171919497
38.02478487260315
37.822597768262526
37.34338708841785
36.66820123839627
35.7937131731768
34.66722474758338
33.309861955656544
31.755710259620155
30.02650131169193
28.196438790094895
26.411812972532058
24.829717268124615
23.488128590628744
22.33679362763131
21.298147595221373
20.278328577866446
19.268006764303195
18.415328306153377
17.88225175627805
17.609756619786666
17.34430954249221
16.82609076698989
15.94623965469638
14.732562694094902
13.338254449723763
11.950154743106804
10.581389263291525
9.182327723814756
7.661308069113513
5.909464403893421
3.8537813025462775
1.4298311625588636
-1.1559336720784217
-3.5392469678357443
-5.527678116324036
-7.063075942421186
-8.294430919400053
-9.538370757560404
-10.945385045185422
-12.500081206667682
-14.0706280680123
-15.407985343454929
-16.335456386272625
-16.758516283716638
-16.721335640241684
-16.38182271841385
-15.859462240475162
-15.227552921219882
-14.611312639044208
-14.139630299722393
-13.647867486884408
-13.003092155117884
-12.35046638255143
-11.789787923225704
-11.38255320852836
-11.156493063430784
-11.003224590091385
-10.729246512245451
-10.250243822007723
-9.623295347610785
-8.969615535290139
-8.446092784921339
-8.11037656710482
-7.905862733507308
-7.669009248161397
-7.194447407218685
-6.352449079590452
-5.15714990375503
-3.783242029897084
-2.3911490841773544
-1.0061176688621893
0.3737354326771423
1.5885623584349662
2.359130645912611
2.5040250842629566
2.0325385485352467
1.2735143155753559
0.6936653452254187
0.4649267817828652
0.5258747695352523
0.7336557074105183
0.9456270348163603
1.121656494051374
1.362767446623973
1.8221822127392624
2.5198238172232292
3.465960913102154
4.626959835030414
5.854047224691008
7.093013121930787
8.486607071032811
10.235590904423168
12.331074993288803
14.466593841626965
16.163074588736098
17.21179022835323
17.717678136034387
17.817542034543173
17.71355539440824
17.44113099496114
16.84021581321119
15.765892949226187
14.170323928348484
12.230137429388865
10.207443781906246
8.315754762953125
6.714414960101914
5.371471013910595
4.08213407180864
2.691785624495339
1.160949560892108
-0.4456845071217783
-1.8986729307056291
-2.951211153439443
-3.5118772663881868
-3.584046154941176
-3.2565070095399413
-2.6265199509376327
-1.756435429184914
-0.8290753067742921
0.013469600488799287
0.8119175774689346
1.548409680919212
2.200236703043488
2.8955336370834877
3.6525042048238006
4.3420282631569895
4.8851326141308355
5.2931311067894375
5.582926610904432
5.659992210274777
5.452403628466728
4.943921235335398
4.196025797556511
3.4356745822061883
2.853923652838753
2.504647013854797
2.3790989142238166
2.47649449614715
2.834127485710667
3.536848811183477
4.744071640168002
6.572210811499825
8.879670997894785
11.393653745372736
13.94419295965413
16.395445879711225
18.687607166126146
20.812867421149868
22.69663302516268
24.318825935829704
25.77668250959276
27.143211777316207
28.327816644952797
29.3056796537647
30.209823471294182
30.998246824991803
31.446490332132367
31.38931956237926
30.80086477991544
29.75765192011935
28.337247928399204
26.656478201474304
24.86953034623559
23.01580700138489
21.15752633288875
19.44821595265243
17.94601467353171
16.62067053717892
15.429152139839726
14.249797325679467
13.047850041983018
11.918629383496814
10.78527481655789
9.428249218886247
7.833935313136036
6.331935950968474
5.185866226776593
4.526120366045334
4.390845077111669
4.6198910629914405
5.043628442132603
5.428290367450288
5.53820507578888
5.320469729403101
4.9875310182636925
4.663414749933532
4.409643281823416
4.113451886688011
3.471764715889467
2.8707294022372003
2.288849283316676
1.459566034301072
0.5625193530805014
-0.5332583269288438
-1.6111966978072998
-2.542234656438165
-3.4799360439339666
-4.476097603161042
-5.283812874719626
-5.605086615339959
-5.388644792544454
-4.786256192523812
-4.008504593929701
-3.245556112332768
-3.0200185313428496
-2.532890888037948
-1.5214101552060255
-0.24975928518216467
1.043319746198115
1.4895173116730283
2.059277840078763
2.4427846301521963
2.32171486001582
2.149322342227827
1.9136996113592601
2.042311501959226
2.0598472706074884
2.214945525741335
2.4139500195690493
2.384422954359472
1.857122919130084
1.188029032684096
1.0767833936305138
1.2407247850460084
1.861151974091951
2.170966418391596
2.514957670638766
3.174626516631808
3.47665492274199
3.739022622390729
4.030929921756184
5.168843951352226
7.620398040753467
10.582531909826082
12.672361997382568
13.738773289478429
14.761749975638468
16.048720200448127
16.540832927368104
16.643241537228487
18.25478127764386
18.965344504846847
19.022432403055262
20.239329482799572
19.8566287421949
18.817210958403916
18.791567914798478
17.992985233266594
15.948802013316618
15.147944938876796
15.952128127056625
14.670093454242068
12.282234584419395
11.939931872545477
11.252592624327391
8.320789034088797
5.819030109615619
5.311907490787666
4.394924780104385
2.6252063524011064
2.0323957990797212
2.184642928847769
2.715515325843532
2.6042853127361867
1.3082156472212512
0.8965674688648665
0.8902134211553125
1.1883732366839574
1.5841174421619963
1.6924136846090863
2.3865044543839344
3.4250894046427924
5.183405684150275
5.188638328906916
5.466015623145494
6.202528269850235
4.06339247227285
4.939387546839333
6.239936522024786
5.077461620805465
4.754114424731012
3.2065681852424883
2.157687107760887
2.8609388542681073
4.497219352018286
4.272431286814857
1.959177483192734
1.0353886708007363
0.5485144800942081
