AAD_Filtered_TADAS_FILE
AAD_BASELINE_CORRECTION: BASELINE REMOVED
AAD_FILTER_TYPE: BUTTERWORTH
AAD_FILTER_ORDER: 1
AAD_LOW_CUT_FREQUENCY_HZ: 0.025
AAD_HIGH_CUT_FREQUENCY_HZ: 40.0
EVENT_NAME: 202302060117
EVENT_ID: 13194
EVENT_DATE_YYYYMMDD: 2023/02/06
EVENT_TIME_HHMMSS: 01:17:32.00000
EVENT_LATITUDE_DEGREE: 37.288
EVENT_LONGITUDE_DEGREE: 37.043
EVENT_DEPTH_KM: 8.6
HYPOCENTER_REFERENCE: AFAD
MAGNITUDE_W: 7.7
MAGNITUDE_W_REFERENCE: AFAD
MAGNITUDE_L: 
MAGNITUDE_L_REFERENCE: 
FOCAL_MECHANISM: 
NETWORK: TK
STATION_CODE: 2712
STATION_NAME: 
STATION_LATITUDE_DEGREE: 37.184
STATION_LONGITUDE_DEGREE: 36.73283
STATION_ELEVATION_M: 536.0
LOCATION: Kahramanmaras_Pazarck_Turkiye
SENSOR_DEPTH_M: 
VS30_M/S: None
SITE_CLASSIFICATION_EC8: unknown
MORPHOLOGIC_CLASSIFICATION: 
EPICENTRAL_DISTANCE_KM: 29.79
EARTHQUAKE_BACKAZIMUTH_DEGREE: 
DATE_TIME_FIRST_SAMPLE_YYYYMMDD_HHMMSS: 2023/02/06 01:17:07.3433620
DATE_TIME_FIRST_SAMPLE_PRECISION: millisecond
SAMPLING_INTERVAL_S: 0.01
NDATA: 10501
DURATION_S: 
STREAM: HNZ
UNITS: cm/s^2
INSTRUMENT: sensor = ACEBOX/SARA | digitizer = 
INSTRUMENT_ANALOG/DIGITAL: 
INSTRUMENTAL_FREQUENCY_HZ: 
INSTRUMENTAL_DAMPING: 
FULL_SCALE_G: 
N_BIT_DIGITAL_CONVERTER: 
PGA_CM/S^2: 346.122
TIME_PGA_S: 
BASELINE_CORRECTION: BASELINE REMOVED
FILTER_TYPE: BUTTERWORTH
FILTER_ORDER: 
LOW_CUT_FREQUENCY_HZ: 
HIGH_CUT_FREQUENCY_HZ: 
LATE/NORMAL_TRIGGERED: 
DATABASE_VERSION: 
HEADER_FORMAT: DYNA 1.2
DATA_TYPE: Acceleration
PROCESSING: Automatic Paolucci et al., 2011
DATA_TIMESTAMP_YYYYMMDD_HHMMSS: 
DATA_LICENSE: U (unknown license)
DATA_CITATION: Turkish Accelerometric Archive v 1.0 - Disaster And Emergency Management Presidency, Earthquake Department
DATA_CREATOR: AFAD
ORIGINAL_DATA_MEDIATOR_CITATION: : AFAD - Disaster And Emergency Management Presidency
ORIGINAL_DATA_MEDIATOR: AFAD PROCESS SERVICE
ORIGINAL_DATA_CREATOR_CITATION: AFAD PROCESS SERVICE
ORIGINAL_DATA_CREATOR: network: TK
USER1: GuestUser
USER2: 
USER3: 
USER4: 
[...]
-3.310194592935412
-9.141637715591099
-2.758542059240619
5.420740929163873
-15.36120096679895
-27.950093306214743
-1.37035933019321
34.285085926436835
40.2925113467688
23.070354482946072
23.596293410274637
19.494377323528287
-9.49669528159772
-24.103121723322346
-26.283572387509494
-25.199163207537453
-18.890966944824967
-23.516717894278173
-18.16942451190733
12.322215481594617
31.018660176295118
24.04973668057228
18.737767373000057
20.083940813412596
29.009727925522057
49.0125660853717
42.08717160203596
7.942837886761636
-5.945809094618697
-2.4387425590427414
-14.093883552278353
-38.45887049142934
-33.5110417328039
-2.0387146898670534
1.7512092167734226
-17.63793252788573
-23.994564447696334
-18.846921246459885
-15.705140300779549
-7.524246723684589
15.847349169258104
34.13608426820495
27.975852285786257
11.434562105060097
8.870736360823537
12.738245846058716
7.212461733247432
14.70649244243917
28.95729337001615
21.529131616083742
10.50517989286622
5.21485164455692
4.480735127450165
21.54818883735209
42.94765052970114
46.70917070932848
30.494368277323698
5.1035084630318295
-20.208757357942776
-43.95514779336619
-47.444938962917895
-28.408657726619015
-12.139474958811975
3.881049061602969
1.760652416909819
-17.62483311355827
2.6505130415955325
21.33570437347462
-2.389144415848144
-10.49351895271532
5.803869785070284
28.41822908481646
32.35694659466226
28.34279329149348
65.21442838763578
71.18360646560328
15.502375133126298
-21.05371140739678
-33.78877115503135
-39.40556133206933
-35.85885255826196
-17.331363642863828
6.5884676474222275
5.213136860037639
14.135573415752532
43.034281155494526
49.680452999340204
46.25521599678547
46.87419109633805
45.34037182886228
28.994863681288578
6.072507292797356
3.0155200003609717
-7.599047815629328
-32.55762218454675
-48.18892435762058
-65.63912555829147
-64.47112141052868
-37.41111226391208
-16.986055409137137
5.67488893308167
24.726684268253734
24.205111938812646
33.162238762167675
36.63138557120999
13.216660710675171
6.225369409137162
1.1541262632292875
-18.977717589144728
-1.0311080467991942
3.470227781206852
-45.06864331686232
-56.555689886757904
-39.20642020746723
-36.15770284382977
-19.022976175461952
12.499850516295787
59.43101919207985
84.38922565483875
55.58627623700804
21.009518725288014
-11.30244254438566
-28.938160500443036
-8.721329894199002
19.04048628173482
39.266699567786006
30.454906144216793
7.923343166233067
18.346616472862234
29.38067326864067
14.654541579952554
-11.100127774154043
-30.124618802199397
-32.99607910598891
-32.06351719717704
-19.17865053625832
-15.014895250047102
-30.37377306519094
-17.533407056748224
2.9966934401276517
4.298891982462307
-6.38198705977963
-34.812128726836825
-44.15221826924507
-39.843722736572424
-35.141614300941484
6.450763986757633
34.06452770898308
21.163468184646305
24.623924229908777
33.958469646516804
35.54387704971282
44.680806499106374
38.61082027874871
19.737147327182317
9.956439985947247
-8.30303588916161
-23.865473934731103
-14.70870125800522
-21.990356972239894
-39.79649008592608
-24.263161943234234
-12.916865932200741
-7.312597201522616
35.284839312170504
66.6486190324215
64.37979689798004
67.76186401626013
42.48787290091856
-19.76787762530873
-56.57837851804011
-63.46948696918096
-37.948982401136504
18.241620606427517
34.77098282916998
0.020511776869512742
-42.10067733016701
-65.37853334685869
-35.15349759363661
22.18489752420761
41.39895984129792
24.394159910130107
-2.7652467168358457
-21.052985429989338
-17.900917461830904
-18.061737532964933
-39.081858389563834
-45.62020372123693
-15.44984444811288
-0.8462508672200909
-35.7859146590601
-57.88958404160422
-37.39261660869432
-24.423127500463757
-19.52145911908849
-8.281980902338946
-17.0301946719892
-22.213577064687072
-18.58044208575366
-51.879318777123466
-69.88158957748868
-26.175251458925484
20.49257708735236
50.22336705874633
57.398199426709084
40.56040494987024
37.40010371422575
17.6088131454454
-5.8475546229402084
33.47580690452443
57.62649736944713
20.82227465365699
-2.8799580737374875
-7.16602362318371
-8.031627270289905
-10.494942776308049
-23.375449201712648
-21.462363509353022
-26.38826334805028
-50.81253080059445
-47.56203113176098
-36.43427945993909
-28.27258577246035
12.014148613937902
33.78599300743453
1.3123695032234561
-23.020674327916694
-10.423069484453155
-0.6757249235336078
-12.869435692946197
-14.37723916180325
8.342203384658218
27.264818747326345
38.9074798014224
58.826942351092384
75.76141402881377
65.68963543904212
33.70221373067571
10.112746032579427
-0.7144836174581541
-10.223971612091065
-19.584663104273233
-34.50629348938167
-45.06179588628747
-40.63776368367556
-33.88043315662588
-21.409930318196935
-14.193466596041473
-44.94914783786375
-76.49426399814178
-69.79657388859718
-71.80429123705301
-76.36493877188803
-36.72620703389395
0.820618105973323
12.423416852271519
18.934054936106726
7.985393131570858
2.473356336981141
18.39673037967709
33.59968111719055
38.278166143625995
31.414285178437513
34.180563611234334
28.492802224987688
-4.295306544046932
-17.173756552259313
-24.659248771733715
-45.16687965904784
-41.11179501765586
-32.343182727042375
-27.264337864515895
-10.659687814294342
-23.223465936169674
-68.34753540663344
-90.81626030998314
-72.26169100883841
-37.08601661841142
-10.567482340242911
-1.1866684050008445
-9.067515063694618
-25.053189698633936
-16.525358401675152
24.31303198842581
56.39773441864581
54.85436920723328
38.91228047301466
37.36010614028325
35.61183785173395
11.40856683642054
-6.730202228728408
-14.105116808633415
-22.412035017560164
-14.587484478030397
-3.5744623358657837
-6.908015956626998
-29.028809371348988
-66.78091105798373
-89.03695047905019
-91.47146176390882
-84.20933494405307
-66.87948939108288
-62.56443701583213
-78.13461082247323
-90.20252082857414
-88.31167465473256
-82.3851382980134
-75.39921428902632
-63.83551027966307
-54.54518280520924
-42.77614247051684
-40.07465835833759
-64.92876427734225
-82.66531156220411
-75.56351539798571
-66.15933197605771
-61.16571661077254
-56.680005902040854
-44.18865585418026
-35.94267610893447
-46.85548724034119
-57.7066213796962
-52.737770328263274
-35.374378927107514
-23.10122396748709
-21.703497245014272
-25.741599811610325
-46.7900551954135
-69.38763308558468
-67.73853691599898
-51.108224709245206
-31.676047340837414
-17.528081927586847
-8.274390309477212
13.574356707306231
42.89512588547995
40.54902802170654
14.840227529185581
14.615983626360709
28.068249511128506
42.26586282061704
66.4278612168466
72.81410808063275
60.913272101827744
52.91818777497511
59.865111162834665
79.20309686424794
80.02219622299553
72.23610091151357
85.78465226824876
115.1257176626689
134.46551235798285
102.68214485280399
54.74168224951228
59.386020747480536
81.29133910997857
73.37186576767326
44.05503525343548
32.77848634428971
74.4686477309681
101.97639685163062
65.83858789853855
50.210735808757946
67.9751280770698
57.1207931137809
44.124916501526066
38.64425349966839
15.820451936263176
3.221881806746565
1.5846824182982608
-8.698894357172042
-24.96021278945475
-39.62280661791901
-13.024744800815075
39.08232441041997
42.59114969031453
30.94512845251854
44.095142093178
35.971110362553134
31.52902461151686
47.41148830773176
26.211540844183908
4.901936035384772
11.86579870409816
-21.74224319747713
-82.43581797039256
-104.67673045100692
-100.79513445226519
-94.70424829054983
-71.16674204115863
-53.222920747916305
-70.42260970027328
-64.46224894400206
-13.992334023084497
23.488902808228335
47.757649284895464
69.00510969864413
78.38926276094104
90.08806580407392
78.37323404990221
26.387958690740653
-22.981680059683924
-53.812302292349706
-76.76122014245149
-95.72408304690147
-105.79839016165597
-76.80008501803309
-19.327781550474025
17.24203106904267
38.89508850146387
33.973546987433544
-12.392706343786278
-16.819296827094508
12.793483223448359
-6.795975503538722
-22.421353048862414
0.4726043027155643
34.47852654951046
66.75411851761103
57.53800370115865
49.724787622482296
97.2759559653686
140.69465286978206
148.7135787875835
162.84520681612196
171.53790299982754
126.4907248539702
104.0825767880989
101.78702448406389
12.889651968970162
-36.2153776827135
-13.389456178823275
-32.08087611363397
-19.059902670820247
4.298380947139236
-1.3952798934063046
32.016623992794756
29.970919246700653
-47.69784966091266
-67.80052708655275
10.474904502336422
33.16868042285006
-11.032526062396416
-32.59194917346544
-59.51746421513505
-43.040323752168725
-42.45030026321565
-98.45875004685689
-95.22268443417283
-106.82393439882014
-65.64293396915252
86.48763900416732
111.27550780828716
-43.16295815621614
-173.95981695883862
-162.93217240060233
-190.34104203660274
-147.21235873032262
34.550090411950094
-78.81327463548045
-138.34541578468074
57.177916138891646
22.255302629616278
-2.484431427000195
-57.510211262869625
-235.50957221106165
-168.0506769295972
-136.93115922062526
-125.1221748285375
38.63379725533656
-24.182813362805174
-192.81136176320393
-116.72138192963939
89.70747825776733
97.84658645611769
-129.51683844045718
-295.12760426928736
-167.06696811004858
155.17078292618794
235.17290603045612
137.63258783618284
149.61172283888502
21.989970881853548
-110.23392655287775
-43.01319789551457
-2.182097694167995
-7.637170415293783
-120.82036744007355
-223.63694401970926
-103.89654089666273
-12.43090993582281
-57.58361178918226
-99.65972031547899
-6.111504468008409
81.08660912280072
-90.77720643397967
-68.52927194457868
179.35356393600998
95.90681300548914
24.63934040618132
45.554363305072386
-78.20051557913172
34.03319188221725
81.10102343564212
-143.49808353542247
-109.08550121081088
-21.09204180648957
-57.26675190693167
47.95010685240946
62.34911895662621
-73.621628263384
-63.29538688872329
19.11098109173187
51.17672057808571
34.79770733100455
-55.53679584588207
0.0783454766891979
161.4551333834968
155.8908218195154
179.647254691286
197.9509215576185
144.93227691793805
257.8628425367769
227.50549909395286
117.27932802310707
296.4606717359215
317.9664422711643
124.62161319466144
68.29647534301913
54.81723723538344
131.6657885546595
290.5325802435405
311.4955005085243
202.3289116680089
88.77371536202385
99.43511189064684
113.20172690879653
-47.36094855905418
-178.7099310492521
-184.54464758805514
-131.8587708452508
-18.86924486674882
-11.374930095035392
-81.69647139901751
-45.64808089990049
-42.73689502595801
-141.23566472406065
-164.11179731229072
-70.93312473259775
-1.1579963265311974
-0.2683157442013888
26.72868645222245
49.33401995464537
24.904144046785778
51.52814258854844
105.07464888192546
54.53259685746268
-48.89113287948129
-34.212800208225055
47.9718645267312
37.60481016416167
-9.50197707299468
-9.001169211328756
-1.7011552366320613
-13.418330929831203
-12.989294535185188
20.47296285839058
45.149114267521064
45.753214519711136
94.60828295144833
154.3810735351504
69.99724036921327
-5.577030219398614
109.38180109765408
125.95021216812833
-9.682098094596387
-43.94514644828206
-22.582824157818948
25.345204360783203
53.105982279927474
-9.70992367719107
-18.153043906629893
6.310539667061972
18.934551304624048
43.82705627451389
-5.107946962011984
-28.35210074399051
41.432632184486664
85.72082693391543
60.57076928900141
-23.49462851157262
-45.27471613850664
41.3059827113494
79.42990505627523
53.23971494565301
28.654895357509933
-17.614476673681782
-51.972987909049785
-35.556427486589996
-6.293074882466798
40.35371194074723
85.32074065879178
11.902845912475458
-105.01432576895732
-81.2628244953024
-13.278643080453838
-32.54290506221571
-88.55848875205022
-103.20344981538808
-53.31279157117791
-21.65803366655704
14.879076249262852
94.31927459536034
71.40616554111816
-4.5946583880646354
-17.110452351457646
-18.977149425893334
-9.973569390185027
16.66139994763779
17.49671827319039
-59.938297239397954
-101.4328824934602
-35.328866505585594
-38.2904325902134
1.7646386299522285
109.51176267523994
66.00830641665956
51.69235923760543
91.43048685277293
34.70596681390024
-36.60780022082388
-100.3203238592825
-52.57251504680709
78.73766600168122
54.148673268963435
-72.29363122156056
-136.2138368190258
-159.71410395765884
-124.89731556184235
-2.0688651647750977
-35.46893493644395
-207.61877676748452
-171.27917360726983
-16.34643197488288
-3.3390964342474705
-155.46362803937402
-176.708335810829
0.6472158267242157
-49.466875559463865
-109.90882427910401
15.0192841081703
16.753560184288585
66.65888124619013
103.83330292842497
41.82200001251653
88.74726637713843
86.46480259604711
58.37046099115558
29.766037393854713
-4.502543657724634
68.52044381811116
64.9010456079245
37.2673566308894
4.839443022524705
-33.17049177351146
82.90423910171243
-57.3792476883098
-332.21210100753456
-134.95209206726153
191.18537027656717
207.06852263705457
34.40037748051797
-18.818894831411825
43.06650988838866
-31.549542107878732
-92.72498418024118
-82.07653108018597
-60.842907790364784
-38.97890609088539
-144.98200311450273
-86.10985098872125
48.4138794776652
-84.82875969063386
-109.22458252651361
-61.85039218395733
-120.38973263020574
-117.72287174388259
-102.6333161047546
99.29472967580647
241.20916292332092
0.32850275366948145
-80.83656682875007
-8.386613195951732
-105.61724130668662
-115.50933294749997
19.979840745877787
224.34924765613025
234.78477975443363
-112.14022684983371
-203.08199166952718
32.010789194779186
55.73623352736003
0.19592135896563448
-46.440554517203225
-146.4617838499402
-94.98580478777328
14.7891911479227
38.986368712002225
19.966010087459654
69.14723878668906
185.86592650420909
111.93558781726396
44.8100676657442
170.51377985352522
117.71934253364999
36.60901413373958
87.13310995796182
16.441782804737784
75.96380521959621
132.55475680395318
-199.57596592322713
-323.0958207268695
-69.79850751287705
-10.2848782947443
-100.50706614224676
-158.1413138255544
-182.69002357471035
-193.64975333627717
-171.3017801718504
39.81397761246545
143.39072333325788
121.0879118516942
299.2410264117569
247.503270743204
14.255740222614023
-44.392642230959304
-144.19842025329794
-41.65615886185303
182.18587461150196
117.61368452065284
34.08838133139257
27.961378905632046
-7.540193821284781
-92.35848277938895
-180.57480386142245
-55.867476359538095
204.8739766985421
228.58696543866444
-4.490476102858774
21.9865441314934
147.23490972108632
-60.40565384629255
-47.69312206550647
118.71997920045688
36.6213807110895
15.668400713561752
31.479517615854995
109.91284705358511
125.34790345958056
-41.183479466233095
41.23790612225003
117.81286515114272
-5.090839625860335
-8.145212885493134
34.56077208365172
59.71783749174912
45.62075199571046
106.51588064476303
246.2956408202106
123.70328422760782
-90.70811318137854
-57.451174899722844
43.84133578433886
-66.99394558901228
-201.95929570454138
-123.94364043745593
-81.23516986479288
-41.94853196826301
115.08011920787274
121.43330431429884
42.85801956799235
26.994880911976107
58.48825129070038
134.55561191147606
74.28726752440974
-42.759418660460824
27.11864826641303
134.87817103546047
119.86961498235183
49.05351970760872
-37.258342299050284
-51.396264388228325
30.267069883794445
-46.62992288660538
-175.75259713537142
-2.7849287926871766
173.94518170781814
128.75967075883554
149.660909453384
196.12131435604195
59.85662218607578
-140.68999206350543
-150.39561547455483
-2.0828924783833345
57.11184711030539
30.09126411302716
-53.96235460509617
-163.44901659930787
-156.95582931746537
-126.81177310634082
-60.678214834291694
77.70645721054069
6.538146725186274
-231.26130959083017
-299.3502770191043
-131.24418698796424
24.596898403483873
-46.655533362032585
-115.59562162172887
-47.55105855724743
-34.13869159503122
-6.862530195039955
5.533344652984397
-146.71479680267078
-208.18084272527625
-104.19555250941066
-55.995008103877
-22.272079068123567
15.353294381565613
-3.0898579558828203
39.01132668517969
116.71157070718928
28.178162081076525
-159.66345283169525
-122.19002765257056
58.30449898260416
17.00823854557952
-42.24669715251546
55.568155108193736
35.971588000823694
39.23967676207933
145.47615290259745
78.24323575513432
29.015267665146645
97.74292351390734
16.203676132402464
-96.26691387736612
-8.224362625604778
164.65109589922184
109.883437047301
-147.75234150097157
-162.15008103819684
35.980499031618244
111.59575315337236
64.6278287835262
-22.338166548161844
93.44422279519908
315.2753858341212
186.90938106085545
-19.584051876618457
-37.56887221297591
-69.2577230550868
-23.63534123944102
40.56611682742446
-56.85750206243945
-137.32652465292892
-93.99937521638631
-78.0033605843965
-119.8068113511336
-75.52036491825581
-88.32105453449579
-188.9600024767567
-110.66348332366981
-66.80390283605415
-164.94156005155827
-156.78588521542557
-131.25476771461152
-132.7106515038076
-67.33441640422807
63.98291237829086
110.55630133709961
-25.248438851182385
-51.77281712886723
37.43114594636916
96.69334182629284
206.38990714991408
152.47308919736744
44.27966206076776
63.28152443112258
-9.823151951795998
9.77320038202627
16.55563761852679
-83.21116750378512
124.89823383330888
241.25899375321436
166.62814993212004
132.9032373379075
-219.28730776114685
-224.33865572413646
124.49343574205055
-68.29507742503206
-53.478120258003216
204.46097381197535
34.32081282846687
-22.14321956690433
35.33614038076056
76.6429478643689
242.59335963703066
157.2837404313912
-85.71654065658355
-30.93271495108315
207.75500254947403
139.37818071768268
-122.9489387052838
-141.89917684783376
18.12007581006557
154.7292041370397
-15.671569616897738
-241.99802212921426
-139.15299156280003
-107.83984267083729
4.122061743727626
221.26328214883108
-5.243920636522099
-157.7963483718127
16.46413013600161
-21.728482517958618
-60.82752401038915
99.19108699224593
142.47996227168207
149.78034997563648
151.6093451091055
-84.09732446066221
-228.4562359472019
-84.01219092557608
23.40193959463324
51.670129653882725
43.31160042955862
84.70420212381657
180.06041160393656
39.24808188934833
-119.81048372806545
-53.03977404590327
-50.06474576081848
-144.21916350502073
-237.40789697452212
-198.4843550492566
16.162842758316017
26.889812466389035
-33.063551009218735
104.95809841262
137.818254179121
87.5834122818282
22.753305040422685
