AAD_Filtered_TADAS_FILE
AAD_BASELINE_CORRECTION: BASELINE REMOVED
AAD_FILTER_TYPE: BUTTERWORTH
AAD_FILTER_ORDER: 1
AAD_LOW_CUT_FREQUENCY_HZ: 0.025
AAD_HIGH_CUT_FREQUENCY_HZ: 40.0
EVENT_NAME: 202302060117
EVENT_ID: 13194
EVENT_DATE_YYYYMMDD: 2023/02/06
EVENT_TIME_HHMMSS: 01:17:32.00000
EVENT_LATITUDE_DEGREE: 37.288
EVENT_LONGITUDE_DEGREE: 37.043
EVENT_DEPTH_KM: 8.6
HYPOCENTER_REFERENCE: AFAD
MAGNITUDE_W: 7.7
MAGNITUDE_W_REFERENCE: AFAD
MAGNITUDE_L: 
MAGNITUDE_L_REFERENCE: 
FOCAL_MECHANISM: 
NETWORK: TK
STATION_CODE: 4620
STATION_NAME: 
STATION_LATITUDE_DEGREE: 37.58568
STATION_LONGITUDE_DEGREE: 36.89845
STATION_ELEVATION_M: 698.0
LOCATION: Kahramanmaras_Pazarck_Turkiye
SENSOR_DEPTH_M: 
VS30_M/S: 484
SITE_CLASSIFICATION_EC8: B
MORPHOLOGIC_CLASSIFICATION: 
EPICENTRAL_DISTANCE_KM: 35.48
EARTHQUAKE_BACKAZIMUTH_DEGREE: 
DATE_TIME_FIRST_SAMPLE_YYYYMMDD_HHMMSS: 2023/02/06 01:17:08.2897500
DATE_TIME_FIRST_SAMPLE_PRECISION: millisecond
SAMPLING_INTERVAL_S: 0.01
NDATA: 10501
DURATION_S: 
STREAM: HNN
UNITS: cm/s^2
INSTRUMENT: sensor = GMS+/GEOSIG | digitizer = 
INSTRUMENT_ANALOG/DIGITAL: 
INSTRUMENTAL_FREQUENCY_HZ: 
INSTRUMENTAL_DAMPING: 
FULL_SCALE_G: 
N_BIT_DIGITAL_CONVERTER: 
PGA_CM/S^2: 300.405
TIME_PGA_S: 
BASELINE_CORRECTION: BASELINE REMOVED
FILTER_TYPE: BUTTERWORTH
FILTER_ORDER: 
LOW_CUT_FREQUENCY_HZ: 
HIGH_CUT_FREQUENCY_HZ: 
LATE/NORMAL_TRIGGERED: 
DATABASE_VERSION: 
HEADER_FORMAT: DYNA 1.2
DATA_TYPE: Acceleration
PROCESSING: Automatic Paolucci et al., 2011
DATA_TIMESTAMP_YYYYMMDD_HHMMSS: 
DATA_LICENSE: U (unknown license)
DATA_CITATION: Turkish Accelerometric Archive v 1.0 - Disaster And Emergency Management Presidency, Earthquake Department
DATA_CREATOR: AFAD
ORIGINAL_DATA_MEDIATOR_CITATION: : AFAD - Disaster And Emergency Management Presidency
ORIGINAL_DATA_MEDIATOR: AFAD PROCESS SERVICE
ORIGINAL_DATA_CREATOR_CITATION: AFAD PROCESS SERVICE
ORIGINAL_DATA_CREATOR: network: TK
USER1: GuestUser
USER2: 
USER3: 
USER4: 
[...]
-29.65539930725729
-17.237377393481083
-12.84123254947489
-16.243462445415798
-21.730366743138582
-25.24107000598245
-24.665484120476023
-20.157230129634367
-11.316769023906799
-1.1968382677580138
7.536814328419643
10.160115893241827
-0.39019157426884665
-17.47983487279213
-24.67474136662682
-13.779221574974146
3.642218063086487
9.849458037028558
3.1153445132134228
-7.169507192539038
-13.483910642610706
-6.0493155663889935
15.83965279516118
30.19331947547233
26.713945251783098
11.579916096646398
-6.0454184398576025
-12.381535858004039
-8.19768918213714
-0.27022264349647646
-0.6047805218250588
-16.132384364172683
-30.904374109275537
-32.9455957429803
-21.093526391791954
-0.8061853926424781
14.986874351693963
14.8899396294042
1.9837125337440558
-8.48491851442512
-9.652920415908579
-4.049630694360733
7.733781613169672
20.71206690011055
21.206329573379602
9.052329302557068
-0.04159747718657845
-0.590071884691082
0.05144995575706371
-4.946680268022571
-15.160428567147822
-24.147552797426787
-24.99004541084283
-20.065925510930338
-18.483561398023987
-15.27216057231465
-5.432468278650276
2.710752281704482
4.936466732446999
4.195259557258747
9.72816198383402
14.438334945268801
7.540428341239227
0.36439272541479717
-8.52084508982457
-17.069934041494996
-12.554103792040168
1.6332931079141337
17.905515868591955
26.26611475277692
21.58412439195117
1.2853306565125426
-26.589275923736274
-43.61541675178267
-46.949555952660624
-35.07199534034966
-7.225701172213557
16.50876129372329
13.285527340067576
-14.117804419317416
-43.13515592518336
-43.24663077257605
-5.067191656057077
49.07199492603203
94.65912852071617
109.02247390999148
90.34117253352207
53.874750087188254
10.491701808182066
-17.650079615037374
-16.124476604445473
4.68769697411596
30.469386031821397
47.73007999789475
51.76438283691703
48.704769345574455
38.19411855321846
20.018474167029893
3.005289922781588
-12.067804779061627
-28.804394056785608
-31.027911667530827
-10.236722432136123
18.996553149121063
43.84470200333842
53.07131862000097
49.062177562946275
45.68494505564044
44.467848226176486
43.67871699221598
43.57355197788148
36.04463306729833
17.075670031963305
0.46387936388515716
-0.8836066392855111
11.519943988705732
29.12732001511624
40.89795649619763
42.32334090421941
40.71080319458778
44.650711894692954
44.91357301589735
26.919115492248114
-2.7345480866193768
-34.535367174677184
-57.861322768938734
-47.80859040640877
1.5470848408824192
47.975017578781674
55.255028250006326
39.6753331552695
23.952103239157285
18.42330345627026
40.10020671700097
87.85485049818516
117.35977020008438
104.02319987797361
62.56114347753476
9.02452213370125
-24.328390854922024
-24.596967814178193
-11.522219706653406
-6.794280297116006
-22.451104983090907
-51.425844826515316
-75.73786019670891
-74.20740355849793
-51.83538614942024
-38.573868360851456
-40.86107798304957
-39.2661469915908
-22.78353954683065
3.9334350396022346
19.339125038831067
6.114323673890892
-26.17596839377703
-62.13652302601319
-82.20580256245543
-69.65294463034886
-27.448428855420484
11.491498542278121
18.98468756650957
10.360766829919449
2.411898745890856
-3.737289700098309
-14.746749797936051
-33.567985777788344
-50.99011820460492
-58.96066034006164
-56.92258426954469
-52.835700275431485
-50.61391804496475
-59.12977155807859
-85.43377390550715
-113.1986174929999
-123.4654346736396
-111.04572893148753
-88.00944328486585
-69.06669387049467
-48.05480123435865
-23.821255577676528
-10.464780143790462
-1.0796663604239005
13.498871902441863
21.45372610886181
11.75097109952675
-17.385250366782525
-41.478144277900675
-35.840924678455906
-11.811684618312123
7.037425033551227
1.657581950447801
-21.566456561107273
-48.67030497660038
-75.67095777210413
-84.69777773885194
-64.59611977204948
-31.768767240248728
-6.465086471466073
12.418819346999332
24.040542111808232
18.90650993692023
0.06775539374284058
-29.106425063246846
-61.33505515377281
-73.26729826955152
-56.946871004089054
-33.624032072761025
-16.270631306753153
-1.6908067834216975
10.735750184581851
20.574470195988667
35.0340269840467
52.28780594219073
52.18177958288788
22.434671952442915
-21.345188076479808
-43.81954866211778
-35.04198159438646
-3.21301964143342
33.957216287989915
43.933362393097696
38.64735494100616
29.611927642813725
10.802432532740308
7.430148988100936
29.300222836864254
56.407718524507494
55.72690689480608
22.243312198757806
-19.97648760478612
-51.45455636084621
-53.31370926703364
-30.748737838108468
-7.125579344888583
1.9421336044663953
-0.8910168279052214
-12.239834896348164
-22.920871475758126
-15.05707688677418
-8.935554134056742
-16.660754086185822
-21.24144200011888
-23.121557327225958
-27.095907342596174
-35.80667766395592
-45.02247658065744
-46.12829255960532
-43.5451649306916
-47.02262612971652
-61.22066301542218
-87.30187509003603
-111.9299266864012
-107.58465564501977
-69.95616309393296
-21.27259515698243
13.85920981196719
31.855894442624162
36.34003125874229
26.466807167773243
23.42897809614719
36.58415392210504
60.41481357309051
88.14009738100998
103.30309652173305
95.06996709688632
50.87553492178024
-7.3866206249427915
-40.88053220875533
-50.289618758919815
-37.21340869352122
-3.5562957494162157
27.644457480486675
38.250886705673025
37.841672099702706
46.14574771928434
62.41941553616548
76.34961626443214
78.77096687129897
71.47889922668072
62.87285362495051
55.09942368034396
45.92056110755749
35.28722633575036
31.017384802322358
25.428235702086972
11.870185767949183
2.2791875676586337
3.920103651603806
10.86740252354484
5.792650335164987
-12.824542752932942
-33.49242938355114
-50.32323532310997
-61.11774456306607
-72.34218491295194
-87.86922621642223
-101.57956763046688
-111.23999384758574
-129.07921309618504
-143.65056322668892
-126.19389551992982
-86.36049218075729
-41.361526872116535
8.584936599869573
59.74950036626093
98.00932688757068
113.64410967612096
113.79902894070166
110.95813896949448
116.55122043060267
129.72119112571335
128.96987059921932
92.02646112189144
30.291287695434338
-29.09495830701056
-84.48983867632215
-135.0255848233104
-166.8921361127414
-180.98315138366993
-185.12516295600742
-183.66146817773546
-176.4707921489853
-149.20562889192013
-94.25193989102596
-26.227181518242737
23.834665569774913
38.06123917593783
36.20434870751625
29.800423510552857
13.338585864297645
-2.299379203931869
-14.911551748013217
-38.50580354779437
-63.34350915867282
-65.73635186934331
-54.62583018221823
-49.35427250642397
-44.74773659487136
-37.84086876709898
-36.625104332284494
-38.66436312522138
-29.670365776518594
0.36546279167419227
47.23088136287812
93.47007229244818
110.73776704334564
94.49648717763988
64.09186434338257
20.577816721097868
-24.97726362585135
-50.32884033220822
-44.62227456596675
-3.889743500551234
48.86779199552639
86.42189833963468
96.21211219170081
71.16886885011945
21.985501418348765
-20.78782621075351
-36.45347737293928
-21.694546948605666
17.03725255707827
45.11105657577893
40.34651213741659
15.89201172801564
-13.174615331903883
-40.25405102349508
-63.701651396729126
-76.01145374406933
-78.41451646794172
-75.32127080097041
-68.76208771143638
-64.91894720440101
-57.32741225303632
-38.65587943013944
-10.665363788172266
11.034383173414303
13.190976691956184
1.4753888534895692
-15.739082488325568
-20.05747340369752
-0.6071724723971964
28.513784346255427
45.948437031588334
40.34727826025184
20.74184317074321
5.375536030207423
5.383536492129604
17.979915997200994
34.459379417142415
44.8512184256239
55.697693985866415
70.6293708502282
73.64890022061202
63.55074301986176
43.203106622722736
13.470206537672874
-28.668386862017257
-75.69418643046424
-107.01967649112025
-116.10682337985268
-103.12277512799896
-81.20577041953386
-61.5138142757795
-40.74681083225318
-13.591049243374213
14.674851923948486
28.08160796799873
24.295647086897073
6.2094786455147535
-24.462730646009476
-56.31400901617651
-74.54792290276707
-75.83514252984261
-68.23349738871553
-51.19886277208308
-29.08047056952133
-20.530780686702606
-31.880157666672236
-56.807593531446706
-94.80493875015488
-140.8193830314265
-166.2421623231161
-156.70154363523488
-124.53101123312467
-78.54448096059264
-39.621959037620364
-21.583851128340715
-9.441219547173299
1.5809515007300539
10.52773356171731
24.312010205809155
34.867641229151076
30.011060449700793
7.313097827768345
-10.175981941761076
1.942480094841219
33.67123155859456
69.46462226531267
84.35246421671701
73.17001408593491
50.751320326431276
15.886694042988756
-9.504212888543957
-7.482347296569584
17.902451356906177
56.4697086840086
77.454019731142
72.9741896472831
65.49926511956338
59.254028778881434
55.61589341654442
66.08710137247422
87.29952630826946
101.03826245015436
93.69330900079835
62.21258499685055
14.773712444842216
-23.130337766644764
-44.43137658892174
-63.53469890852683
-82.25241145053907
-92.8116771334657
-73.73484213233395
-22.522258585942257
36.312598866798304
94.17309928569216
138.43474199073074
155.41807603164273
146.31147673523446
112.8309898440065
72.54078252825228
41.598149833868675
18.327193481705006
0.1903422252796785
-9.610438567506705
-11.336594086892632
-10.22156287748445
8.899159631294284
52.89693294630357
100.38408725953884
131.98291146961563
137.62527447355802
125.53009136744788
108.33826036826143
99.21737259207461
107.66569383984955
127.23644342962433
143.08711244369584
120.75765082496386
46.28277645847642
-56.81127075275387
-147.5429285765048
-190.19147569355707
-188.80092731402718
-148.47082606021507
-82.67628687002468
-28.4537112252236
-9.301605790848695
-21.917259114475666
-34.71378206177109
-28.226170054258894
-3.064859575353411
33.14446117713659
49.77570163188352
27.378615021766834
-10.655124250360704
-30.914437922850077
-12.366014700045458
44.69739336806505
104.29510230574849
135.51214603236596
138.75983471325154
130.50605067836548
136.17248970857634
157.8631286333404
182.92869897307423
187.22682797185985
127.23439839125297
3.022986614086798
-132.23169269217706
-215.03929795613695
-225.3262687697587
-187.1498545016009
-125.94769795462012
-76.83672408094476
-50.677769733134106
-39.41022156626848
-37.96479539940854
-15.31311436019119
37.97461241451449
102.7596688803642
155.26053713952427
174.0261058350992
165.49207270979258
136.44224287457513
102.65645807987578
77.15902177219954
48.67270691234568
18.20021164972348
-12.33858087789702
-38.24224522822655
-58.05759891533554
-67.62030313085478
-55.302870532542514
-36.357664448929
-21.76302356965778
-6.241008968092128
10.105751574273595
20.494857522735163
24.10737609590706
22.120771231572963
7.603792406153816
-15.220734357438834
-36.671594303150925
-50.5857824465655
-57.351420864610695
-58.40532280529391
-51.056313481419856
-34.705308511837025
-13.26919480077996
1.4227672986437476
5.085429115481754
-1.0226696855786694
-7.300780640979506
0.4253853189134401
17.90151493831127
36.94299780068598
48.106314197624975
43.43325910410506
30.37142887500064
18.65107712669397
14.389186841982749
21.843716811106326
38.348386360173414
52.83282471180905
51.770269487345416
33.44412766009303
5.931444993454124
-16.653102442568027
-28.361015513187812
-40.806036454736756
-41.48289214106731
-26.59927369757374
-13.684467363374981
13.255874458327424
51.48728404313427
82.03065518374707
104.96359951261668
120.73728130927425
126.68143171329638
116.55796545937625
112.51826733331843
118.73238499354187
110.42787369581698
101.11109936785284
87.16790947029634
44.737234023383785
5.111130132598804
-5.78207823787562
-12.051168370523786
-26.19855359315396
-49.04685555340794
-91.8673517564587
-145.88147850501718
-160.18438448651074
-109.28728042507727
-10.993246233636397
115.65471612727643
213.8519915794531
250.56870649761495
227.179488169528
133.72778473547982
20.300808310434554
-60.24818469997469
-96.86203401880651
-79.6528280474291
-31.281506834377357
14.987138794065483
46.71383554520474
53.92850245635294
35.218500190086765
0.11409783962371854
-51.507144874596065
-103.21500887487356
-100.38751957829862
-20.008365175852813
94.63448886916034
177.82391275106153
190.08597663840501
144.1451069240387
58.04113080106129
-55.43796405455626
-142.31829637182526
-163.02334404483688
-129.79901814670407
-67.27839902193364
1.5260327942926863
60.06494120778292
89.07617567121042
74.28881843871355
29.399513292121885
-25.697051344790243
-72.36493302500273
-92.87055373444892
-100.08954753716156
-94.70412054689473
-68.29865174591326
-36.30035604576671
-2.099151183007053
21.773111547153434
27.517957608291987
8.96535396512335
-37.66117047357232
-85.25557666622439
-118.3057839687013
-127.44466362812744
-110.41995871889596
-72.0121019581732
-17.782377675744318
50.707532425336986
144.33959628150998
234.93573349641474
285.3863444219593
298.72456418830865
274.1624663606578
207.10058037639305
116.43205951955308
26.649043114374315
-41.32020505410748
-79.07006745674468
-97.48958213341258
-124.20044997446493
-173.91114857845145
-228.41440876629832
-261.65775010554034
-235.20129147615864
-145.20952255192546
-19.292271464514986
120.55229169717624
213.29999506153445
222.0489352279745
169.67542234860494
92.7430917072095
26.501850638421622
-6.684961584203323
6.152250789669353
29.239427795894642
10.101218900776882
-39.75741131390061
-104.74766465937347
-157.49995716611784
-144.49004630700006
-89.1425961411622
-36.82175505904513
-15.98028166330115
-33.642395582999974
-55.809759905694946
-78.95929503735042
-92.73311929725145
-81.40838601776541
-54.01754889344866
-18.338857289654904
31.056787767797243
88.54217499676636
115.64713560351296
111.47066128184247
90.60144768731385
70.63499108956265
74.6821894339693
99.58233980197838
127.01773314035263
116.436709379232
68.90950957676361
10.720223836249367
-47.12799644093461
-79.9362376011416
-84.77124592155221
-89.8153797919094
-118.56686948822993
-148.86275677177693
-141.75336205745643
-97.3505640571828
-35.767601074000794
24.513956968817006
67.01395056131699
87.84059615633673
81.17974084376144
38.36005777384466
-15.387488488109112
-45.49888664487675
-53.83212743130397
-54.355228439641245
-32.234824287952705
21.432551941582943
68.83208414674681
72.34918295904622
40.82446290816833
-2.511739414340983
-41.3037817395463
-48.18410107608488
-13.14080003370546
35.93042455052334
78.25008577426226
106.70919511129466
91.31242678897395
32.38318018812941
-27.975655860472923
-67.54590312473304
-69.17551781192623
-28.224188120796082
20.911211815090617
33.11690982118123
2.5606688692876163
-42.50676419021283
-78.99635357836158
-99.5476067444463
-99.11315066674983
-63.83785609637218
-14.86554763699653
11.978448386414799
17.54608136004526
10.822760223682968
-2.966015637442792
-20.89200008244765
-49.455137858750405
-84.61331858942027
-117.02873888768703
-143.23960136639732
-150.44920224406195
-138.54701839683446
-113.00982627453496
-82.92572468317381
-58.180873950398315
-23.93644976605933
30.294918538130418
97.0288949712367
147.62607408411577
165.9498685108396
158.87835846510475
131.3251088032004
90.19621225453231
35.75086788004484
-14.252510193043445
-30.21320607150215
-20.24833624796573
-17.668003967551797
-18.993061813030014
-12.200891273053704
-14.254963475951628
-22.075838481815413
-29.52914148771263
-41.659768478056584
-41.7922454305427
-18.339054910805775
8.97623000583713
28.90276563242193
39.2302642673293
28.055649941621606
4.462419341069106
-25.58957010589076
-54.06372650625357
-58.051476492469995
-37.633743771126596
-8.232194826571012
0.0292510772853593
-21.55605491663506
-58.53153450578942
-95.91837032596436
-108.65683270457089
-98.15376514027793
-61.37429202551804
-10.52567338534363
10.768993948387378
8.430384334714804
10.483458210066264
20.160903412460968
27.1182541914421
26.681553800931464
15.317005352681969
2.7794035725532202
8.689887162592147
33.595186897906714
70.19501356105455
92.57974291551794
90.58933984351009
66.22147747574694
10.753115719150072
-62.045974445673984
-131.2554448935641
-157.76044090538088
-126.89638720303863
-60.59837018809681
20.47181252154664
57.396544250304544
31.250903602928336
-16.525422924341463
-67.12515504008148
-102.58793604049264
-102.67706580976912
-66.6797399655002
-30.194467255992173
-18.68377555329776
-22.878865655559583
-33.74844282985307
-28.28045361400488
-3.255496466715395
29.842628449508137
60.40206659105872
64.78488962142916
32.0633196826962
-18.720095961466097
-63.850453801979675
-103.46666602592634
-119.7175464341153
-98.33381835658967
-64.81761872068421
-35.84093832364023
-0.004091329724286948
38.53985652281311
60.86307998431243
80.20767609535757
109.48946048438316
131.4737376819481
131.91407195134994
114.6465451566923
86.7287049011749
60.86934617551458
49.702376788997455
54.64298157291629
56.20175642150831
23.98814319585428
-23.939265862808533
-57.49330254728509
-85.34863930889001
-98.22489760028685
-80.03737711524285
-53.7426965133835
-35.78694343296216
-19.577170525914113
-19.986677790452863
-62.77465129536048
-127.26017415881356
-166.17176274291415
-178.9836490120774
-176.44840054993895
-134.10298546074912
-53.70276118552137
23.05336649595993
70.64745812927771
82.90972950424113
63.763911823621996
43.04990779500686
45.244140214636346
65.96214340859774
96.66812608087182
134.0167574044208
179.49777724271908
216.39170447926514
231.13266139204995
244.1710163777698
242.01410045486955
189.34374659308068
85.52438269298597
-54.7345209782712
-182.74039279340184
-245.53616115713504
-250.40485475944175
-203.876992505685
-114.53827180761651
-41.50223845450502
3.395831784694185
36.60722671702353
47.11670476143393
42.435033956939435
22.468757750433717
2.270453381095184
-0.7046899662148987
6.841924193641772
25.074646833114564
31.52920530562409
12.899894402774551
-19.73012486431258
-54.308772991504334
-77.45250643695991
-90.07134275287189
-94.5318656563948
-94.84610581959285
-92.0748879919102
-85.96918311102317
-92.80522297979014
-110.63198478934247
-102.39602256917458
-38.057064918758215
67.91464640467763
170.25976318020093
229.09651066222062
247.88059331665295
246.33214218607688
218.04420453863912
175.2982258972754
120.37824734423897
61.646209248042325
31.071642905935054
1.0642799888709726
-41.004655650858645
-81.85409674016535
-131.7037930343842
-170.76696241440072
-170.8144826094667
-120.08869080867211
