AAD_Filtered_TADAS_FILE
AAD_BASELINE_CORRECTION: BASELINE REMOVED
AAD_FILTER_TYPE: BUTTERWORTH
AAD_FILTER_ORDER: 1
AAD_LOW_CUT_FREQUENCY_HZ: 0.025
AAD_HIGH_CUT_FREQUENCY_HZ: 40.0
EVENT_NAME: 202302060117
EVENT_ID: 13194
EVENT_DATE_YYYYMMDD: 2023/02/06
EVENT_TIME_HHMMSS: 01:17:32.00000
EVENT_LATITUDE_DEGREE: 37.288
EVENT_LONGITUDE_DEGREE: 37.043
EVENT_DEPTH_KM: 8.6
HYPOCENTER_REFERENCE: AFAD
MAGNITUDE_W: 7.7
MAGNITUDE_W_REFERENCE: AFAD
MAGNITUDE_L: 
MAGNITUDE_L_REFERENCE: 
FOCAL_MECHANISM: 
NETWORK: TK
STATION_CODE: 3137
STATION_NAME: 
STATION_LATITUDE_DEGREE: 36.69293
STATION_LONGITUDE_DEGREE: 36.48852
STATION_ELEVATION_M: 260.0
LOCATION: Kahramanmaras_Pazarck_Turkiye
SENSOR_DEPTH_M: 
VS30_M/S: 688
SITE_CLASSIFICATION_EC8: B
MORPHOLOGIC_CLASSIFICATION: 
EPICENTRAL_DISTANCE_KM: 82.48
EARTHQUAKE_BACKAZIMUTH_DEGREE: 
DATE_TIME_FIRST_SAMPLE_YYYYMMDD_HHMMSS: 2023/02/06 01:17:23.7886580
DATE_TIME_FIRST_SAMPLE_PRECISION: millisecond
SAMPLING_INTERVAL_S: 0.01
NDATA: 11251
DURATION_S: 
STREAM: HNZ
UNITS: cm/s^2
INSTRUMENT: sensor = GMS+/GEOSIG | digitizer = 
INSTRUMENT_ANALOG/DIGITAL: 
INSTRUMENTAL_FREQUENCY_HZ: 
INSTRUMENTAL_DAMPING: 
FULL_SCALE_G: 
N_BIT_DIGITAL_CONVERTER: 
PGA_CM/S^2: 501.979
TIME_PGA_S: 
BASELINE_CORRECTION: BASELINE REMOVED
FILTER_TYPE: BUTTERWORTH
FILTER_ORDER: 
LOW_CUT_FREQUENCY_HZ: 
HIGH_CUT_FREQUENCY_HZ: 
LATE/NORMAL_TRIGGERED: 
DATABASE_VERSION: 
HEADER_FORMAT: DYNA 1.2
DATA_TYPE: Acceleration
PROCESSING: Automatic Paolucci et al., 2011
DATA_TIMESTAMP_YYYYMMDD_HHMMSS: 
DATA_LICENSE: U (unknown license)
DATA_CITATION: Turkish Accelerometric Archive v 1.0 - Disaster And Emergency Management Presidency, Earthquake Department
DATA_CREATOR: AFAD
ORIGINAL_DATA_MEDIATOR_CITATION: : AFAD - Disaster And Emergency Management Presidency
ORIGINAL_DATA_MEDIATOR: AFAD PROCESS SERVICE
ORIGINAL_DATA_CREATOR_CITATION: AFAD PROCESS SERVICE
ORIGINAL_DATA_CREATOR: network: TK
USER1: GuestUser
USER2: 
USER3: 
USER4: 
[...]
0.9028858143495743
1.4357454915323367
0.25618985980741704
2.195471832957714
7.453062796240006
13.899767963223182
17.9765924882619
16.873601419457124
9.572066630081766
0.9266682303187446
-1.0958437117205897
-0.7000964733991178
2.1677134553713193
11.548632532420495
18.825437016688518
17.967438751474162
5.587649374365694
-12.27833867872514
-26.550842043598823
-34.942759801687046
-27.453618125402496
-8.44820209319093
9.062488652237295
14.744531557036357
2.778107636449602
-7.707780249177384
-5.920277408347168
-0.8211759152790052
0.8003323684165591
-1.7452465223741
-2.1174757284679453
-1.421526970534302
-3.5518984274120897
-7.513414639362605
-14.754379171846292
-23.671721054628375
-29.425539488116115
-29.278613098381708
-22.278243228933167
-11.404710421261441
-1.7099389813104808
5.077773919831074
6.213355205594481
-0.8056650634678996
-9.889900618525369
-14.1061319470998
-13.226807906258609
-7.828414157892003
1.5060585404874767
8.926881480839803
9.556801670261187
9.394901663392094
12.788252899581117
13.845378499337107
12.729733965263394
15.732400234862258
18.59161286061959
14.955734179861974
9.55891165332775
6.582805306894847
8.058174420826711
15.8327695190287
21.032919443904923
14.149954370858229
4.353881021986324
5.799619644229886
13.159465681523896
18.469298546997663
25.4705277981191
34.06654646412261
40.02544875275318
40.66382009790263
34.07227704771247
24.6709403228621
19.131549693539487
15.838856835918385
12.046857150429279
9.649284169007085
9.287052261038907
8.210006639297193
10.850877810955582
18.885131519826686
17.243270720011736
3.4694517776766367
-8.924717918757436
-8.464564265533264
5.168832698368777
15.417208551618396
8.38211424102673
-9.849611332921416
-16.749116210322928
-5.620790660174989
11.827457484865858
29.796295213047102
40.459800493331784
36.829584979336815
20.104346273343975
-1.5824185533391053
-17.759169402344742
-28.68863540852803
-38.561777715283164
-46.121947718850045
-51.47231163043037
-53.713327004350084
-46.4515126753872
-28.40424968754058
-7.089047766470221
9.738350968410323
19.714551767062254
24.60060112574772
22.869165378047082
15.33967409553269
9.145199881925295
4.079501175106265
-0.6030249396037053
-0.42418727633742387
0.8651025218379796
-0.5036002999647192
-3.125458819504493
-10.17638120133003
-23.200635545252407
-33.893859947227526
-31.974511600923645
-23.06918580032322
-20.72520443320387
-22.82576400335866
-23.203480100941196
-22.196911317161067
-22.105946660273222
-24.91652061985277
-22.62264934483105
-11.783875164081115
-0.9922991577604405
6.6637249455593555
9.185185262845105
4.266210644115971
-3.320473453598882
-9.188290660928311
-15.478784170132133
-24.14770460540185
-29.662482088951588
-26.023126181145816
-17.017710977921094
-7.201755980073869
2.2919951762404653
3.7513286051224317
-4.334065019080828
-12.500464181531257
-17.844809366314102
-22.788432891383682
-28.660051094156948
-34.933417551164816
-35.52024853779496
-27.481829534690814
-13.269420684818575
6.1836270792776356
24.620150078534227
39.57908687386673
46.33030009315386
34.23415780849093
15.812947117411523
7.09543568064558
11.097827952135868
20.95805028128654
22.43659416542321
22.497403398243552
25.76447001658701
19.656616456791713
5.15941087305978
-10.173570104328855
-15.684405596233974
-10.452946941408344
-17.183547551216385
-33.16477156985576
-35.843645292453466
-33.84399657689616
-28.49190714853602
-4.149198378924149
23.43888206694931
30.51497067725602
23.348373977251942
18.03545968659685
10.39604624295982
-8.935634063831278
-32.71279454268001
-56.69870307042983
-69.66329518590959
-51.299754615677514
-23.912126699617797
-11.36709590630336
2.8583293496221756
18.305320272714912
18.7828288989667
2.0728668357848514
-27.04090398520866
-52.60580425959316
-54.77798616199229
-41.850086933824635
-28.362152515887278
-8.004297205626262
0.8158007641763261
-26.362429859296814
-71.4686394159901
-88.54313320773687
-44.688999638420306
34.83327783413419
100.92296532264177
116.6830978973423
66.3179397067603
-10.161901626154771
-45.04456386043466
-16.559780665002343
21.892218924368137
39.357367634252334
60.67044190747766
72.55379017287333
48.94680464413621
-9.423783924792984
-61.24409734857811
-61.51418152510096
-36.66429952203426
-9.655598329730683
20.35564399470476
43.32578541070204
60.40257903012292
50.09206094643365
8.310866470437034
-6.387323727989047
14.571765413120842
6.862701454343974
-30.990388455258188
-42.153668100108796
-14.273378021515702
24.201010450787887
42.74085367570197
38.1342684138165
30.671516739318463
19.00033801236085
-4.03507228239048
-7.8602947105485015
12.943553973824644
24.110763760322968
24.25786485356587
9.292177357122688
-21.832762761458312
-41.6172234804143
-34.12584778986365
-2.3400165532717936
28.745880553900047
45.6125201171178
38.45544451537246
-2.597029352453446
-58.43903750578894
-102.19582245232392
-110.67753007337501
-93.88027243954701
-60.28282907021051
-9.284675628550078
27.200123156178716
30.70934102485858
8.385088808728373
8.573978144097378
49.3155184744219
84.68868826362797
101.62800167343573
72.61240493570078
13.634112535796486
-16.442674210886494
-44.857004681831256
-66.17498804799509
-47.883840393465434
-22.560468020948537
-18.953135184490815
-26.93102605030278
-19.633211985769425
0.5125426186452232
23.78546511828894
34.28013263207655
6.75763401631858
-22.343281580867128
-22.955346577269736
-25.587237118863214
-46.78821719009349
-59.016876310231126
-20.671690175348566
41.95310103461064
100.10513473828819
168.48795850983265
172.0560503657234
88.16271473069374
-6.694609742419066
-83.20483480488426
-96.83554487658098
-54.13327482071576
7.1339318655022685
79.56249987609117
105.18446199659186
74.14323237789861
37.96348864924019
32.75795764020546
55.08150650480555
52.24369086371204
6.338077513228239
-54.18109924474189
-104.56110425447781
-129.4578728300755
-131.4255801273788
-112.44104428523798
-54.567176836717564
38.68740776095643
117.58241131683397
160.52144273948716
173.2438355712952
109.09076523254379
-19.11617713894687
-96.56862080592596
-117.11717207772675
-131.2137896046341
-105.35404517815068
-59.08556924562407
-19.49167190329399
48.23443075071296
109.62661158212873
138.49904998049715
157.3675984239715
121.63487247108483
23.737459205708934
-60.04953914006486
-94.07816622931527
-90.47149247687807
-78.02889949925624
-77.24003361037359
-55.84158065275701
1.6110560095250797
38.70579605493476
33.88930888740805
11.804174623930862
-3.2504542555367
-20.999799199459634
-47.99967521906927
-20.012083112042372
42.27168900163887
74.14775094120053
93.87306907467892
86.43143295200588
23.349864782708945
-71.72448308388572
-131.71448597717477
-104.12472898909449
-46.057068048335886
-7.951621546092357
25.623569417311387
40.80065704404567
30.141708582962163
-2.5687516390426093
-33.990149341073874
-15.956173463655356
29.16938946465529
38.83029223896481
10.972734724743782
-17.15974536791303
-21.55045310027033
-5.025955546250655
11.41722283550805
25.918912717987016
28.858219368399748
8.855708568654435
-4.946829347782288
-9.193373285298737
-22.776721506290205
-53.41512336245155
-76.77318316063517
-44.202098208316656
-8.281447941025098
-32.93383884315776
-47.854575492106655
-11.30648223111888
10.68066017640737
8.26669834491329
19.55283943690869
19.143577208279847
-6.159648145043354
-28.63047046090334
-15.961481903074006
42.506756153987524
80.99329081786021
62.55819315817114
22.48791229555337
-29.882655160647193
-85.15537464126434
-119.4717044816194
-92.59800036239676
-26.56166754931413
-8.522684355620198
-2.1919810447847983
6.833714893441126
-8.527772752603893
-4.103525114260023
-14.471012521989433
-16.22825562469408
26.05511612385994
40.57763142602071
26.683722859574434
-11.87715639653955
-53.015345120226016
-56.708081696285234
-52.6852447460913
-28.89631125029995
4.211967973267325
-1.2178168511278806
-29.104681511924582
-65.84733977750456
-81.4821208349669
-47.5338758458
16.609596111508978
72.59967510058544
57.07188712857662
5.763110233934135
-22.357372725763476
-45.91799091465013
-52.33017714423703
-46.661056097812526
-14.801122667139936
41.182866793161345
67.21182175829043
71.84305889526983
49.14815365597185
-4.501520123998656
-50.24224929957095
-71.41881344642292
-56.82722709904448
-32.00384490568356
-22.558845559294983
5.517466960600055
33.60963613619206
39.665619817691976
60.595655624444625
57.45258940497057
19.46455215235532
-12.220553207385619
-55.10892719012083
-57.57534203801572
-9.98237762703412
12.42224251545365
42.28135101326045
69.56257204304706
36.389263225461576
-40.71293294757068
-138.33743876762986
-180.694768708214
-107.87250783325783
5.104314617643662
76.7549068552
123.53961180790955
126.66241150768609
66.07313060251647
28.82197577468753
-0.6762495974973086
-56.48035799464143
-54.37706794603565
-38.92603066760306
-70.88711165686634
-94.68400764770051
-94.38735620765732
-57.15092327390053
22.043086058069086
117.61266493770151
151.90525550434785
61.877246300116475
-29.690304507625946
-44.324784873192186
-51.08622661401023
-57.56654136573721
-44.13896061324017
-31.301370130316705
-34.66385960889806
-50.41138220831036
-62.26840714528911
-47.71874789165036
-14.071516796383069
-2.4807739207550243
-10.495247878272478
-20.905592741687556
-56.5744143197361
-59.666679025856595
2.092100367523581
43.49051914886571
59.23643806153081
69.78871861854657
75.3205877993168
59.21328175881081
29.67406520895932
54.62586482208147
62.41790985805112
24.386477429667025
17.735575081069673
25.885228850543495
24.82134217021179
9.615486977220584
16.281539893965455
47.929886365811086
60.260273720981154
53.504156946828076
21.75589957555384
-19.785443761396216
-32.87669967724675
33.54174028804017
139.5950240108218
143.28874004766072
57.36864737602408
-7.433498602823554
-33.00979725492712
-53.5717143888668
-80.19365463913141
-96.52364159831471
-99.66968949447514
-90.44776196180148
-71.0105593428039
-59.582236845569625
-57.804421686898046
-40.15201622690184
-19.6985423081376
-27.591221466843155
-22.19851126084833
28.1287561164878
82.33402114826906
94.0632250691244
55.174487985312545
-3.2232318379554106
-27.30616116274484
8.501366817075677
58.21101362875354
78.0885375848874
65.30570472138825
34.948429116470585
8.200784786422807
-16.015778243227725
-31.424747464768036
-30.295097503272213
-48.545082100313905
-102.78231071920989
-146.63817535694506
-161.28442132500214
-172.64104261462575
-165.65555862924907
-127.34683868231251
-92.47265094668137
-81.82397723848315
-83.25447673993727
-68.56639606806512
-34.09076623238413
6.446020486263582
42.764776947250766
56.15942721779846
57.883439039727534
62.09417021752145
45.72860984284222
14.565763181267558
-7.037149837289003
-29.52214026441677
-57.34725674950373
-92.06583285264863
-116.81201007254036
-117.93167452546939
-107.47544386939427
-69.97003913022273
-37.68103854522116
-34.50043835536903
-1.9918222613161578
68.0460624088711
108.88239420558851
106.8395625716255
103.92011126094633
91.25849804781198
73.6464675377853
71.14777418982018
71.27587602406747
89.232030378804
114.04201301686311
108.53446723244899
85.16686951841844
56.491272826250494
21.631872904819385
8.035576871119574
-12.348016463596778
-62.19537105497469
-62.21919726804964
-15.205102772316854
41.58284639117965
125.41283976597614
172.37496453665636
134.84068111831726
58.60974654519158
8.80177261191174
-7.422533685511087
-9.791922704442309
20.561756889033905
51.078079232619025
90.69727616415499
172.47021325721914
225.52134578971518
228.48254136688217
205.78031689054106
130.86256498622691
12.306331198666754
-67.54179124291844
-84.08803851422209
-61.02079364453249
-11.20051522224704
26.519515500433542
63.9104062942877
69.50441514178893
25.82323509826939
34.545408771444684
94.19802375630707
171.0089416463017
221.34839516822368
157.82864785686925
60.23761772673689
30.47986455997048
15.568446289616581
-23.415778865176478
-63.99704977814931
-89.07891668405165
-52.071690817623285
75.91112884059379
215.85932967318527
235.11912918003136
121.04798549908907
-16.299177525034395
-86.4979566629226
-102.61059445050257
-109.40210157057815
-55.29519623512166
36.96771260443116
145.04046077173106
265.07309862953787
262.3247852819394
214.19480152352614
240.3061567694263
246.31721252399157
186.5277886146068
54.91818335808887
-39.4904824394897
34.78991210720066
143.11597705223826
216.20987313806896
277.3756032649792
244.47737510869143
221.37514186436593
227.708483890624
124.73302043080895
-12.466551638113353
-114.48991314886678
-164.93807436673333
-174.65121711960845
-179.64737973058442
-190.6540735757595
-266.7265445765037
-361.5512423699669
-420.7862935792724
-447.27736172584093
-441.9524635726248
-426.75633795223274
-377.023388929301
-232.71174657793424
-44.505625154492485
82.00004044231417
331.0270903288342
509.3132427822743
334.8066116957186
209.21882165432712
162.44407326382128
143.4876247828428
217.92239780739632
207.34607242017597
176.87121614182828
92.5735030178785
-7.977055994843317
9.01001180920531
61.145175442144804
99.84560445484416
89.7235878823976
57.451763695535114
33.152299280326694
14.588858596388448
12.543313035605262
-0.8430198080381034
-15.553233463489262
-28.618183352169737
-67.84828019191981
-131.266397982483
-186.3307033933713
-199.5801338169376
-174.7223560512403
-156.79941892624092
-166.21385127986608
-146.2858161859171
-55.97110914203528
31.563316804887044
23.269243629168304
-22.265679006437814
-42.50245611004829
-56.70934068234878
-10.535098634557892
93.39773737276501
160.37451244008662
142.71141173743248
47.85127097084222
-43.5812440629145
-75.45198780422999
-113.881919785645
-180.51217375527372
-190.15124644021722
-97.79720032054635
47.93668768194136
125.0652051421745
84.67072134497383
2.415457807272807
-63.14908220972214
-65.60866290024657
11.635973287474549
99.1564352792838
116.70430267701806
44.96087020401219
-69.91994143292216
-163.17169056200802
-219.79557242983068
-230.66486467765029
-173.65644940519545
-110.5051021706106
-64.90647633702788
-44.160322985157556
-97.16299073608876
-162.1865025878328
-160.20623289590722
-95.23534208047475
-48.505238578057664
-52.029924895559596
-65.3517636204822
-37.45676652016864
66.52335540679731
150.7802731059175
163.90566783384077
118.81156155263425
18.773378971643965
-51.83205083166292
-56.56458724847541
-31.168208903305555
-32.45245000128457
-63.06097445352176
-45.31895588234529
-9.059246536533426
-18.20351789214673
-48.89749628172916
-81.43595575312068
-118.31322159866083
-156.14641215135322
-149.9151208446638
-106.99918002312482
-75.57518476860977
-34.99643309818304
21.841667920074674
81.74326390883392
87.55772437283453
54.28801602922477
68.35476576168001
31.45203210191098
-78.76739206135377
-115.90801067857866
-78.57664769065441
-52.55621719209803
-65.13373500036133
-81.56396276026489
-73.10730296893108
-47.61876368549305
-2.766299044131532
34.00259295569158
41.97018650393465
51.54691939911196
58.006669925536364
61.74210310388993
73.56427317990224
76.9307549260274
101.66636491378553
134.58568024061213
109.75921157189134
58.624781742608086
20.062360151055085
-12.406569060571568
-17.983756383857624
-12.100998938883219
-17.928425791020825
-34.668716778773316
-102.37198155392156
-191.42090489922379
-213.37834266462434
-191.07221822866038
-156.21024629447408
-112.52507130087957
-84.37586041078511
-34.540963852304664
6.287652454541736
-9.710800328091452
-32.03408134909964
-57.83838722414989
-86.45358374268908
-114.02275436850958
-148.919763995408
-167.82926372651127
-161.17905414842173
-117.51209903667987
-54.056314068545994
-4.507252382336018
31.859647321656315
49.709065257078926
36.514602440610545
22.60558654162275
63.94189558887803
131.529162350535
146.9685341766974
124.290554420129
90.85705090185287
27.03637692772725
-35.99152964985059
-52.13738300261929
-35.620370866532895
-23.05933382033982
-24.28356829608313
-40.1632018778112
-75.70913715395166
-102.96357071284012
-105.06437538543098
-105.04541920625297
-96.83794809795334
-77.8770079034881
-76.58003965101601
-84.07347211652181
-58.060386843610104
6.863803390789799
54.739366458689574
52.06093967166765
9.617406990090732
-43.83504322037649
-51.808778969961395
-13.21486411716566
4.855211675767926
-12.811090580264095
-17.367931851822746
-13.261653123780862
-27.214925223127505
-35.64808015330199
-27.483628600173947
-10.21092417097749
6.919559268326022
1.6235330051805383
-29.3051216047882
-25.971838601280023
12.338319192308141
-10.458418662706011
-76.81751820891007
-109.67566542786162
-116.3028956956948
-85.5498156756536
-8.643205165860085
65.15019902962533
131.87613312587413
201.66315583601255
246.34877281026786
231.394532699521
163.548210220713
100.56790641125714
69.3931760170776
73.1063231400246
69.58825152594828
35.4915806726495
26.271043760184295
35.80460327634219
37.34139420875922
21.925431938815404
2.02615393465884
13.813218886551196
16.82112621046
-8.814586689064377
-26.556898437510036
-43.31369952887532
-63.261321951707956
-70.14443287328228
-79.1422426928775
-106.66618422750138
-150.1781239622147
-186.77077974370712
-176.3798461445065
-130.565433433688
-57.80190419795927
45.441619333078755
136.5995198697754
214.07740843394012
285.5879864666668
334.7094455077519
360.9264060856263
353.50217756137255
318.29234296645643
260.61110572914305
173.74518220799618
90.88590383366832
52.5861628305456
61.5605180599227
76.98316485942281
77.55578161530782
69.98425807219297
40.30036898302066
36.55889642924998
77.84073093489445
87.3772985934405
72.96546001096522
75.28408670815342
79.3447792619267
101.38883885978451
161.93712554913927
198.01124448445933
183.23400302894044
163.54004611180713
111.22164262372374
54.90492705282678
54.62487601366644
52.6015257718537
42.790967342396094
43.89238467283412
35.28431883465358
29.202929340325355
11.956931946703527
-25.683775215064568
-47.768528723261596
-28.20469110126438
15.518672671310567
47.4423609729297
54.55232113698547
35.103431313164826
-4.605274548591105
-59.22314816036795
-94.27624766207715
-77.86046239901486
-42.61494568763232
-10.839781727065795
-3.1963853089141416
-15.890214889388734
-18.18254008116186
-29.86635551100123
-29.294186156179432
3.576921152121433
28.819202244854978
40.91598817365643
43.28579054445151
7.084500038052235
-74.80291667741876
-117.76866231160032
