AAD_Filtered_TADAS_FILE
AAD_BASELINE_CORRECTION: BASELINE REMOVED
AAD_FILTER_TYPE: BUTTERWORTH
AAD_FILTER_ORDER: 1
AAD_LOW_CUT_FREQUENCY_HZ: 0.025
AAD_HIGH_CUT_FREQUENCY_HZ: 40.0
EVENT_NAME: 202302060117
EVENT_ID: 13194
EVENT_DATE_YYYYMMDD: 2023/02/06
EVENT_TIME_HHMMSS: 01:17:32.00000
EVENT_LATITUDE_DEGREE: 37.288
EVENT_LONGITUDE_DEGREE: 37.043
EVENT_DEPTH_KM: 8.6
HYPOCENTER_REFERENCE: AFAD
MAGNITUDE_W: 7.7
MAGNITUDE_W_REFERENCE: AFAD
MAGNITUDE_L: 
MAGNITUDE_L_REFERENCE: 
FOCAL_MECHANISM: 
NETWORK: TK
STATION_CODE: 2707
STATION_NAME: 
STATION_LATITUDE_DEGREE: 36.930889
STATION_LONGITUDE_DEGREE: 36.573771
STATION_ELEVATION_M: 487.0
LOCATION: Kahramanmaras_Pazarck_Turkiye
SENSOR_DEPTH_M: 
VS30_M/S: 558
SITE_CLASSIFICATION_EC8: B
MORPHOLOGIC_CLASSIFICATION: 
EPICENTRAL_DISTANCE_KM: 57.52
EARTHQUAKE_BACKAZIMUTH_DEGREE: 
DATE_TIME_FIRST_SAMPLE_YYYYMMDD_HHMMSS: 2023/02/06 01:17:17.0201970
DATE_TIME_FIRST_SAMPLE_PRECISION: millisecond
SAMPLING_INTERVAL_S: 0.01
NDATA: 4652
DURATION_S: 
STREAM: HNN
UNITS: cm/s^2
INSTRUMENT: sensor = ACEBOX/SARA | digitizer = 
INSTRUMENT_ANALOG/DIGITAL: 
INSTRUMENTAL_FREQUENCY_HZ: 
INSTRUMENTAL_DAMPING: 
FULL_SCALE_G: 
N_BIT_DIGITAL_CONVERTER: 
PGA_CM/S^2: 98.649
TIME_PGA_S: 
BASELINE_CORRECTION: BASELINE REMOVED
FILTER_TYPE: BUTTERWORTH
FILTER_ORDER: 
LOW_CUT_FREQUENCY_HZ: 
HIGH_CUT_FREQUENCY_HZ: 
LATE/NORMAL_TRIGGERED: 
DATABASE_VERSION: 
HEADER_FORMAT: DYNA 1.2
DATA_TYPE: Acceleration
PROCESSING: Automatic Paolucci et al., 2011
DATA_TIMESTAMP_YYYYMMDD_HHMMSS: 
DATA_LICENSE: U (unknown license)
DATA_CITATION: Turkish Accelerometric Archive v 1.0 - Disaster And Emergency Management Presidency, Earthquake Department
DATA_CREATOR: AFAD
ORIGINAL_DATA_MEDIATOR_CITATION: : AFAD - Disaster And Emergency Management Presidency
ORIGINAL_DATA_MEDIATOR: AFAD PROCESS SERVICE
ORIGINAL_DATA_CREATOR_CITATION: AFAD PROCESS SERVICE
ORIGINAL_DATA_CREATOR: network: TK
USER1: GuestUser
USER2: 
USER3: 
USER4: 
[...]
-8.058650439439695
-11.55227161814647
-5.2577786406257445
4.099660876075014
8.572050725694393
5.7929445947268
2.841869804375724
4.655938184130297
8.809967661799641
13.603659700871795
16.738985312960274
14.058453553903155
5.9915221789844795
-2.700655735007896
-10.887271130321006
-20.916855524299006
-30.336907951381395
-35.121907994801546
-34.740150377326145
-28.476155034050773
-17.157040781784204
-4.793749798459479
3.2666469233545126
3.223619029003661
-1.9265974685432399
-7.073453946281874
-9.985570346571905
-7.84278219747166
-1.5099905076842846
2.0830877577564384
-0.15800013151737738
-3.7120934421932175
-5.086350633146036
-6.282254828402185
-8.99036936689624
-12.855977977211452
-17.63860754927845
-21.043669274499806
-19.92242472061209
-14.093236995449445
-6.952539131334991
-2.523694765271681
0.2744384656196738
5.13122385066234
10.786166538620343
14.153958813605858
15.542497432826845
16.11508279537386
16.932137821725995
19.163844996619193
19.22006218509829
12.474585499148139
3.804649890797445
0.7190897031724468
3.9961855006399833
11.316481718602843
17.26834328544381
17.982242877209796
15.941153656440568
11.90825899962152
7.291141038399809
7.470243834013036
11.125743996893238
9.9114219121335
0.8683392505111781
-7.258856229273912
-6.032306033050366
0.8861058889823806
5.391248141508954
1.5116213584256006
-8.97679897682835
-14.923422969678189
-12.942851766388092
-9.926889726747685
-9.06134881265436
-9.736606487537381
-11.611660244928418
-15.195662038547326
-20.78712528223697
-26.52704381474212
-30.108972609418757
-29.576567280423543
-23.052608171589082
-10.496350775499735
4.571358081984341
16.844177283705882
23.27303486598436
22.455680665316397
14.1607708135513
2.0953846701462506
-8.757225057591677
-16.243299350941612
-18.8002618573251
-13.904660990891204
-2.8151047335985155
9.090079239605576
18.299273384272386
22.42508189622014
20.53868475813567
17.90000051382187
18.3558101805133
17.966948346673902
13.372421963234153
5.557258571187194
-3.274795950037518
-8.803863864264361
-7.223312118563158
-2.4797453834137015
-1.3465230169408156
-2.8029256634768047
-2.6696768087043385
-0.05382065963530223
4.05650259370473
6.694177717541206
6.974159631886297
7.281867465290746
7.396107693456361
5.228322202269137
0.18220496268734196
-5.291338732258999
-7.433329257802505
-5.891377268194082
-1.853474486189347
3.759379614222691
8.027914563924131
8.331190585291024
5.364788485795014
2.2817841125044676
1.9350837425429919
3.1109282769066597
1.2866996820192529
-4.397745660805366
-11.00284230740632
-15.702750998793606
-14.829408506269255
-11.063567050165474
-12.657554122700365
-16.925507146227133
-16.523751421051983
-12.214462942977326
-4.89129120883767
4.571890581157844
12.041229050740133
16.771271086016103
18.226545961587856
12.295580526570431
0.0536823068619216
-10.414059245319345
-13.298492818520298
-9.384187091102898
-3.6393124897516094
-1.0461099518344619
-2.073329854608712
-3.2311902679929414
-1.3278107866322528
5.261357663384093
13.604782272972788
16.377270066666572
13.505261321935118
12.2448583563459
13.340521791506177
13.029293351600783
9.558176454377463
2.087177629858694
-5.215401914882165
-7.152045814539609
-4.644766765618951
-0.17226209793014227
2.7705611635990053
2.2222059783202526
0.9459017650973306
-1.3402692639599465
-4.178591709414454
-2.1054336050976565
4.936388558774573
10.944998989508845
10.065850359200782
2.6617922909057183
-3.864293582389549
-6.687669445041493
-8.519580398825562
-11.53521487271834
-16.818641651421416
-20.255418401488466
-16.528686453794332
-6.931017435981373
2.8445332936180447
8.57888012049613
11.399240190172586
12.482291493697218
8.996468066224473
0.6407341260056135
-7.539378254937538
-10.04847256258166
-6.191490263068982
1.3994421211485781
8.540730456950076
9.686731431993653
5.962672667509434
2.9560000056337916
1.518392414819261
2.134074584336366
4.0780919494388135
3.850285027024144
3.2669743882631894
4.529303744380747
3.3788111620816155
-2.6667910521483136
-9.372365791211646
-11.18657880808062
-6.674923076118186
0.46872347195454594
5.877125071647659
9.652443262895076
11.51540590426859
7.509879633805991
-0.022728603383018176
-3.8211344388115567
-4.64501553455327
-7.717958389140473
-12.775316722024632
-15.31700897180359
-13.642867807506583
-11.912453178766379
-13.080906391147975
-13.178181324609584
-8.211807693858972
-1.3243276694291028
1.6271921577783595
-0.06277524745905866
-3.1581165226086023
-4.503693141300078
-0.5883078315324064
6.96017268909453
10.148612366351523
9.159134822399922
11.160368154878292
14.319427327886075
13.685404251789375
10.605782492194772
7.889940401727887
7.905246945545135
9.376263618631253
8.387137466952616
7.484370863243035
10.007492436319513
12.342223620607585
12.225903766369768
11.51913741421562
10.225879902512396
8.88618599533872
8.569988740432832
4.489820181587409
-3.8663515933064962
-6.593701283833826
-3.0779556390398275
-3.6549768929953714
-10.484824168689139
-17.35411064882103
-19.575791846490194
-17.972997829869787
-15.082941519768909
-10.553923671628189
-5.0948968999890925
-0.969623385007814
1.2690599253015529
0.8481567205915607
-4.1487049027728
-12.474965414123915
-17.3309067594012
-14.273371415782508
-7.241450277692784
-2.5123642855904014
-1.350714616010237
-0.5904350869434092
0.5737176744254473
0.9834073301221732
1.636308152501286
2.389526280349212
2.232374274537236
2.600625254642556
4.627395209169947
5.286428695941766
1.2912264883256908
-3.4138854879435376
-2.1557850515991945
6.161387374291146
16.451631892838847
20.016725131605185
14.861463557574401
10.684493743212288
12.779792511078098
13.466478282593839
7.31497440239964
-1.7590607785464316
-9.266474570162735
-12.40894639874448
-9.918251123462984
-4.936158181708339
-2.7681084103558056
-3.323747652805182
-0.49991337458410523
3.412416451179772
0.5356902545375779
-5.003405118401295
-7.568595940112395
-7.506851086658348
-5.826823627841844
-8.876268284999846
-14.657736496939357
-13.00760828336983
-7.472935189369912
-2.3081341308947048
3.657311564662358
5.144447172556126
2.6155388363016545
3.1430989609953874
7.400520370290964
12.21868829945166
15.913567118871928
17.656229163695695
15.776442701073774
12.369939902958512
14.751891483925613
23.271130087940506
27.382096848491923
21.420026154535265
11.097311516182637
2.7905346031402023
1.6095768906315742
6.625734737597345
7.148190024294319
0.6735364358676389
-7.278383948032194
-13.707568129346326
-14.16528780286987
-10.820467538956038
-9.031284789853364
-4.323046260588017
6.132816146227215
15.080706882025913
13.984702803098317
3.9630878681133273
-5.611334420462263
-8.989122226622431
-6.9721574710110685
-4.657028017498705
-6.886674301147118
-11.935218950772429
-12.885338344938535
-7.063431935862646
-3.3181823714079273
-7.505461024029282
-12.312300947788689
-14.43546303529071
-15.468897058944112
-12.732340629734814
-7.3466237600507
-3.4531257362184524
-3.3124709456169747
-7.509686092508521
-10.95130751340561
-8.866723030794976
-4.594777627159991
-3.636936616308333
-6.075664995812536
-6.403600387664007
-0.8392184059258224
8.042805640241726
13.951353949645709
11.718425069046468
3.2144535591885646
-4.710329239452364
-7.821172826185871
-7.620657981520627
-8.81359486957438
-11.532030860372485
-11.9994664440515
-7.852993290778907
1.7952820393826296
12.154851617414813
16.51100329655181
15.02142745935541
12.206720024473373
13.74496436729892
19.734270182676084
22.726537947706348
19.66899220345072
12.411632052955241
4.349559519733721
1.1137100762123986
0.469950259707842
-3.0057960542627233
-4.500923797134796
0.9520633345152834
10.526273314768495
17.898762226416473
20.45332557727977
24.35205658645252
29.51436948496268
28.908015404884832
25.276186114776966
19.77553396001277
10.863143570784914
5.4123122819577665
1.7783735664756648
-8.482751042463459
-20.472058717284437
-24.71118031206492
-22.09125751091607
-20.775226407299492
-23.383172172074794
-24.453946667566726
-21.87531718978688
-17.463679414652464
-12.551435195077621
-10.493992268998086
-12.460785292185973
-14.219435966007785
-11.069428379950978
-2.9123720714359895
5.725105716507009
11.3118865100037
9.889332158541649
-0.7073936253254817
-11.274069784033587
-13.68927001357994
-10.698114724840718
-4.733196350411715
0.502576776060183
-0.2234985737825171
-3.3589511549420066
-2.525179853051855
1.7797065218810504
5.278043819869622
5.7291008858800945
3.4149703355652283
0.6892830686332285
2.4379239233228227
8.91522223652918
13.818580100984963
14.98163164207208
13.860732284622742
9.657906257045035
4.053127955994176
0.023859304491066678
-3.7735522464385647
-8.16552693499363
-9.154450006450197
-3.117620459440256
6.972762045973701
13.393028204034898
12.80908196291731
9.243693823880763
6.732084893654886
4.321861786650119
-1.0061762016684341
-7.23148875933492
-8.158632803345073
-3.8966427667169756
1.1498344639802829
5.533412073596046
7.879615889057056
9.39536029909269
12.534978256838075
13.250539725945414
8.17450494191278
1.276413902969474
-3.1117345832733734
-6.038690813481443
-7.451606870117773
-2.8627882241041487
4.0116224113281
5.5751191705488985
3.9838432552746146
1.1685425099199147
-2.6872669897691335
-2.374192958827943
2.8509595700674795
7.624417327813749
9.848339593369674
12.715099358648905
17.05076483518049
16.303397655060497
7.313839324002003
-2.245808535361754
-4.894906098263743
-2.0639971184640418
0.61014193499113
1.5965008353896553
4.702689770661215
10.180765634020894
12.472881443115849
8.529881594629837
-1.2393241235990833
-11.477856479652162
-13.017771080126648
-6.570611791111817
-1.2235578440896926
-2.0848382145489306
-6.050718065984397
-6.596161864732674
-6.667999279655676
-9.986151711211573
-11.539938855625616
-10.729297274949777
-6.37715497465708
2.9725783677901805
10.041552110828764
12.551829831860488
10.222008946833428
0.9362134099143041
-8.19914738757157
-13.148062785419103
-18.610343198695972
-25.74882088147394
-29.989993586096205
-26.898720507593936
-20.04536563355116
-15.233566636714718
-10.569959159181213
-2.3583321280248852
9.714924663121831
22.80883075841477
31.982871023162925
35.098652822170855
36.125018078377614
39.64236560332337
41.93805388662884
38.2004385704585
31.720247511014033
24.625665092423187
17.368862854050295
14.545984610533774
15.1437988734184
11.454038725120197
0.6136062795956515
-13.673608655111027
-25.225756778514622
-28.185094292921637
-23.28358636429094
-20.28530091370649
-24.24278228380888
-26.613705737660506
-19.74117230749007
-5.783617938893078
9.771631532631618
20.95836766976054
23.82533917819106
19.148154922418733
10.744480476940211
2.713107727893826
-4.762718101684991
-13.203610020399589
-20.11532670028393
-22.865078992113535
-21.794665797398597
-17.269949941223746
-10.161087556894811
-3.6965164892745634
-1.4365448483289087
-2.9313970812842722
-4.561498016768362
-5.0388374054241245
-6.136712852600835
-8.918651612033322
-10.999474434813244
-10.525376286776606
-10.921388124331655
-14.402835535819806
-16.878864414265095
-13.851683594213837
-5.756594864557431
2.2248632674773883
5.677654863833769
6.441016373502847
9.690037773563771
16.65948452302649
23.257470516546324
26.224056606680545
25.110557733208204
19.565997019372066
12.912498450339427
10.124911308035733
9.445920141087594
7.378112488745479
3.640976618377884
-2.7046412271141884
-10.678373774020645
-17.28873420009465
-22.698668491219077
-29.35501697357481
-39.02567867939745
-48.223823374975325
-50.10414200858899
-45.69428769995122
-41.115587507255675
-36.81488718832492
-30.86237684594865
-22.409530455216725
-9.057256934804048
9.44464025351439
29.961485827701342
49.807977026252466
64.9385177060763
71.77537804776348
71.44324563571986
65.1680833835161
51.75012481687497
29.931640537576232
2.119025211587454
-24.741433586614903
-47.38206910600856
-65.09323688776718
-74.87700187640003
-79.08243766199011
-80.78005140226725
-76.99279790198479
-67.5675671299867
-54.331179748374495
-37.1956640708871
-19.096666267499586
-3.600656708394571
11.044321556039199
28.120460340292308
43.922083361824946
52.105740585181174
53.11305179742629
48.54416897280851
38.55383878215762
26.85636504988608
14.078277831171667
-3.214446580022826
-23.123175428557314
-41.070677732674724
-53.11402434822879
-53.482430474347
-40.73363206210839
-21.459336306408364
-3.2893070598006826
11.59508212430625
24.709293103137835
36.292201418756584
46.91035702098365
56.30438816403632
62.935573366258225
68.65561716245257
70.50109996370679
63.99509695421761
55.406978199210066
47.84338068495951
39.56209128455958
33.68315116281593
29.084173983014175
24.081669864505614
21.671257285304197
22.603032958957044
25.955764914341813
28.198138685040373
26.01755506389063
19.88876260396793
8.931269082330584
-8.952381962272995
-35.55251902251535
-67.48224133311479
-92.51466762383423
-99.60559462047031
-86.93897972048474
-63.88347169365649
-43.778900632523815
-31.08569952602838
-23.020890090501716
-14.72529544572427
-3.123219602379293
6.820148025956496
8.647311179873169
3.9993209956828597
-0.7008378500461776
-0.19798062055061189
6.133647732252758
11.542319068819715
11.363626215433685
12.119907879638822
18.022774404906087
25.64434663015045
36.171613981698485
50.242766554999626
58.30744008699904
51.850519552054216
35.98596445576324
20.74504713904981
7.877645429223825
-4.5472449492675615
-15.849356788579856
-23.874592956975338
-23.91344482183494
-12.082663641706187
5.699435818415922
17.07857741427491
20.426497316154947
24.447000264581895
29.254252986915535
27.039872083183894
16.426379433911137
2.0180211276328284
-13.957331896026195
-31.108993326248694
-45.977734151890495
-55.7586356351473
-60.93136730767316
-61.050425025482106
-55.49465738402962
-44.580167000403065
-30.073490990035864
-17.221985441934116
-10.120349980205852
-8.777691614698355
-10.149987978128218
-7.0502098565418585
3.8900836497628273
17.26322839701209
30.38429319218313
40.93610053683112
41.27188468801422
36.0747994649757
36.04786417198819
35.44462471960529
27.132430640966042
14.372332494598647
0.43585306607608526
-12.446836623940063
-21.80908243699751
-23.131055353809337
-13.517350754225061
0.8666990083884936
13.027063923079346
20.734713065261563
25.07166997058181
29.60541617926097
32.963036788387654
32.034133271687935
28.515190922829785
23.03427880840066
14.519951100489777
1.9498518973467167
-13.373224604210533
-23.3438800469234
-21.767233963156972
-11.952355918575106
-0.8996852827536084
7.279070734647421
13.914397135184764
20.7803264253091
26.99319618640131
32.826878793320496
36.206369087905614
31.899797536810965
20.444610943021583
6.339254583759397
-10.003931072346864
-28.077070535564985
-42.62776120167972
-48.86273497948085
-46.55879635870249
-40.6480585641501
-36.904882105018615
-35.00374731958632
-31.841311506162793
-24.724808777801034
-11.065023732787461
5.1184898735230675
15.575999662501319
16.002741233370482
8.54496191353251
1.1616334418779612
-3.489297340437176
-7.897932719798115
-10.44302744641555
-15.136679737744345
-25.71605472398932
-31.999094186432
-28.12039552265941
-20.324702384036847
-12.38341729801917
-3.292460259995606
7.835194042947601
20.435710457614064
33.33394880611514
42.77670393807072
43.83947187363418
39.84807317184844
36.323916645371746
30.21928399976015
19.893016765435625
8.16831121406719
-5.132163162688706
-19.226213569587145
-32.22164630588466
-43.042464907722966
-48.46843863258825
-48.38985251822149
-44.76174248719753
-36.88276031960666
-27.27705810842597
-17.112079458421274
-3.1049541191918255
11.497684556232189
21.44081034625893
26.94887428957387
26.7989798676656
20.335396991497262
11.921771304341357
2.3468219538894033
-11.9990481837431
-29.164523725143837
-42.404057153950795
-45.04405278747524
-34.231484606013744
-17.063251460283688
-1.7522700332551697
10.508288946878451
19.51506447922774
28.619540566291903
39.52025471100241
43.93348618889351
38.43888952906935
28.011458710189274
15.055438508077524
0.5350445316903737
-13.900805754762708
-23.124184976283615
-21.093959880920416
-10.982301780022208
0.851073934652977
11.126426760981884
14.52531951437003
10.423213907443523
6.432752678430892
5.72720569957513
4.477038011361901
2.036949683484766
0.7600782154319443
-1.7144031079082491
-7.472293071358574
-12.881388029892785
-15.22931852582747
-13.267013881602542
-6.570880513375528
-0.12606776502678244
1.7281311338501149
1.7933431603520293
4.1956856634174775
8.520907676683645
12.905870344334737
17.802021640273598
23.27501013861392
28.892071633593776
34.6179440726217
37.71172302918196
35.57520856476941
29.359206353268032
21.53135908043149
15.273229392382415
13.014350357276513
13.078218176074996
13.981832509128688
16.70485016129402
18.123032036906377
16.32462189474572
15.416759338134703
13.099908719943665
4.4473583313259235
-7.854344918200499
-23.31148150014042
-42.60921505874125
-57.34423216253123
-58.33091474572968
-48.364303069328024
-35.93669120149807
-22.31238501194541
-8.10227210084972
2.5628820807998594
10.020906248308668
13.640640006411358
11.427910572787681
5.5032916484831915
-3.046451591062904
-11.738311507812792
-17.776755959131542
-24.021633638640495
-31.826424400308795
-38.69847004621399
-42.46531921018324
-41.64540649422943
-35.81869441229745
-26.38000493683412
-16.98626362601051
-8.644713928862032
-0.671173586835457
3.4308828756892846
5.1530168056633165
10.01621357920562
14.60547700387832
15.61902292819697
15.883775706934522
15.330419096071042
14.1860667800725
15.56093223133809
18.58723063284283
20.096780508997853
20.515565769155604
20.037430530234754
14.477345563430411
3.8829002533882084
-4.268941597780402
-6.704933713357098
-6.046112039309272
-3.532221966713849
-1.4564332128205784
-5.363271006278429
-16.222388749480032
-25.943800968960264
-25.71528472609019
-14.807461852486327
-0.6813285316092428
6.087010822440325
1.3826472656264615
-8.373746136790349
-15.22291927289647
-18.299988706698795
-22.617902860392103
-31.059961545018258
-40.92910857624164
-48.896363993274
-50.37276638289143
-41.44302123413394
-28.570482683370308
-18.604305954710014
-7.1599529749383155
8.82892103325925
26.724773116077245
43.20090533365676
52.540790269054526
53.13561062674671
51.97447429802337
54.80533931942952
57.789808076171525
55.302428735258324
49.77905300370657
43.545581308310176
37.727318526798946
37.68223984936128
