AAD_Filtered_TADAS_FILE
AAD_BASELINE_CORRECTION: BASELINE REMOVED
AAD_FILTER_TYPE: BUTTERWORTH
AAD_FILTER_ORDER: 1
AAD_LOW_CUT_FREQUENCY_HZ: 0.025
AAD_HIGH_CUT_FREQUENCY_HZ: 40.0
EVENT_NAME: 202302061024
EVENT_ID: 13207
EVENT_DATE_YYYYMMDD: 2023/02/06
EVENT_TIME_HHMMSS: 10:24:47.00000
EVENT_LATITUDE_DEGREE: 38.089
EVENT_LONGITUDE_DEGREE: 37.239
EVENT_DEPTH_KM: 7.0
HYPOCENTER_REFERENCE: AFAD
MAGNITUDE_W: 7.6
MAGNITUDE_W_REFERENCE: AFAD
MAGNITUDE_L: 
MAGNITUDE_L_REFERENCE: 
FOCAL_MECHANISM: 
NETWORK: TK
STATION_CODE: 4405
STATION_NAME: 
STATION_LATITUDE_DEGREE: 38.8107
STATION_LONGITUDE_DEGREE: 37.9396
STATION_ELEVATION_M: 1147.0
LOCATION: Kahramanmaras_Elbistan_Turkiye
SENSOR_DEPTH_M: 
VS30_M/S: 579
SITE_CLASSIFICATION_EC8: B
MORPHOLOGIC_CLASSIFICATION: 
EPICENTRAL_DISTANCE_KM: 100.81
EARTHQUAKE_BACKAZIMUTH_DEGREE: 
DATE_TIME_FIRST_SAMPLE_YYYYMMDD_HHMMSS: 2023/02/06 10:24:44.4126980
DATE_TIME_FIRST_SAMPLE_PRECISION: millisecond
SAMPLING_INTERVAL_S: 0.01
NDATA: 12501
DURATION_S: 
STREAM: HNE
UNITS: cm/s^2
INSTRUMENT: sensor = CMG-5T/GURALP | digitizer = 
INSTRUMENT_ANALOG/DIGITAL: 
INSTRUMENTAL_FREQUENCY_HZ: 
INSTRUMENTAL_DAMPING: 
FULL_SCALE_G: 
N_BIT_DIGITAL_CONVERTER: 
PGA_CM/S^2: 158.052
TIME_PGA_S: 
BASELINE_CORRECTION: BASELINE REMOVED
FILTER_TYPE: BUTTERWORTH
FILTER_ORDER: 
LOW_CUT_FREQUENCY_HZ: 
HIGH_CUT_FREQUENCY_HZ: 
LATE/NORMAL_TRIGGERED: 
DATABASE_VERSION: 
HEADER_FORMAT: DYNA 1.2
DATA_TYPE: Acceleration
PROCESSING: Automatic Paolucci et al., 2011
DATA_TIMESTAMP_YYYYMMDD_HHMMSS: 
DATA_LICENSE: U (unknown license)
DATA_CITATION: Turkish Accelerometric Archive v 1.0 - Disaster And Emergency Management Presidency, Earthquake Department
DATA_CREATOR: AFAD
ORIGINAL_DATA_MEDIATOR_CITATION: : AFAD - Disaster And Emergency Management Presidency
ORIGINAL_DATA_MEDIATOR: AFAD PROCESS SERVICE
ORIGINAL_DATA_CREATOR_CITATION: AFAD PROCESS SERVICE
ORIGINAL_DATA_CREATOR: network: TK
USER1: GuestUser
USER2: 
USER3: 
USER4: 
[...]
0.12614336231238016
10.556807266406302
16.149346427756235
19.69473487086367
20.510019202511696
19.8127417421314
20.450564442460486
17.663014663201743
7.856138003007943
-2.059759186356685
-5.057495264741553
-3.28970975389723
-5.667995744701848
-9.42068093729075
-8.839363613707562
-5.713738914844294
1.0625382510529744
5.495863117462685
-0.11196860170878468
-5.4891994270160716
-1.6208869243399733
3.072972301480993
3.8690089756431916
2.2306216984336946
2.861721102871896
9.795672656426717
16.794173509313037
20.269340217304276
22.405416744495206
19.24104493287956
10.425373416318092
6.806271695912276
8.91759958491735
13.071268200605655
19.464520265913034
20.237174371455687
13.094327012525785
6.854771636601536
2.782395751630122
-3.6247752537492404
-8.63922669471071
-11.224717467213969
-13.207459058255866
-12.582580605648129
-9.90041336246389
-11.026176837226835
-13.072928049547224
-10.589208765178423
-6.244171364792679
-2.115611521596673
1.348109227689238
5.723694280536089
7.976289863212737
5.038653031888169
0.8064889365591863
1.4217382438478492
6.251269554601077
11.348687682698264
12.495273080518842
8.595454430542581
4.45034680671611
3.385827907627826
4.133445301877377
3.7159634135338626
0.36964163843839554
-7.7508824254992215
-12.933449156812369
-10.972641074737561
-8.929346204611182
-7.280074593518756
-1.9529166229512713
6.379352274576106
15.235926302679951
20.752728991996047
20.924292027183775
19.700078122013977
17.648745097355746
12.115159522588423
10.507115924835928
12.11237020714638
5.7309209423736265
-1.866221304002264
-6.250154506976386
-10.402488349866028
-14.311888777748864
-18.5387220146997
-18.917257920410638
-11.86001643455916
-4.093655103791936
1.1500666118899334
10.306866103244909
18.888900075465322
21.463828036613716
23.79581683776825
24.360582541673544
21.93269752769765
25.326039097499045
31.70762284844374
31.521617386638756
25.55854559121959
19.74186854245962
18.844871030899494
17.889474214787526
11.908663762400284
7.646596940766505
10.635341132629307
16.36396337663531
18.040300736768632
19.31390819924951
20.674539409514605
15.799081123943651
10.711846587310584
11.15533706597782
9.568293226592559
4.629250450133763
0.9015863192171649
0.18858543565123412
3.36404197707069
5.503758983113072
7.790614079468639
15.48591404693342
19.891278460255286
15.14776311393105
8.464694720016166
5.793682852555639
8.706262295995703
12.053012558278008
12.14479360523278
10.74130654391063
6.336974978286601
4.8646439635647045
9.562988757510958
11.045372518892522
10.002878340456801
9.630327767639152
8.572100451232757
7.985059018608934
6.127866511690056
2.9793975236856602
-1.5151721619132756
-5.3554513465357365
-6.096341638647234
-6.507300875440003
-6.838050470372831
-3.7757890604257325
3.1403768382261776
13.330607789614925
23.51242117127447
30.49883580894906
32.85301847556633
32.12881096989324
33.0376950644807
34.01338044299201
30.477840688067317
23.231172909161742
16.489766878161994
11.09016921806711
5.878867602257635
-0.5445721188612956
-4.912670198415176
-5.179172986800232
-2.1578334617859767
2.787353869859637
5.8571206043319695
4.893445458824533
3.6732438461171246
3.3378928393916176
3.7129977668623333
6.985548476938176
8.459194485045067
5.044819241696603
-1.4484973694398409
-13.63756443480183
-26.443565737644665
-28.66733264271928
-22.236841107863427
-15.859688422212022
-17.181916827811538
-21.86794315469048
-22.66681438224927
-22.338861863453477
-19.275095639916245
-12.672917677784964
-6.902276346614807
0.8087428553573486
5.895826670261323
0.8501666747357055
-8.616158163006068
-14.936167406654436
-12.671921872200683
-9.28680557686008
-8.112711791770527
-3.1441387640773564
-1.5236311833618879
-1.8723409227902736
6.348966022063286
16.724146597453736
17.269726533773447
9.436299376398818
3.5447833342618758
2.1429369108051883
0.721220851839973
-2.1611697049804177
-6.230746430354872
-10.260066269682762
-11.80945607922821
-9.952296729411513
-9.79394371859492
-13.76148973552071
-13.790079933448341
-7.536290129376703
-2.532139866425954
4.860207538165614
15.291650939163345
17.869278973115502
11.263074413061378
2.008908736312859
-5.644492399206144
-11.491143659884417
-13.625535795173061
-10.761657349126866
-7.0774376925659
-6.114542512254272
-9.508244160186651
-14.89429551655606
-16.319051552862962
-14.329832325762432
-17.516975382583574
-24.540045056721755
-29.992305702125467
-34.158648893118354
-33.16085315867094
-26.95633576798918
-23.483642330495677
-22.97195097470356
-19.016371372735712
-13.300095024207872
-13.4899023676666
-20.07131601338348
-20.832738657798338
-14.095276465644618
-10.836371443111823
-11.533517966565885
-9.316637105888454
-4.141272350376605
-1.0560141627639716
-3.3646623907219086
-1.8201938560339261
6.12202493801642
7.422768965059564
1.9317525987702977
-2.5246123135598815
-1.2318347246209367
7.44805025944016
13.216785286861837
12.039598742961353
14.996025025635884
17.87902731583105
13.66516905431817
9.05849730808161
2.4104885872950366
-1.337288416990971
6.386328177853743
11.514688519064311
7.696620816247962
2.4215126820637636
1.3876492216199492
8.086686453602935
17.482532460151944
17.118593799057763
10.45524058324525
10.789594905008101
16.08950058822018
18.97462050555174
17.48336713656063
14.219151491579133
13.642267351803989
15.28269002237383
11.556672548355012
6.231058523254484
6.268047535130571
4.8265897993422335
0.6044336974945912
2.4583401561117766
8.24714835145454
11.792357079143652
15.972217478003065
17.886693164108085
7.837662452756978
-9.751654055525517
-16.675319257405718
-11.97612200037521
-6.737633766824403
-0.31211638248662293
4.760288574810505
5.796362506622742
8.966457583065079
9.082217317574313
7.390418444799501
9.101101562946802
0.9290577794794399
-12.841672320284982
-15.129974158887197
-10.786012046993763
-6.388896529859377
-2.2335278582881264
-1.6212440650204418
3.4149396666725984
9.762245254116865
8.111316840167953
3.7779225846477025
-0.16754676504441432
-4.365475973050313
-8.46574707891527
-9.522906673181357
-9.094758601029472
-11.020730317092578
-12.4469461799649
-10.989965944882801
-7.2862567186190645
-2.8259067736705705
-3.150178609202329
-6.418093029992119
-4.407198681148707
1.2562367516664361
3.0308475591145267
2.9365737727844197
6.32512938422203
11.315938814502701
11.673050102900108
5.850787365935969
-2.5229940687335692
-7.170799860500554
-5.62489882991861
-7.957077814748845
-16.22249711181579
-19.721481245640778
-18.10648537014827
-15.03824492606868
-6.991278146737276
-2.8846356950271552
-7.333403060180958
-10.956391668407818
-7.478863107839964
-4.432177859746235
-3.3010988843758398
2.995066660542769
4.116100151515809
-2.7418848295750347
-8.020252799650654
-6.645708844725455
-1.8643582632850635
1.0659138840364966
2.1565813737639488
-1.1880802883000252
-10.08021209737332
-15.020530852214694
-14.978898183462812
-18.383036100797273
-20.816714940713254
-18.019021618822062
-21.647872833462905
-28.43584453224894
-29.256469033125825
-27.384735929990516
-14.636411270287992
-0.2929927164914909
1.959278577079649
0.40273060534672206
-3.9610703261730973
-12.721496666367148
-16.21134046766672
-12.247764138321225
-10.35843512038486
-13.226270869692888
-16.342810485566943
-16.426047062889104
-13.969144966692898
-6.916857340220486
2.2617358749975254
1.0896911283724338
-7.480357926280832
-12.332249797867602
-16.143340276257003
-20.25402655836419
-22.266471695385743
-23.436169851519278
-22.159491848162148
-17.910166717081253
-9.096945844000986
0.23233268424659242
0.10106909149208838
5.893293964717049
11.462113564369481
4.355758842947093
-4.834485504536556
-7.569281630775926
-8.487146062589106
-4.834711545564386
-6.027992626911038
-13.693427063540108
-8.816559219073707
-7.708405490215765
-5.930524781310891
-2.0870333509182895
5.001190588277082
19.470377731451798
8.487666669028021
-0.7506449266356068
9.423758225891572
7.898086417489046
17.05313203412282
19.386008835922784
1.253597401987048
-3.3058919735871473
6.142299133948773
3.3391264445603155
7.593679176033999
29.31958096167803
17.890802086308845
2.3480167007405632
11.129155284185524
10.535213248987878
12.5036842671246
13.117596013122178
14.77885424744482
23.94786907455641
18.419561191211677
13.858318043669344
15.027887418405305
12.508854524314339
6.53014757923359
-5.289374202939916
3.0451512758461727
19.043346984774132
24.379182032960838
23.555438896241107
3.7183241271604155
18.25690135223086
37.146086660721245
28.289381989639416
27.35031568740654
7.653069595766234
-5.832656531022009
-7.994583532457114
-21.934717338726422
-15.481759424527828
2.217341337651704
12.920785343385663
-8.171823970920466
-22.196664557005693
6.277022413975334
13.980834336802657
27.225335607513248
36.05939012243933
23.938030116938776
2.5558662101710117
-21.170346880010605
-1.9760103145995351
8.421712638733803
-12.195707191309069
-33.204162090426
-36.63231363694815
-18.84442364509263
1.6669861944918123
1.7814846637259854
0.3030642293432061
-3.1173884867607975
2.155616882966795
29.78916344771557
21.584759927798675
-14.591140051968672
-11.867534247937668
9.130032828442994
23.955400476973868
28.879315274628784
33.878739220296715
41.415799718575244
40.505786569355706
54.44691373478297
33.90072690211431
-4.655765990341486
7.252630875009428
6.3303637142909555
-23.341275523499704
-30.125463947070617
-23.13262864016198
22.304811899249373
17.50574937692564
-0.9342208676240911
3.931820670259085
-9.699643503384122
-14.589788229866521
-34.050418031937575
-35.351976961788864
2.4549231117555754
21.815321802344698
13.632042837004017
-9.150009020946351
-20.777427494980888
-18.330261960221236
-34.740682043971034
-44.51322894946821
-40.9162621104432
-15.67178044799039
-11.165489603090743
-31.493569323036297
-3.2913376936297283
-1.4015726114943639
0.6922070898318438
16.12482780939017
-40.20294397037783
-50.38983167913342
2.214372868741407
4.4480598573105254
-0.2218522691934105
-16.13986357084629
-46.19121082183927
-3.1374533418605024
-10.264065630804096
-22.53058972501714
-15.583600938324121
-53.321224054538604
-37.01921481957089
-13.58048164051381
-19.828387733654885
6.5098483966712
26.30121492896254
10.706689802618524
25.41524152669747
58.74958454665453
82.86094079042327
88.79457332451972
36.2761471752794
-36.31230819189768
-1.2607680154630574
70.89535144788955
30.19986890124219
10.63462013346498
63.73185025980375
57.499475685395325
44.698258085508044
52.10140803602435
12.045694340395157
41.154120084774696
47.60439341805163
-33.216369796702075
-29.84595467802054
7.1747973507365375
13.722348652833906
30.876674981880708
26.392580866342794
-0.017734794024365456
58.15166781608347
59.64354780266261
-19.548672986532242
-17.702387209097935
7.627898317060439
55.77464541306983
51.25827162337025
-3.112509025778272
10.778247864219907
29.96210566734677
25.243906268928026
32.94284051552559
28.988204965073763
11.228057622285473
39.837708547403665
47.02741943062914
18.103968275485055
18.413381576675224
-6.7470242532288
-39.72716934250107
5.9209938376622695
23.711239507629838
-7.2624000215615805
18.508309782276296
53.029325949896645
49.29707215301413
12.616481693736006
11.222064423612501
35.37485129401754
-18.57203693956503
-35.211276651664384
21.392212772031176
22.226130153001957
12.781992230686955
25.22010316592434
19.584556081852078
23.794090366003285
36.558465456925596
8.756048875635642
7.851697608978743
29.875063552568164
59.90211959089147
46.622315988164324
-1.3768516106931605
-0.9092426049318082
-34.67036363531536
-33.310557209028644
-8.294225092839332
-32.04433589962326
10.372774964249995
26.633893559807326
-9.653815298246037
29.00425125123538
53.33597508435131
38.84644543720964
-12.81815563957513
-53.709020124293815
-23.423059433339017
6.9707121913310495
-5.987892689591629
-36.45362351389526
8.393054695222544
42.8120333522991
29.207706545615217
31.304368249664776
10.542780051087353
6.847903274451071
-10.639630916408107
-71.61927334452598
-84.88314811219921
-56.05065566104821
-28.831542451804125
0.5440396342363134
76.47562070274115
94.51887581418278
-7.121844659278915
-37.58163242765642
-5.7844924130260305
-57.105627803706795
-114.27296862601823
-88.6343264483732
-16.75029861230246
45.10727184792386
55.32624748129855
12.141133357737004
-28.962175877898375
-29.251059287749122
-14.156973439305355
-69.67087923193631
-96.30405166210704
-35.57789866888187
-71.43877485325089
-121.75251979596986
-32.51276119515183
41.62896340718747
51.65468644466103
78.481054849013
40.95079167977334
26.874616763531467
44.73475834938217
37.381213334227766
54.806949904318884
59.69656542533128
-5.9788063226832815
-68.68531046401618
-56.92186631711276
-69.04655153526188
-93.78076753495631
-80.68617387236864
-65.98824571618933
-24.953163967228107
56.1317178753715
123.94838176446439
154.9186935198528
126.1122869378481
74.05326638880489
17.187539255808204
-40.50635654048019
-80.79018826339593
-78.47829371803728
11.250070035502661
92.83256638164497
92.75600353827384
25.69819466555267
-26.91963509692606
-50.5319681805806
-23.176200600210063
44.05078158568932
10.245987749895258
-34.75566495250344
-6.815457422062867
40.57254026515789
79.55198784979194
17.754606158916346
-74.30758031536024
-33.680783040998136
24.34621267397083
41.55158548893339
44.17336713342733
-26.09150121572017
-73.45902644114143
-36.96296353209623
33.360138933881295
99.28756421089129
95.5368437293556
13.963896884250689
-90.90577264804001
-137.58218958872936
-70.00621890861922
39.87156593138819
38.54053805276047
-58.3839142480468
-57.56284254807979
39.750571015985074
62.445890177444014
4.1320453492388065
-15.92233880896936
0.5185362426213104
14.820523758380439
0.9753370702656815
-20.547466327308513
-0.5423866744075098
14.243415791559796
18.13650222759421
29.96556701104972
29.121389445638815
-14.711235085995813
-53.0939279871041
-12.400576950109143
49.744154772970845
64.13856709200344
52.657604405130805
11.571640712928497
-17.69428868421223
-12.01849303039337
-0.38573756816046123
-23.79259096507097
-54.00244772415517
-53.63240173250569
-18.121620030135293
21.29191887250334
-9.627575379839508
-40.278252310518475
-50.90005503438532
-48.83152847684792
-22.446057670703155
0.158693558966766
27.017228633864125
55.66139484421566
73.6470799635678
83.44895903624014
48.27612453194189
-1.615476100230401
-27.956525690206544
-69.2883778456976
-100.47417185172883
-102.82275238003788
-67.6865066890003
-21.842541804379216
-3.3900058301493337
20.899938667467605
41.42635970455693
21.23266196135365
-13.04969995565393
-4.4916402340111015
5.207590289599971
9.18999861827641
23.35889236064473
-8.087966919308249
-22.56774627133483
12.981481728773268
17.157586072089806
8.06446808339242
-11.663585138824345
-35.02899466032797
-14.819516173366681
-8.483995799809271
-3.921842266823606
38.66866259200137
57.077228475279384
34.00934449037274
23.18080881657442
14.588044901057488
-3.7403377539900586
-7.869731255587386
-5.162785139619114
-23.96513077767964
-26.382085848154947
19.20267483216588
57.924697780471206
70.53804250695245
49.27250754814039
-2.034471401210861
-41.68951419423194
-33.86119140078002
-3.833980603405931
9.298974148215061
16.61152069477788
22.676649919143383
8.898645873729512
-23.919452577561874
-29.792328370721012
-6.191806567895826
-12.954225572715712
-40.5696610260208
-41.92031389974836
1.9673400118638324
43.352600233208896
43.23039100889555
1.2346492949740004
-33.63933622867843
-22.516638791622974
-24.836757760127302
-39.72140313599669
-30.184897237995354
-4.807823098171493
-0.1654172991509045
-2.7071972187762694
8.824731893872617
-6.2968046338140535
-38.439054895850184
-42.05695775348003
-18.86622908719218
-3.295465671900446
-32.19491536386165
-52.85539657954273
-28.233514130720682
-11.307896329410001
-26.287880599035574
-59.2903189988672
-75.98935628442197
-57.6155531656119
-14.431231496807353
14.71632977924803
0.4596929359031649
-25.892528630921948
-23.763335360253038
-2.3557546557438744
0.8891805092896824
0.4826754205177153
14.930492386802703
27.045407768246996
5.423556568821743
-35.41854711930114
-33.09413596914153
-10.699291339812374
-12.78472272017094
-18.054761940152236
-9.594885494825448
-5.692958671570724
-15.461023536632219
-36.05448213227249
-63.40443181192097
-88.66347279436856
-60.14221397109603
13.10326211186921
21.392858633252576
-24.76475070494988
-30.96618075726377
-32.58834471438809
-58.2190439811954
-54.22721467889746
-41.09789081710422
-51.43633284964663
-53.910130945792886
-25.324488215639185
9.563276470507859
24.466764433873134
-2.7263628371868602
-53.04590527577258
-64.29775361133763
-27.338066278378015
4.005201015445519
-6.517969386562269
-16.212331026669606
0.014749419869321262
0.03920818168449875
-29.043175839407755
-41.34449882675676
-23.41215190128489
-16.15414057828903
-6.849884565122908
16.933359591357934
28.68607418389464
36.86863785987784
28.072461244530512
-1.1352319066968448
-29.6178094423593
-38.98157417789658
-24.06441886105422
-10.224376445271885
-19.8352818626933
-26.08880550969995
-0.25235905941743625
28.541942299110083
33.224804995784716
-1.8409365167921499
-38.49085251776791
-30.493294559238436
-19.008018060297246
-35.453562062052505
-52.653886297564
-55.49006740537443
-38.9393151810829
-14.007028001100927
-0.2703671074375299
-7.151010209925349
-22.328314169923015
-24.479447706050074
-5.1188928542984335
3.06290691026901
-19.528667391744758
-44.807933698411766
-53.83855222757496
-40.04594115395456
-13.659784752226573
5.1249094188331075
11.742530261913654
13.905582855076373
20.502434166781644
26.508481335970522
11.55703199370278
-22.474511174748276
-47.55350895069458
-40.6060747351853
-16.149676768131783
-4.200015280055609
-8.356659553441933
2.237353333365745
8.950272637836827
-13.908162446811167
-23.368428127881636
-7.702698118105025
7.866731544724767
29.78296028136847
48.553512382162836
52.6318060940522
48.38515254597218
35.457901565631815
26.528015576986782
20.224367046644844
11.574785310247986
10.727261943841489
8.6656191091588
-1.6747401871672294
4.250789757296607
20.550160241425374
9.080489253560833
-14.940779209412081
-31.12778064727909
-40.533016550801996
-29.686989711336242
-16.238929021663335
-20.695896729170347
-18.428029978954317
-4.318244922046193
-7.793314374173615
-29.329289428433814
-41.09283151985735
