AAD_Filtered_TADAS_FILE
AAD_BASELINE_CORRECTION: BASELINE REMOVED
AAD_FILTER_TYPE: BUTTERWORTH
AAD_FILTER_ORDER: 1
AAD_LOW_CUT_FREQUENCY_HZ: 0.025
AAD_HIGH_CUT_FREQUENCY_HZ: 40.0
EVENT_NAME: 202302061024
EVENT_ID: 13207
EVENT_DATE_YYYYMMDD: 2023/02/06
EVENT_TIME_HHMMSS: 10:24:47.00000
EVENT_LATITUDE_DEGREE: 38.089
EVENT_LONGITUDE_DEGREE: 37.239
EVENT_DEPTH_KM: 7.0
HYPOCENTER_REFERENCE: AFAD
MAGNITUDE_W: 7.6
MAGNITUDE_W_REFERENCE: AFAD
MAGNITUDE_L: 
MAGNITUDE_L_REFERENCE: 
FOCAL_MECHANISM: 
NETWORK: TK
STATION_CODE: 2103
STATION_NAME: 
STATION_LATITUDE_DEGREE: 37.94406
STATION_LONGITUDE_DEGREE: 40.31274
STATION_ELEVATION_M: 730.0
LOCATION: Kahramanmaras_Elbistan_Turkiye
SENSOR_DEPTH_M: 
VS30_M/S: None
SITE_CLASSIFICATION_EC8: unknown
MORPHOLOGIC_CLASSIFICATION: 
EPICENTRAL_DISTANCE_KM: 269.74
EARTHQUAKE_BACKAZIMUTH_DEGREE: 
DATE_TIME_FIRST_SAMPLE_YYYYMMDD_HHMMSS: 2023/02/06 10:25:10.9932700
DATE_TIME_FIRST_SAMPLE_PRECISION: millisecond
SAMPLING_INTERVAL_S: 0.01
NDATA: 18251
DURATION_S: 
STREAM: HNE
UNITS: cm/s^2
INSTRUMENT: sensor = GMS+/GEOSIG | digitizer = 
INSTRUMENT_ANALOG/DIGITAL: 
INSTRUMENTAL_FREQUENCY_HZ: 
INSTRUMENTAL_DAMPING: 
FULL_SCALE_G: 
N_BIT_DIGITAL_CONVERTER: 
PGA_CM/S^2: 23.825
TIME_PGA_S: 
BASELINE_CORRECTION: BASELINE REMOVED
FILTER_TYPE: BUTTERWORTH
FILTER_ORDER: 
LOW_CUT_FREQUENCY_HZ: 
HIGH_CUT_FREQUENCY_HZ: 
LATE/NORMAL_TRIGGERED: 
DATABASE_VERSION: 
HEADER_FORMAT: DYNA 1.2
DATA_TYPE: Acceleration
PROCESSING: Automatic Paolucci et al., 2011
DATA_TIMESTAMP_YYYYMMDD_HHMMSS: 
DATA_LICENSE: U (unknown license)
DATA_CITATION: Turkish Accelerometric Archive v 1.0 - Disaster And Emergency Management Presidency, Earthquake Department
DATA_CREATOR: AFAD
ORIGINAL_DATA_MEDIATOR_CITATION: : AFAD - Disaster And Emergency Management Presidency
ORIGINAL_DATA_MEDIATOR: AFAD PROCESS SERVICE
ORIGINAL_DATA_CREATOR_CITATION: AFAD PROCESS SERVICE
ORIGINAL_DATA_CREATOR: network: TK
USER1: GuestUser
USER2: 
USER3: 
USER4: 
[...]
14.348923971965455
15.372991779952638
16.423223403177772
17.50801620340927
18.575600823150737
19.619427637898323
20.551774108870926
21.271935528105306
21.82065525646419
22.21817716363792
22.461227324168686
22.562809119680576
22.536630257150325
22.426378390230933
22.253533163808438
22.06923537250984
21.89590055920347
21.68213267806107
21.45788815392663
21.33492386014178
21.352174324218183
21.515958257556203
21.852105867046223
22.22578968945875
22.484079048275007
22.575309792590872
22.491079028899808
22.378715489071663
22.311293920067452
22.267417933679642
22.31512607855249
22.401183470037385
22.362709704251596
22.09630004010721
21.564167113931543
20.764016964153097
19.767403123659076
18.744919301985817
17.7999296744535
16.9304332724192
16.168227668080284
15.534898927642715
14.996631272109138
14.56491015310554
14.213657169040607
13.821335943694836
13.319161213996221
12.713962906977573
12.105572896490896
11.628193765645234
11.358454910305745
11.371713064915541
11.72204573045121
12.338635481857985
13.021350248931379
13.630220171008771
14.0028515732395
13.962380675345129
13.554663799637835
12.858746118870362
11.952868978570867
10.949004665177949
9.904280613856965
8.848327053220215
7.788439446090637
6.838085140958168
6.096245844166512
5.5142472153453514
5.0988297959036455
4.867331184034106
4.732908582797482
4.605670852229468
4.42315861056265
4.163579195310694
3.8572029347248704
3.54282595129688
3.271469469572765
3.0139513800582614
2.7388386355642194
2.58304813966871
2.5709148910015465
2.60410088426288
2.7070347789872824
2.806387922248926
2.727654535935218
2.4630117019844886
2.1411010089512876
1.8567168458532546
1.6391546788274312
1.4951076362839297
1.3590813976724416
1.0993873881440317
0.6030261131221814
-0.11371076748495451
-0.9351468020197619
-1.8187581696806934
-2.7773996239449454
-3.7775140708981474
-4.779247681975788
-5.773080710691617
-6.67296031292226
-7.324387515137476
-7.700910703467357
-7.819768563411809
-7.625976568400419
-7.260704838655446
-6.85105006782615
-6.340321741171623
-5.778555017801067
-5.131020437093701
-4.402845912656501
-3.7383705614982445
-3.195319063159995
-2.8618041170672632
-2.725829036987231
-2.7608937828435556
-3.0619691508708957
-3.575034946079466
-4.18951460507722
-4.944548871819688
-5.8610454380769825
-6.88370845165241
-8.006510175600537
-9.144303750547895
-10.152256019106222
-10.947384823496847
-11.452873463432123
-11.674379620073204
-11.713545400837821
-11.671158908497036
-11.608233465234258
-11.513384629786744
-11.368181736368188
-11.23305857229873
-11.119188984651295
-11.04121760007216
-11.038243886155236
-11.040048488746345
-11.037851498489193
-11.081191816965477
-11.232352538378537
-11.595383606192348
-12.2473618271343
-13.220118019080585
-14.450268210864055
-15.791330777707632
-17.13276778316621
-18.409899064115486
-19.520967193860358
-20.431508818187943
-21.19067864435588
-21.801465828455854
-22.215873227560166
-22.385103713326988
-22.327499612444125
-22.1414470684845
-21.904771134873485
-21.683035458765083
-21.493218067903822
-21.276842741103117
-21.040198425377913
-20.731149804400403
-20.282724468018902
-19.717555415209464
-19.092006414186685
-18.54762919790008
-18.204851054963672
-18.11226421102527
-18.274933841331112
-18.65539007230504
-19.135213734129678
-19.648208241392382
-20.207188823930696
-20.757917042005655
-21.27489721488206
-21.662235097018304
-21.774439440899933
-21.556833708596987
-20.997838342561344
-20.177234451481098
-19.29998894361671
-18.566093704814172
-18.102161454868444
-17.956414739779184
-17.963092492131253
-17.93769773897816
-17.825415402349627
-17.587317701012523
-17.274847940979733
-16.958618473323185
-16.72264055544271
-16.669384126529955
-16.76570541534189
-16.97970784090394
-17.267964595684944
-17.527378165005626
-17.717571960487316
-17.724440946831603
-17.470467492667204
-16.926327887184705
-15.966158294628864
-14.57324730536937
-12.780630265793548
-10.707845282501339
-8.593960249181924
-6.511472238260265
-4.5045564485990575
-2.6293357823934023
-0.8363833722431476
0.8444614340163574
2.3571228074374413
3.643129481240219
4.622833935076884
5.331195611878885
5.8127982520813575
6.128975696240514
6.37961858377583
6.595984916477758
6.724052641379355
6.710776916673112
6.573084739410567
6.271900928772486
5.798877018774771
5.24154782125874
4.6502335296778385
4.043510510481019
3.4866207180884414
3.0524638121362164
2.712689500590242
2.44504801068089
2.3100583504906793
2.35402393908741
2.5880463547817563
3.017981699938718
3.5561358118787814
4.092255313688103
4.590127421769533
4.973817138169513
5.209519724293837
5.3310404180234725
5.408452186637257
5.505955772356248
5.581255557449455
5.668255882875476
5.86666009745522
6.130792546104223
6.355387186707818
6.49688642018719
6.508472938917593
6.394081018877242
6.244881584564487
6.104919278557479
6.003305504948284
5.9014369965109195
5.715295491696779
5.411589036891053
4.999101284055228
4.574136295293935
4.13359921474603
3.618557947409502
3.0701297940390626
2.5011841906180914
1.9232514467250903
1.4200329921937866
1.0340173088648965
0.7535068032125773
0.6378873668010709
0.6945803810829243
0.899612894922761
1.2703102275865985
1.7533851973831143
2.3315836988303147
2.962903552845927
3.582563248498309
4.199238453213378
4.7926537882023705
5.349662350436224
5.883893919349435
6.455481187824836
7.1317240777393325
7.964164554639447
9.015958983698518
10.307764463799053
11.84418318640001
13.546075421253633
15.277540847839026
16.93010412157277
18.383361621022008
19.52149834624373
20.256030384567133
20.59294148238519
20.63045031948242
20.538960920395958
20.485269881631936
20.493796634389554
20.534537608141502
20.549395689338528
20.463151543807903
20.258258223962272
19.879457433608955
19.24769528022325
18.382808241832134
17.39458503129787
16.43674456377792
15.678116535021731
15.214591846096232
15.018064873302633
14.99090473795859
15.033447461292742
15.111958088071395
15.299741295467706
15.678389108322325
16.254155108107405
17.0214323198346
17.891117135198876
18.655720079542363
19.17040584575993
19.411256592126627
19.435169179179606
19.315807085085456
19.109509957484082
18.88795540557551
18.712696289214602
18.61443197502904
18.537201925371274
18.350119592382352
18.001661249802847
17.51782276097871
16.977599170789798
16.518468540172574
16.15888845297369
15.785196603530725
15.261251195715667
14.420736495596087
13.215548901315422
11.741943574595638
10.096403580187049
8.500659856560796
7.203532618290642
6.2566689615950635
5.679410024640253
5.401087306441988
5.226902848770078
5.035245851403946
4.702450514790436
4.112655537327814
3.300702567316091
2.413985022567285
1.5409390199895485
0.717283211159751
-0.07487148916017132
-0.9589542630226017
-2.023044575775856
-3.2938315564349865
-4.717283463220423
-6.255268340987477
-7.898691302106637
-9.545927935888631
-11.165180848519089
-12.75799034103038
-14.268382622463948
-15.67838587541628
-16.957797141198963
-18.025494536583178
-18.868176251620593
-19.446702796515844
-19.680501261637755
-19.62664673165759
-19.34947318057225
-18.947285926753914
-18.544967840586377
-18.165614548992533
-17.816628057704605
-17.459491699742824
-17.02858111849315
-16.47319103755596
-15.765127857617161
-14.962588818412575
-14.167674401214922
-13.367435852181488
-12.481671775173437
-11.530013118314736
-10.537509621649464
-9.562643114480517
-8.738257919724576
-8.113022384966161
-7.653485029445704
-7.213052074167325
-6.620915107068398
-5.826161589454334
-4.87436556735964
-3.938461847273539
-3.175582144096319
-2.624734376064832
-2.2787070704977985
-2.082096532236749
-1.9261578654232572
-1.7673436035297894
-1.6417170102279732
-1.5949320089722447
-1.7415226048040355
-2.1217321504656796
-2.70141366538237
-3.475320064481091
-4.327118527015218
-5.1688320985167175
-5.968810014323565
-6.62529429472669
-7.180771620200388
-7.785122174411096
-8.474478000417578
-9.209102157243382
-9.966380069613777
-10.780486747217655
-11.667610467605522
-12.554490831259383
-13.406279729926874
-14.11322832100087
-14.467567455108036
-14.472337922259378
-14.138185726204366
-13.41484746107447
-12.405220522354456
-11.202256404302057
-9.855544135539928
-8.574348815876544
-7.559517851036907
-6.7890064636747
-6.187627004732328
-5.685058227336968
-5.211609446505192
-4.736621748802473
-4.320951335910303
-4.0038508072124515
-3.767476204421784
-3.6824300050397945
-3.781418371450554
-4.068533820838349
-4.5437964221040215
-5.148361360169426
-5.794678112707644
-6.436453005653239
-7.081955091214208
-7.672108717133667
-8.184969524091565
-8.65891847565058
-9.131350970209333
-9.6220487097175
-10.112679616515493
-10.610998256704391
-11.048972364367355
-11.329283064434973
-11.45124168845454
-11.46122737274189
-11.403517553407012
-11.353917970076944
-11.411799238279459
-11.602591071115015
-11.903053203989913
-12.228148852923196
-12.500563552977685
-12.724863543495598
-12.85828225327375
-12.837944113283775
-12.641913956213012
-12.232387133409908
-11.621845449631069
-10.869272147112426
-9.95382537810471
-8.886098562773444
-7.734541784854857
-6.552517695490043
-5.445610285799516
-4.4914201724743945
-3.732218701421472
-3.136447612310432
-2.5338251008663897
-1.8677339245340514
-1.170643412661198
-0.4780375189291213
0.09490306290417877
0.5290540227912206
0.8858044760482824
1.2171958855208167
1.6318223071349904
2.2427651883146407
3.0733670605715067
4.059119081046804
5.073946121000446
5.956567498827065
6.6159126941973385
7.07100091230706
7.422955304558379
7.7818497613490845
8.154978116776231
8.535266603644137
8.923356136615604
9.236610119997698
9.425531756119515
9.459157596833554
9.296585877590006
9.002970277598848
8.662264939541327
8.276169308034387
7.821393727497259
7.25841452490864
6.595439907057035
5.9619635225125425
5.441561436074163
5.069641798430769
4.920132568200222
5.005657932690891
5.3035657469576964
5.756883075922082
6.2723434899915285
6.821990070476345
7.395662414260052
8.015516974512808
8.733659912735401
9.572344822011218
10.562093601815633
11.679582070053685
12.885230021337701
14.145465282815099
15.353009951885902
16.352108836335198
17.0439663711275
17.378254463046733
17.32439765379036
16.973319241256636
16.379999672992053
15.567801467974542
14.621762730463747
13.591044320156279
12.612297975552718
11.800086090079782
11.12710367648318
10.563802146725825
10.04833704262544
9.506436276774052
8.898342509275414
8.190744138814908
7.462341333175743
6.831084902814973
6.313959387788389
5.9334074211314505
5.680043450134746
5.462723337392453
5.204664221524173
4.836461297890662
4.323135112387351
3.706917593777206
3.03789597338815
2.361456481932354
1.742119513352971
1.202584132059142
0.7691292374126308
0.5231676126405244
0.5061262098305177
0.6787605289258374
0.9602598267858742
1.3038794263069384
1.6789685838954334
2.035205690012462
2.3265137494054717
2.5088817251421363
2.591821009363319
2.6285307103358195
2.72491070206953
2.9860641584456658
3.3814691763945626
3.8162126754277756
4.180936993635513
4.3298037951652315
4.1701604487751744
3.7239923321624033
3.0830754701086214
2.4037972075411758
1.8293013390695105
1.4140984568084254
1.178486490080237
1.0907533996722272
1.0103193710627811
0.8025336606869188
0.5171668906065169
0.3471675611562073
0.4974487299385003
0.9610128672271899
1.5412142074717072
2.1163714541415817
2.616511752442968
3.054864405927531
3.5094915111694975
4.06056988112289
4.805036385550213
5.684906892220884
6.454842891891732
6.915988016754471
7.058517655628534
6.908561233547815
6.4776231073874655
5.88258663674973
5.320488210212188
4.891489558455141
4.5020180682568185
4.026947834186853
3.44448830448828
2.8668813156178325
2.5044877514461126
2.514528747256621
2.944114635173329
3.7157822777354617
4.487805608871285
4.929431668219534
5.035848810028035
4.930408126894638
4.816765056542829
4.7996519228463335
4.769738218290152
4.698008855906505
4.616561506592992
4.454429263777046
4.173437303278302
3.787795601780179
3.2877826348905335
2.645891570644185
1.7600618161038566
0.7068734780821607
-0.32689572769930625
-1.3122492822735006
-2.2630671816654604
-3.192553999272106
-4.038400652825331
-4.801925110662389
-5.649589175380442
-6.685618462043816
-7.897317840568782
-9.264080084182499
-10.734297679460816
-12.194269432623999
-13.499831203433102
-14.553609505033554
-15.441380897350532
-16.24355271138048
-16.866731011395288
-17.21364744186517
-17.313847893202784
-17.31277421452086
-17.36908193769152
-17.583781356162174
-18.016616507697982
-18.660395744552133
-19.444997629650146
-20.29249733318121
-21.09640136765472
-21.775577739194443
-22.256567573288702
-22.456109924304837
-22.376849957149926
-22.119401557550486
-21.854623741422177
-21.730179512569087
-21.820141697435787
-22.08045611040744
-22.42496686258753
-22.827337723793725
-23.197959644789577
-23.37184718414499
-23.203143973542403
-22.652802778017897
-21.813100297292323
-20.823933874043114
-19.79810677235663
-18.820980976536163
-17.956599826884858
-17.14077806382634
-16.19560708201247
-15.041599482305166
-13.733975687699086
-12.347688440541726
-10.9414025930769
-9.51785788134858
-8.10097824064715
-6.764205457985016
-5.465494323559051
-4.146978710911211
-2.8661514043184875
-1.6444323078501781
-0.4127928312243975
0.8853370995340717
2.211236256140206
3.433463621234793
4.478621996636937
5.352128292266505
6.011859833966716
6.441927483384926
6.692886326995763
6.899139425592231
7.127442054113777
7.199782012452712
7.068137314839975
6.860083379500335
6.63122732228687
6.375480988882275
6.026839271779826
5.6529844236582045
5.448214487031996
5.46477735494937
5.671660035724742
6.0781093031295335
6.611939872670273
7.15477000714203
7.624726963022778
8.006993565066663
8.374951420712165
8.719532128846241
9.032861492998181
9.389751672100084
9.823570647351385
10.325395556144183
10.872760666912733
11.442889759454468
11.940527396571962
12.226580575338877
12.27000589252041
12.107347842312047
11.774587938347564
11.337103414494061
10.854573474267639
10.451739856306846
10.245042132776454
10.10328494239121
9.864377079994895
9.522219595442726
9.058997000302295
8.500514204824155
7.9369367181677255
7.429013580242189
6.993919022896617
6.572782463749168
6.194137402262044
5.9242944690814685
5.747692124106334
5.661442104164116
5.605471752310592
5.526790359510998
5.440642688196031
5.303439019596903
5.100631132450434
4.952042639913647
4.929847309178742
5.039559912089178
5.278650156969788
5.604797104572239
5.998562287507476
6.4003096056740745
6.704368546154315
6.79483242230573
6.652775777369217
6.403976192467883
6.0730912278835705
5.589974332095208
5.0331765140521405
4.477157267040233
3.8458411586341583
3.174566837240596
2.569681476871627
2.1705292495038107
2.067210536028046
2.118372925718422
2.2295767645239724
2.403249025319525
2.6489797810470765
2.926256395554787
3.134910508429025
3.2801958443060646
3.3976022390455585
3.4542563745596016
3.3594518231334924
3.072288601885105
2.6547756460692282
2.18443171321979
1.7246303913835392
1.3058189655519403
0.9163351476714486
0.5093333665141107
0.07242995787886274
-0.3605761850605444
-0.7529996094155839
-1.1245721926533765
-1.537608605818269
-1.9450382997289004
-2.250900350783135
-2.437421294209623
-2.51940824288562
-2.5293538350144154
-2.520266131498155
-2.4630780103656984
-2.319979169364171
-2.128427412762965
-1.8663534285319916
-1.5077244004411963
-1.0440631414250312
-0.45112631672518
0.2684435879285538
1.0951160505659379
1.8657557789380999
2.45850832801982
3.0019875203631643
3.611753201788269
4.25102339988754
4.7775703654945465
5.071581482222931
5.16240366565548
5.127683904626521
5.021106480748414
4.92389268421811
4.923445784514711
5.053462420583076
5.182463345473023
5.16981829246172
5.09325738896963
5.021754155826318
4.939227101258875
4.865833269602146
4.822844672949534
4.849335887908481
4.94564794000523
5.039337639820087
5.159415119035469
5.329467935789978
5.410416524479898
5.369352975285692
5.263273050059035
5.05315776757654
4.721084187416085
4.28977999546008
3.8063111913831493
3.256467716206346
2.5684750336842064
1.816975800815456
1.0817230297174583
0.29939252580895964
-0.5578528459165781
-1.451580449808379
-2.3591215778106758
-3.2226103536607345
-3.99438025427327
-4.622082457594752
-5.059791763035324
-5.386370194575203
-5.6374128128813314
-5.8104756036731855
-5.946957204577127
-6.068409703036264
-6.21093279825749
-6.36983339221678
-6.502982341454187
-6.642249657374606
-6.835288227067491
-7.053034504194478
-7.281604177528568
-7.533714930181038
-7.821651991886937
-8.140259617029317
-8.49757278816948
-8.960732765032681
-9.500636076263639
-10.021982241816346
-10.478250271741702
-10.872874726664998
-11.265386295822653
-11.650596630507517
-11.977279592789069
-12.258887693911205
-12.426967921471924
-12.364162600815968
-12.102094021093023
-11.739382792456844
-11.399125559668425
-11.197166792056537
-11.126776687238523
-11.159913716517273
-11.246522076930905
-11.285354968006354
-11.284125471977717
-11.315811790528379
-11.421401467397914
-11.622198419340299
-11.855611556627757
-12.017219343227035
-12.081724276832785
-12.05222791557512
-11.951476186354514
-11.779240048789498
-11.444498974094362
-10.872837432503072
-10.08953270641378
-9.147477726655117
-8.09421464069214
-7.051409926294725
-6.104510234653694
-5.28487765648022
-4.594678741274937
-3.942180554719
-3.234437599346908
-2.3838473092807067
-1.3467349595229645
-0.20139898188078614
0.915968920582661
1.8779750508373991
2.6418113186385086
3.251662341666778
3.769087795370514
4.253914112155819
4.655025854687044
4.872434726869433
4.904324113408395
4.7922245978349665
4.5921647826679575
4.346788177262069
4.1160256555649
3.988493161985649
3.977662454334477
4.004890097570774
4.025434960646346
4.0365937437815065
4.018014095042411
3.9223168377452433
3.70089083931161
3.4247989472246796
3.151297193769297
2.833433261525873
2.5024392940350784
2.216917547030352
1.953817414598189
1.6907156566683563
1.4051177436922317
1.0844159067529353
0.7652793629670412
0.42259193192713623
0.0184340061259908
-0.3813286841442158
-0.6752027520198308
-0.834719683859167
-0.8928960723753477
-0.879227032814532
-0.8472647171691571
-0.8623000908650562
-0.970764684959145
-1.1580345379044525
-1.4074546592858264
-1.7392995463009013
-2.08389192057413
-2.3332093897593036
-2.4420934292299794
