AAD_Filtered_TADAS_FILE
AAD_BASELINE_CORRECTION: BASELINE REMOVED
AAD_FILTER_TYPE: BUTTERWORTH
AAD_FILTER_ORDER: 1
AAD_LOW_CUT_FREQUENCY_HZ: 0.025
AAD_HIGH_CUT_FREQUENCY_HZ: 40.0
EVENT_NAME: 202302060117
EVENT_ID: 13194
EVENT_DATE_YYYYMMDD: 2023/02/06
EVENT_TIME_HHMMSS: 01:17:32.00000
EVENT_LATITUDE_DEGREE: 37.288
EVENT_LONGITUDE_DEGREE: 37.043
EVENT_DEPTH_KM: 8.6
HYPOCENTER_REFERENCE: AFAD
MAGNITUDE_W: 7.7
MAGNITUDE_W_REFERENCE: AFAD
MAGNITUDE_L: 
MAGNITUDE_L_REFERENCE: 
FOCAL_MECHANISM: 
NETWORK: TK
STATION_CODE: 3142
STATION_NAME: 
STATION_LATITUDE_DEGREE: 36.49797
STATION_LONGITUDE_DEGREE: 36.36612
STATION_ELEVATION_M: 139.0
LOCATION: Kahramanmaras_Pazarck_Turkiye
SENSOR_DEPTH_M: 
VS30_M/S: 539
SITE_CLASSIFICATION_EC8: B
MORPHOLOGIC_CLASSIFICATION: 
EPICENTRAL_DISTANCE_KM: 106.49
EARTHQUAKE_BACKAZIMUTH_DEGREE: 
DATE_TIME_FIRST_SAMPLE_YYYYMMDD_HHMMSS: 2023/02/06 01:17:30.4077320
DATE_TIME_FIRST_SAMPLE_PRECISION: millisecond
SAMPLING_INTERVAL_S: 0.01
NDATA: 12501
DURATION_S: 
STREAM: HNN
UNITS: cm/s^2
INSTRUMENT: sensor = GMS+/GEOSIG | digitizer = 
INSTRUMENT_ANALOG/DIGITAL: 
INSTRUMENTAL_FREQUENCY_HZ: 
INSTRUMENTAL_DAMPING: 
FULL_SCALE_G: 
N_BIT_DIGITAL_CONVERTER: 
PGA_CM/S^2: 646.630
TIME_PGA_S: 
BASELINE_CORRECTION: BASELINE REMOVED
FILTER_TYPE: BUTTERWORTH
FILTER_ORDER: 
LOW_CUT_FREQUENCY_HZ: 
HIGH_CUT_FREQUENCY_HZ: 
LATE/NORMAL_TRIGGERED: 
DATABASE_VERSION: 
HEADER_FORMAT: DYNA 1.2
DATA_TYPE: Acceleration
PROCESSING: Automatic Paolucci et al., 2011
DATA_TIMESTAMP_YYYYMMDD_HHMMSS: 
DATA_LICENSE: U (unknown license)
DATA_CITATION: Turkish Accelerometric Archive v 1.0 - Disaster And Emergency Management Presidency, Earthquake Department
DATA_CREATOR: AFAD
ORIGINAL_DATA_MEDIATOR_CITATION: : AFAD - Disaster And Emergency Management Presidency
ORIGINAL_DATA_MEDIATOR: AFAD PROCESS SERVICE
ORIGINAL_DATA_CREATOR_CITATION: AFAD PROCESS SERVICE
ORIGINAL_DATA_CREATOR: network: TK
USER1: GuestUser
USER2: 
USER3: 
USER4: 
[...]
-68.25791099312173
-29.69808035453624
7.304303347471216
18.5637363829839
-1.586328952119735
-50.06283376749
-53.525504049690745
-10.657996843649798
6.900682253642019
-2.8868321804708343
-9.605073868257117
1.5528187830483244
5.119732428783014
-16.083267762243068
-7.622089620105396
22.35881001370599
34.02710383392555
38.55163755598339
14.737049815863854
-6.315928715048206
19.70716553317062
51.527601871499286
44.28030901446053
-11.77714508113046
-51.53108539705225
-33.94510229407743
-14.559851610759395
-33.87726718436944
-49.53303768519835
-16.940708811144333
8.127676132180119
5.897397266840236
-1.053341528084095
-21.446622631486402
-38.80507219757687
-34.68628335065686
-7.451252782488764
3.0605063984481045
9.94964196512166
38.73486421399136
32.12033506524811
-3.3834123251850157
-21.497428005610278
-0.7060345426246278
41.301927197752455
60.30000857985912
44.05059701023752
5.818346321363448
-9.141444353113107
1.6016203198933836
17.157988016425485
27.019157477785836
29.80948349310798
40.41176263829383
28.056823178176696
-3.338949771991755
-30.21605468736785
-12.54893236689076
50.21343613628655
68.49134073300863
43.339260838958026
9.393265477293415
-18.056570999632417
-17.30343392939539
7.050193720469586
19.285018537498573
7.955678717692742
38.057985346190904
86.34745149230956
52.36162068806595
-31.247097936402046
-51.108738850520496
-22.850067168817933
-16.959334935211693
4.7678909703993035
43.387335797892085
38.192861555988564
-9.853278368048809
-30.695630918416335
13.56413480154077
16.101373865143167
-12.484913869138907
37.36479429786253
63.345567660010325
21.77042150714352
-3.7278528852141632
-37.88724237155905
-62.77448816446831
2.980358937244801
90.18898948797546
107.45834773010937
73.50884604974182
23.687282239653776
4.994776648032848
3.554038956515887
18.3401268620073
73.06542691459639
72.52209543775113
11.017193390812656
-30.28193276248102
-60.05603560177845
-72.76683519965275
-6.3501882648466
83.89135641646902
61.52418930318618
-7.669294730926066
-43.6205217856111
-68.45565671799942
-40.51728985906484
34.60580390177983
104.15419622628565
93.9744995417161
-6.8564396421608516
-92.51997460264128
-96.66503430143796
-60.41523167022595
-27.916384589524494
49.41295778550692
82.82015454658102
7.7173648352380875
-57.299186342934945
-61.64959493056091
-12.771135784288166
-16.26417209978082
-30.533563685391364
16.468371151324774
5.235854957547992
-13.862099782928711
18.518318747017652
74.43290972762999
110.1860351842909
95.31989091275854
67.44290901965964
24.790502811397044
25.282658624742247
45.59027318706315
-0.8557866495650392
-7.55082190141001
10.78002713374931
-51.69198871795805
-99.32653159714283
-101.36403629550085
-71.31854244907039
1.511268395876751
46.30339259867759
96.04095870911779
142.20795441354855
82.52900964879342
4.743464582028425
4.694531094670155
28.076638647452253
39.72584570146095
63.88570094373281
116.31738876216805
111.00828027802262
-6.806351851592268
-131.61753723243498
-175.77514918703952
-165.7603913680922
-140.265071873381
-91.59837099760917
-86.89346549748697
-148.19891426613665
-178.29951862011836
-190.44371478041396
-169.83700542251674
-93.48986117032821
-95.60289814388723
-142.04240681582408
-127.19639712688897
-122.59648054367628
-109.96785205408912
-54.39166875051337
-22.68289080033123
-21.35598077207625
4.478682730750984
65.69505978582761
79.21277795321241
40.27611750872455
42.72794905493591
78.91798021089073
104.92504606758904
163.6392286879035
151.3161899555438
-4.4387241671677895
-54.53372883253623
60.229580673044495
158.59394692098306
139.29061832824794
55.2549345024862
-35.39933580181104
-122.67142461806935
-11.538176672917132
223.34737170084358
308.8237109179371
199.80653818100578
40.09866694508913
16.98992304554804
14.323802709051296
-11.394882589106341
1.5603451463367763
10.909884895151743
33.20429010757989
57.78617341166531
88.04950203440285
64.87165364252014
32.97562886720568
86.06634723245293
58.425085446966804
-64.6173136434539
-142.6048693462769
-240.78872352424477
-256.5207118373131
-145.87863167598778
-96.94532456359957
-41.40110108990827
17.59174137941832
79.73574068635719
146.45493519554543
127.9500315216667
146.6628835337028
174.15776776957236
184.77193100248476
201.22367043157536
193.35617346866036
230.33014864996838
200.30002557274128
53.131968885285474
-90.5301045069174
-174.0203745698753
-188.79620042521074
-123.16500880026865
8.334838418568337
93.86491409075005
125.00313998262259
95.06931193837734
-34.345092578060815
-193.31286284297326
-252.5181324233758
-119.1782268910015
14.355802818432938
21.527782878056
-57.383517624842895
-187.40252834271985
-222.8758404267042
-190.6395007133048
-92.19138260108096
59.63472848169009
78.29088961434607
51.857730838979634
-1.1658574281443879
-103.01553939548565
-104.95160879115357
-95.55584462400435
-82.1843193796415
-6.512141271100921
2.96057075225166
-46.15979949707896
-43.16703099025612
8.690349186192599
-22.962271577853127
-166.84335083230906
-239.76871017281456
-166.64376587249134
-22.03679234685015
76.1235587213779
60.55399012073073
-13.74477235131884
-62.0592970783194
34.689952860103965
183.24736947650084
286.00994478624784
377.0361482009958
442.0110491333812
443.54553925199144
98.46138085654371
-295.7336197285542
-264.31460809034667
-197.92639050693043
-157.4633767455749
-10.319442775514737
-8.831367969857807
-150.61625729350243
-254.69676877855326
-209.3875233150568
-63.06709816965585
122.05890629707943
284.94339016708386
317.7973961291932
315.92270571735656
257.93229456222537
54.53353372316004
-25.34309544685133
66.38931716694584
110.19170125980264
123.34099900047723
106.93318285740055
84.83310455663774
98.01797911280985
63.45308945731759
-25.287212061052216
-145.82880258001046
-203.74623601488304
-116.25416809941117
-3.091491084595322
35.447021124928526
21.780350403272156
-53.516467024859686
-175.9759164512149
-264.3981544166758
-307.4232749349756
-291.4401072485299
-147.47097085067782
-6.470509213169561
-51.14181974949221
-106.28875462643104
-71.5016716182063
-28.733396861263227
75.83247629055901
171.97515254741677
239.183927535502
318.3326011935097
286.82916393005223
211.3648141483005
218.47043338138718
220.48561793839608
219.8853745757122
233.42092756741803
187.36130815756636
115.23234212697109
-29.11738410169419
-108.49207503264888
42.15929227268038
107.1184226673205
131.83788697173526
162.66788148199385
-58.66723764252141
-211.87005778659085
-221.35515184481147
-230.77398733069873
-130.37181990789304
-33.01629193822891
16.72233476438799
66.13846706182437
130.74644146003834
156.51250564123185
92.22798234507741
-17.238408941804096
-82.14611714178957
45.18943709629904
221.67991295365093
306.9444475918699
350.66963342890114
259.26999870962584
27.22586092131944
-193.26337319436757
-221.95639886115353
-73.47767163079328
-68.6436892592312
-302.167275001721
-341.63724554555847
-234.96673783523727
-354.10060261902055
-352.8687229274316
-254.76610591340727
-296.1858120004983
-258.3468518295072
-219.58146498253163
-215.09513478737443
-163.48299597946678
-122.0793498359345
-181.06526625528062
-353.2727318267043
-457.2886918574998
-436.6875579280732
-351.0804352475633
-181.81676752062398
-63.71988399918234
-100.99340955561082
-123.28806163767861
-119.07706977930822
-83.30309726549943
63.794205326491856
175.7742638472944
175.6930038684997
83.60850531435048
1.4376608470901244
-2.2449300415345075
-12.03165415160286
-19.45671890221387
21.17321590490019
85.17555192737186
156.23646125514526
265.0996960988614
369.950082680688
407.7813446079027
410.44201430291054
439.1988224249949
503.5256551997696
585.000304583517
595.1855421655413
439.3133964617199
296.44962213135005
45.42769323083719
-347.1885104767023
-316.96063050677765
-111.93404103706351
-93.74168516041806
73.94782213186957
273.7668502593124
285.7163565395225
275.0550581438469
338.4431525095665
327.54642977008126
236.26994822088238
228.0031466948604
230.0349578375918
178.03934225143604
118.72926259672928
36.984604162180226
-59.42470168959162
-112.51589115397334
-123.51369925786229
-124.66005967686746
-124.8859115838099
-155.69058593023757
-208.8186675174063
-312.2800761646675
-406.55907641375404
-407.19557102492524
-418.57569402390266
-390.89719496912926
-320.08329752214325
-317.82693677841576
-320.3197194232149
-366.5386099851938
-422.1565774097368
-379.52396256937357
-311.8264211050359
-206.56788697931708
-131.39053487915416
-143.48946431579617
-143.75068225626472
-170.57905826447285
-172.47709915921234
-108.80621891409571
-29.18514677103898
85.59211313291662
162.2179098221613
194.93627870925872
191.91718712220248
107.90004487383473
36.057665925019045
48.781530418934416
94.37492344520129
125.1030658244314
104.03040972945978
22.117034490931665
-42.88104960643377
-85.6404129236786
-127.12423801417326
-111.07022200294304
-58.544950476658734
18.00009087943912
107.64771628584886
151.26353728194997
184.28166430530737
234.22232798078082
275.06759741842683
317.0948315104674
330.52478458263107
237.82181358063235
101.70361990256689
16.262206633021712
-61.24520500245504
-103.77976388918962
-73.86205163181178
-34.79602092247691
-23.808115320246884
-52.89490391875625
-88.03876274506037
-84.99359813098647
-77.36280004297107
-102.70155090551592
-118.35114033425404
-89.83083891802863
-80.8872086360597
-114.3728736196307
-156.33080996775058
-213.99706234152836
-264.4602536138992
-279.61790319924785
-275.319043800439
-306.950333612725
-297.08536781819976
-80.81579776329092
162.9356262167716
258.32233195989613
282.06740782197244
215.4721317543937
35.51480864905971
-182.08839008565442
-220.46445308960023
-111.87829089297875
-92.67264758684017
-102.06399904021414
-176.5152025594772
-247.81273808119005
-173.7830892408338
-105.45246684647515
-30.859793958463385
61.23668355313287
120.54444073300655
207.16837085253397
295.63108191502147
341.6487379049215
362.17154166282853
316.5832469651487
120.33386092513224
-134.7396934995313
-240.204535540755
-198.86069047555355
-189.2145947401234
-159.24676280068627
-107.77183354940007
-192.99683281471957
-239.20001117372408
-192.64629687542202
-135.39102183111535
13.24842234178288
138.7702936767586
188.87078758251195
238.3855375574503
262.77857529529655
272.2830809982671
278.7144100571016
231.52770708849235
129.69327469912272
41.32988677815159
-2.9547255668550148
3.6360748391231925
19.714082058317114
5.565446786374273
-28.761218955981647
-76.59149035536245
-89.85410283416616
-101.48512974046412
-112.59653363134507
-49.14660034530227
20.246043195095837
69.41678052219596
95.13940524146314
81.65470790274
74.24365937478558
52.61987339891262
54.360688594423195
114.1259089748366
172.1338353541758
179.0500701142456
105.85089712813743
44.63354820137358
78.8611754625985
138.90797078604922
187.33222239130276
228.45806602330626
247.57849777638614
252.30564569806094
211.6783586050745
150.93898756013766
132.63034290248487
102.23725320795147
75.20034892813935
70.59978794146639
25.404788451035284
-3.6451705838108204
5.042080550441409
8.73873456124137
32.485400546732
64.52993288969024
63.601154222840776
60.967047296677364
64.4445233301338
19.928125844843883
-32.846394884531186
-82.52301796126254
-108.53591576028126
-53.043910984381974
18.223723162185998
78.827453611152
80.95827066116813
5.685298731743276
-66.66778096599978
-111.12018064567789
-94.56493429988996
-36.756593628191396
15.391352644162321
59.277002053245255
52.814957433100126
32.958725481542885
26.05318836919455
-23.09434301313885
-43.276837141048425
-56.236166835790364
-85.68487438902707
-72.28473652345637
-80.43538981698148
-102.28278818460791
-151.8037397195857
-186.74184605207333
-150.62134049273058
-121.41757093891832
-22.862185700882648
92.2955113619109
66.27062786257042
35.940584400631906
61.9989185255754
60.908772675261936
55.3549224882357
76.17220948674824
145.762443957589
200.35543856800925
230.29416760448171
299.6436866384694
341.56485243133756
358.2732387276716
365.1498386015873
325.21148841918034
334.55100528269304
389.15894754463085
349.79993283922926
304.4652274988656
338.498370567362
327.0041062977383
226.953557680362
74.71006604825335
-40.144524915908725
-56.89798367242683
-61.64590121036578
-33.53776634086727
54.87203585528791
92.67900151043409
64.86316826299931
27.5349889651097
15.86314050164831
51.51770423770375
114.49906071436695
179.54833149624275
244.2357030887128
264.7501372896971
246.52730107256238
243.26793141056461
221.8929612204767
179.14200604238331
132.12970967668807
70.47398916321887
-6.962712792596997
-130.68128343806438
-260.1005012206171
-323.7986630038057
-366.573433857965
-372.10316087649113
-316.6831549359701
-190.99483618927667
-43.119763525633935
-162.62702138616174
-426.95291668776525
-548.9570458209246
-631.62680659807
-660.294787698263
-622.7291052065344
-580.2368120888063
-473.48317584021675
-334.444159391122
-273.1805766260545
-206.7395605356236
-127.09028074865999
-164.07774617939924
-207.68565404481734
-215.0114557127025
-217.86923490767015
-189.0555232184487
-152.79236912366224
-88.05857909975947
-87.42597870344491
-168.1037194951463
-200.85407371598203
-191.11548350802641
-139.45691105541036
-117.45338153674405
-158.6690312335503
-156.15125130550868
-137.59247423153744
-99.32265334559759
-29.82765080623174
23.523169620085444
39.60894529981106
-18.30186970658703
-64.76908501539734
-33.859345828247456
37.03203207999418
134.3411945928231
221.37164383843265
291.03267233347594
310.8376423751531
243.85289900051907
200.1112443846198
215.65416528274457
234.10759516982233
263.17494910641994
226.21203105691598
102.73799930844298
-25.85914395744722
-141.9485301827097
-209.1717610637591
-268.93652628949445
-280.5932523821356
-142.98172352953515
23.29381688853564
159.09972545990385
222.75683896400534
182.5914318059988
146.64271291842738
117.74190559637739
113.27105777451888
144.63796278147368
171.01438309181168
238.52757396886426
179.53676311108185
-107.51694611261216
-367.9988167647822
-412.3963636749856
-249.82956962543182
-76.27120205927586
50.17476803009652
131.85176295827642
89.40179064498582
57.90054614898873
38.40898526887925
23.15047384834922
101.87360249088427
187.1664388501803
236.26346212990987
222.2119258682818
157.15157391851105
128.73890587701757
106.99661540639558
57.176383626872294
57.52528264902591
116.05872906985685
126.86061838227003
78.31068634052494
47.30814296912616
31.914906419901417
-5.568163926126321
-45.22214320070346
-47.084794596516005
-12.334802268229609
-2.7297468288229094
-38.638765252074386
-65.66363597374755
-50.995040484572414
-16.930534475587155
3.6428921781962833
4.844137242397651
-26.11479452883973
-67.75368091669462
-78.65220101658788
-67.28840422692122
-47.698867332500406
-24.885494954071845
-37.21149122148508
-108.68367168681215
-190.94913003332954
-264.40899844191847
-262.70551866182615
-138.33094319562517
10.453003934042012
122.90245556734286
114.7661807271467
12.1761162237741
-51.45623944579257
-71.13076170227171
-9.293678343843952
108.4969818619489
171.76763657538658
143.15646797363482
47.50482281196095
-39.194065692651726
-83.76200531140422
-92.40045152523665
-64.19265265379676
-39.60208386071965
-56.17096411078841
-85.97890376290198
-122.9218532274037
-164.7915073709846
-193.77209610253811
-222.61596248334942
-240.5335160198666
-224.84921427795865
-152.70756163286916
-61.87301258744448
-33.14488350726948
-84.84601179100392
-188.4452171528376
-242.8678449344986
-186.83472534389736
-89.4768151116171
7.424233948570782
39.40223112928438
-45.073370501757104
-189.34685438795984
-316.53855130808194
-287.7844669487193
-141.65659719768567
-28.862547050937813
13.996418612330615
-43.95423947242114
-82.31980562385067
-62.45981025468348
-64.35564584930822
-32.7821380072833
26.46840486616135
54.33690926788355
46.67031154371533
6.179542165566512
-48.44616277223341
-44.41584294461372
-11.316039721301742
-26.1744834226965
-60.1558721574649
-104.11258814842753
-104.93935551005964
-27.45790851212303
67.64973209567675
121.32242963823208
91.31486143208485
12.582058736281713
-74.33360507802827
-102.85023902716567
-14.755189026497813
67.88774743514696
59.315811359502526
30.27816550526593
4.327425237043021
-12.614227377793055
18.53088595313977
34.89546478957759
-5.281027447996825
-63.14750257335044
-114.09821187917684
-99.91573971929475
-17.601825115487205
69.21726745274296
66.72811533292658
-43.85582152548292
-146.01669504946608
-201.54211437480683
-166.85249268021852
-21.44139705859546
84.56510479978326
109.53181019882072
147.80087918088446
189.23617281859035
164.88345383458378
95.44975704607937
72.93945440762346
72.8153783405138
0.8630938708279093
-68.26731473392182
-93.2645558482987
-125.89297318750421
-138.10617902743215
-121.5639472032509
-56.27024081268398
23.125605782481898
65.01530111389368
89.27286946656884
68.66759478426124
35.98941658788094
22.651911897651914
48.75367415805837
86.86565394533544
30.05102722582223
-21.608853097224987
-16.15139809310901
-46.790125636840656
-91.8745169184974
-142.49206151901396
-185.8752498652344
-166.7602692424021
-71.25160468880071
47.279485786765974
103.52525349591248
95.4992160994634
64.34458321932983
29.603116866669584
36.16070294210027
109.19962076909228
160.39636833271337
118.36752062554008
92.8453404391832
121.30742071796676
116.76172292648845
125.62396714746582
174.89270820356202
196.20615249273303
115.70358582799582
-15.504517211065291
-37.357673974050066
8.745647860343732
40.44001061971516
71.51211829698364
67.92575713645574
8.865054823741529
-55.97166222282937
-68.63790138994165
-36.83226580902287
-11.8490336286371
-47.55130276098652
-114.16082184343131
-160.20451574356684
-184.3525762288313
-182.40500682179646
-165.67341404981136
-136.6908925168419
-139.8028939408907
-192.1687612658575
-220.38060880910845
-214.960853433727
-188.92981123092522
-134.27843652707892
-102.8162163331488
-111.23602751498133
-105.6919191567187
-68.82384041683599
-27.072763525348897
-1.9813451375636484
8.300464989578977
-32.742221268476506
-75.77402026918305
-29.212487411849153
17.055874687309405
41.33315284653822
112.24364150973534
145.29240474424896
57.7625608431975
-12.33120121081762
36.143479141925035
59.43946438854499
0.044725760421874504
-66.38892524622007
-118.89343819770748
-159.53666836989467
