AAD_Filtered_TADAS_FILE
AAD_BASELINE_CORRECTION: BASELINE REMOVED
AAD_FILTER_TYPE: BUTTERWORTH
AAD_FILTER_ORDER: 1
AAD_LOW_CUT_FREQUENCY_HZ: 0.025
AAD_HIGH_CUT_FREQUENCY_HZ: 40.0
EVENT_NAME: 202302061024
EVENT_ID: 13207
EVENT_DATE_YYYYMMDD: 2023/02/06
EVENT_TIME_HHMMSS: 10:24:47.00000
EVENT_LATITUDE_DEGREE: 38.089
EVENT_LONGITUDE_DEGREE: 37.239
EVENT_DEPTH_KM: 7.0
HYPOCENTER_REFERENCE: AFAD
MAGNITUDE_W: 7.6
MAGNITUDE_W_REFERENCE: AFAD
MAGNITUDE_L: 
MAGNITUDE_L_REFERENCE: 
FOCAL_MECHANISM: 
NETWORK: TK
STATION_CODE: 6306
STATION_NAME: 
STATION_LATITUDE_DEGREE: 36.727695
STATION_LONGITUDE_DEGREE: 38.947
STATION_ELEVATION_M: 362.0
LOCATION: Kahramanmaras_Elbistan_Turkiye
SENSOR_DEPTH_M: 
VS30_M/S: None
SITE_CLASSIFICATION_EC8: unknown
MORPHOLOGIC_CLASSIFICATION: 
EPICENTRAL_DISTANCE_KM: 213.70
EARTHQUAKE_BACKAZIMUTH_DEGREE: 
DATE_TIME_FIRST_SAMPLE_YYYYMMDD_HHMMSS: 2023/02/06 10:25:03.8427890
DATE_TIME_FIRST_SAMPLE_PRECISION: millisecond
SAMPLING_INTERVAL_S: 0.005
NDATA: 29001
DURATION_S: 
STREAM: HNE
UNITS: cm/s^2
INSTRUMENT: sensor = GEO-A200,/GEObit | digitizer = 
INSTRUMENT_ANALOG/DIGITAL: 
INSTRUMENTAL_FREQUENCY_HZ: 
INSTRUMENTAL_DAMPING: 
FULL_SCALE_G: 
N_BIT_DIGITAL_CONVERTER: 
PGA_CM/S^2: 27.169
TIME_PGA_S: 
BASELINE_CORRECTION: BASELINE REMOVED
FILTER_TYPE: BUTTERWORTH
FILTER_ORDER: 
LOW_CUT_FREQUENCY_HZ: 
HIGH_CUT_FREQUENCY_HZ: 
LATE/NORMAL_TRIGGERED: 
DATABASE_VERSION: 
HEADER_FORMAT: DYNA 1.2
DATA_TYPE: Acceleration
PROCESSING: Automatic Paolucci et al., 2011
DATA_TIMESTAMP_YYYYMMDD_HHMMSS: 
DATA_LICENSE: U (unknown license)
DATA_CITATION: Turkish Accelerometric Archive v 1.0 - Disaster And Emergency Management Presidency, Earthquake Department
DATA_CREATOR: AFAD
ORIGINAL_DATA_MEDIATOR_CITATION: : AFAD - Disaster And Emergency Management Presidency
ORIGINAL_DATA_MEDIATOR: AFAD PROCESS SERVICE
ORIGINAL_DATA_CREATOR_CITATION: AFAD PROCESS SERVICE
ORIGINAL_DATA_CREATOR: network: TK
USER1: GuestUser
USER2: 
USER3: 
USER4: 
[...]
4.05600623396554
3.6195360839424464
3.03456635014626
2.291046686448849
1.4132866223538647
0.46364156538084916
-0.3914402266802872
-1.0310280751165817
-1.4017122840843836
-1.541057259185953
-1.6180187879746137
-1.7675392759685031
-2.040327600894309
-2.3641362680599296
-2.6514654700788016
-2.8625547338703363
-2.9700381164682756
-3.0827210875621147
-3.332415597591377
-3.814061610904928
-4.559444351213046
-5.4754216908304505
-6.493003307710007
-7.477632875715517
-8.244783946995582
-8.75386052529965
-8.998061577584693
-9.037229753016952
-9.07527520057673
-9.287994401479946
-9.722833884684535
-10.288551327442407
-10.849939900962614
-11.333891879882861
-11.709584411882531
-12.02561977151657
-12.405869356134898
-12.908643880758632
-13.480382912252988
-13.996873823458854
-14.309931731720924
-14.330615025862233
-14.038081189795333
-13.484866910664723
-12.833982617236366
-12.257925970053615
-11.823104188039713
-11.507131837800953
-11.2152804052636
-10.81951909759408
-10.29553211063359
-9.71866928877746
-9.219071630978474
-8.875092230788773
-8.593600384025217
-8.255961349447228
-7.824621901298417
-7.352816235415126
-6.885660938383061
-6.4318091667556825
-6.056256319463045
-5.82999660865255
-5.770375737179881
-5.817215676545272
-5.886870483712987
-5.906048201600252
-5.832767705502211
-5.626981655910609
-5.261781360501537
-4.844984264034641
-4.5046005142645
-4.2778071881318365
-4.141521286419106
-4.005876586567117
-3.709352458900027
-3.1474907850974954
-2.342966896881518
-1.3483944495701476
-0.2454278578503265
0.8420629826587919
1.7764566756212328
2.490132358807253
3.018000859666062
3.374711266530781
3.5327986038853223
3.5225047767814863
3.3776803435556535
3.119073944825302
2.8440100001661595
2.6230695004842373
2.4434920279116965
2.2639031353556565
2.03875571089576
1.7176296070193786
1.291235602416379
0.8149759806780726
0.28281269300767553
-0.3375651560873925
-1.024722325098419
-1.7196169904395864
-2.390285810600202
-3.097253676471747
-3.8471229550041697
-4.608911921015059
-5.3436556693983
-5.959722359792042
-6.43651609000676
-6.804727772273582
-7.08150270398942
-7.2771598552674845
-7.427839789027945
-7.561793580724008
-7.709085121145952
-7.862562181017836
-7.97896949619983
-8.12212019593835
-8.314368075770211
-8.523275470564396
-8.7487854366478
-8.957150669107405
-9.11265709746357
-9.194173103948412
-9.237656687977589
-9.318134316151205
-9.488812844373367
-9.804100558215335
-10.31446997867793
-10.898616520758505
-11.329330551134275
-11.537317107196063
-11.476661900712202
-11.143472252686028
-10.622232923299412
-9.977676955759014
-9.282829383596242
-8.522514102285378
-7.715612433174919
-6.984921049043775
-6.387314459369777
-5.921432968453687
-5.582329172693103
-5.295330673103342
-4.9752347785178355
-4.667935441347428
-4.396584583327145
-4.1690339392577025
-4.067839401329056
-4.110913924740518
-4.290759724144787
-4.563453725819325
-4.861265420194979
-5.1445329503707535
-5.37592772597884
-5.508146098613837
-5.4276867801893385
-5.14696217636523
-4.720506428360663
-4.166211824357621
-3.6244397918883666
-3.2436086968419144
-3.1422961878440288
-3.3271912638584347
-3.76580443818813
-4.3799463848711575
-4.989489228865671
-5.486815319535036
-5.813454320303974
-5.989600825282095
-6.078499078034537
-6.165389053145846
-6.332110756596864
-6.620135850862199
-7.092432260903118
-7.706241446666629
-8.347311844847503
-8.93393439028326
-9.42841777686839
-9.821383025406679
-10.072382822804947
-10.16769640011993
-10.105969794141036
-9.817415343871897
-9.256734295306448
-8.431803534093348
-7.314384529348589
-5.92663380858857
-4.3651748704541955
-2.683207131231224
-0.9351095724400265
0.7991873508327593
2.47157898808747
4.040798758169654
5.450125401416541
6.599868478122679
7.425388088641728
7.922858447949182
8.12838505803242
8.156763513365197
8.134351194976068
8.210978193829149
8.47020353253567
8.864485476393595
9.267458290584345
9.510928413540178
9.515669239879065
9.271219590174423
8.812966039794237
8.225698005368768
7.566573478045451
6.845050387056906
6.014915796798119
5.052872325378588
3.983511289903334
2.8251225486144556
1.6341370764852976
0.5078313474309423
-0.4432522429589024
-1.1043922066320015
-1.396289826988633
-1.318774966162144
-0.942770375335424
-0.35650282888532564
0.3526402632143957
1.0800060612549753
1.7036911700025057
2.116713578859301
2.2061748019184972
1.848958830799372
1.0032587609146202
-0.23250794265900357
-1.6469752988966315
-3.0259891092181515
-4.193720908333217
-5.099986627263279
-5.868943590306811
-6.565271923019209
-7.231007091344771
-7.925105215196397
-8.613077349606847
-9.234526294479565
-9.676850013427666
-9.930081982771698
-10.06597102799457
-10.134783725441665
-10.226180293977537
-10.311911921976575
-10.345807949755542
-10.350583686778833
-10.380988886232133
-10.466828861872177
-10.597964519914422
-10.830761996025771
-11.139689932556303
-11.423021155520594
-11.590494713504565
-11.571624286327909
-11.276801500556711
-10.62901795749171
-9.610918781997272
-8.189768383411408
-6.4197483156788016
-4.365046390273952
-2.1513737886431215
0.0763567602145344
2.2742564156160645
4.346279004009713
6.278528652994936
8.070411740243156
9.683499288663809
11.105085735795988
12.251704517831936
13.08264113594894
13.629824665445087
13.931849283579314
14.024715262910444
13.88546075514554
13.452623125938553
12.716426594987125
11.741868133552352
10.602466499849218
9.390671443741507
8.258338875942375
7.274548648934055
6.440218535115541
5.760566233764401
5.263468826616064
5.018305631990926
5.016187575921517
5.218975365602906
5.540992471155404
5.835174273823782
6.057226494527706
6.1843886233854395
6.1576109477058845
6.017408799810687
5.8466140437891845
5.690183268579693
5.610096660297383
5.629168062736652
5.710524350624966
5.804227361038389
5.894981362194031
6.007262230782765
6.151655692074756
6.378814683948924
6.731146515386988
7.178264848467177
7.637559182247749
8.020144816245633
8.318667001242998
8.550915017956687
8.795539826361619
9.118878343876332
9.509914874678314
9.9401759256187
10.31981600564814
10.669075872465429
11.084096754705211
11.585081581151318
12.095499136271785
12.468510437438976
12.576688161723961
12.322633052998821
11.704351582714288
10.821028221147383
9.783905869491322
8.658232522918288
7.493960575373518
6.35349803306257
5.319226807804715
4.458026698627276
3.8349141180530184
3.552277970390912
3.593999002892457
3.8128444496264824
4.105878918475694
4.411630391066996
4.687106478191582
4.97821353986653
5.358343593593093
5.872887367145409
6.524366874300071
7.2884466467238305
8.210441179659837
9.365658279454305
10.68648361340705
11.995071261680403
13.144305925141364
13.988842080752546
14.458954524557951
14.622593882466768
14.53950872217797
14.249329142398821
13.816381173121048
13.195328967973976
12.293012142825381
11.07916543569739
9.610580831840831
8.134210034617963
6.902172285012949
6.058419267979787
5.581740911445794
5.309280578035622
5.165160484274088
5.059993352213508
4.918752530907143
4.813770242290449
4.871538653082879
5.118260338380511
5.501630677730642
6.00264436329581
6.564988420006949
7.116296197254515
7.555247688624194
7.743993736126395
7.595194425032085
7.119971666668957
6.452122264768558
5.782600493387078
5.302139405076963
5.149104557517205
5.301541773505103
5.6358278790866905
6.071813390447475
6.535485843020284
7.0194919291298365
7.575822448315709
8.247828154334135
9.057047113252715
9.91211903626697
10.75125735419138
11.56277264488606
12.276497554873885
12.841871936665159
13.302360818039244
13.753658183419413
14.265558643091806
14.910208872685274
15.696240499641567
16.578086804090223
17.486714537290936
18.27036633391331
18.87884136013283
19.34909232552317
19.707935279679525
20.011426227605067
20.297776641111486
20.64365957844201
21.058596203597318
21.426246462445764
21.624766933798625
21.535225155333787
21.032872600194953
20.080026130594312
18.826186277549866
17.41355812200017
15.938356605009108
14.514453897899923
13.176688023720779
11.973369200768653
10.91530322459052
9.947642846918654
9.005906857388386
8.016818490165189
7.033202062079342
6.160823354971815
5.520537199552574
5.2529376363144
5.389343177462638
5.85143147061495
6.488441958876425
7.082220546428881
7.3897411738724985
7.311713900225702
6.859946788083504
6.077619662179476
5.054892022576387
3.827632220180777
2.450709392337506
0.9663587022020297
-0.6407834374704222
-2.305791747942524
-3.904931949938181
-5.340052690126019
-6.533252546474232
-7.438956568122504
-8.087771146560675
-8.439346744957335
-8.501413236471478
-8.429825964709558
-8.305807166865467
-8.244082384119503
-8.297140344315368
-8.344792764936646
-8.337550098791267
-8.301597475797442
-8.271451641677729
-8.265946793347426
-8.318773327199812
-8.503041892169357
-8.828671038634663
-9.286553419062798
-9.871418726415273
-10.565225823407635
-11.362152670804937
-12.200636830788431
-13.054177487737848
-13.860215516691486
-14.495662157521245
-14.960836432545934
-15.250297785457033
-15.371135015426638
-15.330441662423432
-15.104040445045221
-14.732722323551787
-14.220413747626614
-13.602386405453892
-12.926120446097695
-12.177019521536407
-11.361969275805816
-10.58522908696279
-9.920116633300376
-9.304578701598322
-8.733297115072073
-8.181881482589096
-7.65611844626631
-7.250842885518565
-7.020709523704289
-6.960770946553323
-6.937299753295286
-6.8443778159328374
-6.62132462149019
-6.286521265164677
-5.95607106472514
-5.685451279510577
-5.499044059954179
-5.33382247625068
-5.1470330369183035
-4.933121824634733
-4.644548625439761
-4.352544867391128
-4.141639670906961
-4.039681849021037
-4.101324660109224
-4.317030406190242
-4.662164158692101
-5.145751072975253
-5.690247889909266
-6.25148780836512
-6.826854395099584
-7.372897753617503
-7.91089622684549
-8.374647063244721
-8.660555279037931
-8.75886577849774
-8.618695251732358
-8.216411363418713
-7.604606119278552
-6.874047597354604
-6.170453083894763
-5.629894053131514
-5.307617404357431
-5.169861305932047
-5.045491177919009
-4.744677219289035
-4.1132937159341765
-3.080813680616511
-1.8309010820384082
-0.4997329096122112
0.8958078926883251
2.2844259230732145
3.5899936035604596
4.780395764437708
5.862470843906895
6.781503354832317
7.496098427971651
7.92870848349122
8.058888023290594
7.958124294922079
7.672823783219495
7.347625039499118
7.072252319707742
6.857248995283687
6.6603532870100945
6.372679394834733
5.941322450797432
5.401339783282684
4.898699863596949
4.601108202944751
4.69287223610879
5.278394948274313
6.2561810156029996
7.50467384191138
8.883865562065889
10.18373488419779
11.256286897439493
12.06279085465823
12.63653544593816
12.957414741850174
13.006244876927758
12.812247617403674
12.369483403088902
11.732880497525663
11.044896671465809
10.447885544529262
9.959976439177495
9.55109453409784
9.220543235180756
8.879352455915928
8.463942745821608
7.983560859823348
7.449108159780827
6.911812348383068
6.399076455257054
5.8535809024251195
5.213637465316495
4.4382167553954615
3.5224026177607524
2.490867696433754
1.3700491347244528
0.2109937964503717
-0.998494264010852
-2.2698496559200207
-3.5512995862939984
-4.80220566851299
-6.03247435593876
-7.26091091686762
-8.509208124989192
-9.883659024107187
-11.360807797617484
-12.856097555539556
-14.30630043549819
-15.573035853147191
-16.604055905916375
-17.358658664864183
-17.872225596390706
-18.201736259501637
-18.325930915326797
-18.281321239674
-18.035712685568527
-17.55019750107845
-16.850989484733226
-15.974096540900936
-14.957384749688455
-13.851356602845875
-12.658419191493543
-11.304930448612222
-9.863346036040186
-8.418129195211693
-6.990259372597211
-5.638632775899746
-4.385145735665103
-3.2459522970763484
-2.2363607850085505
-1.3601770008983125
-0.6153266044784235
-0.04250526785492828
0.3550633299587937
0.593638313275637
0.657516214796152
0.5872362612057911
0.42464869069808164
0.2554090711450007
0.1494380047135387
0.11133569248189508
0.16488287037099877
0.3563650216653751
0.7038237428510736
1.0801655868058704
1.3255084099451473
1.3536688204454614
1.1400926177767678
0.7219881295438473
0.1610020157272244
-0.4391039889098177
-0.9795399386162648
-1.4163967476388728
-1.7734923290568163
-2.0692672780023433
-2.2701625603370386
-2.3544047478729984
-2.290549506330825
-2.0699012696447623
-1.6933465734553115
-1.1384310073898243
-0.44114637380057864
0.40067035510033294
1.4422206680816398
2.6668562538978247
4.053310640090525
5.60775344496639
7.26751967180791
9.014330013978011
10.871656995855272
12.679389270974365
14.315042572264296
15.787864284776433
17.101351185200564
18.30506482743228
19.42040604112514
20.44611143440397
21.39990590801706
22.283422178125917
23.11002364998789
23.945320412422173
24.78238419609187
25.519257969993582
26.131675012976647
26.57722583805019
26.75322008950663
26.635098867424635
26.181713915788393
25.345534393022856
24.15074948992113
22.575255557867486
20.67487665411705
18.61518573764057
16.57587092011566
14.699894045855046
13.014846376449707
11.551347184827026
10.290636259992652
9.200044066346601
8.314426551387555
7.609357188614712
7.073213682950755
6.605498880781256
6.034665274850676
5.3599453127455785
4.6206853573031
3.9000171083024724
3.2600298234833196
2.6986131811637
2.268679782284156
1.9025246432974618
1.5461776669255265
1.2188926471749135
0.9012204307090038
0.5495806343615124
0.06138760386380344
-0.5467341660686151
-1.2335922495400913
-1.998817807584784
-2.7919830385776416
-3.7132443750873967
-4.83335280410829
-6.0831856695165545
-7.371869983963232
-8.537239238582602
-9.43050652914314
-9.877788832137162
-9.82296439560058
-9.356136420340993
-8.528168262991354
-7.456458892527137
-6.259629187448914
-5.026453193649637
-3.8608507564186585
-2.825233558555014
-1.955917991216807
-1.2924605046678872
-0.8508362658275611
-0.5824426912256847
-0.4581386823336873
-0.4931125510348508
-0.6513836999382825
-0.8857908214663455
-1.10329828765531
-1.1498964502039772
-1.0112656630172698
-0.7166123525074037
-0.31573328593303707
0.04349329190632652
0.244418390742538
0.2167582125909014
-0.048660299588211664
-0.48854520250861416
-0.970064521158039
-1.353271357092288
-1.501458193132386
-1.335369040322081
-0.9198482664083614
-0.347163228975803
0.30440650103725664
0.9546234645930542
1.5553338853616288
2.089947943265015
2.501181039367889
2.699309690968829
2.6510942654490006
2.322528322724612
1.6923267999814988
0.8370188860422039
-0.14345525495029274
-1.116018195769725
-1.9438066214399303
-2.5532897814255446
-2.9662187351792233
-3.3222204805667968
-3.7322537055375857
-4.251629323886564
-4.868119239496903
-5.526629551699877
-6.1765932944422826
-6.80237275179993
-7.410024040782929
-7.888549691487061
-8.166853556317957
-8.183726791584368
-7.896692961323972
-7.473145396951868
-7.065865984220151
-6.761370450918953
-6.589641783567634
-6.423959828737758
-6.146392643219682
-5.736917188718179
-5.234438830859607
-4.748308213262118
-4.407724052599434
-4.356344540812415
-4.683613194072857
-5.355222321193838
-6.220179177039
-7.088638593871101
-7.851867399348815
-8.387665731123366
-8.694614253595613
-8.876255196135197
-8.929061884287856
-8.802218942891935
-8.36200505689831
-7.633483218003639
-6.779140321371976
-5.8856876531032
-5.092725282301057
-4.509609444671312
-4.223173252383581
-4.253721463495677
-4.473870388146731
-4.754225894245004
-5.13132538073042
-5.663955044327687
-6.2497598637069345
-6.829153295864917
-7.332659762313255
-7.625680632448246
-7.712351113825191
-7.658178220856127
-7.450070862544999
-7.110498608149543
-6.669719583114819
-6.142595623560031
-5.56137117400168
-4.885094310559337
-4.122031029976272
-3.3203893969827134
-2.5376030061980828
-1.8495386827772053
-1.3432865341081326
-1.1193773205234914
-1.1144756973777596
-1.2359742853601532
-1.493556218710362
-1.9018617610984085
-2.4669399395211737
-3.1445024088990197
-3.8545252679284547
-4.523806820398372
-5.130007503306486
-5.669010385611908
-6.066360020999094
-6.276799459680876
-6.306206800137017
-6.182386476228415
-5.936663570167757
-5.60435920330398
-5.287928770967875
-5.003772693792527
-4.780232017287426
-4.703252334611932
-4.758078587365768
-4.884426523238546
-4.999317281514891
-5.0886885313918615
-5.120154392792112
-5.020116311642866
-4.769137736310779
-4.347452815176056
-3.767115356045744
-3.073687484464923
-2.340508856934453
-1.6995993909896319
-1.2458993408968229
-0.9219831535554149
-0.7208784872842576
-0.6121022781014889
-0.38400602506034753
0.0330625263604695
0.6167293691272399
1.4173979534195875
2.3737639906420775
3.302488856908189
4.099417092467667
4.730287564810211
5.171012021079928
5.443701154920751
5.51034116051533
5.3021464243332375
4.800413136852658
4.004871830157058
2.9941307893149527
1.921917138139306
0.9433457964460688
0.18156194731287328
-0.321452714787317
-0.6022211474947174
-0.7508347958171311
-0.8098649911498369
-0.7660437126150597
-0.650156160117076
-0.49270699170205046
-0.3908587861435514
-0.449197722763951
-0.6857179240972747
-1.0901358736922713
-1.6129479391794506
-2.2174317327467072
-2.841986180526102
-3.376191007675315
-3.7130521757502226
-3.768946051842451
-3.5069813352154258
-2.988045115055796
-2.318863873403808
-1.553303587805232
-0.7473006312781598
0.050607737842353215
0.8148728142241417
1.5411658207920804
2.2466930014434237
2.863801472071408
3.28007902443098
3.474328248843197
3.4940787901094734
3.424422139627423
3.354762672099916
3.3618008174101264
3.460507785082892
3.5750450491741796
3.6846343905283754
3.7977232126633673
3.87165286602943
3.8543418935680474
3.742483315635472
3.511347474316414
3.087850935219936
2.422962628673672
1.4613961026483864
0.317734556002279
-0.812117516796531
-1.8799046793284615
-2.8692958283860013
-3.7692484562540005
-4.627495706318163
-5.474021105994021
-6.24708220631114
-6.940961909829378
-7.544194851256766
-8.026425452789816
-8.410480380237054
-8.658703921559228
-8.769614512884527
-8.688890039368582
-8.392049066463391
-7.938576806620577
-7.298416851276802
-6.508959810500773
-5.6458323633280925
-4.73112258075951
-3.738982484628754
-2.679189147442631
-1.6199109038157156
-0.675813493161607
-0.05288763008182788
0.10081710744524199
-0.26916556139616493
-1.072280872840659
-2.1005189956044124
-3.1728904300328287
-4.1932867398332085
-5.085165357774201
-5.748366059308936
