AAD_Filtered_TADAS_FILE
AAD_BASELINE_CORRECTION: BASELINE REMOVED
AAD_FILTER_TYPE: BUTTERWORTH
AAD_FILTER_ORDER: 1
AAD_LOW_CUT_FREQUENCY_HZ: 0.025
AAD_HIGH_CUT_FREQUENCY_HZ: 40.0
EVENT_NAME: 202302061024
EVENT_ID: 13207
EVENT_DATE_YYYYMMDD: 2023/02/06
EVENT_TIME_HHMMSS: 10:24:47.00000
EVENT_LATITUDE_DEGREE: 38.089
EVENT_LONGITUDE_DEGREE: 37.239
EVENT_DEPTH_KM: 7.0
HYPOCENTER_REFERENCE: AFAD
MAGNITUDE_W: 7.6
MAGNITUDE_W_REFERENCE: AFAD
MAGNITUDE_L: 
MAGNITUDE_L_REFERENCE: 
FOCAL_MECHANISM: 
NETWORK: TK
STATION_CODE: 0205
STATION_NAME: 
STATION_LATITUDE_DEGREE: 37.79177
STATION_LONGITUDE_DEGREE: 38.61597
STATION_ELEVATION_M: 723.0
LOCATION: Kahramanmaras_Elbistan_Turkiye
SENSOR_DEPTH_M: 
VS30_M/S: 660
SITE_CLASSIFICATION_EC8: B
MORPHOLOGIC_CLASSIFICATION: 
EPICENTRAL_DISTANCE_KM: 125.19
EARTHQUAKE_BACKAZIMUTH_DEGREE: 
DATE_TIME_FIRST_SAMPLE_YYYYMMDD_HHMMSS: 2023/02/06 10:24:48.6063430
DATE_TIME_FIRST_SAMPLE_PRECISION: millisecond
SAMPLING_INTERVAL_S: 0.01
NDATA: 12501
DURATION_S: 
STREAM: HNZ
UNITS: cm/s^2
INSTRUMENT: sensor = CMG-5T/GURALP | digitizer = 
INSTRUMENT_ANALOG/DIGITAL: 
INSTRUMENTAL_FREQUENCY_HZ: 
INSTRUMENTAL_DAMPING: 
FULL_SCALE_G: 
N_BIT_DIGITAL_CONVERTER: 
PGA_CM/S^2: 32.936
TIME_PGA_S: 
BASELINE_CORRECTION: BASELINE REMOVED
FILTER_TYPE: BUTTERWORTH
FILTER_ORDER: 
LOW_CUT_FREQUENCY_HZ: 
HIGH_CUT_FREQUENCY_HZ: 
LATE/NORMAL_TRIGGERED: 
DATABASE_VERSION: 
HEADER_FORMAT: DYNA 1.2
DATA_TYPE: Acceleration
PROCESSING: Automatic Paolucci et al., 2011
DATA_TIMESTAMP_YYYYMMDD_HHMMSS: 
DATA_LICENSE: U (unknown license)
DATA_CITATION: Turkish Accelerometric Archive v 1.0 - Disaster And Emergency Management Presidency, Earthquake Department
DATA_CREATOR: AFAD
ORIGINAL_DATA_MEDIATOR_CITATION: : AFAD - Disaster And Emergency Management Presidency
ORIGINAL_DATA_MEDIATOR: AFAD PROCESS SERVICE
ORIGINAL_DATA_CREATOR_CITATION: AFAD PROCESS SERVICE
ORIGINAL_DATA_CREATOR: network: TK
USER1: GuestUser
USER2: 
USER3: 
USER4: 
[...]
12.288330579142
13.40938995378817
15.551654037360258
19.27679604131926
22.667168295155903
23.97386675899915
23.92559031986258
22.8416641096545
21.883136794529058
22.239535657260358
24.074554028023638
27.129243782420826
28.600302157062856
26.723731828329523
23.795279016893485
21.790205117629608
19.5272806867196
15.163893246220649
9.76304250056635
6.328574095484319
4.4462693664116575
0.8147274521378265
-4.3294534521774555
-8.472319805885453
-10.034473509841733
-8.904306545594972
-8.487232887150835
-9.815554656330653
-9.261982938817251
-5.988047871436684
-2.9050460014526522
-2.0359275679789026
-1.7189816752042262
-1.205854943410486
-1.9441368779503905
-3.310056443223231
-3.765309509889454
-3.2392131602231164
-2.174578718082742
-0.4774097951081646
1.2506846000953886
3.507740787616396
7.158652433797475
10.38550512966577
11.70955958305745
11.428275648823409
10.755109317409127
9.955339864216397
7.894993148669263
5.5606143132285775
4.551385429948416
4.794930297876153
6.27951037271698
9.161794296147296
12.285660795110163
12.169335430166846
8.029487414850301
3.8537900448234406
1.798461276038569
0.809882951549791
-0.27834945213277296
-0.4990755879795349
0.9057261049803591
2.8024800905657314
3.6528653213237368
2.9528580568930374
1.787268561009017
0.7789837910336079
0.5266068650682895
1.0892417718373593
1.425429053722997
2.311762425807894
4.8120683481506745
7.193277390734754
7.492297045247561
5.78652815777443
3.1847407718363794
1.7093799260477294
2.303597059127163
3.4639912654167757
5.040836090913118
6.913594702258482
8.296193953849574
9.217421277976358
10.05910989262644
12.037289970197385
14.474490452788697
14.708044425127953
13.175159036876865
11.998240850249031
11.408004638524556
13.143988995529195
17.125610694626598
19.185488110862224
17.713783158873714
16.176906456672448
16.4114989599707
15.152199359054139
10.697100421845656
5.406802634315709
2.3359129082640653
1.4044077690458592
1.4784552921348248
2.3382209585505622
3.043759016407603
4.217439697969803
6.113462405838321
6.983388697878798
6.888570130974546
7.309956391741996
8.086626739243169
8.336616198318719
7.401310689880418
5.589082257951624
5.113467351891002
5.651426078631808
5.870242014896571
6.624835229677389
6.970095664452038
6.201482149828285
5.2073252273938095
5.02935751178325
5.923118926783279
6.941867912232592
7.9171941183142
8.604069492390476
9.832792716819242
12.038962135082771
14.148550224688142
14.616198188057343
11.815937988971815
7.621216517548689
6.026848992858727
8.696872836108119
11.939180294510106
11.419044519278241
9.58444012025131
10.613548163543554
14.210055296592532
17.57589411958064
18.802123883062237
18.35432558851208
18.17510455109102
18.385018985036726
17.03680195885934
14.730668140306486
13.737023380516433
15.79573551244989
19.468112420350447
20.98996047590906
21.92328664070778
24.554541962772678
26.668723553240813
26.567087161510628
24.699417545095297
22.547896661413922
21.90157527839878
22.420539373446434
22.294469097509005
21.847858880894567
21.270952756280984
19.600205948941433
16.678407458007122
12.438118010554595
8.685741911277503
7.150510637854797
6.47019053129593
5.420394117006633
4.111331668245251
2.457267511758336
1.0168686451075468
-0.39204657914547153
-0.723581808939805
1.5918181583542637
2.5051580383036707
0.16521163466494077
-2.578352830655597
-4.954169724321214
-8.0615627231887
-11.942568057922351
-14.275705389006209
-13.62297158916782
-11.765318063811629
-10.717921048114428
-10.399171975933783
-9.978918476852458
-9.534928976536243
-9.81870448809869
-10.5412631501827
-10.824484438129227
-10.852381723195629
-11.119295151456743
-10.621743176168795
-8.969263227327918
-7.736058218819827
-7.863501978775016
-8.359859194044327
-8.40948628968228
-7.47678136200292
-5.547019571754255
-4.655338009182127
-5.716089010266564
-7.764442455706431
-9.475794933037717
-9.7851710809532
-10.027994189548753
-11.941276990238812
-14.180797514982217
-15.412304293206601
-15.1958753477567
-12.887793666419645
-9.333211103798249
-7.135350849977232
-6.996913315223647
-7.085978932635018
-7.386390388461702
-8.384874222347543
-8.852386202916554
-8.053576317759859
-6.668685115615958
-5.746747790937363
-6.070183675869941
-6.178875892549104
-5.735437067157005
-6.709689744965737
-7.768826436637104
-6.60453336280849
-3.8100396589579626
-1.1515803940123037
0.6718730306326635
1.7898764956014483
2.696399314474288
3.9228051051242274
5.337898101760107
6.268641556479698
6.168081838832424
6.141159616937385
7.876847945405192
9.819740556864172
8.864334771866819
5.523156672147366
2.957262314945353
1.9117183235217954
1.0269755771052338
1.3962242836988168
3.691806178755984
4.506880035582906
2.15695344464864
-0.7420118587951888
-1.9859933620106405
-1.3789925885008116
0.06201356937488506
2.560441646633518
6.1206860898448685
8.260009194337215
7.934796381135324
6.102354212341133
4.58827134634656
3.9760959054614906
3.454327882675212
1.7698144735827452
-2.067557821987976
-5.552786905214743
-6.23703407421952
-6.075158028408784
-7.170885476292461
-7.503726929180868
-5.096416442880141
-2.839419109369874
-3.0271413834540133
-3.618012041067767
-3.7738847769810384
-4.111132565876486
-4.602015785668489
-5.221515807593963
-6.899900119681505
-9.338717800378562
-9.877299995181536
-8.81039705051325
-8.520889458510993
-9.28081693128065
-9.699314722123058
-9.758345475032876
-11.3614278082354
-13.940728448744794
-14.553656949228817
-13.428935526549672
-13.122409894740791
-13.922371683419103
-14.787346397985301
-15.818540294270667
-16.689699326410977
-16.704001960246334
-17.239761725780173
-19.102330600374632
-19.99186305614254
-18.287670838136602
-15.66205012853439
-13.551638907004124
-12.044521962903291
-11.00191499722536
-10.29290142604992
-10.382639412493466
-10.479672919945804
-7.958288530544012
-2.1743795976847977
2.6010743350250976
2.75245709937356
0.44114677510743927
-1.3192047427751257
-2.6987165534205397
-2.476858477563647
1.2409880910229278
5.2294204599429595
6.755613168260937
7.569410841012837
8.92045708555881
9.531349048218525
8.377963061456953
7.407285244261961
8.641209320231265
10.08874969666484
10.571686267698084
10.437518742969205
8.756414455582954
6.424705249966872
4.6389321284255685
3.69753447945323
2.8702390324804106
1.4801475471040235
0.37696909330775363
-0.1421738002134039
-0.8516082470818241
-1.6878833727457185
-2.2016059464477973
-2.8046093049684595
-3.2776167719632263
-3.055394347392078
-2.445591541897408
-2.408568372949815
-3.2822280323787267
-4.39758959893774
-5.526938942754724
-6.4505717385073185
-6.336069739828804
-5.146406223950035
-4.163801376867329
-5.507585671340898
-9.047577700637625
-11.899287754055258
-11.5464216315117
-8.187090311420912
-4.876605078390371
-3.873942601348297
-5.269491566866417
-7.15499077496196
-7.218505042095402
-5.516177046563805
-2.9887127691339352
-0.16069814701017485
2.9750380734919037
6.397674372154414
8.451268732750236
7.7714702798463415
6.020126479319589
4.889740739079649
4.451497874745219
4.053463734742557
2.3039012154051726
-0.08083352266455696
-2.1167030767736184
-3.703547309528859
-3.9264155435544796
-2.2814714053053367
0.5569354661160262
3.204324635448307
3.9389054807316666
1.6101151408507672
-1.9201492264017028
-3.801613014920022
-3.978730296441312
-4.309387864355244
-4.6983769823377495
-3.8445687011296843
-2.4962135965523413
-0.8319176576620516
2.3251604917143616
5.6971378734104
7.231719490430965
7.014205737939931
6.285475969900079
6.024239265611478
5.73543750832724
5.310281550260147
6.764160679106988
10.01094436431898
12.686903075262904
13.76623197765116
13.78048197410098
14.268201963199976
14.430121310913911
12.515450953459903
10.218667428102428
8.830649389232889
6.068044032948995
2.028014557882206
0.32430521116547084
2.252722835472159
5.558306400523169
7.01210181512108
6.2615655172574085
5.89307353156707
5.934692418701456
4.16359015862405
1.3345809558892863
-0.0356461284501699
0.5489432907809993
1.3723458814386527
0.7992945981135925
-0.7656908319803651
-2.1307533310815043
-3.6048195386133943
-4.809937308251913
-4.461503993063514
-3.4436412521451327
-3.798530723946709
-5.168965571503748
-5.635138295412091
-5.536489497455994
-5.848407261792378
-5.503500695144905
-3.5914800030518106
-1.4296374494388109
-0.4533659928097703
-1.0516701749430952
-2.2181431313427327
-2.4332480232396514
-2.3998574275264115
-2.9211832618313687
-3.8529128374174486
-5.101369551353986
-6.166535831157488
-6.767025638970274
-6.535839168199469
-5.553044291711925
-5.319166583066654
-6.520255733447717
-7.103173888688299
-6.11074724818804
-4.945915700302756
-4.320930387156511
-4.553352951085453
-5.339879213891095
-6.1570885042808445
-6.693171566286569
-6.247536783714249
-4.947621595533549
-3.4302499263939286
-3.296123229185118
-6.257851773123136
-10.239996714858265
-11.600605183120038
-9.922239760983958
-8.085847631951777
-8.44661419696108
-9.407196079906408
-9.546692031427368
-10.46683788382603
-11.750849687218427
-11.946546980587716
-11.942999405529587
-12.264901535978147
-12.686003100565506
-13.054250307019954
-13.201361789434236
-13.312343091551394
-13.088577609726693
-13.36564278175895
-15.698550184986393
-19.809186495548857
-23.693899859147113
-24.376554792338084
-22.503354568925804
-20.886810692119735
-19.29510569771951
-17.337926126486803
-15.907889942028898
-15.270097530546234
-15.01980978698689
-14.703673143514196
-14.54275852690308
-15.025682893295546
-16.207372436953722
-17.81274349535312
-18.780216475599627
-17.862907465264996
-15.021846843968964
-11.628939957771617
-9.835119603199022
-11.31182604612036
-14.325988403904399
-16.502289537913498
-17.387619118347637
-16.450310078375686
-13.608672632400282
-10.515413685474527
-8.978505424831623
-8.028088743085236
-7.677205266237604
-9.371986559213894
-11.203892372367687
-10.869483491687546
-10.350599229493042
-12.497304336635075
-15.995578606850074
-17.524241349351254
-16.040029722104016
-13.030423156070352
-11.391920626555281
-11.907568574123168
-12.783063611924542
-12.622120663144338
-11.394660811526947
-11.283574887639855
-13.355300345501036
-15.173545433361273
-13.960640380141813
-9.703509731464743
-5.136682045623038
-2.7000287732339245
-1.5372412943422251
-0.512406191893019
-0.2855441762596387
-1.3841125791465247
-3.1946876684010284
-3.908038641974423
-2.87588444657875
-1.1447985448180458
0.07827881725969296
0.26165765867696655
0.4259525479494787
2.578804337132914
6.8691644777997025
10.24183635796972
10.362320638001702
8.78775859623389
7.706330411488373
7.593834207320947
7.68260027931341
7.134587928298383
5.796981580247344
3.5391067268947087
0.0941259859627555
-3.9227890497976015
-6.81592238202912
-7.868286990917642
-8.118396776539583
-8.985678056978433
-10.59021688604459
-12.6199421690764
-14.737090235698956
-16.14767796723228
-16.67477141534484
-16.34607201625197
-15.261580359635147
-14.41248070182856
-14.802143100971437
-15.794046913001234
-16.63027413309137
-17.09263036329976
-16.812776296590684
-15.80594061931684
-13.672132682261937
-10.521819444647619
-7.713131935935028
-6.9125410907648
-8.603607885992428
-10.43476123631571
-10.054163772038907
-8.035334404577089
-6.34859818926164
-6.757424612950277
-8.822155251709887
-9.855487914945103
-8.513312633147123
-6.4543230708963835
-5.510861427952062
-5.285743531956873
-4.747303809710943
-3.7941457134837737
-3.3290076482087456
-3.523605267509034
-3.4066742076195586
-2.1624663996420987
-0.0010525691842787192
1.6415867693463233
2.2966973835869315
2.798653721439521
3.3850579824933553
4.344823149148572
5.989889854013622
7.1869424618192035
7.2320952370041445
7.03810312797174
7.647466985723286
9.029697172556276
9.481635429187262
7.999959895874991
6.041764197968133
4.957082000189166
4.930516308175725
5.19896671586724
4.917852047969736
4.827135515016093
5.310520017235147
5.387103755632321
4.70765740044629
3.129017265045909
0.5884525651631396
-1.841488652114066
-3.1534110652491587
-3.6719721317048233
-4.081091164003967
-3.9399643266515163
-3.0730441442913
-1.904212719020208
-0.10304203392314196
1.0462171726234089
0.3138658911438866
-0.24993414175075884
-0.0319445838287117
0.4692412135560907
1.7595197226467518
3.5774042391036596
5.990484340348254
8.55820322123772
10.158115141854195
11.053451702139537
11.314525196149136
10.329168272675929
9.094805841494647
8.423198662009348
8.402002471126963
8.772492406808567
8.284657762180203
7.578559371659593
9.201410463503505
12.412164626906788
14.224718568284931
14.650362685001115
16.06995390554888
19.294261885101555
22.40294933899634
24.149757898440306
24.761739374063414
25.72384364237013
28.7338796291452
31.731116141390643
31.835833428173576
30.024344560043897
28.470860806166797
28.559071792543524
30.319094182955766
31.996965735517257
32.69423838927847
33.29510892242754
33.54796555380909
32.08770054278678
29.672722345834615
27.045609721830072
24.465649383724408
23.37721730984391
22.705612264650743
20.57030344068526
17.75558995050847
15.87049517689868
16.183754375343568
17.42428797691913
17.2957352319998
15.976566309042221
13.919642143168398
11.808393258753833
11.15365280282226
11.23369434335647
11.232129941864986
11.600963755489637
11.355112777246564
9.564414231533572
7.758954266249883
8.03191355064081
9.760029460976597
10.687666739621312
9.392074980442787
6.1408861633641285
2.018605787097323
-1.422810191768851
-3.3534558653927795
-4.170758027089137
-3.345416266829328
-1.0487689594188414
0.33658764285169157
-1.7606575112936993
-7.109761026255464
-12.15106714818963
-13.344404930931747
-11.152375966109453
-8.544611169114463
-6.938623723850434
-6.829265624600017
-7.614826116505357
-7.604194461868334
-5.683531923743414
-2.1230899993911567
1.0895423207627073
2.220619705281682
1.3955917302966496
0.36539509753043947
0.6783853756325405
2.940141654783956
6.648500523868213
9.823616898186977
11.232865953011968
11.285733306615517
10.169285987436337
8.339008998306175
7.081402508677007
7.235703029129175
9.139281256025424
10.939768044512688
10.78215600317286
10.220295800301859
10.777319752581214
11.131922040971146
9.888001890049164
7.731360951637521
5.950013814715405
5.284226580699853
5.493273288588971
5.9048612023980835
6.177235296899241
6.845835325357912
8.381437165708196
10.155658337076114
11.649982415541007
13.190307165917398
14.450808561806706
14.903875726547902
15.392714016172853
16.02711971357482
15.792419929944193
15.005106744386344
15.048058508266834
16.274399582498333
17.747403991204326
18.220143758128483
17.542335260346977
16.972452078270468
16.937522560367405
16.420610110138874
14.908215827461042
13.72404824634783
14.115390055773833
14.68494152643176
15.329783442306487
16.49956812295061
16.124455608664537
14.013011958999854
11.846573000136875
10.370555227728685
9.309497493517144
8.957782542353614
9.63904400091941
10.550077712602722
11.634584835996924
12.971059972840468
13.811628958456808
14.452745544273357
15.170514270645148
15.130611243364813
14.086526423531268
13.020420063188443
12.687144390199549
13.209939977878323
14.438826343666468
15.52068291971566
16.319070081498097
15.580946818782767
12.815304336126534
10.427146008259548
9.129264570102986
8.319321495459974
7.497383569816638
6.44034619463273
5.50325666126947
5.446149634204201
6.445663755404509
6.582926078929324
5.267909687239789
4.602926740908047
4.547008963556421
3.7074138465197453
2.5750734976830247
1.568212112639802
0.7329728234792372
-0.19038309618782762
-1.9279740211711536
-4.305478596790079
-6.73109767025719
-8.598154230690378
-9.270211798017785
-8.710794805618162
-7.849356393442982
-7.711362614819161
-7.89013341672202
-7.433785315058428
-7.095941562529663
-7.636454240011196
-7.811232989575196
-7.0782467816963655
-6.271826640767694
-5.635279873444414
-5.341652623796277
-5.307770722302894
-4.899671521033774
-3.563191115089864
-1.2999633749332387
0.8859866231430591
2.6777865223978767
3.395776230314652
2.5623720602361657
1.2912267037166116
-0.10457152211628246
-1.0411104495288814
-1.355968685722087
-2.2408863151693237
-3.933258309415101
-5.911779827431146
-7.456304685135086
-7.2745750866646235
-5.240374031428982
-3.042788908240426
-2.1856479866829934
-2.6995323795724286
-3.4805233665833937
-3.9239087143243534
-4.760871555771823
-6.2118309175568465
-7.024794603663295
-6.707265940508398
-6.092406272347925
-6.242890703977984
-7.456588017391146
-8.92006764640126
-9.915937905285377
-10.48405080680271
-10.595053613987409
-9.863939425963665
-9.002744617744947
-8.733154929434532
-8.73045932156899
-8.76800268022381
-8.217886159117775
-7.435815472476434
-7.189372416733577
-7.170107404758172
-7.876860629565551
-9.800823383683133
-11.756904516267692
-12.717078965824953
-13.136017478975216
-12.870002842381275
-11.95662720584995
-12.267807315023568
-14.740786112716808
-17.949185388912884
-20.262915997675588
-21.26490355250834
-20.67748189478775
-18.908972904229557
-17.72061489111195
-17.58123034719936
-17.995262807647805
-18.369088769432224
-17.50656644688393
-15.437000642212181
-13.252495908193648
-11.991679235915841
-12.163723094474012
-12.456420420151652
-12.200538619359925
-12.678814481977222
-13.605786693783296
-14.099408955726858
-15.184122213228205
-17.150867665506414
-18.375917917524486
-17.80148549654658
-15.592938778527497
-13.076785032362741
-11.033125323485296
-9.568982716093466
-8.939599873082328
-8.485556435925613
-8.162607012278565
-8.771717237979345
-10.486440956538736
-12.80572053177016
-14.791626535537612
-15.249725111794053
-14.441716679122408
-13.84910337955967
-13.813900593071466
-13.818104478033712
-12.806177271191238
-11.147456287448138
-11.83911997453935
-14.447345795203013
-15.843581064127177
-15.55880788172948
-14.557447826091577
-14.537669855796509
-16.009285394713796
-17.201991048579337
-17.111705515315776
-15.84989086003466
-14.165614955696688
-13.771659760642615
-14.791680431507888
-15.55514092212659
-15.323851902898767
-15.145572581497733
-16.290636932749056
-18.13291888147752
-18.76161676057471
-18.841689352619884
-19.99743298803476
-21.2623834525913
-20.96457642326267
-18.81506215069755
-16.742612556092045
-16.043083994461252
-15.920089956041156
-14.916182339146237
-12.545017891285339
-9.935309153307871
-8.268988718093313
-7.735164946134477
-7.892229728791475
-8.03751755850115
-7.287513549887429
-6.337960409071477
