AAD_Filtered_TADAS_FILE
AAD_BASELINE_CORRECTION: BASELINE REMOVED
AAD_FILTER_TYPE: BUTTERWORTH
AAD_FILTER_ORDER: 1
AAD_LOW_CUT_FREQUENCY_HZ: 0.025
AAD_HIGH_CUT_FREQUENCY_HZ: 40.0
EVENT_NAME: 202302060117
EVENT_ID: 13194
EVENT_DATE_YYYYMMDD: 2023/02/06
EVENT_TIME_HHMMSS: 01:17:32.00000
EVENT_LATITUDE_DEGREE: 37.288
EVENT_LONGITUDE_DEGREE: 37.043
EVENT_DEPTH_KM: 8.6
HYPOCENTER_REFERENCE: AFAD
MAGNITUDE_W: 7.7
MAGNITUDE_W_REFERENCE: AFAD
MAGNITUDE_L: 
MAGNITUDE_L_REFERENCE: 
FOCAL_MECHANISM: 
NETWORK: TK
STATION_CODE: 2707
STATION_NAME: 
STATION_LATITUDE_DEGREE: 36.930889
STATION_LONGITUDE_DEGREE: 36.573771
STATION_ELEVATION_M: 487.0
LOCATION: Kahramanmaras_Pazarck_Turkiye
SENSOR_DEPTH_M: 
VS30_M/S: 558
SITE_CLASSIFICATION_EC8: B
MORPHOLOGIC_CLASSIFICATION: 
EPICENTRAL_DISTANCE_KM: 57.52
EARTHQUAKE_BACKAZIMUTH_DEGREE: 
DATE_TIME_FIRST_SAMPLE_YYYYMMDD_HHMMSS: 2023/02/06 01:17:17.0201970
DATE_TIME_FIRST_SAMPLE_PRECISION: millisecond
SAMPLING_INTERVAL_S: 0.01
NDATA: 4652
DURATION_S: 
STREAM: HNE
UNITS: cm/s^2
INSTRUMENT: sensor = ACEBOX/SARA | digitizer = 
INSTRUMENT_ANALOG/DIGITAL: 
INSTRUMENTAL_FREQUENCY_HZ: 
INSTRUMENTAL_DAMPING: 
FULL_SCALE_G: 
N_BIT_DIGITAL_CONVERTER: 
PGA_CM/S^2: 89.279
TIME_PGA_S: 
BASELINE_CORRECTION: BASELINE REMOVED
FILTER_TYPE: BUTTERWORTH
FILTER_ORDER: 
LOW_CUT_FREQUENCY_HZ: 
HIGH_CUT_FREQUENCY_HZ: 
LATE/NORMAL_TRIGGERED: 
DATABASE_VERSION: 
HEADER_FORMAT: DYNA 1.2
DATA_TYPE: Acceleration
PROCESSING: Automatic Paolucci et al., 2011
DATA_TIMESTAMP_YYYYMMDD_HHMMSS: 
DATA_LICENSE: U (unknown license)
DATA_CITATION: Turkish Accelerometric Archive v 1.0 - Disaster And Emergency Management Presidency, Earthquake Department
DATA_CREATOR: AFAD
ORIGINAL_DATA_MEDIATOR_CITATION: : AFAD - Disaster And Emergency Management Presidency
ORIGINAL_DATA_MEDIATOR: AFAD PROCESS SERVICE
ORIGINAL_DATA_CREATOR_CITATION: AFAD PROCESS SERVICE
ORIGINAL_DATA_CREATOR: network: TK
USER1: GuestUser
USER2: 
USER3: 
USER4: 
[...]
10.731159873158253
10.253508415759951
9.647709905571082
4.274346013041409
-5.376169341464889
-15.09194580788053
-23.136178077986067
-25.89906131811346
-21.207616505803458
-11.852254190446175
-2.393251869264063
1.3136996804931835
-1.9057508576816964
-7.396844287813948
-12.901050248479786
-16.711490218225435
-16.86648821506169
-14.20917200697222
-7.997201124177729
0.6065111026152469
6.732420062413164
9.567188859471694
8.10030269366177
1.2447444266479437
-5.220437000776318
-9.242672848249734
-14.4199341790285
-18.253371710234262
-17.409715109449394
-13.243859762401382
-5.640558944907161
5.2766491295505045
15.608706104010974
22.914590766477378
27.3466575044894
27.19210755215295
22.504889227288768
18.91384706137289
19.69656495142301
20.759085371695406
16.695027623986192
7.173307323693087
-2.2806100446981254
-6.701697695837077
-8.572643694765596
-12.738875000324676
-16.178029921309815
-12.134384429015508
-3.043163449586195
3.013654379397571
4.328891734251548
4.1747853510054425
6.328038493650591
10.378812393493941
8.8218913662391
0.03568711894896175
-8.012596453165324
-11.52752172308932
-12.241511905788288
-13.161577796001973
-16.151303113792657
-17.625061103012374
-14.88042433882858
-10.848579821206917
-7.0594175417853124
-2.4317479088616243
2.688413284627812
7.231211405252507
9.948638609045998
8.850889643657025
3.5733466302126007
-3.1342909402651165
-7.02388899200413
-6.637493248399712
-6.066829414164904
-7.082405302743784
-5.867036036457663
-3.700424837099695
-4.473897694387459
-5.465183744593003
-4.4896064807869625
-3.4309790249506067
-2.5719264550438985
-1.4524142940192546
-0.7249450329930434
-0.20331185162142962
1.6175619579688074
4.073430679535991
4.335173467277517
3.5604928392089104
4.8848911993774635
7.457111367864381
9.077773783609091
8.370012817700658
5.1428151857300834
2.3594425702341826
3.5933226977983415
8.403794078601884
12.211450476575465
11.212568142198247
6.85980995720841
4.534716968532973
7.58675846956691
13.784755589229054
19.4010867784413
21.992008923716345
19.28967823853276
12.21374344874563
4.085458651153631
-3.7271746431092208
-10.381436341731764
-14.687125704598644
-15.34383330691907
-12.103809837902729
-7.967372747160822
-4.053418340689344
0.834490448010837
3.367241631934159
1.7166513214879096
-0.4850414246898009
-3.5455679036810372
-9.095252695040896
-14.165684375895086
-17.92866877526334
-19.610907259952615
-15.50560389223916
-8.664114147161497
-5.133415372326511
-4.324258034969581
-4.722301352600571
-5.342080155001408
-4.2508177715837965
-4.117090868124689
-7.194182571965086
-10.045456814865378
-11.211372119656046
-11.979534651447457
-12.393540866353275
-13.102350103461719
-13.655151746456102
-11.607990675049148
-6.670194834905064
-0.8925020201662154
4.574168867999021
10.784742277728888
18.108992865172837
24.522063287699133
28.24170053832111
27.894657989816373
23.014633532742454
15.601852183452941
7.963252263134004
1.440545521026061
-3.6031983147734423
-5.991554086480847
-4.1155777834057155
-0.35190099955507775
3.670257615655071
8.950035103610865
13.046775554532683
15.445043336000566
17.680496247958683
16.816047632351083
12.414972766419284
7.622742639380534
3.00957547438585
-1.4687526257134849
-6.1790901769287245
-10.955140144672692
-12.208560168720753
-8.184745099340912
-3.5675761497614977
-2.778371579773649
-3.01016291479464
-0.342932562102665
3.6044117170062457
6.137536941815289
5.494003299725505
1.1624289537938568
-2.359260420239172
-0.9649862887661551
2.934611183507836
4.667072551673383
1.6066610830775099
-3.863947298114156
-5.470830830088402
-2.185598448522791
0.8929971569981927
1.8220268362246776
2.2099054388801367
2.6868967369322623
4.376903239299736
6.932107656387798
6.192756456333961
1.1788873853093198
-3.5447152592330546
-5.8524793001959186
-8.101104861858019
-10.590322226413143
-11.596777195184853
-11.643449296771323
-10.319233709516935
-6.591616049265785
-2.920940061489431
-1.6792756472572
-2.4874624387775643
-2.3684020103269847
0.8366142171295456
3.284367626952984
2.0424108873583755
-0.09575706038786584
-0.9351051245816591
-0.1833167845010841
0.3943236110327505
-2.259497449658749
-7.290746685720712
-10.649792038119859
-9.369364986678505
-5.519802512945108
-5.065686657822062
-8.035943433843892
-8.728527218232385
-5.388066875417191
-0.328793454981987
2.7230264629650933
1.5145006457449848
-0.5672914079428079
-0.787001620987569
-0.8821791739900895
-1.1002423342352838
-1.1724140425399672
-0.6116354464070942
2.10042055981181
2.147681539910985
-3.5551743936334512
-4.944518577876113
2.3436938878091556
8.671558985707321
11.646797291805152
15.91432121621673
20.656748729708283
24.921765034858467
27.267327658025764
23.370015881414332
13.304698147950376
3.348052678654293
0.7163633086527882
2.262141412152493
-1.9734963813271997
-8.640050543395919
-8.455437113113511
-2.7576354613978222
3.615004650418134
7.907342411696201
9.19728145517115
9.750415086018528
11.04513979272383
10.067302498634584
4.608099288262993
-1.669262024904571
-5.40482088881365
-5.225978221782005
-1.0346573115751558
1.941058582476454
0.974474694111479
-2.344460515582457
-7.873329086250147
-11.71365123733306
-10.42578641025487
-8.231978995497313
-10.355821876260325
-14.79816353937128
-14.846378284743832
-11.045825695847059
-9.217867969146843
-10.275300529999422
-11.930379847378669
-11.27344030663497
-7.772588570802441
-5.1654882574066665
-6.405142410421783
-8.842762681788638
-6.891240944933704
-1.9140471846637042
1.168457120826568
3.60683554485952
6.773649991581508
9.21741267965516
9.670627260917824
6.480738746495215
2.196739505686024
2.8380301340089313
7.4691634093093775
10.364535536546695
11.357238185517659
9.930205747041548
3.966160779439833
0.48449236826118924
4.421033786190753
10.18449478347764
13.608227861966517
12.609587536447021
6.523619902291807
-0.622476723663383
-5.360889958923928
-8.442084909761187
-11.607851985867015
-12.637288726367625
-10.9737125368795
-9.952621015616012
-6.9714381365416624
0.35499924956080037
7.369995287841334
10.514346426808535
11.05613151205638
13.009010855030862
14.577017974944997
10.176563682383641
1.2497816086584537
-8.986234489529188
-14.381719165672722
-9.024928210702441
-2.2490515731421166
-3.1388152607314512
-8.29655173135143
-12.564963575085963
-9.719268744887934
-1.3692059497571683
2.690992369804043
4.063027871644703
8.538316540828944
14.306547806201063
18.218729887752918
16.276545319845784
10.311314035304378
8.579726871327157
9.429758377449568
6.477569673654119
0.67004453786794
-5.860477686253989
-10.185669103428332
-8.610589049275289
-2.475566556246976
4.670945901076932
8.395655024414568
5.713639289582403
0.7644170153761375
-2.034167867351674
-3.9029291174066936
-6.336571411243789
-8.546663734969247
-9.872197015803227
-9.823471424797654
-5.5644306030618225
3.7152260159758277
12.60217844820138
17.854468566944252
21.89858559802416
25.413260839713853
24.445495025193072
15.534446020097901
2.890186208201851
-5.379183421594804
-7.882911145308082
-9.142870029936699
-11.77881736097087
-13.857964760370482
-13.624639950307147
-12.295805467043426
-8.97832399926892
-1.6285779215800869
6.644725117860349
10.411598092886626
8.167152199975185
4.814068363415922
6.244559543929703
7.484096603412479
0.18849485878932024
-10.47650721871904
-16.87414527026217
-18.868251348355773
-16.049501161044997
-11.362884755579707
-8.180224659174566
-2.20473100139789
8.519381053866935
18.460703093047236
19.82839773578474
12.503436140919856
7.257919804137055
6.943900721844578
4.087157533698444
-2.4231257476493493
-10.759579549515163
-19.133196832993633
-21.637368238512334
-16.987422273850203
-10.775254776556393
-7.173984051731768
-5.930676842044801
-3.847424183122314
-0.5421275670734377
0.9629441732443784
1.1819532633937404
2.9825613706574403
6.529323244645121
8.008230186047975
3.97373536897779
-1.2695269069782256
-1.444565248547958
3.9386210562779365
11.037148764178813
12.465448343491179
7.39951110999194
4.446165459437042
5.360881355126533
6.289211037401878
6.4861043389911455
4.884557561371439
2.2827365294474355
-0.9956340056232539
-6.602993699157587
-9.93979888872082
-8.123222992311318
-6.371975448119071
-6.536751819232559
-5.639477981660675
-1.961536327940481
3.7343003655433344
9.767194551027444
15.233653736389137
16.925955404457707
11.99522841194174
3.922265925305421
-2.019219210081548
-3.4162331843792315
-1.3780869029228717
0.24608367220038405
-1.4484028178867339
-5.812248195307024
-7.088735422401961
-1.042283887925381
5.527252078074261
4.055462525089927
-2.147348622993307
-5.532076137266273
-6.071313007894197
-4.990535328552386
-1.2859480408388342
-0.5678117446362578
-7.554136090770149
-14.38287657971575
-13.014647561713126
-7.03838911397883
-2.8197178626736386
-1.5166198979963945
-4.39146293960374
-10.752705993206364
-13.323678975705416
-12.317409212870048
-15.711741369626292
-21.387311953539996
-22.004085425134328
-17.509120502500377
-13.794550290746509
-14.03920313821115
-12.901537503177746
-8.235992747395004
-6.752998937253886
-10.544380532575191
-15.909134827400868
-19.76854647102352
-19.206641852025953
-14.967661430466736
-12.175726073504153
-13.36825777989874
-15.184134140162607
-11.850539914146609
-3.4559195705510364
1.4520718719579369
-1.67238813189149
-6.2565438645576315
-5.726139741675353
-1.0673411332450435
3.222744049892726
4.470619243695833
2.7045994293418567
-1.7850748055729988
-7.284915497604209
-11.434303117305296
-13.552643391808846
-12.452592113275506
-8.474190687662256
-3.432053196471372
1.2347651135518507
3.455242981396218
7.190669353670138
17.66957292021871
28.81659561269652
31.997809846561363
26.406982257092086
16.820065810661266
7.469903628205696
-0.7560651390275515
-6.688184294705669
-11.905247571568108
-19.377406293939252
-24.657664910274708
-23.648709596457735
-18.597740407124306
-11.939560129837572
-6.765025736163197
-3.9501916583421517
1.8891400777960323
13.263727314174027
25.328682094868448
32.57569113403768
31.519688444865988
22.128163436876356
10.021397195028877
2.0225704465843783
-0.16014770642419324
-1.0451079868978455
-4.308534637833415
-6.3629778641778065
-3.7861882312328037
0.24546649861719266
1.9848635829970747
0.5307975765369135
-2.9855135768000234
-6.623811337633823
-11.75334666419398
-19.16739091609037
-23.366898669559017
-21.107820523142287
-14.151819954402454
-2.7134986118074553
8.719777333310322
11.829506633422657
7.017990565260004
0.6707711171216854
-4.053204350303398
-7.183988416547554
-8.65029340279773
-6.9286576378230595
-3.0674789884232516
0.6092785559443014
5.754362649541545
10.994949990971502
11.423439710420519
9.316446347243124
9.879330763026477
12.780241803062
13.3942530288406
6.192541926891774
-7.699492854547997
-18.841958639457623
-20.573956781963133
-15.22515922985253
-9.866503999569028
-9.755981913950649
-15.211676960356787
-22.964296868968034
-27.9451222466628
-26.785797155167824
-21.407787576409223
-15.543574064990043
-9.681107500619191
-2.489832466772092
6.159893339728581
15.664886563359003
24.702893597762394
31.114438643346283
34.62225070428885
36.3867919166196
36.79266428987165
35.51030785724572
31.074473748607883
24.52821127514281
19.75333018065968
16.063498240550366
10.440313803652256
2.5105040356886192
-7.215687233436581
-15.459861962064615
-18.98289698193325
-20.53001400460731
-22.439566363665477
-21.294131777236935
-14.404089369543042
-3.0557756981466917
12.023479349125893
30.021300389350788
46.60830049415889
58.238484975291726
63.57345352310294
60.50802626310451
51.5000613402883
43.51981289428439
37.53413906750786
29.028589716342115
15.182230053759685
-5.052851344668476
-29.452794718666496
-49.898296429540125
-58.77371147680089
-55.97254190078895
-46.597895010235376
-36.255503517864916
-25.78662551469712
-10.395487832966332
9.422034416252284
25.66838977519931
32.822701304528
30.18946124142701
22.993660049007033
19.4498014064755
20.79766408926454
22.99364593860617
22.25959231079749
17.09014789921346
11.245831079556813
8.080333539682366
5.399877845280295
0.47459014263450217
-6.817837016586214
-15.851283571909724
-25.267740443196622
-30.917790904920498
-31.650157670310158
-32.47713443354783
-35.11572188354805
-38.61334491519902
-42.07212779326194
-40.12458996076025
-30.899192969134027
-17.215859383359007
-0.5333173585124992
13.41089461902843
20.155474226388765
22.457946777323272
22.22861421786873
20.798923635670103
18.689374978172992
13.331164478649612
4.0798236824122736
-7.787230001306201
-19.066954299649687
-25.055615665051388
-23.009710427877813
-11.928750179551354
4.221671902219646
21.014502142500376
38.737160486202264
54.74422158613949
69.07938245301229
82.20898432981828
82.64733664189572
67.20441082016661
44.54896162178002
12.54111271206959
-27.984568431625295
-63.03083947380346
-83.83192263032298
-89.67445325022224
-86.6554506953641
-85.06449357479862
-84.14916424367753
-75.08259354663365
-55.471239703564606
-30.757329255741308
-9.56410141464787
3.731283023624657
10.120199927291969
10.375036280286375
5.793182019658441
-0.9825265822612086
-6.922957463208249
-8.936674415572838
-7.000169880760627
-4.228219753748514
-3.7731839938744915
-6.6496259584716295
-9.516758436065153
-9.078871306342757
-9.016374532759436
-12.055856404705585
-12.65556344361269
-7.54054136198498
-0.6094336433326454
5.8969821335488275
16.534520397434655
34.51491027535936
53.30656437126095
65.61115027246177
67.62413392895925
55.631077415195996
34.41090855225476
12.959525453098856
-6.838953332123853
-22.22692524401132
-26.510037346318217
-19.492028567655712
-7.8350451638561545
3.3406373011693935
12.327469710525166
20.155939366421997
27.118409980468996
28.903143371934572
26.287922213140448
24.64851089034713
22.59822189128637
20.16904009637906
19.355235768802057
15.810999004981987
10.167101938498883
9.343572775926276
12.83775812967361
14.720997643857475
12.669298602294576
7.630465742402166
1.5111373834769675
-2.3380688998475527
-1.687055939691466
0.9285841261487098
0.19618566666827242
-5.041720074176619
-10.55593570218836
-14.001980742135853
-14.0439792052541
-7.277235894155423
4.6401070622572025
16.217420690095476
25.58422992480425
32.528512653026816
34.64137914311171
29.773802191980263
23.121471857200188
21.97328148210377
22.417299496119643
16.71081571651862
6.254487937411651
-2.6011689462896794
-7.25237017883347
-11.85067952129993
-21.597886291536675
-36.189469429070584
-52.703563158773456
-67.22794766161162
-72.0054490130202
-61.313947862840806
-39.96892813188585
-15.479471885460283
11.078007963467977
35.43370259115018
49.333151370451326
52.49072734534364
46.64203595212725
32.25245441165573
16.055178744446767
1.4606461454973731
-15.22389175813473
-33.136979871088364
-46.808316641302945
-50.9298861351066
-45.33174865243811
-35.42520015147814
-23.63254627668687
-11.684099503741928
-1.8611250120567637
7.539023854678854
15.965563262712832
21.92191740664153
26.484139219567723
27.282787974250077
22.01433700594292
13.276243376658291
5.310722949500402
1.1431905808238492
-0.09901351564802353
-0.7055265275383596
1.9817447867226698
10.813337030647904
21.04328848191861
28.87828522124377
36.93285548838201
44.91786585921129
51.26149648589582
55.91715493575383
53.075311928949155
37.90479101768466
14.526722902019776
-10.867385100677216
-33.364120016153386
-49.63953435756571
-56.92553398129486
-49.94237670194359
-30.45779176975014
-9.304238101135986
9.686046118897643
25.42717172790224
29.569531048205302
22.362660654595036
14.824816636148727
9.752068568560007
1.8917281699480708
-11.610558626773997
-28.476393017148165
-40.88820651286153
-41.04652874260254
-28.64581997065628
-11.122567925074168
2.931143650587365
11.052824678455817
15.54395023237802
18.251907400945576
18.304944070948977
13.263948491689314
3.684630306557719
-8.988126471285346
-23.92992245758193
-35.22644399524529
-36.74145073818176
-28.539983113025002
-14.192345836670112
0.8046267843492696
13.296062053747368
22.42448267032862
24.173955576142564
16.900778517366458
4.836069250162257
-7.378230657461465
-17.42884569929449
-26.7431167377784
-33.90706824144647
-31.557104982816202
-20.7163164696955
-9.541719995825808
1.3832029343380288
15.38591786893648
32.14548813388778
44.78503202174694
43.76486486278411
31.02260746664341
17.418510613062857
8.633976643647557
5.815695262410282
7.628031583431719
8.849982506476103
8.12544529588494
10.59628038422787
18.35240303868754
29.306086985190618
40.35902264541486
45.484484246734496
41.95814296248841
34.29437355311178
26.49945448596637
18.924610057328675
12.59673721143024
10.474907707772273
10.940312450669946
7.826569985983381
0.46028169239827577
-7.618749211445079
-15.195378635577564
-21.42242692947325
-25.797164790707154
-28.314414697682242
-26.812158447480865
-21.849366146776838
-17.50660738749959
-12.826032043794696
-5.252341662462065
4.462751249415589
14.248587406160917
17.156665366495723
9.942952016038117
0.2116587339962844
-5.915502702173799
-7.368272922974397
-7.774823551845766
-12.437581069420933
-18.76672085190055
-23.992906813440236
-29.05851184731364
-31.765136380685647
-31.16727172741723
-27.60297798033077
-21.657720887838234
-16.778650543421993
-13.667441951294473
-10.899182883448008
-8.155828510941635
-3.1855880725072376
3.920451800228274
7.613386188331836
3.7618730366436006
-5.78736884822616
-15.490887817561987
-20.230215250762548
-16.867819322203932
-6.4202874926173275
5.512931634849992
16.619312271325906
29.13524502451091
41.58240086364556
49.89372449758783
54.25877557680147
57.87283619530473
59.05492757924898
51.916542855378225
36.65409487633895
18.363411914939732
2.670038338957718
-2.2904052821655765
3.939113899463903
10.575686626785131
12.455145917035779
11.859421721317657
8.320980081648768
3.114766751231356
-1.399570408450496
-9.977359847508355
-24.907788145087782
-40.628058130722366
-54.03661136363064
-64.13959343890718
-69.27855152081078
-68.42208736352258
-60.985062887884496
-50.754123332529
-40.90628649195027
-30.985899173240302
-23.79614866860665
-18.51308091758688
-10.726011104536475
-3.4444486433217794
0.8378033427157132
4.399627977176608
7.32654649707843
11.100554784441398
16.808809906250126
20.24650590869069
20.883919917427548
21.837299222452508
22.517874470908787
23.59285590196088
26.69196806127919
30.10132027755087
31.05215012880951
