AAD_Filtered_TADAS_FILE
AAD_BASELINE_CORRECTION: BASELINE REMOVED
AAD_FILTER_TYPE: BUTTERWORTH
AAD_FILTER_ORDER: 1
AAD_LOW_CUT_FREQUENCY_HZ: 0.025
AAD_HIGH_CUT_FREQUENCY_HZ: 40.0
EVENT_NAME: 202302060117
EVENT_ID: 13194
EVENT_DATE_YYYYMMDD: 2023/02/06
EVENT_TIME_HHMMSS: 01:17:32.00000
EVENT_LATITUDE_DEGREE: 37.288
EVENT_LONGITUDE_DEGREE: 37.043
EVENT_DEPTH_KM: 8.6
HYPOCENTER_REFERENCE: AFAD
MAGNITUDE_W: 7.7
MAGNITUDE_W_REFERENCE: AFAD
MAGNITUDE_L: 
MAGNITUDE_L_REFERENCE: 
FOCAL_MECHANISM: 
NETWORK: TK
STATION_CODE: 3139
STATION_NAME: 
STATION_LATITUDE_DEGREE: 36.58383
STATION_LONGITUDE_DEGREE: 36.41439
STATION_ELEVATION_M: 109.0
LOCATION: Kahramanmaras_Pazarck_Turkiye
SENSOR_DEPTH_M: 
VS30_M/S: 272
SITE_CLASSIFICATION_EC8: C
MORPHOLOGIC_CLASSIFICATION: 
EPICENTRAL_DISTANCE_KM: 96.19
EARTHQUAKE_BACKAZIMUTH_DEGREE: 
DATE_TIME_FIRST_SAMPLE_YYYYMMDD_HHMMSS: 2023/02/06 01:17:26.1391390
DATE_TIME_FIRST_SAMPLE_PRECISION: millisecond
SAMPLING_INTERVAL_S: 0.01
NDATA: 11251
DURATION_S: 
STREAM: HNZ
UNITS: cm/s^2
INSTRUMENT: sensor = GMS+/GEOSIG | digitizer = 
INSTRUMENT_ANALOG/DIGITAL: 
INSTRUMENTAL_FREQUENCY_HZ: 
INSTRUMENTAL_DAMPING: 
FULL_SCALE_G: 
N_BIT_DIGITAL_CONVERTER: 
PGA_CM/S^2: 378.615
TIME_PGA_S: 
BASELINE_CORRECTION: BASELINE REMOVED
FILTER_TYPE: BUTTERWORTH
FILTER_ORDER: 
LOW_CUT_FREQUENCY_HZ: 
HIGH_CUT_FREQUENCY_HZ: 
LATE/NORMAL_TRIGGERED: 
DATABASE_VERSION: 
HEADER_FORMAT: DYNA 1.2
DATA_TYPE: Acceleration
PROCESSING: Automatic Paolucci et al., 2011
DATA_TIMESTAMP_YYYYMMDD_HHMMSS: 
DATA_LICENSE: U (unknown license)
DATA_CITATION: Turkish Accelerometric Archive v 1.0 - Disaster And Emergency Management Presidency, Earthquake Department
DATA_CREATOR: AFAD
ORIGINAL_DATA_MEDIATOR_CITATION: : AFAD - Disaster And Emergency Management Presidency
ORIGINAL_DATA_MEDIATOR: AFAD PROCESS SERVICE
ORIGINAL_DATA_CREATOR_CITATION: AFAD PROCESS SERVICE
ORIGINAL_DATA_CREATOR: network: TK
USER1: GuestUser
USER2: 
USER3: 
USER4: 
[...]
-12.255776700083
-13.960516568986307
-10.645785902537199
-6.982649884894239
-6.854877120640711
-10.692377140892924
-15.386103254360652
-17.788948228150925
-20.902207807596824
-22.827221822846393
-17.74242402144041
-10.916951582305634
-8.434642330356576
-6.115275135042318
1.6918011160264042
13.464310864605835
23.47508390610376
27.734659290688406
26.020843201896948
18.083808744769403
5.840520469779527
-2.588560430914917
-3.8604553027792043
0.8437262212435613
9.660097345541123
12.780139339896959
4.991072391199036
-2.6702155136469106
0.18843356801637082
9.984065094791196
16.706850725884827
14.95762740330438
7.196489119105767
-2.247249419638751
-10.521390265948826
-14.458815067392118
-14.23381269679218
-11.035315400761403
-1.8477245222238188
11.61801007358657
20.49699971549305
20.284267492174017
14.079770942346082
6.488313827202772
0.5771156289791933
-0.7069868964433056
0.4355981409605734
-2.4067637568634086
-8.244365734417052
-9.605138743081728
-4.240624029799731
1.775968022949641
6.398835443558864
10.956536105968453
11.578496682711357
7.7101133176216905
1.2758101516550262
-6.3539837464355235
-11.378410007903835
-10.748022750214444
-3.6132594142787053
2.84689684240183
0.3574916001928031
-6.044307412830704
-9.4265925931375
-11.097592613642302
-15.032093370133747
-24.88570866518949
-37.043143899074934
-39.88300436510867
-30.38188682519665
-17.843426629098712
-8.753987803908593
-4.68777187536567
-8.183601237911699
-14.656439822499522
-13.809755852490674
-7.397079536531142
-2.918037587452681
0.2673355645866145
3.337323797914491
7.066893810658284
13.397885636158469
18.7602901445604
16.086440781511584
9.121416074085678
9.013466693355213
12.183149627377514
12.122214309711717
10.377732092697451
6.238270096519723
4.878357119800374
11.1450661669422
16.087600857726922
9.566392637552642
-5.298433468406392
-14.942546828949093
-9.434319748071324
3.2767407266710786
6.3824389860556865
1.1298686959570248
-3.133443554340367
-3.592484893295978
1.7245895106452584
7.8254274382698314
11.976516709330237
16.00852446810343
19.20492819195243
21.937572118161647
19.2057160989688
9.405676773054925
4.195914997599295
10.611985023415205
18.399843192055926
18.14661910994495
14.048019226836422
12.898828567376817
14.492506432908025
12.590665121528263
10.108938218661386
11.578249750317472
10.669020972246269
5.1455990534444025
-4.21272106396931
-16.698069961312086
-25.418328488770005
-22.24781450522502
-9.733395555567759
3.2222839700458605
12.379576389184368
13.130037110871713
9.651704543812045
8.52138534900993
4.973143557298836
2.889414577475533
9.85045371345292
20.842584275028713
25.39641370241343
14.98712756846517
-5.79047982216088
-21.338063679405305
-27.56094397841202
-27.03199644275227
-15.521370454173802
-1.4834839622658904
2.1580745137138884
3.1441262975456774
8.256420996663978
9.868684352620233
6.945963995124323
7.941864730239969
11.96288135001146
11.225007986569684
7.617736945054703
7.8885974413097415
12.161673230058764
17.046418854542903
22.40010604198102
24.106689421578146
14.890538620280823
0.5169508163159819
-9.858258449267792
-14.847621786377282
-11.14772799103823
-0.5735032524737003
4.806332196097583
-1.631900120528028
-14.037529019399054
-22.733314015907787
-20.704315193002437
-6.922382338359384
7.771285344146099
9.329079423365709
-2.580009970162435
-16.18363365445772
-21.945632507106183
-18.176927709258006
-12.644016803392685
-14.209392689166755
-16.24401205257919
-13.165812571834586
-13.143066019637876
-16.78685235074861
-13.273469381574957
-2.0914953382947243
5.256305654932199
12.326168520542117
23.75162960145215
22.987228474846184
6.604341010924764
-4.030407648536709
3.946035251962369
15.950366159250196
13.219751205960385
-0.05338862941356051
-12.445793698394416
-19.23034834692958
-21.696455390825886
-27.345802860848398
-30.95228663954868
-18.91034727546013
-1.4234218441457416
0.8439489102640625
-10.195193906549484
-21.012776915319723
-20.86451897101741
-6.580153425736472
4.4058088824146795
0.5675296833228097
-0.24241409908050096
11.422988775293351
19.979669072255025
20.33275708295395
21.941326079685638
20.00818329399964
9.107242907818934
3.3976381869888868
10.90192375071717
19.69494624530104
20.637804219833534
14.508637946105916
2.772829842835032
-8.83862623601813
-16.758141119031084
-22.53675673493429
-22.645936586058514
-17.568794354697463
-16.6120015272674
-23.15607144211021
-28.401448290003575
-25.955648180231698
-16.2484234394236
-2.164215259257417
6.187224526456465
5.568385868395038
0.8859185390423927
-5.223826174937179
-3.5686155266670085
10.52188681960183
25.014546974958808
26.97775274801245
16.689099455439447
4.001697744944675
-2.4964626941781773
-3.0641085105792984
-1.775159909392492
1.172715633982404
4.080561068725191
3.607889381750135
-0.9485229161863575
-7.004968115768394
-8.073796574040879
0.583157315735182
16.967502564252086
31.310173889528137
34.76642731513101
29.813011247631568
21.695974349005695
14.15599969760033
10.795995341178731
6.774473807709423
-2.7411409271588636
-14.470093969704482
-25.052344463600633
-27.012133250526812
-14.839811169461658
-0.24089165703388205
2.9066846227614613
-3.6270322673581528
-8.978627257640765
-9.182505463117108
-7.2963708178828925
-3.7007687674333365
-2.7997228654508177
-8.697482193467167
-14.580305058339661
-13.170360810505576
-7.545662754050609
-2.219211898330872
7.780800551125597
21.97481220663439
29.318364206110097
25.239533317813528
14.499400478875804
4.820435535785809
2.87714587209456
5.519519394748742
5.125733481099518
3.404279921560714
-0.222107843961263
-9.234151639483551
-14.841799492767016
-9.470062185940439
-2.6341647907823207
-1.6400284335375108
-1.7443193308929783
-4.819732305280618
-12.463251416599512
-16.90309985756016
-15.395002686184148
-11.839735399991604
-4.737719352637267
7.176789941292702
13.180603642848668
12.099069478123226
15.289435139297725
17.447411556030495
10.093227646751512
3.350398675327276
7.552645688508851
18.08199356028406
23.869530441015435
20.422678564452852
12.387621793672942
7.374584650279483
9.82375414996531
17.355013726474127
22.203465424028362
19.600208879524043
15.331888417268763
15.42707435872852
13.301072637074544
5.690991170003132
-1.3801422433504662
-7.3200013347133135
-9.272256069647398
-11.152204396879581
-20.863647999444424
-21.394248712867356
-6.81767577631716
-1.7157363259771636
-15.138813395632376
-34.657629629932806
-54.57512573640737
-71.0638259003201
-71.05908924950162
-48.52945668980794
-14.365913267455909
14.319809664618889
37.013719846760345
55.73776860332816
51.132661693541415
15.660806502558115
-29.07663213227015
-47.353590701602144
-23.20999369785835
10.919998736153042
20.27092358522898
10.161699588832025
-9.096711413970498
-42.42360141763757
-70.75865698580542
-66.13303501086959
-37.43769357934235
-1.3761110136587982
39.52469447817429
74.69662763653615
85.226140417466
64.18910655430564
24.557580364591388
-8.58511884474094
-20.802859396216
-14.848764486685527
1.8705870732734062
6.2547088388636976
-16.99201770800108
-49.305349482069325
-71.81005052900575
-62.2685466367879
-8.852245150522263
42.73549059775654
50.11680706019513
28.588499805615832
1.7357818534864837
-16.10863755656789
-18.157708337070712
-22.304274663206037
-33.858919760582715
-32.9064670144807
-23.610708593746082
-30.93119117896274
-52.2996050016608
-49.09858326555427
-10.390900360048134
19.635188219833722
17.093661772209025
3.5674479724573356
2.696011739615753
26.79230763626258
60.4087348862742
62.90219343710122
33.988808370921056
12.080540407332153
12.587334160583335
38.50861135544578
72.9330024263552
72.07038890300616
44.800224967514566
43.904843973022075
55.13051160223059
27.89963706121406
-26.120406886835386
-70.07408408853298
-76.49802412281342
-44.12580133430526
-23.463944060797964
-30.824747996563858
-20.607044356792315
12.23552390713164
22.330514140900224
1.628259651456702
-15.672999605091546
-2.6368630406263853
34.34904716148479
46.86690828951904
22.04018283409317
5.870620580318966
3.5331601719220944
-9.502550713538517
-28.315132359592024
-43.07126088219095
-44.84510328995291
-13.944143655866563
41.2626614795687
66.39482826148704
43.833129949500815
13.212723700994449
-10.16430995893188
-26.727507419433344
-24.928983926598562
-6.793910999879269
8.704293282676645
-0.48814517397583773
-29.5363608897585
-49.30063189288608
-49.155942525670625
-41.767398712950005
-40.93333351686495
-45.336473005110015
-39.582140053037364
-20.9955954744007
-4.4812682143075175
2.953943742284149
7.366734097590094
10.202862764004895
6.039777577662709
-5.149449010248283
-18.46999999782274
-17.733243060226528
1.508606773014301
3.5797966886899992
-22.789455532637145
-47.073293732686075
-55.9803340048079
-34.2409909879868
23.358361937259268
70.01667449806774
72.57309790300663
45.657187269412475
10.753850071122645
-21.771408193970085
-48.679551870681586
-62.311821738479814
-62.47099597609982
-57.101219660705546
-44.48813156450218
-16.890771340900056
26.59834148917752
66.25004314569027
84.14889858965269
74.38601781139623
41.8121138605577
10.124748424061996
-14.765374201281972
-31.450875414793988
-31.808109707866514
-31.607067145586964
-30.714649893847746
-12.282004005170036
11.174295465709289
22.231781230252924
22.26178875923774
10.523327303282757
-10.43320799968753
-17.040962622794055
-1.8291251807159636
10.061533047999783
14.983201958737585
26.65247999755608
36.7669818677663
39.48494323279255
41.233692302564236
41.657996883636294
41.62898377003417
59.56030678838854
92.31979787727198
89.20699693879051
43.36671468951311
11.990938530689274
11.162324339616845
9.700396933330682
2.5472349626519937
2.8775602763108927
-2.078223470689428
-22.867152744886987
-46.41299209324186
-62.65610517393923
-67.53800087952283
-60.966982737947596
-46.303239285745676
-26.463402149528317
-11.14754759325882
-10.97520364598531
-15.834664440500848
-4.844667682481206
3.4157146475860145
-18.8102410418785
-34.51112179215818
-12.54130307789683
20.752020347626857
56.14160774504492
84.01438917660388
72.03115971440496
36.61605957789231
15.518182744248001
5.677880146045929
3.585558601321778
14.38474151234913
18.9054418682701
5.301149556144119
-14.242339075655467
-29.513424861761518
-31.71175204849038
-19.05998337808349
-8.59867857389064
-16.822164762012125
-43.761194639268844
-77.34007310779317
-97.56805455696252
-87.96120381594281
-53.95905241395321
-23.26816434043492
-10.41420799143734
1.883326957133752
13.355270892022553
11.22111639464783
14.59637422345351
24.319686579490995
23.333088265052478
23.89610853790825
25.90968225676091
14.107276784016134
-3.579184098843773
-10.600397770338382
-12.469325354207035
-29.22964999560431
-51.92435473482822
-57.27259639556953
-44.44769609126788
-33.60710895983499
-41.766109006002424
-57.04636243923094
-67.17243116650026
-62.509324931396705
-44.32844982837522
-44.12330548741847
-64.35994495616801
-68.037123293003
-33.059634668794686
-0.12475461172224282
-10.86018194807706
-1.945615843435617
81.18427415294266
143.84174030912635
104.3139614188005
43.933188989264856
3.058714201875367
-47.002344338776304
-26.466992999290866
50.29239300319594
19.149245606194082
-126.34430062114085
-240.30695778444385
-218.4370786402737
-83.47674571876179
16.072119358279885
-10.335039621202387
-66.1152385329105
-33.67158563147166
29.932917979463742
27.501058069278887
16.749960205983047
69.26228499644061
166.69879531831216
242.4401104244975
229.38877877762724
144.15584082120523
52.55972821530193
15.952741028517552
17.679382809225377
-28.078059930721608
-84.48816584785735
-63.98376672662469
-75.08695336773533
-201.6509589702346
-295.4083369111106
-236.61907103996717
-29.68566514931126
124.86414414677317
19.231055613680304
-179.0813724382248
-226.26592928940335
-120.21864760706347
-42.78483084528229
-74.03192052364071
-57.81977641827288
32.88641712768544
75.27040670391068
67.20250581283571
49.71375027575223
28.916795704389244
37.04133328665737
70.58776203657852
93.3358815690052
133.08450540970225
182.8466455437914
139.23425364863945
9.236497532588372
-51.83113525878434
-44.83206844270023
-59.5863826964274
-85.814427246203
-122.27444760890968
-89.25043424084132
-1.8980480960703392
-32.69892431746752
-134.62230209514777
-136.21769483336044
0.44924477569913684
132.2014206383276
144.79496020688245
76.41566454766996
-56.088116293260384
-143.06214417324207
-58.91063786424772
36.61432202001087
-6.3386792393130404
-45.14066975427987
37.35731880466506
113.48455801916728
30.392903558955105
-135.58479996117015
-150.36625872869166
8.208684481330048
141.4625527151583
192.75425768058687
161.71406592324945
34.01377967759929
-90.73530909071893
-185.60133365786075
-267.5282374796712
-261.57306453832234
-117.89883684979377
14.137573367368809
80.97063817319031
272.3095921837526
391.2831911569301
220.27904133061415
7.934461279938599
-117.34569532170467
-205.35062292270896
-223.9531256310374
-90.00473229421468
111.07541769507318
209.30986865906152
168.38098991253597
-30.211248375361595
-236.93164709163037
-257.9263586332911
-153.92466363621682
-49.46538994584818
72.84701229084786
242.09492444620932
287.0758308967443
153.79265760734302
92.47450577154784
188.93060882789388
209.6100901833078
91.05630072527777
43.053225249997276
31.128120533197393
-94.10678833572983
-220.54069421501373
-278.7894443070837
-297.7963472191528
-245.08133050826777
-151.59809223510052
-74.90083185829121
-78.05143454744474
-131.31618597291074
-88.40588883566573
38.376894641568356
169.2898650029985
213.81477576502948
131.01334484595094
61.647818853633446
42.54503848516953
34.86725011151752
48.719943683047546
86.6624905953093
163.18561370441887
175.4495555763505
93.79835404930478
57.65607215434787
56.73571640043169
45.03087517640769
53.108985407334515
42.42435687801281
-14.23051176844705
-98.21547000348154
-134.20533418378886
-46.92052209685947
45.9502381264238
54.98221714093531
55.6932751093711
23.70495510883977
-45.3059718409891
-60.15158634820737
-43.32497769275911
-39.83307208693793
-37.39643775130951
-13.214496184598325
43.973008933220456
85.24890876136406
87.22016824896068
39.94832327327245
-95.42079756904586
-220.2220539699921
-231.10403912503014
-143.88188433880475
-7.198447312991491
72.95015027860674
83.54607627825827
11.678871858378796
-169.002945915133
-265.5093783052971
-178.1075084627314
7.702947397762679
152.9734933234209
75.788698475769
-78.49465096991176
-4.965516109591429
153.72725348119664
166.19969372913542
133.16219490859922
78.75564937991567
-62.81475951178068
-199.10746163700867
-204.33576582565834
-24.555349931964233
153.22778227925792
119.38109705062682
41.84581231033888
71.01069422026771
98.03644680854032
79.49798564990837
16.175981177153805
-88.7894064418053
-112.68355582648232
25.832491782527576
202.89744687616022
252.43707107839336
183.30373343412685
123.04226408522368
111.89880072226958
140.8422103930999
234.79829081440965
274.4884930409224
179.89477627968932
78.99588073576405
-3.344809709795656
-125.25110795894358
-208.15546544115207
-141.6416376185087
-36.05419438864169
-21.703836958580634
-13.116372466668981
-8.831172715200342
-47.024140194345414
-29.195554793395146
39.830926847265374
57.061478438268175
65.90205462324518
145.76400830356303
229.0875923189425
242.81763700558028
208.72133166464715
188.08080802221542
172.1940574016361
113.46580325709712
56.887136141475
33.856664406917965
21.642240368163474
16.200175370608672
1.3643318492671361
-36.27332506853072
-73.07139895462937
-59.13530529393397
25.78146250813854
114.11019166959808
143.52644120116037
156.65951598232238
172.32918419200016
132.8686803230801
34.6521286761873
-58.57732709416699
-97.30125755789702
-117.35228102629672
-172.43169456562046
-224.7612948458183
-223.53448462660617
-170.414412711445
-94.30970695810696
-48.28525886650016
-56.4662016062771
-48.65735534687582
23.128680877818592
95.76207988920851
123.40281316541636
111.15228845978042
85.80108294021367
87.06989696876146
97.24982453734958
69.89152486968469
12.422004652165223
-23.804659828313696
-31.56422657491019
-47.28065202014732
-54.5396219580645
-27.912663945548903
-1.8029663545480021
0.015857989647726438
-15.01404156213258
-33.97837805249631
-16.22278754332719
45.66334855636923
94.22949781612
105.0744372171806
83.31366821865849
19.82142551653106
-53.71471432753556
-100.36745954055861
-133.0110410646091
-156.17609372235341
-161.16324778050162
-155.95891639250192
-138.42624317395996
-88.95534163366032
-2.906010502774519
82.80552712644946
91.11734614563584
30.796313630129806
8.517977069946442
25.62878712089355
25.053529006269983
17.075871481947686
11.70453347528501
-17.525884456391324
-67.00353144226497
-96.4925130057865
-117.94849175477351
-144.04471748806745
-141.70823892792612
-100.83485470209935
-65.85530886754786
-72.47819544517795
-59.180658419979125
4.198943934287464
47.58210955917643
51.92033360440504
25.3783240409314
-46.20538310009725
-130.76449064798754
-204.19181001617574
-260.0037436796572
-258.0653942007451
-202.89820413560426
-148.83913355829205
-109.26020413912656
-65.32652048052266
-35.69214425989852
-35.109105667552626
-30.03036150074944
-12.943517101964376
11.886081123210257
49.24174455694925
60.17472679682878
14.343113231865837
-33.50947656178278
-27.25407313976787
-30.584708683742885
-106.7211001939135
-185.18443042529702
-190.35062778398157
-157.97803461049887
-171.88075996070498
-236.5260784263236
-272.7227928220377
-212.258598946001
-51.42095738265515
73.72271301223985
63.37590232750269
76.12811355983683
214.91740747868394
303.0230036743697
240.36343600048156
192.81371708279198
211.04486498989692
172.24671813502172
137.94495657651646
210.15052727386703
281.80380982917245
223.9142065022416
113.79956507642247
105.66285164642453
160.19290405189227
140.8940933933497
68.45539317769918
38.12239769574105
0.8325744970510285
-111.14146075299395
-197.7790128244989
-160.2851212337944
-70.00213658703238
-48.35331708395651
-84.61791804151706
-105.968276458019
-126.15629731899097
-143.11111397389692
-118.30489440338961
-88.42911782021251
-84.53215340784499
-60.446611059633746
4.9518457876639665
36.30502846730104
-10.685467011531925
-64.17283007324339
-70.00157281611202
-63.219081589539975
-51.0947708893248
15.573443799877364
110.87421329294197
138.76190668095748
