AAD_Filtered_TADAS_FILE
AAD_BASELINE_CORRECTION: BASELINE REMOVED
AAD_FILTER_TYPE: BUTTERWORTH
AAD_FILTER_ORDER: 1
AAD_LOW_CUT_FREQUENCY_HZ: 0.025
AAD_HIGH_CUT_FREQUENCY_HZ: 40.0
EVENT_NAME: 202302060117
EVENT_ID: 13194
EVENT_DATE_YYYYMMDD: 2023/02/06
EVENT_TIME_HHMMSS: 01:17:32.00000
EVENT_LATITUDE_DEGREE: 37.288
EVENT_LONGITUDE_DEGREE: 37.043
EVENT_DEPTH_KM: 8.6
HYPOCENTER_REFERENCE: AFAD
MAGNITUDE_W: 7.7
MAGNITUDE_W_REFERENCE: AFAD
MAGNITUDE_L: 
MAGNITUDE_L_REFERENCE: 
FOCAL_MECHANISM: 
NETWORK: TK
STATION_CODE: 2713
STATION_NAME: 
STATION_LATITUDE_DEGREE: 37.49254
STATION_LONGITUDE_DEGREE: 37.62405
STATION_ELEVATION_M: 653.0
LOCATION: Kahramanmaras_Pazarck_Turkiye
SENSOR_DEPTH_M: 
VS30_M/S: None
SITE_CLASSIFICATION_EC8: unknown
MORPHOLOGIC_CLASSIFICATION: 
EPICENTRAL_DISTANCE_KM: 56.15
EARTHQUAKE_BACKAZIMUTH_DEGREE: 
DATE_TIME_FIRST_SAMPLE_YYYYMMDD_HHMMSS: 2023/02/06 01:17:16.7868210
DATE_TIME_FIRST_SAMPLE_PRECISION: millisecond
SAMPLING_INTERVAL_S: 0.01
NDATA: 2879
DURATION_S: 
STREAM: HNZ
UNITS: cm/s^2
INSTRUMENT: sensor = GMS+/GEOSIG | digitizer = 
INSTRUMENT_ANALOG/DIGITAL: 
INSTRUMENTAL_FREQUENCY_HZ: 
INSTRUMENTAL_DAMPING: 
FULL_SCALE_G: 
N_BIT_DIGITAL_CONVERTER: 
PGA_CM/S^2: 0.031
TIME_PGA_S: 
BASELINE_CORRECTION: BASELINE REMOVED
FILTER_TYPE: BUTTERWORTH
FILTER_ORDER: 
LOW_CUT_FREQUENCY_HZ: 
HIGH_CUT_FREQUENCY_HZ: 
LATE/NORMAL_TRIGGERED: 
DATABASE_VERSION: 
HEADER_FORMAT: DYNA 1.2
DATA_TYPE: Acceleration
PROCESSING: Automatic Paolucci et al., 2011
DATA_TIMESTAMP_YYYYMMDD_HHMMSS: 
DATA_LICENSE: U (unknown license)
DATA_CITATION: Turkish Accelerometric Archive v 1.0 - Disaster And Emergency Management Presidency, Earthquake Department
DATA_CREATOR: AFAD
ORIGINAL_DATA_MEDIATOR_CITATION: : AFAD - Disaster And Emergency Management Presidency
ORIGINAL_DATA_MEDIATOR: AFAD PROCESS SERVICE
ORIGINAL_DATA_CREATOR_CITATION: AFAD PROCESS SERVICE
ORIGINAL_DATA_CREATOR: network: TK
USER1: GuestUser
USER2: 
USER3: 
USER4: 
[...]
0.00120379860678665
0.0009794199282950563
0.0003073641662893967
-0.00013619305260158758
-0.0004987893154271201
7.809647319126204e-05
0.00017585370711245722
0.00032092360638457653
-0.0007343150548221611
-0.0003922130669907463
0.0006104930110883098
-0.0004893526029461991
0.0006577827296862015
0.0010517464281633306
-0.0009147280460990564
-0.0010885977665544874
-0.0015860856813848254
-0.001133384022652794
0.000597763210015753
-0.0008724932473090517
-0.0011026996103764804
-0.0002002464324292476
-0.0010510812534108385
0.0001676155811680202
0.000917811829528973
-0.000250465087371791
0.00014796976494388904
0.0005324145301313292
0.00013937755795511916
0.00014189551517032912
-5.674689123564949e-05
0.00024035243409627235
8.853477527236367e-05
-0.0008151813645306013
-0.0007460586586433863
-0.00038813941669184934
-0.00037404212004077755
-0.0003804879538599064
-0.0007686913372308853
-0.000570371957340964
0.00011289358124978183
-0.0008233331839356174
-0.0009330158657210916
-0.00028761673899116474
-0.0008121732987844186
-0.0005436575668797166
-0.00028761954146671773
-2.6597536681318743e-05
-0.0003555497186444303
-0.0013634935250471096
-0.0006524967785736624
-0.0010126850734772585
-0.0020031874021972018
-0.00012364061506597875
0.0002919261341086966
-0.0005085939767736807
0.0002910021496807802
-0.0012923842449186367
-0.002052403745375531
-0.0006821702987941419
-0.0005938518061127
-0.0006382813071022679
-0.0013987832883464498
-0.0010088949511880443
-0.00042201604028253164
-0.0009164998050994347
-7.546035643615006e-05
0.00028053278483060535
-0.0004896683247816898
-0.0008814429729679435
-0.0010725134753272645
-0.0009729772503263715
-0.0008261058639247368
-0.0008997642621226745
-0.0004688813766581538
-0.0010792824482774945
-0.001746281038758369
-0.0004240823515385356
-0.00011659732053995616
-0.0014487668293470916
-0.0011602700871029721
-0.00032461142898706846
-0.0005536245484504683
-4.4560859489434234e-05
-0.00030350827965959314
-0.0005642542529071372
-0.00023513857973025626
-0.0005982346749070878
-0.00021699020059740917
-0.00021517399519888067
-0.0004118744455588758
-0.0010947309432007564
-0.001333385587622095
-0.0008175732189070202
-0.0004905479889800861
-0.00046051247805173855
-0.00047562804131360447
0.0005120474211075712
-0.0009714089589826238
-0.001586908148590875
-9.517272973518297e-05
-0.0006583735867759812
-0.0013503795734178812
-0.0013876685199479156
-0.0001904474137035901
0.000376142293071925
-0.000697501053409465
-0.00015004244637424906
0.0001593037088690051
-0.000979118464205399
-0.0009863799922667138
-0.0005890666076343907
-0.0005945460762672987
-2.958428367929171e-06
8.748657541758014e-05
-0.0011348031741813247
-0.0010990475201587318
6.034028513581616e-05
-0.0003334683888550538
-0.0017007202306214618
-0.0010023307630892529
0.0004081825118909378
-0.0008985971367049956
-0.0008204369483254936
0.0007089439286717159
-7.142289816581253e-05
-6.681446770841494e-05
0.0009106081637348717
1.8988280799406976e-05
-0.0012920561002803654
-0.0004271116338503484
0.00011289735994442004
-0.00016292676221819284
0.0005651128243579434
0.0001933501803973246
-0.0007941461772562517
-0.0012708236427898625
-0.0006341276284923235
0.00041466240805478115
-0.0007081875073496941
-0.0011154832479097277
0.00046535488646910815
-0.00034060687324465467
-0.001302143341564244
-0.0004188063803168505
-0.00047574893021343375
-0.00025050002991808864
0.00041903931235615327
-0.00011874096410964272
-0.0006296099524809478
-0.00017315922066145646
-1.3598308339134249e-05
0.0004926732266190662
0.00042921001003239263
-0.0003241665877780293
5.952738633005676e-05
-0.0009196150077937522
-0.0014002488095379495
0.0002185549690318169
-0.00041002338393385284
-0.001461605659330783
-0.0005321035494019211
-0.0004169031379221265
-0.0010622695619355862
-0.000731755576301024
8.074412955705028e-05
-0.0001374743049967405
0.00036509181788617546
0.0003038114563473873
-0.0010379568434527794
-0.000745575732792375
-0.00030511809397057606
0.0002551027345478362
-0.0004228127312038758
0.00011809088318991469
0.0006254731249483197
-0.0013984646065883421
-0.001150542242318884
-0.0012740926444215906
-0.00042475825259916767
0.0003192805425186792
-0.0014320617452395867
-0.0005390010511513181
-0.0002083939081702709
-0.0009645564336878034
0.0004011046078027901
9.692867909800174e-05
-0.0019045173802402597
-0.0010785069930658578
-0.0001249501434430437
-0.0017856796745207722
-0.0009378630564339331
-0.00019183935388502194
-0.0011592979452151764
-0.000665520366452692
6.378909055425864e-05
0.0012599223581679715
0.00045234409293137904
-0.001097838982678529
-0.0008954466552340979
-0.00178089268915814
-0.0017188152261529866
-0.00037525626255245203
-0.0012539317175482997
-0.0011965471244011
-4.795007576220883e-05
-0.0012204763332776607
-0.0016013129241846354
-0.0002289057846086902
0.00024865969585401084
-0.00019110704590868157
3.202073422343729e-05
0.0005058425591562949
-0.0003248502511460158
-9.871580572432404e-05
0.0003738861175534033
-0.0010434493234290382
-0.0009087484403545061
0.0001998449462397412
-0.0005607091716225462
-0.0009572603145741834
0.0004216083496294943
0.00030676770995069247
-0.0010077841952411937
-0.001316904072772834
-0.0005692209893842745
0.000618306961654755
1.1973305498756211e-05
-0.0010519390072872897
-0.0012930594307822177
-0.001363699098939819
-0.0007371825540396083
0.00012089432966231304
7.549550371188654e-05
-0.00029403029532822165
-0.0003017403376654445
-0.0010810038830212417
-0.0006831270500729668
0.0006825570424753207
0.0003776885916004485
0.00013939476751546328
0.0002600293620992032
1.7398003314749664e-06
-0.0008476800417406687
-0.0011983657386268926
-0.0004298310470563407
-0.0004283924218338229
-0.0006244360660126419
-0.001111807854954506
-0.001645983472043698
-0.00019550281100431073
0.000829844387153583
0.0006976972227514801
0.0007630259666622439
-0.0004481283434320789
-0.00041969895716919745
-0.00023802608786909342
-0.0005261792244575922
0.000601178294002437
-0.0003659894040776415
-0.0010501613577248113
8.296335431009023e-05
-0.00029758041767813707
-0.001083370975695745
-0.0006821762863943932
-0.0008855581472198676
0.00019878554671458852
0.0012140326092001047
-8.904297736172072e-05
-0.0006022979728801784
-0.0011245241062547745
-0.00046504632489619555
0.00037561320706987086
-0.0006413368205242961
-0.00012288512300527904
0.0005925698065743943
3.024112035577106e-05
-0.0008599955404117228
-0.00021010950508903542
0.0006348217174466267
-0.0009724917927250287
-0.0011328300782205822
0.0001263160861439821
7.228858247013854e-05
-0.0010765392759282445
-0.0004899942043579427
-3.655444381872525e-06
-0.0014271000676055713
-0.0005047167258135354
0.0005938005874134294
-0.00035869133812718647
-0.001245707251413769
-0.0009880137184317599
-0.0007254828338514274
-0.001641938667540573
-0.0007807604990911811
0.0001541788711266654
-0.0013016624905883836
-0.00036310412128968527
0.0009229591140161024
-0.0003217992767299864
0.00011562719845555578
-0.0001073261056003924
-0.0019535129426943056
-0.0015985908980818424
-0.00020891020254401132
-0.00013242092323358578
-0.0005634573409023639
0.00044052723036424864
0.00032015177282262677
-0.0019714341707459007
-0.0015860794865109207
-1.579661348423681e-05
0.0007528293329569942
0.0007514008236782178
-3.432796265418487e-05
0.0009526646744570257
0.0004482490625042907
-0.0006685496271226368
9.608711554870727e-05
-0.0004893326565104422
-0.0011704967795627453
-0.00043009743908688735
-0.0004143702302124564
-0.0015975277647053995
-0.0009930545536271187
-0.0005154051565658212
-0.0011495435710920088
-0.0006292194870572359
-0.0010886805418072138
-0.0008526865363525352
-0.0007755609753078509
-0.00042171831580970864
-1.3325602147436742e-05
-0.0017893405416147326
-0.0008829256225570144
-0.0007544437142094434
-0.001406563464624875
-9.280387295230663e-05
-0.0017407146160875995
-0.001878602125920917
-0.0006291206153875665
-0.0010679232294679437
-0.00045102212192224734
-0.0009600223645250234
-0.0006998989637009566
0.00014827463752409834
-0.0012634420889202625
-0.0007388914562637617
0.0007585876141113678
-0.00039795130092212176
-0.0007889048152728229
0.0005866843532807062
-0.000702817903530741
-0.0014168981106778833
0.0007120754739218071
0.0002143016991014988
-0.0007092204326868189
-0.0004342507982190238
-0.000573300268675788
8.609840800184273e-05
-0.0006419006342556007
-0.0012509612353202037
-0.0007431588011897796
-0.0011959911257304907
0.0004081369495407471
0.0007663133622095396
-0.00137824069142281
-0.0008729680708135482
0.0008314912125469271
-0.00023361865185572968
-0.0022395855900933194
-0.0002353795786907666
0.00011697579291303629
-0.001042532038008561
-5.9194443060939075e-05
-0.0013438072677719646
-0.0002961356432175253
0.0015225896185291948
0.0005930864369682987
8.356622477424612e-05
-0.0002461037629583868
0.0007055609533782447
0.0004157892596352957
-0.00022252884464906927
0.0001015990622573127
-0.0002598359918208067
0.00031579417586969966
-0.0009577319080583344
-0.00265989018396599
0.0005620692965568022
0.0014691619903108998
-0.0009554541438461432
0.0014547109462184358
0.0006168155091880734
-0.0026818701471923515
0.000764457413170694
0.0007725304826067732
-0.0013893614574502818
0.0014758006631292822
0.00021111558791740627
-0.002085887162684036
-0.0003262703579143686
0.000542894741494339
0.0006869224763713152
0.00021957294096270632
-0.00013187120306130815
0.00024225999828594895
0.0010309615961924734
0.000626420596843725
0.000242070669060228
0.0016118427955650653
0.001106538362891407
0.0015559763034972813
-0.0010283366197802056
-0.0026513262418679643
0.0026860447890124646
0.001728647681114834
-0.0009243332436459302
0.0006220887189523318
0.001205199481949194
0.0007094373710615509
-0.00021629814075907637
5.7857680836853046e-05
-0.00027807088718398947
-0.0008905282694231325
0.00020570595136173148
0.0012140942205548135
0.000305930313603335
-0.0011928139620098201
-0.0006241952379415521
0.0006552250666088976
0.0003942398027221649
-0.0010423635763415111
-0.00011423816844951685
0.0009803958422975115
-0.0013423350490223487
-0.0003543364314901507
0.0014941029067849759
-0.0008217186763828348
-0.0004260434237604153
0.00035327772611827785
-0.0004371147512573198
0.0007485268892561697
0.00014354202335160166
-0.0007253143805181654
-0.0004781288655504817
-0.00021150260743790382
-0.0009351893819421777
-0.0015457702597771615
0.000530851033036985
0.0008445443004911886
0.0002905278967428387
-0.0004084885369218996
0.00014303936859682073
0.000840997016899003
-0.0008882189792827992
0.00018833933822037677
-0.001143533263489764
-0.0014435839200210362
0.0012585613543613702
-0.000314944062729909
0.00028960442781291297
0.0003726747292444243
-0.0010427406261562526
-0.0005176167230559716
-0.0025479423314246144
0.0006452615061177341
0.0015667604102868385
-0.0024328025090185625
0.0005856525489939464
0.00022414411650701263
0.0011908619977103695
0.0008915074242782803
-0.0038576216749450763
0.00032907574020243403
0.001921244180147404
-0.0006567417550788974
-0.0003242569510595182
0.0006823032567932424
-0.0008120132511994601
-0.0020100411887514795
0.0019345342885569818
-7.704469194623996e-05
-0.001993563049321296
0.0017280219790454037
-0.002324613961335076
-0.0018258398435906664
0.0020383420995744497
-0.0016960806487287688
1.0639620305489006e-05
-0.00046613073845253787
-0.003162235221736627
-0.0004126939481773493
-0.00043897979793626766
-0.0008170732898310172
-0.0014075833384754753
7.091654016312622e-05
-0.00028994008798130896
-0.0004982464013791991
0.0019596370529954845
-0.002234598043461436
9.869213890226127e-05
0.0016541304819285352
-0.0016889897233383086
-0.00018128178149422796
-0.0005563960821863397
0.00022297212645258649
0.0013931907505992129
0.0023611194654487356
-0.0010763731193069274
-0.0024615104114019473
0.0011870598313159734
0.0003083230008398129
-0.0008139484260861266
-0.0010260291163974797
-0.0001323489036017842
-0.0005875459904910173
0.0014077681985851733
-0.0005903411581638169
-0.0015327075105352245
0.004043438199390835
-0.0009578069473066932
-0.0025270432604272094
0.0025865600065017786
-0.0011962185881559896
-0.004365074115697477
0.003917403926468226
-0.0014800184509222863
-0.00402245220108141
0.005704888103016947
-0.0051343997016538
-0.0023543754506216226
0.0028988667649338176
-0.0035028298525599287
0.001523402099554134
0.002098215251502291
-0.004469596234778199
-0.003078912062546475
0.005429740064510718
-0.0028295614615854014
-0.003325854496254402
0.004967074792816979
-0.0025938529644269413
-0.0010947998312264284
0.0038270799656415265
-0.0010370501940577803
-0.0024804773865139346
0.0013938808024242927
-0.0003846159671247041
0.0014994704777537085
-0.0029894650866834614
-0.0030509423648979184
0.011877265643774755
-0.01455341875315241
-0.00832827911083062
0.030651335114302257
-0.011972536948181926
-0.02397012165061102
0.022745363771903324
0.006380004497789004
-0.024304177098237813
0.006835496691133886
0.015474424470063648
-0.017170676512759685
5.852354978585015e-05
0.01030170449644241
-0.009627453682754172
-0.0010383537499744394
0.008310795253809285
-0.004889519034440958
-0.007375004662858806
0.010560377686443334
-0.0019166006160375973
-0.009675194401746173
0.008791508582715471
-0.001012844676407599
-0.006409640640514473
0.006538372111429476
0.00032949887891774507
-0.006507447251612179
0.004037672328303277
0.0023875331836586285
-0.005792780089555398
0.000731687679420466
0.003681195969607453
-0.001355479998833135
-0.0017306224495515768
0.0008150015213270795
-9.031386300425664e-05
0.000957554807691294
0.00022598934644671976
-0.002342208831781891
0.0007317831640513123
-5.056548413270539e-05
-0.0029845033402394576
0.0002770022445034197
0.0013607164741031947
-0.002328664339756208
-0.00025191312443829006
0.0014347905949158176
-0.001778478290412666
-0.0009249467073408568
0.000601718617158004
-0.0013522868798458221
-0.0029028726399724742
0.0008308560198195625
0.0010847829721116022
-0.0019866137688822993
0.0003626316294626013
-0.0006378610415657446
-0.0013037780897741406
0.00040890299081967945
0.000711810576123919
0.00016355182086946177
-0.002497722471024223
-0.0005511851832597865
0.00022264753443743818
-0.0015437299615663849
-5.4542335372136e-05
-0.0006166779938119287
-0.0015055683955123487
-0.0008549257522926265
-0.0009887343418538883
-0.0007233039160803302
-7.320125129582626e-05
-0.0013837388363396655
-0.0013026479802560828
3.0145467682040546e-05
-0.000648770840544387
-0.0012828447910043243
-0.001546000588175301
-0.0018010485948245112
-0.0012759307156156752
2.7103638705017804e-05
-0.00044056367308736497
-0.00020276601774911547
0.0006562617862354092
-0.0007622539486881333
-0.001607522893882062
-0.0007827166035515212
0.0005620998944109061
7.191497344121119e-05
-0.0006590930523993946
-0.0002868611276709141
-8.433005976539111e-05
-0.0005796649389318465
-0.0009150454427430894
-0.0003511794426546653
-0.00024594989131732856
9.22633804867316e-05
0.00031119402148073385
-0.0003887751480151761
-0.000816655387205037
0.00038159033710456167
0.000946915250355482
6.852984018485731e-05
0.0005139805723117993
-0.00010630905641788844
-0.0011629552926357423
-0.00023171481255969065
-0.0005097046184944203
2.4011753377047186e-05
0.0011234750782232726
-0.0006145347698522155
-0.0005140013931203759
0.0010023812260925263
-0.0005551415754146555
-0.0017216839758057954
5.0449432457153114e-05
0.00012784846285980638
-0.0018717310414819628
-0.00045929769020661723
-0.000589990105488025
-0.0018944718688044806
0.0003404362407344071
-0.0007972316741883563
-0.0011969196641475968
0.0007715691087671208
0.000355183228273158
0.00036964946013971073
-0.00022724240063765592
-0.0014916163151961323
-0.0012376504037718734
0.00020317097965318417
-0.0003342420433294006
-0.00045270630623386686
0.001174893905976554
0.00014721929100908876
-0.00031064595945288977
-0.00027351038243772545
-0.0004889433617168737
0.00020901336595910528
-0.00014675149797779678
0.0012093325224713464
0.0007118698791738665
-0.0008014066878441013
0.00016507074303068116
-0.0001310340998294032
-0.0007641626296314771
-0.0018127311621550675
-0.0002964939979503719
0.00010796143254367406
-0.0014703243537925433
0.0003144810412803865
-6.664186533439115e-06
-0.00043199987490012963
-0.0002157680462470119
-0.0005216650015974256
0.000809944111276276
0.0009134455941082899
0.0004660891407481171
-0.0006798703370842381
-0.0008795194891898263
7.440397148914134e-06
0.0001428533196602635
0.0006608883912832546
-0.0003881417118428122
-0.00044242026085175796
0.0005649315349595212
5.022312475608809e-05
-0.00047292707428980184
-0.0005983250967126685
0.0004463163118254168
0.0006973638831030503
0.0007630583761991913
0.0009228557150940724
-0.0005329501636692416
-0.0009676027078034909
-0.0007453691131324468
-0.0004654936227013171
-1.948501382792319e-05
-5.123806071901769e-05
-3.531232561295681e-05
-4.442526762425602e-05
-0.0006283587703754696
-0.0013100564586847863
-0.0005691622591140488
-0.0003573546046074865
-0.0006614283967477913
-0.0008977926430640115
-0.001168029693664846
-0.00024525095719354456
-0.0007142822506533134
-0.0014542103225967087
-0.0010755837395291217
-0.0012666807584891717
-0.0011668455557057402
-0.0008237316751271871
-1.757241865704569e-05
0.00015973508450170803
0.00026419666952223926
0.0007976747134444958
-0.0008478714749227967
-0.001577513930071565
0.0007557606833054146
0.0005461049408467133
-0.0009162908029538213
-0.0003668968306316248
0.0003332760819866193
0.00017142784364680897
-0.0007268177497549357
0.0014940698331467712
0.001339815246576946
-0.0007409663306740068
0.0011015222893972065
-0.00023063267095688457
-0.0013164678459674725
-0.00017393803062431515
-0.0009510062759633137
3.363753457816288e-05
0.0003154077957546378
-0.0002212031381206851
0.0004433190298822815
-0.0002882389294979042
8.33597955285998e-05
0.00048065699098513953
-0.0007026715625446348
-0.0006871701798967771
-0.0004984241640243899
0.00018934798288687153
0.0006224709514249763
0.0005957362303691826
0.0013904940424830697
-0.00019322582380282196
-0.0009551146143943554
0.0008055002258418325
-0.00048432271905838133
-0.0010035144161217554
-0.0001506449783088615
-0.00038900573993735064
0.0003203481416364081
-4.225633479132782e-05
-0.0004464466059462789
-4.409222049110215e-05
0.0003386160429875271
