AAD_Filtered_TADAS_FILE
AAD_BASELINE_CORRECTION: BASELINE REMOVED
AAD_FILTER_TYPE: BUTTERWORTH
AAD_FILTER_ORDER: 1
AAD_LOW_CUT_FREQUENCY_HZ: 0.025
AAD_HIGH_CUT_FREQUENCY_HZ: 40.0
EVENT_NAME: 202302060117
EVENT_ID: 13194
EVENT_DATE_YYYYMMDD: 2023/02/06
EVENT_TIME_HHMMSS: 01:17:32.00000
EVENT_LATITUDE_DEGREE: 37.288
EVENT_LONGITUDE_DEGREE: 37.043
EVENT_DEPTH_KM: 8.6
HYPOCENTER_REFERENCE: AFAD
MAGNITUDE_W: 7.7
MAGNITUDE_W_REFERENCE: AFAD
MAGNITUDE_L: 
MAGNITUDE_L_REFERENCE: 
FOCAL_MECHANISM: 
NETWORK: TK
STATION_CODE: 4404
STATION_NAME: 
STATION_LATITUDE_DEGREE: 38.19588
STATION_LONGITUDE_DEGREE: 38.87385
STATION_ELEVATION_M: 1255.0
LOCATION: Kahramanmaras_Pazarck_Turkiye
SENSOR_DEPTH_M: 
VS30_M/S: 1380
SITE_CLASSIFICATION_EC8: unknown
MORPHOLOGIC_CLASSIFICATION: 
EPICENTRAL_DISTANCE_KM: 190.02
EARTHQUAKE_BACKAZIMUTH_DEGREE: 
DATE_TIME_FIRST_SAMPLE_YYYYMMDD_HHMMSS: 2023/02/06 01:17:44.7714990
DATE_TIME_FIRST_SAMPLE_PRECISION: millisecond
SAMPLING_INTERVAL_S: 0.01
NDATA: 13501
DURATION_S: 
STREAM: HNE
UNITS: cm/s^2
INSTRUMENT: sensor = CMG-5T/GURALP | digitizer = 
INSTRUMENT_ANALOG/DIGITAL: 
INSTRUMENTAL_FREQUENCY_HZ: 
INSTRUMENTAL_DAMPING: 
FULL_SCALE_G: 
N_BIT_DIGITAL_CONVERTER: 
PGA_CM/S^2: 137.416
TIME_PGA_S: 
BASELINE_CORRECTION: BASELINE REMOVED
FILTER_TYPE: BUTTERWORTH
FILTER_ORDER: 
LOW_CUT_FREQUENCY_HZ: 
HIGH_CUT_FREQUENCY_HZ: 
LATE/NORMAL_TRIGGERED: 
DATABASE_VERSION: 
HEADER_FORMAT: DYNA 1.2
DATA_TYPE: Acceleration
PROCESSING: Automatic Paolucci et al., 2011
DATA_TIMESTAMP_YYYYMMDD_HHMMSS: 
DATA_LICENSE: U (unknown license)
DATA_CITATION: Turkish Accelerometric Archive v 1.0 - Disaster And Emergency Management Presidency, Earthquake Department
DATA_CREATOR: AFAD
ORIGINAL_DATA_MEDIATOR_CITATION: : AFAD - Disaster And Emergency Management Presidency
ORIGINAL_DATA_MEDIATOR: AFAD PROCESS SERVICE
ORIGINAL_DATA_CREATOR_CITATION: AFAD PROCESS SERVICE
ORIGINAL_DATA_CREATOR: network: TK
USER1: GuestUser
USER2: 
USER3: 
USER4: 
[...]
3.3068756509044657
0.31340034747556644
-3.7676152590244985
-8.994802121654454
-15.09010874441749
-21.418079657120682
-27.519957154282235
-33.0840016446198
-37.50766711392466
-40.642300964037396
-42.53057439709387
-42.96750907428868
-42.0268426299981
-40.344594577341624
-38.347631355923035
-36.32582021101039
-34.80002726375399
-33.39784480912752
-31.66549013794516
-29.824326788171383
-28.00461841238896
-25.874865834112427
-23.333973667451293
-20.869698286906967
-18.34265781926781
-15.11629067249057
-11.072680485969997
-6.5258093030935855
-1.7365016266398077
3.1324579621131905
7.982860703759415
12.684118483596926
16.263219736134566
17.957459024235412
17.952795881733625
16.263233689024673
12.828168781707497
7.977858852656675
2.0450815095775656
-4.481282033025965
-10.747793204183553
-16.408843932605496
-21.453355242650098
-25.416847967544186
-27.740435948718233
-28.537076783524085
-28.170440866762785
-26.571940031812684
-23.811506227938878
-19.91448536535058
-14.645529974946145
-8.522666372291905
-2.880464314111528
1.5767126260642306
5.289745587721491
8.269720159025661
9.836599021473178
9.709128107967546
7.915778872142843
4.638135410932109
0.3822748545614096
-4.2501314525859755
-8.910880574475192
-13.155829522883256
-16.467804479567327
-18.949319136776168
-20.88126503331125
-22.36694115622511
-23.593149558253597
-24.57955718725844
-25.176434898008964
-25.217819691289012
-24.47149709490699
-22.72682337595143
-19.53662583511479
-14.519181747374693
-7.897156298956643
-0.3216593116880346
7.268972118072791
14.241502888597333
20.38380777539916
25.90755649564858
31.286991102696426
36.72344383990851
41.67291475075379
45.49403554009759
48.60434330768024
51.349396430188165
53.06759396143759
53.581663947252885
53.7451512102724
53.33866604218986
51.450739500644836
48.373706628999706
44.223758619819094
38.52798967238294
31.593460315500582
24.153083113130286
16.753605487661975
9.395897813062135
1.9902632047817748
-5.42956421638124
-13.125998411519339
-20.32296838929269
-24.896192743614932
-26.21240545742642
-25.783246299763654
-24.696264015240608
-23.32048358627561
-22.36048626440074
-21.915658566428668
-21.29023294608897
-19.9111489369821
-19.073827903986576
-20.429482450093065
-22.889277928082507
-24.19499206588229
-23.425212709227882
-21.908332955787877
-21.339329703953144
-22.614035333357123
-25.3908625660244
-27.7656150644329
-28.39633345640814
-27.00448475551257
-24.169389175233587
-21.35424249532292
-20.850057280992882
-23.702292664652838
-26.57514588435005
-25.49019400370551
-20.740545330912955
-15.421238540613892
-11.489716407210274
-8.674762222900593
-6.679224306770496
-5.317824373965124
-3.287785804919901
0.07236849344879336
4.15857493901006
7.368047570249291
8.037865608603607
6.603341678484149
5.0186082092465165
4.882583404259646
5.2658104680025195
3.5701776503908715
-0.5540133450518869
-4.587920433960153
-6.062700374016717
-6.783902418531182
-9.581937483652698
-13.114117098231159
-15.554732189393357
-17.511675969150353
-19.604950266856783
-21.169556018972767
-22.35393810859864
-22.860165490541796
-22.106157758378558
-20.706577643279093
-19.379064488994572
-17.740172176198296
-14.989079267820669
-11.127226574686766
-6.586229056420534
-1.4699790643012782
4.468503097972645
11.541339377040124
20.055976401062374
27.83396834398101
33.07079371379583
35.407789630079236
33.75798019454173
28.631309636916463
23.671268788992794
21.39642351870737
19.24496900249941
15.4785787653917
12.891978117795082
11.343728894419883
7.153543011484922
1.981105995580636
-0.44002653204583997
-0.3083914209855727
-0.8027277941257897
-3.4085335463449407
-5.611671691623749
-6.269029113125496
-7.826998596610879
-11.052388213419038
-13.862311233002332
-13.519025226814884
-10.090110210512538
-7.097779542263231
-4.483386893098582
-0.9862659333227856
0.5982070747901274
1.5988143767839056
5.459802193591103
8.469355429257147
7.605136924929746
6.822317701309252
9.287867613802542
10.87068196091031
8.440850857971249
4.339055354188057
0.44191888367326704
-2.407096339172572
-5.066403998365715
-10.27558982802901
-15.251929881546141
-15.966018146274523
-15.812360257442487
-17.618487087310506
-20.641747600388836
-24.46900142139554
-27.240654913089468
-27.73481687585637
-27.214799324230526
-25.82531928192662
-21.286310709371705
-13.764106669060553
-9.00483952366483
-8.364306271177162
-4.992642993604419
1.1770047669510146
5.04248323710649
7.541828892976686
10.62973527816903
12.97813669193898
11.948415160937877
8.871855456027054
7.582070661449333
9.954926117892153
12.957747489018574
12.138133002028358
9.681779587436196
7.586809286881117
5.131321741490418
3.233833629913774
2.8331840226300447
2.989938569600593
2.4202497839569044
1.7823433409515912
2.231729474539687
3.8267423125754108
5.921318972592262
7.776345465644586
9.812380743778498
11.868755410421107
13.55215799721502
15.380735542069642
15.391706235233078
11.739060504576761
6.245059135370671
1.0216235744214575
-3.061643133024257
-5.79502760578782
-8.643593452494883
-11.804501821238667
-14.687748327995044
-17.68997506732906
-19.715144516562354
-18.938365456394443
-15.175554161651291
-9.79481955200531
-5.672762827789651
-5.175212316854534
-7.55819631690056
-8.469317394799745
-6.585428899387336
-4.8400400970504975
-2.3832198607256068
2.0043561285537375
8.043349894941214
14.702690696463499
17.605515618987244
16.879366100104193
16.786842752504572
17.124711312490007
16.070303974277383
15.47252850641525
17.71485809861701
19.193442388511155
17.495428697315738
15.250638068871998
13.592445244959055
13.838225841895751
15.876528290347526
17.885923803546653
21.142351868648433
25.963396323019754
30.744226658719253
31.67648352138114
26.562491219822448
20.077336137992763
18.407595648911858
20.85320078557996
21.790354985323738
20.951219822744704
18.503364760110976
12.33132067502493
6.152522921532869
4.50730412152718
3.9472885363294394
1.350047912119302
0.03686503564647419
0.21128376083694347
-1.2227177291436886
-1.2533766708664478
1.753270938766896
4.465218474711403
6.404606166046693
9.786529377202738
13.744733341292559
15.667838911324003
16.406891227601342
16.00461741196015
14.091028790215608
13.503119818100389
14.701929544095698
15.190000647590567
16.363747343959737
20.61196247503823
22.601892843515724
19.543262801796853
17.008673662605077
19.847166712063288
24.38870632820297
21.484619184219127
17.03076867523608
20.52344778252558
21.781546677761707
15.711361215813652
13.863796177917234
15.915492180102738
15.474794727925419
12.65219941409028
9.620176444720528
7.900695224697032
4.21826416415488
-5.45232719696333
-14.4875795655731
-15.36057943967378
-11.614256647344355
-9.440475434769814
-11.020688801810136
-14.645822282262822
-12.645850921300163
-6.356314842903836
-3.950260368995005
0.9963508391448967
8.162062712627128
7.882094324146252
4.270971027114865
6.935623309991837
6.829948446570234
1.8392439803644447
5.7237602446239535
9.787652867097366
2.628377538217733
-4.5301682837572965
-1.4427187023152193
6.218942807129229
11.919162505116017
13.904772985140411
11.083471495762192
7.6524023827246035
8.767446393123738
17.58128111356485
26.96171021352442
28.606710414312364
26.892949433945766
18.853918577097335
1.3637276527169766
-9.302607696423216
-3.318003197312562
1.754686759917569
-8.262322665477596
-19.002862957857875
-20.994011182076576
-22.21804979975731
-27.671142325753063
-32.48425203870146
-26.440893580743793
-12.75511566223767
-13.425804921218914
-32.15490783011616
-38.87160345700122
-27.546795486148252
-22.745521837730852
-29.716387590163787
-29.68037177977724
-18.68048371187296
-16.578703493605406
-21.53675483243225
-19.300385952541323
-16.695107720127318
-13.157166086944644
-1.9045355629956575
5.39641164567363
-1.6890398138831482
-3.387278306877928
8.399410672830445
9.059341361117305
5.851320695049231
22.391835684105548
39.39445391897627
29.329285987845623
14.777550615329364
18.024926204096758
22.829224957288954
21.056293120739475
21.036117460192344
24.822985366800076
29.631667739924488
30.458264600277246
23.088269190690426
14.253015187957905
15.227963240632848
25.055136992405295
27.282816086861253
18.127112715481662
8.979146061218488
4.886916949969339
2.72215830286708
-3.789292067010578
-12.526770445403208
-14.68749269237632
-10.362585289739094
-9.404715911704447
-16.047767325749877
-22.374833634771253
-23.138671151989936
-22.043912472588605
-21.867948784666456
-22.39912257697845
-22.584819196507237
-22.105117875832402
-23.632420738678615
-26.143966589181222
-23.350455190465926
-18.125410170521892
-20.982148098788706
-28.569940866470773
-32.78457299020249
-36.512803569808746
-38.465847982250644
-36.154791464609914
-36.13714138872558
-39.07433791217864
-39.88213389356306
-41.23120522192268
-43.77855047881003
-41.76002465583468
-34.57502290756491
-26.22241083845858
-21.897318165747187
-19.896414305753375
-15.85572252869256
-10.002136749333605
-5.223739081525392
-3.230839914407797
-0.37215964937583373
1.714972128938079
3.1404639106080565
5.217200735523116
1.3412357630691918
-4.5601255128784635
-0.7508300542112635
8.164562657244067
10.827611795984478
9.978783527488815
10.84637977706603
9.988678668719706
5.200266114880354
-0.6017208319600673
-4.499840435405061
-5.5275011116071395
-7.27681012021795
-10.17765309340403
-11.92370730885586
-14.278219462184255
-18.0985838838016
-23.813787912810763
-27.856026729817703
-28.215803022900978
-25.131754063373013
-14.795240529307335
0.8175407083550283
15.054494907044583
24.33782288382109
32.09559516151655
44.132666710919494
56.201167746103295
60.96860222598017
63.31479996729825
74.71208092383539
84.24088733373164
78.55735571945397
71.62355294335559
76.96439846807057
85.32789989974872
87.82214980864028
84.73737865490394
70.26604861974
48.58689297733047
40.576991494003316
40.813218619746586
26.143138865304124
9.301670622596724
7.1888639688925915
13.019958201906904
9.383394069005432
-9.83484312909893
-28.97669510377172
-32.56336191543469
-29.13525923383616
-38.531911792100445
-56.12526035290949
-64.80391661263563
-59.8845751881889
-56.61819500279226
-62.1027767351848
-60.99981981906394
-50.63685764867588
-37.52112555375825
-25.014953618284565
-20.801439912350023
-26.584419941383274
-20.467331222463635
-2.3190636794968906
5.32708594126086
8.487991545282757
13.573612136732418
8.438714711827203
11.842359952183282
34.647008932514375
48.73441337448871
56.3917340866654
73.41050897403606
86.98600901320494
80.55844709590227
69.11890427241407
63.642724129364844
56.28989739656363
51.122629134855956
54.61806814222645
43.85226183540249
19.911874745811573
26.4552327575438
47.33713372902484
46.37599759177624
49.72845300533364
75.02498919917446
86.31913215163038
79.52633876506157
81.58206557420812
82.22371259705078
72.03499265910429
57.117206637725594
37.71041078068883
11.274459218232526
-18.750181836763723
-44.90457510441439
-59.71462131167788
-61.90196102093678
-60.032605172687425
-60.273199513695744
-62.72362015794844
-68.91635181957507
-74.83865104881193
-71.19608451429808
-64.13337556371359
-57.08564418046042
-41.824968205590885
-23.36284728219826
-10.653344269240622
0.4422881879250912
17.939653175679762
34.8011315153109
46.40341385914285
53.996995570063596
61.00141539550689
68.24879123376012
66.87430828957986
68.45025718598816
76.25193405179354
75.37628846153535
65.94009663565481
60.917863318269376
55.70689931566936
38.67954318367565
21.80351763217214
13.11641397379111
8.192353078404626
5.035289791428028
0.34244289541823575
-6.620807947802296
-11.660350100320576
-13.000245448047723
-15.584548376028058
-19.167291198121436
-18.791112684770578
-20.624365795483488
-26.297311600708035
-27.416854768276075
-22.78477695935176
-17.72894698018477
-12.453456817247481
-5.885637454146857
-1.6191488464297996
-0.6955151576261134
0.8673365308571174
6.665567949032584
12.153776865879433
10.912351230846294
9.40023519767223
15.356890627670785
19.949678341467187
17.168763041360187
14.947295364813304
19.446918839660174
21.91254527939569
13.085520401607054
-2.500192911202426
-18.59905096079721
-31.561647808708376
-41.00314129949797
-51.60868827331479
-59.11909661468536
-53.6648177155924
-42.34257241347837
-40.35904701972654
-42.63815575284699
-40.39374421254772
-36.40635251911862
-27.514214236989663
-16.03197261889271
-9.828284326401604
-6.6018827338192825
3.0919839392663
19.04303315149904
30.69285728603983
32.60053447102727
27.87421812303165
18.391709658855035
5.716353036767354
-4.662860275776119
-5.509740715990178
5.706926285232804
21.06587259428875
35.29431005453279
53.592376331286026
73.46617435675621
86.83195850938836
86.21150596140045
64.28262252794731
29.186925945264473
-9.458745642223592
-49.66039581815874
-85.43662992585195
-114.78971343513038
-135.8378369192544
-139.1918044527591
-116.70969236740693
-82.90700656307985
-55.28079163397582
-28.126098569761215
-5.255362810662959
7.89984965166567
14.535875618238428
11.917628947546072
7.29515878322445
11.538630706743424
22.62737748578719
30.81815233863595
29.91975625383418
26.930458459349786
24.094189699855754
15.992244927302588
0.9310712775272496
-17.916857084809998
-35.8561341267163
-47.29384728819811
-51.60438077636912
-56.720038320801706
-63.680822716189894
-67.4121865553549
-66.45483320124748
-60.72857697222723
-52.3032740033528
-43.2172031403944
-37.914407304527835
-37.434687867898724
-38.69644006791266
-39.76497016087979
-33.944742380436146
-25.528204086699997
-21.425759133395722
-18.396749568409177
-10.336167643983563
4.260163325030566
18.02152433173715
26.848152251757636
37.39466446920832
52.005550111991596
56.27478674653583
44.80448168354286
29.288713392150996
14.705922600116635
0.6216431610737984
-9.194645347057387
-8.54388971616325
1.6065465070843805
14.648599797059687
28.017622699093998
45.68336309146757
56.229027295758954
50.63333727573707
35.813552585246555
14.809168419425394
-8.687986536190259
-30.175010701290752
-43.2742202699335
-44.67749212414725
-36.876660713652875
-27.005199988234338
-23.492050845899367
-23.83445049009419
-20.11860298422771
-13.531022071731373
-8.094944994625607
-3.7529792005992455
0.5277441818277591
5.984419042397722
13.832483847880532
14.954601976371357
10.000473882495474
8.359204075150013
9.337192302390802
12.087302298779768
16.633121188376652
26.76449664946238
39.71384571868624
48.31705277733855
55.183331922300795
63.9948717156718
69.03585084687761
63.466349337027836
50.99420056197893
36.282791780595204
22.39108895352136
9.705334997554905
-5.7205603885756116
-24.087108772983335
-39.089261019559515
-45.15495498846685
-42.698493455754054
-34.13821752168729
-20.896574243569376
-8.999581173768208
-0.9090791659744895
6.175754324002683
10.882990307998577
15.943445766121268
18.29374014019659
13.772923554176625
8.886217506348753
8.15147615994545
10.044987429800795
10.722583548806094
8.661569624456437
8.130047808248428
9.103606235932224
9.218955120310934
7.626645541179491
3.1590261600737355
-2.824564791399194
-7.958328709252345
-9.592852087592426
-7.396805057277992
-3.9658304044317143
-1.9337972752725356
-1.8019609872020121
-5.354029932357805
-13.208397385355577
-20.53326337568653
-21.852605020825234
-18.21329599241706
-15.954065420390233
-19.386143664455943
-26.19070671907205
-32.81347711155929
-39.89654981519501
-47.355334066862696
-52.55071717915073
-53.25983836825304
-50.73144721871175
-46.123564929624266
-37.527330890256366
-27.923727405955933
-23.12945130186076
-22.311674811787917
-22.349259619138866
-21.423172605642968
-18.442062835078023
-13.499874674883664
-6.609825986650945
1.2293337484368596
7.976200962117855
11.770304866614014
13.44935696001158
16.51499744699273
21.808349919902806
24.78435836945934
23.734926668786873
23.261503134057705
24.754595923747093
25.564522798288806
25.545530255778647
26.252696601567994
25.823842108043035
22.748032646332394
18.87882920499066
14.681865369090957
9.03273404818495
2.985722601926704
-0.749002094130734
-1.5432480993477642
1.1040777767114267
7.1205252723702275
12.665267348815657
16.50925860515215
21.35928600307674
27.82595385794325
33.31804537327751
35.78758669223478
36.79891220002527
36.927392548818965
35.75467252775742
33.45902185287082
30.782681349066326
29.672356165525876
29.313580966928235
26.925890922909094
21.55592696019046
15.22118276468525
8.403897295707177
0.8656344005693548
-5.260336077437086
-9.72011583088524
-12.23470710240174
-11.155488472847454
-7.617875157053607
-5.4189358152795055
-4.931061734351326
-3.9801580179064846
-4.558379459940835
-9.143070178405162
-15.9849662955827
-21.216542354497573
-24.342347762788968
-26.55343003754638
-26.774238201473548
-24.884607779423185
-21.414305982933502
-15.98611556020927
-8.33216927466594
-0.7355168414528871
4.2530271422561015
7.376095549606795
10.103084617086667
12.742628404422787
14.317024066628882
14.212902061995319
12.407188214145176
7.567901290422179
0.4049360407939292
-4.984614660484016
-6.523489199856141
-5.687205703795187
-4.374943045151235
-2.5590700922420457
1.065762818134816
6.599911403799523
10.766660935767312
10.378619672894873
7.173615658760629
3.5876019467525073
-0.2948852848839891
-4.085513768543009
-5.493083383609818
-4.026798248064758
-2.448927671141429
-1.8577225931132597
-1.5789756421660177
-1.8240136875993278
-4.31816053435699
-8.881532854057436
-12.822839700715392
-15.223311266491116
-16.207161452983126
-15.828853792415284
-14.004633192345036
-10.336098393722851
-4.958037424188605
1.1339017690283306
7.2434611390570955
13.31192844249829
19.32128693540927
24.72327473256305
29.1654518475668
32.796058614459675
34.88676596920043
34.664120069979234
32.49593241152414
29.096531873654637
23.925905382547917
15.697887548464136
5.536763030979515
-3.133200609331715
-9.243738724288852
-14.691465162373197
-19.90487327407875
-23.965360896550813
-26.746770867920755
-29.05239211781263
-31.576854636608047
-32.900595818205666
-32.32729778698419
-30.143375780983654
-26.792391357554212
-23.27347689476171
-20.239093981045283
-17.32189898034587
-13.396879004694442
-9.723720835222515
-7.4504591747563955
-4.832063047506591
-0.3106312879479524
4.544768483475631
8.215707790445986
11.993097463691118
16.63946442375707
21.86589881074758
27.919549164627647
34.973953838606164
41.0512808529809
44.41844042405761
