AAD_Filtered_TADAS_FILE
AAD_BASELINE_CORRECTION: BASELINE REMOVED
AAD_FILTER_TYPE: BUTTERWORTH
AAD_FILTER_ORDER: 1
AAD_LOW_CUT_FREQUENCY_HZ: 0.025
AAD_HIGH_CUT_FREQUENCY_HZ: 40.0
EVENT_NAME: 202302061024
EVENT_ID: 13207
EVENT_DATE_YYYYMMDD: 2023/02/06
EVENT_TIME_HHMMSS: 10:24:47.00000
EVENT_LATITUDE_DEGREE: 38.089
EVENT_LONGITUDE_DEGREE: 37.239
EVENT_DEPTH_KM: 7.0
HYPOCENTER_REFERENCE: AFAD
MAGNITUDE_W: 7.6
MAGNITUDE_W_REFERENCE: AFAD
MAGNITUDE_L: 
MAGNITUDE_L_REFERENCE: 
FOCAL_MECHANISM: 
NETWORK: TK
STATION_CODE: 4406
STATION_NAME: 
STATION_LATITUDE_DEGREE: 38.34388
STATION_LONGITUDE_DEGREE: 37.97378
STATION_ELEVATION_M: 1050.0
LOCATION: Kahramanmaras_Elbistan_Turkiye
SENSOR_DEPTH_M: 
VS30_M/S: 815
SITE_CLASSIFICATION_EC8: A
MORPHOLOGIC_CLASSIFICATION: 
EPICENTRAL_DISTANCE_KM: 70.17
EARTHQUAKE_BACKAZIMUTH_DEGREE: 
DATE_TIME_FIRST_SAMPLE_YYYYMMDD_HHMMSS: 2023/02/06 10:24:34.1517780
DATE_TIME_FIRST_SAMPLE_PRECISION: millisecond
SAMPLING_INTERVAL_S: 0.01
NDATA: 10501
DURATION_S: 
STREAM: HNE
UNITS: cm/s^2
INSTRUMENT: sensor = CMG-5T/GURALP | digitizer = 
INSTRUMENT_ANALOG/DIGITAL: 
INSTRUMENTAL_FREQUENCY_HZ: 
INSTRUMENTAL_DAMPING: 
FULL_SCALE_G: 
N_BIT_DIGITAL_CONVERTER: 
PGA_CM/S^2: 409.312
TIME_PGA_S: 
BASELINE_CORRECTION: BASELINE REMOVED
FILTER_TYPE: BUTTERWORTH
FILTER_ORDER: 
LOW_CUT_FREQUENCY_HZ: 
HIGH_CUT_FREQUENCY_HZ: 
LATE/NORMAL_TRIGGERED: 
DATABASE_VERSION: 
HEADER_FORMAT: DYNA 1.2
DATA_TYPE: Acceleration
PROCESSING: Automatic Paolucci et al., 2011
DATA_TIMESTAMP_YYYYMMDD_HHMMSS: 
DATA_LICENSE: U (unknown license)
DATA_CITATION: Turkish Accelerometric Archive v 1.0 - Disaster And Emergency Management Presidency, Earthquake Department
DATA_CREATOR: AFAD
ORIGINAL_DATA_MEDIATOR_CITATION: : AFAD - Disaster And Emergency Management Presidency
ORIGINAL_DATA_MEDIATOR: AFAD PROCESS SERVICE
ORIGINAL_DATA_CREATOR_CITATION: AFAD PROCESS SERVICE
ORIGINAL_DATA_CREATOR: network: TK
USER1: GuestUser
USER2: 
USER3: 
USER4: 
[...]
-74.57886255697272
-27.78003115734634
0.5650394892090653
-36.536424701137534
-118.16536482825985
-191.79764428289573
-201.13260921947779
-156.91977719832587
-135.83299143801176
-173.42616192720175
-220.07002325169614
-228.48929980003302
-211.71554324319666
-157.65427075547208
-86.14291647354182
-51.80030090901338
-67.8116335892655
-69.14828076962475
-55.520965278616096
-60.9816960547833
-97.53799156916246
-148.902228908465
-191.73708419893507
-194.48528614785872
-144.69011064221343
-49.311682840069174
66.12883673542721
139.22942849091748
154.5065590808166
112.82746243940257
48.06954789764832
21.369134020954117
-0.17701290368099237
-36.14621959771896
-48.14341078876353
-32.896080507497054
-5.302464079847527
-16.46428172263361
-15.670139783051807
42.11549218144813
82.24652447834788
62.0478685617593
30.356482684555967
26.746588788239112
46.42755659359049
125.49000376191434
217.66008605286473
188.9710992328183
118.71358212507545
86.57461433591
94.48274646936856
135.19467670140645
119.50654634617638
94.12460225313978
107.61556418419269
87.04297623629763
28.472022942942857
-21.01418527087962
-53.93751893120197
-59.64759914293336
-98.98624707343164
-176.76784621853977
-166.1077503169133
-88.72832242538594
-23.505808487119587
33.7614066946676
73.59001469886965
30.408348257676398
-68.92319904206339
-103.81825999365905
-83.04153120501002
-74.87478115953051
-100.5777955260029
-107.54193733059009
-71.71769235470074
-55.87220050439081
-35.42116042557353
55.30232107605113
117.69365720562404
74.91405503445591
17.90445446673198
-0.04113589856855541
22.345514932562786
48.00225262694055
53.081573069415136
51.02426931074193
46.11896461572442
42.23885392401541
54.0952956159309
72.08332482552113
75.54388088511946
39.10052032989686
-19.432409057304064
-59.05664005107784
-67.91519593917552
-44.415918324097895
-56.001495870830965
-65.38547094151393
-56.625717427557916
-90.80566914633476
-113.4208859583731
-79.67331817715537
-33.27023439016077
-34.75094687331567
-78.52372661878974
-110.97082825086777
-100.42998977012945
-54.84529338254085
-6.48693796853097
12.964381109917712
24.29104919260081
33.30069824436861
-25.32867540814215
-45.66810544758612
37.38081460999584
84.38619124024638
15.796009270761349
-78.64313399012515
-75.5433040065746
33.23336418996735
127.54127437423735
128.85248586871458
61.33549122416905
-15.02515442395607
-59.93285844917845
-81.82395270149101
-54.197103070434814
-23.17364080099003
-57.943583561942205
-119.65841868733142
-143.314340902542
-127.40700405114207
-68.38583526873329
-12.731927217404616
-5.082324220685638
-10.611330980174785
-59.916171969766204
-94.16895460706859
-27.76201979958744
31.720095807200607
33.23819587847
42.94016619259059
89.36508949757958
97.56550587791517
21.061243331610473
-37.104457835913394
-31.124052835898222
-36.715073807571564
-49.59665296518273
-46.18316961573078
-38.545763127134606
-19.39894044065672
-14.830540794202753
-38.6642670885348
-71.65713448506253
-82.08335542212434
-96.7558678439106
-128.93639769222406
-132.66213863081575
-70.93901671204452
-10.404249681933617
21.626523740034667
59.93751925184757
83.94023199659456
132.06563251385074
86.19286583602512
-52.98901474320937
-110.86930856453056
-97.05332169831829
-70.85516081563998
-40.82513563474009
-23.27730542303144
5.30959207146785
14.703485161571207
21.66728811108435
108.54732784186609
196.00057703155176
189.06177013614393
149.4988581806663
77.8654472411797
-59.7627693189113
-102.97057117480212
-45.37601861144618
36.672734739880745
78.86130663241103
55.414599351123115
37.58310058302375
40.95525505334053
19.241763611939277
-29.03236632326211
-16.688718539515232
40.47588169224649
71.3996400918467
67.13581485278674
94.19218278946276
83.87063066198165
21.22281378926818
70.62393574985322
169.99891360300498
179.51687644336718
98.88246324006087
-1.109070816363858
-67.80010297192646
-63.13474879341721
-2.5374618633217225
32.996158018958766
4.136635533758482
-66.52981229493864
-109.1504923358837
-45.37705538582512
56.15887921340377
76.9904889041454
-0.7362129081035934
-7.299103615519896
55.64405654334532
39.83600585602595
27.66763158482824
51.85500778158832
64.0415480446057
81.5688612123893
66.5026782138465
47.856352219012976
59.72028167337723
-9.539929010334621
-116.61476945828827
-113.34316830571689
3.939995324619018
90.97579360099029
32.258829529615376
-37.08813734792404
25.553230114347414
97.46304982800648
70.65606364530261
19.401738959103678
-0.2760876148340873
-22.554811527552506
-20.30405302746462
24.367101237179778
85.69251599199622
76.32080826391811
11.292574338534228
-19.59138815568079
-26.472461467161956
-28.17328461030514
-39.2918206697909
-22.842752951658415
7.84666944637172
7.062984786320097
25.593462171837956
50.7776873966155
62.24941809932875
82.49262916274367
77.57741550981272
68.94373207984349
62.80028837206519
56.59463503128109
58.77763894507506
7.682382015385172
-43.0819088770702
-66.93642988445563
-85.6157353844806
-21.77410439681934
71.66901570877762
116.5519948311941
137.72195341250418
100.23344907496097
52.46357624307767
28.82382664078779
-37.63801790965001
-77.19052143700405
-46.818730171086294
-42.41754769165602
-15.112985901710339
67.05715896478193
90.73686028422566
40.022354268028415
-18.841871835965694
-0.057713164204379185
35.625187311276306
37.33484738935944
23.02362761485064
-15.092868142850003
-16.09779656627035
51.6863223276917
50.809786085727254
-11.288660969032875
-41.601925076324164
-56.377232684692885
-56.91184311745868
-43.390687415476386
-46.3836522939498
-106.09341148425652
-106.9828735573146
-59.311980379724275
-66.4471783341546
-24.23644566890495
29.862390781524173
-40.36941343706353
-131.75397137108152
-175.1810069221903
-168.72194954241803
-61.69210724597872
19.45501348710036
-6.987993934969617
2.734686051364412
33.35250357905817
26.869313063706947
15.539648651534126
-35.974468803880974
-108.38928631394141
-138.03589131332186
-87.46949202301104
41.14815893076388
116.51177575625186
64.40510613375612
2.1670099051077205
-65.38815212490792
-113.29955303454973
-58.655920432289726
-31.531471781111716
-89.77368146317156
-147.09226505466796
-101.48755465921687
31.34053137669076
118.71628945254055
174.2651925541404
171.7595545401891
28.557104685759583
-99.50640493239182
-77.07193866398605
51.789161412273806
124.85121114492765
106.66706747941467
15.098562321158155
-42.37505094927231
39.58174850106126
110.07665137719233
20.02087125416831
-81.32598619738545
-66.55508120960883
-23.42142850946171
42.8518908404159
79.30440357442954
98.48283594451242
110.3507388270469
63.758868333161864
-2.236636302841021
-67.92754371375354
-102.63914331658123
-89.138046416832
-67.47314579646782
-23.180066679126927
6.792969385392566
61.41036160841301
108.86891117873832
22.77978007666994
-51.67492596134156
12.170440572630271
30.943270473349834
0.22103286999497387
23.850551108218493
54.20325419555259
131.3281618706471
249.31564850434592
281.58514106949883
261.1444092445658
202.4503452830074
105.73529414552857
25.08562534547207
-73.05180892880185
-101.64042494253887
-11.319703737500843
34.51599918798127
-0.9498990310199557
-43.76620112167826
-12.55296283347416
36.11883094284018
6.930142931873623
49.140788579417126
109.79218437346022
38.72486290346866
-45.07208449671837
-63.68681910444727
-25.115586830488706
72.40766826001604
95.66362888634653
39.18065311140513
-7.857118116540614
-3.0711187681955696
21.374618017904744
-27.389196374245778
-100.71151351292058
-136.58264501291026
-140.21952283796898
-90.73892335822238
-62.88932129427369
-1.8113895181731845
156.04891437290564
239.56566614347614
137.47644790331816
4.5288525150285
54.29355073225502
117.26875185694682
40.975806756817065
-70.6885711926215
-127.94611850490662
-198.11781919566494
-174.7997752156369
59.493158708402774
317.6836532343519
364.3435818832315
130.67912530873218
-121.65461810938496
-128.82695328106473
90.40393461162608
143.69798302036125
103.8410423594091
-35.42719757692174
-228.10575119881574
-171.32976379964015
42.168640752434676
250.33397022950746
263.90344467908056
74.31924067291925
-146.02804898586524
-209.74325710357888
-117.22279745741126
39.63376382524631
133.93838579762067
128.43717485142017
-19.212726488183666
-110.50675497840709
-21.633331861130003
156.68884688129648
189.05454889872536
24.609676449560737
-195.14914524910603
-342.7473577654192
-301.39567778526003
-190.2571619692561
-155.96068285546306
-171.27563648116544
-111.14643327583221
17.72730975854489
218.36227658829262
319.0402837940693
313.40076063430627
288.0533077130538
159.64695311539907
1.5069160956122214
-148.31952469094645
-160.32827488139765
-70.72988512434121
-91.68592200185428
-127.72867636289367
-58.37310649649522
2.6808057089889026
25.660450100818245
14.755121289564798
-52.32860211069253
-92.75353990838188
-19.596945271513835
87.16372750229698
58.84549047147798
34.17207502286523
-6.5328305638147475
-83.19783416994433
-100.39902974855029
-119.5209756207066
-153.6398013487087
-144.5320888735199
-96.12605185182105
-0.8163090064058655
59.340450041739295
-19.31510076695253
-105.62194399416497
-97.19457517192066
-62.958324121424546
-76.62594893332822
-100.553790114467
-100.14620687574555
-40.436865817862866
40.91499250297184
5.909960882375116
-99.42067905572252
-188.17520328791426
-216.80724675890733
-172.3686536140301
-95.85102983455323
-15.178537039026649
27.889772672910784
73.14759953444798
110.14121651925257
96.69617719051804
29.807327594737878
16.942690297112247
110.3471800246887
187.84737054310122
128.44643910841546
-35.0286830813755
-206.72695904071944
-253.16741648248845
-148.09389520856053
-64.99626355251043
48.52228282267768
139.10466182584787
150.18895351188146
223.60776940784774
273.7767751963317
247.85188545439664
159.30922167929967
-22.362632576051865
-181.59322879032624
-139.3965460539102
78.33185953538995
209.73033255518064
169.58425351111842
68.47609804393474
-1.7718098852587074
26.659494606320173
65.66343662146268
-28.617075883339822
-157.61999021858435
-180.20163415028784
-169.78229151044584
-145.5679540309202
-126.35704900410859
-77.2177928344164
4.92094352120737
-27.613217688053158
-98.65774174370033
-70.74269405348707
-17.986436184319935
0.47702733128699304
12.953287290089442
28.60403970705865
77.59978107434249
121.2530803117079
120.46482763985193
58.44072542406323
12.612014776333817
35.804841714891865
94.19736117293117
106.44215148880656
43.12848572876037
-53.665660663368634
-127.6922241798751
-152.63182054999555
-112.37962681517588
-72.1220350171388
-95.42275111004209
-91.08470316678203
-75.39270606309124
-39.59606799866212
-24.29261204466691
-1.708549902004675
81.45881475435418
155.78048755336212
83.18797850969129
-60.21632247013497
-172.2512023578754
-259.6951624970472
-216.29202600820938
-126.26753746843728
-108.17634514364292
-123.51382100743581
-160.80794531605721
-220.69946160269507
-242.8595067949539
-204.4813198455614
-130.03718517580864
-32.40678742395424
13.261042707233264
13.75185561213482
56.98541270305163
128.10436285118826
152.82828892631508
125.78792830554524
50.74217834813275
-104.33671384893812
-241.80922001823123
-258.3008249213525
-47.90442128520888
179.91434559280896
297.6527887118906
295.862734604341
163.68551961946162
48.078586101436194
88.31089281276338
163.3370825182463
12.481142749876845
-116.78368998090968
-76.77264351194698
91.25694213325522
268.9135811761149
337.05901288201943
294.2277051546059
157.78918744618662
3.1768225069014933
-138.1317934852188
-193.93317791965552
-138.3442032861491
-49.1408108006916
38.45561284601517
74.1539085882454
76.31379259124847
111.80525137686135
184.45693730050374
221.61926485584416
147.85779473721269
-22.506774196203484
-171.5527237161687
-157.39113236602438
-22.55956056541845
59.106656396156104
122.39546654855009
164.00514889976208
141.84015449042423
65.33390819114527
-80.4102023466994
-196.45088483198774
-218.99012878574993
-141.7094159579593
-80.89349098750712
-95.8699976174166
-109.72275287943648
-48.05955925364002
14.931174083802722
61.15196775384504
76.29610051773619
-7.25958780693189
-144.35037733367187
-236.18880066016104
-204.14988840600898
-7.038381362636804
228.39902090869242
318.30662126492336
253.48422688202663
201.5995983709414
74.90941379542336
-97.50790708079118
-193.30865510800587
-222.7332099736009
-109.54999883320347
19.627815494244587
111.4556193157311
69.20735709693209
-37.333934537513905
-64.93705398347998
43.68611283656424
193.88398632609758
209.69921852341227
130.6086176935642
65.87622418633129
70.20081365397022
36.09030931865908
1.0659291643218014
10.856854197211657
8.32638380854937
35.08882879681796
105.77922406549351
165.59177867392307
208.41330337554342
271.6459536765474
210.03767317740147
4.5570824981334885
-265.06248693117175
-415.1947796518328
-312.9068345755135
-115.56294908254384
52.625117942455006
84.0565099648416
-32.60639352021821
-96.42729865536901
-116.32086534154365
-146.34741910747098
-99.44644788240285
-46.351718225428904
-44.5226603842238
-146.17812143900636
-153.9132965153038
36.69632094064891
222.94319653769819
277.99229327500234
199.51970811438738
93.25507508669124
115.71084471281732
234.10267245293463
244.0456404004254
115.91332769969146
0.5210717442643765
26.65558925096858
120.04868378629672
140.6073077095802
57.569313576089264
-79.45563798194384
-205.60947215101362
-228.41124183926706
-159.55309395893386
-118.25538190579461
-137.6138776840231
-226.76644282839302
-255.73941710796944
-220.15541455862626
-182.27776925741497
-95.27195030424652
93.79352131193846
251.72618967733544
286.6682344098359
242.87570266043016
145.87306248668884
45.16652449419381
-84.9915305644799
-130.11678655954196
-84.37663986299168
-64.68241926608562
-107.8074378960587
-203.77249622957333
-159.6574104889319
97.1795756961949
230.9285915202165
150.88152873207807
-15.492758644294154
-135.9407412862487
-208.65446326865154
-144.7155694555808
13.288528025478351
101.55732674972108
85.23630561509862
-47.99491866592068
-50.45107834150006
102.7051861245577
172.32966834280467
111.93419047457775
79.6185330328632
-11.678938280106733
-77.51108952824691
-63.53503116483284
17.68130996305409
138.6849134778647
180.94924774991478
118.20391989477969
20.294809193746723
-42.035965453250796
-88.73997287721366
-112.6332075462681
-145.2809123014404
-112.1731090727648
-48.70868103708798
37.94896388193702
91.29325285499765
20.24294081375206
-78.89830019534574
-112.27651084134972
-82.66269867253291
-81.04380635508247
-122.12750515704391
-84.75090988601441
7.860101131744257
50.75301931216235
37.45640780206366
37.532699949607995
70.43924972762827
141.10674228508543
182.1929290358766
133.6555344104792
30.08630261551894
-55.35281605735907
-78.27747969840185
-98.941447340533
-133.98171205796933
-99.6159609974005
-12.047807826742677
28.707525808493127
42.321180482880315
-41.872454072257376
-166.24621219591566
-228.3309587253017
-157.7813773400487
-21.40647441189187
67.63959451004528
99.8714986467266
135.26179938599242
204.50527396994863
174.70208388533624
65.57283011959868
-53.1489037065818
-135.05636559638975
-108.53385073163832
-1.1267293534317617
41.3228581002968
-39.21626003544388
-164.1441774350277
-216.0115567547037
-124.06968163655965
40.679611991803675
133.9441463395453
136.39570606066795
65.87181444342002
18.16052832820449
-5.021210881709936
1.6204063358598266
15.523903191049294
65.209930644796
81.62287705166392
6.303367112814734
-42.396568688949216
-39.254482049323926
16.68830610557195
-1.4630492743312635
-31.038529904401717
-45.364582295968084
-58.67429050733429
-56.572017644692565
-3.5258314532594435
13.722837657123373
-22.30476778162921
-45.73179436165057
-54.80271265750643
-29.10646141048794
18.883938080765205
105.8233249209877
215.39545034748767
206.23016757021276
32.61295359727299
-130.17460773986673
-184.47872274765746
-146.37444183207018
-87.03538549929003
-27.510431625977176
9.773053729719397
37.26245709290945
13.288360816682301
-53.73797371991523
9.60315961912948
123.50741651765803
78.0611739652356
-58.23722290366684
-71.66541027143174
62.20685559282717
146.87533474444626
144.18351534657856
131.08931143322263
68.16629387202208
-31.114427971629276
-93.34680446608124
-93.49935305940873
-58.27223035245364
-47.49876732311867
-59.54871728567267
-35.2216712028809
13.771148950022937
-5.875861656665069
-35.37018529457825
-15.061284331153637
-4.444897860948923
-27.121323520381104
-27.990703177114725
1.737972649741592
-2.990151769281962
-8.318149657192995
7.412692569485443
-6.890390943566401
-31.98437571971758
-26.885454246444027
48.83595290707101
134.04991492684488
177.90968041669737
184.03084817278116
165.89912797255295
148.5777954694325
107.14128328730054
83.07130463380456
104.7901364526872
199.75092472516437
259.8566652086253
183.65637268656775
95.72742335064095
34.95869466514765
-9.82417408229212
-24.96936720721763
-34.42041375797622
-55.23510823559625
-76.21863047373546
-40.76901179123333
17.332884137347534
60.888981185279455
64.62162423269625
41.27574051462316
-11.155683165833969
-40.268968414907754
-18.926023576322446
-10.211297637412425
-34.07977862790332
-48.80605544355841
-28.198938898765412
7.939625433622723
14.62622033032203
-38.98863381719797
-121.09425706878226
-178.3819491604866
-148.64384446302884
-44.19270685141081
80.70390962532191
137.37957895291026
82.56984559177747
-36.79927039473715
-136.87329932147165
-153.58334170852225
-60.4021946429868
31.619234765710047
99.71316532887603
123.85863238914177
82.87757303927536
53.901424987620004
35.89588120276922
-3.5980656701395133
-68.53596230748407
-117.36626171781057
-106.58904120638472
-13.78365384889553
64.76028355750475
82.33601977040308
6.410081150783208
-74.68555283417389
-142.30931587303317
-246.697912934013
-271.84688610265675
-129.67808584816044
125.95358051086134
263.86088764735337
174.14477234451275
70.2153700545477
30.715714135606266
24.860565887224855
99.34839215954851
100.04788512998677
-20.439183609076405
-198.3923168424491
-257.5054369805401
-198.34195708606373
-57.169769656084355
68.09425468219632
106.3807252432655
37.4564667692442
-94.71335656112142
-181.51056052028656
-220.41265072432253
-88.00440582307105
10.850525896679912
39.663268078788924
15.389240518301763
-18.679556113345072
-4.790139204559617
