AAD_Filtered_TADAS_FILE
AAD_BASELINE_CORRECTION: BASELINE REMOVED
AAD_FILTER_TYPE: BUTTERWORTH
AAD_FILTER_ORDER: 1
AAD_LOW_CUT_FREQUENCY_HZ: 0.025
AAD_HIGH_CUT_FREQUENCY_HZ: 40.0
EVENT_NAME: 202302061024
EVENT_ID: 13207
EVENT_DATE_YYYYMMDD: 2023/02/06
EVENT_TIME_HHMMSS: 10:24:47.00000
EVENT_LATITUDE_DEGREE: 38.089
EVENT_LONGITUDE_DEGREE: 37.239
EVENT_DEPTH_KM: 7.0
HYPOCENTER_REFERENCE: AFAD
MAGNITUDE_W: 7.6
MAGNITUDE_W_REFERENCE: AFAD
MAGNITUDE_L: 
MAGNITUDE_L_REFERENCE: 
FOCAL_MECHANISM: 
NETWORK: TK
STATION_CODE: 2718
STATION_NAME: 
STATION_LATITUDE_DEGREE: 37.00777
STATION_LONGITUDE_DEGREE: 36.6266
STATION_ELEVATION_M: 527.0
LOCATION: Kahramanmaras_Elbistan_Turkiye
SENSOR_DEPTH_M: 
VS30_M/S: None
SITE_CLASSIFICATION_EC8: unknown
MORPHOLOGIC_CLASSIFICATION: 
EPICENTRAL_DISTANCE_KM: 131.79
EARTHQUAKE_BACKAZIMUTH_DEGREE: 
DATE_TIME_FIRST_SAMPLE_YYYYMMDD_HHMMSS: 2023/02/06 10:24:49.7419380
DATE_TIME_FIRST_SAMPLE_PRECISION: millisecond
SAMPLING_INTERVAL_S: 0.01
NDATA: 12501
DURATION_S: 
STREAM: HNZ
UNITS: cm/s^2
INSTRUMENT: sensor = GMS+/GEOSIG | digitizer = 
INSTRUMENT_ANALOG/DIGITAL: 
INSTRUMENTAL_FREQUENCY_HZ: 
INSTRUMENTAL_DAMPING: 
FULL_SCALE_G: 
N_BIT_DIGITAL_CONVERTER: 
PGA_CM/S^2: 21.764
TIME_PGA_S: 
BASELINE_CORRECTION: BASELINE REMOVED
FILTER_TYPE: BUTTERWORTH
FILTER_ORDER: 
LOW_CUT_FREQUENCY_HZ: 
HIGH_CUT_FREQUENCY_HZ: 
LATE/NORMAL_TRIGGERED: 
DATABASE_VERSION: 
HEADER_FORMAT: DYNA 1.2
DATA_TYPE: Acceleration
PROCESSING: Automatic Paolucci et al., 2011
DATA_TIMESTAMP_YYYYMMDD_HHMMSS: 
DATA_LICENSE: U (unknown license)
DATA_CITATION: Turkish Accelerometric Archive v 1.0 - Disaster And Emergency Management Presidency, Earthquake Department
DATA_CREATOR: AFAD
ORIGINAL_DATA_MEDIATOR_CITATION: : AFAD - Disaster And Emergency Management Presidency
ORIGINAL_DATA_MEDIATOR: AFAD PROCESS SERVICE
ORIGINAL_DATA_CREATOR_CITATION: AFAD PROCESS SERVICE
ORIGINAL_DATA_CREATOR: network: TK
USER1: GuestUser
USER2: 
USER3: 
USER4: 
[...]
0.14124319246613315
-0.002109066034562057
-1.1091223867051725
-3.1063621159315855
-5.5933027984079775
-7.584711026172636
-9.144090240953956
-10.528193240663656
-11.251835472836802
-10.784867084489909
-9.240415221115446
-6.889540688145233
-3.687615479073171
-0.5071620948421978
1.439736305288268
2.2163296762209015
2.8832117554428613
3.263966720370705
2.779281651357834
2.324783099009594
1.9653420438957576
1.3640453383658464
1.07800670264913
1.2334534667295267
1.8017880975553644
2.6055375585421476
3.107992940102236
3.097474318085991
2.703024972954638
2.2288774766251103
1.8206797224612983
1.5640903650424671
2.3015980355878574
3.9570513608662554
4.849045769027222
4.365524113515002
2.8770361799126447
0.7328209824110826
-1.550539354997763
-3.3456765379579836
-4.115181419324531
-4.362061565636621
-4.658798052173621
-4.377333452381835
-3.5684297522606134
-3.036915405809005
-2.7239631590076208
-2.9897076144564645
-3.6943093347897635
-3.8531248932599755
-4.054386438234975
-4.481835668183139
-4.234245255350879
-3.456654434334174
-2.6202812296888016
-0.9687582256769379
2.227778247644976
5.804496070603349
8.019075390792157
8.10689177513907
7.143091226956091
6.664634520716906
6.474810616603673
6.4329506687599105
6.955279995991999
7.978292292173949
9.604222101063268
11.861159627087803
14.128276745842902
15.216484338600914
14.639565596083465
13.155412732337515
10.911939293729825
7.218139774709528
2.313642596175534
-2.5107909068777703
-6.206138806809319
-8.384123378356009
-8.867052266417033
-7.908993808026694
-6.830941994376151
-6.400548361483261
-6.056610239036728
-5.724970811570495
-5.380613829173974
-5.467934708111758
-6.70216900043595
-7.6743064024748096
-7.344555620958248
-6.575315751048291
-5.739452095248838
-4.865974704202015
-4.239412637942708
-3.854971958999123
-3.703936560419076
-3.8168324713454003
-4.1788825320118415
-4.817387478156624
-5.247957577050974
-5.158413765256096
-4.777908175768536
-4.060547545913935
-3.2093562371325417
-2.8310820809621116
-3.3208276787999
-3.812176769227164
-3.271124851274591
-3.0488743034963512
-4.300887679212067
-5.768329571416297
-6.386613432823284
-6.329599735019834
-5.467565857386422
-3.425771868741081
-0.4969208826682857
2.8332567373895348
6.010035898863817
8.366967198617775
9.219384970063235
8.570268893474008
7.214022970280442
5.513856455099781
3.923255633387328
2.5340503376901
0.4428288554282012
-2.0237376236088034
-3.3123392486634806
-3.1527378469493
-3.000514735577415
-3.9999354351526413
-5.606927988508754
-6.814144101198758
-6.661179510199427
-4.649992444596989
-2.3588605206211986
-0.7102571215966889
0.9608202517766586
1.5047746318596795
0.5047247118277524
-0.6611907461026068
-1.358705405854619
-1.0993270208944383
0.22913038195229965
2.3848630484764013
4.723556397955758
6.574734225610281
7.817715050967162
8.380117080263712
8.9602700177824
9.552749253372484
8.853791972430534
6.842718729860174
4.550252591545318
2.2076413695017925
0.2895201254055929
-0.2653929426343852
-0.21965068348118572
-0.1708744766467077
0.41036173177978336
0.7684286110766676
0.5421964456887793
0.24802371972512507
-0.2836426404892939
-1.2955782274158796
-2.7940680893561987
-4.286690146266862
-4.909983875659012
-3.9555616490764653
-1.691984517971542
0.694989625097562
2.1894528057929175
3.0436751261216486
3.858391604532563
4.295871475086054
4.485455516919585
4.012017034130267
3.1677842818810293
3.162266753488034
3.1646318316710693
3.579736297826824
4.787933357091863
5.4870845728213675
6.422873648528918
7.799613502492769
8.729599910106376
9.09456399079702
7.6990673131148615
4.878743208032148
2.3982033772109563
0.2737002577903884
-1.2628757170904699
-1.8231765224017356
-1.1011009729717822
0.6447208228840622
1.713942990163258
1.6144419428214456
1.1102477707818292
0.46977259286240064
-0.41415934995312786
-0.7499509011973801
0.09699733267374824
0.9939139353233621
0.8787218969453952
0.1808715994211979
0.16207090842388588
0.9624325987450721
1.5541697436294521
1.604992941036196
1.041618383450633
-0.2567214382797001
-1.9464871746761059
-3.291336686918298
-4.223927695074623
-5.301062121487273
-5.3690967352363215
-4.33328098329192
-3.7505653805691606
-3.3614437939354347
-2.5701172558693792
-0.9771181702521899
0.49186194191215954
1.0154798674432033
1.7227462006441348
2.00224706439124
1.1660676479485559
0.5665371725464918
0.8763491041761144
1.676998171882106
2.2316274616042167
1.4816883517222172
0.5222942021145766
1.0003233171655088
1.2838825859954452
0.6419055103226177
0.20584355382075964
0.06423879259197794
0.47898417523115766
1.2515090905693556
1.490515356354934
1.825887314734649
2.777636931733043
3.817501041830051
4.4922846072869325
4.258985866929213
3.639244486322492
2.9384808521811348
2.67911141693488
3.7739498678630063
4.9365809667172655
4.713950830168727
3.0420017653973312
2.1324035627589315
2.0026979337762003
0.5179876989773412
-0.4663457927473292
-0.8261947264618735
-1.086206484936441
-0.5505227943708407
-1.0777181727996765
-2.2507110815220215
-2.982593344654407
-2.657411709768861
-0.9347216431913409
-1.0845772356413075
-2.143003099662699
-2.0309262211476855
-3.095108772018002
-3.533127195057169
-3.287308498918423
-3.1327619132591296
-1.5682645979176273
-1.1449628388029438
-1.5068149082339763
-1.5792330961298464
-1.4969268456121234
-1.3532093348888328
-1.8521833101653402
-1.4845180218451788
-1.576468169765745
-2.2930549665401876
-3.328059750318246
-5.014556551328868
-5.546349918104155
-6.569650540568923
-7.1366078517062554
-6.196348153399234
-6.870642767627716
-8.002124711413257
-7.907586086905875
-8.849386098920771
-10.278643135160252
-9.509228104664142
-8.000713426010076
-6.847925261958395
-4.631540776145217
-1.7376747226926548
-0.15174433402197846
0.2553409242427878
2.1975145074499545
5.104525672580491
7.283180073703971
8.39752687633776
7.486862487320334
6.106308608212279
5.509938240087565
5.361850084705408
4.877401432014314
4.232063235761821
4.987342036242604
6.1914384852052216
7.503407452267442
8.126108238020766
6.623587980504425
5.145766652006079
4.749460120855081
4.55825523738213
5.1096402144236786
5.775644183085256
4.497869156997142
3.7129510825261454
4.93015559640715
4.4474094786791785
3.527328585108331
2.8941362777659143
-0.22428016754160085
-3.4671209661293902
-5.23434552082271
-5.313885399301641
-3.683566173911735
-2.724431992396948
-1.413317105226916
0.8419277690678239
1.0091525908279844
-0.9447522862452945
-3.5286065274077827
-4.791223542588113
-4.057445588316056
-4.3304579836750445
-5.6986740838550105
-5.467263146937328
-3.5932396178225816
-2.9818134006283317
-3.7425968100650757
-3.3466422705448977
-2.719491366427754
-2.96457181484749
-3.718340755270983
-4.221432852512307
-4.598838482939611
-5.570640952720653
-5.222730296857575
-3.8440934837108216
-3.132391179191802
-2.6953159571349583
-2.865346478361142
-3.364593120328686
-3.8329802225047
-3.7918251687648956
-3.369965756190573
-2.7024434342922374
-1.6384818125473515
-2.2579522589486696
-3.386316698292109
-3.6164282661387754
-3.228282387353053
-2.0764505567259506
-1.967390512464454
-2.0387602631830313
-2.0203606511409977
-2.686403210989845
-2.944218481102077
-2.823176476299939
-1.6604993347082417
-0.8702084031586259
-1.3795641248269261
-0.9495468496017754
-0.09107623965005611
-0.225683482725569
-1.151258852319402
-2.2139680805742303
-3.6070666376901466
-4.098207392085773
-2.7722571990022646
-2.1957937878863683
-2.5352712759935088
-2.5686252848547264
-2.387258153135411
-2.185805947147648
-1.4791498560568992
0.17430752196625088
0.9926191686722947
1.2307036280611117
2.263903640293196
2.635006221762098
2.0855973369578327
1.3701884301041822
0.20324682936843336
-0.7348349568355744
-1.552347076086026
-2.1204426960057114
-1.581599358613768
-1.2084208851813418
-0.44210758414899826
1.722272745895997
3.8012687168346044
4.853460518293009
5.183491779176366
6.193482346611202
6.975402287314749
6.295547903015425
6.111833707273854
5.93821445050918
4.838000347085476
4.928721884237161
6.418986010654558
6.8520940661823735
5.603601035847566
5.263185532701002
6.379594822379495
6.56891893762366
5.7264325709319
5.308377634115936
4.018897729204859
1.9263461507678261
2.0454335998465325
1.4190654397582145
-1.8274660857694915
-3.1587853649311044
-3.3414793489649903
-4.806757194504779
-4.840419817768238
-3.850179889541065
-5.1989016407563
-6.067984419474265
-6.016440710489258
-8.01085812299399
-8.688929327649994
-9.542223337482588
-12.081710721517448
-11.612203614270936
-10.323756419173716
-9.456586799373854
-7.424407359431377
-5.308818096753062
-3.0339484187255867
-1.0419929034714683
0.9564655719710313
2.940806169302841
4.378809785423997
5.905491249850694
7.772976701976443
9.242297936720302
8.46691966999137
5.854920308597271
3.7871168240719615
2.1822255744710914
1.6796546595489759
3.4244697627596365
4.721757138261006
5.324032214895394
5.521815758956933
4.02445862717227
3.719118471505444
4.594459054035303
4.3286811129408065
3.7691803337795395
2.8660315869547324
2.17211048968917
2.3926859936577753
2.5928476017250666
2.7690191823436296
2.769267312902805
2.720649330437654
2.6834772839846948
2.1283988656924033
1.9679150250826651
2.0160617871843436
1.9319389324843506
2.066736471010952
1.6059273577678688
1.6748144977061956
2.8020177771500028
3.6168172348417116
4.649881499509276
6.267421463472808
7.826467665004354
8.888810141092739
9.636739054622677
9.624440250288277
8.289635457614168
6.98591223928617
6.048214484407627
4.339189883926124
2.2362592894212834
0.6946417906347074
-0.805085549630875
-1.4765147704033115
-0.13974577896423052
1.5527764681158684
2.8274072380836577
3.30324977464142
2.3196632644249875
1.1542023507760544
-0.016717803004592136
-0.7063565847426433
-0.47643330899484276
0.3214162114826453
1.3810996189904408
1.0250784794330439
0.5024503591489394
0.5730607919135823
-0.03221899281670046
-1.1746425039564594
-1.9244236939727772
-1.7550776754605293
-0.9335803940782207
1.1496277970529847
2.325679344565316
3.0807149868054444
5.296166561976649
6.19332658355109
6.897235115066632
7.9632410463343035
8.285146891900443
9.246656755053449
11.047024571097925
13.364271791393541
14.608470657646153
14.700373178423495
14.75516642671485
13.278662578290977
9.558558549933702
6.109065371855647
3.4627824100125744
-0.004011009966256161
-1.8846100508636832
-1.9165890699007202
-2.080745215421833
-2.196299919284722
-2.699167265256265
-2.731531905545992
-3.1020340741753007
-4.469433334285839
-4.8297429043889935
-5.05847752672192
-5.900238861265997
-6.691399375869523
-8.190228358163633
-9.940865033894925
-10.306101041082716
-9.216188905395043
-8.153890481011212
-7.467234001604075
-6.029236960627979
-5.678570735377836
-6.5295992149729525
-5.672818012728864
-6.091548754753587
-8.512814255179396
-8.650314522187218
-8.427630050310398
-10.185753285701585
-9.593966854343101
-7.287400060821758
-7.411110713327088
-5.526072656937636
-2.556808315352968
-1.7414473264198476
-0.2923427424203878
0.2575450459581825
1.0423991541756972
2.0135217902955054
2.450095948061027
3.656909999535484
3.791822785563993
5.095765029323371
6.699503329302916
6.284819274933425
5.70608051770872
4.870431378732985
3.2522002029147283
0.9683243665908837
-0.9144208124698283
-2.769017210908977
-6.125770826388995
-9.103124242270813
-10.207281862308799
-11.498440648823786
-11.487227248605233
-8.478284638745684
-5.482238954781751
-2.610174231262386
-0.5874779891531619
-0.1839836912052472
1.1662003089884634
1.3522563523069382
-0.48036964296217805
-1.8743886215882881
-4.181955798314024
-6.643336955263628
-7.6091505845290905
-7.617425360364293
-6.600792078932843
-5.693957429279459
-4.82611249161117
-3.2653060462251884
-1.0911101405767585
0.962719202139504
2.276025010192784
4.382298149567546
6.327399511226242
7.276325666760487
8.462731035930041
10.075155095798333
12.172868056311616
13.651248073535594
14.760204768040518
15.388024120089918
15.676516733873694
16.360447707236666
15.783811319109045
15.459284100008988
14.931688874317164
12.969936067061255
11.637721598747271
9.311567240997105
6.335467959084176
5.083965065314629
3.7090341189674825
1.6103165584606103
0.5604244585961022
-0.39159023713463414
-1.5854908398803378
-2.079856621550305
-2.518110209047666
-2.56220909418255
-2.5999345333328847
-3.2730929030057228
-3.695774098193242
-4.33770329837564
-4.752189099536715
-4.238983408457968
-3.513379704215209
-1.1262582900654412
1.5835194285987513
2.9497312416436383
5.325715757970813
7.278177946131491
7.482629697119719
7.342115148695306
7.063865852776614
5.943460009091343
3.441581362743529
0.731775175439143
-1.623498917608156
-3.286667385150727
-5.153646246765825
-7.232517052887068
-7.501519873762474
-8.351889279644597
-10.878050907502056
-13.391090503514953
-15.984787824554205
-18.221155219475463
-20.43859009516106
-21.892137114325244
-20.717032473265867
-18.420538728771344
-16.316311148429282
-13.494265462645163
-10.440074402403141
-8.528077531972189
-7.277289188684246
-5.638158961397033
-3.914530669980108
-3.4866499691892825
-4.431319763541638
-4.706324372681609
-4.461269284411327
-3.3207426985347936
0.035229403436336765
3.7651132378250547
7.419839928315063
10.356045561475998
11.397044778975113
12.04349021366477
12.335337100639592
11.42939798874299
10.070602417932507
9.352865507135633
9.416095795553172
9.495447838140848
9.186300558506261
8.208441113110993
7.67386922990378
8.366817026724842
8.532635596454883
7.8743773560831025
7.264671961674347
6.843526120732714
6.24069088540609
5.938978760278302
6.059133674370162
5.133118272692181
4.089243358814721
3.4285235573918014
3.145474598736101
3.7647449529757506
3.901152906733352
3.4825927930460194
2.607788838671352
1.338125404296299
0.7450614989759361
0.7743060879920611
1.2925031191564609
2.275591236799384
3.067742910688406
3.725283603652713
4.075288799367762
4.021660301274766
4.618193788671836
5.015329365758247
4.67079707077227
4.111544862210712
2.758572443961878
1.3980400560274413
1.3626298175630267
2.592400765108215
4.668496566542045
7.279944768573686
9.419765547101338
9.855580100553361
8.872312477250736
7.872201831823648
6.2244904081393155
3.4330569820688095
1.3333182011243647
0.8947425587552281
1.3174677007190205
1.8599944103420758
2.7347284295885044
3.173546047588387
3.731704014846968
4.0150649898797575
2.4136897736592733
0.2499996207651832
-2.65224172533714
-5.7337689466484925
-8.997592984996928
-12.423528971946272
-14.09404778716515
-14.905563263333809
-14.10055364752921
-12.606898528529198
-11.86022586854491
-10.65355438680192
-10.668437309460801
-11.510821072149595
-11.873767853499547
-12.603104619434745
-13.497269137880938
-13.76588833170202
-13.834323903191496
-14.659800512818704
-14.711758451571137
-13.83949044386727
-13.582715919328443
-13.851758353232364
-14.064963498428858
-12.87083618028258
-11.148291534542606
-9.962472948539558
-8.52435033073025
-7.0039819194464625
-4.771361507170129
-1.7370968204361206
1.6207875286373392
5.224265412000487
8.337512212976428
11.066473294028663
13.371898018333146
14.74161119583074
14.981175224673118
14.808167370060218
15.255860815380272
15.398206892241928
14.822215384582375
13.516635750512318
11.381349362680588
9.36132872280205
6.709863484385562
3.901052855053187
2.14996809344902
0.4929159781206942
-1.3314666327719682
-2.9457356558981935
-3.593616844150136
-4.251170126959355
-5.6317111705634115
-6.888387739260136
-8.666501965166486
-10.557892242553855
-12.374458696589711
-13.935570123111173
-16.004374360432102
-18.636939469857722
-19.346002987969126
-19.544608096454258
-19.11337428301709
-17.280212894561974
-15.325727140192535
-12.66206182244859
-9.905886627818846
-6.442671093426786
-3.848029195649063
-3.6594765531183873
-3.7884201788158496
-3.9660337840530295
-3.1286142387456914
-2.6398776760059888
-2.3617566736707096
-0.6232798792527948
-0.05086867509498324
0.042781606038704054
0.4169057626020599
0.6449640344511837
1.0153389193848166
0.6503992395108449
0.07460953525123816
-0.3553620636016009
-1.3814184068046511
-2.034314381680491
-0.5146110859476593
1.174138437990446
1.7334853653912876
2.8260741904544235
3.256949263445025
2.0073366654642197
1.453238115601458
1.893809310445679
0.9070088888120602
-0.5138671468615964
-1.7562849363969457
-3.4723051190080074
-3.7429219752618414
-3.190453040621915
-3.5375110211622585
-4.549598115551463
-5.736011064294485
-6.954595272600015
-7.833773453817292
-7.41532947542343
-5.527368037159979
-2.3152559736297227
1.362277586418768
3.6877710038444
4.663080282310526
5.865579862738449
7.399952126264976
8.976271458256516
10.00868822298653
11.012728096434982
13.219318200985395
15.156138606516144
16.450438338994427
17.497265516795373
18.57537096710365
18.73783017716027
17.562552337363087
17.602507224559876
16.863319009752036
14.46008847343206
13.267145354329326
12.3424763634902
11.0991977438761
10.544035984041345
9.867933382818467
8.24332584930507
6.157377931680742
3.9355719597854573
2.358094299183577
1.6187801576654295
0.6777599808197635
-0.5652159294551322
-2.4695221684491884
-4.9152981594486675
-6.539531276552326
-7.247694178651825
-7.778152221575571
-8.686334084887905
-9.734346188574742
-10.280060529245016
-10.833431605791608
-11.52090692431972
-11.79958846597716
-11.737075129308538
-11.765731738561305
-11.568481302288951
-10.957360866914867
-10.265429941659105
-9.499260690930894
-9.355174165606869
-8.969337328460453
-7.408698508212756
-5.609608682639626
-4.8214728614079965
-4.592076760575802
-2.6430794546730967
-0.7292905507275281
0.30087762770666693
1.445260349178276
1.033278457882353
-0.1513849423344793
-1.1583784536282373
-1.4711658911882908
-0.5397651853816572
0.4489500177278524
0.9051706467026037
1.375995783203391
2.439209608165614
2.2213301043626164
-0.04570632368278938
-2.062752874700556
-3.8141964931468637
-6.40603668841165
-8.15642587242557
-8.208993950886665
-8.49354008475452
-8.770341020130447
-8.106802552139708
-7.542724907295665
-6.870233187847957
-5.698600877203154
-5.2091462834671525
-5.126328888984434
-4.158592385612322
-3.0242062546638957
-2.0693448936451526
-0.8994656621417542
0.6424505119117497
1.693109502996856
0.9874720112732618
0.5913908565656815
-0.016033914387562964
-1.4622788292977311
-0.800736077058113
0.04799488464881173
0.5675356115885859
1.845757328888273
1.5481592620287483
