AAD_Filtered_TADAS_FILE
AAD_BASELINE_CORRECTION: BASELINE REMOVED
AAD_FILTER_TYPE: BUTTERWORTH
AAD_FILTER_ORDER: 1
AAD_LOW_CUT_FREQUENCY_HZ: 0.025
AAD_HIGH_CUT_FREQUENCY_HZ: 40.0
EVENT_NAME: 202302060117
EVENT_ID: 13194
EVENT_DATE_YYYYMMDD: 2023/02/06
EVENT_TIME_HHMMSS: 01:17:32.00000
EVENT_LATITUDE_DEGREE: 37.288
EVENT_LONGITUDE_DEGREE: 37.043
EVENT_DEPTH_KM: 8.6
HYPOCENTER_REFERENCE: AFAD
MAGNITUDE_W: 7.7
MAGNITUDE_W_REFERENCE: AFAD
MAGNITUDE_L: 
MAGNITUDE_L_REFERENCE: 
FOCAL_MECHANISM: 
NETWORK: TK
STATION_CODE: 3115
STATION_NAME: 
STATION_LATITUDE_DEGREE: 36.54634
STATION_LONGITUDE_DEGREE: 36.16459
STATION_ELEVATION_M: 180.0
LOCATION: Kahramanmaras_Pazarck_Turkiye
SENSOR_DEPTH_M: 
VS30_M/S: 424
SITE_CLASSIFICATION_EC8: B
MORPHOLOGIC_CLASSIFICATION: 
EPICENTRAL_DISTANCE_KM: 113.57
EARTHQUAKE_BACKAZIMUTH_DEGREE: 
DATE_TIME_FIRST_SAMPLE_YYYYMMDD_HHMMSS: 2023/02/06 01:17:31.6243800
DATE_TIME_FIRST_SAMPLE_PRECISION: millisecond
SAMPLING_INTERVAL_S: 0.01
NDATA: 12501
DURATION_S: 
STREAM: HNE
UNITS: cm/s^2
INSTRUMENT: sensor = CMG-5T/GURALP | digitizer = 
INSTRUMENT_ANALOG/DIGITAL: 
INSTRUMENTAL_FREQUENCY_HZ: 
INSTRUMENTAL_DAMPING: 
FULL_SCALE_G: 
N_BIT_DIGITAL_CONVERTER: 
PGA_CM/S^2: 241.500
TIME_PGA_S: 
BASELINE_CORRECTION: BASELINE REMOVED
FILTER_TYPE: BUTTERWORTH
FILTER_ORDER: 
LOW_CUT_FREQUENCY_HZ: 
HIGH_CUT_FREQUENCY_HZ: 
LATE/NORMAL_TRIGGERED: 
DATABASE_VERSION: 
HEADER_FORMAT: DYNA 1.2
DATA_TYPE: Acceleration
PROCESSING: Automatic Paolucci et al., 2011
DATA_TIMESTAMP_YYYYMMDD_HHMMSS: 
DATA_LICENSE: U (unknown license)
DATA_CITATION: Turkish Accelerometric Archive v 1.0 - Disaster And Emergency Management Presidency, Earthquake Department
DATA_CREATOR: AFAD
ORIGINAL_DATA_MEDIATOR_CITATION: : AFAD - Disaster And Emergency Management Presidency
ORIGINAL_DATA_MEDIATOR: AFAD PROCESS SERVICE
ORIGINAL_DATA_CREATOR_CITATION: AFAD PROCESS SERVICE
ORIGINAL_DATA_CREATOR: network: TK
USER1: GuestUser
USER2: 
USER3: 
USER4: 
[...]
-18.847669683800216
-16.68491205471899
-16.13154465113099
-16.950354202931123
-10.551306750248258
-5.795077809099264
-4.578804384673621
-0.4059632629613041
-6.926202744543124
-13.579667161148292
-6.166837896018839
-4.854705972841538
-10.712029212593697
-1.7761354192965515
13.504779166003019
9.910328348449072
3.4965921811420584
14.590471699023722
23.0310097820164
9.267090359696256
-7.29187708860054
0.6341948481643291
6.378629145120161
-14.400893877347507
-32.47973550164238
-26.429671842432146
-14.711449978537912
-15.235424741868336
-18.322785835264163
-4.27271699650731
14.904329933136442
14.607838655231312
-2.0225860163927702
-10.143813522088285
-9.355549326359169
-22.651181568822473
-45.046484372564706
-47.076534112904554
-34.78287173817515
-26.854449337866843
-18.986870794339765
-8.30198137066665
4.5549266654044125
11.595445031257805
23.510946532661638
28.752529093384798
16.14157242971752
0.23880621909739247
-11.288897387792522
-15.920252320919976
-27.905593076185752
-34.23916586579112
-18.18963975982123
2.0152614356085445
8.085289435362892
5.8681692246838235
18.06336271769147
30.786011037380995
16.14986333723743
1.2918957325829126
10.863589971656442
33.69554859282097
36.2068710523453
18.604705640642266
15.795445071375777
25.522954621534712
23.408512180200233
4.7972796369262785
2.018417862431477
8.743135397365913
16.89046043731748
30.337039159621384
33.69314542811228
34.13551189848305
34.63026726205849
31.55427822064206
21.36230723944066
5.321517541786123
-2.6164276392287324
-9.5871602448466
-23.67082465849216
-29.42640431520864
-25.537014090322668
-35.32111917063196
-41.333423564257544
-22.9413345278964
-0.8389858464172533
2.366442954331749
-6.734098809056596
-24.06572911294756
-34.09300767198625
-25.548313593245116
-26.44871185666512
-30.924007729313658
-28.068179406072367
-16.544859258022626
5.78432554410377
26.531942366933432
25.430696196136626
23.460809859019587
43.4949614738691
55.964588624228014
31.881960386374217
11.974607433837459
26.466119941613957
35.83034684792865
18.28795705610892
-4.651541489513274
-2.9456687761893194
15.172293467590547
26.038468862711376
26.04218943739236
24.95059344058795
26.368031296204084
22.040005360618036
13.133872472767527
0.014744867128288906
-10.23907588693793
-8.3624631579807
-14.491288838642564
-23.602062105363245
-9.49905729801121
13.67638016544342
22.959430617801008
25.396399635856433
23.34885287647996
3.739546324853046
-12.624487567626792
-6.954517436901065
-4.728187815247946
-13.096773501895555
-12.32280332237183
-2.172866577986014
5.284908628356213
-3.29065901095453
-9.875347428519676
2.7887746894431595
16.26566293495454
7.518347906872197
-11.686260196698923
-10.448313562243305
5.109962267825452
9.795385001383272
-12.571256878329574
-32.87342416316396
-22.43713988591997
-12.08321466276703
-17.84102594560563
-15.861548259591858
4.675029897081456
20.176071178943403
4.86427360841908
-23.53778702809449
-32.476987561791766
-27.905887759385614
-31.579013832640314
-44.757424511077275
-43.38404476295966
-16.364791015852667
1.5841075325170841
0.312464908954549
5.320963287778302
21.98919056029639
29.02338937225677
20.05618513718865
14.287838479036038
11.448854836181718
2.25003665353187
-7.799373920891305
-3.063646007177675
3.0793912252282167
-4.513705180503075
-13.247443439292452
-10.083188764217756
-2.0264319008156524
-5.468412672423054
-17.404060400849414
-27.368287146852772
-28.48504939339252
-37.72892582634024
-57.669435935533755
-60.54183387953467
-37.42068375860576
-23.732736802823247
-41.10042552956512
-45.09712654964316
-21.611226600305063
-4.714642136111683
-5.23595377739773
-14.634087537095972
-6.063306657108229
24.085478784582527
30.18030207529677
-2.2041443541330934
-23.847318670395612
2.8714985998465217
27.53711852437856
9.122062450051928
-4.121798167229461
17.25949815077719
45.13620231009227
42.441389839528036
28.219148481865474
29.798322156731903
36.62985778354178
29.537820135691263
13.497431787215257
3.3711980477711387
1.4298800735626267
11.828982289333505
23.47106311770127
25.60913530965326
16.949452743354936
15.54894040697479
27.843565449651127
35.2899717693606
26.16889251059647
6.881605036039419
-4.610213871703373
4.151827183056985
6.339179094441981
-10.955936169033466
-12.458951156417372
0.47418570087882767
-5.869448669603449
-23.206680228804842
-23.301762202108847
-10.848692636788872
-12.680793514513521
-24.120516092977667
-25.010107514020813
-20.648183108782735
-17.700446579621858
-13.020667853174427
-10.493869416967499
-16.812289434162004
-30.66113505426259
-39.41757908143955
-43.95170237713338
-49.14351615637228
-51.28560200486227
-44.7934395253582
-33.81249361909375
-41.029276029420146
-54.61731007116868
-54.28034663129955
-25.912143317142977
3.337034880950164
-0.4624020865770683
0.34375739185089216
22.094372199583553
24.486140987403882
5.283571118473072
-2.103148443443942
4.9480031509530065
13.345859170401287
30.910832046000415
49.11990467125093
50.85227296279504
40.92547771134106
22.992081890334426
24.774224717989107
35.67581615863834
24.58267047693441
28.307913699653945
42.93803018663825
15.57181717763241
-48.89717347801605
-65.60421862289127
-40.58768145398144
-33.16608397339025
-37.25804486062372
-37.77659410965022
-27.544663781287085
-18.78632293203201
-30.818532268094902
-56.167924556313636
-42.678430669520296
-0.5167818594833863
24.43220340162219
10.98401633137755
5.337479389753096
35.0386036946678
43.56673285953172
27.437027188846418
25.666270288982826
21.2487039598581
10.037532917394442
5.907231915993377
7.133565533280572
14.913991333456895
13.426329719818716
-14.359144554044994
-53.46672588204317
-67.34425955952649
-58.866972188107745
-39.56846294690963
-32.80090415412428
-39.31749410526055
-26.3541433922344
-8.425614487355299
-15.290857513643124
-32.50862936439388
-21.567162899365318
13.179641394305364
43.2639604498517
35.43710624949148
8.35192468326309
13.374567144367022
33.30962669968482
39.47076636883298
17.184849469571265
-4.458297773695159
22.255508134084412
48.95524757169736
15.452768915786592
-32.95536784373682
-13.293834532956634
41.10470655596604
34.83613044932791
-29.70352277188217
-56.33136946797381
-8.412561046675373
28.188341898565223
-11.982894110702759
-51.864121226872435
-19.549634274010636
14.123111198262142
14.672804398407795
4.405866870378523
11.804736687358949
22.186140631487923
13.747609046922983
-2.4200813465373727
-25.452694562695953
-26.685086888665587
-12.452890137922614
-6.243418164319266
-17.79233291600598
-33.95720765936818
-9.852351798032407
14.92476587195655
-13.670690260720145
-30.4345060581679
3.3494532289220857
28.680856500084907
19.026340911211587
-0.6889333849103919
-9.06049099473894
0.29290693288920866
-4.643968794684868
-20.973396776727007
-30.78404589255341
-21.8237790274529
-6.928175219512196
-3.459403009767153
13.214993331050742
9.827688222347591
-20.255738238685193
-47.67121208918399
-29.370875740472705
0.11094990989894574
-13.002576997945344
-22.04560254013288
-15.19241153080316
-17.272901166395158
-35.63661848416506
-46.12355765742788
-43.04203230564833
-39.45140966451808
-14.275031650493567
8.179336691227416
-15.164369675315097
-33.23244237258322
-1.709193390592979
33.48108382498925
-7.661201597798137
-49.88243061838928
-13.932233995441264
40.60401857046226
31.349569144923898
-2.0459732123770125
27.79967849629796
48.982072573130615
53.08100818766107
55.92414615206425
41.27380731198493
20.84285680562911
19.663023411495416
42.077068021360944
54.12748998264213
51.28373929367079
68.83361858995295
69.99709512830903
31.393081486529976
34.248907765406905
52.072944989771585
39.778951204681604
12.029104074634647
-6.75872265296285
16.305625648231803
27.2595857504358
15.436327980192095
2.3263999201176992
4.044167073553607
45.744114789064746
39.55098671870972
6.5829570497778995
6.466069990406771
11.962307426433572
25.887141374156492
22.400375417382367
-11.835175784026848
-12.684211417206422
-1.3107027893338947
-15.548323729932367
-38.96924146866221
-58.748957368202575
-47.467746231039214
-23.38893057427271
-10.982241972439155
-18.97229368698611
-38.75106125365634
-31.655789832191132
-18.650731045155595
-32.07260103708166
-20.99971585236868
3.8423430236337075
1.3779802677599207
3.783598729949609
29.39834380817478
41.48333167087339
3.4899128701910658
-35.17489113413236
-1.6885969951503026
-1.5594208627706527
-80.17568223276096
-89.75448070289224
-21.484552685923564
-28.49943264796889
-63.42514793296842
-28.074065836471433
3.6476675529570337
-2.3516832898505666
-21.388208828047652
-42.4571465168935
-56.90677585096904
-26.078871123781372
-8.672049988417543
-29.210501233406912
-11.018860589710266
62.085799484124486
63.8324981267443
4.940502339103734
40.102231849882145
96.64652376479293
55.80377491370235
-14.121172834285415
11.846274888448837
57.45167909599187
42.841573348300024
9.157426013556082
-1.0192844440267876
13.050681077130317
40.107358150635804
69.32167278825781
44.806651338219886
5.652333812376626
51.99981454717344
104.97769461402386
32.483833759134754
-30.20274474423889
30.386033851705516
55.53173936863848
-15.411581733041105
-47.73465932481169
-14.700352440377578
-9.453068855190487
-26.684206942480294
-40.8731665330626
-72.49056728609453
-60.66238218831283
-10.034789543806168
-18.674765480934234
-83.53329033559535
-105.7360479013844
-62.72673806240173
-65.67662662875634
-104.71912690735742
-97.08007732642386
-54.16269541824867
-27.33497897401368
-25.48633737071695
14.909354031392192
12.374579341544568
-7.396989093110558
16.33093494807492
46.514622883686656
47.38061808033061
-11.476854540045704
-43.64564766703751
-12.006509625693756
33.00051995897134
5.039621301068455
-44.40732184503985
-11.85223165631335
35.678754952469234
18.824279686738393
-35.426280648437
-45.10750868633655
2.410705906448895
27.162447284874567
-16.573485576969432
-51.749097726856654
-17.787557007064756
27.24715441600174
10.956643740764589
-47.65780752767634
-42.56805742931313
-11.822237239987832
-5.716011858995584
-40.45146395177526
-58.07127683011531
-24.62918676960002
1.9875930036046991
-4.250501659447205
-27.576824228979294
-15.20019161078789
16.64044935441656
30.358744130859666
15.69972772599169
13.708076389882262
40.11350238785108
46.136982541944086
24.026333507910532
26.238612949957986
57.410057673656084
79.55107001816707
94.23228917442711
86.5385112545478
73.8238818772398
75.25285105416542
66.82389071754493
19.77918050689421
-16.32257615927419
16.740907651911034
22.558450045097967
-14.755823999795904
-28.91002042232419
17.89802525643908
31.676745999004496
-13.669019883845369
-31.258416370305813
-6.517675513725295
12.487393773404222
-43.10821954409784
-84.37027869902626
-58.38910276263803
-27.554205566837656
-35.67636284496214
-58.668849286267054
-32.819616677245754
11.923084869754392
39.183610346191394
16.96390218878817
9.34098512429066
23.192416077878423
33.88578703326473
12.538509624885364
-59.510498713665115
-55.73475195265502
-27.56971948661231
-45.61822515989179
-57.72486654064355
-44.003114526626796
-17.948612315568823
-14.770923371756723
-14.120235922403365
2.780412042082172
-9.363445098566874
-28.456717576634986
-23.81874592970436
-1.3630903968843422
6.829528096571367
-15.336799906384194
-8.070365293805065
19.946222642428435
7.456363630149451
-12.331057315959217
7.058391576379833
44.1704785739647
57.50271656843987
46.49870512871224
11.72151369002195
16.88156718409764
60.71934863742296
56.80891030161701
0.7873432858239604
-23.22745974351287
59.63546897116831
101.55111659334155
31.30684826051488
-2.225798119784298
47.98995028294528
76.41955951361845
42.290439823914774
29.71080869946597
52.41131602879715
60.01683612814347
58.863317463338255
56.18817179589034
48.65213384224891
49.5732368704603
82.13345354701798
97.00463724029476
67.49979806656732
51.385073715595325
58.80292198240656
72.89585501079311
53.979192568890994
55.47919748071832
79.9694781174189
50.45062910930201
17.00233176720535
32.62490597895886
73.10220801745707
69.6514480978817
23.681518327975986
1.4305517808528971
36.658365284329754
67.13327224212242
42.56415794597258
1.535542996943194
-2.587539122951626
40.39291106307634
48.909456555526
5.321550867550803
-7.435869584896349
-0.6515870012124495
-5.620918332632425
-5.541540334355467
-13.616757766259857
-22.260014837924178
-24.036430491593528
-14.439467238067122
1.2829317875613024
-8.937598082623307
-22.51606023844777
-16.12955988531815
-20.63657645475469
-20.252324591707332
-5.946022926332311
12.256352055622946
30.641236184065974
34.50304121299595
30.820714957771123
12.224404636113533
-3.039073632181729
-14.162258475821764
-47.575586918195434
-88.30231712512216
-114.09378351847847
-123.88343690997992
-150.60545860375538
-169.03402600029932
-199.27850504544358
-239.62291926786955
-208.00026825360013
-175.41035498304794
-161.67491360454238
-173.28816255895106
-177.03562233816376
-148.43663467870553
-165.03787682284852
-167.67829096782432
-120.46153405111723
-87.13622649797585
-107.97593404396358
-93.61232782267432
-23.95329230077838
-7.074364169604699
-12.488297030736927
17.571032551392747
40.56074572964064
36.6156360609032
15.547593917337634
3.5423820120003495
10.66824980050613
-19.854265531571617
-46.53644603353372
-43.321980109879405
-48.340295001325046
-30.196985375224077
-39.42228736675981
-30.0893257186363
7.5202275472972575
7.04730684147507
-22.970829187538186
-41.837125637364
-22.825120217856714
-7.2484327090208955
-1.590873317676204
13.102291701704916
32.98099425341285
6.317160357153272
-38.18169903964476
-36.30421902893646
-31.222762412106807
-39.98234330677669
-54.2245113788086
-89.03966086887819
-104.87023386264566
-82.96587768883384
-75.95995922818383
-94.02690271617375
-94.21459561265736
-59.82760037857871
-45.199539829394894
-92.648052163086
-109.01849043947995
-110.7364497701606
-118.70054253245034
-116.8528239716516
-151.07632909133312
-181.20801765009622
-131.20233949160632
-58.03816209465859
-25.692537089355227
-50.52772309672486
-53.10907483091126
-0.5234520119375149
20.37842135519856
1.840131555567019
-15.923700664070314
-7.958441516509564
-10.580870349457587
0.42478944621163367
22.047657791381518
4.917805113599145
-8.548318940521268
8.950821234984776
23.29903080555847
9.05509322720434
-23.355752350785053
-18.5259726043477
-5.57028718267123
-9.968861307860847
-5.26404111664078
5.902395511206785
10.244015808573312
33.37631004868367
38.90703512041899
35.25305078016518
40.757780580425916
12.102352108729365
16.162971560488785
54.131244090313686
70.43991797955114
68.74623944020546
64.47497810530311
81.69922181826118
119.98462031701767
140.47672827191846
129.01251290153098
124.53294039854956
138.9879349434799
147.31385321352008
142.82618214266043
124.15987924002164
120.74165731412606
147.97729004287908
150.07302878316244
110.90899622600713
79.65513584764132
57.36473926677781
55.322144569559924
66.44199084838517
57.66673255741492
45.27656659669854
49.07175480019754
65.1958756275232
62.93437860471164
30.336637395860922
23.047007213287852
61.43361713404633
70.04713021828266
37.177551616453805
27.284806728082525
90.69452059751187
164.38941654904932
181.95495230775825
171.21587214638333
175.3419567764235
178.47210874719508
145.46138809831623
75.78121039788951
-5.434596836964825
-40.52824305908347
-57.51111197781605
-106.45437564218179
-143.10850828119612
-142.8181132642997
-116.93313733557859
-78.8742514559944
-61.230382634964634
-47.561056762469036
-20.952588887481763
14.625934384669137
26.046728785701372
25.324648353007788
44.22042432152078
57.50393550161702
42.800744770909056
18.98996905528882
25.86359212578846
13.828198857620215
-13.443810792006403
-8.677732877154861
-2.047592197648791
-46.780915812276845
-94.64000271187979
-45.4680281111963
-13.1973275209152
-29.069059397440725
-33.98943390806741
-24.979724932161623
19.443682532952412
63.69357274653691
48.20546838889661
34.00392669285399
75.80077926412771
123.0560483818796
113.57558586514443
41.700130170876285
32.971835258358446
90.63631463668665
109.1319388680326
69.54266718941685
37.30400642961099
60.540112620621194
96.42462668726539
110.42563476141963
69.69891585467923
46.49432861033715
116.6328232934555
155.19948317468265
145.7908747844301
99.34728161532264
79.07424857476458
97.56646327626353
78.71223924074324
24.338993432330916
-71.76857008547265
-103.55516292920575
-86.47568641124249
-105.91968719395048
-113.83378558573483
-113.69933813517738
-67.00290840411175
8.546426392001397
31.180234993276425
8.222757264847468
0.05666454946554201
0.7996743441009136
-23.709385336322494
-66.30111905122261
-101.24671710638314
-76.54029737116818
-36.36553748845636
-49.278243733899295
-68.20226431818281
-38.239717639216344
-30.819686659741603
-42.70261725426361
-40.74200236253644
-78.64260887095287
-98.3586700538725
-65.62304438154005
-65.91686086125172
-68.08762426284771
-28.627799356477365
-1.5315189860113272
-28.28265800750529
-42.30317080672534
-35.801784010119356
-37.05282693940386
-23.66771822342822
-5.866575408452272
7.73410595208302
17.481710298432656
30.402737023339593
46.93252207739992
41.74938894234875
60.707042103029714
112.91215612527566
126.83270239457444
99.00598134261796
87.41868141598628
73.42008166936304
11.218132731680123
-40.33993658453213
-67.64291511479679
-70.02123575528971
-51.689398233170365
-50.036217717399644
-53.375262927424075
-44.96989485047744
-41.46033928163923
-36.61349548070848
-36.037787906498465
-48.69095380709454
-63.661887736864806
-66.791008856452
-63.41599214229785
-54.34299144840993
-26.558632037679505
-10.032528872077224
-11.559826020087055
-11.40740143448068
5.866923399072495
38.76783709370037
16.22058649759927
-30.72849463669208
-31.559089162194468
-13.069787735497233
-5.16175149409517
-34.05546794230576
-99.4002559877877
-92.17204846347047
-36.02476176083814
-66.79404733697871
-113.02372201572462
-125.40244292865907
-75.70302236730576
-0.7236064824032327
-25.546121993500986
-86.5954700544704
-71.21524779361837
-21.257924551713604
-15.460545970034772
-29.90099169119009
-63.91445554058228
-58.70984473432112
-12.580335589154561
-3.3075747184145485
-16.56017615248627
-24.25300336128956
-0.8772732498411929
48.70411281302847
66.46242573387282
51.17062087405904
74.01468263393923
102.61147226350816
