AAD_Filtered_TADAS_FILE
AAD_BASELINE_CORRECTION: BASELINE REMOVED
AAD_FILTER_TYPE: BUTTERWORTH
AAD_FILTER_ORDER: 1
AAD_LOW_CUT_FREQUENCY_HZ: 0.025
AAD_HIGH_CUT_FREQUENCY_HZ: 40.0
EVENT_NAME: 202302061024
EVENT_ID: 13207
EVENT_DATE_YYYYMMDD: 2023/02/06
EVENT_TIME_HHMMSS: 10:24:47.00000
EVENT_LATITUDE_DEGREE: 38.089
EVENT_LONGITUDE_DEGREE: 37.239
EVENT_DEPTH_KM: 7.0
HYPOCENTER_REFERENCE: AFAD
MAGNITUDE_W: 7.6
MAGNITUDE_W_REFERENCE: AFAD
MAGNITUDE_L: 
MAGNITUDE_L_REFERENCE: 
FOCAL_MECHANISM: 
NETWORK: TK
STATION_CODE: 4628
STATION_NAME: 
STATION_LATITUDE_DEGREE: 38.241198
STATION_LONGITUDE_DEGREE: 36.922805
STATION_ELEVATION_M: 1228.0
LOCATION: Kahramanmaras_Elbistan_Turkiye
SENSOR_DEPTH_M: 
VS30_M/S: 186
SITE_CLASSIFICATION_EC8: C
MORPHOLOGIC_CLASSIFICATION: 
EPICENTRAL_DISTANCE_KM: 32.41
EARTHQUAKE_BACKAZIMUTH_DEGREE: 
DATE_TIME_FIRST_SAMPLE_YYYYMMDD_HHMMSS: 2023/02/06 10:24:22.7143200
DATE_TIME_FIRST_SAMPLE_PRECISION: millisecond
SAMPLING_INTERVAL_S: 0.01
NDATA: 2921
DURATION_S: 
STREAM: HNN
UNITS: cm/s^2
INSTRUMENT: sensor = ACEBOX/SARA | digitizer = 
INSTRUMENT_ANALOG/DIGITAL: 
INSTRUMENTAL_FREQUENCY_HZ: 
INSTRUMENTAL_DAMPING: 
FULL_SCALE_G: 
N_BIT_DIGITAL_CONVERTER: 
PGA_CM/S^2: 0.063
TIME_PGA_S: 
BASELINE_CORRECTION: BASELINE REMOVED
FILTER_TYPE: BUTTERWORTH
FILTER_ORDER: 
LOW_CUT_FREQUENCY_HZ: 
HIGH_CUT_FREQUENCY_HZ: 
LATE/NORMAL_TRIGGERED: 
DATABASE_VERSION: 
HEADER_FORMAT: DYNA 1.2
DATA_TYPE: Acceleration
PROCESSING: Automatic Paolucci et al., 2011
DATA_TIMESTAMP_YYYYMMDD_HHMMSS: 
DATA_LICENSE: U (unknown license)
DATA_CITATION: Turkish Accelerometric Archive v 1.0 - Disaster And Emergency Management Presidency, Earthquake Department
DATA_CREATOR: AFAD
ORIGINAL_DATA_MEDIATOR_CITATION: : AFAD - Disaster And Emergency Management Presidency
ORIGINAL_DATA_MEDIATOR: AFAD PROCESS SERVICE
ORIGINAL_DATA_CREATOR_CITATION: AFAD PROCESS SERVICE
ORIGINAL_DATA_CREATOR: network: TK
USER1: GuestUser
USER2: 
USER3: 
USER4: 
[...]
-0.012076163697139047
-0.01430634163803517
-0.004673150584093354
-0.0018017439797149489
0.019490290408422376
0.024487631987189375
0.006017703902265845
0.003051721819097849
0.004905044440092008
0.008007393230153134
-0.0008189027992243227
-0.004792863995750832
-0.0039953342649502975
-0.020086249398264526
-0.01679326019266163
-0.003262741793081823
0.00432430789954553
0.0039827271384407
0.001501777065857475
0.016867707447251606
0.016244008340771398
0.009116522645827674
0.006194329091474039
-0.004502163926363128
-0.0069868350801939785
-0.010468421931427356
0.0015547847552687436
0.004959498968820779
-0.008775032244018804
-0.0003584841576657185
-0.003403771415823929
-0.0060800149940698845
5.706164265345619e-05
0.00011071627750453869
0.002375392274168382
-0.009715778797038705
-0.00618916434694299
0.0019077299331292656
0.0020178433617525156
0.014653664297458046
0.005900936578596989
-0.003945543701939313
-0.000339376004788067
0.0015310200950120936
0.00022323149470591418
-0.0047556719619034574
0.006076210955179783
0.0009064008868198759
-0.006165843247851422
0.008554885667758604
0.00563377961494009
0.0007572421238641964
-0.0024080877643806132
0.002205524843731085
0.004615804915156781
-0.01654786184995495
-0.009979092878430412
0.009805077620732561
0.00906775893053973
0.004483782511336439
0.007156520507028899
0.009307334246319585
-0.010677265870646472
-0.016007371754507973
-0.001972758432366786
-0.0006407950722448362
9.46103704121245e-05
0.000602147931218917
0.0031635854034255716
-0.004318672034762946
-0.012318289990218972
-0.008396736730057513
-0.013192802682354631
-0.0015529160003688472
0.015280190870142764
0.011974164083055027
0.0065731041776287
0.0018972492726475121
0.0003913965937470294
-0.004486428091615021
-0.004463959421555801
0.0017073750780561652
-0.0026697551853937123
-0.0011427345766939665
0.006724328360669867
0.001649465788035837
-0.008999781980229122
0.008957937267359882
0.026961980637477043
0.002399793083991253
-0.0050421355042838826
0.013920383142870736
0.012885155476572131
-0.00337198358880631
-0.015905392101504556
-0.012139212610002044
-0.012085699080516205
-0.014729482889023296
-0.005237952000001984
0.0019390327035386059
4.8160007374418736e-05
-0.005867791375282659
0.0035025187871384183
0.0059594906136207
-6.503289300906053e-05
0.012521451593873089
0.005209349240110617
-0.0036046227397891336
0.006528831833677574
0.0059445707913348845
0.007638838023012134
0.006053897827063617
0.004905573931497628
0.0010692164110794296
-0.01602766062631983
-0.02034487720928037
-0.02109940645192752
-0.016609232853202618
-0.0006889911910359501
0.010967135035907643
0.01365447496123022
0.005554584273382238
0.009660512343156399
0.014250522947686388
0.0028886664039390777
-0.0017446344240094386
-0.004674730941055957
-0.010227503365293792
-0.009142950343904534
0.006727243786804068
0.00975034574340096
-0.01067889429717715
-0.006965484024252622
0.005270457824343288
0.0052077226869340085
0.0015238284622793256
-0.007363759308321135
-0.0026501404177826536
0.004482488009721401
0.018831700157753605
0.03670742079050452
0.016949087320813377
-0.015718992179971195
-0.0249915112575721
-0.009636736937545071
0.005326374712461267
0.0035243983435715915
0.003550679377212834
-0.0037015136240719725
-0.013230825864510281
-0.010293437125540717
-0.009117586817106586
-0.00863569728994219
-0.01115250518187411
-0.013549636418475269
0.0033963255315451724
0.028453242003140037
0.02269736447738395
-0.008817200303200464
-0.02521785715900649
-0.020696950451435835
0.0013887743895407817
0.025599416915058217
0.02239714159922387
0.0017532984507372862
-0.009443197766549827
0.0012104557147795182
0.013776853568297297
0.0011815532613058508
-0.01904400604729631
-0.01876480717415009
0.005825644891377835
0.027165045411515574
0.01713053675082624
-0.005141076181516936
-0.017609173293822906
-0.016869630196549273
0.004837009258143829
0.028703515585643668
0.02478714925558217
0.0002678292475276596
-0.01159954319122003
-0.0014813531295719314
0.0025463316122581645
0.0004920750511527498
0.006826014593740044
-0.0004669010432687263
-0.015097109631297696
-0.0007439088027853848
0.025464836155360833
0.012958117883663701
-0.02321171436150786
-0.030156962436071577
-0.012269989669220334
0.004056867107672672
0.005796585163883489
-0.001626280966475483
-0.007018017540756489
-0.01254813856062794
-0.011998345716615262
-0.012601736381074055
-0.011912020084082313
-0.0018301516992729095
0.006802027653206037
0.01985442401328536
0.02427936554075072
0.012448940787605433
0.002035586316620575
-0.003959779458106933
0.0022724333885777172
0.012147338503259515
0.009213277288639136
-0.002013830970192751
-0.007585775200708201
-0.00878995466696497
-0.012035949194292878
-0.004184533454065377
0.003118773010939369
0.006627802217348115
0.012586785005011293
0.010231835953280977
0.0085834483603952
-0.0013560010183649388
-0.006702586352073174
0.0055548751230736085
0.0040692871182712795
0.0018176597229905837
0.014068761954827784
0.023852344349843846
0.013530066471788966
-0.009291157556243492
-0.014416757725380414
-0.00895506462117043
-0.005892126020463927
0.0003241393753398222
0.006156071911425096
-0.0038781829026456383
-0.019398455773299957
-0.014634562513734553
-0.010321565936420753
-0.014253893166572495
-0.010985635088907885
0.0016627111496910311
0.008981464221516315
-0.0007573514917807669
-3.5207855053931004e-05
0.004359338915149973
0.006169923395321802
0.012287717789066467
0.0008595756998580349
-0.007262164596028637
-0.008581682252886516
-0.0077138159529458504
0.0013857668140764567
0.0020454537496052165
0.0091120493339927
0.005144590712482897
-0.016656970592526125
-0.022636645342546946
-0.01566214838364808
0.0005794608338507199
0.00995267776191916
0.013979864861762944
0.02195089539345272
0.015200092315065094
0.010132700734360688
0.012509143449285587
0.0031588352395331963
-0.006201507878005282
-0.0010737305823842228
0.006196791060705738
0.009185701090409417
0.012757902317395962
0.016025011798642245
0.012562109749934932
-0.010395357550653201
-0.02162123277127687
-0.0008716403661720452
0.0028628365167169927
-0.01544311761572476
-0.02267381694436272
-0.014181300380989498
5.0093483645926574e-05
0.012210312486591886
0.02010529395029053
0.008460099117282441
-0.012266628569881323
-0.012453870977387172
0.0014257075987281103
0.010764114972589986
0.00792966283942662
0.001240139605831491
-0.0017096042934660908
-0.006906414419509232
-0.007949975333870497
0.0012404584911072253
0.0009725494743054896
-0.011943104978937207
-0.009050167696842302
0.005900178372157539
0.00815903544420169
-0.0007681676851122064
-0.011039607948097009
-0.009316992875772484
0.0018204392246603245
0.0021480162724408173
-0.0064880538099112844
-0.010368813677252774
-0.0032567856869557235
0.004772571519853143
0.003675504720961318
0.006164674219821936
0.01599460531470384
0.01765873956759004
0.007953220157562236
-0.0017665904673768008
-0.0051081737162158684
-0.00022202921434200652
0.009461574481617073
0.005219927762761768
-0.01150418256460748
-0.01020250489009808
0.005207543019173527
0.003178566276378202
-0.012373707830749921
-0.012547630321121554
0.008026316450243919
0.022409146981468533
0.008869665194660165
-0.009483482831751497
-0.005770434651006692
0.0022306610977155697
0.004505205249223261
0.008804779415955076
0.0060679281685252105
-0.0034885332431916698
-0.005321369301649225
-0.002788952852771292
-0.009713599107016068
-0.01586827100420714
-0.01746172075450197
-0.017315241337927792
0.004694804428462196
0.027524862031864248
0.024314107214407694
0.01125269295823025
-0.0010005419698756576
0.00029561210577816097
0.0043967160116647405
-0.006868900765895739
-0.020168911118553314
-0.02252795395735964
0.0004155991852061566
0.02613229079665816
0.027276811847961123
0.019576217441655393
-0.0008898551426092295
-0.01851840963335943
-0.01374194719127706
-0.016138376576295025
-0.019290146341164344
-0.005473773735704766
0.006029606742998315
0.006689851574969414
-0.0003634319234071714
-0.003653131120025659
-0.0010897954728254164
0.0004309604215644816
0.004594778492007479
0.003171680199835737
-0.0033425503948771806
-0.004254097680695505
-0.0011352355048309393
-0.0048350717817212275
-0.019871655915930594
-0.009708423912780479
0.02164978467335007
0.024343956616005104
0.016215257311918654
0.013080153953348475
-0.0033435644080265815
-0.01896628725500328
-0.010623604926375587
0.012845192821841366
0.015868830052932888
0.004242213819785822
0.008734241710663388
0.017185804476871385
0.005440232828657571
-0.019106738512557203
-0.01539505611560302
0.012027064181397871
0.006164813514108971
-0.018731294363864212
-0.016959429900855715
-0.00441769208942662
0.000853965788591386
0.005930274079985197
0.011446136154619634
0.01143571193463935
0.00365475564271948
-0.005623095055908226
-0.009179535412487434
-0.006820450664884384
-0.003771760912993932
-0.00619492541815982
-0.0061827062031106815
0.005464853308651369
0.010109571539635737
-0.0005650478363974405
-0.0009544487865391193
0.0073579987832365825
-0.002705798848046128
-0.01627384753183858
-0.007219698543614738
0.006885329809675235
0.004810032125396374
-0.004021632942317586
-0.006398289002766966
-0.006584983422589518
-0.00964839007657701
-0.008596403677434201
-0.005584037961100267
-0.003928734249193431
0.007583155333410818
0.016524045272897168
0.005765938842920793
-0.006058626452929712
-0.005144975972620264
-0.00013046393951337027
-0.004620189739813446
-0.014846897000204222
-0.008024066322892742
0.010568789530055592
0.02419032688766037
0.03572247866537454
0.03294725483564051
0.006593545865643366
-0.011938622941550589
-0.000898300440387408
0.007773005206879209
0.0003466950435317795
6.672860113759652e-05
0.0002089493025012042
-0.005859543169689994
-0.009284019479465342
-0.012457977455276664
-0.010462126813085606
-0.004222625250334019
-0.004916905514353483
-0.004904422067400482
0.007445214452729403
0.01878212422716292
0.007858440628373391
-0.01164679406693994
-0.009459216002391019
0.005145560935205042
0.006700202763914571
-0.002747161816855803
-0.010633666604811593
-0.015591021480425231
-0.017088766045494672
-0.008527440689876145
0.0026573455999673447
0.0010188809219481136
-0.0016772674466562164
0.004811742765823801
0.006615138135769984
0.0021554138750310256
-0.0012251914549597284
-0.00020836106896779519
-0.003370175537221221
-0.018683080494765275
-0.014730821705542341
0.015565599364930207
0.024457585837254495
0.0038299103606825105
-0.014963140471311597
-0.014364610474893205
-0.0021140784225266913
0.005592430120198935
0.01100627782197382
0.005406093901425367
-0.00586664924757121
0.005875542303016474
0.016114599084470726
-0.0020036210132330368
-0.02117725523527386
-0.011376560967227911
0.010823827864421511
0.010794586324695585
0.011136874914103844
0.02134079456568018
0.008694238032073276
-0.0023534203033140086
0.006445017054678182
0.009891076688858186
0.009878670850387718
0.0022789123426866687
-0.01925567801492351
-0.02889191430802517
-0.013871670974524138
0.01026549727228798
0.02336048985003644
0.014882365280382587
-0.003942441057451423
-0.011641783143861075
-0.005406565385119409
-0.0020401600282735272
-0.01362213857980167
-0.02057308229334036
-0.002705926385567726
0.014666580044997388
0.014085923080627082
0.0032374563856882813
-0.014707340962703581
-0.023180927921883077
-0.013350667196982077
2.1969178835268865e-05
0.005037061589205698
0.0031800120689757095
-0.0013500778081971616
-0.001688374103426241
0.010832024594825245
0.013785414633840086
-0.00661793520893139
-0.02214908592658114
-0.023368817541742498
-0.007703570718512934
0.017677950652802678
0.020599938401542353
0.011659020908125909
0.011416480671837455
0.012923249871831213
0.01635857755228928
0.01333808389157263
0.00038243063043678536
-0.004139663615618604
0.0015202645429783991
-0.0017138559451432794
-0.0162886751036385
-0.022593823381955497
-0.008047750345577925
0.016140248463151916
0.022318049668916373
0.005015686276557316
-0.012473000884760672
-0.016069893264994816
-0.002916530356215853
0.011563173882577922
0.007522774182251068
-0.004195949401717102
-0.008277977370291215
0.005103626284397828
0.02209271691769647
0.012695544851627492
-0.005127966566602589
-0.015097172588524405
-0.020396053500090817
-0.009364375348400336
0.002506108735172939
0.00722022022770699
0.010977992729655509
0.00022361848180922901
-0.012118449289569184
-0.009692528603062123
-0.0034970577800854602
-0.004699407681889288
-0.008837764896855305
-0.0037148428680126534
-0.0001390470157483997
-0.004778096950754825
-0.005934597170247922
-0.007977620423612403
-0.004098789746412742
0.014394160371255243
0.02699919924777002
0.022818064881372755
0.010782413911436297
0.002064357857600513
-0.011847111270777191
-0.04442281638735512
-0.05437951453670464
-0.003161067801970603
0.05650446617963725
0.06341374802289557
0.030123679486104355
-0.008214340311542126
-0.0320795650701615
-0.029742818504741968
-0.006524924442028159
0.0162477438092684
0.0236737799762318
0.016137807052139654
0.003531826543896166
-0.0025867892840759224
0.002999608652182906
0.012495972899658541
0.00710761715547553
-0.015562996576309962
-0.023042540395340955
-0.0006677646324373236
0.02128504031750124
0.018535192250654725
-0.009031243202630965
-0.03995925632660651
-0.04512176450458457
-0.02105123601068755
0.013313623995712854
0.03530731717917998
0.040792094324797475
0.025561851386002803
-0.021597193755075697
-0.059813659510017346
-0.0453513510342274
-0.002868802721419376
0.022970761581468314
0.019475096103053275
0.006923038494890025
-0.0024049976810997975
-0.008236518286470419
-0.0031357250791567877
0.011030827191240891
0.02214051243494815
0.01344014458001539
-0.004386484007323037
-0.007478443653439456
-0.0016561372864167569
0.01513745440406949
0.0213745021386665
-0.005477635876562915
-0.021964243337777665
-0.009295934639939286
0.016378677181433564
0.036612237257116785
0.028881179908000893
0.003118108675699764
-0.022054857977991373
-0.02789347896973905
-0.015688566826265557
-0.004928466877673177
0.008656591698493553
0.006665022387747669
-0.008208540785082484
-0.011029703677902172
-0.016799304921786728
-0.007653249413161498
0.009404286928214307
0.0024711027358180868
-0.0054715843822119425
-0.016585533751539067
-0.018477024771511516
0.008451361270089717
0.027537378821829647
0.026936573067891573
0.015716406135715413
0.0035737362765911026
-0.009481508127547516
-0.022570473418905678
-0.011276309543151402
0.004345179420083583
0.0016812274856188149
-0.0043749474814946945
-0.0046352438911447845
0.0074994772688568795
0.012596876369096982
0.00503737274982076
0.0035792867672710315
0.0002566000796980929
-0.0035204752075283182
-0.0022965834851953206
0.0014951717689942973
0.004500829389543008
-0.0028582517452583707
-0.01021872527178847
-0.003982707408036237
0.005375596042890197
0.004307280206130744
0.0011376532888267565
0.0015128525896455974
-0.00873366145189164
-0.01919704064857927
-0.008010587383246268
0.013652860327356197
0.018122168373068945
0.0004645995114913639
-0.010660487287584628
-0.004448956831705225
0.0013967003904563305
0.004769343269885723
0.004806413629820406
-0.00827341794451771
-0.018178782030052115
-0.002870569456692042
0.017389871021293444
0.019919337544427415
0.01276662634710185
0.0034999386304594925
-0.0048454952841863455
-0.01804758377757005
-0.030159830152953728
-0.014230435961310482
0.013147950718554331
0.0198268934928916
0.015325182490045724
0.010347735258390499
0.0024500539926434178
-0.004120361160022875
-0.0069407140503865315
-0.009545703308625584
-0.014723512791183299
-0.020343401620546892
-0.01126507957725288
0.010067662294100856
0.021767561132570022
0.01647139000070888
-0.002211841385511178
-0.012280255281256125
-0.014008402346939957
-0.010803390155639326
0.017923748221105214
0.02602120447501641
0.003853894484362672
0.004889777300813757
0.002587931920866003
-0.008591976157295688
-0.005883673748208254
-0.004249528919573113
0.00762612675141038
0.01497144720993645
0.0007962292656424753
-0.003636147361971878
0.0016247209117568257
-0.008284127207700253
-0.02015502410115959
-0.004547822662801975
0.014154819420501955
0.003552062175860641
-0.008699251614620648
-0.0015666441541477094
0.009622960197387431
0.005673316293795185
-0.0096133789999634
-0.008165418072478225
0.002756716399890366
-0.0003353939964869841
-0.0081090322607402
-0.012601023484707022
-0.009757310309791899
0.0034562684084045686
0.013833792653357041
0.0183992959564735
0.019384428293921986
0.013723576596812632
0.007400167566257663
-0.0029800170904772092
-0.020971715586990087
-0.02940735609527047
-0.015348679152365284
0.010161968924511546
0.01673881022909535
-0.003927214865318326
-0.01756768211192667
-0.009531120354463869
0.007566343912858372
0.01983898479340693
0.005085731276462964
-0.018636875808596614
-0.017462000236295856
-0.004439733113357471
0.014694692728932403
0.03173450256866982
0.020172964086895492
0.0020211548088612426
0.005956793255343928
0.014875139614104724
0.004132408420732877
-0.015279514396064925
-0.020008194094377783
-0.023022237891658682
-0.023374888610556897
-0.017850457715178906
-0.023439232646765524
-0.011899920509088257
0.023348895379719348
0.047690997992721224
0.032906898714759984
-0.021021609528471784
-0.04116109722920481
-0.006309652605886435
0.023243019193736173
0.022090658195052647
-0.004356605535400473
-0.007825668012923295
0.02252494477251444
0.027492924196089525
0.00973605171333924
-0.003123989193294735
-0.013682825582061239
-0.016039989476686868
-0.0017536634851709847
0.0043879756471230606
-0.01761443930180449
-0.024370684291378387
-0.0013023444557339163
0.016771550789399757
0.023764127288614028
0.017154367089201594
-0.0010389731024183163
-0.013122018746055049
-0.010826193950684883
0.0019632991612246967
0.004977366629149503
-0.004327097609477688
-0.0115765297724575
-0.006451245237133022
0.010708174412979686
0.004072332960430953
-0.021482896893775145
-0.0237780176570437
-0.012326619570925065
-0.00030955767177359326
0.00028098891347686915
-0.005133921814308053
0.02126240604060685
0.0347694514008551
0.0050694919656883285
-0.0077016703075321906
-0.011240183280908367
-0.01382276785953802
0.008860837521988626
0.01546793619288069
0.0069573926873888895
0.006683636533394431
-0.00042264269639622854
0.005485146064917239
0.004407051150288222
-0.01956734534399799
