AAD_Filtered_TADAS_FILE
AAD_BASELINE_CORRECTION: BASELINE REMOVED
AAD_FILTER_TYPE: BUTTERWORTH
AAD_FILTER_ORDER: 1
AAD_LOW_CUT_FREQUENCY_HZ: 0.025
AAD_HIGH_CUT_FREQUENCY_HZ: 40.0
EVENT_NAME: 202302060117
EVENT_ID: 13194
EVENT_DATE_YYYYMMDD: 2023/02/06
EVENT_TIME_HHMMSS: 01:17:32.00000
EVENT_LATITUDE_DEGREE: 37.288
EVENT_LONGITUDE_DEGREE: 37.043
EVENT_DEPTH_KM: 8.6
HYPOCENTER_REFERENCE: AFAD
MAGNITUDE_W: 7.7
MAGNITUDE_W_REFERENCE: AFAD
MAGNITUDE_L: 
MAGNITUDE_L_REFERENCE: 
FOCAL_MECHANISM: 
NETWORK: TK
STATION_CODE: 6305
STATION_NAME: 
STATION_LATITUDE_DEGREE: 37.16045
STATION_LONGITUDE_DEGREE: 38.786937
STATION_ELEVATION_M: 547.0
LOCATION: Kahramanmaras_Pazarck_Turkiye
SENSOR_DEPTH_M: 
VS30_M/S: None
SITE_CLASSIFICATION_EC8: unknown
MORPHOLOGIC_CLASSIFICATION: 
EPICENTRAL_DISTANCE_KM: 155.06
EARTHQUAKE_BACKAZIMUTH_DEGREE: 
DATE_TIME_FIRST_SAMPLE_YYYYMMDD_HHMMSS: 2023/02/06 01:17:38.7566880
DATE_TIME_FIRST_SAMPLE_PRECISION: millisecond
SAMPLING_INTERVAL_S: 0.005
NDATA: 27001
DURATION_S: 
STREAM: HNZ
UNITS: cm/s^2
INSTRUMENT: sensor = GEO-A200,/GEObit | digitizer = 
INSTRUMENT_ANALOG/DIGITAL: 
INSTRUMENTAL_FREQUENCY_HZ: 
INSTRUMENTAL_DAMPING: 
FULL_SCALE_G: 
N_BIT_DIGITAL_CONVERTER: 
PGA_CM/S^2: 59.921
TIME_PGA_S: 
BASELINE_CORRECTION: BASELINE REMOVED
FILTER_TYPE: BUTTERWORTH
FILTER_ORDER: 
LOW_CUT_FREQUENCY_HZ: 
HIGH_CUT_FREQUENCY_HZ: 
LATE/NORMAL_TRIGGERED: 
DATABASE_VERSION: 
HEADER_FORMAT: DYNA 1.2
DATA_TYPE: Acceleration
PROCESSING: Automatic Paolucci et al., 2011
DATA_TIMESTAMP_YYYYMMDD_HHMMSS: 
DATA_LICENSE: U (unknown license)
DATA_CITATION: Turkish Accelerometric Archive v 1.0 - Disaster And Emergency Management Presidency, Earthquake Department
DATA_CREATOR: AFAD
ORIGINAL_DATA_MEDIATOR_CITATION: : AFAD - Disaster And Emergency Management Presidency
ORIGINAL_DATA_MEDIATOR: AFAD PROCESS SERVICE
ORIGINAL_DATA_CREATOR_CITATION: AFAD PROCESS SERVICE
ORIGINAL_DATA_CREATOR: network: TK
USER1: GuestUser
USER2: 
USER3: 
USER4: 
[...]
-5.977765545148029
-7.28467111214204
-9.66457760244327
-13.030202257698958
-14.839819054361492
-14.386190749496745
-12.667895886057755
-12.096298208841867
-14.474367267162693
-17.31618017931552
-21.47623856504787
-27.558479376603458
-31.19044816556767
-33.21044695912568
-35.22575533843322
-33.93504209625419
-28.7130702558789
-21.957897528333785
-15.615236005608608
-10.872499107054411
-7.800000705187776
-5.464864071285655
-2.835042321558479
-1.3752182176556424
-2.728533550978395
-3.6930384012528648
-1.805757303121599
0.837697932759148
2.4173669265209408
2.463836506428832
1.3712750543834444
0.5496229198080768
1.032572578893345
3.876145468409191
8.67320410085246
12.094714751384291
12.385861894773338
9.42260242938709
5.403513683142945
5.360403875442491
9.942146310632952
15.992127415892382
19.077689225689443
17.182086232122874
13.818173826032416
10.9448821769628
10.066776233486992
12.08010994915229
14.339424629374804
16.131094549715804
17.104603991982202
18.451030660839734
22.291386398819313
26.51747625912351
29.521353183775748
30.265375970034942
28.079209254975524
24.55188117352019
20.019179886403027
13.931136679789459
7.385439586562184
2.5440386601842415
-0.4239159617809348
-2.144246036724324
-3.0602208001696325
-4.786679043530201
-7.1166509297516445
-9.387933433483088
-11.441832656522836
-12.631541227225012
-13.161249952879754
-13.129868396938383
-14.162348510536967
-17.73747940275393
-23.584815143296765
-31.307530414206425
-37.92488984107105
-40.38315861875343
-38.6404586004429
-34.759763174878465
-31.45240240475067
-29.197154655587745
-26.49655893512213
-22.776637665313
-19.255222262076384
-17.27517571135492
-18.235116085897918
-21.962135407295808
-26.121453063432828
-29.367440208262014
-30.45321584570957
-28.50795694889265
-25.11723260645433
-23.163725581547098
-23.360376321228404
-24.11396546234828
-24.576684998716992
-22.95758462635532
-18.272752814380024
-12.697696480187902
-7.64840501603619
-4.442550494500784
-4.268710500572652
-5.628139056187671
-7.070793150148615
-8.078833319444993
-8.610860183319279
-10.30366966266192
-13.001688112447834
-14.537203442318459
-15.308083901615129
-16.148137109125496
-17.319650597034865
-18.871172903219456
-18.37676672218134
-15.718880545575415
-13.075821623126961
-10.5383827555364
-9.165495143578012
-9.240868986415903
-9.980217066248771
-11.831410458426076
-13.371516933123925
-13.956024970607162
-13.940881400747656
-12.413144647526156
-10.523586064109308
-9.314543608662781
-7.831905654679676
-5.928317621499045
-3.640826137315798
-0.8930812287470508
1.7199251371277344
4.150391953220477
6.338895410223129
8.134044494822957
10.284250343033147
12.25394980413923
12.62442324202324
11.79811492329507
10.070568352858933
6.90262362253012
4.029700611300867
3.252142211538825
3.5141358946580947
4.045553801979195
4.662789406559897
4.9804674429847795
5.068847146209248
4.0800200576527095
2.6769705422677332
2.0676492746569917
0.5797214794051824
-1.4739139183424015
-2.2194942180610346
-1.8775148806788493
-0.5776066447875127
0.8594232182575209
1.2992578302747262
1.066471175088709
0.7345025273830907
2.066952667642383
6.770235398282703
12.690638171226208
16.418844010238534
17.287070832364716
15.97214069732488
13.887446708607065
12.401928184950576
11.44925941832875
10.823789276120857
9.702246932134882
9.154898887621188
11.755962729372808
15.41789817470413
17.366113955058257
18.223349242580067
17.722560042592004
15.268527354636364
13.470015105892005
14.348971215267362
15.571025331372223
15.607303430766404
15.555593227773509
15.279382045441617
15.210149745909685
16.913771435550196
19.43650095867023
21.292550441571347
22.40841994092525
21.588974746706903
18.914403689791502
15.86030538895044
12.18023073596581
8.58500965861136
5.326984459013506
2.24062888894258
0.39822602891645825
-0.781672833946615
-0.843895674569097
0.7755989325946324
2.313604821535901
2.761145934007541
2.840240446605142
4.490826873094636
8.567037381654163
14.568925441242072
20.18245753608262
21.5690628597871
18.578302063052927
14.201336400322212
10.59312834418563
8.595008489854033
7.9471974003008645
7.825778537883534
7.731008511321118
7.560230001090056
7.210635201900815
6.547241126250063
5.594333100464108
4.481591197277216
3.4165443593869083
3.364626308639333
4.489119210286217
5.289525883907568
5.153174020834697
4.583136079293408
4.915785695768837
7.403446225363064
10.963969703132095
14.109853510829307
15.572670136622293
13.878817435709514
10.471099289686897
7.385816233571718
5.003298992103742
4.500173774010962
5.396682189453846
5.725971323681927
6.599870931876693
8.633923447174748
9.680575029654296
10.578046177670535
11.362807768905233
9.709634069414884
7.636889280006748
5.1174367619748065
0.4606064889900561
-3.2719118883015694
-5.17182153396069
-5.9692331637707206
-5.60798867530854
-6.225690695120862
-8.07129143955957
-9.422149237736564
-9.756591759205767
-8.843176764451062
-7.929398613216296
-8.846731370658109
-10.571389784869236
-11.17806496479999
-11.021329415414582
-9.858577259748685
-7.433088794933967
-6.9508462099403925
-9.253408970199596
-10.977426773904561
-10.162930775149379
-6.365128274239022
-0.34820858510035463
3.487359370700031
0.9655056404433414
-5.317428257409357
-11.260448919675078
-16.365914390641876
-19.494446622788406
-20.727810101315118
-22.4232280339655
-23.568558701029772
-22.438568393048637
-21.67674778119073
-22.18786168297091
-21.29381788003299
-19.174596735675493
-15.563120990815053
-8.24154691859788
0.31693191050518293
5.424643301331059
6.431899355543399
4.296030546974443
-0.23110287601707896
-4.553890101383331
-7.033095346765253
-8.27976892667173
-9.732815442852198
-12.363940668879032
-15.784343103278895
-19.394550934614255
-21.315427335132053
-21.356664165499463
-21.72259654105078
-22.19528392805185
-21.890931037796037
-20.394651061550288
-18.113445706701228
-16.732399476151862
-16.284192207301057
-16.118388590645488
-16.272105199023294
-16.185372898179693
-14.986500714933278
-12.896257763960682
-10.927242340362255
-9.0915961790736
-7.205262585789552
-5.435119243962502
-3.469095942627547
-2.4413760327258367
-4.264046720756956
-7.791960003133726
-10.31115810155364
-10.642067302887838
-8.960729255645871
-6.876199518056608
-6.05408707771143
-5.983350897994851
-4.8910839772700605
-2.80536004167845
-1.432747411782709
-1.451731276280681
-2.647686375183404
-3.388943653602365
-2.007270110186228
0.4605190433354337
2.5017071161186775
2.973116774149286
1.7094180500008858
0.13623364784981054
-0.9505348716081495
-1.070549641748121
-0.18466592248207706
0.8300186124288298
1.6065115893530608
1.9642653723168781
1.777148343074573
1.551492964075563
1.6888519005701548
2.7389975184930786
6.376617079397035
12.753050949226738
19.151352482118046
23.6566085308419
25.127672049013928
23.21467373643027
20.848738611684936
19.721643892619497
17.959590301142534
14.621273521190805
10.101577649036322
4.985027299110665
2.064914105421627
4.211059766027426
10.024671698659201
16.733056558692468
21.878658026191687
23.47363395386466
22.84590081571612
21.597754261313483
20.444334898573008
20.257253357353253
19.61613064229579
17.3749345643414
14.719189637277584
12.344121596307398
10.150148648588821
8.156940710870991
5.9294565314519625
3.0195258327236094
0.2699937718250638
-0.7077172624488781
0.784295516216018
4.468726041905413
9.290102259904002
13.41497672118604
15.615677138928751
16.526408581738732
17.922111431432768
19.519076982655243
19.337762323326217
17.194737091071495
13.758275718167711
9.709238072911846
7.031267663762121
7.240555176281581
8.607284000317483
8.84592063259491
8.280814379299034
7.297785951626653
5.809582661730923
4.807316977884777
5.013161777782503
5.421134522500984
4.7478455586845305
3.1731623431054046
1.6681802205184333
1.1658242482717451
1.2240941999736414
1.0415189747699323
0.5496578369253348
-1.2243546531776157
-3.8992243032166694
-5.626653053807803
-5.431625866019048
-2.4071349376410804
2.503342036053478
6.596682746069989
8.493269150171837
8.264204450243346
6.731576211560315
5.035010027585228
4.497094324658674
6.586972766807186
11.6927024159776
17.60027008288322
22.196995267192634
24.738879238982868
23.197252478011105
18.323480731789477
13.292569769414667
7.746215417718048
2.1024170244320115
-1.7540997304374841
-5.76068691617864
-10.790543455928244
-13.562514488199293
-14.213164346101873
-15.912275838716004
-17.839847307524266
-19.042054368707753
-20.517241231467708
-20.70374052504225
-19.525853194174225
-20.72810835187124
-25.045492957020144
-29.908522879619614
-34.470825999614746
-37.11334061350299
-35.30103078551553
-29.992330785433012
-23.421882091831705
-18.205068705638613
-16.990600720093862
-19.102283067804613
-22.14761117763196
-24.195806750484742
-24.14558216715183
-21.843166367018856
-18.85868456445262
-18.01924845992785
-18.353346521887158
-16.765574748514872
-13.212186391978184
-9.621472300576487
-8.266293883934523
-9.882110344253283
-13.479172145487397
-16.924744962491513
-18.234519900113522
-17.930969484879327
-16.23360507861439
-13.551353052666233
-12.555885885929735
-13.041943370932632
-12.705608778773266
-11.856949765617825
-9.675400641131258
-4.209470643681644
1.6632382365374607
4.477825630677899
4.472231821329816
1.2174923627688605
-4.751581861108109
-10.849515556137066
-16.988743410111255
-22.965815737784332
-26.471445734935315
-27.45513105677267
-27.448439242964493
-26.446210569807263
-25.53516392719141
-26.428732690487696
-26.50421688974243
-24.03497646520213
-21.100837974266756
-18.241205325643538
-16.5358975848493
-16.076731025112178
-15.298172457659991
-14.516791711022586
-13.213455172444224
-12.29778864177737
-12.76713719789039
-13.009763008328893
-12.536453000203322
-10.358092921475098
-6.744850661713233
-3.9344973241876584
-1.9187747241328237
0.19174295262834984
2.2028842486347977
4.0834707014010965
6.704296840962645
9.197103305874313
11.125311298069835
13.160631979521742
13.513875266164147
13.295462659448338
14.484993209122074
14.442900353623505
11.90720659522525
7.602115041541241
1.4858195365184848
-4.938770426823014
-8.224567746241652
-7.869603125295841
-7.1232064436289075
-7.573786424401287
-9.518047899046353
-12.025420965330714
-13.621668416687344
-14.919440274258719
-14.778297297782524
-12.356631621250065
-8.192600253784823
-1.397485406796157
5.9156078058818915
11.149914475320061
14.705435004061943
15.982141764044139
15.346860021040136
15.336837601942142
14.954535744527723
11.792475109314738
8.068807832056802
6.470277112370609
6.566821131086512
7.889314548091858
10.091532693729382
11.376644341635782
11.420628413649533
13.108685458460933
16.465333352914115
17.52275621028227
15.866545641555467
13.326536352397875
9.863185190876782
6.506658913279883
3.7653779053890966
0.5483207547272848
-2.198801511867003
-4.4727411839370035
-6.79085959740344
-7.534587606517931
-7.636943539607232
-7.997742675657175
-8.418919310457444
-10.512502005903498
-14.374546836958089
-18.14047899323462
-19.774364958952464
-18.361060893799884
-13.57820703600671
-7.472472027218905
-3.1711931230735613
0.14395032878436037
3.9168543946611973
8.132902725850656
12.178414343797801
15.378779874949185
16.570813072161336
14.28072338393669
10.496955927597952
7.543006683188633
4.204251846287731
0.6786286637857859
-0.5673493502984979
0.22832128764411452
1.9108086240125728
5.195795254286879
10.075460688568246
14.532133945680462
17.362636241723678
19.236308534654214
19.866529022740696
19.590400719372788
20.288473795284748
21.782515880027276
21.8887793614967
20.42660664387333
18.09336032275813
14.75292453448312
12.779946923510908
12.327661253979118
11.94141317453466
13.14510259194832
15.194095909022996
16.565098910743277
16.86367032135122
15.958581757427822
13.967186874523923
10.901809200550003
8.764167520586385
7.920735390126211
6.997175900675484
6.000424479217326
4.34595191567932
2.3679068172153
0.5340613773705152
-2.537690990744753
-5.607798240831821
-6.401983697318132
-6.3309658261062225
-4.951070317551087
-0.7205060332770202
4.450177066376136
9.001961554128844
10.778858101940152
9.064317258582085
6.084804363384225
2.911662392596246
1.1165974197669113
1.4314282860664385
2.189329215080221
1.5678849151949557
-0.889843891663048
-4.162644212227208
-7.17353751809223
-9.022590955518837
-9.871540218262991
-10.568116932525172
-12.473227864756854
-15.639316497467526
-17.386185937139228
-17.12783010121193
-15.454487601954272
-12.476693912449026
-10.525873997722796
-11.261438948028768
-14.101098811422917
-18.11414676030483
-21.517065114001152
-23.467475657926656
-24.736354203172528
-25.719512588977526
-28.909498843802453
-35.75580694876835
-43.321475773866034
-49.558735777210416
-54.18194836008088
-56.71622688138825
-56.848684583011014
-56.43403200114247
-57.588787821824376
-58.23089592453032
-55.90437333910012
-52.29989597702681
-48.03896674854232
-41.409633708516125
-34.72568086163088
-29.573711695790195
-24.09915639478461
-19.739886738428112
-18.445616258677877
-18.371118709202047
-16.86892470290812
-14.327939034321057
-12.93100360334991
-11.7523304733225
-9.990466049087678
-8.940062839662094
-7.4662437878793675
-5.974010984368889
-4.906634080722773
-3.1686759292920854
-1.9090272869477607
-0.09873973565771886
2.7190361132868333
5.679402584980993
8.312356347918275
9.379976199858422
10.14728388216244
11.717340290659392
14.791571028154577
20.034272150970832
26.681473679725123
33.40145920472156
38.697510929723315
42.89430613146957
45.81318057371944
47.18134579107902
47.09964981585079
43.700894831859486
37.55218894192056
31.479606011699016
27.157130227798827
26.141044549998096
28.63604662488879
32.381515402308175
34.753464591480196
34.30067794463845
30.617392701605525
25.114943255337206
20.96313468747238
19.94862930828562
21.362095584594215
23.15655352917172
23.140525529012525
20.78386451674678
17.525845285826172
15.207847448265747
13.790432789476599
12.231448237328184
10.536315270694637
8.637610306753736
6.4266285615626835
3.8109445214361894
0.6252618810515151
-2.790910481925279
-6.398907712750687
-9.081333041161011
-9.023183605813028
-7.3977502964785735
-6.144190089680064
-5.515259773881827
-7.186797548486744
-11.371676162930479
-14.97913185790987
-16.825042483150582
-17.460530412531746
-17.55285336862815
-17.074183250151975
-16.361598263226124
-16.49768001804934
-15.276383058686967
-12.192006129194965
-10.539506269119043
-10.30013211896355
-10.053677068421472
-10.3655936088862
-10.897107917740897
-10.526759019182878
-10.4816781823412
-11.828377013436413
-13.534486117081874
-14.899472186591716
-14.539525792628059
-12.097940661839344
-9.793655554931803
-8.461644639469052
-7.564187289292759
-6.4089844307676636
-2.4097965764337315
4.7763043288228
10.341046109926456
13.568681451067754
17.79765103591491
22.142715765592108
26.554104343268133
31.84341393924245
34.94884777752911
34.98148487119386
33.16117684588831
29.51530089870035
25.168380984861823
21.543226288666254
19.56275059354277
19.774731001261245
21.46409529456672
22.694865044065523
22.06845453995622
20.024559144364698
17.424141024794043
14.614823563736246
11.636776577136391
8.532475364490482
4.6309028025705485
-0.10320919802758381
-4.334182521546025
-9.338543781551284
-15.120164973171827
-18.405164269108607
-19.252751747392946
-18.61414582178262
-15.881647298246897
-11.23022136336953
-4.77768807076516
3.828667940739584
13.265992111417033
20.318098014048925
23.373163402742662
22.7166228561286
19.459703600775054
15.44222053697522
12.360127121857932
10.55176612214593
9.867274806864266
10.983571669993106
12.618681838045742
13.301561351500576
14.052092118271513
15.196151996482406
15.698786627270554
15.269955737475476
14.03450324543851
11.56488838645425
8.930580782588931
7.99466947373424
8.628880138246261
9.608251016477707
10.039547451628602
9.84667628296516
8.783751549021693
7.021737401624427
6.078244815415798
5.134115595859815
2.5564480080906025
-1.48495195496656
-7.870419888375258
-15.149501219213684
-19.867998337264925
-21.593485502481254
-20.46932779969306
-17.497259329596314
-14.21230574504088
-10.73734251490086
-9.443353873591501
-11.304042116411905
-13.066435403953093
-14.608998318826425
-17.27964024661476
-18.71328495493676
-18.54998684458221
-18.32803742647633
-16.316024492155613
-12.10048726806723
-7.71963245710956
-4.782738598174006
-3.8702520683426034
-3.448106404353194
-2.521021099859581
-0.5834889897501375
2.4857309309403486
4.330622637158666
3.976837498203863
2.8697341136581453
2.1840351198251176
2.3570999244915796
3.0769394602034885
4.400235115676997
5.371431150241661
4.444157948843721
3.409711641913969
4.567459334321166
7.642802044224584
11.036187200576919
13.713242785630916
16.026068603068317
17.522131388478453
19.14110145510158
22.091892077766545
24.833577932871748
28.373829055526592
32.50497245855603
33.72803060522618
32.31798419923586
28.7911314034371
21.99801454681383
12.986552705454395
3.852825385588429
-4.531555559615462
-11.700873000926945
-17.576287181735093
-23.034455940888343
-27.046537833884162
-29.20587303238929
-29.637712236089676
-27.482161691122673
-24.821937942952754
-22.397851519090707
-20.2790166159784
-20.47957177270293
-22.325955162678387
-24.436883947548004
-26.473445658693407
-27.60100659863509
-27.666053034768385
-27.524604486086858
-26.285130529876312
-23.33678906601768
-20.419061417067343
-17.08250176489325
-12.814078549717781
-8.441912862706108
-4.0206446635502795
-1.3717853639362367
-1.608622083536572
-4.3101643053635375
-7.964038281776424
-9.244168764564138
-8.119354172502554
-5.924625030955685
-3.3609913365890143
-3.0366042024309543
-4.383354220258883
-4.624932750425865
-4.153384183293836
-3.140369407323351
-1.3024206100846842
-0.3771792536663084
-0.6862816154141431
-0.4005021082372223
1.5701185801534117
5.479493677215429
10.343003930838501
13.7221479999919
14.269810114384217
12.416914252009239
9.174865893714303
6.280261226216772
6.247960110298767
8.696450184373226
10.216894810201056
9.69630632941698
7.220937663657045
4.141375515031592
3.2330051798753323
4.125696530630581
5.718355498102692
6.790760061454694
6.098265661940501
5.092679586445833
3.839759924574673
2.9902843198971785
3.8692270259695873
3.836403494927395
3.6280833625182805
5.7944331965129585
7.35159225552495
7.546793518511634
8.910548352105915
