AAD_Filtered_TADAS_FILE
AAD_BASELINE_CORRECTION: BASELINE REMOVED
AAD_FILTER_TYPE: BUTTERWORTH
AAD_FILTER_ORDER: 1
AAD_LOW_CUT_FREQUENCY_HZ: 0.025
AAD_HIGH_CUT_FREQUENCY_HZ: 40.0
EVENT_NAME: 202302060117
EVENT_ID: 13194
EVENT_DATE_YYYYMMDD: 2023/02/06
EVENT_TIME_HHMMSS: 01:17:32.00000
EVENT_LATITUDE_DEGREE: 37.288
EVENT_LONGITUDE_DEGREE: 37.043
EVENT_DEPTH_KM: 8.6
HYPOCENTER_REFERENCE: AFAD
MAGNITUDE_W: 7.7
MAGNITUDE_W_REFERENCE: AFAD
MAGNITUDE_L: 
MAGNITUDE_L_REFERENCE: 
FOCAL_MECHANISM: 
NETWORK: TK
STATION_CODE: 4630
STATION_NAME: 
STATION_LATITUDE_DEGREE: 37.344912
STATION_LONGITUDE_DEGREE: 36.806037
STATION_ELEVATION_M: 531.0
LOCATION: Kahramanmaras_Pazarck_Turkiye
SENSOR_DEPTH_M: 
VS30_M/S: 347
SITE_CLASSIFICATION_EC8: C
MORPHOLOGIC_CLASSIFICATION: 
EPICENTRAL_DISTANCE_KM: 21.89
EARTHQUAKE_BACKAZIMUTH_DEGREE: 
DATE_TIME_FIRST_SAMPLE_YYYYMMDD_HHMMSS: 2023/02/06 01:17:06.0526130
DATE_TIME_FIRST_SAMPLE_PRECISION: millisecond
SAMPLING_INTERVAL_S: 0.01
NDATA: 5370
DURATION_S: 
STREAM: HNZ
UNITS: cm/s^2
INSTRUMENT: sensor = ACEBOX/SARA | digitizer = 
INSTRUMENT_ANALOG/DIGITAL: 
INSTRUMENTAL_FREQUENCY_HZ: 
INSTRUMENTAL_DAMPING: 
FULL_SCALE_G: 
N_BIT_DIGITAL_CONVERTER: 
PGA_CM/S^2: 178.140
TIME_PGA_S: 
BASELINE_CORRECTION: BASELINE REMOVED
FILTER_TYPE: BUTTERWORTH
FILTER_ORDER: 
LOW_CUT_FREQUENCY_HZ: 
HIGH_CUT_FREQUENCY_HZ: 
LATE/NORMAL_TRIGGERED: 
DATABASE_VERSION: 
HEADER_FORMAT: DYNA 1.2
DATA_TYPE: Acceleration
PROCESSING: Automatic Paolucci et al., 2011
DATA_TIMESTAMP_YYYYMMDD_HHMMSS: 
DATA_LICENSE: U (unknown license)
DATA_CITATION: Turkish Accelerometric Archive v 1.0 - Disaster And Emergency Management Presidency, Earthquake Department
DATA_CREATOR: AFAD
ORIGINAL_DATA_MEDIATOR_CITATION: : AFAD - Disaster And Emergency Management Presidency
ORIGINAL_DATA_MEDIATOR: AFAD PROCESS SERVICE
ORIGINAL_DATA_CREATOR_CITATION: AFAD PROCESS SERVICE
ORIGINAL_DATA_CREATOR: network: TK
USER1: GuestUser
USER2: 
USER3: 
USER4: 
[...]
-0.49161043585165276
1.449256404013418
1.226558518678305
-1.817821092948376
-2.5825903108052852
-1.340109080878587
-0.0681949977441549
2.2381687072597996
2.6985274590327637
4.223172773564637
7.035914757091314
2.354248913791614
-4.353826861235569
-4.097156241757439
-1.8611805045684395
-1.8035814340913567
-2.140800959290301
-0.9298652527161851
1.8818036653300556
3.3952331432725416
1.6976599799571428
0.24336109799408956
0.06192806726136044
-1.5556981535841758
-1.5142000257664898
-0.704371495575695
-1.1620381723656412
1.9502908743526457
2.1878672044302947
-4.390701198466313
-7.030683267349119
-2.8096468432050914
2.976959670117826
3.8169801078968306
-0.2516922656599054
-3.89411798390134
-5.949470935075917
-0.8161007336201881
6.345697601639785
3.4826337315343636
-0.6388989114499879
-2.16664860842124
-7.647944649476777
-10.206185757570438
-5.005731557821982
-0.49672910318742
2.4151734954322546
11.994094187040316
12.866690935800879
-7.625701324598108
-22.474035226166002
-18.47971905549215
-4.152080784841138
13.480765968799345
11.442165798359799
-4.462361445076247
-2.7962157143574586
7.83451841037148
7.414278768844375
-5.6559825765516525
-16.604077415673558
-8.302018311683621
3.012534954059439
6.916622055311059
10.993954978428155
4.872431358228592
-3.962140698299875
-4.442419368167081
-9.53100316631438
-12.198256940236588
-0.20264310263458993
11.231449026524201
13.933000289225019
14.561097062109635
2.6710842818451743
-8.989176986788685
1.8992329451511991
0.09268620432206506
-11.647017015710038
-9.028379087262728
-17.366990607875103
-3.6396220804026886
30.837452220668908
23.884313115745645
6.067675775494203
-1.608540271891187
0.267860003738626
22.80343613137808
13.960084506584012
-19.772422548028988
-22.925962845344834
1.436347066340892
18.935249381181613
-20.18818999509948
-57.62695132817842
-1.9614441748803153
52.82318290629883
29.373714453707265
-6.4384129290401635
-21.993321034121994
-17.16416299553787
-4.820090928249276
-11.865424207014685
-6.519497687333145
11.516613714212543
3.629058166526945
5.896779121408501
16.870569937851958
-5.459187028553182
-20.850778861903667
-5.461029568749103
14.424411232383429
12.283248284827678
-21.53388234147611
-28.74272438468502
9.85786167474192
21.054735062241942
-0.014422749795925014
3.220440775668247
21.077359388570066
20.511021164990304
-2.0855720422167687
-39.67079387770229
-36.194842418283265
16.157888409980497
32.61580088900964
21.872242203463564
5.469482903427558
-26.66717862504293
-5.872483287445802
27.201165631525047
-3.5288641966533882
-28.408163365114813
-17.331180889673547
4.56503664230892
12.340673887342547
-12.027016671367287
-11.46033920563172
19.804980703170248
10.611570733322072
-19.097521351297896
-11.203448215515568
6.32086215037528
10.936180585512611
26.372471570612372
10.335187857435256
-47.58964603538447
-52.821530797034704
-4.7463069893934335
32.11662070468442
46.911088130030265
5.2762860514484125
-48.48771744958323
-12.345813595373587
30.65779405701334
15.737887305864914
25.524774899061452
19.12035437754516
-27.908034601603777
-20.51498618793208
-10.444290221984062
-48.3837560947185
-27.971256777112973
47.82679239068353
46.036790661345734
-21.877576228000514
-27.055555987005683
10.365599166900115
1.3871562634742132
-14.689507142240174
5.441609695930422
26.54481657914558
15.413604621086133
-7.498662929479591
-8.587509544628404
-6.575588435037306
-5.170272776776716
2.3192230278762906
-5.47727430846928
-4.16326757460174
9.760344054831869
-4.992885440789316
-26.049068618164068
-6.7132110242118355
27.40955626700467
13.948689005909797
-12.387012189002085
3.7464323591151967
9.207594458897136
2.212345087817799
17.77969074808129
17.636557666107365
4.448053395568343
-9.95868523316024
-14.589741552257719
13.200859273177073
14.148211716891701
-3.791366979237288
10.237599814637129
-6.145459335402653
-31.216949221254986
0.34312985291113035
22.686278839104553
10.180834990557376
-0.8511417362722569
-13.7937954545385
-15.093590660735323
-4.748311001656606
-2.971584908837774
11.36337335213608
15.829944104319178
-14.293217230947759
-12.765320577328511
22.544072144123195
32.884687473432095
15.305275392092977
-16.704072842015922
-20.827411209367188
-1.2330649889864485
-6.816873484030923
9.72180633147904
38.18659513774129
9.766362797835132
-10.277457741688584
9.801454635254927
4.609190411187213
-12.191317776881663
-1.1379926267339666
-0.6592334550489999
-23.32376587809157
-5.547082216526282
30.68929224336478
16.218281371945775
1.2947121566662765
3.3355519803338476
-18.74233813981205
-16.067261574963865
16.121374124311963
19.96078528677672
8.972744583434123
9.366115243363828
10.976557631301882
-9.19354157948645
-28.69870516202042
-4.306507890051514
17.101978190947733
7.8893320631957815
5.482819959582993
1.4458472644487492
4.4293958095282795
11.016307493904906
-17.195411097118388
-33.5661101655611
-10.915606454655409
5.6395656302618535
8.87795741815858
7.447005936705274
11.789517042098886
21.604470495220507
8.553352454482637
-17.97105818951533
-27.304382807276266
-23.75374975251338
-21.252335086029102
-9.160870060466477
19.39075614796087
31.954925720272698
19.376210177111304
14.125149252348905
5.929904637908602
-14.997435967886997
-4.239411718099695
21.437628015328432
-0.21757632512963845
-30.492355511354674
-14.372201063663974
4.243099140505106
1.5370272059736245
15.327366206450035
28.6449569369217
12.824972179045384
2.2699646617031384
-0.49478562708049906
-10.243705751855343
-3.184819876769186
6.2753134197453955
11.305155641034698
27.947941173474813
26.794526916260423
16.994383901463294
15.310679017211516
-5.123194741961608
-17.08834816729478
-2.939116618409109
2.0314174232197866
-7.4128729189633225
-7.567154814799636
16.01243344422713
29.79206600077377
18.36418064357432
11.448043806451508
-5.102709194209791
-27.42857110381586
-34.69202520390889
-24.161040161460146
23.257235761492574
41.987058568035366
-2.230398435552569
-20.86849471869592
-12.827023810762059
-12.252064828488544
-7.57533809403263
1.2382308786293799
27.542124445214487
35.95375865773235
9.96431147450641
3.5558277638848192
-6.588432825617179
-37.73118724180738
-32.51232730373896
12.284578869685603
50.915709165765634
43.174455747636614
6.737180415246604
2.35477846073891
-1.9149717292468087
-38.10852006678697
-19.198118957597533
46.09249081426052
45.95609556520421
11.355662532064876
-5.051950998814413
-47.23567338452596
-71.03979924714844
-28.971716017824743
-2.917794433266617
-11.366013834057684
6.139456955780994
42.03160815978235
50.46037513364135
28.330717518773366
9.447790741980636
-19.20274765375781
-40.00441643732201
2.8514987638969784
21.608469919651565
-9.059170315029347
-14.239863570263221
-41.372306044421144
-30.46184452686806
29.78071983930791
-17.076480061811356
-33.298482634179855
61.37459572457912
60.47709909216452
18.275744772708286
27.58255026829348
-12.169621775837296
-48.645130296387144
-15.584082344715066
-1.2007197969682746
-12.674004720084815
16.550017971723122
34.92604413888613
-20.312472679717104
-53.69309046856207
4.610451637425895
37.076432050386884
0.3505720403389939
16.3629287378761
55.82773188532407
24.410260571024445
-17.16231626099172
-50.12718653164093
-55.23211985969715
7.909437559375117
26.280631650496353
-22.051276319239083
-33.125823716624915
-4.053629467189795
30.720579499663554
36.739559078313825
25.40008618807464
30.876384047547194
8.447711628105559
-46.404036278733045
-94.47931745069485
-109.76669040978102
-42.308443308259285
67.86130354148462
104.6301118242935
48.32629387772486
-21.354325088030848
-25.51984027665789
-0.30294068124324686
-28.25702159300674
-19.88839027264683
72.03521436297267
61.71211837961141
-41.07260536399797
-56.37068776170467
-35.73998956784758
-28.94569528456374
-2.166416760088521
5.763688097005776
20.278305408801398
29.917992236127233
-21.590512803211436
-50.95754018212007
-27.929862078322053
-36.411748646565464
-68.98819988254017
-40.75434968871887
38.79686747225407
56.15964004313507
9.605903550706921
0.6585648915843558
20.88905655688886
-9.615216278334447
-80.28346854978021
-56.78011935684307
60.71631050360497
53.1513714776957
-48.753873478347
-40.12269621077435
-1.8264247243986795
-12.269380243906424
-13.392654895867981
-10.34737675925016
36.45866023732766
68.09983744798042
-3.857185107855776
-18.56635026067284
49.921367873963725
40.16757682063435
-21.2288023140932
-49.95388738456738
-23.430273744102728
34.29532862893623
53.43179030978034
25.61335370837382
-26.58686103999939
-68.68555348589048
-69.10796752991895
-39.4547887576035
22.42155606979765
69.61903650163812
66.45703085015435
45.363372867247584
-24.86115292636663
-81.54147464409428
-24.310343968449292
18.224502648709244
-23.832059000495864
-35.08693366736457
-5.515087233633928
-8.516848081660438
-26.460335288757122
6.131488171500579
52.17708654890931
35.763247736822336
13.592725802896682
22.14091142734177
-13.143398570005363
-48.16706924628536
-9.419955374141312
19.95650225143025
24.110167176007185
57.34983934736452
63.91519002192786
10.604014751503605
-59.64743900912679
-85.70773505506396
-62.51618034160158
-34.86827848405028
31.841715920591973
63.795042935388494
-11.177547292880526
-19.729682199529524
34.70614924503517
29.955918331650608
4.406112075702765
-38.32417476560996
-38.87156979625863
-5.0368757871436864
-39.679210586919204
-31.83084734303303
27.527641727695467
12.005287572058366
-34.57141222099285
-61.24362956324633
-29.638471670929206
27.65094943061397
-9.615730062731211
-46.01803299347924
13.156233844893912
25.052382349859112
-17.093687914673264
12.201382299676034
40.777526020998316
-7.891615232319653
-31.42973035296817
-0.9654726102157121
0.82150088727223
3.711336095284737
55.795631627332725
52.916212978324886
4.338538460142793
43.24164419362002
59.66908702356794
-6.405066126184878
3.7395194159052867
46.41096188924544
45.28449319106688
28.73166934225651
-15.698585029317616
13.714857995244174
86.50360649389478
45.07408269312724
-8.592741522598981
-35.57392741436235
-70.62645274518339
5.665765540294356
90.23331245309059
56.140802112564515
40.168465415030525
33.547345422911754
-26.506663349155716
-49.958676750348566
-48.45115991581556
-43.951792142528696
-0.9912540230434361
27.59504379857887
35.06699935208527
30.95002654168841
-17.403860240911
-43.79635665333076
-48.04551366561826
-76.11822688600068
-46.11771125512657
-1.6257332844763162
22.42076012940335
119.95875032741381
111.33710856914432
-50.35657918631338
-69.2887592098636
-35.5087584903054
-107.59861630900475
-86.67420749082021
14.101776039717144
50.760502997077744
31.211653560122784
-39.66634613350083
-60.26129149091518
18.26147308905693
53.14998860754805
44.5593979317626
73.86908331175822
35.530083545268425
-106.05167912273221
-158.67898397468164
-81.95230731735177
-30.27806452670733
-17.079084188125794
-2.274570484123001
18.784060312409643
65.05356737268339
74.4083068030758
32.84918463138378
-27.4672840207623
-99.05241139338865
-45.81198674247304
92.97122422254088
71.02789035765004
-3.3634618781451726
38.99771264875115
31.910994716691253
-35.48082686944047
-19.76219350460914
-0.8094922788871352
-11.921109416156124
14.633194769300568
-7.55605368772964
-72.57896552476826
-27.342452888330044
49.83803428657326
10.472135462105772
-18.23732390770984
50.61716573807133
65.04549762437543
9.031638039247236
-9.46160565256218
-25.210614469434912
-41.85158011334094
-0.24324369579506372
39.334576326964914
10.287852943564905
-38.348583507291444
-26.72756031641018
2.740129625960443
-17.773588654558242
-7.126047004391418
41.67352436426279
56.78863253084542
49.621605072485764
-8.486920950773037
-45.59683045477077
6.1758264239617535
7.38650239140203
-25.332539705495456
-29.521214459913118
-61.054081176141466
-60.04434598232168
-18.081132325935116
56.76328045590764
148.2231822964849
78.65231306152295
-87.89082516071451
-145.35650548110036
-142.79197944559064
-98.33637055844649
12.909398841267887
69.50522826620139
40.39588089726939
-4.276139114289803
-79.60514480228382
-118.2347404679296
-4.483975282272367
96.39900164947754
44.0771907306316
30.912948292237488
109.44493437928182
79.72788017795543
-59.20808619143201
-139.0034850773968
-118.87282575128219
-11.842431357353655
122.87227665403879
128.00343231152667
62.113937766861746
63.04631015002219
28.816238985824807
-47.771647722453785
-74.9602017018276
-52.4329186399781
9.560815171470312
2.646446560174952
-60.080618991853726
-47.227489500130055
-24.26952790459482
-5.2446670857350055
30.718980490114546
24.907789519266053
30.12810824288055
27.99952482767049
-24.790407222551504
-47.48904173759892
-31.82937520445291
-1.4525964726004872
20.6354527138099
-10.001493451396918
-56.59734529027145
-68.01101615338786
-44.095212319763796
17.777511968158468
120.36907631177633
175.56916076444298
99.75768032428988
-13.68196084609063
-97.6223366574079
-168.2680251719303
-142.9693925124037
-36.2675736827456
24.814417025749627
61.13938542893508
72.02447373340281
-5.866147267017165
-53.340910042328545
-7.075239142233149
18.631436125314288
36.06597221023104
81.33536413875112
83.18944789974647
28.39150172696583
-33.266553617614925
-40.79427163333992
-2.189547731074811
35.074227087247046
100.62389567198956
145.86480849356516
62.197994193814296
-91.48930756837677
-165.04348010395992
-106.08307057492475
-18.080573806478338
-11.77907869473865
-33.06774180818053
-9.658350419140193
-1.1622546918178642
-49.88228656126776
-75.00608391872804
3.0700344465934024
102.80130684978633
89.41104743376124
36.68043532381833
19.309864837460776
-41.39044908389135
-51.85215582771435
19.982035790269357
11.768624875987111
8.321716748438991
49.126148158818644
3.0179885181682993
-31.230118186627198
1.9941599037859818
2.6401750755371456
-22.32703516233421
-24.057575311820564
-1.3149041270997028
11.346922907379254
20.354935081244932
34.26476192435807
17.96574218070024
1.3007497889383182
-8.43784304740975
-25.476638410222748
-12.453061024457917
2.336924623026694
16.241185674708536
53.29248368804148
25.042530418202155
-65.92132272529037
-102.99325872318369
-89.21309535940922
-37.374977319194336
52.169378414073755
37.50325580561062
-67.72182602819525
-44.150721978708766
58.11591924302022
53.24179628528806
2.303346348664885
-12.296493992115781
-40.05809449855121
-44.822555860183165
30.31743383536744
69.5445857647824
27.757081078720397
13.026901786103606
14.469674036779624
7.3159270637198786
12.679089559235647
-12.554929947378318
-10.233913536584305
44.09486493485846
27.295888350755565
-9.323459941278138
20.952422894748192
-0.1547750043573719
-70.76588580851275
-66.99312508988264
-44.07975852538568
-35.15213577334173
0.544141292337966
0.8906977877258376
24.787702799950466
104.39171424896735
91.47485660294174
58.4188146955883
66.29927288544937
-0.5818071206111814
-51.552759092289776
-25.174480046390567
-17.993920594503216
-36.231178934828534
-27.050247409523532
26.826692228549653
35.222086787871646
8.196891063226225
44.87790609296746
29.42200250419346
-46.46439401889149
-42.13668258284387
-24.12950962629986
-19.64526149647476
51.569034869381305
126.87550118440362
96.02653154854364
-0.15754302166179596
-29.96951855598247
-8.885352363741664
-10.02991601997131
9.295637796535887
35.36865108297417
27.813497963074553
37.50789886327928
45.087098483298774
-3.57113139571151
-51.33909234078931
-39.98979757030196
0.41377268825461466
27.571091396765237
28.140181669168093
-19.953362300075696
-82.31892046867635
-53.764946300526866
10.128286713292047
-12.574735334521504
-29.834368456272525
-3.920014760371834
-48.04178735675871
-109.37996371190928
-92.62176223556914
-53.548985594613164
-32.556194652712826
15.333733060496963
77.98765949629298
64.19976167837103
-0.24523576538562641
-11.522775145231549
9.44702523884914
31.240366377962786
52.880851137280075
17.250538395030606
-25.755388851808053
-2.509337466572023
-16.153654154094298
-71.98786781028127
-54.32987984277115
-22.17681340731008
-18.91683049023738
34.053194403368806
89.99393277545482
48.449328680866984
-53.63546385697194
-87.72277917719181
-3.0198642000671563
70.51537876123932
30.105865544550134
12.540157463257728
95.34652377165345
94.10778149087396
-13.240850547609769
-39.35616236011419
-26.190997901401794
-67.94290292079373
-44.24174669125241
47.739905047194114
48.193673028622705
9.651200569732433
46.309172912132375
43.63608743616823
-20.109152051280155
-7.751046316616026
47.35545365330415
64.06050036945499
45.34409661023404
1.9574369506135618
-18.042607821290872
-14.171107139312788
-34.785492554514654
-46.74391786653815
-23.660631570970246
-17.295219664493047
-37.764263030756254
-35.01457844555387
-17.053274635753873
-29.875582575470784
-35.871994208023615
17.883646173868478
64.94110440749076
38.94382845662246
1.4755479296159486
-11.262508293089107
-31.307712831434408
-22.415553656873268
17.814940053588938
23.115109374708112
34.092014457262046
60.013209022944736
11.400604723653608
-35.791554607156876
-3.0612851201066142
9.348148981591205
18.807021337184466
74.6259030644391
73.10545187887884
16.784902606624915
-17.387398074913982
-28.242122649447868
-11.407030177177768
-3.7545580695006695
-5.978427518675424
19.488718857906267
-8.926281860506379
-56.511081820180976
-9.601589759410869
30.185122385892413
15.026436191354325
-10.79812709344391
-79.99499432480624
-109.60279276146065
-49.522118037877995
11.281355955923036
67.38334279277316
86.75351720809748
26.145701940535595
-20.9068011105921
-19.544191602249366
-12.212128358988435
21.919050229677282
56.84597762424623
20.973008686060655
-44.44194274727376
-80.04143358189192
-98.34487313746853
-81.37973951329694
-22.50929296743308
34.69671105199556
64.5109029661272
49.69412404123526
19.553683587849306
33.23847752703065
52.48138401543147
15.45130143969481
-20.24143066366423
6.89225109505135
38.34074993034802
22.973387417276744
-4.058271635208751
-14.884242951674242
-24.598100698794955
-25.27555474522444
24.691126842871338
84.30386080306893
76.3145874506043
56.24427402705035
78.32898039707804
73.62054785415711
12.317239236502719
-59.07760818715971
-103.2421814911938
-85.81365549544596
-23.671237898271556
-8.118463657073924
-42.926605708463995
-48.102136533830276
-47.97518376532049
-66.80447919456257
-35.20149140397742
16.4011218510163
25.3232056995096
