AAD_Filtered_TADAS_FILE
AAD_BASELINE_CORRECTION: BASELINE REMOVED
AAD_FILTER_TYPE: BUTTERWORTH
AAD_FILTER_ORDER: 1
AAD_LOW_CUT_FREQUENCY_HZ: 0.025
AAD_HIGH_CUT_FREQUENCY_HZ: 40.0
EVENT_NAME: 202302060117
EVENT_ID: 13194
EVENT_DATE_YYYYMMDD: 2023/02/06
EVENT_TIME_HHMMSS: 01:17:32.00000
EVENT_LATITUDE_DEGREE: 37.288
EVENT_LONGITUDE_DEGREE: 37.043
EVENT_DEPTH_KM: 8.6
HYPOCENTER_REFERENCE: AFAD
MAGNITUDE_W: 7.7
MAGNITUDE_W_REFERENCE: AFAD
MAGNITUDE_L: 
MAGNITUDE_L_REFERENCE: 
FOCAL_MECHANISM: 
NETWORK: TK
STATION_CODE: 3124
STATION_NAME: 
STATION_LATITUDE_DEGREE: 36.2387
STATION_LONGITUDE_DEGREE: 36.1722
STATION_ELEVATION_M: 84.0
LOCATION: Kahramanmaras_Pazarck_Turkiye
SENSOR_DEPTH_M: 
VS30_M/S: 283
SITE_CLASSIFICATION_EC8: C
MORPHOLOGIC_CLASSIFICATION: 
EPICENTRAL_DISTANCE_KM: 140.11
EARTHQUAKE_BACKAZIMUTH_DEGREE: 
DATE_TIME_FIRST_SAMPLE_YYYYMMDD_HHMMSS: 2023/02/06 01:17:36.1852460
DATE_TIME_FIRST_SAMPLE_PRECISION: millisecond
SAMPLING_INTERVAL_S: 0.01
NDATA: 12501
DURATION_S: 
STREAM: HNE
UNITS: cm/s^2
INSTRUMENT: sensor = GMS+/GEOSIG | digitizer = 
INSTRUMENT_ANALOG/DIGITAL: 
INSTRUMENTAL_FREQUENCY_HZ: 
INSTRUMENTAL_DAMPING: 
FULL_SCALE_G: 
N_BIT_DIGITAL_CONVERTER: 
PGA_CM/S^2: 638.321
TIME_PGA_S: 
BASELINE_CORRECTION: BASELINE REMOVED
FILTER_TYPE: BUTTERWORTH
FILTER_ORDER: 
LOW_CUT_FREQUENCY_HZ: 
HIGH_CUT_FREQUENCY_HZ: 
LATE/NORMAL_TRIGGERED: 
DATABASE_VERSION: 
HEADER_FORMAT: DYNA 1.2
DATA_TYPE: Acceleration
PROCESSING: Automatic Paolucci et al., 2011
DATA_TIMESTAMP_YYYYMMDD_HHMMSS: 
DATA_LICENSE: U (unknown license)
DATA_CITATION: Turkish Accelerometric Archive v 1.0 - Disaster And Emergency Management Presidency, Earthquake Department
DATA_CREATOR: AFAD
ORIGINAL_DATA_MEDIATOR_CITATION: : AFAD - Disaster And Emergency Management Presidency
ORIGINAL_DATA_MEDIATOR: AFAD PROCESS SERVICE
ORIGINAL_DATA_CREATOR_CITATION: AFAD PROCESS SERVICE
ORIGINAL_DATA_CREATOR: network: TK
USER1: GuestUser
USER2: 
USER3: 
USER4: 
[...]
-3.5497343126564855
-2.957053511424164
-4.435034115918512
-7.717150769033992
-11.791583676934424
-15.82865285580249
-20.337559098688295
-26.473865637301802
-34.101422324240964
-41.802118016875035
-48.03213179309047
-52.35270255230003
-55.454476129806736
-57.77874124642706
-59.34588667159965
-60.01194734797878
-60.058786917763776
-60.425114914093456
-61.52783504319726
-62.8012925489223
-63.47998174460336
-63.80470951846771
-64.44445257963272
-65.21873650104541
-66.08656770859814
-67.42223326803592
-68.997450217638
-70.84603564279132
-73.85712633175129
-77.53211510143817
-79.74806381565567
-79.66413966293797
-77.87522987003454
-75.67697858863366
-74.65943219822185
-74.32998094072728
-73.10238055845161
-71.59517016886184
-71.0178546189182
-70.20042088635688
-66.7733518578598
-59.377940215240976
-48.22176855423682
-35.31272176891216
-23.985777115894386
-16.439151797670203
-11.673370084235625
-6.427575449466809
1.2522566670300022
9.731835052110808
16.860194957934137
21.77346976877802
24.5703914744614
27.804057217138517
33.443475603963996
40.59762530233259
47.606012756332156
53.39265642725497
58.24448721925435
61.892604238840065
63.42443843538878
62.91838542793223
61.249524334956284
59.54327649201442
57.89868499914212
56.446279169839144
54.709134178008696
51.806968483750296
48.95258069857703
46.21174284080079
41.72795624317945
35.470755467735685
29.352175077813094
25.072684380886596
23.965871496680556
26.600998823915628
30.751317784270544
32.94487778803726
32.850921526622116
33.9241966256069
37.56784843663032
41.116015128399496
43.45289517605478
45.584346699353816
47.24230136435571
47.460308248652275
46.50949697935375
45.418219648991276
44.80674222309986
45.30251231792706
46.8334467960283
47.50967023542072
45.04685634845669
38.817780348789334
30.1472514118199
20.796540317340288
12.217515371770679
5.838820542277516
1.8118013564120183
-1.3816955227571044
-4.230097580422006
-5.483045149461042
-5.815638315242033
-7.823414291277479
-11.365335607875618
-14.585213087744492
-16.969800038221727
-18.510907951401883
-20.50394984291071
-25.03276389887504
-31.015761379467193
-34.7506784980206
-35.196551246158904
-35.50451006624772
-38.82892761930356
-44.315042908660324
-49.11932112759945
-52.54530733051881
-55.25746982083164
-56.69701179040887
-55.41690083068321
-52.27995158517631
-48.7504002615052
-44.16273667622883
-39.66554833819799
-38.02187114265436
-39.443351127641854
-41.932356907682454
-44.87596857492395
-49.082083828417474
-54.791286776206775
-61.710143729158546
-68.14008872554369
-72.92519320242144
-76.87193164152659
-80.55968080372614
-83.67247561051464
-86.21874584536315
-88.05604099436587
-87.49193593887506
-84.10039814400929
-79.3534734545274
-73.28540906762555
-65.06271793548432
-55.38534326252496
-45.42809653614463
-36.49830097483414
-30.593803277888437
-27.24575373039515
-24.27260530708921
-21.90840865022107
-21.28667942879604
-21.244927974180328
-19.634368202043802
-15.368741171863704
-7.768632066707696
2.6475711026098954
12.974035497882378
20.44592566379369
24.996132691579223
28.13423982341262
30.796040996725367
32.79676270354272
33.76384834586031
34.641008317424415
36.81972044554983
40.70787361511992
46.28149927338326
51.723463672600815
54.622565510908196
55.8489278902046
57.85190893099798
61.63693654212146
66.59502868431196
71.29711370908248
74.71613422579235
78.2181832718206
84.38810660589498
92.54932563139286
98.86993110312775
100.73042416370566
99.35024419966933
97.7693616917434
97.52358512461336
98.24568421911025
98.4162666451499
96.57310360874338
93.32721489651958
90.3899139234415
87.92885390010404
82.8038106177575
72.36740909463875
59.55050936922401
46.60811044233761
34.98284052524251
28.133890935751385
24.819251421890417
20.097019416039913
12.548125206700155
5.3828212926838725
-1.882587524401188
-11.969905788312722
-23.980299751488346
-36.74592093241977
-47.80268347418731
-55.82431718726155
-61.942730249112294
-67.39490215483308
-73.51937206001952
-81.1693905038535
-91.30758148472694
-102.54152937950695
-111.38745134200755
-115.1878517010496
-113.67535960828084
-108.50664445133008
-100.96242305991694
-93.17088178573198
-87.83541232209222
-86.47113941603513
-88.89281628680345
-92.17944748812349
-92.65506320379242
-89.35973292511365
-82.78663514844155
-73.27682079288128
-62.32357644232019
-51.95634041444917
-44.486285987037625
-41.58756641899792
-40.92866322862912
-38.63070038953519
-34.150197013263025
-28.583206435518015
-23.512372146266955
-20.7666159571698
-19.64038180913488
-17.118358597646324
-10.591271654882595
-1.8171771468717013
4.331174760774744
6.7931279659981705
9.365008172667677
15.675436442008602
25.743988288442925
36.29066435478446
43.785163061629405
49.84465068072357
58.21718343920347
66.78160499835364
71.6415597420787
72.92314526257238
73.82323272270266
77.72803083239927
84.72785737440206
90.55018754133565
90.79791839020785
88.96336040059455
91.09621469045908
95.38082790075106
96.53213365105259
91.8615110307053
85.30618434558465
81.65871123846732
77.81098644781649
72.39662389143953
69.07927395440858
67.59929423381521
65.51919079218142
63.928286859961595
64.02390125645404
63.73990903345092
63.44390330596885
64.78684468234833
64.87031078011701
62.17539933067288
59.32642653813745
56.612124227652046
49.611417874317084
36.81178616680337
23.739333500584678
14.841901963332084
10.043349651253694
6.183061296439289
-0.03285369607612876
-9.421915699902415
-19.221404359870224
-22.57899520618709
-20.018365219139856
-22.517818358039616
-33.51959026328375
-43.48695696508424
-46.53844751917136
-45.878115355110275
-43.92555389642684
-41.143116271783406
-37.125614753855515
-31.575145350369944
-28.124873938377448
-31.36671422677375
-43.689308236677114
-58.16334203469309
-60.74099997422566
-51.32415003738179
-40.29807390305165
-33.927804331412226
-32.846831488371414
-32.34269569912833
-31.855793350614192
-34.18332847172701
-39.30158917146672
-44.86637171531543
-45.94224354819675
-41.1018037344391
-31.43215793752816
-18.695327259611933
-9.546994506680646
-14.21420161418101
-33.816757961488044
-50.542421107281086
-53.28823520463804
-54.625989833893776
-60.79066506628795
-59.394699588368844
-50.01656312715447
-45.457770573810755
-44.730840498839115
-42.801935324640866
-39.7528694817185
-34.36046250731919
-26.725431365058498
-14.618573624857868
1.5804182830870843
13.694594428604901
20.7082654283983
27.073628390846086
25.96460037511764
15.607600194292159
4.33868696794825
-7.802305309099379
-16.408773286492508
-11.446867691887842
1.449432189502433
8.272493455222822
8.11384858216461
3.047138522782409
-14.828434746564925
-46.52037035693905
-75.78900596563518
-83.75002960850989
-74.39146452052181
-68.47961494006331
-74.11199758563131
-73.94344297607883
-51.05332439340696
-28.42856615721386
-27.20065335086124
-39.6526369247188
-60.30606292566822
-67.33474046251858
-46.37947064249261
-19.67099420542163
-11.979192219663277
-20.851598211474986
-17.079022076722968
-1.8491476156027882
1.368568139920573
-8.296442916843066
-24.816965667906125
-37.42743286994432
-42.96206371338505
-44.20982905824915
-41.52600815805715
-41.9128091438165
-45.04322637895471
-52.872793528022775
-66.45812549486092
-69.45846170284642
-57.41403282437515
-49.52096454924049
-53.812855831871865
-52.36048289751897
-38.2106511265179
-24.11012628872008
-12.982439825666763
-3.1923583881613067
2.8319057328483987
10.329220867504237
26.764898723552463
43.491188037250474
44.61253246554098
34.87911675039632
34.68176638443746
46.47368342915292
51.94747827966504
48.93378980020751
52.27939769752386
57.35126190403366
47.73982928856507
27.78967946979885
14.925869527007519
3.9397903971593236
-29.473100117375424
-77.24964759812582
-92.31098895913198
-56.485761066302146
-24.44586457579925
-43.947765165540986
-59.38745083625946
-24.702622035098397
3.1682460438153512
-4.897649101403459
-27.647823136710535
-45.24758743159808
-37.192772292107776
-21.60374544619067
-18.030642942135312
-17.277751428062857
-15.899714431883169
-20.763020208292406
-40.55344433487493
-67.12500637683368
-82.40103801203023
-79.23453246250453
-68.42026106088001
-66.25437647392279
-80.61476915591439
-112.46514464412819
-139.69489483099142
-132.01616453060186
-102.02492283796934
-93.01252030406403
-112.19918260589482
-125.16471231969089
-121.09268623542073
-123.94248319756878
-140.39864416619545
-155.738260714843
-165.24732338551593
-177.6050437338256
-193.75958512453823
-194.0640210249174
-164.6973397575186
-130.50494669323226
-125.3437011103769
-142.71413722160867
-157.39659753933157
-157.36962487907923
-147.42693786450656
-142.37221637596713
-141.3685876282616
-131.12541800606596
-102.85519314904819
-64.13892597299525
-43.7655584308329
-51.84652958989231
-69.53079947353159
-84.23633275234658
-91.41762795806146
-93.24085886990623
-101.41658145653807
-122.75296319393708
-143.77001220004126
-150.42045612705357
-149.84427829091635
-135.91637012205913
-106.7443673258378
-90.95784158111451
-96.74113647986552
-94.56867645496271
-65.25004273153372
-40.10342710602057
-41.45109772240069
-43.54281067167102
-37.55918791448803
-37.87240132253598
-45.29748864529005
-54.91895418132821
-54.81579693434205
-36.973869560905726
-21.303236891320115
-16.231517050736986
-6.084994761208568
17.21852698631573
44.183463220517794
58.565831717307766
55.09606040924142
46.20420981805223
58.135955069573164
86.85132745686903
110.64457591476116
131.92834143747487
160.4684980294003
189.50774584741367
194.97572623108573
176.0315426575584
144.26489144208665
126.30148983871665
156.80387196405437
204.7005604864629
235.40902102438042
261.35284236248896
272.39024390944905
249.8628911666827
219.89800908357384
193.93923456809003
161.90186396768246
177.8454102893391
249.91358829523037
305.0857573646442
333.5310903776523
356.75981189220903
374.16935067187137
370.4155388435449
350.33186111378046
334.26388773102803
300.79472941009266
271.8476635261635
297.7110495350792
342.29775028560704
346.9565674819185
296.33319697532653
215.99024082644954
165.01716568790573
162.11037712651606
162.9146029769344
151.41913766748678
158.50556210997615
189.17255554818084
199.5193762282671
167.24934088047382
119.69930114694561
88.57182740579098
93.53528686983773
106.78994827339613
95.32633981269389
74.36370645281181
40.82201078657427
-7.490822873298446
-41.61268879760178
-55.66261618344323
-59.36925426803466
-60.10209967732293
-67.94628452911033
-73.1849422335856
-70.67675576841826
-83.67793778922618
-120.35765357858878
-167.99111930359956
-212.71946025000733
-237.26554574924245
-240.1569041573935
-237.18815855225213
-234.8903821565542
-222.88508651535642
-184.56370357042914
-136.7844290813703
-111.9331120203485
-106.5319411853318
-106.88256539213677
-106.30569858642777
-106.70894089177358
-101.30101666029579
-68.28039654870473
-16.275371518722654
41.57321679718847
100.2062491817154
137.32089883951772
149.06879817637207
136.5518962325572
86.34249168108016
6.659602996303796
-72.74397266537684
-112.26688115241082
-96.18248777069759
-55.54883275968261
-14.283220182620925
17.844116146104504
24.268188866933183
-9.607482293247866
-78.32126153112613
-139.95878002178722
-166.3155862608579
-166.8452782806356
-166.2401735664811
-180.12887136231376
-204.28889885530762
-240.1043234506687
-271.39559108188513
-269.1333631128348
-243.36571337055352
-218.98304659309585
-202.37395476208627
-186.92187324366395
-161.0572295608225
-128.2839379695485
-103.15747422445006
-84.75413395541185
-56.772557851101496
-11.76410224040979
35.73435140631641
72.5500092896707
97.61216960865893
111.4312652295162
116.94537797500996
121.33509443094066
133.12843818818527
153.24090992165233
179.28783518843548
218.68818025145532
274.7538284224397
342.2810695631889
410.7212218404962
451.93598806454804
469.6206137296593
504.51930041014253
554.7602208688327
594.6135476974155
616.5518316216597
620.6341967308947
606.8701552509252
574.1174472382955
534.407123801942
510.06600427434114
517.8635885044782
532.3661814283513
504.33352983354615
448.84802409188853
406.79294202065506
388.51157599407003
402.7036292325058
422.29868905032396
397.0705081808347
340.64269695081987
293.91783454331386
250.98995460926494
190.46233035110694
124.41704014218759
107.90398596928986
157.60625408473112
201.8519232752833
186.51052475543818
109.95484927954668
6.517325618595783
-95.98040321896197
-212.8917306315788
-311.11228170645484
-328.5786582001081
-270.99621165001514
-214.76477530709445
-213.4238113935067
-241.12024387425598
-268.61039119091475
-290.01125079668714
-311.2793625788698
-342.8017683901048
-385.8159955160419
-432.714498458837
-461.19264552664833
-462.20200385754197
-451.7723707991964
-431.8223429816988
-389.8858823371531
-356.1745140710343
-381.0341177567009
-458.7929364814686
-566.8140036133478
-637.3863571437063
-574.5119214860797
-463.39122484409074
-417.39950574468287
-391.15939138759234
-358.9980014427114
-336.0863681326083
-321.49666693462547
-311.05067582872095
-296.6484913335057
-277.07780080546604
-250.4384304466995
-214.36942410856446
-172.4296986247108
-133.35109685287082
-104.23202469367929
-91.83909480318118
-88.92063396027362
-78.7566837589511
-57.113933805435316
-27.109540749661033
8.354750771859544
42.87976284429973
57.32150570151726
51.13332246153457
53.34222809412597
72.91861898444806
103.89937741533568
154.60172542105414
223.835475945709
295.26258997615895
347.101760706136
366.89565658042346
372.35871332593905
384.9658885860507
404.47336832112114
404.8940066702613
384.67638085159354
387.4661769871347
409.2694558885526
418.4662785348005
431.9025467645875
469.768197458595
512.4048529443148
515.9218469829692
470.47184830743447
423.1161180674795
414.0544673622566
439.3559774517107
466.506806462802
468.7284254981351
444.820852356617
397.0178520507525
328.5683086124254
261.8762742249246
226.25150186005237
215.77823456289897
212.91595308490693
227.81706820992912
256.5460649758155
276.2973425923963
272.7626023592139
254.2240049934575
234.14689993270403
205.83151852678324
169.41432961467444
134.7845122210495
106.80626663590617
81.64824723833256
46.38815049703804
-2.9152014111783133
-56.24915971413809
-99.99556829299345
-124.80718094308423
-132.30403617420797
-127.34957493742401
-112.54852606782941
-96.29291007289075
-81.22796603522333
-66.43829521466375
-63.47396058874333
-84.10524293287025
-127.53851357511769
-167.3582438509193
-180.09079008477823
-178.03401027186447
-166.05953939631053
-141.9117650969993
-120.11504673109049
-109.8823270309482
-117.1771677102846
-140.53944568539544
-165.47886861792847
-187.21239329461332
-204.11942018798013
-218.1764504990837
-237.98826828394692
-259.002956931258
-281.7808245114084
-299.8116315419152
-304.5836523083107
-315.8322256316577
-341.86983851252194
-371.59474091923784
-395.071733483354
-394.2577353555698
-350.5660981765765
-290.1251452052867
-258.57417121917763
-258.21492291646075
-263.48431593947106
-249.00005445606362
-217.34556863265288
-192.54295703865552
-184.53927973249614
-187.66297194735463
-188.40210059736148
-180.38609211233606
-174.0698950437116
-186.60293991038364
-221.87133253962557
-262.05203442624213
-284.0006870898087
-271.6565846513628
-215.56596035685806
-130.07120930209283
-74.85186467443695
-87.38106128167232
-119.1085747884933
-120.01676247391443
-89.51635963182585
-47.85767904738487
-20.550936237678535
-11.604401848715666
-17.17298875442237
-34.31534616817419
-47.37905198028112
-47.28689024012523
-34.07089829763021
-9.041410080765672
19.396365460449548
49.677687928335345
88.1147676954092
128.9885427470966
165.59432304919628
181.83807953405787
154.16344179400218
97.47837671239357
41.29206498694475
-7.119715383435266
-53.53799458250607
-104.2598799351822
-146.3256988014538
-162.88834779620976
-157.51131787922333
-148.36531611138824
-135.6301382371138
-91.67914156369899
-15.46699174783344
63.1526497994563
124.73526936435316
167.60819936886642
201.58750099031909
225.75279069632646
233.3068033848973
236.42939471649686
243.3040784682
247.98713704897727
249.91487960016468
229.07264537916276
151.12998566327562
14.946819133001561
-149.03907544040507
-284.88737387328985
-352.5314023073801
-364.3379055575515
-343.64042131036496
-301.46819792959536
-256.07706654092726
-248.00592587952156
-279.39601103646174
-306.311158440735
-314.9385124325682
-311.25499232737104
-308.2226971028292
-317.70758585150503
-321.7520884305464
-302.83681789614747
-272.58329654606206
-248.9807224953549
-235.1896555840688
-221.73866518993566
-193.65489276333014
-146.80669309977426
-94.70541334806116
-58.288768391846276
-39.73255513183048
-33.52920438988121
-47.60488877117385
-74.79560549945404
-103.43326289941193
-133.1338907865166
-155.76672982139758
-150.76694248671532
-110.7523068847702
-51.80664683671001
3.529038470159332
40.0138616625603
63.3804460042839
78.67940324763883
87.6606348782163
93.42905125477546
99.58128170111871
112.60561060461053
120.66345157422813
119.42178902049393
115.6318616334114
111.1384723967873
106.08944029908038
94.1027949456732
77.08849540627597
56.82947498675528
41.132901772995474
39.56759534091926
42.6778971855203
40.52404539589609
28.020500412221963
22.110598946957417
34.54314204857257
47.349707208276996
64.72279171063802
87.18267712974577
85.89445774733304
56.656611636533036
15.67546554144235
-28.190278517576807
-68.43584685987078
-97.35934730843805
-86.10425187197475
-14.823039965835916
91.03273071081321
188.98514487824443
248.32465918961555
279.00335433969383
305.1662022892117
330.19284712715336
344.61260560072265
345.2895222258956
347.46406906848836
354.39506540591407
365.99951310540627
387.42596403757733
406.5210648458111
408.76379953674
391.85257628988415
372.87806315591405
355.73939503188683
298.7602459343991
185.34637816386586
59.65775411811719
-25.534923374290262
-21.499757074371015
62.82529112759241
137.53747771521108
157.93476314246735
145.35589839389988
127.6577984510083
129.20200536331834
141.899616257034
157.56552386273418
174.3828339995597
180.6571264421214
177.76654515658302
153.662473458231
99.44674541794684
27.338810942988008
-49.77850521000985
-115.23742694816329
-151.52143589568374
-153.05383443013906
-147.02259387154197
-156.27679222800907
-175.1393598412765
-204.48519576676253
-240.69958636364998
-274.22242246261703
