AAD_Filtered_TADAS_FILE
AAD_BASELINE_CORRECTION: BASELINE REMOVED
AAD_FILTER_TYPE: BUTTERWORTH
AAD_FILTER_ORDER: 1
AAD_LOW_CUT_FREQUENCY_HZ: 0.025
AAD_HIGH_CUT_FREQUENCY_HZ: 40.0
EVENT_NAME: 202302061024
EVENT_ID: 13207
EVENT_DATE_YYYYMMDD: 2023/02/06
EVENT_TIME_HHMMSS: 10:24:47.00000
EVENT_LATITUDE_DEGREE: 38.089
EVENT_LONGITUDE_DEGREE: 37.239
EVENT_DEPTH_KM: 7.0
HYPOCENTER_REFERENCE: AFAD
MAGNITUDE_W: 7.6
MAGNITUDE_W_REFERENCE: AFAD
MAGNITUDE_L: 
MAGNITUDE_L_REFERENCE: 
FOCAL_MECHANISM: 
NETWORK: TK
STATION_CODE: 4617
STATION_NAME: 
STATION_LATITUDE_DEGREE: 37.58551
STATION_LONGITUDE_DEGREE: 36.8303
STATION_ELEVATION_M: 544.0
LOCATION: Kahramanmaras_Elbistan_Turkiye
SENSOR_DEPTH_M: 
VS30_M/S: 574
SITE_CLASSIFICATION_EC8: B
MORPHOLOGIC_CLASSIFICATION: 
EPICENTRAL_DISTANCE_KM: 66.50
EARTHQUAKE_BACKAZIMUTH_DEGREE: 
DATE_TIME_FIRST_SAMPLE_YYYYMMDD_HHMMSS: 2023/02/06 10:24:33.5228790
DATE_TIME_FIRST_SAMPLE_PRECISION: millisecond
SAMPLING_INTERVAL_S: 0.01
NDATA: 10501
DURATION_S: 
STREAM: HNZ
UNITS: cm/s^2
INSTRUMENT: sensor = GMS+/GEOSIG | digitizer = 
INSTRUMENT_ANALOG/DIGITAL: 
INSTRUMENTAL_FREQUENCY_HZ: 
INSTRUMENTAL_DAMPING: 
FULL_SCALE_G: 
N_BIT_DIGITAL_CONVERTER: 
PGA_CM/S^2: 54.789
TIME_PGA_S: 
BASELINE_CORRECTION: BASELINE REMOVED
FILTER_TYPE: BUTTERWORTH
FILTER_ORDER: 
LOW_CUT_FREQUENCY_HZ: 
HIGH_CUT_FREQUENCY_HZ: 
LATE/NORMAL_TRIGGERED: 
DATABASE_VERSION: 
HEADER_FORMAT: DYNA 1.2
DATA_TYPE: Acceleration
PROCESSING: Automatic Paolucci et al., 2011
DATA_TIMESTAMP_YYYYMMDD_HHMMSS: 
DATA_LICENSE: U (unknown license)
DATA_CITATION: Turkish Accelerometric Archive v 1.0 - Disaster And Emergency Management Presidency, Earthquake Department
DATA_CREATOR: AFAD
ORIGINAL_DATA_MEDIATOR_CITATION: : AFAD - Disaster And Emergency Management Presidency
ORIGINAL_DATA_MEDIATOR: AFAD PROCESS SERVICE
ORIGINAL_DATA_CREATOR_CITATION: AFAD PROCESS SERVICE
ORIGINAL_DATA_CREATOR: network: TK
USER1: GuestUser
USER2: 
USER3: 
USER4: 
[...]
6.911241593310076
13.769678949678756
19.581457792407434
21.519261675994642
19.01272241944511
13.888170021550046
8.660141550472334
3.286301197193761
-0.5152708482289802
-0.5330966454442421
2.077881079300532
6.208433320388778
11.731703577269949
17.312670704720613
20.250624097481012
21.557076175101333
23.107203669726047
23.30965368631238
23.056235152816953
23.865026444025304
23.54725554138544
21.114911680090692
18.087252806161466
15.05523086135086
13.874400071073161
16.741899661808773
20.52110685231993
20.276991450639063
16.12931564207269
11.744681930915018
8.6030680489272
5.248437946436357
1.5306334187549442
-1.3841188112347382
-3.3325236506460065
-3.7505861394284152
-3.2461589942663203
-2.387357359091181
0.37002264389894796
3.1172142554578555
2.0017900308748455
-2.8697663719812088
-8.619943581429872
-13.947496116280005
-18.099528524470976
-17.99267803618363
-14.60313113634934
-13.904166903706773
-17.720559478537897
-23.932156363254055
-30.806453180732575
-34.407630847668436
-32.82606461095032
-31.177807351833128
-33.03463275060974
-36.66472788074163
-39.20790846338589
-39.236121706181784
-36.96212256573771
-32.601567327741044
-26.87912510192189
-21.66805670360191
-19.3992998171061
-19.56813756470419
-18.561235849153203
-15.092951946496669
-11.987210519388917
-11.917205840752633
-13.127786174141205
-13.470704099815078
-13.050420664999415
-11.577169693312912
-8.985275994803438
-6.0921757003098085
-4.310762215740798
-4.825553733218702
-6.895892233089238
-8.233754850272945
-7.650264437456191
-5.8803517993645285
-5.013835763924923
-6.971086163036054
-8.72758276908871
-7.12140807449937
-5.817960301818534
-7.031108926423021
-8.250067603293626
-7.579466848343926
-4.272241011308818
0.700390116995338
4.8280312354190436
6.666995028112836
7.3744119228006575
9.362713813003582
12.544941096928174
15.229836043518
16.75642708881593
15.536570445623594
12.265471901977483
10.55194527227266
10.084004648680143
9.119529007686364
7.957432454255634
5.104805823274933
0.5630605316605697
-1.4391859496054855
-0.7714088283001227
0.07663558437661089
0.9111346851045902
-0.44353250834522195
-5.375137784633922
-11.570251180418435
-16.303632986555698
-18.76859556239908
-20.38314784991595
-22.10363338816535
-22.167930675713336
-19.3531154849836
-15.443145581667908
-11.162997298670042
-7.115923593294233
-4.8843863498292945
-3.333894011394334
-1.8040035802321157
-1.5406423170056132
-2.120972892677322
-2.47465218971994
-3.3454001538086633
-5.762944152569003
-8.745394378646948
-10.117210708118405
-8.892051606214283
-7.347933061693426
-7.473867381292262
-8.05005080746183
-9.11125826511195
-12.174783503953574
-17.093036306227173
-21.459864508026687
-22.835428153493233
-22.277313596673668
-21.898184192835327
-21.234957738596606
-20.289464251603828
-20.426517606522214
-20.221205952944118
-18.689234978375357
-18.081251974440796
-18.8285887050257
-19.077136919686573
-18.597114816259825
-19.702158143369264
-21.895950572228198
-20.75271668467257
-15.766787579433375
-10.82705822673555
-7.93305314068198
-6.947345826140009
-6.845902405034669
-5.225803665194597
-2.942303556891679
-2.6194126919319163
-2.480556363972474
-0.9043287679561618
0.9206031412641892
2.0792446088573255
2.8423522832213655
3.035164170608503
1.3162086328799323
-1.7012712250136584
-3.273782385954676
-1.596188854007306
2.363310218638262
5.744519445097538
6.274489553429135
4.935988253405091
4.3921383829886045
3.6361125844764066
0.6716747006199557
-2.5273641080054854
-3.762628998418861
-4.026236289595659
-2.960758488496291
1.3158053200686672
6.406691772901865
8.579305619613397
8.458487226790803
8.532020888269374
8.742646949776733
7.749966830528069
5.504894832637578
3.725102458105116
4.058842055723557
4.34720724029787
1.8186744490842164
-1.4188143886435436
-2.715723336578385
-2.792932510278399
-2.060485466221737
-0.10154042134049827
2.5570878893508056
5.02621825375606
6.548976337512176
8.003908524761961
10.947246628727603
14.402429741500947
16.597505521373467
16.842047622323694
15.391467056522144
14.375104366770696
14.930394648880169
17.020275512755024
21.15606361711671
25.744645744703437
28.787164827241163
30.044112250274395
29.41541132079299
26.74794885030404
23.01827469476998
19.709277626373314
17.45699286243697
17.057586742584395
18.650209550175475
20.351290863770565
20.1868634899299
18.663589849214883
17.306709203767017
16.275580238508976
16.291723808108838
17.25867443531785
18.556664474541922
20.22891076949477
19.21771581991885
16.005770640799874
15.581931295750682
17.674827301984152
20.973044542807788
25.384517208884844
28.88768531801744
30.844158666384555
30.98405969926342
28.491011440361373
24.387931952596897
21.197001533421354
20.55266826291189
21.826194064893027
23.19433899667222
23.197577729034006
22.767700268381784
23.391232280396128
24.507030358986626
24.87628851210154
22.65100534803041
17.267821181300206
11.354096864556318
7.536976369303839
7.251298394167082
9.61344571168946
11.961124077923428
14.747333873311335
17.838244353507797
18.35884038960683
16.306382459841135
13.780356365323797
12.15772115657851
11.55608852321695
11.501766239663839
11.35264045105986
10.550044731820488
9.843996252190195
9.003919884335328
7.223752985297099
6.079097150435519
6.63680438682564
7.910040114099139
9.516851940104061
11.864646987573328
14.408263427241637
16.284132101134336
15.885866610767252
11.206073849701943
5.148870183406759
2.56681560837399
3.736655421382082
7.456004632907876
11.37127133425688
11.669415731495384
9.067610976162355
7.70354895023216
8.357421348028044
8.39207430018633
6.676389759194367
4.959851761935213
3.6961149290806525
1.689212118740125
-0.7018955397640863
-3.245812489779159
-5.233983204320792
-4.904120091927369
-2.694715662286086
-0.13967435152393115
0.7269997359978656
-1.6311031602602744
-4.941010638987377
-5.261661769613647
-2.601274364592357
-0.9968355705240296
-1.245304153581304
-0.520346727857867
0.7237906205950153
0.09037413501299968
-2.113313990161114
-3.5514458557935598
-4.069576989459604
-6.789924185530615
-11.398567373624356
-13.337853214450686
-10.77841918058789
-5.8143006761425315
-1.6866783453149354
0.7876746335238427
2.4851518538283086
2.8049728871133275
1.5333640563794708
-0.6505476045354665
-2.8980900750528167
-4.6982471357952456
-5.945943944119153
-6.1600431355653305
-5.652132514772766
-4.49921961075154
-2.447948328018692
-0.28704165562425893
1.2551637282489927
2.044616522807542
2.4173503414618676
3.4501998128337212
5.785273575975976
7.541734072004941
6.6275081587656235
3.003439267758395
-1.3643839360709968
-3.1869746079878993
-2.3464102645457503
-1.745713663059368
-2.2662941482745627
-2.258339937805421
-0.42875642168456524
3.229865666926825
7.4652381150774145
9.832342292985421
10.218222128135904
10.938264819590419
12.631513324760753
13.339135596121096
12.13435077520159
11.161378450487822
11.74121199955298
14.307974441866614
17.26288287129114
17.122189020113623
15.564132765739688
15.789772719294723
18.114616688453427
21.370841210343123
22.859199635757562
22.567565734831028
22.539735808489613
22.482447718543465
20.82792948240512
17.444586514658347
14.466825501297343
12.730577377778399
10.761702648207876
8.286842572626385
5.8212292733979325
2.6517853575866615
-1.4549926176589383
-4.903142197425763
-7.043568269097738
-8.613476008220651
-9.888453461884804
-11.020800279677356
-11.238620929079085
-10.35704414613273
-10.89071973691719
-13.211779702681016
-14.103275562218364
-11.829555899018285
-6.824237449460261
-0.8763255750331738
4.253284977265736
8.524858136848206
11.141432402012487
10.552866154346306
7.024077673613161
2.5845564755181294
-0.8944037386737588
-3.5149721479850804
-6.289193293362682
-8.47789243209537
-8.850513500641766
-8.300284530253842
-6.973930393991068
-4.114862883390873
-1.7921960515621873
-1.6608437984433078
-1.8530128069448466
-0.49533722787820605
1.8306575452851677
3.8323121451450173
4.938464737666433
5.311593798139171
6.208261655558535
7.199436538497605
6.149701463007176
3.8792451869267137
1.7617690537119666
-0.8701211043731645
-3.9799024911966785
-5.928778977588188
-5.851588756120592
-6.023327107685033
-7.98979684506815
-10.046807098856858
-11.066563143285133
-11.500826370383544
-11.988453712486582
-12.381169941674683
-11.519431014500237
-9.750178637800756
-9.510157613260777
-12.205801099466772
-16.112331529014263
-17.308294008335338
-14.61743032953495
-10.772231231999594
-7.580772024159637
-5.7631805654053725
-5.604019713203548
-6.4089688750722535
-8.502771843577225
-11.478972926253626
-14.015845478187943
-15.49438958756998
-15.114677888117344
-13.735420533581276
-12.801903754249821
-12.399840577931048
-11.217665004839064
-8.065765218381593
-5.219998600650337
-4.6756560402699225
-5.498228881131677
-7.286035585569555
-10.32080385622543
-13.216434063703195
-13.9109520368191
-11.713758807294171
-7.416897798148249
-3.9030971067228655
-2.932748062886532
-1.9379789695926832
1.438883043105752
5.44559186863463
7.525439580660754
7.638669096865677
7.746778882673056
9.383763350775777
11.508251505488456
12.175380444841256
10.389488935217756
7.229559912163073
4.8628639140227765
3.302995909034924
1.831454830183585
-0.0684871581350145
-4.090426930709926
-9.612213772294663
-13.728451720311753
-16.66403033762123
-19.082698092348227
-19.302263489635788
-16.463284408438582
-11.34256903056408
-6.194040589069243
-2.817441889451251
-0.6215285223205829
1.5245854296075096
2.599581425695755
0.7194925668423837
-2.361776836319554
-3.6653561305592115
-3.675201830207251
-4.663876906290617
-8.187074329629134
-12.195833406222711
-13.185486270511511
-11.740441141230887
-9.557621274763557
-6.723760547336718
-4.555101466170665
-5.020734133303108
-7.427144546865828
-9.018019670365044
-8.154699928393807
-5.563855383543947
-3.7497012462591415
-3.611590022448567
-2.920081324796573
-1.3881451029342637
-0.13498724213387442
2.1549378071453154
5.970692145479771
10.032078725128274
13.267276327193319
16.37534884987641
19.96803604994486
22.19775327364219
22.962374335163684
23.362619207080954
22.21515158813129
19.724722717102786
18.10379333823981
17.033416301052547
15.423635385359562
14.370595732107232
15.174380192894919
16.5485314062734
16.131453041029705
14.614999017803564
13.332629367780848
12.266955922162518
11.014648327103409
9.08118307207532
7.34684481152168
6.4172408150957425
5.15780199913978
2.7304558311916787
0.18409787014670187
-0.7791680352672258
0.5840617981445193
4.6622081658293215
10.974258945517501
16.742527862605723
19.43963281512612
20.063629549220053
20.761313100798784
21.26233936893315
20.42049750835834
18.341233214211325
16.77253736795897
16.740522992278972
16.6201467497263
16.681754234831295
18.331985594113437
20.119931568344303
19.4441829938395
15.387492003492161
9.292316252623184
2.0572894348636064
-4.77392830770325
-8.451660103895737
-8.03165108137656
-5.3506572217926145
-2.852799185888657
0.41118352176228096
5.694877934288382
11.341256325338353
16.209846885491046
19.459782769178812
19.779673376982654
17.911930135701752
15.716086739305522
13.177382551867597
9.761005313133351
6.479484536732452
4.049434604584382
2.1641726720471013
0.43523567707576716
-0.9668460292795759
-0.6982655870999719
2.435006851153269
6.707436308553445
8.118965638751531
5.592838170812625
1.674889361658076
-0.7199058819692826
-1.2218306969544217
-2.973379867277115
-6.399482662214256
-8.430599526498327
-8.27607122122764
-7.135908339385692
-6.308838647753679
-6.0173347762164955
-6.623896831260142
-9.144112409113351
-12.98977553223004
-16.645844326933073
-19.002837562125908
-20.253418367447566
-21.487050354191435
-23.099633154218527
-24.076006148206684
-23.524368886454287
-21.78821436270948
-19.94730265293368
-20.40022967214345
-23.15147144570376
-25.473926531237943
-25.746275892336826
-22.7148974619338
-17.07529474851337
-12.210752737329107
-11.132888069237104
-13.565966954396684
-16.585503633864278
-17.834057384292485
-16.709914767576937
-13.84974852611983
-9.729593219548605
-5.907076401572928
-4.425536374297569
-4.797549139193939
-4.8350460982442725
-3.696105294804436
-3.2647135229457094
-4.914700697953514
-6.97927588349769
-8.009508783516079
-10.156786849449198
-14.783188143585551
-18.844831039821216
-19.473631932058787
-17.11131902995757
-14.249926749609083
-12.856465592834857
-13.125497215517969
-13.872971308411458
-14.113599443408607
-14.115496658565206
-14.849520773673833
-17.44275571101382
-21.005311525267057
-23.36386622939823
-24.18793469428759
-24.470772775150763
-25.396532612940348
-26.92834510556721
-27.532112405422204
-26.88726227935963
-26.57618938825852
-28.847234730687372
-33.42850722729013
-36.529008167320114
-37.1093469026095
-37.882859290238514
-39.826154548018735
-42.05598351328401
-44.818430416151116
-48.58860991269223
-52.17204120528789
-53.834400442704236
-51.86195866919494
-46.814274485785695
-42.57710694958795
-41.29514665703543
-40.852069902475584
-38.49335777584388
-34.07683126992169
-29.355107558460325
-26.98641126663719
-27.413999863065204
-27.703697031440488
-26.73831266952958
-25.22845851140163
-24.211850168183883
-25.206924672901028
-26.67944634046164
-25.937318132511095
-23.089668191074576
-18.762554949419794
-13.673099794051183
-9.90761020131244
-8.59077070951944
-10.01596061861935
-13.642867155784188
-16.043361060529197
-15.368863518038902
-13.03619161955019
-10.578103639716216
-9.037626215590244
-7.9958090854931605
-7.780515476553252
-8.614924689486664
-8.045749230029957
-5.0796659920744895
-1.5653391116809905
0.9024128482899576
2.8651373051817277
5.233255188096025
8.162564825231234
11.630896346832639
14.49262287597924
15.17473023552385
13.090399891546765
9.450609707222675
5.95681643750114
2.7859888084472275
-0.023707418966886575
-1.6047563408307393
-2.2054957518186438
-1.9948826927082135
0.6436820653282102
5.35905284533817
9.870208046080942
12.74951267848845
14.006583080854702
15.036997526328198
16.268011239294772
16.621524545514088
15.247329219815606
13.021951018255624
11.883836602458091
12.495388018647736
13.79985324499547
15.895464590208947
19.94283616262859
24.711710481909723
29.510698716696357
33.93482280883355
36.00918360663128
36.26675471347104
35.962826344612786
35.949079779911834
37.83218005117745
40.99474793273952
43.227598592897884
43.96076690970794
44.076636477792235
43.696744349637264
42.83511023653252
42.61727027791928
43.25305982150083
43.17148596649928
42.096692545322284
42.30582796499872
44.19218590832234
45.191753782246465
44.571239595035806
43.4877964949638
42.54064720628351
42.836060183318295
43.90980983113188
44.03678091188638
44.24443174174686
44.87825790893643
44.31731849011952
42.45571035040261
39.84628298466312
36.08015232087027
31.081144256819435
25.967775028576728
22.15711148988444
20.450983231580132
19.778106626551217
19.344936497942495
20.53921803597572
23.271509178673153
25.113891904543497
25.578151248057445
25.981518603792466
25.612346714594672
24.032404641945604
22.166710532363027
18.892484641409307
14.037529392385725
10.77501739643588
10.921058904605339
12.824544886457572
14.354115764431134
15.66031571381254
17.968318729190717
20.989712396310313
23.76342338515178
25.084727068240575
23.77808620395435
20.557256622847607
16.833878216732124
13.217161386649098
9.45994373840252
5.489571363953894
2.3382565745513335
1.0105666743295492
1.7237236490088423
2.9840238156509162
3.0588558238575128
2.975942002036387
5.12931341325039
8.80388511257662
10.0313042382436
7.704974089756242
5.099962806825638
4.717010074830625
6.160837299906382
7.553376836313569
5.87371295388659
0.22735816165150485
-5.6336223319528855
-9.2229461459761
-11.208255561931516
-11.604163143333317
-10.543179921796572
-9.435193678417798
-9.541296289166548
-9.859129989673997
-8.740688040284144
-6.741577938154966
-4.625671521774927
-1.893498102354055
1.4845672849745475
3.4254052707758107
2.343706813835138
-0.3552576453171361
-3.2900946257837926
-5.887787678919547
-7.265907696451957
-7.6070739405522865
-7.403585593637647
-6.044685702495222
-3.0625131862901207
0.5869773170281353
2.827867464830527
3.0923304894785693
2.6033265616045536
1.5853957290303928
-0.13729132944768088
-2.562209459463407
-5.684668470973659
-8.368979623925132
-9.588818034603273
-10.165636359292064
-12.19882687435703
-15.750997260629012
-17.99209142236934
-18.064914423867926
-17.19621985735666
-15.424689551365667
-13.78163023256414
-14.16168321729089
-16.09109721350771
-18.165773917541134
-19.75451005455778
-20.383560050581842
-20.2004991735633
-19.37536060492568
-17.26203986992261
-14.681211937685015
-14.281060193828562
-16.33460414825962
-18.69982942994365
-20.048827035029188
-19.753392010177432
-18.503284308154548
-17.3528907816478
-16.48838870194149
-15.825002621352033
-14.273060489920988
-12.048467763382137
-10.819954545276362
-11.950416815341724
-16.141525954247562
-21.584575409904346
-26.095332603727677
-28.908930238253888
-29.459255036050106
-27.759765655470837
-24.710836522717674
-22.00073155847145
-20.380492184401405
-18.861731477205076
-17.46581876823574
-17.096612214204228
-17.311431674365846
-17.192495522364247
-16.01799614813097
-13.639646054447129
-11.792140189712699
-12.394910381685504
-14.728992442501278
-17.242012245233003
-19.820900910492952
-22.085087390432594
-23.623806534805283
-25.600889311928174
-29.179412083620928
-33.30660481324334
-35.188785147031005
-33.878018312161586
-31.200401584257847
-29.098042946758337
-28.264828673126253
-27.393033743083464
-25.17314497462668
-22.520582651302245
-19.95032683354405
-16.969875596894017
-13.449955346338522
-9.144873754750146
-4.70830380229326
-1.7541640019155906
-0.6814243798267103
-0.28895390335341
0.35859439142953875
1.573006734806
3.67834373705231
5.264099506153383
5.04144784946471
4.535730043561575
4.268230295875832
3.5410584766198987
3.6973259249633945
6.058877541768697
9.556997957813428
12.103226133827928
12.39420175350886
10.226755685868635
7.5721962337629325
6.323544006456458
5.271054003628389
4.278834157174482
3.889814039746443
2.587568970070687
0.8025357732564875
0.3215733758038453
1.0830684535125623
2.547786423897988
4.405178819793829
5.4932074897230505
5.383424250577245
4.72329510314106
3.4146951818102145
1.744183592375058
0.26050087298768687
0.3897613419231083
2.735854384059084
4.61894742494582
4.616347632753291
