AAD_Filtered_TADAS_FILE
AAD_BASELINE_CORRECTION: BASELINE REMOVED
AAD_FILTER_TYPE: BUTTERWORTH
AAD_FILTER_ORDER: 1
AAD_LOW_CUT_FREQUENCY_HZ: 0.025
AAD_HIGH_CUT_FREQUENCY_HZ: 40.0
EVENT_NAME: 202302060117
EVENT_ID: 13194
EVENT_DATE_YYYYMMDD: 2023/02/06
EVENT_TIME_HHMMSS: 01:17:32.00000
EVENT_LATITUDE_DEGREE: 37.288
EVENT_LONGITUDE_DEGREE: 37.043
EVENT_DEPTH_KM: 8.6
HYPOCENTER_REFERENCE: AFAD
MAGNITUDE_W: 7.7
MAGNITUDE_W_REFERENCE: AFAD
MAGNITUDE_L: 
MAGNITUDE_L_REFERENCE: 
FOCAL_MECHANISM: 
NETWORK: TK
STATION_CODE: 3138
STATION_NAME: 
STATION_LATITUDE_DEGREE: 36.80262
STATION_LONGITUDE_DEGREE: 36.51119
STATION_ELEVATION_M: 459.0
LOCATION: Kahramanmaras_Pazarck_Turkiye
SENSOR_DEPTH_M: 
VS30_M/S: 618
SITE_CLASSIFICATION_EC8: B
MORPHOLOGIC_CLASSIFICATION: 
EPICENTRAL_DISTANCE_KM: 71.70
EARTHQUAKE_BACKAZIMUTH_DEGREE: 
DATE_TIME_FIRST_SAMPLE_YYYYMMDD_HHMMSS: 2023/02/06 01:17:19.4420340
DATE_TIME_FIRST_SAMPLE_PRECISION: millisecond
SAMPLING_INTERVAL_S: 0.01
NDATA: 10501
DURATION_S: 
STREAM: HNN
UNITS: cm/s^2
INSTRUMENT: sensor = GMS+/GEOSIG | digitizer = 
INSTRUMENT_ANALOG/DIGITAL: 
INSTRUMENTAL_FREQUENCY_HZ: 
INSTRUMENTAL_DAMPING: 
FULL_SCALE_G: 
N_BIT_DIGITAL_CONVERTER: 
PGA_CM/S^2: 888.730
TIME_PGA_S: 
BASELINE_CORRECTION: BASELINE REMOVED
FILTER_TYPE: BUTTERWORTH
FILTER_ORDER: 
LOW_CUT_FREQUENCY_HZ: 
HIGH_CUT_FREQUENCY_HZ: 
LATE/NORMAL_TRIGGERED: 
DATABASE_VERSION: 
HEADER_FORMAT: DYNA 1.2
DATA_TYPE: Acceleration
PROCESSING: Automatic Paolucci et al., 2011
DATA_TIMESTAMP_YYYYMMDD_HHMMSS: 
DATA_LICENSE: U (unknown license)
DATA_CITATION: Turkish Accelerometric Archive v 1.0 - Disaster And Emergency Management Presidency, Earthquake Department
DATA_CREATOR: AFAD
ORIGINAL_DATA_MEDIATOR_CITATION: : AFAD - Disaster And Emergency Management Presidency
ORIGINAL_DATA_MEDIATOR: AFAD PROCESS SERVICE
ORIGINAL_DATA_CREATOR_CITATION: AFAD PROCESS SERVICE
ORIGINAL_DATA_CREATOR: network: TK
USER1: GuestUser
USER2: 
USER3: 
USER4: 
[...]
14.597768000079821
21.933636906770445
27.906683592556213
28.910408102021485
23.17974595522505
13.147535418772684
5.703379787942906
1.8344289437652768
0.2525406854829247
-0.8214456149230726
-1.7557765488806352
0.5396487240669717
3.5530953461807036
4.376964641998378
2.4054236272015825
-2.5707428520482614
-7.449036269103556
-9.269575601714395
-6.835038627211971
-3.7433837106914614
-2.7591843836142838
-2.878711369144165
-5.750513576440906
-11.235673035734829
-17.25295836863049
-22.153829174638677
-24.941407962320792
-22.41997873342127
-11.961765360616901
-1.970062444264805
1.151176709116589
0.41840170160270723
-2.101547566533858
-3.1510103926433666
1.2159729487206798
9.465033662169786
17.22004788385764
22.093932044282788
23.383746943979382
20.855702185361316
15.124047043524847
10.063097788017533
8.67895046023192
8.056563884693462
6.903081744885878
7.839513013177174
12.00033040395439
18.061904618481787
24.994090384108485
33.07279244186794
38.48023061791985
38.48274924551726
36.51673212859023
34.01718409914813
31.143790102460173
28.47672597925035
27.50777842825607
27.667682101564477
25.33494317282783
20.482037352161008
12.536233323463108
2.9599684904538996
-3.6091688100669597
-6.276922798922596
-7.775049851265089
-10.298811672461209
-12.672389089662087
-13.767508445120813
-12.533926443268692
-8.796872403485587
-3.825981480300725
3.3147923155162458
13.41257782103736
20.888385541549745
19.30549418784203
10.294414722083538
0.1820675509281035
-6.857317766650463
-11.008924762775152
-13.54795680882632
-16.10043469445385
-17.72638130179927
-19.592756875875345
-26.235119207129408
-35.40579676205812
-44.0080631802219
-49.3445325691172
-51.200735333312686
-51.89296167804272
-49.214456130735606
-44.13749966844604
-37.25685590835547
-28.400131759817445
-21.420057205677914
-15.954500456979563
-10.480573732679101
-4.004037678730064
4.321817236281162
10.937845816314443
15.425575891997306
18.34927315618446
16.966322558887953
12.571144646561898
7.189282396621298
1.2174580222818632
-3.4981406396787462
-4.454421620160913
-0.8950954503412859
6.715173101905283
18.781969769625384
30.96718632132607
36.48675250941089
36.18696268892276
33.713161556625224
28.67113480743228
20.10162992626903
10.240723527848157
0.5079665490925539
-11.918279148674266
-24.79201939555964
-34.26214329780688
-42.9948306425878
-51.2563604046669
-58.20589629728805
-64.2594485913918
-68.8978118299955
-69.33649645706014
-62.95267611185777
-54.4362275394543
-44.45382091466127
-30.199168502595615
-14.49730088087304
-1.070058945228955
6.40551358122734
9.80187534767171
12.260935245960464
14.256210396927841
16.608790136836454
16.51241718249255
13.715725793356615
12.347269890765256
14.147402290904248
18.22495102909071
22.928860632986737
25.426822629332793
23.08170670326253
17.667917013840242
13.627834083031493
13.280043166271787
14.16567864532093
12.71028672578222
10.625278163971439
11.446834016347646
15.313264868658194
20.1855151930724
25.350005378462804
30.78548047485969
35.26360313253714
38.87600327537559
39.072131391259475
30.89349179713269
18.20759654301099
8.562953902467958
3.6170775158954656
2.295693569653841
1.7903455930686842
1.6906098894110624
2.115482002499933
-1.6743437614425836
-7.969030298156413
-9.912916393136422
-6.668788699666039
0.05231490810358898
6.043446423447961
7.511841538537238
5.662420852077117
2.596551062969686
0.8072558128644319
0.2696650842589644
0.5006831036736545
1.6567734582137852
0.6417203024424695
-1.172874397139593
-0.7091184186451388
0.8366028780868918
4.256072900759385
10.612101844499358
17.060896202283487
19.553224485458014
18.097981249793246
15.733460934544679
12.78183749970326
10.335234407535076
10.577021871521977
13.559058192134065
18.05347123951132
20.997913237310243
23.00602934178484
27.604380133867764
34.23801787466368
39.978250572570985
43.624595431136925
43.35292134911083
35.913027973297524
25.15295798116493
15.359332352305374
5.14643109762734
-2.3869173649651176
-4.771197074084011
-6.747980607572401
-11.30046648036491
-14.716110490556318
-15.241969333088289
-15.202732406982122
-14.166412778578104
-14.06399749261487
-19.382967255382106
-27.423426757548153
-34.16391338802671
-40.0223931749412
-43.45624419002393
-43.30163652164521
-40.90426183640326
-38.69380190690737
-38.09757185906871
-35.37869873043795
-28.298335456710443
-19.67177898243185
-11.358992581548597
-4.568264157820827
-2.534974794803387
-4.068080016396528
-4.891920498097723
-6.126613753335396
-6.272835515588512
-1.204311774099338
7.336789132126216
17.717484829505555
29.339793089458066
40.85058983241979
49.84072152188714
52.47462959357163
48.51892570667691
39.800987168224644
27.047097042248
8.454421381560605
-15.001133103476954
-37.81675599538148
-56.020449040003406
-64.53493038732245
-62.39698248288014
-53.801926731783944
-42.18692950315113
-32.36778767890329
-28.009492142390055
-27.158119896887705
-24.992867661803455
-19.45387180023423
-9.25561776372202
2.4607017877394943
8.543354720477332
7.631188635798459
0.7051320240234014
-9.977096713334602
-20.832504496149994
-31.281192452272084
-40.03900732103854
-45.23582964605619
-48.27471954138689
-48.44748052512058
-44.33941525558534
-37.91644376273338
-30.57765293452699
-23.398104374220658
-15.292088049341539
-3.2731864504320036
14.70290453869417
34.31642660980446
48.77527650713545
58.70954879236736
63.152572375026985
62.124795994257575
59.14326899422819
55.70402019317542
57.66151708219041
65.59118219158263
72.16315218979501
72.36750142565225
64.77390373871681
52.66028003019094
37.67170438566692
25.26869738396542
22.808858565242232
27.552338184684185
38.09800166495575
50.39575548268588
59.33358032681075
64.5710551625382
64.26939223333352
61.32165877831077
51.56213221888486
31.857872942270074
7.597408207702704
-20.184624718702846
-45.669697396234504
-63.80885062079477
-69.53543321523348
-64.73557977014984
-60.718835592048684
-59.99282939007402
-66.01851239583655
-73.8028100313553
-76.07790501738513
-75.27178467713924
-69.26121910292895
-62.58497086816179
-56.978232400916255
-48.465190034488636
-38.657433810393925
-26.701840704143223
-12.124877273369622
4.0093866965006715
19.930659219795313
35.39348480015971
48.58166961808756
56.051138049741816
59.06724962818647
59.13002439515608
54.94560970587863
44.81946346197305
33.32292921658974
25.581254363753004
23.407680706222777
23.246282782059563
13.390716488326014
-6.203030594502648
-25.88399341316341
-36.982341765290236
-37.03161727457047
-38.97452254465256
-45.41328694212979
-47.65559661191199
-38.639599167616716
-20.819729598151515
-15.419861819491677
-19.311799345473858
-22.25141697824568
-25.927969654482276
-22.054150982140218
-15.953218147099118
-9.918931014940355
-7.61740047725233
-13.777642786672683
-16.78793424807946
-14.021304149544958
-3.6142225529999967
12.715334718387416
26.526942590775253
29.958145775238055
21.426399080992397
11.011977452613886
-0.6777150723925974
-11.836170187311529
-13.088520793567554
-0.23681336155715602
23.898442694779483
40.23045726448443
39.94412673416901
36.03660220582394
37.14399820124762
48.63959450101516
59.95022871094387
56.044815338013045
55.553087195919424
75.42013793798799
94.37681826503447
88.40521511037275
72.36121016032092
64.92625993180995
43.11767072901152
-0.7330399131937497
-38.76969387081047
-61.98876662731242
-69.16083625166674
-63.97104388267437
-53.67484714018616
-33.034064397674186
-20.162961472389554
-28.864459505806387
-37.7658838969268
-32.47838802311425
-15.012851779653884
8.168562087188958
25.258045970206364
30.690297106174988
31.910719668812103
23.951362735604913
20.42597699268939
40.51749163798715
53.123464966482565
49.609061486470445
37.33147147026724
22.60368664108534
23.16282337347723
15.985275509648439
-3.2169962811074337
-18.784733986019646
-28.541614290597657
-25.622831808886993
-17.95522225355491
-9.44902004175419
-5.44822201819592
-7.13656450252126
0.13503823529184947
18.468144547897875
34.60810821784593
39.284504658807755
45.18459566968471
56.98439912208711
66.41592301833902
69.23908489649413
60.5010112413387
50.07264542921362
45.56154735468087
49.99970063823761
60.90371386226444
62.77520647001863
63.41970051614754
68.39039349789947
62.428417353009515
50.25201894166699
45.67111764852967
41.51456504316911
25.319570759975043
4.017920154002783
-11.388506144801152
-23.0136517029265
-33.64980759605871
-42.342329882903734
-42.902275297265795
-34.08279323931868
-26.096703432529885
-14.600754867696155
1.1260723549517557
14.069209118921043
28.681578107072106
40.56572268691228
48.32469213297181
49.50197538910047
41.41725444328129
34.24084117958324
29.98745086305056
29.51989622595912
30.769268357576106
26.14446086550036
17.11778901130508
6.382559338705832
-4.835390601918627
-12.390228421640275
-17.32247921545731
-14.693433394941204
-0.5921531720990889
11.56073956954809
19.205352445449286
27.091648691740907
39.248993101139
53.30605939361237
59.41118327531882
64.64222748872521
72.9116979892919
77.23463574635204
73.30748554524023
70.2928242601727
74.52581933738313
69.6447043190314
56.734217006004805
50.746870913979556
55.12796603953911
63.54048616067055
62.45505457886177
53.55956475549776
41.42628132975207
25.331839007627455
9.45540138579709
-16.96325626568099
-49.065730627679486
-57.28957564845739
-45.277292417356456
-36.51398816612839
-29.804957598909805
-17.93704801624367
-15.519876688628758
-22.820170352737453
-25.03960305202838
-21.450789816763763
-15.636425222228093
-19.63419999854194
-29.866387898859617
-41.150780570176344
-55.0349444766946
-64.08255850431259
-71.58591733617638
-74.70567750661006
-75.29310357951299
-77.78509663422129
-83.74683211068698
-93.73333605348058
-97.76600239636109
-104.8695604609584
-114.27256000090871
-108.46107206156802
-102.68418124032104
-115.66276496930679
-129.0125101557878
-127.54022257840752
-126.60783146764278
-132.24160616364603
-132.19597170519356
-121.00794453395463
-107.10283973623145
-95.06523078176248
-82.18816817340378
-76.49633023832877
-72.97624106392121
-59.68448416363149
-46.72063505338536
-44.56253822135542
-48.97637196617597
-57.33036666903427
-72.45439471016732
-81.79185092047356
-89.50574151644389
-89.89139006100393
-47.052733665175566
15.76690036129828
72.74741986482569
125.71691677042486
159.6867417782173
190.3112865124673
228.35235349851013
239.72272773476288
177.70646534420501
53.429352875622186
-36.23146609724779
-54.802835028623285
-48.42949555598558
-20.167813869852388
27.74519155430655
74.90004552685241
114.9378273346384
139.3824576938332
161.19595256585
189.1006803456575
218.72179871232373
237.31686585931647
230.07568955938586
224.54737128560913
242.0079266466862
267.05107000841537
284.35732204345527
287.49696102857916
276.1028688630383
253.21353161166758
230.0030758629665
210.70234430286297
185.20244058617098
143.87337285902058
77.5404083971301
-9.662049014679454
-97.75652344498924
-190.06401606914508
-299.42267368795297
-390.993759621219
-438.87391966268694
-464.3695040032617
-449.1740318441599
-374.96929123607055
-308.9661023380064
-304.63763446643503
-325.9406379237246
-323.0299100582854
-296.7054687370861
-280.3737574492995
-272.5025153453629
-245.21171156865734
-227.83528636899166
-257.24396102695516
-290.1205578841425
-266.71128993202495
-219.40851041038633
-228.87043643412775
-278.453562138056
-298.24326400611886
-280.83116023382763
-261.8957904170924
-285.06612262182307
-332.0313408293288
-338.38707246218587
-315.3303703615275
-310.6637244994283
-325.4546069688997
-332.8429298568842
-330.9185767260392
-344.29295404172956
-375.32286843529585
-412.1386886578133
-418.0261527061156
-375.21354498174594
-333.39510172461763
-294.27655621597205
-240.88295269977323
-157.34870217215192
-4.983513752805044
130.00978200315038
179.82353776609725
193.69301289858345
178.30618568945428
160.92142765459246
183.72146758305658
230.16534056808717
288.2451974725161
361.04169569260813
450.0226443260409
545.1280905282143
620.9448927646699
666.0848541714626
688.1338740949024
695.0701371335158
694.1628067021674
701.0398727354924
708.7939188507016
685.0790987443753
640.1250346685467
601.3186112719648
576.4330765993701
569.5314519025258
569.7231243881603
570.5597085337348
573.0968200069627
575.637201902271
574.0956333940362
561.9759624324685
539.4126635338285
507.23107643037923
463.7995021502608
409.42341523530655
352.77675860339997
301.11259907652783
256.50683230510697
224.400517642797
204.96546121534791
194.08307780884107
188.2802439262804
183.78008849763071
178.76196358499706
175.96751437579607
177.345570872767
179.49910580558864
159.1188263823397
60.94104301207738
-142.79669593010897
-378.6314758925296
-530.875655104552
-590.312933704476
-643.4067535381007
-722.7367760224014
-790.6735657962414
-843.8614912887874
-891.1210924334227
-899.6006900584251
-880.9193394407293
-872.7695908708802
-878.8667364930561
-880.6192845123634
-877.6974054654429
-875.7024032545559
-869.5135124008889
-867.3980737405273
-853.3908091502186
-855.1572584816736
-840.4959383498568
-849.775610697014
-850.6885507136092
-826.2495584809216
-843.7641095094536
-763.7682821842448
-784.7932390622558
-618.8552232493992
-459.05139598528103
-468.2042626273306
56.404365627207596
23.775975212436645
-376.8169396403432
-244.46503797093067
-253.41982225115447
-208.39495038458216
-214.30772571883196
-197.63176124311155
155.7796563711135
521.535844720911
465.66237511839915
90.03991078253806
51.66845677293966
-44.50808587851642
-251.55839151525734
-189.65094301513943
-226.7662095098492
-248.64003169116341
-179.33576364763434
-233.7194954155583
-103.62413613637843
-138.91176527823202
-70.45700316802996
169.18490372902878
-315.3999113414788
-23.795831774792866
391.1927683771121
-64.20585559476598
260.91684218676295
485.814164396192
263.2644713559475
222.00895485443297
114.8390669681304
53.89510374915198
-2.247936114627788
-13.723221234969005
61.65805202539207
22.66954082909118
50.67706686952993
207.22267118628082
119.99955362116246
159.31615115766883
242.2954840978847
170.31226365066004
220.1309906789047
199.39262041106815
318.2797693913902
380.3376891084462
341.78766097510686
509.6895457205888
492.14561872263835
473.21711873006365
572.5907686349038
495.00616535667433
398.81773207506967
335.58114367913714
234.29843831213014
148.1923611362714
106.81496578911657
83.13850333585201
24.246838140680257
8.864494836172854
48.602559768654025
21.872841740560386
31.245741448100173
70.93394791101521
48.651214747639564
65.31390108247172
73.54414131493775
67.36109911135634
72.45813380122522
48.03066791668248
56.217029347819086
62.04311722787131
45.58603506082223
51.05770698665833
52.83602347866086
55.53079820944971
62.93011993949093
76.51884830781111
87.30225994389396
76.66933867219927
98.8965110734787
116.8314901875406
102.97139336362392
117.01295484778629
129.03013763178032
122.7540295520339
154.71438996813913
195.49631076835757
50.109668164080574
-119.83878888660556
24.204099915914277
266.3331113566547
304.21027445006007
192.88923418681213
102.41436481157554
61.83475809704242
54.569495171477946
74.64506757756644
39.27282001360903
11.145713155355454
58.91096067092233
94.54338696487977
139.150005669931
182.96336818669351
173.00163642681608
189.3250309032321
207.23414473647586
196.57455114385155
202.20306440388734
200.09864865329286
178.3368489514316
149.8863843437433
106.68853829407848
52.81175965669061
7.187801416159856
-62.59740995033448
-140.33301552797764
-220.05008509907657
-294.3170151023036
-316.68595631891156
-371.7341532194427
-352.72747204528235
-204.0595975905622
-112.46870236587235
42.11301386028102
134.1208676135028
41.11671678680211
62.50559691587824
31.47139158951704
-70.75601473909016
-49.40657393123291
-50.2693523153171
-23.985398002306464
31.097305527396745
5.1978992980576395
-20.187683904874234
-17.794137591524958
-71.73122733720521
-99.30408824728713
-61.651501837046666
-82.95138418146121
-96.97558510784802
-95.55894406816151
-132.0170493253117
-131.81760911130792
-134.38904444855888
-154.29918368504437
-147.14184497968006
-158.45871254964294
-179.48755924478183
-179.80331926280513
-193.22568640540422
-207.5838831234251
-208.8282528836964
-222.68593576686408
-232.20234880650355
-233.55737235860215
-240.8421625091953
-238.58248935785946
-230.2379471651851
-219.7715986383746
-202.37751489776286
-186.2150619838157
-152.56228095075483
-112.92196550955902
-73.69640609726417
10.983450402516896
90.9970801590772
111.30920746182764
70.91721457564192
-11.231509777807116
-59.12461896594571
-64.26340369621036
-54.05424523877764
-30.87208287827169
-4.875724755552801
14.245372692649886
18.291060756641528
15.101735352021104
8.389624393143745
6.546955964630823
11.2982644254301
13.083171334743124
21.880292372125645
31.89060393206714
31.690785912842674
34.86558710546582
41.00977471196438
43.925705654137026
48.155665947475526
54.296058622034934
63.75133476541929
76.95876849283242
93.25251431399992
106.39828733893852
118.56994108009694
137.7529276534009
161.74365368827398
191.37584717794186
223.1402923755592
248.63161763038676
268.32996304321773
294.4195095604131
331.3496187070036
367.56794460439914
396.39076541308054
406.04273036394096
397.6242312236334
386.3540238699998
369.8515304545099
345.9661612973012
308.19230184834004
257.90833966743963
211.40425006016562
178.8041039578413
156.15166588629995
135.64654596175947
113.71870791656413
90.15772237001255
75.2689545534198
51.48473079124692
37.41658099315398
49.99666915774767
49.31784556662593
55.02471108860448
71.04289535769635
79.264609109177
85.0637469161565
98.12843725641703
112.23327832487226
106.84236647039282
117.28087285350088
121.2579310858267
97.77967467520375
88.8516471109435
77.6146806027225
62.45189694895555
53.31266396800713
37.21888469991666
18.536765959718412
7.15848075647772
-0.36988599419921925
-12.758836080026123
-18.626840911592193
-19.04957144012247
-19.609801752264136
-12.661098722979713
-10.059605614966486
-12.923036412660647
-16.040298047217583
-24.54977722363588
-31.103610974695584
-39.767951007349865
-50.953871740597535
-57.08567234661693
-63.51225358417852
-67.62546728603749
-67.78225896868922
-67.09726730961125
-65.6371750316951
-62.623200442409754
-59.92457546878686
-58.428827890182426
-56.18149429810392
-55.67913253375756
-55.45560719434318
