AAD_Filtered_TADAS_FILE
AAD_BASELINE_CORRECTION: BASELINE REMOVED
AAD_FILTER_TYPE: BUTTERWORTH
AAD_FILTER_ORDER: 1
AAD_LOW_CUT_FREQUENCY_HZ: 0.025
AAD_HIGH_CUT_FREQUENCY_HZ: 40.0
EVENT_NAME: 202302061024
EVENT_ID: 13207
EVENT_DATE_YYYYMMDD: 2023/02/06
EVENT_TIME_HHMMSS: 10:24:47.00000
EVENT_LATITUDE_DEGREE: 38.089
EVENT_LONGITUDE_DEGREE: 37.239
EVENT_DEPTH_KM: 7.0
HYPOCENTER_REFERENCE: AFAD
MAGNITUDE_W: 7.6
MAGNITUDE_W_REFERENCE: AFAD
MAGNITUDE_L: 
MAGNITUDE_L_REFERENCE: 
FOCAL_MECHANISM: 
NETWORK: TK
STATION_CODE: 2103
STATION_NAME: 
STATION_LATITUDE_DEGREE: 37.94406
STATION_LONGITUDE_DEGREE: 40.31274
STATION_ELEVATION_M: 730.0
LOCATION: Kahramanmaras_Elbistan_Turkiye
SENSOR_DEPTH_M: 
VS30_M/S: None
SITE_CLASSIFICATION_EC8: unknown
MORPHOLOGIC_CLASSIFICATION: 
EPICENTRAL_DISTANCE_KM: 269.74
EARTHQUAKE_BACKAZIMUTH_DEGREE: 
DATE_TIME_FIRST_SAMPLE_YYYYMMDD_HHMMSS: 2023/02/06 10:25:10.9932700
DATE_TIME_FIRST_SAMPLE_PRECISION: millisecond
SAMPLING_INTERVAL_S: 0.01
NDATA: 18251
DURATION_S: 
STREAM: HNN
UNITS: cm/s^2
INSTRUMENT: sensor = GMS+/GEOSIG | digitizer = 
INSTRUMENT_ANALOG/DIGITAL: 
INSTRUMENTAL_FREQUENCY_HZ: 
INSTRUMENTAL_DAMPING: 
FULL_SCALE_G: 
N_BIT_DIGITAL_CONVERTER: 
PGA_CM/S^2: 19.863
TIME_PGA_S: 
BASELINE_CORRECTION: BASELINE REMOVED
FILTER_TYPE: BUTTERWORTH
FILTER_ORDER: 
LOW_CUT_FREQUENCY_HZ: 
HIGH_CUT_FREQUENCY_HZ: 
LATE/NORMAL_TRIGGERED: 
DATABASE_VERSION: 
HEADER_FORMAT: DYNA 1.2
DATA_TYPE: Acceleration
PROCESSING: Automatic Paolucci et al., 2011
DATA_TIMESTAMP_YYYYMMDD_HHMMSS: 
DATA_LICENSE: U (unknown license)
DATA_CITATION: Turkish Accelerometric Archive v 1.0 - Disaster And Emergency Management Presidency, Earthquake Department
DATA_CREATOR: AFAD
ORIGINAL_DATA_MEDIATOR_CITATION: : AFAD - Disaster And Emergency Management Presidency
ORIGINAL_DATA_MEDIATOR: AFAD PROCESS SERVICE
ORIGINAL_DATA_CREATOR_CITATION: AFAD PROCESS SERVICE
ORIGINAL_DATA_CREATOR: network: TK
USER1: GuestUser
USER2: 
USER3: 
USER4: 
[...]
-2.028115698153982
-2.1022479928058924
-2.1806512925650243
-2.1745999733133323
-2.077491358869674
-1.9571664043364585
-1.884985514299274
-1.9297611020694816
-2.0867882969162075
-2.3096021671300666
-2.5358567648693198
-2.6988902822625533
-2.7990510712495533
-2.8359187841440394
-2.7167887930622765
-2.4106046731870197
-1.9383052172795756
-1.308053734758096
-0.5742665695252072
0.34162296558841293
1.559699793228843
3.0283679962643357
4.606728087101565
6.086574414265661
7.286191885827569
8.131128975895626
8.53606183226965
8.469987775475133
8.042466882737303
7.377529607379108
6.648764958024527
6.06195075937479
5.675121999864289
5.471419044721004
5.411174556286295
5.3950916679018786
5.380101165460363
5.2903314585667225
5.056583339627712
4.766115357357126
4.441500872388211
4.124636527839449
3.8856990185210183
3.6310143871236877
3.3012779648629325
2.91232693252304
2.4740764950655265
2.0433215225061185
1.6859946234185075
1.374074519864186
1.1032857094355488
0.8661038707534174
0.5336278594781697
-0.00725381234933414
-0.8041339723833705
-1.7840039074262724
-2.7717521729108885
-3.5082343958368676
-3.7735397111794207
-3.5373896159059606
-2.8512470001087085
-1.8361743112352553
-0.6637659985480616
0.5232316009791418
1.6051646985506955
2.456796963576481
3.074174901912267
3.5488188702303463
3.9307303872511143
4.313045586372224
4.723247932515708
5.145335392052389
5.66755464627173
6.29416685487893
6.959275394441849
7.584225402013218
8.031593141764835
8.272150517084448
8.313609775155134
8.13018395997394
7.849162289202622
7.726201577379593
7.951465284281078
8.594556003075034
9.571672367768246
10.658166303995198
11.721925964616394
12.680888320780795
13.414602894958207
13.912556655881804
14.198094103276626
14.285318062262805
14.218077834914508
14.014607609379063
13.735121665961692
13.446754930806598
13.182986166710466
13.051345312535112
13.120275313798443
13.383102169390247
13.780647793009049
14.1348009511925
14.324239889620895
14.362067116757384
14.283517187692917
14.182043301281173
14.099324655166761
13.922620361957458
13.622491763146861
13.182264052357967
12.53472634301311
11.763337529834434
10.96310314771737
10.20216212893634
9.538644763739633
8.940603062032718
8.380238436801495
7.78793399184768
7.080628119649995
6.2859432505556985
5.444312095034751
4.590734446764325
3.773077880884587
2.9647591469305303
2.151844946635694
1.3645508403910456
0.5402301756135093
-0.366368269641869
-1.2515088819488855
-2.0159512271988103
-2.6154200218741765
-3.0016974064563633
-3.1786482364407718
-3.17419330248682
-3.0668500634246785
-2.971525196859787
-2.9473169791382343
-3.0010347707836256
-3.057318251927284
-3.077287723154424
-3.131743529110901
-3.2324071532484107
-3.3244206902905096
-3.456079204002549
-3.6383892180282675
-3.8046976330309827
-3.934663785172726
-3.8884358649903326
-3.56885235769265
-3.0775014540069945
-2.5396654602136635
-2.0855237406621265
-1.7458614081051962
-1.441464133934482
-1.1755001584580338
-0.9290254023070398
-0.6373674544025193
-0.2802281137716781
0.2112685858761791
0.8484116338108758
1.5612397455003495
2.326958095678066
3.1350893982557295
3.940506258672461
4.663101577557008
5.201364729290411
5.518792073244284
5.629572253556032
5.4899480680277515
5.07711232230336
4.415066901991668
3.547253708407456
2.6045062776379337
1.7252207417904253
0.9850345777782327
0.39609619470027885
-0.1374769002226077
-0.6195668312986921
-0.9962029932183841
-1.3566047587744117
-1.6993279032765256
-1.9716590809801662
-2.1790193366530994
-2.2653146682427243
-2.260143068181667
-2.27700615515423
-2.3517879641994726
-2.513912167094486
-2.8030704345227484
-3.2166071518249506
-3.7312807493232802
-4.2779458914278266
-4.781184099756846
-5.186577550981302
-5.38448475585901
-5.326329016840647
-5.06759478478882
-4.643633125635893
-4.175971068545118
-3.831959149094088
-3.679030264833805
-3.7374964745823807
-3.9708595542651564
-4.297142563493139
-4.6414291839314155
-4.932443242849305
-5.1693291268378845
-5.359116583570845
-5.458959753265292
-5.5564976875055265
-5.744518933566634
-6.000898189668193
-6.286369253425512
-6.520709899583954
-6.652943239003878
-6.636934513160258
-6.403820109065554
-5.972283923159319
-5.386588391451917
-4.679647650084108
-3.922789758944525
-3.12982359162041
-2.2444365057640137
-1.3109636883228069
-0.4603904620851461
0.20166777577941533
0.5481285367833862
0.547574466453093
0.2420797108978818
-0.32730968768553537
-1.0015618934521622
-1.6926014638721356
-2.3323192918139353
-2.7520936021109463
-2.9035885716298684
-2.8506195355383843
-2.671921886284704
-2.4394367970889164
-2.178035084459948
-1.9327417899767048
-1.740185665450576
-1.5718182175581201
-1.4736465824586127
-1.4246537267653114
-1.3068784225382408
-1.1383454108193642
-0.9730987738302709
-0.8402740218866475
-0.7802310046239388
-0.8102841052244505
-0.8898682642345739
-0.9246779186383233
-0.8718635551322749
-0.7255999563622049
-0.4146171312849645
0.046592651249164146
0.4726361224057567
0.7392120053494938
0.7968550048849199
0.6402578132161867
0.3594268685938309
-0.02959153196439584
-0.5374443637247852
-1.1408015502932969
-1.8614895786506505
-2.605054167846253
-3.262530178546154
-3.824680919537199
-4.254108288171242
-4.585232042467985
-4.88699207845378
-5.232554819601843
-5.737438481510923
-6.378964186195581
-7.09114249829418
-7.899722503944285
-8.729661849762062
-9.504254709520987
-10.267145980454965
-10.951886790802124
-11.49292005764555
-11.918046557685866
-12.184012485757634
-12.265186576381774
-12.204628187274402
-12.098337004245705
-12.089422302210656
-12.256725516694337
-12.623218212341488
-13.18125389553254
-13.82650251991599
-14.46486118917655
-15.037613083317963
-15.403331191629007
-15.480813508733256
-15.28205900845738
-14.815532237119356
-14.131837467638835
-13.241807072074549
-12.122788168255246
-10.769403888508727
-9.211983070496798
-7.582930045356108
-5.973592387029734
-4.395466982350484
-2.882015873954441
-1.4242981655499434
0.05693566120471869
1.580108718427822
3.111847751239479
4.603859016381726
5.981849389789329
7.239587557416862
8.305483734082506
9.08963028739495
9.628619148986067
9.934988272547976
10.112245702450204
10.31202680056676
10.512419980394801
10.679306765978668
10.826393243891111
10.947147764324749
11.07767598834036
11.240739790621856
11.413323004151838
11.60651929873298
11.827570210074613
12.095064031983329
12.427848127096247
12.716843776866243
12.860094092206484
12.863161442442935
12.706110739966478
12.397696493648237
12.003185726555364
11.588734369297766
11.234584915883394
11.027146395342362
11.0612431461259
11.337651548581837
11.775461332821214
12.346466990631345
13.007091375144057
13.715015969065082
14.506148472577944
15.34420189434008
16.132895150883645
16.82882685275402
17.31282428809982
17.477096204455524
17.34586731127666
16.928680607848946
16.270539955694844
15.42867926114135
14.407737687296557
13.2963025074711
12.163180173803582
10.967162016071121
9.692713135424922
8.40944364729808
7.215602092194962
6.1830797854991415
5.307069851226293
4.520480902403566
3.7610147593829724
2.9746642564567995
2.1905258563584926
1.4267147229934862
0.6312562413643783
-0.1603300807159843
-0.8846078965309334
-1.4856293881610099
-1.9388438755468065
-2.287653331929807
-2.5950738248246776
-2.949264144108487
-3.369940362503099
-3.764038798993422
-4.068832351911243
-4.286650187575998
-4.370665039217896
-4.263890397233498
-3.897399349767358
-3.2200604025988167
-2.350505821515263
-1.3807116437979543
-0.3329149545794999
0.7399364159255912
1.876661124562085
3.0836231511053573
4.268268209421491
5.421679579504828
6.622725743929439
7.831577003620435
8.907216210999222
9.753559412638317
10.298924324036285
10.51777883778803
10.447783623012471
10.169811635937407
9.72277862887116
9.166255803645084
8.63636177298058
8.180393344791645
7.803513207906979
7.458627663139735
7.047933448787261
6.551570610900379
5.950452405417662
5.2907805474296525
4.737491829491619
4.362421536756186
4.1758373517942315
4.204791943242533
4.334109650497941
4.426974057174376
4.439993458596807
4.279428979681754
3.8540521155834235
3.1560226071189703
2.2125060124584532
1.1098042579776652
-0.029439805555229244
-1.1620959286629207
-2.2509406882168954
-3.2505446136567238
-4.114664658857979
-4.76466409461126
-5.229285565322803
-5.58996734225924
-5.919770097111689
-6.260967300208379
-6.607513433274403
-6.978341498190557
-7.413336329206141
-7.949275698873198
-8.596216858426967
-9.285102377466513
-9.888913121719108
-10.45422374919176
-11.060501551485718
-11.64235334136451
-12.197628407709798
-12.644211486571159
-12.831514147119174
-12.7258313486145
-12.291704193736514
-11.553429102527947
-10.55932813664056
-9.351463521431077
-8.064719454951426
-6.705341547686823
-5.255629672825283
-3.871554062769077
-2.6327426522770865
-1.5585088062107804
-0.7011440841699698
-0.10486288272742357
0.16311312293628347
0.17085914034324012
0.057579632868117826
-0.09283264796947725
-0.1675759726859944
-0.20675481182336472
-0.32564613641155893
-0.5071721221693672
-0.7430194106741904
-1.0459074277380447
-1.4166543620848506
-1.8721219774887892
-2.3539633800094317
-2.8218382550573664
-3.314908062845233
-3.842196650451456
-4.553626518507551
-5.527308815290399
-6.62728249392133
-7.8320634900114126
-9.082968572660416
-10.291387047951444
-11.43135615885804
-12.42219295308315
-13.146965504673783
-13.535275662360347
-13.658206090360098
-13.61582492628905
-13.522416152085503
-13.47437958510527
-13.529565739844356
-13.6884838498223
-13.868729127216486
-14.03123595092056
-14.063852354550532
-13.874617454383747
-13.52061899076522
-13.068441146405586
-12.600841239711238
-12.201363913471258
-11.868313686265072
-11.567126496098574
-11.252996824665264
-10.819424313588733
-10.190161590878047
-9.35193716401794
-8.322771585677529
-7.144505130588657
-5.834029130083684
-4.453014911654319
-3.122705913944282
-1.8847784090530226
-0.7781670220587223
0.20842177728988415
1.1369307075800374
1.9440608212334674
2.636229670693929
3.208290479517039
3.600838922131091
3.837651189434592
3.8215776764817573
3.4876088108741516
2.911684451647784
2.083385720111548
1.0387829248151408
-0.1913613392997567
-1.6469399130051185
-3.1727208963203912
-4.601579989435736
-5.834164776672661
-6.727098166499272
-7.248684932038546
-7.460401115053503
-7.387951322236248
-7.141003606064948
-6.866602453091084
-6.616806061385991
-6.547889337650439
-6.706917282198821
-6.961650775002352
-7.2832997175250265
-7.627566951199327
-7.958928393908801
-8.351516781813118
-8.788061210150401
-9.198082942035771
-9.658827299150241
-10.190065089519251
-10.741604866280419
-11.192949909959614
-11.339535995552222
-11.147391846071985
-10.69435663401605
-10.200098726894899
-9.881391461982586
-9.760622438583319
-9.819863466900113
-10.023523443444827
-10.323722262586518
-10.610363885645947
-10.72002073967737
-10.507958510105476
-9.942149869752699
-9.157279836517658
-8.340091019369487
-7.627486499435446
-7.0463896462794615
-6.58867374602317
-6.27777347219721
-6.141395146003128
-6.090774708605263
-5.932395800566255
-5.651087542298283
-5.34537749264854
-5.061813236655869
-4.908929060588232
-4.915668695921985
-4.980722746396382
-5.12960942019678
-5.374624714623172
-5.599957388955657
-5.776768110316664
-5.910628879234218
-5.97333779915406
-6.048177128132277
-6.249905769071124
-6.550821304518154
-6.8033267172862395
-6.8978289163518145
-6.8494837611526656
-6.66052360222204
-6.345820943650115
-5.94376345105482
-5.444245504152255
-4.935125468617156
-4.594525327825381
-4.537391423083379
-4.778464465372817
-5.291319838746732
-6.022916447547446
-6.943868421835903
-8.012633885822583
-9.107739090593128
-10.143748265823916
-11.003385898444554
-11.57056388615863
-11.827812612741072
-11.725774377373568
-11.310582161779006
-10.707643365353812
-9.987061061346193
-9.300582233556392
-8.77707982493249
-8.443896972323673
-8.284717251026882
-8.238260089184289
-8.272136350186777
-8.343257476663334
-8.351967865704767
-8.248580169796297
-8.066072544702303
-7.819799905263628
-7.563040677743285
-7.4125412679726095
-7.404687795456168
-7.4990860264018036
-7.550078424617315
-7.413177679008913
-7.087654774093093
-6.51946581203315
-5.676713228472069
-4.617807181773319
-3.38585593168955
-2.136080104959191
-1.0182437693974686
-0.05129316132076245
0.7824056954021604
1.5129961483023417
2.144399643973174
2.634690029022955
3.0131642440675384
3.3502249568764797
3.672474327335354
4.046165058316393
4.471380118603136
4.920720073327934
5.513670227545262
6.327457334965164
7.3064155349033575
8.419288361566124
9.60563076524127
10.811951468130198
12.04875038935368
13.26946960804626
14.477642438777174
15.664644746661109
16.763983272487028
17.781269781283967
18.71698045909207
19.523844780215523
20.117855535659373
20.429576688155787
20.444827736889835
20.190136513286006
19.734161711804546
19.09105643198828
18.19273955341913
17.04269584696312
15.713030004216012
14.259393154350045
12.793479545423573
11.44191271949597
10.211348788720228
9.133188795066463
8.233425678996179
7.469418890223028
6.917392638780754
6.568452302078198
6.3954854679676085
6.48141905213834
6.745849663494298
7.060541893398969
7.287992544973762
7.271050141110844
6.989499805342302
6.459736018885925
5.678123685823798
4.684531339302695
3.551865261333434
2.3376238890789094
1.0844718182004285
-0.1819742656828617
-1.4833311601289259
-2.8526086596655293
-4.222111922042304
-5.467167152367534
-6.553502364808068
-7.455425173506207
-8.174682166240414
-8.8275946636598
-9.488402484037007
-10.162242820884332
-10.931900004038578
-11.747014359119953
-12.364461266868124
-12.738080737274197
-12.833143853417125
-12.54335685140483
-11.9703188058177
-11.179419341456637
-10.143799834203971
-8.945101080706088
-7.70168306468722
-6.4984528844475395
-5.405778753279327
-4.419354939627257
-3.4362947967232764
-2.399776141216155
-1.2698530554516427
0.0836132522363744
1.6662122372145012
3.288224685082995
4.7905377596820315
6.098580644666815
7.094772718520498
7.7017088569944
7.940082139803794
7.776142570849839
7.289725577737716
6.666517954693479
6.044205060531435
5.585929917621701
5.3358938408503835
5.265050399493776
5.362665866746692
5.520942061871411
5.647015120941278
5.766241359499811
5.839879288055228
5.833659651310816
5.809285123321758
5.68741677464607
5.442798387710453
5.101691146125089
4.610411217792008
4.0401126308533
3.4055446675243974
2.5784672547491216
1.5203145856425366
0.3113986194944718
-1.0237145108369716
-2.405912785108924
-3.7124950802258248
-4.854188584176707
-5.657335794052549
-6.084281207562465
-6.193859980674544
-6.133441755152921
-6.155697993038113
-6.266939001691732
-6.412213238336138
-6.5286675511453005
-6.419678455780699
-6.04430449602881
-5.427916464319717
-4.599330482052439
-3.6382475445079674
-2.567345488300155
-1.490169832515612
-0.5678444289348511
0.14948334533535973
0.6076646730743489
0.746875603718744
0.5971189246556419
0.16576596253328243
-0.47208527742029915
-1.1701528056869066
-1.8167429286179926
-2.3196704600378806
-2.7310536645349415
-3.221128568939508
-3.8685062097052865
-4.669868716710399
-5.593621350170033
-6.520737519796797
-7.413771998246599
-8.260106715344438
-8.960071907681945
-9.482211931923382
-9.808851689147833
-9.95022667431831
-9.98562729096777
-9.875766337386095
-9.472658915096838
-8.746059361330609
-7.729749482831428
-6.51872280088024
-5.190923986232673
-3.6979801023796948
-2.1005407704915795
-0.4779306331639249
1.0908056427711397
2.525100995485388
3.842145747741
4.977438293596485
5.839988143001862
6.397753168476253
6.610536101017276
6.468835077624507
6.074526999282097
5.513359486115012
4.844792474366418
4.156796199470204
3.438577449430144
2.7227348553254616
2.062046191748997
1.3711533982581927
0.6061477445782425
-0.19635732430662647
-1.0031659921655607
-1.7096706676462592
-2.2511557845156633
-2.622519889243743
-2.785026816225711
-2.785321790485473
-2.6365124668071114
-2.3883226305593337
-2.217514999821818
-2.156278976307589
-2.1568318228252896
-2.196498363487202
-2.2359691226265404
-2.303464690339811
-2.4754809040021293
-2.7787031423584803
-3.201797093359678
-3.65913297472039
-4.03977980123711
-4.309612939730122
-4.396118131908705
-4.255490535131895
-3.9528668576680674
-3.5840385067508835
-3.287567088786118
-3.1276210420678923
-3.080452884106018
-3.130049830930193
-3.264144412953974
-3.5244343508322653
-3.9479997371253535
-4.459952359483896
-5.003529582837646
-5.602035777171078
-6.170603173853621
-6.6738897242495945
-7.188020076909169
-7.691107471480798
-8.205866706575337
-8.701518159147849
-9.07855123732745
-9.330833708230431
-9.39183039034686
-9.202174259441644
-8.819101150493887
-8.374433563360952
-7.980168474585856
-7.685036846144913
-7.49596021744767
-7.367825161964099
-7.267195344699547
-7.150660920553179
-6.99115603377655
-6.790986594568697
-6.55593339967722
-6.38913972188292
-6.372012297749144
-6.4867016022589885
-6.697690001989032
-6.897022697017391
-7.044206058410418
-7.189933065082398
-7.297064130764086
-7.373801341971179
-7.401741734236795
-7.309244027634562
-7.1700566954229865
-7.069049723612723
-7.071913602445907
-7.208086136739534
-7.4021297713825716
-7.617031078955695
-7.856867894154348
-8.112257360013205
-8.421831709590817
-8.788349621440037
-9.144438440937552
-9.498912704648891
-9.789689503208491
-9.916430180668902
-9.856682409874333
-9.526886574231172
-8.979776189373096
-8.347756512098535
-7.679688766838116
-7.075425600888458
-6.617860849241416
-6.2948621192823255
-6.061924522301318
-5.849181479524692
-5.57553437575437
-5.229662417566172
-4.775171837368669
-4.22299004320264
-3.664779937409225
-3.0852915249102226
-2.5262257271700244
-2.051756120338629
-1.604752604026032
-1.1395506279892034
-0.6318029885546798
-0.10143810705368243
0.37698075392150027
0.7682154357556915
1.0868662704292187
1.312356345420408
1.3901248690984223
1.2767514283563712
1.0216128357330185
0.7915593080341865
0.6980089357461411
0.7582379813192353
0.8678707294567672
0.9564299288244426
1.1191749960061457
1.3656797519047867
1.6391500668965395
1.9045294630341651
2.098154616797764
2.2222016238603346
2.3470501198302753
2.4792280725228513
2.6257824107025063
2.74880866566723
2.7146124643338534
2.562947798563405
2.4186736157576774
2.3468104089916784
2.358401325427922
2.3641646361584714
