AAD_Filtered_TADAS_FILE
AAD_BASELINE_CORRECTION: BASELINE REMOVED
AAD_FILTER_TYPE: BUTTERWORTH
AAD_FILTER_ORDER: 1
AAD_LOW_CUT_FREQUENCY_HZ: 0.025
AAD_HIGH_CUT_FREQUENCY_HZ: 40.0
EVENT_NAME: 202302060117
EVENT_ID: 13194
EVENT_DATE_YYYYMMDD: 2023/02/06
EVENT_TIME_HHMMSS: 01:17:32.00000
EVENT_LATITUDE_DEGREE: 37.288
EVENT_LONGITUDE_DEGREE: 37.043
EVENT_DEPTH_KM: 8.6
HYPOCENTER_REFERENCE: AFAD
MAGNITUDE_W: 7.7
MAGNITUDE_W_REFERENCE: AFAD
MAGNITUDE_L: 
MAGNITUDE_L_REFERENCE: 
FOCAL_MECHANISM: 
NETWORK: TK
STATION_CODE: 4410
STATION_NAME: 
STATION_LATITUDE_DEGREE: 38.86677
STATION_LONGITUDE_DEGREE: 37.679
STATION_ELEVATION_M: 1243.0
LOCATION: Kahramanmaras_Pazarck_Turkiye
SENSOR_DEPTH_M: 
VS30_M/S: None
SITE_CLASSIFICATION_EC8: unknown
MORPHOLOGIC_CLASSIFICATION: 
EPICENTRAL_DISTANCE_KM: 184.16
EARTHQUAKE_BACKAZIMUTH_DEGREE: 
DATE_TIME_FIRST_SAMPLE_YYYYMMDD_HHMMSS: 2023/02/06 01:17:43.7646880
DATE_TIME_FIRST_SAMPLE_PRECISION: millisecond
SAMPLING_INTERVAL_S: 0.01
NDATA: 13501
DURATION_S: 
STREAM: HNE
UNITS: cm/s^2
INSTRUMENT: sensor = ACEBOX/SARA | digitizer = 
INSTRUMENT_ANALOG/DIGITAL: 
INSTRUMENTAL_FREQUENCY_HZ: 
INSTRUMENTAL_DAMPING: 
FULL_SCALE_G: 
N_BIT_DIGITAL_CONVERTER: 
PGA_CM/S^2: 45.496
TIME_PGA_S: 
BASELINE_CORRECTION: BASELINE REMOVED
FILTER_TYPE: BUTTERWORTH
FILTER_ORDER: 
LOW_CUT_FREQUENCY_HZ: 
HIGH_CUT_FREQUENCY_HZ: 
LATE/NORMAL_TRIGGERED: 
DATABASE_VERSION: 
HEADER_FORMAT: DYNA 1.2
DATA_TYPE: Acceleration
PROCESSING: Automatic Paolucci et al., 2011
DATA_TIMESTAMP_YYYYMMDD_HHMMSS: 
DATA_LICENSE: U (unknown license)
DATA_CITATION: Turkish Accelerometric Archive v 1.0 - Disaster And Emergency Management Presidency, Earthquake Department
DATA_CREATOR: AFAD
ORIGINAL_DATA_MEDIATOR_CITATION: : AFAD - Disaster And Emergency Management Presidency
ORIGINAL_DATA_MEDIATOR: AFAD PROCESS SERVICE
ORIGINAL_DATA_CREATOR_CITATION: AFAD PROCESS SERVICE
ORIGINAL_DATA_CREATOR: network: TK
USER1: GuestUser
USER2: 
USER3: 
USER4: 
[...]
1.793327091188801
1.2491511342390667
0.5052379567879626
-0.047165859038346324
0.011673501393905493
0.7860432478105269
2.070967097825178
3.41010373976115
4.17200038568804
4.0952622100878004
3.6082455485895277
3.2241585880448977
3.008541626293732
2.872822871533164
2.9357430612469613
3.44399498344537
4.333320571325289
5.108219923026736
5.458225233134361
5.391627594028643
4.903258140304035
4.085976561429633
3.1183577388850123
2.1716432985941707
1.3272868153248731
0.5709574877752637
0.2347403109910098
0.6531111984307092
1.4794289602157136
2.1957916086179115
2.5173965983443685
2.184591384935351
1.093080440455931
-0.5023237265349914
-2.170462635528685
-3.742815828492042
-5.32347343758313
-6.815570907431079
-7.954329537121261
-8.715820351345865
-9.249420691363547
-9.55465398085326
-9.430212001439218
-8.835762956893406
-8.194295304675347
-7.869406294872994
-7.630473606279833
-7.1177347865059595
-6.23898693984667
-4.933004166322182
-3.1996625873293354
-1.3160196103472992
0.3412394617113488
1.538510240981748
2.192000531175628
2.315279209649569
1.9536663630949778
1.243975986817584
0.5551479910410551
0.25711989757984255
0.5085925583042351
1.3753353529073145
2.658089527186275
3.7008523698482687
3.7199383122623333
2.22628872919313
-0.7806872031253487
-4.790283632127374
-8.95220885470084
-12.449096281917925
-14.889636047499742
-16.463688924087215
-17.67210147280179
-18.708254005096073
-19.203700067509757
-18.795303270563924
-17.863501489478608
-17.379599206546935
-17.872983086961327
-19.220608790513268
-21.228380143330707
-23.431598863393273
-25.152471091409918
-26.1354834107671
-26.416213750430984
-26.167629243070646
-25.719024439232452
-25.23071248450686
-24.649478821799043
-23.897326739319638
-23.142527751756457
-22.787995136730938
-23.03771194769378
-23.789686356636313
-24.73502574321752
-25.508899904715562
-25.735231153566076
-25.135546357852167
-23.82661268096987
-21.94982596583248
-19.539727684766937
-16.71562694362392
-13.802619670670213
-11.541305197546391
-9.840607395026874
-8.215594307043544
-7.219710278268152
-6.036746780904665
-3.2875486202188036
-0.4153624186706475
0.9010538093693957
0.666639956518357
-0.5876965745039108
-1.5776805580413313
-1.4826124257231574
-0.7629782142046307
0.40091384701827854
2.1684775248232344
4.460388980264956
7.393337556212866
10.789545449104937
13.64021515752097
15.332976215952998
16.38637069861619
17.45768379832499
18.737778033701865
20.1386206210065
21.535400752412993
22.849111602953666
23.84079673558061
24.223085349445622
23.948698204704016
23.22504757714493
22.43990276029511
21.783999055733354
21.128116647561285
20.4549092161098
19.788933122718323
18.99512387741073
18.079690443683837
17.195829259682824
16.415100732933325
15.721854586969634
15.115907305558144
14.791477991628556
15.019986730052496
15.80846393099279
16.865444775345594
17.655172709990655
17.501639462204036
15.961179781491873
13.205740889783034
10.170039262719678
8.156087398722144
7.86196745610858
8.815563616082898
10.02082029158717
10.868637628449644
11.15873817003999
10.91176245596409
10.59497335354566
10.930237473173301
12.121508222616704
13.631521293058565
14.84642548632147
15.535588230299934
15.517223540915401
14.568911719226767
12.935756946738199
10.985860939668255
8.623246694100402
5.943902955498188
3.455961060994296
1.6547960612466959
0.891906163683929
0.7915700533137153
0.7352701918300935
0.7960230842660962
1.0157747863499351
1.2324472556616681
1.294987408853542
0.824193744041278
-0.2782133406456036
-2.014719880974905
-4.437048537200097
-6.956139811796323
-8.83158720750048
-9.840276175300433
-10.28482604905983
-10.661811029549314
-11.194646243597688
-12.295915040446292
-14.399530011704616
-16.96785420655449
-19.033835640712034
-20.156871811589696
-20.43699566203835
-20.170090325378816
-19.660724119315663
-19.261758347474345
-19.042134514146237
-18.771154586952385
-18.34847200414219
-17.797436303484723
-17.27312413900329
-16.765914456189147
-16.15827633213384
-15.732235438655808
-15.218911220036258
-13.846888407001169
-11.896928747898336
-10.034054159205624
-8.47236198753003
-7.554060440915549
-7.251553416628736
-6.897777027226836
-6.059155566719666
-4.54044625361217
-2.2023659732400533
0.7114339172267364
3.8646429004621097
6.800103645631054
8.804012942214642
9.962947834632326
11.117670032594681
12.572114802641144
14.066084044239679
15.241562375615981
15.844912010470646
15.770875893447803
14.877784460506717
13.275068523459373
11.392830240013838
9.50113418384576
7.694560321423773
6.200085011892029
5.3376463270229095
5.069309760879322
4.9288884835964435
4.446005478276796
3.337811553144698
1.6007919896074612
-0.5790818202314371
-2.942817894363476
-5.056498272312841
-6.559085180933508
-7.260540889059526
-7.004584891656105
-5.925864424978341
-4.488304786273648
-3.329217198456384
-3.1277819277421943
-3.9819673730511633
-5.0672333870925215
-5.526653917477375
-5.526447276021511
-5.904405623585464
-6.972825684972412
-8.27058794267925
-9.48003572377
-10.925860690979393
-12.887482483564007
-15.144520622224592
-17.383351715072674
-19.424748643386025
-21.030909061679452
-21.935481099766122
-22.21015360709747
-22.06138031482443
-21.482341958282813
-20.634298598506852
-19.998072039084708
-20.000521303199864
-20.14319850018146
-19.324385284552577
-17.822883991584604
-16.34411079363352
-14.541272520158318
-12.75620081939539
-11.52216807471079
-10.293872193234309
-9.008962387859265
-7.911072996001374
-6.51364906627883
-4.4853588975643
-2.0249372170330915
0.4155176525778326
2.2634118169539756
3.386164224006884
4.02150166869093
3.876692218081919
2.5330301222177494
0.5954782194139422
-0.7765911757417081
-0.801424576671178
0.8175058049166981
3.799067680830293
7.431247468173179
11.09181339401582
14.458753083605316
17.16324762153994
18.429636719613836
17.765762886470846
15.876692736615967
13.973434787928682
12.608471988052635
11.828279300299135
11.590553931093885
11.649416789489896
11.76593196312573
11.936617174402398
12.06859225733497
11.893347922275666
11.42771455504945
11.289672654049427
12.255056420216544
14.295449590542477
16.51915807983084
18.428878180046212
20.50185857365598
23.055264011145844
25.31986011033655
26.1827567895558
25.31403354788642
23.22803475884522
20.702467680873603
18.229371612632065
15.859248156608738
13.577105962899674
11.481177818144356
9.765481993747565
8.739045789843448
8.495259107392489
8.657122851171623
8.14305818967379
5.585871067631021
0.9690019914089336
-4.330209962622555
-9.088052788158151
-12.683463671678894
-15.248984653598521
-17.471241165655297
-19.528970445880244
-21.030644853110154
-21.679394115572926
-21.444633151447707
-20.448405705240894
-18.79798192496781
-16.68072125553258
-14.355495389303568
-11.787965635384996
-8.727240465477934
-5.1569438370858025
-1.4793339557222567
1.68442209879991
3.9492205059895413
5.378831938594438
6.304842949184608
6.970534438884932
7.166219964166406
6.589818108148055
5.663590915155711
5.225357897244166
5.4425385187026265
5.772939295154455
5.880449568649236
5.826306246159869
5.41839443523725
4.218101705902612
2.3318512651102057
0.5707144024648353
-0.46971901580189507
-0.9778247989086508
-1.2685428341142215
-1.4411061188431418
-1.9456251756980398
-3.395700301278439
-5.62271418131626
-7.566970677066144
-8.324290049629571
-7.965630422429869
-7.08604840081339
-6.254614338476608
-6.077128431395211
-6.9890308211282495
-8.891155477530427
-11.145598288695092
-12.985752160720544
-14.173245226115117
-15.163609538346646
-16.41728619242733
-17.805659447532527
-19.143052573437448
-20.61271250964288
-22.060121458810265
-23.03928107313631
-23.521172207342115
-23.34855908914007
-21.775008723785376
-18.421440364726497
-13.996252379599438
-9.589185121555287
-5.747479296414216
-2.4724211485419807
0.3972268611559007
2.858551531927179
4.701857404446491
5.813933491635238
6.16344295828838
5.836374611596927
5.246106241189067
4.733242701794871
4.2751649681329305
3.7474601501544984
3.1264475657147304
2.6398853114223066
2.778437204465718
4.000363704533346
6.190499371396849
8.395888393920352
9.558081258181641
9.306631360388577
7.709655675304421
4.864260139361244
1.2290776235348349
-2.2035892466257136
-4.738103350310826
-6.451899439828759
-7.591109281226374
-8.198574289701899
-8.114279291969847
-7.145608229456259
-5.599816108821729
-4.257359096275746
-3.7404959276365637
-4.2006146534327895
-5.418042432209457
-6.74969786637998
-7.076833733597173
-5.799113689745898
-3.5755041498691864
-1.430119986750682
-0.005858659961673135
0.6242101558913908
0.6797053214632784
-0.12480644229329782
-1.7567588807998447
-3.09032393455303
-3.4889996324797163
-3.4137675215116103
-3.3317708503992254
-3.3906054242939505
-3.640262352121371
-4.133516100515296
-4.873283693488277
-5.833866957687055
-7.091471970561852
-8.462037365595346
-9.196845811955896
-8.667869284451289
-7.277185719260839
-6.008999166338132
-5.267168327236575
-4.987732529806823
-4.973579608105565
-4.639390381693038
-3.6531433183476962
-2.4037231845644156
-1.2602366717711129
-0.08339987670722593
1.4224998521326384
3.016894687101764
4.02782631366568
4.2287960211708215
3.8256091634717553
2.7829313700869758
0.8227509576756066
-1.9921438380034626
-5.065806195738319
-7.92634944841502
-10.609512522493391
-12.986619358023544
-14.571340147140244
-15.353112320057393
-15.898579607711884
-16.819331155388923
-18.389634829657016
-20.19513956084118
-21.703584833817384
-22.59752989230227
-22.639556952358234
-22.565574587065964
-23.106251770506677
-23.315613050291475
-22.22365050118089
-20.163260448683438
-18.204338164805428
-17.505710623638432
-17.923884979644452
-18.05916645358388
-17.19632592761968
-15.509408076065686
-12.962998954511624
-9.397095151068136
-5.182395263051431
-1.1342741674758101
2.1897634085992217
4.96243781227999
7.44091870467421
9.133613746070898
9.63743034823161
9.739116851684768
10.548703973435805
12.344190654869044
15.034946853724724
18.470606587900324
21.9137985015992
24.660070555567952
26.762650595773984
28.441468839861564
29.810351223691644
30.919013949271044
31.678777291978793
32.08107449422417
31.903799276867524
30.63771564678053
28.18497642773733
24.9626600374698
21.580676202517985
18.6979087491476
16.830388080281562
16.120470206369504
16.180885328135062
16.333661041920692
16.234192342317257
16.155134689910238
16.379427193090734
16.50006358273499
15.735143077201702
13.577972747788012
9.995908115600567
5.432510119134641
0.6423756904468012
-3.5121671333772655
-6.510594038455147
-8.99826117546511
-12.312719485259372
-16.602051675993835
-20.50466884640238
-22.86632894529419
-23.866419497165804
-24.381026426533328
-24.872196481824115
-25.46564377713847
-26.395397142853117
-27.589260435203787
-28.644220989843426
-29.37159812164964
-29.882402873757858
-30.284345211383776
-30.366665806366413
-29.947917729909175
-29.29596669500924
-28.62924849176378
-28.01641241270871
-27.752186160611146
-27.927105042600935
-28.186893070015447
-28.14385435049164
-27.54706399441394
-26.325991597338604
-24.609860036085333
-22.806383057088606
-21.564941946892766
-21.15248760133077
-21.1604348287406
-20.829543881154446
-19.5568905172972
-17.67759161089874
-16.238569699040077
-15.69779986920182
-15.58906599371482
-15.25083238636481
-14.521881235860873
-13.770097640492034
-13.220749315680777
-12.598149491069472
-11.450675852197149
-9.535572767085915
-7.041770030469354
-4.441691364857357
-1.9109910130772896
0.8248093785795317
4.0291206249521645
7.6077912513843415
10.98478254063249
13.491718397362993
15.149253769072107
16.54547529283615
18.072685606201805
19.72681869552787
21.12873445773863
21.75322705880621
21.608585849920438
21.14915574781549
20.680546269813355
20.486290112299915
20.591018503981367
20.48737576379851
20.016807124056
19.37878902430438
18.273535148331323
16.428729533776355
14.368160650619492
12.914909166231649
12.225796428356121
11.672414367560641
10.853459524305524
10.057755588326124
9.662999837209103
9.856723814246932
10.630690752211203
11.733423817141393
12.905831501080387
13.884666331235845
14.041387373925282
12.529993833438798
9.004506297756437
3.898875269531118
-1.8535292986268537
-7.1263711066135285
-10.95089601619926
-12.639021757639506
-11.894304738557121
-9.15453562362562
-5.469384782489698
-2.3082932615178264
-1.058479402479437
-1.7132287700682642
-2.9345645328111365
-3.7211535354214935
-4.282923529030593
-5.473855324466741
-7.462866557198954
-9.37936635165956
-10.146680852747341
-8.817356619536831
-5.053232350917676
0.3620295200249993
6.285477158700125
12.035384538289566
17.547429200205634
23.064737768393456
28.570172232824753
33.7920858629673
38.226160075600305
41.175283709924784
42.632094239566555
43.431465071905
44.073913894153264
44.41902325595038
44.49975728712522
44.739961933510195
45.404260871405725
45.90933540097136
45.193809890973846
43.235842653819695
40.62913421134592
37.34029214416386
33.88803134085798
31.411256045051232
29.98959888113278
28.8406461688291
27.060028412750366
24.365144293997812
21.76702716432868
20.296618695477143
20.073810800412495
20.698562221106013
21.299764122689734
21.03983917293582
19.502776358789465
16.59860942101842
12.781396765878966
8.465883083659442
3.7939704546170967
-0.4821237841910653
-3.5655850466118526
-5.7339535047450525
-7.707239873486051
-9.62181082446564
-11.040424199987642
-11.700599395031947
-12.155026354234224
-13.18631986651023
-14.51944743916587
-15.151542018476746
-14.75397170229281
-13.747238118001198
-12.896606080364714
-12.898655104323725
-13.466784692799234
-13.717126372543513
-13.220476711629905
-11.891441488796975
-9.890220099354108
-7.572864848998195
-4.969087695002675
-2.0422394205526118
0.7119676621890974
2.7097982326157086
3.9377629991455354
4.6939313305669135
4.993782844591389
4.650654538420749
3.885319897903039
3.307585705958144
3.3099894460498653
4.063979002027436
5.6713911802868875
7.829062659280674
9.870026549798917
11.27087698924415
12.157343620431204
13.331860019214359
15.329303971530457
17.67556668290058
19.26646246066126
19.298091160685633
18.084560088951616
16.505469707538094
14.762096316330474
12.654248360532794
10.398866085882116
8.452929671917689
6.866173444830782
5.143549901743635
3.033311296521075
1.0853367987038172
0.3060504074971848
1.17476518464711
2.7731835113403096
3.9362452985642653
4.764042160041617
5.711876515989361
6.69217672286617
7.6656347021253985
8.728614614279298
9.488200644187566
9.146278037013357
7.475954399336714
5.18810561551927
3.0317288460696274
0.8289473906912707
-1.8768739798920266
-4.328579959764198
-5.463661154677263
-5.485744874759985
-4.603051816571102
-2.3803083344165756
0.5560645783252963
2.4760869415294016
2.555603480360257
1.6224506121671196
0.8151775533513053
0.3563365558147848
0.058565677355690994
0.09206365301012553
0.22806395729676054
-0.5329045067059655
-2.2375250581651196
-3.3878618113818284
-2.992871711254407
-1.584181830382969
-0.05120058861674325
1.268573958881299
2.278877675067645
2.6571325676337385
2.4729478118049206
2.583331377950008
3.12471417359382
2.817139376792859
0.8336285442419004
-2.0762928521050834
-4.578917655023835
-5.693683492929385
-5.07695320112584
-3.161167836913538
-0.8455881309587775
1.041113495113126
1.9382354304419807
1.6708826805683175
0.5767573700334658
-0.7729102841490323
-2.072661332385235
-3.378668302108036
-4.626376511479199
-5.3653887844515635
-5.253358289831957
-4.437477897409863
-3.422801576653509
-2.8216408159223025
-2.8376216192837322
-3.0437215281945686
-3.0450789425814078
-2.8911487582934794
-2.8056189632940924
-2.7544584705832054
-2.180710426645201
-0.8985322113218106
0.3217190221363872
0.8976353716241877
0.8363009365984957
0.4061374014336032
0.024008436308686616
-0.19647907877035337
-0.2859710913483074
-0.4531531021137292
-0.6774204985154529
0.24537718101925138
2.8051500454613465
5.751468997524521
8.17098932708545
9.60467102726466
9.549224873851903
8.026054696467536
5.2164431835443885
1.6036700697170452
-1.5651213032348337
-3.1956022321194792
-3.200911384930952
-2.0803418219938306
-0.18893116372411733
2.3711242190256256
5.167904555070242
6.9665244754275415
6.975457013222887
6.150957978117395
5.7259679043432445
5.790802549482956
6.0941622254736645
6.709314038201938
7.911980513995465
9.8813270875274
12.522484417632354
15.524475940692538
18.073628101321994
19.069809160574923
18.199896572184624
16.009864339397417
13.021394751259894
9.671884711266742
6.802065314244842
5.309377641503401
5.364435796380222
6.243551303321995
6.75512871085518
6.13051104213789
4.63366802018051
3.1607015667492067
2.6126594363534896
3.166270097098831
3.8582550935479873
3.726116701302694
2.9246285168435726
2.175692543705709
1.9153264054912187
2.0396745326723997
1.9153587911185312
0.8216271141862989
-1.283756645745706
-3.5177599731327507
-4.775524471702287
-4.718509846027833
-3.9378168367734814
-2.969385491495977
-1.3711187060563006
1.48947271918304
4.974739902693347
7.726893150593138
9.065303041810532
8.91409916775912
7.660681012502585
6.299224922943079
5.666756057923227
5.76987729894049
6.081855765210834
6.419847168643037
7.341445104728471
9.35561842500895
11.927259730852468
13.508162431670689
13.004795471370633
10.782632831900674
7.552907463374027
3.5844628562806724
-0.707996823693994
-4.616010201096278
-7.475315895368515
-9.048668093797883
-9.69906360144459
-9.858482098835106
-9.689493334818247
-9.562530185149305
-9.927134077610813
-10.277550924421478
-9.504503221863573
-7.467968091625988
-5.042758283040569
-3.0937587689746993
-2.1686105037986056
-2.430253294789283
-3.5457770353621543
-4.918700854337992
-5.871792590280164
-5.960592249690031
-5.629372221084064
-5.765412362984071
-6.42938161222485
-7.0119958818311465
-7.105386979780405
-6.711101055740623
-6.470171889122154
-7.3185299283014515
-9.315317127988276
-11.419214832743403
-12.327107469607498
-11.599704047926528
-10.378100757898197
-10.193863834675247
-11.277549108735354
-12.775482713899601
-13.900142374574033
-14.694737675733252
-15.800254682065546
-17.336676819143193
-18.4494691895556
-18.25371950074805
-17.0741592792943
-16.216414614021748
-16.562141584547042
-17.66366033357547
-18.43323985475739
-18.738480517826606
-18.941252727859833
-19.289116165177383
-20.83611730704152
-23.5149409515236
-25.099204438782454
-24.510030285533016
