AAD_Filtered_TADAS_FILE
AAD_BASELINE_CORRECTION: BASELINE REMOVED
AAD_FILTER_TYPE: BUTTERWORTH
AAD_FILTER_ORDER: 1
AAD_LOW_CUT_FREQUENCY_HZ: 0.025
AAD_HIGH_CUT_FREQUENCY_HZ: 40.0
EVENT_NAME: 202302061024
EVENT_ID: 13207
EVENT_DATE_YYYYMMDD: 2023/02/06
EVENT_TIME_HHMMSS: 10:24:47.00000
EVENT_LATITUDE_DEGREE: 38.089
EVENT_LONGITUDE_DEGREE: 37.239
EVENT_DEPTH_KM: 7.0
HYPOCENTER_REFERENCE: AFAD
MAGNITUDE_W: 7.6
MAGNITUDE_W_REFERENCE: AFAD
MAGNITUDE_L: 
MAGNITUDE_L_REFERENCE: 
FOCAL_MECHANISM: 
NETWORK: TK
STATION_CODE: 0132
STATION_NAME: 
STATION_LATITUDE_DEGREE: 37.855892
STATION_LONGITUDE_DEGREE: 36.114868
STATION_ELEVATION_M: 761.0
LOCATION: Kahramanmaras_Elbistan_Turkiye
SENSOR_DEPTH_M: 
VS30_M/S: None
SITE_CLASSIFICATION_EC8: unknown
MORPHOLOGIC_CLASSIFICATION: 
EPICENTRAL_DISTANCE_KM: 101.89
EARTHQUAKE_BACKAZIMUTH_DEGREE: 
DATE_TIME_FIRST_SAMPLE_YYYYMMDD_HHMMSS: 2023/02/06 10:24:44.5985200
DATE_TIME_FIRST_SAMPLE_PRECISION: millisecond
SAMPLING_INTERVAL_S: 0.01
NDATA: 12501
DURATION_S: 
STREAM: HNE
UNITS: cm/s^2
INSTRUMENT: sensor = ACEBOX/SARA | digitizer = 
INSTRUMENT_ANALOG/DIGITAL: 
INSTRUMENTAL_FREQUENCY_HZ: 
INSTRUMENTAL_DAMPING: 
FULL_SCALE_G: 
N_BIT_DIGITAL_CONVERTER: 
PGA_CM/S^2: 59.362
TIME_PGA_S: 
BASELINE_CORRECTION: BASELINE REMOVED
FILTER_TYPE: BUTTERWORTH
FILTER_ORDER: 
LOW_CUT_FREQUENCY_HZ: 
HIGH_CUT_FREQUENCY_HZ: 
LATE/NORMAL_TRIGGERED: 
DATABASE_VERSION: 
HEADER_FORMAT: DYNA 1.2
DATA_TYPE: Acceleration
PROCESSING: Automatic Paolucci et al., 2011
DATA_TIMESTAMP_YYYYMMDD_HHMMSS: 
DATA_LICENSE: U (unknown license)
DATA_CITATION: Turkish Accelerometric Archive v 1.0 - Disaster And Emergency Management Presidency, Earthquake Department
DATA_CREATOR: AFAD
ORIGINAL_DATA_MEDIATOR_CITATION: : AFAD - Disaster And Emergency Management Presidency
ORIGINAL_DATA_MEDIATOR: AFAD PROCESS SERVICE
ORIGINAL_DATA_CREATOR_CITATION: AFAD PROCESS SERVICE
ORIGINAL_DATA_CREATOR: network: TK
USER1: GuestUser
USER2: 
USER3: 
USER4: 
[...]
5.528394207661097
6.069058631429922
3.1675165606785476
-3.400001694825613
-6.285944797329049
-0.030107048095325037
5.938524546569513
6.147172876981812
6.198788463794483
7.276233885327682
8.851378468418963
10.757804947039375
8.545857340536765
0.5864587226579646
-6.613388972516114
-5.84092002493168
0.20790281460243754
2.7948872078147495
0.392569425881578
-1.4547583157503228
-0.8672121199082489
-2.2872670623611566
-6.205702391672179
-6.2873185378719985
-1.2205718790895026
4.206332216747707
6.805257628213173
4.829461227192582
0.781051776337504
1.778479692347184
7.477585901959956
10.143711747119628
7.759205216043115
3.8639060016362023
1.4647422347766128
0.34686755430850974
-2.174523413303385
-4.060845084809161
-1.9000337078318494
0.2505597094414526
-1.32334889130297
-1.3802128563431024
1.728859666155854
-0.17955582820734275
-4.625798602753541
-3.7736930516398517
-2.5120314766714484
-0.4189016176757757
5.7737621786775595
9.883561795202652
9.766741398520846
5.021559694168576
-1.7493437991005347
-5.534770260465476
-8.433261290993874
-8.250237645448246
-4.781672386970715
-4.3165048988714965
-4.758322097569003
-4.003729439740196
-3.11921998170666
-2.4515339270896006
-3.3486899755645796
-2.7751804027305362
-1.6501907989004032
-3.9418045249730373
-5.9615963171816135
-7.575919557772038
-8.950512831008963
-4.761367066463787
0.1561383961059303
0.32121110097660877
1.1878908480921018
4.448659442905421
5.951124229101756
1.9706973716947045
-4.888088766867801
-6.664474455948079
-4.54369935691801
-1.7847152281601557
3.656927452208163
8.941403435469079
11.680361820357023
11.374146870256467
7.812697070168739
6.073805398285846
7.425829789587391
7.5524996795566794
3.703259619881982
-1.8751841238784692
-3.090556149474989
-2.810101138886429
-5.090426506855888
-3.871294096142362
-0.5109589520541413
0.5156425640081215
1.929869094146047
1.3637632134521223
0.39953593788102276
4.696418194024853
8.119603255655761
8.72645839264821
10.83567849558699
11.34530290732737
10.813247982520462
9.119970947090094
2.579727943189578
-1.9536428847853795
-1.0741448808799183
0.545273256583923
2.9595696846719726
3.5215861538142152
-0.0399021729354425
-3.5424896482263346
-4.884095608740043
-3.112083885214865
0.7962350437874991
2.589620477162488
2.079722170513831
0.7660282996731046
-0.35128687098055333
1.5189981752867838
4.544592615958652
5.894675274412045
8.04036030499948
10.827741274769306
12.247744737446668
9.969612941274661
2.9435630774691592
-2.221292976159854
-3.141643679347746
-2.051598918470732
0.3735394290777496
-0.12737063463950982
-0.9281194402716457
-0.5284072412014221
-3.896007097082471
-6.167576374167766
-5.889385163074937
-4.7856486208608695
-0.4755031376064176
2.1185501633863706
3.061636932327724
3.942172616980645
1.429734819494428
1.6771515942764326
4.749620662114615
3.4661667623841264
1.068669664945491
-2.106188447788017
-7.15271379879323
-7.3100079066904184
-4.198411151477021
-2.853707099780834
-0.12906226133363746
2.192276666651051
1.2582412672928411
1.1349075745336275
2.2484282218344616
1.917722085541636
0.13026361582496
-0.9318969225487855
-2.312944493117354
-6.591856685672189
-8.26592568237971
-6.122143137227529
-6.449587872839062
-8.398040758303763
-8.636861955390728
-4.5828839523652665
2.018086833894903
6.161749366526987
8.922782424122266
7.71163193996744
1.9385981514957644
-0.6759217427347628
-0.0361914403330423
1.3519449130200525
3.5870934285270577
5.602231475930184
6.606620081188433
4.824434684725102
1.9324561448835564
0.1432090189951845
-0.2717658226738066
0.6588712684854493
-0.5682441084533986
-1.1030428996639556
2.2207334800230947
2.8152358197584206
1.4769072386210007
1.355326449320385
-1.3836079572162414
-2.5973980243981427
2.232922684142521
6.687167957685196
5.628778304200468
-0.8530821650623932
-7.556605178967956
-6.33015087791564
-0.03454993081322836
3.672162005134617
5.335356390754776
6.694641880123609
7.6954383969842395
7.3666466930924654
6.233297549806035
5.4622276218559405
1.8304120540645288
-2.164415507881234
-1.5656932624376185
0.6083840738375772
1.5660026175932367
-0.05066053934408902
-3.511671634714003
-6.158468274516894
-6.686365951923985
-4.03885058690944
-2.78987560361049
-5.409180083611417
-6.293358725133501
-2.2657362084756216
4.1844349452610485
5.506519562396325
0.8313151461016921
-1.9591944812389985
-2.1111239869366383
-2.3443404918261965
-2.163930225078139
0.20542316836472077
3.923081890077067
5.163232822438483
4.548195964019378
1.8316735090338285
-2.045617506276154
-1.473090177008692
-0.3990061255743642
-2.7195446329772803
-3.644761116818672
-2.836200811514123
-1.3803882175156394
0.6111495634991844
0.13037815848888373
-3.0558964296395748
-4.537292699553256
-0.5206705643603223
5.69606498704874
5.976096167462077
-0.7250207701836117
-6.577752772948047
-7.10287565048677
-5.358146297417055
-3.6277229362636203
-2.299016377173128
-2.4744362538012004
-3.4732365129899643
-4.658462197552275
-6.888971967276682
-9.287660201870091
-7.733163913343862
-0.13245116790421582
4.787645141290271
0.2815416731373319
-2.9334772000718785
0.7655051246638975
3.1551308042430373
2.2521563644385427
-3.1201002794870503
-9.854896997518628
-5.832465987235891
3.2919739602949734
5.64657854644613
3.54930213614596
-1.3911485343633985
-6.091347119654298
-7.643181590785099
-8.119875020660437
-5.776979226612948
-2.587528582144756
-1.2989303488414348
0.4215828470768335
0.7176342482135732
-1.5281964749469459
-4.467009571811608
-7.598236671054442
-9.809121211681035
-11.361057614593875
-12.160769656726332
-11.722441224613382
-13.081973718563937
-15.126637367136237
-12.19548628088226
-5.2934458882095425
-0.053607032199780094
-1.1708700143089592
-8.059178528065969
-12.727150100114898
-11.664083240257392
-7.292441327973048
-2.218386078115132
0.27453370630638346
1.5194239804257914
2.5053092714477976
2.439230302717031
2.133053657358407
-2.868949245733234
-10.807146118090252
-13.86851099514493
-13.494904596404835
-10.869643785566034
-7.484241600124262
-8.711087722812858
-11.859214048812976
-11.838970592491576
-10.796458148908512
-11.902715545700861
-12.940660972519742
-12.060147753776059
-12.11465212412543
-14.042463110281274
-15.226086389737292
-13.215405182939122
-8.856076664100533
-5.4977740691540395
-4.868852811486728
-5.6795508387407105
-4.311603196356212
-1.8868225069101439
-1.6625258963965035
-1.14468057431849
-0.2879826998531164
-0.8920772932172734
-1.4308056616035743
-0.19783312184389698
2.9698819704174824
3.5010716174330443
-0.0007815690926038954
-2.84251338979319
-2.973531568924448
-0.7905824060278602
-1.123424694593958
-6.366022341845453
-9.872504001764357
-8.230989359612582
-4.833876072419492
-4.916130172827958
-8.59677199088085
-10.862184496057925
-12.111265336081354
-12.840135393209813
-11.331415698216082
-10.707408439475703
-11.393668765279376
-10.364841971498022
-7.903682281919179
-5.843455877997315
-7.0568255145229
-11.937920527042284
-14.863094624709944
-12.633160248794443
-8.383888393653057
-4.5035970232935645
-2.658355716381159
-4.448878901524112
-6.272434714090745
-6.32675298343876
-9.33914931287665
-15.086170778712885
-19.093327764021346
-20.687803083836524
-19.3856437797933
-16.152790051263988
-14.362459916921894
-14.101611260950632
-14.481052103235761
-14.717382560842465
-12.955981503361546
-9.339179392689148
-5.070623607455983
-1.8777535566696304
-1.0498421056188885
-1.784388866277398
-2.439473505919872
0.12598653018855288
4.09538661078322
3.0523396351421175
-0.4566151445757115
-2.195020511225675
-4.768325801916741
-6.332716803724618
-3.5807653429460204
-0.9623462193196087
-2.396375974408784
-5.375106417364153
-8.46166197968517
-13.320771259957734
-17.880991318556053
-18.420989106412687
-14.227871479375784
-6.603848868062532
0.035400176058093126
3.0466148921966814
5.033764104653015
6.619450711509496
6.962499162809134
6.264902738861424
3.719083651291803
0.3634877541507806
-3.3898928931040913
-8.591503499573577
-13.066879576893305
-16.285989766002956
-19.94040667816221
-24.081108993946724
-29.170027553863196
-33.69096932757522
-35.270485877296615
-35.42214621508508
-36.012296555871885
-34.634351587415395
-27.696928302599975
-17.53438047282934
-7.181207677170413
3.9175786460477173
11.878408177329582
15.442595366110602
18.105282560229558
17.55175753556645
14.554639782461896
12.501674395292627
9.73590104518973
7.550258553836031
5.311787186553332
-0.27453482645886773
-6.212590442323737
-9.70400143742458
-10.145611795834936
-6.167980008958784
0.39074999923004716
3.991387741702489
4.494331663763448
7.569844181770397
8.890545154281488
5.022917098208864
6.445630230315071
12.770737898437185
13.236176668111357
8.648871940120424
3.9745384139822777
-1.2948219350552426
-7.908868004200332
-12.924051731323557
-16.61105208984475
-21.5777212557405
-21.517299490563854
-13.339090132556734
-6.835558548719451
-6.207529563914079
-6.2677760562333
-5.344079782698042
-5.61757049074534
-9.078854642688128
-14.750051627419639
-17.036280889684136
-12.421683205429142
-4.384433045801447
0.14933995372769934
-2.1620695256401774
-6.926127916189
-9.079235913851406
-7.6529423772781895
-3.120361363468683
2.3243406338014356
8.493910952767097
16.330433022920094
22.424059899827885
23.663795348801965
19.397082751418022
11.789064108154646
5.696162436018629
1.3402113222625878
-3.699322860071496
-9.155560127200815
-14.19703147604585
-18.02635733310025
-21.70403491548125
-26.45175845448454
-30.810189960984914
-34.95630728712131
-38.270518740213646
-36.57888184919927
-29.64595062864094
-20.795742114376893
-9.385501652657414
5.939997460418817
21.461488483383132
33.97525805043593
42.744554034320274
44.49409360876606
38.336227524944924
27.763491504139505
16.055698625045537
7.683412948046162
4.206096664592738
1.9571870706763503
-1.594598987510355
-7.123944643288708
-12.950415928356744
-16.807784152243922
-18.719624535555845
-16.66839309398207
-10.96698929553466
-6.295586509436263
-2.5294599691635855
0.9897773955831868
0.8665316468045415
-3.302502566963916
-8.904689536631317
-13.741157133298328
-16.744356778433676
-17.763368190039934
-16.821624472174427
-15.777948573981496
-16.026354230134224
-15.661540404167162
-13.371959293620042
-9.846953523759726
-7.435224196111686
-8.445135232940878
-9.380326393328097
-6.262367447410528
-1.4423465989024502
3.628244751841285
8.343193040960893
10.637655601376622
13.199675106604221
16.637250790156564
15.441147919170232
9.071309455607118
1.270486020367087
-6.440499407151852
-12.933186860293354
-16.512639257636888
-16.79776033750592
-13.362545168640683
-3.8318778633521577
9.429416396274538
20.23413897942365
28.925339877047325
33.53537617648082
27.891971521940906
17.333131287819107
8.42238122356848
-0.27497329046157937
-6.339039437332334
-8.905679244986345
-11.921858114870195
-14.817434354220488
-16.474510139001257
-16.7196284501937
-14.415037970621126
-11.020221799266581
-7.609811016285572
-4.850964269608821
-5.532824821753308
-7.333549565783227
-1.4139010740622684
13.099406161262433
26.128587690253504
33.87122446664579
38.244770586216525
36.6560297793459
30.234896145304113
25.55583020081024
24.18116900752147
18.790127438607776
6.251379264409379
-6.3064680383580525
-17.81155477298203
-25.783597657099
-25.934039541005877
-26.760676660978802
-23.785458946762933
-10.427626513770186
-2.679771167452479
-3.3043572006929045
-1.4166527280083365
4.944915001784211
14.60044935172342
22.169505261819616
24.891720256628588
23.870019008260172
17.67154981346041
9.800050157852366
4.353375299499427
-0.18042210198203734
-2.898133648269113
1.3218477481625495
13.235400165886944
28.272138994906324
38.816893915235276
35.860788036382715
23.557254547373855
12.461331903481117
2.100893483233989
-5.87353230518432
-9.019690771134721
-10.08888418464697
-7.179375407268715
-2.4017761806923064
2.2221713043313804
9.726718001065707
15.582999096011356
17.909094470023017
18.284432779792898
15.537822203411524
14.192248053495799
14.6818788159356
14.485199094653357
15.74227767234798
15.761731603967968
13.389712329869122
10.851977446218743
7.68503874061655
4.5256882684076025
1.9083510910614037
3.9275258473525296
10.986019766400817
13.586493383569888
13.758480389071487
16.5967859722936
15.027480071355406
12.101637695162532
12.809089750517526
10.85054367101301
8.802834661246603
9.399721762372776
7.116816766457557
6.14350440539369
13.107792109887127
18.660497732346293
9.36541314203648
1.9600826170727776
23.960417398669428
47.25298772649641
27.422021838950865
-4.86674937972963
-0.8684591890718507
21.033453468864874
32.33189035241078
36.17263620165814
30.747193236647288
15.842499912842415
3.5129980744905844
0.26839717538608066
3.202614654473235
5.5013561876393275
9.816551583162127
21.20252177742289
34.87881038868495
48.004280312624765
58.397448888173464
59.62143838652013
50.840996178330634
42.35544812164913
38.7793076716179
31.8043802792071
24.549589281808796
22.818579210531162
21.473429718410657
19.94741215943641
14.666124225956992
5.6867278672952
3.1831206370268252
3.9124837879032057
0.44801304734019254
-5.314683029976042
-11.241388534829222
-16.656758128720135
-21.821677815159504
-25.0130779936309
-23.67948435051689
-16.07465369407475
-1.59654222353104
12.920120837708456
22.047426945575424
27.629626365611944
29.505768729642245
28.377702571989165
28.30322063540175
29.466639389389965
27.194237079595695
21.896722518365177
20.0125322314152
19.77526595734778
15.207277155192063
4.761874226752019
-10.73524547570946
-21.77484336738862
-21.13258156602977
-15.053601960896144
-9.184441443232979
-7.508577101627777
-10.898446818993026
-11.60770983724319
-6.342137655224772
4.029585812162212
19.02188103414425
31.581650844110644
36.59681039216411
37.219782368137956
36.74404487696654
34.521387976589885
29.826458481287652
26.130088607288414
21.215714111667083
10.35433476845152
2.2661044842179927
-0.04597732062295776
-3.471835643442263
-4.413705535654361
-3.308469843659666
-4.4641968676068675
-4.347310834590321
-3.382106820714371
-0.2866983674308349
7.41405726667875
16.20160555937906
23.474141648942798
26.22890183552832
25.781589648777157
24.87012980781479
23.112515959659213
22.628598061358176
19.484589319432327
13.66775648021632
12.0329521917566
9.194599235718648
3.7568868820675445
4.6938970678926015
10.983238354824849
16.797805320186768
21.950189431284798
25.441450518866628
24.924957498864096
22.664807428946148
21.61626668136873
25.06139205343533
29.49883387807245
20.829682057682845
5.2498176418838245
0.6852454699881236
-1.2450628344880936
-8.13026645750092
-10.119545078990898
-9.916468407606157
-11.48212661272585
-7.434233878428592
-3.3135913510694306
-3.3623239319051343
2.9560990281814954
12.992390124264888
20.406722180641438
26.96143948180832
26.686777167488504
19.434441815137397
14.252814213662024
13.254329929583397
13.228093813859267
10.778272517048281
6.1055992023650365
0.6224309660443483
-4.981013272308129
-8.591192173500746
-8.523068960181515
-2.4338285275870755
7.516114534248039
13.67215018794495
13.254526892231468
10.01790403354982
10.228627672872136
16.04783693692738
23.82401690970515
28.245054331721736
24.736691868423303
16.28050933080471
9.3907912770183
5.083185766680877
2.1788952721645947
0.37345668524331016
0.9358943806076704
1.9690147440733567
1.2982436315450483
3.702345569300391
7.83473163928047
8.215276375404228
7.431980453380986
5.948017948273742
1.7642863077164985
-3.4902739237702107
-7.345772003194112
-7.599356736869766
-5.658951188868387
-3.8333449619491997
-2.2291381403003596
-2.082624125652368
-4.046327033550266
-7.36282833542405
-11.302588034905838
-14.73689263390819
-15.251518157003645
-10.813591680051278
-3.605191494546402
3.723435568788371
10.038213822694765
12.22911120406648
9.353199655101168
2.9214566143438927
-6.660783155354512
-16.218153834163537
-22.565369306159837
-26.439503511965786
-26.578750467992595
-23.028946252902077
-20.44534053624846
-19.57836592242957
-20.823366223781132
-25.84302620028185
-28.982905032083266
-25.852914390449424
-19.97030273321943
-14.407039945134706
-9.497993408616193
-7.689704421760306
-13.324182605396958
-23.258189098545532
-30.215254740548513
-32.52247349009736
-28.4611308884717
-19.27304294230798
-10.409735857968025
-1.9556464183843507
3.727775994035659
2.2216669160444913
-2.4295662315186157
-6.2967211677234465
-9.423770448108645
-9.949938687383083
-8.120339432900462
-7.740306892165515
-9.156519951499941
-9.184370848266106
-8.10076866993467
-7.970618045828454
-7.505981673272221
-6.456725767235966
-6.486352983795698
-5.35833695405383
-0.7070202115805528
4.363149940576099
6.673857240191924
6.538565433640593
4.655767181010035
2.628482732803001
1.0653243069630665
-2.380927591358884
-6.037792114733871
-7.5165200783956045
-9.932582167911752
-13.769197734299311
-17.968012903117913
-23.49578347275549
-28.867899616838834
-32.539100631625246
-32.04724586619506
-26.617142262671642
-21.59574421009902
-19.376462691976858
-18.854552493505675
-20.208120046834733
-23.037069068492578
-25.760273284053646
-25.63854880395677
-23.166431546237032
-19.885091418051665
-14.489487429087738
-8.74251789660643
-4.2714972635675625
-0.5341782358184449
1.0239610337866352
1.2849454378663545
1.922278750775403
1.9228522869696647
2.01146562164392
1.4971388264191718
-3.8327281102722917
-12.632476972548611
-20.071800040247417
-24.311703241486473
-23.728604723578403
-21.453846026883962
-21.506656934324354
-19.63062754739587
-13.5082782670996
-5.871928283653784
0.5443508905454792
2.9521359026269507
3.309214613859379
5.502744405945374
8.054195711561213
7.123795652801176
2.1367845728917643
-3.9523421557780436
-7.257308724474866
-6.720825474685467
-6.013282866759272
-5.905633661135869
-5.060771009893835
-6.6259025010628365
-10.045867419594842
-13.452812611041393
-18.202587708426925
-23.02762339898691
-28.210309161259286
-31.3978120843926
-26.717954757801973
-14.550692630888
2.214028636150044
16.048194074184824
20.19462969569713
22.024623499693234
24.869211286993128
19.495365123761395
8.262798702365481
3.799273576700162
4.295263628587123
1.0751797484592356
-3.7596163470066744
-8.459965772498148
-14.707139286221627
-18.512520056167208
-18.202404496397207
-18.34447696095023
-20.47662898940585
-22.238183279535573
-22.46394769761226
-20.084341402155943
-15.834447922682466
