AAD_Filtered_TADAS_FILE
AAD_BASELINE_CORRECTION: BASELINE REMOVED
AAD_FILTER_TYPE: BUTTERWORTH
AAD_FILTER_ORDER: 1
AAD_LOW_CUT_FREQUENCY_HZ: 0.025
AAD_HIGH_CUT_FREQUENCY_HZ: 40.0
EVENT_NAME: 202302060117
EVENT_ID: 13194
EVENT_DATE_YYYYMMDD: 2023/02/06
EVENT_TIME_HHMMSS: 01:17:32.00000
EVENT_LATITUDE_DEGREE: 37.288
EVENT_LONGITUDE_DEGREE: 37.043
EVENT_DEPTH_KM: 8.6
HYPOCENTER_REFERENCE: AFAD
MAGNITUDE_W: 7.7
MAGNITUDE_W_REFERENCE: AFAD
MAGNITUDE_L: 
MAGNITUDE_L_REFERENCE: 
FOCAL_MECHANISM: 
NETWORK: TK
STATION_CODE: 6304
STATION_NAME: 
STATION_LATITUDE_DEGREE: 37.36509
STATION_LONGITUDE_DEGREE: 38.51316
STATION_ELEVATION_M: 617.0
LOCATION: Kahramanmaras_Pazarck_Turkiye
SENSOR_DEPTH_M: 
VS30_M/S: 376
SITE_CLASSIFICATION_EC8: B
MORPHOLOGIC_CLASSIFICATION: 
EPICENTRAL_DISTANCE_KM: 130.27
EARTHQUAKE_BACKAZIMUTH_DEGREE: 
DATE_TIME_FIRST_SAMPLE_YYYYMMDD_HHMMSS: 2023/02/06 01:17:34.4945500
DATE_TIME_FIRST_SAMPLE_PRECISION: millisecond
SAMPLING_INTERVAL_S: 0.01
NDATA: 12501
DURATION_S: 
STREAM: HNZ
UNITS: cm/s^2
INSTRUMENT: sensor = CMG-5T/GURALP | digitizer = 
INSTRUMENT_ANALOG/DIGITAL: 
INSTRUMENTAL_FREQUENCY_HZ: 
INSTRUMENTAL_DAMPING: 
FULL_SCALE_G: 
N_BIT_DIGITAL_CONVERTER: 
PGA_CM/S^2: 89.230
TIME_PGA_S: 
BASELINE_CORRECTION: BASELINE REMOVED
FILTER_TYPE: BUTTERWORTH
FILTER_ORDER: 
LOW_CUT_FREQUENCY_HZ: 
HIGH_CUT_FREQUENCY_HZ: 
LATE/NORMAL_TRIGGERED: 
DATABASE_VERSION: 
HEADER_FORMAT: DYNA 1.2
DATA_TYPE: Acceleration
PROCESSING: Automatic Paolucci et al., 2011
DATA_TIMESTAMP_YYYYMMDD_HHMMSS: 
DATA_LICENSE: U (unknown license)
DATA_CITATION: Turkish Accelerometric Archive v 1.0 - Disaster And Emergency Management Presidency, Earthquake Department
DATA_CREATOR: AFAD
ORIGINAL_DATA_MEDIATOR_CITATION: : AFAD - Disaster And Emergency Management Presidency
ORIGINAL_DATA_MEDIATOR: AFAD PROCESS SERVICE
ORIGINAL_DATA_CREATOR_CITATION: AFAD PROCESS SERVICE
ORIGINAL_DATA_CREATOR: network: TK
USER1: GuestUser
USER2: 
USER3: 
USER4: 
[...]
4.061980380867259
-12.300127679324152
-20.76631794321421
-13.864122889841392
1.0489000442803047
9.037581052289301
9.801301420054578
3.741422649351425
-3.7133618838673303
-1.7999114026717202
-1.024577158172669
-9.007349806139043
-18.443375857889976
-10.871638003067549
5.419824276421321
8.15714978429821
-3.989010454381053
-13.597790163590522
-4.735169877034941
9.066046738149222
8.74111169284673
-2.231702037081397
-4.433592387721184
-5.588926877015185
-12.971265473915606
-9.459234746246224
0.21112775874989653
-1.3234159913342505
-13.004104419659742
-26.374692098393435
-34.07777464248155
-30.27242839976605
-21.801940452816844
-11.619103672415616
-3.7128320089514966
5.996790512335935
18.826472515523687
20.8675350348083
1.7606374685473647
-20.000331813420665
-14.999356726478728
-1.0150147281653292
-2.7157108875173037
-8.27756023359362
-5.402734588078895
2.690606671317917
17.693300155382975
29.535595263536845
25.033398941684492
9.5860814281704
-5.74267034514001
-14.538830147187909
-6.536421318187778
11.77849012248982
16.50139654702053
10.408506620811952
1.573311034805203
0.7348076390601467
6.8698009858720495
10.521801146684137
13.04855386582828
6.0776495006077305
-15.055981644361244
-32.655190668999964
-33.366065555543514
-27.058173791940188
-21.010490227034186
-18.24348127329494
-9.313803067186596
13.570745775895487
35.0795437590817
37.335473067655116
18.751894423122497
-9.136654107186862
-23.71977075941283
-12.47113063905883
1.497600702383808
3.6141459960604507
4.471639735150288
6.596247432936351
8.99398660050885
0.12305047197831691
-5.40917940735823
5.325947644238325
5.263048938868236
-0.11720148134015865
-1.251437480636731
0.5218303153242138
11.9166146479768
23.357757368325377
27.056589725021365
26.760927091455425
27.410791481502738
24.005973188597263
8.350797298183611
-7.773026604456266
-11.388200176076658
-6.020735531544598
-5.832435947226571
-10.309480000709577
-10.913344251110448
-6.388393054983733
2.1997795085974117
3.7386625463983183
-5.369649415315739
-8.610078509371771
12.43130016906727
29.478670049032008
16.00685681029282
0.8788236591367464
0.21849034390442668
7.624726996329998
3.195012522910317
-14.89755558438973
-20.36419877936811
-8.767229074112532
8.005387803221256
16.166245165452153
12.88829301400238
7.459538535683545
2.0728695994538002
-1.0450641140255135
-11.173750363977433
-25.53813329779177
-18.84054916321149
-0.049552146364882116
6.296633842520386
-2.010356838166351
-2.1007049961789708
9.681687477434329
11.131320881239308
1.0855870729584072
-9.824340938724346
-2.661944427728564
20.416799453657728
24.453096278330726
14.231178024751562
13.648381133232409
21.383283889854198
26.604712752494887
18.182068842788613
-3.794128249074778
-21.563674696189334
-20.965406468667556
-15.180946335340181
-10.869514573894273
-2.908381671730818
4.17141704340838
12.011069644695786
21.529411356042537
18.89841657762423
-1.3577050377218256
-8.769906173326625
9.681150395539019
19.341794653235613
6.600248711677476
-7.152044471317866
-9.70216113601792
-11.159864849909859
-20.408444769720976
-28.422425487677334
-23.19628132269312
-9.198342315947546
-6.14537853995496
-5.832968987123638
2.64507208177075
19.796021456833778
30.696875452027594
12.483368649767081
-5.042483335630674
0.1587529296905408
10.932204374827249
4.776502323809298
-7.246398332027323
-8.307092753961625
-14.07561771266612
-28.296015304084527
-31.886474622285416
-17.91109907803845
2.1393087155308046
10.086790756571821
-0.3034198900444445
-11.535512102542324
-2.704771912621165
19.61308347451498
23.780782820312826
17.12148699628384
14.971760290148408
8.550870855759758
2.4125115573337976
0.17449612018617613
-6.390537666238308
-13.405270265811021
-10.327659345944761
-7.931771056274493
-20.87395631186163
-36.02524239566452
-28.046747774153907
-3.8226389985493086
6.688604093421316
1.6758814586604005
-4.660686605560504
-8.747939069890792
-5.261743939099584
4.446823885307483
12.653764971778989
9.531203596161697
4.5902207290325014
1.7205035488257008
-3.8584720463211024
3.8832802079846753
18.383077719442078
22.400972165760138
9.253705636571846
-5.433615737941113
0.31889617414640975
12.067678836343477
10.835027357972386
-6.9018314595039625
-24.69126805416045
-25.042207753534136
-22.123230837745645
-27.269758341198408
-29.994934291197744
-25.254283790561516
-16.633520450083704
-6.809598590293529
6.093016087256875
17.558329538757615
25.296781462109873
25.819321256154694
15.636906201867783
6.530519467011733
-4.337976814217677
-17.684730806420035
-19.81308286668553
-13.483990335528349
-14.476560453993704
-22.080723310159836
-22.74342849878196
-16.48448752963905
-7.9531190650553025
0.6640253141208566
-2.9401173984655626
-12.991423838881385
-20.223776451627998
-28.121453980113838
-21.86719831715881
0.06459410709876677
14.522428858408958
11.646450061305195
10.938526795624432
30.850975118740664
48.97772275185447
39.27812219103177
13.809038896680654
-4.3876622080405925
-8.661494555789655
-1.7128678860995712
1.5350846127690834
4.906131211166317
21.975137924994414
31.76077069317575
19.091898147916563
-7.10131430098013
-17.474529259411597
-5.162110480890787
3.4660904210296963
6.476998153139342
11.346966493879707
19.907709848462893
28.556903078431226
24.93169173962333
13.749625600542437
14.4244589997037
27.497817137410536
26.540328204179634
1.7171650844102815
-26.449356611012366
-32.8010406836022
-14.322768169663698
1.0470645098758882
5.9517791233132815
12.406083730383033
9.809511659727475
-0.11229815081997761
0.1308010196046367
15.519539085036756
33.585941983260106
20.834986637175028
-19.844100814761656
-40.34636259330795
-24.317847659211864
-0.822516161226078
-0.927692982519225
-17.44489138284682
-22.744243483675007
-15.567476655034666
-7.592937200963082
-0.4818062692913383
2.4690321855449198
1.9305067612630316
-3.4035602197854278
-18.954538456458486
-34.191910727986745
-30.892463626212013
-15.280898594095389
-16.71219149801828
-28.428718213251752
-16.727024856374435
9.01949002071957
21.57147786886649
20.38649891991063
13.18878318217876
8.815385730640937
6.5297072970265635
8.332253987982815
16.77435062277116
22.584581148914086
15.617618052941777
-0.9332449870504123
-9.190078721570401
-5.037022506107368
-0.23323596361109972
-4.402576619934128
-9.2498636703982
-1.3894911589853125
13.663096326505773
21.37701997611548
12.959884255851213
-1.793537150723739
4.729236793455303
17.18532225273861
17.711628124991623
10.838435454245083
-2.1955569085766764
-7.562364319152391
-18.67772229704656
-26.436696381663086
-12.077276663751482
-5.498839684716115
-9.423112410152712
-9.758833846802284
-8.96654070801904
-8.54327740318209
-7.440686766534506
-0.8485703142747563
3.9600260476818634
3.069256474744289
-2.2004381336201417
-4.637186165064951
6.271146002135278
17.551866142920133
16.78791772249311
8.508449958030296
7.636792642152891
19.06602147165611
28.024105007692928
32.59520088426938
20.613681527094375
-4.187585324736473
-10.292397217991642
-9.518623560204745
-15.724266075741603
-15.06143076524393
0.919775171880071
16.641843187354034
12.066186830053319
-2.730536918531588
-9.716121006057765
-10.189949320867123
-6.519416990449761
5.604702218655563
14.574104534714229
17.44554567707527
22.101548564583737
25.61609348440093
23.806977706723757
16.642754534196058
4.727368531534042
-7.680066093604557
-6.638487838131144
4.89805699734691
7.857715209803438
0.43721828057578466
-8.7178679904498
-12.494591220895932
-5.7573168548302736
-0.34145872027902735
-12.842107021386779
-28.41254238997737
-23.485944116750446
0.17248385588909312
13.77977785736971
0.6206850168387
-17.626959527396984
-24.245492158299857
-12.332725197340894
3.6854380747641255
1.8135640653090535
-12.35157804809525
-21.727678204583633
-16.483052759817628
-4.5115173637532555
2.2545561172027155
-0.008470009552170797
-7.51163201652824
-9.297245797664235
6.208482454058343
27.720652304596857
34.5016434705675
22.490146562997566
1.5241120785314932
-7.356767508028097
2.597198442058071
14.865586955016441
12.54795744164537
1.6257809624356185
1.1261216348201903
9.968512643950053
10.709332603178236
6.379166667746698
11.009126599864162
15.964404345025585
12.581886296454128
4.925555410991749
-2.7052758444467715
-6.1541994721839846
1.4801405554736142
8.826329058341903
-2.964473446974956
-15.11756920196683
-9.92542337303785
-0.38336924754462337
-0.8241479373195747
-8.849712273591345
-16.803505558308746
-18.034364636692
-10.877239717871412
-14.750500103612652
-22.58442781158851
-20.82250568302317
-20.568634760630488
-28.94871504034464
-48.00951086759472
-60.56141226556287
-52.45414266853339
-41.73066674798257
-38.54382017206733
-32.26966617986985
-17.987183358644064
-1.9345971439923906
4.865084409536299
1.2188781856984965
1.732285185337485
9.257234636992605
15.088722984472735
12.799134237340104
8.53916710181961
14.801921797776174
19.7841439758623
17.689745770986807
17.139255632613114
22.407859876940122
29.42661394607069
36.12363690633151
38.581986097266885
31.266802031518456
22.796776907476907
28.116527654236997
43.98279685918006
44.90881508274986
24.489350512832594
12.581883868478217
23.80264014021155
35.990940746980144
29.68955903651895
9.867146781109394
-9.503166321489935
-10.867497771199828
5.9141634421575
15.750919598007737
12.146719019529373
2.45526272490569
-15.354024100223835
-34.62979952454086
-38.09410865214293
-33.72708972492107
-28.350694995565938
-16.591682004391238
-7.118105511253637
-8.483044700998756
-10.229254451859989
-9.160512859655768
-18.832838647099933
-33.95670152390629
-36.94075036698677
-22.928989459621633
-4.203316166837883
7.540286046509557
1.8157655256551957
-15.947388326388912
-25.19822489576917
-17.548405886743723
-9.78751908715479
-11.754852585338105
-16.431072907929874
-21.271744914860033
-19.409560212406657
-14.239419313641097
-8.808060703210117
-5.327646051347189
-9.382601852790984
-6.1144336072309855
3.2479301559671256
7.002471037251782
-0.7236248164958785
-23.109941438192493
-26.98556352975484
-8.947060927172497
10.392896240771409
20.608326969352945
11.044553004292279
-2.7249177447479256
-13.11717842710742
-13.135079563316056
4.828748482842132
17.60926240903965
17.490436423986523
14.679470193317442
13.809093509420098
22.00380991400734
33.00117339832814
31.183316250985992
23.2286569826313
25.218217722559412
29.416258507778164
30.156311028768204
37.208828557301175
40.80604916577563
30.284440993789264
18.98822309523172
11.100567777302748
6.165992008074846
6.116308284619518
12.186610553798099
19.370108800167397
17.132932673027263
-2.8188865788574584
-24.717732213368325
-25.289283480074868
-12.299174024801033
-5.938198161702445
-25.320519751790474
-52.96141896389238
-53.02718066834276
-28.44514294430767
-10.58909409011337
-23.683589912348104
-42.80800915290122
-34.63997029529755
-12.205742533140096
2.4905589152014738
4.277979290462051
-6.192567988119617
-21.572238172630527
-25.22039269566896
-23.345493955976483
-16.45105917808315
-6.446165592783227
-9.568858178308641
-14.078585407308372
-3.7412224890363426
21.67840283472815
37.64115337343538
29.20654751611268
18.798802725333065
24.484074294015773
32.988126061880656
31.82844529257398
24.122468944718424
14.051525702345394
20.67029717503425
38.63805091153991
33.36694687392758
4.2943631032558836
-15.572975106875795
-9.918959831096789
-3.4016385041054855
-11.406315210308154
-23.988239661678055
-29.22923785107401
-26.325677098587974
-22.322711223201576
-16.691129885797505
-6.090794519180146
13.762996116568036
33.40763879677092
43.41236696103903
40.003256036141046
29.019710647151992
15.996777322172903
-5.789998656730447
-18.848866812613856
-12.590266069903002
-10.713144742792535
-22.523972396085274
-30.3942306466163
-29.776271918702992
-22.408522292236874
-16.354660359286033
-17.553783373348136
-15.0036953295739
-11.706594025770395
-9.284060703277305
-0.3569392121089272
15.871664762778398
25.529431184584563
16.858970721478446
-4.632095885190146
-25.721179036472822
-38.40995287091787
-38.863274362518105
-27.552270172353868
-19.994305375293028
-15.863102629286388
1.0414767335153876
17.931314147064647
10.051983644867624
-10.096109069130103
-18.869113565025735
-5.908240665813163
18.857129006880946
37.713169401373705
44.69025551175524
48.732181300627104
50.843523719760874
44.58234148931723
43.74159636687498
45.15173821515268
31.69097517173308
14.898935834845838
7.983034000484796
4.590054794483102
6.133152116779517
11.604740398170884
12.310517232015924
17.1224500715807
33.50148081939186
38.381653345885994
23.074248958831518
6.626610289177046
5.641283646186134
11.984691198192094
9.68846079413393
4.286549803957867
-0.6918362912033565
-7.098701216771743
-18.17215747369233
-33.7283357082417
-44.584383561348545
-51.63039098393139
-64.22509508509008
-80.10988486827104
-88.58588302693832
-80.40366769298765
-49.225766531955855
-14.59351601936513
6.659298945812561
15.26383309381081
18.623479010832988
30.616671168486427
40.09738452510833
28.424284857174715
6.580914760026472
3.0103840840561675
19.68926653691449
30.988374841426907
20.01886172589193
-0.4998814665278651
-3.585909012423452
2.5036890671871617
-0.06966551711514177
6.088265046917273
16.961518911762635
19.47857511697566
16.667381581529195
-4.400594491282632
-36.11921984541326
-39.57223943699948
-16.781534075801336
-6.756796289096746
-14.041000137596333
-14.257570009562848
-0.2540592724016837
5.670724419245158
-3.0913835845085553
1.5944503632991127
20.366029737358197
28.494866402882984
21.029838868161438
16.55692175763012
26.75151196171927
29.13742939819737
20.4314808199632
14.241697358738858
10.599625152729423
8.390625637077639
13.744047341220472
28.34028908400221
23.64432746465064
-6.4545628350998365
-30.719035662579778
-42.33879252402674
-49.20654269010147
-51.94435248942319
-45.446768904819116
-27.71856662210984
-6.0571338569220785
13.053096547525888
20.34359747423865
21.130787588164843
29.117030131897426
37.344157447868064
35.85974416714659
25.209180402239188
6.144148217556975
-6.346068126364886
-3.5769711995024167
9.350452291751361
24.635316083049663
27.894044258868615
16.961033050328833
-4.899704866705135
-22.597114989364965
-29.670366362598905
-25.761301908569045
-16.81957127510194
-13.19382930986529
-5.642850676041717
-7.625321358647545
-14.496477455482006
-6.286608083431995
2.988777987842345
8.339575116975958
16.542172118517346
22.800046137928632
15.799334682060705
-0.7876895445899228
-10.923728136253176
-10.236699630581075
-7.906505327591015
-11.454223444463853
-0.34054650872977166
24.63300404723651
26.82100038414615
7.91265260376908
-1.9937968049689674
16.16254332862187
32.483094551277276
24.83873014050964
19.690872816105195
23.235319321860068
23.10473955321875
7.932132539011937
-12.344104713876062
-19.374693028491244
-8.766316901747112
5.018347704850998
14.170108810380922
25.153853737000794
32.82697316485485
34.849640934468525
31.056782629984347
19.646951273814434
0.8582929604030424
-11.84929739762629
-8.304798507011983
-3.190559511851027
-4.45938608696793
-12.79400168358025
-31.627374856513274
-45.263063651679275
-46.557009372914095
-38.40591752473415
-8.7008573611663
24.3815867399047
31.68374461481325
12.389062156493186
-15.170849622149282
-20.404391131017892
-9.390766798677223
-13.982812400576991
-26.5666114552103
-30.17281953496312
-29.951907629342255
-32.1547180453032
-35.814441982476076
-28.502757240269705
-13.93547789265606
9.318359603531373
27.14595382692853
28.85111555046579
33.451307042089994
38.40982441088065
46.55902618752736
55.52048211963438
52.86485745285008
47.68320376523561
40.94264069211913
24.613404154524826
6.633571719721883
-3.6529167482817844
-4.706774495546803
-4.333104599737498
-2.2557871849877547
-4.692103864335941
-16.20835097737282
-28.405683084301156
-31.359047687209628
-15.451830834324669
11.033879570589471
32.45545586505399
41.354492094408705
39.75048334984601
33.04574516441118
15.018277682172814
-14.543256763780601
-31.444347962495296
-32.193369358831646
-27.987567638263677
-13.264505090990825
11.901641015996566
27.062288898223475
27.431858812733402
25.53377129948603
19.278415402770968
18.783277627099203
32.476289663276276
49.41904812812548
57.72873092197807
41.92154322078159
8.431165152520226
-18.472347231574002
-16.141492360882914
10.722837242603783
31.46284057381231
30.565549388521106
11.133863200655675
-1.5681281462323962
0.6163010702199411
3.2943496423882626
-2.7600246496642202
-17.1968481520421
-28.31982938490816
-25.114664639406712
-15.121705848078127
-8.556214841137708
-0.5709671307711272
5.5271839596446855
-1.7179641495684577
-15.722931315602334
-17.83444273295331
-12.525434697076916
-11.219002197834074
-15.502757204302586
-10.636846273438966
0.9531316769834506
-6.686957270725648
-15.875298343853684
-2.292028206430394
13.457058973888337
9.167183259944709
-12.17772611871558
-15.155252299650437
11.399536482319789
23.721763499699648
21.034562005978675
11.848042423161953
-3.9677505126810053
-9.18602024530071
-20.972481470903354
-36.675284817958605
-31.255343485197873
-8.949476619874398
-3.307273683837612
-17.68645733254971
-32.36739241965654
-38.227084892544724
-28.623976914521073
-15.185216240247744
7.227129816779243
23.04384385430042
17.94022614342268
5.670118824976702
-3.9229235991773526
7.490658393166356
21.828582702645296
10.991895705034203
-3.991874927849147
-8.028899208786967
-11.235671958196127
-4.034358227763237
9.805337121298416
6.215693279063641
-9.119066390515242
-17.729086816188904
-7.337898662895472
20.520648740777148
31.851780844050026
2.7652438934620482
-32.745336002059894
-33.147533990435214
-13.938852955103274
-6.848172579596959
-12.676070503035215
-24.620001703902506
-20.459845077799276
2.875015312031109
13.793852640232876
9.366039604870787
7.327455940647385
7.9683352389101625
-3.030846812629347
-23.868208582911922
-24.80455970079827
-3.1567272589462907
14.863640973435798
15.503682917480546
-1.0083256800844491
-6.2787632796160615
7.953137198346865
14.30429788145533
15.55499214084877
26.98716482700318
27.352110775671083
5.849929982396399
-19.088339914791824
-30.035350021723662
-24.641377991164212
-24.407700250494308
-32.4044728322277
-28.553730801330108
-18.513595572253287
-8.490283400396601
12.05893384099404
25.761728247427865
15.854295926990334
-0.34482993482144353
