AAD_Filtered_TADAS_FILE
AAD_BASELINE_CORRECTION: BASELINE REMOVED
AAD_FILTER_TYPE: BUTTERWORTH
AAD_FILTER_ORDER: 1
AAD_LOW_CUT_FREQUENCY_HZ: 0.025
AAD_HIGH_CUT_FREQUENCY_HZ: 40.0
EVENT_NAME: 202302060117
EVENT_ID: 13194
EVENT_DATE_YYYYMMDD: 2023/02/06
EVENT_TIME_HHMMSS: 01:17:32.00000
EVENT_LATITUDE_DEGREE: 37.288
EVENT_LONGITUDE_DEGREE: 37.043
EVENT_DEPTH_KM: 8.6
HYPOCENTER_REFERENCE: AFAD
MAGNITUDE_W: 7.7
MAGNITUDE_W_REFERENCE: AFAD
MAGNITUDE_L: 
MAGNITUDE_L_REFERENCE: 
FOCAL_MECHANISM: 
NETWORK: TK
STATION_CODE: 3115
STATION_NAME: 
STATION_LATITUDE_DEGREE: 36.54634
STATION_LONGITUDE_DEGREE: 36.16459
STATION_ELEVATION_M: 180.0
LOCATION: Kahramanmaras_Pazarck_Turkiye
SENSOR_DEPTH_M: 
VS30_M/S: 424
SITE_CLASSIFICATION_EC8: B
MORPHOLOGIC_CLASSIFICATION: 
EPICENTRAL_DISTANCE_KM: 113.57
EARTHQUAKE_BACKAZIMUTH_DEGREE: 
DATE_TIME_FIRST_SAMPLE_YYYYMMDD_HHMMSS: 2023/02/06 01:17:31.6243800
DATE_TIME_FIRST_SAMPLE_PRECISION: millisecond
SAMPLING_INTERVAL_S: 0.01
NDATA: 12501
DURATION_S: 
STREAM: HNZ
UNITS: cm/s^2
INSTRUMENT: sensor = CMG-5T/GURALP | digitizer = 
INSTRUMENT_ANALOG/DIGITAL: 
INSTRUMENTAL_FREQUENCY_HZ: 
INSTRUMENTAL_DAMPING: 
FULL_SCALE_G: 
N_BIT_DIGITAL_CONVERTER: 
PGA_CM/S^2: 214.805
TIME_PGA_S: 
BASELINE_CORRECTION: BASELINE REMOVED
FILTER_TYPE: BUTTERWORTH
FILTER_ORDER: 
LOW_CUT_FREQUENCY_HZ: 
HIGH_CUT_FREQUENCY_HZ: 
LATE/NORMAL_TRIGGERED: 
DATABASE_VERSION: 
HEADER_FORMAT: DYNA 1.2
DATA_TYPE: Acceleration
PROCESSING: Automatic Paolucci et al., 2011
DATA_TIMESTAMP_YYYYMMDD_HHMMSS: 
DATA_LICENSE: U (unknown license)
DATA_CITATION: Turkish Accelerometric Archive v 1.0 - Disaster And Emergency Management Presidency, Earthquake Department
DATA_CREATOR: AFAD
ORIGINAL_DATA_MEDIATOR_CITATION: : AFAD - Disaster And Emergency Management Presidency
ORIGINAL_DATA_MEDIATOR: AFAD PROCESS SERVICE
ORIGINAL_DATA_CREATOR_CITATION: AFAD PROCESS SERVICE
ORIGINAL_DATA_CREATOR: network: TK
USER1: GuestUser
USER2: 
USER3: 
USER4: 
[...]
65.98149845061627
62.1870609349305
25.75985955500471
-13.276114375722345
-39.10994472790122
-39.10229172736042
-19.171088994885565
-0.021887765503498538
22.351413020308108
45.252388865210534
48.885873100066796
22.0419430103373
4.453694406971827
3.7648421763656446
19.903434327561524
39.83368643232443
0.8346114014201794
-25.997327970461846
-14.58236164302191
-20.054303541588325
-8.533210144467843
-16.30638754574574
-32.50400251628491
15.16082988076759
57.76429420377905
71.78458432751218
57.05973177763363
5.471354535924546
-32.66570088281185
-33.501100566912626
-20.05271536422882
-64.92640835974208
-93.06958306694612
-42.21277944066175
1.039223568336156
53.82811554511028
109.47580244677576
125.07920256981387
134.22960553244116
122.35353920281597
54.481160755282346
-1.3852396769031428
-19.4169373961124
-48.79483180264358
-64.39928802620764
-51.98068796771671
-27.81930941293878
-12.45359124702014
-10.91850754738644
-36.76593369240304
-73.25277605437637
-18.74501181980489
47.020021999421026
5.328146175134653
-24.694725580063228
11.479713587412398
36.49464176024677
46.66839117020165
48.16867576885797
45.10267270330477
85.87877203566498
133.10482079007778
130.45722300796595
83.36491499273596
61.31379563790523
92.16391234084332
107.92083571958018
75.38670449953955
0.13883571280960522
-28.24394822788134
23.686448782242795
44.93311555992795
17.198129887812698
28.53280364571708
57.18923157073719
71.13387609982941
73.85091524093059
85.43666007938859
107.68275392130909
83.76568592302084
36.0338106871307
30.061005496673275
49.07556908904461
15.348244796633427
-14.843278005628306
13.86659519504006
38.350147844898565
6.655297257797807
-42.84412509420046
-37.04111549181512
18.73799484066531
52.79922935896986
34.40950398231438
2.541863039331227
-6.093194279000848
8.289267145286164
35.89649569148331
42.36299396031974
-0.811253966258818
-13.822110963487331
27.744534203917443
60.03101931061288
68.45475544965635
63.66758721680198
43.57711401880847
-3.43028348724573
-36.0526816046417
-46.87663567986538
-57.5169845197176
-79.54351725954751
-69.9860781433156
-18.24418989664248
-45.23877996996196
-92.21225316549729
-83.96915746176103
-36.47798189862842
-3.354592117728855
-39.594351941546705
-37.76197848077989
-4.4965898054602
-7.701864795807567
-20.810055530667565
-30.989904212457287
-49.55361638765848
-39.554864363915115
17.048526298486838
15.73833461600504
12.089632834404487
12.400588074651985
-9.25368595971391
-5.604428483706806
-21.20980419287404
-90.9529748374716
-97.7629530453304
-65.6086838147298
-112.24663490334696
-135.75906925837577
-80.10138711173006
16.21758020640917
-25.430352205385464
-129.36173488718333
-128.75170733260106
-100.00319340950904
-77.66385148143183
-57.77548308553331
-107.57900938845111
-167.51730595890868
-133.89256953139574
-62.8693340501654
-6.842249325569578
-8.31488820141431
-34.029445459339435
7.4923218447366065
35.323456247338214
-40.68040140137704
-99.64552837566264
-73.6507264439601
-57.71508208596958
-78.23683604614892
-76.905129791109
-38.675138420668944
7.6499973914606425
12.720324803870128
-23.992841805414105
-18.79978897771792
107.84894366116514
132.71727009804832
123.7165015482997
108.45964892360453
-4.215642964339803
12.329130709416914
18.859363118241706
55.2694549232503
121.99976476665721
70.94253138437635
91.86995685863967
140.0118573208897
122.75216648767442
90.65734715699668
32.18351922645543
1.3034924533719374
20.81811102963272
50.3417484901504
56.92991443688371
72.64479749691225
89.25286584946828
99.60859393643194
79.94845943913076
61.78516177714897
98.68398975215773
121.98208174106043
107.55335255926425
47.53539127736898
29.643082870539367
109.45827225311099
175.90427628988547
117.941872228235
-61.052603603498405
-174.2888669248883
-129.41114248591524
14.895957692218015
62.60905448188099
-33.5973457937662
-57.23931188936492
-15.606608280512992
60.72013547642642
57.23734835438104
-40.621031912469086
-115.35323081365746
-166.09400204452183
-117.33979931626355
-34.15801254348364
-11.041406883762876
-38.03336605091833
-50.05025080918778
11.28576575138655
101.73169203542406
129.93937583439248
78.54283806335164
19.459212246470738
13.336166838903454
32.448926585399924
2.034711355690225
-25.633858145694912
-29.1993302402338
-9.154652955681453
35.49259459982177
41.51262824096171
48.00903345268316
40.1440164388983
2.4580791803787134
-28.938879014245174
-14.184951689522515
47.32229770325359
41.237127165059654
0.24586381336088994
-30.063867667067246
-20.681611869794224
47.918170083091596
71.51627295860452
61.307184848805655
57.77449855124397
34.43289638111756
-19.799592639039506
-66.47908935463698
-54.18214458863846
-5.7375767568858915
35.223283980157596
51.18124077786548
73.61810470700522
78.67893651333128
26.61074429120885
-23.50869170207994
-54.4236529084876
-48.82229202146546
-13.335506541577393
9.894542885110715
19.52110355047727
-13.203007536589487
-36.33421984038329
-53.89941640800101
-87.0716013357055
-100.43869547953759
-93.2218058791603
-35.87988350673021
-1.0378688616585297
-16.76355965476212
-23.43303085313956
-22.338942955603866
-11.399424453783835
-19.712261513636616
-111.7613042241968
-185.69796740614177
-174.8156112202044
-140.3087864923087
-89.66232445098683
-103.07248886666956
-160.10681151050724
-135.37282041083006
-43.53690570669775
29.74257696706303
16.739453241605005
-61.35457895469129
-101.0061597352016
-92.22166208336301
-117.92012201316096
-127.37866372276797
-120.69303324796154
-144.77478608578164
-77.77712498993921
21.725875332489498
43.42312026007381
35.51148534327451
-23.988298887671778
-57.709911842496155
4.355631907687358
48.552013698508546
17.356861788983142
-35.64853675705707
-36.09371633067096
-16.242764782630246
24.610141935727178
68.43007507109711
28.973912571737703
-14.199542350756392
37.914028371054926
133.61437802677793
164.52390933110863
95.18718973683767
-3.1172207086411903
-49.02478328779141
-2.9948529205133307
55.85510085665417
71.69801094585328
95.42070980883
96.87750248902286
73.09114468890598
74.9074392455033
89.35042679735092
82.46752468344329
80.22766464731762
82.786181727707
83.48201883492919
84.22498953114598
34.62002676830727
-16.10956086451786
-8.829836887978004
-7.251887201960076
-32.61065511420181
-43.48966995385065
3.4998973452504227
31.71276471625184
-25.903192697553493
-78.09242165479921
-61.775486699014245
-13.67146700088004
-4.554718524783328
-43.59170894965558
-54.18534536904434
-32.66009706314144
-37.63883181881909
-40.25917756018246
-38.66811427323178
-38.598052022423104
-11.219564692107097
42.44977631649426
72.45075203003171
57.744219361156006
41.29950786434991
42.69160907368417
35.62964705388701
39.23088525730057
71.39278984597117
87.59387109495695
62.88909577553137
13.231800005876755
-8.963754252198097
10.32625197585059
21.684122731812987
-6.690007853842402
-9.429205408914754
-9.894839158504983
-53.69674852352407
-88.38043857669042
-84.36684966045756
-32.77559614234378
15.741028007704456
7.516130967460862
-22.9947021851486
-9.815177388827568
73.61835854702089
112.42906432462057
62.90084123057112
41.82250602135425
32.04565690165539
32.14905071077686
59.560004769289826
84.05835377594038
102.03375161703022
68.6569465303919
1.7772438403427877
5.923242625596948
36.12629416769605
23.316355326535362
-7.880516098291438
-48.43929577307587
-50.99257489692153
-5.801440432023932
1.1671894091888586
-13.178727149989566
-38.08539777453915
-86.03775622632902
-47.560739814301584
4.483881138502907
-20.622957594922916
-47.53094930702459
-70.80969997288703
-97.5359506800729
-64.95659542233902
-30.481643772798176
-48.34578942174974
-59.640822248759676
-88.91285103833857
-82.07132314803356
-19.951793441205815
-36.47742501582036
-33.740424301933594
3.932413640658702
-1.1853797510561175
1.3391275214322813
-22.44137695135746
1.7848730577132985
16.66360517565231
-43.94426819928501
-99.279756893685
-133.35063146698974
-114.89183700418832
-99.99055398946038
-102.67036806501785
-99.7085386393444
-80.45057323397721
-81.05672950626573
-116.37673788586739
-135.28813932984434
-156.07072783223506
-136.60998175667757
-65.21398975512922
-38.5857999437507
-29.52891578877208
-15.037817069882573
-12.297734674558392
55.20382238487441
94.03225661651032
68.84848258374134
56.83393798262081
51.7623423149868
50.356973247228275
-5.3968325499411645
-20.155129633185787
-12.799683134956252
-35.843083043673694
18.65564170067496
31.386596112663636
26.53464710789483
27.566488536268764
-39.689947872513564
-40.908015106347044
12.864122172375767
-4.112909186100055
-58.919985501415724
-113.4610766906272
-101.99468856576794
-36.615374507723914
-22.93842739478412
-49.815234539921526
-46.0601135541523
25.611883062903047
73.63650697073318
77.48873142849138
72.21038252266072
76.56622732886642
105.75390396650054
96.7745798857157
-1.6368310671447543
-95.06948998097864
-73.09679355322406
2.5812004299962177
52.741616344089316
72.04507378108252
50.72303669582698
24.30003090572864
22.805352149708533
35.306324423866876
42.4990751911761
18.977880053732335
-2.4672553012499168
5.6803936051675645
-1.9774375690209791
-36.29691691529097
-44.28323503317588
-53.26217170642423
-64.36907380845082
-37.29353670326791
-10.77254279966944
27.16815579615344
66.64639786703195
65.25120872132895
104.47315146992983
133.7034727903731
61.37256423733893
-0.8546631803237313
-5.88192763004033
40.56205713209044
109.37071674935164
96.75108089623808
67.71262369637272
84.7746894474246
92.08736952823531
110.51439641103936
111.09042657021935
108.15191952296583
128.15042875986703
91.97273077517721
44.9215025529673
2.5763272523255916
-36.5252221737554
-36.32535415450194
-45.838756213432205
-41.34651816449993
-11.028127497056659
19.65412040254386
30.585448110097605
-16.566654732894644
-59.10539570010724
-63.15854869515678
-91.79231408379087
-119.81544068271835
-123.6090311606795
-91.45946087554202
-10.19682955115062
46.79993021173445
39.9540414264665
37.85983184747135
66.61766845592551
48.34024368399675
-5.013782513477444
-52.837208361845214
-78.79713704899304
-52.97363411994975
-51.21142076909643
-77.98679514909935
-76.92947699080722
-66.69536998800264
-53.702759572725604
-70.09464994980378
-78.13492675546722
-55.96727171664982
-33.5518739792896
1.8897231818287767
32.80624439818975
61.68766799058561
53.49649064617123
3.0462451429465953
-18.906947295739446
23.792825175248076
73.03134305173418
40.43331321456891
-34.67459057144372
-75.5379183227498
-74.50982614601367
-65.61371341358331
-70.94753173614261
-97.3627085911523
-112.59115324971307
-65.02468071140905
13.994140866022912
18.880156196408816
-39.20887563599216
-63.114315852856805
-27.041177549372936
36.80988004285215
27.32455864373747
-50.68830693464225
-99.4070598158238
-65.83610505182745
11.941269809618877
23.48474118271896
-26.991553496800144
-73.34999029164838
-55.222363503148976
-0.32708729845928375
16.62698208858473
-12.302697365828132
-41.02680411771873
-40.08947552043173
-16.741190888859744
-14.059139469507658
-66.68202336017514
-96.97272302689117
-81.01816312973678
-38.68722393925261
14.45050686962897
36.32999311183403
50.69345949252897
61.99761703463682
37.735324411221036
21.86379484327851
26.430581709040712
2.3768399339109965
-47.11997156610877
-53.915929992971755
-3.445868030952373
51.524900881667115
69.38918608172011
68.87545879949873
82.08455628709305
72.75676183072994
48.68268953060848
28.839027600708015
43.24099408012771
100.55411052224265
110.27758923469999
93.14232355383591
98.80905335186088
112.01421725189512
126.37724417838301
118.97079128061344
97.75161996694422
75.64401967172037
74.80521961744313
100.47130139217684
102.54831711995575
88.88296058492529
87.79484312563517
87.73502541700337
90.38162724540508
54.2043412965426
13.146667568583041
20.704340321112603
24.47737029895803
41.21370234241078
78.12470736155942
115.17240247136385
107.72930930401398
25.523110371292795
-55.73988512755742
-81.66259643203766
-70.71158432503749
-35.62501453706889
-31.3123306936228
-33.59981339284166
8.529111187374191
20.56085645678745
-3.1791413601403984
-41.5573898026185
-24.57472794259225
17.693075063176906
45.47668416712859
70.65003921070488
46.24413717569106
32.41441176098978
47.03595993207588
46.72781447991587
13.798984596239363
-31.29992487572385
-60.583925195359754
-69.49359092479676
-71.5848860157028
-92.92160161288291
-120.59975653936621
-121.92870286138135
-89.67534963407253
-78.95424461932849
-107.88587563790243
-92.47233343263134
-30.761863535130697
1.3112644826604
25.244706584705963
28.586264828703335
7.611587420493079
5.570371863509312
-8.67067928394886
-17.70001294309877
-0.1298470752802524
7.2876664652666605
-17.68965804608349
-39.43040561197551
-50.89198534572216
-113.66423175300304
-184.61066637467474
-206.4268960383861
-212.83140805157424
-193.03922269534812
-107.36913064572784
2.7819267797270815
39.71199334451364
12.83413558810564
-20.36518628510676
-8.403049945518216
36.85034709092681
0.41996908953855877
-50.77262927344338
-7.181416067113638
52.47720184109724
65.17338960411894
-12.225719500808445
-95.30366472650856
-57.97795429465939
-4.5957199856874915
25.846660383945448
21.804896606266922
-19.73418174100841
-28.717066841640776
-42.862872865048246
-47.31444761575635
-39.43866313882239
-41.09751259925708
-7.8088960898999735
58.83360313089442
89.92872298424746
34.23804338310004
-5.224996089549663
34.5743978549577
53.47991294390165
50.28054514776219
60.64980571884988
77.14942826754081
67.99416968525907
-2.767254794000012
-49.605718921092326
-43.172399639763896
-19.624919760386557
29.072491474435118
59.12210243241639
53.624330927540655
47.786042531996
46.311896581743454
64.7399669138281
94.10637411444904
85.21422385399782
87.68082750720977
98.76857601697947
74.0323971299021
62.60027148699832
34.11466593490882
-11.638026909119228
2.9203929045414743
32.83944524020387
-7.046489668194353
-49.21477989983352
-44.45249124930633
-17.92138178078504
13.357634221990144
-10.160179076229417
-67.07956701981253
-98.08534898826366
-121.88039691645884
-104.51648797091114
-31.734672256326444
-25.57350672666178
-85.16034481537974
-93.38836751903483
-62.87396986903141
-51.53154958130932
-83.82054885116065
-98.72683291663759
-30.095215114820327
39.04291713305295
79.51500272619904
84.57343992864759
84.76749231345771
105.65742659704111
78.2687452234811
46.829369301632916
14.963709516613909
6.242400638007681
-3.283385833964254
-40.26965736236973
-31.16208364656305
-12.264311749588767
1.9158808749525786
-29.380827576075
-77.02463279763252
-49.678622757055486
10.13208345104282
10.987003123064119
-44.509242212772435
-62.13967125625758
-24.041090927319644
42.611112350832634
80.54471094673215
96.55642079047094
114.88887549639031
102.6079469271128
104.46972025921855
86.27397700510866
33.391690346581214
33.978825881145255
52.71061360483016
48.00443519801283
27.614178253712392
-44.63739164009529
-69.60729627596106
-10.972357793218553
26.265933422932154
45.34026717574368
14.3599673208015
-30.273352098158096
-32.03519056607336
-38.588712488987035
-52.94009656010403
-69.55518971372608
-60.188892603437964
-6.798408296928448
43.63471603863118
57.30856335680581
27.641284924630643
-9.901514990257427
-22.2326349872915
-3.230866405910143
43.04486709380162
46.03088334806893
17.432828748313522
14.240440583701515
29.49065273308315
62.55102873021966
89.5481213076766
99.96370413614358
89.7048495154686
46.847892461252584
23.57757231801115
26.02187432170105
16.132235354893176
-20.59077023056425
-67.03779882473737
-57.463659928306164
-20.85050752262321
8.879376612788942
37.51052827426055
52.95079876756325
46.858362584978984
24.19666488867311
14.75532143633079
8.966932439658612
8.774607233318335
35.3984570533655
46.88764817400714
5.238161602551439
-47.14617742514853
-87.5564260644282
-90.75445022941405
-75.438665610343
-74.13035105818497
-81.46448091310185
-60.93258018347613
39.85650739297965
114.87625710131456
113.74407139585408
89.7717619556854
48.322385081919876
8.447665296072577
-0.6330824405718011
6.7489935543560895
-4.471014306085681
-30.242224234722887
-35.63164368409502
-17.536772856824182
-16.177013666850918
-14.609892336762655
16.2608549592328
32.299696187243086
-7.218596788786831
-72.21244343480525
-80.28787012994754
-13.030683211099781
-0.8921120681221735
-18.361069393855832
27.117470008090734
51.955997776671396
66.06467412186659
74.92654273494219
43.8418929903775
-9.887472005534036
-33.883356644371766
-15.455429681786924
-19.064985851256882
-31.167803332856693
-20.426143998191815
-1.4140617535804418
17.62300794745703
14.439920532917172
8.275345583142094
21.899444160488365
17.307304840129206
-12.222874299352831
-40.64653933047683
-59.37413282157085
-78.91424900925954
-86.50715844546318
-83.83948688879737
-90.51012745241425
-89.73901113739548
-50.51352290721788
-30.265724632775783
-47.761315887128504
-34.962859862944796
-31.60191704619375
-47.39508219867145
-48.56576401408503
-34.88903134579808
-23.525061894379373
-7.91621158714237
20.76622450629501
11.202680834825557
11.24790552900434
15.335387538761031
3.5664383227442116
8.83806439771955
5.791320584222727
-10.785189615139183
-31.716462672127545
-53.48558394806211
-90.05126036435617
-97.37854076160573
-55.823244023314516
-35.20330950236602
-36.957230545479746
-26.93010781514653
-24.855953941223827
-16.733519374586667
-0.7262659326911567
-7.515222350598925
-9.419693937071361
20.433807133312804
69.18830763299857
112.53237910693079
129.3142927507181
109.27503780339549
92.33567490187652
92.55528875910939
87.16127596452726
97.90402975927023
97.29396601860371
77.71392792930948
69.18225245046224
55.92861985140974
16.54885040949599
-26.182177707108753
-53.86938938851786
-27.39511561312419
-5.445794845882878
-33.980094478112846
-46.70627676425515
-53.74620631902051
-20.818227409883896
20.228126526119333
29.021662266244316
47.765016879489814
66.6294760554086
58.961870880743845
62.58062069203732
73.24203303696406
53.459119263703506
41.37318256936504
23.245580598020172
-7.4504577778351795
-27.991710144640468
-28.560222632757043
-17.644465716197594
27.733495397970973
79.1324187750495
97.37480610071823
83.93573104082876
45.73287880724846
38.49364158075585
22.348242151753738
-5.822440067689539
-54.30617587900514
-111.99049205763437
