AAD_Filtered_TADAS_FILE
AAD_BASELINE_CORRECTION: BASELINE REMOVED
AAD_FILTER_TYPE: BUTTERWORTH
AAD_FILTER_ORDER: 1
AAD_LOW_CUT_FREQUENCY_HZ: 0.025
AAD_HIGH_CUT_FREQUENCY_HZ: 40.0
EVENT_NAME: 202302060117
EVENT_ID: 13194
EVENT_DATE_YYYYMMDD: 2023/02/06
EVENT_TIME_HHMMSS: 01:17:32.00000
EVENT_LATITUDE_DEGREE: 37.288
EVENT_LONGITUDE_DEGREE: 37.043
EVENT_DEPTH_KM: 8.6
HYPOCENTER_REFERENCE: AFAD
MAGNITUDE_W: 7.7
MAGNITUDE_W_REFERENCE: AFAD
MAGNITUDE_L: 
MAGNITUDE_L_REFERENCE: 
FOCAL_MECHANISM: 
NETWORK: TK
STATION_CODE: 0129
STATION_NAME: 
STATION_LATITUDE_DEGREE: 38.259195
STATION_LONGITUDE_DEGREE: 36.210863
STATION_ELEVATION_M: 1456.0
LOCATION: Kahramanmaras_Pazarck_Turkiye
SENSOR_DEPTH_M: 
VS30_M/S: 965
SITE_CLASSIFICATION_EC8: A
MORPHOLOGIC_CLASSIFICATION: 
EPICENTRAL_DISTANCE_KM: 130.43
EARTHQUAKE_BACKAZIMUTH_DEGREE: 
DATE_TIME_FIRST_SAMPLE_YYYYMMDD_HHMMSS: 2023/02/06 01:17:34.5207130
DATE_TIME_FIRST_SAMPLE_PRECISION: millisecond
SAMPLING_INTERVAL_S: 0.01
NDATA: 12501
DURATION_S: 
STREAM: HNZ
UNITS: cm/s^2
INSTRUMENT: sensor = ACEBOX/SARA | digitizer = 
INSTRUMENT_ANALOG/DIGITAL: 
INSTRUMENTAL_FREQUENCY_HZ: 
INSTRUMENTAL_DAMPING: 
FULL_SCALE_G: 
N_BIT_DIGITAL_CONVERTER: 
PGA_CM/S^2: 30.413
TIME_PGA_S: 
BASELINE_CORRECTION: BASELINE REMOVED
FILTER_TYPE: BUTTERWORTH
FILTER_ORDER: 
LOW_CUT_FREQUENCY_HZ: 
HIGH_CUT_FREQUENCY_HZ: 
LATE/NORMAL_TRIGGERED: 
DATABASE_VERSION: 
HEADER_FORMAT: DYNA 1.2
DATA_TYPE: Acceleration
PROCESSING: Automatic Paolucci et al., 2011
DATA_TIMESTAMP_YYYYMMDD_HHMMSS: 
DATA_LICENSE: U (unknown license)
DATA_CITATION: Turkish Accelerometric Archive v 1.0 - Disaster And Emergency Management Presidency, Earthquake Department
DATA_CREATOR: AFAD
ORIGINAL_DATA_MEDIATOR_CITATION: : AFAD - Disaster And Emergency Management Presidency
ORIGINAL_DATA_MEDIATOR: AFAD PROCESS SERVICE
ORIGINAL_DATA_CREATOR_CITATION: AFAD PROCESS SERVICE
ORIGINAL_DATA_CREATOR: network: TK
USER1: GuestUser
USER2: 
USER3: 
USER4: 
[...]
-9.391479845968846
-3.5993280696227976
0.48929341118559216
2.8150896990702328
1.8686619780386469
0.27539413492675635
0.7516746760381647
2.1935456708779926
3.83117841349557
3.747933032221593
0.5015187308311844
-3.5956926675175787
-7.144724160599795
-9.182314336373567
-8.909460572124486
-9.015821147835373
-10.225227421360835
-11.019664090996145
-11.840550655726638
-10.402745143958791
-4.956389899299485
0.20925158276191422
2.6960361548646454
3.500078674168838
1.6301525745581935
-2.751436222423547
-7.3390162688145395
-10.800154947697244
-11.459660496367663
-8.461282169240176
-4.864510723849788
-3.964589404321265
-5.561913678820422
-8.28681185816168
-10.400625794895902
-9.208096275563745
-5.304016114996403
-2.8041598491022364
-1.980149854526634
0.10661000130603891
3.011350987014706
4.81606459676414
4.990627423377129
3.913944637887717
4.552532676084323
8.882747631541113
13.314200808049819
14.700248028558866
14.717241779043917
15.08618129497519
15.287966412906176
14.143583578842378
10.798472487836444
6.200476950860712
2.2476954310770765
0.6051330241764643
2.74554028132037
6.0394449754885144
5.573009838843444
1.7129981065380313
-1.9214512436718822
-2.251111072055259
1.073514010300314
3.4697282452438922
2.2282971774563554
-1.0755467261193268
-4.05211439413568
-3.332256088905606
-0.04166820181127855
2.185984873763276
4.301004567315871
5.458885369097626
3.8096193529537197
1.5183247530755402
-0.5001198045214723
-1.3757905766741183
0.48301092709700144
3.2857026322153566
5.2042651678122445
5.643077357881646
3.829656683280368
0.5593090487348323
-2.749593746833708
-5.299740962259009
-6.51826252106657
-6.081547345190172
-4.766303795152852
-4.961309119449312
-7.545308084667888
-10.48588166852507
-11.29358880044379
-9.111137795977328
-6.16831643473913
-4.5192161300024
-3.9319650211382866
-3.9132158323903092
-2.221092489316258
1.2753439944246336
2.727195775515182
2.2626168873529733
1.9230225107809489
2.7295245241686334
6.261295088129867
9.157082976276556
8.05389155654333
4.933632577908096
0.32883241480682496
-3.4425697695525126
-2.956034397695217
-1.1441436920965473
0.5216725219701424
2.890200120333152
3.2619155039157253
2.668367539449032
4.589078627372115
7.440137634881803
8.076610179857328
5.642503503592886
2.5401314031573077
0.6670327625093715
-1.8391018323492538
-4.898751257744397
-5.942181373279988
-4.101869585382079
-1.3893013872541764
-1.9905931191662214
-5.717366014130756
-8.303679120732257
-7.96018812396274
-4.4374320640341045
-0.6449615962337889
-0.2372315876799663
-0.6290104147590893
-0.2343134237784653
-0.6025411017867958
1.1653128598643192
5.992295136913703
9.553886339147848
11.117866375038611
11.202054507521678
8.151378912273277
5.029486391467004
5.778444718643835
7.914783199888916
8.66688308005042
7.161877058070837
2.8390663305617334
-1.3539657026145788
-3.2511319544718824
-3.517132788428398
-1.6195973305476945
0.39792453201691297
-0.9836417771557838
-5.1905026851486715
-10.14437016293571
-13.336408287304277
-12.601534533387746
-8.200975404391246
-1.825704612545989
2.8084589597927763
3.145889267647844
0.9425546686049336
-1.565587778304119
-2.9448171969776595
-2.930201364460109
-2.1688831754803304
0.0008153807720426753
2.633321129396573
3.1944678449387194
1.080577456905282
-3.5473809770895
-9.079794466343994
-12.179238506241733
-11.799097399632233
-10.340662522711819
-11.205253491390279
-14.691466579335817
-17.22383462184656
-16.724747833110758
-14.15036192691457
-10.270882092334865
-5.348087481385486
0.05369428247188163
4.582409531683627
6.752116591206247
6.582174735718051
4.884237609479214
2.949145698760448
1.613436363939558
-0.239938949311399
-2.7509558453619487
-5.4469206060321875
-9.211440023617547
-12.066536882154358
-11.090196470164155
-7.53532898174585
-3.2027053816036153
0.9814200368850483
3.766416309472164
5.4136824443189475
6.237727878286228
6.214939429700442
4.876851160410116
0.08184988538212344
-6.767526832724676
-12.045598653937466
-15.278993606387006
-14.943125173629012
-11.15658484833531
-8.528063855342769
-8.622481191078354
-10.236553924901486
-11.125140809526748
-7.6671857291463175
0.06613388918663961
8.91342988245611
15.87905682585354
19.53989705253385
21.622786391983606
22.85981801349257
21.545586216528683
18.3548327484613
15.910250178572126
14.385151286960655
11.823128683323908
8.034207312918562
4.043192483596446
1.153356631405362
2.230829469994881
6.866399168002404
10.893584701170324
12.897783317684782
13.43616683963478
13.367003837630609
13.184616380152004
10.998756917016529
6.434852687818995
1.812228184102301
-1.8576943887443451
-4.379608966588139
-4.685326208628986
-2.563438288113562
0.17934307446194198
2.6970428108033424
5.128551609909152
5.693417034291765
3.922816636091305
2.1606251688387204
2.308512577865525
4.251395267469953
4.725771750191632
0.7645940686573536
-6.130934295949456
-12.700822245169364
-15.836685462690962
-13.582131826421119
-7.765902420109779
-1.100768669829894
5.11193099552602
7.867052547163685
5.81370719861089
1.6309843632979466
-3.5324334616828144
-7.223103566319896
-5.687310254462058
-1.871793291408678
1.074792760409471
3.44810860388837
2.815832542879255
-0.24016597517749613
-1.180459826037096
1.1540745958795322
5.722179309234967
10.005230076681533
11.31569953773949
9.980197617985278
7.1234050135614835
4.606679727012472
3.655404414238795
1.9355127504004879
-0.4825999514317431
-0.5304498738217301
1.0855951214487072
2.696179373967284
3.891838840380657
3.5782361068421675
2.6861388700809745
1.6528276175860352
-1.1255819265449747
-4.163966881063192
-6.512391508036386
-9.234335589172733
-10.072602798274877
-8.374801299611288
-7.213478036544944
-7.217367559974324
-7.1885932013230445
-5.798353898727695
-2.727151095380559
-0.7734090389354741
-1.2389177866405316
-2.3543031965356747
-3.584654575637567
-3.9373192873545295
-2.31002335072917
-1.406199952462204
-2.9084097323070277
-4.882948780641677
-6.715067852403596
-7.969491334948581
-7.597489365043603
-7.330094719176717
-8.648919291735591
-10.618816978416325
-11.697990702712433
-10.018430023465715
-6.355165695026266
-3.7643899702999732
-3.709827590067134
-6.203275891884857
-9.037365940256867
-9.745356637930385
-7.856939027587093
-3.349214862720538
0.5522319681814906
0.5521872557837448
-1.8586974959167495
-4.790921410846563
-5.306357243324404
-1.0926337877877252
5.316361807883443
11.224756407722214
14.449024429651248
14.226084148248844
12.303499097335175
8.85396733807877
5.642448120342809
4.73626238407993
5.143356994167742
7.4256007565872215
9.594255232705455
8.311717862217542
6.363756264032876
5.485173674268383
4.078610036251157
1.1282206660707743
-4.433030041859849
-9.942292748762945
-11.334033351100345
-8.405684666972356
-3.1443503228552414
0.10585621530754263
-1.645300390894851
-5.844280272051251
-8.26228409107212
-6.952226988144006
-4.384715115516162
-3.6514984061020854
-4.553575043876768
-7.398119747957584
-11.099738352961118
-12.31005919854285
-11.520794460124007
-10.376176828389704
-8.556176785702917
-6.232020007044859
-3.2862623174540957
0.2959044093230075
4.317280759993691
8.909379437988754
12.141227016527942
12.396211962953393
10.84860552087114
8.376419680022433
5.742785650679816
4.114671319426447
2.8585092730151613
0.8721459551299245
-2.153880214915194
-6.2819271063621915
-9.831307458196468
-10.507840799237153
-9.068306428989883
-6.959989037873491
-3.258904117922818
1.28090231648191
4.3006637436410715
6.641817505668774
9.200840480736309
10.716305806054182
11.190093951457788
10.394467586041694
7.671268952814118
4.900673811642304
3.5718674396692762
2.5023081093106416
0.2273855150514855
-3.210090919610414
-5.737144893981701
-5.932458107584805
-4.811794421147676
-2.2556765123890234
2.2124115533337694
5.612427625893586
5.189503227067524
1.8947992612437536
-2.076409551240218
-5.075909911382007
-6.467813155953497
-6.8558132271096595
-6.981549759745607
-6.504644085610236
-4.689146124295289
-2.461273622886557
-1.208968406579845
-0.5215952660423009
0.029265010510382425
0.745937254139448
2.964054826742199
6.381041605098698
8.823160587626065
8.261483286117885
3.426545707888379
-3.8333269216794874
-9.497185890260402
-11.722366813790035
-11.323056806897368
-10.21231980504368
-9.062522138061428
-7.247741409956815
-5.4312033625390415
-3.7334309563078762
-1.9551267467715496
-1.9515906105816763
-3.021484273692446
-2.4295159801700197
-0.5508120910652092
2.9402443845387642
9.023314083139159
14.397744042064266
15.664427227855024
13.025696951891833
8.568960376541908
5.16934139270672
4.714740117103451
6.9576012651226025
9.104011966539748
8.406543264881334
6.270338514479074
4.708432547807632
3.5328764608240393
2.5889798616515014
0.9530380040806291
-1.087851761443507
-0.7799562188796326
1.5237443157790018
2.191422371191693
-0.20704347513352916
-3.6952887765295177
-6.055885229768786
-7.298294959154397
-7.758762696684149
-6.458722671474264
-2.950185365673763
2.1888634182127795
8.091127641753516
13.211959314380538
15.554748032461305
14.392606923134718
11.553759753644337
9.530925809251212
8.943903236727698
8.986501376038332
8.677599520792944
7.916157158193594
7.784137250498749
8.37825278851399
7.530920918772862
3.530024667937012
-1.3282916174747532
-2.3295926603169623
1.6845252396432293
7.477594351207123
12.35685616968417
15.235404844825611
14.972503706098333
11.776913667507756
7.044130296823981
1.6536627851140102
-2.9099114601915788
-4.949837285084372
-4.104592844156156
-1.4582333370149867
0.7887864644577464
1.6011265394395962
1.4545557475611968
1.9605043763363457
5.4697115461226105
10.02327361220288
11.634530596185174
10.14583964034528
6.548310711284743
3.5289678087340763
3.5087819688305895
4.196354292610451
4.698192195301215
5.366653507379016
4.659179363577962
4.24362064422437
5.948052102841396
8.11990185611485
9.4003047711391
8.676976983398704
5.54846326556534
1.6921686720624314
-0.7345662216899349
-0.29495210832754365
1.2627412645991989
0.20007793270527285
-3.1792889985758097
-5.6215182336114635
-5.440363056874626
-2.6940115609486077
0.10924897165567118
1.1967010199707941
2.7793920861314754
4.4156192905067035
3.453324132783746
0.9189779591214827
-3.2265597608375893
-8.87456728469172
-11.985723895206636
-10.594737859852362
-5.510140508690169
0.6389201818515998
4.280467674480016
5.22129329306062
3.538543067329226
-0.16013350700901086
-2.327047379557379
-2.160214593852571
-0.6604145668910824
1.2735315916691188
1.7409934285347552
1.392094144696387
1.5894907409230128
3.2205737587893677
7.078145260818079
9.500706475345897
8.437199770392365
8.000996088796558
9.315003023909114
9.546277672008223
6.764722056251733
-0.07338460367130922
-8.065151014345965
-11.397282416501529
-9.599233939167917
-6.3305130521005
-2.6725929502482755
0.7242437326163733
2.8341518914225152
5.4106384750021
9.539299034656132
13.817930116683765
16.454783884329228
16.36339616792126
15.702019748460387
16.479553666044275
17.07352915583256
16.122776606353725
12.76267808203474
8.706031032039512
8.491112751741557
10.450242739778275
9.57853957059572
5.698396860618271
0.9650441923692497
-1.702229454586315
-1.8086425115710751
-2.821727483164537
-4.89602236877761
-5.823515356300034
-6.582353798534231
-8.244639927756447
-10.826278297397574
-14.780085563954458
-19.271372455303112
-23.18683323555663
-25.438102762029466
-22.998368933305578
-16.27756548430729
-11.035394813443217
-9.529016356289205
-10.277426783282712
-12.553821057252643
-13.646244937365921
-11.417826964215426
-7.2994067192268615
-3.0019325991102397
-1.4113859552749624
-4.616439102497898
-9.244363266264559
-10.989843574710529
-8.465420681821207
-2.817250589815534
2.0870911282645106
4.588560756973584
6.6868415813303494
8.159534567062698
7.430415806004481
4.953755938215739
2.316577537594199
1.0304448713161325
1.0080446472442042
1.5698810941595998
1.5484820476146526
-1.3261596457605482
-5.976311121282497
-9.74568151222537
-12.578882878984997
-12.931707831958866
-9.790068411424539
-6.586245060423864
-4.878606975895223
-3.6508648123592944
-3.8985389554154577
-4.977145709795341
-4.636751372989699
-3.106482914225107
-0.024522335603837937
4.028379257603833
5.82556639713618
5.099201007624506
1.8533897641300994
-4.153104709063205
-8.931201724814885
-10.273933625745334
-8.255455421412943
-3.338205271464438
-0.5939613614294352
-1.7486335810146836
-2.252589837977392
-1.2251105183072448
-0.3910962104496599
-1.217256102503471
-4.844031364103306
-8.988908527821012
-11.988810046336463
-14.895160561514713
-17.717696250030777
-19.317583753665122
-17.453210097160884
-11.414219694491715
-3.8563099664055747
2.4610492840759055
5.59651657865209
6.592664928872596
8.904152838623196
13.158060295511826
18.148983965303437
21.74352213724286
22.42174242880122
23.024804104580934
25.47907979808716
28.11632922140728
29.94536787711775
30.07286151964763
28.116142992813813
24.955623729563648
20.511294775471168
15.82870788726851
12.529908991839308
8.942757090792092
4.007221095707164
-1.4575760278765653
-7.856881649855384
-12.099496106005475
-10.364396166361166
-6.532812662019034
-4.018042958625371
-1.158419571733966
0.9877252531702744
1.3521847845507753
1.4572446011508915
1.0305567482379132
0.22845702063183843
-1.0514742114674605
-4.882399069092414
-9.164785773221892
-10.452562374096901
-10.166872505711654
-9.58374325198542
-8.842886365064153
-9.479608377874682
-11.509965679771762
-14.398567518385919
-17.95344266334595
-19.71979226306668
-17.895018877784977
-14.438943139783191
-11.70142605076456
-9.402948661595376
-6.636769124837083
-3.2604172728830965
0.6239929497759678
3.1587718789098735
2.959471645472049
1.5867770935016694
-0.40802676483023065
-3.2230469291199766
-6.868280837576385
-12.389284420940937
-17.184721782802768
-18.05838586121954
-16.41817810415956
-13.184934000571877
-10.548862179185
-11.427952046436008
-13.134342349015203
-13.377121956286947
-11.638024452795221
-7.136046645596742
-4.170209647703741
-5.947198442118126
-9.450438825896923
-12.002795301304332
-12.252745319104644
-9.529714574352221
-4.315784105143616
2.8142848529963924
10.247759268440683
15.941960102761614
18.443787062029745
18.022922745951448
17.26064445358692
16.963354219555093
15.220572787724098
11.289136901959678
6.774941815051839
4.250493225059174
4.856361533844974
7.387718067177541
9.765893768358993
10.033697856114031
7.532549795863383
3.4509145693078316
-1.160007937121812
-6.311024202792063
-11.187166183204164
-13.517425495403362
-12.125262616090414
-8.433590395072002
-4.143192052691478
-0.10624469055944157
2.8845536561364775
5.790816407312017
9.786846911349517
13.092955502873505
14.432300046391099
13.861404155956858
10.819783029491044
6.828155733542404
3.799945198532837
0.5601993071749825
-3.8045338018499444
-6.816898343889667
-5.307826440744062
0.20342326782617434
6.720667046981264
11.968638888411954
14.674888722038887
16.29878151831969
19.295247165165648
22.60676776539872
23.781144742887445
21.908476286093386
18.045580893206516
15.033418016832758
13.97396633891538
12.971494608878116
10.766901489344104
8.681737763936923
9.05635579021908
12.164613252230716
15.548517110304063
17.057798348332405
16.187759832056862
12.302567369154799
4.8917191438063705
-3.788519279938339
-10.340391743968535
-13.834004907182404
-14.413553209799806
-13.12853122462069
-12.457407642723807
-11.908614617057703
-9.013470119144397
-4.215587707952659
0.7894128959544109
4.365915969586272
3.7177632447491455
-1.184813724075474
-5.096931820542241
-5.290735582555357
-4.955160889683469
-6.361901928869903
-10.303208153868681
-16.182200296894415
-20.228992772137527
-20.93512500319996
-17.993388459840364
-10.627674768903695
-2.8473054422161788
1.8393694269695133
3.7864120598639746
2.376575381641011
-1.056595144977768
-3.276519223706649
-3.6469021897274345
-2.5126364837367965
-0.6271853165918303
0.7963158208021109
2.343437710668404
5.6127024776531345
10.543292656400562
14.59636712079205
15.114775317388398
12.22161570517969
7.779606630494699
2.9225124698392775
-1.494901249752857
-4.4755458975001385
-6.7339162625742945
-9.206106697042191
-10.318876706938545
-8.90730200651785
-5.259403820039635
0.633196933014185
6.598918890087493
9.872008081675343
10.838295498529712
9.700290170459041
6.02388094976446
1.29425035908966
-3.3966209452211875
-7.3340931952603965
-9.000528859089247
-8.160506912787554
-5.010932034237126
0.3148395791967907
5.170441738982684
6.351452191274466
4.161914372010859
1.3788373397625768
-0.5091045446770108
-2.3610663194533696
-4.809406612015942
-7.062053462015836
-9.708842533081015
-13.906209118757756
-16.920491296133665
-15.863158943666253
-12.572178758495713
-8.796513487435005
-4.358573537991746
-0.1878815074862924
2.9421260151332413
4.815668936548483
4.493201873329949
1.41975103912833
-2.5094272400125925
-4.504706517462774
-5.159590364562026
-5.572802487266426
-4.7925709570374515
-3.749949523478137
-2.9081291576317843
-1.3784288694602767
-0.8311921695489547
-1.720676718551077
-2.3990585640055633
-3.187418898521882
-4.168570107327328
-4.367600905483008
-4.154645360730172
-3.2332955625087605
-0.553991551247516
1.7845228519462968
1.5027702395560236
-0.057847072914469506
-2.124595214878742
-4.445752843190389
-4.488548222344998
-1.1269229510937815
3.9148077270266644
7.701350805771147
7.019598404041081
1.6450337401083952
-4.372114504215448
-7.06903667014239
-6.198913072109485
-3.4475572875856275
-0.8522631746083754
-0.16465066975218762
-1.122692660662989
-3.8804284279508825
-8.258442859320452
-10.292235708391916
-8.62202585188402
-6.390657501961577
-4.588731419127662
-3.142286193776181
-3.1849625944828475
-4.574600395490708
-4.911281940978162
-2.5964152242495584
0.0017499269163576085
1.1057582026522463
2.0141861584512406
2.170815248079522
0.7498352593770438
-0.62502659375985
-1.043126322745441
-0.37589468981202245
1.6247256936738381
3.678771555573696
4.160046093916259
3.928002017881871
4.493596620262136
5.434139709345423
6.050400056318151
5.824938272255471
4.532821563040071
2.842396626835359
0.7510208345649396
-0.7892121035255337
0.26801504571754303
2.783336004602546
3.42064727954489
0.8135712886760781
-3.3441094051058964
-6.386149627608309
-6.628229597658988
-4.392141881455528
-3.2327264833022777
-4.894798790463795
-6.290624884852761
-6.075006669454227
-4.979228490361148
-3.210846345129762
