AAD_Filtered_TADAS_FILE
AAD_BASELINE_CORRECTION: BASELINE REMOVED
AAD_FILTER_TYPE: BUTTERWORTH
AAD_FILTER_ORDER: 1
AAD_LOW_CUT_FREQUENCY_HZ: 0.025
AAD_HIGH_CUT_FREQUENCY_HZ: 40.0
EVENT_NAME: 202302061024
EVENT_ID: 13207
EVENT_DATE_YYYYMMDD: 2023/02/06
EVENT_TIME_HHMMSS: 10:24:47.00000
EVENT_LATITUDE_DEGREE: 38.089
EVENT_LONGITUDE_DEGREE: 37.239
EVENT_DEPTH_KM: 7.0
HYPOCENTER_REFERENCE: AFAD
MAGNITUDE_W: 7.6
MAGNITUDE_W_REFERENCE: AFAD
MAGNITUDE_L: 
MAGNITUDE_L_REFERENCE: 
FOCAL_MECHANISM: 
NETWORK: TK
STATION_CODE: 3141
STATION_NAME: 
STATION_LATITUDE_DEGREE: 36.3726
STATION_LONGITUDE_DEGREE: 36.21973
STATION_ELEVATION_M: 111.0
LOCATION: Kahramanmaras_Elbistan_Turkiye
SENSOR_DEPTH_M: 
VS30_M/S: 338
SITE_CLASSIFICATION_EC8: C
MORPHOLOGIC_CLASSIFICATION: 
EPICENTRAL_DISTANCE_KM: 211.11
EARTHQUAKE_BACKAZIMUTH_DEGREE: 
DATE_TIME_FIRST_SAMPLE_YYYYMMDD_HHMMSS: 2023/02/06 10:25:03.3966060
DATE_TIME_FIRST_SAMPLE_PRECISION: millisecond
SAMPLING_INTERVAL_S: 0.01
NDATA: 14501
DURATION_S: 
STREAM: HNE
UNITS: cm/s^2
INSTRUMENT: sensor = GMS+/GEOSIG | digitizer = 
INSTRUMENT_ANALOG/DIGITAL: 
INSTRUMENTAL_FREQUENCY_HZ: 
INSTRUMENTAL_DAMPING: 
FULL_SCALE_G: 
N_BIT_DIGITAL_CONVERTER: 
PGA_CM/S^2: 23.117
TIME_PGA_S: 
BASELINE_CORRECTION: BASELINE REMOVED
FILTER_TYPE: BUTTERWORTH
FILTER_ORDER: 
LOW_CUT_FREQUENCY_HZ: 
HIGH_CUT_FREQUENCY_HZ: 
LATE/NORMAL_TRIGGERED: 
DATABASE_VERSION: 
HEADER_FORMAT: DYNA 1.2
DATA_TYPE: Acceleration
PROCESSING: Automatic Paolucci et al., 2011
DATA_TIMESTAMP_YYYYMMDD_HHMMSS: 
DATA_LICENSE: U (unknown license)
DATA_CITATION: Turkish Accelerometric Archive v 1.0 - Disaster And Emergency Management Presidency, Earthquake Department
DATA_CREATOR: AFAD
ORIGINAL_DATA_MEDIATOR_CITATION: : AFAD - Disaster And Emergency Management Presidency
ORIGINAL_DATA_MEDIATOR: AFAD PROCESS SERVICE
ORIGINAL_DATA_CREATOR_CITATION: AFAD PROCESS SERVICE
ORIGINAL_DATA_CREATOR: network: TK
USER1: GuestUser
USER2: 
USER3: 
USER4: 
[...]
-11.542953206596742
-10.128176518674842
-8.559412001473957
-6.88065788396897
-4.998088101163162
-2.777093000384402
-0.33277759924147454
2.036850778386504
4.092235579248634
5.75099662173494
7.1065191338499005
8.179824931160208
8.691873734242114
8.465349842900395
7.8078990852817665
7.05373449336949
6.172435337225214
4.875877564014177
2.92831955320537
0.415724109231568
-2.412735160506148
-5.120886945641986
-7.334203019046654
-8.916323977081682
-9.897726466010743
-10.629950022646675
-11.258499729609898
-11.639285113079787
-11.471932460486146
-10.463174693068336
-8.721037466244072
-6.439004470473111
-3.7006143752667366
-0.5933919432470085
2.634159494571643
5.629263951986448
8.058719015737593
9.761593616356572
10.686841006990822
10.805442925429125
10.148960409606607
8.799579132734754
7.043966153963505
4.997505086030817
2.9836932715435363
1.3667711496210815
-0.19069327925970694
-1.8810944025030436
-3.481664139799218
-4.59940997524486
-5.321684775039653
-6.055261945842071
-6.4968555451123535
-6.270798095491344
-5.3067687565329695
-4.027681326621197
-3.1050348850227167
-2.668314168780023
-2.5515740453414026
-2.361734887441236
-1.9283521412446298
-1.5457843056061489
-1.5154568615172372
-1.9516788000616707
-2.671579626992211
-3.6132821962693225
-4.984852399861066
-6.975716955455259
-9.580557676106142
-12.252985814680432
-14.207558690509268
-15.474696307045967
-16.3997054467921
-16.739219344888
-16.57038349975685
-16.288381712234372
-15.951738444600485
-15.601946616031999
-15.27064272968517
-14.780831852814247
-14.028139969581419
-13.088603556378542
-11.79252692412731
-9.980957252090086
-7.724781234446907
-5.1547652192478175
-2.5245266322358675
-0.05909340995517586
2.121238739946644
4.066172085324855
5.670656562899384
6.633103143301852
6.9224604189708
6.951707117112107
7.265793203986767
7.767960574132259
8.038684782653212
7.797905720725506
6.776030685051505
5.072430059123127
3.001057126766715
0.8806194139459249
-1.0146901067041068
-2.7025790673488075
-4.172770640769097
-5.155522539277871
-5.511329189611042
-5.7844301550001065
-6.604258670397116
-7.956654610396965
-9.565213640538532
-11.040279329971003
-12.262517718386325
-13.305752694942699
-13.945552161124716
-13.998008552813394
-13.519046568999688
-12.707006962679285
-11.755325597587388
-10.702922772460619
-9.348025677650167
-7.671697019636763
-6.017809824154403
-4.587240998321272
-3.353919011078641
-2.09904037081692
-0.7160455469518616
0.5099578756736473
1.3183515163802637
1.6151794001830095
1.3261911816284295
0.4774070964329663
-0.7739864016578792
-2.1934758410117463
-3.5411635714079943
-4.688224681191992
-5.747475618535087
-7.0479400891537844
-8.613742125007288
-10.06539087738936
-11.079853542917988
-11.55694921182157
-11.93097029475162
-12.505040501430583
-12.760293252481004
-12.356105373720334
-11.49978401151891
-10.405958363470484
-9.073222323982709
-7.567710711294159
-5.977092923562073
-4.091227329039287
-1.9498840394716905
0.19851617446792358
2.136618865278058
3.651379272925315
5.003402812602893
6.38815142885916
7.391868561980352
7.5957406386981035
7.096497638512499
6.3137246514354
5.52279126457658
4.655394131685352
3.413359840821344
1.8624095070259277
0.3772023517776828
-0.7642702051536115
-1.34621897769467
-1.4759837730562735
-1.3000986868380562
-0.7114624978309518
0.13514296259521533
0.9335904417709537
1.5914216800961074
2.2488621779746043
3.2141282366975545
4.350128304087177
5.3981787023347865
6.489253555242554
7.6916454471466045
9.025223715586137
10.263652530172548
11.102957460717011
11.705719783293771
12.26824468032981
12.59224420846078
12.274196612812853
11.034128584251402
9.024634366006302
6.666044289095645
4.354397727594248
2.3157127372150788
0.5090553403258831
-1.0106282467873728
-2.288418504716827
-3.308233177252359
-3.8139593468485837
-3.7861880404901034
-3.2940503725080625
-2.576233188978084
-1.67412446770298
-0.4599367230196877
0.8773635903006584
2.132036630718253
3.1212718072868473
3.7482159163232307
4.086689217270303
4.101402516032958
3.3400428313035757
1.6098761115766322
-0.8890581998572821
-4.033495451077372
-7.272098763076748
-10.002530540982761
-12.113984227357976
-13.65310766320079
-14.493495264789793
-14.585482868380938
-14.181032984937547
-13.534871749932949
-12.836819972169915
-12.119982212821924
-11.27351991708702
-10.074506826271318
-8.305427328072316
-5.864286218916726
-2.8155178085260273
0.3809974937180863
3.3141499176905698
6.030218072078233
8.726805597888905
11.203738381665913
12.761176138060321
12.996966385606777
12.123453046950429
10.415786474089549
8.143759855117022
5.607073919267393
2.820099668968693
-0.13178922670471233
-2.8276429653262154
-4.818114425379536
-5.676220413607238
-5.571425726501257
-5.218071184911555
-4.712553093310657
-3.7215185422379595
-2.221860627823369
-0.4681224465699785
1.338975808723541
3.4140432516201487
5.918286581586376
8.314140238545157
10.002735299907208
10.997568612405198
11.420190765124099
11.37727661958409
11.207159584553484
10.921090594373627
10.433484227000037
10.119275178928394
10.183956851037738
10.416912882142912
10.4892877697852
10.057699267951977
9.163357580247364
8.268598043482115
7.476098736438182
6.486719795637189
5.330003864926444
4.323433654134859
3.747623061288769
3.8193677886322805
4.436680893689065
5.282560321139442
6.206331381866545
7.081640474494316
7.81944047554485
8.404405955880787
8.812559369100132
9.069445184887163
9.240217066839516
9.549208155020045
10.247036617249034
11.428109990416193
12.863012888853001
14.020244834108636
14.55355779052746
14.477884836804138
13.909338496200037
12.526311127362588
10.116520017604767
7.4653485143279505
5.434419755935679
4.078831903389829
2.9886559778351
1.9285217442620535
1.0950556115698356
0.6332346401014156
0.3936035163320585
0.32604588258751527
0.3435661825787094
0.3189548691316911
0.3949847947073785
0.7386370825401846
1.419736901013432
2.2771647452427475
3.0930506575131096
3.877773392148766
4.81892810390641
6.023929811703034
7.072109839041326
7.442030888922229
7.140072954010051
6.719471328577635
6.55907541521319
6.268695150734773
5.545275495261276
4.708150294398175
3.886747210244336
2.7661772978566175
1.3364275949427364
-0.2606983906461146
-2.0663509948570686
-3.952129384481795
-5.707458878510659
-7.152297789815989
-8.3223161499874
-9.307005204163987
-9.881817271795224
-10.07100183947501
-10.203284486435418
-10.281113684144442
-10.263599286897593
-10.262478766012869
-10.132131403766172
-9.658698221979222
-9.01248798129569
-8.719596589059538
-8.844932360985355
-8.895225580958348
-8.731196886629379
-8.412427640395082
-7.752825377762391
-6.490447633100012
-4.52128296237863
-1.9933600917986871
0.684296281814534
3.04414372383518
4.914802143494748
6.314047154196589
7.231214035788721
7.678160006063251
7.825721808444088
7.865175571662099
7.803941109218661
7.652983125932474
7.285849612283564
6.5095080372044745
5.58924639209525
4.908156000036023
4.4826593566922455
4.072204156289416
3.514195750863897
2.8859872899327943
2.173291569222007
1.1747077165777278
-0.13069354456603655
-1.4648731602011953
-2.539668042470201
-3.2406625085244705
-3.5885235304145193
-3.705049420336268
-3.816482261053293
-3.9280860380118736
-3.4677961037417115
-2.130871356270382
-0.5959403635496291
0.30896655960083824
0.5277571717698796
0.6709415662902549
1.154367072379612
1.5610007725717574
1.2035653423593133
0.23176151198612407
-0.6504396232553311
-1.1427089256506862
-1.5193931947443424
-2.1301096332185323
-2.7257781501524367
-2.8456871702921034
-2.2699012596624493
-0.9287156255217542
0.6556694570553416
1.5751740785741803
1.493361007725643
0.9287349793499174
0.6192043345535189
0.7379210874973727
1.1605464909190788
2.13220238053506
3.9438844777145228
6.364109785222183
8.901363363886242
11.224375420774166
13.314607719250136
15.345252461190572
17.17312239533675
18.470436462140803
18.960759913345836
18.61435681113976
17.995577951616262
17.579281196049784
17.317872943143378
16.895633423731308
16.172738179787906
15.419488353789902
14.715594394626498
13.788611722329929
12.33069054967881
10.245710976681378
7.855604230623168
5.598704273227928
3.7872762811195995
2.4973710835284955
1.5050945566959995
0.5675872407950937
-0.4991994134708157
-1.4626415701296207
-2.0643038963562974
-2.4121727161173205
-2.315562877343464
-1.7735510809538062
-0.8609427337411524
0.6134300434353812
2.3225595817035183
3.5892741744856007
4.345958480015637
5.022426824324469
5.576242712181816
5.937775571541307
6.447765325324191
7.232557659859966
8.08127780660034
8.663294051345071
8.772162324178485
8.47832738904299
7.816085646165913
6.925224611069194
6.271669390778984
5.673758319865963
4.683548500131443
3.609315507203434
2.7331866100811713
2.0299571455240275
1.1699318975413135
-0.4363391471559748
-2.5255363077735358
-4.399660239886664
-6.014472518362841
-7.440500188290995
-8.810633305397682
-10.265311043038963
-11.346336231584276
-11.630439981872616
-11.222094565108337
-10.51066722830176
-9.817312898726465
-8.940266153429526
-7.586582664014437
-6.059586358351675
-5.06617825780369
-4.709581686284926
-4.438708261061462
-3.956379975964544
-3.212998701406957
-2.511652792137549
-1.969677105389137
-1.181199623064093
-0.14238058910121246
0.9220446478090022
1.815157574015062
2.6555299992109593
3.8540157902785332
5.370707483853886
7.022941030507013
8.834904550696564
10.857598760962771
12.951924914043058
14.934126601760877
16.363211881788242
16.671608260825725
16.166865384416653
15.274868473818426
13.860487409504728
11.84182966658465
9.374046554259746
6.738647201818495
4.3687233615543795
2.8579031830163197
2.407388688098158
2.5810222342190468
2.6033868434914385
2.3826628728524333
2.5750854152054017
3.2650595859256204
4.228614905812221
5.283923567413662
6.329257500932939
7.448897591857573
8.392706106409083
8.779657137394807
8.43354005198883
7.541709712537371
6.418314324283739
5.097926718074538
3.652582242884398
2.2226778183127625
1.017946959184643
0.1917909455607885
-0.40856543571738707
-0.9796850283857753
-1.8523430501145517
-3.2588879977621223
-4.968997436124927
-6.46385862687161
-7.470368413065106
-8.214386360901255
-8.684934605452428
-8.750893982973475
-8.572382418738956
-8.321506459866
-7.870552752494712
-6.983201933639964
-6.0516438075280155
-5.39106440878768
-4.673209462095902
-3.6523103639279477
-2.6227673505209843
-1.9484319383679591
-1.356827597965612
-0.528227482480744
0.629713218654561
1.6164478421632926
1.495842304430094
0.5751359556459796
-0.004498119233873123
0.2207252294034753
0.9538735234942253
1.7698707846990855
2.504771435362442
3.2425307199614375
3.820339381832462
3.997295859649722
4.409226662064075
5.460914310541272
6.475340797487351
7.212017939693638
8.031177295505735
9.022565816826729
10.303937103353949
11.97773956550648
13.712521251332927
14.958788058753903
15.42696545837897
15.103531395961037
13.970787935086832
12.33218348250462
10.45057082267364
8.375075589624254
6.358031577575439
4.64168781385575
3.680733758836772
3.428485699371504
3.275508202608542
3.162932585531589
2.9548389512841147
2.2885381170372323
1.3744401438000708
0.7654513851674427
0.8305713875438325
1.2825852376206954
1.3941368801837761
1.4785123044973476
1.9184138799120238
2.493693593992424
3.9592366871028535
6.29211335003065
8.582407558689376
10.830931585641206
12.832815317727336
14.215137872540506
15.202713097263729
15.964296684088644
16.316050134265083
15.96487454783771
14.749364515874632
13.115735724797698
11.312616137774869
8.971208326081243
6.332257434783558
3.7360559608854826
1.0163077072833264
-1.487018940023444
-2.892802695972487
-3.3735011570903635
-3.5738530693405353
-3.3659160620144504
-2.919175164025292
-2.1901321882530165
-1.583061423001773
-1.6934593534610154
-1.8809617897116742
-2.040369260752091
-2.201929437914613
-2.425298831525706
-2.7881502155717293
-2.918739299743198
-2.7923089136486023
-2.217502880371999
-1.4037917267863016
-0.3279019322759061
0.5364806347992194
-0.06561049233832786
-0.788314523230548
-0.7496581512868177
-0.9350591411396706
-1.1230527656860947
-1.6072990290368134
-2.5898528447756233
-3.555123062946352
-4.324494379898679
-4.674004279329546
-5.076122284529999
-5.570249991508077
-6.087148476400536
-6.9825232212144215
-7.588866307559265
-7.439064632661388
-6.6793845845581234
-5.542939530274138
-4.315310650905319
-3.150285208851239
-2.3513853529222035
-1.6297635084572137
-0.4681029673298443
0.29754435816168123
0.037584305029995706
-0.2993688415193944
0.03336451985502596
1.0320495595441133
1.890148256804514
1.868010210751642
1.5202029136049213
1.3599964606205384
1.9717788610267974
3.661975246281814
5.775115752697235
8.117835741679091
10.510283930142618
12.700721461165301
15.040227855096362
17.524295320316398
19.67698807296292
21.194660950228368
22.081579810762506
22.645667878026178
22.83220223558497
22.46848505948962
21.795885977935107
20.631652113415935
18.859058980914963
16.576134095936624
13.928799978232918
11.652728746259791
10.128643756713526
9.252651943084794
8.737280821101432
7.823430365478368
6.1447059749167385
4.504089650131762
3.9716680765659773
4.2457502216054275
4.268733012296706
4.041004512203527
3.738911283420353
3.555880714840627
4.2230483018145994
5.453389462684963
6.477692842100489
7.031628743956564
7.645346142703643
9.020351842323645
10.527709493893111
11.531564445802314
11.926976780952293
11.914334229085156
12.16624911411183
12.539900370952209
12.165183051853177
10.901877677431795
9.529938309851858
8.368148261521387
7.152402131667242
5.724605682830198
4.114322717236389
2.775822752797071
1.6206777124646938
0.1363797109804456
-1.2965344787872122
-2.2486303909521537
-3.038377959602026
-3.9938499303187935
-4.997779251516129
-5.831066493236599
-6.10786167687239
-5.55369662034167
-4.672792787479069
-3.466772381721983
-1.5791757120324796
0.6666249894800511
3.3064768846962127
6.067481305517726
8.335349185526848
10.547467531551387
13.111079149712754
15.408946382884668
16.900920346942932
17.366314341003108
16.55809229903946
14.986188470551856
13.167036099959306
11.527306331483151
10.795176149349594
10.509627336083375
9.878720121796395
8.802255521137594
7.481154349181272
6.2883740321136985
4.821948021302886
2.521422918857837
0.11346254698118353
-1.1494613471726522
-1.0742676616451057
-0.6671430649454022
-0.5794760253598511
-0.218858485048397
0.7827025627359863
2.123496555750811
3.547429659222618
3.9101790156987164
2.7757621725667203
1.815437881937633
1.9713088000768575
2.4979072884807816
2.306097176805702
1.483163857155397
1.1430125245214502
1.433395220629255
1.7353333394794714
1.4914666378443062
0.38598824652730357
-0.8459397568517246
-1.109148931990994
-0.5947064044832089
-0.09056379335598905
0.10843740978444026
0.32577154821720117
1.1628055388381728
2.466846071709706
3.4960175830032325
3.5813632996553837
2.869177627453285
2.123988960764079
1.573495555765177
0.7285780817647459
-0.6445050100448135
-1.3091987653503347
-1.157538687006331
-2.005857263874387
-4.030049053721764
-5.896828547526638
-6.85426980075682
-7.52457838097021
-8.651243289405745
-9.625260715923888
-9.620859425640159
-8.623554648100617
-7.1577867732478975
-5.698210198018341
-4.385504225594662
-3.2674961268448866
-2.3679932284170153
-1.6496835311271356
-0.9410560906931784
0.008288606485435614
1.1458770766563697
2.609043246427071
4.45649238631072
5.879991834002709
6.588940269110849
7.232053836546691
8.262156604188892
9.769973175724923
11.443136349016976
12.921072746530871
14.409358407451332
15.895711350597608
16.684739772424038
16.21593002857324
14.564323152598504
12.090546321857794
9.26346362866372
7.080258865744975
5.874036237153303
4.693067701636994
2.8331343721344138
0.708240704529732
-0.5225255251893767
-0.6181954559125855
-0.37507798270549675
-0.2811143623733416
-0.08468036937223322
0.9430394736572726
2.3132565476401914
2.6905726501244915
1.9697630344784767
0.9101514617515316
0.19325977116963927
-0.19991583005056734
-0.800669590636983
-1.9465093131169124
-3.3559604767463806
-4.118976584384809
-4.093071389802561
-3.976234951600015
-4.215102423405122
-4.447876629371605
-3.7846409825145284
-2.4684658644737167
-1.4615900783017097
-0.8260909101346731
0.05260131915404984
1.6080865372566713
3.546547892553425
5.168488541861795
6.00666843224132
6.095018795459215
6.276843559876564
7.31513700289356
8.694851497617577
9.752483109272587
10.277006637145309
10.16676098115135
9.730839852793515
9.024048221532341
7.734463743460052
5.980358006934894
4.244250464849643
2.987063257257173
2.497587537219266
2.3904534290295993
1.9002577269737397
0.6770980788475216
-1.0838710109105125
-2.768003457583456
-4.148643209677711
-5.43307817650512
-6.9434566131348925
-8.62337799787183
-9.678589636798563
-9.952929031513333
-10.058840449545198
-10.5458182349595
-11.328671547285659
-11.647082059867415
-11.43795449660681
-11.169992150603372
-11.2860505187484
-11.84156972805224
-12.053554183988215
-11.555090361039529
-10.647702224916314
-9.87733442808694
-9.39297012952364
-8.798991143846589
-8.095227676613572
-7.4481780102507935
-7.134340059366587
-7.345012677880608
-7.997736876391676
-8.818139062811397
-9.577581662437394
-10.544721232581246
-11.786215418555326
-13.100971396596586
-14.381428950143873
-15.357311991188315
-15.90462666948237
-16.202850248550213
-16.30962470905449
-16.34911596457488
-16.185256515711245
-15.377901648533006
-14.362644957810373
-13.646164633737722
-12.938150156257505
-11.981022806667891
-11.001977552250318
-10.537991820231124
-10.743673242686476
-11.218849582060876
-11.413798786202422
-11.255272852910664
-11.330172015771188
-11.835196951430657
-12.503343075618112
-13.031698544126051
-13.084408065962764
-12.808510400360808
-12.420384260630913
-12.000904999937319
-11.509409570037707
-10.456533097251803
-8.67786896123714
-6.529721870373987
-4.336893496391892
-2.0030881416582327
0.6053922443502411
3.1959527156426892
5.548878142957319
7.660863525457265
9.667396111285905
11.521770309694409
13.00102487242091
14.044266870515289
14.57651589269744
14.682178644872193
14.407512520782777
13.663473031568353
12.474707249807066
10.979037457278315
9.757998465057888
9.14552926724604
8.780898071049545
8.297171324480894
7.851643502330033
8.133473065504925
9.142568454813182
10.167577281573509
10.979076891577652
11.901932427503983
13.085541182859469
