AAD_Filtered_TADAS_FILE
AAD_BASELINE_CORRECTION: BASELINE REMOVED
AAD_FILTER_TYPE: BUTTERWORTH
AAD_FILTER_ORDER: 1
AAD_LOW_CUT_FREQUENCY_HZ: 0.025
AAD_HIGH_CUT_FREQUENCY_HZ: 40.0
EVENT_NAME: 202302061024
EVENT_ID: 13207
EVENT_DATE_YYYYMMDD: 2023/02/06
EVENT_TIME_HHMMSS: 10:24:47.00000
EVENT_LATITUDE_DEGREE: 38.089
EVENT_LONGITUDE_DEGREE: 37.239
EVENT_DEPTH_KM: 7.0
HYPOCENTER_REFERENCE: AFAD
MAGNITUDE_W: 7.6
MAGNITUDE_W_REFERENCE: AFAD
MAGNITUDE_L: 
MAGNITUDE_L_REFERENCE: 
FOCAL_MECHANISM: 
NETWORK: TK
STATION_CODE: 3125
STATION_NAME: 
STATION_LATITUDE_DEGREE: 36.23808
STATION_LONGITUDE_DEGREE: 36.13264
STATION_ELEVATION_M: 156.0
LOCATION: Kahramanmaras_Elbistan_Turkiye
SENSOR_DEPTH_M: 
VS30_M/S: 448
SITE_CLASSIFICATION_EC8: B
MORPHOLOGIC_CLASSIFICATION: 
EPICENTRAL_DISTANCE_KM: 227.96
EARTHQUAKE_BACKAZIMUTH_DEGREE: 
DATE_TIME_FIRST_SAMPLE_YYYYMMDD_HHMMSS: 2023/02/06 10:25:06.2991800
DATE_TIME_FIRST_SAMPLE_PRECISION: millisecond
SAMPLING_INTERVAL_S: 0.01
NDATA: 14501
DURATION_S: 
STREAM: HNZ
UNITS: cm/s^2
INSTRUMENT: sensor = GMS+/GEOSIG | digitizer = 
INSTRUMENT_ANALOG/DIGITAL: 
INSTRUMENTAL_FREQUENCY_HZ: 
INSTRUMENTAL_DAMPING: 
FULL_SCALE_G: 
N_BIT_DIGITAL_CONVERTER: 
PGA_CM/S^2: 18.886
TIME_PGA_S: 
BASELINE_CORRECTION: BASELINE REMOVED
FILTER_TYPE: BUTTERWORTH
FILTER_ORDER: 
LOW_CUT_FREQUENCY_HZ: 
HIGH_CUT_FREQUENCY_HZ: 
LATE/NORMAL_TRIGGERED: 
DATABASE_VERSION: 
HEADER_FORMAT: DYNA 1.2
DATA_TYPE: Acceleration
PROCESSING: Automatic Paolucci et al., 2011
DATA_TIMESTAMP_YYYYMMDD_HHMMSS: 
DATA_LICENSE: U (unknown license)
DATA_CITATION: Turkish Accelerometric Archive v 1.0 - Disaster And Emergency Management Presidency, Earthquake Department
DATA_CREATOR: AFAD
ORIGINAL_DATA_MEDIATOR_CITATION: : AFAD - Disaster And Emergency Management Presidency
ORIGINAL_DATA_MEDIATOR: AFAD PROCESS SERVICE
ORIGINAL_DATA_CREATOR_CITATION: AFAD PROCESS SERVICE
ORIGINAL_DATA_CREATOR: network: TK
USER1: GuestUser
USER2: 
USER3: 
USER4: 
[...]
-2.8289321687303137
-2.735305713380493
-3.2984017283562594
-3.50523082386777
-4.4889731418911945
-4.3217304774932375
-3.7348613396355863
-4.1030197449091546
-4.042636325210202
-4.089229784596545
-3.320691942394079
-2.2341373711129395
-2.6395352500720546
-3.286681525664612
-2.8377159418030464
-1.1185688769336786
-0.7077706834113082
-1.7486980640095662
-1.733447363303665
-1.1001067086043108
-0.09387824033378733
0.1521267683781421
0.39874692756720564
1.5463573450979193
0.5723186125619392
0.14168388796163692
1.3895893668384982
0.41057134958940766
-0.09219075172225273
0.7250570047098875
1.5331175533131716
2.799286618135362
2.921527930372476
3.7919493806829707
4.643290061990313
3.7624153632562303
3.7919545760417326
3.847106028683971
3.827186382857106
3.883698563028292
2.9473977243258704
3.132060560214716
3.3722464553988054
2.0739513125647435
2.040755479152347
2.0941454765677285
0.7069502365365935
-0.8924948610345284
-1.631938026167424
-0.5098326113675946
-0.9830483810640123
-2.393755992315488
-2.9697292118489096
-3.6151681343864075
-2.8292850903956803
-2.4478924861009674
-2.183037550618993
-0.8338286020075935
0.5156353036766326
0.9148181535102139
1.9360093009931973
4.686179968431295
5.614210871451485
5.580011807745121
6.59677111037217
7.614510543362419
7.9032059791427205
8.119345972847933
8.833100533743094
8.888091144454014
8.356280353704838
8.498963082711107
9.4619594499034
8.907690713482813
7.484387804671125
7.562090560303354
8.27134828616519
8.447714302123918
7.381648602923581
6.904083438516203
7.061221233656684
5.565800244192235
4.258908446733021
3.657085641293545
2.4073700408840537
0.8709397586789823
-0.7515582012813087
-2.000405708774936
-3.2049091488616233
-4.264719996868768
-4.564248868090007
-5.039852476588279
-5.719082725348809
-6.089575214298677
-6.471594728632728
-6.528061410391622
-6.343580190863684
-7.197865636213843
-7.472500278884494
-6.282352256734426
-6.670291571759601
-7.841671153622606
-8.248015595407661
-8.115870415999794
-7.250579711083962
-7.943812737331188
-8.565443488946775
-7.988212102470011
-8.83122476467165
-9.071276628878785
-9.007442800863565
-9.882231648478124
-10.148306097220404
-9.737360128638008
-9.964208691191962
-11.171298697933205
-11.135622000766485
-11.175763628985418
-12.04641968062499
-11.984606644137694
-11.555987569214874
-11.230862274297483
-11.163453813197611
-10.457676509264244
-9.839556956204675
-9.458511830896345
-8.70564112709444
-8.923657751674801
-8.769297592670576
-7.807166550141735
-6.7167292161690595
-6.363242301665146
-7.056940838340854
-7.048743244438256
-6.625131183949366
-5.688425473069173
-5.544477796990059
-5.96250791216226
-5.503018051796578
-5.832382824449302
-5.875602296407909
-6.203935713874404
-6.688828121904982
-6.342721572418296
-6.290711672240261
-5.625487709697695
-5.317963807574899
-4.956035869748326
-4.072250954064435
-4.12623670466449
-3.8534857608016817
-2.5055086598644927
-1.5445006006382092
-1.8324339201553315
-1.3889361164033196
0.019981242977177044
0.4349739582335561
0.7452694263481434
1.580470780568846
2.1451913395223086
2.8521961315460556
3.8942797834240888
4.690802539042433
4.76897079604193
4.7469174835823065
5.945024995972211
7.069002486269064
7.472489612862431
8.645040864580658
9.941374554438061
10.116188132671692
9.92435395915526
10.885189579830316
11.292253607370549
10.151307342946923
9.443488365685623
9.00084879397102
8.274710609402561
7.476584243339789
6.907798658972578
6.1855248346485885
5.253425833401939
5.01549774578968
4.98392800494734
4.6350986834154755
4.209589924556008
3.914801361800817
3.2550429357902413
2.802434636409532
2.609407177206673
1.250686851026108
0.293813119140334
0.003628948397365847
-0.7967393187268815
-1.1946902287630101
-1.6423361010784427
-1.9311982358963011
-2.37457836838347
-3.821847988596136
-4.228108217924925
-4.2955904733392645
-5.068920024066919
-5.264567074295011
-5.653596846280802
-6.2012119796051435
-6.12022525830332
-6.040312054839958
-6.661487694425281
-7.50874293199812
-7.695302202829234
-7.775966545345959
-8.353495401348647
-8.607620626904527
-8.417424492325685
-8.716185298631581
-8.760098957061079
-8.143303741636483
-8.125146294924873
-8.509142385690607
-8.309173181263361
-7.779654856196661
-7.205802036454413
-6.9628845028227
-7.002703583815182
-6.196612696540296
-4.930126644811101
-4.141769467049643
-3.6815206582085165
-2.692637468453669
-1.4988067512388257
-0.741590650174006
0.4073080959201301
1.6121491547969569
2.098542857967902
2.1387538577960035
3.220662345884076
4.669997925036283
5.0455782723794815
6.025679894429327
7.236033807973377
7.880675797184988
8.497587806112637
8.849891417217316
9.066512741317073
8.749317204180516
8.156504773106095
7.9088349484154845
7.65787355136263
6.854098256188846
5.727132143334963
5.333246475200877
5.04792813402117
4.396539426438584
3.8440962882039904
3.358051182100892
3.353524917065509
3.323389401324725
3.0959152492454054
2.9518962401769215
2.5255622555072113
1.868199512415313
1.2489605072767254
0.8698484056818103
0.197882549541081
-0.7003464161533731
-1.4929439996885454
-2.0740442043533656
-2.4254885563174935
-3.0911741186880186
-3.6432865120416156
-3.997327611641211
-4.104843260084091
-3.963040434755202
-4.106873005576317
-3.8827216751783196
-3.4522104246880243
-3.472310445193966
-3.23519172049966
-2.5142053910303543
-1.8846362665588279
-1.2535675040271208
-0.80207880790624
-0.5830418353608955
-0.24337369051836272
-0.007002830884419826
0.26291974960998477
0.5741172730996502
0.9068891654068398
1.3493803963201916
1.9758304561226858
2.6122664556683763
3.0822327552515842
3.5305244114902448
3.6335464413816903
3.821384513797847
4.151587529663663
4.445250210431659
4.863190749289368
5.130729495809636
5.530548755558429
5.867832789489688
6.029015628175538
6.322476002346864
6.713146292515343
6.748973557347372
6.461221816533624
6.532091455253211
6.628504047897005
6.717184391796134
6.782155448913093
6.418177094417342
6.2990610027993394
6.616666461944254
6.69575656824473
6.646527785859246
6.724781507058349
6.909267046086363
7.371206046343768
7.525978358133472
7.307761269729645
7.155517439305867
6.617206270461713
5.799791501396114
4.844886127465976
4.020159519364991
3.320263981008542
2.079486265724706
0.9742634904810656
0.17696041397443715
-0.522873582534045
-0.9008859291601652
-1.4007103969735781
-1.9890581925868176
-2.452619624415928
-2.697178312554346
-3.058210145321952
-3.6505111362067635
-4.043662197122452
-4.419594662024196
-4.739126452483325
-4.8681156715960965
-4.728865752122887
-4.450871623207612
-4.1945216325922186
-3.6720777265516555
-3.104362919380612
-2.8741191692481474
-2.7051835186750495
-2.2252835892676024
-1.7008862133359532
-1.2107451104320444
-0.6526182121712752
-0.049466533803962626
0.5761867959785361
1.0889880711830775
1.9122867175507614
3.028147842246974
3.644801383443839
4.013244741612655
5.082891663489094
6.196257524476033
6.685190737757462
6.920734629849813
7.191704912830583
7.93600841847315
8.228387018461579
8.419742940481976
8.953961586114591
8.841921058953652
9.051346363286372
9.381295334084916
9.616059192430335
9.848708236573117
9.663756470339598
9.519970082304923
9.098327595230026
8.466106094075224
7.627603942642677
6.912840066287668
6.260871491317183
5.081232230601596
3.943093323448782
2.9746455118489927
2.250976999454053
1.5183824542806108
0.4335032468123429
-0.5529276694099348
-1.257914873665417
-2.108861520757913
-3.2503548809065506
-4.03213088466624
-4.390133345342259
-5.075062166639487
-5.943032348127457
-6.095337596960322
-5.918594151788299
-6.138650047544393
-6.488310887847383
-6.5911699046863
-6.456422700172909
-6.2559043108901475
-5.895724535132333
-5.951856653568805
-6.197419651272453
-5.962036921607707
-5.831305092193226
-5.478180989138027
-5.066761860554603
-4.94146160230522
-4.624128437074867
-4.146764457623075
-3.46408618205168
-3.0341907784728264
-3.0753447451990272
-3.3163380534452043
-3.644015390993335
-3.6701588360843336
-3.459671385720201
-3.606120099829004
-3.329119012406062
-2.0831006381894337
-1.146091144202502
-0.6948666442307251
-0.4212828552328427
0.33425026441707334
1.6385949443043968
2.4460126189734233
3.275174196873307
4.1287366953546005
5.185747510078817
6.447544580182117
7.0978726796818865
8.002751982067236
8.932786204857079
9.290389433453525
9.74407586785157
10.426640417614852
10.900672264230217
10.75976247030998
10.508100212460784
10.581395159817863
10.584683986463267
10.181341219248157
9.58603511755886
9.020203276688944
8.188947580563058
7.168996607756602
6.556802057687326
6.2030647578580425
5.681307159384012
5.1837275045754225
4.709516996666944
4.595451037731376
4.474849155439896
3.6875643137767873
3.03231221616099
2.5460034143055217
2.1626391214309293
2.0162480322546243
1.752241551933052
1.4070119156395415
0.7706207402903361
0.07376238964106707
-0.3602760935683076
-0.9281152247447776
-1.5811577456885402
-2.113888256100981
-2.6718586354571636
-3.234089587956041
-3.763822678803411
-3.981419048342346
-4.030806408343755
-4.401522081729808
-4.5899256321742445
-4.3627325976291695
-3.91421238833522
-3.4227568237499715
-3.193144635494318
-2.998639595919954
-2.5151763096907245
-1.7800983906845147
-1.1157417580983267
-0.48420073237989814
0.38374163647281295
1.3829478170043574
2.3535909857119823
3.2835567503969254
4.220640444188822
5.133073386155856
6.043535126596765
6.897783499527189
7.56541709956984
8.105942096232935
8.26975653498376
8.165678962183968
8.443978445502376
8.53069179976337
7.988102643920513
7.334199473344899
6.790571865117859
6.457057159006263
5.940872590675872
5.234308620080286
4.532577501723016
3.566715779037315
2.4796130367841984
1.443615161046393
0.5647359030524955
-0.34415299885035744
-1.2746177859022245
-1.7005000240134973
-1.8541239997920538
-2.258303808311901
-2.6048403343545328
-2.7208444345046674
-2.9281407473385146
-3.2086277134331898
-3.5605609293196294
-3.9017783933266457
-4.047391046663623
-4.203764461050447
-4.3505719276875885
-4.163712339711133
-4.074091085741622
-3.952083358045297
-3.3885426242011847
-3.037157653136051
-2.8136424823518387
-2.620071043032497
-2.1724943772726046
-1.304377527950788
-0.8892591963738831
-0.7079485912895197
-0.1548243278869321
0.3709265771106446
0.5989906684703044
0.7417977709169554
0.7267897081376009
0.603386509864112
0.5003259718793809
0.38481367016804474
0.15736728787334836
0.06595243639621383
0.19712758659934576
0.2408558901009219
0.04308203778981757
-0.3674383995290386
-0.3312002550870928
-0.4270169599237838
-0.9237362805745812
-0.8211840645610411
-0.34510475833435394
-0.02973617605360975
0.2519913251994351
0.8307367859826235
1.2602007527585892
1.8013980965934366
2.795489329313446
3.5008736592360274
3.826495979989284
4.0045229218454965
4.135509253392304
3.7847909960799138
2.7029386282630035
1.711157832611646
1.14499045059194
0.2794732644260436
-0.5289458439425572
-1.1060473323733953
-1.532355943883345
-1.4130289234410611
-1.8091288144245885
-1.9705867123581944
-1.8677377132842445
-2.4473755455585806
-2.5345583313217697
-2.816320474314037
-3.0603789318932875
-3.1094645759296555
-3.755258424830386
-3.6859817885823603
-3.2598620604502484
-3.2248899025734348
-3.1499902517139957
-2.9529330433741894
-2.7289222786786342
-2.4854486266855456
-2.1650631409885173
-2.04462786783381
-1.7483407298882248
-1.4504850500521473
-1.372404670869355
-0.6621473604278942
-0.1357482461053133
-0.040440446668764354
0.04658272997444302
-0.5275848077890233
-0.7757124753012076
-0.721555214984043
-0.8751304038352852
-0.7969127240230428
-1.1285027757817214
-1.0479152485960044
0.07607178698794567
0.9393329939164089
1.803819672539889
2.765365001060312
3.084335130935197
4.33867819696215
5.422386108723648
4.745770501565167
4.840353492177799
5.477726498413461
5.6018506505607375
5.1453423842046915
3.73297010572956
4.0120964716857115
3.9870231145875366
2.1804795980954554
1.751856759060927
1.0453739864501266
3.0740833033932
2.098807068609758
-3.242391825340046
-0.8688385913518684
0.5266321157208766
0.24914758423519734
0.14377430719045808
-4.32710785179999
-5.839475490105611
-4.063538821715022
0.3527990533273449
-2.051237710461532
-10.57373783468056
-6.982537096849411
1.3107414021262285
-4.637548581822154
-11.094861839686088
-4.961361195985405
-2.9467776123653624
-4.040692930574689
-4.3363396959597305
0.42052631804875207
3.4984209361659193
-6.928593633319773
-4.695032347643508
6.128546383875276
6.432234792695529
1.0932117359438585
-0.19409728555057962
8.577409743209458
13.589880026956108
8.183466652542666
4.268699532694424
7.60525660763836
11.82768752948867
15.839231743083392
10.13923588162087
0.9983648866294458
4.722401206528314
10.12165356689222
10.820582908228264
5.937321189346102
7.495277477532982
8.163958497081008
-2.1555809592806225
6.443960320791305
18.857106869237345
5.580051384155725
-3.7838035316740215
5.220201109391854
13.7185803633802
12.4818493199392
0.6021110198237383
2.7587392394165535
9.869651549140787
-0.18479812038787266
0.17551887246660236
4.551861484137584
1.327056586044975
-1.525800744641821
-2.91127487459379
2.131330138969758
2.0226777461736605
-4.4283632737547345
-3.917782114989142
-1.9233169432049253
-5.6543494563409435
-5.6384613307191875
-5.483282415053734
-8.047559013860528
-3.0342175351708662
-7.421213805084491
-12.758674836814597
-2.5590158146139896
-1.3641301251732594
-7.926518489520419
-13.527667316562537
-10.643487386609939
-2.6066253738054477
-6.893996207022554
-11.26980015208502
-9.504137496344788
-8.17642069255394
-11.919180300577045
-10.563446856793826
-5.378997321005882
-8.861311257769932
-14.262182934190548
-14.882868211244245
-4.936828596993937
-6.756394725230618
-17.47278318950361
-13.46883400540273
-7.878631375141266
-5.540875293857448
-10.625077842121678
-12.082383349463342
-5.960887416578747
-5.895021688812179
-7.729286592770017
-6.578905593163547
-2.751739890273804
-6.24307345377787
-5.929756810185909
-0.31533375781086015
0.05418827587092097
-1.558101063368586
-2.5956787093387215
7.1104157797696175
6.962178156378409
-1.609074721158336
2.7899830724072965
6.3737827225986745
7.064136056108202
7.431082682543598
8.164220157762447
8.49524138881951
8.234473769793087
11.942188682783165
10.340307727238866
4.23273340872639
7.460493792602286
14.124295833986066
12.05712053838384
6.474822433879465
7.027007761695294
11.466467674258963
11.328131034019698
8.395778808007211
8.343700144806276
7.3405648623960165
8.736560704075087
12.719739560150138
8.568482098094611
6.382577407627709
9.748577486572488
9.700935240647864
8.331610979829035
7.008901649987583
10.146845232773682
10.92920044797216
7.624224114472763
8.036795159790675
7.279507695184191
8.990695203175095
10.667500826167378
6.968436204245968
4.903954578926814
8.833020890986825
12.864283597337717
7.952104556563084
5.404578932121639
6.224485651167699
4.846419189196224
4.788634330703718
1.4017214121257693
2.0521450760527036
5.170654668870471
5.206427470513848
1.8352134860820946
-0.9308749960720177
2.195752430130696
1.067852351551453
1.9159554928613467
1.1201960310477685
-1.181092629964732
4.392106355922866
2.0589148921072424
-0.9346201243221515
-1.5449824836535966
-3.985766162365984
-1.9076543246827193
-2.6262476363543983
-0.7960495624497325
-0.9094004532674359
-6.096337046261445
-5.0723529324254475
-2.8542358680321587
-0.25505167507969545
-2.952271862270127
-5.003275806869103
0.7205263725045479
-2.3042098150573302
-4.2587732591079535
1.001973946793136
-1.0790574560408932
-4.325839170242646
-2.5367244379555793
-2.5484468878159054
-3.553929509726917
-4.120242878841821
-4.046827003452267
-1.843456851817129
-3.5364088773091993
-4.356639183004239
-1.5342807877271507
-1.2299302049672658
-1.8516354283603578
-4.9401498688220125
-7.583929530498013
-4.620508738054416
-2.319541225815278
-5.6188728911994765
-7.956528793184829
-6.462229787914494
-5.766106342690304
-6.15483498946728
-7.520617422554479
-9.976500803866223
-10.418371555797778
-7.097885396501053
-6.258743163427516
-10.155141256677396
-11.984831433522242
-9.022327308337571
-6.8299809805144
-9.9595394575448
-10.394107086238943
-7.2460919725628745
-7.491362932233067
-10.73756327189392
-10.951478630447205
-4.664579771916875
-4.5544278147901895
-10.175749789113594
-8.065745349182485
-4.748138329242674
-5.7231452867029
-5.474537737528351
-1.311708179565142
1.922492084311877
-1.5244699340270607
-4.0926166795246
-1.8352533040545589
-2.109683580202787
-3.5390634325093844
-1.5811464588604773
0.7417564624277208
-0.038632073730380974
-1.8808214739790927
-1.2679245750678543
1.5622788987581182
0.36972318122289566
-3.2566834737136237
-1.4046031681113023
1.2258304473329407
-0.3153794041016389
-3.4834560057095483
-4.130488164163308
-3.0968692588307727
-2.9650465309197624
-2.0216693400168113
-1.2498821698532188
-0.9716513843339334
-1.7638840042355146
-2.3157241342746646
-0.3024354057566265
0.5479831380920365
-0.8170574041917684
-3.454184146760977
-4.323289931363031
0.44282818801625007
2.5795940441012113
-0.32945372134986356
-0.004738211705430819
1.5338003849945099
2.8285937932950014
3.278704884731703
2.933296268643804
3.687258671351603
3.0970168650397247
3.9061283070392587
5.233737357373413
5.837213371171872
4.872063798944328
3.360833585628533
5.959255836800975
6.544687437249493
6.541630882383103
9.312700809326659
10.041034615287716
9.728756544918882
9.478319478450159
9.190365893978598
8.975468429353775
9.288023978656392
11.111872018568361
12.706764617236047
13.56806696074405
13.63692497426195
12.57776944251319
13.14320691863595
13.820449921337556
11.353651016608127
9.043209442795263
9.857169087455258
9.792941840401465
8.17966612289144
8.29355029547635
7.583113991132285
6.142638803682595
4.294070048465086
2.6250838354142827
2.934273237642704
1.8746672129123594
1.3894324699341063
1.2860995360835923
0.5495146562133727
1.1020772541138282
0.26476044202918786
0.22636249894067606
-0.40220649810880066
-1.0038628384682906
1.1637095133724207
0.4266317549840729
-1.1161768871860505
-1.0127638286030896
-0.6281686126220197
-0.6135848773819442
-0.9510631983794771
-0.6073083849475507
-1.4691907668064503
-2.6542513367156526
-3.412345175413511
-2.854344788072157
-2.839003214191904
-4.037428069687031
-3.387061787167166
-5.010181851145596
-6.8250574758304925
-5.614379837548646
