AAD_Filtered_TADAS_FILE
AAD_BASELINE_CORRECTION: BASELINE REMOVED
AAD_FILTER_TYPE: BUTTERWORTH
AAD_FILTER_ORDER: 1
AAD_LOW_CUT_FREQUENCY_HZ: 0.025
AAD_HIGH_CUT_FREQUENCY_HZ: 40.0
EVENT_NAME: 202302060117
EVENT_ID: 13194
EVENT_DATE_YYYYMMDD: 2023/02/06
EVENT_TIME_HHMMSS: 01:17:32.00000
EVENT_LATITUDE_DEGREE: 37.288
EVENT_LONGITUDE_DEGREE: 37.043
EVENT_DEPTH_KM: 8.6
HYPOCENTER_REFERENCE: AFAD
MAGNITUDE_W: 7.7
MAGNITUDE_W_REFERENCE: AFAD
MAGNITUDE_L: 
MAGNITUDE_L_REFERENCE: 
FOCAL_MECHANISM: 
NETWORK: TK
STATION_CODE: 6302
STATION_NAME: 
STATION_LATITUDE_DEGREE: 37.2342
STATION_LONGITUDE_DEGREE: 39.7509
STATION_ELEVATION_M: 550.0
LOCATION: Kahramanmaras_Pazarck_Turkiye
SENSOR_DEPTH_M: 
VS30_M/S: 936
SITE_CLASSIFICATION_EC8: A
MORPHOLOGIC_CLASSIFICATION: 
EPICENTRAL_DISTANCE_KM: 239.71
EARTHQUAKE_BACKAZIMUTH_DEGREE: 
DATE_TIME_FIRST_SAMPLE_YYYYMMDD_HHMMSS: 2023/02/06 01:17:53.3258450
DATE_TIME_FIRST_SAMPLE_PRECISION: millisecond
SAMPLING_INTERVAL_S: 0.01
NDATA: 14501
DURATION_S: 
STREAM: HNZ
UNITS: cm/s^2
INSTRUMENT: sensor = CMG-5T/GURALP | digitizer = 
INSTRUMENT_ANALOG/DIGITAL: 
INSTRUMENTAL_FREQUENCY_HZ: 
INSTRUMENTAL_DAMPING: 
FULL_SCALE_G: 
N_BIT_DIGITAL_CONVERTER: 
PGA_CM/S^2: 29.551
TIME_PGA_S: 
BASELINE_CORRECTION: BASELINE REMOVED
FILTER_TYPE: BUTTERWORTH
FILTER_ORDER: 
LOW_CUT_FREQUENCY_HZ: 
HIGH_CUT_FREQUENCY_HZ: 
LATE/NORMAL_TRIGGERED: 
DATABASE_VERSION: 
HEADER_FORMAT: DYNA 1.2
DATA_TYPE: Acceleration
PROCESSING: Automatic Paolucci et al., 2011
DATA_TIMESTAMP_YYYYMMDD_HHMMSS: 
DATA_LICENSE: U (unknown license)
DATA_CITATION: Turkish Accelerometric Archive v 1.0 - Disaster And Emergency Management Presidency, Earthquake Department
DATA_CREATOR: AFAD
ORIGINAL_DATA_MEDIATOR_CITATION: : AFAD - Disaster And Emergency Management Presidency
ORIGINAL_DATA_MEDIATOR: AFAD PROCESS SERVICE
ORIGINAL_DATA_CREATOR_CITATION: AFAD PROCESS SERVICE
ORIGINAL_DATA_CREATOR: network: TK
USER1: GuestUser
USER2: 
USER3: 
USER4: 
[...]
12.382380957250303
14.173550208262684
12.796902177825192
9.64347315203776
5.4157103939214215
2.1097311603633826
1.2935533272032145
2.8835647155509774
6.173851771961201
8.80528832816597
8.662510905270484
8.68870041936415
11.143873785988738
13.537673387269008
13.776338198454878
12.338824503701021
10.599302179756963
11.046095114025213
14.972772253347992
20.020611066217192
22.761136676930754
22.67046345396431
21.97334383502235
21.332521990006732
20.138073341444972
18.838097387160957
18.28271153373861
17.357119376586216
14.901777654240176
11.738074550732557
9.23624350704273
9.778119380695864
12.966613402016401
16.115563700878717
19.294741754250264
21.96512502399744
21.589350646073974
19.454763076527787
19.472984078819525
19.65374753714781
16.348310901500053
11.545433096825903
6.93855492092507
1.8504116351634
-2.4256648852477802
-5.545930002250473
-8.950762841766037
-11.920308787250837
-12.810406539507172
-10.573913257333913
-5.962210636037109
0.09272634132651841
7.074200742687171
11.109049971120154
9.242086581745927
3.5434865716692148
-2.432200107317413
-6.2070986106006965
-6.826638785314269
-5.271996795336625
-3.7489477047080086
-2.9031883129941893
-1.4507981192463364
1.1915109140421023
3.432951660085295
3.162896007892753
-0.3883570792696712
-4.265057793137819
-4.428050218135252
-3.4260818108089874
-3.4389857972034887
-2.040253733816754
0.05480295903494531
0.9969728540551273
1.5400150398163128
3.488412246329352
7.124381738567264
10.819221310254783
13.332996287291923
14.560603850758634
15.660281919409037
17.16859006848962
17.355225675270827
15.845638429731975
14.065790926823837
11.434915833349557
7.512154986231015
3.7061001427472857
0.031242399854937552
-3.859388693539727
-7.130214288110286
-9.172411486214324
-9.790754839382789
-9.678566692227095
-8.993933027381297
-7.414280775455374
-6.010781052621424
-6.422522390595523
-9.812476357176259
-15.032844383078833
-19.725803020243575
-22.685726575078956
-24.374200763374375
-25.36686417985518
-25.442010375163612
-25.819388671687562
-26.602431818211777
-25.55191769620575
-22.497477968278236
-18.77693900821374
-14.839659807681352
-10.575962189783242
-4.493733087162359
3.5581996576583768
9.11128632635329
8.697330624828423
4.42515392292034
-0.7811456642028207
-5.488901909191985
-6.664074494634279
-2.540617770044125
2.943816672438652
5.666974195097728
7.045533993333842
9.336261061322938
10.937910304259592
9.117885165392627
3.799863505922857
-2.6127947011956945
-8.88174145620627
-13.904500079689113
-15.483551268140804
-13.815093672395076
-11.149763889541479
-9.53348058279844
-9.229169636911045
-8.977840045923971
-7.9688375056271195
-6.459389807250732
-4.92598601376703
-3.515794233573046
-2.5613987646680636
-2.524122498153004
-3.1897651073465174
-5.2315461228642395
-9.654352348507244
-15.392194062193637
-19.78146823944337
-19.819040844942737
-15.152578891068961
-10.083559672846375
-8.816381937734892
-10.187361351192248
-11.028689995923804
-11.905000840593063
-14.664364956978154
-17.489811504030737
-17.39384561846636
-13.774478568753693
-8.481551637631082
-3.9191827282208487
-0.991457944515862
0.7455383955220828
2.829954325127423
6.319906617393175
9.017679635847728
9.629489143886595
8.861221236222457
5.672896881215896
-0.45605206951210314
-6.702604048143365
-11.0654754940336
-14.162703416579758
-16.065764033145765
-15.699034159128834
-12.048406428177131
-8.125023438557117
-4.883528097228321
-0.29957581045684856
2.798910090595165
1.714362375756806
-0.3719270946152606
-1.953591457308371
-4.0528105466422915
-3.962405384263842
-1.2257348585841334
0.39062179969743854
-0.6907747320316464
-2.2181752786132756
-3.0371000427027464
-3.261602816144615
-3.017803665570747
-3.4249635105618066
-3.5167542294330287
-1.5856556173242868
1.494963635599413
5.134630797111835
8.98935874020633
11.665660487583562
12.38237915756791
10.564641602976348
5.779710918895226
-0.5711088547725031
-5.922623756438215
-9.32356886756147
-11.214563925421215
-12.872931964040959
-15.40835683005445
-17.63574129048923
-18.63215249278674
-19.027618199427927
-17.253882129958196
-13.254684415134522
-10.323751185183674
-8.447943219718617
-5.243347367956123
-0.6839706964318607
3.161626424282735
6.0802015827973195
9.277956925641508
11.407607169374602
11.348708669186815
11.032205984128817
12.434131851417257
13.84437793778438
12.919305261527997
11.900991705068094
11.428613033883328
8.716931550249564
4.93627126661121
2.520057712990938
2.4495850434273985
4.644857593514494
8.566673980311732
13.134402674353822
16.917814343671072
19.18676604638518
19.194691339522045
17.256513759864166
11.607208794597135
2.7993693137485773
-5.67246940671863
-12.856204822886893
-18.039913636352324
-20.610283674969622
-20.003913820184742
-18.25239642520743
-17.792807001404825
-17.524825981054178
-17.35178128182121
-17.568998445372003
-16.009827292573586
-12.04868538172771
-9.86252182690241
-10.749157072234892
-11.018836870536484
-10.85437733297634
-11.969343573209617
-12.530822789308898
-9.674706482148707
-5.051400073827425
-1.5045262184633832
1.5216602721921504
3.136100999356384
3.401340884378346
4.821088376260754
7.149364812072566
8.64135062668066
8.582786077400216
7.231040898588145
6.224599221647828
6.785109118376509
7.619955038390536
6.571245255998634
4.406749347612344
3.680370624562626
4.261065687339114
4.620710141586416
4.854316202303523
5.7221740003384545
6.929996248657425
7.514674119513404
6.105170003492901
3.484216897888032
1.217294117359799
-1.5267545144174715
-3.9171201510385165
-5.445517629705532
-7.523156852549394
-8.839465577826301
-7.597407663153093
-5.503592999914932
-3.0840144038659933
1.16782879922535
6.6682346560471775
10.529405811882478
10.133294502357813
7.555305083376515
5.752514098377477
4.295144176072063
2.5655397450689095
1.755895820699613
3.2013073816105644
5.43293651537286
7.252803210999203
9.98698209852749
12.58663203172349
13.59223921628211
13.964587173308932
13.772323664903551
12.93578295410667
12.95015265963738
13.822162375566814
14.299919699944914
15.172817281897276
17.405620434994876
19.667668316233478
20.61956474147537
20.447066889501087
17.80219599552512
11.978521229543427
6.205875177185878
3.3407996440310823
3.275441934875676
4.371068796747652
5.578172476039648
6.6202315661036755
6.616826140525251
4.6902260806800395
0.7950051362908538
-2.616146273011632
-3.8019658076164076
-3.978496415536811
-5.401332953947842
-8.797965677908458
-10.654144858510156
-9.444971031230255
-7.4771275994348265
-5.322396637675044
-2.3801475862358794
1.1345000682031479
6.105341608732261
11.391399103350622
13.140719684626701
11.17147399296191
7.521364303604753
2.9610197878026847
-1.3242601052299583
-3.4454951146220916
-3.6119177535898315
-3.643925662312916
-2.852746604830635
0.03647299873880846
3.394874855767197
5.457251016627369
6.047077509959208
5.190135882800642
2.504429302926402
-0.9549088178664243
-3.0437044528339015
-4.143278036959314
-6.354639922572791
-8.886366898551039
-9.493565852885927
-6.992050667907005
-2.0161013911461336
2.8268568303343153
5.5457704420810865
5.468639455745949
4.431427199685928
5.939654962668801
9.79365776454541
13.200936938287953
15.948440542492403
18.859346347482543
22.20748646123358
25.780340674703805
28.439250884465356
28.235966781305937
25.90381998281159
22.60577368620512
18.65011375158881
15.25470098611168
12.921293045036164
11.772130299558752
9.605524583611217
5.6783838266821425
1.6097054384452312
-1.4626006002781575
-3.5058505589620865
-5.5099283602695115
-7.8418546894105114
-10.0656829298497
-11.509045540327289
-12.229647543174499
-11.404143113991545
-7.920967039892005
-5.923496569759323
-8.193527119771222
-9.828580890933093
-8.5199758810612
-8.119336795258308
-10.52512000170695
-13.438255833733361
-14.95361312699955
-13.775463999840337
-10.373336715514196
-6.83696104343059
-4.172952842583496
-2.6744625648426044
-2.336247289847749
-2.378428166401007
-0.25405178758124547
3.3920600605177604
4.29525234623375
1.888168957107423
-2.9212461896481536
-7.858785548568616
-10.603420728717227
-12.527903863006332
-13.914274413901008
-13.530995306742513
-12.085285615198366
-11.911286704073566
-12.666736679039074
-12.17863337607214
-11.853636108082265
-14.52121650727359
-16.400993358599134
-14.021213936867357
-11.585023669587486
-10.25200907366038
-6.935562207464488
-3.1629926913811595
-3.0897931318670957
-7.402142574447872
-10.417085077899802
-11.100670247141563
-14.100842916892109
-14.735687393712102
-10.225172553868516
-6.965310398750592
-7.44303083115475
-9.028335123172768
-11.897996320271346
-15.112988570926595
-16.520529238285853
-16.241719195756
-14.807499606539231
-13.420623620786017
-12.579630058304062
-10.267911703388384
-7.111507385147745
-6.719407946251919
-3.6261548375807506
3.645442937633569
8.598904758467977
10.717624122944168
11.279635502671892
9.861330455631016
7.273728951992776
7.334270352527869
10.556170067011378
12.60137246725633
13.738265663819268
15.127899970769654
14.43859909195775
13.50516090196599
14.025784104595255
13.878909830409533
13.538423334709766
13.030142760916599
10.73921547446202
9.316065835449914
9.275941898849522
8.590330174933278
7.312718121539973
5.362661085580408
1.9551097246636204
-2.1836468724444287
-4.979429724803119
-6.130682399939522
-6.4302288443026345
-6.0347872716282644
-4.850865121245969
-4.449213626603802
-5.211005149266606
-5.798222919140824
-5.214270544347488
-3.9102806258969136
-4.4229921775546694
-6.958980356709844
-9.46912504805748
-13.660100853326426
-17.460148598201727
-16.28627909571265
-13.100792172157087
-11.201491193022076
-9.182224336436326
-5.124348147857985
-1.8001184211455485
-0.47929308103984675
2.1043072781031253
7.2089328290499255
11.605579102115941
14.188035162967608
17.211282054008187
19.468372200479614
20.13624491405763
19.69282052517126
18.705763314966738
16.89148604107798
13.410844363392616
10.75544688268214
11.674280072423562
14.56109217952392
16.55740758878895
17.86446069168931
19.836600014881746
22.461141272330202
24.607032631931503
25.553070348830552
25.132123256143807
23.982698609305206
23.00069669608961
21.991242031753522
21.6748189203627
22.366486143396987
21.266537032848742
18.404947074679868
15.957973287008212
13.227544171891852
10.867274481172927
9.427050718491063
7.734776118566532
6.948783088149693
7.923175426168322
8.035440297008648
5.209836814346408
1.0991107335377035
-2.0672629406928897
-3.722903265855112
-4.57616244633213
-5.5595891173720196
-6.139952342524275
-4.51847250960749
-0.05837404841771184
4.120394061757435
4.873823953879573
3.0699470658782744
0.40845193246019473
-1.999969762418816
-4.584601252361654
-8.198523326290774
-10.587375544290435
-10.12867027439944
-7.605305854889647
-4.325481936260008
-2.1670696858951533
-1.6733483586050124
-1.7149216103664666
-1.3283152070861395
-0.4012451348531624
1.446511807600278
3.807003501675159
2.660560769309126
-3.506222163196197
-10.85774338914447
-16.058277890924767
-18.36913251479454
-18.924093257208057
-19.051294437542666
-19.060475117440387
-19.270547576007036
-20.37610864593089
-21.512874493138316
-21.694705178949096
-21.391374773517597
-20.032261499319716
-16.202673062783987
-11.59871246486116
-8.242932565331369
-4.971490469546031
-0.9155306397202018
1.8594006896306752
0.7370486451450112
-3.555176767561978
-6.257783456931733
-4.253422729077979
-0.32129810380984625
3.6675487108006424
8.291923645985952
10.269846410913535
7.958545546410064
5.483633385158747
3.029123289283281
-0.37605844170798225
-2.203420742371232
-3.6204083999756516
-6.054124551615916
-6.635194137076435
-3.789740747809541
0.8785002448761142
4.3929835960865065
6.666817142153411
8.55448525931487
7.511549210577972
5.848923045091105
7.35203096712047
8.959041962610279
8.343701408503357
5.674968224048595
3.1035444662419365
1.934274708332989
-1.8911963389868407
-4.648594615392461
-2.592147474373425
-0.9778013989002733
-0.4547096672588015
1.3206225971618308
2.59844622703356
0.5145186088527735
-2.429505058963616
-3.4907437495172875
-3.3839964744770556
-2.6578164270913307
-1.1615894216028444
-0.580131775397857
-2.316415999776556
-4.654525645555485
-5.816662378556907
-3.823588484342143
0.37556536562921083
4.228392064483869
8.339682168316282
11.206148007014011
10.562043845991143
9.447065568664412
9.759562305850569
8.810562377000377
5.089149120770356
1.0647967180830293
-0.9403235168219283
-1.901394813563908
-2.05535079254101
-0.45938767215659343
1.9110685263663985
3.2191497411036027
4.001612481385024
5.668221972101844
7.466938319381735
7.6113337005949795
5.65544789678301
2.9261334905464866
1.0254682053331465
2.1005674954576867
6.066558430113069
7.845221254221813
5.192176388897044
0.2785709506092296
-5.985219171981817
-12.78637889232793
-19.07979399276027
-24.28785325059471
-28.021870081452022
-29.732903946284022
-28.91608174353522
-25.666872648159693
-22.032639890876226
-18.866077353550182
-15.526691454730798
-12.00511900124183
-7.706618160825234
-5.370141707083165
-6.1038887611285455
-5.796103306371091
-2.9753144434526932
-0.706889434113574
-0.37545406592872327
0.7503854810876226
2.59198377677109
2.475699258740156
1.739680810720112
2.3239386557341755
3.6391316523029964
3.657858223021156
1.5271978471478966
-1.156437452497791
-4.399302147748486
-7.8433442160423406
-8.952765549866434
-6.983343390685552
-3.8376641558334303
-1.5497013315671673
-0.7961518709915031
-1.368249566295006
-2.071019960718279
-0.9930682158986569
1.747335932157489
3.445986679103162
2.9323049032881507
1.2064557957597046
-0.9723383612241997
-2.37960921327414
-2.34995290930537
-2.755287933494114
-4.778409982273124
-7.195760524547429
-9.022706999898991
-10.656350640893127
-12.213828639069279
-13.274129616822828
-13.875758329499911
-13.441153436150813
-12.702236433528334
-12.182313507338316
-10.56218653021809
-8.31859240542745
-7.943658056545458
-9.435813576369906
-9.77821842802205
-8.245840803447642
-5.221570119962469
-2.0918793612068867
-0.5854223305015612
-0.17019884877252878
0.727455908019292
2.739084480124854
4.466941803858886
5.253228927918434
3.878903187081842
-1.1178077763285608
-6.701639362394668
-10.377482794750962
-12.566213245003015
-12.60731429376909
-10.465656380994554
-6.956666003337388
-3.4658619896348917
-0.5742554955208315
1.8494334745848797
3.100890979104541
3.027616314457836
2.7039338452112585
3.211412042429443
3.5171664744849607
2.84371002784684
0.9667135341483474
-2.6089425288771313
-6.172634087616284
-7.764515324461583
-8.568863848957397
-10.819838756533935
-13.009821278295448
-12.881490863903252
-12.335991353710645
-12.624773259108409
-12.3593551794129
-10.698957299097824
-8.549886668702687
-7.242709272335225
-5.221577989433685
-0.7686943196665179
3.9409937189501862
6.6711052620639455
8.017853103336511
7.719097636246938
5.495299819984231
2.923516006866697
1.087206227520405
0.39829550476610365
0.6906786693313057
0.8711045386081144
0.42375591249210237
1.3689922081667212
4.630328074954404
7.728732954070166
9.600614336747824
11.939491406996133
14.250841713647509
14.340857397975107
12.241049061246896
8.8850337349251
5.360126779395577
2.418200845955375
0.23862594895968217
-0.8748329456524778
-1.395421154677346
-1.840392079281548
-2.0939551984513654
-2.0044624704761325
-2.2324348514879215
-3.89460528674675
-5.521318018924279
-6.049536480236885
-6.591742007730484
-7.01649207033517
-6.187950815848042
-3.787870762617524
-1.6331217041620023
0.656961165918212
4.891423950427097
8.831301853800362
10.745707672753227
11.365460500179138
9.649342375005547
4.349214772717851
-1.6540074217858347
-5.931856670647454
-10.070755406575977
-13.216997127891647
-12.926678177999374
-10.267333024005188
-8.508011737046177
-8.40669641350325
-7.222015944166238
-3.952075798832072
-0.8258245518795052
-0.035787407148066636
-2.3705461109278767
-6.801304055797964
-10.91312905286075
-13.106257251824688
-13.355066096167509
-12.751848316353202
-12.225999544211678
-12.651646865782288
-13.192586793515293
-12.226168733186219
-10.23044854869303
-7.415003892335191
-3.7671503695563073
-0.28942118491562324
1.9526637817025807
2.9690570424980782
3.5461892513492237
4.036456454157721
5.13379330844983
7.953648268835086
11.305750319806542
12.941774478506842
12.965613471709077
12.635755934795744
12.260354857373867
12.486603903445028
13.874710031586979
15.320172461611676
14.731517046610222
11.43984245272168
7.0255610360289165
2.510722950050024
-1.128504030745235
-2.474625289188602
-1.7045984941616357
-1.1538568272377914
-1.6231581778284399
-2.1433283309021425
-2.725258777193522
-3.2817672325374887
-3.215260678286258
-1.3299727347403947
2.12355726944246
5.441419602097462
7.626956083379136
8.532492969331443
8.068892827141516
5.987019998437112
3.295566076357978
0.9829738383550871
-1.2737398845026824
-4.004718988402056
-7.3115576905289
-10.250948029553712
-11.32237736316732
-9.713550921032443
-6.525333893529381
-3.573577971237638
-1.5677790942513867
-1.022102270733114
-1.5822787210836244
-2.0914971159781635
-1.8384990238599783
-1.0824857114985715
-0.7465820778333336
-1.1275536018682901
-1.9145455989377875
-2.7469507121003494
-3.145144845421816
-2.47091270385433
-0.6279532735703972
1.92403493203742
3.958057389102867
4.352495151361642
3.698725405152796
3.3509881262661882
3.582623195763744
4.194329869709017
5.5132279405373525
7.401938539099828
8.442323323721375
7.81294592872088
6.188774719426453
3.8625935744129603
1.9668764584079192
1.4678961193161049
1.7089145244673878
1.7438787312765354
1.3819773689591823
1.5496890028345143
2.28378194532996
2.451545567755792
1.4554262674933007
0.24951386000434683
0.44116510069944526
2.1764519333963457
3.6952409683620355
3.5385450254909414
2.6898804224491655
2.7285251408448623
3.1707253960593977
3.5855657350506918
4.9958039490521085
8.16271073250594
12.041593748689447
14.417064165969474
14.008862119047723
11.900894999370701
10.105862987585922
9.207079066565967
8.727109640999332
8.196623548294346
7.261369896395151
5.234275201148744
3.8425436774516646
4.524802539375946
5.010849337590314
5.239840856618473
8.012053859331127
12.51398410358547
14.886785059024714
14.743986485959178
14.120914030041511
12.576237563812805
9.721908696062469
7.35193658900296
6.747543861780812
7.162947372156937
7.096065729463594
5.9575985451970235
4.355078441508332
3.7217694554129497
