AAD_Filtered_TADAS_FILE
AAD_BASELINE_CORRECTION: BASELINE REMOVED
AAD_FILTER_TYPE: BUTTERWORTH
AAD_FILTER_ORDER: 1
AAD_LOW_CUT_FREQUENCY_HZ: 0.025
AAD_HIGH_CUT_FREQUENCY_HZ: 40.0
EVENT_NAME: 202302061024
EVENT_ID: 13207
EVENT_DATE_YYYYMMDD: 2023/02/06
EVENT_TIME_HHMMSS: 10:24:47.00000
EVENT_LATITUDE_DEGREE: 38.089
EVENT_LONGITUDE_DEGREE: 37.239
EVENT_DEPTH_KM: 7.0
HYPOCENTER_REFERENCE: AFAD
MAGNITUDE_W: 7.6
MAGNITUDE_W_REFERENCE: AFAD
MAGNITUDE_L: 
MAGNITUDE_L_REFERENCE: 
FOCAL_MECHANISM: 
NETWORK: TK
STATION_CODE: 3142
STATION_NAME: 
STATION_LATITUDE_DEGREE: 36.49797
STATION_LONGITUDE_DEGREE: 36.36612
STATION_ELEVATION_M: 139.0
LOCATION: Kahramanmaras_Elbistan_Turkiye
SENSOR_DEPTH_M: 
VS30_M/S: 539
SITE_CLASSIFICATION_EC8: B
MORPHOLOGIC_CLASSIFICATION: 
EPICENTRAL_DISTANCE_KM: 193.03
EARTHQUAKE_BACKAZIMUTH_DEGREE: 
DATE_TIME_FIRST_SAMPLE_YYYYMMDD_HHMMSS: 2023/02/06 10:25:00.2831870
DATE_TIME_FIRST_SAMPLE_PRECISION: millisecond
SAMPLING_INTERVAL_S: 0.01
NDATA: 13501
DURATION_S: 
STREAM: HNE
UNITS: cm/s^2
INSTRUMENT: sensor = GMS+/GEOSIG | digitizer = 
INSTRUMENT_ANALOG/DIGITAL: 
INSTRUMENTAL_FREQUENCY_HZ: 
INSTRUMENTAL_DAMPING: 
FULL_SCALE_G: 
N_BIT_DIGITAL_CONVERTER: 
PGA_CM/S^2: 21.287
TIME_PGA_S: 
BASELINE_CORRECTION: BASELINE REMOVED
FILTER_TYPE: BUTTERWORTH
FILTER_ORDER: 
LOW_CUT_FREQUENCY_HZ: 
HIGH_CUT_FREQUENCY_HZ: 
LATE/NORMAL_TRIGGERED: 
DATABASE_VERSION: 
HEADER_FORMAT: DYNA 1.2
DATA_TYPE: Acceleration
PROCESSING: Automatic Paolucci et al., 2011
DATA_TIMESTAMP_YYYYMMDD_HHMMSS: 
DATA_LICENSE: U (unknown license)
DATA_CITATION: Turkish Accelerometric Archive v 1.0 - Disaster And Emergency Management Presidency, Earthquake Department
DATA_CREATOR: AFAD
ORIGINAL_DATA_MEDIATOR_CITATION: : AFAD - Disaster And Emergency Management Presidency
ORIGINAL_DATA_MEDIATOR: AFAD PROCESS SERVICE
ORIGINAL_DATA_CREATOR_CITATION: AFAD PROCESS SERVICE
ORIGINAL_DATA_CREATOR: network: TK
USER1: GuestUser
USER2: 
USER3: 
USER4: 
[...]
0.5563439221007805
0.7472698203246617
1.002657431884394
1.073984446752431
0.9565985811750157
0.7681299596558517
0.46989273273581866
0.040478799158466944
-0.08295243020880633
0.10110265016029794
0.19712688373163442
0.0884620837544687
-0.22268812780402739
-0.3701735851195064
-0.2114119770457209
0.13059438185604055
0.30297222875359753
0.042369057254063175
-0.40869679660567587
-0.9130980084031669
-1.1307427490919948
-0.9113800360047165
-0.5836417123324599
-0.25889104078527536
-0.10346166651227096
-0.18891767673971369
-0.12992354494288372
0.18503501949730616
0.43785247161257923
0.5592415570803364
0.7906769504355582
1.1744679153981652
1.6618938770887355
1.9761378687212081
1.7273996758713768
1.1364015803010927
0.3681729214067008
-0.394121146747578
-0.9699214345134148
-1.5874696474429828
-2.1848702051806606
-2.673735719311472
-2.990919511814954
-2.852506500732522
-2.448435431992699
-2.1780678717448887
-1.9969001692381834
-1.9077590080378248
-1.6856228049986115
-1.1493767547156841
-0.6252273957172632
-0.4919574688454829
-0.8604979038269266
-1.097393972531928
-0.7956284180904982
-0.09312033433513581
0.6993999484965171
1.0857070208443598
1.1059358691128263
1.197070219640843
1.551514568283935
2.263404763948979
3.0706486228834393
3.4115184226195177
3.4454219529943373
3.331062539650773
2.9769151970378274
2.683437208449049
2.686229938607895
2.7965934081981887
2.721107240107184
2.5089123773213515
2.2834698573406964
2.2528074317086784
2.4419510926376042
2.6005723730399395
2.6989035562551225
2.8339316247989523
2.859455944081065
2.6153546315291023
2.216024786113327
1.7874449879762928
1.4733106396332658
1.149528948583491
0.7332579792938249
0.4230042798521793
0.25158787399475707
0.18063390925047598
0.2650780703649584
0.6474705685209345
1.0802316673313448
1.3276456629402509
1.5464658964311946
1.7518772256208177
2.1048897733602057
2.6921699139152113
3.3382049636404836
4.0022049130794874
4.442514013216657
4.503934080611171
4.437534669455088
4.440408049114388
4.636702546010265
4.959495656285561
4.886260062335707
4.346259388009204
3.8217366051824055
3.2075101166536246
2.410916975248894
1.6072623403337079
0.5698677697457822
-0.653625058350381
-1.7268741828614589
-2.703323910556684
-3.5532827736965387
-4.315075008352919
-5.085217086983886
-5.646691108225204
-6.014541511134807
-5.966243545086513
-5.573428188260756
-5.165315560875495
-4.550420324138965
-3.9859060678746907
-3.680627387295228
-3.391192586558319
-2.795585500649144
-1.825519358133812
-1.0285857163694088
-0.7901215884984765
-0.7935208453790276
-0.5412677932004851
-0.022070504672637797
0.5100357329825711
1.1152370135175467
1.6524422776719532
1.8422516423691473
2.001562884853514
2.197559152900041
2.3914816565652446
2.7929062104088196
3.109409391066638
3.2443944515625667
3.3971097021386436
3.2657458035122113
2.7959826906143177
2.1692721256178413
1.2880278431727548
0.5876871473755961
0.2539302012211172
-0.07735899047283402
-0.47553951827530466
-0.6281309243367251
-0.1550172536784347
0.5562155658807573
0.9091568470592091
0.7698425082696171
0.6276486095587158
0.8906855391986285
1.3240023346386962
1.8707283877966925
2.5254219973822907
3.2410225422942287
3.593412086355485
3.0906309575043145
2.3185625304653152
1.9433122358142745
1.9941456230709715
2.332907822074365
2.5634351515224925
2.486565587585366
2.3267696265028412
2.3247327183814637
2.396478628435963
2.277508788628036
2.192323872460138
2.513183058564235
3.1158466941844614
3.754229697987929
4.39644704808208
4.672125271623249
4.606484055719911
4.658142760288631
4.733888028389897
4.710602047275353
4.462640070334366
4.234100800043534
4.086355839060381
3.7873678704954123
3.493504668332701
3.162267667675634
2.897650456912613
2.749671547033291
2.721813702151537
2.6854458300808055
2.144061289846223
1.1981290541223903
0.2695210865105325
-0.5269739050650504
-1.2065461661467811
-1.7911380962948962
-2.3989372294352926
-2.984089823023728
-3.302711752274483
-3.5017956413363818
-3.6461832777245378
-3.7069490623518853
-3.738971859259667
-3.673264290370447
-3.7596899472379697
-3.793624871390055
-3.7232884156328305
-3.829192032926546
-3.9847250518344235
-4.4647869172916534
-5.005176884608097
-5.196584243125575
-4.9766164786057985
-4.290786360198343
-3.7755000913094543
-3.549530435890857
-3.3552697808036602
-3.281910682539684
-3.049079109733717
-2.3974799541676672
-1.623375270826953
-1.1500932981428342
-0.8268896120984031
-0.40834195541512763
0.01735219111949041
0.35650239140297296
0.5017794003104732
0.3438330741335414
-0.1905217281736819
-0.6922708865560352
-0.799125465563278
-0.555968484010979
-0.1959112394296343
-0.11187995793831669
-0.05461547452823914
-0.01875068035267582
-0.02087594867998302
0.2093043799123068
0.41583124518461195
0.578643327762798
0.5326855699392431
0.07083748767833081
-0.5983088132504907
-1.1042166600183125
-1.5896600945109942
-2.4276378777083965
-3.208183362961113
-3.7703830782376575
-3.9357959202769495
-3.745359009634773
-3.709689287513252
-3.3918230854113873
-2.8236047197248815
-2.233372235019921
-1.2550475447574339
-0.24167171619808261
0.6053107845766037
1.243743981545314
1.562716043595363
1.6519124361994306
1.4639176305158943
1.169472432778632
0.9026246826843494
0.7944063525525235
0.90516284603162
1.1296249480217586
1.4387649725987253
1.8773160939233584
2.610908615041071
3.465661043975965
3.999901951000475
3.9799230082483996
3.612295277160052
3.2099373666252564
2.8457875674613655
2.569071751080737
2.428807991793055
2.3513500266680554
2.0857813252224275
1.8042319381100334
1.9927071684521507
2.365909946964223
2.567481064832013
2.7737585680569095
2.8055147572033197
2.6984663762538785
2.64148938859819
2.320927562552541
1.683147151581748
1.0283275654220063
0.5686875027734387
0.14725115868104036
-0.1791678055196362
-0.264717304226481
-0.2754450469895635
-0.1682323827824782
-0.02700577475476179
0.20376500578638718
0.625728532770045
0.9476999410422986
0.9900000655251772
0.7153481748972516
0.4751715066859692
0.5358386087807112
0.6538051719329447
0.8738252376092956
1.0235964816910066
0.8311704986394518
0.39725050083051566
-0.42147932674747546
-1.2377290529330456
-1.8475733667563075
-2.8011532587156505
-3.9095843533335004
-5.012663437276837
-6.266523823958532
-7.285162139024332
-8.031878085282012
-8.959976530624512
-9.760327071464673
-10.10921948072432
-10.514053724248233
-10.90828990014489
-10.997403813558453
-11.320238301428716
-11.965285155578771
-12.30838004463578
-12.437621343830921
-12.536782785051841
-12.170770078425404
-11.233364488966043
-9.808150604710734
-7.939011130456266
-6.065128387519021
-4.695969121438719
-3.73564508078406
-2.651001937534344
-1.2103025175362996
0.2786847218518106
1.3320419059672488
1.9006390522232222
2.441274090308982
3.160411613755217
3.678522093401949
3.8034873517458596
3.7031024770854195
3.433252500188595
3.099939403490769
2.784407415623024
2.4211983524889065
2.049786465619911
1.8578078838181975
1.6393026132092843
1.025497588001728
0.4480185491661646
0.22238021124691004
0.1518344441160839
0.20616189850520253
0.28698776846458895
0.4462360200950966
0.6147974391333416
0.7345292405790863
1.180157175833351
1.7425161621219534
2.2189047058321076
3.005334682975297
3.8409030844245398
4.426332451172811
4.967703523274237
5.301541014132015
5.502653337278889
5.58797710573713
5.428478129771014
5.522196505458613
5.724395541456846
5.781602096028034
5.947087536458396
5.93524607613324
5.614294235327629
5.302974713085891
5.271012827676665
5.562015969032459
6.043319285548351
6.563468880332202
6.802037960961539
6.814878849371424
6.9079959469076435
6.942238804678596
6.901906480923484
6.82004505592527
6.672109466960961
6.492095491130982
6.093699958854896
5.510854405515433
4.863503005065356
4.1570289169074135
3.5152123899259355
2.8702505294272322
1.992904155933168
0.8858735470406344
-0.14483601703954577
-0.9795358828217474
-1.8214141853476058
-2.680178818092696
-3.7330720846384966
-4.9288830344688215
-5.994906668830909
-7.0474027027506105
-7.868770653977846
-8.451283120573526
-8.78395605848676
-8.67722953086344
-8.388034696328763
-8.219356124428316
-8.32366275644624
-8.425270156018424
-8.564844827581709
-8.916179123707407
-9.375306001889752
-10.13552109576947
-11.093894446015106
-12.02074148141844
-12.70572854211625
-12.926438846484615
-12.861541164200226
-12.636772699821147
-12.23971056009391
-11.48937416425078
-10.374007007660358
-9.535085174939505
-9.438099729942033
-9.732890670824984
-9.532280774683345
-8.65142684746801
-7.577025811103967
-6.579692836879055
-5.8366914447290466
-5.206525914065882
-4.795368936311013
-4.592990303508538
-4.267677358560017
-3.988997819237208
-3.9059278974767517
-4.309228811851512
-5.074768366677893
-5.575711982091301
-5.7536934097713255
-5.8966176686165275
-6.117966088600144
-6.1241345495017345
-5.904863142181942
-5.482557988445243
-4.663303157887761
-3.798820564533204
-2.9842702552087155
-2.1023688460083854
-1.6161521868890794
-1.4777011495063546
-0.9542530250715553
-0.05080261862962021
0.8649521608204711
1.624936651964317
1.8823680260124054
1.9362678570470864
2.251075108548136
2.8642957036056744
3.9673661977383397
5.040904940643626
5.27714870683891
4.735001008537994
4.053313927491065
3.8829009763874196
4.2999155285024
5.063798479581681
5.971984131604561
6.7317460375649
7.24600837824364
7.932097316705538
8.936724701977704
9.69214237489542
10.102846097453892
10.218612528473082
9.78969801255493
9.03315660620907
8.177567902055026
7.583829804310632
7.446534889499122
7.3074750406118065
6.708411049805721
5.570950141721467
4.26383686798685
3.0188602816310546
1.9535148897474695
1.3399296338882394
1.4058270485102797
1.7248038804990822
1.719957148074859
1.3370582513670557
0.49172308757056554
-0.25771188036806797
-0.34701051593717475
-0.13932361498322915
-0.27870026841304485
-0.8952818586824873
-1.4634645218793598
-1.947345388764593
-2.3232555560045394
-2.3150718455817736
-2.183839318809729
-2.2124802453406223
-2.542020987011956
-3.0026507300216996
-3.223102425539867
-3.3572840223143676
-3.802274429014965
-4.465914917895841
-4.838489404961826
-4.809190017403659
-4.718248179122495
-4.415714358472184
-3.6762136816641857
-3.0873992105774075
-2.70843640856064
-2.1505712682377025
-1.6587514366517504
-1.2471729016030688
-1.0295142615077353
-1.437735284990174
-2.486394767600165
-3.6559638698707744
-4.3466760007579115
-4.712428627428614
-5.208475200561386
-5.8978758148189625
-6.598605583663337
-7.178858932164692
-7.636393009003491
-7.973814406331746
-8.381510276594144
-8.72938209849803
-8.907977961354895
-9.116196672330654
-8.986937369562728
-8.424948951258452
-7.46402204735836
-6.05813692679077
-4.787616494586076
-3.99773089872481
-3.505097503000434
-3.0648692461537292
-2.630383391042304
-2.3009872680323897
-2.2520193071966768
-2.34251020118018
-2.3105311891140805
-2.356386735144476
-2.5136182339113455
-2.474920958989552
-1.8721253644401834
-1.0534822859209185
-0.7362604720871647
-0.6998970253105095
-0.5272586106466773
-0.18862135036798772
0.2403542393018051
0.766972742434424
1.0067823615957308
0.4172976608960314
-0.5757119789737822
-1.4023076420150518
-1.914803194827187
-2.1208625730261104
-2.316311171843304
-2.562540681725543
-2.6734229053729077
-2.7987940915471023
-3.062275120139316
-3.1148037230577286
-2.868508238282188
-2.61860031590532
-2.332522104305736
-2.090791400646159
-1.7933806134815218
-1.1964074666229427
-0.8158877359954406
-0.5634716479285747
0.025252895951670757
0.6866707066508093
1.4439657517646358
2.3905328955733145
3.217051483359077
3.481155139995311
3.1926289466441116
2.8789850256592233
2.4618843574525906
1.8814849497550754
1.3811939444623689
0.7674829294557651
0.10141787379645269
-0.5730838602012078
-1.438022749751489
-2.5869248231915685
-3.883971501872079
-4.860039565700202
-5.407847957562426
-5.7148315226824415
-5.978774478826599
-6.290823210191842
-6.48283688811644
-6.675676988673372
-7.464260674437574
-8.696880298403265
-9.541475182812633
-9.870541878138978
-10.034247407897235
-10.349254638760076
-10.614591594932886
-10.411391045853458
-9.740008663487725
-8.829049142464521
-8.065202346366057
-7.462691404472941
-6.907900598676734
-6.534321156426254
-6.418630637082823
-6.693058829641974
-7.359777433214761
-8.18221931828575
-8.824769798720896
-9.293746369487383
-9.633175751390512
-9.43890422555766
-8.868151691050363
-8.287021522527475
-7.749186249050699
-7.520366512063175
-7.374963664104991
-7.032109421062343
-6.857292147097247
-6.4089469075624725
-5.481414016100466
-4.971206918855152
-4.8080056997120115
-4.9428878285908056
-5.4664480526684684
-6.087951083155227
-7.105884542721364
-8.514664124285316
-10.051886542916932
-11.445888325677794
-12.876305827811505
-14.614572008204497
-16.225867291029243
-17.64182590683262
-18.846537947653655
-19.74514246248077
-20.387192825376857
-20.384050594270757
-19.44151875533186
-17.760024507548486
-15.738832773321473
-13.51781004888487
-11.071563372677797
-8.455274993521991
-5.687133198313053
-3.218303875804679
-1.444458882021801
-0.2683447239363191
0.4965313210363696
0.7762899462809567
0.5592971131963781
0.6612689129983766
1.3859041489852069
2.255560958212676
2.9628041556884965
3.5601238641701154
4.262871191428359
4.960105685203266
5.642816616751149
5.886328153308366
5.40056424145285
4.612603162761892
3.4650763435139993
2.0277841204663782
0.7496793009034164
-0.19802034517887596
-0.698220928089035
-0.8238739907637063
-0.7603705191521407
-0.5598527925655952
-0.2897860459820073
0.024606465190534815
0.1818887447340772
0.10108422645982854
0.040249595518876156
0.0893150459321498
0.25166321104448397
0.7008643519451123
1.5072656627211853
2.3544505696498477
2.8773438903931665
2.8401297109863997
2.412843439493599
2.102643663572794
1.9227133184337233
1.6297424695997909
1.1980366959391395
0.4323207999996766
-0.7401223911838677
-2.0709169579779623
-3.3374273183199645
-4.181604990080712
-4.5553288915088155
-4.776912415921611
-5.031254209807354
-5.353761298378636
-5.488207214316077
-5.252429277208231
-4.590247030908524
-3.2314623128189
-1.3868431581398764
0.19791487647121714
1.3181669707032215
2.1423703499465967
2.7187962666276504
3.289758357524678
3.5811754935981917
3.1703664177465023
2.600762827181618
2.007261793556813
1.1947453550262717
0.6428746241434908
0.2940293745198216
-0.07161113475383614
-0.334971697248053
-0.7804094221910877
-1.2101807627675778
-1.317337947230652
-1.28754228608524
-1.1695401161338674
-1.0929508000850667
-1.0203663764682127
-0.8863527925476781
-0.8775533122173242
-1.3490136594855986
-1.8584481384849996
-1.5881167193607515
-1.329757673067391
-1.197003867659585
-0.7122735126507326
-0.3218651175856114
0.619331963728334
1.918124747591354
2.5121733450726396
2.686125506965018
2.539573492944301
1.7471462430707614
0.36572357469320665
-1.4125825233396283
-3.627509919855173
-6.061683948004764
-8.42228755626213
-10.631706455733674
-12.11864771122185
-13.024282231481125
-13.875209657629577
-14.331660973698934
-14.624177423691643
-14.764245403589932
-14.401344220529575
-13.767821466668517
-12.755174081571152
-11.461603570052029
-9.569406977634923
-6.975488043145269
-4.969501297310173
-3.707933439480552
-2.750685954703503
-2.432133739040156
-2.0695263350404955
-1.4439214096968664
-1.2115896386596965
-1.1552261579645322
-1.6515876185000575
-2.4286119830457724
-2.7554098811574486
-3.013940505803112
-2.9542832048980454
-2.9429356623314766
-3.4154984711859777
-3.7895696580438947
-4.1763968261016196
-4.26897127112804
-4.045228790157858
-4.263845552655904
-4.799138991604412
-5.163501477350491
-5.25066184059409
-5.39099965523316
-5.562351577101526
-6.477752542992398
-7.877266891740027
-8.485318666223533
-9.12174951334728
-8.95791422681997
-7.979190638314481
-7.877045818801587
-7.544703042254368
-7.294356409446132
-7.528402310773463
-6.968511755110186
-6.037008833329021
-4.8758248710040535
-3.5867287445153995
-2.6792310678705777
-1.862365173099218
-0.8988724681482894
0.10102107697835289
0.5096679095604432
0.7650160231438103
1.4270832366444213
2.0951021708852804
2.9211366134644092
3.5280941074460195
3.818667708405756
3.959476552566142
3.567931664087053
3.2274134321538788
2.863124640635768
2.235911605425311
1.9449208720538023
1.4072243563990194
0.7360597664342103
0.8375689613372241
1.9178387374033603
3.381870001951097
4.277350380175668
4.790524412867475
4.7366718730332
4.542987208614822
4.8691707114466025
5.059133943603579
5.355930505223186
5.7730570391072
5.790799534662524
5.58152437611384
5.470361870092655
5.577999475372367
6.181315150001578
6.7537127329742805
6.555170936932182
6.442511860497104
6.2703786405905095
5.833624788150097
5.710972229096813
5.086384785196479
4.0842891691187235
3.476006396292279
2.6255953718480667
1.2337623185792157
0.21852846958365857
-0.7630366145902168
-2.031354440521385
-2.946873366732745
-4.227730613247301
-5.847416213660098
-7.292915808347876
-8.000252208325914
-7.898632552414009
-7.898668663604487
-7.708679231631193
-7.171590986531508
-5.993281819081488
-4.092463903089688
-2.639987588891743
-1.5211732116447907
0.34012855836738093
1.7532104189630506
2.079880221043254
2.136897056113474
1.4458706213811094
0.3692177848406731
-0.6516153318445796
-1.1572435814092996
-1.5457153369812116
-2.174868481862857
-1.6342358077451304
-1.4036980901510379
-2.270973533557364
-1.655259593106967
-0.8270461865804147
-1.768425506032551
-2.191115332818127
-2.4574719721834586
-2.6886643799203993
-1.415954195290452
-0.8162173855537506
-1.6020510575579154
-1.956501866200848
-2.4248574245601335
-3.537387743806001
-2.381508116137436
-2.383896355130267
-4.321093340468097
-3.8300493867860514
-5.75395722396211
-7.709384729665722
-6.868341753395061
-8.663647559460934
-11.418210685530749
-12.034731377926812
-12.645119125878798
-13.619658410676076
-11.939884923185232
-11.837469239636848
-13.07530729562729
-11.491583410696059
-11.045328474303266
-9.710542766237777
-8.161066153349012
-8.692800651322313
-6.8270610557572615
-4.616292854912185
-4.880620125870956
-5.857727057108521
-5.130045971999346
-3.4637351964422303
-2.5081407816326147
-1.7668871744644894
-2.2818992170697023
-1.7921991772974284
-0.6280124891335004
-0.9021182229454648
-0.5597514275078558
-0.5904758027263572
-0.38025747013927425
0.5155575367799008
1.001032992201499
1.243576890079033
