AAD_Filtered_TADAS_FILE
AAD_BASELINE_CORRECTION: BASELINE REMOVED
AAD_FILTER_TYPE: BUTTERWORTH
AAD_FILTER_ORDER: 1
AAD_LOW_CUT_FREQUENCY_HZ: 0.025
AAD_HIGH_CUT_FREQUENCY_HZ: 40.0
EVENT_NAME: 202302060117
EVENT_ID: 13194
EVENT_DATE_YYYYMMDD: 2023/02/06
EVENT_TIME_HHMMSS: 01:17:32.00000
EVENT_LATITUDE_DEGREE: 37.288
EVENT_LONGITUDE_DEGREE: 37.043
EVENT_DEPTH_KM: 8.6
HYPOCENTER_REFERENCE: AFAD
MAGNITUDE_W: 7.7
MAGNITUDE_W_REFERENCE: AFAD
MAGNITUDE_L: 
MAGNITUDE_L_REFERENCE: 
FOCAL_MECHANISM: 
NETWORK: TK
STATION_CODE: 0130
STATION_NAME: 
STATION_LATITUDE_DEGREE: 37.25186
STATION_LONGITUDE_DEGREE: 35.67104
STATION_ELEVATION_M: 73.0
LOCATION: Kahramanmaras_Pazarck_Turkiye
SENSOR_DEPTH_M: 
VS30_M/S: None
SITE_CLASSIFICATION_EC8: unknown
MORPHOLOGIC_CLASSIFICATION: 
EPICENTRAL_DISTANCE_KM: 121.47
EARTHQUAKE_BACKAZIMUTH_DEGREE: 
DATE_TIME_FIRST_SAMPLE_YYYYMMDD_HHMMSS: 2023/02/06 01:17:32.9806560
DATE_TIME_FIRST_SAMPLE_PRECISION: millisecond
SAMPLING_INTERVAL_S: 0.01
NDATA: 12501
DURATION_S: 
STREAM: HNZ
UNITS: cm/s^2
INSTRUMENT: sensor = ACEBOX/SARA | digitizer = 
INSTRUMENT_ANALOG/DIGITAL: 
INSTRUMENTAL_FREQUENCY_HZ: 
INSTRUMENTAL_DAMPING: 
FULL_SCALE_G: 
N_BIT_DIGITAL_CONVERTER: 
PGA_CM/S^2: 35.353
TIME_PGA_S: 
BASELINE_CORRECTION: BASELINE REMOVED
FILTER_TYPE: BUTTERWORTH
FILTER_ORDER: 
LOW_CUT_FREQUENCY_HZ: 
HIGH_CUT_FREQUENCY_HZ: 
LATE/NORMAL_TRIGGERED: 
DATABASE_VERSION: 
HEADER_FORMAT: DYNA 1.2
DATA_TYPE: Acceleration
PROCESSING: Automatic Paolucci et al., 2011
DATA_TIMESTAMP_YYYYMMDD_HHMMSS: 
DATA_LICENSE: U (unknown license)
DATA_CITATION: Turkish Accelerometric Archive v 1.0 - Disaster And Emergency Management Presidency, Earthquake Department
DATA_CREATOR: AFAD
ORIGINAL_DATA_MEDIATOR_CITATION: : AFAD - Disaster And Emergency Management Presidency
ORIGINAL_DATA_MEDIATOR: AFAD PROCESS SERVICE
ORIGINAL_DATA_CREATOR_CITATION: AFAD PROCESS SERVICE
ORIGINAL_DATA_CREATOR: network: TK
USER1: GuestUser
USER2: 
USER3: 
USER4: 
[...]
-12.67473714756486
-7.486085506849882
-1.854479474041797
3.7485474948143684
8.501076965389963
12.024254073648384
14.562855104576302
16.287116804816804
17.29632528580757
17.73390323787911
17.33164419515277
15.833268205438824
13.825616645640347
12.145369881335217
11.190333085235048
11.381811984266541
13.226739661142322
16.53129553981786
20.14487684849731
22.73870037104518
23.546115587752496
22.54945783930387
20.448502405333766
18.047186434667076
15.762688140267047
13.814981153895047
12.0614234323627
10.248206606152014
8.651086676655705
7.427342907624627
6.211662940887689
4.970075703242707
4.185117615136241
4.168806348594321
4.905957443827335
6.396510457508974
8.326578356514531
9.911645354397939
10.767273662771958
10.85544790824709
10.247223975695254
9.897594987827313
10.703381237769948
11.902462093567351
11.972350676111775
10.313408941606266
7.5896559780034245
4.883934836253697
2.7598678140040125
1.26645023795797
0.3853828239660249
0.05327637349092691
-0.07296410967577707
-0.25139735623000614
-0.18049312687494545
0.11384492989873629
-0.21701311400721005
-1.350887590290548
-2.2583456520047958
-1.9577872675625707
-0.12084201382695828
2.824395241637654
5.617689981082606
7.192719876165369
7.784092025647495
8.04704996933313
7.610536787717147
5.752669437838362
2.6047965727007316
-1.2311147062404129
-4.899024378985676
-7.352294842689393
-8.737744615816451
-9.987707921259773
-10.741947022663956
-10.46904242154086
-9.688383228084064
-8.766952120017729
-8.113096605572771
-8.085298880341911
-8.510706878005385
-9.4223626368752
-10.580643941434843
-11.588188781297168
-12.3261266013124
-12.35701660456164
-11.400638742008509
-9.311394376586358
-6.384327783804384
-3.88073952787565
-2.558217854448416
-2.429184590622322
-3.1743003850936917
-4.071101763156866
-4.892696320244984
-5.778098609362915
-6.724709605674741
-7.604091716664248
-7.994300026713807
-7.470755721919257
-6.054559762101531
-4.478985776296974
-3.011649746262367
-0.5692248368774157
3.240808792216224
7.370902197826896
10.958822708227487
13.659770261165223
15.143844115100633
15.115083625447191
13.691606504134084
11.345688325826028
8.636606135081735
6.40448357510529
5.182042192784015
4.9098879228831525
5.836404324579789
8.028005612818829
10.837938693384736
14.113094275289864
18.030395163286993
22.054484130974007
25.577568464016146
28.049000157432637
28.464323224782884
26.375660822860883
22.50800909055819
17.986843667633348
13.748948911922673
10.275350977152108
7.548692479072637
5.197415114498747
3.0545958332667444
1.634381925280553
1.0968284658504155
0.7195480786581661
0.2542510567568499
0.3687917400364864
1.332853217575479
1.980768904199461
1.1630698433109994
-0.22626255253078525
-0.8624016885890751
-0.7787793824955104
-0.06467282583238268
1.3601506307535818
2.9289284146048478
3.9973756055859697
4.456630708743881
4.765565667636166
5.437655021008336
6.777163989528808
8.976946533852255
11.623347052309908
14.054516273476207
15.897042306162634
16.936089513438688
17.73073252277862
18.872268875220424
19.9438500709186
20.57145030601436
20.63895658872163
20.321722551059416
20.06034761119395
19.28147335124618
17.55347139625004
15.645820188097618
13.71801285220455
11.575775675007119
9.641124354895204
7.730346093316524
5.131438275822726
1.7049962225941537
-2.1481228993265966
-5.469873802233041
-7.318905677831531
-7.786459837615115
-7.481362158198495
-6.933125867932103
-6.579137552266231
-6.328239676698669
-5.59170061040726
-4.051088555757064
-2.414799587459057
-1.9959851139584792
-3.1252658720744244
-4.262572288423907
-3.5538139960385315
-1.9707514733899036
-2.0762978431816266
-3.2240591787011534
-2.54365877476083
0.4644895214196147
3.652146273091111
4.959868115203688
4.4934943102813225
4.155377565075668
5.155317714708537
6.569132481927038
6.982445916778989
6.681142197248183
6.539753246248732
6.324077838560896
5.816395426122059
5.16038759557382
4.133092103016851
2.851772397595186
1.5674133945072177
0.1479770893645217
-0.9606304312836244
-1.126748618821883
-0.8607611317077507
-1.1507308792537467
-2.131952713314877
-3.200187172029954
-3.910389520439483
-4.41495926742868
-4.831922529709572
-4.493425814140898
-2.9753701971861424
-0.8259881241647079
1.6065229326286714
3.9712872763643725
5.374187309646069
5.542475222610612
4.756210388887393
3.1722023589271795
1.0776342369717258
-1.3289817660044152
-3.946293634738633
-6.810177861756806
-10.283064740866132
-13.99968063044519
-16.913604185779963
-18.559001554841593
-19.077018111013565
-19.11680488995913
-18.968705787138656
-17.86777521474676
-15.692813944670954
-13.183053892198124
-10.821989478445863
-9.221317271060743
-8.368834358428579
-7.603442883366228
-7.423720418361019
-7.866410184629551
-7.615738264421916
-7.142491061728054
-7.448729579330349
-7.567696276468904
-7.268096893312803
-7.467039140961698
-8.20271733536711
-9.402414966209651
-11.28840900589655
-13.45100931582399
-15.1609777945267
-16.399977619970898
-17.480178458890816
-18.191713873675884
-17.985821952187344
-16.620702130595756
-14.450258242092193
-11.406288985729674
-7.577746034660418
-4.591777769246561
-3.3427040235817387
-2.812774050435511
-1.5593484774530715
0.8358770946762619
3.045083719158833
4.832072062887726
7.650251575905231
11.276523910774019
14.879681798791971
18.668571833484002
22.155464935175388
24.453084167462908
25.70068383591532
25.91475955006825
24.45029442705707
22.014722420366372
19.85621821179419
17.24909296922141
13.059748378645574
8.003669204083755
4.2210534840320495
2.7140918701323176
1.7565978734963945
-0.03830188110014418
-1.985566761719827
-3.545654088243138
-4.400808505126607
-4.017195569682656
-2.886483667069136
-1.9962445956603765
-0.9198723757482629
1.617308904481143
4.885672209307434
6.545854092263268
5.934220593226948
4.529658549527827
4.273016222651065
5.890602703780253
8.190905152294892
9.517302751172204
9.178583785847753
7.752926208729444
6.555216642305046
5.987371207689154
5.179036079414474
4.136756423677112
4.120217819698485
4.85742500068895
4.895682045929736
3.9647557991803115
2.04653848977841
-0.30392352381645776
-1.2485429535700963
0.31969576456587556
4.296726755195782
9.259919395462626
13.308133261181474
16.284368520075887
18.673250618989663
20.335704946638742
20.8749226278497
19.627559312610426
16.428366671978697
12.038589044937277
8.01866900160023
5.621211579059529
4.286141302314274
3.0325941598305337
1.46687219407797
-0.7047255179249349
-2.54737131022047
-2.742743412342308
-1.28675854428575
1.3975351798222988
4.531826571464236
7.247859690373553
8.815642165665725
8.3348482388901
6.6801263859170215
5.239585661656873
3.881877411582407
2.842892638751982
1.896992709697276
0.44626366810442847
-0.7146773884450884
-1.3148504005540342
-2.0718029191037557
-3.680808375926998
-5.991188848861862
-7.810332931287699
-8.88338416210444
-9.693348595901028
-10.709953102816232
-12.407683167365947
-13.599122108974795
-12.816192533076487
-10.955807137398962
-9.316403073832303
-8.000202536934207
-7.549446695024354
-7.6512417274672115
-6.2527238586288245
-4.043070641278468
-3.6633247436422347
-4.9551823498471075
-6.709799163625877
-8.175197532404258
-8.338340874584665
-7.404821136906336
-6.784146710465024
-7.090905772373476
-6.850886306742411
-4.560846190883223
-1.9037446241587936
-1.4779864429456446
-3.3327500297772694
-6.1661676338073015
-8.945399524760012
-10.879740972134558
-11.903158363213763
-13.213687766417179
-15.646911168642502
-18.02788892453916
-19.274373014854692
-20.056509964426873
-21.159340297583856
-22.434703622173064
-22.98886845255536
-22.26122910026691
-20.707793449659462
-18.84862049635759
-17.15285971503995
-15.74411108491323
-14.254995069854498
-12.974456120281811
-12.229961179364569
-11.765361097400692
-10.89571181857147
-8.844677569513651
-6.334681485623835
-4.852476135556687
-4.766760069084517
-5.313072419194675
-5.664355331674976
-5.911716868845094
-5.988967300337465
-6.097698739254583
-6.814956810558917
-7.1979558184289445
-6.684548356927859
-4.862461389447709
-0.9285249580569975
3.46251484144964
6.661247450264884
8.40800448128551
9.4022318491851
11.698904105605717
14.48532598472124
16.032607292234516
17.308063886418374
18.050907848899158
17.789627197735154
17.613019711559026
17.343865269499467
16.06204460985794
13.814994743521341
11.523272596858341
9.95926401589348
9.078327338949443
8.590471646864321
8.383184305981143
8.514780575853122
8.762761317397924
8.627373876440895
7.801655816993031
6.076368578109734
3.946775193133783
2.805872129352533
2.8519893522760684
2.3014072416211806
-0.002911306734688257
-3.4006972228017456
-6.646129425061182
-8.396453492120054
-8.285092065638723
-7.422695310985355
-6.431810342939315
-4.79529587710196
-2.3410351062012085
-0.015182044667355597
1.1106432048664656
1.1289183410662067
0.993005127270323
1.3292515585677567
1.8037348486473699
2.0375032836973683
2.7526986824901267
4.481718781684241
6.535770579467357
8.255309806674521
9.521735077195919
10.480902500202406
11.220900518165227
11.593055653165848
11.880170472518339
11.856101327543197
10.380828726068344
7.872827351574998
5.646950242315303
3.6713680794895316
1.7248420429849904
0.06353333682766843
-0.9546714439571641
-0.9914876860945774
-0.40925559265530703
0.45336572415843573
1.673058091959214
2.5202918431486525
2.409207123030803
1.9390889482899671
1.6159866247391914
1.620250690609523
1.6363125209377065
0.7205206622642398
-0.9354757515453066
-2.2485120955533766
-2.5462125513889142
-1.5218420654295834
0.35528621224187407
2.494576261590514
4.6600084666445705
6.760986951191752
8.933320240595162
10.09272888872109
9.054944556112208
6.480498899952817
2.959065717286656
-1.1001864814927707
-4.515866297221691
-6.770130350899939
-8.600799135032755
-10.985887700224389
-13.95276507685525
-16.52293356784893
-17.420367575402967
-15.88575870543715
-12.344337081465882
-8.279651129227766
-5.023967536413671
-2.2099953052614896
0.8774816866028325
4.114815045190159
6.98399843383744
8.131532013618928
8.306937916056695
9.2224693594577
9.372899501823344
8.44944215079223
7.128718082636417
4.604675249475266
2.2555654967687824
0.6797518656191883
-0.880862133583229
-1.3782616096613614
-1.5096295583625645
-2.2371839301143135
-2.4263490206605423
-2.5832487385633933
-3.452398438004436
-3.688708353335758
-3.107262060189733
-3.002833867028582
-3.002415444458796
-2.5274624851273093
-2.534078326953312
-2.646358743224426
-1.4769192774736095
0.6806097703858254
2.916542422865769
4.716520981048497
5.733345918334478
6.334303632704722
7.05414921562906
7.600554859219249
7.584385162788393
6.993423620405781
5.750069403937175
4.194591385802583
3.047352377251456
2.7060426388277214
2.883276152056782
2.419893109714554
1.0182805613772996
-0.23247621878985436
-1.3531280226322437
-2.91748927566129
-4.2602593466287395
-5.190902407550026
-6.319751649758271
-7.425719983835342
-8.342842305819344
-8.675423487215014
-6.821880578195893
-3.131367180468905
0.31191732035725545
3.0437635256176887
4.795636135409234
5.33573879721968
5.308391370972005
4.933069421380141
4.922521366103437
5.514940121823945
5.646608880472589
5.449201195264694
5.318209510795833
4.860843068829589
3.9090612692256106
2.0338548724493877
-0.6948435031393266
-2.956943234118203
-3.7852007601023696
-3.2661236288945545
-1.8569141570177177
-0.9622566821647702
-1.8037560764754959
-2.444936357707918
-0.9879637981174705
1.300282009477921
3.557502674029684
5.455882806954655
5.86613090328082
4.818330138529868
3.0312388416553
1.1554358898436556
-0.30136276653596
-1.7194929402887373
-2.928556099298072
-2.9800226804321297
-2.3676392735255747
-2.2394318456342877
-2.7853032074459327
-4.201580390690542
-6.326580595087167
-8.261950213491666
-9.537756328003582
-9.739063073183424
-9.239550145715622
-9.128826706323279
-8.80143026258752
-7.707851343249112
-7.054815396673659
-7.506474601224615
-8.729517352848688
-10.374218578645893
-11.941140855852597
-13.238823742936347
-14.878965940379006
-16.669247439639385
-17.58961062469014
-17.906033474690794
-18.14051816065346
-18.274686540847277
-17.89753707401283
-15.797943335899356
-12.46363124777093
-9.441350408770345
-7.025664222250181
-5.490332643356152
-4.302387745776668
-3.5636298154154136
-5.002670910736877
-7.806353945998102
-10.41006692879543
-12.76084076715018
-13.971153795887853
-14.281315380326914
-15.692516332010813
-18.91988798360051
-22.77544793601238
-25.32334079421205
-26.041774095954754
-25.90317350544139
-25.42551866431249
-24.874885605066712
-24.202018146341462
-23.011317819909863
-21.61505122127328
-19.99968689628093
-17.95783694095637
-16.1419415641847
-15.077774851116054
-15.650011795307808
-18.01962567814636
-20.3155219404786
-21.945310816363502
-23.7597302257551
-26.139547842570682
-29.20844499466256
-31.79161885290685
-33.010578610755736
-33.83834296523266
-34.330342062423384
-33.36460444966014
-30.884359477193
-27.585479681722937
-23.607328965358864
-19.828680970874757
-18.04282401839579
-17.38933696679995
-15.215804288124925
-11.419296530786022
-7.784193898072056
-5.461882134249133
-4.760445792245941
-5.631526725250862
-7.31019293736314
-8.369280155671449
-8.573702501578808
-8.804380722034345
-9.091875022047786
-8.810528477074623
-7.343815614740494
-4.3661735950232465
-0.384269484009822
3.6615505457450532
7.160223298557566
10.126826861149054
12.513337084385663
13.831678531364469
13.65859417291965
11.760004030500093
9.316229107302911
8.618458751177636
10.10320577034536
12.30254462765634
13.581135827862738
13.18303321666312
11.81335515603879
10.487796267329067
9.668982541187983
9.229609121497123
8.661978094900695
7.891459853033012
6.7268848849861005
4.7008625706849205
2.179912427981155
-0.24684620442022634
-2.401504202861203
-3.877355945551242
-3.800952583137914
-1.3802666388795153
2.956620016415315
7.754629130068496
11.618137251001812
13.426323090773634
13.284603587700465
12.652807683470401
12.655459737481896
13.156179566817467
12.923471853337393
11.304534268049382
8.997017514847636
6.5896366348082935
4.451419797176248
2.866671868107915
1.7849037102050882
1.1131523693389842
0.36762586321211366
-0.6983622048913048
-1.973768544141772
-3.835691552271072
-6.030309965881845
-7.526968855316745
-7.5692366660829125
-5.698420480031727
-2.1436766747411404
2.402343678504216
7.139753800197535
10.991802284817677
13.47353508009818
14.636780826761644
14.531842979225123
13.738191119501314
12.577871401079495
10.474978055637385
7.294682902495845
3.6941024755073864
-0.14588667430283772
-4.598853092781305
-9.011167863371607
-11.74448038400371
-12.218993189477969
-11.235200875110532
-9.708545036508285
-8.213984311087735
-6.989503361633702
-6.157500500742729
-6.1790782491153005
-7.39684484222526
-9.442577520329001
-11.708895210685807
-13.773548956003548
-15.507870336770052
-16.800848258590328
-17.26347403553139
-16.767361046250585
-15.12683899519447
-12.100809260088127
-8.543294612272554
-5.414032740059597
-2.64558965962465
0.050251887537415454
2.5126341421261102
4.1645553134328
4.773384121145653
4.573108578831616
3.822799513191738
2.813304899239422
1.4167305080517423
-0.6263262102974604
-3.122107498598583
-5.670776590702318
-7.514807875203447
-7.988140931194826
-7.501866335128607
-6.9787003490302375
-6.188268146335494
-3.8774429577978164
0.1302728691259058
4.730639563040066
9.036881342942241
12.694223543256353
15.303736958138883
16.20403576347356
15.263431607640861
13.324417019369234
11.55808477582176
10.738864614434736
10.53805031243428
10.060086574615713
9.230428186005451
8.675578236678604
8.784138522185964
9.303132290966698
9.702110694514323
9.777094694491481
9.545115809046433
8.936517927984953
7.647445929403402
5.249801291513087
1.9404605800726353
-1.3507916575223362
-3.7862239883144975
-5.098374175833082
-5.651113290536695
-5.94912314789428
-6.052724121391684
-5.4811382253504854
-3.5860325666467476
-0.778013209046418
1.6171188996247787
2.8856593216944524
3.0144325943394263
2.741502027081366
2.9182678028957842
3.213505722773065
3.3014291919469105
3.1752087786228316
2.293563775823622
0.9578814297462788
0.5424211369608134
1.7988779402237516
4.020604696263216
5.780401047182423
6.647611370429393
7.212095288330665
8.095307243798615
9.671557794205842
11.444833045955582
12.697535194089784
13.316867740858697
13.011821936334389
12.09410991928467
11.574429487600463
11.485414721194598
11.71669082658374
12.306346468911743
12.709710200318753
13.136668709529186
13.972788686532413
14.605553496869131
14.743125390284659
14.293494602460834
13.090053295258244
11.841286211726343
10.859064185132814
9.753497968702135
9.092420716737365
8.999193341313932
8.596605773443407
7.963627248266144
6.773906243428007
4.345266347893616
2.314351697191797
2.39453656859826
4.2440084486564755
7.132856815993182
10.207551792174762
12.473478940929724
13.71480607420915
14.600619911191776
15.672884097480868
16.670715213461314
17.545675334479238
18.22234632850061
18.203283664975718
17.960187281016232
17.721203231056286
16.799117181404622
15.620498438307983
14.737015860488572
14.019788329288119
13.775731924962033
13.89402629184988
13.990538995473994
14.173552075512687
14.111284910622242
12.776535116797087
9.269637579660625
4.646480048458985
1.3080280060491685
-0.145972866498829
-0.1926872249499046
0.46234448205688045
0.3734686853689254
-0.6254517820923519
-1.9287875044961273
-3.3528544602583104
-4.215735708173504
-4.42397129460564
-4.342476930734373
-3.9833442757980535
-3.9625247238612977
-4.809444612605823
-6.451733223575115
-8.558038865764665
-10.154101937441009
-10.211715750188688
-8.822363589879753
-7.417203000397374
-7.0610302928290825
-6.927542661194038
-5.940652194820716
-4.489135809952273
-3.6064006771678048
-3.567417852075336
-3.7261813563042168
-3.5873816460000736
-3.288277130555214
-3.355496036844115
-4.4726271138814795
-6.537494302133107
-8.677523964987955
-10.542716181474345
-12.502339361828403
-15.049432391876536
-17.63772878431402
-18.813564118457034
-18.60885387495609
-18.239240482368924
-18.29118318181497
-18.77793188940937
-18.852135155055475
-17.85215918318325
-16.478170684531413
-15.24861419104422
-14.071612837744926
-12.625553658892585
-10.609602586024712
-8.793895956992754
-7.91898550336579
-7.681343078662867
-8.040716175977506
-8.986179713500329
-10.058287081311994
-11.38704497393118
-12.99549135369336
