AAD_Filtered_TADAS_FILE
AAD_BASELINE_CORRECTION: BASELINE REMOVED
AAD_FILTER_TYPE: BUTTERWORTH
AAD_FILTER_ORDER: 1
AAD_LOW_CUT_FREQUENCY_HZ: 0.025
AAD_HIGH_CUT_FREQUENCY_HZ: 40.0
EVENT_NAME: 202302061024
EVENT_ID: 13207
EVENT_DATE_YYYYMMDD: 2023/02/06
EVENT_TIME_HHMMSS: 10:24:47.00000
EVENT_LATITUDE_DEGREE: 38.089
EVENT_LONGITUDE_DEGREE: 37.239
EVENT_DEPTH_KM: 7.0
HYPOCENTER_REFERENCE: AFAD
MAGNITUDE_W: 7.6
MAGNITUDE_W_REFERENCE: AFAD
MAGNITUDE_L: 
MAGNITUDE_L_REFERENCE: 
FOCAL_MECHANISM: 
NETWORK: TK
STATION_CODE: 3144
STATION_NAME: 
STATION_LATITUDE_DEGREE: 36.75691
STATION_LONGITUDE_DEGREE: 36.485742
STATION_ELEVATION_M: 843.0
LOCATION: Kahramanmaras_Elbistan_Turkiye
SENSOR_DEPTH_M: 
VS30_M/S: 485
SITE_CLASSIFICATION_EC8: B
MORPHOLOGIC_CLASSIFICATION: 
EPICENTRAL_DISTANCE_KM: 162.37
EARTHQUAKE_BACKAZIMUTH_DEGREE: 
DATE_TIME_FIRST_SAMPLE_YYYYMMDD_HHMMSS: 2023/02/06 10:24:55.0049990
DATE_TIME_FIRST_SAMPLE_PRECISION: millisecond
SAMPLING_INTERVAL_S: 0.01
NDATA: 13501
DURATION_S: 
STREAM: HNZ
UNITS: cm/s^2
INSTRUMENT: sensor = ACEBOX/SARA | digitizer = 
INSTRUMENT_ANALOG/DIGITAL: 
INSTRUMENTAL_FREQUENCY_HZ: 
INSTRUMENTAL_DAMPING: 
FULL_SCALE_G: 
N_BIT_DIGITAL_CONVERTER: 
PGA_CM/S^2: 27.368
TIME_PGA_S: 
BASELINE_CORRECTION: BASELINE REMOVED
FILTER_TYPE: BUTTERWORTH
FILTER_ORDER: 
LOW_CUT_FREQUENCY_HZ: 
HIGH_CUT_FREQUENCY_HZ: 
LATE/NORMAL_TRIGGERED: 
DATABASE_VERSION: 
HEADER_FORMAT: DYNA 1.2
DATA_TYPE: Acceleration
PROCESSING: Automatic Paolucci et al., 2011
DATA_TIMESTAMP_YYYYMMDD_HHMMSS: 
DATA_LICENSE: U (unknown license)
DATA_CITATION: Turkish Accelerometric Archive v 1.0 - Disaster And Emergency Management Presidency, Earthquake Department
DATA_CREATOR: AFAD
ORIGINAL_DATA_MEDIATOR_CITATION: : AFAD - Disaster And Emergency Management Presidency
ORIGINAL_DATA_MEDIATOR: AFAD PROCESS SERVICE
ORIGINAL_DATA_CREATOR_CITATION: AFAD PROCESS SERVICE
ORIGINAL_DATA_CREATOR: network: TK
USER1: GuestUser
USER2: 
USER3: 
USER4: 
[...]
2.2918532281834683
1.642328748707594
0.8477125296416588
0.0550510394278088
-0.5355148611613599
-0.9033298278571654
-1.0765318744851817
-1.105640057574859
-1.1097316577760579
-1.1827887342819994
-1.2817934614924387
-1.1638658638832344
-0.5160473820759226
0.6825390209936909
1.9595318783999893
2.8478107938590176
3.2740658397862883
3.195024854641552
2.813762834599649
2.7198838555657168
3.0345142927944346
3.4219281875788585
3.6179903531539335
3.4277091311193506
2.868455104210653
2.097152283314094
1.298491043829228
0.5535503574443155
-0.4237978305094029
-1.676185352947774
-2.710965534119605
-3.178373611891303
-2.9491939468249724
-2.064865026022325
-0.9680687255943994
-0.06321527729287074
0.6429584189011361
1.421689819028297
2.566038177074931
3.5660080852620455
3.6300942528380062
3.0880771730014347
2.290559389456477
1.160897080944574
0.28023501584413324
-0.01358559524644197
0.19688088140801657
0.7446850502137699
0.7852909788565721
-0.014552230819044373
-1.342306203533223
-3.1972982421308416
-4.879055807344538
-5.500615377298626
-5.297227044573429
-4.739854358409813
-3.9919036506716195
-3.1252072074952584
-2.06436835235378
-0.7116968221377756
0.9007758886309748
2.4721816793308022
3.656385981608588
4.361754054786778
4.558427369497962
4.308294008457149
3.75040888629791
3.0590250339404856
2.6916363759932005
2.7131998109794444
2.551728857416253
2.1313812241407066
1.758678909083478
1.313253927119885
0.5542337491680926
-0.5341077158353531
-1.8562298904914207
-3.2630093741256627
-4.462046320656662
-5.169600261897403
-5.366421967033907
-5.245852253319612
-5.105337353444633
-4.916398304055611
-4.049265614631787
-2.0045647771975252
0.7779171144262745
3.093968311821283
4.0914704060860325
3.7702504138063646
2.463464537805729
0.730748311779525
-0.8752530067524128
-2.130825050237219
-2.945650262160053
-3.518714539032968
-4.120430656133456
-4.697508420717393
-5.100761336306015
-5.048133435794095
-4.490865808293004
-3.8155772185575545
-3.0165676219788122
-1.9700599488265373
-1.057008473050734
-0.4752085643449128
0.0601114170525041
0.8031388741330984
1.6152997627469587
2.042977903132374
1.8827196588645314
1.4539941228965951
1.037781167725725
0.5405392663197495
0.019375897331881022
-0.32085824750071
-0.682285416167755
-1.2006657554936375
-1.524611098183237
-1.5491816297646748
-1.5582321940094943
-1.4441290810960985
-0.8697060093502453
0.08718221814277674
1.1361587351885198
1.8543702807568527
1.93494962575393
1.678476590751622
1.3607084126377247
1.0422406206224522
0.9842883703698605
1.2203962540053508
1.4986211605561934
1.6799972026336658
1.9468753529715486
2.5493122486689974
3.290398173010793
3.980381975899777
4.573039111663899
4.702734996668833
4.1914698205506244
3.138512619185517
1.58424907182585
-0.11293794355917651
-1.5069921459651028
-2.567297753433652
-3.2581931811168086
-3.310363391952451
-2.696514052655135
-1.6754610501094063
-0.3632605345921617
1.0979113350562562
2.349013593043241
3.350934235682455
4.399253500079471
5.583201717504691
6.4968058028629825
6.457317472279023
5.628682908559006
4.895246484827129
4.373659158951486
3.7961857427495116
3.2091774022630597
2.584675268840748
1.9786030689981526
1.5495824032055365
1.4371371259999255
1.6565016239858674
1.81382726643854
1.5143808258938565
0.620514486324051
-0.7263549898716553
-2.088487505739153
-3.249881417048849
-4.195298732379484
-4.773936572286788
-4.747341803568227
-3.944948565077507
-2.617748205045053
-1.3946351504048498
-0.8062393133785576
-0.8365615603114495
-1.0392384087995221
-1.2521873416624631
-1.4615242873954646
-1.4263752984113311
-1.1313822064786216
-0.8725909266727416
-0.7187398877966955
-0.3385393632117565
0.442875895308734
1.4698520826197694
2.6458503855922793
3.745041614346335
4.338423662414099
4.167461063227959
3.374081103559306
2.4141520884049616
1.5487772459343978
0.8054270300700404
0.13210493701656092
-0.6328984193933016
-1.3566957005989464
-1.880181325757494
-2.388080356627745
-2.8164686845386058
-2.995950659335456
-3.0691612042034198
-3.0519895861460977
-2.870970290920213
-2.566849032655357
-1.9752983573149083
-1.0902771191038299
-0.3084513910945093
0.29210468011701757
0.864386214118823
1.340884495761715
1.7360536878544666
2.0192828696631273
2.0120699309613785
1.9042799654692855
2.0434600104769616
2.3570333322731334
2.6053380325049065
2.6194345907846768
2.2621826943754844
1.6244833885607435
0.7757532814691607
-0.18355142669952257
-0.8476949604323468
-1.2475384680082013
-1.658633185101961
-1.961986321342013
-2.0757008654187765
-1.7062879009101122
-0.5084335005206396
1.145607558346809
2.642919164868376
3.6608953180663444
4.246577484955499
4.559056327765769
4.472578517606379
3.8945636985892316
2.974655957122556
1.778113497045227
0.2057473603863182
-1.4255333577797031
-2.4897174504589117
-3.095412884016573
-3.495316865538913
-3.29371781799341
-2.4236431767216304
-1.4457173968369714
-0.9730499374282586
-1.3116290828764738
-2.267069973690735
-3.3692810459909035
-4.240644718393891
-4.929313198777769
-5.5516031895434095
-5.8249141269505715
-5.493833618561215
-4.313358190434861
-2.085795153907822
0.8419531059812935
3.9117472346201736
6.573497688597053
8.335340151875759
9.04799933384615
8.816856397590625
8.09896214808425
7.380065001354557
6.61294689883181
5.790168115416903
5.124085233461821
4.386772933076905
3.3738876927221053
2.5878361179962774
2.3617594622706553
2.3870123435198267
2.6333837315661994
3.2340410402715114
3.8197546056149627
3.9826296800138277
3.66710774064585
3.0168493794568336
2.189898850703181
1.328322538747978
0.5652231333492012
-0.05675066370919728
-0.2774688690635438
0.06256563405338038
0.3259532077566869
0.07784777742904758
-0.24549572632221292
-0.40795647188607004
-0.6587235772047876
-1.1514333967987518
-1.8027975781568204
-2.424311229488081
-2.823404394821855
-2.7731749723298957
-2.2422997213993847
-1.6030061700058282
-1.2307422979972464
-1.1753648167465707
-1.2152004933360223
-1.1661388573072735
-1.220772352747128
-1.4785980588910401
-1.5536549307240541
-1.3906534521058078
-1.4711312471852214
-1.839368056829187
-2.105717056557629
-2.0982425265463145
-1.7376773182764602
-1.109079054023443
-0.6225075023675444
-0.40556341473461177
-0.312128278873246
-0.42785506981558136
-0.7155677802122129
-0.883571298791103
-0.8919727160563977
-0.9399002150252866
-1.0635467774193403
-1.225457195723074
-1.5246491699203275
-1.8199777669527577
-1.7919181377579079
-1.349084365442802
-0.4664534830059782
0.4098068785159177
0.4691611541722174
-0.21144046536823682
-0.989738915876727
-1.6600788923341512
-2.279687086694341
-2.8606706438268246
-3.2899214504299037
-3.443506912510574
-3.193416437477622
-2.453164687790215
-1.4514712320541354
-0.31917606744340454
0.9081973828325853
1.9164304122910902
2.7155869020474475
3.255017597351503
2.9680448820411756
1.9673991299233238
0.9550261533868273
0.39117647348357815
0.5965734417131311
1.2989007668425343
1.898690386079694
2.445333774096643
3.1312754606543205
3.8385696887289242
4.443391493831128
4.663845371268999
4.3036738107912775
3.6710856705284343
3.000773787510628
2.256008216290638
1.491618018202795
0.6496122350470472
-0.24227462450200457
-1.0133940297537483
-1.7382931399342494
-2.3181557743988943
-2.61700304766002
-2.7118816731080537
-2.520184302176399
-2.2570647387760783
-2.261902379447116
-2.423020557874532
-2.5464287359840627
-2.466349460524887
-2.236002805373493
-2.0723906961015954
-1.900623376144031
-1.588806615597626
-1.1597296742806436
-0.9253237342874022
-1.2525384948316043
-1.9917025118504406
-2.8546813389034695
-3.6972653382628184
-4.361825959968801
-4.776935841319364
-4.857300848639909
-4.59841815819494
-4.168089762464554
-3.6483873449883997
-2.909789582505972
-1.9948754137303752
-1.4562389982229509
-1.2629139288354403
-0.8085634100802733
-0.16231963455477655
0.6983509612025393
1.4615152967884468
1.6487209107186283
2.2662817348412125
3.097162323185254
2.9568481020988115
2.478225622344295
1.6195827460905274
0.22527545233371968
-0.742721889202489
-1.303776680810267
-1.2834153900947578
-0.8542720335743812
-1.4748432410069479
-2.922572950464945
-3.6383318139734753
-2.750612997472617
-0.1546229348833152
2.698813067756858
3.8073484533805093
3.2023221469253684
1.9006602174498008
0.6514465365507557
0.2833526815098613
-0.5134345682732128
-2.8864094748125186
-3.9633802022274316
-3.0532628452342045
-2.9884570464473836
-2.6295429244304325
0.48672246009577486
4.529969820364353
6.539327778108908
5.8502796558241155
4.439408407485751
4.1369616602044985
3.5323735722302665
2.4603670214004656
3.3449751333395654
4.483474156523599
3.809232808376265
3.2211444514472842
1.5228634425479537
-1.4543943576172345
-1.396517417970704
-0.7017374264628453
-2.9417065212973834
-3.669479183822823
-1.846409836486878
-1.3065186476471562
-1.9394857622585095
-2.2887590764713295
-1.9570564745687318
-0.9843754247838097
-0.4949682072859654
-0.5409368429250568
-0.10697954771187235
0.5317484779927442
0.47988961429249155
0.19740022894474932
1.2648168546652627
3.157686000615858
3.793942737636214
3.74283819435518
3.839311257668684
3.319830207815148
2.792102687137728
2.215682017639212
0.8353296659073587
-0.4087273044021904
-1.4731444476495836
-2.3414174950262607
-2.2632348652382155
-2.2172151662027004
-2.462143128309888
-2.236878353823396
-1.919727371280336
-1.7719114082316347
-2.122566329806648
-2.6684041328518453
-2.2115057517224375
-1.6284811114557984
-1.6311977550854624
-1.2785482917328588
-1.2896169266402726
-1.926180776749002
-2.936187698683646
-5.21509368292276
-6.937662022754246
-7.396920308413297
-8.70138471748419
-9.224656450985327
-8.267985925367164
-7.691805066124892
-6.209825684377078
-3.642086920370373
-1.1590936675910437
1.8238420786321052
3.8952818221076324
3.930928152684941
3.9334620002459557
4.1997135780051345
3.670103314322524
3.71858662877047
4.388208472840021
3.5364582969243292
2.3286123777823375
2.033201370694862
1.1124219710320349
0.09285015885448593
-0.3150486239224569
-1.038329127780358
-1.952732989706117
-3.4641658076075466
-5.494233137492325
-6.433972669208059
-6.507253913583837
-6.609572294707836
-6.131693412690416
-4.717164571810256
-3.003389171220331
-1.7925499822446864
-1.5131577562765837
-1.629961879547486
-1.5520627468870818
-1.8749131477828438
-2.4746270899182243
-2.383159610295358
-2.014197643753137
-2.084898255338683
-2.601961364459522
-2.887456069657503
-2.077304457821893
-0.7299075103973889
0.26860854554321123
0.903969221460745
1.5614978994680702
2.4855267986781255
3.0175494664355353
2.986023150463563
3.0692198503558226
3.2822155269884625
3.690043741494363
4.2916178701050995
4.436491491366117
4.501490822537626
5.056813507554768
4.8116261324609315
3.8989277627538246
4.386274875661786
5.04098764967963
4.253113125989346
3.76108384721536
3.581976191186594
2.4629487334192923
1.3870423531589233
0.7192201389310011
-0.49700834951050815
-1.94622364411259
-2.6099323036331943
-3.147073375346658
-4.634501541227005
-6.017466697947539
-6.457979204810497
-7.0316105594038945
-8.050586890813141
-8.370006666147125
-7.464007900900282
-6.134773825226394
-4.687806169662838
-2.658361862229009
-0.5095296560199157
1.380398301721003
2.951177545492522
3.7002251102877115
4.033025477939439
4.037272596310961
3.3552533437866963
3.0187274554743118
2.9811443365030863
2.4606261486407917
2.218321457521426
1.7883779038578034
0.31744410460424255
-0.6504243393034921
-0.31469255487654363
0.7880096698145425
2.8703897539867116
5.250417673874417
7.014411568729859
8.585619941094137
10.107068413596016
11.550580395454524
12.473932845967424
12.071446208667606
11.547596363065344
11.71626031699444
11.35142582555119
11.23530555236594
12.493330710665457
13.017299548724354
11.690481777520782
9.997398496014817
8.345222844057568
6.580933799863731
5.356265823462124
4.667394967329013
3.5181127095417364
1.7336605994611571
0.49969869915764703
-0.6651159446231648
-3.1815767573780653
-5.69828009254145
-6.632715659692579
-6.16560626512595
-5.3100034145446795
-6.1404115317267465
-8.526156349178397
-9.992034608683376
-10.722190912554927
-12.130895221020051
-13.719525884993852
-14.531491357577249
-14.480384073098712
-14.860895046785792
-15.923901273457046
-15.522455886967396
-13.975908324658077
-13.427297078349334
-13.761751858022981
-14.653453629756353
-15.355946029628031
-14.912576453762266
-14.289922491195945
-13.999394170493844
-13.980815720659107
-13.921327703980262
-13.257462356089277
-12.949955907652104
-12.445732479667138
-10.306970009400882
-7.429202106119552
-4.588251728882334
-2.7898604459937415
-2.1967398141980303
-0.8284517682378965
1.1281657612013296
2.9387885372774574
5.304137679317184
8.025620691897265
11.326827041678378
15.182968177635844
18.546906964919994
21.357502321109173
23.757551456399206
25.79567792729536
27.31786900021183
27.481027337228824
26.290363245558098
24.419370706004152
21.926413710652977
18.28493363212883
13.935423244150575
10.450930525217219
7.3345324612814125
3.7600583802221554
0.9660940560667689
-1.4161454810528358
-3.286680188380089
-2.9184135032388765
-2.108415248016653
-2.3927712198880267
-2.701346703530723
-3.536844388275381
-4.44380852990217
-4.455239330187577
-4.654537385673854
-5.135910966636409
-5.644987837157985
-6.222005720479935
-6.487653478125421
-6.650375018467256
-6.17571628363767
-4.944961568832443
-3.331700309536468
-0.7017577666310311
1.5371903545339585
2.365801158418765
3.3633372754619075
4.276835773469068
4.357993635080785
3.6703128893501504
1.8091166752624914
-0.09402548973091637
-1.1657778057886408
-2.1626025822464947
-2.6525519980578487
-1.6866103187757921
0.3845966550480275
2.6471136553589267
4.699408399564945
6.3167718418294125
7.366565309761527
8.911293393386943
11.685499965155776
14.94011016913372
18.11481692359282
20.731168792359483
22.356454256511775
22.71789334192894
21.440859834194832
19.16396336148098
16.027724735541405
11.772091571251215
7.721945108728067
4.462862092594918
2.091430674017424
0.6920374669476518
-1.0842606946055233
-3.2757167222064454
-4.993390644946367
-5.349177280163825
-3.344143755722754
-1.1752766299554094
-0.32575895679554306
0.7957277961953592
1.7799536323794851
2.327828559154996
3.200172558478807
3.8391383239892494
4.384009475988854
4.834715887661095
4.784509480043858
4.771367125626439
4.919985354471209
5.2803116731183986
5.839670250906021
6.668577444708652
8.368906913030596
10.168199200712438
10.745666656638301
9.517999708365481
7.0776109326624335
5.561801182484762
4.962834850194612
3.995147918578958
3.7082096913051887
3.4718382777327506
1.2384126570593106
-1.7088579234769368
-4.282952646310334
-7.125013792844527
-9.066133170622777
-9.926427431025873
-11.3161581505452
-13.437470733542813
-16.292521836941603
-18.350438965791106
-18.23949034961603
-18.415447621822892
-18.58739727552628
-17.12625025764794
-16.35092581039818
-15.870572097312055
-14.322767909290178
-12.990645589753495
-10.747508095189584
-7.186588483332254
-4.081700997498989
-0.8663588866334683
2.0474775436953614
2.485118555836569
1.8131621860007276
2.4612998710595657
3.4615076215687095
4.100608057228694
5.418067579619891
6.718434887469618
6.965983607088907
6.532438474364
5.670536741511825
5.041738221294784
5.182202830292287
5.114536425601037
4.20201564755186
3.324165761843324
3.3064985203520085
3.864193345072153
4.658069649965441
5.576664963418196
6.113118091625603
6.4313946042938195
6.54103379310176
5.624901477128422
4.354733788456724
2.9565420213426434
0.11178213651881486
-3.028221274695197
-4.9642045023827235
-6.826663130420936
-8.766712256290464
-10.096987658243373
-11.144854737357765
-11.530598125456143
-11.232861639393928
-11.205989511873119
-11.628669198184486
-12.60629622234588
-13.99719504245206
-15.116615014835213
-15.667289988761903
-15.096355318533972
-13.575641153838482
-12.119533231623338
-10.78867787491123
-9.877118229242845
-9.558099201088098
-8.802898617873298
-7.2715973732386345
-5.433217789855776
-3.92429560667616
-2.9744261856980554
-1.789065094179532
-0.24555112421901765
1.2460169813167141
2.8130175083063382
4.133911943199868
5.273161871861976
6.976277787279282
8.805140069575032
10.029453549706556
10.905996285609453
11.193208617060153
10.51239150818009
9.37319895987375
7.523887654856552
4.7936692169769985
2.398332601990379
0.7460255330860983
-0.3365955784549009
-0.3551952931016315
0.4994490540580473
1.111495040360039
1.2996696973718627
2.1459326503210114
3.1052097565810586
2.7935984526081006
1.857565500763345
0.1431863801045364
-2.877987109520145
-5.52705829067828
-7.1830276768792105
-7.971657343344753
-7.346096949432025
-6.603896010119187
-7.080480753639642
-8.082563247096594
-8.782411419837855
-8.949724119155919
-8.97092518811671
-9.63668135040076
-10.984422976089768
-12.236622373940653
-12.746880346394498
-12.408687740571905
-11.549791386941926
-10.298370494684752
-8.531273070259928
-7.0907376815885605
-6.521110433062066
-5.730025100141037
-4.831414713480569
-5.048748343045034
-5.736921469464941
-5.520435004309576
-4.2532305302686595
-2.479566215398628
-0.15787903862798278
2.6123321668019477
4.649709687268105
5.551935217306256
5.7396708340087255
5.465713235233058
5.332318719800533
5.560334783941549
6.270607517896728
7.404066177822218
8.199540463825246
9.008411570777977
10.514995095286872
12.231205459478643
13.097502643642951
12.092820949429287
9.998662911067878
8.376745029930346
7.163945907577787
5.979627512445489
4.796505805559963
3.618930244488537
2.297427573446081
0.4098216995017095
-1.1760806031743027
-1.2538231678032794
-0.5891679410235707
-0.722622781748748
-2.0509369474486085
-3.5595609762969285
-4.310736191205811
-4.412110355798926
-4.337932318547106
-4.445610214828283
-4.0695933844096865
-2.5287957149930587
-0.45201934281156436
1.8690764400319368
3.887606691107135
4.8514822521759395
5.569954160171086
6.152291437125833
6.153525077449721
6.120854384046593
5.626371148000019
4.38918884192412
3.3099036744331527
2.622842105689093
2.336466891191427
2.452401363932416
2.7385604302277136
3.3307271538521395
4.157714346668658
5.1994413818101535
6.391546394832615
7.062607661977879
7.842920981224118
9.55318668473708
10.8513796625044
11.452452895434824
12.355295683736548
12.822853515102748
12.501610401220473
11.951473531687194
10.767103103565203
8.891084123417638
7.221522538880519
6.674767281949073
