AAD_Filtered_TADAS_FILE
AAD_BASELINE_CORRECTION: BASELINE REMOVED
AAD_FILTER_TYPE: BUTTERWORTH
AAD_FILTER_ORDER: 1
AAD_LOW_CUT_FREQUENCY_HZ: 0.025
AAD_HIGH_CUT_FREQUENCY_HZ: 40.0
EVENT_NAME: 202302060117
EVENT_ID: 13194
EVENT_DATE_YYYYMMDD: 2023/02/06
EVENT_TIME_HHMMSS: 01:17:32.00000
EVENT_LATITUDE_DEGREE: 37.288
EVENT_LONGITUDE_DEGREE: 37.043
EVENT_DEPTH_KM: 8.6
HYPOCENTER_REFERENCE: AFAD
MAGNITUDE_W: 7.7
MAGNITUDE_W_REFERENCE: AFAD
MAGNITUDE_L: 
MAGNITUDE_L_REFERENCE: 
FOCAL_MECHANISM: 
NETWORK: TK
STATION_CODE: 2712
STATION_NAME: 
STATION_LATITUDE_DEGREE: 37.184
STATION_LONGITUDE_DEGREE: 36.73283
STATION_ELEVATION_M: 536.0
LOCATION: Kahramanmaras_Pazarck_Turkiye
SENSOR_DEPTH_M: 
VS30_M/S: None
SITE_CLASSIFICATION_EC8: unknown
MORPHOLOGIC_CLASSIFICATION: 
EPICENTRAL_DISTANCE_KM: 29.79
EARTHQUAKE_BACKAZIMUTH_DEGREE: 
DATE_TIME_FIRST_SAMPLE_YYYYMMDD_HHMMSS: 2023/02/06 01:17:07.3433620
DATE_TIME_FIRST_SAMPLE_PRECISION: millisecond
SAMPLING_INTERVAL_S: 0.01
NDATA: 10501
DURATION_S: 
STREAM: HNE
UNITS: cm/s^2
INSTRUMENT: sensor = ACEBOX/SARA | digitizer = 
INSTRUMENT_ANALOG/DIGITAL: 
INSTRUMENTAL_FREQUENCY_HZ: 
INSTRUMENTAL_DAMPING: 
FULL_SCALE_G: 
N_BIT_DIGITAL_CONVERTER: 
PGA_CM/S^2: 602.658
TIME_PGA_S: 
BASELINE_CORRECTION: BASELINE REMOVED
FILTER_TYPE: BUTTERWORTH
FILTER_ORDER: 
LOW_CUT_FREQUENCY_HZ: 
HIGH_CUT_FREQUENCY_HZ: 
LATE/NORMAL_TRIGGERED: 
DATABASE_VERSION: 
HEADER_FORMAT: DYNA 1.2
DATA_TYPE: Acceleration
PROCESSING: Automatic Paolucci et al., 2011
DATA_TIMESTAMP_YYYYMMDD_HHMMSS: 
DATA_LICENSE: U (unknown license)
DATA_CITATION: Turkish Accelerometric Archive v 1.0 - Disaster And Emergency Management Presidency, Earthquake Department
DATA_CREATOR: AFAD
ORIGINAL_DATA_MEDIATOR_CITATION: : AFAD - Disaster And Emergency Management Presidency
ORIGINAL_DATA_MEDIATOR: AFAD PROCESS SERVICE
ORIGINAL_DATA_CREATOR_CITATION: AFAD PROCESS SERVICE
ORIGINAL_DATA_CREATOR: network: TK
USER1: GuestUser
USER2: 
USER3: 
USER4: 
[...]
-8.21107024081432
-3.6040959668628596
2.166986622265707
3.5332039266135435
0.4311954194987953
-4.4757279294921855
-8.296384055612315
-3.077227069340191
3.6222356770266226
-3.828623982474191
-15.111995855867656
-13.116057207922566
-2.4419584598475637
2.1732360762472425
-0.1124575070938366
1.109566352739571
3.402928373106689
1.8545445299002443
0.658046360620176
-3.3426444505803463
-5.808536293163938
3.339564117471677
7.7156134226047675
-2.9755808844811154
-10.342868873906777
-8.715156103133285
-5.4377585216055015
-2.2387149357186136
-1.4716649434584248
-1.236661226727724
1.861340724017454
4.633844039406156
4.0461453285687545
2.367018550915989
0.29745695330021665
-3.959193662925305
-3.713342999672425
1.0625909238283058
0.767206396522842
1.10796477095792
3.654976063057247
-0.9679709941179082
-7.86058263687747
-9.677471250732136
-8.04286055243455
-10.318052287195863
-15.31030061301204
-11.53667831276785
-7.257871526583758
-7.663045853174739
-2.8942585959208476
-1.4018861568731047
1.208746912304073
14.793581974636663
19.746041390274446
15.428529888770711
14.727389136263195
12.985584095823642
11.729157878947412
11.011675997295171
9.771763006853808
12.286293115680339
12.645585073795141
12.008580566155288
16.87826206150706
17.675353495912166
8.839306444684453
0.8282543890993475
0.19932136224166613
3.7845793250598914
5.886267424911314
1.1549041622639526
-5.4396643297226115
-4.850317337608042
-1.7296138386201394
-3.4123485395272253
-7.865739631885261
-9.747880387000956
-8.509851511433387
-5.481279871052392
0.462786052627488
3.7827495094254004
2.0184191670477656
0.5666650748869394
-1.638945924165526
-3.411349666610703
-3.9183724787940424
-6.185543257754622
-3.7900781431138504
1.8824137193667774
-0.5535396090607272
-5.589459539534588
-5.362809069179734
-6.5874779592867245
-7.443460541427495
-3.5948349380383338
-2.466453810306633
-1.1047088676227812
2.5392574272368917
-0.8048910149082963
-5.44149714485847
-0.9741710514399806
8.55402259380742
12.266802714179367
9.817224769925076
12.759173669271828
18.440067060380482
19.308345529192408
19.306126093501867
18.077125434089332
17.14636797604304
16.310035640579756
6.113607816594327
-8.378044650941456
-13.519114443925053
-9.658362458009579
-7.393867808049346
-12.74561625246288
-16.027727977915795
-11.562647510721375
-14.032004967349454
-25.36744252661266
-27.963906805869
-22.914028153382535
-24.22970313938093
-29.105038982606022
-27.30750261768837
-23.26790950647404
-26.875169642858584
-27.794026930497772
-16.3796637565144
-8.589433530640017
-10.990341363785628
-15.624332234884093
-21.231588889851988
-20.010730601419926
-15.263299963603737
-22.242259339227733
-24.281819945881452
-6.510961614118993
4.345366623443426
-4.3850699717458355
-11.741670421092472
-12.403990732333318
-14.628504864040966
-14.022162113719855
-8.084464460985942
-2.64689782579709
-1.087323658919098
0.09225795212476845
4.4740943577218
5.131967751386617
4.522111813039007
10.23584226493157
9.058433587277449
-0.6500381678816298
-3.4833312738332176
7.664220000108849
27.701185047204337
27.85971868812372
2.9054032336023603
-12.99347005210741
-12.483519272769467
-9.379296524957118
-11.843184290721439
-15.594726325349422
-12.839513164794148
-12.291243639539285
-5.6738740322185555
3.5123823839875463
-4.295720494414058
-0.7590800972147461
11.420114794844197
0.2136225704779303
-8.845684623341889
-9.460523676333725
-19.41806650974981
-25.963349954907464
-23.745498284295184
-16.203846302959004
-9.390652047970995
-11.504065904190858
-17.698921630886897
-21.43902498882911
-22.01982369233684
-21.741787114762094
-15.592385685755826
-6.724642991031046
-9.784968628428823
-16.650194708837052
-16.34032475717799
-10.525697790325385
-11.35956913362879
-23.24366290642374
-17.098903426894406
-8.240042537744582
-22.74751074708399
-19.07292120641074
-2.6380881615693537
-4.0285046483553835
-3.614343941933793
-7.348279827375136
-19.04947904933483
-17.172253736355326
-13.638250707245922
-19.431219342603697
-11.20302127316381
7.548956391828861
2.9956048865647515
-14.4701718447836
-23.56959027590341
-29.19290473714075
-24.83867969967603
-13.132807913535988
-1.1207312950836554
9.924005610394522
8.263748830940644
-2.5630929940987732
-13.096033657197601
-14.302388280316643
-5.0359657073112585
-7.468039932102152
-14.393199199386212
-5.906261066211677
1.1726205569403274
-1.4187174471843145
-3.5825446003392094
-1.7910660658374473
4.206584069376037
7.797970284726888
13.355397391377359
28.776861697946366
28.76847846582541
9.117081175584351
6.9536522386845245
6.987357968185638
-14.454587746127729
-11.385781173788047
8.983257366309722
-13.996555836483703
-54.51256965451647
-67.39739154622781
-58.77368610019378
-39.83798486895476
-19.407695303170353
0.6950124580797977
5.229990284370983
-5.926037045922497
6.556358538908763
26.83712736528168
19.912825038695978
2.5810423297306047
0.5320035251786931
23.274723528344346
28.77420545048614
5.379804780089102
8.902313003712406
17.171372000065812
-4.995626625321886
-17.298759119870148
-4.962586585287124
5.998037816198232
2.8108591024694554
6.602831710709762
10.224267402048397
-14.070708504596658
-23.330549764572353
-5.910327430153459
0.2802530268121517
6.096666961841026
-0.9633722131879869
-31.178099003529436
-50.92223244702423
-59.52503634382159
-56.71564066210772
-40.59929966984563
-28.304630129306133
-14.898721176698146
-8.494045254319357
-14.67840197764385
-5.963705343020323
7.531161845020428
4.69108132433055
2.7359050219856504
6.940919979165166
15.339978594943917
26.34852502383869
22.334509693277553
5.3762133252658595
-7.293714731258335
-4.146701584074076
11.704562157880822
17.6702522700545
13.667515164441
17.47446654375294
32.69005754541681
44.49210075458664
38.796432764808635
36.923854078405235
39.892208063194474
22.83685775752985
4.994563289042324
5.91479131270759
15.289973560238945
4.626456178470029
-30.454819740261346
-33.22334216926639
-10.141597341799436
-24.02402833844382
-41.64025520574269
-25.29666320773416
-19.629250237982788
-28.387420678749876
-21.190271729301056
-23.911309603471697
-37.27286368098889
-24.106511847709857
-4.509476312081996
-4.290708459820128
-19.406968380452124
-48.71951252839809
-78.30813511259616
-90.25426632437336
-69.13535284971125
-27.054387431132678
1.514462192399121
19.162303614850636
21.306558747979583
-2.6863624371773684
-11.800200698083524
16.49509188410264
44.9651942705105
46.372067956153565
44.459150732596434
48.69050151462438
43.71741370033823
48.539650569546424
47.78847053077134
21.5634973096259
22.810812970429332
45.97212686366756
45.910684870600434
42.254315317175475
41.495131837906165
27.763675806522176
0.9334766106909912
-30.56617506391621
-47.057579831352186
-47.70453953118372
-48.459889331741905
-56.18676919810435
-65.63126236328407
-60.14541603638431
-45.735945693731104
-38.21844750461007
-15.308132987839802
30.732604671817597
51.76590008171381
28.531164854517463
11.57557863471471
20.364975770525394
17.551149167340075
11.775869308030407
27.168741445087758
28.62227530166444
5.3604014589798314
-9.636741702919597
-11.244262889113136
-6.089740533307991
2.4553324405363433
8.52744777742897
14.84552406686791
14.761856498567761
-4.721597115330145
-34.30157213509346
-46.41706910314571
-40.49172631878737
-42.07639455013777
-39.12134573867815
-29.491272074817623
-49.677316726722275
-80.050613258497
-91.51581092837283
-89.51630437356079
-59.61670578460083
-16.42320939268518
7.3276688334943945
12.163042992978333
4.392421839577479
-6.552790981275303
-19.92067334584455
-23.503295028417345
0.5665169068488369
20.860043243159378
32.43486864224007
67.4950722497783
99.89473152098888
98.32204126207333
75.18061967604383
37.4333103769303
-3.5908560994729606
-21.905905049079166
-20.493696507221365
-22.591540891311094
-30.451964535028605
-35.133848663076435
-38.26550589962814
-45.65845025770066
-54.797424249205996
-58.737203674026745
-55.33856137304293
-45.09414113976688
-29.78844960844032
-9.878743924952518
17.316795999353904
49.17456441411124
73.77801665311668
78.3169979623931
61.10580139889141
30.307739053512645
-2.247608871900222
-21.736058223259548
-24.336334893195986
-22.27865474798905
-18.03446504349995
-5.863948699148482
5.201391688835608
14.272493488720487
28.621795793313378
39.95455142440269
52.39257802886655
60.52450448463007
34.807089667136125
-7.617589545853916
-34.573436832619066
-52.32189103875052
-64.1150088745785
-72.80252834905507
-74.48241461759876
-52.76925566648493
-28.69190292881925
-22.20652171810194
-26.04573239682707
-45.092464801543706
-57.441295368917395
-36.90533741973032
-9.399023056941024
10.654662148551811
19.958471172811933
0.5750152928686041
-26.92629357850308
-38.6353978907972
-40.889245952834514
-33.3529456949224
-29.043702475294022
-44.793432380044855
-63.64549817931201
-74.56927820080885
-89.46777727241974
-98.99419494047147
-86.36939831298042
-71.30453058646187
-66.20620585925863
-56.87885234643754
-45.20641784283265
-23.52133044799934
12.530406158072987
36.5475407244699
50.72385704180321
68.38950652897097
78.37303854253787
71.82169290541287
47.266569269358996
25.187578536650317
18.44860022378055
9.64159453285461
4.483014246417457
13.86982926875873
32.27367048801007
69.90323648223475
119.3603438236141
146.48477267989637
150.09316157465992
157.88813677343998
178.82514243312926
204.20365308715276
224.03480325468573
234.3419771964743
242.41893795994264
247.85914123555384
246.97622053788447
242.36731342730423
217.1357703288238
174.7977202325463
153.46437698979986
143.28976022231296
117.02231994475649
91.23359762793285
78.40402416555428
73.69668595780833
60.67778108447437
34.06868135567303
33.10790670369054
61.90349854063796
78.94179219731804
82.90351988721306
82.86470620099267
77.95540806120987
79.91041195968113
83.85068569021458
78.35328688458635
64.60849843812268
40.45085824668141
8.06063632286275
-21.539790633377077
-48.11557041751946
-80.52577302661862
-111.22513817584841
-131.2557551612449
-155.9866457636236
-191.5231662898667
-223.96070500293754
-248.17306545928474
-259.0845197941327
-255.50629908935068
-251.13198715251033
-245.82225200067393
-234.59274311381625
-221.83150369231265
-198.20412138408187
-163.06254575645573
-130.21881474942967
-104.46225489328624
-94.86507599167214
-93.61513240367997
-87.55791169508024
-91.03948058000914
-94.510075134913
-91.8734606041248
-98.68088488685564
-80.76343842083995
-37.76556382724978
-20.92162938595596
-19.53301548484149
-25.41892505396887
-41.92403193411753
-34.471866039439405
-19.227300977704363
-22.956173039433597
-20.150253246832236
-4.740963853349057
7.244920451733559
10.96038333149789
10.515467586949319
8.833036943977941
22.961122213440397
67.07075513761302
94.74971338948967
84.3293004278292
74.23211889979527
68.34829720151008
70.7631051246668
81.90181455410682
68.90402729506769
44.57870040745738
33.94040198679936
21.231641739480118
12.416862092155641
24.79272305176582
22.34693480418985
-2.2020901079635027
4.24873469396874
30.55709468492244
54.473027219391746
90.84527442443046
124.00419855813674
154.35053381734645
166.82966895287916
130.29025028881674
81.44226715062463
56.94629201480419
28.3432670553885
-21.551910743440832
-55.80419337355324
-88.7927378306628
-105.20528445015059
-80.79806019248062
-136.2448038519408
-214.95795903129124
-220.4906930522261
-263.0603488270082
-284.59419779798026
-281.2243928132059
-321.0484052071917
-291.60989555325517
-250.36311684026495
-223.74483094587237
-151.80441116014273
-155.2293481827831
-185.65062687611854
-143.63776299367615
-105.56328472368355
-65.99982065603346
-28.256177236601523
-40.69040861920588
-31.286615516340017
17.91549466477069
31.645896010122836
46.81807069866905
86.2209367333185
90.14694043359238
96.7406107240218
139.6099475703701
186.35484176967697
239.2899339792172
246.42775191231948
169.12548291164902
108.07255144066758
105.39303356096566
104.83441907311158
105.37714966590318
109.7380689948613
105.49643156597841
89.59279432640302
87.09796594248817
120.04882174975177
97.13027461406207
17.01203817965837
-49.25684487354735
-143.64853825611232
-211.40429781382875
-265.82065149383163
-373.3375750745398
-398.5174488858659
-388.415567952244
-421.8441988288842
-391.79921668403756
-397.75146082155857
-460.14675318684107
-443.85934242594493
-438.8347521070759
-459.02505008007523
-448.40831020298657
-471.6868933650097
-445.02179736960636
-374.07753364776704
-372.1651579580052
-315.2154731800742
-203.73453872225122
-135.18669943433866
-92.18171504263827
-159.7644396810808
-215.118611571676
-116.79231138181679
-94.64476225673013
-156.5500967156264
-149.8476935859756
-129.70867596011217
-52.73628950626832
81.26308166645546
155.2564811745921
210.0309000828386
293.5037453613649
408.66208347846214
550.6333333215238
616.8656582786426
575.8016788634294
506.05771659260836
444.51774627826927
415.10815313952645
422.82402993217187
421.6040897200108
399.15211123104007
390.1420185405445
407.59264469531036
430.345722655501
434.92693501722187
418.356775928519
385.94156784666905
346.16846511963604
332.04643177056766
359.284496376984
390.08155809460953
390.98496688750305
376.9925357343107
371.3948519692876
356.54040830314676
326.087253983902
312.9082378234408
316.97742079546384
314.01620435561694
303.03789632563206
297.6719375911576
300.9434933006752
297.9813352028345
291.30185150185855
287.8991552379402
278.0045179280919
274.8858110925086
282.67019102171076
278.79998719109597
275.0523211850197
281.02043094856816
275.3539393915376
251.9451833008558
214.1259373183246
177.65723572299905
151.29377552847984
118.60873994343703
83.95764663010439
57.899594336876454
47.323490670783286
46.77056039709015
32.74430497879127
16.860626510403886
5.59911778552604
-5.25834687584592
-15.20678916286108
-54.84176485133134
-98.3009554396313
-112.17121798611194
-132.46761286571657
-152.0384987307294
-172.98931558839843
-223.778211087916
-262.38953245192863
-272.9057951071118
-292.98858251032715
-314.7111486891547
-317.48946691426
-335.873343264877
-354.78280935372163
-292.7250454417025
-214.13732131062355
-209.19735326094272
-209.98810025980833
-200.62493201831816
-214.35780895783913
-229.55317621547002
-254.36685405090796
-282.4852063081609
-274.06015205526376
-235.79986735325014
-225.33388605431992
-257.8876491134181
-291.5127962198853
-300.5926204687667
-284.8366730116251
-302.6197349186448
-339.8234171011716
-327.32081532716523
-331.8880186032145
-292.6818846838038
-133.19202306447045
1.6054880079231124
95.07293941249074
129.76168831363964
45.27283104067606
-4.2552039298207625
39.81648523409441
108.8904697033229
165.24733310128835
173.09541184788318
199.82387135011413
263.1926875268873
295.0430006250556
302.35888595955436
276.1841734599862
221.4312320719731
186.3237920679883
155.96962191197903
123.48409426604361
97.12198546562993
38.93878499733671
8.863165449000391
83.01961120075983
149.22595485658715
187.1240640609307
269.38468264682024
292.9008243252421
276.28682747679903
315.5985218496338
349.71562720071
374.8888785440015
327.71385184108266
151.27097466553982
9.313953524367285
-49.09347246889138
-93.19902313614242
-78.46733457983295
44.04947879666513
183.42909025100374
205.40320672072286
179.62624985711483
189.68389894610823
167.30783120243117
114.95531771739375
57.857176599473455
33.45807581541269
60.873485170379276
51.151279869903156
45.43531679304433
80.55979248799144
64.5708590344165
21.6607826127648
-23.692132826342213
-34.41475932501297
36.162320070331724
39.08726450140539
-21.720556819849914
0.7846993691972881
-13.63672354458965
-111.13151209905111
-110.73709741073691
-33.024515811826646
-49.90604169405671
-105.50884896487841
-46.01289103237339
46.46623359892159
94.96610526132268
109.48767344935752
23.30580863075587
-14.564979506385331
89.91540119604997
111.10220000247743
1.913984924520919
-113.018185188397
-109.53995274755242
-34.360232922756936
-91.46641183057905
-143.02239008734324
-101.26062152446103
-149.13032504120926
-214.67275088948065
-218.1519154267317
-249.09604479149317
-327.7876011516468
-365.81290498009565
-359.4440257287818
-438.65087520840234
-416.5235393618045
-127.98476296420897
69.34548329957522
10.460523447030864
-52.023327397120276
-20.140081379403696
16.32706193308292
56.80855473256754
126.69299327131858
155.57403836018273
141.3066304014164
133.64776849694914
142.59990682284257
211.1438578140655
272.87082680476976
147.4388997459574
-80.23298157669288
-162.35815079548863
-180.39444393892396
-212.10381532674168
-141.20178526353138
-127.81797614885966
-212.68490845297725
-193.16200685986084
-93.1654524725452
27.344790270854972
40.1957112926075
-73.6735021507442
-73.05138804143046
-21.980813816153816
-23.67502483252138
60.56568432543188
191.03340053963143
209.96791741877297
141.2156639283905
148.04654932151527
187.28057418109046
178.90249842038884
202.49130292893236
162.35111354582563
68.72781778876622
56.237375204442685
53.43967635223128
47.332177102980445
33.3862295957071
32.384337774290216
84.53116678036695
40.440547918000014
-65.9042334338925
-89.8502670028069
-56.93819030519122
26.52154594505523
115.10230716069617
155.4668800892644
169.88421944393923
179.6127754466364
198.86832800306598
181.4458398692368
106.37135788918437
53.740891918612675
98.50422822299059
172.26648260561024
128.3200071185357
43.35295782946299
38.01310084988997
11.514073488665883
-66.3368992705834
-134.78153091943977
-215.18003981755393
-294.93690508318906
-329.95418267081834
-334.7757452499459
-339.5808973160006
-340.52385300470274
-333.85306192080265
-326.8395893697836
-325.3470596163586
-362.5882048644668
-438.02117207439136
-428.0282619522247
-224.85618547233045
-21.148420945756975
-18.72212949319488
-7.730914940535794
110.41442934407749
193.77993142392387
276.1828880033753
338.8991536610348
384.2921643192878
433.5407557129558
377.2469761751957
335.370518515851
344.6869049468663
356.32394279365997
493.88628241688144
504.30741403933683
259.815808902965
135.57930256799378
186.94037489889564
225.71087793800694
197.40680369513282
95.75897383703732
-43.38969669014068
-137.22997959979097
-129.44030546503666
-156.4062152424637
-259.66151446648615
-292.8290351863739
-341.18425561143823
-408.31389364582077
-382.53238263503084
-408.9153191400195
-439.44898041887035
