AAD_Filtered_TADAS_FILE
AAD_BASELINE_CORRECTION: BASELINE REMOVED
AAD_FILTER_TYPE: BUTTERWORTH
AAD_FILTER_ORDER: 1
AAD_LOW_CUT_FREQUENCY_HZ: 0.025
AAD_HIGH_CUT_FREQUENCY_HZ: 40.0
EVENT_NAME: 202302060117
EVENT_ID: 13194
EVENT_DATE_YYYYMMDD: 2023/02/06
EVENT_TIME_HHMMSS: 01:17:32.00000
EVENT_LATITUDE_DEGREE: 37.288
EVENT_LONGITUDE_DEGREE: 37.043
EVENT_DEPTH_KM: 8.6
HYPOCENTER_REFERENCE: AFAD
MAGNITUDE_W: 7.7
MAGNITUDE_W_REFERENCE: AFAD
MAGNITUDE_L: 
MAGNITUDE_L_REFERENCE: 
FOCAL_MECHANISM: 
NETWORK: TK
STATION_CODE: 6303
STATION_NAME: 
STATION_LATITUDE_DEGREE: 37.7524
STATION_LONGITUDE_DEGREE: 39.3291
STATION_ELEVATION_M: 800.0
LOCATION: Kahramanmaras_Pazarck_Turkiye
SENSOR_DEPTH_M: 
VS30_M/S: 986
SITE_CLASSIFICATION_EC8: A
MORPHOLOGIC_CLASSIFICATION: 
EPICENTRAL_DISTANCE_KM: 208.12
EARTHQUAKE_BACKAZIMUTH_DEGREE: 
DATE_TIME_FIRST_SAMPLE_YYYYMMDD_HHMMSS: 2023/02/06 01:17:47.8876210
DATE_TIME_FIRST_SAMPLE_PRECISION: millisecond
SAMPLING_INTERVAL_S: 0.01
NDATA: 14501
DURATION_S: 
STREAM: HNE
UNITS: cm/s^2
INSTRUMENT: sensor = CMG-5T/GURALP | digitizer = 
INSTRUMENT_ANALOG/DIGITAL: 
INSTRUMENTAL_FREQUENCY_HZ: 
INSTRUMENTAL_DAMPING: 
FULL_SCALE_G: 
N_BIT_DIGITAL_CONVERTER: 
PGA_CM/S^2: 114.439
TIME_PGA_S: 
BASELINE_CORRECTION: BASELINE REMOVED
FILTER_TYPE: BUTTERWORTH
FILTER_ORDER: 
LOW_CUT_FREQUENCY_HZ: 
HIGH_CUT_FREQUENCY_HZ: 
LATE/NORMAL_TRIGGERED: 
DATABASE_VERSION: 
HEADER_FORMAT: DYNA 1.2
DATA_TYPE: Acceleration
PROCESSING: Automatic Paolucci et al., 2011
DATA_TIMESTAMP_YYYYMMDD_HHMMSS: 
DATA_LICENSE: U (unknown license)
DATA_CITATION: Turkish Accelerometric Archive v 1.0 - Disaster And Emergency Management Presidency, Earthquake Department
DATA_CREATOR: AFAD
ORIGINAL_DATA_MEDIATOR_CITATION: : AFAD - Disaster And Emergency Management Presidency
ORIGINAL_DATA_MEDIATOR: AFAD PROCESS SERVICE
ORIGINAL_DATA_CREATOR_CITATION: AFAD PROCESS SERVICE
ORIGINAL_DATA_CREATOR: network: TK
USER1: GuestUser
USER2: 
USER3: 
USER4: 
[...]
45.045787005408016
42.35236486591203
35.92454636531719
29.218148460196886
24.4590869312911
21.950937476117293
22.63421865281114
24.240643309055113
23.987391458341072
22.038283244611936
22.83876360084441
29.25070166125844
35.803829185443064
36.974632482076885
35.32202875381168
34.43310080439388
35.57427018697589
39.82540492504291
45.610703230100526
48.09770643279858
45.5451206393613
39.59841015496955
31.377683189542317
25.943443793746045
26.128747264948636
29.765168079717633
36.685578664315855
44.651677951309985
47.9130814826253
45.224191297246186
41.916819672130345
39.96978560034622
34.05145496957418
23.67868488832115
14.787613599847903
12.330549096597522
12.383369572578543
7.904207615104267
4.174023620447009
3.8402394674570464
3.0627910437768726
1.8616125883461152
0.01760774472699425
-3.8572661609559122
-13.096771937213921
-22.787548802887418
-27.241915097878632
-29.589788309169325
-32.367756219450406
-35.03569949359745
-35.451018448473704
-32.46130547654151
-24.601523231505563
-14.808349686382236
-8.737611652628866
-7.970084698722238
-11.378514684516515
-14.027454651828073
-9.140013130267901
-3.484600820737087
-6.21124698700361
-14.003788436367143
-22.391824352277464
-26.646098365433637
-26.75985238853978
-26.296057803388052
-23.054556792137603
-13.884370220499395
-0.3242954866371423
12.47907062938765
18.81843881465776
18.70491947786943
17.953734509821246
16.944403624077474
11.844157503410036
4.351886959158119
-1.062317414280658
-3.139175156674943
-4.4715694156518575
-8.332516923410614
-14.5492471705493
-18.41489692275911
-21.66396535997927
-25.172018244699206
-23.974368601999537
-20.389830612908543
-17.14609686829301
-14.306503740069864
-9.954610100084194
-0.8172487208268531
9.446783637441941
14.031109159367395
19.44630222153539
28.398857075089193
31.84075099461292
31.301950089756243
32.28976810847846
31.629462003993527
25.19703618839563
17.278750332037358
11.994922685844777
7.132485970312409
1.874599193226265
1.9330580103392858
7.5241866366426855
12.943923911643378
16.651277680401854
18.12470916828574
16.9693396597697
14.669265603597216
13.221646696260123
12.930630063880743
12.486730503832662
8.984022957084557
0.9940853722587365
-9.141376744036345
-18.913531592095318
-28.270177453539176
-37.63652153133646
-42.299031135870344
-36.7892941111062
-25.83961225779565
-15.490822791333885
-9.496500454211397
-6.821847469038722
-1.4065521845538518
8.168453953736488
19.23749698260352
28.534155467884553
36.0733754615995
41.46990747581002
43.2606633329541
40.38501590890974
34.09169175729483
28.41034917650573
26.332730566611605
25.154324629213516
22.31136193597135
21.906642675377125
24.106425609526628
25.067644506163166
24.82547959395657
21.71761907837157
15.38068993538477
8.860451116692182
0.9942965172974696
-5.674513912158819
-7.239483977667238
-7.919893083564505
-12.471837762130434
-18.707519034360256
-19.93612464988799
-14.116798933823764
-10.089054114231839
-13.843521113997072
-19.41085245421581
-23.090318031616633
-25.217890961463045
-25.730784166870432
-26.458315247506597
-29.0728124202701
-33.97109248550373
-40.38636095871672
-44.431855999052175
-39.38777919135902
-29.883594003998358
-23.961323599400565
-16.74001091476037
-9.172412023257653
-6.9165450202541265
-7.03138068073514
-6.334005573212553
-3.591183511812708
2.2386402668052865
8.478611368523842
10.903835519397038
7.622450157232218
-2.6403513081097123
-12.858122464491494
-14.430356562763732
-9.915286104389564
-2.995424736769958
3.404713146586323
6.604861785223759
7.688487082563138
9.585964640869419
14.185398291035222
21.2634858292728
27.117334278526975
28.151855206702276
25.557405502785837
20.990026443843316
16.35382695565195
15.227645271672142
15.877875182700807
13.215841654458028
9.026436850753747
7.262909996658454
8.306077405385597
11.710158546220322
13.653226720097162
10.81243303076926
8.87867246693311
9.348890262770853
6.2461248304715555
-0.26289994913760556
-8.17917582951299
-14.840048874555052
-15.879349383064893
-14.499853701137253
-17.080349257829194
-22.36804970255528
-25.385702526454605
-23.323444652229306
-17.986059663179198
-13.230164542269046
-10.919112815063619
-9.687175406271805
-6.328631911267958
-2.3954263015821557
-2.4204936107544532
-7.256010962562305
-11.386860634442778
-11.584636849389202
-11.052539281068839
-11.534358213756086
-12.176415037803526
-10.130930392127413
-3.958444127768554
1.505325288568854
0.6292261739356546
-5.056138733562311
-5.653899849976932
1.9560789857007326
8.872202341809826
11.74870417831172
11.50693519898442
8.520864142475999
6.078897444573347
7.554152156761526
10.558725303957527
10.434785201453321
6.735881934180051
3.205582996624052
2.0313010169055397
1.1314216004562925
1.221112987972466
3.5998402760307124
8.706556889517767
12.738181868967269
10.74131651908643
4.438735661611456
-1.6010345598487892
-3.974180512909578
-4.694703468820948
-4.445227406371161
-2.0481638088008776
1.7327713861210046
6.064797065908712
7.337021385376732
5.299020396796758
3.5632766140404954
2.5364892035014486
0.03432878822790688
-3.7508867578679297
-7.774626446870974
-11.22180275035314
-11.707281656251563
-9.355512331219728
-7.713149169963204
-7.3886518183938765
-6.405392453728984
-6.707495909708265
-6.72497242031172
-4.190300717387105
-2.9064738086375104
-4.559904093758549
-7.659926579706216
-11.397691965600199
-15.7353975899493
-18.94060369117139
-20.367849746504298
-20.608788414573368
-17.857977258638652
-11.248974583481914
-5.6123558837450975
-3.523900956061278
-1.7526965407925377
1.3693768501479386
5.092604648994102
6.8736729255955735
6.14787174399318
4.05361568725234
3.673356852078643
7.538170251018735
14.269185408278108
19.693796245983915
20.320575906298355
19.060083298579514
20.228277297559238
22.10249805749257
21.959572309225035
17.451918599457535
6.067584282157568
-4.23392623721013
-10.541676118579213
-16.89009387200397
-19.553406521916305
-18.46726143671967
-16.376276866281323
-14.804323389931934
-15.293102368666291
-17.953219826611413
-21.944266217988094
-23.492867201712315
-23.460166724318135
-25.744278046993635
-29.548269848256997
-32.21171303160449
-31.13455710816835
-27.19837354338978
-21.412903037939387
-15.07987997554914
-10.114513681786207
-6.422539945579565
-3.1065315362274357
1.222718651054211
6.106550803189252
10.893962104479456
14.691259113229908
15.259124899834008
10.473114581850826
2.115341376360389
-1.9219665842471607
1.873400417757734
9.091783030020752
14.347099926434568
14.474712321575774
12.391154610471874
10.878357927032758
7.6733030439267145
2.9929800725040363
0.31978874626836873
-0.8555506690222563
-2.862960386004787
-1.6663262402305457
6.075048913571456
16.81251124694092
26.53397678636439
32.04278032857646
33.56870076044721
34.68092586476291
35.89934454609601
35.54923390065312
32.7215255397711
28.20607652352385
21.52899414380514
12.127078912950953
2.224997750079687
-6.508990380517852
-14.5811370939736
-20.581122112644493
-21.37976551210405
-20.672989066107966
-21.922922366746953
-21.840834863170898
-20.464282758352937
-19.935804969810818
-21.90968082454971
-25.24069728270142
-25.56407238196567
-22.119528260914077
-16.787513478274448
-14.022470671623774
-14.872469120032502
-14.781811782987686
-14.439473295790977
-18.027043099111964
-20.003388794357768
-16.59850088312691
-14.092363997900833
-11.889755049721963
-7.28097100688086
-2.6379667143083125
1.3756211745339186
6.719765188765801
14.561685164920933
21.764343645159258
24.87242740060716
25.53278134639444
26.11524512665922
26.8789113920665
25.699432035008662
20.914452297578745
14.604522434731432
9.599177691192114
5.2756613861174975
2.7183633731463313
5.291582213651211
7.928980295819511
6.3580598692581765
3.9223469572716976
4.181415264118902
6.867269090319821
9.949504938347781
12.567212573325452
15.345588781151479
18.713851495671083
21.74148601811277
23.713263001360847
23.82250155190355
24.93546076619601
26.270341808161696
24.173353468113078
21.658528620075415
19.96197612117579
17.278588328586768
14.107558721127717
9.783361136874637
3.3009959177207095
-0.18711723497908794
4.041612157090364
11.04417941336798
11.921545244209245
7.3702355242593445
3.04787861158088
0.8856071436544112
2.8196344207037214
3.7792132349143746
0.3188827283785883
-0.8536045826259493
0.45669345696595254
1.7650993504935328
3.6603034575291806
3.4876888248258533
1.2803315422284647
-1.8957831586116132
-5.0870418720498805
-7.097706719456039
-7.882251908806684
-8.140888042510383
-10.144616108339845
-11.843196641126145
-10.950156991741244
-8.761509311581051
-8.323180973864837
-11.488094388953106
-15.368896352777334
-18.671215670738658
-22.48594761221738
-25.046338956665263
-25.98315460067575
-25.822960213424857
-22.03903965119834
-15.650560155366161
-11.546687164164876
-11.980797890928383
-14.551111649877317
-13.502814961397982
-7.176926492055102
0.5075862439109895
3.777735425775995
-0.6651550823174449
-7.764007898635058
-12.634225434634741
-15.895541976790373
-19.897957002419673
-26.03616751479207
-31.253363576959465
-31.827567985576252
-30.634955718993773
-30.943013932485822
-31.017903139790356
-28.963617444527387
-23.000464776274253
-15.787546681591614
-11.015865677204498
-8.593818400019028
-6.882481409219708
-3.7665690250650585
-3.284709057132078
-7.94302676110395
-12.398600521699146
-14.087718284183671
-13.873768412103159
-11.681525917654431
-9.6627923317368
-9.281023737077868
-8.952057406618101
-6.7762364332466
-0.7795333307930618
6.60912380988004
10.295293808970051
9.391705153005717
7.515805645161478
6.550685244493847
7.515234094750152
9.703520822825928
11.156365097301519
11.717148002196733
8.004782450407383
-0.6223320474576736
-8.329599519531834
-10.70186445956083
-9.903776101135131
-8.927679993595826
-7.791375955603404
-7.216920169041934
-10.224782703730336
-15.748845692519046
-19.507997307564096
-21.748171259487584
-23.055431602278713
-22.77036631483889
-22.187924332305684
-22.435320867603295
-23.32296045220661
-25.129430261658904
-28.554756059767918
-31.81766114342587
-31.8149614639871
-29.639410740227234
-27.236099052881805
-25.685035304530295
-25.14866036176714
-23.85468507717364
-22.934604541994283
-25.99362934066862
-31.881326634405035
-35.93997711595316
-34.99663193655989
-28.395995415503663
-20.537450017732144
-15.431170437105422
-14.13554314255647
-15.215878083465112
-15.986547789534702
-14.550252824465302
-11.243631234806832
-9.281815624236469
-9.027525197853901
-8.600482839514529
-6.882514355737832
-3.646410608937028
1.9019170183117466
7.292120147635197
7.868737965898486
6.195287454563818
7.22239732415014
11.341188590808127
15.674149159038452
14.832485922583558
9.072270271505216
2.9518777752595473
-2.227335642622605
-3.857802739695361
-1.4825478820109557
1.0564066641757814
1.6121699270419685
1.329504010358555
0.3168361813073812
-2.887674853303806
-7.0383405301799495
-12.095319415371703
-18.30420395058152
-25.224203485841365
-32.509919449967526
-37.86557837855871
-38.59822039679009
-32.64199339502555
-24.450175600374834
-19.966873568728246
-18.67342814326357
-15.698634011410295
-8.69025759708672
0.1590940200555995
7.489078315192892
10.975282535809278
10.15780525915873
6.787152155333557
5.085513033695608
7.443334699716472
11.922391476614782
13.99788667998274
14.54349084026743
16.195072555000337
16.276891494405554
14.861409782268113
14.498082308875619
14.78174574737825
15.74197780893626
15.511288931149227
13.520135502821548
9.949175395224781
6.134810358153331
5.834921903560833
7.994865877596836
10.619192930690875
11.727875047893958
11.48541432450741
10.331649915801215
6.970872586217186
1.5445700300352547
-4.29365955826479
-8.884795512955266
-13.282825251528696
-18.594754448329716
-23.362116330787455
-25.96337720223943
-25.140251527996732
-24.16468242993898
-27.57874860056555
-33.07146492601048
-37.20341139200161
-39.367347371617655
-40.84867727602714
-42.028825699315846
-40.229544011566624
-32.59245587669977
-21.61231390564538
-11.983074852299463
-5.605115404963519
-2.6585215407551313
-3.655004098193951
-6.757493541821309
-8.347992751794722
-6.892811469627526
-2.072008517437341
2.229976574769497
3.641841398720734
4.10350729573108
3.0937131187825853
-0.04924838678764362
-0.9831633369153805
5.479095017692482
18.295576268170297
30.608009970169892
37.923844975568215
42.24082275649737
44.90256044746503
45.844678940330354
45.74832161303437
44.54793457327179
44.71167934339599
48.00847177215775
52.79846916053523
57.84011878132971
61.38548964895345
63.0310214896142
64.42327826895699
65.99831838234455
68.64081925571905
73.61451565771179
79.2931362610902
84.15953463537288
89.39122635983979
94.23704112626275
96.21876297251173
95.03215513207526
92.81527109014891
93.43101111201692
98.25935422927422
104.08556323167423
108.64250453097408
112.04055373610036
113.22977330588402
110.6402332260896
106.26376038112429
104.36015357241467
104.58469847197613
105.16401455102826
105.46662176589622
103.25617035749583
96.43033539600479
84.55444985045867
72.01060034495835
64.91859201804192
62.56473511682152
57.661356636605696
47.55751473473811
37.33284274057578
30.923236299604188
24.262505602510334
14.130688557529288
2.6712849985242433
-9.524797740053282
-19.930928197890474
-26.074419169365175
-28.320955532533358
-29.001055576044333
-29.644568078168888
-31.368467746915474
-36.25972702341688
-43.630642962027494
-50.93600015108102
-58.328157909219456
-65.02237386105982
-68.54569858224406
-70.1085537335717
-70.9809483568652
-71.67477012973566
-72.37751313655144
-73.11098119733323
-71.38375308786155
-64.08048888320286
-53.50951269503974
-44.98893113280105
-39.655042405828404
-36.88433330782569
-34.72414011881692
-33.41564115595348
-36.91246660740882
-41.524084227853365
-43.74228453443599
-45.789737863733734
-49.15409059111935
-51.298709922278775
-50.18309016425953
-45.72659469000678
-39.144662341618194
-32.257389068987855
-25.71451619114528
-22.616885466185693
-23.04375592187072
-23.295197491662666
-21.07048954075731
-17.701968502175003
-15.96794490882981
-16.4215826001081
-18.373273655758425
-21.329123436386105
-26.310777843194447
-31.315155613858316
-31.662968386705714
-26.82572078064865
-20.632998990273546
-16.89332253232708
-16.43693930114252
-17.441284240778177
-19.969765382554517
-23.274497917618607
-22.94151330646488
-18.139515646177625
-12.416014085009609
-10.538835158848913
-12.022145305599157
-14.397304210676324
-15.652634498872715
-15.891340059500926
-19.65554248530009
-26.140108419856997
-32.67599390391876
-39.08507364097777
-43.08520235307461
-42.3378987908925
-38.18446154173212
-31.322369361622545
-22.27397209685469
-13.721374425580194
-7.166261471962852
-2.470835461776332
0.5390241656797298
4.6675884791399955
14.436103697502205
30.547920943846094
45.58153992025936
52.77358181403205
53.83442001574039
52.7694263240377
52.261101094151826
49.17456013125586
43.33786012725197
36.084852329496194
25.56483724708579
16.456564055942028
11.76846947345406
10.844054699960356
17.049282063105196
30.630418975510565
45.60721217086186
55.99078923032227
58.17062705193557
51.4391439683436
39.65079248682539
28.95957913754821
22.94318067404873
17.17607216228252
6.549800975088042
-4.2157642636737025
-9.973457074287321
-13.419421406003876
-17.442222184266985
-20.647299505060456
-25.27587578515098
-29.74265808694985
-29.64230302182566
-29.23819441005085
-30.65311996732313
-33.55457366418627
-41.77359585286826
-52.92091175417315
-58.66136692118662
-56.49124453421747
-50.72296067934586
-43.55685935052744
-33.74260940415159
-24.361162532148278
-16.734485571790128
-9.54348039371288
-3.0036757081214867
2.7596025286963206
4.210603661998615
1.2830913035229259
-2.108881575522505
-4.394043714314127
-5.769507746396449
-8.013836729931523
-9.98000852243516
-12.447745616341376
-14.490764940655627
-12.828776087872736
-10.957598282460307
-10.32279790525529
-8.614084387556506
-6.222989901279041
-3.970118134239309
-1.644010720842333
1.087198420839837
4.229658834551766
6.139333143372656
5.40596840691635
1.3975848119832661
-1.7321281656020582
0.15445976235506031
4.435234338212746
8.586671736330963
12.179065990441401
15.078853200776267
18.10928686351866
20.92146907345945
18.290411463279444
10.245127302184562
2.9156978130718003
-2.0223600905257153
-4.708593471323522
-7.929034637626117
-12.68362348130291
-15.107203401470798
-9.7885610469482
0.9777049711866805
7.770498664794067
10.305653983718301
12.010302927236548
12.865193595687522
10.60449439409224
2.1658676421550282
-12.423035495400644
-25.144292853798245
-30.640407306858563
-27.555753501837874
-15.910750785508958
-2.624903953472372
6.595398570190706
11.713462969143064
18.24368971453499
26.780943598587744
34.995971246921485
41.29955550405366
46.42675977834832
50.96287833633058
52.431323458123444
49.80294015438608
44.76997474494068
42.96155002663289
42.62208275359227
39.99564868485297
35.093351307915704
29.878930755186495
25.343340994262903
20.068279362957625
14.167224811584592
10.653386519691788
8.16702345341214
1.2651756068560769
-9.780282618722206
-24.038505021580036
-34.55719101297199
-34.56577889187518
-27.19873097096116
-18.605082658418223
-12.121289449125555
-10.759743780478535
-16.182410505364192
-23.668225745337622
-28.95539544632039
-30.867892964008732
-28.587714776144775
-25.027908040960202
-27.06270515864391
-34.3952164596999
-37.741340081207994
-33.93680335317948
-27.08843565762883
-21.920898195783412
-22.359566725667957
-26.038943226303527
-28.468960704581026
-26.097935790919816
-19.476767546912203
-15.282139910857973
-18.099835003270893
-25.18754250181586
-28.732768735853554
-24.788445967965103
-17.537411622218833
-11.617298339238564
-7.640348106183206
-5.745566578037211
-5.146485584869748
-0.17402139069113537
7.9740850512699355
14.380008317192178
20.099863073474772
26.514615689761023
35.959245088838564
46.82537650690998
53.161406562955875
52.159335075485366
47.49978830017623
42.657302808289124
37.013432489475726
28.257795480918443
18.531598024058926
11.073208309371493
7.713627435946744
6.2964970255161195
3.3220773465235944
0.9499397815225082
0.05294918543638242
1.2553166716363366
3.142447175829311
2.557602650316613
-0.6134283123949068
-3.900503487885882
-6.512900288141497
-8.622826139486426
-10.315277790494928
-12.97704463576117
-17.110900258362776
