AAD_Filtered_TADAS_FILE
AAD_BASELINE_CORRECTION: BASELINE REMOVED
AAD_FILTER_TYPE: BUTTERWORTH
AAD_FILTER_ORDER: 1
AAD_LOW_CUT_FREQUENCY_HZ: 0.025
AAD_HIGH_CUT_FREQUENCY_HZ: 40.0
EVENT_NAME: 202302060117
EVENT_ID: 13194
EVENT_DATE_YYYYMMDD: 2023/02/06
EVENT_TIME_HHMMSS: 01:17:32.00000
EVENT_LATITUDE_DEGREE: 37.288
EVENT_LONGITUDE_DEGREE: 37.043
EVENT_DEPTH_KM: 8.6
HYPOCENTER_REFERENCE: AFAD
MAGNITUDE_W: 7.7
MAGNITUDE_W_REFERENCE: AFAD
MAGNITUDE_L: 
MAGNITUDE_L_REFERENCE: 
FOCAL_MECHANISM: 
NETWORK: TK
STATION_CODE: 7901
STATION_NAME: 
STATION_LATITUDE_DEGREE: 36.7088
STATION_LONGITUDE_DEGREE: 37.1123
STATION_ELEVATION_M: 640.0
LOCATION: Kahramanmaras_Pazarck_Turkiye
SENSOR_DEPTH_M: 
VS30_M/S: 463
SITE_CLASSIFICATION_EC8: B
MORPHOLOGIC_CLASSIFICATION: 
EPICENTRAL_DISTANCE_KM: 64.70
EARTHQUAKE_BACKAZIMUTH_DEGREE: 
DATE_TIME_FIRST_SAMPLE_YYYYMMDD_HHMMSS: 2023/02/06 01:17:18.2453950
DATE_TIME_FIRST_SAMPLE_PRECISION: millisecond
SAMPLING_INTERVAL_S: 0.01
NDATA: 3575
DURATION_S: 
STREAM: HNN
UNITS: cm/s^2
INSTRUMENT: sensor = CMG-5T/GURALP | digitizer = 
INSTRUMENT_ANALOG/DIGITAL: 
INSTRUMENTAL_FREQUENCY_HZ: 
INSTRUMENTAL_DAMPING: 
FULL_SCALE_G: 
N_BIT_DIGITAL_CONVERTER: 
PGA_CM/S^2: 53.114
TIME_PGA_S: 
BASELINE_CORRECTION: BASELINE REMOVED
FILTER_TYPE: BUTTERWORTH
FILTER_ORDER: 
LOW_CUT_FREQUENCY_HZ: 
HIGH_CUT_FREQUENCY_HZ: 
LATE/NORMAL_TRIGGERED: 
DATABASE_VERSION: 
HEADER_FORMAT: DYNA 1.2
DATA_TYPE: Acceleration
PROCESSING: Automatic Paolucci et al., 2011
DATA_TIMESTAMP_YYYYMMDD_HHMMSS: 
DATA_LICENSE: U (unknown license)
DATA_CITATION: Turkish Accelerometric Archive v 1.0 - Disaster And Emergency Management Presidency, Earthquake Department
DATA_CREATOR: AFAD
ORIGINAL_DATA_MEDIATOR_CITATION: : AFAD - Disaster And Emergency Management Presidency
ORIGINAL_DATA_MEDIATOR: AFAD PROCESS SERVICE
ORIGINAL_DATA_CREATOR_CITATION: AFAD PROCESS SERVICE
ORIGINAL_DATA_CREATOR: network: TK
USER1: GuestUser
USER2: 
USER3: 
USER4: 
[...]
0.09349596683211486
0.11313625398184494
0.08773880810167514
0.03516192327130024
0.0027096371744223958
0.03638388300531421
0.07413641027875455
0.10853680535630489
0.12578588559903578
0.14126051664431052
0.1618790826196166
0.14513658999299822
0.08683385381866143
-0.0022395154226960735
-0.043133344133602626
0.0108653066394935
0.10488221114524478
0.14362922206001433
0.11462174376724067
0.06262949980288253
0.02458746332836633
0.007108432069990147
0.018424457421407747
0.07756977728630474
0.15407768158554147
0.21848604002355956
0.20952167073030334
0.07938332453587936
-0.08245623190479617
-0.13130795937955933
-0.03764459719206553
0.10951099081168461
0.18111117310022953
0.0958600528736729
-0.08528049299006335
-0.19797946325786872
-0.18124217357216682
-0.06354306115482151
0.11993015686555006
0.2733222661078962
0.29692370774997223
0.17045538448893038
-0.019606612175498053
-0.1436083648778575
-0.08774495958796241
0.13982632839575526
0.36247635331514555
0.40173989644822533
0.2563645883158022
-0.004133513996922102
-0.23161067776296956
-0.26193813646125486
-0.1251041393529475
0.07991558457685709
0.21864355171665878
0.18685694592483534
0.04081292152536943
-0.08456591310677478
-0.12676304927420412
-0.09376600361749773
-0.021138534327937768
0.04542199253323381
0.07831219926421282
0.06622208015140363
0.007168426235637225
-0.07063786131848528
-0.07289680038902978
0.044939027174758554
0.19529169916148062
0.28621356355703026
0.2785784200506406
0.19869518348636006
0.11177883311072354
0.04741885648348363
0.06394548790948161
0.11177983808812433
0.11910296316679293
0.11421612453397445
0.027858883274223388
-0.12332642319674107
-0.19223088951754602
-0.1153157966436873
0.06692009898878197
0.2464963387432032
0.2932066481962222
0.1535704799938494
-0.04472526654339755
-0.14641724207865964
-0.11234681300595539
-0.00148556222963828
0.05033865515063787
0.004211069172898183
-0.09038032692885097
-0.18053877080900071
-0.1479750467353467
-0.03412384341316001
0.026951435755040824
0.02061343572521239
-0.0529013681985417
-0.14768770990842028
-0.27563363201308405
-0.3650253748327202
-0.289400368605852
-0.1419787049008064
0.014684731007853839
0.175545542591685
0.2709159803122838
0.23135063779441173
0.09319840583540236
-0.030137273490724717
-0.10201819186740865
-0.0924807422514302
-0.004123126269020755
0.06485500188760336
0.05868701390304934
0.005909635988730129
-0.04395288138459916
-0.060959098892701194
0.0061268295207414815
0.11227655047095852
0.11679783005519657
0.03563266854059367
-0.026954939974853744
0.013563293039312594
0.1911905611542271
0.3652126844057801
0.40258540210186344
0.38602359269617903
0.314466860016514
0.11824249891543656
-0.09372869237567938
-0.28150534343223094
-0.46949630774844175
-0.5735196572201781
-0.4457578979215775
-0.18117993293801254
-0.033857845774689255
-0.0007346982289980278
-0.03128897198376307
-0.08428414364408084
-0.07441068484339805
0.02799281871567142
0.15011395391816196
0.17589197210191698
0.19546967860241404
0.35479884682575924
0.5584143381918423
0.62376931803677
0.44321438707314637
0.10273253641269028
-0.17391138082121652
-0.2927246017927077
-0.2888100124638367
-0.30145145615539565
-0.36030160837969333
-0.3268342820565178
-0.20184680164247978
-0.10872540854682926
-0.06687320777979949
-0.07438046012538746
-0.1418449830884069
-0.20194789383976816
-0.18152616260855803
-0.1060954901661013
-0.09684029355569514
-0.14901101375966308
-0.2014275815065083
-0.21367068351098636
-0.17288262347152566
-0.14323764347448079
-0.07924126436922693
-0.05187756680844901
-0.2585638884091486
-0.49355050011356316
-0.4650139925067987
-0.18248595594016778
0.2530032730169253
0.5683242353890492
0.49771481329940076
0.1273348398771377
-0.20973306033964922
-0.1986361189660645
0.11375504670381527
0.36391626904329066
0.2862906749795121
-0.08714935609238153
-0.4953459848664249
-0.5745390422267219
-0.15355431746429868
0.4053727950873608
0.6523325063862444
0.5038837370168919
0.11960362159679219
-0.2403197609543734
-0.35322068640774823
-0.11048534839801141
0.2661719183754237
0.489470375717326
0.5521101912552997
0.2896944358569279
-0.20698652579002025
-0.4709522164993316
-0.4869045792944899
-0.3825076571350699
-0.14302952338582353
0.1571778897252177
0.36186422287172343
0.4986718965736302
0.616679983018994
0.6051855746007612
0.4939386343980269
0.276838404311218
0.10790407888565835
0.11639769719937275
0.13207597989362543
0.13408223646789968
-0.012618832448228378
-0.4459921826930639
-0.846861324557963
-0.9306096771860559
-0.8474802144011744
-0.7241740269233159
-0.5065722793770161
-0.3885316248599663
-0.4870132033200957
-0.4378419803973489
-0.23811408124824182
0.06922552467066688
0.6431183937878068
0.9867054750336827
0.6844769187172519
-0.11632427426143321
-0.9344985181751718
-1.3305388423692914
-1.075767159701119
-0.6181030933966742
-0.6137984231659149
-0.847823101694689
-0.9004455888967
-0.4653447022509739
0.3041119537392286
0.9746693387407845
1.2937406785255
1.2834324322807502
1.107000390447772
0.6991634272832116
0.3058835001855164
0.19486913250313312
0.05678342083406318
-0.2630260489701853
-0.5105771424047265
-0.623422335909788
-0.7538847150068662
-0.6897174292312298
-0.186180734702521
0.31658638330149896
0.5851879034739106
0.7077383390614143
0.6882542504876137
0.49912588622235154
0.2612593644140167
0.2471731899156177
0.18229531571515767
0.14316308773651779
0.05514672741979457
-0.47595707680736
-0.9758177708327723
-1.2025968975272903
-0.9614846600864423
-0.21957712861812181
0.8177060780495335
1.5219502235189872
1.0274417486662566
0.2349694773344783
-0.11013421326861793
-0.247749765660074
-0.11341574837832269
0.4343465202421118
0.8007484251302321
0.4835577135621506
-0.0016470357740563484
-0.6828176308552041
-1.2831555371372028
-1.0367690854693907
-0.35511155676559525
-0.08225753425915305
-0.23927852907615962
-0.518100078184343
-0.48550946849310994
-0.18811873604426993
0.09724380349274972
0.25995769721654355
-0.31833823662602034
-1.2071212971864902
-0.9694099552434966
0.5399315269571257
1.696790690700919
1.6658519078838974
0.5617437085464855
-1.425561321655091
-2.391527044789322
-0.8477371178643058
1.494037755033943
1.9617677995540193
0.4360666079057509
-1.2303182929953196
-1.6912195021889969
-0.4883956682009552
1.0644194242596443
1.2445064315704837
0.5155467258916665
0.12678668431123125
0.4908490298224036
1.1252036382343287
1.4639947727214162
1.0594641776470246
0.24540022465459826
0.129884001898024
0.3345478265781327
0.19030430886973507
-0.2493116091955574
-1.1828781805520157
-1.772497650934793
-1.1948495007935878
-0.11164604343358611
0.538417991756291
0.572132446122054
0.31915574318741713
-0.07925403071770534
-0.10451998139564957
0.6111253658709282
1.7363173298920542
2.3242900856934208
1.7933789556795798
0.529249714225509
-1.1601075330855835
-2.509207276632553
-2.371061331892975
-0.7096175192172106
0.3388730336692548
-0.0743256801654637
-0.6398484353468322
-1.2358845113078036
-1.0150846588514635
0.25106525159795545
1.0223012718199052
1.1218140888146921
1.007077772783416
1.0298459768399004
0.6366271799569099
-0.2563305363257462
-0.5491668248309142
-0.7156463421868965
-0.6881469439266912
0.3395021968880569
0.9858559307914768
-0.5012284948200623
-2.8354563875082794
-3.65658954005895
-2.901132981102796
-1.401453673490241
0.5546097735367668
2.037018963683668
2.1460429060624353
1.7032245239430233
1.1423738228471572
0.3622205524601227
-0.004181147100154183
0.6418361876949875
1.67974127681811
1.3930360258731203
-0.08225809644211478
-0.7338349955466417
-0.015922662740596154
0.7821324253747336
1.4824072280206713
2.45745752731268
3.215369208147549
3.6988274008064055
3.301697445822297
1.2221410874470777
-1.1722917210158161
-1.0487358941617064
1.3130500957377462
2.0863872784904856
0.41947711835981016
-1.5132216392879985
-2.6645413509528946
-2.804836102374512
-2.1096060314161322
-1.2427718678587534
-0.7549449848649571
-0.15752272217166674
0.7860296376352204
0.9824099129647802
0.14170084202284974
-0.7734675394864599
-0.7755027558921523
0.17398073980521267
1.8424178760016112
3.852312370738385
4.243923223041935
2.2641201477445585
-0.02761695300150053
-1.5965936975311146
-2.089049460871629
-1.2299745842532732
-0.0034408515657797893
0.19610435962361453
-0.8696356543361714
-1.546296785021508
-1.7647468670143658
-2.0586153156723097
-1.4638611222657416
0.4318642247174707
2.7546606895330177
4.233097966016986
3.9634635407096788
2.59055476628702
1.7726877349392491
1.403588020682806
0.9720723750114487
0.14580106805266335
-0.7116046046609272
-0.7391194417179571
-1.282705885120197
-2.7018214792665254
-3.2700051589581967
-2.3574997357396925
-0.4235253189032042
1.4210594933617988
1.9576323570357326
0.9855758741549481
-0.17800947370898293
-0.23763457778424626
0.766240042424039
1.6401673952967981
1.8029154031521175
1.4607314182937756
0.3495191942114787
-0.38200207707274
0.8229757080211543
2.714747998815864
2.89037095614101
2.040250339195147
0.8846373774540534
-0.4341751263374517
0.029424722276968667
1.425332472599736
1.4999504671717518
-0.8111944062423245
-3.1512375818887897
-1.7205624534536441
1.331713010722326
3.4404188976835846
4.454336342608556
4.131192714016474
3.210003948980964
2.1079596405311367
1.5617635567511978
0.3686979448933165
-1.3996652963447174
-1.1794987684012352
-1.065437404968498
-1.9342856810962812
-1.166961228369404
1.0499996369451052
2.023324895625985
1.6265386038351186
0.6974065329046646
-2.0745382960888437
-3.2038688829176802
0.3816779430173758
4.676771724243365
6.708031302603387
6.688474428313963
4.081649969632644
-0.060691237109469665
-1.928745118230209
-0.3980722522565106
1.8328689319361433
3.979501329018854
5.996381820421044
5.75269726959648
3.29224869804794
-0.15649863551291332
-1.6172987556974616
0.6233090316247638
3.6799652444752393
3.7236058546649318
-0.5730164656727375
-5.395619418491867
-6.915545677777444
-3.4892508152982407
2.2453393765669536
4.62946146936566
2.463429438620089
-1.482409441586454
-1.8438831648364795
3.0214377056482284
8.492163603181053
10.71738450385602
7.597767784691725
1.5455564195019578
-1.6609106510068476
-0.33403250901866083
1.7546715069165033
2.205999049726649
1.3891129509037476
-0.5520548260805257
-2.8194512530981686
-5.6180454166398945
-7.26487185673069
-5.466419061938165
-0.8998011110091152
2.7905806735476255
3.4641527117411792
2.404838681731984
0.49329201823830465
-2.0549527489883928
-3.455169536123172
-1.8481902992506445
0.41202322541016123
3.1329274535075773
5.734065036793344
4.575065400550586
1.1950472853091172
0.22175907480471493
2.7134185546479994
5.554040821900423
6.236609439962783
3.2661959492945756
-1.9552340678690698
-6.403119228781737
-8.040158798103734
-5.090376775326777
-1.5842392569118007
-0.15783814124648154
1.0200470263992654
0.25498014557423
-2.031856677211114
0.10152553844060859
6.512190718010792
9.626992954103358
8.065420664273795
1.9429260501707748
-7.416004862460221
-10.906334935416538
-6.420315518441977
-0.7000993646283775
2.7957486523617896
3.0047865933250533
0.20061796785955266
-2.960016959813719
-3.5613986850214303
-0.5296042538104059
3.584426987764169
6.417341365450799
6.474407429435456
1.8638225575588279
-5.408979707452886
-10.968741158760695
-11.466553372359053
-5.034755414838974
4.884218666808808
10.515356025302491
7.778969092725875
-0.3397538977052584
-8.134629103460226
-8.944299279667243
-2.40836653320326
4.91126424653112
10.058827500069295
9.83607370369367
3.7947051099374587
-3.4853439801822983
-8.195456398348007
-9.201072571059374
-7.708660746021003
-1.937366153669115
6.0934267255893175
9.482048959640402
7.059377139393858
2.0494609555194687
-4.204641280735149
-9.244190740613456
-6.493287496648263
1.5804799552103856
6.49287931942022
6.4620939943342615
1.8002071235935369
-4.437799718041835
-6.511121116118665
-2.4528868837783024
2.0434365504698953
2.3222394636252757
0.5034607001891436
-0.13047905746977337
1.8769462564646533
3.907343191638952
5.295770327601361
8.002857264462676
10.293397548850576
9.750888034128383
7.579317697705157
5.671226807044153
2.2249242509429332
-2.1688538353927345
-5.522863166962624
-10.213747891888008
-14.076544277317078
-11.803293163200015
-4.277267143276058
1.880748274946541
1.113147064659059
-5.241686286614326
-11.896277846654666
-15.375291433483794
-12.47972782141875
-2.7219882958123844
7.79695923685159
13.837569356896203
15.238929399308603
13.486451227441869
8.040636501068427
1.1075977650223015
-3.8228991994737473
-5.893391609138379
-4.636301594699083
-1.4146915485617175
0.8945970402417975
0.0525687818170645
-2.8664631824542517
-3.366592902370662
-0.8582321326878998
0.2326029249567952
1.391287975077674
2.545991794811692
-2.638183471495366
-10.558003293382034
-12.708559363139308
-8.894836800035595
-0.40956426572532556
9.25385041948138
12.223462649727772
5.713649764935859
-5.229588798378916
-13.403023940922141
-13.011494586073551
-2.7243480226869905
8.982845234290465
14.555162215022564
12.00546518285112
5.56149434824379
3.5243002681996733
3.8692746890783187
0.9818112795149976
-7.16112854242264
-15.757365934667664
-15.372669511958097
-7.1498835228838455
1.9975920586660472
6.365836395687708
2.579518414426495
-4.616047641727191
-8.856221256335537
-10.39915492468648
-9.981178416220944
-6.745321355078437
-3.7519347876021962
1.3153622502008175
9.766799105340661
14.220828630854124
13.602069717500877
11.566850867627878
9.371083345912956
6.6421551216944446
3.163972722713309
-0.7683358624061883
-5.692560682691526
-10.78866400879721
-11.834473788908637
-8.551117962044827
-4.396759499107716
-1.0212304115127127
1.40799877342064
2.212650236327084
0.16973450775336152
-4.278137700969099
-9.370074328831356
-8.25691535808518
1.156265678183085
11.897089786607303
15.527603046943039
8.242308740485282
-2.005763993503543
-5.116400008554721
-0.8036799989199257
1.8242934145826337
-4.727152484919807
-13.480220889546255
-14.455577752299435
-5.280256685201856
11.63266967767078
21.507439896559966
16.241667153742974
6.216170770231873
0.8763758023558439
1.0851153389542945
5.587698873277283
9.185007360506397
2.698030361844341
-7.771296340118313
-11.914733563020166
-11.502223550507694
-11.353611991677916
-11.62224392502237
-13.556145080142231
-17.569696441725906
-16.68844659342337
-12.220997897764141
-11.844505642586277
-12.658229921377425
-5.141371077615218
10.386239912273599
26.698251279889874
35.2219406111415
30.035403116369213
16.377745367426513
0.14730777330888822
-12.32304596075128
-15.275550822553337
-11.31455619489675
-6.943829975371065
-7.193206134501029
-10.843927862615903
-14.64863628077755
-14.966540801865435
-12.284994349360247
-8.011321515777945
-4.244932463945923
-6.316952257961983
-9.92024669923093
-9.368419481122556
-3.1046453037257047
5.495253043023357
12.961383111277996
21.392985939545273
28.10711426761382
28.572737231032598
20.637375021972293
2.924584160050586
-14.39738178182145
-18.869431484226105
-16.578219881777947
-15.473249164337899
-13.882431360706837
-11.987321943604831
-11.269271644372495
-12.049877917430534
-16.063661241725747
-16.812050560888984
-5.534349047381156
10.24089056952482
17.630026107030584
13.100646228387447
1.268236893820244
-2.207725108268807
10.298857642290839
23.666628210694224
23.194043070733187
9.545594850582482
-1.9349741272229526
1.0783808524107381
10.657111500288787
9.493937601531531
-6.893710960149276
-20.81448103097936
-16.416348811735272
-4.691188303689012
-1.4972105715474116
-11.941020862811358
-25.073293103211626
-26.473367752709663
-14.244639165746968
6.084488687969715
14.485624405381287
6.896301416733787
-2.1471526599927917
-5.580356733045757
0.2475509248312287
13.872948174344167
27.68301475163495
32.48977100882059
27.038309861148793
16.642491638294537
9.858656394781777
10.656168500694143
13.598776843751928
6.798111260338874
-21.09294414135978
-48.55791735719906
-53.79209798748636
-40.966848492985264
-19.05121454459846
-4.827904645377602
-0.9367967444840267
-3.2022280160731724
-3.955276671390366
2.992040393945504
12.28382889783477
19.90530866995149
25.7274325574609
33.34599457779033
32.90794321567649
21.996477971763966
7.407755816949068
-6.608354941090993
-13.203253461221156
-13.024631913046857
-12.209979069551801
-14.773934960299504
-11.034531414309125
-8.322691481542723
-11.956656967199187
-6.6743258766933256
5.433611727888884
18.867589829105185
25.791202459118942
22.545519312860314
15.17361394773024
5.194369145426814
-6.338575748010072
-14.370373262969611
-21.956607642145805
-32.214850893726805
-32.172187122362736
-19.900801715194152
-7.221120728273045
2.3684489496382115
9.95800557524951
12.41404702702807
13.608876896615097
18.78730457770052
24.870620253171182
27.089139012133913
18.4887928069285
5.836472784770677
1.6240549888723756
-3.9031717848023804
-8.366302180561233
-1.9897356286192152
1.6813416183662244
-7.894276778203245
-27.940337707592686
-41.54085021730893
-32.07108960379081
1.571440012861949
37.20295214326882
44.68221058737834
17.323771054735328
-12.501923001536865
-15.297855213339599
-0.48034895252915233
18.27343308282497
29.467952672982175
26.732233320016178
13.766686988029866
-4.384140969485586
-24.735509649739555
-37.919108773643416
-30.289007144739422
-13.07425016381865
-1.2608980021050158
11.598261833512373
19.708798770986608
10.26961286568795
-6.7707708826682
-17.76197988931966
-15.512246989831956
6.720854288762431
36.351394690376935
46.98467089479915
31.627111613326388
5.93079311178809
-14.27421691975111
-17.429660648181066
-5.05640608517043
6.355440993082801
3.2507719525237806
-9.4790978255025
-24.731749142875493
-44.62967709475025
-49.65022804659757
-31.98929472119487
-6.459475132374195
14.014395634549427
21.10164829601799
12.00368304209036
-3.2865759590502126
-1.7504234459815813
14.325534688897063
28.77473980205874
36.93853610297784
37.55595583892755
28.648537487549387
13.367363356721894
2.788839711104043
0.6770978418324525
-1.646189074553293
-8.80696281863331
-13.386400056746448
-8.40052612298139
0.4699154808638243
5.301824766896232
1.2789196674336896
-10.8286531646526
-17.549506789804646
-11.37233438052402
3.8427761414841295
13.428790786958878
2.9309627294491016
-14.186984844489382
-21.848118302799843
-20.752934042892907
-14.926463185481488
-6.370118295552347
2.061926523487023
11.876313370436915
