AAD_Filtered_TADAS_FILE
AAD_BASELINE_CORRECTION: BASELINE REMOVED
AAD_FILTER_TYPE: BUTTERWORTH
AAD_FILTER_ORDER: 1
AAD_LOW_CUT_FREQUENCY_HZ: 0.025
AAD_HIGH_CUT_FREQUENCY_HZ: 40.0
EVENT_NAME: 202302060117
EVENT_ID: 13194
EVENT_DATE_YYYYMMDD: 2023/02/06
EVENT_TIME_HHMMSS: 01:17:32.00000
EVENT_LATITUDE_DEGREE: 37.288
EVENT_LONGITUDE_DEGREE: 37.043
EVENT_DEPTH_KM: 8.6
HYPOCENTER_REFERENCE: AFAD
MAGNITUDE_W: 7.7
MAGNITUDE_W_REFERENCE: AFAD
MAGNITUDE_L: 
MAGNITUDE_L_REFERENCE: 
FOCAL_MECHANISM: 
NETWORK: TK
STATION_CODE: 3113
STATION_NAME: 
STATION_LATITUDE_DEGREE: 36.57752
STATION_LONGITUDE_DEGREE: 36.14766
STATION_ELEVATION_M: 2.0
LOCATION: Kahramanmaras_Pazarck_Turkiye
SENSOR_DEPTH_M: 
VS30_M/S: 221
SITE_CLASSIFICATION_EC8: C
MORPHOLOGIC_CLASSIFICATION: 
EPICENTRAL_DISTANCE_KM: 112.13
EARTHQUAKE_BACKAZIMUTH_DEGREE: 
DATE_TIME_FIRST_SAMPLE_YYYYMMDD_HHMMSS: 2023/02/06 01:17:31.3769550
DATE_TIME_FIRST_SAMPLE_PRECISION: millisecond
SAMPLING_INTERVAL_S: 0.01
NDATA: 12501
DURATION_S: 
STREAM: HNN
UNITS: cm/s^2
INSTRUMENT: sensor = CMG-5T/GURALP | digitizer = 
INSTRUMENT_ANALOG/DIGITAL: 
INSTRUMENTAL_FREQUENCY_HZ: 
INSTRUMENTAL_DAMPING: 
FULL_SCALE_G: 
N_BIT_DIGITAL_CONVERTER: 
PGA_CM/S^2: 0.105
TIME_PGA_S: 
BASELINE_CORRECTION: BASELINE REMOVED
FILTER_TYPE: BUTTERWORTH
FILTER_ORDER: 
LOW_CUT_FREQUENCY_HZ: 
HIGH_CUT_FREQUENCY_HZ: 
LATE/NORMAL_TRIGGERED: 
DATABASE_VERSION: 
HEADER_FORMAT: DYNA 1.2
DATA_TYPE: Acceleration
PROCESSING: Automatic Paolucci et al., 2011
DATA_TIMESTAMP_YYYYMMDD_HHMMSS: 
DATA_LICENSE: U (unknown license)
DATA_CITATION: Turkish Accelerometric Archive v 1.0 - Disaster And Emergency Management Presidency, Earthquake Department
DATA_CREATOR: AFAD
ORIGINAL_DATA_MEDIATOR_CITATION: : AFAD - Disaster And Emergency Management Presidency
ORIGINAL_DATA_MEDIATOR: AFAD PROCESS SERVICE
ORIGINAL_DATA_CREATOR_CITATION: AFAD PROCESS SERVICE
ORIGINAL_DATA_CREATOR: network: TK
USER1: GuestUser
USER2: 
USER3: 
USER4: 
[...]
-0.00023432033315378474
-0.010098943906266348
-0.01027133082327366
-0.0029063739650691625
-0.005284986381854841
-0.002022649970592709
0.0119627823311695
0.006408453635068304
0.000604756808180971
-0.009590769300727517
-0.012315976178170832
0.008138225061146573
0.007690064804867463
-0.0061531258208861175
-0.009071805659920771
0.006486626678613133
0.012838175962545526
-0.0031151719238774944
-0.014033510693411423
-0.019326782701859897
-0.00842957511595458
0.010753982066908
0.016611853967238875
0.0006743340926265645
-0.008674809635559616
-0.0059395061175098315
-0.003916286123611845
0.008210159243356156
-0.0038692366693523035
-0.018796130144327086
-0.005040673302966394
0.021520597005032106
0.0233748324018456
-0.009808242037577852
-0.012629121449456878
-0.010258134645814218
0.0003465442630347872
0.01943178100493408
-0.0021061103836940045
0.004318436442150862
0.0028542472642872313
-0.010913355017684902
0.0063137129632188215
0.0016178938923811904
-0.003477367162373472
-0.0004247811316291081
0.0011969830028071774
0.0019563022485018892
0.00564526311765375
0.013728748546790044
-0.006960265846027675
-0.014781636248167355
0.00962993957943834
0.012831836683528119
0.005733260200806867
0.006836602200545208
-0.0003134833373061395
-0.015715998176810297
-0.005805808560298327
0.01160688771547227
0.007710754145872504
0.003554327872254282
0.01064596757744437
-0.0004650457473531307
-0.015212870623514039
0.009095560493061336
0.009405004971415012
-0.012986440843501373
0.00545787335753719
0.013743770903860338
-2.2204402308897594e-05
0.004259114485471399
0.001845433745363375
-0.015517518122460704
-0.0037042148537961344
0.018175479900428244
0.014485001818179539
0.005221468037212608
-0.01183853756993247
-0.008573968227762649
0.011318199152691787
0.005934813095639241
0.003445548556921541
-0.0077626261843776806
-0.007257307048081634
0.008368855797379374
-0.005943966612434931
0.002482281916774564
0.01700344966180826
0.006858613658024825
-0.0018244587018504184
-0.005790527832951593
0.0010001766292957706
0.002757134174508469
-0.0001832720949869129
-0.011379704381170346
0.003407269000101941
0.026024463948873193
-0.005257823637647577
-0.020615270339447937
0.0012960886448404017
0.004429243922915091
0.00781254493537046
0.0019935596520538846
-0.006158697783817717
-0.004264300101687981
-0.006803888120319948
0.0033428830291535898
0.005427900760739878
0.0009551419662734476
-0.007878505393295
-0.009487076425671771
-0.009553302144561175
0.008182214633584798
0.019316468802602817
0.00114186477388909
-0.011603901777859036
-0.009854241661994492
0.015117463923602602
-0.007589672202431222
-0.00441032808451139
0.007581916423462967
-0.003973676319085364
-0.0005807722421861642
-0.01658471728756261
0.015165475960975509
0.00895623316126497
-0.020092094281034097
-0.01660456128218059
-0.0015661784336102958
0.014815574724537879
0.009395811384204233
-0.010309136835649964
-0.014316132743876853
0.003847717827846369
-0.0029056263533548165
-0.010344081788355752
0.0036630329739092008
0.001065028499796686
-0.001015901902715913
0.0023112121199328627
-0.004146511280054469
-0.00878543348058897
-0.00935181981005396
0.0036511013386221966
-0.0011568514700651062
-0.015254817889096158
0.0010168756835799671
0.017898233559123983
0.0006586891347792002
-0.00870864235473399
-0.01571066604788312
-0.008486221072675344
0.002592267264228992
0.015084816730314055
0.004163647149812348
-0.012050884011745037
0.01050231396657602
0.005807924921209203
-0.008817616227921833
0.0013606974189722188
0.0011677958628920466
-0.007803278729870506
0.010150412873369664
-0.0019500254525280018
-0.017324084334985054
0.004134605510344785
0.010211122090814125
-0.0010629849406125695
-0.009606322309637639
-0.012491343141866791
0.006910877329529725
0.008360540056697868
0.0037506153222133624
0.0067655367770235245
-0.018808749438961162
0.002627899553789
0.012345717622035823
-0.0010114643587660556
0.003290591766487551
-0.00615810389298018
0.0027412364095071146
-0.0015639657471011495
0.00697540720161851
0.002842471430720026
-0.011154930416353384
0.005736254191339822
-0.008307009279889577
0.0022543341968209313
0.0113841493062482
-0.030910942326677723
0.0033636493432571044
0.030123552338929035
-0.0003282446928726499
0.005639419344787635
-0.02483401692613561
-0.013358236260831761
0.03160802332162182
-0.0085599594650646
0.0010083052178546262
0.011779755580059267
-0.011858550446371076
-0.009782535970356228
-0.009681513486842031
0.02270162186059911
0.003006499704030636
-0.02370281666022113
-0.0077974966318054015
0.0009051119144726341
0.02004966393022406
0.02885226193932915
-0.014223707434258513
-0.03330904127540673
0.007980429002678138
0.01280317704943732
0.003973773632069338
0.00550815703745566
-0.012510513388395912
-0.02167669859249783
0.020660329429184335
0.03330625662707525
-0.005388329900016176
-0.013349522410111508
-0.01992195519348991
-0.0004402006230985461
0.026145057114506293
0.0093902056223267
-0.0004705871146784432
-0.029226606424336856
-0.0025214706044430915
0.02810172569827064
0.004076049059585571
0.00041894311420702596
0.0018243063061072241
-0.0007080577801143896
-0.014151048394722724
-0.001388258102201847
0.005497762875730381
0.00288946848503381
0.005568877846359537
-0.007592441615096774
-0.0038277066271312126
0.008545812426785346
0.033738101140316515
-0.010884477403511492
-0.04800342412077414
-0.0009078615103727155
0.038834787718147475
0.02963789683314729
-0.03556528833832739
-0.022948355458653185
0.004688406975561897
0.011022075314839945
0.016387937361060385
0.007954193380983517
-0.018148014172671912
-0.0252303595390008
0.00698983174370128
0.010987204063573059
-0.006257431955170518
-0.0026859219749458332
-0.008348702502254555
0.0042966157999270085
0.005562083310411143
-0.006426864078583787
0.02212381254449919
-0.043898690741528315
-0.02540557023284464
0.04276626787647118
0.011397172085040175
-0.002595662213415744
-0.024258883621207133
-0.016131118316460746
0.030997615808664107
0.01987646709540813
-0.03027225423474905
-0.020563425308354432
0.006506265404728053
0.017430118902735943
-0.008564905313145963
-0.011644634576355548
-0.0007576414452028117
-0.010145183246664916
0.006665146156252285
0.006033973829345159
-0.004311985976953331
-0.006067331667831481
0.0027722445886983636
0.005977437973722325
-0.008812176695947067
-0.01056367132350549
0.013697321608322849
0.013340383831434354
-0.010308493826163612
-0.01095067004495311
0.015920317764852195
0.0031242328730456902
-0.0060149953679125385
-0.004072345751208032
-0.00799687526097609
0.005123590084576115
-0.0008805416811413932
0.0076145469194086
0.0012367927527838095
-0.006175450149179739
0.004181175362282528
0.0013980517263871455
-0.007842574428842394
0.011607476342684837
-0.0012573710671968765
0.005061471941647542
0.023821422400189626
-0.002774205614843502
-0.008281368692562388
-0.021327281398574535
-0.011696337910180083
0.01969881478288281
0.02884505832678013
-0.010552849586826214
-0.024716831687370256
-0.01428224043609931
0.009230278596020734
0.012891076370370425
0.0026128157295440715
-0.005312749763586032
-0.017362133358635734
-0.011646846842658683
0.010632842734287901
0.003810654567119741
0.005231311025845244
-0.012049274923525812
-0.02340515894383433
0.00463754242202197
0.013938101922286944
0.022774746106088456
-0.0017189636735207054
-0.02076407649004546
-0.013296403786301656
0.02192253470136167
0.006226930344513348
-0.016177508881779084
-0.010865169453220493
-0.02759380993375403
0.020190006303475085
0.040040090607136924
-0.02386613194536242
-0.01941580705796642
-0.011887142389708822
-0.0036751943628664093
0.020943232898773315
0.007467490253589232
-0.007682815679482097
-0.028291294583474104
-0.000971512524112811
0.01052247883236882
-0.005094333389050819
0.00988612170289275
-0.007048106971315749
-0.011792252074241071
-0.008445202892348633
0.0041516672845972
0.017908660502809766
0.0002176460372205843
-0.013678487129833522
-0.016099097194313856
-0.0019109659550588395
0.023970289461715914
0.009165581819669772
-0.023671811687833954
-0.02142288002214739
0.009442476733259276
0.0163895930713516
0.004204791627769915
0.008804913284657353
-0.015087485316951517
-0.024660046632466404
0.0029320588716635013
0.016091572099443674
0.021147431513889033
-0.004819241743482076
-0.01653450317446189
-0.00396432926144607
0.0009854521170092742
0.008892119089839457
0.005983776094649439
0.002235741022030198
-0.014449572801247234
0.023761435119240067
0.005179949088305379
-0.03547402274137438
0.010669638432665968
0.020270520025119643
-0.003245952043171842
-0.008957915837784184
-0.00535169446876543
8.003542538941738e-05
0.0034376422261221226
-0.003944892119665344
0.010471174279491192
0.0015289294808260743
0.004486434524800165
0.013851263717400156
-0.016102645978577468
-0.022590301671254132
0.012267380314224988
0.00856456783966834
0.0013616298585853498
0.015220472007417924
-0.008862378740384648
-0.0022605299116543855
-0.002213069594533942
-0.0022320628003413084
0.017954933718349022
0.008780113158545889
0.0020928040938478637
-0.022163747776675014
-0.00252293169191755
0.028066208109406892
-0.019967775510501516
0.0036006086985152547
0.01971213072210241
-0.021620004294380973
-0.006896375985022493
0.003992007297445011
0.012725107989501733
0.012559859988015355
0.0010541060326509145
0.005996724165264787
-0.010129797552440535
-0.004851891934349956
0.008341529658493791
0.012718918126453952
0.005249857936078664
-0.019069943302582906
0.014194406841807616
0.01560416575732434
-0.028440310250746954
0.0051310671826827236
0.035190559276102464
-0.014177191827829677
-0.015556951051519104
0.01736685781724072
0.006475728931303403
0.011545498094051115
-0.015538402128911381
-0.017367522046820162
-0.00528968662845781
0.0239385602591057
0.02488336412342534
-0.012827280593857026
-0.010618684280506028
-0.009676475990000374
0.011626339089414997
0.015497786177354015
0.012812581150768445
9.561561643876207e-05
-0.024715670045121735
-0.002520127434394858
0.013849972054848326
-0.025785749897409626
0.008484248907233528
0.0023693693722320404
-0.01039198977710358
0.013347379303118013
0.0010170218668400623
-0.004047182008877472
-0.018688339584388994
0.001494241665417588
0.011399166334105522
-0.006130764202720658
-0.00536064684705705
0.023952092474833313
0.00830826758397184
-0.03520697404026727
0.0012852671000092065
0.022842499082828774
-0.0010934939835394756
-0.02064999126263375
-0.0074827506531715
0.020970410931567374
0.007357760264351595
-0.010895871463590542
-0.009747185756397355
-0.00486855320785243
0.003994799679857623
-0.0005213578843219116
-0.011596017679817912
0.036901144295375964
0.0030854468063080385
-0.04137557016162592
-0.029320839090905312
-0.011356011141678684
0.04481242223490105
0.03699414819084107
-0.03640687781517807
-0.057469742732541275
0.013214460797705866
0.04931390204961246
-0.014718775649544333
-0.05419740466118837
-0.013140223933887259
0.0414875942804191
0.033101468320488436
-0.01484293968124109
-0.05184946247896423
-0.016814436093065533
0.02456522791493096
0.005050807470255136
-0.0029430473921969592
0.015181762923060583
0.008195121865771647
-0.048335335917560826
-0.011992993817294302
0.016471667453470014
0.010116874925302109
0.006978021880116399
-0.020907136744515314
-0.01664924603094683
0.00570308640027242
0.021973960867430677
-0.00471145104979437
-0.02218084374314424
-0.02480371221745221
-0.006638539241347624
0.032190850678654
0.018940976492431923
-0.016523539720426264
-0.021341520119175755
-0.01498811994284176
-0.0014109727084732802
0.010954065373113619
0.03138552170432344
0.017747677439976454
-0.03224908144523154
-0.028279666958565514
-0.02637853346393427
-0.0012176632451588263
0.04084028437006306
0.045420624407918025
0.003999236783739493
-0.06402061557148866
-0.05511661190288977
0.020948231611580687
0.06358567455623364
0.050818464566052365
-0.02145855964790495
-0.056728663190962696
-0.036844912303089915
-0.006977561176659422
0.05559341721358343
0.03429444538779525
-0.020685593884334486
-0.0280351447986911
-0.02672414256799698
0.0012312607637574551
0.03823575957464799
0.02204677870060644
0.0009886507426470055
-0.030689567551497852
-0.04170556042118748
-0.013111983855867045
0.05057385609231475
0.061358530330533595
-0.02178680493304145
-0.09278012920995647
-0.04127194364566595
0.043013106582196044
0.08708479280535471
0.04860018176101418
-0.07904319247300913
-0.06788838716224622
-0.015376614040238617
0.03433880969334377
0.06586588835895363
0.03426427707611481
-0.04947431049617353
-0.08927488354596314
-0.0028671085784087295
0.0821643676018956
0.05708754589343546
-0.028890320673184283
-0.07032157261346879
-0.02392632353945579
0.06110446781304431
0.05148987426213947
-0.003352722884182339
-0.01715966443326525
-0.05406858732974971
-0.06486277394296822
0.04390818050382401
0.1092973753635717
0.0016695074461049288
-0.09251401961349155
-0.057318189714438104
0.04368627668208809
0.07426746524494156
0.002782658463032134
-0.041107448300014816
-0.03591562254641023
-0.023737712192639173
0.013416759958311878
0.05840713970092817
0.013630212927904468
-0.03978770083131449
-0.04607311353910365
-0.016022056203329128
0.03265044563639766
0.05020580203931603
0.01645385416245221
-0.05164366161691966
-0.04635602213575695
0.015888865151551055
0.04652701185390758
0.025622507122344308
-0.020923836069555148
-0.06361338216626469
-0.015234953436210456
0.07125957434282722
0.0318643722525937
-0.02637310560380658
-0.03318556134934943
-0.039614809305495234
0.021998362921090205
0.054530259307951495
0.006806284446711704
-0.016991229494068217
-0.04474089823136607
-0.030976554165625114
0.03168059904629314
0.05096581744709648
-0.0011198894917261335
-0.06166487233420276
-0.0531682108724209
0.04123177079933637
0.08107049631194432
-0.0046578513916485575
-0.0578325909250879
-0.0424397658350314
0.0010567712997040664
0.051464263806340824
0.02321526719314351
-0.026390910969141847
-0.01855417070869688
-0.013655544994269556
-0.012487893741297733
0.03590509568299442
0.03795588120663275
-0.029813673289679075
-0.05511667684702927
-0.015146764626371167
0.03142648786516688
0.0360002717262603
0.00956319301215302
-0.04705143202629093
-0.035374636087512776
0.021781087602457443
0.037994349449764764
0.01696632515264875
-0.01725793055077166
-0.03358445566390337
-0.028375532583155262
0.00734744839817001
0.0446942236654993
0.02151689895119312
-0.03497050214608403
-0.05103926786217921
0.00099769595465051
0.05046169608164902
0.03402700221451001
-0.04065129260898277
-0.05493518368767222
-0.0024374683666740097
0.026628214086340134
0.056888519002820805
0.011220017281126923
-0.027231944785084984
-0.03821092558347191
-0.05633592467971723
0.03438367291940898
0.08540282408275221
0.014150702815800964
-0.06093639519901277
-0.060004912519501824
0.004486835049698755
0.07050089429942819
0.04288325607974734
-0.05468795389255241
-0.06794997651954861
-0.006194416515111984
0.05511703233294836
0.051686437372282255
-0.0006353533048363359
-0.04632906042734451
-0.053126770089318306
-0.0001334664342823993
0.059273130928105995
0.04274784519490969
-0.007426782758783685
-0.06212894299907849
-0.051616003886750556
0.03178201173785736
0.056838850502310675
0.038068606537363645
-0.02908514243225757
-0.07963461670716294
-0.010675526122595366
0.051743472147360456
0.04979718502177647
-0.02344710344727266
-0.06388667025909216
-0.020505348511965886
0.030011840859133405
0.05570166331164329
0.013039827163183464
-0.04099822033431105
-0.046058774423650264
-0.00620514208096627
0.042445589847425684
0.03913705241860544
-0.014803290913886021
-0.04264138026137953
-0.03926329914754387
0.019174914084908457
0.0667012602524463
0.019935445497286715
-0.05583134992352761
-0.05909946928805722
-0.006980304783304425
0.058099800245958566
0.06317113157356864
-0.01888631975196614
-0.08046681498064658
-0.03196132373304778
0.03070955880096447
0.03480441217391197
0.018134094417214416
-0.024655396607705587
-0.03955482606942576
-0.02100471126462472
0.024461943417104202
0.05046672515999677
0.019443324196024722
-0.045514938520430176
-0.06178412252934254
-0.008486861382943167
0.06053161563012537
0.03367632568160102
-0.035022289518892996
-0.0455614351115089
-0.014935394584466683
0.039788542716132046
0.04291672126145602
0.002693057572783964
-0.03737468318488653
-0.03549546574728596
0.0014843512972404886
0.037978840073431566
0.029529902276176308
-0.018374102153110316
-0.05924636255483102
-0.027668476074618555
0.04065436485300188
0.04661160620309153
0.005393818104570725
-0.04709463683369623
-0.04159663982791299
0.015769802801973445
0.030077646012690074
0.02499676191588522
-0.015770006698821903
-0.05030504966218591
-0.013811388619498289
0.007101303264303108
0.023648408646550496
0.025150375385773163
-0.02123019952606445
-0.03091206352166313
0.010122861044406788
0.035922468908484044
0.0057182286875843555
-0.033559582018047845
-0.021212304587079758
0.009730671194082528
0.015730995574831
0.006295803312499873
-0.00637334732942923
-0.021901035748421706
-0.01213957686076988
0.004684159916962342
0.03555513427879279
0.016825561536370676
-0.02785979429006033
-0.03272196259927228
-0.0029730097143649326
0.028143651667493833
0.017239344203973692
-0.006268561859838606
-0.03577715054198695
-0.020005914762514006
0.008059328201119799
0.0293527834909696
0.021175247435088217
-0.023220451239155004
-0.030054178103494127
-0.01721451353662645
0.018681337470131246
0.04186056394051294
-0.002437909413155087
-0.03226238001764813
-0.03968419494478794
0.0006755185888243193
0.0402133098111235
0.0247716617210949
-0.000979846561911433
-0.03978626747361972
-0.025849935758674926
0.020841568305862757
0.019486450572766306
0.011063730573148954
-0.013690761993624453
-0.026681790959076423
-0.018652300467933636
0.012666344213016503
0.03909413436773411
-0.0011829780507179599
-0.03985516083587345
-0.03074711805766325
0.03201081150869628
0.038778203996199516
-0.004646270698361771
-0.028110239144137954
-0.03220374991475385
-0.009419610073209706
0.027973329584572423
0.025890184861063252
-0.012775886263374904
-0.027760842462113897
-0.01304874651007004
0.01644524768590543
0.039258829940828424
-0.005073814299987726
-0.035100941100554846
-0.010001308534485377
0.008309922529217532
0.025043434828690283
0.008768759480273468
-0.02604005987838896
-0.02459624111682038
