AAD_Filtered_TADAS_FILE
AAD_BASELINE_CORRECTION: BASELINE REMOVED
AAD_FILTER_TYPE: BUTTERWORTH
AAD_FILTER_ORDER: 1
AAD_LOW_CUT_FREQUENCY_HZ: 0.025
AAD_HIGH_CUT_FREQUENCY_HZ: 40.0
EVENT_NAME: 202302061024
EVENT_ID: 13207
EVENT_DATE_YYYYMMDD: 2023/02/06
EVENT_TIME_HHMMSS: 10:24:47.00000
EVENT_LATITUDE_DEGREE: 38.089
EVENT_LONGITUDE_DEGREE: 37.239
EVENT_DEPTH_KM: 7.0
HYPOCENTER_REFERENCE: AFAD
MAGNITUDE_W: 7.6
MAGNITUDE_W_REFERENCE: AFAD
MAGNITUDE_L: 
MAGNITUDE_L_REFERENCE: 
FOCAL_MECHANISM: 
NETWORK: TK
STATION_CODE: 3140
STATION_NAME: 
STATION_LATITUDE_DEGREE: 36.08155
STATION_LONGITUDE_DEGREE: 35.94982
STATION_ELEVATION_M: 3.0
LOCATION: Kahramanmaras_Elbistan_Turkiye
SENSOR_DEPTH_M: 
VS30_M/S: 210
SITE_CLASSIFICATION_EC8: C
MORPHOLOGIC_CLASSIFICATION: 
EPICENTRAL_DISTANCE_KM: 250.80
EARTHQUAKE_BACKAZIMUTH_DEGREE: 
DATE_TIME_FIRST_SAMPLE_YYYYMMDD_HHMMSS: 2023/02/06 10:25:07.7314320
DATE_TIME_FIRST_SAMPLE_PRECISION: millisecond
SAMPLING_INTERVAL_S: 0.01
NDATA: 18251
DURATION_S: 
STREAM: HNN
UNITS: cm/s^2
INSTRUMENT: sensor = GMS+/GEOSIG | digitizer = 
INSTRUMENT_ANALOG/DIGITAL: 
INSTRUMENTAL_FREQUENCY_HZ: 
INSTRUMENTAL_DAMPING: 
FULL_SCALE_G: 
N_BIT_DIGITAL_CONVERTER: 
PGA_CM/S^2: 29.103
TIME_PGA_S: 
BASELINE_CORRECTION: BASELINE REMOVED
FILTER_TYPE: BUTTERWORTH
FILTER_ORDER: 
LOW_CUT_FREQUENCY_HZ: 
HIGH_CUT_FREQUENCY_HZ: 
LATE/NORMAL_TRIGGERED: 
DATABASE_VERSION: 
HEADER_FORMAT: DYNA 1.2
DATA_TYPE: Acceleration
PROCESSING: Automatic Paolucci et al., 2011
DATA_TIMESTAMP_YYYYMMDD_HHMMSS: 
DATA_LICENSE: U (unknown license)
DATA_CITATION: Turkish Accelerometric Archive v 1.0 - Disaster And Emergency Management Presidency, Earthquake Department
DATA_CREATOR: AFAD
ORIGINAL_DATA_MEDIATOR_CITATION: : AFAD - Disaster And Emergency Management Presidency
ORIGINAL_DATA_MEDIATOR: AFAD PROCESS SERVICE
ORIGINAL_DATA_CREATOR_CITATION: AFAD PROCESS SERVICE
ORIGINAL_DATA_CREATOR: network: TK
USER1: GuestUser
USER2: 
USER3: 
USER4: 
[...]
2.669405092324632
2.7384163126567134
2.679585866556662
2.5174034860799623
2.313331858159829
2.129085790464797
1.994562856179385
1.9022787941383956
1.852215687238828
1.8264531810712317
1.8773486204957706
1.9963162998340902
2.0325769912112186
1.9991282663973224
2.0025798653163576
2.0724904327679536
2.259307975343327
2.4644088936293556
2.539421632145028
2.4413707280633776
2.1041554265815163
1.5833128443605662
0.8966884044757971
0.07400431814581312
-0.773154860654715
-1.7332178160791043
-2.7875937603379706
-3.886145545470965
-5.101093783183486
-6.407191040240913
-7.6977360304536795
-8.866361943181928
-9.9490306855412
-10.970175398248967
-11.836009023103797
-12.482910077543691
-12.960406324158644
-13.35833423423773
-13.72446179027671
-14.095509180449675
-14.528225556025633
-14.989882663121007
-15.315619957716615
-15.495744362738646
-15.60058140797773
-15.629618404411556
-15.533136140719858
-15.25853851608917
-14.822609974955329
-14.213670443488407
-13.527611941973849
-12.859277528084403
-12.188804299929428
-11.58076782173397
-11.035881777452435
-10.484664770693842
-10.001065315250537
-9.606293103647156
-9.196870860119013
-8.767850308086308
-8.300829392479692
-7.737854886783875
-7.103139007220732
-6.375134782241291
-5.535629929682224
-4.710927662848576
-3.94531135244499
-3.204168350762667
-2.544817276025151
-1.9870962063717845
-1.5839619948639463
-1.379438334023784
-1.330093397452918
-1.3814272411463142
-1.4178845560732625
-1.40558775767391
-1.4022427969773652
-1.3945487855089287
-1.2930768724926487
-1.0767133320967883
-0.7776278247874822
-0.39239354498288037
0.04941532256882641
0.5521248712084663
1.0367805028740635
1.4940035339495432
1.9913284474723083
2.4588522553095036
2.94159803318637
3.4281952465663923
3.9498879843786856
4.602778007388251
5.3080976745233865
6.021331064823935
6.736295659763888
7.4859129211030835
8.221812432141833
8.870462849887875
9.45261399482204
9.966100508959173
10.373586626653779
10.687452385126281
10.943946729875371
11.058545466793294
11.04223911305944
10.968318724597687
10.941702530645344
11.124060578854955
11.452862876793466
11.856498644806912
12.309488454728536
12.70770062384356
13.103631423488537
13.504289940688299
13.840658769016633
14.217545273411735
14.611924900997984
14.983345832627652
15.392209296625305
15.816723065996838
16.308686059092313
16.877060949823868
17.449119790994448
18.031077346895923
18.613283378846525
19.13853382178294
19.610190925158527
20.000219701356745
20.252338180797505
20.412345785526497
20.47754671510678
20.409174190420913
20.213935737614925
19.912429193621964
19.55105611095015
19.151035301860684
18.71851893554452
18.26867628905704
17.836547755560378
17.40779974114746
16.964241750042646
16.560223929058562
16.09982842630226
15.517344977902072
14.929750999894184
14.33360892136139
13.717167629010827
13.080768449609133
12.366876997905
11.584361862864908
10.67244662310818
9.603760244277119
8.45881974083039
7.26641636392671
6.098036452359335
5.040513314132747
4.110753575522373
3.3253284128162233
2.7111282152838254
2.276605408692704
1.9480669703860114
1.680639714535942
1.5214902948151545
1.415811644098872
1.2632065395054302
1.0284336443521311
0.6300752255730483
-0.01665085108285028
-0.8880261808888259
-1.9332736431079294
-3.1043276107609006
-4.3161956848648
-5.510901503405602
-6.67408098963668
-7.745514494403968
-8.70039797964084
-9.612949497760816
-10.520176723357086
-11.419536807904956
-12.275505329956633
-13.099588151473183
-13.911677446252343
-14.69424036201084
-15.502503394998007
-16.29891596789226
-17.032849542580532
-17.69199196411715
-18.21263624310566
-18.657094154342737
-19.05988861389058
-19.37260402141491
-19.643392434577226
-19.887640222629376
-20.088376145737826
-20.18614948849447
-20.110335035901766
-19.903136234236296
-19.571030589667412
-19.117682560563114
-18.55620915166461
-17.91272247716247
-17.22606103491336
-16.455806831486953
-15.656020512834377
-14.832589503317154
-13.91497910704806
-12.951232645900348
-11.982666374953515
-11.042947239872458
-10.147606906618561
-9.334489965350746
-8.632160067986295
-8.006824421831798
-7.429635698980557
-6.895360719226881
-6.47494023871766
-6.18884896897343
-6.070441854621613
-6.1043188298457345
-6.1792142886124175
-6.331823898726246
-6.584056996585586
-6.855173999410303
-7.070980732391405
-7.166668498759488
-7.134921082755582
-7.008172118496237
-6.743897012715971
-6.33015022468067
-5.831554083280589
-5.26834899718807
-4.67741921678866
-4.023811442201273
-3.274505984605288
-2.496877090107487
-1.6510469676856523
-0.7174848897375855
0.29915415081021085
1.4086812158109294
2.58257167116867
3.8345912060762988
5.064484365867524
6.215131875341422
7.292648216750218
8.229046929953101
9.046501027245204
9.758899201204427
10.385683627153412
10.96634997080384
11.458584897387388
11.814951747133144
11.993669567984133
11.98799629751798
11.84216072435008
11.562804086803121
11.117868455852788
10.569113428982618
9.935928372895605
9.240591938584997
8.60692086500214
7.969451092997986
7.298392477353223
6.583307013124947
5.792966315977948
4.995548714566848
4.152285277524097
3.3206192175510822
2.5389093503716693
1.7534367295764905
1.0669634452657568
0.5978519106118452
0.3379052145291178
0.1906744509966227
0.11304624095012265
0.15538671911305127
0.29591380218730123
0.47728590095163514
0.6688058226155031
0.8556910556227235
1.1163984037673842
1.5049036979071124
2.024412780376429
2.681605388917486
3.4035934020028096
4.072893061904156
4.753489322949579
5.606791893852844
6.644356891345789
7.812651410634242
9.022007066878407
10.221722286134154
11.39018795507354
12.402879146575703
13.197897344852155
13.79391274297548
14.244209628608987
14.571803752424456
14.76645674525913
14.937144217962924
15.100020839466405
15.184387443207019
15.21580234889441
15.239389410988993
15.223599521995842
15.10149402584584
14.890711422164735
14.694566532367194
14.587841988961378
14.550518512683345
14.623178111075427
14.777869504751799
14.901255064727842
15.002256229679842
15.079720780662662
15.123905684237583
15.127893127909266
15.108228278053414
15.091036256416627
14.990335280786404
14.806158801045049
14.58335995379773
14.293343564636922
13.874395725700374
13.242212171207676
12.42841408911036
11.423230181049563
10.24207492554391
8.979608499538468
7.643924583754738
6.286137090524802
4.9565231722362055
3.7113489940922877
2.54198297118357
1.3387977139603817
0.11529941367216505
-1.1196569721178014
-2.342723906843397
-3.498598097761115
-4.614582756639245
-5.620849387733769
-6.557871250334657
-7.379759452289465
-7.928686847245344
-8.268907037592209
-8.372746151003998
-8.3337989638164
-8.153399770149361
-7.711880817076338
-7.1334149887426594
-6.379673027746524
-5.528559399281164
-4.661382618872382
-3.639060383190309
-2.5850041464730746
-1.5685901966138713
-0.5597386191837995
0.2661934190181933
0.9000631839451473
1.4678671736043813
1.9378214908793885
2.277729862520396
2.4748826886506032
2.5668437029783626
2.6305721365716956
2.706547228438778
2.7475079895715044
2.6492341132938955
2.5038504837745545
2.3100766223945834
1.9848180934965762
1.5729949088980042
0.9973031842818026
0.21338600775486538
-0.7447328773024002
-1.8878687709333246
-3.176773927665365
-4.569931330346968
-6.0266826453752556
-7.45273490260821
-8.795403141001355
-9.998208390599395
-11.054543480770402
-12.00064112057192
-12.781893713279997
-13.366505149694767
-13.742895326432699
-13.98230243456412
-14.113678177913352
-14.04437721606817
-13.839623528275979
-13.582170806996105
-13.281199317720437
-12.922542627692001
-12.546262523584367
-12.263304515468416
-12.057195366697998
-11.838944968166535
-11.533728648619524
-11.19822284646336
-10.91947408765907
-10.685018733792548
-10.601996779600654
-10.757616791551506
-11.092465850507216
-11.591071410558941
-12.281094891504642
-13.157616830855204
-14.135701120739347
-15.158766156490342
-16.22217065116624
-17.289383467252247
-18.392492501194276
-19.473949469205845
-20.436888048778425
-21.311647056540565
-22.08477133301536
-22.779999211791228
-23.369376844999096
-23.769010318991565
-24.007121723825772
-24.12715155741739
-24.186838274672652
-24.176163440171827
-24.08275452809089
-23.874501346715302
-23.514710219322765
-23.067269554814146
-22.497741811474484
-21.851164228452365
-21.18475897937469
-20.405989750077744
-19.51495999895895
-18.574974718455284
-17.683274073779003
-16.85220906229535
-16.076138716090504
-15.390522236570485
-14.750857605107672
-14.219636993298003
-13.802051477981633
-13.419366032793425
-13.032771602653185
-12.589712890198847
-12.097457144268303
-11.51813627483609
-10.845742312542829
-10.080612502861566
-9.178709675500428
-8.182737613666085
-7.14134828754024
-6.107301999612302
-5.102341519792829
-4.12396295617465
-3.2251028341840033
-2.451932700497076
-1.8028155156248677
-1.2296975176434786
-0.6561250126499857
-0.04985484850946071
0.5783213104761333
1.3028082804886336
2.1991820458997697
3.1702141421507437
4.157211160182671
5.139235833872258
6.018008347104323
6.7753710998826
7.424175756301408
7.943841645904009
8.27558376605844
8.440728351644804
8.568723011663616
8.796227307605125
9.134822136458101
9.545241749673997
10.023968034761241
10.543042006416776
11.143036877748848
11.777264782914663
12.414720721138329
12.986717095763424
13.436838174318328
13.878901629401675
14.276206355419212
14.629300680418195
14.97327937758779
15.2595550009518
15.514344070471838
15.794925309145126
16.16988128506625
16.586477530230606
16.968567154194613
17.307146881248034
17.639031670602616
17.989797220241606
18.276444024956522
18.524677343449685
18.670181415917554
18.701233599441448
18.738492075240906
18.775054030355246
18.84480055178798
18.90181608149527
18.947732716730265
19.03464889691584
19.081307891146004
19.01156612733764
18.854820207832027
18.61807642971394
18.27915075007185
17.91598988477304
17.500768548001243
17.013666628481182
16.461210680930364
15.861594476870446
15.350278368761048
14.953585235122562
14.785802268366798
14.79257908705599
14.733690396367576
14.660526807421434
14.587154444937925
14.567551845962996
14.656826657021444
14.769875271975348
14.845094448330816
14.833176542264898
14.776645398403895
14.663973622232712
14.485677286674793
14.289645935443442
14.101530751504407
13.837340036668257
13.367739599317897
12.796999570212282
12.266701890415419
11.779401797180165
11.256891561805938
10.755681125541175
10.370225543241212
9.916824695310508
9.384624882404053
8.901400137433209
8.447905565245588
8.046593251383003
7.691407600127033
7.466043580954813
7.328219868122525
7.105059290747463
6.89584617023022
6.796812703112839
6.838115208263296
6.982531499743191
7.134907324874364
7.327351963093267
7.545596645371995
7.7080778917593165
7.786457306751768
7.88096836474798
8.052871015180497
8.178348067902528
8.129830804425868
7.928910976218144
7.748952994331559
7.724914161317876
7.863816895046481
8.002605272863798
8.068234885038532
8.202653962551091
8.42599518421557
8.714878407781388
9.024019785978586
9.227489888830794
9.304544200061242
9.367133061112568
9.48316944360114
9.546475245818678
9.46324078458144
9.230378899959533
8.831788670689864
8.334831695191033
7.907884882646145
7.634052988540679
7.4718871975418875
7.4216268993152985
7.458197915505025
7.458362953643513
7.485074325891646
7.657518028459152
7.8869147625315
8.127362837711962
8.341244430392987
8.498964212067296
8.708970121679974
8.820765137701407
8.596443603781914
8.159156412313733
7.722266779580161
7.347539290299949
6.94208825973691
6.424688172251006
5.828486091243639
5.174432185171521
4.519999390745565
3.9304011849382388
3.436587133851327
2.9610678234356453
2.3517773282860195
1.7243766524799113
1.239928395685971
0.8406793579349621
0.48153799207959663
0.1790704562602128
-0.1344544211363803
-0.5174404625610699
-0.9694111071626665
-1.4706569674956504
-1.89118704123683
-2.1764059609514113
-2.4296371963124193
-2.7741648547050177
-3.2938345397510544
-4.021419164103401
-4.946617509269415
-5.929208254021088
-6.815820384960198
-7.625700674736385
-8.420563897353826
-9.269380617230889
-10.100504166394884
-10.652590111515824
-10.898733204478852
-11.029485919622262
-11.13141855442987
-11.159986929298997
-11.08237113424913
-10.937458406963598
-10.86727915293844
-10.944811533255224
-11.111040916970396
-11.35364228714651
-11.627170739371067
-11.950744940988947
-12.29963296784785
-12.64520581961817
-13.004577410822169
-13.24400559528339
-13.440604074690862
-13.789009229404732
-14.407565619734811
-15.270130143622184
-16.18603978514943
-17.086758423459454
-18.066542133682997
-19.12723509520172
-20.16425377586324
-21.3740668389899
-22.795075988428117
-24.172522180616994
-25.35940263020037
-26.28162318171495
-27.049006666491128
-27.781824716242703
-28.465041044935116
-28.859934654029164
-28.946338318370934
-28.963306337860484
-28.87682345530272
-28.670536056160262
-28.408689146068756
-28.208241713889187
-27.952162197467562
-27.468894446255927
-26.959273015900855
-26.34611196943265
-25.530579557259067
-24.766012210501682
-24.11312207211767
-23.370893800066064
-22.49873240793
-21.69628133209824
-20.900448285790862
-19.997331794732983
-19.131319051748292
-18.129166598071485
-16.877681079719814
-15.711870594680423
-14.776232106115636
-13.973618240820805
-13.15639749255362
-12.263114948171488
-11.3543961584337
-10.355166574891062
-9.266003638676032
-8.343696692219046
-7.607546914676173
-6.972644771698131
-6.617125685860259
-6.423679874079023
-6.1079092305548635
-5.702069240268529
-5.273633730288532
-4.849671394529782
-4.435999083202658
-4.03453254405194
-3.6797335590074804
-3.38394407892027
-3.1683744899014337
-2.968362599019745
-2.8014716357156875
-2.585019907483453
-2.2379293900873565
-2.0511645581868247
-1.939078642208103
-1.6252846583838099
-1.1671486334335448
-0.6459555922340462
0.027485308261264524
0.8582035750215996
1.45825702568518
1.8205276489040685
2.2403576757437422
2.7296524148427936
3.4122936530274175
4.4168410397573235
5.730447889297953
7.0799032986598025
8.03761360651892
8.612303958899783
9.012445812324914
9.28918579005883
9.67955580595553
10.579426189067668
11.710839663521892
12.43360384210932
12.827761959198265
13.252506763529897
13.883664153161696
14.714995183483799
15.474301289248563
15.855405221728976
15.758230488993132
15.66292065639826
16.076122774669827
16.747015980696432
17.227864825358626
17.307328394463994
17.056801078183582
16.796182399905184
16.72921507010678
16.89290253839566
17.10348999111889
17.022864817577968
16.73196272321512
16.58767476835013
16.656802819068602
16.77437615366419
16.6660055270083
16.32540069097389
16.010633577774605
15.80064188772428
15.748692067183155
15.935085405916961
16.26003142487993
16.35543251998333
16.07789479294339
15.728115417581414
15.6700299206367
15.957892643924463
16.231183702115853
16.33803083076302
16.422287396232388
16.60286858590024
16.93408570647442
17.348384470268964
17.61736929180017
17.585966102845468
17.378813737353315
17.12143397984063
16.986802094739694
17.00990656499675
16.984482687022606
16.79981487984295
16.396590620390953
15.966351804599453
15.581436599230667
15.094052420918926
14.649547894746872
14.165481122783994
13.304933002103652
11.945641832806935
10.418610344901277
9.208176953017903
8.324745630368884
7.632932726348912
7.024986575235421
6.254744107068911
5.233029720870534
4.237774276578797
3.436369212607927
2.7818308324292804
2.3459039634113426
2.058080233036241
1.6145058174696807
0.7560603400477836
-0.4029176554744006
-1.5307356790003013
-2.3309963923878154
-2.693435494945203
-2.981998966560636
-3.5270891092983723
-4.190250758485321
-4.602720702950992
-4.71240560709965
-4.845902433673055
-4.986567241127438
-5.030968742334535
-5.004502462299185
-4.840147692127042
-4.619141727513742
-4.3729993147214286
-4.287957870675979
-4.4566319593591945
-4.3816532326832816
-3.7594862211734883
-2.8114246879010247
-1.7740774837756472
-0.7465826884096833
-0.03823779729898135
0.1843392573779839
0.2546921246219575
0.492027360244907
0.9479742196926607
1.6970581678017567
2.6948059648337233
3.4330459421820705
3.7180117057754467
3.6959467844491107
3.5289198241745683
3.5181040665867793
3.6912110106335057
3.943385768452046
3.9991815876721377
3.582778809443537
2.8461403862218906
2.0280043671114263
1.2334630226860441
0.5977019024228135
0.20481842008523685
-0.010473630162085417
-0.29734476142455507
-0.9411605916038284
-1.7667615340772018
-2.5602683438731972
-3.16679486439633
-3.281516875106109
-3.1813100575090116
-3.4547597749823993
-4.208228900620281
-5.177622835737477
-5.964964119128838
-6.341818206181782
-6.52740801936166
-6.788466469112465
-7.104771910296068
-7.329337869551039
-7.41035991337671
-7.382163456071236
-7.261252347134682
-7.136245759392532
-7.078669279020865
-7.1329098711810275
-7.376056327138893
-7.452024790252716
-6.926666185904531
-6.191081452544756
-5.753420943325542
-5.620644937851524
-5.613717475382785
-5.565143997675736
-5.531790049663722
-5.537016643247321
-5.6399753786819184
-5.911065268218656
-6.0877827171306915
-6.185303277195351
-6.4915676035401315
-6.963105003114534
-7.3408560786404085
-7.363739622959603
-7.09267347653768
-6.921966600833921
-7.132469195435541
-7.693116404626034
-8.21329003717495
-8.336452432447
-7.889822944264027
-6.741014107133375
-5.199819522989173
-3.8314505285281384
-2.8394703874005356
-1.9609573888996306
-0.6735546209383617
1.1909110262312794
3.1021492455465847
4.4556562459667095
5.118529340212206
5.514828560169533
6.363362078486686
8.019144339508802
10.015422361810343
11.39609652979354
11.72402544812664
11.286706022262768
10.739554324320418
10.443136164416869
10.226232934461548
10.199043027650426
10.757490000495226
12.42047224093491
15.336285464461865
18.7115815477718
21.206271483807193
21.685847533989424
19.87108769334145
16.20293453247397
11.999240617286521
9.056154921176535
8.244402397647224
8.755419149312825
9.193871951865253
9.44364580840682
9.794655798525778
10.03378773471921
9.965004772233819
9.438911210259928
8.913852789839412
9.108005032171986
10.259686969501528
11.813007084392595
12.463221933912322
11.618081048047996
9.717307921231399
7.644664703709201
6.081285245012219
4.928222548131973
4.327499183189522
4.6125387185855
5.653614169218427
6.955901936951418
7.890671188951968
8.185432415372501
7.712822735999306
