AAD_Filtered_TADAS_FILE
AAD_BASELINE_CORRECTION: BASELINE REMOVED
AAD_FILTER_TYPE: BUTTERWORTH
AAD_FILTER_ORDER: 1
AAD_LOW_CUT_FREQUENCY_HZ: 0.025
AAD_HIGH_CUT_FREQUENCY_HZ: 40.0
EVENT_NAME: 202302060117
EVENT_ID: 13194
EVENT_DATE_YYYYMMDD: 2023/02/06
EVENT_TIME_HHMMSS: 01:17:32.00000
EVENT_LATITUDE_DEGREE: 37.288
EVENT_LONGITUDE_DEGREE: 37.043
EVENT_DEPTH_KM: 8.6
HYPOCENTER_REFERENCE: AFAD
MAGNITUDE_W: 7.7
MAGNITUDE_W_REFERENCE: AFAD
MAGNITUDE_L: 
MAGNITUDE_L_REFERENCE: 
FOCAL_MECHANISM: 
NETWORK: TK
STATION_CODE: 2715
STATION_NAME: 
STATION_LATITUDE_DEGREE: 36.855364
STATION_LONGITUDE_DEGREE: 36.685618
STATION_ELEVATION_M: 431.0
LOCATION: Kahramanmaras_Pazarck_Turkiye
SENSOR_DEPTH_M: 
VS30_M/S: None
SITE_CLASSIFICATION_EC8: unknown
MORPHOLOGIC_CLASSIFICATION: 
EPICENTRAL_DISTANCE_KM: 57.62
EARTHQUAKE_BACKAZIMUTH_DEGREE: 
DATE_TIME_FIRST_SAMPLE_YYYYMMDD_HHMMSS: 2023/02/06 01:17:17.0371780
DATE_TIME_FIRST_SAMPLE_PRECISION: millisecond
SAMPLING_INTERVAL_S: 0.01
NDATA: 7156
DURATION_S: 
STREAM: HNN
UNITS: cm/s^2
INSTRUMENT: sensor = ACEBOX/SARA | digitizer = 
INSTRUMENT_ANALOG/DIGITAL: 
INSTRUMENTAL_FREQUENCY_HZ: 
INSTRUMENTAL_DAMPING: 
FULL_SCALE_G: 
N_BIT_DIGITAL_CONVERTER: 
PGA_CM/S^2: 456.125
TIME_PGA_S: 
BASELINE_CORRECTION: BASELINE REMOVED
FILTER_TYPE: BUTTERWORTH
FILTER_ORDER: 
LOW_CUT_FREQUENCY_HZ: 
HIGH_CUT_FREQUENCY_HZ: 
LATE/NORMAL_TRIGGERED: 
DATABASE_VERSION: 
HEADER_FORMAT: DYNA 1.2
DATA_TYPE: Acceleration
PROCESSING: Automatic Paolucci et al., 2011
DATA_TIMESTAMP_YYYYMMDD_HHMMSS: 
DATA_LICENSE: U (unknown license)
DATA_CITATION: Turkish Accelerometric Archive v 1.0 - Disaster And Emergency Management Presidency, Earthquake Department
DATA_CREATOR: AFAD
ORIGINAL_DATA_MEDIATOR_CITATION: : AFAD - Disaster And Emergency Management Presidency
ORIGINAL_DATA_MEDIATOR: AFAD PROCESS SERVICE
ORIGINAL_DATA_CREATOR_CITATION: AFAD PROCESS SERVICE
ORIGINAL_DATA_CREATOR: network: TK
USER1: GuestUser
USER2: 
USER3: 
USER4: 
[...]
6.339667819649865
-7.634088808412781
-6.264507465437599
1.1640197412441131
7.92960995567672
11.677712734593348
15.831637804597046
15.503887454318043
4.548198552347784
-10.89416598469133
-20.389445438847073
-10.413189817139562
10.181372818848548
16.79483015595177
15.018819847464945
11.961826405368292
7.136279844609638
19.68625256231659
38.19596543697508
31.39032097150428
16.25947947058032
9.267196242418956
-7.669679197183482
-31.85995786877511
-41.4762912834557
-30.321956235621368
-11.146925105605035
-3.5573530416002113
-5.528987955060935
-2.7975521552107137
-0.33048886684718226
0.7295506743615151
16.00716609849024
41.563062999813916
44.354925348700846
13.680778443991056
-6.809090085098234
10.722890272132524
32.07911151460095
26.185280981590306
-0.9392808954436292
-26.154794382268143
-28.415948819017427
-13.201604687819563
4.959235386626999
23.746272849313655
30.213381958068577
10.022396080645343
-17.84976802692701
-23.132878119772872
-11.012427127022733
-8.162714637576244
-18.485835937497352
-20.914509605277065
-4.892104390806193
10.227486712523522
12.086622265896914
9.584687231944558
-0.1841360446183602
-11.546921296724417
-9.323086350076958
-10.567135915336106
-22.26228461808115
-23.39563970132173
-18.483557351115895
-13.791823054489248
4.9351669546557
28.92911255274086
35.58066784931313
22.008110699513857
-4.742135567666207
-37.73808682780251
-58.20316429585259
-38.213757880340985
13.633039612438017
43.21238788050846
30.547218947844428
15.789646061998335
11.003780623307973
-12.025864565071078
-33.867476028706534
-20.908894357821747
-2.170941578654702
-1.0399026179610662
7.762648245644197
35.75533187766493
62.214742361872965
60.620513282181946
27.793841140836715
2.5908864650618115
13.31996779601046
25.62504395430899
9.158560808692915
-10.103856082296124
-13.189951651572857
-12.719135691650392
-14.103575445974952
-12.187403923120014
-1.6355549306278483
17.3047283379334
30.58577745182764
25.372427886961315
9.328833248217514
-4.4165679000708264
-7.5271950016556515
-0.710286473728614
-12.302140561303206
-45.59123921924561
-49.45830950106129
-17.416365174912734
6.153021871992615
16.902577523677387
31.63572391618603
42.35388353556696
35.04511180139705
16.00604527411329
8.0642615478053
13.050569995552578
8.293003366867556
-7.8642999123128465
-11.414443381641515
5.998504895431383
24.885835248365353
28.299062882894457
17.384277039549602
1.0533884862561043
-8.666266108567491
-10.913877338776812
-15.74993949227079
-19.424688131524444
-16.090489227258683
-9.101669243535799
0.9975507493908382
10.881744603364549
18.526915727826978
24.53842114156218
27.718036903055644
31.142370193015356
27.275379043995528
8.17833059957408
-14.27541137370895
-27.32380986923819
-20.59312205962351
5.6256672812982735
34.38698992420955
54.20747336186224
54.98308125805896
35.157638780279605
10.050046429879881
-11.733984607638227
-28.15648609246104
-41.834967463047995
-55.32179798003274
-56.20614178114147
-37.479322670843665
-15.311167364350768
-8.031345707839971
-11.610846134467442
-19.769937034804904
-39.527994377867124
-61.87286440033962
-78.87903274563378
-97.72358555305081
-102.67248827521705
-75.94702968587896
-29.160817668712145
16.25554972396345
49.300875874095986
65.25683930923402
41.304661087266894
-22.215146321197878
-60.859304198445614
-34.045930973130275
17.017248650030474
33.75971665235195
15.473576943052164
10.539527895602859
33.18849028785544
57.404497080796524
68.90077630534817
63.17228736344794
44.58886192779145
18.307258210017416
-13.377789550481133
-24.038173862298155
0.787080013738888
19.408095926707194
-3.9524603804131817
-36.15938122334498
-41.36994702722033
-38.21018260188966
-34.93568300621031
-17.542559588183767
2.276502934275869
7.119539404859194
-4.378698172765913
-12.235109671565375
13.09685745902951
53.65376621035097
56.58870224427583
24.483317383636777
9.360017460032449
20.517762976737938
22.711176984012297
8.921724830906047
3.1491059729706716
12.284780852420957
29.076949947432396
44.404906149274616
33.59724116239949
-0.43839419930118917
-10.52273214857531
15.204734643310562
35.703913876623574
25.686711517179802
17.79573067636409
40.312520786267385
47.408586658589606
21.14143893079324
20.93187114016806
38.837852903702384
11.031584443957293
-35.13119013641296
-39.36386635454152
-17.678610070515784
-4.201756565084171
6.915554988174962
31.263371556821095
37.815129795651224
-13.832669377733314
-65.3380022497099
-60.737765838023556
-53.642236400719234
-71.72839446593886
-76.78670889856782
-48.64950193792523
-17.747475944481415
-24.598344236568476
-30.494861316514225
9.594004305619686
51.99829907004894
54.77484905591912
33.97783766427956
20.36368818673919
13.539813123405711
-6.248252050055093
-32.34678479721743
-37.1939558250956
-2.0233780341392853
41.77126853122264
40.06440713635202
8.853596764963228
-5.684882663687265
-12.613218486000125
-38.82172761392661
-64.90020457996695
-54.9580069130217
-26.38876287558146
-10.501016067614783
3.383735122497886
21.404768115043982
29.705229715580554
20.832794281744214
3.3886293202639424
-1.9347301643207546
-1.2402452266298336
-12.611390808795841
-20.333404885992582
-9.82908271862663
3.8185520081257986
-0.4755841184502796
-22.86682323444145
-40.68093784440836
-44.24010492937442
-42.11843048599387
-36.03719490983558
-26.137208025691685
-9.523623190857329
13.244325148254276
16.535114434280914
-1.4745706194869321
-5.420284948437649
-2.865516675783528
-13.84548238675997
-15.075055923969721
-7.2436480217413255
-16.860926274687127
-32.62706230151106
-19.350684869346832
16.12134887282324
19.51847136321054
-12.398507933265712
-33.94179081817391
-41.315074485951875
-41.82137349074536
-34.73524801942987
-28.97398453087768
-11.09579778465173
17.742210426238266
21.84895741498597
4.442295941663995
2.38233550425196
14.216614908810365
9.395995341738084
-10.67831590660017
-16.944821133901804
-4.777712429035558
9.147320774815107
20.68594236353705
36.04575172523021
49.980019357890285
38.48408838981844
5.96433286870244
-1.5907669798453308
15.195828621174593
13.758865497903397
1.3610222727203196
8.674770626968115
23.743061500426837
23.30391089318067
20.668798278679734
22.522572158449
9.01790494031383
-14.101783792771439
-30.23605696865199
-24.93924779431636
3.8403096498659135
15.577612164083414
3.767410066004115
1.8856110064942126
8.909332307310445
18.349052555489703
24.778901204323088
24.266062367254634
29.405431670869593
26.17338011693046
-0.3736236274525186
-20.50795226677231
-8.4376309883569
14.041109153949181
12.160073838694657
-7.04188597574179
-15.88913014072327
-14.037550049919316
-14.050046468501586
-19.679214031666163
-30.852922622165288
-42.42989402061585
-46.56727317700182
-45.89098949312372
-41.544149304666526
-22.453273424710968
4.267093513219525
9.941525658230873
-16.02192710031842
-46.42937191878129
-48.29540951116354
-38.38190815373939
-40.450831751846025
-25.27505848679362
12.00649936175944
33.141911059519465
26.38827813584905
4.736537077766051
-5.264674387445611
-8.583742130845813
-37.99758680996077
-60.862117442404724
-45.726802815439896
-26.518128803842714
-26.604638243611745
-59.55539209151259
-110.13103499033002
-100.98954042553835
-20.123049682449814
21.58204733254045
-32.61309550355328
-96.81070105325352
-102.10924544540526
-68.11258519880829
-22.28440524727516
7.313069358984077
5.257592546206085
-8.250899378928233
-38.046317061832994
-94.73362912063723
-124.68879830155349
-81.71703224893928
-0.6817659287470133
46.75333439062895
15.488585785471821
-60.28399915690966
-101.96298666433063
-89.39517638399657
-56.188528919309235
-29.931049630778947
-14.764541097619373
-1.2292872520831781
13.33251054458176
34.560885814164735
71.46728375970599
97.26768861129229
65.14237197061776
-9.696237188052129
-58.11080520146544
-49.368943361405584
5.885886699905383
81.80435761408914
137.4453346692776
139.84754453775267
75.38676883479151
-16.00568443426788
-84.1831797873581
-145.2634023602074
-175.4590754535734
-111.46530798556951
2.541824653230924
69.99873958492762
61.851123297133846
26.69467966812907
4.489094347450588
-14.297412835873827
4.137004555977367
80.09412915987946
143.36744494554995
143.391220854483
79.44275846944986
9.603666090246401
12.2456771061694
43.738478851214694
25.517863407465587
-33.10875017552849
-90.84488949619941
-102.32020003459735
-60.840297213783785
-5.327472530427113
36.119388286550766
36.635419568699646
6.128185036764526
-14.116383695470075
-38.231887904676675
-76.89823207885684
-108.12320129006413
-136.06520084997643
-145.69733060150284
-137.18568249701687
-149.48186546630097
-141.19200516792478
-81.10695498053605
-53.281508938063965
-81.22623575922249
-100.60539170442551
-117.7667257382844
-155.72311161330083
-159.12526900821243
-104.80040900949078
-34.524568460808176
34.12622346210186
63.10528289683736
23.12405997163048
-21.247951256457583
-62.90294829695369
-152.0232508885643
-205.52456586701916
-137.72690970821725
-19.404857169427608
53.88202170317072
60.37066597242174
35.64025265429923
12.026144776900297
-32.46532859139678
-80.60680857828144
-61.03434553686736
1.0784108201713334
29.657907376549097
22.75525100940357
-2.746732602093026
-28.447548494499674
-29.97261347057689
-17.702002742840914
16.1335654869839
66.7010721360611
68.4783863913936
20.917056912153665
-25.42725122499568
-62.02186887325581
-66.78866247459148
-35.53069105475837
-11.924785198313847
0.760079741925856
16.733972469435432
26.553673738881532
30.27306654185218
28.32060243572349
17.617404444294735
-0.5637846902983604
-21.91673300082095
-42.501422370463935
-57.63363695258897
-31.375567417406405
27.064392872376086
29.926689886745
-15.3302688101986
-27.52414964232938
-12.345555865351725
-6.313537244923301
-5.1126336743856005
3.824132644765697
12.16584190766503
11.39697281748176
7.404487941319295
-1.0966758388004105
-10.947389770159358
-25.474943874958708
-41.444993889743934
-30.615509902347416
4.651351339318495
43.314071793627896
50.82239529326534
6.187087948966195
-43.05509979759184
-72.32913151667454
-67.90587010125795
-6.727962017001377
36.78199178696233
3.649756159913072
-45.464373877634706
-43.28587022496672
4.932097701654421
39.14764494560943
23.966695485242518
-17.874934275538944
-36.341216113246
-8.539873072587545
17.074478892619005
13.647745380251946
25.547609364402724
52.887620528156184
41.62218637151335
-4.948977599775283
-28.215387746227965
-11.959915287535656
20.229371447934135
53.62368046532173
57.608998326572305
13.866569723463394
-32.571906957096246
-31.267761010283213
11.572872760344099
57.54144788878423
81.62655424135613
78.47674028703153
57.60609067621959
20.539466615651012
-45.750793317126266
-98.25389190221632
-71.45196321166092
1.8471250863097926
38.48952512960573
24.16145586350941
8.826527865600832
4.5579436074015875
-10.44342838698328
-1.3518546646784126
19.94953332259953
-24.14329005565868
-89.40610085847047
-99.14658973220314
-72.60520839989084
-20.696546884432962
32.789446155345296
36.985446963819065
6.520737496175913
-37.5608481576434
-95.8493687583227
-132.62411477731558
-133.1490242706276
-118.57841734746494
-94.57779800734355
-79.77244119988354
-83.08877274554416
-71.35982016601461
-43.96560914932189
-30.028493817463577
-17.017809064846723
21.328082135555647
61.558109570256896
67.64033237109592
65.80089175669805
87.3088991531314
117.41461754100827
124.04442604303821
61.89748602322811
-18.54975874583665
-7.9572750375756565
35.92617462168603
25.384444278032557
5.237515521407397
1.8393402677064226
18.14279531048367
60.63614717435388
77.23255730455793
57.55570332275325
52.96705751226671
52.511275919088135
27.92115239658531
23.307100052817994
61.8789347219076
88.6905222749015
84.05703158867047
78.32805895692799
72.49117875770365
66.6946158860445
66.72886625076266
60.68111767976068
47.685380581649795
30.266871741035388
28.70701662141315
67.04922905794388
101.26957811957773
101.76298115837214
103.37058876994747
95.21909432517734
54.03631452809704
26.49976592389177
72.4033064359815
151.42274999212938
147.83387405167633
93.0651258793082
67.48917267272914
22.72840729654508
1.115457136664994
47.147558958724304
75.94964725465789
61.09076742705862
9.0957100929291
-11.30590588944202
26.81334141132824
12.017083247215304
-16.006399691979315
13.007528377052948
55.625245920009284
63.081772110919296
-20.305265931024252
-78.36454417826954
-16.496373632391307
54.836671600369876
113.39344971523421
123.28978538151084
38.72598684517314
-21.771087468992267
-10.402671059928375
27.83563939960925
66.38998243425357
65.86686748913041
16.66708709780633
-19.610706766541696
22.469350282816006
57.772494417663225
20.194785714276893
20.721517252170887
52.64987740704393
54.388277996987235
96.8732916631646
170.58071337777847
214.25834838761395
291.1779182531786
430.2867145178936
367.45982038178255
-26.851343710704555
-295.2628469949343
-238.69889760816653
-192.91985431216057
-148.0850337205678
26.82536451932015
163.78071118438092
180.23874269338378
119.47816008681669
51.16723813485107
40.05557739689673
39.72221880228908
4.2190770325373705
-21.485780105228656
4.377076385103399
37.288165786166665
20.579295015509334
-20.72666628765268
-53.94647841217859
-66.53257236425105
-37.42137377684662
10.45044140671763
30.479841933649546
14.86960738810261
-14.732710334990283
-30.124818055769456
-21.074992753476863
-1.5503898243381034
14.466338065120086
26.01050147536577
42.81745648857867
48.85048180128976
3.2410069271909823
-65.8944451882474
-81.59407644935892
-57.08319835386785
-53.261095321983326
-54.04712344536025
-32.653209529267656
-19.345961251496874
-26.311957172079715
-29.660659251031877
-35.847355462048355
-66.05549584027631
-79.07895425153592
-31.41143354366911
22.509485881482373
30.81785313942314
25.86982888875115
30.703279063955446
26.654850087188905
12.089946797542057
8.454887320852498
20.87346812875012
34.71418678802506
36.550316943273934
28.88184538084635
33.43165965633738
38.82218851538595
8.738479658819324
-24.080527044357193
-2.493130525578697
47.06071538018424
57.31391897148006
25.390877650562807
-0.5745626523183051
-17.383634263514747
-47.33077456090499
-60.0229388448856
-12.23576801394923
70.13101077186622
95.78304825348378
35.796261853313965
-17.222601884415543
-19.571323885177673
-24.175195094513242
-27.657654768256517
-6.039231444358091
3.012235109626201
-15.89677296717526
-36.97782665443793
-52.463255467697
-60.476772960952836
-38.57222433915232
2.99197903236957
6.520480646350302
-28.70392870571553
-55.039455046558224
-69.74044079573218
-72.75471470560078
-38.2104931743636
20.954178980223045
46.52296885441031
4.7576732650022215
-83.40938450623828
-155.53357344568377
-136.0581059320014
-33.52371142615094
68.2656352631412
116.26268942928338
81.07795899698823
-17.66393742435814
-105.69620254469723
-130.01711276706965
-73.32251917178361
-5.919339740733207
-26.385383473489455
-91.84844784409916
-100.42748379409903
-51.345786751042915
-6.458399728604479
-1.7999108915096786
-37.25229501060666
-76.92215898161159
-77.99990879249022
-51.09004398027879
-9.507645593379216
37.85294541394529
28.934096464540698
-38.560948861964384
-84.6200950206555
-78.47198004405429
-39.415097115495186
-1.314265705434397
8.620765271903903
-14.32186756478321
-61.172383782417306
-87.71068770746348
-85.6886429596925
-98.76690896437992
-103.251271436033
-67.80905412643072
-12.709997290549515
39.10146314470636
41.5006747923793
-14.062688494895403
-84.86689905875888
-134.00483851242709
-112.06773637383272
-38.01252611325551
19.492500591932654
39.00480050456062
1.5711590412926444
-51.74935297598016
-57.600671549215335
-56.671037448172974
-71.9542953663662
-70.11449852114089
-43.125711289770216
-11.579094936259043
-15.012906760679327
-31.33269840021314
2.3835720648095378
71.76360091295795
118.52838217894134
107.7488750034266
44.38284948415811
-28.443813287288062
-51.20396289267216
-5.792710964803313
47.719107435352434
62.21754245236129
32.65398829985663
-30.92176027995366
-62.488794583684516
-28.093959552124755
15.052476198304799
24.722594740083114
17.793312333314812
16.819683851038175
-5.555014443552945
-48.594279052010464
-41.52384031344543
18.684957477310174
70.46129402350493
76.37027656573515
42.24916354370678
33.91002877680001
69.52076488268156
80.93846064263897
50.14409029875799
1.5524973294081106
-52.628066796142846
-69.05679278894874
-35.866886393174575
-25.11938745392681
-54.45358518297425
-50.90127735906817
12.015033079534406
92.90816311389187
116.74074100972396
34.249070214211706
-62.10183361368024
-54.834993593359904
21.20076153271445
70.42453840871376
57.45453699000588
20.911915687217494
11.016844189621294
9.96450352474375
-18.202959688172296
-60.801211041482
-65.71624468627695
3.252392264407272
94.69848250417026
128.00945324112917
98.25388166979698
48.16383002929973
1.5517956668445103
-26.963311474979104
-20.16051625814066
-2.826041753901047
-0.3932638251555071
7.04773650942188
12.186110327978842
2.960959464416213
3.11348221510151
30.318364329556818
91.96063641860185
145.4556978453283
129.28505766717532
51.81985720133848
-43.895008948216365
-97.5293694754822
-67.53357139054185
0.5659396223176917
50.89195580696784
87.13654593047032
110.00249734229503
80.17000222049575
11.808382628061166
-15.374008738394512
-0.4457242794827158
8.532102456913215
6.520925067542135
-31.566820288001644
-101.23800986986272
-119.79305256235521
-69.59940809951351
-17.685570527804447
5.179456402801997
12.08378118707149
7.012599911912943
-10.027973567733625
-12.091543408964954
15.175765090921459
38.08692987893205
55.50352207857979
79.13628016056263
57.834089154260674
-3.384116681635755
-27.26083361010691
-11.442701500947338
-5.4361787510311625
-13.471644774131521
3.529155744074592
54.77319815800801
85.79256660433524
51.56235982382703
-15.617147425501228
-38.15534840231385
-9.646225100632913
3.874617837636321
-1.1240895797662476
20.51668788507891
67.33818050586888
85.46060396207942
40.33644874328192
-2.202912526117468
14.937374075346014
36.594004500600576
27.754252520221012
2.5576482964020517
-43.44253787926527
-63.72946867181869
-7.184414854332145
53.83014603507818
22.48109471016155
-66.46084203010196
-79.23430166392654
19.53878810078379
96.28479568139664
75.80339153695381
21.18696247742312
-20.64142973400827
-25.0268773721271
