AAD_Filtered_TADAS_FILE
AAD_BASELINE_CORRECTION: BASELINE REMOVED
AAD_FILTER_TYPE: BUTTERWORTH
AAD_FILTER_ORDER: 1
AAD_LOW_CUT_FREQUENCY_HZ: 0.025
AAD_HIGH_CUT_FREQUENCY_HZ: 40.0
EVENT_NAME: 202302060117
EVENT_ID: 13194
EVENT_DATE_YYYYMMDD: 2023/02/06
EVENT_TIME_HHMMSS: 01:17:32.00000
EVENT_LATITUDE_DEGREE: 37.288
EVENT_LONGITUDE_DEGREE: 37.043
EVENT_DEPTH_KM: 8.6
HYPOCENTER_REFERENCE: AFAD
MAGNITUDE_W: 7.7
MAGNITUDE_W_REFERENCE: AFAD
MAGNITUDE_L: 
MAGNITUDE_L_REFERENCE: 
FOCAL_MECHANISM: 
NETWORK: TK
STATION_CODE: 4408
STATION_NAME: 
STATION_LATITUDE_DEGREE: 38.09616
STATION_LONGITUDE_DEGREE: 37.88732
STATION_ELEVATION_M: 1215.0
LOCATION: Kahramanmaras_Pazarck_Turkiye
SENSOR_DEPTH_M: 
VS30_M/S: 654
SITE_CLASSIFICATION_EC8: unknown
MORPHOLOGIC_CLASSIFICATION: 
EPICENTRAL_DISTANCE_KM: 116.59
EARTHQUAKE_BACKAZIMUTH_DEGREE: 
DATE_TIME_FIRST_SAMPLE_YYYYMMDD_HHMMSS: 2023/02/06 01:17:32.1433170
DATE_TIME_FIRST_SAMPLE_PRECISION: millisecond
SAMPLING_INTERVAL_S: 0.01
NDATA: 12501
DURATION_S: 
STREAM: HNN
UNITS: cm/s^2
INSTRUMENT: sensor = GMS+/GEOSIG | digitizer = 
INSTRUMENT_ANALOG/DIGITAL: 
INSTRUMENTAL_FREQUENCY_HZ: 
INSTRUMENTAL_DAMPING: 
FULL_SCALE_G: 
N_BIT_DIGITAL_CONVERTER: 
PGA_CM/S^2: 100.089
TIME_PGA_S: 
BASELINE_CORRECTION: BASELINE REMOVED
FILTER_TYPE: BUTTERWORTH
FILTER_ORDER: 
LOW_CUT_FREQUENCY_HZ: 
HIGH_CUT_FREQUENCY_HZ: 
LATE/NORMAL_TRIGGERED: 
DATABASE_VERSION: 
HEADER_FORMAT: DYNA 1.2
DATA_TYPE: Acceleration
PROCESSING: Automatic Paolucci et al., 2011
DATA_TIMESTAMP_YYYYMMDD_HHMMSS: 
DATA_LICENSE: U (unknown license)
DATA_CITATION: Turkish Accelerometric Archive v 1.0 - Disaster And Emergency Management Presidency, Earthquake Department
DATA_CREATOR: AFAD
ORIGINAL_DATA_MEDIATOR_CITATION: : AFAD - Disaster And Emergency Management Presidency
ORIGINAL_DATA_MEDIATOR: AFAD PROCESS SERVICE
ORIGINAL_DATA_CREATOR_CITATION: AFAD PROCESS SERVICE
ORIGINAL_DATA_CREATOR: network: TK
USER1: GuestUser
USER2: 
USER3: 
USER4: 
[...]
-11.750855684993434
-23.238107334851456
-23.793081196982943
-20.030506086421326
-13.987143512263916
-5.549213281834293
-0.7172714607499437
-0.1599052552882874
0.49908405447677473
1.7911908433231432
5.829744875010221
16.208140376919665
27.749169715881287
34.949431242269085
37.40691547404748
34.65368508859645
30.912042588598037
28.611230344760195
25.555137864262836
20.929853808836853
15.662823143825316
11.034996529639129
5.530747571213753
-0.03516524390870896
-3.906757094937949
-4.837109278064392
3.0771185785506594
20.235878199496337
39.10687529865415
54.557187500460465
64.14773433133871
66.59933145166988
64.62340173141908
61.438609153816046
57.93994099027724
55.62784680127909
50.72222105444446
40.05488020144001
27.96960334032074
16.351309700068395
8.249166357010164
6.276067631270482
9.154372090222106
14.847799677121314
15.381609787358485
8.206568385117254
1.8833818942302776
1.4626405699384308
8.444245191543699
19.691388727496957
24.73856963472195
20.584181110951363
11.657090789978957
2.4898325203646268
-3.498142585984842
-7.967075347471739
-11.018130137175312
-9.88854697060209
-4.472551419659021
3.47283687404783
9.182022714065484
8.220387913614942
1.4781591994304242
-6.155623523620803
-9.117869410157654
-5.213750656290271
5.509590545933274
18.109869517314273
24.605233401901234
21.801802724616138
12.614499730469033
4.833241780095061
0.1865128384992201
-0.9614631325801394
3.547213132776676
7.260976217201685
4.885719887244491
-2.5610307420024343
-12.065518922426284
-19.183187962667542
-20.887326544479595
-20.03449180461983
-22.59773689681839
-28.40718220604603
-31.561792548565208
-30.568132508924293
-27.248453315115782
-20.472132510362073
-12.47052954190712
-7.470046776115016
-7.280793117870126
-9.333431758963927
-7.84052877031459
-3.499577557233977
-2.1318263705408795
-4.017724946761789
-2.5303214486436203
-0.3197609519240906
-2.7075233697647585
-8.848698409631451
-19.202069563800393
-25.1318740990137
-21.259332527072154
-13.617053277047923
-10.370877731273655
-16.059608699452916
-23.294887296568852
-25.28215377281258
-22.104160758631355
-15.995094239359554
-10.047345600286755
-7.076092501319518
-5.099723426467114
0.8463331550269441
9.06758123252156
16.15719436942156
17.4470081257595
11.322147449163268
4.861342839103694
2.283978757548966
6.282369069063353
13.550843834415044
10.459029153740712
0.40328387631050144
1.247209995910932
12.015691193077563
19.21074601549865
21.706614769515358
23.57299652037531
20.37470489712291
12.177479694198807
5.1175747114432255
-1.531737294162546
-10.222538869440337
-18.58716978323048
-24.136095453292842
-23.901589712104112
-19.87092297391828
-19.7300428791848
-22.040502819290985
-29.079601291636553
-40.47666997754808
-43.49543086258398
-37.84895385492961
-28.438061789649744
-20.52374935872409
-16.69809540406887
-10.066345537031516
-0.9284491707424612
5.07486564089944
7.065632380967727
4.363222266576626
-4.656211705621639
-12.757777789683292
-16.899752241578113
-23.694441857107886
-31.457214148714936
-37.32735504616663
-36.9293871000903
-28.006556428149473
-15.221010692609399
-0.32174140353579267
12.778597540518644
22.198407940825234
30.371022845390794
36.38838653069698
36.041797066513496
26.944067344074366
14.07128405390114
2.835465745666371
-7.820332080548647
-16.086805566192627
-18.80721916099403
-19.950270153880535
-23.990435039076548
-20.664992936220536
-0.13926825511697793
18.388397623407606
23.628694483380144
26.775852735326946
29.80732061521174
28.981929509891614
25.589642351916787
23.380656111071
14.251948707039922
0.8115304150524895
-0.7440046555214164
4.52551857836395
6.8825189467641
-1.180532013197681
-12.279758273768135
-15.037363303310103
-20.160646822444345
-31.752527761057962
-43.716278971572805
-43.26190582376001
-38.969167326576596
-33.08096630902214
-10.998400453557057
0.38071961028248086
-7.495939609620486
-14.702995997639004
-11.356955771083445
-6.897887485310327
-5.5978235292671
3.103140008242327
3.6940063350794112
2.0853322752666004
5.93583632722144
9.736270598757542
15.107509406327445
15.413659167980157
19.951690352858822
18.636077384083585
4.419670284385352
-1.4594809063171468
3.121397819240933
4.382401564466006
2.5282940941830088
6.963790627124676
9.121753662601922
10.763055537287931
15.76603034421298
13.014392072276022
3.818640280097238
-5.118371961447741
-10.760239271257575
-19.608792538527968
-26.640483203678397
-23.58398416028422
-18.99924402001613
-6.897649710959917
10.616067212531593
19.497352887711916
19.252296601461246
16.564096897880543
16.641622018909278
16.05371218391372
18.01221092325477
20.13456237625091
19.853981283771354
19.77953499395588
18.03864265064333
14.040036885193176
1.6446747096734047
-4.68685773371683
0.49498612289433813
-3.110635387258191
-7.9892551906219405
-0.23674766459117347
11.11662820772334
15.57248049639904
12.855201927851102
5.236086215707149
-4.58522014108308
-6.6346863067273585
-0.03648473731816355
2.5788910915788645
-3.6123043499184884
-10.282205079114247
-4.432048086094163
1.9698978253431831
-4.52684671774076
-11.469665347521063
-14.125090758257018
-13.04473596207561
-9.862992681872292
-1.9407103718407246
11.236028638149318
17.780961874999367
19.8860681997953
19.539606886559003
13.568268729687361
5.724042070626727
0.7619869631523142
2.588583724314943
2.979640621113202
-1.5427319601516019
-6.56038646463345
-8.843934370813153
-3.065079319247324
3.193741230585883
1.9197674583922304
-7.174682345472182
-15.90164033606572
-13.592621475751141
-6.335298252408801
-2.578115767890949
-5.089678375513088
-10.234304004531031
-9.918583598512807
-4.42172553914438
0.6092343801375131
3.6432960098298026
5.498835417019596
1.4379968598673392
-6.65699697494367
-9.773421483297733
-9.89966104561931
-9.541023910712942
-9.376912226159671
-8.091291383247512
-2.335098804948305
0.02011223775893531
-3.8292333956066007
-7.2014551025581435
-2.347466907745983
9.046557714134739
17.344599175602916
18.6581673878411
14.652869040200777
15.3627872700174
17.21135239635278
17.00639420016693
15.061197032446675
0.35599007713812475
-17.894515111336414
-27.49031376120151
-23.19682726959549
-10.307828004329952
-3.693842333142975
0.6095648642861979
3.2482923231286285
-0.8106835423849595
-1.1914593903936268
6.467761309686173
10.655416594631564
11.427455493033733
10.588065629863314
1.626107769982904
-1.4605438050009079
4.864398823569833
4.338733789677781
1.716311683610426
0.4265835440469612
-0.1909566392076374
4.860648023078342
4.858700289276972
-1.4154681360271673
-2.4025222694471013
0.21044125271385117
3.9321525640900323
11.229533797476897
15.76762444409988
11.244846248834156
8.261653109878415
9.534394570260138
6.379909648306207
0.13842550871527814
-6.511852115191681
-11.212100228184081
-13.309811140679129
-10.65989684651025
-6.587345741638495
-6.541964217279305
-6.526026675800926
-10.608214661513006
-15.752209248182332
-14.596299549403405
-11.48319788656541
-7.735548765748106
-2.780601221196569
-1.4009540813844916
0.8368445945122712
9.951295109426276
9.743135507936925
0.5280107351042631
-2.444143807477346
-2.781621402370382
-3.9594750721053216
-1.3794203535301806
0.6385697858362556
-8.073139143541614
-16.567230359802576
-13.91186572546673
-9.759335543970543
-17.301370251417968
-29.155778189971205
-25.764134375368993
-15.47190915918291
-9.052440006988594
-2.5152445107106307
2.921262428612265
5.440106215584432
5.3834169824420135
4.502102697728216
2.0072512020865347
2.5011904398983824
11.654229737791686
21.205234086591958
26.06782772630411
29.933243620934114
31.850354628500597
26.28207695031527
14.55894668424616
4.06126231439931
-3.282770719928335
-12.040917213357545
-23.524869696890548
-29.678499873574065
-29.065933990385656
-22.491204709546125
-10.161473465211898
0.7497085087555244
11.464909233332277
21.895228466121416
23.370590613656166
15.295546131696975
9.24865701111737
4.6995308495029855
-6.38212142948903
-14.264390274279453
-14.73982746771823
-15.20884360797858
-13.897596032455425
-5.157371073432437
5.672656557049748
17.43475176194276
33.08469933677632
46.30368542359973
59.607413975763556
71.8480240721859
76.78050182892609
75.85377690050485
66.77683672781924
55.74587661518317
51.99702207162684
54.6160631772615
56.05103792888466
48.03408553524092
38.97630472835243
35.381571271249044
34.91698874186289
41.54690824651509
50.02066250577412
55.03576412524909
57.723759465370264
58.53711959318096
59.539490465957655
60.96318193408819
62.60597996073789
61.33923523877232
57.17537442183514
49.1556476275419
34.66903236610873
21.47904572919784
16.25933716065263
18.09382163424018
19.299567965881515
17.55772419272046
18.168343217715226
18.63768183274893
16.371577606198382
10.051993255041632
-4.119673435450086
-23.58705669471784
-37.86134616397359
-42.15230783554329
-39.98158006815944
-28.881947692947474
-11.776661610533417
1.9500781437589205
13.766994679721543
27.93745515948136
41.987436966196086
51.43231269068578
57.07566589716477
53.37182765738427
35.52735658697247
15.640856101590137
1.271392443103859
-12.566363835936768
-31.00753151953915
-47.15783969725992
-50.606566431673365
-42.12452760232631
-29.216163056677463
-21.123757731340596
-19.052888847513326
-21.571108636531648
-24.32285152196316
-11.024724181984695
14.189305163547171
27.651561183132213
27.624527267113557
19.234403554515982
7.081429003378496
8.972517675479462
27.75173087211707
47.329129621277815
55.03377326233425
43.79090612551668
18.486611016667364
-1.6082350062675614
-4.689428685908863
3.439464848757486
12.643759461721897
16.586132586703027
15.684080373683603
13.66859406181603
9.835858876454692
0.9615127537237214
-11.873351154905425
-20.686940187968816
-22.573914763600698
-20.189077667216726
-16.099819647067687
-15.131445945849348
-12.322981301360304
-5.30325607204521
2.9261727660806858
11.99121128029776
19.01648451268712
26.501832405872623
27.628973565287087
18.698531776611734
8.832868797848565
-0.7761876307527513
-9.629674448906458
-13.337511257182618
-9.907519059936265
-2.9391983522336327
6.182482141987615
16.633528462279443
27.943020779092354
40.15305715338718
46.930214444888506
45.32915022053409
37.00586515612088
23.532788905872643
4.54825594528393
-14.576310785853405
-24.358945633160275
-26.33418541847884
-28.23021318357748
-34.47905798454785
-41.275528850540496
-41.84900653321889
-36.63446719045974
-29.63193063033483
-19.498621449412884
-3.46009663617019
9.25152713871412
9.780713541343632
2.08189036263891
-11.069907276529557
-19.78594771990631
-18.376532819378987
-18.20367141704141
-20.606704259019043
-26.5552448923092
-33.32081137701053
-25.870847763952675
-5.035147150404731
14.468606657809039
18.256447641709855
6.272890889361576
-7.744925123280482
-19.85544026603045
-27.932205369684443
-26.727279519930796
-19.919138009873
-12.753054570173237
-8.783196003051229
-5.262893729309488
-1.63380563308557
0.9753935580264891
5.877517736589737
3.6804482550142024
-3.0750227008296642
-5.832686056258857
-7.741307524899083
-1.3179131109562279
9.323379657421894
18.227902712621415
25.557690904408908
20.41475765810846
8.829374481592698
2.9312173783745203
3.891852935700492
11.882978999487264
22.474378780948758
28.089825889932765
26.111597886601867
23.518106081740097
28.960141827996992
42.399927502469104
53.34639550631784
51.277476447361515
38.81023721624474
29.23186342928442
22.298412017018236
8.815282513930063
-6.348302119335123
-18.196681133122137
-22.21180337624535
-18.219499584528183
-17.367260811036118
-19.928490472844217
-16.593176637846174
-8.220669116337112
1.666803591488308
10.785505936485444
10.798140479162672
5.970029359923053
2.6150075870396763
-3.0786375712236254
-9.665033834620806
-12.585539693348426
-10.356737564668583
-2.876037724168432
12.18684997985974
26.00313827859224
28.410412020212338
18.22109806839446
0.6228916137634224
-9.172565675628174
-5.768502512027238
9.897208233536565
28.6479373566558
35.88930509527408
30.973560588737953
11.56560444526531
-16.588596856761928
-33.26084300586644
-34.014772797426275
-31.023194955897658
-28.496848305248037
-29.77380621693623
-33.47512536719439
-24.611532965059002
-10.687080386737517
-4.275665235406706
-4.335371750451416
-8.489109173794247
-7.34691673072383
-6.15399329907337
-7.644611610085902
4.104274773494441
21.088056390904967
20.600673199462836
13.857532607854601
17.01654119777059
16.54651897392013
6.96780848033864
-9.228221335157714
-31.963420758161135
-48.49002903872019
-52.50759739934709
-45.35431093389913
-27.901286216821774
-9.437330085803142
3.0411792717628265
9.681796446715419
11.606766972751448
13.340679417010895
24.28918636960081
44.54001409481023
51.97522782744899
42.042828806556344
30.796242083956905
17.8749905011857
2.229227963211368
-19.892654418516905
-48.097920931574976
-74.70391901828465
-96.9250856316808
-103.40520160446272
-92.39648871077539
-71.19473538661168
-42.48004020238124
-14.749081858181574
2.93645494321465
10.679939003429961
13.183407376187597
10.178926992013192
-2.4545895779521305
-21.571311218730198
-37.57658689795652
-47.82548743847485
-49.34948232969914
-34.05650420313028
-7.263613084233621
10.297925539945831
12.825388343694454
17.463156149721488
30.78626415680117
43.69214110055882
49.38405050815287
50.210619232323346
46.231242100002184
32.2783325088056
18.490886372092664
13.827401285740708
13.485007207561349
12.700195968844838
10.393120536018738
9.603922639385548
11.766675122185802
18.00569707436426
24.010149654387252
22.73585915070823
16.874335719024923
5.188415777162209
-14.23903656150624
-30.43539070099006
-36.93889224033941
-33.892053099698465
-22.41006475128901
-9.369966931199631
3.655097658631945
13.608191010996226
15.702092271896218
17.363902598677935
20.961226957885092
22.255138544466202
19.25939523500935
8.26163462130351
-3.833794100470205
-4.449163642559271
3.2528266139495408
10.195497607947132
13.954578999803445
15.685410419401997
19.38386908004799
23.998989627773366
22.295221868840812
12.707218169195428
0.5830431772796792
-11.699223820094906
-21.145943529110458
-17.585383830922872
-5.191435669350944
-0.7636927169629492
-6.277042239687687
-11.332650749223529
-9.744873742600584
-8.198773157910615
-9.325327704446389
-12.660782818546227
-21.787201930415037
-27.776218866002782
-27.941759470643394
-27.632250657842263
-27.57269768005249
-33.34396125387836
-42.4789643496253
-45.90660681968935
-44.638212501017904
-41.24346053824747
-34.13748917990821
-27.742409299056032
-28.73608293449152
-31.727294979736918
-30.69446431552712
-27.12381923288114
-19.168730137612155
-10.07698272494152
-4.947644349022913
-5.196685740969272
-11.403853241348584
-16.112896035497148
-18.7946660701669
-22.297641890051093
-23.268992178705457
-23.737559573138093
-24.22597004476153
-24.356523805573865
-25.10940768817573
-23.152059225942434
-15.035879739384386
-5.400627779772193
-3.2656032756503817
-7.539102600699227
-13.716571758045966
-23.221527895951706
-34.63757867923164
-44.41831381493205
-53.59205240007411
-61.47310165965957
-66.20856785035593
-63.36702035295103
-50.04101643695082
-37.601611473409974
-29.460497094526648
-22.549956699025167
-19.56804838706176
-15.341277882687844
-13.506692526595165
-20.26980500178078
-25.84229865699157
-26.246381105839006
-26.452844410734386
-24.14613437788439
-17.966910437951075
-16.87642905828945
-21.586138400916806
-24.06747934164179
-24.344275782151
-19.96456840942296
-11.877905096419282
-9.458457421029943
-11.407639852700209
-11.195839967532153
-7.213719444507565
-4.771804879067096
-7.415772290496447
-13.2013410752374
-19.348836319762075
-19.880504877778545
-20.571292904974765
-23.516243382055748
-17.81906929962887
-12.000811657881565
-15.021883656545054
-13.094137814251612
-1.3384392740051498
9.552979906727346
18.231989326201283
23.03505381417947
20.984259429005526
18.00857126408178
15.87667551749948
14.765556279081359
12.655773058482241
8.045568476860035
4.898889926262757
7.116623625609144
16.398424504561543
22.803387132435727
23.301345513921458
22.48600138883556
13.328631299929311
2.332804815053147
-0.45695911828404434
1.7592940812390163
9.607372043859913
14.753511493391956
5.573779742948413
-11.392598819102737
-25.57337189525946
-29.57363781143288
-19.962416426916892
-6.561631434212813
-0.11392062724122196
-4.624587229321125
-13.600141629561561
-16.30815237043274
-18.908648236805174
-24.41673440356371
-24.65023749150372
-19.777100910989706
-11.034631356900533
-1.1691371383944218
0.6857468934565688
-5.505112627927342
-16.330390935195226
-26.61874866531551
-28.043821426779306
-25.548999597791042
-21.623859427219358
-15.986600272036933
-11.571561393551374
-8.113704417581761
-10.802225458567225
-17.909256238534855
-23.0559706607242
-26.993302153787248
-27.284729775244234
-20.295065853852936
-6.265111569481022
11.165218145798333
19.477271041882975
12.203185281875184
-2.8189688392066787
-21.593006156027162
-39.47595301332932
-45.58644690475717
-36.982589901531114
-26.630853631817683
-25.841659628905724
-30.187434597272333
-36.29445264662704
-41.48330635768988
-41.6404143767442
-36.57031463342815
-27.618205958319063
-23.098690677796935
-24.670030841589377
-25.06920101107919
-23.01438006201936
-20.56789456161515
-20.007111174218306
-22.665055741930374
-27.46296757854504
-28.086452524733275
-19.431238805651994
-7.15495578103462
2.635352949169051
8.72479997754944
9.586649741141384
9.020622386315464
8.97456965574127
4.602669741862957
-3.1592230653488897
-10.982557785188849
-15.599791586391303
-18.95724108155016
-26.641335531111903
-33.59919906431123
-32.72922050975565
-22.063135294966827
-8.108525973496432
1.4332477231065648
6.981445231121546
7.596783624511786
6.978808933690659
12.0547881705112
17.96766088829047
15.47774970916653
7.927046943970181
2.141778109806199
-3.9470110889664407
-6.1297598988974045
-1.2971615839639041
4.999781818355811
8.043466468380029
1.243551060305101
-9.119883671595975
-13.396946938457992
-16.792513496496937
-20.94767892202857
-18.127224532486416
-6.792214215574408
1.094908448483943
2.9004859397908085
4.584864950744981
1.1500949354267513
-5.6255593725731705
-8.33693466985353
-6.550588285522921
-4.0240341607203876
-7.154453006974499
-13.51109466622026
-17.162982748326822
-20.60950093690916
-25.892580511943446
-27.20218401264852
-21.56826762149117
-13.508804590565118
