AAD_Filtered_TADAS_FILE
AAD_BASELINE_CORRECTION: BASELINE REMOVED
AAD_FILTER_TYPE: BUTTERWORTH
AAD_FILTER_ORDER: 1
AAD_LOW_CUT_FREQUENCY_HZ: 0.025
AAD_HIGH_CUT_FREQUENCY_HZ: 40.0
EVENT_NAME: 202302060117
EVENT_ID: 13194
EVENT_DATE_YYYYMMDD: 2023/02/06
EVENT_TIME_HHMMSS: 01:17:32.00000
EVENT_LATITUDE_DEGREE: 37.288
EVENT_LONGITUDE_DEGREE: 37.043
EVENT_DEPTH_KM: 8.6
HYPOCENTER_REFERENCE: AFAD
MAGNITUDE_W: 7.7
MAGNITUDE_W_REFERENCE: AFAD
MAGNITUDE_L: 
MAGNITUDE_L_REFERENCE: 
FOCAL_MECHANISM: 
NETWORK: TK
STATION_CODE: 0215
STATION_NAME: 
STATION_LATITUDE_DEGREE: 38.029958
STATION_LONGITUDE_DEGREE: 38.556268
STATION_ELEVATION_M: 864.0
LOCATION: Kahramanmaras_Pazarck_Turkiye
SENSOR_DEPTH_M: 
VS30_M/S: None
SITE_CLASSIFICATION_EC8: unknown
MORPHOLOGIC_CLASSIFICATION: 
EPICENTRAL_DISTANCE_KM: 156.69
EARTHQUAKE_BACKAZIMUTH_DEGREE: 
DATE_TIME_FIRST_SAMPLE_YYYYMMDD_HHMMSS: 2023/02/06 01:17:39.0367100
DATE_TIME_FIRST_SAMPLE_PRECISION: millisecond
SAMPLING_INTERVAL_S: 0.01
NDATA: 4100
DURATION_S: 
STREAM: HNZ
UNITS: cm/s^2
INSTRUMENT: sensor = ACEBOX/SARA | digitizer = 
INSTRUMENT_ANALOG/DIGITAL: 
INSTRUMENTAL_FREQUENCY_HZ: 
INSTRUMENTAL_DAMPING: 
FULL_SCALE_G: 
N_BIT_DIGITAL_CONVERTER: 
PGA_CM/S^2: 28.820
TIME_PGA_S: 
BASELINE_CORRECTION: BASELINE REMOVED
FILTER_TYPE: BUTTERWORTH
FILTER_ORDER: 
LOW_CUT_FREQUENCY_HZ: 
HIGH_CUT_FREQUENCY_HZ: 
LATE/NORMAL_TRIGGERED: 
DATABASE_VERSION: 
HEADER_FORMAT: DYNA 1.2
DATA_TYPE: Acceleration
PROCESSING: Automatic Paolucci et al., 2011
DATA_TIMESTAMP_YYYYMMDD_HHMMSS: 
DATA_LICENSE: U (unknown license)
DATA_CITATION: Turkish Accelerometric Archive v 1.0 - Disaster And Emergency Management Presidency, Earthquake Department
DATA_CREATOR: AFAD
ORIGINAL_DATA_MEDIATOR_CITATION: : AFAD - Disaster And Emergency Management Presidency
ORIGINAL_DATA_MEDIATOR: AFAD PROCESS SERVICE
ORIGINAL_DATA_CREATOR_CITATION: AFAD PROCESS SERVICE
ORIGINAL_DATA_CREATOR: network: TK
USER1: GuestUser
USER2: 
USER3: 
USER4: 
[...]
0.5964037110578293
-1.079407598449576
-1.600673254119345
1.0139470187893544
2.9122081980330266
1.1088439381599067
-2.353797216128699
-4.160644597184292
-4.3099466517434735
-4.507731178345837
-3.6627006892505514
-2.4153500413790225
-3.9071711987278026
-5.438648265862485
-2.9480388779595272
0.5503607272549688
-0.0033562405082637956
-3.577398265709582
-4.578398406352988
-2.9993784171072764
-3.464619993828131
-5.291007998690823
-5.605451615779189
-4.455666431374915
-3.1155895146923087
-2.6679575906461834
-1.5927871464464494
1.290966585830175
2.852610890382597
1.295867536335796
-0.17948162474873508
0.4602800927219874
1.0210321177169521
0.8676369584315207
0.4208867817749257
-1.9991791614462706
-4.418175235275174
-3.5842204058522213
-0.5755491001170656
3.10345402168874
5.198604216375695
3.983260703562802
2.2464544306263643
2.9612274420941245
5.897899194780255
7.96891342783442
6.527205616001438
3.117862192594161
0.26717925157010347
-0.9780018791562745
0.18056629648722
2.9926633733668164
4.320606791785096
3.0277107205533436
2.2578933004999535
3.157175168343406
3.384695626136412
2.5970165431270624
2.281619206482168
2.8495907743441755
2.8534250417997824
1.4043061994246966
0.22595284243780855
0.6361265442326156
2.4106134134439374
4.058275183650288
2.9083131466245686
-0.20806517223603216
-0.970662006485635
1.901324717602848
5.868099394809356
7.3380981122989235
4.142921408132086
-1.1237689453588613
-5.03250652589583
-7.190739079623903
-5.1752184641222385
1.7837823256407674
7.547639359644918
8.385630961650874
6.645212322888716
4.925051455209016
4.089212287742896
4.0875020708759005
4.255191250873491
2.5906895534193617
-0.8817199701803158
-3.668811659961885
-5.054274751517199
-3.6905619228830417
-0.732550869021167
-1.3963851730167298
-4.0801908708748
-4.710069025760792
-5.41975094031837
-6.8123016087506025
-6.743837650315455
-5.14100910636219
-2.7342652003239616
-0.8550838517253291
-0.8239897609091914
-2.3098239227204114
-2.8835260920251353
0.23569302243700557
4.194605894402476
3.0721703224133665
-1.9991070884627333
-5.360074027164297
-4.90243493087137
-2.106808798573365
1.2367702838463885
4.054292300923097
5.210485651177574
5.205320094000528
4.685953246575275
2.6850704011957705
0.4609701501907826
-1.5200206040750848
-3.379409978060814
-1.7559122311746869
2.6301177692139603
6.570276799663695
9.712438722084181
9.067747025646824
3.588707136859547
-1.9380035228737882
-3.809107585606276
-1.676577025740693
1.3006269527786158
1.3057262577818776
-0.9776622199505908
-2.141588651815502
-0.0717913011734799
3.2142539536316397
3.0630513268862383
-0.29408787503913225
-2.9442163304240947
-4.461537407130083
-4.822794621975086
-2.532152255039242
1.141890457668302
3.6450394025772876
3.0582411608266624
-0.5663773666182998
-3.051799576012808
-1.6111894119050019
0.9079457235676228
1.4274866760723508
-0.08776850391326152
-2.935986990361541
-5.872517709508767
-7.059496927463333
-6.824653558373093
-6.473304088837596
-5.201198940858087
-3.048832445329874
-2.254925916095673
-2.5963720244107416
-1.5539161431607493
0.5057324230921657
1.1144059745887667
0.09647559039877349
-1.0927934995854776
-1.563967792768278
-1.5599730167677206
-2.9283589718601633
-6.005891070986512
-7.802603859318436
-6.836401465196855
-4.468343372542696
-1.8136219085800764
0.46260087582110454
2.606370665831957
5.334575950789849
6.545319072128276
3.692824380495475
-0.8150845222850067
-3.354200661830975
-3.64479664477901
-1.519499013336296
1.886354167256623
2.375345398274004
-0.4760219119735068
-2.4228993235651055
-1.7050404339222995
-0.4516318070265943
0.12950449820440393
0.8733822211606307
1.0842888311851058
0.8425360838904501
2.701874434958644
5.093071321901136
3.358677615577433
-2.0092407360497533
-5.002608596672464
-2.0267332762051304
2.7560215122429215
5.098174010033949
6.1227750047489575
5.914490515228263
3.6787806695784666
0.6192932775896159
-1.961823191645664
-2.2675148120158974
-0.39368467277515795
1.375506865999359
2.6934242104268833
3.838813142813922
4.555176791668095
4.392203705128562
2.6482844755510886
0.4068034930469275
-0.8411504074521372
-0.2881380886893378
2.434463938891495
4.316576913432834
2.324982383986793
-1.449723864310344
-3.5061568832959558
-2.905132312786742
-1.5280991407836941
-1.0965121382452503
-0.3750789802275829
0.4058638248689057
-0.32643596703155564
-0.3641715559348788
0.5562791601490188
-0.7560799509478415
-2.6259575743451196
-2.25467837592451
-1.2527713904127518
-0.9416173721403799
-0.8045575854264626
0.22766974059503783
1.7220453469213501
1.530941503820443
0.37876374260601126
-0.1316955088097782
-0.28023889090046916
-0.3373779688784777
-0.8492807732584318
-0.8361490767705337
0.049851434128585545
-0.4717466718792928
-1.8526490369361381
-2.6381069177525163
-3.141508857438707
-3.2545895172060324
-3.651598590114221
-4.558579497168595
-5.020848348477638
-4.337261172874456
-1.711497166239654
2.647211203672109
6.0959828814410955
5.081383015429252
0.38007279660003024
-3.0928611682854275
-2.811858124744544
-0.9792193607085381
-2.3640378977561882
-6.304824114730666
-6.139269088561867
-1.4502427171125867
2.535946313224834
3.518652607677084
2.540581398132572
2.050552428428382
2.251657176477324
1.6821739046839337
1.409451419350715
2.0954999222123822
1.5003833272526972
-1.005519134129084
-2.7196467615006794
-1.598527876810826
1.467651525804964
3.6143153530887098
3.556090446224189
3.238130093321012
3.106441387445686
1.3075091830510788
-1.8312840248129219
-3.1203841751457224
-0.33055466716098414
3.1403057660779083
2.986805345236815
1.3221616296653982
1.3181892124761418
1.596211498209525
-0.5185924740600116
-4.11721857940381
-5.396309424052281
-3.712570873241921
-0.7760134701279517
2.5218270237120692
4.4125728728136835
4.108745919882879
2.3732849434767043
0.2101485131374529
-1.0694273826940879
-1.9837496743235066
-3.4639679293493044
-5.496713297661703
-6.5469179818687
-3.39326383283777
1.7191969505359546
4.029448560688665
5.055515128097824
6.121166650014287
4.663401271166398
0.004514668488414787
-5.081686356944778
-7.432299539306258
-5.811277721589536
-0.47340894335970085
4.6256556758989715
4.503314927547195
1.0238515254195621
-1.8587070823746616
-3.7882184557434324
-4.509303404662983
-4.410751779276756
-3.8330590817688885
-0.5885732032943451
3.88205125928164
3.805605176093383
-0.9989160598512699
-5.681557714418048
-8.161205031806995
-8.111443692315337
-5.6164415699466055
-2.479715155881577
-0.20809371685852546
1.3172694229742619
2.8716437867988374
4.3633178954285
6.052104725684725
8.26444149956778
7.866238689061047
4.130422701206529
1.3680422613679057
-0.31087125589001496
-3.022443985279052
-5.500293315789141
-6.413548715512912
-4.706766472020914
0.020386758020388362
5.597788643800064
8.728592300310499
8.18686750964503
5.2727465791876105
-0.050161290849289
-5.669000218624693
-6.023930818278795
-2.1793609510254854
1.871363346619284
6.69978363037689
10.844409428166493
11.477844116102414
8.892062396163485
4.601925556606033
1.7554593135413135
2.0745913314748123
2.397237839975024
0.6265760672291113
-0.4931279736297439
1.8503976194330172
6.934237511190971
11.015781078207063
11.184475057838517
9.195999520591704
6.813647772554265
4.379602379282087
5.482487686335501
8.98606929507199
8.222771558487002
4.543568286688946
2.0169934686631223
-1.479470982923379
-6.425514461390594
-9.695620929664544
-9.394727669000634
-6.055376799836271
-3.7293140966725375
-5.981753861734446
-9.683313290125467
-10.469586474272624
-8.982298675923861
-5.06485226476977
1.8108638849176228
5.502248273277901
1.424044214162807
-4.051467319666253
-3.8798429959734144
0.026573979175970527
4.647421980220007
10.197199308721988
14.423254849009666
14.320280245832155
9.759671084604872
4.180307833517505
4.56792804914973
10.912957741915335
12.110639550766345
2.7632864714659497
-9.053996818830218
-15.514160233646896
-16.70294707266209
-13.161843969336209
-5.200877452267506
1.561685368421005
2.156374118715837
-2.1486039126283694
-7.279541267523394
-8.392469786285488
-4.209548518494053
0.12730402349326653
1.4452592973585978
1.76492349044086
1.6856084213454114
0.7361360284239212
-0.4240564191838253
-1.2831814562281483
-0.19609263944579458
3.4259685650621163
8.156557292511252
14.15978231681026
18.84012339781536
16.90942627817432
11.171333522383385
7.824963760485846
5.131400921549488
0.6535131770215027
-3.8688620288149274
-8.346960957904416
-11.621586936445771
-11.386489163128706
-10.252434034354222
-10.821634609548997
-11.472235365831219
-11.186178004004164
-9.412102399602661
-5.715841496009161
-3.2387950288357006
-3.785972289992267
-5.3759815720592306
-7.486098831492649
-7.905725413868169
-2.879317212312233
4.929380889448429
10.026872472800484
12.241800314867938
13.640566230462328
12.501503320527664
8.50894574484417
5.753175267358446
4.595003229050359
2.052251602286089
-3.2004161503414785
-9.959199846631465
-13.268817488755605
-10.87206475808109
-8.522737165792432
-11.325498612508412
-15.07206588203705
-13.779540235046978
-9.863135861367166
-7.761196148771951
-8.29171138378452
-9.072556871094013
-4.4597964596653
4.063823995395729
8.45345879398824
7.050196133133336
1.4382802980342186
-4.753970105705879
-5.0437893327154875
-0.1018167039863283
3.9941223510662156
4.1340402017154325
2.6355782042252223
2.9437453346364215
2.1344081334142015
-1.342428430145749
-3.150834919372871
-1.0801660644631665
4.464851626807673
9.030680057937529
7.920528251346977
3.42100944022603
0.2924993960485181
1.754344377716333
5.49456743169727
5.652406405966351
2.3352721751002385
0.895784326045311
3.1482202245305775
2.1970083114425853
-4.538473492639349
-8.164997037313137
-6.073277316005168
-2.3524867175022166
3.3284170368709813
10.626443235177174
15.188382880250005
13.318611525740934
7.524711743141074
3.0860413604917833
1.033421989681497
-1.379150508877226
-7.718161690158878
-13.322507467512326
-9.07815977207539
1.599254869652203
9.543865663995094
10.876728464454333
6.5983865552230645
1.4998234504564412
-3.5834262067741127
-6.412242685851924
-1.7869533403054867
3.5832374419097595
3.1461322487914374
1.483535522231088
1.9196927187013557
4.202873200194142
5.815228161005538
5.296234223065723
3.552385770885127
-1.7521315639334412
-10.542767744431183
-16.708806858427916
-13.882934205233425
-1.53462662430218
12.33373892239587
19.192557457448213
15.672462684082769
4.100143718888795
-7.123168522437007
-12.638447337765262
-14.407502837550531
-12.732413168965882
-6.030329937349912
1.059246625640983
2.4257441024115525
-0.6646292527653748
-2.912771690033985
-1.0779012231173033
3.2713026724061645
5.462887331434442
4.53325056334276
4.113307115671549
5.661703886960207
5.916426553533755
2.345361584801989
-3.3542690807459596
-8.953409762117001
-13.37324363500645
-13.073782156784082
-5.16433955807349
6.538734156408485
17.603935627452916
24.763029600681083
22.723922945212326
13.457223619503672
4.504611833485851
-0.3598477866490134
0.2771885970928509
2.1362170787397172
-1.822563163384584
-9.115639812225986
-9.553045032911541
-0.4942488648656269
6.235126922618543
0.8874579580623163
-9.022983378706913
-10.830319719319998
-6.030153205520675
-2.934876079851134
0.9308323894584813
7.435259741901491
10.121477843304678
7.163859726910912
0.44674882344617006
-7.5138298978695675
-12.58077769786561
-11.453998597502045
-4.535540726430974
2.385788190864165
6.857795069555756
10.802019192904561
14.844993581555675
16.97600628228581
9.18879284185897
-7.15590250744426
-16.597489825248225
-14.549422111467637
-8.814626513856892
-5.25676109055127
-4.93080576166854
-3.844337239981591
-0.04033075854613341
1.1116429412981919
-3.4594590006733967
-9.296842314882328
-13.11557815042875
-14.909147422078426
-12.772665307636768
-5.135953092590752
5.033983810841826
12.178202240959948
12.993963497979658
7.6936437378761715
1.2233500971642481
2.149155652743505
10.846714867916633
15.13480590035339
8.054611817123256
0.1953915643074284
0.3149653832317795
2.0503231221483023
0.8670097572458194
-2.5549071636400225
-7.7153198423936535
-9.986528073090838
-7.78088007837928
-4.140086790521161
-0.25832194841106565
3.6500580114633077
7.394562634353569
7.38435439836319
3.074969806686174
2.0993423522491224
6.020029604770737
9.132449438368917
7.797427368791168
3.323314033694968
0.37114934623142604
-2.47965821321372
-4.932977630006433
-2.0991449596444176
-0.31543193328503666
-1.4225027505957284
0.9984304738173032
1.503822891184798
-3.168803256739711
-7.340450307776699
-6.263097031757062
-0.48546697231943053
-0.5177380835181606
-8.611534923055341
-12.458187926163916
-6.71585458591566
0.2551906694125768
-1.8814968220217374
-9.882195619693285
-17.10576526230354
-23.43401801574983
-22.873815758714525
-14.920856603336208
-5.088177284605797
8.303374538885034
21.03382729674243
28.04103387578262
26.852074342961636
12.02216912508414
-5.115338845009209
-10.84117466160223
-10.29604586166237
-6.137624499537264
-0.8928606099130293
-1.9496801271092625
-4.36006608882805
-3.8394540073437744
-6.195792661786887
-12.108133994149707
-16.17447412645574
-14.611103541795913
-8.526871465911945
-1.584679723573228
1.8407447172009288
-0.33873368356603883
-0.1521086144024336
7.49663552456488
11.514302817959003
3.455470970739445
-8.256918143523276
-12.005290153706556
-7.672757188229894
-1.1359897304790962
4.388145393582949
9.167205663667694
16.62308516953263
22.90670925631254
18.542399551223905
5.158984718353828
-7.820125205342915
-11.965447061286135
-6.336214458812056
2.1459435997857734
12.531382769165022
22.993326789625087
23.94736463462508
14.654395833893846
-0.0549187123059057
-16.308659831869292
-24.731199937318568
-23.75891085891516
-20.353113076470073
-11.614686624606152
1.816409564620285
7.8755455726146435
5.246195209464577
0.049376074709452544
-6.656827384550388
-8.448127423220894
1.406584907012784
14.385689070077628
21.23370675560522
23.157522022441892
15.52344187844832
-4.237388860257184
-20.86771723740181
-23.191643603271732
-16.20323658549963
-7.880301337944695
-1.8273437584599757
3.212626837042568
6.971524870439164
6.403911551328494
1.0289667101140365
-6.217472650627026
-8.22056579850679
-2.363492109316616
2.7528506832013826
2.988876983920674
4.73731904971318
9.064655708339986
10.041766994836754
5.725163930347117
-1.604354028375587
-10.14889648069874
-18.240994091603728
-20.449483260575327
-13.896254291190761
-5.991625031786183
-3.002696016461152
-2.305124297990734
-0.1004454389225879
1.9593215636612136
0.8523057329788758
-0.7661003373358052
-2.3121216233739763
-5.207181551046837
-4.977887262335434
-0.08687714097399026
6.746946083326662
10.975183410663465
6.596863573748626
-3.6026382409846636
-10.955584273707755
-10.386178075211797
-2.0155301299247568
8.15449797258674
13.606101622990053
13.027992759417202
6.4839135233300125
-5.453475447581768
-13.814855317141166
-11.575542027363321
-6.494556939341172
-5.274478890717757
-6.802314885050441
-10.228369602169279
-15.325295745845263
-20.088598744417695
-17.31771250446133
-6.213059700133022
2.426680758492729
4.966804050979502
4.905579397477242
1.0623432723209711
-6.812862179790526
-11.798284041878894
-8.485997643631103
-0.7380829159762083
5.752246417363939
7.45254952735608
4.066396213997703
0.2615194014962877
-2.750041693257963
-4.995070392695845
-3.596672190785015
-0.4387853771412611
2.154378255756629
5.0474473828873885
6.228068762457388
2.887604118150793
-2.564151429538967
-5.775838334107503
-8.53389648941569
-11.061484976093913
-7.648623826447492
0.26253588508175574
6.998477060631757
8.986569552222718
5.231229702501425
2.0613704878594916
0.44251306401323776
-3.7104230145625694
-4.809497533411861
-1.5862971276212188
1.111804879778026
3.954684098270797
5.623856231324315
6.263562926455634
7.474298529995987
5.457026819607264
1.911871196212031
0.042826013693127316
-3.3229296899216063
-7.423276099165446
-8.145103675546965
-5.40721731887107
-3.862792647499171
-6.474684375305315
-9.444053309109558
-8.711255445643946
-3.9501809576791787
0.8591208610270072
2.3459401407138656
3.3623053705561037
4.946682687827317
5.260611810983657
3.912380714197946
2.0678007865559853
0.7935468803123087
-2.497846967543455
-5.135676218973567
-4.313821673771855
-5.69909277552311
-6.396191335182262
-1.762380127586982
3.9225820191127094
8.005325372023957
9.631661403248511
13.299693815478099
18.56999853748873
15.469450325690342
8.30079435498363
3.976726746168659
0.07889605499717138
-0.6688278679854543
-0.7691961434544468
-5.463984055824151
-7.995848435877441
-2.8348526176333864
5.241207653479256
7.89730503451189
4.385016212985641
1.983399843793749
2.8398409761145356
5.234560902964127
7.748456790137416
7.990054954482329
8.020828780296538
8.54088244493863
5.67827859237431
1.0799373863736295
-0.5964890189721577
0.572685001328898
0.40379963355495024
-1.6865690760342373
-2.628015723448736
-4.908024160513752
-8.137704849132543
-8.17446306223868
-7.851138496516279
-6.400035142809705
-2.3005214700996506
0.5260500050622474
4.878338981820698
11.374062732852906
12.739457972454858
7.617301399555256
3.631921787786195
6.520397226516916
8.130316450137432
1.235320506426538
-6.372697610623667
-7.802539573696033
-3.005091410000828
1.0519859857831009
-5.291020137040281
-17.06557633369387
-22.547324989998536
-18.028354446592466
-7.641346490963672
-0.48843878157151477
1.3325073528947826
0.6150503647734524
-3.7991887967424747
-9.106459543783258
-10.949484841860441
-7.59122972159109
0.16856429830305303
4.250980113004128
1.8387108900962184
-0.3997799871746823
-2.5061964352214523
-6.783352495603004
-8.24191089573178
-5.455033694158503
-3.179597298309604
-1.3453286469867447
0.9597062841349049
0.7836341214849851
0.15157495274738098
1.9014979234474667
4.280525564814605
4.963078871651052
0.5406012099492878
-5.294750637770168
-4.569719707862443
-1.4600022728911222
-2.08169731715961
-4.7913625302441805
-7.360551460515257
-6.929315849372307
-4.998127823174884
-6.122209196084443
-7.527962404419972
-6.224485197587578
-1.3823207977639074
7.3830533860293
12.48213574151867
10.712920349972377
9.166641498510927
6.940529706617799
0.10603910233079279
-4.878009825977607
-3.422298622224232
-1.8862077426166959
-3.4819202070465742
-0.6875439769788229
6.617150166081956
8.341417091652133
3.577982201361239
-2.85229098022459
-7.874590165839062
