AAD_Filtered_TADAS_FILE
AAD_BASELINE_CORRECTION: BASELINE REMOVED
AAD_FILTER_TYPE: BUTTERWORTH
AAD_FILTER_ORDER: 1
AAD_LOW_CUT_FREQUENCY_HZ: 0.025
AAD_HIGH_CUT_FREQUENCY_HZ: 40.0
EVENT_NAME: 202302061024
EVENT_ID: 13207
EVENT_DATE_YYYYMMDD: 2023/02/06
EVENT_TIME_HHMMSS: 10:24:47.00000
EVENT_LATITUDE_DEGREE: 38.089
EVENT_LONGITUDE_DEGREE: 37.239
EVENT_DEPTH_KM: 7.0
HYPOCENTER_REFERENCE: AFAD
MAGNITUDE_W: 7.6
MAGNITUDE_W_REFERENCE: AFAD
MAGNITUDE_L: 
MAGNITUDE_L_REFERENCE: 
FOCAL_MECHANISM: 
NETWORK: TK
STATION_CODE: 4408
STATION_NAME: 
STATION_LATITUDE_DEGREE: 38.09616
STATION_LONGITUDE_DEGREE: 37.88732
STATION_ELEVATION_M: 1215.0
LOCATION: Kahramanmaras_Elbistan_Turkiye
SENSOR_DEPTH_M: 
VS30_M/S: 654
SITE_CLASSIFICATION_EC8: unknown
MORPHOLOGIC_CLASSIFICATION: 
EPICENTRAL_DISTANCE_KM: 56.74
EARTHQUAKE_BACKAZIMUTH_DEGREE: 
DATE_TIME_FIRST_SAMPLE_YYYYMMDD_HHMMSS: 2023/02/06 10:24:31.8517900
DATE_TIME_FIRST_SAMPLE_PRECISION: millisecond
SAMPLING_INTERVAL_S: 0.01
NDATA: 2886
DURATION_S: 
STREAM: HNZ
UNITS: cm/s^2
INSTRUMENT: sensor = GMS+/GEOSIG | digitizer = 
INSTRUMENT_ANALOG/DIGITAL: 
INSTRUMENTAL_FREQUENCY_HZ: 
INSTRUMENTAL_DAMPING: 
FULL_SCALE_G: 
N_BIT_DIGITAL_CONVERTER: 
PGA_CM/S^2: 275.292
TIME_PGA_S: 
BASELINE_CORRECTION: BASELINE REMOVED
FILTER_TYPE: BUTTERWORTH
FILTER_ORDER: 
LOW_CUT_FREQUENCY_HZ: 
HIGH_CUT_FREQUENCY_HZ: 
LATE/NORMAL_TRIGGERED: 
DATABASE_VERSION: 
HEADER_FORMAT: DYNA 1.2
DATA_TYPE: Acceleration
PROCESSING: Automatic Paolucci et al., 2011
DATA_TIMESTAMP_YYYYMMDD_HHMMSS: 
DATA_LICENSE: U (unknown license)
DATA_CITATION: Turkish Accelerometric Archive v 1.0 - Disaster And Emergency Management Presidency, Earthquake Department
DATA_CREATOR: AFAD
ORIGINAL_DATA_MEDIATOR_CITATION: : AFAD - Disaster And Emergency Management Presidency
ORIGINAL_DATA_MEDIATOR: AFAD PROCESS SERVICE
ORIGINAL_DATA_CREATOR_CITATION: AFAD PROCESS SERVICE
ORIGINAL_DATA_CREATOR: network: TK
USER1: GuestUser
USER2: 
USER3: 
USER4: 
[...]
-0.1603662825282863
-0.15658749958263563
-0.15908170768564162
-0.16386673325069256
-0.16806250066062
-0.16608262193659912
-0.1572564129178986
-0.15506769898852357
-0.15871709805577822
-0.16565941265805406
-0.16836376771591255
-0.15969759271285333
-0.15899021418456377
-0.1648175215246978
-0.166916652158817
-0.16953568883238934
-0.17070769515233591
-0.16575521129250662
-0.15785585183638856
-0.16107511732277324
-0.16862529847524826
-0.17042842382653978
-0.16868450269931656
-0.16384977239739618
-0.16255810684334165
-0.1584881574524624
-0.157212200310893
-0.16647153663901357
-0.1711352564368676
-0.17048294209617104
-0.16900884010444728
-0.16756490289832549
-0.16787275448674524
-0.16866126880581164
-0.16802780241676452
-0.16753161868387872
-0.1675545997832683
-0.16241476672999589
-0.15893378264491037
-0.15951590909453728
-0.16469234000873076
-0.17281079468074403
-0.1733399849607987
-0.17224177313210598
-0.1664874373634882
-0.15880413361368445
-0.15937024528263666
-0.16200959085170039
-0.16691944114346435
-0.17262283544545742
-0.17516611871163978
-0.1710815659969304
-0.16547920021064486
-0.16458062732892426
-0.16540689412410275
-0.16907735371376786
-0.16874580065127998
-0.16535534798170276
-0.16470462490386018
-0.1661901313020177
-0.17050441669456926
-0.17082224764561932
-0.17082084123548225
-0.17470507725255965
-0.17640823292992724
-0.17235968500442936
-0.1663476933361759
-0.16585390566914326
-0.1668659501991357
-0.1710292302494767
-0.1741686803216101
-0.16939639463435266
-0.16846219004547586
-0.16910558069459858
-0.1691415183293662
-0.17144609884970996
-0.16690985335872582
-0.16331623282166763
-0.16787252980104506
-0.17219214722176807
-0.17956225121370595
-0.18242444619692738
-0.17170120770012792
-0.1669332617402413
-0.16816111154227842
-0.1682960315635597
-0.1691835175862444
-0.16557188637810447
-0.1707218414212375
-0.17434361368948187
-0.16580299016320316
-0.1689536526151943
-0.17398922981810028
-0.17315633249150317
-0.17883617427610304
-0.17825143138280844
-0.17086227993115882
-0.17008589870710272
-0.17300191199749376
-0.17521018172001304
-0.173462714710151
-0.1692237460930411
-0.1715525090353712
-0.176218705009215
-0.17811802857230546
-0.1780885301546007
-0.1721823980238633
-0.16829993448312605
-0.1673162144715296
-0.16819178479086688
-0.17791718037159898
-0.1807682380031505
-0.17731142654703008
-0.17824596741236237
-0.17479041266630385
-0.16691410201550164
-0.16267606255609382
-0.17011836009455783
-0.1774813792967707
-0.17526565446467707
-0.1751840303563256
-0.17852431146999836
-0.1789408343609492
-0.1786884904922994
-0.1842629081039081
-0.18196300090577516
-0.17250470362689857
-0.1714114628940505
-0.17233733560229647
-0.17634973555657593
-0.1789785959023315
-0.1783858548448949
-0.17904158255711022
-0.17533877717546353
-0.17405755836378148
-0.17644560197048134
-0.1802931071099823
-0.18182291516777527
-0.17629889111123867
-0.17241497535384698
-0.17182097074350805
-0.17621801268747778
-0.18100611364747152
-0.1783341984088906
-0.17750294509446846
-0.17906869389654873
-0.1768648314531892
-0.17795541872645676
-0.18422535290496528
-0.18510424644763984
-0.18088597769305856
-0.18064053290747162
-0.17994294020964935
-0.17399136858075284
-0.1715096554841395
-0.174714883850711
-0.17756788858643682
-0.17883075177682212
-0.17952747985375844
-0.17894331450051937
-0.17666108769198113
-0.1777944332674694
-0.18581041685671906
-0.18893554098393378
-0.17945303746948063
-0.1691561578080295
-0.17105407626558827
-0.180853302295012
-0.1834766865551497
-0.1813173267912276
-0.1810079373342505
-0.17838747100441732
-0.17929976401676984
-0.1848799264103521
-0.1847417045634566
-0.17987055286358017
-0.1782024806453699
-0.17980792433214493
-0.18248760678916787
-0.1855946696885813
-0.18495105248913096
-0.18151368305322219
-0.18009298803139867
-0.18176486817767457
-0.18166496968206564
-0.17874423526772493
-0.18000766823092967
-0.1840387497704234
-0.18665305339650123
-0.187630816752893
-0.18610788148557678
-0.18174519187317206
-0.17805350391122798
-0.18108348108047456
-0.18656630389280293
-0.1870666827331387
-0.18480941978714377
-0.18219661646760144
-0.18173062731935752
-0.1837011946800811
-0.186387075095995
-0.1883108341193243
-0.18572036315526225
-0.18072904742716073
-0.17736217173137256
-0.18317071649096583
-0.19096138158839662
-0.18714570653290497
-0.18473479765284878
-0.18533776915446576
-0.18264339098756474
-0.1843757226107281
-0.18600873030348894
-0.18161448191402538
-0.17892394184337856
-0.18575837358416625
-0.1920444345206035
-0.18820916996681214
-0.18619943803079367
-0.18777309949378335
-0.18340643816305274
-0.18246344449901697
-0.18879385015646286
-0.19023553913769903
-0.18691085677226416
-0.1856259361496636
-0.18703006289769383
-0.18510402077807192
-0.1842879541344472
-0.19015961231679196
-0.19438010722390536
-0.1949237496518277
-0.18989151657704653
-0.18437537148614583
-0.1836246134525376
-0.18456777613440883
-0.18876204319826617
-0.19031425040234667
-0.18928741163633492
-0.18879033385256802
-0.18528273902567796
-0.18449054714001134
-0.1881975909685739
-0.18999951481405797
-0.18786799973262855
-0.18578322656163024
-0.1874021657299816
-0.1881130618522902
-0.18673786342430224
-0.18975785554619173
-0.19288685588121596
-0.19223091828366984
-0.1909536234662074
-0.18509734783372878
-0.18217208816987074
-0.1867762118728204
-0.1908715319659659
-0.1948238980591494
-0.19707634136750807
-0.1956821471511093
-0.1896803453189191
-0.18525244816972344
-0.19022278660472622
-0.19549655299596985
-0.1937466894263366
-0.19008642553444793
-0.18799414763280575
-0.18981254040427187
-0.19414412994873115
-0.19326920367875633
-0.19092974834021925
-0.19247557052870695
-0.1930219447087534
-0.19035243854870845
-0.18952174340847608
-0.19010919582841387
-0.18918986403633387
-0.19432963078882043
-0.1999031276597108
-0.19603421226118206
-0.19070627359890482
-0.18730830691910144
-0.1880322420636047
-0.19351635778797754
-0.19597864701125906
-0.19429013344285906
-0.19373688946503723
-0.1959387064435274
-0.19438342830765007
-0.189649110066995
-0.1863467885064502
-0.18820155690942134
-0.19663844878662312
-0.19896580073582243
-0.19557814590023628
-0.19216489962921116
-0.1887729846819465
-0.19321684444766107
-0.19934752347112378
-0.19892343213922548
-0.19575979089979206
-0.19262577671292153
-0.19340352933568816
-0.1959134573738708
-0.19636088465715862
-0.19648432150085798
-0.19500897456781835
-0.19611387075047804
-0.1978638161877037
-0.19595096111499646
-0.1943374111224399
-0.1908122258249959
-0.19336284158294242
-0.20183062359630177
-0.20099923480207224
-0.19608236996549316
-0.19541069875571432
-0.1965004341597842
-0.19669131979807647
-0.19518413353399805
-0.19728755197767978
-0.19931356669473177
-0.19490878136270845
-0.1945686449013437
-0.1988242165603577
-0.20112430836659728
-0.20029907505288747
-0.1971469431139151
-0.19792909611669207
-0.20003974331031876
-0.19735473932571282
-0.19417646108924314
-0.19733091345431952
-0.20176368986461365
-0.2012254690350498
-0.1975347818024651
-0.19369348872613223
-0.1938565396043071
-0.1941380202698172
-0.19455494467983891
-0.2001926674971629
-0.20159416424820326
-0.1973092403438066
-0.1978867955935157
-0.20167236350092377
-0.20068230097677203
-0.1982049710680588
-0.2006053574966874
-0.20110735951585051
-0.19806704364256367
-0.19781459930905498
-0.19830094452027114
-0.19586425285821957
-0.19472317075398504
-0.20272259180334007
-0.207819233187149
-0.20340785048504692
-0.20031536999325003
-0.1975395308760137
-0.19833178832792753
-0.1971117777490515
-0.19495936301495065
-0.20327973891862794
-0.2089973435020898
-0.20916666613738102
-0.20530026574629084
-0.1995771455372632
-0.19990560088021742
-0.19950786590347747
-0.19928523951180077
-0.19975724917968865
-0.20007047478349002
-0.20301185073716937
-0.20304260208345087
-0.20004691363263022
-0.19918593711602423
-0.20370723693009388
-0.2080273728344515
-0.2063664272205655
-0.20324524530160337
-0.20204942176625013
-0.20085658473684181
-0.19888159853461979
-0.19946497065940047
-0.20482029080051992
-0.20793254454480942
-0.2051244129855203
-0.20435410212178456
-0.2047052365194303
-0.20350567530747093
-0.2017257557426964
-0.19632699175223683
-0.1982681130511677
-0.20803217616196606
-0.20752483949140965
-0.20166219344944464
-0.20030051988538944
-0.20115939047600098
-0.20441418299010344
-0.20487570467561117
-0.20420967583477503
-0.20666601726267864
-0.20811725354899072
-0.2087043958469038
-0.20502693422424534
-0.1994133437758285
-0.1969528224641723
-0.19955660663634728
-0.2074166635383215
-0.21003814677078403
-0.20904741758173143
-0.2098962056883757
-0.20863259728831635
-0.2074666472757286
-0.20566569573350785
-0.2030162571065556
-0.20374419538735433
-0.2082396631691135
-0.20943751663514665
-0.20486357897973356
-0.2040195609982946
-0.20598383276746052
-0.20906272182786695
-0.20921666248312182
-0.20556747079646226
-0.20719203596481522
-0.20828602397582846
-0.2090598889332962
-0.2082314617563152
-0.2052806658097127
-0.20772779042869527
-0.20761965749646813
-0.2046969163186657
-0.2053683595595436
-0.20793297817480436
-0.20992121578254025
-0.2094548049874822
-0.2084745259166181
-0.2097177071177323
-0.21178629265533144
-0.2102957150399897
-0.2049369590778758
-0.20469298051515883
-0.21047004239659628
-0.21199581513027196
-0.20960601199673026
-0.2080381636866506
-0.20683994921042767
-0.2042809252401232
-0.20614328327882814
-0.2124147172280182
-0.2109435442301245
-0.2096904156482883
-0.21224802440080295
-0.21247043369206142
-0.21329250214459872
-0.210280942119975
-0.2072659440984376
-0.207395560844344
-0.20984512382285186
-0.21385184985887343
-0.21176774843803364
-0.2104351679544912
-0.21381737078446714
-0.21401045977264957
-0.21229889489672693
-0.21038429568225336
-0.20857695761736206
-0.21024729685358298
-0.21406455601800864
-0.21560454876974988
-0.21535980818889963
-0.2170040256073792
-0.21494069504252417
-0.21006504300161666
-0.21074663025212373
-0.21075646848960053
-0.21051979011453328
-0.2117805221788272
-0.21404048437106865
-0.21853044568710223
-0.21619405294765648
-0.21380791704706228
-0.21360790449335826
-0.21151318469941838
-0.21313045844580564
-0.21187664709680137
-0.2105187168034789
-0.21391928882363298
-0.216460279227327
-0.21629710944607614
-0.2165299232390378
-0.21499442493080584
-0.20848327752204066
-0.20882873250850462
-0.21332825470755512
-0.21590095389880135
-0.21454942404567234
-0.2108855410715103
-0.21585262175394315
-0.21720268075240323
-0.21509871691243382
-0.2163245875212671
-0.21369873836924955
-0.21323343580634296
-0.21363033521870603
-0.21593986819297192
-0.21962256426996274
-0.21534918263838293
-0.2145437838665484
-0.21726660846810744
-0.21720993570168068
-0.2195468947717283
-0.2167428688581549
-0.2142082863756836
-0.21624577926691743
-0.21516991776259448
-0.21724670300025392
-0.22045958475324215
-0.21838446906665526
-0.21469299564456223
-0.21633922872811262
-0.21742231256246286
-0.21428343961239413
-0.21663010149013825
-0.2173569833660226
-0.21616281303525103
-0.218104324148356
-0.21981886589132818
-0.2192931845944943
-0.2163812531512572
-0.21625806977348533
-0.21667605980051674
-0.21779787417280105
-0.21973524048309498
-0.22203718863722377
-0.22062154609676515
-0.21737694849578917
-0.22192816592551534
-0.22250436621567668
-0.21941896641295416
-0.2185946293822123
-0.21721096944191956
-0.21807484121296478
-0.2174009666831886
-0.21849146535814798
-0.22220931654833975
-0.223798038917356
-0.22293975835953808
-0.2201926363477375
-0.21841279753249576
-0.21673383474164962
-0.21931766824366106
-0.22266720031638193
-0.22189732070478063
-0.22714278796495108
-0.23715387304421875
-0.2515757731091067
-0.2723426973023616
-0.299630386256402
-0.3399957112436762
-0.38928958213689
-0.44685828093505076
-0.5190887564576301
-0.6068120395025915
-0.7097656633664753
-0.8219728804711721
-0.9280326754854451
-1.0138469170902544
-1.0805588840700784
-1.1452672459741453
-1.2339619543286569
-1.351983148756912
-1.469310544424996
-1.5526192185232464
-1.5848453262573068
-1.5638159463684391
-1.4889973276047281
-1.3778348566782657
-1.2760140512613491
-1.20847926549276
-1.1550187365572078
-1.0763062604204519
-1.0053309223883484
-1.0207199532417892
-1.1106940998557755
-1.2152319629819142
-1.2500051193265345
-1.1489264259660814
-0.9523919493953352
-0.7029804778550556
-0.43030385989005593
-0.2288850731825106
-0.1782364963323882
-0.18250800960500663
-0.016591790636239917
0.4168292561554494
0.9696651628574189
1.3462342813763384
1.4118423602483157
1.2860775869705439
1.096480395015985
0.9591917500663026
0.9964604518508862
1.236422134412302
1.581604732611714
1.8804939793617605
2.0582039888345833
2.1388010015331824
2.1506397908264656
1.9957996985548954
1.5685081996444412
0.9165378036584464
0.24830961054369882
-0.08834245050740117
-0.02029408536657676
-0.0927696144046541
-0.7262854911929646
-1.5314777592997124
-1.8032740016075604
-1.2588275844670052
-0.20477381781868698
0.8354845132598886
1.1755155110702757
0.5563056033679054
-0.18729520529994076
0.00622890910000265
0.9814170130095172
1.9482660875058138
1.9442472517291778
-0.34635327755396295
-3.084980143128724
-3.9069832887390836
-3.0752061108888573
-1.3817764128553391
-1.1407822900002034
-2.0450671840823307
-1.7019455404600792
1.2763566111807607
6.8467808712835945
11.09639388919631
11.415101764303515
6.1997446036940245
-4.375128989728668
-14.119783888531977
-17.51339204116716
-14.58471726856935
-9.304929380792988
-4.574354852377879
-2.2764618383771307
-3.573758891757099
-4.91929761074135
-2.462040463163617
2.82046751395461
7.287951374689313
8.243952831515976
5.332648370635686
0.08140786405838749
-5.749665373453172
-7.728376552692552
-4.868996246780167
-4.46243663486866
-6.428993799395106
-7.299675606070932
-6.83031032248717
-3.8795666638280615
-0.17172336266506008
4.01520753813047
5.601086699167739
3.9312535502107218
1.6636624366136328
-1.961976768843622
-2.5900905811484844
0.760974526427205
2.9150242406647493
0.040551942523547324
-3.8574849246090874
-3.3166694908224423
-0.8702542585190093
2.6227529207609237
5.4978565045057
5.575982376685737
3.165823592196156
-0.43457115532985147
-2.903494362474907
-4.121922533040186
-4.061651005256238
-4.656490949733028
-7.060102578805178
-9.260014292834398
-9.756093709000048
-8.398864481130484
-5.359254766585053
-1.60610702261582
1.816430674192627
4.648748859667971
2.8810325350913435
-3.367026045166034
-8.99298524539482
-10.541849152601571
-8.790215958687796
-8.737421652980823
-9.814857647679172
-10.438611084458103
-11.440315786624081
-13.326065413416186
-15.360079321565443
-16.156683772478125
-18.222158341569184
-21.126575036869692
-20.59693109978229
-19.0710185065266
-20.06114526993737
-20.57119203751625
-21.275772976100463
-22.75323300397464
-22.569591670266814
-24.77331837950647
-34.08988140735151
-47.755679774164484
-58.03367112154024
-57.859038506298134
-48.73102512700839
-37.58632903722065
-26.36364956902136
-22.133715606076997
-22.499612236640612
-13.991699864755889
0.06677846092401588
13.327954887396093
18.856161913885416
16.031589911727625
16.468017232274715
18.101799542575417
18.790309385462383
27.3307202267217
36.52938423697092
31.61120084547014
16.017302101211822
2.204607734907113
7.129164971697303
29.46076332358879
33.59295594847521
12.059359766762586
-6.200466527800361
-5.11193275072757
2.4789577734199737
-7.3370495303923695
-13.920666689873713
-2.6124735540842945
24.313695618472586
101.20375734004341
202.80953808642406
268.64092271033616
255.85368475542515
169.95801976471523
110.5406812028618
92.26647383949789
61.19137770140073
16.43687275851074
-31.170742871308704
-61.4428445254739
-107.21652961095624
-159.85574050839315
-156.09028334739756
-142.61477604339788
-145.82582333912248
-115.29774289807617
-41.04940832073814
42.392295141972056
116.1933808386613
127.28103200965155
72.98659770169627
19.69534898800416
-46.02287204260596
-66.31374291838344
-65.7006248128291
-60.125743187321305
-10.165263314415137
1.2036283760381232
21.240000834781128
19.786392978641857
-10.905470222953243
-23.47643381948633
-40.43645591327811
-20.58667651300221
-8.20018967993538
-13.638729711088697
-36.98657140060802
-69.0010100257493
-57.662760849310956
-19.514258492223547
19.675469620597077
24.76658043575034
-35.3393292189467
-77.15630629758459
-28.163220631046013
32.10284424670875
83.87075757248206
92.20155376322137
48.24357054458923
19.249724830879412
-24.20758366918881
-39.15370191854582
-21.98636773877425
-13.332038938927017
2.8231195796022055
-1.4664061887441302
-3.1727639066331697
3.404445977549185
-7.498669931950712
-8.008623042971275
13.724978876276843
38.40804473853658
37.092977044909915
22.44856395951446
10.657871890346351
-33.17618240013953
-44.85072099287234
-10.439425295354228
7.329325673763901
52.25105240304971
60.509810128289615
6.977343260306345
-25.703767482967333
-24.174694518153256
12.05423034997385
32.900203503517176
32.967562965326074
54.77442740112773
38.86379223149524
-19.00019820058121
-7.871397218496799
11.456056099111285
-0.24802235847298956
23.849484410490724
22.06160060249489
22.71576430925635
27.078952403015528
-17.195186678073288
-31.593831423282236
-9.948885709444932
1.0981924553063063
-0.8333493071327884
-10.78693267010966
-10.744294686478014
14.251588343457193
28.95364967341027
5.775094006566907
-1.6377291801900349
14.212710647942794
4.075523298819337
-9.7223265074369
-1.0204188413575794
7.424028115633614
9.78961507748351
6.930150406674916
-7.88997362503933
-24.654663362585353
-18.32966328340978
4.833496105064014
-2.799305906034432
-20.172733263977825
-13.866597534572906
-12.810757117818781
-1.980312891829593
15.550236249549462
14.643960276128281
12.441696798170046
3.5214781655682925
-8.624619929884396
-10.99622077841132
0.20174981615817406
10.796739880605871
2.6816955952229096
14.239851033023879
30.728623966679795
21.821598354896675
18.283376848460573
4.930166499368929
-2.990114550710318
1.0441806246357164
-1.0104254379736788
0.03626691531915591
-0.4966454188667232
-0.22500815656348114
-0.36315783029673027
-0.29258865491170866
-0.3283281326223905
-0.3099212922106259
-0.31909368842566493
-0.3142195214788708
-0.31650032505957804
-0.31513738570548433
-0.3156308802812553
-0.3151793677119552
