AAD_Filtered_TADAS_FILE
AAD_BASELINE_CORRECTION: BASELINE REMOVED
AAD_FILTER_TYPE: BUTTERWORTH
AAD_FILTER_ORDER: 1
AAD_LOW_CUT_FREQUENCY_HZ: 0.025
AAD_HIGH_CUT_FREQUENCY_HZ: 40.0
EVENT_NAME: 202302060117
EVENT_ID: 13194
EVENT_DATE_YYYYMMDD: 2023/02/06
EVENT_TIME_HHMMSS: 01:17:32.00000
EVENT_LATITUDE_DEGREE: 37.288
EVENT_LONGITUDE_DEGREE: 37.043
EVENT_DEPTH_KM: 8.6
HYPOCENTER_REFERENCE: AFAD
MAGNITUDE_W: 7.7
MAGNITUDE_W_REFERENCE: AFAD
MAGNITUDE_L: 
MAGNITUDE_L_REFERENCE: 
FOCAL_MECHANISM: 
NETWORK: TK
STATION_CODE: 6305
STATION_NAME: 
STATION_LATITUDE_DEGREE: 37.16045
STATION_LONGITUDE_DEGREE: 38.786937
STATION_ELEVATION_M: 547.0
LOCATION: Kahramanmaras_Pazarck_Turkiye
SENSOR_DEPTH_M: 
VS30_M/S: None
SITE_CLASSIFICATION_EC8: unknown
MORPHOLOGIC_CLASSIFICATION: 
EPICENTRAL_DISTANCE_KM: 155.06
EARTHQUAKE_BACKAZIMUTH_DEGREE: 
DATE_TIME_FIRST_SAMPLE_YYYYMMDD_HHMMSS: 2023/02/06 01:17:38.7566880
DATE_TIME_FIRST_SAMPLE_PRECISION: millisecond
SAMPLING_INTERVAL_S: 0.005
NDATA: 27001
DURATION_S: 
STREAM: HNE
UNITS: cm/s^2
INSTRUMENT: sensor = GEO-A200,/GEObit | digitizer = 
INSTRUMENT_ANALOG/DIGITAL: 
INSTRUMENTAL_FREQUENCY_HZ: 
INSTRUMENTAL_DAMPING: 
FULL_SCALE_G: 
N_BIT_DIGITAL_CONVERTER: 
PGA_CM/S^2: 104.090
TIME_PGA_S: 
BASELINE_CORRECTION: BASELINE REMOVED
FILTER_TYPE: BUTTERWORTH
FILTER_ORDER: 
LOW_CUT_FREQUENCY_HZ: 
HIGH_CUT_FREQUENCY_HZ: 
LATE/NORMAL_TRIGGERED: 
DATABASE_VERSION: 
HEADER_FORMAT: DYNA 1.2
DATA_TYPE: Acceleration
PROCESSING: Automatic Paolucci et al., 2011
DATA_TIMESTAMP_YYYYMMDD_HHMMSS: 
DATA_LICENSE: U (unknown license)
DATA_CITATION: Turkish Accelerometric Archive v 1.0 - Disaster And Emergency Management Presidency, Earthquake Department
DATA_CREATOR: AFAD
ORIGINAL_DATA_MEDIATOR_CITATION: : AFAD - Disaster And Emergency Management Presidency
ORIGINAL_DATA_MEDIATOR: AFAD PROCESS SERVICE
ORIGINAL_DATA_CREATOR_CITATION: AFAD PROCESS SERVICE
ORIGINAL_DATA_CREATOR: network: TK
USER1: GuestUser
USER2: 
USER3: 
USER4: 
[...]
72.89400525622149
65.6859484610813
55.83123484215404
43.766053250360635
32.86493696104523
23.131096143058254
13.834770680530454
7.980770023592956
6.796884497625235
9.053708084486106
13.361600253247389
20.851029424647066
30.903701712917155
38.5357648363873
43.83434233525141
44.90686198744954
37.880873075409475
24.44760614421325
8.164608733004577
-5.295832755402568
-14.465708478725821
-19.15884478518266
-17.194355785934327
-7.615820877973351
4.838079046608572
11.817054069311723
13.64775899723659
11.792493265880232
8.686638491991452
4.750132707775274
-1.6054609703760268
-4.250458052354121
-4.522547717129374
-5.086944317963571
-6.6608646423423945
-9.962474424560982
-10.594895092936344
-15.199289014160366
-24.25601772687884
-30.54181422687621
-38.44521193961701
-45.1503584345512
-46.32433188038542
-41.598141987716346
-31.96234834025739
-24.469842761821283
-18.485023203084513
-16.701256181322286
-22.91658056020748
-32.44766408036734
-42.74010353990407
-49.03554188898659
-52.11152447504178
-51.87787368346955
-45.72994049920434
-39.223513429748216
-32.271135477908935
-26.382909721119383
-24.85678197031787
-24.25607720021906
-23.74960436863949
-23.4606302713558
-22.540753660516977
-20.14088165499489
-18.880565444072513
-21.064020552662544
-23.601043877717746
-25.51490420066945
-25.823407636854242
-22.312890958048694
-15.439475023044123
-8.117492160640602
-3.108386720997212
-1.2084719642634618
-3.326875678636475
-9.895208424898874
-20.891541848399818
-31.74472044861621
-36.09648797159218
-33.567969571487914
-24.506824433548502
-9.948362079521885
4.212138978421189
11.695544487536003
12.477002268755331
8.299620868868082
-2.189467852409672
-16.332310376635736
-27.160720706508304
-32.14997455620738
-35.59426583861582
-38.438322215093805
-37.18965203745787
-33.7591999551746
-33.837154238757215
-37.085772647629035
-37.78330980901319
-37.78421238573221
-39.62667634010997
-41.02155215089784
-42.57681326565727
-46.2159826801909
-51.303436785397736
-52.3459761506232
-51.04967370644266
-48.77933800604642
-41.51579837293857
-32.78397279037952
-24.704812163342407
-17.148170526955095
-9.53904276253002
-3.0633038916502398
1.87479332720206
6.469612220769677
9.168512599757973
12.127854688207375
14.078371037404617
13.792461506603003
13.610030099435697
12.537470937092577
10.260044394419776
8.049922969611652
7.143451798324711
6.302422558736862
5.343632520803805
6.574961941251192
9.30375476519158
12.526354657436686
17.321977090577185
23.65106308524759
29.858835834175796
33.94087960602381
33.86189843100472
27.682056173188457
15.707649611840605
1.8984430501957188
-9.346158815122607
-15.400965552166475
-15.456202035531462
-10.410571323148563
-3.9770447943722917
-0.8415897614212826
-1.0403868545256345
-2.3188482968721877
-4.299562288753677
-6.775397501175891
-8.471175557043937
-9.345775647019822
-12.125687197930635
-16.648991819869575
-21.442143362883677
-28.062137987249834
-35.309779052008786
-41.61538010564309
-46.48637555923537
-47.12694305283884
-41.06419369795526
-28.47403059306962
-12.716790377370504
3.898705956136981
19.099924511361873
30.242403224606914
37.426058207909904
40.33831734798861
39.895638628498205
35.8659637098613
26.556987047773244
12.356353479658388
-6.711944619528085
-23.52654506701202
-32.36536976492045
-35.7587484763791
-30.083437127942574
-17.81075965827361
-7.114897722458364
1.776013780803495
8.650396642976817
11.605598019824185
7.838077832823593
1.3844348582107986
-1.3843455115044945
-1.9927032766472814
-0.7313096814162607
2.187732377550866
5.522044459290947
10.573462089799975
15.8329753042583
21.085887187607298
30.121289244651333
39.903299078615845
45.93406827504454
47.19712319334338
42.67904296077834
34.16393293453881
22.932019759881012
13.580117052400348
9.260748970634218
9.595566179457293
17.66276562084205
29.504221351027713
38.09598875591262
42.27382753947851
41.211733097554706
36.10287559534284
30.849262936468698
28.356759072938132
30.440451644843986
31.667090089070978
27.514546975923
20.48399327482756
10.839697395246972
1.3581016438849138
-7.477576794067769
-13.19321310833482
-14.333529988153076
-19.453139148775552
-26.63364116018542
-31.681197570573428
-33.933001012478584
-31.582760667081196
-25.09703216509665
-13.723114635239671
-4.708383765284402
-1.2844887941939522
-1.3320267206181882
-7.20987639939862
-14.065944664267834
-17.645895489550515
-17.547859465527118
-11.25660592104142
0.6106303305229925
11.505767362028834
17.583619142728256
20.505784733476244
16.91153644394603
7.303889224814717
0.7259078579546645
-0.38175625718471845
2.6248471370688304
11.51103317960736
21.91661366831738
25.551516273077663
22.764739762535864
16.89493300029741
7.692001557780379
-0.7501212603249048
-3.8013519470580985
-4.349128331184367
-2.0784531094239624
3.5929600921203546
6.017539987866861
5.008031647440064
3.1915565473180894
-0.8291751349285319
-4.214842765572873
-3.115274899992307
2.71378068560719
10.756620834267105
17.626552404783304
21.542200489950023
21.947806235229024
17.49679191723316
11.637738427357245
13.52906978643509
20.918632942428374
29.911959382089098
41.980370687339864
48.89244106574707
48.68178663710299
45.43308882530646
37.546535914438905
27.16564961265869
18.74707652157741
11.435538312373222
2.4678598890914434
-5.877668493209206
-14.688490593897729
-25.6007858802423
-34.533548068672324
-40.602509191187224
-44.655674258043476
-44.19739468339062
-35.71922507648114
-23.95988062178739
-14.645805423590692
-6.40463853016367
-1.1239154757016834
-3.8548331868869474
-13.85300570301265
-22.208636934831954
-25.95562262620099
-27.219294340374944
-24.922953733278323
-22.034646199479404
-19.07849018150744
-18.500801240886407
-23.11924594466018
-26.915033310484702
-28.072773729509326
-25.188684809066213
-18.858727210989535
-12.231198292802631
-4.914476658895563
-2.7982355430747154
-3.8468572677592854
-2.5968939922470593
-0.706560679548827
4.289380076705742
11.521439405370742
20.468866614234603
28.242381179966518
31.462590327715507
32.92529701271051
31.9995200097473
29.95592041291004
27.117820581010896
24.822056858547768
23.754246261049726
19.36975366199178
13.420937203809807
8.640599270839022
5.413506178966153
3.957235747889089
5.109945853405113
9.491124305953981
12.36785981616706
11.044998004849347
7.450160891613055
1.8903220836151955
-4.998814637148784
-10.312230872120953
-11.413906185444517
-9.479077249145535
-8.0506903546638
-9.138364695288919
-12.60697735936702
-16.395368559597813
-19.396714708576482
-20.507146221138452
-19.002480221454498
-15.909569454570367
-11.82102190226588
-7.579765855756335
-2.5747872162561474
2.666879761339536
6.313496031751623
9.806945940325424
11.674598312101358
9.229546787194897
5.700247463450151
3.7167214542217146
2.985487792242308
2.1990843708946213
2.99435684066039
8.019731295262934
11.43337832587259
8.411344884833085
0.8408647686294453
-6.999085453633323
-12.623288048243095
-16.341070541580056
-14.072223592136488
-6.580869614632844
-0.32002248052911064
4.09546141334706
6.26135633299473
3.969565929924943
-2.4982348339281164
-11.750625326414022
-22.790698133925254
-33.72012150715155
-40.44440919423429
-40.44733129679915
-33.7464652775531
-22.384389243832004
-11.069365053691334
-1.8498568055823308
3.8068299287525953
7.646852203803997
15.162421266912485
24.78059777589989
34.343181847006896
42.26301838487793
44.105805552610164
38.567773269148105
26.169087247849482
10.405305772940329
-2.4103744290554077
-11.143803618107118
-16.527550633114856
-13.641362492305309
-5.20815208056375
0.3549075186007311
5.958561166948919
13.213398661291127
21.23928527406289
32.44977029576681
43.24225153070587
52.06979061911386
57.0335825575965
55.31219568014018
51.49938617796781
47.4029236010557
45.42040114594843
46.2030047241245
47.66914524436355
50.10477102550476
47.47778355537432
38.8135192797775
28.05306322060917
17.479398505207442
11.85579635781586
12.608707391671015
18.753815046468898
27.08568839451145
31.648719114649605
30.337793790284632
25.655588524223347
17.81563531892851
11.013058980337451
11.880985693338047
16.17110917589156
20.26623726250242
27.307516609203866
33.93834704500956
32.237029150723075
26.430062096962953
22.782973734737208
17.201289801937243
15.07079877834362
21.104564835664437
28.416937295014243
37.76947580829754
44.81813783256466
44.02527676022441
41.51819442412373
36.011449308614964
26.699144173274217
18.693572827858162
15.084641322928858
17.396597612541246
21.995296697930808
28.848307662108024
38.4645001346655
43.14169314351202
43.31658262360085
44.225158235088024
42.05058011816113
36.90849180494549
32.340892494954105
29.84881466062069
28.209437926708965
23.160391804807492
20.11312790511236
21.05627622979567
20.01106807102585
17.83696754920283
15.847549154853828
13.623324534640433
8.927042603934268
1.5973474188227894
-4.5206829194237095
-10.583035764618542
-18.551662218433172
-23.82024761259706
-25.65333599160795
-29.22169790432643
-31.452393673742343
-29.75623269663017
-28.60357408514982
-29.383169329564318
-30.546802470026382
-32.48509065520891
-35.89746387446963
-38.65511224944388
-41.13278497595197
-43.51630319080282
-43.408707977448
-40.7714569585678
-37.27991867906093
-33.20280296163386
-27.704525222589716
-23.70730540271219
-23.27730531026142
-24.347836502826844
-24.971310722006667
-23.8612025584588
-19.92860822382061
-12.800496133295942
-4.73178512645226
0.6044382530356978
1.5944281432224423
-0.9713505788381931
-5.026973023565183
-7.005077006032229
-4.467379418019802
0.7363495166743989
6.021092984829784
11.291353965929833
15.150869294109102
16.450890786642233
17.37941152673016
18.010428037151588
18.013320811989654
15.8250139585613
9.037126450530472
2.0177665453660123
-4.528445390384606
-11.884126835262613
-14.646787940562664
-14.125910318521825
-13.810252693802893
-13.858515323150296
-15.342603811791237
-16.21499259178014
-16.67439894467544
-15.58340157036355
-11.09924298055782
-6.387192206836781
-2.7093908632766714
-0.7484986908009549
-1.5512715197485167
-4.805244195073428
-9.188813529456212
-15.637026124166564
-23.260014112552444
-28.688770958841165
-33.85768175380688
-38.44651462273452
-39.9774771201699
-37.00997029354834
-30.019129400754498
-20.95604969189822
-8.160283798112125
6.217263136675826
18.123434741144298
25.241142836098103
26.37551511835011
22.818152260077532
16.223904455313356
12.84546381080462
16.78868745628782
23.72350772999158
28.782467636242842
31.218016775613652
30.9582296863958
25.228086116950976
17.26595115682645
12.984690643087939
10.804299236402272
9.338328842307083
8.297013445472821
4.2881523422272965
-4.368286098833274
-12.141360783393836
-15.647705166374207
-18.404142051156448
-18.4159065533939
-14.669710755986525
-11.008478820688454
-8.731121295448252
-6.075563817136379
-1.5409194214743935
2.6975289809355103
5.611631594965555
4.662399456636305
-0.7052384635540255
-7.574453745465111
-14.640220093705958
-19.54371618312954
-23.39053170385829
-26.048518801244125
-26.414691676833
-25.438224383504554
-20.47222873630783
-8.27322130553943
10.260023393616898
25.75330440336495
31.772046104402293
30.378608289842326
21.66683683479242
7.501701605424675
-4.542209130013159
-6.0331907783538785
2.060029607839192
12.442017559799766
24.128159234269667
35.636915665604114
43.325036399827326
46.935755146745336
48.13123529567153
49.28109549332593
47.093997567510094
40.50643228002273
35.47195560190957
29.681982471124723
18.792995141422182
4.29665030714164
-13.773640777894572
-33.47103137976784
-50.88441421581338
-64.47918206739632
-70.70949628457055
-71.70727514484278
-74.92219429001027
-78.52196780182864
-82.630781698963
-85.94024506489684
-82.64974481380011
-75.61376871298357
-65.5495071100713
-57.17587569835253
-56.67217346397224
-59.895049017733754
-63.84352828274571
-65.0871719283815
-61.243318307713594
-51.66431983096796
-36.075720688929025
-20.153309585776565
-5.7326786446095195
9.093777687999511
20.45143882985617
24.6703348986682
24.922124532160357
23.49841250257443
18.65538501131122
14.793285987501072
14.313702819653695
13.730094019523806
14.256936490368796
16.968867092617444
21.311196013161464
25.486738831711886
29.046822831469875
34.962170894357925
39.72098348956991
39.4519386263467
35.05818608823039
27.705898731307844
23.042530830525802
22.95300047767681
25.14735314809222
31.171086359928115
40.18354621977615
50.28630886864681
58.472878730047086
63.76041115561216
70.15543163460205
78.07679529866435
85.36867487385334
89.56316054238125
88.28498237291284
78.79279623565292
62.83113045862081
47.81964520389904
37.4204826203344
32.52526921392987
31.082574297469186
32.74117853039794
38.225991578362056
42.02495811795115
44.770849005834854
51.80182945330154
64.4007738385802
79.80858409915766
91.78633234213329
99.86835838529619
102.31852332669571
97.65633417286628
91.2201499837759
80.60448485863982
64.26999452770251
45.40771261474095
27.064664882660182
13.860542911901188
5.874362368635767
5.1577411556408475
10.18525559675133
12.437074642232648
9.954484029688492
5.050964535449031
-0.26241564210932894
-5.866521262109681
-11.88712415062299
-13.322387302668805
-10.22079682927862
-7.82495822957077
-5.190783271378183
-4.812370378759302
-11.046498300331157
-20.103231667227917
-26.354303057539276
-29.187700419183674
-30.848289361723673
-27.990984846790763
-19.880546302590826
-13.760596073924038
-11.616916363759492
-10.881147718422001
-12.650967667910672
-16.65183941383938
-18.812062233182953
-19.387258085392403
-21.09740921095932
-22.243031895283085
-19.84787849019353
-15.873172243464658
-14.708418690967326
-15.950064495441472
-17.865699915891906
-20.953130766761294
-24.89108192159954
-27.873478216387674
-26.851178739472072
-21.1689506569339
-13.301496144212885
-4.063638784387594
6.294127647377793
14.89423398022276
18.019422344920343
15.744447781751544
10.244679363040865
2.560121152949606
-4.574223319984128
-9.5560201412791
-14.695180094099623
-19.888449487777237
-22.77773816703451
-25.620654152686846
-31.11621659379282
-37.443623288687
-42.64032045320806
-46.439548283508614
-48.578619276660184
-48.683484158991014
-47.57173255335231
-45.497591746637816
-41.03746498766639
-34.05993867387031
-26.233423496044527
-20.365630102140717
-16.66019309827915
-11.555468393199874
-4.17639426911814
5.441967255287427
16.992340485210168
26.422157957921318
30.254221286069953
26.940525649600374
17.43118572948834
5.400351396746698
-3.717687560828683
-6.160331957922096
-3.392131203931997
4.963852660046003
18.56241063389729
31.13502029185965
39.6463941096429
46.57164047333002
52.63037811003814
54.88878365022716
53.88576471576415
50.856501846019405
41.998684936136875
28.203575354865528
14.168064255647755
1.796325389249917
-5.485064278274396
-7.493455215362225
-5.977077834582065
1.4400433196235671
10.23681511137042
14.556660281563323
16.075368764518895
16.775485675951057
16.656315650229715
14.355197888202587
13.597247279921575
15.98269334441743
17.806980373228594
19.772745794291172
20.345780785677253
18.083786492876566
14.551031318899716
10.144383372580709
8.71314742283383
12.064988110042407
17.60355105182308
24.439324001704858
27.718194844920898
24.767650571214244
16.87380759128511
2.0766228490421965
-14.008256347957175
-24.922647057845595
-27.84869100162601
-21.068738111851108
-10.2964912085989
-0.24843180484311295
4.158665444498411
0.9354371753636692
-3.8431624924797227
-7.589878706104431
-8.180560957787234
-4.015957440957224
-0.26780690209716873
0.961320163927261
-0.7177654445337492
-6.976602403139147
-11.067247706415522
-9.592934815644432
-5.039303734751198
3.3279840078984058
10.978312959592813
15.857035391435744
19.70028238528034
18.623546593943434
11.336729897398174
2.6051271631873494
-3.7173737187962677
-8.729799635634834
-11.689559831213444
-10.545779045313832
-9.237832399218687
-12.427228917411446
-20.72671603081605
-31.26733521499411
-40.353306250607496
-45.10695055109081
-43.4685399604238
-36.070072335944715
-24.232094157092213
-12.845029520523845
-8.462907466267795
-7.889047187027391
-7.536455579673913
-7.541840483734525
-3.892494737019017
3.171361550779289
8.30912243583195
7.183497140044024
-1.1550977271416352
-13.06302423254195
-22.198916181773853
-23.119667892444106
-16.50238683591255
-6.514644058708111
1.3399809821348267
2.5838343727932376
-3.6213998089661583
-17.282416119144248
-32.31032618015785
-41.77093726083716
-45.992616273400266
-44.93496985805842
-38.875918271065174
-31.19559053555566
-23.090473307049656
-12.617991246647424
-2.0286209190080537
3.5164125587440793
4.566083742629804
1.8673785198836566
-4.669067151210989
-9.564046406859367
-9.599143955702678
-9.7029290576249
-12.215211864520956
-14.310342777279248
-15.487581241708996
-15.304489747271067
-13.437233974738767
-8.411815488223708
0.2699174517944615
8.719878330695098
15.776825132036658
20.79393391665549
22.678223410623616
19.515173221796097
12.276500311294672
6.61228817052494
2.469554467017043
-1.6167287172218194
-3.8293498458496527
-2.726882780968598
-2.6217822864051823
-3.625947177942968
-0.952126301119381
1.399031813949268
4.3080503307245115
8.193953110146493
8.114152481337085
4.425042145237163
-2.115257539485306
-8.73619558595534
-14.552343769826772
-18.807717930475867
-19.188784927223708
-18.3479448825012
-17.082659498724045
-14.825036204601988
-13.431649912182987
-11.374429715329844
-6.636417310088344
-0.5641340235808145
5.474714323584463
9.62285783346056
10.522851633902576
7.931068035427219
2.43495847280051
-4.325051519864784
-10.45062598358821
-13.038396329141918
-11.614654509774544
-8.272061500322781
-3.0192130438625058
3.8131039242906564
7.821457751034696
7.135672269394874
5.36668963466057
2.862899680666853
-0.8462406665255607
-3.304683537541072
-4.909043977514581
-7.947185356188441
-13.998851735456121
-23.075855166109
-34.74045482808552
-46.37515861212695
-53.41768581241039
-54.48093614851162
-49.31176178770489
-39.96890553778789
-31.078274899913918
-26.349728308153782
-26.43026794221892
-29.513657728365146
-34.42046909115139
-37.98139098758574
-36.19381971904742
-28.873533249157827
-19.33613850014632
-9.580145311408694
-0.786257383178567
3.4130904526810752
1.8660786261415028
-0.952710502268268
-1.4336745633099035
-1.9258114473395935
-2.0916576614162623
-1.0882710371629303
