AAD_Filtered_TADAS_FILE
AAD_BASELINE_CORRECTION: BASELINE REMOVED
AAD_FILTER_TYPE: BUTTERWORTH
AAD_FILTER_ORDER: 1
AAD_LOW_CUT_FREQUENCY_HZ: 0.025
AAD_HIGH_CUT_FREQUENCY_HZ: 40.0
EVENT_NAME: 202302060117
EVENT_ID: 13194
EVENT_DATE_YYYYMMDD: 2023/02/06
EVENT_TIME_HHMMSS: 01:17:32.00000
EVENT_LATITUDE_DEGREE: 37.288
EVENT_LONGITUDE_DEGREE: 37.043
EVENT_DEPTH_KM: 8.6
HYPOCENTER_REFERENCE: AFAD
MAGNITUDE_W: 7.7
MAGNITUDE_W_REFERENCE: AFAD
MAGNITUDE_L: 
MAGNITUDE_L_REFERENCE: 
FOCAL_MECHANISM: 
NETWORK: TK
STATION_CODE: 4629
STATION_NAME: 
STATION_LATITUDE_DEGREE: 37.287373
STATION_LONGITUDE_DEGREE: 36.788705
STATION_ELEVATION_M: 494.0
LOCATION: Kahramanmaras_Pazarck_Turkiye
SENSOR_DEPTH_M: 
VS30_M/S: 382
SITE_CLASSIFICATION_EC8: C
MORPHOLOGIC_CLASSIFICATION: 
EPICENTRAL_DISTANCE_KM: 22.50
EARTHQUAKE_BACKAZIMUTH_DEGREE: 
DATE_TIME_FIRST_SAMPLE_YYYYMMDD_HHMMSS: 2023/02/06 01:17:06.1500710
DATE_TIME_FIRST_SAMPLE_PRECISION: millisecond
SAMPLING_INTERVAL_S: 0.01
NDATA: 5367
DURATION_S: 
STREAM: HNN
UNITS: cm/s^2
INSTRUMENT: sensor = ACEBOX/SARA | digitizer = 
INSTRUMENT_ANALOG/DIGITAL: 
INSTRUMENTAL_FREQUENCY_HZ: 
INSTRUMENTAL_DAMPING: 
FULL_SCALE_G: 
N_BIT_DIGITAL_CONVERTER: 
PGA_CM/S^2: 338.935
TIME_PGA_S: 
BASELINE_CORRECTION: BASELINE REMOVED
FILTER_TYPE: BUTTERWORTH
FILTER_ORDER: 
LOW_CUT_FREQUENCY_HZ: 
HIGH_CUT_FREQUENCY_HZ: 
LATE/NORMAL_TRIGGERED: 
DATABASE_VERSION: 
HEADER_FORMAT: DYNA 1.2
DATA_TYPE: Acceleration
PROCESSING: Automatic Paolucci et al., 2011
DATA_TIMESTAMP_YYYYMMDD_HHMMSS: 
DATA_LICENSE: U (unknown license)
DATA_CITATION: Turkish Accelerometric Archive v 1.0 - Disaster And Emergency Management Presidency, Earthquake Department
DATA_CREATOR: AFAD
ORIGINAL_DATA_MEDIATOR_CITATION: : AFAD - Disaster And Emergency Management Presidency
ORIGINAL_DATA_MEDIATOR: AFAD PROCESS SERVICE
ORIGINAL_DATA_CREATOR_CITATION: AFAD PROCESS SERVICE
ORIGINAL_DATA_CREATOR: network: TK
USER1: GuestUser
USER2: 
USER3: 
USER4: 
[...]
-0.4534182962443278
0.8942687633685681
2.7728314486811687
1.1094598734145487
-1.1209707826552753
-1.2459672932655956
-1.1194693946328669
-0.24049459624891353
0.4369586890025931
-0.17555168083610756
-0.3968989464555689
-3.354436729836582
-8.744801496898184
-8.22332902082604
-3.71683542487832
-3.1379791167641065
-2.1587253065870495
1.8399557442554348
1.5375609109597272
-0.793821434237895
2.144965484990601
6.299248222556591
6.754144554110902
6.367160127704771
7.957537486633614
8.247261302877442
3.290318030818068
-2.469937259049568
-3.8252557087634766
-5.19000800977029
-9.29049282796161
-8.480404258452262
-2.155227491147319
-1.6295587886694038
-5.491156557638874
-3.2027522674135036
1.4605374765371326
1.047844921782987
-3.427611211777714
-8.010262685528332
-9.150516825991222
-9.406691347525875
-13.041126253094143
-15.298318772266622
-10.647740686540022
-4.560430257062409
-3.577801256935622
-1.7385908920360826
6.689979702043648
14.013510251306402
13.617010439558598
10.466857651500332
9.812559176902553
9.237331952445277
6.137837973122761
3.582371450245443
5.2677606305156885
7.821265102977648
3.285005602266459
-4.992070753248203
-6.488857934587683
-4.214578483304804
-5.415787841622947
-7.770728105060188
-7.7859605298043775
-6.583333808190867
-7.746415275901374
-9.536629948820424
-6.322403490418211
-2.226753801372881
-4.1848545145075535
-6.883467986357195
-4.010130857060732
-0.6196951618806772
-0.9245434415226989
-1.4818566953295063
0.21021656412664777
5.167791726025538
10.027581698982246
7.344647885586389
3.1688323553858107
8.060407227639685
13.48581731619125
10.523624863482446
5.8393313864497465
3.092560530328924
0.9534062492017449
0.6823782477009891
0.6249838911611515
0.7879701707631395
1.9471846544411353
-2.108756118680074
-10.018965957756066
-12.505650077917036
-11.954008618505918
-12.13529063335643
-9.15715985348178
-6.325920354346306
-8.2389943674861
-9.194138889679119
-5.4233174039568155
-2.02532038358918
-2.7366298550493515
-5.1932776241531675
-6.5054180322501445
-5.505987200659118
-3.495815101725465
-3.5879918743806014
-3.5463440927907652
-1.495671802923349
-3.5782078452304895
-8.557205060080323
-6.8696970376961595
-0.8844966834561426
0.6329995203759815
-1.4495481806615265
-3.3057383391662585
-5.5246372682404274
-8.427972658036756
-10.288441227748645
-8.635457840368936
-3.4425274844401748
0.856840011696479
3.3144543221955716
6.870900900110567
9.78094229166826
11.30489693431383
15.890505047315289
23.67720238474578
28.36871544952522
26.409109055186303
21.483624683285672
16.968328494477586
11.772303802766636
6.732501002688202
4.671926206159559
3.7398518307994872
-0.18512533468108444
-5.061218858492903
-5.8756595967197045
-3.8521356320723985
-2.8579713039990047
-2.9604939323345665
-3.369691153775323
-5.1082058799576116
-8.458561265924342
-10.363556036713055
-6.56613322675128
1.343434979658024
5.353521610107329
3.1204732572915366
0.2507502277429556
-2.4883747363244444
-8.093965271075971
-14.530938343687428
-19.557848049748745
-24.864741204285
-29.779842144964295
-28.267977546947595
-17.918371704970717
-4.645463161662211
6.198022862553472
12.912034723873866
16.20901294583561
20.736980291702938
27.725904010009277
31.67837998393564
29.21737134892331
22.4342903128116
15.069960497465232
9.7105341433393
6.670303170225418
4.506316063243007
2.5719706029913216
-0.5873130235011478
-7.890394584361544
-14.708910438520867
-13.057484934671818
-6.2293122825332645
-3.49574803711499
-8.003285738277956
-14.624668102386423
-17.455709870047727
-18.039809809121657
-19.211628143129264
-19.160385395917793
-15.431570547166926
-9.376630647654018
-4.741686666556261
0.2809731914603928
10.611188247380165
25.485574897904456
37.14885208102131
36.363568164649024
26.94157542024509
22.21685574464391
22.40350352148859
17.56276979885783
6.854259814423773
-1.6000023841481297
-4.27277393790208
-5.978716201476443
-11.74575494341608
-17.527663055808215
-13.089165809149803
-2.0445238341898655
1.6886615410681545
-0.7509270236794797
-4.02895190830754
-12.890811615147912
-25.07547376269817
-30.461846167434814
-26.09808135947398
-15.415414411228435
-2.8348578802565627
5.553054292996125
5.132451902394543
0.6083102128417308
3.022914026230568
13.45419595266293
19.221613199945377
15.514298563165962
13.169704265033715
15.529448423978673
15.804285273752042
14.528098711087196
14.511358033130207
16.745196529104767
22.44509192345434
24.995126313650637
21.661226412654557
20.10005772494767
16.250073716758354
1.8567425553287225
-13.027043807016998
-16.86780756668283
-16.732614005635856
-23.595963497455692
-32.1784627693227
-32.283497577088
-26.94833944850346
-22.02827118038691
-15.76305695247049
-9.30038207778984
-10.24587187880317
-17.61952635441889
-19.22309174133976
-10.31043383931953
1.3035079830942156
6.046854065726573
3.896891902898551
6.130613676549031
16.75708416353438
29.067062204391306
41.219517046602554
54.70054695847774
69.39881074402312
78.15637982170473
67.86696324669579
41.44118704407358
15.620864840309373
-3.1140449054819546
-17.357198800162447
-26.764357906672167
-29.233777480328666
-27.08936874714888
-25.271187754662463
-26.771603003131204
-30.629735248292896
-28.623501570122198
-16.386087837815193
-5.573124641037153
-6.881396100372674
-14.816368282673805
-18.983822157968163
-15.87604806845165
-7.184225429282933
3.3088295442666085
12.007860188675807
21.214165313204788
32.23866861076693
37.382672488938226
36.81848829853712
39.90687572537407
42.137764454873945
35.067788762522525
24.208732005396183
13.138182576166734
-1.02817355335869
-13.718528038908376
-18.009503067141516
-17.853210920780096
-25.497380959720907
-40.97619406538736
-48.07537622045076
-42.40364501194211
-35.95639618837017
-33.75873847592928
-30.508966704513316
-22.416509570394414
-15.06097339730861
-13.973963370656401
-12.116282534390988
-4.203129247359408
3.507438125683021
6.19013327766467
4.923923674052775
2.0063500398744734
-0.5089208486430097
-1.3267451239198869
-0.5036727551350443
3.411802057148681
14.676608903418156
31.875982226985563
46.000421211053514
50.30353932666077
46.799359317837876
45.091501481544
46.51692476108394
41.22150001653299
32.79142017313655
29.02954137272274
19.2263457542043
-0.030683644655780648
-13.347806506389043
-14.232226778895496
-11.13173550959626
-13.781201900440074
-23.884097846462346
-34.45456075815142
-40.99897365265731
-46.99056760311776
-51.56868925976467
-47.42449060667042
-36.84766259028544
-27.273047397274485
-21.578140443428428
-20.51697780292069
-13.964532177450153
4.47053289356875
21.894566892420475
32.147031628876235
39.41028904185459
43.44086105947113
42.6691947228535
37.18253443641288
31.016869536550953
24.166091354166586
13.848136754922388
7.418632903453381
10.947047277684659
19.459255093235296
23.39151436378491
16.506463494355685
1.2985769149052202
-13.445283086505443
-22.008214891243536
-30.88294942578242
-42.616525136826695
-47.71493265817691
-46.48703968239165
-41.63664038610916
-31.587667452315923
-21.7339846416513
-11.825858936396049
0.4329262870151088
11.367094805979656
25.42080353751605
44.98834457498061
60.6848318297867
69.72058826786166
73.4741513403741
64.13580666397728
41.35995023832956
16.167359661005566
-7.80582524160234
-29.882982166297197
-45.96948191263672
-55.461054674277555
-61.89770296777424
-65.27882596400873
-58.34511104654342
-42.98886440877901
-29.133820848057002
-16.305133679514288
-6.10729293578655
-1.634057996235652
6.360130609142467
18.453658451287783
23.283324584611776
21.750822570668024
20.487683614048706
16.02989913241794
7.673365113905342
-0.10893061829229901
-11.769487612424886
-21.42311513866905
-11.648670800732
8.536177584606632
23.068744196611078
34.317294506857394
33.73728385108766
14.487423247819011
-2.3437085341206347
2.1371248602196165
20.68374440479464
32.012982552296734
29.82016339265214
27.22239107775045
24.78274840992278
13.055107684782227
-0.16444590411158863
-2.669405764380553
-1.7702718892497098
-13.775179584513815
-36.48933766956946
-51.797139095928934
-52.58344086710809
-45.69036240956745
-38.88369765851813
-35.704342275520986
-30.825100871938705
-19.355923657941194
-8.127431895598008
2.6681586196651037
21.465315188386537
39.054127145389934
39.83702902277935
28.929336992072308
21.048675351596746
20.676420720297653
23.585022956776108
22.901945051389774
14.34038081686507
7.404659209854096
14.616056348950595
26.267557028461518
24.72332084437372
12.939192663915906
2.2922529453356852
-10.215710934629207
-27.95271174370781
-37.68350262664978
-31.148165534500976
-19.366223935526044
-14.598126452938374
-19.06472248421626
-27.767580387783042
-37.12851364673011
-50.44249608362697
-65.3507270328617
-68.73338376395441
-59.01325343716697
-53.29524770292645
-57.70262277331475
-58.073572205024206
-49.48369008918284
-40.352463495275614
-30.44457947581635
-15.514514848770432
0.07396155802175562
7.842872328234873
4.52354634864387
-1.5372058761171563
-1.667617242204503
-1.2585576639870417
-9.92041059752745
-23.81151424649769
-29.249384988044795
-28.977861370351118
-36.65496696599836
-42.414309377206756
-32.571439363522124
-23.60943580532091
-34.409853546022255
-51.295445085316274
-50.23924817977129
-40.195716163197126
-46.92852614891682
-67.37995212193798
-82.20966972510902
-90.60439589948467
-100.33089387238915
-105.76597592171763
-101.2562630550349
-90.06266603406326
-72.18010636944818
-53.25368872850716
-39.137034397433645
-22.929377249818295
-9.18893279218718
-8.645660122164436
-14.173803271361042
-16.026595792513614
-12.4279855926122
-6.544430615452606
-4.322394103150928
-7.588237544965095
-12.921463321328936
-13.332614475303613
-5.883058219525417
4.003703354759195
13.007472025620173
22.114281150818275
34.661502268126576
52.94579831988135
68.84624843024045
77.2683447191647
85.25988703249216
93.39324685742108
95.9654898558627
90.92316565931478
77.45684362698047
56.01627898999862
32.06452366937283
20.509981415865926
23.38421560652728
21.458748253972526
14.058799407462097
5.06459023635656
-17.29622388262888
-36.39685680106876
-32.670189345553716
-25.924870244685124
-32.07672618156669
-46.9363900190034
-62.08247101286731
-66.77167853243061
-58.39170593295578
-39.211752271642325
-14.948309756233952
5.52359034807682
28.89032888023635
64.00627966958574
98.2911623362608
122.79480588344757
146.66823445011917
162.64745328066195
150.63866468435432
120.13219970868985
93.60350081441717
70.12641368801881
33.97243605719045
-19.65250380950839
-69.7484878628569
-96.0124366960058
-107.59621288888094
-119.84043718104456
-133.70049412223847
-144.4104965719103
-149.2612319998068
-149.8249002854747
-152.20409066558406
-161.29968042784483
-166.45788462598242
-146.54889285116334
-99.39675793645536
-44.665285352423474
1.634296475878763
38.47682453722421
74.62641023147282
112.84495502523761
139.73944447264714
151.90979680002542
167.09391434738941
187.70348625036019
197.6946334130036
195.10201207076727
190.88969454344482
188.33915598996336
178.9430708421082
156.40659247548123
129.8893624327593
110.33265973915373
93.82558847256738
79.08259332760588
71.87485849482624
64.35254129277483
50.88442025870199
37.48193646664317
19.33660586974234
-11.799234547277841
-54.67833222121033
-100.63450856068111
-136.2536093487454
-157.6941053892481
-175.24605329056374
-196.030011126238
-212.08760965441823
-219.09580724661416
-212.804348446935
-164.1202936557283
-78.23992410180034
-12.664014554135752
20.9251376101188
52.94343622133794
89.51473708996525
128.21466587016982
165.69365121402905
191.9119216366874
209.01110852404355
221.7837002430769
226.6447334785662
230.29860601786606
233.08609739520256
216.34609835810195
191.17717364876424
178.3281528206916
159.99569936851864
136.43604054589122
128.11752856931898
116.23898614252836
83.21955123153974
48.13365176574269
25.23849520753911
8.240648743109338
-7.610575606354548
-21.0161494179858
-34.24774955107936
-50.8454137793847
-77.41597353787346
-122.24954217298826
-177.20669266879386
-224.26998662093987
-254.26517199126334
-261.5704508229561
-249.98057469358983
-236.47180747323614
-221.69813976929152
-192.2833951263725
-150.0538603939801
-103.63067714457033
-56.397426477867846
-8.545004159385948
35.25098675695544
65.33944953143447
91.2858329614364
122.20533931955846
143.85155754220872
157.37737786946838
169.5722030958477
172.38108034284105
176.73491170501376
196.569304595304
218.98318166421956
227.67614586106583
225.82623341076393
229.01696206764473
240.2845409116736
250.50550267697756
248.71216280636403
213.65563657556567
141.63062348346043
67.12649947982823
14.546840820805265
-28.02305064361173
-75.34025184682353
-126.46564083189574
-180.76490230165078
-236.58136238481953
-276.83081633647805
-293.90653768725923
-304.0442192776722
-316.88815465746063
-329.8927801900616
-338.8724553209936
-336.24191367749455
-320.1936160116846
-300.0719212605127
-283.6806620538559
-256.2128874752704
-198.4067531105107
-131.26629005993988
-82.32000123196116
-40.90288785357407
4.593378309018764
48.73923420570888
88.15212441219639
123.93351180345496
159.66012625838397
187.3148199474735
192.96925124624005
185.59051613834245
180.73520293777113
178.41668671721575
180.70426985983735
189.1589209635231
190.68496205298837
183.8509462855329
185.9675635121359
187.5146204568454
156.02798460096355
99.99152824884999
57.46908953668672
27.01427083563999
-14.865045341082588
-63.69128996525053
-108.40560242552074
-144.2336314551174
-159.24072068248796
-157.24446801490433
-160.55043029395742
-172.96506719830555
-179.2178344137715
-177.9170418816555
-175.9791170193197
-161.14208749519668
-124.09502824963329
-80.89649780677293
-47.200346245373055
-22.741976894126136
0.9137851079817378
28.804945676923168
60.627440289121346
96.81560835126581
130.50920764330323
156.5038715266444
182.72520762469625
208.9484657040962
225.30905241350115
235.78983333828134
255.1110068817161
270.7869123824942
243.40080477360465
172.76974926535752
103.26126628445019
60.235703924595505
34.95305634047112
8.42783486934209
-24.324902515970653
-49.53818652418975
-60.84659607601793
-68.55915871131128
-81.84739714815554
-101.14084113364066
-124.07110131189062
-148.48657287136905
-171.87304294132824
-189.76528968522427
-196.70689201370539
-196.1454311043468
-199.6199042210697
-211.6652616788858
-228.95952726609616
-243.01168151788588
-233.4244180652278
-188.6427394690373
-130.89587078370033
-83.80919038321952
-48.66528875333103
-24.92345697018633
-8.788910643804762
6.786728372596811
26.300064947130558
51.23134776151823
62.9414391357143
52.41822496097828
42.257336626851085
39.03842889628179
37.29224964347304
44.85228085876215
60.01645921831689
79.48749107764381
106.77689149118478
130.04825643571942
140.52223972068637
146.77443408230948
150.39899230026194
154.96853810966954
166.813669644967
170.33560422926465
158.421040387559
144.57514937693892
124.7822684748647
92.44019913260426
62.28311908308789
41.62550408755637
20.925145678760646
1.8476081561481128
-6.829824810810058
-14.294460719253626
-29.481998326457237
-43.146434873917315
-48.14128141189177
-46.0261725563142
-39.313150725944595
-32.29159997202003
-25.914257155178824
-16.272926660382648
-6.297437788111243
-4.262926337138247
-10.619054905125571
-21.698801564356106
-36.48699050649643
-54.46792706881163
-75.93156218423852
-98.81007364854106
-121.5384007779607
-147.1261066148433
-173.80863173948333
-200.66700689257686
-230.85107018120266
-258.1292830099572
-276.85509200364584
-279.0194268035886
-242.96026393526108
-170.18139518991953
-91.6994095568934
-25.498358775156802
27.625112472144316
66.21740186053138
87.10889120546801
99.80237927510053
123.5094316708919
152.40299971884795
168.50074679328375
175.07573368301095
174.9451412055049
172.92851969672847
182.53783936077974
189.43700327184914
174.42196153266156
144.1952909883686
105.54065176465528
71.8599636302309
62.32315526554497
69.55796324251557
69.40135571457049
48.840309618522475
17.001691360591924
-11.471441156657097
-38.29036170536767
-66.3233988613132
-87.565183555405
-98.57833260579565
-105.73475473454664
-112.69466233494359
-119.46908074296533
-129.31488942240463
-137.48410010158798
-134.15134204606434
-119.05200233002225
-91.91172748373226
-52.15615859634674
-8.963721357407486
25.347657440537745
45.70312131003152
57.327298731293624
68.73555277095477
85.63298274146514
106.89488470291137
122.5077588100123
128.0914054559871
128.90025648789833
122.99657673656189
106.85435910159632
89.41375911926491
77.38232460720434
67.34290244080361
58.903198563908205
54.22429138301566
55.04838115444811
64.85035955466759
77.27994550340632
76.92932178998306
63.69973368233567
52.90485865512495
47.31430314116313
38.08612165853894
27.367820479856153
19.648666743237705
8.053603022123053
-10.968445904812858
-31.110784129994624
-46.88215172316939
-59.09358799787978
-75.32602798800959
-98.92624586279574
-120.50695133882394
-131.70912142234354
-131.83121430357397
-122.77688296582082
-112.52924827787169
-111.32637802910997
-118.83946782262655
-127.67769237093124
-136.28664149854498
-137.32408614263477
-113.70826501765762
-71.8805286754582
-36.658305631738415
-12.306180827029808
10.646337467036606
32.08221257539994
43.64933189866095
44.713911055854524
46.19525575511698
50.42746195856902
48.731509162338995
41.19358712596756
36.92689230585944
37.830299018472815
38.18149602105107
38.62945636571539
43.28096236349006
49.090271066534946
53.1915133681587
60.1201979907212
70.97897064500842
79.92010134630678
86.54313349720393
92.42124362785732
99.4138868532343
106.18327424270029
90.78507510990397
50.87314952438138
23.837256072428204
17.529793012127545
9.429644614156597
-4.265513894254289
-21.486945011136008
-40.43615278055591
-53.79093673371923
-61.776058714397514
-65.06833761261716
-56.42918188411419
-35.27570121393181
-6.8774818682850425
29.315988080860322
65.5685369558621
83.63742427095555
76.08576138529806
52.052926991292885
29.77905710452319
13.723314324679416
-5.777467298075776
-23.90809125962076
-37.15772591757642
-52.37810503869978
-63.46657724348319
-67.33250977228933
-72.31771074642087
-80.79814153271155
-90.34946133123591
-95.3477870234974
-91.98969858153195
-85.48470195989032
-86.22775185180583
-99.32850063812475
-112.50921562314896
-115.14607764847763
-114.75937433895427
