AAD_Filtered_TADAS_FILE
AAD_BASELINE_CORRECTION: BASELINE REMOVED
AAD_FILTER_TYPE: BUTTERWORTH
AAD_FILTER_ORDER: 1
AAD_LOW_CUT_FREQUENCY_HZ: 0.025
AAD_HIGH_CUT_FREQUENCY_HZ: 40.0
EVENT_NAME: 202302061024
EVENT_ID: 13207
EVENT_DATE_YYYYMMDD: 2023/02/06
EVENT_TIME_HHMMSS: 10:24:47.00000
EVENT_LATITUDE_DEGREE: 38.089
EVENT_LONGITUDE_DEGREE: 37.239
EVENT_DEPTH_KM: 7.0
HYPOCENTER_REFERENCE: AFAD
MAGNITUDE_W: 7.6
MAGNITUDE_W_REFERENCE: AFAD
MAGNITUDE_L: 
MAGNITUDE_L_REFERENCE: 
FOCAL_MECHANISM: 
NETWORK: TK
STATION_CODE: 0133
STATION_NAME: 
STATION_LATITUDE_DEGREE: 37.745495
STATION_LONGITUDE_DEGREE: 35.864025
STATION_ELEVATION_M: 546.0
LOCATION: Kahramanmaras_Elbistan_Turkiye
SENSOR_DEPTH_M: 
VS30_M/S: None
SITE_CLASSIFICATION_EC8: unknown
MORPHOLOGIC_CLASSIFICATION: 
EPICENTRAL_DISTANCE_KM: 126.52
EARTHQUAKE_BACKAZIMUTH_DEGREE: 
DATE_TIME_FIRST_SAMPLE_YYYYMMDD_HHMMSS: 2023/02/06 10:24:48.8342950
DATE_TIME_FIRST_SAMPLE_PRECISION: millisecond
SAMPLING_INTERVAL_S: 0.01
NDATA: 12501
DURATION_S: 
STREAM: HNE
UNITS: cm/s^2
INSTRUMENT: sensor = ACEBOX/SARA | digitizer = 
INSTRUMENT_ANALOG/DIGITAL: 
INSTRUMENTAL_FREQUENCY_HZ: 
INSTRUMENTAL_DAMPING: 
FULL_SCALE_G: 
N_BIT_DIGITAL_CONVERTER: 
PGA_CM/S^2: 80.372
TIME_PGA_S: 
BASELINE_CORRECTION: BASELINE REMOVED
FILTER_TYPE: BUTTERWORTH
FILTER_ORDER: 
LOW_CUT_FREQUENCY_HZ: 
HIGH_CUT_FREQUENCY_HZ: 
LATE/NORMAL_TRIGGERED: 
DATABASE_VERSION: 
HEADER_FORMAT: DYNA 1.2
DATA_TYPE: Acceleration
PROCESSING: Automatic Paolucci et al., 2011
DATA_TIMESTAMP_YYYYMMDD_HHMMSS: 
DATA_LICENSE: U (unknown license)
DATA_CITATION: Turkish Accelerometric Archive v 1.0 - Disaster And Emergency Management Presidency, Earthquake Department
DATA_CREATOR: AFAD
ORIGINAL_DATA_MEDIATOR_CITATION: : AFAD - Disaster And Emergency Management Presidency
ORIGINAL_DATA_MEDIATOR: AFAD PROCESS SERVICE
ORIGINAL_DATA_CREATOR_CITATION: AFAD PROCESS SERVICE
ORIGINAL_DATA_CREATOR: network: TK
USER1: GuestUser
USER2: 
USER3: 
USER4: 
[...]
-11.990065860210386
-12.710047134767722
-10.963151136967038
-10.015335333203726
-10.054245090501219
-9.720009087471304
-10.39104114066476
-10.950806400983023
-10.359974915172588
-10.723345960233326
-11.009907276850464
-8.987686244675611
-5.754167571256401
-2.7171924378210233
-1.4773635946938763
-3.7872274815862044
-7.705286274354703
-10.395574309837869
-11.673581398695093
-10.559895382873373
-6.459439964616463
-1.481521127127386
3.5772894024049045
9.14675018118818
14.391832723000665
17.74594623109211
17.55920965788528
14.320176869557155
10.440052518727262
7.339181851078675
6.461065232266947
9.171047632976478
13.41196049275737
15.813090882294553
15.793907660310726
12.824426871568514
6.463254811148345
-0.11618477215104253
-5.461757818286728
-10.191938791446223
-11.796574958566358
-10.943779963195135
-10.77310281954659
-9.523937033553885
-6.437578219426965
-3.2066998792497885
0.2227113306665714
2.2468907608424615
0.9631965372240946
-3.25219196704283
-10.211535883879986
-16.840336030707146
-17.702999003423628
-12.80981642755353
-5.092130058888098
4.67700858753254
14.050044189325918
20.205169616310766
23.279868753644983
23.047702469584504
19.406642709101778
13.658658793514656
6.4732963783946245
-1.0761130520879978
-7.687488049228941
-12.973304664702855
-16.742639974761573
-19.19704944562405
-20.38457691116462
-20.87966503644034
-21.28449363716354
-19.808742790706745
-15.675625758514787
-10.248433607418079
-4.088476656634557
1.200701962571411
4.174109019267032
6.1799292874350815
7.627669721340125
7.402752846847626
7.219372788104012
9.615700077780565
13.28552241360543
17.00599810790789
21.705531902632927
26.07750035209649
28.553548340166486
29.02261680726564
27.087088743928003
23.573486992943867
19.080105071431333
13.52650202339747
8.075012703404681
2.842862682027037
-2.1762960453699134
-5.3353146035774275
-6.227884852840928
-5.522914378239873
-3.409535752488138
-0.48159748730412355
2.5139983184241843
4.700983951679574
4.610891088711408
1.9441599008045856
-1.9551913645009358
-6.292061019329058
-10.957113395966312
-14.912533516178849
-16.832964176613366
-17.230044526266568
-17.33397015254862
-16.77589170175496
-15.623272325823185
-14.422862866013094
-11.505188046730526
-6.046786948060755
0.12313803715124425
5.357586990362108
8.255862882422873
8.289218825726607
7.1321085746991395
6.4623396670529365
6.75764676684191
8.055656560202092
9.59085369747136
10.259905954518057
9.933265747730093
8.61604050251088
6.035526277423364
2.7985982426639424
-0.3767086191955511
-2.984714961448865
-3.920238738223693
-3.160803766711055
-2.6951672795800823
-4.0162699982559795
-6.833622210188255
-10.464163678195563
-13.349674121537653
-12.833419016818581
-8.27227708014564
-0.9659118079285878
7.95582957616261
16.811044335630204
24.1716972201917
30.133928526221638
34.16103826787522
34.16116247429503
29.928949861715566
23.262258389418935
14.596515140460406
5.2769219376926095
-2.5917335253307754
-8.650441462464537
-11.130914337999911
-10.446574506499749
-10.528935875458837
-11.142613781359225
-11.082398782041476
-11.08710421227473
-10.318307598513314
-9.692336236793901
-11.133410359121797
-13.849959056451043
-16.360242956633464
-17.091916143269668
-15.313874840224303
-12.581145131194424
-10.278313241150354
-8.465764957004893
-6.942337328041355
-4.5246105109226775
-0.20506902046805867
3.8809181766293186
4.503930204994919
1.2593184223902845
-3.828133414588117
-8.808250434062224
-11.998208931840225
-12.106079300605534
-10.680006433742475
-9.785382588949213
-9.365915377433836
-10.058380597952752
-11.903647622389053
-13.425462459550886
-13.577828668305463
-11.095251880401234
-6.701591459421747
-2.9914713385305145
-1.2944643828075586
-1.674018381197027
-1.826373543644544
0.3253825839739957
3.3275855353149724
6.12455332688055
9.036014354988259
11.514845472770366
13.531346882629142
15.469575225770509
16.422852865462158
15.358122538118762
12.385636196603937
9.007807054398437
8.011759018619422
10.094346039997719
12.65783015699278
13.760599124644248
12.513648949877153
8.438772566918649
3.3265925154021976
-0.5197708754605213
-2.978398076749544
-5.641909496598772
-9.330583763332344
-12.669936683246073
-14.484862882401087
-14.360278138121409
-11.401238904081202
-6.435845338949066
-1.7195488132495333
1.6222972059163001
2.7853279209267727
1.453509383652073
-1.106838817830554
-3.252213668130689
-4.239850302499855
-4.938341347149479
-6.721082790307333
-9.643782714732286
-13.262055486001485
-16.63565159066552
-17.715912143521756
-15.648905515007508
-11.49391151724121
-6.417698966797041
-1.6200752896841555
1.3407111999853218
2.2962998420006184
3.251647986536474
4.991886238840322
5.536885599034507
3.8550666783419163
1.0612421361448408
-1.5461336399311536
-2.99679040220161
-2.806052319706539
-1.3387341100257002
0.06967481765023846
0.4857771238857196
0.5100334776136263
0.21645319928124437
-0.9585908182627516
-2.00618711983625
-1.6547340332988816
0.1801000266779777
3.653477308830363
8.23133954751151
11.08390799819481
9.830786426473365
5.149960071568732
-1.0633923988153973
-7.296331742625233
-12.880801713904496
-17.98207691964938
-22.263317218398416
-24.828753203126837
-24.924370043178342
-22.44181771915307
-18.370415982066692
-14.199830169274353
-11.612138700795775
-11.737549116002755
-14.293078920892013
-17.89994813927813
-20.364400658705463
-20.116533504908936
-16.833925833749227
-11.154167616356787
-5.602102602430347
-2.0611540336262513
0.2476575748566471
1.9715537814915545
3.280786244210893
4.654946914757727
6.080123641176525
7.671723560253127
9.243164221690403
10.02157968605056
10.233470160441925
9.879618681332074
7.377206744598697
1.8718961647448882
-5.687563385518669
-13.86242648126192
-21.35173743212259
-26.770094675676027
-28.751167477881243
-26.817825766605285
-21.42037399596126
-14.316274619825016
-8.734572057491016
-5.915824373035403
-4.6131626474958445
-4.435323456445512
-4.886630932612824
-4.655944667635921
-3.7686875644016133
-3.300305723114578
-3.9401455190604144
-5.478039972875609
-7.111084845637531
-8.077658869765289
-8.14556382771187
-7.6397481035743535
-6.453108493683495
-4.183576757544327
-1.2926527024117451
1.3099821481119267
3.3772965670661432
5.290474016389068
6.76803815851691
6.447463344897656
3.6844425208039486
-0.27005339141140855
-4.124903587548004
-7.327193192775487
-8.130081629973285
-5.6140482466943
-1.889117810517099
1.8327768334240873
5.998133029184728
9.84557028647325
12.492107252609042
13.39784934955283
11.625045414505324
7.410216568264819
2.075737260281802
-3.661253869705488
-9.370760893596303
-14.401251162277646
-18.263361996085283
-20.4502579922195
-20.733764384258055
-19.70262626397257
-18.32055354537248
-17.535690268291205
-17.246596750806052
-15.936145274183072
-12.609169267518226
-7.260540256682849
-0.8315854305503111
4.193869467439387
6.0960263214802
5.0537762679013465
1.7863812199984157
-2.2536429591284
-5.8721360107024
-8.703060228024349
-9.760491776528951
-9.01903479466491
-7.770142898400576
-6.29378262182713
-5.252785359929329
-5.312100589077855
-5.401956121686767
-6.158525975852809
-8.649139666249253
-10.92743041637775
-11.922392029039859
-12.013655802525221
-11.011717782533838
-9.587780990704216
-8.831503696558613
-9.534982629049766
-11.300765123240485
-12.551415309545828
-12.610267485761172
-11.004424167006404
-7.667770857966502
-3.579542422489067
1.3739624969521524
7.953056249736137
14.745314340983313
18.782872420752344
20.025452128830032
19.807942421942805
17.05889038691801
13.366260237178992
11.56752695067674
9.935203184750414
7.781258522539511
5.796812646228357
2.427677938801597
-1.6464210427985508
-6.2848804094585065
-13.258368579329826
-19.226622034797888
-22.825954523709353
-27.990530850260726
-32.27987165349795
-33.10318854329634
-33.378256424876405
-30.509485539368427
-23.273437167165653
-16.666657007279223
-9.98936489009085
-2.3910332797244904
2.819544734448625
6.895097499210058
11.716830808692134
15.38392157943145
16.654720258412077
17.098142441965656
17.62391530776614
16.497759964699142
14.475569565401566
12.76429752700268
9.472858861495729
4.124704807328852
-1.6089536983181287
-5.339188884336702
-9.00703756036535
-14.613210790067088
-17.24901745525854
-19.17368365571982
-23.655872331604378
-24.52852787000045
-24.440318402830975
-26.377454018297303
-24.408596498142863
-20.342520528967455
-16.175308928374463
-8.225065451979303
1.0851294453699027
7.6646276383174134
13.681618554136891
21.27677347393994
26.731070867874358
29.558057857524613
34.3429239561985
38.227133343403686
37.792995183331676
36.002024923910625
32.22201989512093
27.169622309546696
21.699138096027326
12.233218173632782
5.052395795500533
2.5588245020614164
-4.369550103076015
-10.558160054602995
-11.717757934179375
-19.55624462641218
-31.21974863157378
-29.570173227110324
-19.2935303104614
-21.29715304814091
-29.047165763517466
-22.6367312201814
-14.058174615614616
-16.500107750281472
-16.78425405784
-13.946318322617271
-17.188863739985653
-17.475651813314734
-11.015764511469019
-7.220554232482584
-6.52793103338387
-7.988708885119185
-11.542624432485328
-10.762163091213253
-7.291850915261338
-7.495790819472365
-8.649291986226403
-8.820229644571658
-7.807386786807323
-3.1929148154904126
1.5957514764516938
5.942548754925312
9.466483048743891
9.518266535351183
14.501756345090849
19.69619724630537
19.059031335623484
20.96837555465017
17.12423304400676
19.880409541311373
40.01305740473206
42.286822069538196
25.04931244386476
3.7599444013306456
-16.45747474290397
-0.23592998232636808
29.06699974146351
10.080748384301446
-6.345510107241593
24.320584415703816
22.74245209631425
-11.220301429349243
-5.309937381487257
-15.674418907453337
-52.058411279072764
-16.627374741527646
38.62414781919547
35.036842967100235
47.99667060032035
70.7017398565876
5.784084767738832
-68.01026416787138
-47.92742867237471
-16.025508496333305
-24.19871727835162
-18.001974287752297
-1.3277421580345112
-12.213639604979166
-29.61362755767033
-20.29742114784643
-5.167430153610601
1.652115694326452
20.965333451736996
33.909265251749304
23.080615109686203
14.552505360394361
10.740139903280943
0.11028496718123557
-3.711601234409593
5.586629954205952
15.07230793920511
20.387046370331124
22.025589496383855
18.497408674351444
16.464100846852283
17.818836740268583
23.000019285299665
32.12709318195739
32.57502061734926
26.87578239986516
26.280779921207625
22.91462291818154
14.1035313228876
4.06916963788868
-8.019715468919067
-15.539443318730182
-14.861595490261385
-13.45787837842596
-15.118010033016523
-18.075928372091575
-22.469611448145304
-29.202622743971332
-36.23003973052946
-42.318335614799736
-47.84714898161711
-50.15749131497931
-47.21893356206561
-39.16052444567201
-24.951640418906305
-7.186280025654338
7.244776377587554
17.820792461158238
29.491882774539967
39.82031363334184
45.64259029971537
50.866939869161406
54.69728364162079
54.61724172101523
51.88154308471552
46.60099810065706
41.23133927436841
34.98368215568986
25.68575161673073
18.07336704502797
11.702569296228363
4.749160495267698
0.7850892758012428
-0.8778813352497478
-0.5750254719460685
1.298011751134512
1.467692803020197
1.7412000694064407
2.903652230220372
2.4960768886418974
2.852261368313694
5.450634909028949
7.5362256806045576
9.837964418769229
14.64835457377195
19.528760097859834
21.896501637030482
21.348549965070628
16.903440123609624
9.640880469956498
1.8447722985374286
-5.511105576894492
-10.788684244771877
-14.138864254668539
-17.016455412747696
-17.764344030172747
-16.12900086587177
-13.915351770274736
-10.280079572851273
-6.4844133446441115
-5.52448583305717
-5.896737181128268
-5.9592079640072875
-5.942938713419303
-4.3099803344418435
-0.17221712532640682
4.584549636389586
7.187783846637569
7.03971335455628
6.359793448580747
5.668209322647852
4.057674808896803
3.8102351395086016
6.16063567432468
7.850603195675973
8.314403677500838
10.016278812216642
12.136945973167139
14.217549056871919
17.607620392191787
21.55851745966847
25.932754697424933
30.245341439123127
32.535385446415994
33.22539405176637
32.40620267320516
30.048598647698554
27.737387730455268
24.67111200547996
20.015541764952253
14.234655087480071
7.5254530492761225
1.8182836701130092
-1.7524381936048765
-3.5852674500284123
-4.567933909459552
-6.571368842692324
-8.637307193046558
-9.692781349313627
-12.131818945958207
-16.84102288515902
-23.278437180736283
-31.094657150009734
-38.781760973955855
-44.79058447927545
-47.810516044868265
-47.158506205692156
-43.029257005043306
-35.91940465925633
-27.1250733979642
-17.526924296794274
-7.138923276444806
3.7445470240411267
14.94965664049379
26.367063441996823
37.645039031223774
48.20361187980947
57.28187711755635
65.13944387368247
72.32770291268177
77.83635494310262
80.36044469572957
78.6774148363493
71.75530491091263
61.39448777095027
49.81822739050217
37.13021579741845
24.80804053376072
14.426488159011518
5.986904413629771
0.44420594387938606
-2.4281541379452323
-4.18282928733551
-5.412793524092012
-7.165023848670775
-10.150858313828332
-13.84674425854087
-16.534410362344282
-16.7827411692473
-16.419872708739664
-15.874030841205968
-12.832010589288041
-7.671940964836609
-0.7015526512376444
8.60626787816956
18.81033776277132
28.97601533373384
38.41622106928671
46.416597156647704
52.24819532268564
53.67728829045654
50.41813783665095
44.049746047861895
35.25198822820374
25.66101262831805
16.85501412769591
9.473129288400706
4.1556258847706635
0.8751502497668274
0.12009185752423007
1.5840791629086148
3.9599797184235768
7.468786197066473
10.891328856186572
13.185392729538314
15.467361779263369
15.584192158463875
12.29704289601199
8.459234541690027
5.014949633458571
3.0703938081066915
4.216703831675246
6.755674216382713
9.01351339328408
10.251784726047589
9.240858621532286
5.7635062759712445
0.9777178295343044
-3.7548985816890794
-7.9418527781025325
-10.922649653721395
-11.850460750891928
-11.239798106006246
-9.506654567382746
-6.048186502125892
-0.46243674677127505
6.615090484389396
13.97952604601679
20.72527838587891
25.079861284998046
25.69026761129149
23.972918151527256
21.85274790188168
20.659826743080977
20.624454993590874
19.706894635474843
16.622985499707617
11.971828107094819
6.336318936454001
0.7798771088058228
-3.6025119035220663
-6.855716825946368
-9.293419971904635
-11.037543770648472
-12.206015022299527
-12.721006283583888
-12.881816236297974
-13.138065920748007
-12.804320300699635
-11.412479253395933
-9.101520905486757
-5.0610605877746115
0.9534591135112045
8.568929772326438
17.70907093386482
27.87526153584128
38.625419614644954
48.361853214546926
55.61682886800641
59.98350248765558
59.354375550661175
54.4492267209788
48.695305232683516
42.75533564084339
38.75082413587948
38.49656400718275
39.542439405264375
40.46569852378734
40.67514235958401
38.92726116899906
35.45981659648831
31.39233573728521
27.65268639066211
23.63844537550629
18.77224271071493
14.185239314909115
9.259742757331415
2.853703517654044
-2.8874040328487625
-6.485261256186385
-9.886886308605149
-14.22387928287456
-18.294121805707977
-21.818138314753476
-25.718973034108668
-29.285971452150875
-31.17058688853243
-32.03402505531936
-32.57249538333032
-32.44806123825467
-32.32244893614307
-32.44144360713247
-31.612758399175526
-29.53342924914588
-26.263674638335793
-20.893258533975096
-13.53418295045615
-5.2612296987911735
4.619718694979847
16.39835018066968
28.098905561001423
39.124565121758124
48.536489381976544
54.112027463258976
56.50491485397258
55.72812495895012
52.14020263832001
48.57781775533433
43.77964258934137
38.21774750373362
35.50315603687992
34.425863548331264
34.28195620744814
32.66455409315657
26.25300023850088
19.8940476629846
15.457931541810883
10.2117977249091
6.110041912237996
3.480427861830107
0.34735783589963515
-3.917508861164174
-8.04586014042769
-8.287758450404779
-4.743738545413085
-1.2168694313133543
0.5625980315503676
0.22417746295423843
-1.4287256671597268
-3.371567492425461
-5.566897407890233
-7.153019895020262
-7.870018352736192
-9.08196655783692
-10.506481615435714
-10.697080557212132
-10.686247498092174
-11.2092175345576
-10.644241792580429
-9.619700362633228
-9.719018737345097
-10.84726945546047
-13.054520014700257
-15.437194179952831
-17.643010562283024
-20.05310017662626
-22.423958883870437
-26.025581840969192
-30.40936631342049
-34.674385902421
-37.94378517541647
-36.549749774036066
-33.34162536370807
-30.689605864149673
-23.6236463097953
-16.345656933799347
-13.396298762270757
-9.647383751758472
-5.230136665024801
-2.7436421815055354
-0.7138167230171261
2.0361411797422813
4.4038440544740896
3.4445182932937697
0.6651623799103067
-1.377622217058432
-4.562886261714818
-6.28440262645259
-3.378416176748806
-0.108910588320862
1.4588149575746576
2.862967412399279
2.687736038806124
0.48010075574617367
-2.082058794715928
-5.259702194582564
-9.326373797752426
-12.805215949595292
-15.11618880710495
-17.143204721686644
-19.101731133352267
-20.651872536009826
-22.131447478480833
-23.291062818750866
-23.306915974785998
-22.214101199366645
-20.28184543670425
-17.886982534869265
-15.636058743022089
-13.772949410132613
-12.185412405380626
-11.04326444806537
-11.476583437507907
-14.255995796086783
-18.59450121057688
-22.885685955310674
-26.075200452886303
-28.45706207753185
-29.813305394240047
-29.35219744386677
-27.585949374854238
-25.278572706841754
-23.015192472567215
-21.536118126559767
-21.414226268978453
-22.524087404716735
-23.444380566825362
-22.84550654932169
-20.333269104896175
-16.777667878982726
-13.756674082296314
-11.462918247707119
-9.740286422839723
-8.473892361252917
-6.8471094002102575
-4.547238120588994
-1.4571480043314629
1.8157555323277703
4.152407953914737
5.971221896175802
7.040718860701751
5.449414223057613
1.3658950253329427
-2.9975199905036787
-6.674456871897789
-9.033597506802083
-8.949551107736394
-7.20320872881858
-5.573273480312159
-4.871837828392234
-5.534944254280436
-7.473224109694874
-10.496855446943117
-14.445682664065052
-18.111279332217435
-20.85414538748096
-22.972403895515217
-24.017023630694027
-24.51498161401207
-25.69217778815078
-27.16412344758495
-28.786004054798948
-30.919785795994578
-33.01691013094134
-34.72440350506671
-36.023946475667486
