AAD_Filtered_TADAS_FILE
AAD_BASELINE_CORRECTION: BASELINE REMOVED
AAD_FILTER_TYPE: BUTTERWORTH
AAD_FILTER_ORDER: 1
AAD_LOW_CUT_FREQUENCY_HZ: 0.025
AAD_HIGH_CUT_FREQUENCY_HZ: 40.0
EVENT_NAME: 202302061024
EVENT_ID: 13207
EVENT_DATE_YYYYMMDD: 2023/02/06
EVENT_TIME_HHMMSS: 10:24:47.00000
EVENT_LATITUDE_DEGREE: 38.089
EVENT_LONGITUDE_DEGREE: 37.239
EVENT_DEPTH_KM: 7.0
HYPOCENTER_REFERENCE: AFAD
MAGNITUDE_W: 7.6
MAGNITUDE_W_REFERENCE: AFAD
MAGNITUDE_L: 
MAGNITUDE_L_REFERENCE: 
FOCAL_MECHANISM: 
NETWORK: TK
STATION_CODE: 4404
STATION_NAME: 
STATION_LATITUDE_DEGREE: 38.19588
STATION_LONGITUDE_DEGREE: 38.87385
STATION_ELEVATION_M: 1255.0
LOCATION: Kahramanmaras_Elbistan_Turkiye
SENSOR_DEPTH_M: 
VS30_M/S: 1380
SITE_CLASSIFICATION_EC8: unknown
MORPHOLOGIC_CLASSIFICATION: 
EPICENTRAL_DISTANCE_KM: 143.46
EARTHQUAKE_BACKAZIMUTH_DEGREE: 
DATE_TIME_FIRST_SAMPLE_YYYYMMDD_HHMMSS: 2023/02/06 10:24:51.7503440
DATE_TIME_FIRST_SAMPLE_PRECISION: millisecond
SAMPLING_INTERVAL_S: 0.01
NDATA: 12501
DURATION_S: 
STREAM: HNN
UNITS: cm/s^2
INSTRUMENT: sensor = CMG-5T/GURALP | digitizer = 
INSTRUMENT_ANALOG/DIGITAL: 
INSTRUMENTAL_FREQUENCY_HZ: 
INSTRUMENTAL_DAMPING: 
FULL_SCALE_G: 
N_BIT_DIGITAL_CONVERTER: 
PGA_CM/S^2: 45.362
TIME_PGA_S: 
BASELINE_CORRECTION: BASELINE REMOVED
FILTER_TYPE: BUTTERWORTH
FILTER_ORDER: 
LOW_CUT_FREQUENCY_HZ: 
HIGH_CUT_FREQUENCY_HZ: 
LATE/NORMAL_TRIGGERED: 
DATABASE_VERSION: 
HEADER_FORMAT: DYNA 1.2
DATA_TYPE: Acceleration
PROCESSING: Automatic Paolucci et al., 2011
DATA_TIMESTAMP_YYYYMMDD_HHMMSS: 
DATA_LICENSE: U (unknown license)
DATA_CITATION: Turkish Accelerometric Archive v 1.0 - Disaster And Emergency Management Presidency, Earthquake Department
DATA_CREATOR: AFAD
ORIGINAL_DATA_MEDIATOR_CITATION: : AFAD - Disaster And Emergency Management Presidency
ORIGINAL_DATA_MEDIATOR: AFAD PROCESS SERVICE
ORIGINAL_DATA_CREATOR_CITATION: AFAD PROCESS SERVICE
ORIGINAL_DATA_CREATOR: network: TK
USER1: GuestUser
USER2: 
USER3: 
USER4: 
[...]
-3.99008902546339
-3.0559285782831074
-1.9922995949891271
-0.8572342788298118
0.2293119482484723
1.3352427083486522
2.6006132987477235
3.8642434139317103
5.168064432141923
6.538388304874257
7.549297233532295
8.280476052243037
8.920761532608928
9.158083209367783
8.917969801073028
8.583262014398825
8.414176024897928
8.470945994656047
8.476743165931875
8.057386651408795
7.294682998666659
6.560451011918478
5.9663977602652025
5.171265336741786
4.118791337268379
2.9703027660395978
1.8835421236764638
1.1215319410079003
0.8216498292499911
0.8679226735133322
1.1198949226552475
1.5896917382285314
2.0260984773480604
2.179401649829584
2.279507049984909
2.4380976547044173
2.360946413884912
1.8625426551035524
1.187973951246092
0.4299562061207167
-0.5862699556579523
-1.709239756230133
-2.380981660772561
-2.4286927408435988
-2.0537020719265615
-1.4330913767098918
-0.7334606057276284
-0.11141445655301682
0.44410353599137986
0.9683461050915018
1.2344417788717534
1.2866665691918675
1.3945964534011106
1.45652413004104
1.1899428049314267
0.6083219821684316
-0.13202402250249917
-0.94213694011829
-1.615092680776306
-1.9334173414201772
-1.8339106745017368
-1.5625662208051967
-1.5219891846641447
-1.7215654325458478
-1.7935652576652763
-1.5054504601924086
-0.9313132749587284
-0.4438179982255233
-0.088051078705746
0.3345401259333664
0.792498468067251
1.3625870679574776
2.2247004498846925
3.3570148703097757
4.56006540173565
5.73718601832594
6.813182097449087
7.7102605762482765
8.501206252319019
9.138399261322423
9.445319726507684
9.410044646360396
9.294387282566996
9.203141905920484
9.303285980770832
9.594733827823983
9.771013888512682
9.632649836474869
9.22889616124507
8.620841052207215
7.763198709732564
6.6809478746917295
5.417566718182221
3.8803433662714593
2.02975790021119
0.2074150277669725
-1.3114442073696955
-2.755052646961482
-4.213148755442812
-5.476060092099671
-6.502935468032482
-7.151559162214785
-7.16714472930004
-6.7563151191138475
-6.121746999179654
-5.0204249984598075
-3.5286286806037497
-2.0661147091644927
-0.7371765889266539
0.6404784854562928
2.075827783023502
3.423014768263987
4.535639916875605
5.4391691118217045
6.288317607830694
6.991189160378445
7.3442219909510795
7.121498479647884
6.147461608748787
4.723090464311004
3.327292213434501
2.0103036613793464
0.8328019974096846
0.11354657659070408
-0.0640814860546504
0.01509212861036519
0.40210562681447853
1.3306411898618038
2.7011641036381144
4.082096828652407
5.391577078372268
6.767089893208404
8.00034821373
8.908968920404755
9.578099084377856
10.247768303692347
10.908789988006319
11.44619093501197
11.872812374316377
12.219937887912543
12.551698417989728
13.015579394074662
13.606843568873606
14.40134364421268
15.39531172448564
16.361719510392795
17.089438077371096
17.385088624444816
17.1326858044957
16.61034936316731
16.17517225180327
15.899160571248247
15.60371225270871
15.470635135493158
15.908593867133293
16.571331841119274
16.802628821762177
16.473942532887676
15.852162810389176
15.014672108703492
13.868114408273769
12.483317715594724
10.975256324348033
9.262002613954028
7.4123996763487465
5.723609328716403
4.000474965977515
2.115887149551952
0.5449851317900932
-0.5754733489257047
-1.399572589771701
-1.8677546866542893
-1.9236079698577542
-1.5934036874961301
-0.9232855292721249
0.13858847560013593
1.5413998655010672
2.944176421809321
4.071063826757317
4.853980453151988
5.043112895296057
4.5416025791452075
3.7021072303118423
2.9453170316927997
2.376054784300644
1.7693297653078885
1.1566274824409886
0.876194174422134
0.8280714078702183
0.8322607082143325
0.9548372617107213
1.2492359311959793
1.6127756527468706
2.0708153126538966
2.935071951429826
4.188349164369775
5.50187013239634
6.772141623247572
7.999188725361072
9.356603199079673
10.755346485780276
11.800396202162176
12.306203246320448
12.416135085811987
12.349805951232197
12.280523598261405
12.192321790736706
12.021882782116284
11.759527041302878
11.33370837020789
10.90267297177975
10.758527029555824
10.848182166005222
11.00512469433897
11.20981683626024
11.568220877740819
12.155026693026686
12.855250216823187
13.427143343770096
13.880616919207899
14.30049000374523
14.642352471199914
14.75275520721822
14.438829956407492
13.727051122934993
12.84128617749456
11.970092118790225
10.995152815418113
9.796818040084629
8.373804471728532
6.772539781222113
5.1252412028875165
3.626731133744957
2.2522325362197013
0.7980207761176619
-0.6818796544871872
-2.098835614365353
-3.4783898729683074
-4.831845363016936
-6.130669203724726
-7.24698869447227
-8.232692046766726
-9.179783248672624
-9.928235358126532
-10.401552183988128
-10.89874921467569
-11.48215555831769
-12.117608955255633
-12.814667527010442
-13.507473255204976
-14.189263080162744
-14.944937703174567
-15.832262588602548
-17.03644917591064
-18.418221499301257
-19.776082409439365
-20.97752574326527
-21.913183913851405
-22.493626436760145
-22.724908059420763
-22.68576007314101
-22.48291689459301
-22.191880623455816
-21.890057840177786
-21.469114854400658
-20.654839827906073
-19.5021041578888
-18.28240190841255
-17.070012621508923
-15.779415005997235
-14.328285373250122
-12.709102955525614
-10.972464580213622
-9.235428999822824
-7.55247841445124
-5.796925550322064
-3.9826958559465813
-2.2532765639160597
-0.628922576854269
0.9522653198829583
2.349424860863054
3.5402978056297214
4.73801849542141
5.990720409824465
7.145987856762721
8.008525416589231
8.522936114737254
8.694917123733982
8.44388841677747
7.558927369054395
6.046552051349155
4.268680009515702
2.453820005348042
0.7439592205378621
-0.715065613615002
-1.8299372305047186
-2.7864628793781443
-3.7511217507122896
-4.6159329592938345
-5.345110054034147
-6.063717399136083
-6.900232034984587
-7.8157327806144785
-8.572851344796458
-8.967609596787188
-8.901913541267202
-8.45411057396555
-7.854904956103119
-6.98665590855861
-5.618919568535616
-3.775740160923436
-1.424527360767127
1.1726345762027368
3.4073803317651974
4.982347115162197
6.259109095637748
7.618440144337694
8.693682391546352
8.883854314970693
8.280419280985763
7.276687575421487
5.864063155412315
3.7391095186149013
1.073207640305111
-1.680004569593843
-4.517791118554096
-7.408993842235536
-10.004907236834981
-12.301462228439618
-14.60908329488824
-16.951301637840952
-19.10908700483271
-21.175034375826698
-22.949580934364995
-24.0320392319046
-24.25162785192005
-23.517629680735425
-21.691136479956974
-18.91527715608031
-15.875507401071898
-12.991853583931672
-10.59777446570626
-8.963190033155447
-8.115526337730847
-7.884016452294117
-7.805483745892361
-7.5378218634785
-6.8503102845194075
-5.644114087103372
-4.073422737043874
-2.273099428304488
-0.29544907680491506
1.5558933689252161
3.192008854909898
4.623790976610719
5.775379584145371
6.722436296746389
7.513155663480886
8.010067722073005
8.176101789653687
8.083827706285568
7.8096055298403515
7.413661246098894
6.788745774249007
5.9175540204815675
4.9816158772122545
3.983099767065007
2.7660974339436044
1.4133526737158837
0.026978110528513292
-1.4093590711459258
-2.946276473442405
-4.608013227028468
-6.29100940020161
-7.8721144950975415
-9.346560553287246
-10.769052222710602
-11.967346116026429
-12.702693724554443
-13.03381243028989
-12.922525922982672
-12.173041342250615
-10.72175827518106
-8.576443026169466
-5.901959624153272
-3.02267403989321
-0.210251993544101
2.323671914336993
4.704346713055369
7.045111921066978
9.24702833974502
11.412314623884992
13.509887443210502
15.274083351812815
16.73696178593579
17.95238052441221
18.676828632341405
18.84777558150013
18.626593401003692
17.968115227303862
17.008546966622852
15.822979434261406
14.274681945976345
12.522947118698399
10.743998664461802
8.983105815702965
7.3952316410752355
6.298158703538877
5.6567026247566154
5.237714551336919
4.617685382793478
3.506205669977375
2.038325487465919
0.35590731150859495
-1.4538834950570771
-3.285094610170947
-4.989324498876123
-6.571765609068426
-7.895923215191286
-8.810814667022923
-9.248964147257308
-9.19672852810043
-8.719891574200421
-7.971271112690505
-7.1545237059207984
-6.591518578864434
-6.523565478125389
-6.836729526291108
-7.174536458513562
-7.326412454083441
-7.1250386469517855
-6.371090895747163
-5.019526627889987
-3.1951049682751926
-0.8992943525843866
1.971817550577256
5.030817632664708
7.8956313437357215
10.759433854185371
13.758569114061508
16.64535430620901
19.051065927342304
20.67121677356609
21.320030115479906
21.041574969451464
19.910421309933138
17.98250986685255
15.29371351061732
12.15718111331308
8.732777805674175
4.893740999266799
1.0165544783642109
-2.3836949075252805
-5.305865452674977
-7.925399251321341
-9.840041926123506
-10.573325740183119
-10.092567835378
-8.710659181861374
-6.841570868137943
-4.603263461396305
-2.0225857667284552
0.7662687768140465
3.3944657157941136
5.537133693681641
7.3144863398407685
9.01733368870765
10.367215415358494
11.139889361500135
11.485369316535946
11.54192272451183
11.193320905342574
10.297173020369799
9.05657951836901
7.640750433207743
6.05363003244258
4.444953385734911
2.90805711296148
1.4224506040455693
-0.016271190126081664
-1.4905810141761116
-3.0321989214377196
-4.644741973876424
-6.2443140123506815
-7.887634153754641
-9.51046652108746
-10.738802639341229
-11.33555907827312
-11.387057400084126
-10.928508660618624
-9.862910989180579
-8.339433299327542
-6.479653380914419
-4.4148189050672695
-2.2616752420805035
-0.12800536695261322
1.7544416008117283
3.3337776045470084
4.682576853639853
6.039096894655727
7.803343311868273
10.050301150626668
12.409749392364951
14.845744798955803
17.491072387100086
20.30236774627496
23.114440286425875
25.765855475800585
28.075103112230533
29.85366933357159
30.842849833486383
30.980630974715172
30.509586004814423
29.567261350766774
28.344741471719992
27.14636086337443
26.064995781290232
25.11217825313895
24.33942331151189
23.591620310635868
22.411020440245455
20.453465911328234
17.70059612170911
14.369031736571102
10.868683081089054
7.38510092128388
3.6854455100997647
-0.1120430889515208
-3.606020547136125
-6.708136269654021
-9.52193273159902
-11.896585286112131
-13.741307726451877
-15.112572403835191
-16.071458052928353
-16.622264648728372
-16.761284398424845
-16.60380557412807
-16.227853461827998
-15.569837184461186
-14.68018264943739
-13.571797769487318
-12.274829644686863
-10.984543300810842
-9.93460503345248
-9.117589950413944
-8.298748655611638
-7.5838933295690145
-7.199466936801292
-6.9885878242764425
-6.777723076316999
-6.687468037352615
-6.869072500811568
-7.235475292342482
-7.5212840721710545
-7.537946025310143
-7.423381588631447
-7.245072718526615
-6.829961747739118
-6.154415672305612
-5.364533269226654
-4.35710784131892
-3.1313019817257213
-1.8029741838073037
-0.23925104386292184
1.6161528090614883
3.697503019112571
5.900835670250834
8.106812230450725
10.167775735508641
12.072520588224355
13.835937436851312
15.243806291515439
16.05528545379072
16.376846979843492
16.452519134271288
16.27619080090221
15.689601464796882
14.755202505137529
13.528697011412198
11.851702401086099
9.86554894926604
7.885689723311388
6.02879724092626
4.181861452149754
2.2261118184640853
0.3221897043581749
-1.2850733015525744
-2.6410332800273704
-4.0179720941215455
-5.5682801747915125
-7.210430763982514
-8.83139200477655
-10.451821791562391
-11.7117221144054
-12.169550979659157
-11.492107536881962
-9.747471594143596
-7.472693726510655
-4.851053655571861
-1.8946789841851086
1.1052440436704916
3.9580555263857753
6.5606397741287275
8.95901629650664
10.943416906857763
12.546170339642629
14.021382691681756
14.966871681635169
15.368542016767305
15.561950382766959
15.984319830049467
16.68172678835257
17.521732649975487
19.046842279394497
21.53082034042015
24.703235634144683
27.95982390064633
30.967049648133653
33.8453530381127
36.69055552059168
39.2655740341886
41.371753334505755
42.94428592333114
43.8190082579236
43.84964568646379
42.96871498808107
41.07809980613437
38.45833440744415
35.39669979581856
32.02774558486992
28.412489654282425
24.633138198192583
20.871091430910184
17.114589904866676
13.420724889019596
9.97136823893066
6.943997403199289
4.647071575690341
3.162457401647986
2.4902551536424995
2.721912675829894
3.4052261528964736
4.056300697123706
4.519316502551129
4.776463410807242
4.81353458270919
4.593939697340346
3.9213164530713653
3.0017832643929867
2.1242591446553627
1.1478259570120908
0.12198593403006967
-1.0889347275620973
-2.393786123002364
-3.5018718804553832
-4.364007847851836
-5.36795007307464
-6.792345393741579
-8.677498733440697
-11.207445563596574
-14.730439784919655
-19.345717890518472
-24.738953060556664
-30.39200763861443
-35.71200794334382
-40.352925862490345
-43.85374898504784
-45.86302346059822
-46.60350383586139
-46.248585310936086
-44.759285108088974
-42.02442734468157
-38.21456951760006
-33.9304864594428
-29.141952937084042
-23.808078099259173
-18.714631305786906
-14.324665792633935
-10.324803037972432
-6.615376770228712
-3.197069230222912
0.33358279857364553
4.004134486841489
7.4733672077228865
10.496792622268378
12.619572493683545
13.600555545729955
13.583631277659425
12.670589569845195
11.126900435745792
9.209042797204573
6.920033484586791
4.5557782187113105
2.157349421436876
-0.23950596406342967
-2.382423315983006
-4.280450965708962
-6.155324965377606
-7.907232015749269
-9.332738203554062
-10.571585468010534
-11.764204906414806
-12.839291743375977
-13.661693061520083
-14.20459969622864
-14.540894582051957
-14.509588753312292
-13.859537879430942
-12.614736595140721
-10.878854907722067
-8.709369288916816
-6.221268873154155
-3.488261650644658
-0.5315801221372858
2.4859935531501063
5.42563652598355
8.062926746857942
10.212753279126597
12.282802480119683
14.400504016442724
16.40842224491269
18.283275880103098
19.825487542079554
21.277361923678484
22.757935531928787
24.164757617386986
25.452833254570223
26.54873386635497
27.63593468247948
28.608937089219936
29.515102544281817
30.304037159473662
30.713906915345426
31.04072948560669
31.41873699253681
31.477103456949127
30.906826797938987
29.532423699179958
27.260227467117122
24.41009265868249
21.100552084375416
17.069506886685332
12.761633954360509
8.69613800962871
4.975094496440979
1.302149999250244
-2.442421379487248
-6.13649026427987
-9.834366053168692
-13.435580968032028
-16.48836701135549
-18.845088750147593
-20.98693755378773
-23.091373386381825
-24.84383995658912
-26.091608936148372
-27.47363922841022
-29.116871533547872
-30.575194852041587
-31.791114588835807
-32.7648097019113
-33.115373589788454
-32.449391867277704
-31.354574529502028
-30.338823637982642
-28.94120735665293
-27.208146854556464
-25.79749485526782
-24.48207240614076
-22.96661249842075
-21.81864776651491
-21.210163448286703
-20.581678237905482
-19.85287970930618
-19.122983411037655
-18.116686069451656
-16.850228791078717
-15.728121562426832
-14.822779419247613
-14.027190376321103
-13.649093514377764
-13.711291694686578
-13.90549017735017
-14.053365720482352
-14.0638390672352
-14.20161876607652
-14.399651374464437
-14.1838279035977
-13.448093979169501
-12.215039838810263
-10.091385609894438
-7.049409320127085
-3.7527955527126897
-0.34284758015479216
3.325088308770316
6.83413261510885
9.947860977550745
12.746270580200571
15.157757840872105
17.01108790186007
18.254413498434747
19.023447036706223
18.94740495121136
17.875723380714984
16.200628328425115
14.151173552231521
11.598191098752714
8.70402049682199
5.660177194455873
2.3558247592528714
-0.9982340254600409
-4.066163112199424
-6.777381657013334
-9.179712803484447
-11.189848164104328
-12.653376901905608
-13.363510529925723
-13.391453252615724
-12.59651970677567
-10.90154789346208
-8.767983153957045
-6.5813375486806125
-4.305167122834231
-1.8068830284369737
0.48566214362029286
2.4998548090209662
4.311964031006958
5.895899312620145
7.27383880571485
8.570943184604007
9.752710118985012
10.649658781145545
11.408369880652362
12.304122642933367
13.293195053683778
13.980694974252737
14.648232677904323
15.727898113083524
16.63387811852084
16.894474371988522
16.656311051730263
16.097777547177756
15.323230271232973
14.201843261948257
12.672707327725671
10.71890196989545
8.655195767717137
6.668330966818008
4.5330888798881634
2.517496738129509
0.9475680697053898
-0.3498760705463869
-1.7832658964374986
-3.507417496726332
-5.212630945744531
-6.72165459133677
-8.16920274992648
-9.549801095469533
-10.784278038124649
-11.610798842376484
-12.202617436290055
-12.934104083370338
-13.827409584284624
-14.656439890366997
-15.508048424574657
-16.790205658426753
-18.21163019636491
-19.750463126256857
-21.641262716525723
-23.552859213141716
-25.264083956021057
-26.62027812821958
-27.641664748744446
-28.09887875597759
-27.21410850731849
-25.013287108876256
-22.056167716633873
-18.562524058801866
-14.794885194687465
-11.03435923113989
-7.21624296528099
-3.327429954219292
0.07623637483417157
2.55063056994991
4.364074326274949
5.709687719025432
6.352834694300353
6.124726467575352
5.490807819198796
4.888318162294729
3.8561795475318785
2.3769821853122717
0.8187295834108174
-0.9510171108549358
-2.709679793684432
-3.844568313804876
-4.464921123418985
-4.773606235670167
-4.785146619592319
-4.551675932612854
-3.788253341568395
-2.6437516272472554
-1.580615473790457
-0.42071211114939766
1.1181624358108302
2.827806652595314
4.291149621640519
5.4482889378457875
6.470663081088017
7.1983427732456216
7.501171668023843
7.559677834237994
7.515178418651208
7.065544477100317
6.265395578782641
5.378691903438061
4.370032571240956
3.513099995120913
2.953833252316977
2.6340509342695113
2.623715975680216
2.9803939502725663
3.5110701061307865
3.9841252853338966
4.312990179514387
4.249767090826913
4.058307840881706
3.802444619239876
3.2107652790310803
2.2083223532172407
1.0176576010264942
-0.0948265568089432
-1.3181756367174116
-2.884446990899816
-4.460823971980439
-5.807318135325936
-6.8707531272423354
-7.4474309617917545
-7.600242650029485
-7.4022670539079245
-6.745013003569759
-5.6564632920718845
-4.486249905548781
-3.5960494741256075
-3.2111637777577933
-3.1812113265152364
-3.2067699648735086
-3.753274886390491
-4.983869865622401
-6.160902304982003
-7.004972663262413
-7.8808667673751645
