AAD_Filtered_TADAS_FILE
AAD_BASELINE_CORRECTION: BASELINE REMOVED
AAD_FILTER_TYPE: BUTTERWORTH
AAD_FILTER_ORDER: 1
AAD_LOW_CUT_FREQUENCY_HZ: 0.025
AAD_HIGH_CUT_FREQUENCY_HZ: 40.0
EVENT_NAME: 202302060117
EVENT_ID: 13194
EVENT_DATE_YYYYMMDD: 2023/02/06
EVENT_TIME_HHMMSS: 01:17:32.00000
EVENT_LATITUDE_DEGREE: 37.288
EVENT_LONGITUDE_DEGREE: 37.043
EVENT_DEPTH_KM: 8.6
HYPOCENTER_REFERENCE: AFAD
MAGNITUDE_W: 7.7
MAGNITUDE_W_REFERENCE: AFAD
MAGNITUDE_L: 
MAGNITUDE_L_REFERENCE: 
FOCAL_MECHANISM: 
NETWORK: TK
STATION_CODE: 0214
STATION_NAME: 
STATION_LATITUDE_DEGREE: 38.028298
STATION_LONGITUDE_DEGREE: 38.22594
STATION_ELEVATION_M: 1353.0
LOCATION: Kahramanmaras_Pazarck_Turkiye
SENSOR_DEPTH_M: 
VS30_M/S: None
SITE_CLASSIFICATION_EC8: unknown
MORPHOLOGIC_CLASSIFICATION: 
EPICENTRAL_DISTANCE_KM: 132.74
EARTHQUAKE_BACKAZIMUTH_DEGREE: 
DATE_TIME_FIRST_SAMPLE_YYYYMMDD_HHMMSS: 2023/02/06 01:17:34.9180790
DATE_TIME_FIRST_SAMPLE_PRECISION: millisecond
SAMPLING_INTERVAL_S: 0.01
NDATA: 3908
DURATION_S: 
STREAM: HNZ
UNITS: cm/s^2
INSTRUMENT: sensor = CMG-5T/GURALP | digitizer = 
INSTRUMENT_ANALOG/DIGITAL: 
INSTRUMENTAL_FREQUENCY_HZ: 
INSTRUMENTAL_DAMPING: 
FULL_SCALE_G: 
N_BIT_DIGITAL_CONVERTER: 
PGA_CM/S^2: 69.914
TIME_PGA_S: 
BASELINE_CORRECTION: BASELINE REMOVED
FILTER_TYPE: BUTTERWORTH
FILTER_ORDER: 
LOW_CUT_FREQUENCY_HZ: 
HIGH_CUT_FREQUENCY_HZ: 
LATE/NORMAL_TRIGGERED: 
DATABASE_VERSION: 
HEADER_FORMAT: DYNA 1.2
DATA_TYPE: Acceleration
PROCESSING: Automatic Paolucci et al., 2011
DATA_TIMESTAMP_YYYYMMDD_HHMMSS: 
DATA_LICENSE: U (unknown license)
DATA_CITATION: Turkish Accelerometric Archive v 1.0 - Disaster And Emergency Management Presidency, Earthquake Department
DATA_CREATOR: AFAD
ORIGINAL_DATA_MEDIATOR_CITATION: : AFAD - Disaster And Emergency Management Presidency
ORIGINAL_DATA_MEDIATOR: AFAD PROCESS SERVICE
ORIGINAL_DATA_CREATOR_CITATION: AFAD PROCESS SERVICE
ORIGINAL_DATA_CREATOR: network: TK
USER1: GuestUser
USER2: 
USER3: 
USER4: 
[...]
-3.391504698030038
-3.916640210993429
-3.9770660340718536
-3.183874297438473
-3.2565844607610037
-4.075119082194658
-5.574171313479058
-7.468363897282587
-8.39452740930437
-9.345416773485942
-9.345058061381144
-6.267049313996361
-3.83452390401746
-4.074013851600295
-4.669781102630446
-5.530478701764546
-5.541036921438366
-2.706661774959365
1.4478379985685546
4.742577793819602
6.384628984295015
5.631661260852126
2.9032355395203533
1.2607734428550936
2.0245054176978723
2.571736504963958
0.533596784265594
-1.3727217053786265
0.15967636864645351
4.501511358546579
9.421773405915014
10.803215568978644
9.17001485397121
7.482205749277793
4.303354867835508
-0.48120185320184133
-3.372079287600104
-4.035802095474692
-6.06928302642719
-8.812661628662786
-9.722072287681046
-7.945879132311474
-3.079854072041572
3.1538562097271634
7.747035053735896
9.922029810307803
10.275026535104164
8.89309553160381
5.3142293846104645
0.3687805191638019
-2.4413411428087044
-3.3999199262089044
-3.700324054588127
-2.2509593970098587
0.33897489015030713
3.2109239845170205
6.37541789504083
9.125875642860077
10.248187248387616
9.67308638062292
7.047940641613399
2.895073993931606
-0.07774119579563972
-0.3922931203446581
-0.9621829209526759
-3.8670039934660267
-6.667100037723183
-6.62180113589444
-3.2242618359300166
0.8726392615435908
2.335652854515615
1.1097766578235968
-1.1655565078733283
-2.7631772103299497
-4.00112009860592
-6.024216986280329
-6.517060881475945
-5.554544060909343
-5.195542894549731
-5.382487735580268
-5.513453310416548
-3.9276661003258573
-1.1665321509483784
-0.04404014057909211
-0.7862604570883949
-0.6540648681985651
0.5954313839106424
1.123256809293432
0.7581992931130689
-1.3191563317459043
-4.124009451752248
-5.054409893312776
-4.562202589634024
-5.33035389733807
-6.175063120163854
-3.0395917214316683
2.4402099389455683
5.9707970028665285
7.573938911156309
8.035929096947852
7.438523953919247
5.950724767942802
3.403332054482771
1.1675474126808751
-1.666071871601241
-5.249502096623601
-5.769885910479223
-2.8583284983051973
0.017436284250612527
2.457301888023775
4.700725341783481
4.804207386990283
3.6434539488132085
3.861233609217118
3.683262577562695
1.1504758081347535
0.45301191442247274
0.8817161117930642
-2.4611065736216733
-6.401722881423318
-7.722426478008633
-7.464612391670616
-5.820564380716007
-5.256793341234817
-6.268709216316327
-6.741832050114777
-6.880035554490673
-6.558321179504849
-5.801159452331263
-5.929719159077344
-8.031831776520848
-10.805331979445311
-11.934158647411918
-9.620253036283154
-3.9748114781651966
0.6890178294349005
1.9098175670739876
0.7103920156077518
0.10135819795209317
4.464882276527691
8.737156497171533
5.047846651344586
0.21269536950355558
1.4102237513886577
2.9845696665883743
3.225253076170934
3.643745883835059
1.9315286635259834
0.37049260985732946
0.5358772539667908
-0.8072240186111459
-2.7430394928311483
-3.429770896989268
-5.406620269263499
-7.106507059292317
-6.7108282147734535
-5.791412947357023
-1.6687677486921173
3.9180816376326124
6.020813657853999
6.200559298999522
5.543442925444951
5.799028205524062
7.816778492638741
9.438451213478034
9.752244770636118
9.161929710689144
8.511310636147874
8.737534578542615
10.376602717330552
11.20793566877039
10.81586446488052
10.829289766553547
10.782476392296433
10.691741000306232
10.94195888568407
9.525582540689626
6.416437536635949
4.092506687369524
2.3896660253171906
-0.10151798818793863
-2.749223511403937
-3.8008462638284133
-2.7415686967521133
-2.843401546600024
-5.196604295059098
-5.452441357805336
-3.40214444264867
-2.336136345083927
-3.30815036385859
-5.149724129282091
-7.544402561334191
-8.130032144833411
-5.265782539042722
-3.6714346652677077
-4.828352275945871
-5.277996274932875
-4.282604260252829
-2.7325069330546747
-0.48252776572848816
-0.016976052028093182
-1.2859879195873374
-0.9051670044804101
0.5927709381161581
2.581513823110555
3.796139181111472
3.0457571216542236
1.8623142686022338
0.5963420237763721
1.6674070000783916
4.547198447066899
3.9980862241122677
1.2109987191498555
0.914030898108113
2.4660364745524284
1.9938080184052525
0.5877044068954753
0.16491177604746157
-1.0396612712745725
-3.6981099648394253
-5.069697078148299
-3.4663740766242728
-0.7456906560674534
0.5973043943892072
0.04984177367133113
0.6369676861219674
4.334336208649028
8.270832073100216
8.645068595650583
6.633421928605101
4.739117444707249
2.5665823635662828
0.6115482940949606
1.4435058662873543
3.933934242330602
5.076418488440127
5.255684525118909
3.9894525172106357
0.4042685410577961
-2.7329142159087954
-3.3910822491799184
-4.00336263575788
-5.08909268297894
-4.27384183586893
-2.789099870124817
-3.1378607220995725
-3.352369292925695
-2.9502789543935983
-4.16294558716834
-6.306710539445199
-9.244078873001538
-12.953442981517563
-14.984251764339373
-13.955759124599131
-12.422157893370427
-11.90808627343323
-10.819458022820577
-7.588235530170162
-2.259299482482295
2.046836108238968
3.719061988302274
4.223062159073045
4.440363999741171
5.337501799561453
5.7835912535139
3.264702127911988
0.7593594855618423
0.5527433502960871
1.2801781847619462
2.0062334119140743
1.4783489914929215
-0.41923029601124107
-1.7746164199380132
0.0052674941577269905
3.5094244613532797
5.029350020091649
4.300319830755573
2.076738215056184
-0.46705479157859087
-1.7407694973597212
-3.9755111707142303
-7.441649271083221
-7.999366692672982
-5.072340484739544
-1.8437005408670242
1.2921514191642112
4.487731349210337
6.259516699571511
7.462802800887352
7.993091269857299
9.536126336763287
12.914615524951005
13.116704263361889
9.818983309831323
7.445202216734174
7.009592804471258
6.695826892183509
7.170470172693662
8.274590079183783
6.354913232550088
2.500993627297849
0.21814977195802082
-1.1806171347576406
-3.7278514890628554
-8.274793092545323
-12.929009429170112
-14.370476441087076
-12.204029974571675
-9.157383794649697
-8.266015300979712
-8.871217247415352
-8.680157668857285
-6.189844238701894
-1.5632111808144815
0.8161025153198691
-1.7286715488390614
-6.075437340808272
-8.442107674546499
-8.142907061970849
-6.323075056471241
-5.68509788687331
-6.724465792748685
-8.58860956049644
-11.989729978231578
-12.179755081145473
-7.2157346937525935
-5.570289586275821
-10.27299416874699
-15.154293674662908
-17.555291526848524
-18.14275442748881
-15.636686016043194
-11.502644409460277
-8.693519149369175
-9.265199438639973
-13.42803672971101
-15.655375952674822
-12.232094362366453
-6.775096857880386
-7.358863684260736
-14.565700459833181
-18.766896289184334
-15.12525716086773
-6.0591009703496645
0.6217348303979378
0.46622712549586226
-1.3508069588156015
-0.8461856123497787
4.414709540647658
13.80338563181037
19.533361701788916
19.4304030123404
19.035261735542715
19.027909844168352
19.9421764140749
22.792281539109272
23.615607237684223
22.0415797076159
20.80512867547237
16.10819840534895
6.454835857261038
4.012479850790265
11.886445124633282
15.731082634804652
12.015332328496534
11.344633004589573
16.03958725754751
19.36541093526425
17.326634931151613
13.119913034910224
7.5264589552966354
2.6029572500962455
5.7366041333892746
7.958288955875845
1.7274950147103039
0.7869465757719324
8.663147668784548
12.691442047541187
14.647846312999517
18.766582995813046
21.303441343109665
25.57182143336871
32.25555084166495
30.26251227891166
18.03563492763629
10.692941210903756
10.334155113923416
9.182309274630617
7.456081161819651
5.363553036744191
-1.5741521205178368
-10.388507396236541
-12.386290061394902
-7.260310350006176
-5.195859771347876
-12.347768241807314
-19.588308650639878
-17.36721257832747
-8.234166667572229
-3.0576859523035207
-3.4643335051586837
-1.8240632087155264
2.5777073083405204
3.333528230488867
2.3581458303335965
2.3805462062874767
-4.575045886239292
-11.815661757791883
-12.148515883918215
-12.18330530270657
-12.522726657017865
-13.2466883023732
-11.816598895441814
-7.824045575605123
-6.607427685317407
-8.189977637505422
-11.69196771333147
-12.624675119923584
-11.194533600568532
-13.887785628122503
-15.507868764830732
-10.902087455182492
-8.935656980663653
-13.94390368776459
-14.179478457989964
-3.0729985237553077
6.171657133127684
9.045779140272964
8.634411206904666
-6.435011371236396
-23.10388246338363
-16.509492199299327
-6.673350242839673
-9.962749587005845
-8.190318696177759
-3.1667684465655705
6.0431231277975614
23.14847116665151
29.54095112393931
25.276037500303254
20.912503434606233
18.726279375794835
18.36544105216322
17.186328253666993
15.346085355572596
13.92440888074206
12.13796829723377
4.219821407889543
-9.645452132770187
-7.903397595135764
3.901025258368779
2.2681397487645505
-7.299327751671192
-13.379554100065612
-13.403520307568407
-7.161835463869455
0.1523226695934323
-2.120890540563325
-8.371852974910581
-5.523489435528402
0.7547511645666136
4.121557558243195
12.477646686565295
15.717115287054888
8.12354917577059
4.575537478156995
6.16252748845858
4.4053525410262395
0.5093187242676326
-4.102948880901835
-12.662617797133162
-14.71557015237977
-5.233926021569378
4.826920883653128
12.868217877911388
24.387405414590987
31.52681913179405
27.364112747309136
19.509712871507006
12.089351239576903
3.8078860175463687
-1.1742070448369497
-2.4292432333256673
-4.003900455790997
-4.940271403055756
-6.60682585206584
-10.511904274321324
-11.900393398185964
-9.176786861676689
-8.572901170894715
-15.044441782798017
-23.10183084595872
-24.2649965814029
-22.882680673836727
-20.775223682597613
-20.046902584506938
-27.646940251131376
-36.89566144698358
-37.72205344190672
-30.951176037311303
-21.842315311655582
-9.759586383719842
2.251018152509099
7.613825734156673
5.8194652871054755
2.0131798096024234
4.103306115452419
8.90357999647152
8.259930339184436
0.6620153735940935
-7.953399851176346
-6.564974844487668
-0.2701884493462731
3.3108272065724944
8.56135849073174
11.514890695230287
8.34385248950225
4.061268040011071
2.705611141402023
5.119660342845327
5.972634343168531
1.5623408299894872
-5.6398776350746065
-11.021435162172482
-11.13021476419861
-6.756920431554816
2.4785111629458276
10.06482527287686
11.150448251042365
14.76033331813194
23.616759208012294
27.023145042658548
22.84552624583725
16.52176973229606
10.703493659311366
5.011479407871022
0.17663397099396086
4.278702722480037
13.092778106627394
17.022652914504068
13.07620367320726
6.12586793849257
1.860513266137532
0.21025389545574164
4.4600270669138835
9.167050595108629
7.998310007738212
4.527390990517869
-0.22355691500614372
-2.6625089873855488
-1.2827974112803127
-0.818888645784077
2.087586090384624
3.78237105869287
1.02223852015117
1.487915429237179
6.545262256244621
10.275713842672232
8.562534226385127
5.471058831642041
4.842009007036196
4.47742102854894
3.457732475121227
4.904210595207967
8.024136196252059
8.74072997702708
5.920798741529842
2.3262084164015344
1.6729746185070542
2.9886906480023465
0.842197138446953
-1.8498770787202639
-3.645572492654618
-6.903941453277753
-7.559323987104805
-8.846083094775128
-13.063835182230434
-15.340922303902213
-12.000335997540109
-3.0184384934042128
6.867550541058719
11.659338488361568
8.830787720642066
0.2467313752894788
-8.896798890991418
-14.766512604736098
-15.975006570627533
-16.17773407623124
-19.03109346243784
-21.8342679391643
-21.92552786440978
-14.93031966824052
-6.196561517468656
-3.801144266717866
-6.878436890375201
-14.24249825934523
-20.550523179372433
-19.034641667789362
-13.6347313437475
-8.540895244760849
-5.14945472491246
-6.504817641002743
-7.862567971574103
-6.594002801599534
0.13775147202773216
13.240734237402446
23.586762382056516
21.315567299041625
13.423862485353004
8.734871742397674
4.662343798030912
1.6052389518394057
-1.546291679084581
-4.028596046432388
-6.400673809383358
-8.305511863795756
-7.939266086605627
-8.802532924159822
-10.444560200743824
-8.710950844900852
-8.234392659014913
-13.334850986442046
-17.75052590179302
-14.357014191521698
-10.89892904186544
-14.103168725233882
-17.45034619745138
-19.21620214555075
-17.563144498624695
-13.5086636382793
-8.95031919747885
-1.644059961291285
8.461836682491583
16.341772078235135
17.371392767714358
18.734569203578044
21.57278070055902
17.51130069720452
10.410393317457052
9.831821345846736
15.49245378927144
19.48652821996442
19.0727343221176
15.354057399266047
10.55315677578506
10.939019834081273
13.086869668142674
7.563208786688029
-1.6537634258889378
-14.556653626666986
-31.7587423136749
-39.71274247438735
-31.24407652636667
-18.340061706902567
-12.665605652027567
-14.64695583088959
-23.38957222660976
-31.502115165298125
-22.068204397991284
-3.22909751368021
-2.4037534950376687
-3.93973205438752
6.60198075329366
25.509118621597533
44.175696399888274
50.44584846112127
65.40710177212515
60.102428549782545
0.3165820056879115
-38.25150503985457
-18.659142996840796
8.294413416203492
26.531452870930877
43.765072114472886
24.236232660893112
-11.94383879502912
-8.337024757478567
10.429051570833318
21.86035962437059
14.118839015268847
0.6453453611235342
2.9663143317418053
2.5270166986923153
-10.277544817641614
-14.671245455314056
-13.15169151058781
-18.610626026686802
-29.49297559473997
-39.807976738806886
-26.446725504836976
1.4278878272704998
25.533533040181
28.224907762392835
10.300145185577769
-9.647017282045665
-19.80862778488029
-13.18598878454851
-0.2907986307872321
9.547129808729412
12.776408658918486
18.27634850009088
18.919210711120982
14.8794629052098
19.500879038392984
8.519470020876323
-5.811832796203514
5.824564624528162
5.06559539407267
-15.30587026998359
-12.8643652812171
-1.1154443423573819
-1.610339368442324
-1.8435719960566446
-7.079989007769122
-17.55733452951256
-15.022612075692708
-6.003970607466545
-4.386172209910258
-3.7710869673213767
-6.920885688456198
-20.38250850238707
-26.869743832286606
-19.882235700695528
-15.819450417499636
-11.003990888496247
-5.1086401448623935
2.9864661985221557
10.926757351259656
10.064011906980738
13.26170220110567
21.660960018051792
27.60889660387562
32.10133213368623
23.323826313306387
-1.6050606204782925
-11.784579513081443
-8.184902676759151
-7.84626363364327
-12.930058528843883
-14.225601340478647
-6.809574185771691
-3.2827044137689945
4.5379912400447155
13.576254136839932
13.528532800229838
10.015873047778921
3.6276253903217137
-4.726590404532242
-5.057341507900218
2.815083995931163
1.6779247136180442
-6.960088245317157
-8.43338167948217
-6.309297858522974
-4.252145399031748
6.15304804180641
16.35024015216457
11.571162904578912
6.283136165607284
7.713452190749776
6.652192029211468
7.649256711893947
7.261701301611609
3.353173313068072
0.5035257883242125
-0.33157675913057255
0.09383593046067142
-0.12277777875833093
-0.01238420020881852
-0.06854745227162186
-0.039877369050833666
-0.05441610964179744
-0.04694714292678978
-0.050687621169965114
-0.04871883980360217
-0.049658110529514604
-0.04911632273818503
-0.04932900999193471
-0.04915753351366177
-0.049181843281180165
-0.04910654948229567
-0.049082104712739175
-0.04903187780649504
-0.048994899621005034
-0.048951290136648076
-0.04891117478747703
-0.048869396138413415
-0.04882858087604043
-0.048787390950810985
-0.04874650769784781
-0.04870558390646436
-0.048664796242068015
-0.04862405454119353
-0.048583404546314816
-0.04854282277834987
-0.048502321015557875
-0.04846189307863463
-0.048421541934999396
-0.0483812658935949
-0.04834106563637758
-0.04830094063692329
-0.048260890984561336
-0.04822091645527614
-0.04818101698493041
-0.048141192428234926
-0.04810144268151357
-0.04806176762017415
-0.04802216713055639
-0.04798264109371013
-0.047943189393657236
-0.047903811913183096
-0.047864508535979705
-0.047825279145553706
-0.04778612362578209
-0.04774704186062877
-0.04770803373428846
-0.047669099131113016
-0.047630237935648474
-0.04759145003261578
-0.047552735306920155
-0.04751409364364592
-0.047475524928058704
-0.047437029045603846
-0.04739860588190682
-0.04736025532277262
-0.04732197725418558
-0.04728377156230909
-0.04724563813348529
-0.04720757685423482
-0.04716958761125652
-0.04713167029142713
-0.04709382478180108
-0.04705605096961013
-0.04701834874226314
-0.04698071798734578
-0.04694315859262025
-0.046905670446025005
-0.04686825343567447
-0.04683090744985878
-0.04679363237704349
-0.046756428105869316
-0.04671929452515183
-0.046682231523881235
-0.04664523899122201
-0.04660831681651273
-0.04657146488926574
-0.046534683099166876
-0.04649797133607522
-0.04646132949002281
-0.04642475745121438
-0.04638825511002709
-0.046351822357010214
-0.04631545908288493
-0.04627916517854404
-0.04624294053505164
-0.04620678504364293
-0.0461706985957239
-0.04613468108287107
-0.046098732396831224
-0.046062852429521156
-0.04602704107302737
-0.04599129821960583
-0.04595562376168173
-0.04592001759184918
-0.04588447960287094
-0.045849009687678174
-0.04581360773937022
-0.045778273651214244
-0.045743007316645046
-0.045707808629264754
-0.04567267748284261
-0.04563761377131466
-0.04560261738878348
-0.045567688229518
-0.045532826187953145
-0.04549803115868963
-0.04546330303649369
-0.04542864171629679
-0.045394047093195444
-0.04535951906245084
-0.045325057519488676
-0.04529066235989887
-0.04525633347943531
-0.04522207077401557
-0.04518787413972067
-0.04515374347279484
-0.04511967866964523
-0.04508567962684168
-0.04505174624111643
-0.045017878409363915
-0.04498407602864046
-0.04495033899616409
-0.04491666720931417
-0.04488306056563128
-0.04484951896281685
-0.044816042298733
-0.0447826304714022
-0.044749283379007104
-0.044716000919890225
-0.044682782992553724
-0.04464962949565916
-0.04461654032802723
-0.04458351538863749
-0.04455055457662817
-0.04451765779129588
-0.044484824932095365
-0.04445205589863928
-0.04441935059069789
-0.04438670890819889
-0.044354130751227114
-0.044321616020024296
-0.04428916461498882
-0.04425677643667551
-0.044224451385795324
-0.04419218936321516
-0.044159990269957566
-0.04412785400720056
-0.04409578047627731
-0.044063769578675936
-0.04403182121603927
-0.043999935290164605
-0.04396811170300342
-0.043936350356661186
-0.043904651153397097
-0.04387301399562385
-0.04384143878590738
-0.04380992542696661
-0.04377847382167326
-0.043747083873051575
-0.043715755484278064
-0.043684488558681296
-0.04365328299974166
