AAD_Filtered_TADAS_FILE
AAD_BASELINE_CORRECTION: BASELINE REMOVED
AAD_FILTER_TYPE: BUTTERWORTH
AAD_FILTER_ORDER: 1
AAD_LOW_CUT_FREQUENCY_HZ: 0.025
AAD_HIGH_CUT_FREQUENCY_HZ: 40.0
EVENT_NAME: 202302060117
EVENT_ID: 13194
EVENT_DATE_YYYYMMDD: 2023/02/06
EVENT_TIME_HHMMSS: 01:17:32.00000
EVENT_LATITUDE_DEGREE: 37.288
EVENT_LONGITUDE_DEGREE: 37.043
EVENT_DEPTH_KM: 8.6
HYPOCENTER_REFERENCE: AFAD
MAGNITUDE_W: 7.7
MAGNITUDE_W_REFERENCE: AFAD
MAGNITUDE_L: 
MAGNITUDE_L_REFERENCE: 
FOCAL_MECHANISM: 
NETWORK: TK
STATION_CODE: 3140
STATION_NAME: 
STATION_LATITUDE_DEGREE: 36.08155
STATION_LONGITUDE_DEGREE: 35.94982
STATION_ELEVATION_M: 3.0
LOCATION: Kahramanmaras_Pazarck_Turkiye
SENSOR_DEPTH_M: 
VS30_M/S: 210
SITE_CLASSIFICATION_EC8: C
MORPHOLOGIC_CLASSIFICATION: 
EPICENTRAL_DISTANCE_KM: 165.82
EARTHQUAKE_BACKAZIMUTH_DEGREE: 
DATE_TIME_FIRST_SAMPLE_YYYYMMDD_HHMMSS: 2023/02/06 01:17:40.6088120
DATE_TIME_FIRST_SAMPLE_PRECISION: millisecond
SAMPLING_INTERVAL_S: 0.01
NDATA: 13501
DURATION_S: 
STREAM: HNN
UNITS: cm/s^2
INSTRUMENT: sensor = GMS+/GEOSIG | digitizer = 
INSTRUMENT_ANALOG/DIGITAL: 
INSTRUMENTAL_FREQUENCY_HZ: 
INSTRUMENTAL_DAMPING: 
FULL_SCALE_G: 
N_BIT_DIGITAL_CONVERTER: 
PGA_CM/S^2: 194.687
TIME_PGA_S: 
BASELINE_CORRECTION: BASELINE REMOVED
FILTER_TYPE: BUTTERWORTH
FILTER_ORDER: 
LOW_CUT_FREQUENCY_HZ: 
HIGH_CUT_FREQUENCY_HZ: 
LATE/NORMAL_TRIGGERED: 
DATABASE_VERSION: 
HEADER_FORMAT: DYNA 1.2
DATA_TYPE: Acceleration
PROCESSING: Automatic Paolucci et al., 2011
DATA_TIMESTAMP_YYYYMMDD_HHMMSS: 
DATA_LICENSE: U (unknown license)
DATA_CITATION: Turkish Accelerometric Archive v 1.0 - Disaster And Emergency Management Presidency, Earthquake Department
DATA_CREATOR: AFAD
ORIGINAL_DATA_MEDIATOR_CITATION: : AFAD - Disaster And Emergency Management Presidency
ORIGINAL_DATA_MEDIATOR: AFAD PROCESS SERVICE
ORIGINAL_DATA_CREATOR_CITATION: AFAD PROCESS SERVICE
ORIGINAL_DATA_CREATOR: network: TK
USER1: GuestUser
USER2: 
USER3: 
USER4: 
[...]
-48.73773292654603
-48.616153083311495
-49.25420495976336
-51.13050617388166
-54.661965917882064
-60.137572089718724
-67.53311243816115
-74.64385476335856
-79.24686060011952
-82.74087412481877
-85.9359018547963
-88.5708218512018
-91.85562793043822
-95.63997385839787
-98.98693432482169
-101.57518011409074
-103.0132672025902
-102.78606084785145
-100.45116831301854
-95.81494673582797
-87.12621673434147
-71.25004275235516
-49.54219050418166
-29.44048602801118
-17.888100023292573
-13.807001558352455
-10.651910336252046
-6.558442721458721
-2.8813393055319554
-1.6624009611577764
-4.993796882915481
-10.819163942312317
-16.112682687385043
-19.238643440700585
-19.28273731492236
-15.483035880906643
-9.160538068279035
-3.186068572958087
2.270352566681214
6.843608535752072
9.994942332715667
13.477482770887217
18.7497389052386
25.20722810316412
31.280035867660924
36.652564019990905
41.4867694668066
44.98503415472167
45.96574066548391
44.834331223579134
43.156371982720366
41.47093497171082
40.794717849740884
41.41417971896987
42.45620404072927
43.4695555430764
44.16650368267845
45.95378411775413
49.437367689736035
54.054277515788066
60.6300777794252
70.1729712025265
82.85800088488551
97.11272795593558
111.14360140883642
123.20793013167264
131.70274056317254
135.78759114727976
133.36767782124187
123.36430575531303
107.53763913999106
90.44747910611005
74.7083011269198
58.31058785851271
42.43789002085187
30.44516299917127
25.202553099677342
28.1454879450626
36.431233441683446
47.33267348138956
57.85287335240474
65.01342500522306
69.57199099236871
73.0515735616977
75.75375447837385
77.34302837242785
76.85074270488812
74.83359801395318
72.27568860949025
68.49132001584394
63.99472466220447
59.246339991013905
55.0269678333241
52.12702465636374
48.552592287679865
44.603500365389266
43.26468612156049
46.64973572363456
55.94545943961863
72.35650356092471
91.72735613106178
104.87310320504128
108.4911055768606
105.04838782351557
101.42958683273561
99.54535398789002
96.37889049348752
94.5191660183815
92.62572734258552
89.81049619441097
87.38390391877287
84.42841824358929
81.93915212420475
78.06679595798366
71.41952754922062
62.24225763473501
51.79091949454551
42.806974049487394
35.70559820844314
30.20203311948463
25.19429194350837
19.427636148903524
12.55502184413432
5.715243594291751
0.86567517569999
-1.8853942158269745
-3.4446404230248877
-5.209313482797358
-8.368744399941006
-12.941210724810409
-18.53454405349583
-25.985679393769164
-35.434575463559696
-46.13757762495974
-58.01845485785692
-67.95471490032594
-73.32196108610833
-75.26577136157184
-76.29609533590165
-79.13615749098874
-84.29874793946796
-90.5334079816581
-95.49862422973784
-98.61454991184272
-101.59215112513364
-105.44420816213298
-110.2445508555997
-113.95622431086649
-115.17260568599724
-114.46856421490122
-112.88259314358933
-112.45972646583863
-113.47273706847915
-112.7348778684815
-106.14155013890202
-94.63736699824612
-86.91981593543922
-89.13192062060213
-98.11424077313504
-108.38966270487802
-115.57764977021398
-118.4711987184826
-121.05378932812827
-125.40602855049202
-130.2803041473917
-133.6521769767133
-135.11341278812304
-137.62902455605237
-140.9603128449177
-143.69471857232534
-145.7919627535104
-146.51322511778437
-147.20305086074518
-148.98526093437175
-151.37040536685745
-152.58156106507766
-150.30005651836592
-141.68899668473802
-123.42034326445352
-98.80314852541294
-78.71734358396066
-70.62274875914966
-71.22696285718263
-73.19046646829919
-72.06629292945577
-65.63493012478081
-56.69409142945174
-51.36282986050471
-49.6254134443825
-46.82356384762844
-40.55907147345781
-30.738729220808537
-21.078814763330374
-15.202101041595943
-11.289245872561585
-7.195985005742842
-3.460451966330803
-2.3833074836387897
-6.544153391390557
-17.956892202141187
-35.25709478582764
-50.47160577665638
-57.506869232789654
-59.12877676247015
-60.685911238099955
-63.62130480101823
-66.00990394615619
-66.66375120689317
-66.98147958719524
-67.86536771614604
-68.64029120782197
-68.90880892364132
-68.3747972664777
-67.41881616711913
-67.43619179109949
-70.25847155186403
-75.7658211263161
-81.39238515735208
-86.42184280205755
-91.61723996810078
-97.76477538374705
-105.18087407151616
-111.87354384503602
-115.47684340947693
-115.63241423907115
-114.10500171554969
-111.42403465651988
-106.73658105794745
-100.37651472890398
-92.1168818972139
-83.07353429224716
-76.34387787473706
-73.24594283859423
-72.02203763689323
-68.55622317538408
-58.45599368236745
-41.03748581891086
-23.71593709359839
-16.163082866362533
-17.50082823653714
-20.830800118633245
-24.306941959820314
-26.523140606525523
-27.092174544939585
-29.21109684761533
-33.00501183557206
-36.418963651822764
-37.50224665445608
-36.101470268323474
-34.14133375060389
-32.09116457596603
-29.580250306592436
-25.94725948148999
-21.496873837092128
-16.60452479848628
-10.360279368130323
-3.3012004866073807
4.290772871782466
12.487021646071117
21.019394609395576
30.451381057350368
38.87861648272584
44.91992049022749
50.07999991382011
53.75856665483522
54.8242807566777
54.38847077874188
54.86226431356773
56.37518737983932
56.720281694945356
56.93407103318318
58.13070926163663
59.503414331230694
61.19008962263214
62.36237908829943
62.41585723858081
60.508451827309706
55.89683893041059
50.274279484513265
44.4528204807127
39.989904754099754
38.963678395982
41.01924914450926
45.336595627869
50.04707979844333
53.63243834397533
54.922975093188725
53.40938409237352
51.037844739272664
49.386843635304906
49.14948358555935
48.33996533452428
44.95288578563754
41.351037128473294
40.26988683965763
42.61970216875848
47.29971279321453
52.61092860714646
57.2254969935892
60.43095877113479
62.92291924887203
64.89912103148058
67.09118724145253
70.15677400271036
73.29735375408853
75.68483196866558
76.25633800990626
75.22222477232889
74.19610447582382
74.51305122416736
75.48624634183177
75.7617126895747
75.90052996378505
76.23586666064395
77.53302474359694
80.68058276441185
84.55649365209555
87.449540352707
89.08546354681334
90.61871701616687
92.78619620181959
95.02317021633161
95.5517056672073
94.27818142142466
91.8722604245858
88.2950750819249
85.10549166930879
83.70275176166808
83.57717735272408
83.32223050285714
83.3772256927923
84.54315060736526
85.05809090409082
82.618211105381
74.87703782896476
57.99861134233715
30.87894466387592
1.2089093707862952
-20.042156607541543
-29.600984996266263
-32.795433928257104
-33.239100680995776
-31.8447269795202
-31.49319420698149
-30.264975486243724
-24.587322635593253
-15.334825364525708
-4.075019761298072
7.28920771196321
17.878613551925735
27.824354535788164
35.29549437002597
36.902955583759336
31.500142471735717
22.35186027329388
12.129229116517628
0.7449148482040446
-10.400987753965909
-18.50009621249939
-21.21311517172059
-16.50499917287686
-4.10782890776527
13.536190815061781
30.786516302864943
41.67663138787823
44.212052161737944
38.878427279116906
29.714111041889385
22.309520812489556
18.447295038030042
16.185802873765507
10.51010029641725
-0.8784640578603421
-15.635509095397811
-28.29425015348031
-33.684379047348514
-34.65403198457271
-35.191716937844966
-35.132122744519606
-34.63146410998995
-34.23441867454181
-34.546829296098984
-34.8294325306141
-34.9423453893497
-36.44503411278661
-39.74772506420291
-44.39379346397771
-45.605154497314096
-38.23553923802553
-26.673812921930242
-18.580763623202092
-16.363632183121098
-16.900800491923103
-15.36221403756439
-9.914360114079399
-2.035184637877785
2.996538246330321
1.260777868921666
-3.768333327614044
-8.186416870005894
-12.801109282440674
-18.55572798020798
-23.76815228593565
-27.44134841717238
-30.62089419483549
-31.668234854413274
-27.753988016066742
-17.428923863583385
0.15575973834424547
17.94213472195231
26.534931669186907
26.675580491590974
22.791012333428657
16.27233605146837
8.18393313076909
1.756659807078134
-3.3293639781898348
-9.786461918452298
-16.093738777898917
-20.030705895231044
-19.97126498992196
-17.600019857039413
-14.689920989481449
-8.794907460705
1.4605391669231171
15.475915056641163
28.523332846655748
37.22892340065333
44.50235653896797
51.472108692637676
56.50560857365842
57.425368340847164
53.90325634637296
47.69413756559793
40.75204052050559
34.98699746344071
29.66041156229562
25.71094243011168
24.556589677829052
25.568570847537956
29.272924741974148
33.77792688534544
35.15903795651477
31.165299744470243
25.714866208349566
24.141332738701784
24.22183639839297
21.878642783604764
16.35012025355421
10.264790837805654
6.206556806621881
4.296333963571163
5.175648022355801
6.695725188065688
5.665232298623262
2.825344486919807
-1.2635238313585941
-6.6263375807138
-12.448946462407212
-18.776908923911332
-26.781453446073353
-35.030662426928004
-40.1608251131446
-42.39022044245016
-41.42055049587491
-35.85243167694744
-27.442740365558944
-16.35557412250058
-1.2224234249116068
14.931318073601572
25.998340851564055
29.623448583277902
28.827521538602674
27.406201049004256
26.16462413224833
24.389027720182085
23.130404365901796
21.421807728910355
18.045521913766347
17.301272006779293
23.695847030664186
34.95964606009506
42.48265348895737
41.3500481141646
37.40437209458826
37.721036776961014
40.16369528801071
40.8271813396639
39.62237280051181
36.11917542460625
30.855446638911904
24.11966575686783
13.916252856618335
-0.0049314551658136835
-12.80034318700443
-19.689516751078866
-21.06762301481583
-19.373859296758038
-15.042293784280545
-6.803134045882188
4.641402036758501
16.561118259949144
26.12383924032321
33.12035628782237
38.17727398902067
40.663907761623086
40.897280192030706
37.441080658934226
29.04279360711538
17.242586362896986
3.466029161489468
-10.258380399607598
-20.06670609393066
-23.670819417744273
-23.41502934282481
-23.176724067294384
-24.971927900880313
-28.331755703242234
-30.77881651079396
-30.087870641359455
-24.925079612572596
-14.998304691143437
-1.9012503913635104
10.28065259769367
15.659478440716876
13.76322931370372
10.364739412765887
9.945061399454502
14.288115890732566
22.74796966885474
32.90555100381168
40.9638445200094
45.52844369303554
48.340888233330034
49.38964341541522
50.182284134760714
50.01252193730295
43.92198745467624
28.70004906855309
4.225905508226391
-22.067963076881682
-40.791294795187476
-48.40128303456945
-47.77161857700127
-46.40663722667638
-49.16392256522048
-57.771926498941994
-69.49268394859027
-78.76861788599699
-86.07407211283325
-93.7096537528951
-99.12212262717165
-101.0411691293583
-101.62722305288588
-103.42015880394308
-107.24942882556763
-110.96926919122349
-114.22396408718156
-112.18545999564479
-104.10664877489545
-85.76594908302778
-36.37409941490884
30.22241384102452
67.48313930275334
65.19767831280238
55.12682163950506
53.01705533830943
56.45420043119399
66.64379430895079
68.70761670407816
51.45501659961592
21.9871223635322
-1.3110785895477273
-5.353645306189606
1.5416623230187216
11.499822276656568
22.14142048147489
30.1877555896841
29.988866738544257
19.97529049581569
9.144187225891308
2.0644235505866946
-4.158464166921191
-12.166453063401786
-22.070895335941245
-30.398858239107682
-33.683837212509594
-29.44610230791735
-16.835687051309456
-0.5329465062204074
13.201007574158652
21.834974840225975
26.593013700731913
31.86110524356119
39.63254831358475
47.39021613779265
53.02021137304678
56.62897141848888
59.63118311947437
62.52189650015755
64.61523793666306
64.50964477505946
61.917537871568456
58.15862938545695
55.380537627161075
55.0864984081206
55.5413898661167
57.10677890057883
60.14909108950537
63.58404353083339
67.34706366516245
68.64209006506758
67.21163811577277
64.99355099876831
63.741047914183596
64.74611177137373
66.02302857577276
66.50052654133613
66.53150224854541
67.24835684942033
69.78332208235547
74.34592599252409
81.87658730849117
92.19275185141835
103.59294504150046
115.14568533993318
124.97073690879233
130.97883486880187
133.65172986992968
133.3460222779511
130.7867673919788
126.82577675607423
124.42286577963357
116.06259328421207
80.82832865719334
22.17125141394848
-27.585482430931297
-45.524652981555874
-44.69103183274265
-46.29164837622347
-52.35109661241165
-63.91495264129718
-78.61214945785855
-88.05375386471587
-89.59494801726906
-89.5117232974492
-95.83146678115189
-109.16803104121358
-124.11399046174292
-135.5605786442924
-143.655495518397
-149.88141697194564
-155.78336998663735
-162.01183828523344
-167.5494800428684
-172.16446764719996
-176.07994250258537
-178.4675525481369
-178.6081043904265
-177.55823570267398
-175.45724868590366
-172.63277925911817
-169.71561705748644
-167.40954905058712
-166.67504178391025
-167.86872663828385
-171.80923192696596
-177.50925560234222
-183.05200704815903
-187.95388339025055
-191.53281916270367
-192.8454410546093
-192.59611120894206
-191.84361412063927
-190.80153381315526
-190.2699031248559
-190.4122069973741
-191.20876111048423
-189.80620289948627
-181.40889853293797
-164.1537812539912
-132.3429978661348
-87.28118155648002
-52.21347598444327
-46.56479874403809
-55.8324436313796
-56.04858832525651
-46.6071113134538
-34.941772434379914
-25.12076882707779
-20.727733133435688
-21.995875209936592
-24.20811254511332
-22.632128145109576
-19.80180171206974
-20.762382525469665
-26.68036837183309
-33.67340192437311
-39.34587191414477
-45.12254512714774
-51.48872080185571
-57.40032125489975
-63.17071396426226
-68.92517586734195
-69.09466287309716
-57.930584403624266
-36.36621843121504
-12.556670390050673
3.299053673388598
6.275570586772104
1.653776406736719
0.9220425459728635
8.810149784151031
21.994823939580158
34.86709808724922
44.67712823009446
55.07598008225861
69.95624153559463
88.236709057277
106.90333217708064
121.41318992891999
128.77850498170542
132.25728453720802
137.353344406062
146.69879686384334
158.27671245451168
168.65564896438607
175.5252618457559
181.0960497960194
185.29933683101672
185.99429944320417
180.25128570049316
146.16060459279404
77.60893445056554
20.37595256014071
19.299889954634725
52.535944807104265
71.72601723348598
69.4354447806194
56.31838414961308
44.42183266012836
40.34898538478658
38.06665256485938
33.449450643712375
19.574111973440672
-5.007730321451677
-31.43205650949417
-52.380260824675226
-65.65909726999381
-73.2105158343473
-75.7516516176761
-75.33145806384006
-72.24577513831811
-58.74977639749357
-26.94771628319628
25.682992501775022
83.96481980164306
120.29075967620601
124.04838073092276
114.47492313711525
120.00799321229752
140.1376101988929
154.66840320222894
159.8875224155498
159.80616574836233
158.09522892782778
158.21435548976976
128.06445893765587
39.0775508116992
-55.37234325660831
-76.45695708647011
-43.35054695266315
-24.07868901428612
-18.27683143097604
-10.843156712460807
-0.054728214308727416
22.79297910881281
58.45001397718371
91.47365323603746
101.91411945723729
99.35332899243541
91.22543466222481
82.5830938701437
86.17036264125358
96.3256370988621
102.87341939159002
101.69134569781178
96.35088493064804
88.34462306988141
80.44980377949393
74.93094063001033
65.22967711066708
48.88828804946082
26.001253188209503
2.9977717314021173
-9.891069765888759
-11.544430266328977
-7.381861972712591
-4.537981745043938
-5.990131984055198
-10.798712325312325
-14.594588646158115
-13.934615251880667
-14.349709676655204
-19.456206647756243
-27.094567713489532
-34.16791225591361
-38.122545003905664
-40.319170164660264
-41.42977406637718
-40.29952493140944
-35.80324896229924
-26.58312659598141
-10.028186642056097
16.239954962602393
45.43403158141967
65.38190138144914
72.01182622571729
70.9283331619744
69.55031329121257
69.48429078350581
69.32746972646842
63.95340911284697
41.8855230571035
1.7553485515251865
-38.47474898212736
-57.23745573328501
-54.7836336219701
-45.40486948686642
-35.843046885045204
-32.84832605580675
-35.70709914778162
-34.30410201250903
-22.87534872235142
-3.5661985098769624
12.958784306596321
21.68855110973705
24.670847931197148
24.314835051867387
24.347495375641458
25.854334015561218
28.068228631807692
29.630072320062578
29.753650430967813
28.171898267243126
23.88041106515911
15.983502468866824
3.6855438597415926
-11.212385256358571
-25.02066611745066
-35.1712524665084
-41.88838367997551
-47.51848233841014
-53.50816346215132
-61.34360269502445
-69.21542041746963
-74.85110491897095
-80.045656254092
-83.93471394992854
-86.35843149710782
-89.16596173509701
-93.47080097399677
-98.59126760803842
-101.69422345544585
-104.24675720195842
-107.64155747057838
-112.05970160249194
-117.41412499554602
-119.72983070121727
-117.61678342918
-111.78668284469057
-101.81391811155791
-88.97378016990264
-77.97119934473066
-71.99000030432303
-69.0721748560028
-67.8055886026832
-66.37434503906195
-63.11124367633076
-59.03304313051333
-56.99724179126172
-60.286300482818916
-65.32306984628372
-64.9573304333838
-57.04444177862116
-48.922272571869314
-48.10659266142437
-51.40011816571512
-56.143749958482246
-60.21551349172515
-59.707212579917886
-54.18032336487365
-44.97246696071542
-35.49247899174489
-27.895224001203268
-22.082030633144416
-16.882680447747912
-13.10301488921876
-12.914640202256834
-14.910212670428187
-19.2986494209213
-27.45263444961638
-36.826334674260025
-45.05242767624849
-52.010633964877655
-57.89855677919191
-63.34888451079488
-69.46417871656853
-76.55251381353102
-83.56654751754925
-89.51978968558252
-92.70529854893341
-91.58003773788535
-86.23433345727611
-75.44822187828193
-59.92513953436635
-44.39251505282838
-34.001738985366224
-31.11728861086424
-32.55607545288965
-33.19033442447185
-31.12450088521463
-27.720417321572274
-24.09307106295643
-20.107035505353515
-16.819150133954427
-15.273862685572604
-14.898870686247408
-15.80550830519286
-17.837132732807603
-19.71721904173965
-21.21906686395552
-22.763143523500574
-25.235699368348868
-28.153277805788456
-29.400449505882186
-26.50484709214339
-17.551207232440802
-4.315136139767584
8.364890983235115
16.37399014659346
21.44528738874907
28.386886754898292
37.80760376086261
47.540177541871245
55.599050273145316
61.38694246428586
65.34091952639083
67.94588261260968
70.0880034678458
72.73864613287617
76.5494372669472
81.76543485558545
87.71771103423241
93.38040088197882
98.55464548785181
104.34121333774826
111.43931924541036
