AAD_Filtered_TADAS_FILE
AAD_BASELINE_CORRECTION: BASELINE REMOVED
AAD_FILTER_TYPE: BUTTERWORTH
AAD_FILTER_ORDER: 1
AAD_LOW_CUT_FREQUENCY_HZ: 0.025
AAD_HIGH_CUT_FREQUENCY_HZ: 40.0
EVENT_NAME: 202302060117
EVENT_ID: 13194
EVENT_DATE_YYYYMMDD: 2023/02/06
EVENT_TIME_HHMMSS: 01:17:32.00000
EVENT_LATITUDE_DEGREE: 37.288
EVENT_LONGITUDE_DEGREE: 37.043
EVENT_DEPTH_KM: 8.6
HYPOCENTER_REFERENCE: AFAD
MAGNITUDE_W: 7.7
MAGNITUDE_W_REFERENCE: AFAD
MAGNITUDE_L: 
MAGNITUDE_L_REFERENCE: 
FOCAL_MECHANISM: 
NETWORK: TK
STATION_CODE: 2709
STATION_NAME: 
STATION_LATITUDE_DEGREE: 37.128525
STATION_LONGITUDE_DEGREE: 36.670482
STATION_ELEVATION_M: 531.0
LOCATION: Kahramanmaras_Pazarck_Turkiye
SENSOR_DEPTH_M: 
VS30_M/S: 555
SITE_CLASSIFICATION_EC8: B
MORPHOLOGIC_CLASSIFICATION: 
EPICENTRAL_DISTANCE_KM: 37.45
EARTHQUAKE_BACKAZIMUTH_DEGREE: 
DATE_TIME_FIRST_SAMPLE_YYYYMMDD_HHMMSS: 2023/02/06 01:17:08.6216750
DATE_TIME_FIRST_SAMPLE_PRECISION: millisecond
SAMPLING_INTERVAL_S: 0.01
NDATA: 6196
DURATION_S: 
STREAM: HNN
UNITS: cm/s^2
INSTRUMENT: sensor = ACEBOX/SARA | digitizer = 
INSTRUMENT_ANALOG/DIGITAL: 
INSTRUMENTAL_FREQUENCY_HZ: 
INSTRUMENTAL_DAMPING: 
FULL_SCALE_G: 
N_BIT_DIGITAL_CONVERTER: 
PGA_CM/S^2: 154.031
TIME_PGA_S: 
BASELINE_CORRECTION: BASELINE REMOVED
FILTER_TYPE: BUTTERWORTH
FILTER_ORDER: 
LOW_CUT_FREQUENCY_HZ: 
HIGH_CUT_FREQUENCY_HZ: 
LATE/NORMAL_TRIGGERED: 
DATABASE_VERSION: 
HEADER_FORMAT: DYNA 1.2
DATA_TYPE: Acceleration
PROCESSING: Automatic Paolucci et al., 2011
DATA_TIMESTAMP_YYYYMMDD_HHMMSS: 
DATA_LICENSE: U (unknown license)
DATA_CITATION: Turkish Accelerometric Archive v 1.0 - Disaster And Emergency Management Presidency, Earthquake Department
DATA_CREATOR: AFAD
ORIGINAL_DATA_MEDIATOR_CITATION: : AFAD - Disaster And Emergency Management Presidency
ORIGINAL_DATA_MEDIATOR: AFAD PROCESS SERVICE
ORIGINAL_DATA_CREATOR_CITATION: AFAD PROCESS SERVICE
ORIGINAL_DATA_CREATOR: network: TK
USER1: GuestUser
USER2: 
USER3: 
USER4: 
[...]
1.807364117184086
-0.36250884318838134
-2.095839093361086
-0.968413411899311
-0.6070068645500623
-1.8568467745043482
-2.2841701166994643
-1.60125246532047
-0.7946865333506615
-0.21638458231395147
0.49496726239934996
1.2815760898836177
1.094473601827269
-0.22380761550481712
-0.9511976740068457
-0.2056074322092426
0.29561752744084857
0.13888739154185945
0.3790196936743915
0.41976197641111035
0.47733503435682584
0.5352056894248359
-0.425609360862112
-0.6412668510125502
0.45703788689313374
0.21813047850421463
-0.9445836806262131
-0.5920188425762594
-0.7967812120581309
-3.101480773926666
-2.323360986944387
1.7533917381658164
2.5243269677688196
1.2735935126180837
1.1094665412510896
-0.2799625641023891
-0.8715800726644606
1.0263237634203828
1.5440301224614155
0.6210218666949106
-0.055973360963861435
-1.2435490118639763
-1.082371451799016
1.0181476573994654
1.4850343919040554
-0.3136465737735889
-1.9990262292637777
-2.718397893904326
-2.817393279827721
-2.1495798760693514
-0.021315335437324088
2.344103810214383
2.2948737284104146
0.3622513066096059
-0.7877127010308095
-0.9086156038536773
-0.8415210668505808
-0.5194370506057578
-0.4933769680167808
-0.9977108649889246
-0.9768336942251854
0.06458194171705438
1.349360269565964
1.3868328392146552
-0.3861651474023314
-2.7596617597333495
-3.4884540183795827
-1.2215030649217455
1.1360143841286732
0.45123806883563367
-0.93426548893552
-1.0896967874826793
-1.499088546574455
-2.249909964208789
-2.7838813309264663
-2.753927743986058
-1.0676658909648482
0.6170026085451245
0.23065584813143752
-0.1504933348216728
-0.10468486783307551
-1.3184892136124502
-2.798449181511328
-4.934165575838838
-7.721879053689076
-7.134392731908473
-2.656913037622767
0.8570256401296102
0.4016618401026344
-1.5167415362337948
-1.2888716362034103
1.4049533371981224
4.969681337052612
4.048104714319289
-3.771637447193532
-8.83956375899529
-6.5564105141381805
-3.376595919074021
-0.46209058236139616
1.123985458299445
-1.0876290483482216
-2.7190133362702382
-3.4226963840405538
-4.6878279716153965
-2.8057014777072644
-0.05334161754276533
0.2962132363169554
0.23177508447801076
-2.632203361230586
-9.300199778533772
-12.95348537382009
-9.942406093912648
-5.2997406368866224
-5.5415873167458605
-8.093046053942505
-5.304465471720564
-0.44272664417572977
-0.9813692926282453
-4.110432925377448
-5.229123428758788
-5.031104310614297
-6.066398597777343
-10.348312672489225
-15.894982500266003
-18.531631014745997
-16.57364548186244
-10.951911282626295
-4.200660495115941
2.2065440208963416
7.885620978221162
9.48835781777895
6.531070036751406
4.000309045684108
-1.8953036193230797
-14.540444500849192
-22.50027350780332
-22.421951895778555
-17.1484867809179
-2.3829154084191053
9.885549761724164
6.871728890079117
2.690626326596091
8.113555076358589
14.324667821556393
13.048593341708486
3.02334680146641
-10.213663787809963
-10.155285588057325
6.881266349430619
11.420590818065188
-6.707968478770379
-12.585593094423658
1.3801749383655126
5.87634632003813
3.900532155388932
9.712877003780946
5.223062863724
-8.65855317142816
-3.770419081553619
15.900809803892752
23.640288298700366
9.672844605109368
-5.791958456303563
-2.672753761700473
-4.885977981827032
-18.53838570208896
-8.057299427660162
11.830300132696276
12.297936513056758
7.251933045305555
-5.413136101467319
-23.512889656134156
-21.148673129861074
0.48685581863720645
26.745405878416122
36.15048534210968
9.762769899482656
-19.14158116323994
-14.04330639272409
5.746616899228489
21.271798691582642
33.92003205065246
24.28544711879128
-11.427610375862068
-32.770124285700504
-20.16996252012109
0.6642487481207208
6.65649964285878
6.185479479264479
9.45259590844001
7.818047718183614
9.338172523289469
17.46426521199871
13.585410726574166
7.378851554412025
4.991401800343046
-11.421230680884472
-34.43437340955989
-34.856288294693115
0.513537895455868
28.01222619470123
5.19375498884323
-21.6290777084147
-9.261851040753697
8.020245077625873
-3.0538110804860836
-25.328692575056948
-26.740322298252607
-12.318973188066105
-4.944776865408724
2.632230632304062
14.051162666325594
9.120434162406683
-7.609678901328697
-7.716852516982422
10.34508472470325
17.132198629658077
1.725568825312049
-6.170635398265386
7.398855245771586
7.90694033016808
-14.309970597973447
-15.98828317974383
7.116781700970687
13.174581850427181
7.608640616181416
14.808326772700491
13.790898600326837
-4.160892190801097
-9.075492190129394
6.508018650612371
12.426757404406235
-1.3403121228318737
-3.393097460174289
10.050964952158504
7.915106547919932
-0.7952372475543065
10.403022816609603
26.574085070271963
25.068829897275535
12.22863198027477
-0.3331740190955204
-13.275176463444888
-27.309052546272778
-34.65531005252376
-23.564899413512972
-2.6435100492052666
6.971070681914291
11.574736212519944
21.027088185472728
29.068069579970405
28.8308395357712
11.684765050354144
-4.201625146228205
-3.1440157180624384
-10.32517784445116
-20.05259069437577
-13.141863302469678
-7.538748357589982
-2.387165198386125
5.759275366450491
0.5018615120015423
-6.395927272069342
3.8656409727698313
20.725165384434817
21.44861506753899
12.124689458910169
23.20510778134815
38.2686751558653
24.22779454204874
3.170206063523412
-4.762590071334927
-5.440329721407718
-2.5276013544344975
-9.17037547339259
-21.721103361094677
-25.4477091289037
-21.910705040808715
-7.589083380515932
4.49566498604934
-1.1987501664433542
-5.641266795424772
-3.63418824039273
-4.70522044545532
-3.8526927539980815
1.2438598422074139
11.171902794623193
17.66292511469575
4.339770497165468
-23.485165539272202
-42.198235670512716
-42.61714839315462
-38.562882803466856
-34.82815586555882
-25.836334670225803
-18.689792856208044
-12.048258700988047
1.4839979157105292
15.555348251398447
26.140211089813643
33.34820510413288
39.977634853853324
43.56515611605871
31.342366637914644
13.187688904632235
5.336029912030519
1.7375241598064546
-0.6261456665423647
-6.000776258014371
-18.21814116294979
-26.54004174804587
-26.5861494725271
-15.930471962658713
3.7986501534418955
12.983581652446526
3.859106174553826
-6.509965268165607
-4.300203586540085
-0.5796608677942665
-5.026527185284831
-0.6411993601411317
12.237167580832775
13.662071987443193
9.342284116384745
4.0912650109950865
-8.193130888984689
-12.332185375555278
4.417728529990045
23.964205824093966
22.292167952942577
6.814236529199434
-1.0018704880583316
-5.96041548617577
-16.086746775962865
-27.026793812990395
-36.80144307404491
-33.70819347430787
-16.673448940805095
-5.267960780863507
-2.9083024087478972
-3.104043937049928
3.1117533788581593
23.07357068253467
32.76283311452509
14.486146517692015
-9.266550771847726
-18.4189267564754
-8.803799521107457
6.260426413284097
2.6899589431206117
-8.978010352285681
-6.854331097515045
3.739214246263171
13.318009661726332
9.289523313804358
-8.235931857539928
-13.497700658451924
-3.5590962981310685
2.166502275262112
1.5726194756528615
7.350598850661318
21.23758052088633
22.888637347238678
7.349341128050064
-5.031519388799347
-7.843803491587757
-2.5925928334284722
6.306042370964904
4.479173117262433
-2.6696071258927976
0.94225820462359
7.480846749943697
2.3577176081915163
-6.411136182230279
-0.13200935144078346
11.760040181611128
5.166444367945425
-8.210027098914694
-10.195812376303497
-11.730531323586442
-16.71442220176996
-18.416424974352672
-8.88770975482691
15.831330934954474
24.331795637546705
0.21673925203033334
-17.88545631451287
-11.698875657151792
-0.855670810747318
1.5914854005072052
-0.35604226435568015
4.561102898908317
7.737880498678542
-4.037869713704974
-14.560409048723582
-10.562190879668503
-6.4267581749270795
-10.228349334595261
-8.643024405844267
-0.512410548776905
0.02312349702102679
-5.825754759238669
-9.286445910493178
-4.704251538121568
5.101973849000543
1.7292428922335124
-11.090673380937968
-11.500323582886065
-7.2889259526362356
-10.188239137092243
-18.885901667919967
-34.209430951123295
-34.2588920318809
-7.456496983639171
9.477732252909252
2.762337229727228
-3.269585621471931
-2.9773735382235977
1.205889477127007
9.192574531646578
13.078081053143448
12.632098688346899
12.767688240267637
12.141299592514692
5.1491379000331134
-7.49945036969776
-10.977578460146244
-1.5612125122835434
6.986297798427863
16.782103253627106
30.83111843525124
32.1865818029284
22.91557626856967
20.30985127842148
17.644531264406208
4.927616629727406
-6.6079284024561495
-1.4977856987201026
10.581084826379374
6.679249396283104
1.0553494175877673
12.026579134091897
14.788981519240751
1.2676146955716734
-7.034800794416702
-11.202529531023773
-18.72565449635175
-18.633773552975125
-6.691093765248841
0.6965367880519487
-0.33135544701209235
5.414732721145419
12.507280416249328
11.664233867121531
10.498573335716962
5.223349315325102
-6.935387394444793
-15.738488057330594
-12.967212732896147
3.6073930109905827
17.973432025940426
17.394486895924157
10.49782949980464
3.9470515868958698
7.900599888876815
19.00921548486166
13.790021169481973
5.307968900199962
11.764043000182145
8.982499180464002
-7.558372985294001
-13.041350951559625
-7.50208802958162
-6.604915701209796
-11.89456491006124
-16.826529525983425
-15.51165034760995
0.4485794451940753
24.040003765538415
28.978884536562497
15.280265758219633
8.808815479591914
8.71185667259751
-0.6501560825724118
-7.84225327958163
-2.516407284983556
-3.1406718298765073
-13.712607104333806
-12.253937913714356
4.442810528658777
21.74069483361607
33.01583622380701
34.6567634045129
25.383921311148143
16.6798243299664
18.09566483751557
22.00479712812836
24.200101624551902
28.369727706475874
27.63173934308967
18.50995687830216
8.808055262831092
2.9450822298551596
2.8964623027990695
8.779507237858459
20.84868029690307
39.131851402324486
54.32291663715936
62.1260899374227
66.02495116515372
61.08018008769029
47.270722822367276
32.895037486234365
17.748557624315684
-1.559269369226515
-16.543488067970728
-13.100055866834596
-0.9692865876830877
-0.24952489157742197
-1.7000926211394352
4.52940846900951
9.416725109340236
15.681449241077118
26.585075909584827
32.882554284890986
35.46589137529137
42.1910497092972
49.584320964957314
51.33010869865669
49.36653922641306
42.78133842176679
24.804392601275975
-2.143353022809187
-22.003283265722118
-22.517811614971038
-14.382452338353081
-12.4921029020293
-10.782575805485486
1.5321212308968917
24.232332048849024
45.309758319129486
51.70505232426373
46.64378573372725
32.578622242435856
8.284515586582838
-11.972470831818484
-21.849345162150325
-31.159945569378092
-47.55891706649079
-70.28280348536477
-78.69959695989102
-61.35523748211041
-41.8251996159095
-29.87811049048487
-7.284366477786001
24.414481349353686
38.335224136704504
26.409910189086535
11.79315781745443
5.573974353848351
0.5712493670260551
4.3289082833710655
16.233882695134678
12.999424851552744
-12.094029766488806
-49.63537630407121
-87.99829527906152
-103.54579359963736
-87.8188634304318
-60.93926899644764
-34.42818878192466
-5.874604916274207
20.4179001496345
32.98117298798837
21.341814458652653
-9.176662226034615
-36.52166173089485
-48.86262015341934
-56.39409095680231
-68.63101784970978
-72.90702094019866
-55.59614035537716
-32.01294481756964
-18.118143681942684
-10.015227917614146
-13.243695209091598
-33.52335781993383
-54.78634623719121
-59.85171199927287
-48.23312627211581
-30.963436405547593
-11.816802835305001
10.246949063434057
27.262311339684477
30.933153812022766
15.024995399640892
-14.290620613301416
-38.848123112600305
-57.47495882982851
-73.76224404723743
-73.77664340727948
-42.80331329898666
10.781608120362005
61.4996237504078
94.10211318987206
94.45189066085067
51.18338445792467
-12.435859891206448
-53.73458036161885
-45.29206358717098
-0.8290590719861687
36.251485857289595
45.48239031405744
36.286950915157576
24.51024447557362
13.231716128936002
-1.6495632797340172
0.03445744830579076
31.293487868881503
70.44277251032517
100.00066278330198
111.00976597123945
91.69637612257358
44.252282453426105
-7.881999471870274
-39.46422419188376
-50.876964572687555
-55.9822122255819
-57.428386172643826
-52.62299394194822
-40.1658683486979
-25.559277237105245
-21.30415954486055
-25.57909878020854
-21.62186563162445
-2.103112338129625
24.483088915574292
43.89341492865162
46.180470534847345
30.38985516500919
3.1656157810216627
-24.494273008034966
-41.1431142785529
-35.511764281987396
-7.794344885076919
23.533554595629887
47.03367693492736
63.713528122466634
71.1970730358676
68.93208039528218
58.63254910970372
48.810915164315716
51.38619651208125
54.769818309775594
38.669598944789826
4.9426996825844025
-27.584312460782836
-40.51347704272323
-39.134542779618286
-50.655915943583416
-87.01294870509798
-128.56206474549631
-151.24850593355845
-154.43766108978818
-143.5604718414304
-113.03993233291624
-65.22403303926743
-19.017129442292035
2.9702368643878105
2.8723038310841815
7.4942138756524965
23.62904882479362
43.63005438484941
67.7126063464181
84.17986856379055
82.03404152353602
65.81462510749334
43.06029803880586
24.741219055851218
10.571574480984035
-9.728462342768777
-32.520912067480715
-49.05805135869706
-49.96326785365464
-30.86933322244086
-10.586138326462946
-9.425032068115927
-21.81052779591534
-29.068517190756328
-27.818149021117705
-23.725393250144236
-8.586814030396614
20.374491907422446
51.65853991113096
76.7920544448405
93.25213144443052
107.76936238322881
114.89162783429589
92.22457454748975
44.65739231143904
4.146330779987597
-4.4227749546592845
19.996030157905007
50.91530688396993
58.08356871622336
34.997323215030384
3.3199643041481237
-8.647333180383058
1.5896142353063942
13.468698151427422
7.146920154263792
-26.907074281819263
-78.03922019301466
-118.5027436810746
-125.99024996238943
-98.70901814371202
-61.81409170005189
-45.811447914584875
-51.62085836907092
-58.711511096237544
-47.458653433869756
-17.845415968663758
2.6553815665980247
3.8423243172252297
4.908873251712017
9.573027192512077
18.14231289012944
38.884650595097604
52.96309482642943
40.44377797410929
21.714519233139722
25.954417893145983
55.450890345589215
91.45682105046238
108.5463844063437
88.56034058010695
38.514775667955234
-18.26232527001204
-67.7741249894267
-99.3344106937401
-103.77136403865909
-86.1187324337863
-51.59826645588443
-3.979273747194732
40.747144960466755
64.06981307192488
62.188864403135135
49.752927398132215
38.98082167982763
31.394707096001746
34.34267894131286
51.33902351596018
68.97596703338014
67.55514703310844
42.32196390758634
14.908078088873623
0.8582192050689064
-9.367335130736215
-20.16775610100393
-20.390258466124795
-5.142825692956336
10.009858320009403
12.666245709841197
11.09534620968865
8.106720237526634
2.8681914246928426
3.5988915401110697
9.084483338717138
12.462807341948718
12.365428215541984
3.2586011425212797
-24.582089558449837
-61.49526481802073
-80.2908651814695
-77.17176207113752
-60.02669983387911
-21.003066038076586
35.02793917886448
87.07246571392612
113.12069826768206
92.84844385436938
32.62344065007506
-30.536306432936065
-63.26193914046313
-62.22851689308703
-44.60983848537349
-20.99160293638479
7.021587989219414
36.101239448924545
58.18573603111746
64.64376980705921
51.758238765410745
22.007890235055346
-7.07433671578687
-17.20781471023355
-19.36272901942691
-33.09266456731368
-57.57353473979482
-81.98898105878868
-99.55700619907618
-112.16232269811236
-123.13745630312174
-126.53192623732942
-110.34884566434042
-68.78874515561981
-16.841954738419744
15.439138487494436
13.700643664525357
-5.658648231001647
-18.37903050710735
-24.623279382776285
-39.4937674929089
-60.83848569795955
-76.15377670681173
-81.51090276919157
-80.29188116327498
-77.69318583451114
-68.73044353438232
-46.6082005622782
-21.50253622310042
0.35503718448469057
25.82098020092762
52.65485560810825
73.78880353540998
89.56449749184556
104.73246874252195
119.87039976118392
122.4987372432536
101.50292845593842
62.853703449515784
19.617622269229035
-15.88755439614231
-35.90511096652712
-40.957305917381184
-35.553846849566426
-26.033076235806593
-17.846405517026415
-13.88918396158341
-12.587295812854407
-5.060080910448605
10.825499728138533
25.405431932233324
36.79494858490341
51.63542384867334
64.57415907250588
61.45646718106473
43.22356276232458
23.521959318077695
9.945933973573682
0.5753806933977083
-14.538327946307104
-43.07355475480425
-77.69081365814623
-100.33501585790351
-100.31487654076628
-85.86708168241937
-63.45548544624186
-29.14103784161582
8.974544694873597
38.228782065483166
55.81098024199464
63.87488827476018
70.2530958779626
74.67146649937995
61.61066242153902
31.415571742042637
9.0849350318025
5.301660292688841
4.320341203454283
-4.962977050991546
-16.672880157363416
-17.70238813896832
-3.709292562149006
7.475240635854365
-2.6241399496430295
-25.53819880406412
-36.76013028910444
-26.504949399046772
-12.563498608802183
-13.491821608588966
-21.31048439078586
-17.671943762382085
1.1772092279103041
26.13094849126615
50.88198386279957
76.97357856704475
101.13409412866653
111.50171940916142
105.56825773240512
93.26993257952438
75.39113251218279
42.573540996389596
-3.078015838887613
-45.420005930171016
-68.21879088825906
-66.59459026219443
-49.11398715469668
-24.197898779007364
5.4135858610197545
30.972409380669443
39.64035275925012
27.5697571322077
1.5161520370616322
-30.260295960337515
-60.734197204156374
-76.52477106245604
-71.3123307108745
-61.11272428077397
-58.72344231818835
-58.75964306303466
-54.684699524997185
-43.83970869194298
-25.879666643858577
-3.300313592721211
17.477067581635545
29.039348771086203
35.247874917798285
46.765719555311115
68.67941174304092
96.1013529594181
114.60266973545146
115.363440983027
95.96823222116001
53.31959960981637
-3.2063632758252862
-52.10493891694505
-73.89390195164408
-64.84250626809619
-40.10345425537176
-13.609887046923621
12.201986771854115
40.6327551355877
66.87218767171218
73.65319113791844
58.980487998499136
38.73018357378004
22.495020271137953
12.656021659552044
7.451274842795076
9.719880865172128
27.33644155271432
52.14643698800817
68.88093972915183
76.75295903936991
81.6499071366015
80.76650739128873
62.12136265814439
22.267270342814232
-27.327132203291548
-70.85644474409193
-87.00702414559804
-64.3507955286763
