AAD_Filtered_TADAS_FILE
AAD_BASELINE_CORRECTION: BASELINE REMOVED
AAD_FILTER_TYPE: BUTTERWORTH
AAD_FILTER_ORDER: 1
AAD_LOW_CUT_FREQUENCY_HZ: 0.025
AAD_HIGH_CUT_FREQUENCY_HZ: 40.0
EVENT_NAME: 202302060117
EVENT_ID: 13194
EVENT_DATE_YYYYMMDD: 2023/02/06
EVENT_TIME_HHMMSS: 01:17:32.00000
EVENT_LATITUDE_DEGREE: 37.288
EVENT_LONGITUDE_DEGREE: 37.043
EVENT_DEPTH_KM: 8.6
HYPOCENTER_REFERENCE: AFAD
MAGNITUDE_W: 7.7
MAGNITUDE_W_REFERENCE: AFAD
MAGNITUDE_L: 
MAGNITUDE_L_REFERENCE: 
FOCAL_MECHANISM: 
NETWORK: TK
STATION_CODE: 8002
STATION_NAME: 
STATION_LATITUDE_DEGREE: 37.19156
STATION_LONGITUDE_DEGREE: 36.56195
STATION_ELEVATION_M: 593.0
LOCATION: Kahramanmaras_Pazarck_Turkiye
SENSOR_DEPTH_M: 
VS30_M/S: 430
SITE_CLASSIFICATION_EC8: unknown
MORPHOLOGIC_CLASSIFICATION: 
EPICENTRAL_DISTANCE_KM: 43.91
EARTHQUAKE_BACKAZIMUTH_DEGREE: 
DATE_TIME_FIRST_SAMPLE_YYYYMMDD_HHMMSS: 2023/02/06 01:17:09.7103280
DATE_TIME_FIRST_SAMPLE_PRECISION: millisecond
SAMPLING_INTERVAL_S: 0.01
NDATA: 10501
DURATION_S: 
STREAM: HNE
UNITS: cm/s^2
INSTRUMENT: sensor = CMG-5T/GURALP | digitizer = 
INSTRUMENT_ANALOG/DIGITAL: 
INSTRUMENTAL_FREQUENCY_HZ: 
INSTRUMENTAL_DAMPING: 
FULL_SCALE_G: 
N_BIT_DIGITAL_CONVERTER: 
PGA_CM/S^2: 202.893
TIME_PGA_S: 
BASELINE_CORRECTION: BASELINE REMOVED
FILTER_TYPE: BUTTERWORTH
FILTER_ORDER: 
LOW_CUT_FREQUENCY_HZ: 
HIGH_CUT_FREQUENCY_HZ: 
LATE/NORMAL_TRIGGERED: 
DATABASE_VERSION: 
HEADER_FORMAT: DYNA 1.2
DATA_TYPE: Acceleration
PROCESSING: Automatic Paolucci et al., 2011
DATA_TIMESTAMP_YYYYMMDD_HHMMSS: 
DATA_LICENSE: U (unknown license)
DATA_CITATION: Turkish Accelerometric Archive v 1.0 - Disaster And Emergency Management Presidency, Earthquake Department
DATA_CREATOR: AFAD
ORIGINAL_DATA_MEDIATOR_CITATION: : AFAD - Disaster And Emergency Management Presidency
ORIGINAL_DATA_MEDIATOR: AFAD PROCESS SERVICE
ORIGINAL_DATA_CREATOR_CITATION: AFAD PROCESS SERVICE
ORIGINAL_DATA_CREATOR: network: TK
USER1: GuestUser
USER2: 
USER3: 
USER4: 
[...]
-0.15614368247771487
6.922130713659018
8.755926970353453
-1.3590444467088345
-6.879393650714943
4.549440475499155
11.707023312995233
9.484426339565568
0.7423371559040615
-8.497837967674549
-11.28853607024311
-17.485983947474086
-19.44109090205298
-14.933233866555002
-17.22276087625075
-23.598484986673874
-29.87802988173997
-23.504380778126052
-11.56012917092999
-8.734211817733346
-4.969150392093241
-7.876250490424166
-21.143463562419978
-24.573629029493652
-12.538324795595756
1.6337352567490226
9.51236784937266
9.238527368785782
8.449728215242544
20.130428763307215
25.70038737999704
17.146983477975404
13.329086559448603
7.391041745832998
-9.555834822506217
-23.589776535957466
-25.20588568328374
-28.33712995948087
-30.039654662136346
-25.727485375003333
-25.337747148369687
-21.83854737892027
-10.806630557747576
-0.8324822573255468
3.2668577744049814
-2.039811022200818
-7.5459660190133775
-0.7119756504917533
2.0558530802626316
-3.636776089546594
-8.625050824688945
-1.543872275746628
18.630765952611647
33.59795321412955
32.59484860357862
15.816578271523083
0.5295969127940966
-2.921847794851213
7.041707224413455
24.405400302353264
26.769950085334067
14.126399863215276
-0.3145409413187721
-8.429379375301647
-7.770266478491964
-3.9099661450911856
2.9571773118480933
4.152978959677611
5.622107637889789
13.12374812869519
11.931824878963905
-1.1601945426567224
-10.807549791308805
-5.071704890269723
-4.839168592980593
-14.99097415477826
-15.525779653747106
-11.988431780979628
-19.03471488204973
-25.24955237278603
-21.186434619805723
-16.732922867608448
-13.657941877433837
-12.276181591499295
-13.103522715607946
-12.531723304914864
-8.410879552005873
-0.43099092679846235
13.797681951434262
27.518022570326313
33.48450942315608
34.10872337339368
24.34250627893909
6.943199298483887
-2.304641022220029
2.496695761561285
6.186396370084893
6.561034181051138
11.78578831238997
8.368547897508408
4.610323760212563
16.425943627677622
16.260784981045997
5.2094691519901835
7.200019665272656
4.587918986840325
-0.5547978274848366
1.283504992290729
-3.2932688852458285
-12.5596813929514
-15.211596864419151
-16.501479814010384
-18.611677007855167
-13.945917509786518
-5.7445249841812
10.303809000831826
28.722676609235055
39.68400181376689
35.284557923372766
20.557448924590613
9.74933744711676
-5.758840505949533
-15.580437585801432
-10.72915314760633
-5.304203164183543
3.676179387024645
13.020214791448776
9.165392194686108
-0.31580571837079247
-4.507165480618422
-6.6525749369873886
-3.579485812171967
7.324133702687537
12.125313209872143
9.852213393664002
7.951492354350567
5.43914854053253
-4.48264321400273
-11.106014352990389
-2.250800143543213
11.56523581198394
13.089627915725584
3.4248716371166097
-4.1510291385418725
-11.799537608283183
-11.576800581810492
-9.470396364666847
-18.573159125928477
-26.626408262915522
-27.55097509543362
-27.048713062685696
-29.998151643744727
-34.64199013964031
-26.667317790115003
-9.928815966680077
1.219150580445392
2.4829649947407644
-6.716264631691108
-8.99511824456481
3.4408707490121118
22.50757497481372
36.42687773378701
30.805159831005057
13.720554543096053
7.36137647492333
14.850551722493428
21.15546268810945
16.38164087867169
8.615807519992591
0.7018349451834237
-3.5206641576067885
-0.6268978319339642
-3.2016113192644844
-4.9447694819300825
1.2705600717492938
4.280100100480954
1.33150677995142
-8.578709409383057
-19.605107679743906
-13.180267600592071
-4.759558678180277
-2.2888598706592176
6.669381039941834
12.215585708727637
15.771311612935541
19.2835982782715
26.281987171375185
33.466814747489586
31.39880664584113
27.305310851221847
20.727824143963957
9.436255036217222
3.7519052963238906
5.1428365260348246
5.652611585598361
2.8049115321907383
5.025520821251435
6.8431896122729885
0.8214672460785806
0.16948665231782856
-4.1286473235945405
-16.087044634429457
-21.944436107234605
-19.163160342975072
-16.58926755659303
-17.38858851151106
-8.541690770795993
13.70340286315564
34.10323864602002
36.43379221921694
16.777908555224183
-4.297204543576599
-8.061918433006829
-3.0794801377060597
4.432337476342927
10.395191017715092
5.093533072235408
-0.6857100755241516
-0.1328618078742424
-5.295197581803927
-12.36021317076943
-15.34345829577469
-11.578343694212695
-6.414883566000676
-8.576996512545993
-16.098503956252543
-13.134432257321114
-5.318132448381522
-7.516581452878865
-0.9023432881957456
20.01007285775332
37.49353048123535
40.009381516305616
33.98502155009588
27.049764020825403
17.939117018605266
5.105430103820267
3.945338194364492
10.33165992862163
6.07945296305429
-4.555746687231356
-16.68302713447648
-23.58775165160122
-23.38399192060902
-11.048631048508009
8.721706988480197
17.564906822302174
11.133654741513297
1.1917596538470325
-7.497346936625421
-20.350121557507432
-32.528110028781064
-38.386665168659114
-43.32873107506211
-45.97702706993421
-41.329889943357
-28.28089512591279
-5.558744127627495
11.914495718245323
22.165059374153486
32.679372553119954
33.84722542060096
18.337582799221565
-0.7384467402413589
-8.175436856871938
-12.971850146974095
-10.867903266567529
1.760520491831345
8.321084094884426
3.115411794225871
-3.9022640383018756
1.882652618611223
1.0066231894322115
-15.614083527485462
-25.224526950423066
-15.647354858424139
-5.642828968361906
-11.511488216146082
-12.28477722357775
-10.59924107016417
-6.827439167038995
3.2873588800970976
1.645049807206303
-6.426477732020455
-4.286731407328825
0.245397091003611
-2.8869872192920467
-4.010997260562868
-4.79074374101031
-7.726180807671743
-3.856598718208492
8.493194639876501
22.59924200976311
17.96376549172219
6.602710723778093
6.402196992855534
7.81326647346776
1.1067398126902475
-9.62604338900762
-10.839144691611281
-7.6850654718988265
2.729322716898687
11.372653699208362
2.7335148833539895
-6.0832019530991
8.798878709956059
27.597709734105518
31.290240232576732
21.82778464313028
13.031391120541478
7.266318001264239
0.9232795105461278
-4.578898109940307
-17.401950947587036
-11.987423472195225
-3.885355758399379
-9.902368775848512
-14.477072822646491
-14.072824165282311
-11.44321237987821
-6.304397623701921
-0.4535545964516355
3.9873472392214846
0.8666741427375909
-11.990082315562741
-12.451622381803
-0.499159785563975
15.77436169768765
12.972646354206637
-12.398700377349794
-41.15149519419269
-53.11033133792662
-29.99648864737798
-6.9740659438254236
-4.8832644237891305
-1.6100815839258662
0.21830190829933682
0.5864478790823682
-4.506868472408694
-20.9364602498954
-28.073284667549117
-25.240216193541997
-4.389867326511519
13.180387237838262
6.003906513463073
1.9302165850913646
-0.38311593521685006
-5.637554823717267
1.2808516214553423
11.739317491168073
7.1671119462614
-5.787966860911957
-2.98721882209095
12.450406454115624
20.186529227918278
25.156776431515784
26.511509145542764
10.538907023330587
-7.647562744330424
-15.669036008448975
-30.405475008341455
-36.13933019216337
-21.890526382984767
3.3625113552873844
16.248948937029663
9.79712401211664
4.013312543616027
-8.741115515789636
-21.7535219983602
-21.37315817966134
-3.6460651445444556
6.929104833714235
1.5856883452251256
-9.121942673645313
-29.844510803366262
-47.46762164211434
-46.66193393327205
-35.14185075526771
-31.120935884033
-21.781924128042043
-15.809870377992508
-25.378050185391647
-34.057338116973426
-38.787050754700815
-24.66511278418784
4.470015970187129
21.22521065162694
22.412387270798853
2.016078050465535
-34.78835503811872
-54.29964526105952
-50.192638038897655
-25.21389694835099
-13.356229917139222
-19.536561184395204
-11.419986400147563
-0.9666611428436254
8.490970342956935
6.1161788895158375
-4.634287768417064
-19.842591507005398
-24.70740868031495
-12.302645905710047
-3.496965928217529
-7.0052237951928555
-31.50975929027061
-46.66569059016814
-33.59688953693826
-16.721322877809524
-10.732197543608109
-10.967902157219166
-15.150078413156626
-21.405868842369465
-26.281844414577453
-16.329476816734882
-8.429810847530582
-17.630679985158217
-13.665198430027303
-0.06537704212892091
2.6781296790128324
-8.369346634602262
-19.68822553990935
-24.58082605518182
-22.43170316197879
-20.125381797839022
-23.00213884881258
-19.96762573659581
-17.673587202821967
0.05462961786921036
27.224776958298516
39.70329975506977
33.04808715088304
17.74981769001484
26.243376457261157
42.64897285487317
46.76503969103887
46.18678759089328
34.86468407814838
18.289699903225564
21.171222825955507
24.466274191541004
15.04640727808256
14.443101135776448
16.844923391306914
6.91974429213326
-2.1843245922703987
2.14931552576652
4.7926800572165
-5.623921789879855
-20.788411493167377
-31.68058409497366
-40.0159757392996
-37.16082731228612
-35.71977933912458
-40.84233473890713
-45.5262139106358
-49.579684723829814
-52.99351572735001
-57.32346741360625
-57.01553827524331
-63.63689556005046
-77.0943306968639
-80.25699821648179
-74.8260550367671
-67.62186755181978
-56.796094538252916
-45.07938163431524
-34.44007883694097
-34.82002398627968
-36.09931968295474
-27.806838742513758
-23.70392329689273
-23.465479144635395
-22.827081380075487
-25.63620438636273
-31.580428000770343
-34.013591730665425
-33.627099923386396
-28.2077148974533
-18.739414482352977
-8.243530261597455
1.0365902265593223
7.101503770824047
9.550878406230664
3.9264282017325525
-3.3124034928803385
-2.5128961361825417
8.631921711501498
24.589494274627658
46.64197475564336
69.18768620387094
87.17574474146295
106.46578473423436
115.45158778422505
108.64287360446824
90.66043610258617
72.07536067590273
57.14451612188906
49.2719482875071
41.98706899904022
19.865293428118058
2.2852940866171667
7.289072941570072
13.202663162315234
6.917169920327203
-3.004059934107549
-10.228479090055226
-6.0373273749948595
-1.1626128010945784
7.172927976030307
17.836495710234658
28.381720823969573
34.83236802261827
33.632302565667004
36.382349583759684
38.089981264922706
39.6056174962415
29.350571434504094
3.611834602963935
-24.49852392839148
-44.87725389508717
-61.019694848144475
-72.79815975824305
-88.32128782450498
-108.27393414123665
-113.50687032481855
-107.71991142251886
-105.85525373152845
-113.4644007476569
-115.63975114371476
-114.92706998731101
-113.44627243678393
-103.45211399167196
-87.26775927908061
-70.97569938956325
-61.80553717207939
-52.66211225650141
-37.269355658588914
-18.446480384940198
-2.4036752131815238
10.537210891147161
22.0325712802488
24.875729021304867
12.512184870472554
-4.6041774819378585
-11.283860695790457
-9.577991750478757
-7.962921163155236
-11.770966146734326
-23.97775004653004
-37.297421177458496
-42.54038885699269
-41.438481977694536
-37.73300896451323
-39.33639278889207
-36.586027552029506
-26.034708724112267
-17.425979969310188
-9.255573767519158
0.5885828732206645
10.160017669141672
16.467006615086575
27.818294225262104
35.95366802426856
45.10315810480979
66.10572714999657
88.36717550262212
100.23813756934399
95.52295297275519
83.13454390201065
71.07265346953753
63.60484482671008
49.46633349032201
28.01548247616194
14.511196610810256
4.685869428280746
1.2026123266817679
7.029091310284336
16.09057361931138
32.182645550815415
46.929106019280134
52.04928021624264
57.45064179788371
62.71136327384057
66.37738362013565
62.80426462211113
43.19009221039516
18.143453049758236
-6.169778255552491
-22.76427486358994
-29.303956958326516
-49.539806725461666
-81.7947090827311
-111.63342813420411
-126.83126683319256
-124.58460550845994
-108.50877862079659
-92.39300168323209
-90.89222538753464
-83.9338433777094
-78.82809579234697
-70.35372447013116
-60.60979558875736
-49.59379165317711
-26.494182618947978
-9.138864112496414
-3.97224025738902
-1.701017085639456
1.6137959710487857
2.8071058312099364
9.68104962670041
8.074305063645857
-0.9539158603339686
-11.141511240073527
-12.910786760324669
-1.5862068044853506
10.998800173710919
17.191534595660837
15.493516690536657
4.560209375278667
-12.184705091329798
-25.965066827927554
-35.97868743413126
-34.141819230090306
-27.9089903839805
-24.878953838775637
-20.153946190494466
-2.5013168227870293
21.69380901761331
32.29517361530536
29.84409182687117
26.036496467313743
21.780816304415
32.35012752947574
48.541314315278704
58.34083273762824
59.37467230552099
63.31394357147077
84.95018143452636
102.28654053016598
119.0073052568068
116.77575044937407
92.80164358520562
69.7404529703432
61.44142954825346
69.32285373381207
64.43435339885704
39.937600162729694
6.576948205024851
-23.16800094775876
-36.448671322314844
-44.84739334006331
-49.229782279664875
-47.71413030958934
-45.12519780934936
-29.225615984323834
-16.33825135506434
-21.426622415595954
-29.767960757641724
-45.46519961080646
-62.03361177949824
-86.4379926824679
-124.46139806900571
-163.24460414297977
-195.47847483386792
-194.74025273267728
-178.46022854275387
-154.84545608940664
-130.64176339678772
-109.29864629987468
-69.72873877173858
-25.782171350213815
-10.135044286769705
-15.97465620580658
-21.5433397238187
-22.293103606765133
-4.475071230957922
10.757766253181996
7.363498663290518
-5.145233878832644
-0.2771913146191169
16.888274088293397
23.50266093074023
28.050785175977737
26.045086440932366
30.496940365826138
41.25264612560326
45.57547407535206
44.679869030110844
47.51770739026054
63.17628027785596
73.0824235863992
73.56458202577461
62.426259758513744
43.16059797260346
43.9028368925784
64.79953554986336
82.677444749192
85.0542478803452
64.74595098189889
43.46691845884497
30.43686061997177
17.09025060658823
15.716195628349045
20.031412291538082
25.17438638146801
41.099101966547394
60.21218898108282
69.13166436581719
65.70009443183031
64.83305962750353
79.00109857688113
97.8190504493584
115.25320410584726
121.34837199655762
118.8951401837408
96.94750526372918
75.7416231703465
63.5094101306971
50.51112092742561
63.00831399336795
64.37716178671502
30.87231035496091
-1.753740907610551
-21.166467329501298
-43.76798775892104
-58.714235529065405
-59.860088398132405
-59.845063450791905
-73.4275959351294
-82.0187860587357
-74.6775205334697
-67.84431516363809
-54.24226139125874
-45.76603996791695
-43.07620501433398
-49.61280933281029
-60.03563038887108
-43.523515797114776
-43.70754734764484
-58.11874955684003
-56.06481949184353
-52.64587363610195
-31.655489828679542
-17.2219293799611
-14.764868672942503
-16.821325882100197
-14.918419883661633
6.215908961025406
23.42290551666814
33.74016338311851
33.6882735946428
35.2255376609668
50.22046917096978
65.87951300911041
71.5528593859378
66.93176297952618
61.53353328440029
79.69134524275756
107.03332497890709
111.93871982502729
111.67114894876171
79.02989673989968
35.778812599663674
9.077671390856887
-13.5748237407939
-29.096964196888027
-49.9895251244678
-86.55591092512184
-115.0007340265189
-98.59689025933294
-49.99041963359544
0.8319602047229463
26.961035941163104
26.344096930023174
-5.9714779310534425
-35.94744712918279
-29.137727993158524
-10.186481352764954
-9.722841068448117
-9.853190164747627
-14.602401874697133
-28.802226589853028
-7.882363364736839
30.624878550555486
55.207998105638225
74.92702359475798
70.83070763419877
73.76166383836056
93.38597853144701
90.15659361634765
67.47367977436748
39.01284909999867
24.420001485386184
2.114519562103248
-14.966207507483327
-37.135651297453244
-57.15663741169652
-52.22212788744086
-18.88735267044415
-5.531096375293419
-13.477238404054694
-8.426805891486724
-17.625967254152926
-11.75916496525396
-17.83403807806397
-37.28074748724802
-70.9448031119683
-91.60455645546833
-66.32402911428548
-55.20798272410529
-55.961827640343145
-47.1266492004574
-25.860250113142566
-3.256839318667167
2.3938378049364446
15.609463594305534
16.96355774711666
0.9175436004356878
-0.32286414993478757
1.8115588215866356
4.586322575178375
8.70465110051881
2.8707963071324722
-15.159164289919225
-33.283572575092045
-20.46216625938569
5.3604014479179085
16.889149690151232
41.94272264478763
27.55615135945203
-11.480424726512759
-27.416381917154492
-27.71321776573484
-0.136856913977952
13.806824510994208
14.247882238018029
-0.7601850357910299
-0.9140352364398782
22.709174724633126
23.023297771520753
31.8644565526448
39.8526592143094
28.914376216109858
25.40658895188667
18.20540584612694
8.062827618647365
20.05860868757783
47.860405915199905
67.38454009828173
62.14459066447008
46.489869074430615
29.41546247533891
31.07310396270389
46.01737631279472
47.06590636697549
34.533407097295466
33.160846901515804
50.821241076338836
41.383744512322444
20.914402564279378
0.3386279261305231
-11.348968981693645
2.2619405094161533
8.844623115985854
-14.408019468934494
-35.34374348822416
-46.025296230222004
-53.50565765296679
-32.26477120996089
1.601803187650859
17.63632499802403
6.3933569634112395
8.758762491328763
19.929111481172985
34.250973520831124
44.91160750501855
51.44723140588619
65.85073241145642
46.007147319476296
31.371712149216563
36.57492071227137
30.605012665115513
39.85655481817405
52.49738653392697
35.04162714652114
-0.20252452685612535
-6.117762619442146
14.958515379694704
31.667511672036152
51.97309630911834
65.15136825650438
52.508451459931536
42.742603788795016
75.14682518691183
69.37706423973398
29.844468575282022
30.510822661851556
41.803535328647136
59.85903082470611
62.46320559185475
44.02912225536456
20.794826158533958
22.501358850719825
35.60355778381799
23.235614002265795
45.55999800917034
77.02457280832165
72.09078619658395
68.09523655340404
61.78147373478712
59.33817519641801
77.01472585021699
95.31688944346868
89.85891895521908
85.94004279153356
102.17983793681651
117.14330315333966
114.42558383085279
88.36611252093016
76.20158960032198
89.96783015846766
89.19747633600112
90.86599903984626
113.22344020591193
101.8142495514417
57.1977033377852
30.53367786725567
29.69201556250847
54.996603415795555
77.19162416314586
75.2624168169262
74.92049829366597
69.2348535823602
28.65354818125131
-7.363953992322816
-5.207156386706249
30.774637793687077
91.60283542761927
103.3258199210086
69.43299024045058
15.083925604350066
-2.7329663854895325
29.041814312400177
63.34840347051009
96.16893338521065
109.19476024172117
101.73869426277513
50.521391434082304
3.796023097658689
-35.47310577626987
-51.845649023416875
-5.236803137528902
50.87451657559866
51.264492773661225
