AAD_Filtered_TADAS_FILE
AAD_BASELINE_CORRECTION: BASELINE REMOVED
AAD_FILTER_TYPE: BUTTERWORTH
AAD_FILTER_ORDER: 1
AAD_LOW_CUT_FREQUENCY_HZ: 0.025
AAD_HIGH_CUT_FREQUENCY_HZ: 40.0
EVENT_NAME: 202302061024
EVENT_ID: 13207
EVENT_DATE_YYYYMMDD: 2023/02/06
EVENT_TIME_HHMMSS: 10:24:47.00000
EVENT_LATITUDE_DEGREE: 38.089
EVENT_LONGITUDE_DEGREE: 37.239
EVENT_DEPTH_KM: 7.0
HYPOCENTER_REFERENCE: AFAD
MAGNITUDE_W: 7.6
MAGNITUDE_W_REFERENCE: AFAD
MAGNITUDE_L: 
MAGNITUDE_L_REFERENCE: 
FOCAL_MECHANISM: 
NETWORK: TK
STATION_CODE: 3136
STATION_NAME: 
STATION_LATITUDE_DEGREE: 36.11593
STATION_LONGITUDE_DEGREE: 36.24722
STATION_ELEVATION_M: 269.0
LOCATION: Kahramanmaras_Elbistan_Turkiye
SENSOR_DEPTH_M: 
VS30_M/S: 344
SITE_CLASSIFICATION_EC8: C
MORPHOLOGIC_CLASSIFICATION: 
EPICENTRAL_DISTANCE_KM: 236.36
EARTHQUAKE_BACKAZIMUTH_DEGREE: 
DATE_TIME_FIRST_SAMPLE_YYYYMMDD_HHMMSS: 2023/02/06 10:25:07.7457460
DATE_TIME_FIRST_SAMPLE_PRECISION: millisecond
SAMPLING_INTERVAL_S: 0.01
NDATA: 14501
DURATION_S: 
STREAM: HNE
UNITS: cm/s^2
INSTRUMENT: sensor = GMS+/GEOSIG | digitizer = 
INSTRUMENT_ANALOG/DIGITAL: 
INSTRUMENTAL_FREQUENCY_HZ: 
INSTRUMENTAL_DAMPING: 
FULL_SCALE_G: 
N_BIT_DIGITAL_CONVERTER: 
PGA_CM/S^2: 22.794
TIME_PGA_S: 
BASELINE_CORRECTION: BASELINE REMOVED
FILTER_TYPE: BUTTERWORTH
FILTER_ORDER: 
LOW_CUT_FREQUENCY_HZ: 
HIGH_CUT_FREQUENCY_HZ: 
LATE/NORMAL_TRIGGERED: 
DATABASE_VERSION: 
HEADER_FORMAT: DYNA 1.2
DATA_TYPE: Acceleration
PROCESSING: Automatic Paolucci et al., 2011
DATA_TIMESTAMP_YYYYMMDD_HHMMSS: 
DATA_LICENSE: U (unknown license)
DATA_CITATION: Turkish Accelerometric Archive v 1.0 - Disaster And Emergency Management Presidency, Earthquake Department
DATA_CREATOR: AFAD
ORIGINAL_DATA_MEDIATOR_CITATION: : AFAD - Disaster And Emergency Management Presidency
ORIGINAL_DATA_MEDIATOR: AFAD PROCESS SERVICE
ORIGINAL_DATA_CREATOR_CITATION: AFAD PROCESS SERVICE
ORIGINAL_DATA_CREATOR: network: TK
USER1: GuestUser
USER2: 
USER3: 
USER4: 
[...]
-2.267462253549739
-4.203735789278414
-6.450071461458705
-8.499312000088574
-9.688352070414748
-10.13680090218343
-10.379074371646608
-10.892362120768269
-11.845990961105947
-12.492312942580565
-12.23454929225246
-10.694709979637029
-8.040819663038647
-5.545744962376238
-3.816184794954896
-2.823550810544983
-2.392732003165492
-1.8482814784220114
-0.9637885075583448
0.20299535953448417
1.4583843677091153
2.5260378404994404
3.6447005994315176
4.826469705152201
5.969231349168605
6.8285565315643515
6.951999373149321
6.474010281946312
5.237511298455968
3.1913361415050243
0.9643561577240002
-1.0159013266763446
-2.322025860879341
-3.0961627308331003
-4.049457704514333
-5.2066169670680305
-6.371982707939574
-7.531393548009122
-8.522580345367436
-9.41494211039461
-10.368377620756364
-11.48991561693112
-12.713561184706867
-13.473073580667606
-13.507126501467427
-13.312420651488774
-13.259000339974273
-13.349973753632348
-13.780331823427286
-14.561010186581864
-15.336657386193176
-15.836364352861228
-15.945209411653293
-15.709628928946113
-15.261613348007064
-14.65896303479118
-13.873826057511561
-13.136130196336879
-12.622347002669944
-11.972990091900538
-11.183486318003864
-10.575279675666277
-9.608672335961442
-7.742312280057274
-5.357475542327519
-3.1516305772395303
-1.6521542920387255
-0.7723802016389519
-0.3219469957738881
0.08751226876710785
1.1340321158559747
2.4309348409481624
3.4591050028308126
4.23746583693617
4.83124626104237
5.809819951833824
7.075723678000777
7.96698818583038
8.291133055845519
7.544691515864012
5.786574503405759
3.692235016654232
1.5867243524181667
-0.3014038730336774
-2.0448080501165053
-3.2414621626014024
-3.6975967848592854
-3.857371562560205
-3.6984100866478653
-3.488933951447424
-3.138705956862271
-2.322848638147028
-1.4192869070757157
-0.4711620270194861
0.42325036162911656
0.9774394786983448
1.3089143286452918
1.4201646776486312
1.3817669574791083
1.360193299295024
1.5732700913989175
2.208861062846188
2.919436621929521
3.525341311498727
4.201260450614195
5.269461260145036
6.621754473555028
7.73134309815564
8.868069176738395
10.084308376219642
10.854584504171225
11.106446792715182
10.762954010919463
9.646374549798614
8.114022703055758
6.7526528259340495
5.8381506197100395
5.435673080692391
5.06179036573318
4.155613677536818
3.1758629610415148
2.484294944880418
2.1662579297735105
2.6463350997858464
3.6444123614433375
4.610059770547113
5.16884667902969
5.421627101172515
5.963246888337917
6.725251126099069
7.413934216114442
7.731707285801904
7.322528908060962
6.141310199127727
4.328216463857128
2.478468329192693
1.1976190893788503
0.4073810819008603
-0.01524288619725012
-0.27249931788734977
-0.8348439484942285
-1.60063950518462
-2.3744073500706704
-2.975154736162295
-3.3254583925238284
-3.8720440169610972
-4.564787075261095
-5.506812835073967
-6.733455284992611
-7.720362985053754
-8.54881381174633
-8.924703807187406
-8.8858085926255
-9.151399637691224
-9.416111353315658
-9.467270134178223
-9.320857503157681
-8.725863476108797
-7.680113878507121
-6.055486669751397
-4.223775351545434
-2.7587813557123666
-1.634895729612239
-0.936437338905672
-0.3312991238114605
0.7150618718103012
2.1507801647009805
3.6776232124579367
4.568074782371795
4.442985935609663
3.421942818321297
1.8071679465531607
0.2587235696918872
-0.766266909913826
-1.054777673288615
-1.0911197199145781
-1.474667232833105
-1.9628851103508018
-2.133968510429404
-1.86205068747857
-1.4461348427976757
-1.2372763036458017
-1.6048822644901255
-2.762570433142167
-4.1891555209856
-5.138020005401642
-5.406681704746641
-5.654412072613213
-6.532920923094861
-7.976549519363359
-9.65761209244166
-11.02212687374227
-11.672278253270001
-11.60006176831213
-11.02541651700729
-10.477805112099594
-9.86072731953879
-8.469660280660364
-6.060255606814751
-2.9911743317949924
-0.16138391181229828
1.9896558646913194
3.584757871794657
4.583553740446575
5.497429559434091
6.673143070573746
7.6586424812060905
7.963026139000289
7.400617335924769
6.504044291464754
5.573406865593527
4.480862761222842
3.5861025714379533
2.8562189702319363
2.107701804967972
1.7019566503960952
1.9763533613570718
2.9638368670474318
4.018581055719736
4.565006225675342
4.756142809677866
4.83222943012045
4.951360585901649
4.976999815225791
4.604761612005658
3.8160001463030113
2.854738641907888
2.3322411862945063
2.7748269698569716
4.009739696623919
5.3721330095901605
6.148809028647403
6.288657749901872
6.251411816896201
6.441074923512923
7.083303709576017
7.668050276536497
7.470452953945143
6.372127602705636
4.684444027446991
3.087098116166721
1.9433131542074022
0.7173620448991008
-0.9374729435628216
-2.923798506512305
-5.304071856641733
-7.641188249020706
-9.394759555654366
-10.608598025386328
-11.362413462200422
-11.687492375772834
-11.504479352647824
-11.005018859789741
-10.720569414327418
-10.75968588254525
-11.006831909239787
-11.195213950688363
-11.048986298885266
-10.495846228943105
-9.271984662026906
-7.571339702921827
-5.85855334664976
-4.0235499839708195
-2.0687133478799233
-0.04542979177708127
1.9431478581555872
3.422691141688484
4.321145879187247
4.662226857721089
4.477125861248201
4.242044584931217
4.276287621235674
4.544197513123053
4.360926881539081
3.3451734654475835
2.132887592508135
1.0451675934274174
0.4237432260903994
0.20501948565458697
-0.29282061907913504
-0.9590768052501263
-1.670952088753515
-2.4247541894312588
-2.9197387183963386
-3.0075235418022723
-2.491595045738006
-1.5934251737980631
-0.8827543598375835
-0.7463601347146088
-1.8631936394204034
-4.319988193644811
-7.162478794488729
-9.377108915972144
-10.400413549683465
-10.570938734411552
-10.534806547378597
-10.575834028406343
-10.633955586215741
-10.544719777887353
-10.33391364253095
-10.033581586449708
-9.73834174466084
-9.675353576545481
-9.893721902402836
-10.338808900620025
-10.988682729678894
-11.335960838705875
-10.900513126496229
-9.741240400812194
-8.061107147152105
-6.656103010777398
-6.292279330092938
-6.818407106340988
-7.656623910445361
-8.228927887658552
-8.151167382163555
-7.432924109880069
-6.602022595862549
-6.132904757270167
-5.987018290370733
-5.6594686069677484
-4.781628004880436
-3.634742279462027
-2.6479676166797046
-2.2821843457575257
-2.573895022110041
-3.03293119945714
-2.9433818107410343
-1.6337282531834683
0.23305572560274587
1.5464058699485657
2.1035496734972745
2.241970829275266
2.4644663137960325
2.794745922054063
3.1928687933745
3.7426646112249453
4.34549878817999
5.044742452879563
5.580246756938444
6.089004882262571
7.024756435887135
7.841271374138641
8.531916972250958
9.43913509313085
10.201934533133931
10.945454687652937
11.579651108560375
11.912906138655547
11.861354616680138
10.77553467097826
8.974457970074432
7.030975577051272
5.193712090665892
4.200640260909956
3.916845859992583
4.025812222842033
4.160503395002756
3.6779223601202373
2.780729589293618
1.460112815136864
-0.06938019908991919
-1.2333321171935088
-1.8156840007878607
-1.6860998732048649
-1.358494563785745
-1.0061844664200177
-0.6008510917358775
-0.7706884892660818
-1.2689368628590743
-1.419323323215357
-1.2585718795943743
-1.0175821217523575
-0.9635474907466558
-1.0498847937165832
-1.1486888621678988
-1.3475076100777186
-1.6366553884722408
-2.2924080911220046
-3.416360015331992
-4.842486654140351
-6.445047054339729
-7.616098428128167
-8.011402656989711
-7.762792329237002
-7.070438441342669
-6.3794722455971025
-6.082678877817994
-6.481167506707253
-7.436624040328083
-8.45514514729992
-9.211897098297806
-9.522162840386905
-9.4715317942451
-9.291446416641358
-9.230522256221807
-9.13677125409752
-8.513474785843169
-7.012183977140211
-4.635640846975218
-2.0181787423812367
0.2671831794745274
1.8323473788242592
2.357156446287902
2.193417773221972
2.064567412469206
2.566432999214327
3.746221950805815
5.213489483863385
6.826555427073969
8.410050357333638
9.838677531601205
11.263124811838825
12.545444530180553
13.704985600164248
14.707708312407384
15.184323492382092
15.084050288658009
14.394306645734854
13.518871467113543
13.027965553811882
12.679683819596518
12.051614968320182
10.79219973861754
8.85932909079798
6.72646602412544
4.718387240598965
3.4341737884481547
3.1344916083659577
3.299827995567285
3.7945438721543434
4.35629524569995
4.80660320122282
5.264708338388372
5.678379150296092
6.5200355236440934
7.78608793615357
8.625627099356858
8.742526782797198
8.216790417887486
7.496350145549093
7.25635354526772
7.477967906141558
7.825026170932407
7.82316720638081
7.18875619288226
6.490161926267115
6.285721507873866
6.602844842757591
7.181046861439003
7.5957203005270655
7.77829167826429
7.580396730735803
6.6532078847178875
5.351401982662666
4.043922481757098
2.7600620001576273
1.8600819582036932
1.5372366032651799
1.5709908109256594
1.5741905937843792
1.3566229105123084
1.3539218955895131
1.6941774959484661
2.178593668486877
2.694158867120778
3.0247464426228916
3.459394563666485
4.153001321126377
5.280309655317283
7.0915702348077225
8.811512795298004
9.743250243590419
9.613896110729312
8.619795960125554
7.602854144806334
6.92127187984759
6.609583106966041
6.350352861088371
5.570128732686437
4.406978421042254
3.2120737244392936
2.150379620484872
1.3679119402185944
0.6426088008014702
-0.17372382624709834
-1.2118283832396048
-2.7763794794820806
-4.377709539340416
-5.466312303443721
-5.695072591087036
-4.803066457431279
-3.433111408174801
-2.0026246176543245
-0.8249733594792604
-0.10326743720713177
0.8977717976021607
2.3065311440177023
3.6517580347817766
4.494729817693507
4.275221471203856
2.980866038528765
1.007274620374255
-1.2865152259748867
-3.579363341411707
-5.621553701660272
-7.393719825984985
-8.893809827163318
-9.922678309098291
-10.372085461855294
-10.059408945034606
-8.820103550223942
-6.836050624605303
-4.700920957414485
-3.176899553666417
-2.371830602718168
-1.8006569602537785
-0.9257537330999712
0.5075838075729744
2.5211376120489737
5.132239320049117
7.811235017257523
9.994785529520946
11.708188097999212
13.045300617862717
14.300994732247933
15.638026386536799
17.018304604370435
18.599428074212568
19.85972673727744
20.430615522917208
20.708858995069058
20.61211841529043
19.94999240627272
18.54829818320129
16.524209133880827
14.360981269920725
12.212506694551108
10.44251904222919
9.051091588659785
7.741819539061803
6.542194037805884
5.196779565547333
3.8705004699401955
3.081352699484706
2.5940333340420665
2.3468360886148694
2.445809984727607
2.3532248728418685
1.8895988073156218
1.2956020468888647
1.215258225670129
1.7767617135018232
2.3692878926718954
2.7855334142412573
2.542750971055558
2.0465089849710587
2.165274560384929
2.895228582141778
3.9886160203533927
4.91379413040534
5.796529132238828
7.029690184520681
8.57234451571424
10.349741730916211
12.105632716849351
13.432539689324297
14.02436878230103
13.721106501009686
12.500835854966514
10.86730041271482
8.987937019972525
6.776418614685259
4.565065602510894
2.327520193568371
0.044919676283750244
-2.085920170938641
-3.871152708138972
-5.23344108993975
-6.00483954219607
-5.937302287316793
-5.2998335604625515
-4.387847153567976
-3.498889219606861
-3.0276611934389948
-2.924497508046866
-2.8295552548287937
-2.4455723960603915
-1.6069876822198033
-0.4192545166669311
0.6754959800708441
1.3023715021842932
1.3917501103167682
1.2644175438000391
1.3847462089529758
1.8396831814979941
2.6345753084765846
3.610520756690552
4.311428998010355
4.686960829071995
4.823442815224892
4.9485197608393285
5.312066438596258
5.74745602778486
6.351989893143059
6.775418099049291
6.610831568297202
6.461948634489856
6.695538768420698
7.245267715211981
7.745000759044775
7.883961601607693
7.921365642134375
7.963889841336322
8.009979688696527
8.046701644025498
7.972890518143052
8.016596381253283
8.398575962895704
9.203658968731288
10.417093613034108
11.553030528067334
12.51583972738416
13.406484467809186
13.956893395469129
14.372382872233777
14.601959281449643
14.755071255353657
15.41557729149121
16.133512088296257
16.503714738898008
16.457367286607564
15.849801711296529
15.063731811473996
14.079142161908443
12.926666963234139
11.794310315967055
10.533906930664179
9.308493519907714
8.090919275200589
6.891446590248837
5.625655565952639
4.169697831853904
2.7024108536738396
1.4199204309346414
0.2551637979002764
-1.00882994105493
-1.4138736926822069
-1.1169723002169594
-1.2565053621485611
-1.916357790849142
-2.9442856313043286
-3.379558549018572
-3.1313981342109694
-2.347712238857003
-0.8818610175306469
0.7236428384411024
2.314671091675354
3.268583247890575
3.9795475501844777
5.227363927988225
6.841291470971983
9.149466343040013
11.541149330872308
13.55258699632762
15.716377901210587
17.972728958188526
20.06341064839076
21.442789813228128
21.993846625202533
22.16051703597544
21.717563001456192
20.68359218465474
19.513340634649467
18.229615804367967
16.826770883058163
15.304825080921658
14.062777496881885
13.482904537567325
12.836684828277086
11.914591823221885
11.159859329300032
10.650389409890757
10.421811284711604
10.230799282129908
10.30896428526002
10.834922569918835
11.29375755933443
11.966095324712539
12.903480063567702
13.520462631335308
14.034603061652724
14.313563202972137
14.118365951927467
13.486039216789262
11.878386926602898
9.931738444877402
8.40897315934626
6.982266265248336
5.905292127114305
4.988654554903287
3.7749692651849367
2.065305021313166
-0.532733918812754
-3.5841365656868587
-6.697927115530095
-9.346648360219868
-11.278643433442884
-13.184157756536026
-14.466733047070948
-14.908608067160483
-15.078455084962066
-14.614645671878943
-13.517619069107175
-12.27515957057077
-11.280458248516364
-10.479142466392917
-9.701098312471514
-8.907773379700487
-8.285550755964243
-8.237698960784943
-8.748424158630488
-9.540721417046903
-10.290229110988948
-10.93843705613495
-11.424817168588714
-11.778378812330299
-12.140845159209514
-12.342743885781198
-12.455160101450492
-12.33223625294286
-11.651151863240292
-10.440830348861313
-8.773442032388502
-6.9094253422524305
-4.919399573967383
-2.597287781823611
-0.17054714168819213
2.0651737119264983
3.9828409527696516
5.136418905840598
5.288220721135141
4.711187611067439
3.786100682087871
2.726121895499248
1.494097942909915
0.4116569856096456
-0.2734551811159224
-0.7485163504732005
-0.819252789860562
-0.21980317497396448
1.3009949114010289
3.6181298768785224
6.015426924444681
8.223439986745285
10.067321014936418
11.52869441882105
13.0420096941544
14.597035052935423
15.998826331924057
17.240687266242766
18.312685096837104
19.40033856186819
20.463541623919838
21.09756810463679
21.050962909311092
20.136387520095028
18.459592112667966
16.560328184258655
14.861188317431408
13.483801468646977
12.357518535369028
11.544319543127342
11.274888017687653
11.471574092145019
11.995244481744775
12.64235294171559
12.947318617960505
12.92043443499899
12.75455863838878
12.477343056027824
12.453143528365544
12.600309706732798
12.495200123380128
12.215127889244975
11.670444744976198
10.903252756367797
9.950469208801373
8.671104114926438
7.198175216508836
5.345760760255252
3.819643995860086
3.3550179560727362
3.5314094436684638
4.25507471435378
5.129184469178342
6.012299247078182
7.043333278144982
7.98455370167458
8.995864276577535
9.73185671256359
9.93229449578393
9.729219410812462
8.95122314193035
7.958793224889894
7.03739975769074
6.044641775278375
4.961015907836786
3.5964103037828594
2.0563988347995847
0.3096530043706411
-1.9657845765807869
-4.256560567189601
-6.364622722202461
-8.2251653022588
-9.419121830654316
-10.251312652428735
-10.696115536363433
-10.962237370119292
-11.662459913842381
-12.561330188245535
-13.590800327005793
-14.605885845107524
-15.453066333377109
-16.29760943024783
-16.83505014741636
-17.11494686321053
-17.14327373173243
-16.571569134721074
-15.682696843408582
-14.695061710099363
-13.571699483402915
-12.170670633376636
-10.453915416256683
-9.04756283478834
-8.265532593902734
-8.095616690754131
-8.426186644775907
-8.510861952160237
-8.062826231522768
-7.424937381753289
-7.100636108633254
-7.380994490230005
-7.510336563489544
-6.8983381716198195
-5.5144560337564785
-3.1107570421156407
-0.025391042343678127
2.959941361765435
5.401851177236662
7.223800332243725
8.76615693299378
10.259531268797858
11.414147612661925
12.07074803914183
12.176307134311125
11.603720095040545
10.912007237465803
10.619129309897831
10.497575220527064
10.147524169312051
9.30200962619934
8.335637358353418
7.475534262075234
6.681772719566498
6.098722090593507
5.319573320180253
4.227397228788812
2.9317729186539054
1.4195835095574627
-0.07783685288980055
-1.544733475593467
-3.115177481461969
-4.764828847939568
-6.035242133947715
-6.612226910888815
-6.478119656848855
-5.711970316543425
-4.564276454264366
-3.4356190564943776
-2.7394372770437445
-2.4031791431312866
-2.3747167003446035
-2.7521290093705155
-3.3480109707143524
-3.635054544265126
-3.5378885510338165
-3.411992442699618
-3.273966798109429
-3.4533844701155245
-4.000556338298274
-4.575726923712972
-5.080826385362968
-5.0976092189695805
-4.625572723096972
-4.217294581389779
-3.9448890781163892
-3.627937305776867
-3.216437713648689
-2.676085984960173
-2.07557429550978
-1.616411428156552
-1.5000746829187654
-1.7641683597318927
-1.9123517098151634
-1.3383288175185264
-0.013755260287655736
1.9532810587898919
4.434201735159486
7.1353997320885325
9.658219467778768
11.613896607212537
13.301207882330251
15.011661781144204
16.4564752487203
17.596409500374623
18.198994756242428
17.958740617512326
16.925234004974715
15.342981257755557
14.122693676716434
13.483999313836588
12.836925809008395
12.040271605803541
10.457109036217542
8.0656145913352
5.434473937547167
2.7319767681123253
0.5379089943986994
-1.3853873761117295
-3.1416506722470507
-4.753564970688811
-6.351988824762905
-7.704451484979371
-9.347292318696182
-10.238815705655915
-10.113871744824849
-9.967314133579299
-9.56777926266362
-9.13403813574724
-8.50711099258972
-7.9050644027379615
-7.449519424720196
-6.660939659759649
-5.6037166958980125
-4.380935334576512
-3.218401067460102
-1.9895815905421093
-0.685113313855873
0.696529827611003
2.09404060326411
3.489574680565338
4.895542088606916
5.8786649033327345
6.638535196143681
6.980328658685292
