AAD_Filtered_TADAS_FILE
AAD_BASELINE_CORRECTION: BASELINE REMOVED
AAD_FILTER_TYPE: BUTTERWORTH
AAD_FILTER_ORDER: 1
AAD_LOW_CUT_FREQUENCY_HZ: 0.025
AAD_HIGH_CUT_FREQUENCY_HZ: 40.0
EVENT_NAME: 202302060117
EVENT_ID: 13194
EVENT_DATE_YYYYMMDD: 2023/02/06
EVENT_TIME_HHMMSS: 01:17:32.00000
EVENT_LATITUDE_DEGREE: 37.288
EVENT_LONGITUDE_DEGREE: 37.043
EVENT_DEPTH_KM: 8.6
HYPOCENTER_REFERENCE: AFAD
MAGNITUDE_W: 7.7
MAGNITUDE_W_REFERENCE: AFAD
MAGNITUDE_L: 
MAGNITUDE_L_REFERENCE: 
FOCAL_MECHANISM: 
NETWORK: TK
STATION_CODE: 0142
STATION_NAME: 
STATION_LATITUDE_DEGREE: 37.62072
STATION_LONGITUDE_DEGREE: 35.611148
STATION_ELEVATION_M: 370.0
LOCATION: Kahramanmaras_Pazarck_Turkiye
SENSOR_DEPTH_M: 
VS30_M/S: None
SITE_CLASSIFICATION_EC8: unknown
MORPHOLOGIC_CLASSIFICATION: 
EPICENTRAL_DISTANCE_KM: 131.69
EARTHQUAKE_BACKAZIMUTH_DEGREE: 
DATE_TIME_FIRST_SAMPLE_YYYYMMDD_HHMMSS: 2023/02/06 01:17:34.7382980
DATE_TIME_FIRST_SAMPLE_PRECISION: millisecond
SAMPLING_INTERVAL_S: 0.01
NDATA: 12501
DURATION_S: 
STREAM: HNZ
UNITS: cm/s^2
INSTRUMENT: sensor = ACEBOX/SARA | digitizer = 
INSTRUMENT_ANALOG/DIGITAL: 
INSTRUMENTAL_FREQUENCY_HZ: 
INSTRUMENTAL_DAMPING: 
FULL_SCALE_G: 
N_BIT_DIGITAL_CONVERTER: 
PGA_CM/S^2: 10.936
TIME_PGA_S: 
BASELINE_CORRECTION: BASELINE REMOVED
FILTER_TYPE: BUTTERWORTH
FILTER_ORDER: 
LOW_CUT_FREQUENCY_HZ: 
HIGH_CUT_FREQUENCY_HZ: 
LATE/NORMAL_TRIGGERED: 
DATABASE_VERSION: 
HEADER_FORMAT: DYNA 1.2
DATA_TYPE: Acceleration
PROCESSING: Automatic Paolucci et al., 2011
DATA_TIMESTAMP_YYYYMMDD_HHMMSS: 
DATA_LICENSE: U (unknown license)
DATA_CITATION: Turkish Accelerometric Archive v 1.0 - Disaster And Emergency Management Presidency, Earthquake Department
DATA_CREATOR: AFAD
ORIGINAL_DATA_MEDIATOR_CITATION: : AFAD - Disaster And Emergency Management Presidency
ORIGINAL_DATA_MEDIATOR: AFAD PROCESS SERVICE
ORIGINAL_DATA_CREATOR_CITATION: AFAD PROCESS SERVICE
ORIGINAL_DATA_CREATOR: network: TK
USER1: GuestUser
USER2: 
USER3: 
USER4: 
[...]
-2.5143197538902613
-3.464625004218794
-3.890170109481247
-4.151458396163761
-4.263057481151235
-4.321076773733616
-4.802454640473819
-5.436666867950676
-5.734365578510726
-6.038662548596393
-6.567956359043217
-6.971877387780918
-7.060688917514912
-7.042370563078084
-7.152816212375499
-7.218504139471511
-6.753423872948104
-5.684862338863968
-4.606363337945146
-3.9248455615205753
-3.565576228454297
-3.3490674645674523
-2.9544891683782257
-2.464650186561271
-2.2522553264229006
-2.017425017494333
-1.4792537919274082
-0.8003573552746652
-0.12339030903091618
0.307832747977479
0.5535166767315937
0.6134640185160387
0.30693081490587826
0.11377977287079218
-0.25102058230684693
-1.219118398928075
-1.6146614396695878
-1.408827309747099
-1.3560593943359254
-0.7238729886208074
0.367272572244552
1.1072809974830693
1.5700108875427061
1.859812226670076
2.1582173415230934
2.305877806795147
2.024616679765378
1.702563826502304
1.324601795635886
0.6340327683000173
-0.16538369716119858
-0.9119604289547715
-1.6827568205802097
-2.6720101838514108
-3.7592642080161194
-4.504368739231249
-4.737480349659574
-4.397524671407066
-3.2887274984945045
-1.961446164834178
-1.1843450375220343
-0.46982253069377533
0.2940516897956863
0.6723304607037607
1.158510535565954
1.5387610930193
1.4531695468620067
1.2188334171220734
0.8425558528430974
1.0567511633720188
1.9848554684867692
2.954188587063446
4.194579332493135
5.101264409483225
4.990634013377509
4.217678156900439
3.154698262198194
2.35335284627896
1.5330112523895503
0.3615308316653964
-0.6277235227427385
-1.6395850614954401
-2.7449466836788354
-3.415882719409533
-3.6520830404771054
-3.5506673831417404
-3.0812113212633387
-2.420709965140092
-1.7296664392192078
-0.9660324599170468
-0.3471071013393377
-0.0016972659340741096
0.29964517054114315
0.4682045707028325
0.7040659683762022
1.0213544144830626
0.7737923737115749
0.35291967851367834
0.11817069134487365
-0.5882291322261055
-1.4985534370631028
-1.8582725573493064
-1.6838348201008526
-1.1707630621433176
-0.51669014677907
0.03926302305253419
0.6739508285549961
1.765624688274019
3.0564805430036115
3.999276110591984
4.563817978584735
4.666897063749797
4.077704741510963
3.195999636840197
2.6330198054839635
2.2134872922732463
1.476350857570698
1.0583646881185425
1.337696975369414
1.3030205242889823
0.9262308727563134
0.7019156160424305
0.3349930045232751
0.14233017134420153
0.09040355538052067
-0.29360841009335487
-0.6929957128665805
-1.1855455130920292
-1.9910608084710297
-2.7303858512843333
-3.072393296683297
-3.116405553744986
-3.2511914084064033
-3.657624591005928
-4.573904665807867
-5.699404368455213
-6.170049796960069
-6.183801377262331
-5.995881236135173
-5.526530007628464
-5.116409993269846
-4.480162905221488
-3.660806545810638
-3.1264339918726374
-2.4325320265797976
-1.8117029149220292
-1.8849041911960067
-2.0216967147393445
-1.692368179823851
-1.0783480186219825
-0.2765602740134513
0.6865400675560801
1.6850628822873912
2.3595384624590916
2.424633902503655
2.255968553495121
2.1025351083453816
1.5703349968627347
0.7401848262093985
-0.06873866119789884
-0.8630861641120297
-1.3286112851722365
-1.419045631182445
-1.4093949455508106
-1.1177224788687996
-0.42084273685147
0.605118675613049
1.6078420482733644
2.1548059058051203
2.3693476264130804
2.081609834396622
1.045339176666521
-0.19328655121540034
-1.3197236140126902
-2.304623153175552
-3.024107249665438
-3.6767068486073016
-4.065865127922073
-3.7842860900232846
-3.301147587418844
-2.894673654174849
-2.0195390188149833
-0.7691865321604245
0.1953371986074053
0.7901157461385211
1.1715612154115211
1.4588506297469888
1.8137966517719688
2.299261051506498
3.084530076223109
3.996747398759169
4.505423960246569
4.914090174041637
5.858479164607091
7.1087252577976425
8.207876154220342
8.885374631369189
8.68040792653675
7.568769640995389
6.154266883169143
4.658186020693678
3.058652879706461
1.5358002351336255
0.12675121256905048
-1.0469193150658649
-2.023611041551804
-2.840165038961602
-3.1110729315348453
-3.21866042286099
-3.4354994969532777
-3.287484610369796
-2.8716237530584396
-1.877875517028109
-0.5368744097328192
0.1672693809771353
0.8481485133812123
1.5531760771248349
1.7561259905827677
2.1451447617272814
2.489583054974294
2.398082430477893
2.1865548470761698
1.7655226755911266
1.6216739108937988
2.057756908402096
2.471402557680249
3.3056588771252606
4.838218848554078
5.501687943600881
4.997979990973386
4.493146172516321
3.9830275360088523
3.57714581192711
3.402605467488001
2.962879774552424
2.498754155733499
2.213548645294187
2.1563366933584436
2.4245348053698126
2.6532303133039643
2.926513228498692
3.4187737045752393
3.931473995352384
4.581223413595177
5.257258392622626
5.512728157255176
5.529843279950674
5.568671306858307
5.3277901703661925
4.677231347491435
3.625511791746198
2.6409765675050436
2.454140626385242
2.6487667073168
2.9554327138819727
3.888794348294089
5.1782380639339625
6.322692802337966
7.476446866385687
8.743710555345297
9.829449192930262
10.544663721918905
10.462069252910322
9.410417118240458
8.244607822283333
7.173826165666569
6.105047134728517
5.208838140002883
4.479521926002817
4.8245972919443805
5.88177369995196
6.238905444782505
6.231874273812628
6.134950170999425
5.986450287840922
5.6336935264726575
4.764554812090258
4.170480356365401
3.4961270525749435
2.275201556970875
1.4747889388612996
1.3427451081754895
1.59784517496479
1.5090972620413
1.178184902376115
1.4349953393759944
1.3187819239533871
0.9449755225000166
1.359586030213821
1.3849716046021396
0.38527359729259203
-0.9412783818110618
-2.093531532634996
-2.5025132617046575
-2.3320058872215763
-1.9217363779665961
-1.1009214316399742
-0.45432578578076266
-0.4131753729205488
-0.5246715248495266
-0.7122269834495503
-0.9625862548699979
-1.2008706050839277
-1.4570750715893341
-1.546611110568542
-1.6704327656371023
-1.6955834186634413
-1.27179369122658
-0.8753941684155122
-0.6300073410558661
-0.5161427061234514
-0.6354518158289114
-0.5692415614813017
-0.5231140061212826
-0.8992831298901451
-1.2913488697999944
-1.4451520468256753
-1.723459362625784
-2.194022346135025
-2.199607059302449
-1.5644931314375883
-0.5326268142502988
0.8931955788846948
2.2713630547692714
3.3964574971726416
4.394350114243333
4.928347518466682
4.925473791261944
4.5935813463511135
4.048004111052189
3.347514662452021
2.584447228072395
2.023070122690706
1.6034615607271656
1.1048166560146813
0.41917896382315045
-0.3402674439981314
-0.6553131837685153
-0.46782630706612804
-0.11399127283736589
0.15211799884703306
0.1100449545902491
-0.12137254813104892
-0.3756923070438388
-0.5227120226086267
-0.7197163172246891
-0.9259285320228603
-0.46320353841060524
0.3220115620518362
1.1379931975143442
2.438628172317557
3.6092792642261053
4.510492156965412
5.5954360727370345
6.490911608123575
7.018236240280937
6.850505374544972
5.750543926171694
4.482718816484247
3.293916624431783
1.9145014088969299
0.8047576185098283
-0.03213445426318407
-0.9543048536849266
-1.5556468918001323
-2.041853356077788
-2.5258527671082502
-2.433705951876239
-2.1517574339418464
-1.6051365895432423
-0.5995924568703439
0.21004308292453797
0.9570876876518214
1.2407762614886733
0.7029381728085471
0.09408575172714656
-0.8522979917564808
-2.0422021556701164
-3.0419632281591173
-4.479394555827843
-5.6471128209989985
-5.838067474366419
-6.013357842307874
-6.025495625441317
-5.43740954136753
-4.7810418149098055
-3.847234503193287
-2.553084902618247
-1.3969315108227902
-0.5265623963750318
0.03192664568618648
0.3868901315401105
0.36749736102621766
0.12305381040600427
0.2687359228418863
0.895139519887651
2.230153646466348
3.781299040953225
4.916776569946796
6.263589537786556
7.436606976654081
7.881213136359493
8.120478296073294
8.190969476183096
7.94452307407753
7.318981793079464
6.857904875061016
7.105725535731357
7.27831483882499
7.087918203236635
6.853138675370486
6.302549457645563
5.742810791568565
5.6785875936412715
5.502194480496633
4.811724972341161
4.200390329938704
3.851989374662047
3.5715606765552343
3.0900542496279244
2.117835250029621
1.3304544259803848
0.9828015806151469
0.43439848173741574
0.033118029332676824
0.24113560304924778
1.0018465862854282
2.2972290340985952
3.7835466465336
5.368338250306524
6.827347040452713
7.524914061029759
7.713623013274624
7.89173079313123
8.157160015668012
8.334349477331122
7.742156244353347
6.37891887908393
4.996957443993082
4.081178792025559
3.6522824305193615
3.287879765203957
3.022039356004166
3.0128429004693804
2.9971269395187883
3.0930395934595523
3.26580409097077
3.258529789968418
3.0714327481908863
2.831445307676567
2.8330073451866533
2.989120899301933
3.043168356289617
2.7530954836577655
2.0555318093972765
1.6199255855202117
1.2894983328969307
0.5295163732200268
0.15272381002262508
0.1854138539197793
-0.21558129551694233
-0.7948570008410973
-1.643076748865634
-3.1485442438283404
-4.417960518836559
-4.997625998169008
-5.3840649727597425
-5.410409672885029
-5.0041898312765545
-4.724209318199613
-4.580142500186382
-4.191307414784508
-3.6601739843121246
-3.2001946465070112
-2.8363223008304193
-2.7725453737107872
-2.941097072816697
-3.0725732122539893
-3.4022881284687303
-3.9501253595444608
-4.377453040511073
-4.813380988803614
-5.369989409021124
-5.748579000094102
-5.8164950842126855
-5.5396527334838055
-4.864959627782746
-4.061070038158809
-3.4237175560404625
-3.0366550799444156
-2.5202301983234867
-1.458542878849821
-0.6251647224369605
-0.38021921977839623
-0.04205785374788234
0.10399901833014873
0.1072194536910769
0.4073816387244343
0.3674888679654875
0.20965147108724108
0.30791050416574767
-0.10502899916454458
-0.7264583007919173
-0.8249194347784751
-1.1169702320459294
-2.1806773282278895
-3.285551379002949
-4.0706102612197155
-4.936385045838093
-5.758708540612638
-6.470330581027523
-7.1766041310845115
-7.5416366327536934
-7.4270342112767365
-6.875919878249513
-6.307734414097812
-6.198377905138931
-6.166141381942033
-6.06196207733673
-6.1095928780586615
-6.336846011263531
-6.9002074221991565
-7.518090774943541
-7.984222924532863
-8.42290625933748
-8.202454770155395
-7.216616497678614
-6.573669847563112
-6.527800328728012
-6.449801034104909
-6.4526920233196545
-6.916496549057967
-7.423260591616483
-7.381819243856602
-7.044194666169065
-6.853405135591829
-6.371844151505997
-5.453295429672542
-4.712063658678528
-4.168978975458489
-4.045049089113918
-4.715721480263355
-5.277510181828566
-5.278772948731471
-5.290334661881183
-5.213572319676423
-5.056172924476358
-5.161644371992215
-4.906758088500407
-3.9592916536577367
-3.010936698809327
-2.1086623804792315
-1.3319889687925641
-1.2543932767120642
-1.3843710219112106
-1.2263156733126246
-1.1346970151923417
-1.4300953027335381
-2.1160939584944947
-2.6963539819859754
-3.08812223804764
-3.495284570894081
-3.7388217346948585
-4.071691968705764
-4.406310288825351
-4.395901354268476
-4.4394740068372895
-4.6482382486593545
-4.492640285331366
-3.685412044168031
-2.8483792242636112
-2.285070280892877
-1.6202249783384957
-1.2528293091453269
-1.0328889149037086
-0.6376136314755612
-0.5193659731698596
-0.353630568872409
-0.43216389783968795
-1.0269564263554531
-1.4468574558409772
-1.7176927638787827
-1.378058632629815
-1.007388589351139
-1.5277021500070131
-1.7068989012615112
-2.0210507413798053
-2.4987811269901146
-2.15824298221648
-2.5559331320649616
-2.804220919762523
-2.4405011796565708
-3.412030609042044
-3.515131284897663
-2.598060672429212
-3.3409763531410213
-4.1484409414938845
-4.303426517346788
-5.01469551216416
-5.868144901317686
-6.605650011120245
-7.194220682367294
-7.850962752368252
-8.566706934962932
-8.60461883753631
-8.295162574895784
-7.882875521266798
-6.89130614047477
-5.858794982264491
-5.115480835803372
-4.12881316986042
-3.1698371926685045
-2.779758577317269
-2.365994802662796
-1.4117065680291485
-0.7199200681432931
-0.6304093293968042
-0.5314452572914852
-0.5204058920663662
-0.3299516194710596
0.5907609573428169
1.2581955330950716
1.319250203257977
1.7075725245093343
2.021657520326049
1.5642042837311918
1.0175314024757605
0.7044529821565363
0.11902312731124373
-0.7926012164423325
-2.10895396920915
-3.6200232280668336
-4.364195857228073
-4.617339280129425
-4.912911953584122
-4.420160314562059
-3.381961804799773
-2.773497941498478
-2.4277773118914543
-2.203023074909176
-2.1315461903821165
-2.19496507463254
-2.4811340178889276
-2.627954192401606
-2.692222134414872
-2.995296495407767
-3.0331946695264405
-2.6866927080131626
-2.3202931115856837
-2.216702153999518
-2.7767924948567497
-3.4302734992156827
-4.160095073348838
-5.8536542029719705
-7.225216189420649
-7.679272885221384
-8.501672001451091
-9.250841407340326
-9.808165812135336
-10.569124421776793
-10.689161065344834
-10.341641090951848
-9.919524910406098
-9.218392906641864
-8.621839440065715
-8.137696486457493
-7.479031608912412
-7.067273078032967
-7.144966585258712
-6.94006635015486
-6.251040467216078
-5.730663244414127
-5.1710763876477355
-4.240739558005401
-3.1461634439238972
-2.1884905345705303
-1.6209083133797848
-1.380748552002507
-1.5920384231985285
-2.21567725372999
-2.6838687615723233
-2.650705073173505
-2.359939758541948
-2.0493822604835414
-1.39922756091272
-0.9113193468327788
-1.1319117034937427
-1.4256706461830986
-2.0165827232996754
-3.075894635618933
-3.9505756677915356
-4.733146007212368
-5.4436090364024174
-5.685413546683634
-5.300704163136939
-4.784948177765865
-4.666999976461426
-4.533958082401142
-4.101536117132175
-3.5261240582788207
-3.182444924106303
-3.441402696899822
-3.7142332488193692
-3.731949510986559
-4.2302865674398324
-4.857411795121131
-4.772660764255531
-4.769206035267144
-4.997224126830639
-4.510940952262672
-4.1569876757791455
-4.416215204061056
-4.558218656532768
-4.641523163885544
-4.678651181130937
-4.857501734732089
-4.9261204969956225
-4.341722415388971
-3.529659814231182
-2.4848986087763207
-1.4586684161567847
-0.6289507557919783
0.04991004586791233
-0.30921678461245
-1.0003815710080988
-1.5732531058322878
-2.900431774733204
-3.885839981734971
-4.05094609294857
-4.178900347680358
-4.035179348296058
-3.4866344891154726
-2.8052620545595697
-2.4974251911033893
-2.5597306055697366
-2.3795191153146344
-2.1558882138620294
-2.0428644364826236
-1.625388982560968
-0.8900632076842057
-0.14283064414866506
0.30683946091268244
0.4547902345932771
0.5378624680663399
0.35993888719385075
-0.14174941182291542
-0.6283783852200409
-1.4147746917893234
-2.256010961288748
-2.3233617710112515
-2.434760376603347
-2.993457723800056
-3.2783951258514694
-3.7822874048513166
-4.5485501115928795
-4.778737671948989
-4.6935851582095
-4.672887568921585
-4.573963897229315
-4.322134064887268
-3.996649551505418
-3.342239704052643
-2.2343273808416084
-1.1200099720372139
-0.030988472400065123
1.0214077623045563
1.7748046097710954
2.32048610154966
2.5218813736174455
2.363905488147107
1.9337320418903754
1.020324230134986
-0.03137371015025113
-0.6575620105489253
-0.7416002917329679
-0.6364717483555004
-0.420407587277836
0.32120048490752273
0.9463311893181504
0.8781565966143509
0.9673229780487184
1.4358219303632216
1.4151034611903834
0.6865421119833476
0.030640494795883023
-0.571954685453101
-1.643033616250065
-2.354828922526686
-2.4027727448389586
-2.2154239618497904
-1.4173975428456123
-0.19909719568163492
1.1027315607395862
2.3565287354750346
3.1283119190162827
3.6540280883350325
3.8082771347637747
3.3270006921594106
3.070770080727174
3.2725927287167367
3.4547311524234123
3.563212243987901
3.441377322957657
3.2070007561867517
3.1203479297821266
2.787721585540323
2.5033778199281573
3.079352316742662
3.9493521683632102
4.422999696658764
4.816869781054646
5.101011321042598
4.73348648121781
3.9224828530241256
3.507337393968077
3.2914675807989893
2.636362728746095
1.9109744207453137
1.3676501670464658
0.8305475727386954
0.6028043870598508
0.9040890500072447
1.14636310843128
0.9325917209619048
0.7526778908848537
0.8691629713251237
1.069358491271244
1.197588773205061
1.330722440879945
1.6142916812472112
1.8437877845246597
1.691997179602672
1.1715692422292803
1.1075332033649326
1.2829293915590778
0.4889843485557601
-0.04678964113938363
-0.011960706603622853
-0.6881485375518754
-0.7114193423445572
0.05612753333684001
0.44649989655596434
0.7965639983816614
0.5235159590237201
-0.1553800377512797
-0.24978010984768134
-0.3412297837934918
-0.7365725087418867
-1.0979395323357437
-1.3558128545964523
-1.6399583517412066
-1.5875335830779944
-1.0378645323454272
-0.7085068595402444
-0.3777571525817365
0.11726623967858597
0.3390636289100948
0.5911804924869283
1.0226721520892104
1.985481301198197
3.1182662843889344
3.625307009241325
4.23933149465718
4.698917871686802
4.824537473308779
5.516471932596479
5.998306864309992
6.239147387528075
6.713068453539597
6.725402302468757
6.67247668436332
6.783006284421815
6.727797674818238
6.543448629195206
6.124715462409011
6.145706630314318
6.469777655022137
5.8878960213819935
5.046320150263431
4.890059960217073
4.7321819597438575
4.339902914416393
4.461711724590088
5.003023532547752
5.136443741685016
4.72874061411968
4.3966799413377595
4.319496642954948
3.7127530602976337
2.585836957882334
1.8283996518505006
1.3354278143598324
1.0701140334285353
1.194710917239448
1.1205521526422961
0.8215810322925706
0.7356919148542503
1.0357667712867547
1.3573462569613177
1.3291728927034643
1.4953284593409502
1.6643713745031719
1.5155332868883655
1.6147588067103529
1.5830152821871515
1.468055309751434
1.8333762247993624
2.1648531092700094
2.264108445064827
2.131880049043889
1.9480382524126032
2.2021186233287002
2.4628518604120515
2.548880894569182
2.985246635351622
3.7358349774858737
4.390275061312791
4.783100791814695
5.138214657065191
5.469694933655631
5.356025228702844
4.941196222268661
4.814170865838086
4.870678249734432
4.9913719699034615
5.346655598748382
5.23616142683671
4.520390410137129
3.99420623040911
3.3220687212800635
2.4577018433846103
2.235226675393591
2.6094947370527115
3.2223790253999494
3.5879645421065485
3.239743692299842
2.6540059435850223
2.3167055323722834
1.7907336215403058
0.8211021295050157
0.3463728023502652
0.4626156196499879
0.3090893631578889
0.6396335632007708
1.3813499845016224
