AAD_Filtered_TADAS_FILE
AAD_BASELINE_CORRECTION: BASELINE REMOVED
AAD_FILTER_TYPE: BUTTERWORTH
AAD_FILTER_ORDER: 1
AAD_LOW_CUT_FREQUENCY_HZ: 0.025
AAD_HIGH_CUT_FREQUENCY_HZ: 40.0
EVENT_NAME: 202302060117
EVENT_ID: 13194
EVENT_DATE_YYYYMMDD: 2023/02/06
EVENT_TIME_HHMMSS: 01:17:32.00000
EVENT_LATITUDE_DEGREE: 37.288
EVENT_LONGITUDE_DEGREE: 37.043
EVENT_DEPTH_KM: 8.6
HYPOCENTER_REFERENCE: AFAD
MAGNITUDE_W: 7.7
MAGNITUDE_W_REFERENCE: AFAD
MAGNITUDE_L: 
MAGNITUDE_L_REFERENCE: 
FOCAL_MECHANISM: 
NETWORK: TK
STATION_CODE: 4413
STATION_NAME: 
STATION_LATITUDE_DEGREE: 38.313533
STATION_LONGITUDE_DEGREE: 39.039342
STATION_ELEVATION_M: 930.0
LOCATION: Kahramanmaras_Pazarck_Turkiye
SENSOR_DEPTH_M: 
VS30_M/S: None
SITE_CLASSIFICATION_EC8: unknown
MORPHOLOGIC_CLASSIFICATION: 
EPICENTRAL_DISTANCE_KM: 209.20
EARTHQUAKE_BACKAZIMUTH_DEGREE: 
DATE_TIME_FIRST_SAMPLE_YYYYMMDD_HHMMSS: 2023/02/06 01:17:48.0738080
DATE_TIME_FIRST_SAMPLE_PRECISION: millisecond
SAMPLING_INTERVAL_S: 0.005
NDATA: 9303
DURATION_S: 
STREAM: HNZ
UNITS: cm/s^2
INSTRUMENT: sensor = GEO-A200,/GEObit | digitizer = 
INSTRUMENT_ANALOG/DIGITAL: 
INSTRUMENTAL_FREQUENCY_HZ: 
INSTRUMENTAL_DAMPING: 
FULL_SCALE_G: 
N_BIT_DIGITAL_CONVERTER: 
PGA_CM/S^2: 17.556
TIME_PGA_S: 
BASELINE_CORRECTION: BASELINE REMOVED
FILTER_TYPE: BUTTERWORTH
FILTER_ORDER: 
LOW_CUT_FREQUENCY_HZ: 
HIGH_CUT_FREQUENCY_HZ: 
LATE/NORMAL_TRIGGERED: 
DATABASE_VERSION: 
HEADER_FORMAT: DYNA 1.2
DATA_TYPE: Acceleration
PROCESSING: Automatic Paolucci et al., 2011
DATA_TIMESTAMP_YYYYMMDD_HHMMSS: 
DATA_LICENSE: U (unknown license)
DATA_CITATION: Turkish Accelerometric Archive v 1.0 - Disaster And Emergency Management Presidency, Earthquake Department
DATA_CREATOR: AFAD
ORIGINAL_DATA_MEDIATOR_CITATION: : AFAD - Disaster And Emergency Management Presidency
ORIGINAL_DATA_MEDIATOR: AFAD PROCESS SERVICE
ORIGINAL_DATA_CREATOR_CITATION: AFAD PROCESS SERVICE
ORIGINAL_DATA_CREATOR: network: TK
USER1: GuestUser
USER2: 
USER3: 
USER4: 
[...]
-3.6102294076463584
-3.4567425726081615
-3.4340236404935722
-3.543732460898272
-3.763403733765181
-4.085024734610349
-4.537997524659646
-5.1400858949369646
-5.880305333240212
-6.710998775299216
-7.556572435415377
-8.343211704845116
-8.997081166570153
-9.467438118143525
-9.736306835017768
-9.798214045410825
-9.667620202818261
-9.376159700608437
-8.957668429954367
-8.430397891585205
-7.814267142131432
-7.177843369983895
-6.6118454097667385
-6.190006747747918
-5.96220790692468
-5.942397732355777
-6.109672389343495
-6.392892852206905
-6.661048319205318
-6.758663254681525
-6.5668644821330915
-6.058004408641074
-5.3070909894152525
-4.46939063589084
-3.7312576021564294
-3.2361611727143167
-3.0377023687131244
-3.095490432027869
-3.2831437125878526
-3.441955799375118
-3.4712291326770366
-3.3423962102141904
-3.0632572057078242
-2.689863568672825
-2.335633592278539
-2.105495672247088
-2.049671324327104
-2.172217230312289
-2.407789943728981
-2.642857868318083
-2.7790749240775154
-2.754999709510089
-2.573846325807081
-2.3046684985713757
-2.0411175139925657
-1.8596743036156922
-1.8093237952789174
-1.9056852558064454
-2.1095708879429615
-2.3389079996059725
-2.4784054756275697
-2.4226557868088774
-2.146708146216462
-1.7039036994289676
-1.1884340367093624
-0.7003077876555855
-0.3089916129425062
-0.05581680747698486
0.03439527414560596
-0.028365128081880235
-0.21348063377096033
-0.5149217053549341
-0.947376694859376
-1.5055523306222054
-2.141057567736424
-2.7833191532884767
-3.386352432981814
-3.906159932197757
-4.270669917137537
-4.449070994383295
-4.489257111223978
-4.449058516331278
-4.339032526505517
-4.133377553608317
-3.759143967217334
-3.133615872429914
-2.27050940873006
-1.2688886492703861
-0.24508371300654777
0.7302111714829729
1.6595004151177255
2.556889637580968
3.4170567730075416
4.207106798664643
4.862431015516759
5.285514081438941
5.351771080615177
4.996491003321881
4.269562329985234
3.3245951630091968
2.3952636419310376
1.7144586647208098
1.4200976174134488
1.4899590898508612
1.7466145990723148
1.9504643343594763
1.88539078576805
1.43837819047691
0.6708238052816052
-0.2238240425352685
-1.0147862347739054
-1.4885059042248714
-1.5110690958592232
-1.0838154476145023
-0.3026609583404788
0.6896261707274178
1.7046572853853403
2.570942989742463
3.1821424587753318
3.506285139698532
3.591560454607524
3.524831250360193
3.416235557430814
3.3781964621041007
3.4592053554060427
3.6321888621392517
3.8254652234127087
3.9667686878336617
4.044140889595615
4.128094121623752
4.349134220289605
4.82950065363804
5.584367644753384
6.500781084313231
7.384364037341896
8.02543096739841
8.268747080837237
8.01663012193611
7.240911468953837
6.019483636798683
4.504853292261177
2.8960994151584027
1.4210603397484147
0.28352919270829674
-0.38529834302674815
-0.5543468107835389
-0.28339720720970485
0.2862672734448427
0.9251651192825152
1.3698399092294218
1.4590794301356431
1.1782237911336433
0.5602887145681142
-0.3039996599549994
-1.2023687375119785
-1.8557668531941638
-2.0304188982614897
-1.6456930954656008
-0.7856471219881578
0.3413252818281141
1.4534707656839372
2.327076389302417
2.885411560138735
3.168776358872944
3.288195512771284
3.368893398040567
3.485072611386584
3.6347820416597134
3.7365434403615603
3.680973777204233
3.419307136274839
2.9885495727485445
2.4768233294940276
1.9627392886415937
1.4823250948727693
1.0319164631753952
0.5815215862046588
0.09827230846412932
-0.4363748000448981
-0.9549815853356847
-1.3031274597799716
-1.4056162761234723
-1.3376712686704675
-1.2574769615399664
-1.3193631485324302
-1.5785736175504008
-1.9708559634003628
-2.3669840905939443
-2.642313409090698
-2.734266388759453
-2.648643162614053
-2.4218020988265407
-2.090989358870722
-1.718835548217098
-1.351896079911477
-0.9197837001636912
-0.2940199069260196
0.5727103620939531
1.6117373288742802
2.6979418772434522
3.6638248058332334
4.2647543089549025
4.243520734539794
3.451310615404563
1.9086306229801329
-0.23318177512477853
-2.7378601816349257
-5.301730394892316
-7.614034426778195
-9.410435350300807
-10.530754671929552
-10.953997893035455
-10.747717451026938
-10.005834502282815
-8.822133501104922
-7.308359129331978
-5.638239464990783
-4.091715734746706
-3.0021903121047484
-2.593232180372922
-2.9251492735908737
-3.937282249986129
-5.414535472073917
-7.00049788561363
-8.33990756501184
-9.186255712617568
-9.400606509599923
-8.939159710049447
-7.8636131494837205
-6.326231218570689
-4.549876677761069
-2.7765604627974607
-1.2005155781258177
0.0370756111406655
0.8408323875358137
1.1445142183945338
0.9135639857946807
0.2208016457290508
-0.687733414176898
-1.4639657008678146
-1.851600392357388
-1.7507030612151915
-1.1376071281027595
-0.02449690444338875
1.5307801840027102
3.36997107487809
5.22449283486428
6.774725489180828
7.699704312983734
7.761056387279418
6.876782706647795
5.10982335617725
2.6385498098061846
-0.23880396334451448
-3.1167989950519055
-5.559354863478073
-7.231352342770311
-7.9777830609594105
-7.8017153549310425
-6.876548067796896
-5.5038606046130285
-3.9772193826973004
-2.5353290780456548
-1.3417710020047557
-0.4858966769876606
-0.01593327441751411
0.09125111345736167
-0.06213700158852704
-0.32769308254845186
-0.5428576907505998
-0.5750303404542798
-0.3580140652368436
0.07784403813787295
0.6295529229940682
1.1970383315628061
1.702951309194797
2.0740177557888866
2.2224574395504364
2.0648784953322066
1.6154712800602031
0.9959149051781865
0.3063197683087405
-0.46268555073929496
-1.3485852736711499
-2.280723597815002
-3.096046333204032
-3.6646693388949623
-3.95965139238973
-4.044526755914495
-4.021369567473403
-3.962468819861052
-3.8952498815588767
-3.806496187002721
-3.5802800477079586
-2.983428307290741
-1.8068991114197244
-0.018449040464475548
2.2284148935935257
4.665656457743003
7.00261531130137
8.973078312972973
10.363130234266306
11.094177109565525
11.213254226402839
10.81046972086715
9.981160032567843
8.825057047784131
7.487363067779556
6.176111716406842
5.102049463368204
4.434090847809606
4.282296200881324
4.633330842808555
5.386243741584128
6.410656996469278
7.508897374237801
8.470216757519276
9.150501724006551
9.500650228544059
9.551209077072718
9.339915377108067
8.909281228887979
8.337999513794667
7.729327524530254
7.1521218182542965
6.613907895025518
6.129942860928229
5.7026381177364005
5.2912142686081705
4.88352159427469
4.481467457321737
4.084245782702196
3.73185336512219
3.4569370617842208
3.2649062163278524
3.228278064623475
3.4719267649032157
4.031300385953666
4.838081352367497
5.8149134651130945
6.8776792871102215
7.878423008441113
8.639320940420177
9.0212449162844
8.947932932510328
8.442376045060517
7.644661817874483
6.791256665431199
6.140967051098102
5.865516001262647
6.012704078975314
6.5098116757346265
7.163573258395005
7.726531228546846
8.036197468471482
8.090216657595285
7.977398853204752
7.795385955339192
7.566601696254468
7.135923738202606
6.239480931874021
4.692766926375976
2.476264850627494
-0.240122412412258
-3.0969850399393533
-5.630242055748184
-7.421618327755591
-8.212898634953229
-7.931254179810539
-6.7068238349101446
-4.869327261178221
-2.902791700081803
-1.3345047020409933
-0.5246739251374871
-0.5575137154906613
-1.2955109299439134
-2.475762417439342
-3.7912603696723064
-4.963836138180621
-5.853310996549345
-6.492576895926436
-7.027264269691579
-7.641211584031965
-8.48684957545477
-9.629765143849264
-10.992040397999709
-12.356018287904577
-13.468191958011472
-14.157276567395675
-14.340206639269855
-13.946957611481903
-12.942945504004221
-11.415391776791196
-9.555214884051463
-7.589995488798125
-5.730616835542757
-4.160974387810577
-3.071326320060024
-2.5433005765337544
-2.479897231721596
-2.774860601255325
-3.351218892360833
-4.060293786179224
-4.728785829428431
-5.255987428921818
-5.5945435367974525
-5.713760057421789
-5.620353427028062
-5.306441425733554
-4.6934535873077055
-3.70344001743276
-2.3149640345567506
-0.5954496715000063
1.2744602125206699
3.077129004298252
4.5931177850686575
5.59874314178262
5.9534469953944695
5.6535412482037914
4.805442292693906
3.613094807945348
2.345426254323318
1.2142424265420058
0.2617289093941069
-0.5925875339083271
-1.4555728170304607
-2.459839749636115
-3.711098215853072
-5.213780301488649
-6.936801678172066
-8.830459104059885
-10.74844965491734
-12.45384083774189
-13.697932109120284
-14.328977077342252
-14.3506645944816
-13.874252077673297
-13.059730513477634
-12.07406824645323
-11.0302152676883
-9.96036423364936
-8.8606352097348
-7.735558169787504
-6.59496386316186
-5.48662745705143
-4.549006246878531
-3.936083351896282
-3.7330325848088655
-3.9364098307327624
-4.390389227337647
-4.837307557739567
-5.082910391119992
-5.090799935674204
-4.949477360532429
-4.726513301485403
-4.420055752389957
-3.9935996478662004
-3.397275204161869
-2.627193103670843
-1.724097590144781
-0.7636460948716102
0.14210042019982883
0.8883165593502156
1.4082984742337472
1.724607412616593
1.9205402084279894
2.0591420462175796
2.1802249788728347
2.262520373511601
2.2166100646044478
1.9826169574171573
1.636894778601649
1.3987074412882996
1.5258116250248424
2.2479668914929984
3.6832633778301176
5.736751733555119
8.138296333001284
10.56170623405273
12.741499416889665
14.503229953771383
15.723698090253826
16.3262049894099
16.264922168469766
15.54164477987961
14.264634408780964
12.663013478881005
11.070632457027509
9.808133087359991
9.038754067570997
8.729453144932707
8.667237577014626
8.579309478297422
8.273828515386725
7.681778875294632
6.8492341192088615
5.851884610873433
4.737572491437487
3.5488315583988057
2.2922647501136715
0.9469180089565734
-0.4470435372386217
-1.7524275672523715
-2.7744609109004834
-3.331597804739278
-3.30791112117189
-2.6745927984939586
-1.4841387300950208
0.13913757183535527
1.9969378728870064
3.867796967100946
5.602041186311582
7.1523447569055305
8.484258442424045
9.506970868098067
10.135284966113273
10.35468651884133
10.211347772814555
9.7886561037153
9.157090404821218
8.30616307782423
7.201242787385319
5.90156071245042
4.561949016693725
3.378106229892286
2.55662285733917
2.282612605569065
2.6570295942285433
3.625755776199166
4.962403918034387
6.335357545411196
7.427347017075369
8.010443643808593
7.970927414005935
7.348041295997927
6.306104222712068
5.073110422847009
3.9014893384645544
2.931561450510724
2.0847429274455846
1.1604574571924742
0.04674246929734922
-1.1528479832806677
-2.237915762272436
-3.0993376019983447
-3.7325871187285538
-4.146012364220913
-4.293981933332108
-4.158246604612961
-3.892589876583861
-3.7758463405620026
-4.043194198933629
-4.766253578708619
-5.83916054580635
-7.062953725575883
-8.261450347399757
-9.313712536639725
-10.040806939112445
-10.22055989685588
-9.76180681862612
-8.76178621904331
-7.5269335571134235
-6.420287613001592
-5.564649375798433
-4.95290938636278
-4.628057056510179
-4.59329841732487
-4.780083205158934
-5.070216237157376
-5.391449038371004
-5.746889227420236
-6.113034795915004
-6.4334481408739475
-6.655791043024262
-6.769089818751458
-6.780603731732103
-6.654743061410041
-6.332867744122763
-5.807619724243033
-5.1933136120017585
-4.681686363607399
-4.38931318053747
-4.259763968109238
-4.125138742081471
-3.820109512169931
-3.255139017559993
-2.4767316029799713
-1.6384230456120836
-0.9137113443892908
-0.4586075697085492
-0.3593368690307114
-0.5641042607133278
-0.9200741585621396
-1.2407472550320346
-1.2984099165989529
-0.874061628088103
0.1028553394398232
1.4877234403450699
3.005620870645141
4.333122286224542
5.1267795281734525
5.179324456919404
4.568619044582116
3.603782595973134
2.700043526362039
2.2219473282238873
2.352261200118205
3.0917758710437124
4.2594801791024315
5.495745283198833
6.418631265557187
6.800501581689608
6.608001222892992
6.005059264432246
5.325677658665975
4.941053814693489
5.08273307729326
5.745539319345851
6.737499362333337
7.777240400142564
8.615670396993576
9.12228991470867
9.237998969160664
8.974068063081873
8.407169526719192
7.614981419216357
6.696504835991246
5.728654130546617
4.689301025940219
3.4787115199979137
1.9938819305948063
0.2311993619353352
-1.6956830572302937
-3.5586461623576837
-5.054435251648254
-5.977320406113405
-6.284303674965463
-6.025166863382589
-5.293130359903562
-4.177038485150654
-2.781775989120397
-1.2565603161051286
0.36018519736265764
2.1563243894113473
4.0487492970422805
5.682456617694494
6.654220112153472
6.7271014611504825
5.87314615943022
4.271950569012983
2.312497734779942
0.43262593691867246
-1.0713051235310984
-2.114377323825807
-2.7485016679706145
-3.03490216145027
-3.122788712700221
-3.2648952990711755
-3.598920682111983
-4.069300022559963
-4.514857497420623
-4.828153351294729
-5.085090177922586
-5.452291631822745
-6.001198893464296
-6.614968660016307
-7.053843415112003
-7.099234650589292
-6.62298722771578
-5.614978034596257
-4.207511101728246
-2.6343389336227987
-1.1319382272570193
0.13991419095400698
1.1042730690058769
1.7338773869623445
2.0357468417249858
2.0631999863309622
1.910696347217908
1.646399729776578
1.2859856827256508
0.841064204680857
0.3734068184473295
0.038100401822740174
0.00650995667903162
0.33637494830607223
0.9644496330198571
1.7522578473242711
2.5462843601018395
3.2518098474159887
3.850624755558902
4.364495322516437
4.847187959202693
5.449710965055548
6.371103573236185
7.661920910811357
9.161515345852115
10.577487589597904
11.57930055175221
11.886427114267976
11.329411604488016
9.932906892007106
7.930875493898644
5.638505395480289
3.299276590300049
1.0066453097520343
-1.203923294127661
-3.240212304052666
-4.988832861872314
-6.3600384102874425
-7.292934738676311
-7.72168850828215
-7.5639568754510975
-6.835481029107291
-5.684091975906354
-4.318656825492588
-3.0063562222237405
-2.0631001172460666
-1.7434013366323065
-2.0981820356406606
-2.995892700526116
-4.235438719204082
-5.593860782883321
-6.852386572768499
-7.776605941697521
-8.133515314971651
-7.678050263834388
-6.2008041349121905
-3.7982601120220076
-0.903153634787619
1.966152346051463
4.403187543420382
6.244566449389532
7.534659814910071
8.372245160694618
8.85873837572791
9.126825420060364
9.309666234721103
9.471855508417688
9.61770493734962
9.698892588591496
9.665922932070208
9.61650704483075
9.750120013522208
10.23549949532557
11.152204724477855
12.396073388749407
13.75472645713796
15.059067349502033
16.172902802777525
16.940611993862564
17.205457263458865
16.895096418299833
16.015187588931603
14.57947427240161
12.59897521934147
10.101163113435751
7.296139529379747
4.724132090375963
3.024331829860761
2.5607086882806747
3.3128639525495056
4.986604029630714
7.142139074508294
9.291175794502676
10.952956041247816
11.784483825225522
11.713026500267647
10.862056079413403
9.469829507687551
7.764143500518248
5.864109680306973
3.866406579141376
1.8772940868178267
0.05171122884775578
-1.446077894611021
-2.5343587603699502
-3.1535552851788737
-3.2601438852433993
-2.957378553645151
-2.5200877174706005
-2.2060472147800576
-2.1937306430733035
-2.6624516051668086
-3.723729456315604
-5.25747736398457
-6.889137220212492
-8.181788421985285
-8.788080104692845
-8.502557022811828
-7.3052097806084735
-5.37617490064609
-3.057424107579135
-0.7303397881975614
1.2922304367379422
2.7787454043745354
3.564470113643721
3.5922539865009138
2.9306014338426083
1.7474917726293353
0.32381450161711595
-1.009664166079176
-2.0603711777161524
-2.9235341083684943
-3.845398759478394
-4.888111344913434
-5.854644576185089
-6.4662703058768685
-6.533345167636809
-6.002845597769173
-4.917890794491619
-3.459050958008404
-1.8839489365967645
-0.42355297869356046
0.6724778607490444
1.1482467953774271
0.765485556097989
-0.5914305732693348
-2.747395404485034
-5.330730216934695
-7.970631600115544
-10.373438981231391
-12.34315081434676
-13.81142398723844
-14.801595898849518
-15.317668722379098
-15.310610113183497
-14.710886394408751
-13.508030442792688
-11.884763247629419
-10.137143747638698
-8.436484629275341
-6.831039000595198
-5.295154188856202
-3.7319744137982225
-2.1421665076515723
-0.6841985309710045
0.489151213740079
1.3632041471704903
2.037937759293643
2.5343639577468515
2.60179326229078
1.851476465504362
0.14708860689265452
-2.2334503926214486
-4.780863986186219
-7.018437922123912
-8.70084644233173
-9.78689523189826
-10.310666423015522
-10.45663315987873
-10.555908840150376
-10.856793429568397
-11.409039750508926
-12.078790214113843
-12.545855764246019
-12.343892048760678
-11.043631570949087
-8.568906419907087
-5.384020712002948
-2.259569841742288
0.15752114966243247
1.5709253596634782
2.024689087428415
1.8445876157211647
1.5589657499289944
1.6329191113598416
2.271218812835789
3.4532699415463997
4.928121899904549
6.26709291508561
7.033815625818308
6.8480047441435445
5.456596516229137
2.9788890472025096
-0.0923991585397515
-3.258869763061472
-6.112314228117105
-8.28077620652745
-9.577880406924047
-10.029798856018132
-9.809184631879686
-9.117134425499758
-8.020656436663753
-6.550024848038147
-4.854091884577986
-3.1251100176903233
-1.5336947111620005
-0.26603087148072535
0.5103550558632691
0.7124219734614168
0.36848890044466087
-0.3955162603127108
-1.4393215151559315
-2.630284101541636
-3.7498041647011804
-4.5879983325539895
-5.145193864242365
-5.479599427552472
-5.527339154124438
-5.234390599960005
-4.602398933268263
-3.5961716676823
-2.200754819653255
-0.597448941703461
0.8657957489672481
1.9692173519546439
2.7293620735187365
3.1990023421142464
3.3097291085514424
3.020295238006873
2.503733467408029
1.9856394166835105
1.5910086087653543
1.3776161659552457
1.3202686304726803
1.287756790497554
1.1180410052499479
0.7993827345588889
0.46399939725024414
0.20468184342267332
0.03851823819101457
-0.017477214426594626
0.12455690165172703
0.5034582461349112
0.9502917417104021
1.2443264711745547
1.2758597983602695
0.9544547245905046
0.1843521865254198
-0.9624922276763335
-2.0901121377192347
-2.5836413260520534
-2.017700095304165
-0.40336734318828993
1.9776890680961141
4.802198384585049
7.741999179583375
10.40613987942268
12.451799810012641
13.739066916083898
14.241272929566625
13.961766825997566
13.060864954868503
11.89852261669767
10.845073804387033
10.126907069506975
9.90776846170034
10.351265062049114
11.412400181436972
12.700104903899028
