AAD_Filtered_TADAS_FILE
AAD_BASELINE_CORRECTION: BASELINE REMOVED
AAD_FILTER_TYPE: BUTTERWORTH
AAD_FILTER_ORDER: 1
AAD_LOW_CUT_FREQUENCY_HZ: 0.025
AAD_HIGH_CUT_FREQUENCY_HZ: 40.0
EVENT_NAME: 202302060117
EVENT_ID: 13194
EVENT_DATE_YYYYMMDD: 2023/02/06
EVENT_TIME_HHMMSS: 01:17:32.00000
EVENT_LATITUDE_DEGREE: 37.288
EVENT_LONGITUDE_DEGREE: 37.043
EVENT_DEPTH_KM: 8.6
HYPOCENTER_REFERENCE: AFAD
MAGNITUDE_W: 7.7
MAGNITUDE_W_REFERENCE: AFAD
MAGNITUDE_L: 
MAGNITUDE_L_REFERENCE: 
FOCAL_MECHANISM: 
NETWORK: TK
STATION_CODE: 0208
STATION_NAME: 
STATION_LATITUDE_DEGREE: 37.78694
STATION_LONGITUDE_DEGREE: 37.65275
STATION_ELEVATION_M: 1763.0
LOCATION: Kahramanmaras_Pazarck_Turkiye
SENSOR_DEPTH_M: 
VS30_M/S: 469
SITE_CLASSIFICATION_EC8: B
MORPHOLOGIC_CLASSIFICATION: 
EPICENTRAL_DISTANCE_KM: 77.26
EARTHQUAKE_BACKAZIMUTH_DEGREE: 
DATE_TIME_FIRST_SAMPLE_YYYYMMDD_HHMMSS: 2023/02/06 01:17:22.8932120
DATE_TIME_FIRST_SAMPLE_PRECISION: millisecond
SAMPLING_INTERVAL_S: 0.01
NDATA: 3311
DURATION_S: 
STREAM: HNN
UNITS: cm/s^2
INSTRUMENT: sensor = CMG-5T/GURALP | digitizer = 
INSTRUMENT_ANALOG/DIGITAL: 
INSTRUMENTAL_FREQUENCY_HZ: 
INSTRUMENTAL_DAMPING: 
FULL_SCALE_G: 
N_BIT_DIGITAL_CONVERTER: 
PGA_CM/S^2: 30.199
TIME_PGA_S: 
BASELINE_CORRECTION: BASELINE REMOVED
FILTER_TYPE: BUTTERWORTH
FILTER_ORDER: 
LOW_CUT_FREQUENCY_HZ: 
HIGH_CUT_FREQUENCY_HZ: 
LATE/NORMAL_TRIGGERED: 
DATABASE_VERSION: 
HEADER_FORMAT: DYNA 1.2
DATA_TYPE: Acceleration
PROCESSING: Automatic Paolucci et al., 2011
DATA_TIMESTAMP_YYYYMMDD_HHMMSS: 
DATA_LICENSE: U (unknown license)
DATA_CITATION: Turkish Accelerometric Archive v 1.0 - Disaster And Emergency Management Presidency, Earthquake Department
DATA_CREATOR: AFAD
ORIGINAL_DATA_MEDIATOR_CITATION: : AFAD - Disaster And Emergency Management Presidency
ORIGINAL_DATA_MEDIATOR: AFAD PROCESS SERVICE
ORIGINAL_DATA_CREATOR_CITATION: AFAD PROCESS SERVICE
ORIGINAL_DATA_CREATOR: network: TK
USER1: GuestUser
USER2: 
USER3: 
USER4: 
[...]
-0.0501367997342295
-0.04999376159205915
-0.04963272481531864
-0.04985941717492128
-0.051213081636529476
-0.050325830905870256
-0.049866802479695604
-0.05014229749864392
-0.04956848836179976
-0.05037914361634514
-0.05024630205615764
-0.050593647819867346
-0.050457698576339284
-0.04961678229398324
-0.051038695095525034
-0.05130657623419791
-0.049784060238124386
-0.05036443194463594
-0.05058613190312741
-0.05003939590605961
-0.049647208898953576
-0.04941502200491909
-0.0505284106922332
-0.05000382361870696
-0.049838331299897884
-0.049490688278102164
-0.04995010716919054
-0.049998086516318235
-0.05001690526381132
-0.05147689979207086
-0.051726178384265124
-0.05140114821882461
-0.05041788299401603
-0.050247698027382166
-0.04990209976680797
-0.050360132353889135
-0.0506460680107013
-0.05006778107848629
-0.04969282892216496
-0.050165810191118945
-0.050444129618555184
-0.05129754943066733
-0.051143018962679344
-0.0498368340912308
-0.0503082001508067
-0.0503497582287
-0.0506106149909111
-0.05075940192432006
-0.05072654888248267
-0.051024562900152864
-0.0521048147140247
-0.05112010937349508
-0.05023678172683399
-0.05073038464370753
-0.0509986112386288
-0.05209366754536411
-0.05229053605483448
-0.051755042317936165
-0.052306104148283884
-0.05230413075274211
-0.05305865952053978
-0.0524756284611352
-0.04948401009961562
-0.05033945511518282
-0.05090048589023516
-0.050658844865654085
-0.051301977655724
-0.051018527107871
-0.05049348195194937
-0.0505677998130701
-0.050574807884814166
-0.05061609868513006
-0.05087827622280872
-0.050789978712357825
-0.051830567730140345
-0.050630764322465674
-0.04962206368261349
-0.050420151299013886
-0.05029759927539407
-0.05183306754423718
-0.051570670081584634
-0.050320980251320944
-0.05076512334522004
-0.052724361230486794
-0.05248222279057573
-0.051220349342229216
-0.052382373749923196
-0.05302261091338824
-0.05368839954062799
-0.05338855381651744
-0.05239257646843406
-0.05151468924297816
-0.05271875859103294
-0.05238610388060487
-0.051408712254441644
-0.05147511717127757
-0.051961758150075525
-0.05294639366195543
-0.05272513879092203
-0.05311771752035022
-0.05224539222956162
-0.05178161406588547
-0.0520623761519219
-0.05267670021594545
-0.052644066319342306
-0.05270298688346009
-0.053904759921426876
-0.05476016661510475
-0.054600274545965846
-0.05353082652756939
-0.052689685378145085
-0.05268488339741635
-0.05273004263031752
-0.05322570085477374
-0.054917480219592044
-0.05552110497340984
-0.05548876271889975
-0.056255168450367043
-0.05756401297378244
-0.05907067271270051
-0.06047323493838085
-0.060973593479824936
-0.06240682847428538
-0.06360068325963897
-0.06538945507538663
-0.06758430344584979
-0.06837878785302659
-0.06940840625728499
-0.06984013659185145
-0.06962382912837833
-0.06973765511296073
-0.07063452852611293
-0.07160708105941657
-0.07230131818731172
-0.07313475896591615
-0.07484663631506429
-0.0772972899757109
-0.08079207720842813
-0.08351007633156374
-0.08733026600711272
-0.09153209900239204
-0.0964810953430372
-0.10412870862538515
-0.10990997670215238
-0.11591393304151901
-0.12393034257009725
-0.13209238792167266
-0.13921071820983644
-0.14803174046827333
-0.15596604382033236
-0.16314456750639153
-0.1728295928428865
-0.18216746283092378
-0.1899958953393538
-0.19904939007832828
-0.20959836616888042
-0.21508218373581245
-0.21766044659995526
-0.22123430576306394
-0.22286714557945
-0.22144264921237145
-0.21634551576079902
-0.20647103183334725
-0.19358178894575928
-0.17678783623930622
-0.15964199260739026
-0.14461731777003106
-0.1314030294285221
-0.12300552335105677
-0.11764617186660738
-0.11550948756667556
-0.12077371883829982
-0.13177172097830248
-0.14838657546685718
-0.16852532170951023
-0.18777550932049955
-0.20552973976827044
-0.21639440365383222
-0.21837452525672177
-0.20989063275851733
-0.18963013384377347
-0.15995235850082473
-0.1211076519624387
-0.07631826368964481
-0.02942809718813902
0.021037444654296453
0.0659996676176009
0.09582223340354706
0.10830984983108127
0.10533352843957226
0.08930627586804624
0.06093418807535273
0.020600987087610843
-0.02876987631825756
-0.07604285679168835
-0.11071952662839266
-0.12580611888322554
-0.11444319700548984
-0.0756651676194401
-0.029761970589536738
0.012646542788966111
0.05387900101864229
0.09489818908915695
0.1345022176259233
0.15666347036042416
0.15174226268772134
0.11115373381943336
0.021993179524811286
-0.09550982259271243
-0.20545433245284345
-0.2973474133760828
-0.3706235045308701
-0.4113503731259001
-0.4026773324265978
-0.3490116966430443
-0.2627211433625427
-0.15542448639050646
-0.04194722198985199
0.055993080499861445
0.12451416185571795
0.18738756308196966
0.24109665512108763
0.2579701639965827
0.24693790986499295
0.20923093480980554
0.14404808483311726
0.0763499733187412
0.016272581530547232
-0.025665627249353964
-0.033221238524509485
-0.019015080030220503
0.01761262667078055
0.07104312017535222
0.11485093895600347
0.1489452656126632
0.1950307382441343
0.2544045449163052
0.30188744823152025
0.33414520835221934
0.3419733591749662
0.3260692419651822
0.3327316689728121
0.38448601961890466
0.47405015617650964
0.5750804217340706
0.6396092555210666
0.6426650947014148
0.5647578688340338
0.39150432518978157
0.1915451197894617
0.05342726100106182
-0.025467893314319354
-0.08412890898949626
-0.15365353811676308
-0.2526755196516898
-0.38995584671818906
-0.5402635007666525
-0.6134544569508839
-0.5497570982006836
-0.3706197101821942
-0.16240832690673412
0.025294196729025935
0.18731870273271423
0.25931086945767057
0.22880215820333674
0.15729449797662226
0.07780033343441453
-0.0021989610540009558
-0.10172259435620853
-0.25455927516638066
-0.43579229745130965
-0.5591242471271834
-0.5965390964605958
-0.580080968332743
-0.5213993593151097
-0.4360664812304644
-0.3098076413635613
-0.16947386347744142
-0.08346593028188165
0.022594044078344408
0.19832525298116557
0.3229944038616698
0.2902709887192405
0.1101414209282478
-0.12131843474004582
-0.3023518888386324
-0.3583444739463539
-0.22768369553820048
0.042402385455570554
0.2801741130812498
0.3015375630210483
0.09078534768292168
-0.1863950579295902
-0.39442672391295114
-0.5184942028548225
-0.6338512910727283
-0.776901522175223
-0.891740256429893
-0.8761039656054118
-0.710507092968946
-0.5240876281346332
-0.38768952514146826
-0.2780058835649749
-0.20111975567911064
-0.16741113391818585
-0.18243596303048398
-0.2420646068091198
-0.3375921203747541
-0.4436420285619757
-0.45564865193754445
-0.3521198195672158
-0.2367420246593321
-0.13764840294989095
-0.017670226249028028
0.1867386860999872
0.4347415728798897
0.5384989599028316
0.4552708843271073
0.2700002995595714
0.0381584470461713
-0.23506909271081225
-0.5210760386702538
-0.7095623723039892
-0.8016942064715038
-0.8325318741523471
-0.8224296979845406
-0.8227092417341834
-0.8343516382127601
-0.8777521522659212
-0.8559235570373601
-0.6766459249998807
-0.3869520520787925
-0.060423755183564486
0.19738589315159072
0.4840619080113623
0.8426317681364481
1.0922298228909322
1.1688912432816363
1.0109314236293907
0.6887912966114599
0.37863158527445157
0.0005863827185713863
-0.5662347660759641
-1.1474533516349532
-1.488645484042736
-1.4487342122675162
-1.0390270118106166
-0.5770334226331293
-0.10183180974530831
0.4782180946440666
0.853317627778353
0.8900216008382109
0.5521467760652732
-0.010258570087947588
-0.30213781113486776
-0.21047146674719933
0.14810772224895222
0.6045195258533541
0.9268878868946367
0.9146293262957536
0.6144332552143615
0.5319854584627898
0.688486487981531
0.6981397885298858
0.389215845920323
-0.08909925573793825
-0.5968727006532155
-1.3254953723421299
-2.054198995699623
-2.4028801175517844
-2.2733091752608687
-1.6721134595094476
-0.8300318066173262
-0.14763205016576303
0.11817775997732947
0.2509523508813347
0.6048871392616171
1.008608835700255
0.9428968401315079
0.10041382264151516
-0.5193243567385984
-0.12300043409535243
0.4945944792183232
0.9948725227092103
1.205088593798843
0.7102316702714042
-0.11388413194905796
-0.7930945785416011
-0.8382796670088378
0.024077271107932965
1.086182948165047
1.7631761419581429
2.5628472197862964
3.454198212121504
3.501553369306912
2.6520888472402135
1.3869867859554117
0.36573066462761306
0.34291250103998433
0.7370002787939888
0.44193624414062954
-0.9232154473090599
-2.9812738440949635
-4.367546979577034
-4.131708420337274
-2.6878911073558576
-1.1333431595962835
-0.1321128347963696
0.41634374624259396
0.4643477228614138
-0.0035609389977235284
-0.5786468735837155
-0.6102484000032249
0.13054086966544887
1.2787022051104862
2.3346632127898985
2.5277701347878643
1.50402394783438
-0.5213364936838064
-2.9704467311313216
-4.401572312437537
-3.783848938644771
-1.7956693661929142
0.12660418007183002
0.7654789336910451
-0.5585232315724987
-2.9134455728901067
-4.122287808808008
-3.4161817812416913
-2.080309724792139
-1.61039994591632
-2.4655439982967646
-3.7743532681232073
-4.476806929005006
-4.008596852424695
-1.8837026352962039
1.229546038103289
3.817347028745883
4.560269693700638
3.224287217706874
1.3241515983887677
0.028998398001359137
-0.6416293281599285
-0.967326506723608
-1.3278677548203353
-2.0095740557173953
-3.0859939550810234
-3.91800679998176
-3.7114236803730565
-2.3374142081677123
0.04539637516072732
2.589262540179914
4.077569861743075
3.7145477715877497
1.1646415414014633
-1.7951048469018727
-2.626749938582111
-1.4888351379775489
0.02324022740469634
0.5026898290569997
-0.6866008831029601
-2.495630475863758
-3.7702897811516642
-4.5657249998769815
-4.8003474564094475
-3.937114626296864
-2.0413297626993305
-0.34798984644262243
-0.5993771544665023
-2.5189676498802624
-4.135334577432429
-4.232855415095596
-3.0355703345956435
-1.8562389672507114
-1.6760003511458048
-2.4038912193622948
-3.2797228993829055
-3.466287221209911
-2.3577246441577038
-0.7566267176825547
0.47965163101240393
1.6869296351483056
2.2382654291405797
1.6987168608665097
0.162958255867947
-2.106676679238499
-3.6570390857290263
-3.694399863101497
-2.968340221875841
-1.803921499486888
-0.40990125757433005
0.3961701083427247
1.015511021673702
1.9002333535042317
2.9667203737450603
4.365237563655125
4.9736885817964644
3.6045385688626608
0.8808827971467591
-1.6712558153672445
-2.725696832391405
-1.8227867650134875
0.16691788834822188
2.324594895971861
3.7598086319205892
2.532275200034527
-1.563466841414851
-5.57055268597291
-6.961644047018967
-4.8345030938732965
0.4359550654553288
5.7349257698943275
8.236144952535842
7.907099978913546
5.537525727705789
2.535617380467489
0.40159739543116224
-0.7719597768807748
-1.4604482619958055
-1.3783292185512206
-0.4356042615697333
0.6801459596067894
1.344364122324734
1.3793165540289767
1.0485306615805348
1.138224024701922
1.6512730788318162
1.689146936497182
1.0090317709362662
-0.6074337279984272
-2.5408239784538273
-3.216021752154446
-2.9679404966972145
-3.080128879986933
-2.608714649982901
-0.7103539880931113
1.646820847472327
3.5099830148994586
3.412718421840682
0.7835308752856883
-2.234140204951327
-3.7713555505879133
-3.559796309862859
-1.475682585014165
1.3953332293160157
3.324922218265745
4.324560593929468
5.038234970402996
5.084213387325626
4.475852686836123
3.438761940235527
1.966688224783986
1.2585165833829695
2.2095937124365435
2.489608317088292
0.6336183257849902
-0.1369655962157349
1.0595631607828766
2.1767877185044338
1.5932941876135938
-2.2571534992824933
-6.2974720293927575
-6.485256485857383
-4.599815274324276
-2.9381896223796407
-2.151903986556693
-2.726832252739075
-3.089368386834301
-1.255295143785974
2.03168859192461
4.745339855391845
6.612686309197773
6.942676855512851
5.978877362283028
5.139659616735025
2.3057263099892196
-2.668174738490556
-6.518498683229969
-8.407640458899158
-7.982828040741534
-5.733971802562268
-4.492215085777722
-4.682688485296996
-4.283213333251619
-3.162625774705255
-1.2747421402817036
1.1195265796590208
1.9912635977781077
0.768455969343767
-1.874312896970002
-3.0115244974472346
0.41930795367906015
6.238250168606171
10.706519502167414
11.129190543690212
7.440587112147258
2.432196423537087
-3.1389520512699685
-7.876260285441927
-10.329149767948723
-11.002723524410703
-9.408729302935981
-7.1205639375837615
-6.39287762516109
-6.369728740075319
-6.844474914925913
-7.235599548317206
-4.924970417854794
-0.3191566247358719
3.6401550606148048
4.734958378854348
2.416974468360581
-0.43188967277946483
-0.8937950340062762
-0.6774301577351572
-0.8851969474354487
-0.42863339320212424
1.3254170646338592
2.7999259326252024
0.41183123706206426
-5.08957588552302
-9.853924591486486
-12.20587904243657
-11.586160501871436
-7.578219395674391
-3.4757346466356713
-1.7554954773599745
-1.4088457824481353
0.0919752543402933
4.122004011779025
7.045056099843284
7.762222882461817
6.280291187723881
3.7676404285078715
3.8504030886697405
3.730276307870381
1.8862949162487743
0.26976273678201024
-2.8125678233322726
-4.714237486217211
-3.037464440517621
0.009683297545137214
3.4637103611476117
5.519850647829459
6.62038690025407
6.735716846377117
5.33974221879615
3.062582321672365
-0.8315951543710848
-4.369009597218406
-4.355175877131789
-0.6544297107485768
3.461619541875302
4.075345076073622
2.657368464483229
1.4523951344224346
1.0218562619113134
4.351457118221436
8.218578610810004
6.807903332375509
1.0565140822975612
-3.062252831145377
-3.5829960241795002
-4.49957441113121
-6.438502417623874
-7.983216690671982
-7.44261793735172
-3.3949933735735183
2.201582637702149
7.201656870492357
8.703075233019804
5.304220667724911
0.8779524894657779
-2.756204013048459
-5.3647450990166625
-7.026052712178194
-7.206098544471978
-4.328163125223475
-1.4002262412392794
0.2086625776453416
1.3863730860805126
1.3046340139531645
2.4384348381180416
4.098764513824952
2.906428614308076
1.5314356376031961
2.479080736185773
4.814556157323884
6.087820752760714
3.924077806381787
-0.39785281872032413
-2.7316486990304085
-1.972210927769574
0.9383599254815778
5.174300444419336
7.693908852629948
8.692917407352878
9.632391523552023
9.126126852065545
8.603807500350593
7.895700178628433
5.918613798088086
3.116797143855351
-0.5166499282692318
-3.497229048934633
-5.563856167582406
-5.472779060751106
-1.9040054304774297
2.5231884689584665
4.663672427208445
3.4880539493761624
2.7876489580700965
4.759154339973149
5.1679917900845185
2.8621153632383836
-2.268008544836342
-7.9406250719642015
-10.557743505822158
-9.405539633918051
-3.196723696413001
5.449239379277897
11.755489122717579
15.412001544477507
17.701547377780216
15.685299382463317
8.047345602138499
-1.1939852327391192
-8.972526271868011
-15.467321519485036
-21.46669480906698
-28.095593979008946
-30.546668857600817
-24.698241913682914
-14.205176485288817
-2.568184303686838
3.102128733788011
1.3407721251220799
0.8396672437375803
2.3238206167329456
2.1969479511317798
1.046633786685881
-0.24713620631078143
-1.586137365810386
-3.915089261410234
-4.74512090679964
-2.3018420667608366
-0.7579416171465343
-1.6922183473742622
-1.6552758755137342
0.41896059098936556
3.0166111557725257
2.536050751316029
-1.9833265561206501
-7.591806561890608
-13.060136113551337
-16.38453543252896
-17.074638861329788
-13.576098085798044
-6.676207994473248
-2.422726974975619
0.6135513011450309
8.249577095177717
18.19745822039628
25.052925917167773
26.691603339575774
22.180820484014504
14.686945116901951
10.012623134174298
8.171901051840953
6.0124340885853105
3.11484272487525
0.6969580180779048
1.1762501669300691
1.3077650962067724
-1.5364492597840198
-1.6400673707757631
1.7290518415395635
5.146732682568043
7.7018846599050255
7.575134511145734
3.103534499517065
-4.396670348603
-9.399132003933373
-7.317185656494551
-0.19270294851834638
6.73184407090756
10.885134210142336
12.92778306901396
13.037622711703241
10.243671658772122
3.6940555498037635
-3.213456356166874
-6.91011339723657
-6.371357124884809
-4.162169351570551
-5.399838092991255
-9.737445817544193
-13.818291778505825
-16.040564345403066
-16.878516952122848
-13.899859821720733
-7.114743658828106
-0.053515586728461496
5.579810115201627
8.081333508865917
9.544847313105992
10.939581843573931
10.311862080472313
11.528164517459732
11.929361166948754
4.310077144077885
-3.4343338333268125
-4.6923552358080896
-5.5487725832432675
-8.146557830283331
-9.344811192813767
-6.390269039889302
2.845463999127732
13.923850877363819
19.764011550851766
19.05909419134182
14.22212451660277
5.110872578348571
-4.684734913598104
-8.865854390127339
-8.807404822741686
-6.677470661680552
-2.8203402054355946
0.41367958602157984
1.0283533670698033
0.28683564360614844
0.10741396339408604
0.9675293075840292
5.7199910030109695
13.06553128940873
16.206817348846513
15.211689728409695
12.532529035126638
7.109266299989536
1.2363486680586708
-0.9576024161854104
-0.5240806166605892
1.0226962548115794
1.9200312887773403
-1.8951876055178531
-6.953070158036174
-8.410890411202239
-7.128679865995999
-2.661548393112545
1.5663980093467351
2.053997002575796
1.0475300236771319
-0.6788735881476592
-3.6581630375862
-7.769452738583757
-10.826261746727706
-8.791038595798671
-1.5758287310140147
6.753012884266513
12.369866154980336
13.025416520719672
11.280598401276922
5.6728266220298575
-6.009658481971696
-16.407073274129182
-20.78145288626605
-17.38881474295532
-8.107779088017304
-1.3532122786473957
4.685205026173182
13.004947629903787
16.421968055477585
14.737388866533585
10.407426424912094
2.7872061474873875
-2.7023818534898907
-4.883418834450887
-10.548437893023905
-16.668815986921103
-14.009464645038154
-3.1208380643403943
8.190050024507975
15.774750228940091
17.994869330895924
15.901956579421633
12.692683409716365
7.364826074032756
-2.0164225586626463
-14.191022573447363
-23.70112489853629
-27.33094142977835
-23.31667491830536
-13.065294851100068
-3.573116221366903
3.2651734695358914
8.702537655012339
13.484283576850236
16.81998432160434
17.114395056056125
14.554987479640555
10.491552724018245
8.125532073981761
5.931125042238371
1.674697658037432
-0.20020936592719274
1.23564957321975
2.5367030473279217
0.8895578657246398
-3.2485491483180633
-4.8279388878649385
-4.380146146597961
-5.913630996865548
-8.383544893834097
-7.009429473882182
-0.4400981633401377
7.336741817427015
