AAD_Filtered_TADAS_FILE
AAD_BASELINE_CORRECTION: BASELINE REMOVED
AAD_FILTER_TYPE: BUTTERWORTH
AAD_FILTER_ORDER: 1
AAD_LOW_CUT_FREQUENCY_HZ: 0.025
AAD_HIGH_CUT_FREQUENCY_HZ: 40.0
EVENT_NAME: 202302060117
EVENT_ID: 13194
EVENT_DATE_YYYYMMDD: 2023/02/06
EVENT_TIME_HHMMSS: 01:17:32.00000
EVENT_LATITUDE_DEGREE: 37.288
EVENT_LONGITUDE_DEGREE: 37.043
EVENT_DEPTH_KM: 8.6
HYPOCENTER_REFERENCE: AFAD
MAGNITUDE_W: 7.7
MAGNITUDE_W_REFERENCE: AFAD
MAGNITUDE_L: 
MAGNITUDE_L_REFERENCE: 
FOCAL_MECHANISM: 
NETWORK: TK
STATION_CODE: 0127
STATION_NAME: 
STATION_LATITUDE_DEGREE: 37.816183
STATION_LONGITUDE_DEGREE: 35.92044
STATION_ELEVATION_M: 614.0
LOCATION: Kahramanmaras_Pazarck_Turkiye
SENSOR_DEPTH_M: 
VS30_M/S: 583
SITE_CLASSIFICATION_EC8: B
MORPHOLOGIC_CLASSIFICATION: 
EPICENTRAL_DISTANCE_KM: 115.07
EARTHQUAKE_BACKAZIMUTH_DEGREE: 
DATE_TIME_FIRST_SAMPLE_YYYYMMDD_HHMMSS: 2023/02/06 01:17:31.8820710
DATE_TIME_FIRST_SAMPLE_PRECISION: millisecond
SAMPLING_INTERVAL_S: 0.01
NDATA: 12501
DURATION_S: 
STREAM: HNE
UNITS: cm/s^2
INSTRUMENT: sensor = ACEBOX/SARA | digitizer = 
INSTRUMENT_ANALOG/DIGITAL: 
INSTRUMENTAL_FREQUENCY_HZ: 
INSTRUMENTAL_DAMPING: 
FULL_SCALE_G: 
N_BIT_DIGITAL_CONVERTER: 
PGA_CM/S^2: 50.812
TIME_PGA_S: 
BASELINE_CORRECTION: BASELINE REMOVED
FILTER_TYPE: BUTTERWORTH
FILTER_ORDER: 
LOW_CUT_FREQUENCY_HZ: 
HIGH_CUT_FREQUENCY_HZ: 
LATE/NORMAL_TRIGGERED: 
DATABASE_VERSION: 
HEADER_FORMAT: DYNA 1.2
DATA_TYPE: Acceleration
PROCESSING: Automatic Paolucci et al., 2011
DATA_TIMESTAMP_YYYYMMDD_HHMMSS: 
DATA_LICENSE: U (unknown license)
DATA_CITATION: Turkish Accelerometric Archive v 1.0 - Disaster And Emergency Management Presidency, Earthquake Department
DATA_CREATOR: AFAD
ORIGINAL_DATA_MEDIATOR_CITATION: : AFAD - Disaster And Emergency Management Presidency
ORIGINAL_DATA_MEDIATOR: AFAD PROCESS SERVICE
ORIGINAL_DATA_CREATOR_CITATION: AFAD PROCESS SERVICE
ORIGINAL_DATA_CREATOR: network: TK
USER1: GuestUser
USER2: 
USER3: 
USER4: 
[...]
-23.255644311718434
-15.4990162647663
-7.152518101340649
1.1861821637864693
8.671264919523626
16.076817544786376
22.32868138499303
24.654542462683512
23.038955443879967
20.83399413888597
21.010273569098107
23.058241465427653
25.53596509559171
27.861041910122385
26.765174933840584
19.068481694605097
8.063108311373774
-0.05930817722306433
-1.4734471542359906
2.9418864527774584
7.611323440710756
8.610734117132026
5.294783207958217
-0.2859829479536211
-2.571522187766797
-0.7100904584139212
0.8542289856316501
1.2888370125655648
1.9309970613547154
3.980368326272053
8.761939668532998
14.206882397509524
16.318680481280012
13.661126568722073
7.327346280514781
-0.6971622966568465
-8.839031930287932
-15.922319091832787
-19.903237689463023
-19.64708350571059
-16.235411239292528
-10.550210902837076
-4.36889477098825
-0.9533440507283197
-0.19975874053871326
0.7348104868970072
2.0338027218090695
1.9847431526573764
0.4565118800777695
-2.0537719446429197
-5.312163406250089
-8.158761249799849
-9.816302650520976
-10.073068447557683
-9.20951394356557
-9.103422605135586
-9.315828431963181
-7.878109485472736
-5.823861015731647
-3.741137947398545
-1.9998394215039734
-1.950547462527779
-2.6096975657521457
-3.3194897745003753
-3.320094093814477
-1.0169352549543729
1.259521991131103
1.6685475228544708
1.3465657548351524
-0.5414786946448131
-4.314748145100609
-7.7194149947507995
-8.175260525458889
-4.469436578932092
0.9271915671457652
4.571756027384635
6.444312226976693
8.48595841481299
11.128581341533154
12.08682233480036
9.728782541042099
5.996479856284128
3.017207380374174
0.818528822658759
-0.020255692483806167
1.3006125661072478
1.8595537157823308
-1.983857666403455
-7.182148772501477
-7.509591137234939
-3.1918863578442136
-0.7248359519981304
-4.788638867489399
-14.642416055343999
-26.750553834380586
-35.78467579512686
-38.28223034849424
-37.006199856765946
-33.88386562417671
-27.19850482781856
-17.670046293397824
-6.097181414211944
8.08664394280735
22.388975816393476
31.596150792497795
33.45065314902838
32.622812968701396
34.09651932094979
37.564542125444746
41.34721585202602
43.597053525367585
43.33238798874909
41.761131691176374
39.40002103203034
36.1738405855678
30.845089186055286
20.873662795919383
8.86796603483585
0.522800083072651
-4.155583534185581
-7.802376655554346
-12.754451974570696
-21.13633673425851
-28.13313898953349
-27.93012564398815
-23.460981765586645
-19.06316919903244
-16.946110204312724
-17.557711520979865
-17.262720999532736
-14.125449145292276
-10.182908460681366
-8.467471367086896
-11.266604532532794
-16.03049613604548
-17.227458890092947
-13.122587791263584
-6.127286671665908
0.7820829829872025
4.220955733653822
2.17684918274955
-0.9332703276919897
-0.10613079183794669
2.9357066545424235
5.70358930889697
7.781750025443498
8.404713976575103
7.769281777244124
6.684419792548905
5.07168837885412
2.424850357227944
-0.05451652779501346
-0.3605294217351533
0.815065182031992
2.7077906156113185
5.390464433330063
7.835236373605423
11.046969271858465
14.7084039822048
15.061583413322726
12.75642262355733
10.599738028432272
8.531547781434181
6.679487939600759
3.8881440402842835
-1.697722415875542
-8.557023014246697
-13.944814154420111
-16.903095434220415
-18.940908474713137
-21.981954809618767
-26.25707992880951
-30.743250383014708
-33.12510318889435
-32.96198544326206
-33.06201806874806
-34.44598996246845
-35.16987155259085
-32.783505987623755
-26.741532571349218
-19.27257718078694
-11.736335358442235
-2.9646723634741052
8.556480628062065
22.679495965963877
36.68613578130785
46.82204381901245
50.689909266480186
49.370640666026766
46.52582261036417
44.03731782746523
41.44528540364523
37.36213984479776
30.490944111830135
22.810740787353925
16.904611648537436
10.988678310394834
3.7739201354717675
-2.738548944993901
-7.915849147071746
-11.667869266525758
-13.599420871715575
-15.031526640999875
-15.913614713445646
-15.625869297283671
-15.306622399038659
-13.916450972598005
-10.634081713380843
-7.33120883148954
-3.448073376028173
1.8783610609583814
6.760280381142779
10.931570683455439
15.22775092425414
17.80969091288938
16.1106112200209
10.556295192134272
3.5580898712486384
-3.3607828053742175
-8.971482883475115
-12.341007778664817
-14.494573996526704
-17.02421029282542
-19.571217389882502
-19.49784423118734
-14.591447156267625
-6.278075677824784
1.521849454341706
6.3268604872878305
8.374877742365896
9.095000405050085
9.824757530437706
9.99116085071403
7.1777307142936495
2.4191872947096034
0.5495716846073212
3.5790551871153786
9.572828766852624
14.75156415113986
15.453717124815594
13.105948703396432
12.698293682683536
15.684006188478284
20.004879437581796
23.126893827922036
23.628098378859267
22.741463532497573
22.716294936083763
24.533955649815812
26.404753050030795
24.621774503073976
18.70146067506793
10.737050491113227
1.8942090292396274
-5.516522562192849
-9.653258336685981
-11.621958002701003
-12.852051034623207
-14.540364936805464
-17.249001471670915
-19.47413987056585
-19.64121192709571
-18.304706399278007
-16.91986398222275
-15.740464642189892
-14.286919703504292
-12.936202494119208
-12.592176837310047
-12.354943323351124
-10.132449282716028
-6.431798326415703
-2.468280115002763
1.7149088275133666
4.2103449588964095
4.987027840596729
7.847061562329924
13.295624820570525
19.09636981038712
24.423172372878565
27.03938642613544
24.47464523200971
18.028888622575966
10.587394093902141
4.510724128904844
0.9497806144875316
-2.2256446768551035
-7.743834367864388
-14.649671262290736
-20.655890917748383
-25.657034225370406
-30.996613727382904
-36.73019752485238
-40.13543924658782
-39.00552003658279
-34.18846183427606
-26.983595132150644
-20.536428712914137
-19.313267846510083
-21.081591995354085
-20.972107066140246
-19.54983179624989
-16.594734835239237
-10.362424819952182
-2.276087169619521
7.252367135099323
17.611274443716397
25.306822044739324
28.711349520356798
27.56499929766609
22.518756706212713
16.914752807156077
12.35132402049696
8.181426497833725
3.593448680371212
-2.3666239055758793
-6.1638357280183715
-3.0550086045058027
4.789226457455952
13.411650329101345
20.216479166681932
21.24104739859142
16.29155229454003
9.316936694209689
2.8914043159257297
-0.8750184754003018
-1.1084519801969646
0.9699902142326179
5.733686231257498
12.433199600978579
16.616001578637498
15.51624530112093
11.099130279316443
7.649058558979328
6.420885065100284
5.225533166335782
4.413983565292751
5.6891549979635885
8.907179727663587
12.767995007464341
14.053889898227261
11.812714597368398
8.720545842750505
6.355029052796494
6.1810184317757395
7.108745278909568
4.298009588051541
-3.0632334661156424
-12.019092760174779
-19.30410384865399
-22.272060577840094
-23.122524797467406
-25.460445169888978
-28.892614869102957
-31.41965961416624
-29.948095113361283
-22.570310320001642
-13.177279950133252
-6.762679912700212
-3.334351984898842
-0.29882159794635293
3.7355182992605855
8.08066076820559
10.942263219570036
11.59102347745604
10.907940259816462
10.793198236866344
13.515966125275874
19.001324095928418
23.699591134425265
24.534582192006813
22.44619631637856
20.124742803778286
18.396042233096523
17.34872217039731
16.875786708450754
15.278641767270061
11.76327805702561
6.400321644184222
-0.9574478596756436
-6.549566991698441
-6.233133608076823
-1.8753843616568087
2.9303365240483896
5.2292247688429985
2.588518755227662
-2.8664860914399357
-6.516583398041477
-6.640263711441897
-5.451512835315662
-7.026752450234718
-11.361131091240798
-13.764538953345097
-13.249798088585719
-13.320192694264351
-15.504210347440571
-18.69595561711113
-19.6438888842939
-14.593213824763938
-4.5058086866869
6.488503510578887
14.88487752146239
18.0852096220173
17.167697735974603
15.696485855944282
14.746817440420198
12.992265203173488
9.162944700689076
3.948528501957182
-1.3912081776649352
-6.634631501716023
-10.522884917227794
-12.455234008471257
-13.52989898907045
-13.586149206005873
-12.41804661129373
-10.09900885432881
-6.64468749204429
-4.291345430020601
-5.979265607799656
-12.927996034887592
-21.694458812285035
-25.239725574755195
-22.231795054485794
-16.166764553634714
-9.731127727765035
-7.469639015921673
-10.915621919662224
-16.928810312282657
-25.51030255938288
-34.29323864602422
-37.14161438910929
-35.016592307316344
-30.765468980620273
-23.053959065148902
-13.580670020107217
-4.750663219920438
3.6597072532900765
10.238563544638545
15.513906271025961
21.87767318474504
27.913212824361768
32.33243675114195
34.92747578360302
34.186863918191904
31.210737709420584
28.740133598031225
28.23762183414027
30.31104263174354
33.84774573017403
37.64310110387118
40.442825445614375
40.07405834126459
37.32040360176395
34.59380400201221
32.08845253247228
29.293303438245893
25.61047746517921
20.92024558262033
16.08049773151356
10.834840284013044
4.205051501129601
-2.754576490960543
-6.135668131882236
-3.9608314321655675
-0.28883892915932946
0.6898637896000498
-1.9832729620734162
-9.435399782045074
-20.775149072881483
-32.25997372179116
-41.45940519557344
-47.62195703351819
-50.19424077497857
-48.911400436119514
-45.18554188563638
-41.290060271308626
-37.76534676952327
-34.10840461704054
-29.16563091501667
-22.58062578870887
-16.363528160273628
-10.417053695482196
-3.455447158520131
2.4981755493157234
6.176186666757289
8.494898010239801
10.041868157219012
12.502258548721901
17.363750211514756
23.185532150562093
27.057724953150103
26.507353223825923
21.13038679415645
13.555081727517294
6.436383057043412
-0.11854807614244717
-7.028403550952119
-13.697478738213242
-17.238127475853325
-16.711005760715917
-15.506098668177382
-16.49630169308252
-20.448683152214883
-25.661004509548015
-26.850982513589297
-21.645498589182182
-13.777518087934288
-8.005182086763202
-7.058247015380264
-10.060136061489391
-12.60021921703724
-11.997218217948928
-11.331078313193217
-12.978600714551428
-13.514411238085025
-12.144574657724325
-11.227208725956451
-8.367660586683662
-1.8114081341038606
5.874608549789186
12.922913408980916
18.63720828703604
22.3390683943659
23.19851415273021
21.55865464700719
20.10138396421407
20.448491790536018
22.83274096982611
26.269132601742538
26.609191642003434
21.780988093973548
14.968336840873839
9.599818969508627
8.04983196726476
11.689202558969132
17.559401302575505
20.788461001317497
20.467496771126125
18.839401095248277
18.422504530703172
20.085574660543166
20.41662509624826
16.672456128302095
12.238990456993339
9.237689900920756
5.088790312658438
-0.6576002520536838
-7.305647897698601
-15.145528708100224
-22.127608153683617
-27.23263316108478
-31.19481892276318
-31.34377270035961
-26.267490627308348
-19.31197568359067
-12.984201930408009
-8.67925640453059
-7.3433651674198455
-6.8740297824799725
-5.539961784674109
-4.132640054968369
-2.3183399669153717
1.0691398415566749
6.489856075834373
14.09334703952387
20.9886747007098
22.701635649872813
20.242536509257764
18.405446565947397
19.331162068710885
22.928400076979834
27.81149212480807
30.160369100978343
25.600449300172187
13.283339034514068
-1.6060731934131902
-11.105299794839464
-11.719912350632367
-8.092296858269872
-8.134661489349224
-13.98464900514727
-21.059652923700632
-24.38400510446682
-21.86570858171863
-14.673286988317912
-5.797584160721693
2.3476143903951585
8.231549964697063
11.299740578215705
12.191938071147726
12.505371593007167
13.880899739299199
15.726689912019582
15.563385177816565
12.181400196669093
7.104610339312865
3.040507610200581
0.9647559472077791
-0.014124346931833572
-0.755808801859141
-1.2158763000581319
0.508288331449278
5.956358391065641
12.201861353585727
14.943277190986773
13.308326058405626
8.57132882268919
3.4308836781314413
0.42114280087700223
-1.9373448126047672
-6.360551540363241
-13.482806666133119
-22.096753913598867
-28.324840631429595
-29.898368106217134
-29.400433508564426
-29.24730118976135
-29.387738712086623
-29.206966897491064
-27.95008292479146
-24.404076280440805
-19.60088272612619
-18.07524709928358
-20.591434960847852
-22.53830654550989
-21.452487075370808
-17.341119603620225
-11.720614132351535
-8.223226342634653
-6.362235821599184
-1.2947601103953654
8.183866495687095
19.907546650408786
31.65349359727836
39.85892946057319
42.609219244620384
41.494058510425184
37.17292386079205
30.10578283519044
22.390177439704217
15.362269200653481
10.61227600324563
9.693735003045642
11.127368499999818
11.284197211986672
7.110830605181006
0.28086251409749413
-3.8265437392468358
-3.4843857806624734
0.6925869211815994
7.676144409147533
12.534146315786966
12.39984326341102
8.825797650634795
2.2317206941133567
-4.944186835662354
-9.952398580614789
-15.37709781855468
-23.014416388916842
-31.2336269310818
-39.07466438525815
-45.82150454286494
-50.11461606400418
-50.960205705465064
-47.8800557478663
-40.73394111119275
-30.931221314971523
-20.243549835152173
-8.345902854155725
3.987816920066196
14.54568157324974
23.17330088791166
29.36088854360989
32.93631183122139
36.249290165558904
39.20345689477337
40.809109509120816
42.61530131237224
42.30347715194574
35.60264408213205
24.23769861008409
12.925103597012582
6.068430887330553
5.619710761677676
7.240785012217424
5.447354095305246
0.6415244696027337
-2.2185785187284486
-0.5958888259998534
2.541428354341389
4.966138246200572
6.012068236013039
3.735111527775401
0.35616240046226166
0.3080832777035672
3.4512063654524665
7.065373754021489
7.710591315319691
4.222795416795454
-0.3762553673118112
-4.499279779155504
-8.688314281935282
-12.97863163442478
-17.74865608853829
-22.67307738567846
-27.437829401812152
-32.050113754976955
-34.591513733636816
-34.97104396112283
-35.616006762843945
-35.47056844727639
-31.741300428715707
-24.39940718255133
-15.106877043764662
-5.640123862892962
2.772318031603686
9.454683374579771
14.749609448935278
18.987316257889287
20.126766670491964
17.328989744349425
13.518206188105752
10.904894404796721
9.502358570585415
8.418529696391117
5.300463310164662
-1.6657997949411518
-10.989657162085143
-19.33002937412282
-24.30713709313542
-26.008603618275778
-26.450474675021233
-26.52579589937018
-24.55004258634545
-18.504284963677968
-9.697854135960746
-2.854053971103709
-0.28897878589823406
0.25786628042960846
1.3774326006661166
4.55431502270898
10.184084099153754
15.350915745430902
16.0495923655133
13.670615471033996
12.669983822373178
12.81501010474105
12.494706581712027
12.641753984641381
11.985599533288791
8.660635790662417
4.374032034744897
1.5420597015201425
0.5331994626582738
-0.5719155010194715
-2.737146387733764
-3.2351670867735787
0.612836047959509
7.594584489143379
13.607001377964838
16.52093274578036
17.6723010888919
18.71227282162029
20.789733707472426
22.606947457166658
22.232545198758086
21.602282190897853
21.44662052245004
19.912720909033144
16.93456678672793
12.220974067648356
5.06568227641925
-3.182882147330262
-9.86909560200372
-13.215062692148548
-13.479112283531709
-12.400979414117753
-13.033401114648385
-16.868562550478025
-21.143984028197025
-23.365670599497854
-23.67710550192232
-22.15339626478373
-20.051901587397232
-19.496507117390447
-19.30119527333769
-17.245299557025653
-13.895921225707085
-10.436343743410228
-7.549058198509415
-6.163262843984038
-6.182893566016182
-6.395771972648884
-5.793555787382592
-3.316187010228642
1.5708148546365273
7.544203744609172
13.421633375183537
18.71266442569571
21.77625552251604
21.64026113970159
18.55058202287295
12.404336333073307
3.8252180103176228
-5.774397116877992
-14.68293449625441
-20.78742420722229
-23.043890782429
-22.06306867706323
-19.176422781501973
-15.75645626768805
-13.276929474387218
-12.41085049015298
-11.602237739560428
-9.64264144585033
-7.738678823520138
-5.945841881626504
-2.3984762834538706
3.126556525911063
9.84327336640683
16.94675335627331
22.547977442207838
26.879483180438605
31.566383350425184
35.13809697993587
36.62027264907498
37.12069009988777
36.50297154546941
33.96479815414902
28.440246017743803
19.372237348355757
7.601252784573929
-5.583160942440725
-17.12787900309753
-23.121987412057056
-23.18099598517397
-19.86942155205481
-15.527707483257638
-12.234020243703185
-9.891547540199252
-7.755825754624081
-9.41197905721456
-16.096624644537744
-23.59797345647911
-28.923568959643365
-29.12785890144453
-23.322598224777426
-16.10904639267724
-11.724454117227886
-10.760783207524927
-10.912127314124787
-9.649097851426788
-5.698852076207227
0.9638856538695568
7.3880830697721045
12.07695683766634
17.113797441373706
22.814730474571537
28.089489482838232
31.67292949179965
32.36520912483896
31.932590357402795
31.03243176765767
25.872350402655954
15.01310326754361
2.398844839081589
-6.591409288375753
-9.553434022136743
-8.987318626186852
-8.937520636801652
-12.4706720871192
-17.8657179936899
-17.16312226723773
-7.33330310242627
7.579208170132346
24.47602818127721
38.921932805560786
46.10620657436917
45.88468309358595
40.89607459063431
35.404722904669306
32.89054606210948
32.11838063243733
28.844019864139277
19.99954621310948
6.738077927653342
-5.354088578443973
-11.19328485213965
-10.729966325442092
-6.976400285039893
-2.9679592797554917
-0.7684510580886406
-0.8124255239594389
-3.0278835711025613
-6.004136095088862
-7.18819579448317
-7.6233702079109005
-9.838711103273868
-13.07397908251852
-16.17951039982418
-18.698231688975838
-18.983772349547422
-16.682862515010406
-14.526660345277637
-15.41325032077687
-19.902488583973515
-26.500566022145755
-32.28762180952039
-34.471049381533334
-32.203084561850936
-26.3161790121683
-18.91273895920033
-11.603786043121145
-3.28468181080546
6.461971062693338
14.665299845003593
18.796854797425095
18.50149902901635
14.814316077095265
10.299493702825314
6.480952663986035
3.4482832125549825
2.3715550778311467
3.799826443838288
6.557220840845133
9.579502033918274
11.560374836953166
10.645212819829073
6.402003888091904
0.6905878073179683
-4.369635987113425
-8.073383170928304
-10.426312699298167
-11.96448715833252
-13.918285984570588
-16.250378668587558
-17.53316988776556
-17.5996472117247
-16.50799857942701
-13.958395033408054
-11.328314994766188
-8.652635623652493
-4.296284103122859
1.2893411801907124
7.531680641559201
13.78782900776759
17.530535689662784
17.46696172190738
15.007588081068256
12.451917509806686
