AAD_Filtered_TADAS_FILE
AAD_BASELINE_CORRECTION: BASELINE REMOVED
AAD_FILTER_TYPE: BUTTERWORTH
AAD_FILTER_ORDER: 1
AAD_LOW_CUT_FREQUENCY_HZ: 0.025
AAD_HIGH_CUT_FREQUENCY_HZ: 40.0
EVENT_NAME: 202302061024
EVENT_ID: 13207
EVENT_DATE_YYYYMMDD: 2023/02/06
EVENT_TIME_HHMMSS: 10:24:47.00000
EVENT_LATITUDE_DEGREE: 38.089
EVENT_LONGITUDE_DEGREE: 37.239
EVENT_DEPTH_KM: 7.0
HYPOCENTER_REFERENCE: AFAD
MAGNITUDE_W: 7.6
MAGNITUDE_W_REFERENCE: AFAD
MAGNITUDE_L: 
MAGNITUDE_L_REFERENCE: 
FOCAL_MECHANISM: 
NETWORK: TK
STATION_CODE: 0125
STATION_NAME: 
STATION_LATITUDE_DEGREE: 37.01519
STATION_LONGITUDE_DEGREE: 35.79577
STATION_ELEVATION_M: 25.0
LOCATION: Kahramanmaras_Elbistan_Turkiye
SENSOR_DEPTH_M: 
VS30_M/S: 208
SITE_CLASSIFICATION_EC8: C
MORPHOLOGIC_CLASSIFICATION: 
EPICENTRAL_DISTANCE_KM: 174.48
EARTHQUAKE_BACKAZIMUTH_DEGREE: 
DATE_TIME_FIRST_SAMPLE_YYYYMMDD_HHMMSS: 2023/02/06 10:24:57.0892420
DATE_TIME_FIRST_SAMPLE_PRECISION: millisecond
SAMPLING_INTERVAL_S: 0.01
NDATA: 13501
DURATION_S: 
STREAM: HNN
UNITS: cm/s^2
INSTRUMENT: sensor = CMG-5T/GURALP | digitizer = 
INSTRUMENT_ANALOG/DIGITAL: 
INSTRUMENTAL_FREQUENCY_HZ: 
INSTRUMENTAL_DAMPING: 
FULL_SCALE_G: 
N_BIT_DIGITAL_CONVERTER: 
PGA_CM/S^2: 70.094
TIME_PGA_S: 
BASELINE_CORRECTION: BASELINE REMOVED
FILTER_TYPE: BUTTERWORTH
FILTER_ORDER: 
LOW_CUT_FREQUENCY_HZ: 
HIGH_CUT_FREQUENCY_HZ: 
LATE/NORMAL_TRIGGERED: 
DATABASE_VERSION: 
HEADER_FORMAT: DYNA 1.2
DATA_TYPE: Acceleration
PROCESSING: Automatic Paolucci et al., 2011
DATA_TIMESTAMP_YYYYMMDD_HHMMSS: 
DATA_LICENSE: U (unknown license)
DATA_CITATION: Turkish Accelerometric Archive v 1.0 - Disaster And Emergency Management Presidency, Earthquake Department
DATA_CREATOR: AFAD
ORIGINAL_DATA_MEDIATOR_CITATION: : AFAD - Disaster And Emergency Management Presidency
ORIGINAL_DATA_MEDIATOR: AFAD PROCESS SERVICE
ORIGINAL_DATA_CREATOR_CITATION: AFAD PROCESS SERVICE
ORIGINAL_DATA_CREATOR: network: TK
USER1: GuestUser
USER2: 
USER3: 
USER4: 
[...]
-3.819300175035183
-3.2623422540714886
-2.4687599620823253
-1.5492018168649433
-0.5154286206506354
0.5616828189059858
1.5723184270228867
2.4856028615909804
3.25452290916612
3.8052006412092405
4.154902142746996
4.410921735388956
4.54261145622461
4.461502358054741
4.193703062418334
3.8283348268327253
3.352139123344371
2.7690097255868915
2.1605070194821545
1.5182441158736446
0.8008528902019129
-0.017360836976208913
-0.9226127056711666
-1.9018426131436463
-2.934710815368765
-3.9742322385517856
-4.9791861084671645
-5.824383620496717
-6.483158964576154
-6.986268345987868
-7.325619950918404
-7.556694878020674
-7.600796727025566
-7.39379955723215
-6.95765975309776
-6.3963967956601175
-5.741416174304261
-5.015979181202043
-4.290994097579473
-3.526332631191633
-2.636949258551996
-1.5998528404655517
-0.44671062838975967
0.7550177140855818
1.8954439150547475
2.9678901369565915
3.9500654115630986
4.814268105222188
5.583241279835415
6.299974914809911
6.99299076524751
7.599734216318601
8.065821891529376
8.425944782443386
8.692149992896761
8.85063503751355
9.034085735206954
9.277881195890277
9.505489861363996
9.766878491594321
10.06527661627653
10.397278197199695
10.729354347022955
11.05677681142435
11.43054503868842
11.869847564749195
12.422452145452834
12.979791952900053
13.515690976317103
14.012159577908337
14.415495916929903
14.764238630286028
14.964245497792096
14.975670170498628
14.842437821127666
14.718943168331796
14.66450463285458
14.558323753141035
14.375554433818891
14.117525847201206
13.814614149711467
13.460332693321297
13.086104896552612
12.786570791380607
12.566078628576012
12.392313275304119
12.254551607813063
12.101200558749794
11.920480449803286
11.674647698231325
11.309814947853452
10.844333119319643
10.311471381451325
9.662161014839514
8.77491854243474
7.677384326049203
6.385199146068627
4.896136004354616
3.2005448957494926
1.355757856876722
-0.5899603160724964
-2.619749862670954
-4.640987290294752
-6.541876255042885
-8.241698430764671
-9.66470572973279
-10.810344604888915
-11.703726765871775
-12.347758468797458
-12.688659726322282
-12.671687750543027
-12.298485949395003
-11.625784657378476
-10.840844464482467
-10.040409633868972
-9.209064860257866
-8.307334994276951
-7.326740392096793
-6.3356825507053625
-5.399922187623562
-4.553379187481308
-3.814491983976557
-3.1736287930062312
-2.6110434987447166
-2.0674242786158503
-1.4838568443092777
-0.8432466403508885
-0.22502611210871876
0.2587963896503162
0.6066238374877778
0.980424092912431
1.430358820814014
1.8283036155665067
2.009298765105961
1.9971946247991088
1.9488115667729264
2.002520001878925
2.0487000319876776
1.9521269559742833
1.7440905909809719
1.546560113369659
1.5911486305749443
1.8755743935663296
2.2455802771932705
2.620012327184317
3.072440394086335
3.7033626143594547
4.483506646930047
5.252690683093683
5.878434968770846
6.279105918878605
6.490288095003613
6.544355384168059
6.564270004202176
6.684793859443565
6.814180611661226
6.882510052181445
6.9343397447108055
7.102137764169477
7.307015227254427
7.530126209533466
7.8657352730146295
8.27473376590099
8.56430801025378
8.558516279105788
8.390850584889982
8.14315415390606
7.6974095123672885
6.979836487638236
6.0913038681567615
5.155155861131692
4.275119070140858
3.4504859762261426
2.6496526763920505
1.8800192475762918
1.107113924123025
0.4619188246792968
0.025909252503895384
-0.19019056973821286
-0.09255301825805269
0.25408866167377986
0.6932286657763687
1.1517809543478368
1.7460864807009417
2.6457024670056013
3.7038453805079286
4.720986395492891
5.6440804841696774
6.4615534862871025
7.142924167538888
7.58698141249713
7.860356871221121
8.081547226059945
8.355795626074757
8.671100985077732
9.02461387088065
9.451677829608343
9.912604651695048
10.419599036958376
10.823702569703539
11.0530016839157
11.098289989985636
10.89910782541145
10.470504983391095
9.912594121042343
9.39328229917232
8.888600976783922
8.244367081982745
7.462491606758317
6.603838804506593
5.791530803496842
5.1385169986120465
4.62000883341505
4.262413290327356
4.020807245235437
3.8832968032020454
3.782926244303007
3.686404147745481
3.6455935279577014
3.672760505209962
3.7691650280070843
3.829413157580305
3.8238994504276045
3.7077615292372945
3.581381464373518
3.549302657548826
3.5638804534101043
3.537704944907137
3.483252371058783
3.4775336963802532
3.621280815334364
3.922028634770893
4.2930035069413295
4.815262972230946
5.490787480016598
6.202607473803204
6.882794455550487
7.418538249272246
7.7459673012632315
8.004798917605678
8.31106483293708
8.64274341707699
8.863064249267621
8.933425506383552
8.815655206572174
8.491557520092883
8.013475048118726
7.479129945821771
7.060823766970117
6.825508851764601
6.688203237270419
6.574378320726243
6.472337117439282
6.307823587175426
6.0799753062632425
5.764250254953504
5.368311543985521
4.9262675644768255
4.484305634135589
4.076616514317719
3.6740051108242304
3.258996325018642
2.7517122980055886
2.2095065013170134
1.6478122840380331
1.0042591233454907
0.3212898258371103
-0.4005673028153397
-1.1476087083164634
-1.9736521549478487
-2.933232878890025
-4.07393093371367
-5.325648266107755
-6.544747355896078
-7.580092909131728
-8.335940841643533
-8.803485886083697
-8.965869072843109
-9.04491576403618
-9.288933041183435
-9.806043029258655
-10.537264684210822
-11.404144217598887
-12.314862423077415
-13.253781683298827
-14.246498429068053
-15.290877728323569
-16.49247192244508
-17.897033671291247
-19.592105020563334
-21.593748284111314
-23.787043320589813
-25.98490011978009
-28.05747588764189
-30.055778937907665
-31.99425425388535
-33.88963227872833
-35.71507657503413
-37.57223701263277
-39.53332104865087
-41.50296301069347
-43.32405316682131
-44.85808828027271
-46.03688970429271
-46.93139269702959
-47.67803985753032
-48.31477722755367
-48.88264130959721
-49.32885680815216
-49.60156928287615
-49.6667688444409
-49.43861143268079
-48.84058325871523
-47.95507287767611
-46.943580477943954
-45.886304054386606
-44.7947427584385
-43.637283602784215
-42.39306196202311
-41.11070763718864
-39.67080566275728
-37.98271867665661
-36.12112879551885
-34.19398436983423
-32.43637871421495
-30.888469496215357
-29.43240854279588
-27.980718837888208
-26.41417040291552
-24.623021870200354
-22.604258960233963
-20.347749223034313
-17.86878055375371
-15.215631986319632
-12.51231280458246
-9.901704905360726
-7.370761716660222
-4.976907804836329
-2.7557143808752667
-0.7166851522171185
1.1258193247194903
2.7527632908175703
4.14394179160114
5.259449725820819
6.12119085908328
6.817712258069811
7.3417123882247175
7.661413105475016
7.762106320437524
7.667347510740521
7.348150001335806
6.7695251218256995
6.027665456709823
5.231282768737724
4.582745412492237
4.1774383691127355
4.049327845587439
4.087382929288068
4.0018342583604545
3.6677330132746753
3.1319773435895124
2.4808098261908036
1.709897121574913
0.7683561979435223
-0.33237135870521894
-1.3995593127199863
-2.366393592885543
-3.2996383940617586
-4.336785014706724
-5.558926532476589
-6.922472098674791
-8.349929786818773
-9.735278993490981
-11.01191153954243
-12.200794309570975
-13.210817446933703
-13.964762273444379
-14.583159682924373
-15.1644330837302
-15.717734343358249
-16.092003592469425
-16.479364221854148
-16.890741061394984
-17.049116931298084
-17.181168508788094
-17.377750905737646
-17.388355512536798
-17.09262696023203
-16.862912516343318
-16.833283855338188
-16.809435851577764
-16.61301621837825
-16.15922294997631
-15.503279254739782
-14.535488955892538
-13.209222735113524
-11.687139682875344
-10.095206116352307
-8.46956998393913
-6.983635701900265
-5.653478766407817
-4.477734100729293
-3.2511427752509254
-1.8797997220567413
-0.38738879059959724
1.2225294858372626
2.7317779550498127
4.043325998451933
5.123698011714065
6.107020311834524
7.1096028972952485
8.012418393196986
8.761351946328999
9.360595348827697
9.87251242922674
10.305563804764768
10.64366740444689
10.942615007913451
11.18298312799938
11.412602648942972
11.66509404666657
11.958248855637263
12.240321223313709
12.423489800088229
12.491140305228106
12.487417456233626
12.567148690999886
12.95966194157702
13.70005068958246
14.668405437702766
15.816027635453155
17.17611399216425
18.567813409249013
19.828128964116978
20.95290562157211
21.968032350570475
22.977398228178295
24.053357844865168
25.188635845559208
26.280526331666085
27.29065429529462
28.221257508637958
29.15970148224657
30.045742436581538
30.768932669431216
31.231455565008666
31.38817890284185
31.311841009301105
31.103620437348713
30.890203826934876
30.685200971969937
30.44194052554418
30.04974236196864
29.53628500740689
29.069913489161156
28.788683670763568
28.694707747683967
28.61941242349631
28.482621544031954
28.21946724582206
27.75410013086691
27.13275231054289
26.414133703660703
25.754821914391258
25.233250412548312
24.83266041105679
24.38585688228171
23.71590287808934
22.746969696689995
21.434321018388673
19.840053368892068
18.027793613853238
16.141612300197465
14.306827505578084
12.568486069119977
10.961609291127624
9.580083291746734
8.287794124800058
6.8782768463225175
5.259353440853554
3.406355971473244
1.526723273232673
-0.23510680918136198
-1.8006495520851755
-3.191853511000684
-4.492268127842532
-5.759422408546831
-6.97275559163329
-8.0480750717223
-9.08644173887365
-10.195707417022824
-11.419223855009555
-12.866308450718478
-14.54282592997609
-16.39977598161266
-18.445136196368377
-20.55497603943672
-22.543019007921757
-24.377912842942603
-26.13196948285142
-27.81767090800213
-29.44797718293733
-30.975024136753284
-32.29487591624357
-33.38548817458388
-34.304566145009375
-35.091382676654376
-35.78635176578796
-36.52159408204342
-37.3145506728574
-38.03128361657353
-38.63477874221206
-39.154657845038784
-39.57294399046544
-39.90356738665055
-40.12313784315093
-40.17201303988858
-39.96532945852241
-39.47744276927705
-38.78261170952075
-37.9651447560385
-37.11193859449365
-36.3026232412797
-35.60597558052077
-34.86900117014618
-33.958266464827666
-32.941560186529365
-31.958657335465812
-31.067637191925463
-30.239702950334685
-29.595375294442267
-29.00663421064105
-28.31682641884782
-27.603701950150715
-26.841659645333635
-25.997164225588293
-25.10900392163083
-24.071636788090768
-22.81559206832955
-21.497340583135273
-20.16454606046347
-18.899985108973215
-17.882785596645206
-17.25031152450989
-16.96123322626721
-16.83854344535753
-16.686337227429817
-16.417629472320957
-16.038159009034995
-15.47969161766065
-14.775436819884263
-14.042640241733455
-13.398613460566972
-12.952937479396855
-12.79780266368388
-12.906699633196038
-13.186219989025414
-13.567383541007969
-14.076172457303668
-14.740476159647061
-15.508168627068528
-16.253057072893576
-16.918504488895806
-17.428194744808163
-17.629122020118874
-17.540949771847153
-17.316393287268127
-17.118646147456836
-16.99580933881957
-17.091974011321593
-17.48436506364023
-18.0849029723194
-18.651403638450244
-18.938054296346763
-18.988431481852864
-18.866137095558866
-18.636166775828535
-18.3987933511901
-18.240180765275436
-18.233358597936448
-18.405448535382913
-18.72165167732123
-19.138053746087127
-19.68871648472207
-20.26576992990724
-20.762935621819892
-21.13010090200022
-21.363141474290625
-21.567145857643066
-21.771311269348065
-21.971321323623716
-22.211263918076817
-22.58948729082539
-23.12888644650068
-23.71930988736448
-24.237391831105697
-24.61392740015958
-24.858596524643016
-24.96176271360798
-24.87385522518856
-24.718423659850792
-24.52757389380156
-24.334843815935308
-24.25218514347404
-24.421530760097635
-24.77249784367098
-25.03481940083158
-25.105376207749202
-24.915719772428808
-24.498164811901194
-23.84663130898265
-23.00688711005656
-22.06739446640309
-21.033903284447224
-19.965221391902322
-18.917447230308966
-17.788527601126546
-16.493174719519523
-15.067016467836188
-13.538915905578042
-11.873615915385535
-9.975686398667786
-7.900909347962723
-5.639047720445555
-3.2084361398576196
-0.6846355875731056
1.763535321000603
3.965779520952412
6.179448130286613
8.5586886537745
11.018496298661448
13.600711123880684
16.498449406857922
19.589301126119192
22.638523240411885
25.646402626114373
28.66339040211738
31.812673390995567
35.09854735483574
38.424445984633614
41.64408375252785
44.64614223037606
47.23572899168096
49.3346271078129
50.96510688603819
52.21819195240135
53.25168331793865
54.10360572177736
54.902242724333895
55.819185196748855
57.07826651274174
58.617261629243366
60.27807686406617
62.0077511300773
63.72631057359851
65.31553362972595
66.61135095587979
67.61364750966567
68.34376072680934
68.88027808816312
69.33279835674726
69.75683656471263
70.11609175173909
70.31094703463039
70.41040022318212
70.53156704671112
70.75461035605771
70.78746022339337
70.47394438097311
70.23176498122903
69.75332171252573
68.90911665685317
67.61173946548506
66.0373918317444
64.8816630455958
63.429391419309134
61.72018907097252
59.67444782814639
57.609640190871524
55.88611346577858
54.02040218080758
52.14741318298433
50.03868320286828
47.860494766180345
45.78166716461661
43.77116136572475
41.52078123150559
38.807282393153194
36.013105477155875
33.52577809845217
31.406221056770054
29.55963701067619
27.977821553402656
26.780875690590396
25.763929657316506
24.596109326415252
22.998718105024526
21.15614622817391
19.345933788006786
17.446251009531572
15.353167432712738
13.326060741197063
11.690477034582297
10.344317555561062
9.039650324073596
7.8433429371872
6.927918852333323
6.091294520425622
5.058859333073015
3.7342653380239272
2.40749248233088
1.2111011176061954
-0.0748454336994113
-1.434501267023781
-2.54187908088754
-3.1588799388660638
-3.6133352789517064
-4.4313087301828284
-5.26519681029167
-5.734322847469576
-6.118820507764537
-6.943694844412956
-8.136454323813766
-9.0971800631466
-9.600182558793037
-9.661994516228841
-9.420768353702089
-8.806488575378822
-7.781929442103311
-6.699907700658636
-5.965593916436105
-5.616240344425003
-5.506339126730954
-5.560932331560475
-5.832587640113643
-6.308896702594559
-6.64649604945783
-6.549796673372157
-6.111748807364486
-5.575485934594861
-4.963832345018004
-4.206962786653502
-3.504434267116346
-3.121295568344596
-3.0256338586889417
-2.8845261654309664
-2.561515096261527
-2.21593740395566
-1.8603963076268066
-1.3609413578228196
-0.7032235083718714
0.01677160954081495
0.6215374741857643
1.112584192146798
1.68423029218965
2.3334397587047113
2.921802992973633
3.3728979734081546
3.792209100798701
4.239853105096369
4.6157842651697525
4.829124079854742
4.954954133566497
5.079754378158088
5.153325571067501
5.024449672292139
4.658018624521785
4.223230457994604
3.70839816456853
3.022483863297322
2.17676719711047
1.255402853329297
0.3378353705592196
-0.6307059696255274
-1.7275538472072625
-2.9559185843330527
-4.2662291309014515
-5.6988168745647565
-7.319041318773188
-9.159755542119624
-11.076644039722103
-12.882280832120546
-14.532471378354929
-16.051972990552013
-17.438558318367615
-18.708513809947178
-19.97110727930453
-21.29978973919851
-22.681942873657547
-24.053014436132376
-25.375732793130563
-26.669406396880962
-28.027198153291703
-29.449445965500882
-30.956168592664955
-32.61572662323273
-34.338426409737984
-35.945474010650216
-37.251396671152634
-38.20164508173893
-38.78961973853131
-39.02168883086126
-38.94404290880247
-38.68829653210053
-38.48974186082425
-38.43321864180799
-38.46758727906996
-38.50950361702332
-38.571655121236816
-38.61092357414623
-38.44322355645656
-37.98938249382684
-37.274544107308195
-36.4550319778432
-35.6143456612247
-34.80317285623732
-34.09858168837712
-33.523353202570426
-33.04549227608516
-32.46755298760518
-31.7037394702677
-30.77107832962944
-29.704391151066616
-28.542770180900273
-27.287143068803214
-25.983213925447945
-24.681808767523467
-23.37310971494699
-21.943417048804893
-20.34792489409617
-18.68903094323487
-17.01102545532462
-15.225852166963074
-13.246193462416784
-11.131035921971588
-8.998849705842565
-6.8382540634220375
-4.693158955726543
-2.754203937784855
-1.1407902768327105
0.20641934588468572
1.497455154539804
2.8041850910688333
4.1108453036260775
5.434787276361366
6.815492517550285
8.280135600794269
9.798902425937941
11.410759954431317
13.19834543222566
15.14626333100037
17.09993392498123
18.888805385785318
20.421218213515232
21.72548598559262
22.787271250029406
23.575189246985545
24.195360675143714
24.741167191662797
25.199521994507496
25.47772557618686
25.584811962491358
25.58145213342116
25.418866788199935
25.06096866135121
24.5416494467827
23.97281998087919
23.48532391854363
23.147653409776492
22.926776765580346
22.837299893933213
22.91001701516583
22.99820748528417
22.939027922998147
22.694535631270323
22.28638017519643
21.748456789089605
21.124626336137766
20.503838499972293
20.04883308334353
19.78128621477402
19.608596853832584
19.398608624165064
19.1630915742855
18.976776127934077
18.82356036068665
18.602179302753093
18.23696569370661
17.79019474012537
17.21124418575589
16.429239575477656
15.477593083740514
14.526635985971794
13.725012295267419
13.085809465753915
12.545024737409992
12.101226618697224
11.787702747178349
11.59176309461471
11.168479475363668
10.534881793292072
9.915440383056376
9.27566857140489
8.605390681261182
8.105388720468337
7.955328134468045
7.953638110574105
8.1282795055442
8.450734460559064
8.7927506586841
9.047181842020349
9.120576807488561
8.950554392065825
8.549071277350015
7.928306637332652
7.1400264517479535
6.325357457681233
5.526518024463201
4.818452350124367
4.180783494711495
3.594269439552445
2.9709251276882056
2.277319349708771
1.5768110206972565
0.8063224684582696
-0.09739727240767453
-1.0841567697021801
-2.0313743882110447
-2.9227400096499623
-3.7573477447885937
-4.5008490589358505
-5.013924174797696
-5.222931711228789
-5.169153816358225
-4.9751024129877965
-4.79396849331233
-4.65863003703395
-4.6956203528649665
-4.952911075829828
-5.3256458583505415
-5.702931132495733
-5.984386198131236
-6.147091848676359
-6.145783356214583
-5.990944604301488
-5.72667169640446
-5.433711897335412
-5.190977801772678
-4.974256169534101
-4.751520852750784
-4.514900536366806
-4.282311781111739
-3.9864759503118954
-3.5916322769031743
-3.058520683761163
