AAD_Filtered_TADAS_FILE
AAD_BASELINE_CORRECTION: BASELINE REMOVED
AAD_FILTER_TYPE: BUTTERWORTH
AAD_FILTER_ORDER: 1
AAD_LOW_CUT_FREQUENCY_HZ: 0.025
AAD_HIGH_CUT_FREQUENCY_HZ: 40.0
EVENT_NAME: 202302061024
EVENT_ID: 13207
EVENT_DATE_YYYYMMDD: 2023/02/06
EVENT_TIME_HHMMSS: 10:24:47.00000
EVENT_LATITUDE_DEGREE: 38.089
EVENT_LONGITUDE_DEGREE: 37.239
EVENT_DEPTH_KM: 7.0
HYPOCENTER_REFERENCE: AFAD
MAGNITUDE_W: 7.6
MAGNITUDE_W_REFERENCE: AFAD
MAGNITUDE_L: 
MAGNITUDE_L_REFERENCE: 
FOCAL_MECHANISM: 
NETWORK: TK
STATION_CODE: 3129
STATION_NAME: 
STATION_LATITUDE_DEGREE: 36.19117
STATION_LONGITUDE_DEGREE: 36.1343
STATION_ELEVATION_M: 106.0
LOCATION: Kahramanmaras_Elbistan_Turkiye
SENSOR_DEPTH_M: 
VS30_M/S: 447
SITE_CLASSIFICATION_EC8: B
MORPHOLOGIC_CLASSIFICATION: 
EPICENTRAL_DISTANCE_KM: 232.64
EARTHQUAKE_BACKAZIMUTH_DEGREE: 
DATE_TIME_FIRST_SAMPLE_YYYYMMDD_HHMMSS: 2023/02/06 10:25:07.1035180
DATE_TIME_FIRST_SAMPLE_PRECISION: millisecond
SAMPLING_INTERVAL_S: 0.01
NDATA: 14501
DURATION_S: 
STREAM: HNZ
UNITS: cm/s^2
INSTRUMENT: sensor = GMS+/GEOSIG | digitizer = 
INSTRUMENT_ANALOG/DIGITAL: 
INSTRUMENTAL_FREQUENCY_HZ: 
INSTRUMENTAL_DAMPING: 
FULL_SCALE_G: 
N_BIT_DIGITAL_CONVERTER: 
PGA_CM/S^2: 12.249
TIME_PGA_S: 
BASELINE_CORRECTION: BASELINE REMOVED
FILTER_TYPE: BUTTERWORTH
FILTER_ORDER: 
LOW_CUT_FREQUENCY_HZ: 
HIGH_CUT_FREQUENCY_HZ: 
LATE/NORMAL_TRIGGERED: 
DATABASE_VERSION: 
HEADER_FORMAT: DYNA 1.2
DATA_TYPE: Acceleration
PROCESSING: Automatic Paolucci et al., 2011
DATA_TIMESTAMP_YYYYMMDD_HHMMSS: 
DATA_LICENSE: U (unknown license)
DATA_CITATION: Turkish Accelerometric Archive v 1.0 - Disaster And Emergency Management Presidency, Earthquake Department
DATA_CREATOR: AFAD
ORIGINAL_DATA_MEDIATOR_CITATION: : AFAD - Disaster And Emergency Management Presidency
ORIGINAL_DATA_MEDIATOR: AFAD PROCESS SERVICE
ORIGINAL_DATA_CREATOR_CITATION: AFAD PROCESS SERVICE
ORIGINAL_DATA_CREATOR: network: TK
USER1: GuestUser
USER2: 
USER3: 
USER4: 
[...]
2.5563579716477363
1.6898555048219146
1.0314156989084264
0.17252516369240822
-1.0908430812868706
-2.1339660227375976
-2.6276905692032613
-3.027553509538564
-3.333519911220929
-3.68063291877918
-4.1257153506140005
-4.117667526309546
-4.286777740015976
-5.250040843964731
-5.827541605073878
-5.451475128669544
-5.334919934082662
-5.410941274914175
-4.788114013575714
-4.502560165369388
-4.539531144712175
-4.086754822620502
-4.108059641147587
-4.0829859897244996
-3.415182017315272
-3.135768768779234
-2.9359711254889285
-2.4063719936282215
-1.6615169583428964
-1.0690389685823984
-0.8479901351897559
-0.13723316670269473
0.5986805581617861
0.5231913091304928
0.41593352343020296
0.5186683735719619
0.5394502097311487
0.5387681200073225
0.4892421609536872
0.5559781627186062
0.5058283066248658
0.1509951077982564
0.03835301542536218
0.33516988236445533
0.5510034038893435
0.7179653860533106
1.517958408580168
2.062517068223494
1.6984039374201252
1.366778950524057
0.8750146677182636
0.26639017846955754
0.05172533526678745
-0.0441834903889014
0.17299816604530305
0.9019163301449098
1.7548615974050663
2.6884873020315565
3.782055953461564
4.718416358114484
5.4148924745395695
5.719926894267537
5.744633028201245
6.203975687177272
6.933780470748375
7.1410681080529015
6.902927766362371
6.539969688329336
5.647076406278501
4.42603446723775
3.296193126632203
1.9686459201071247
0.7586969041076919
-0.3155833469354268
-1.4788421118288346
-1.9908122648645474
-2.199119770521017
-2.8762241263490895
-3.3930690418140284
-3.765645571304025
-4.565934195883638
-5.6672208543248175
-6.623409609912944
-7.028831667353132
-7.381464294490473
-8.222707493007839
-8.896752410649253
-8.827969747933924
-8.726034912796745
-9.042279159754841
-9.17705097066715
-8.847530191534979
-7.997025013270016
-7.029247288475002
-6.307970976805287
-5.216367335387182
-3.8677696310457024
-2.8864177946188034
-2.1483599502055353
-1.7511247107476033
-1.674481893830076
-1.627200221730728
-1.8842763198645116
-2.12958626831567
-2.0797344612739024
-2.3838737164397275
-3.069803459793715
-3.5505472667454803
-3.9481624792985786
-4.624190793751532
-5.243440254928907
-5.709640421728976
-5.902235544410553
-6.053840359318169
-6.557844400586083
-6.3516381234642125
-5.35322926334846
-4.56764300460578
-3.9582282614585345
-3.3051452435204887
-2.600774179233678
-1.9682399409618603
-1.8773091227005199
-2.061941425782662
-1.7111940452682057
-1.6055185875298361
-1.6689762510306223
-0.9111263176063457
-1.079227966629638
-2.058052083133895
-1.772701849590754
-1.1622053508795167
-1.1476018022396415
-1.091572220859687
-0.5625945497248037
-0.2865505054804113
-0.7117297719164477
-0.9789614253687153
-1.022771570877895
-1.0260908930554076
-1.1442377247472768
-1.605768717319586
-1.7485497450112262
-1.5091734396099734
-1.8040651041806202
-2.0665832605063543
-1.8715635397119326
-2.4053957031756243
-3.1490449148134334
-3.7268222661663124
-4.772202317455843
-5.3241640220967
-5.231492592128628
-5.715697949935087
-6.3340976794423165
-5.9573892566225775
-5.527444876750844
-5.881703690143095
-5.993858801058366
-5.490781216155502
-5.142077450943383
-5.080525217044508
-5.004956025201293
-4.842449772908616
-4.704554276098258
-4.545261292050357
-4.118215140493744
-3.889083919451862
-3.600015862186105
-2.8401278834866033
-2.447651674983641
-2.106344255613724
-1.388906574590973
-1.1101474914498852
-1.1009561203120568
-0.24110714749594467
0.7899423551276891
1.0680515661031298
1.5943801120556091
2.2199293826834476
2.539607402470831
3.134377952723694
3.681500903125354
3.6398490502276264
3.307946307093721
3.2555139378845888
3.0834210908624615
3.0474354134891497
3.3030355371215707
3.1830509599694228
3.115431202511049
3.1657461985079327
3.189080935332052
2.8624262023183538
2.2576090179754416
1.9302878630439002
1.1769525801377438
0.12654271396776126
-0.2855623613859026
-0.13311996567526638
-0.1672251483710625
-0.6530406741586804
-1.1399800211964664
-1.5546583200483006
-1.617542251946588
-1.3924603587663285
-1.852193901050451
-2.487492972478137
-2.021569640384554
-1.4112018371765949
-1.879704810972168
-1.8505713024461383
-0.562545132590006
-0.2933715226792296
-1.085750151718337
-0.9825544000081632
-0.7056929567185511
-0.6345804076390646
-0.24661268562866262
-0.5550100489695349
-0.6635341349987333
0.1595235183629546
0.021949063577689713
-0.9422884964683677
-0.7892639103352197
-0.2307787573867481
-1.0538492879520396
-1.4570914509131223
-0.3302326005369974
0.08598851562043146
-0.14292930479084706
0.3137650926040138
0.8129798996731868
1.1114797764396604
1.748227761105667
2.304328046759503
2.6254218257335213
3.026272796668873
3.1148334174364822
3.1733096969425807
3.4754059236506034
3.187747524822436
2.3244628393447675
1.589015157817358
0.6364912193753995
-0.6620664348458625
-1.3987186777416745
-1.9589282547838838
-3.067199962420023
-4.118872462590246
-4.507732535304614
-4.4348891497514185
-4.471222181355273
-4.240143580332029
-3.638521798926492
-3.186789798485124
-2.9871146952831067
-3.2541987008388418
-3.3961444973632213
-3.3255153231998484
-3.776577680337328
-3.876823842368579
-3.3156547176552227
-2.7947404278425885
-2.1664195709275704
-1.8140471624717855
-1.7802751110138515
-1.3723656443627168
-1.0485100709520623
-1.2504960633413054
-1.3548606665146283
-1.166324447474976
-1.1271851180164605
-1.2645286132747395
-1.4616890652512713
-1.5158886389776032
-1.4739609391571082
-1.5223590480859883
-1.4974733514235494
-1.5067793949174495
-1.4377398080624855
-1.3624643064171773
-1.3350161070009996
-1.0664113888258486
-0.8299706511273217
-0.5489312811561421
-0.19483805827690695
-0.07917617930667765
0.3067654860403767
1.0504516181150718
1.2031003074283995
1.1623921095354919
1.577494570424992
1.6683149800548278
1.5266694398780918
1.417366457894042
0.9748532005585053
0.6940209966350082
1.0281808365443543
1.1712619426003446
0.7824201735892921
0.8858210854746066
1.2175180828362324
1.1298078034817154
1.4078308497754541
1.4182859970225175
0.4117081093522589
-0.1442550508925337
-0.07514983162791183
-0.35346858489542193
-0.8237878988211315
-0.9480828982627911
-0.6469216268731787
-0.698617608477423
-0.807830347909945
-0.48900363998936003
-0.40898363275259064
-0.34094756716863006
-0.10082601265984757
-0.029705520946330142
0.07800981547144294
0.49387454467042735
0.7026732031683482
0.45002656196591967
0.4820156982993978
0.5608054347589314
0.2494068342253543
0.5637213627284704
1.7595847797336335
2.6822224263028795
3.2429642189840364
4.052640464872564
5.000668472453509
5.85199214730535
6.159928891647594
6.0802292204884605
6.400834413541466
6.461660019212798
5.7729385548741945
5.5371662665162775
5.839087861445134
5.36487245603025
4.163377152256716
3.594974838522846
3.262423463421978
2.2916906267145065
1.8962426328200845
1.7850307122846918
1.0677191028703765
0.7153893245115238
0.6383434135729018
0.3448779351025894
0.22799857782496874
0.47812341189634056
0.715598761649546
0.6334960658965085
0.508177777580265
0.5928389201460399
0.8969441253913685
1.0254463314246116
0.8996672050817202
1.0894397647312963
1.2576025367131594
1.324869208216685
2.0314815434461675
2.8051167793557914
3.376290044867404
4.216201846331926
4.934897441432845
5.119457933107963
5.002687652534874
5.1857953456364125
5.008670804488565
4.101317580174164
3.3000122357514847
2.430414904588937
1.512180000054787
0.780541622111886
0.16402534076018457
-0.27719472218591673
-0.2976713369775542
-0.1623341084907225
-0.7192422845815668
-1.1442047873557
-1.2618081942717543
-1.9592429390192816
-2.684430438385323
-3.2133301362773494
-3.4091521574893195
-3.275825489358705
-3.296091892510236
-3.008763214541688
-2.338542411008749
-2.143047858323945
-2.3616113618596977
-2.269754532454124
-2.170802070359218
-2.4550223474609782
-2.752773669357565
-2.987880416587209
-3.46472102833164
-3.924677167081856
-3.851153950655007
-3.8220104460891275
-3.82601270142863
-3.162450700232953
-2.753927056377652
-2.8083980808474474
-2.32731402695187
-1.886752503468422
-1.9346872854364034
-1.6813842260724232
-1.3549790528465335
-1.420380797592694
-1.3943400723846933
-1.0984285113879646
-0.9142014279583587
-0.8613203038653882
-0.6279331155213685
-0.6787132624893847
-1.012392638844175
-0.8979140627603823
-0.8056842163364122
-1.1675068756951843
-1.756840582780491
-2.4655737935963833
-3.2839386394992607
-4.199988345315621
-5.033036959783246
-5.720769415361075
-5.872393431250007
-5.781960055061228
-6.109913347038047
-5.766034026825242
-4.733416552244805
-4.5084554105159125
-4.532429586848255
-4.004575472011702
-3.647305806448806
-3.432594836771726
-3.05753017238946
-3.3050920563380384
-3.94197925372796
-3.95438884883047
-3.9471347861505888
-4.258886622071881
-3.952713094236528
-3.119571298769574
-2.5920471424199443
-2.371585360554691
-1.8930203027920318
-1.1549749727060739
-0.7089490431782018
-0.5175359298543197
-0.02056009615787088
0.7125011952986988
0.9855839254607881
1.071459399539826
1.3246334457068842
1.177262949654027
1.3340556132519938
1.8499304442086344
1.6527566270324134
1.387606180840387
1.291475826318419
0.9614934512260133
0.5521460008320086
0.028752582073378597
-0.7340079929852137
-1.525475229066114
-1.7830046522021092
-1.7618537464050201
-1.8074292010732846
-1.76782445223138
-1.6865953720473332
-1.8640032757725602
-2.379707603590473
-2.7470375758249888
-3.2491020690713817
-3.7173147891278475
-3.5846351314932523
-3.58836236089233
-3.675933418787945
-3.1810549892955495
-2.569143844919363
-2.2979935331909407
-1.9325710770954243
-1.3518357225324849
-0.8322031819341146
-0.23668495999413416
0.3435183161495309
0.5318002428407932
0.6761794773782156
1.0841294725901078
1.2724331900689205
1.511641250088465
1.9362009363330726
2.1248146577455214
2.241736571515481
2.0807559157792284
1.672941756342902
1.5477787433464587
1.4263203798695228
0.8459538476381044
0.42548768345774807
0.11084125403999151
-0.6170002508338096
-0.8549609968393383
-0.7182115287428104
-0.7968318696281168
-0.6501417829058466
-0.5370640791135759
-0.7955038322714706
-0.7321451651327525
0.04324548041667485
0.9102518702774333
1.769171831756591
2.824534853091649
3.632898705105457
4.303578084026473
5.347951344019516
6.1322147019319395
6.409910499481757
6.967676800646952
7.2943084864176235
7.078777621244255
7.231947911012087
7.347343705921157
6.528845548891423
5.687572513529675
5.631662234811683
5.3579350268091135
4.454795002019597
3.81548560993779
3.6550364369485138
3.174056434642555
2.3722794111027974
1.887388308266183
1.4572431287327345
1.158396699738362
1.0807288282919216
0.6003924825524328
0.07183895538375708
0.06418499273499759
-0.004183467221622319
-0.455131678734126
-0.6740120394294877
-0.4960598459108646
-0.43372971927519915
-0.588625920884087
-0.4418470285538966
0.0327789903003378
0.13460953339782314
-0.2454935245720762
-0.6131679484540311
-0.9016480919893884
-1.3167127042276712
-1.5776621807994744
-1.6067897428282234
-2.042349886599076
-2.5503783691030146
-2.5291417596653023
-2.4755624953322526
-2.501256198676351
-2.5283109750527726
-2.564993483392811
-2.353341913223444
-1.8801371488031438
-1.3100558567891494
-0.8137108637974431
-0.41819934507367507
-0.23881943283342547
-0.18037226706576376
0.029368755160210747
0.1606943963190654
0.010449348310154247
0.008255395002072587
0.18686414919990593
0.10851966926758272
0.2548830830740555
0.565050455009523
0.49610582847023393
0.4813949158046834
0.5218226863913137
0.42693911037568294
0.33643305231518617
0.39302064378779267
0.6983560366490452
1.0537920542853392
1.4420792058479133
1.8303740699980082
2.2136301370957123
2.7693955586714947
3.3383944109275396
3.9212588592043547
4.571125757305209
5.089958922858827
5.759233236223585
6.629623892963503
7.13234035665241
7.292601323204781
7.483600924758037
7.731011837324124
7.784760120990078
7.507572236865975
7.078197220111929
6.325958890982383
5.117990217809682
4.1085884552594685
3.4824045980704854
2.5039206567446066
1.2546963757725662
0.18549773636944292
-0.9623322867286754
-2.1095806651129196
-3.1121566521312753
-3.9386587733891854
-4.3529124611733465
-4.530075492856791
-4.832874423105832
-5.231927252539379
-5.379076736575486
-5.402204000384417
-5.5461473668559576
-5.647903028213229
-5.7303129851429135
-5.834709966991897
-5.83245344114706
-5.716131294971207
-5.340089628098779
-4.40811048103633
-3.311776458232964
-2.203653303784048
-0.8349376525474694
0.5132222458295959
1.956026578464299
3.558498752502372
5.019938945906741
6.154630875120227
6.892031506358919
7.305008728579691
7.6729254665663635
8.146940722712452
8.272563676663305
8.37383389579248
8.866578148588783
9.199830263845904
9.368873095477726
9.540492982641808
9.648479946701826
9.738411030045482
9.693495454379116
9.879298734978004
10.703249000046574
11.444075593704602
11.725392139354138
12.072588038530332
12.256533383269659
12.093572959221897
12.145620504296211
12.209096376207285
11.838493436417009
11.410306354221294
10.976757508826857
10.230920738357089
9.223618308671266
8.091466803223032
7.110524500332379
6.161991960683847
5.135155526748245
4.184470870542836
3.0956231237522323
2.1928667626529754
1.4323464001825115
0.46982369390814954
-0.12513957125834288
-0.558021365130823
-1.3264295579085326
-1.97039292424921
-2.271509365434014
-2.2658303595673392
-1.985320847001539
-1.9592716071615124
-2.261585327613759
-2.314492581267424
-2.312671276472481
-2.8549748518478943
-3.4978310415512404
-3.8121522124698117
-4.3572632249558785
-5.092706158175529
-5.335395381000857
-5.161914615339799
-5.1307294635585325
-5.086623410244502
-4.733345827632512
-4.453487378236017
-4.221599926567595
-3.4993461320764125
-2.5589099571441416
-1.9189707563972473
-1.208850926662598
-0.3280206400517346
0.5309185805901249
1.2623880364310938
1.7162166567278296
2.1089349197863707
2.320385352821996
2.363705949357524
2.693649229892848
3.3804095252453448
3.9959659118514823
4.332189746613571
4.60040931452032
4.661575772324882
4.346871819175404
3.9524916242124695
3.7472992271178107
3.0310034508496746
1.6787432089030536
0.8944907691294416
0.2740902022971629
-1.1019840793559226
-2.204347017945688
-2.38641769608699
-2.7450963190868847
-3.821540203391383
-4.639361792839692
-4.504615927792508
-4.2129193663192925
-4.434353497498557
-4.284789025442457
-3.706267372046163
-3.559259523579057
-3.191003877835686
-2.4547211876946897
-2.143244543619143
-1.8664902998366153
-1.3789545973630768
-1.3067939585105353
-1.6809323506120253
-2.042556114366438
-2.482770971572562
-3.0818299244800293
-3.3757164325004307
-3.272345189134477
-3.4045482841899393
-3.368636730293069
-2.9582481197769845
-3.3417656679958605
-3.5669336165721046
-3.0879646765282374
-2.983297208875068
-3.0519903471765786
-2.991606597310708
-2.3745215031347082
-2.06179099162891
-2.3311529023536766
-1.6071178530742656
-1.094311957252248
-1.3638672517264065
-0.9116329389869067
-0.7401396512838498
-1.0697346841829714
-0.9954044561225944
-1.1009941692695515
-1.1816515868326374
-1.6261078220420921
-2.1017967233112844
-1.6866063708787613
-1.7879487143036028
-1.9755304131802256
-1.4351949242971862
-0.9055966578125236
0.07983606068224064
1.2968603862908972
1.8867361677717116
2.62093613209245
3.7427996586947025
4.305714435003285
4.40150251439519
4.9389752423952995
5.793300276374323
5.583953038255431
6.084717859187031
7.552790624951402
7.102007420741014
7.227022667855118
8.043302957591123
7.13418016528897
6.62421001958573
7.0408532530383905
6.970009203505713
6.617038860935926
6.959345497000204
7.280160325842989
7.278838414400085
6.541409149689448
4.371001056808619
3.122165079003242
2.526030300762905
1.4177552551583534
0.8556750036240975
-0.23578517720463182
-2.1115372979923404
-1.5431470385680068
2.065072839152352
1.3099568462658244
-3.3144963560262366
-1.2333654277932713
3.132343429953518
1.0680056966034388
-2.716292966950645
-2.722023882100467
0.7026747805528499
1.780488270308325
-1.2653087703879684
-1.497009452432895
0.9828286506373687
0.11970075112793999
-2.2717366074651277
-0.5415767722218621
2.8557353048781953
1.5697991798289255
-0.5048443801058897
2.709404363671498
5.2190957394462325
2.6860695754829407
2.707974271985289
6.239572748426244
6.762805766141107
5.745345659386024
5.511444848132403
4.750705079407624
4.140949127348639
4.765680694277854
3.5261724785883293
1.9436837114728656
6.614711245819728
6.822518074303935
-1.4419890123264492
-0.13090343155676565
4.4911406316848295
-0.04035593783979826
0.3563504998025899
5.9101270952800125
3.495426308862215
-0.5882648835721247
-0.44972630989301143
-0.9047164137948666
1.611833489573193
6.64792888401853
4.158515019737159
0.07068873060453505
0.7027399256236956
-0.714451004350844
-1.2182286936406037
-1.0929805017146428
-2.6069437451423436
-2.5072306455390967
-2.738726488523598
-3.807561626395775
-8.555621072376338
-5.976381664410525
0.5294364918712078
-7.89632111860931
-8.918309486085304
-0.6362733957280454
-3.2699973371145745
-6.208585909453536
-4.226312790400552
-0.3032628624981382
-0.5388532063084512
-4.27788426745971
1.5323928896935959
7.550766510268586
-0.17056711849577785
-4.984430543464719
2.8591026043942502
4.055083771931874
-2.7434934801344544
-1.679674675979393
2.4058025052865895
-0.4567513724547427
-2.556370758402498
-1.7341634725904682
-8.457473922893842
-9.564852689506257
0.005346036292849306
-4.292668336872445
-12.143549122212784
-5.816747949289936
-4.404937840788056
-8.155521308165834
-5.180244575996492
-4.549826178319497
-5.538747801309183
-3.549096693444478
-4.043069270467355
-4.923607679679668
-1.8170785472662727
-0.09968212195623163
-1.2804273664473707
1.1957987381323338
2.0151226738810193
-0.6156742987706195
2.820725522516053
5.159184538515356
0.42368519440150015
1.3107887590621843
6.162660749593141
3.271191252390118
1.7382049886605466
6.427063707816882
3.8994235079232964
-1.1548801409006868
4.511959673099697
6.156529263811166
-1.8511024978556605
0.36720871937825156
4.8962472650236215
-0.7462998556293151
-1.1705197310045954
2.6210463634064705
-0.06727769075207064
-2.936120044739548
-0.8101506844387383
2.7760326691883277
1.625440187660399
-1.753531084859077
-0.5806462511187283
1.560694441177643
1.3857984975895081
1.6031179716299495
2.0101810550042694
2.529241263625271
0.7746828058437708
-2.212448838646307
0.75315155699075
3.084937247213742
1.411782382190199
