AAD_Filtered_TADAS_FILE
AAD_BASELINE_CORRECTION: BASELINE REMOVED
AAD_FILTER_TYPE: BUTTERWORTH
AAD_FILTER_ORDER: 1
AAD_LOW_CUT_FREQUENCY_HZ: 0.025
AAD_HIGH_CUT_FREQUENCY_HZ: 40.0
EVENT_NAME: 202302060117
EVENT_ID: 13194
EVENT_DATE_YYYYMMDD: 2023/02/06
EVENT_TIME_HHMMSS: 01:17:32.00000
EVENT_LATITUDE_DEGREE: 37.288
EVENT_LONGITUDE_DEGREE: 37.043
EVENT_DEPTH_KM: 8.6
HYPOCENTER_REFERENCE: AFAD
MAGNITUDE_W: 7.7
MAGNITUDE_W_REFERENCE: AFAD
MAGNITUDE_L: 
MAGNITUDE_L_REFERENCE: 
FOCAL_MECHANISM: 
NETWORK: TK
STATION_CODE: 2709
STATION_NAME: 
STATION_LATITUDE_DEGREE: 37.128525
STATION_LONGITUDE_DEGREE: 36.670482
STATION_ELEVATION_M: 531.0
LOCATION: Kahramanmaras_Pazarck_Turkiye
SENSOR_DEPTH_M: 
VS30_M/S: 555
SITE_CLASSIFICATION_EC8: B
MORPHOLOGIC_CLASSIFICATION: 
EPICENTRAL_DISTANCE_KM: 37.45
EARTHQUAKE_BACKAZIMUTH_DEGREE: 
DATE_TIME_FIRST_SAMPLE_YYYYMMDD_HHMMSS: 2023/02/06 01:17:08.6216750
DATE_TIME_FIRST_SAMPLE_PRECISION: millisecond
SAMPLING_INTERVAL_S: 0.01
NDATA: 6196
DURATION_S: 
STREAM: HNZ
UNITS: cm/s^2
INSTRUMENT: sensor = ACEBOX/SARA | digitizer = 
INSTRUMENT_ANALOG/DIGITAL: 
INSTRUMENTAL_FREQUENCY_HZ: 
INSTRUMENTAL_DAMPING: 
FULL_SCALE_G: 
N_BIT_DIGITAL_CONVERTER: 
PGA_CM/S^2: 106.661
TIME_PGA_S: 
BASELINE_CORRECTION: BASELINE REMOVED
FILTER_TYPE: BUTTERWORTH
FILTER_ORDER: 
LOW_CUT_FREQUENCY_HZ: 
HIGH_CUT_FREQUENCY_HZ: 
LATE/NORMAL_TRIGGERED: 
DATABASE_VERSION: 
HEADER_FORMAT: DYNA 1.2
DATA_TYPE: Acceleration
PROCESSING: Automatic Paolucci et al., 2011
DATA_TIMESTAMP_YYYYMMDD_HHMMSS: 
DATA_LICENSE: U (unknown license)
DATA_CITATION: Turkish Accelerometric Archive v 1.0 - Disaster And Emergency Management Presidency, Earthquake Department
DATA_CREATOR: AFAD
ORIGINAL_DATA_MEDIATOR_CITATION: : AFAD - Disaster And Emergency Management Presidency
ORIGINAL_DATA_MEDIATOR: AFAD PROCESS SERVICE
ORIGINAL_DATA_CREATOR_CITATION: AFAD PROCESS SERVICE
ORIGINAL_DATA_CREATOR: network: TK
USER1: GuestUser
USER2: 
USER3: 
USER4: 
[...]
-0.048237802359714574
-0.0474892127915411
-0.04544609203925022
-0.050590619445467944
-0.04783488650563664
-0.04434238355638943
-0.04740507888057703
-0.04748002321135346
-0.04854549697991047
-0.048398798395738976
-0.044813249520710065
-0.047217248030882654
-0.04974367428379268
-0.04638274223918376
-0.04549503965717982
-0.04776048016616081
-0.048592875685943476
-0.04768340250971758
-0.04554623492264996
-0.046682993469788714
-0.047739195586067075
-0.045131225785953674
-0.0479198297505382
-0.04936877366608079
-0.04549918517224975
-0.048046962287794315
-0.04873654020661744
-0.045607064572335314
-0.04971839524209977
-0.04907959675688609
-0.04415632158871098
-0.049360007906016135
-0.04957799773535605
-0.04386579549107315
-0.04894207802880068
-0.05028353772575404
-0.04576202263113179
-0.04793628719607107
-0.04828739865546562
-0.04797790600668179
-0.04853389887332641
-0.04811901514342676
-0.050138887564678436
-0.04633143598953575
-0.04549648464449865
-0.04967713070031412
-0.04565388652837278
-0.04351924929177806
-0.041840550447433324
-0.04063927853383228
-0.04678079234996114
-0.05217195955690557
-0.06322243346896472
-0.07313229895489953
-0.06931445307728958
-0.05538071761098756
-0.026698116892327844
-0.014577800350945446
-0.03568050521666452
-0.03948589702759526
-0.024921224495591053
-0.030489610726433712
-0.046087236450456245
-0.06765734369041775
-0.09795402693633481
-0.08723761915340943
-0.021927480986026954
0.03997709323925039
0.056735280757088745
0.00594608448746765
-0.08831706090704458
-0.1579557840842148
-0.16359434180011662
-0.09595878181390592
0.02560100022135183
0.19316328376599645
0.30854222163425676
0.18390241176978364
-0.10547408370844191
-0.34036928682592393
-0.4094920771179522
-0.19665776479008554
0.2052280845423284
0.4544721009775579
0.4065431719638861
0.17426505616898233
-0.16280867240295208
-0.48793738377630214
-0.5020057684585467
-0.12103022984056344
0.3364224333038304
0.5569214431947423
0.40627366475175664
-0.1001844552835039
-0.6057827699616616
-0.5988640845132869
-0.09007627772282951
0.465777891578371
0.6703161506470199
0.34129445440544004
-0.186809393741985
-0.49232871276856793
-0.5262346218249399
-0.21676254149831414
0.25699817792395774
0.5074817851746782
0.42317349880085525
-0.02818324573380965
-0.5565073048894382
-0.6531271392787993
-0.2707259333543337
0.21562824778573192
0.43493998709575293
0.39293088355477324
0.2310327279667715
0.051306888673636156
-0.04327464925364112
-0.21884511553714825
-0.3076699715194881
-0.12932310889654397
-0.10595789315019047
-0.06097087110545782
0.03974893241248181
-0.13094058908805736
-0.12405526279879359
-0.4450268056892097
-1.1046229503032947
-0.5766408128859534
0.425752329892934
0.7205479353881559
0.5747551763926357
0.1081019043146613
-0.01669567741066708
-0.3212150659421147
-1.1160884925801056
-0.6952797023485285
0.1837865160556832
0.4060849391254391
0.29296700119452723
-0.7119713216397031
-1.2601228024465982
-0.5793009726621141
0.20253263794429702
1.3210457698953124
1.6363150882364912
0.6034404750260931
-0.4221003035022448
-1.5515739656459147
-1.7931645514207262
-0.7301796240190107
0.2160019045846054
1.0655660865259189
1.11649502717334
0.45699237015951255
0.38235360822407527
-0.0560156912526634
-0.3831471297443599
0.14158071253726429
-0.11553768459882083
-0.40085378909188707
-0.023259566468060464
-0.4010850703037698
-0.20357958545476956
1.088193679311996
0.5285207585833727
-1.4555648444435685
-1.478630265465198
0.29407489621993393
1.3511029494354103
1.065543462164977
0.56687344564425
0.6692349770768214
0.9566544993706483
0.7749021462285665
0.09063684461378302
-0.5198600514176014
-0.31855323866415364
-0.04789695649991181
-0.5913630216554633
-0.8835313664015616
-0.14720729922429115
1.1308845884572554
1.2414796150834708
-0.11771929222965458
0.3101314633602334
1.9520980798942167
1.1562115621415243
-0.9203265628563274
-1.9811152926767153
-1.3262181569724898
0.4812041908120042
1.2984655509650807
0.7722159221858532
0.1315909468256701
-0.2123424448254277
-0.7583611066133259
-1.0587123423936364
-0.03319054781599898
1.1760363887594598
0.9753759226189416
-0.5772477113461962
-1.0729270250857244
0.9412720481966984
1.7584480950773167
-0.05388175090290923
-1.3521304160310086
-1.3101560394900933
-0.6387026533430051
0.07449479147515164
0.2761191525506439
0.05813496096872331
-1.1697858414622857
-3.7058577409920934
-4.879576990786151
-1.977572925691435
2.9116097714938194
4.976572160090963
1.6704946818661746
-3.5504963143072
-5.253864030071599
-3.801882005984323
-1.9807623838300674
-1.1286585131251072
0.2466526593816119
3.686747294589741
4.359174029464179
0.5014897657887522
-3.5689498790905128
-4.8687773481389724
-2.0980609582461436
0.5036010235477141
1.2676580173325063
2.780817184142465
1.4973860337373874
-1.243208406735565
-1.2389930153232678
0.33233960040596977
4.732385124333459
8.227171971552378
4.388010003334938
-2.123701206269524
-3.738028154394126
-1.468710235633091
-1.111147294182959
-2.1907663597694573
-1.5988081217794892
-0.9180343009015082
-0.32759757866956535
0.8806790354474753
2.7514996964656597
4.164217074961058
1.9701436667280674
-1.4497873973033557
-3.190372329611854
-2.6764489493281625
0.6942186917383412
-0.2764711435113545
-5.216456657741809
-3.6106900417665435
1.663799620915636
4.934021328659839
4.965094223857865
0.2728249336290799
-1.6848517081855243
1.5798555791838438
3.1276764647316138
2.2003524821024394
0.4361171062846555
-0.4860393345371676
-0.9322289907506085
-3.0746144177293893
-2.7601155566323587
1.4679821758310312
4.111673889608791
2.158115995834391
-2.2867586680507754
-4.582143335580782
-3.142121892863837
-0.4061898397102621
0.2037430656330653
-1.4526083603231708
-1.8966437136730403
-1.1000929453058383
1.2976351587281834
4.973585271990236
2.877299285580759
-2.1671651006702692
-0.5380680848237388
1.458401339861456
-3.6162883807119535
-9.603456940274635
-11.0165971755104
-6.368966440325344
1.4893603962179502
3.455363739680066
-0.44450728714665627
-0.811447297081888
2.7026075517401447
3.676747685493579
1.155425481556585
-1.5602454533369403
-2.2431854023321094
0.11271880665901847
3.736387501411314
3.308754720606475
-1.0197062954110143
-3.2466235861966966
-1.3273657049011014
3.5398115015711604
6.991907825476602
5.309752999396506
3.232668167069059
2.407250340625498
0.8471058802111546
2.878373474613067
5.414692765118522
1.8096737914148886
-1.8257634437559596
-1.4035554940130872
-0.9689843069894822
-1.6486537571237414
-2.60548221562043
-1.7550978420923928
1.49077355530128
3.226842413074485
2.460308076149396
0.7798028766336271
-1.4171757324920782
-1.9833236549046611
-1.6598583636622937
-4.122087764692341
-5.119001438961882
-0.5060354086465829
2.291191348748576
0.018568237019685553
-1.4360389945585428
-1.5002296557697545
-1.5686077062165813
-0.8887509010277059
-0.49525446958802116
-0.043122790468379066
0.46064877881180777
-0.32761055046859033
-1.104675507730512
-0.5141499765907996
0.529458203605862
0.003834494374149365
-2.4206232109952404
-2.537711864956421
1.6079560376441908
3.4344247105124217
0.07887034541283874
-2.4641286885503426
-3.0452845058813818
-2.866327717367572
-0.5982675379653547
1.07040632812374
2.132458112167452
2.913426747184113
-0.9507172259310146
-5.13717575344217
-4.5831504498194215
-3.6224350364222215
-2.304567030883011
0.5923624829388568
1.5800751434573819
1.4884492109113554
2.193160572591746
1.1716388224948517
-2.2339479771216673
-3.2232776105217456
0.12786932479537516
2.550578319688661
2.5329802313755954
1.4154176059371488
-0.9393804937866759
-0.012113462147809749
3.111346042330881
2.975714889774106
3.5776000030171446
5.412689155031226
3.3076978245302944
-1.7353062707078633
-6.860794278846285
-7.961937591268623
-3.1998250722262127
0.5449231558670125
-0.012553097933960679
0.1367668521488119
2.10558354336449
4.056690012451032
5.458452491078451
4.077005925861262
1.4104621559002195
-0.5738460365245568
-4.686247384862275
-6.978909285598465
-3.7499792544118487
-1.1065642394872417
-0.66395517485615
-0.7037200360591884
-3.0402883244401098
-5.6258916882607455
-4.318500570083645
0.10087010720677675
2.8117041708552852
2.485958927545665
2.146299719930532
1.6778531353170973
0.32145019964387633
-1.0353276950535575
-2.2723110107201925
-1.7454545013784315
0.10460560028445513
0.2632182388878779
-0.0050017926428094425
1.2921091387309733
1.3795844428929798
-0.7166128239162394
-0.5661060860868047
1.4998797737564835
-0.02833190140319492
-3.8075467914221037
-4.465067395457842
-2.186312068544479
0.11235320668622495
1.7997482149338822
1.761434781039946
-0.05514738248094568
-0.9301326908094342
-2.451525320920361
-3.9278570980138867
-0.5040846137983254
4.074458347244622
5.759765095343246
4.691026362887397
1.2834708085868272
-0.5630099327499934
-2.2585251818908456
-4.674687061804672
-3.2432232377145245
-1.0012414648633012
0.934523212296966
4.024654101690871
3.8138665799803393
1.388499380047107
-0.436607514475649
-2.078043631874755
-2.5537626969380494
-3.3845085571482874
-4.582234832548407
-4.3259233477878265
-3.0190344971643914
0.20805583235086603
2.9408927810538574
1.8176747637536614
-0.0365007619139281
-0.48470241595547925
0.38661300213709004
2.273527986863765
1.2494858472191683
-2.129086617518351
-2.995916492051738
-2.188090968524398
-1.1021923578365524
-0.21424056433753397
-0.6973963639194751
0.15445972213882794
1.9756390275534124
1.60311876282219
0.6530791006917657
0.7253487704685039
2.393892095060473
3.554265428166156
0.9272297845388313
-1.5331187617497808
-1.2131304468065254
-0.6563248610233705
-0.22074058402019134
-0.18604011549640145
0.9611528392452711
3.6343432347728606
3.4945491353718774
2.100726289752799
2.859916057653073
2.2261592311541656
-0.37219233752008035
-1.461849832948018
-1.7353869860664215
-2.424536869432059
-1.3753069524104644
0.9490532267253712
1.061790988562763
1.0456623936499627
2.7843221939536336
1.65793874099884
-1.243684992370158
-1.962969365440935
-2.3631806785249774
-2.108750701193977
-1.3237386060901208
-2.312874567196505
-2.9534656779284876
-2.571693015614031
-2.384494004747061
-0.5793952056985696
2.4910070999509135
3.147926662222807
0.8413609340036522
-1.1474415993140712
-0.35767080088248904
2.970191087518829
5.348970463539954
4.3926858766422665
2.130970561042348
-0.5555736338069844
-2.2607169610007767
-0.728008251521928
1.4688642870710507
2.5902373106437864
3.0396263495358116
1.870476555579117
-0.015490004430902676
-1.2871618832140106
-2.040620305938704
-1.896525911582733
0.089810234568373
2.710946093167116
2.706322358233675
0.8199270976078434
0.13460541314490004
-0.051194925413317084
-0.3318681848550781
0.9852154843471873
2.0557277913617824
0.8497311696366161
1.854596480457735
5.712373742777468
5.662340216559545
0.8787959434396286
-3.1153301443648345
-2.781363811625111
-1.633138769155667
-4.7203096458486185
-7.3198319139447
-4.408953633923124
1.7313965797934627
8.129827619924422
11.960090882216168
14.57823420237686
15.19595563162616
7.086743942467878
-4.256606983587078
-8.416704435010644
-4.6165075506930675
4.7411350063570765
7.620882710806417
-4.644324082225867
-15.076583870488141
-9.573973949662793
5.389050958839512
19.403592615057025
19.378503138717385
5.2579229416164575
-3.516275470197763
-3.8349844464333365
-1.749252151018716
9.258905175537663
20.257194396133265
16.874061006495726
4.93636112133354
-5.6024507456108745
-2.5055643844410707
7.999698990887488
2.318869289228194
-5.078172101916645
4.036673480319876
16.026205888884892
25.91986464570418
23.269511632273016
4.574570377490423
-3.3405640886214996
-0.8288675852620124
-4.917458178934527
-12.483853735681107
-15.640933084213652
-0.8204182468044443
21.33361578223946
26.87150236952744
29.054814613915966
31.99101676179548
26.07278594719606
20.662162008866353
4.9329977775868015
-22.183267486187265
-34.8661602358458
-40.41298951180934
-45.05217287245376
-29.880498172755516
-0.8054319410125146
28.747597792799507
55.60720189593521
58.523295610083494
29.209678651393446
-3.21057618015274
-30.077964581085826
-53.785752625659455
-41.29464387968581
3.1345886826198037
19.11066842758338
0.01365832841638142
-4.507390343650282
1.3601666289108256
-23.749358879515356
-58.37635724379932
-61.078163662076356
-27.072488622899158
20.799422549207772
28.813444799247506
5.260550437312439
3.8292764927112577
5.74912351502291
15.701950871461362
48.07418397325437
38.7718417284871
-4.29546181011586
-22.41292962369905
-36.208417366738914
-41.31870812490913
-11.289655133281268
6.726448963563013
-3.3452624620824194
-15.652250218002902
-48.02768209381807
-60.52603795557482
-2.3776745194826607
56.454434096062926
79.07577338860588
70.63706818533001
-8.280256106029233
-87.23371539253291
-59.27531198319791
28.993663431642076
84.64716802737193
62.94950473950822
-27.061422781813363
-100.9947461410908
-89.63751410776666
-34.011455822070296
-6.3024756987045585
-1.8695062469726889
14.471658390847283
40.91799809340042
47.94068608437699
14.782348715575926
-15.01033680152352
-2.9979882691929434
-6.673283510548584
-43.48474766645408
-39.25964148187066
5.961326637452937
32.91790293158703
46.54212192980424
53.88913436298065
26.051288747862312
-25.51066036870696
-55.62449132456736
-34.34358431996917
10.374151446585303
9.34497068542423
-11.98474141173691
19.752996972900533
54.771370016693034
33.12096799932584
-19.17282259997212
-72.37962716195909
-76.19777081350938
-38.37360364321725
-26.985126327257188
-2.7174534054976207
33.72346307145671
21.216530796891284
21.17852593091634
40.030742091105054
19.281678650004476
-7.767183979910026
-22.12362903419719
-20.169975903699875
5.777747961964987
24.592891608938864
34.13059569978026
29.163777928063524
-14.793972775186777
-44.65979472012234
-19.646629863750356
-1.1940979893233998
5.522472668598454
30.991705571370883
24.34073482534126
6.306087956495255
14.078955774045381
-2.4515928927965196
-13.226204366224476
-5.706668397298504
-28.334820367641086
-36.06749810266925
-16.653992051030897
6.255992808436473
30.19021479193663
3.4670905041916615
-29.29181184278847
-0.1270518127238704
21.04869996829367
25.351088607499182
33.952728773292534
8.156600365859362
-5.460709831791602
9.630629955829454
-1.1607125963267553
-17.083877306412063
-27.391151419244217
-40.50448685703629
-36.85346490774876
-23.47541897604257
5.218957475015989
35.71416645261157
30.408693698849635
9.445181606484407
-8.224795506155093
-9.697973319402495
14.965659919836238
31.362833804781246
38.07262021414194
40.85726071105653
23.99339074186206
6.5438690333410765
-18.16961932107469
-49.24891146339466
-41.148724666780566
-9.509101165947515
4.250815817209088
-2.6486115669437273
-20.913173228560595
-21.232843651803666
6.488911157897281
19.64398089739803
4.085500393881534
-3.027832555414657
1.9429264784211324
2.5663621261596172
11.639090905420852
19.544136939558683
12.609863288712681
5.234022952630372
-3.437341651785805
-0.5073508600722063
10.933138152786466
-12.136531046380561
-46.80895092646338
-59.66414338134396
-55.58529162640482
-9.178018724551421
52.16784150646505
72.67806521154705
62.817282704822674
25.566775393334524
-19.73345151092935
-29.408603743314988
-16.272466990654213
-0.9151674259221941
7.551121437950901
-1.6543621828510355
-11.127429916942365
-8.449039379063052
0.2620183636428686
11.69342994340554
27.532702585316578
46.037611994144356
41.21641868381373
7.469274674436437
-21.669306702690267
-39.73588704127025
-44.46913372939925
-22.25343841284644
5.865878922670475
22.54661266219695
26.851527638073055
13.583198547547429
-0.7495372004874636
6.611109756843469
28.222420953302652
29.707597954040995
1.0105960743733289
-23.592461347716792
-20.720342110625158
2.087673005431454
12.99787964350497
-11.903946601976127
-39.456167269849225
-39.0985905327158
-31.250996772059022
-23.9216441059306
-3.839671518436445
24.62045357234146
48.25399558063249
41.91032559941512
1.9237293969002704
-18.454956816614796
-11.797409593519282
-16.754899428371385
-13.535506491143186
-0.601628690197251
-7.323603012604229
-7.1317930855483525
9.312725936017149
12.204941851106456
6.776899615641996
3.1464317244195543
-8.068486874316012
-16.523529167986922
-13.575896028520136
-9.119100808849195
9.624364479291254
30.66631408428352
0.03715235710479587
-49.4751230223758
-41.44723129496602
-13.173440041202753
-19.682995077987286
-24.826785336771646
-0.054272929655595964
38.36917946189451
62.85455963768147
45.94517466798562
5.85834204811105
-31.7433104841
-59.64175010175228
-39.94173022172917
15.594128288392684
50.81725877278448
67.58408664154646
58.368101542898465
22.17855106553417
11.074957102528977
11.756333266008259
-12.186698879358447
-28.336949370975674
-25.221119009282177
-15.853713836530584
-1.5487753858522681
-0.15303349655478612
8.22883855437197
40.91577667336251
36.59319344207482
-8.479896315243016
-28.647855248687396
-26.878916099645977
-20.62835897044738
-5.124380136364056
-4.451774843675736
-17.276000850777987
-17.071478564965194
-7.7174876773089185
14.8057531294121
44.36140416154112
37.73565973283744
6.941183059806022
-15.76865329593342
-47.61475828330023
-55.820695106760375
-10.615514757898332
29.454536046678502
43.23685673169083
28.092439600846003
-35.910027194464995
-78.20124913124123
-50.174961403537765
-8.739948702191395
16.932695683742285
13.42337983660128
-22.349202794718536
-27.884315657394133
7.0146017160883085
21.29154373990288
-1.131797310148408
-34.20102209714726
-47.544641451745576
-31.842383355266605
-2.457090973871803
23.816693917116854
28.479409987211827
17.70889186409552
9.472336667814305
3.0786661324590634
8.395864225744472
18.956066870162203
15.20660880594683
10.612773675172262
5.503957739546255
-5.37405938813716
0.03789327902730038
10.526337746795576
-5.238051814395715
-28.103294508175665
-27.10676011615201
-18.535762276674674
-16.028774314186382
-4.045600438207169
6.342707110970455
11.23053318556392
29.64078789369225
31.265440392397974
-1.3958509236999415
-34.27406122620379
-55.52571142638091
-52.8471233172716
-28.018210035339255
-18.039137577797693
-15.681727167293065
-1.2571020736951368
15.306306447396068
19.533205702050964
-9.251744809531209
-44.9458099195184
-43.378897820154606
-24.53436460788452
-14.982649221040345
-9.188204493724424
6.419910502783606
25.833937291368247
23.45775020312383
3.5898815678965725
