AAD_Filtered_TADAS_FILE
AAD_BASELINE_CORRECTION: BASELINE REMOVED
AAD_FILTER_TYPE: BUTTERWORTH
AAD_FILTER_ORDER: 1
AAD_LOW_CUT_FREQUENCY_HZ: 0.025
AAD_HIGH_CUT_FREQUENCY_HZ: 40.0
EVENT_NAME: 202302060117
EVENT_ID: 13194
EVENT_DATE_YYYYMMDD: 2023/02/06
EVENT_TIME_HHMMSS: 01:17:32.00000
EVENT_LATITUDE_DEGREE: 37.288
EVENT_LONGITUDE_DEGREE: 37.043
EVENT_DEPTH_KM: 8.6
HYPOCENTER_REFERENCE: AFAD
MAGNITUDE_W: 7.7
MAGNITUDE_W_REFERENCE: AFAD
MAGNITUDE_L: 
MAGNITUDE_L_REFERENCE: 
FOCAL_MECHANISM: 
NETWORK: TK
STATION_CODE: 3121
STATION_NAME: 
STATION_LATITUDE_DEGREE: 36.66408
STATION_LONGITUDE_DEGREE: 36.21825
STATION_ELEVATION_M: 5.0
LOCATION: Kahramanmaras_Pazarck_Turkiye
SENSOR_DEPTH_M: 
VS30_M/S: 271
SITE_CLASSIFICATION_EC8: C
MORPHOLOGIC_CLASSIFICATION: 
EPICENTRAL_DISTANCE_KM: 100.90
EARTHQUAKE_BACKAZIMUTH_DEGREE: 
DATE_TIME_FIRST_SAMPLE_YYYYMMDD_HHMMSS: 2023/02/06 01:17:29.4475900
DATE_TIME_FIRST_SAMPLE_PRECISION: millisecond
SAMPLING_INTERVAL_S: 0.01
NDATA: 12501
DURATION_S: 
STREAM: HNE
UNITS: cm/s^2
INSTRUMENT: sensor = CMG-5T/GURALP | digitizer = 
INSTRUMENT_ANALOG/DIGITAL: 
INSTRUMENTAL_FREQUENCY_HZ: 
INSTRUMENTAL_DAMPING: 
FULL_SCALE_G: 
N_BIT_DIGITAL_CONVERTER: 
PGA_CM/S^2: 0.100
TIME_PGA_S: 
BASELINE_CORRECTION: BASELINE REMOVED
FILTER_TYPE: BUTTERWORTH
FILTER_ORDER: 
LOW_CUT_FREQUENCY_HZ: 
HIGH_CUT_FREQUENCY_HZ: 
LATE/NORMAL_TRIGGERED: 
DATABASE_VERSION: 
HEADER_FORMAT: DYNA 1.2
DATA_TYPE: Acceleration
PROCESSING: Automatic Paolucci et al., 2011
DATA_TIMESTAMP_YYYYMMDD_HHMMSS: 
DATA_LICENSE: U (unknown license)
DATA_CITATION: Turkish Accelerometric Archive v 1.0 - Disaster And Emergency Management Presidency, Earthquake Department
DATA_CREATOR: AFAD
ORIGINAL_DATA_MEDIATOR_CITATION: : AFAD - Disaster And Emergency Management Presidency
ORIGINAL_DATA_MEDIATOR: AFAD PROCESS SERVICE
ORIGINAL_DATA_CREATOR_CITATION: AFAD PROCESS SERVICE
ORIGINAL_DATA_CREATOR: network: TK
USER1: GuestUser
USER2: 
USER3: 
USER4: 
[...]
-0.009388364920866532
-0.0024864818386660563
-0.0016797710829321022
-0.0068507103994226715
0.00419017853279102
0.011044199534503366
-0.0024502044793949644
-0.0012540630296284099
-0.006624051205108561
-0.011138068247782979
-0.003825099200847435
0.0026748640958890154
-0.0022246458128566834
0.002087010013618073
0.003519001361018767
-0.0037970078733796193
0.0024283571859450943
0.014230543143632469
0.008422039209161567
-0.008155464408592827
-0.003336127533274054
0.00375042970055677
0.0030869894763338166
0.0011482507446757219
0.00780357947690141
0.0037195346363375088
-0.006009872053455769
-0.0030896393922415144
-0.0009370347932812106
-0.0006680043785051372
0.0007845351466966161
-0.0006370647679559482
-0.012390446054444839
-0.011829083618977327
-0.005961073674097933
-0.00847693948874539
0.003258651331588398
0.021105038843175807
0.010845088901751709
0.0010632426388563036
-0.006896747603739268
-0.007597134538391675
0.0025327834990261223
-0.013060676028634846
-0.005780192435972048
0.0002868546850904809
-0.011647428532130154
-0.006458908588789204
0.001353937117767192
0.013712831328963507
0.013520825223125563
0.00337743196566901
0.0035367525962439754
-0.012434490524606429
-0.01834937359422937
0.0014913427183701365
0.0043300409020056605
-0.0046106380910634044
0.0028961737594340536
0.011096398565757752
0.009395890191049095
0.01069173851729726
0.011822212739702239
0.008950497830062352
-0.0029955569012660313
-0.006442089910560149
-0.001497876565410011
-0.019209375407749158
-0.022181413025725672
0.00048173018531360033
-0.0017427793428157344
-0.0031024911871715788
0.0041758401084210145
0.01203515276342714
0.01526974375446085
0.002471515855271905
-0.003277522749281261
-0.003068279965247857
-0.008612445444431287
-0.012806140735828205
-0.007920199453028614
-0.0022188575140032435
-0.00828913054838518
-0.0072242999005042476
0.0026874059126529236
0.010799568025521407
0.01413553892533492
0.003103967426152923
-0.004679399289626101
-0.01069289021225563
-0.01237339226885074
-0.005817338574482429
-0.0011973290256046833
0.007572503009936457
0.0017341065392545302
-0.00687140901704165
0.015671086192771383
0.025723507629765722
0.01623990260661094
0.0024201753221626747
-0.00031339860461102184
0.0015315678012871674
-0.01506510134383872
-0.014984355189440085
-0.010906261294752776
-2.2309660114833884e-05
0.008055921584391598
-0.00015482514215567691
0.003339934049087105
0.0099490882291278
0.00043912940155905534
-0.0015314808040717601
0.01286030708175819
0.0073258764450174615
-0.0037170641301665286
-0.008755574074202714
-0.0011807761300734135
0.001549474640793201
-0.015043367226933493
-0.004981878639694549
0.006021479494743846
-0.000949825192018025
0.0025976207065219925
0.003510397781523338
0.002356824030481436
0.013146924696142575
0.01057857777397958
-0.008786197234915076
-0.016387252500951303
-0.014070700346165543
-0.01181286584486299
-0.016563320202911583
-0.0011763212849727881
0.018226960061063294
0.013535294050049903
0.019518666273615343
0.027546076446427217
0.014096949828945266
0.0013915289103588883
-0.00848575535698705
-0.011836902885693093
-0.013280858634289268
-0.020455981321281833
-0.02038894647908161
-0.007669030067112638
0.0028969279655022733
0.017935713177395507
0.024538090317027576
0.018626537026949948
0.016143597330705254
-0.0023704163723412513
-0.013141476260765839
-0.014892651955632158
-0.02304214149245658
-0.01952428703903919
-0.0024358755174864475
0.004307650229268032
0.017883679571686583
0.023188994687309814
0.020436115964117336
0.01679590074375051
0.008171248219999927
0.01049605803239082
-0.005458493253148186
-0.026826204797838194
-0.03245855107577123
-0.028836228844852676
-0.0070141593264674024
0.010945259094180811
0.016760060150104585
0.024880486967456154
0.032035452178965126
0.014027606805675318
-0.0015774032955576396
0.0015973710733608948
-0.014994607230318277
-0.01786560406534199
-0.011372228590227015
-0.01419329298985336
-0.0020619167602112225
0.0013024235762161892
0.012294125806961728
0.024371976280422942
0.019759946135362434
0.016159394796181076
-0.005642884380034513
-0.022447887011452505
-0.015890496981708465
-0.01351537817757361
-0.017414057035207757
-0.007449949277035321
0.000886624762593909
0.01003109973263674
0.02305294212605511
0.017963983753176704
0.008031496556289828
0.005123340749067333
-0.011333546209370599
-0.022903206213968665
-0.016511226565076552
-0.002025974725619565
0.008762534574824331
0.014825919370540543
0.015110614292369234
0.010165338267376166
0.00993321912774187
0.005717102907565247
0.00013372940831440902
-0.0011108168616535002
-0.014087536610141178
-0.021748364127345356
-0.0064575350599240435
7.523860273858559e-05
0.011500388940586375
0.024267080610257685
0.014768073854538242
0.002774434524186419
0.0016065055205653593
-0.004382820342203206
-0.0033684158447596347
-0.0029688796114418193
-0.010424824253945525
-0.01227980868581281
-0.014710604695288463
0.0006267894564808327
0.016874797311341106
0.010613928241219301
0.015133380967544132
0.01393365354598611
0.005436160753265185
0.00384545858739431
-0.003749702456700308
0.001029015972618846
0.0010923268885628943
-0.0075637152987778344
-0.00019465587887131393
-0.0005383429917888804
-0.0014966799689507583
0.014195014385877095
0.009130787172103827
0.008281260463204909
0.007786291770965331
-0.00014839586130570138
-0.002238349200294225
-0.00956444887963833
-0.009899769247292014
-0.005168075259146074
-0.011419364239880533
-0.008213260224068401
0.006056933152753063
0.0037766840764149427
0.004474036076288753
0.012503083057846955
0.009978147775877343
0.0035246464366992594
-0.0004616698672327783
0.0008862905981039932
-0.0025241770639358257
-0.007590335053483047
-0.0056763392633908515
-0.005955089117382612
0.0007802908871705662
0.01119259737171839
0.017895603542192207
0.017393681078435343
0.006944638256544004
-0.009765358769674961
-0.009412511350772122
-0.006393385416098823
-0.006098769756925436
-0.00010794193213043439
0.0034252695367136053
-0.0011024963379487273
0.001429714297654606
0.004449275410230759
0.007894193965428278
0.009753937555589237
-0.0005165369863617714
0.0015314034791279517
-0.0029169090780048388
-0.00949615881731741
0.0034008372403760007
0.00545549722651058
-0.005585015596777053
0.002764908596648219
-0.0012608235835472117
-0.008739246260919997
0.0009836790053168985
0.012599135403871633
0.013241898894455421
0.00539605093905596
-0.001743970529251941
-0.008090833487843103
-0.007112855809622795
-0.00668592161692139
0.001053023754028497
0.004828920804680598
0.000402202002424574
-0.0027926378607556635
-0.00252275233870854
0.008916483531957193
0.008523170528236071
0.005299752155267828
0.002388766461287845
-0.004530776720468313
-0.0069003017395848345
-0.01656905418325707
-0.01546941414901286
-0.0035140679086281637
0.004480907298237708
0.014017610892161332
0.012537909922723344
0.0025968571658830505
0.0001592513269511966
-0.0013236411900805838
-0.004196664576334632
0.0009038861537182859
0.0035259826429199317
-0.0012182833342181934
-0.001978959431820195
-0.008393926816816112
-0.0005740808374003906
0.006340755038169323
0.008480649821490127
0.011228935167711143
0.004359681312836979
0.005346768104674308
-0.0024276794616265984
-0.006408489554866476
-0.0023270812924847985
-0.002809349007125662
-0.002784447117427131
-0.001201994817436925
0.005483013305540948
0.002296754043645898
0.00822230976535606
0.01154268823413621
0.0030210602500342298
-0.003542639365182392
-0.0060954666301336405
-0.004556505707853883
-0.003513527310179275
0.002543916906306125
0.004449229858595704
0.0016550203970089083
-0.0037344347608010415
-0.0032536605979299727
-0.006439602108369851
0.009942554565941168
0.014973334813729195
0.0014894107081641946
0.0006290737753037966
-0.004833255671732536
-0.009076776386138618
-0.011661963176551831
-0.004421255391362819
0.012325882417471092
0.003780162509339232
0.0026719775359599304
0.005271027726425873
-0.005818857005273106
0.003237831534709677
0.01427936459699042
0.0038658102520249633
-0.011040169038374011
-0.008651767791466092
-0.009845824189529865
-0.007626750830519634
0.01054724956546791
0.01897602131205014
-0.00032900168928941194
-0.004123165384876803
0.012336523085764283
0.004163990872753751
-0.016873330182974874
0.0008977333068915657
0.007966549709155689
-0.009713406963140677
-0.010682194489361512
0.0002718703779149057
-0.0007616122489194435
-0.005452245178365238
0.009877991669512589
0.00614222758763442
-0.013752782797671875
-0.00768642838202599
0.01601809695020243
0.009824671454322318
-0.015408738670853248
-0.008666246498766683
0.0019918655865893706
-0.013415609720320219
-0.0016911938302391766
0.02524795727573351
0.021471337950561463
0.011089441614085111
0.006813331465168847
-0.010539645157400166
-0.01938590339403547
-0.00939622074856245
-0.0010687979499568808
-0.0025781293238762368
0.0029602699048161584
0.008758087056774326
0.00533488280198903
-0.003827037214934176
-0.0030153432616409448
0.007242143842982613
-0.01296579105198577
-0.014002755303698723
0.012422407220477341
0.00281215611890748
0.00043209370092379653
0.0048176674216500225
-0.0015075589515642232
-0.0037324141966474
-0.004633926211075306
0.005817520662111521
0.0032109687935899527
0.0004453019175116997
0.015463748232652664
0.00393311873911158
-0.019706584072562778
-0.003554588880006003
0.005935869584974455
-0.01637402686588813
-0.0029479899372001424
0.01836409018201243
-0.0065837319955158015
-0.006813152282488337
0.02009168808455356
0.015890668202338473
-0.00742114262515135
-0.008707584464968004
-0.00031881632998029974
-0.00934874349853853
-0.009725505230086815
0.0009259784126857761
0.010480873653184928
0.013310944929781384
-0.0019998430835896116
-0.004645793001797071
-0.0037425096379879188
-0.019847050588535784
-0.013425760226573406
0.0058012262374840815
0.009849944169898924
0.011851309905714454
0.007855533737898964
0.0053312594831957
-0.004287791623080747
-0.020258830867241208
-0.014130735641917719
-0.00019728635096086206
0.009506795195087875
0.01748133613379743
0.01587970024265311
0.01030412958502912
0.006535630480121769
-0.01379773643194628
-0.006373937206803396
-0.004689015715109283
-0.018239616245107414
-0.00404555241101845
0.013021230709468468
0.0022695049341307986
-0.009510777122808492
0.018736813828713714
0.007730754141408236
-0.010966685830289088
0.006054530191616745
0.0028293562364647353
-0.02934200229003551
-0.01200473514237152
0.011197134837430229
-0.009249665667701674
0.005253835850948808
0.011478126273697521
0.0060168267357622795
0.013771607531295806
-0.01833729742402462
-0.029190571837877127
0.006118359373032099
-0.0052725181289621096
-0.020566466049444142
0.009947471556625107
0.017321135652451906
-0.0025785802697662168
0.007773568688007724
0.011793112150710244
0.0022342322775437814
0.005501511304204259
0.002919579896292939
-0.016193106221203842
-0.018686781562009796
0.006901783185839418
0.010434950699996805
0.0040758186994652845
0.009341837105799578
-0.0022065652100835293
-0.009260456429211365
0.0038773489994536766
-0.004854675882486358
-0.009931262991291635
0.012865691494327357
0.017123254702258964
-0.0014176218926261737
-0.0019682655611196827
0.0003582497966262011
-0.013984658197398796
-0.005976491036938842
0.009250383480292503
-0.004641107492231374
-0.013900940838876042
0.001731119660853834
0.011473453821333584
0.013751781858621736
0.016417925469231005
0.009805175496614388
0.0008932039453013696
-0.002971078248850409
-0.018014422165390034
-0.02847232256075915
-0.011743148915943588
-0.004794884930085444
-0.006728454061614437
0.012194484449615729
0.025683548928118256
0.022392553339104043
0.026508966631768566
0.02253804184878371
-0.0027213079001930994
-0.02639648199022626
-0.023822873663611875
-0.02552922887710918
-0.018248504931934886
0.010989667282620937
0.004716249675055613
-0.0004996496790487788
0.017808116636444455
0.017304083416492585
0.013208768097024681
0.008000268755542616
-0.011830559111696295
-0.033253751220715465
-0.02659107720555716
-0.005640871201596179
-0.004256879016578378
0.004805128604043884
0.026502574368631772
0.029018870063683415
0.02131803620273261
0.017923099669252145
-0.004895314763419686
-0.02731076755158755
-0.03263619333577473
-0.04096780264288464
-0.03391084160305962
0.005006915872557912
0.03806610659142388
0.04884272631532793
0.04551551528001729
0.03620953949221588
0.016353007380727883
0.005993245533572616
-0.007356646806745471
-0.05227799768529761
-0.06992047508783268
-0.05624595850275359
-0.0421937470727508
0.00838707040461405
0.04775798225038665
0.05643706285404777
0.07140109941200903
0.06657131554478504
0.0346115606925429
-0.01002082448672312
-0.04243082855669522
-0.06759429686007429
-0.0775521890764944
-0.07253068051871898
-0.05018292665849477
-0.0019869904226157468
0.0483777692396868
0.08663010258609508
0.10009577482751626
0.07894441339189232
0.03438258422622838
-0.013823383733176481
-0.042138238785685914
-0.07732511586888938
-0.09781751258172668
-0.07468665018756206
-0.046795601440745266
-0.008686494269465482
0.04750401555371013
0.08778680593414985
0.09477286630664274
0.08033249890759554
0.055722579071144564
0.008890985152624889
-0.04876339489710528
-0.07377906122999581
-0.07812536004842244
-0.07164630485584007
-0.05049517860329506
-0.01167271447246966
0.037809657597556966
0.08130047810018402
0.09347627424760818
0.06709741889425531
0.03928838979718288
0.0034242484014948287
-0.039829798094255284
-0.06946682657046033
-0.06965844553196178
-0.054422140164363
-0.03685783604195643
-0.0189313007415206
0.0028528998063408898
0.04304249987153439
0.06606312226627116
0.06577020756725672
0.044209327266827386
0.025348625895127444
0.006520188607900435
-0.027934866827779053
-0.054360795932875905
-0.06983346050148806
-0.0543126373158664
-0.034171126517228596
-0.020510752269434298
0.026587641040950034
0.05520924665254746
0.0457420598872394
0.04522929083010944
0.046290255388797046
0.020457510353361505
-0.0059309553058039585
-0.017907167280370912
-0.033327577164604195
-0.042649293793581414
-0.05164706597703963
-0.038327648553880614
-0.015062726312652193
0.004450854755113583
0.02945617181053702
0.05478569626874893
0.07353711146865272
0.06337298437775168
0.024831880840160536
-0.008262498546712882
-0.0299827008943262
-0.060384795479652684
-0.07087196804256392
-0.059925793001274576
-0.044250365243545704
-0.007649104035098287
0.027525489809111434
0.042469359083622066
0.04611265513171127
0.05662924399893506
0.0545502298969459
0.02326114872205015
0.011439047966195723
-0.005717024993561037
-0.050295171206039574
-0.06494141305694613
-0.049852451997950464
-0.03403881955380115
-0.02453032278491682
0.011075944596714987
0.0451244118848038
0.055835285848506895
0.05842331068443592
0.04244908587228138
0.018482698133849465
-0.01021165272875746
-0.041424643130322916
-0.06651811931589968
-0.0515576835863865
-0.04089343198234058
-0.03351475293144465
0.005238457806813637
0.03497751674844581
0.045408812914291455
0.05474396236036873
0.04646370448916876
0.030825962936256345
0.013294738000212072
-0.01865907776709857
-0.04320274182461049
-0.053533642547167
-0.04543094214407544
-0.036965900844300105
-0.013730699057870922
0.013735774092147622
0.033993642393581575
0.02837518203956803
0.03184548893006435
0.033862578119816175
-0.007400670092954496
-0.014531937764845829
-0.0011152584545247963
-0.014514949435074618
-0.032622768264876846
-0.00042226828672066734
-0.002275960468634225
-0.03059499383374026
0.0008943434333029939
0.009608203839812668
0.0012975596085447562
0.03206497880491164
0.03108933936539573
0.014496280784046406
0.022219767543431426
0.01143292914714604
-0.0055700034039999355
-0.015287161733070436
-0.028686370835454996
-0.03609775522742542
-0.029747343323601908
-0.022923492710353828
-0.004786101656656805
0.007781985953939496
0.023152478879468308
0.040237638682840776
0.043024333266320824
0.04332000904432749
0.015388360097555964
-0.01763387050980314
-0.032789070515184364
-0.057448457057513884
-0.06224168152573312
-0.022902622655748484
-0.0031497412672538503
-0.002523474090018543
0.03391803052945935
0.050698349814436085
0.03614566516748438
0.03665406623016592
0.02950214976797554
-0.002550311777307282
-0.015284483009826499
-0.03032566135062479
-0.04960305421027957
-0.051706752002154
-0.03554063661997887
0.0023781809728036663
0.0035082546894831946
0.02515959430451814
0.05787701792789787
0.04132888500515398
0.03898318518210667
0.03599931675309782
-0.003406931624043755
-0.036448493005069804
-0.04451571690999216
-0.0448453867151773
-0.04842799993155313
-0.03060943460318671
-0.0039786922589111935
0.022418258764477738
0.042292052766716985
0.050235236941995755
0.03677515141492281
0.029920670728319693
0.01745365187962241
-0.017766461095198464
-0.02272828825252277
-0.03376416264871528
-0.034197383600621745
-0.023913261271690227
-0.011843843082194716
0.004734142513190635
0.02714728036027413
0.030205472494219475
0.021999212618754177
0.02407846670449954
0.009805826973159668
-0.0011099497518127514
-0.021874158193056926
-0.025102249405718646
-0.014099495255366384
-0.016712172273012273
-0.007402964971747588
0.005123100018275934
0.014622131669949252
0.010891306691996009
0.014577540088795107
0.01062661740632523
0.005577839022069393
0.000418222772641822
-0.009210476950099048
-0.007241271791107785
-0.003460790933993357
-0.0010644400123047614
-0.017708334729075965
-0.004211322826065185
0.01593323119163227
-0.003650394590281129
0.0020066213382678895
0.0188627755412488
0.0063887859353609945
0.0009196301588795473
-0.004015168161491589
-0.005806751848262596
-0.009872878618730149
-0.005739882186771618
-0.007373970337752125
0.0027769089920851985
0.01689262826952778
0.00785872366187013
0.011072730519611764
0.004648104734538544
-0.0054817370461522465
-0.008258268606517488
-0.017489800394562223
-0.00980456851890043
-7.725424528717302e-05
-0.005931133530535883
0.01044585217927223
0.009125612058795085
0.0009270687637283265
0.009404790520049548
0.005525354397361978
0.0034015017731726526
0.004019443663485246
-0.00469856393056988
-0.001388404429993226
-0.007379076949324409
-0.009533122095738002
0.002475026272012961
-0.0022759512437207606
-0.010064269566508124
-0.005399403851273026
0.002904246539549551
-0.0006449800483967973
0.0036573505883280935
0.004637029981169838
0.0029934337149917696
