AAD_Filtered_TADAS_FILE
AAD_BASELINE_CORRECTION: BASELINE REMOVED
AAD_FILTER_TYPE: BUTTERWORTH
AAD_FILTER_ORDER: 1
AAD_LOW_CUT_FREQUENCY_HZ: 0.025
AAD_HIGH_CUT_FREQUENCY_HZ: 40.0
EVENT_NAME: 202302060117
EVENT_ID: 13194
EVENT_DATE_YYYYMMDD: 2023/02/06
EVENT_TIME_HHMMSS: 01:17:32.00000
EVENT_LATITUDE_DEGREE: 37.288
EVENT_LONGITUDE_DEGREE: 37.043
EVENT_DEPTH_KM: 8.6
HYPOCENTER_REFERENCE: AFAD
MAGNITUDE_W: 7.7
MAGNITUDE_W_REFERENCE: AFAD
MAGNITUDE_L: 
MAGNITUDE_L_REFERENCE: 
FOCAL_MECHANISM: 
NETWORK: TK
STATION_CODE: 3114
STATION_NAME: 
STATION_LATITUDE_DEGREE: 36.56704
STATION_LONGITUDE_DEGREE: 36.15135
STATION_ELEVATION_M: 6.0
LOCATION: Kahramanmaras_Pazarck_Turkiye
SENSOR_DEPTH_M: 
VS30_M/S: 215
SITE_CLASSIFICATION_EC8: C
MORPHOLOGIC_CLASSIFICATION: 
EPICENTRAL_DISTANCE_KM: 112.73
EARTHQUAKE_BACKAZIMUTH_DEGREE: 
DATE_TIME_FIRST_SAMPLE_YYYYMMDD_HHMMSS: 2023/02/06 01:17:31.4795170
DATE_TIME_FIRST_SAMPLE_PRECISION: millisecond
SAMPLING_INTERVAL_S: 0.01
NDATA: 12501
DURATION_S: 
STREAM: HNN
UNITS: cm/s^2
INSTRUMENT: sensor = CMG-5T/GURALP | digitizer = 
INSTRUMENT_ANALOG/DIGITAL: 
INSTRUMENTAL_FREQUENCY_HZ: 
INSTRUMENTAL_DAMPING: 
FULL_SCALE_G: 
N_BIT_DIGITAL_CONVERTER: 
PGA_CM/S^2: 0.038
TIME_PGA_S: 
BASELINE_CORRECTION: BASELINE REMOVED
FILTER_TYPE: BUTTERWORTH
FILTER_ORDER: 
LOW_CUT_FREQUENCY_HZ: 
HIGH_CUT_FREQUENCY_HZ: 
LATE/NORMAL_TRIGGERED: 
DATABASE_VERSION: 
HEADER_FORMAT: DYNA 1.2
DATA_TYPE: Acceleration
PROCESSING: Automatic Paolucci et al., 2011
DATA_TIMESTAMP_YYYYMMDD_HHMMSS: 
DATA_LICENSE: U (unknown license)
DATA_CITATION: Turkish Accelerometric Archive v 1.0 - Disaster And Emergency Management Presidency, Earthquake Department
DATA_CREATOR: AFAD
ORIGINAL_DATA_MEDIATOR_CITATION: : AFAD - Disaster And Emergency Management Presidency
ORIGINAL_DATA_MEDIATOR: AFAD PROCESS SERVICE
ORIGINAL_DATA_CREATOR_CITATION: AFAD PROCESS SERVICE
ORIGINAL_DATA_CREATOR: network: TK
USER1: GuestUser
USER2: 
USER3: 
USER4: 
[...]
0.005935310846182531
0.00015904351840914392
0.006043785002566511
0.009611805406660075
-0.0017480872842533758
0.0010852912169042374
-0.0042124735406615125
-0.00218873710493125
0.0013219625635630212
0.005201831204151555
0.0027631265281359224
-0.008472820317908936
-0.008860494708889896
0.005641226346620975
0.007095482256041522
-0.00749114588597816
-0.0014162618450720415
0.007287002491488904
0.001937167272864404
-0.0039620947753083655
-0.0018601032470114914
0.0038773522816864486
0.00027085554150065716
0.0002902286675121053
0.005493940299016686
0.00011399022538061415
-0.003498305614002312
-0.002106349789859455
0.001951718520166439
0.0007900418518627141
0.0006985692262088751
-0.0010705896744060532
5.865942324879066e-05
-0.004143025300987662
-0.010612506846283173
-0.0018560990205216995
-0.0042636082603183904
-0.005749846997500888
0.007716180726618385
0.0037968455337394347
-0.001927655516629171
0.001442095744068499
-0.009117256119789582
0.00012847568683940238
0.0042686604381577155
0.0032867675964632823
0.00899255703629672
0.006295915632398557
-0.0002833279989356568
-0.006685793257760186
-0.005454359859326196
-0.0006263746727053182
0.0021349086739655128
0.0002723145430039027
-0.004222430264622147
-0.0041940158915992655
0.00260270682645372
0.0002738159477089311
9.754212148351763e-05
0.006081553902114728
0.005064341090002026
0.002168626526792465
-0.0015789529976143347
0.004184876191308691
0.012807520984623488
0.005445303068829513
-0.003066934462656359
-0.0050795626661942865
0.009105879714638698
0.006858451804533922
-0.0024441776454030475
-0.003602269256396592
-0.0064058001759542665
-0.00020398314973535576
0.005484931362115782
0.002578904667994284
-0.0036580141805005986
-0.0027449785281382574
-0.000935459269468934
-0.005934799678743377
2.185035236632457e-05
0.0022076298132390954
-0.0027634677014186215
0.00385240730185629
0.0018395566664603645
-0.004850576750253144
-0.0007565579386881353
0.0014716520654245125
-0.0057866089651191395
-0.002762157885379433
0.01203021365369552
0.006972843523315844
-0.007022740153655456
-0.0005684301554517328
0.0013656700521440875
0.002646197493423046
0.005389720662077515
0.010556715200688134
0.005636752163390264
-0.004117915155501884
-0.006629896732931769
-0.00012249694644902464
0.0015565134210249838
-0.007235921660629016
-0.0018408714614327158
0.0019948626594928163
-0.0040410733893286995
-0.007991032650204219
-0.011405444669915282
-0.00034570712517519324
0.00491416296208416
-0.004348037090915003
-0.003028565267731219
-0.0011980269102672065
-0.007794414569405993
-0.001473761100503755
0.003704414946752399
-0.006873319069197047
-0.005785495195559709
-0.004510970900073448
-0.0019744657905752636
-0.005527027412877356
0.0024143159560719276
0.0031310659828737053
-0.004496160954209222
0.005741890001989202
0.0127651344900233
0.007349281196832204
-0.002157266993229532
0.004496282959468655
0.003369377362079339
-0.002867532963164772
0.0014446201299813891
-0.006192988277778276
-0.013403929604289358
0.0009504099675821535
0.0052113780459037105
-0.004223144128791411
-0.006670647226231914
-0.006543862475683644
0.00292980446869483
0.012162446515834755
-4.38638194758634e-05
-0.012654649750075566
-0.00825191141410455
0.004719651344707185
0.012849593187261098
-0.00038456294599805476
0.001131384071312281
-0.0007758828969750022
-0.007739791116779956
-9.870443717079316e-05
0.0019103585492064523
0.006098399519133265
-0.0010338086354655968
-0.0010316516313698145
-0.0035239199382294155
-0.002475198465581424
0.013321977575128567
0.0016296785336361824
-0.006032211082554498
0.0017327425259755945
0.0068491888515774995
0.0037769796605332884
-0.01212794110730368
0.002791023625591255
0.008801546339983302
-0.0010778826632598002
0.004855347527722806
-0.004748387346196915
0.006494633475741968
-0.005359894207265107
-0.01428266363408518
0.00706668125635837
0.004128660356698595
0.010373901098453603
-0.0005352479147004522
0.005921100600289058
0.006931397475530351
-0.0058420926862586655
0.003841495910460027
0.0004949066904023096
0.01126491244871724
-0.0008136916346892888
0.00011563189077427557
0.007804693970346281
0.008637715901018457
0.007740299523829139
-0.010639922571959112
0.0009996354638105993
0.013443043515481529
0.005949581865233124
0.0024908668140194486
0.006964485711789365
0.004445939085939185
0.001861857511324402
0.008386549369128207
0.016611553950662637
-0.005522148890519404
-0.015565873697648442
-0.0027127623898112424
0.004814682477258059
6.865347641286716e-05
-0.005000327253807989
0.0012165566957691586
-0.006255471528600448
0.0036807900122784783
0.010409075070906262
0.003108507721244643
0.0025061131367865273
0.0032598220496025403
0.015791679402429416
0.002126029894441135
-0.0004514157100401902
0.009249345260829352
0.00043915978203195303
-0.0034705575574980356
-0.0075957447630796955
0.004269732871462969
0.0038939037706243016
0.002261776027386602
-0.0023548855878106558
-0.0013622688580433911
0.004484848141727784
-0.007114512802692392
0.004695649526630825
-0.0020017353132862317
-0.0072071383598749095
-0.0009156481865166019
-0.009554227957521722
-0.003324539798429424
-0.0017229944987584816
0.006308925931312877
0.005383402208909871
-0.010256294493804484
0.00044201196370902124
0.005883815314178668
0.006956818345901353
-0.002221344597092053
-0.01341921309934302
0.0022830646593151064
-0.013416910883796448
-0.004947789571462199
0.00413402172212484
-0.005482191922356127
0.0028219875867241746
-0.009796657731485567
0.0034455898234632813
-0.011912002115539808
-0.007474873231510454
0.005476604170488468
-0.004070362663460023
0.0010212950581702834
-0.006784682387014327
0.006723654290978497
-0.006057132031939684
-0.006572310661570549
0.007082195870396742
0.004883283423054592
0.00032160409329075595
-0.011869996758521793
0.0025206972232328143
0.0026788638987094524
-0.009651207918314007
0.0025365599071030956
-0.0068420989941611965
-0.009765118972572222
0.003761484760044418
0.005489042896257352
0.0018768543675067952
-0.016015540138014334
-0.000984043187015286
0.009965421796583183
-0.0042424141662587775
-0.00018112210804747982
-0.006553640619210413
0.003957851657518846
0.0031376473289785474
-0.008242659329780555
-0.006970487824035762
-0.004653237902049496
0.007783361234174192
-0.007401845376850223
-0.008731396973412332
0.00012735449647690488
0.0003829887901545044
0.010000992741021638
-0.00284872675532659
-0.0033357008208389333
-0.002400561030691237
0.002117545783457489
0.00661688926004075
-0.009517144132822243
0.005965459236356189
-0.0019221561343120642
-0.004708457204129584
0.003067554149737248
-0.0002137589370327487
0.008937750215501328
-0.005713269522622832
0.005151840323868231
0.009590269739424232
0.0016421027679407853
0.009308167994408157
-0.004361292463212245
-0.0028415870991051373
0.0022869224697852665
0.00012677625617334718
0.0014512631136943425
0.0034956668390397757
0.005169120859042131
-0.006124171677530423
-0.0010469605750185248
0.006123238784836584
0.01085138228877912
0.005473541612716289
-0.004501961874011361
0.007383601600636184
-0.0036661250229271932
-0.0021195978458170626
0.018185277793859884
-0.0030661855407902714
-0.009937106982790073
0.0012891759308225207
-0.005103211296199061
0.005414946896922664
-0.006294683779187066
0.0014882654693981002
0.0072757347467157325
-0.0024858934356360523
-0.002957154531719007
-0.008152544091415052
0.008339081097371075
0.006508425891863874
0.008331332814497107
-0.0037250529146580164
-0.004387108861489486
0.008203245178210038
-0.0011665403481806377
0.004961042072560991
0.0006995119797569821
-0.0007622849281801326
-1.7107594854804568e-05
-0.0074250495778420515
0.005429073669451781
-0.004294553286823056
-0.004101256855265111
-0.002829895237227836
-0.014352310890936566
-0.0007493540810366957
0.0016304169509305346
0.007217582363720972
0.0057198907169919684
0.0014799815884208457
0.010660887576788765
-0.008997142071798874
-0.002833308017666515
-6.652747003913494e-05
-0.005101415861637396
0.005633784879957873
-0.004599758270797875
-0.0007454318504604648
-0.0033840875275295296
-0.0063418464845932535
-0.013211664881950006
-0.008780172998760162
0.014381005499390377
-0.004006349414600594
-0.012784861720512587
0.009394202587642302
0.0005874300887598588
0.010732922754316475
-0.015537446587612474
-0.0021411834723676433
0.0057882889873638165
-0.005739450733601891
0.009886094829847163
-0.006019161481499332
0.008658459048584175
-0.0031345568756582804
0.009898317243063752
-0.006274726055383019
0.006046068757908554
0.020171376677589257
-0.014720956126443798
0.0003373095289890157
0.009456768301574284
0.0032097884821965126
0.0022983999847434227
-0.005859586633407629
0.005104166334697753
0.0074522490140840275
0.0005721668807945827
0.0036162618594158327
0.006368030557210127
-0.0027558208039633212
-0.0053647904431150945
0.010259007330539706
0.0020623775984742296
-0.006244549110956534
0.004116262017493799
-0.000255721881184599
-0.006193746029735487
0.015659623244914805
-0.009775069663259427
-0.0036194280232747207
-0.004246859667984284
-0.0018774330219733172
0.004177376457895383
-0.013648517101773706
0.004971581083409965
0.00025173142227459896
0.006052339524913677
0.004221831301595486
-0.007327619270988194
0.01330070724674592
-0.004023074321065076
-0.008807752277477137
0.01881321576058231
-0.004346975803265055
-0.009563853926466116
0.001047437112953009
0.012200381189269366
0.001738081515375547
-0.016072202851016792
0.004586752005114794
0.003366396393739545
0.0021649905707254048
0.004357791306239409
-0.0019826747150852226
0.0005660263345300059
-0.009573716858717265
-0.0005402913226925642
0.005976772635891179
-0.0002992461845574614
-0.0027752850782045238
-0.0003758926286646444
-0.0020485027002054854
-0.008901692760728382
0.005033764060802644
0.003150147708910652
1.9970541182987062e-05
0.007959647407179901
-0.011060769783427123
0.0006790666654624166
0.01488549901877808
-0.007111927602722332
0.0004641412734559155
0.002278652249374706
0.004071144789019618
-0.004105366249233415
-0.011047205489493922
0.0033917331636006123
-0.0035057258078057874
0.0025045515068778425
-0.004639183207382142
-0.006663670399735323
0.005491259865438275
-0.008864925920092307
0.0002707389763072833
0.01330884457566266
-0.008089953997089859
-0.010112347761499432
0.00454330288545781
0.00954991054850541
-0.00254141180668889
0.006560410128435924
0.0005562986324009777
-0.01566327134084069
-0.002844002645340066
-0.0009673638419010053
0.007830254090300045
0.005605107749606301
-0.0016655882289112558
0.005663043083917946
-0.0012512244651827153
0.003174522168991559
0.013839215070791366
-0.007487538791881878
-0.005919967464110153
-0.000581469152680667
-0.0010275892536404192
-0.0005712577778795916
0.006680368997708828
0.0007094802158447359
-0.017568397819313696
0.0035574177260743836
0.005729361964558751
-0.0003767142031986938
0.002955614763267442
0.004201671400369153
-0.0009766209222142354
-0.0028756233918970377
0.011020529868192864
0.0021136846422709853
-0.01739512621083434
0.014106678876857548
0.0037217427315317415
-0.019800911924086093
0.01669470776335426
0.008979111047957346
0.0001848864036439017
-0.008947357106523014
-0.008136388660458354
-0.010116498609376827
-0.00523125860826788
-0.00044788335388026146
-0.0017456850557632305
0.010255076937259747
0.0039009020951432556
0.009163274555638111
0.010093469974499098
-0.005820742902752756
0.002058970157799116
0.013237169251060804
0.004347303353251255
-0.002931399485103855
-0.002170652887460756
-0.009128093651430592
-0.009875978803302142
0.008892672728533526
-0.0013533073807713571
0.0006863872342680563
0.0078094306331155956
-0.0017260212252698933
0.008795514160942968
0.014079622129236738
-0.00655252765353565
-0.008061049945988528
0.0033814898220949413
0.025895393937577237
-0.006020353621571682
-0.01902327415343754
0.023230450350308254
-0.005794522493817593
-0.0016768385141177349
0.01686538997829723
-0.009608971042060578
0.0007030159020084898
0.01132863286562422
-0.004531762093482407
0.0019575816078292916
0.007041837498834801
0.0014919290020728932
-0.004984885622260734
-0.005080376658700708
0.0004215093425683418
0.00805186002605826
-0.004462796506053982
-0.011465013930611695
0.007993595152251308
0.0007998729144268159
0.0074039205276532575
0.0174049123595413
0.013184412122432605
0.014392802860027941
-0.01459670560766817
-0.00956956318604471
0.02031884712188289
0.002124404546418681
0.012278531070756727
0.01479429808883418
-0.008966404102403716
0.012886943332090213
0.003103865112871455
-0.012560700865925483
-0.0036583023039816003
0.009281459413839887
0.007894121880248869
-0.0027557367973848035
0.006067625184271806
-0.0075023334801890525
-0.00443805003618402
0.026662663446431836
-0.010982309234368794
-0.011311031328681113
0.02447912026340626
0.012569167954289914
4.056045856389525e-06
-0.03328367088180046
0.014784758023761425
0.01343101982239427
-0.018107583815105167
-0.00021212506681847308
-0.0022830987462162697
0.006937407713918845
-0.012958970635581456
-0.012332864351293157
0.0027952049260763436
0.02139597626184582
0.010526137885909977
-0.010951285078657256
0.0015836988975081417
-0.0036608948004528304
-0.0030262078801267843
-0.002208893466423774
0.01574562393329448
0.016100404418176593
-0.00270938792265732
-0.010368765786594762
-0.01234448471409036
2.6143894353202794e-05
0.0009904638944423516
4.4401274515088325e-05
-0.007863576101055939
0.0034318563906372305
0.0038012154262029247
-0.00818560202212741
0.0013305220895769567
-0.0023782710371954277
-0.002526880726411559
-0.000632064964810974
0.0018068378777811906
-0.0041986651336713724
-0.009976990498592724
0.000240445304674757
-0.0017821110929108525
-0.001202666393649515
-0.007616133818554206
0.007453360044369877
-0.005215678303971936
-0.00919067664518764
0.007816459447019898
0.0009631898592055148
0.003085337051367674
-0.004122814466322293
-0.013144039825753207
0.0016777160566156509
-0.001329012090389882
-0.00863912581172098
0.005074754918538512
-0.0062196711583898615
0.0038463173208574185
0.006653926275288645
-0.01859583985795989
-0.0034440125494958973
0.0065434585114569725
0.0012219123914053126
0.01050016542508335
-0.000364702190453623
-0.006854911376079081
-0.004218513230894087
0.00873435099332612
-0.004221285851821261
-0.008052141141866118
0.0007170572899660889
-0.006238473357266169
0.005022068366583218
-0.010692192169636534
-0.0015419165067272385
0.01172008921025591
-0.016364516767173088
-0.007712015075451134
-0.0009842399744907475
0.006480102217028852
-0.007534142753638682
-0.01898149626244137
0.01703977463803688
-0.007213360461119722
-0.0007572723991492404
0.005029925128170129
-0.014929984575817854
0.0011510988413466498
-0.008389401899936137
0.0014701439954396523
0.014363566327136276
0.00029039584959098474
0.005859440471896418
0.0005198706273575075
-0.0019802598744316645
0.019474018168630716
0.013051474692137775
0.0013227016352607597
-0.012894116693173235
0.0029822150489834383
0.012358982692092567
-0.0103503565282881
-0.01306088156252664
0.010114387854114929
0.00011895022297038768
-0.007494892410498803
0.005690383276771868
-0.006696632921551239
0.01231507954706826
-0.0078115359400768945
-0.005719846652151345
0.021116808491442644
-0.006184653416738188
-0.0015818137996021712
0.0035635563103439604
0.006606819035618585
0.005269821428295974
-0.007439713057813504
-0.010481461813687722
-0.011630432064564674
0.012334319578709603
0.011454022272258975
-0.0101176710863051
-0.007058606179707308
0.002285052254916172
-0.0004316681740491894
0.011153885227579088
0.020653006092033518
-0.001684897677361504
-0.016167782904254153
0.00801354968168891
0.00862033457668021
0.010785687153610278
0.006712027446769124
-0.018893565303501492
-0.008548057924184177
0.00026842364539247286
-0.003082058770842114
-0.011573906156338977
0.010682787200660909
0.00931582291387844
-0.027874627598041567
0.0006260186103294247
0.008350141073282162
-0.001265229221854197
0.001360198023224457
-0.008594166483108241
-0.0005639663541286864
0.0026090182618490354
0.014366195129469857
-0.005250800813553156
-0.01226662831587559
0.004027594525876124
-0.002681187464198231
0.008218406902355264
0.014446044447545417
-0.005533128852260141
0.000558771526182418
-0.0016331305510149255
0.005833315960466601
0.004743166086795613
-0.005823320990310157
0.005005209190663046
0.009009270956854299
0.016700614324493386
-0.0047078464345576285
-0.0026519986197052806
-0.008679171134783573
0.0005280706182267901
0.012168465537770675
-0.01395889006320929
0.007296558564362806
-0.0028495667258064826
-0.004711417425810865
0.009623508041718066
0.0034445215484764226
0.011340284838932655
0.011832019873293818
-0.0027304307929899747
-0.0071076423862646
0.014180441611592513
0.019644927728447427
-0.015375721231225365
-0.008186308444090941
0.00518123105645891
-0.018633164388217865
-0.0042111876574702145
-0.0035996605550791248
-0.00344880583057182
0.0016969014066940292
-0.006365200685147063
0.0034180771899528697
0.004103138778068517
0.010093702078395793
0.006796314179028036
-0.0096816042798586
0.0007620081962966589
-0.003644134680584346
-0.0093304777616859
-0.005962588443541171
-0.006527494078356063
0.006925157030856177
0.006869560886962265
-0.012390011743068524
0.01171712131740784
0.005324589032690405
0.011056407172641662
0.010155649196347982
0.002881016120514742
0.008614645549881608
-0.012233150403474353
-0.006590273928707706
-0.0010552994702134988
0.01018899985456969
-0.0019012178104002256
-0.008898315773342002
0.0030700181346966777
0.0006036737873470683
-0.007439895987172038
0.0057375002879913725
0.010132322299827643
0.0056060398195373964
-0.003895443714802826
-0.0035890286861311555
0.0044263373207706095
0.0007930459236220792
0.003998764632921225
-0.00648323410764285
0.004304648755635382
0.013546052167086977
-0.007510283160613265
0.006842701137558676
-0.009995180258673913
-0.013425068200644994
0.008076590447395888
0.0009773701186805235
0.0018638577953748088
-0.00743366708103044
-0.00019356019492132364
0.01539658518725644
0.001310283277497669
-0.00739999061043416
-0.018824280316662785
0.004261255824201244
0.016318277615675947
-0.013658814641104555
0.006832254241814476
0.004331250642692243
-0.008010400748784834
-0.005342518654098809
-0.010087575818605712
0.003458977331416771
0.00018912874417700723
0.004118839517000813
0.0064182926850654435
