AAD_Filtered_TADAS_FILE
AAD_BASELINE_CORRECTION: BASELINE REMOVED
AAD_FILTER_TYPE: BUTTERWORTH
AAD_FILTER_ORDER: 1
AAD_LOW_CUT_FREQUENCY_HZ: 0.025
AAD_HIGH_CUT_FREQUENCY_HZ: 40.0
EVENT_NAME: 202302061024
EVENT_ID: 13207
EVENT_DATE_YYYYMMDD: 2023/02/06
EVENT_TIME_HHMMSS: 10:24:47.00000
EVENT_LATITUDE_DEGREE: 38.089
EVENT_LONGITUDE_DEGREE: 37.239
EVENT_DEPTH_KM: 7.0
HYPOCENTER_REFERENCE: AFAD
MAGNITUDE_W: 7.6
MAGNITUDE_W_REFERENCE: AFAD
MAGNITUDE_L: 
MAGNITUDE_L_REFERENCE: 
FOCAL_MECHANISM: 
NETWORK: TK
STATION_CODE: 4613
STATION_NAME: 
STATION_LATITUDE_DEGREE: 37.5701
STATION_LONGITUDE_DEGREE: 36.35737
STATION_ELEVATION_M: 965.0
LOCATION: Kahramanmaras_Elbistan_Turkiye
SENSOR_DEPTH_M: 
VS30_M/S: None
SITE_CLASSIFICATION_EC8: unknown
MORPHOLOGIC_CLASSIFICATION: 
EPICENTRAL_DISTANCE_KM: 96.56
EARTHQUAKE_BACKAZIMUTH_DEGREE: 
DATE_TIME_FIRST_SAMPLE_YYYYMMDD_HHMMSS: 2023/02/06 10:24:41.1832220
DATE_TIME_FIRST_SAMPLE_PRECISION: millisecond
SAMPLING_INTERVAL_S: 0.01
NDATA: 11251
DURATION_S: 
STREAM: HNE
UNITS: cm/s^2
INSTRUMENT: sensor = GMS+/GEOSIG | digitizer = 
INSTRUMENT_ANALOG/DIGITAL: 
INSTRUMENTAL_FREQUENCY_HZ: 
INSTRUMENTAL_DAMPING: 
FULL_SCALE_G: 
N_BIT_DIGITAL_CONVERTER: 
PGA_CM/S^2: 78.248
TIME_PGA_S: 
BASELINE_CORRECTION: BASELINE REMOVED
FILTER_TYPE: BUTTERWORTH
FILTER_ORDER: 
LOW_CUT_FREQUENCY_HZ: 
HIGH_CUT_FREQUENCY_HZ: 
LATE/NORMAL_TRIGGERED: 
DATABASE_VERSION: 
HEADER_FORMAT: DYNA 1.2
DATA_TYPE: Acceleration
PROCESSING: Automatic Paolucci et al., 2011
DATA_TIMESTAMP_YYYYMMDD_HHMMSS: 
DATA_LICENSE: U (unknown license)
DATA_CITATION: Turkish Accelerometric Archive v 1.0 - Disaster And Emergency Management Presidency, Earthquake Department
DATA_CREATOR: AFAD
ORIGINAL_DATA_MEDIATOR_CITATION: : AFAD - Disaster And Emergency Management Presidency
ORIGINAL_DATA_MEDIATOR: AFAD PROCESS SERVICE
ORIGINAL_DATA_CREATOR_CITATION: AFAD PROCESS SERVICE
ORIGINAL_DATA_CREATOR: network: TK
USER1: GuestUser
USER2: 
USER3: 
USER4: 
[...]
3.292126850349992
2.2255459377936995
1.102311165823162
1.1459900113874544
-0.02516177106876881
-3.5057590600555515
-6.1894645689665575
-5.282043435893395
-2.7723719365721764
-1.8099772819424909
-2.266303147918274
-3.572451745684956
-5.419680785009626
-5.54431381363447
-3.6969394901885746
0.17354469978642253
5.975028022236611
10.17455498292098
12.088107704277567
13.130722381296595
11.409650112082598
4.735112959628934
-4.240059076914778
-10.496885486666576
-13.23170989522921
-12.911140084438417
-9.289651774559616
-5.1605237540658475
-3.474015106234328
-4.8299289632138205
-9.45367626850021
-14.93612752807872
-15.635021973445834
-10.683154313207082
-4.42893087397441
1.781629607043116
7.859581460054686
12.271040899098022
14.420416784675096
13.349037095644315
9.442528911535321
5.454837160242382
3.504463096209943
5.936337373627053
12.906985294631497
20.100717762660146
23.601663812097623
20.418112230129232
10.636012064982665
0.13668447658601604
-7.372183471668722
-11.193897146214832
-10.408706504189032
-6.188669780214773
-0.7681379187736204
2.7200103680655343
2.3649359797001828
-1.4654032765301053
-6.5491026506360335
-8.551235883371666
-7.212643027978225
-4.162725759403504
1.2559377513388879
6.983886572162164
8.318976010830005
4.320379631659214
-0.06663329853703516
-2.0020761712428388
-1.9974689826545786
-0.579062144540017
-0.2525186389210284
-0.6560449900015746
1.988728246933428
7.133888453529501
10.717284574489758
11.1283250946474
8.901237524077615
3.7633520475387985
-4.136634076632208
-11.11662211699913
-12.841516492353511
-8.690018155030248
-2.191425345124141
1.2416998725748631
0.5091953312016974
-2.606365195425848
-5.364587578352086
-2.9959988526175647
3.4113967087898547
8.505053301325917
11.162283824073896
12.488225606999155
12.505566167232868
11.62105594788118
9.983058791431997
6.540590189132693
4.079173796720095
5.288106616176065
6.514127703175309
5.193353854656945
3.0441728226119813
2.4046842092283565
2.8160761925599593
0.7797591503835705
-3.889428493830962
-7.538788282306532
-8.287286009084369
-5.641010253973752
0.5391550078126212
5.942486995283762
6.670202531065088
5.010546490901544
2.4917851495281584
0.26892916754643464
-0.23520948319221968
-0.9800979320609233
-2.493273425034487
-3.7967312942785902
-2.8736933978168486
1.86519206513624
6.283699978725823
6.6336377739377275
5.592143852301036
5.1192478410361515
3.415481515388779
1.5989076970267004
1.1628428341324488
1.671819472886971
4.3456882255656835
7.854592981109712
9.323281659358134
8.182999741111374
3.9322971626585073
-1.5662490495509345
-4.423944802793365
-5.008915186474014
-5.623205473377772
-6.548928481150083
-7.980260449717652
-8.799572113526255
-7.593026826786475
-4.872608577339961
-0.9493621819589871
3.2841816697078547
5.475582138034301
4.519829805540764
2.6341331802977774
2.470786270483483
4.169352742306225
8.03436212489231
13.498272639610443
17.89650562592818
20.53988696833797
20.292571418731576
13.03659735960229
-0.2092336234199619
-11.806560267964345
-17.752797114487766
-17.480090407634655
-10.630480311944131
-1.3516352305885635
5.537164038503987
7.969405935948765
4.801108875818469
-1.0283376853795194
-5.362338231844911
-7.165628551887113
-5.101263460193037
-0.7329480993205587
1.0034534519211857
-1.686316580750534
-7.838959192782416
-13.696896011958282
-15.907317552362558
-15.343924088304584
-12.670917786676394
-8.475440923530176
-4.911507165488051
-2.1485508730923555
0.5929435668805054
0.7427194023623899
-4.043523438127866
-10.43407291672595
-13.109468707902993
-9.085091040134554
0.9353714558187587
12.05606833271954
19.859372216583612
21.555331446833534
16.697220780685786
9.013625048281689
2.2476541222862543
-0.5741100448177809
-0.4615190942143789
-1.2028711260843408
-2.7459243260764823
-4.893546746980155
-7.278230890348921
-8.600727736679858
-9.322457725846393
-10.037433338279488
-11.067056597498743
-13.379247714790399
-18.210415664197892
-24.791418681853802
-29.657562232415504
-31.173995926571045
-29.453710269443256
-22.00419975019086
-8.954085237133059
4.940333242518199
16.83829077843101
25.240531191326575
27.4585392049172
24.564995887158574
21.978818933764813
20.855595655007424
20.312061505280614
20.359275368194236
17.587807833387956
11.500583919216297
5.206547510088799
-1.4078599999363184
-9.540660798401001
-19.01026853395496
-28.330152347464423
-36.071950707361665
-44.168619463462846
-51.96864527388678
-50.59766602176222
-35.75899120133568
-13.753629460325259
8.636373498464007
25.63833581908642
32.833306973454356
31.996603582950513
28.027069352753447
24.26034447915166
23.039827964044402
25.412996765292625
28.69884875748069
29.557742872122613
26.98986315064513
20.279344860995586
10.123537859393824
-0.9855120674352975
-11.551339026058399
-19.858840251267186
-23.4145036572725
-21.34823051387601
-13.962210974060175
-4.934929630998614
-1.7923500192756678
-6.34150716022444
-12.237624005085552
-15.451928687208786
-16.333356052778523
-13.054340358944716
-4.679620691550561
4.093062786383744
6.340139149213792
-1.4719483648423726
-17.389375342063083
-34.6847206544214
-43.72288258641944
-41.10560974244378
-29.93434318135025
-13.692974113987667
-0.4258180286766753
4.366359186093417
4.04000067305418
1.85672838088782
-2.183238002710047
-9.377398792426542
-17.35440717183258
-19.148043453817223
-13.393857365682019
-5.263084780671043
1.867707073687999
7.101484056764871
9.770333424671753
9.016561373678359
5.568359224413086
2.219484467883802
-1.699421152932953
-10.406209618960133
-23.144161393385957
-34.359361371669685
-41.03094174421278
-42.68208388210031
-41.45872019054877
-40.785424701577284
-42.080581823776406
-45.868289499910844
-48.003076799837885
-43.157343572671095
-31.888700187862728
-17.714851610524338
-5.482470229771606
2.2343966804117668
7.477469226624892
12.408448536883112
15.207730576942248
13.043952976707997
6.686093538488466
-2.085604467220953
-11.046950781140307
-16.757617912299978
-18.520957043555075
-20.08399561967223
-24.708114546969373
-31.24518588882475
-37.16152982810639
-41.32533387381225
-41.39689365200125
-34.029655602570664
-20.823576173652295
-6.260083345637263
6.427088454516053
14.13583441595138
16.583527763931748
17.328965813631964
19.759066642053725
23.20590465145868
26.538987312716156
30.492384974207308
31.65727635553455
26.880703172484647
18.308579784188044
8.409550371861053
1.024294450533095
0.24830651380568539
3.7567126223827727
4.682048073788698
0.11846986609250634
-6.072474014272873
-10.043160238153913
-10.347615684402863
-6.752539020947636
-2.3746032366009286
0.2971686349362444
2.677570459407623
6.374346878558422
10.897715354688652
14.965323030465171
18.516974445191796
23.163346005104895
28.61315059525024
30.648951852252065
25.938763174121757
15.837976090758279
5.032050404830317
-3.9581748778411208
-10.222514404025558
-10.994234073042206
-8.393021327935918
-9.712208263531183
-17.8726287951223
-28.37334807731773
-34.90949878634013
-35.44627253266397
-30.283604225625346
-20.092272374271147
-8.540933226712868
0.4288580434445303
6.472902516420174
10.819854794985412
14.206749285730364
16.34726470501651
17.785943368354094
20.722967430977896
25.79677815128585
32.051629954141205
35.734645674670226
32.92252127343986
27.545368601762213
24.752677228901078
22.71138980783696
18.989859039970852
14.621937222945558
9.899472498136852
5.095366414853786
3.8517874535180043
6.910133482198901
9.072983567295468
7.912789654008678
6.797032061183909
7.413369082631572
8.253659405350877
8.689457920659928
9.572685872335214
13.170988724462049
17.152865097619664
15.060822413359197
7.05013972104213
-2.1899599273802255
-9.483908330810447
-12.748633014539648
-10.575015564215615
-3.1382345118987653
5.932018466924697
12.623956992038279
14.49214314886925
11.234512221486705
8.331161821730388
9.974987374278033
15.149985399835103
23.79037402150778
34.397216484522176
41.66413247691239
42.07366086249831
38.02527784065993
31.951950721649226
22.85184151813318
12.062757627465277
3.461117476816234
-0.3149100447877483
-0.7704140918936417
-2.8636786614329814
-8.985550206243186
-17.674154771665393
-26.699197960809688
-33.25676101471727
-35.4694466845691
-33.21464386444472
-27.13448411328823
-19.843257590123944
-13.361917865147348
-8.640541509085228
-6.002976392402279
-2.9481683337666094
1.13649535897654
5.95271221993004
12.10207621688606
16.819454188847963
18.156676922104708
16.298167076126315
11.276058989236548
5.147836548552821
2.30817897699448
5.087552413967715
9.292062410782401
8.989346498206679
4.358999020658134
-0.4004463720447892
-4.410903831396444
-7.9408192666609345
-9.844969556821848
-11.013099890033905
-12.189099196324689
-13.357525041564031
-15.86703117393664
-19.563108429801748
-22.18538769078734
-24.350797614844023
-26.050192777137937
-24.576807832094897
-21.338557052467994
-16.686789563735253
-10.811991378002647
-6.6795164163514835
-3.79767259767806
-2.3708255988116815
-1.0272322755562868
1.029921841009621
-0.5939278081730716
-5.8007449739177535
-11.048245307491758
-14.73903112522008
-15.82872683352603
-10.747809099063197
-0.4604983822762678
9.593783254642656
17.97266415492308
22.22575653822784
22.25386668476513
19.704130300563595
16.449320333793718
13.87388493050353
11.350152133955387
13.053188679309692
15.670080639622705
10.432045902180272
1.404114034847443
-2.7215993587512384
-3.845691422412416
-6.2313915176213195
-5.647449333718164
-2.512357451089636
-4.21220427767104
-12.604916240322916
-25.08395452616396
-33.45409123713681
-30.89952660959847
-26.539089602715244
-24.710477471301097
-18.18999846133064
-13.045045903619485
-16.654483428291563
-21.96636924811046
-23.237129508248476
-22.571882373446158
-20.160433618362564
-15.08747263681975
-11.515010802535734
-9.084801457049652
-5.694071904920952
-5.94909732441655
-7.557557377204722
-7.307142906549396
-7.663464083268974
-5.903875688600258
-2.6148216574893577
-3.702639510096114
-11.790015732795041
-23.56022872551051
-31.901199829187146
-35.89761028011219
-36.38516293054053
-30.441575486313592
-20.50455120433524
-9.605081487734767
1.9723573763856332
11.848166513581573
20.339698834952507
29.527990971666583
38.80630659945763
44.78490744150676
45.21951308816092
40.62287638178499
32.80152425669436
24.009741024231385
15.087866371635435
8.393292539678553
2.0500618255550807
-6.9046166626986825
-13.627173247526247
-16.67634900683746
-15.747099702838277
-10.277651001559287
-5.805700240345143
-2.709633459565481
3.0244135161158465
10.046716054637782
15.010619035136731
18.53526475155099
20.695787145022294
18.81934187686293
14.459698848981805
7.635730786983846
-1.7168616658280278
-8.299519398946215
-11.208708318666538
-14.778995338550912
-21.33551691222692
-26.62259619308663
-27.69939285164411
-26.802638557123043
-23.22727566083551
-16.45531903296495
-9.987352337884712
-7.547657419950866
-8.708140974903005
-8.579946336521369
-2.13623467308229
8.889902194979966
19.089824551121545
28.217788649446206
34.88633674016236
35.22023666014257
29.918692904994238
21.448999128020766
12.97601308054384
10.244118231555662
15.548562960467887
23.8288642623211
29.91100945691006
32.90181570906974
32.26532230045971
27.07219712710761
19.636654708132607
14.223354934540094
11.895806591696983
11.06642975109278
11.329314355150633
13.37754094060899
14.753412099520943
11.322106338477026
6.404488367339808
2.951897939276226
-2.552251961711252
-5.528593374621601
-4.944951003586436
-6.0284745804832065
-4.681009802074439
-2.8679610339217705
-3.610944548600876
-2.437096458034308
1.5089883948387486
6.036234079530541
7.30525589210311
4.497693856062833
0.45093939642134384
-0.39263486685111976
3.9314797132901336
10.913501646501494
16.756575706003154
17.820093698110465
13.858118259484963
6.908783296999807
0.916701133747581
-1.6941371216061187
-0.9327868620389325
3.0308179132258974
9.25821190749286
15.406084705683119
17.456575442117902
14.7977166004839
8.081244496350541
1.207541712044766
-0.16446518969385826
3.4142659817544967
10.792047574123389
20.57875731529343
32.5014270179342
46.014110769682475
54.44106498303552
55.36092954377161
52.018051940567915
42.505215040195395
31.313379417189733
28.268925551691453
27.912656068582628
24.166773602838468
18.171138931312072
9.116889136515217
-1.1523561040029688
-8.811422611330885
-12.48124071290209
-13.325574543647791
-7.983496939602875
-0.6654328037772499
0.14601707027615354
0.5071506830632861
-1.324735096989315
-9.3197446786078
-10.328952277898573
-7.767252918394788
-16.699682098916117
-18.97613884393753
-9.4478494028334
-11.067217689994857
-11.43482746355851
-0.4061723756252585
8.832282582428174
14.065948724961364
18.106543102855017
27.936159953933718
37.24596934369273
34.073857121887904
28.99617017563634
25.736606168117227
25.43028752704603
47.46968297395331
74.43222297878695
78.49374138883421
72.01614252898734
65.36709928316411
58.61017511363546
42.36760898653739
25.47334223817419
21.549133045235862
11.788711236453324
8.77385187749079
19.10895886886963
10.980542206855128
1.1849721173676568
-1.8448764300529752
-21.081144347419063
-27.09682155543851
-13.899429001975035
-9.411529303395977
-30.662264435505165
-52.07168277056768
-32.74846327358018
-40.41521475278364
-55.075940672533896
-22.024453519280755
-27.00309974220808
-46.85865406657576
-30.046929040572437
-16.438551417538502
-16.332725670031696
-14.404556239977397
0.5440412972122031
20.222197143446206
28.130491843099072
25.269292777292037
25.333236159568628
21.014550964097445
5.8322837332765225
5.4551211446226855
19.367636920583386
23.875034580300976
31.831447824291885
21.028689375067366
-12.9995876042614
-13.965440967862127
-11.135023619089623
-18.974274568346576
-7.293276132009091
3.0267755826788503
4.024335904341266
-4.228791049576404
-19.72671544804196
-31.238170396669734
-35.59103041300569
-31.914493878855286
-26.743815082949695
-26.74140482653255
-24.636439412093544
-23.71854748794652
-32.21828211757468
-33.33721646563884
-27.647200103330807
-29.243808960761523
-26.327394177040972
-12.343716567608578
-3.940369879665306
1.3171969886748143
17.2016890816484
29.52689223804391
35.17362672246401
51.40284304059931
57.070882962147195
22.33901398844423
-7.387576572486697
4.356334508073186
33.87383130011756
43.69414446526789
6.428809425800743
-8.353857757718172
14.067249787545821
-1.3359251897901834
-2.7256651724648777
34.743304749979956
36.90000788279993
16.484003186563974
25.378860829438633
31.5274680805712
0.9033141790134038
-10.585678586557444
21.982195121454968
31.972537826867473
5.951796446995839
7.093156971487778
24.856564004610327
15.926730654892536
15.621294887215036
19.78877365861655
-2.6662945257989468
-13.647067837609933
-5.878261324392435
-1.9847230344176667
0.09503267480024566
3.619885793744127
18.361549009346984
36.20586346766323
31.006767138116277
16.543418512538324
24.959319161130544
38.44042604798273
30.1428982321689
25.462028625487985
41.940110290586134
47.340416327256065
31.749524428653135
20.150405320539104
6.033899882538207
-9.393900100938614
0.6349230899781648
7.316313173779188
-11.386179285489721
-14.28799603765565
-0.5621254904019664
4.486349026016852
7.7705457070524275
5.9710878474263716
1.6662285956808545
2.658403584660763
-5.804079654478386
-17.807620649841557
-20.857571336428673
-22.38757852583439
-16.61811974273418
-4.684968280765176
4.3836489216075325
17.829842707054365
30.473607510628867
32.677325929819084
25.534144498360398
16.60535554658632
13.862312687892375
14.528426589734933
14.880786914713484
13.753265418072099
14.313443960822422
18.53385899384262
17.97797901218402
7.600931830891805
0.15227937832458505
-1.2743906614085845
-8.552146910531325
-15.346498087990986
-15.931572443259661
-11.637034148232912
-9.617824093920902
-18.231785111346202
-24.471027115219062
-25.648289014084078
-26.81062479821021
-19.841411451544204
-12.185495023045583
-13.432244890501776
-13.120646221241376
-13.421612266300931
-16.90347764796114
-11.925675883623205
-3.9753023744562848
5.176287809173249
14.58134054319151
14.989929487670484
9.699528944563205
1.452155633420478
-5.33464027159695
-10.027234969520235
-16.38676489722212
-23.69298108208427
-33.45632645949225
-40.766287789118046
-45.025189160919545
-48.54861438493379
-44.431813163589844
-38.18334887765574
-39.968047961863796
-40.498535056242716
-31.31669842106189
-19.653899886148274
-10.855131773150482
-4.603322604648074
-4.79113309476858
-11.670915393692669
-17.630818408780218
-26.021955907664832
-35.627961509521946
-30.930867443938233
-19.28115565228299
-14.543828853476288
-13.871487036222286
-13.172245794359965
-9.408640504802293
-12.162586679089554
-23.16847524878402
-27.52697602769374
-30.391114426139847
-34.45787659973491
-30.843698319556133
-28.626168139063086
-35.61167391360449
-40.887370916130536
-38.68010277996437
-34.71848980884471
-29.19590800390345
-25.846283102808176
-26.723115033579553
-23.092250237240854
-13.27227317923863
-3.472526778120834
2.128330392914033
6.534027173263764
8.126232965982616
6.106378782745592
8.462591886912897
11.202774898600207
7.510281439463771
-2.017679831926
-11.923822403662706
-20.11213083118841
-27.48446587992385
-31.695908540694294
-41.29437203272361
-47.921133937245955
-40.58415920307697
-34.55285093129757
-32.566650265367784
-29.912742122261974
-25.278933218818164
-21.14334087522762
-20.448937771676366
-14.507991507239515
-3.859508318672949
8.617253629422423
25.212932830637456
35.200095340873524
33.30052397635593
26.211871295593237
16.75489545936594
8.454176598374822
1.4216301616774127
-4.932862839723137
-7.332802172475956
-4.862347593664214
1.463770234857696
8.217091509134352
15.518741531668482
21.409763279455127
20.082733529678674
13.11554005645187
8.531104511212627
15.685539688710882
31.816906373679597
40.6187043189133
37.76473337481828
33.59473991999009
28.403554437865015
16.172874009287742
-0.5575386512665796
-13.227956018983352
-15.682572311818301
-14.772949154090485
-21.036433275168072
-29.16656190655896
-26.96895083717725
-23.037631062714404
-31.19318774079657
-40.3444054577831
-40.53770830335857
-38.66867740070224
-38.161446122572976
-37.619664525085476
-35.75399708415925
-29.036523179213578
-21.870128387500532
-22.56362262909248
-26.358322624333553
-26.017253634009705
-20.546272536841606
-16.732420414075627
-19.52708582249073
