AAD_Filtered_TADAS_FILE
AAD_BASELINE_CORRECTION: BASELINE REMOVED
AAD_FILTER_TYPE: BUTTERWORTH
AAD_FILTER_ORDER: 1
AAD_LOW_CUT_FREQUENCY_HZ: 0.025
AAD_HIGH_CUT_FREQUENCY_HZ: 40.0
EVENT_NAME: 202302060117
EVENT_ID: 13194
EVENT_DATE_YYYYMMDD: 2023/02/06
EVENT_TIME_HHMMSS: 01:17:32.00000
EVENT_LATITUDE_DEGREE: 37.288
EVENT_LONGITUDE_DEGREE: 37.043
EVENT_DEPTH_KM: 8.6
HYPOCENTER_REFERENCE: AFAD
MAGNITUDE_W: 7.7
MAGNITUDE_W_REFERENCE: AFAD
MAGNITUDE_L: 
MAGNITUDE_L_REFERENCE: 
FOCAL_MECHANISM: 
NETWORK: TK
STATION_CODE: 0132
STATION_NAME: 
STATION_LATITUDE_DEGREE: 37.855892
STATION_LONGITUDE_DEGREE: 36.114868
STATION_ELEVATION_M: 761.0
LOCATION: Kahramanmaras_Pazarck_Turkiye
SENSOR_DEPTH_M: 
VS30_M/S: None
SITE_CLASSIFICATION_EC8: unknown
MORPHOLOGIC_CLASSIFICATION: 
EPICENTRAL_DISTANCE_KM: 103.34
EARTHQUAKE_BACKAZIMUTH_DEGREE: 
DATE_TIME_FIRST_SAMPLE_YYYYMMDD_HHMMSS: 2023/02/06 01:17:29.8658600
DATE_TIME_FIRST_SAMPLE_PRECISION: millisecond
SAMPLING_INTERVAL_S: 0.01
NDATA: 12501
DURATION_S: 
STREAM: HNE
UNITS: cm/s^2
INSTRUMENT: sensor = ACEBOX/SARA | digitizer = 
INSTRUMENT_ANALOG/DIGITAL: 
INSTRUMENTAL_FREQUENCY_HZ: 
INSTRUMENTAL_DAMPING: 
FULL_SCALE_G: 
N_BIT_DIGITAL_CONVERTER: 
PGA_CM/S^2: 32.530
TIME_PGA_S: 
BASELINE_CORRECTION: BASELINE REMOVED
FILTER_TYPE: BUTTERWORTH
FILTER_ORDER: 
LOW_CUT_FREQUENCY_HZ: 
HIGH_CUT_FREQUENCY_HZ: 
LATE/NORMAL_TRIGGERED: 
DATABASE_VERSION: 
HEADER_FORMAT: DYNA 1.2
DATA_TYPE: Acceleration
PROCESSING: Automatic Paolucci et al., 2011
DATA_TIMESTAMP_YYYYMMDD_HHMMSS: 
DATA_LICENSE: U (unknown license)
DATA_CITATION: Turkish Accelerometric Archive v 1.0 - Disaster And Emergency Management Presidency, Earthquake Department
DATA_CREATOR: AFAD
ORIGINAL_DATA_MEDIATOR_CITATION: : AFAD - Disaster And Emergency Management Presidency
ORIGINAL_DATA_MEDIATOR: AFAD PROCESS SERVICE
ORIGINAL_DATA_CREATOR_CITATION: AFAD PROCESS SERVICE
ORIGINAL_DATA_CREATOR: network: TK
USER1: GuestUser
USER2: 
USER3: 
USER4: 
[...]
-11.595884306989625
-5.101032636487799
-0.3261180393571756
4.782740643858747
7.565478145817266
4.321690448976369
1.4336914444373114
3.511030148378592
5.894030838997813
4.473342435133704
0.9174527793547661
0.12828311984179772
2.9628608892175343
5.658290850872053
8.073160906639423
11.336009003651249
12.395026304513575
9.578146932830549
5.276252033632799
1.5360585988438407
-0.523123971051543
0.41346937270587925
2.734440274260515
2.983808046283489
1.4675353092938768
-0.3210091677806178
-2.534864313910594
-4.038884180754215
-5.263001939064585
-9.529388091591757
-16.43541313716479
-20.82606432826623
-19.389134376913937
-14.56505427455329
-10.222136731999456
-6.042483354256274
-1.4590630097872261
1.2184169284171582
1.9512014832728586
1.1602093574751204
-2.6844214461307074
-8.143922915640124
-12.786721019780193
-14.475332033416345
-11.876698343491865
-9.483727790270066
-10.069957881104957
-11.021376540957156
-11.825211933703303
-11.304299870853777
-9.114316001860795
-8.295176741766374
-6.303838586453623
0.8205592582508168
8.271691845974559
10.196609435747826
9.138341189710317
9.920941964409252
12.681946328410989
16.453356287299716
19.066977566910445
16.380989821342492
9.452795315613756
3.8950835093846714
3.2562877091363287
5.506510830799176
3.9800337800224472
-2.0761414266895932
-5.172369794462043
-1.468722167207719
5.0222674865596435
7.6420724929038055
4.397725115912784
0.4894938541483334
0.5086609506434622
2.7302337592714467
2.4568591625304284
-2.7331325025936124
-8.48001922825943
-6.771322971775326
1.35301765978057
6.7601718389245145
5.178210327658447
-2.093005794136644
-10.212076451030711
-15.349821938478271
-18.827329194480516
-17.561655458777043
-9.727298962343767
-3.595686392022359
-2.930114161893687
-3.09412146182066
-1.0722339259469593
0.44411616588126135
-0.6901068847712634
-0.7186731360047024
0.024970616991075945
-0.856562898585089
-0.4635657479051407
1.569146868630936
3.3384267253467477
0.9295254988987394
-7.871881124430739
-15.772749620182028
-18.23171339469531
-16.778977167778347
-12.547712166863873
-7.7240027061055185
-0.9106353936179732
6.8598945596171
8.234068604710652
2.0103800854007514
-8.298369106402035
-18.446497522944043
-22.45581296285067
-17.889408976661045
-5.30959580720699
10.13624105303051
18.452857279649727
16.93626535506297
10.667656122139725
4.0556771418203175
0.15996406346145012
-1.29947046654287
-3.022894026939973
-4.551377568089489
-3.3168057821488346
-0.3100534853350453
0.35148764904594376
-0.11644863195009998
1.6690356000043887
2.4149101160907676
0.6940485029165259
-0.20793938666673517
-0.1173282588679569
-0.2878189193344923
-1.9328711344740428
-5.808280186334513
-10.644974066618921
-14.308947973251758
-15.241603292600999
-15.350528540810277
-15.845291597027561
-14.041332239828245
-10.496870527805413
-7.336455272164796
-4.78619450323718
-5.69720566569011
-12.086105982951512
-20.791890061865416
-26.46570402327436
-24.64308591245538
-15.855211461985276
-5.026157908960284
4.13699298640658
9.37431097523534
10.22215269457166
9.890370347519035
11.077489709353136
11.98826116036096
10.54281770615684
9.567362557050927
11.087869080241415
11.587128971836133
10.451540003752745
11.42606238945179
13.702524793251934
13.696708055723368
11.648910399660037
9.612412095675428
9.031611069360187
10.374028852934483
10.850568409490965
7.901336731745214
3.021415813887435
-1.9279482912640447
-5.313339949203509
-5.87941965862588
-4.455712850926789
-0.40677633056886886
6.527722738721755
11.85581128636687
11.95504509207755
8.62000536271617
5.8860221345951045
5.507394616756143
4.938814633670059
1.6106709254804894
-2.8107094630801437
-6.373277165386494
-10.535546696652103
-17.16712874558842
-24.367249855703232
-27.21422149370233
-24.324151937443542
-20.391174819849528
-18.852330071583744
-18.060418674654542
-17.343749496940987
-17.792135819685104
-17.439603788031604
-14.401568496758383
-10.253813453300655
-7.886074966849883
-9.133375555073561
-11.734551193916065
-11.40623529648554
-6.785012364510286
-0.06770064587221934
4.126124217964466
3.5400460993783196
0.111607952199773
-3.8402734588011853
-5.893863790087209
-5.870026568636156
-6.673973140284406
-6.91274507227515
-2.378647732074737
4.753962219444355
8.1580360887118
5.483009352263274
0.001884507748524107
-3.3775960843881805
-2.9557973708508087
-0.4165418650475387
2.1900180282978825
4.477370641130587
6.806123933518207
6.513550073325761
1.6427163825282332
-3.584159290084461
-4.8660047776314395
-2.9502111682144627
-2.0501567683493622
-4.356945587261725
-6.190999579507319
-4.910185878595638
-1.0206352507200862
4.309271618785223
6.81213287672134
4.592247008557772
1.3753078191870056
2.0978446647238136
7.624544227723698
10.929944007501534
8.51913418666558
4.413199566816624
-0.4407062786695885
-4.551985313295159
-6.974451256538549
-10.765633012143583
-14.177674509567838
-14.756099701465908
-13.463787080638527
-11.384637191493947
-12.094746076057737
-16.231069164948554
-18.489322417177288
-14.656152970460196
-6.320632656851519
-1.2809572826315692
-3.3971073868779733
-7.156621363350956
-7.780957314527662
-5.514396444017238
-4.543285364809816
-8.776018274830594
-13.346726905692677
-12.694939964442405
-8.907566395274731
-2.115283693343007
6.225371373857012
8.689967720172673
6.058862023506547
4.971500038797056
6.063570386055246
7.477012837865734
6.463803450101336
0.6598878861029824
-6.908512588635019
-9.257771560710916
-3.250722636121782
2.682753724081611
-0.8511769513790914
-8.847876735804075
-11.678706086917336
-6.67889877335142
3.1632318328507805
9.788053590513684
8.398812419147426
3.631522763083019
0.41228632581931585
0.6459161143689831
4.892415127581382
9.682911400603102
12.076489438511825
12.18849262216461
8.16288905019588
0.45146470832181096
-3.8253386591121186
-1.5128185523017403
2.052460236609603
3.913082045866843
5.151869991284072
6.43713590381772
10.310048247416917
15.557370210661661
14.584977668921491
5.498232179200376
-5.911718889769506
-13.788599598583458
-14.525519021346964
-10.796290967099452
-10.047017627987353
-13.396663594912717
-16.18689478008659
-16.393078309261565
-15.252678331022494
-15.261794542963305
-16.917798969897966
-18.795740629082538
-19.049316593969294
-14.445595438606766
-6.876986444141192
-0.9513403156929656
4.009560615833666
7.409341527642022
7.693122560618886
5.463259340425069
1.947072771320988
1.1571380207697248
2.676769873748129
3.122874119157658
4.8132367337042705
9.115308735855924
15.213405867897777
21.126825759116254
22.50164695931196
19.914098104815942
17.07335920151063
15.538516961483806
16.453075838721084
19.466549131494684
21.95499866193725
19.861556946464763
12.928329033653693
7.274472667195775
4.482287720796521
2.387937900483721
5.454133668484835
14.752936598598989
22.465466883553937
24.98509609340262
24.536672360943147
21.513975772067674
14.903905779103619
7.260963298133702
3.346549102073026
3.5745837915197822
5.033013046427081
4.850765904990349
1.8871462272034634
-1.4020775231671585
-4.228892483114984
-7.21503264873941
-8.220704523222574
-7.9721427682375
-9.123455525521917
-11.595006472594305
-13.821180594221165
-13.254685812221528
-11.03846933724916
-11.194662673114422
-12.764174913496523
-13.510196469807624
-15.065065768981118
-18.312253848349936
-20.81546324840126
-20.626718685061267
-18.548506570083305
-15.28466379754262
-9.935870727693857
-3.4800411699544234
0.737221378412572
3.4126524029102523
8.274823072312547
14.318978536975042
18.971627317640973
20.502463592239753
16.927900223591216
12.351993830448311
10.916299763854385
8.881687582864142
4.608624542613368
0.6333304427043986
-1.2844060857879855
-0.4703151134092016
-0.22508682104383226
-2.7484603350259333
-5.702319380355566
-8.499034476772747
-9.702036469376903
-7.12695079274744
-2.647797911596021
2.831227482322316
8.407416144826078
11.72476577240371
13.976514924595064
14.713745799005421
12.421809170109995
10.054774982949814
8.488947039000161
7.120022161269683
6.430307063375385
4.963542623909345
2.989876686115397
0.2574470282299489
-4.046963094441768
-4.810693217651953
1.4111378429527306
10.841193179083287
17.866340668998934
18.86869927912065
14.73176074563996
9.401493246741222
6.580257092379866
6.55401782027954
6.123468625588473
4.478903872503496
3.4753596242289584
3.628282089352816
3.620903679158335
1.0167213471724077
-5.719328154857583
-14.747382619479371
-21.399899009481253
-22.702440243925157
-19.65478681855947
-16.233600409255093
-15.872042194898553
-15.92237014626901
-13.744135819264798
-12.380245565525307
-12.25253503479308
-11.253657024303278
-10.166896381660163
-10.299573731456254
-11.79534632656345
-12.757862448147046
-9.994691699729913
-3.29954979419557
2.9168504895006286
4.937456136808934
3.8569221539099137
1.7991538903594757
0.4118080557610414
0.8040246240012705
1.6667187299106812
2.2755929462627833
2.3314060070420037
-1.285160073742634
-8.285483064736024
-11.084544976428957
-7.310093953581978
-4.490744629455745
-6.16867742229854
-9.35708806077584
-10.373854610596965
-6.055066127366725
0.5732485618757255
3.3067583300552252
2.291840301606518
2.6774871228576984
6.48247024950956
7.747960676716917
3.6049660701588433
1.1249800185231424
2.438483024926513
2.624411148183441
0.9310451667846132
-0.5184052243763675
-0.028034521911163363
1.9054549242643102
2.052811885254017
1.932612149869986
5.928709759488498
11.168210749271132
13.488115168599718
14.282661579493888
15.535013030012731
18.874589271328592
21.65498888889256
17.25055655263058
8.897991203780185
3.653111297629945
-0.2718689871457776
-3.261775368417046
-3.2025427293420923
-3.0540330453304763
-4.369978443308139
-4.830504373798369
-3.3993026388368675
-1.466131943188519
-0.7685335136559162
-2.317105852664109
-5.161785649087509
-5.344545604317324
-1.7108004092905424
3.0815948717178108
6.9443536570337
7.6154145903542405
7.152576113867987
8.751590106255723
8.72939500803548
5.73179636082684
2.165763583596445
-2.166817814408771
-5.587027426171811
-5.776066520086323
-3.7266298361283465
-1.378769063474462
0.0601811353047825
0.9815075280970101
3.1089178524036747
7.507551270668812
12.631010412184091
14.43703856360172
10.541337689584234
4.7747291472692375
2.3559998612566058
1.6418437135885824
-1.0491425543085222
-4.859071272584347
-7.04239371242149
-5.4376958342332475
0.255711985065542
8.38016695279289
15.473048541572217
17.38091372970504
13.944904213212121
8.239597517333275
3.0821552290626597
0.4225493255142109
-0.36097955208711674
-0.9340563087335919
-1.8625038976013262
-3.1598175291865163
-3.561619747879042
-2.2421151789495912
-0.730136960865275
-0.9310712433114228
-3.5868627536378233
-7.070618188848435
-8.142233982955661
-6.665581191172477
-4.772823407392714
-1.8019535355749123
2.421336934457164
5.418065788517951
7.52386303864037
10.251970321690981
11.953876353705423
11.208000736330154
9.725670417153557
10.702073255876993
14.695491048375652
17.76909310033305
17.315461492009455
16.84344378284865
19.02725925982509
19.960765403337916
17.05769564518606
12.107201775966496
6.234734745048526
2.2073155891569756
2.3972930058982507
4.037811743947368
4.0987930123594225
1.6528709902360306
-2.346985666958533
-5.187912788086346
-5.858704959345064
-6.524929757322559
-10.773835199367314
-17.380194674657094
-20.550968493098836
-18.618246613779547
-12.823049084726597
-5.70830623351947
-1.9437570346644863
-1.8000279673710156
-2.3663399880293547
-2.8245181270746778
-3.2759375423763197
-4.30126103900847
-6.281360809177594
-8.221263624587422
-7.6090607624413895
-3.666540566488902
-0.12675519870227406
1.4157030065169516
2.9872672608940793
3.896819211937486
3.0656348715274477
1.237569452089838
-1.3896390889911063
-4.5924694090951155
-7.816991330307961
-10.574038556392546
-13.635286108922369
-17.482792650488797
-19.888657611518397
-20.880579976362597
-22.343189675532088
-23.220154538754667
-22.91702435614437
-21.464501354849062
-17.67064785047495
-11.53082946656048
-4.7155516767360055
1.3766279914341104
7.772183576815475
13.512646621847871
15.215488441669292
14.59542891916602
13.495354490573638
10.702364570212604
7.704368469501168
5.197756623501977
2.6503499618133857
1.0204490284908339
-0.9480266178852328
-5.638431099784789
-13.69221167721188
-23.882357650250302
-31.60389131535957
-31.102781749480673
-22.102991015586593
-10.975057809581225
-3.379259638047194
0.6571178926572718
3.1281114752988417
4.035438618519042
2.069036173850898
-2.794105276662574
-8.560697624463305
-13.49496765580682
-15.87837485866051
-13.458826575001572
-8.383336999320948
-4.956201223031558
-3.81655889167753
-5.3624466664784665
-7.540858697696085
-5.959168172963711
-2.5416171018908704
1.0088827399165219
7.2533982676504785
14.865160945535724
21.0049469982835
24.350406185124772
25.43972549112686
27.460766733149867
30.528594450818844
32.03877741017666
30.615368054309883
26.288047247205732
22.005571775690147
19.284680515813747
15.92865513783261
11.976876131039957
9.410313939195225
7.873237933210225
4.448887969625079
-1.0506214846072284
-4.473102718167095
-6.338560088136943
-10.059879314526627
-12.996661669477035
-11.381063496692269
-5.548792941230231
0.16176402648810922
1.1642809438851531
-1.5189516318721896
-4.779747448828022
-6.323221765165001
-4.625559427044261
-2.253803160760781
-2.7818418719680933
-7.135815733885185
-14.038596800260397
-19.5618437713027
-19.814639605248182
-14.936342828719772
-8.989448966015338
-5.925014104453611
-6.465426363309107
-9.352874439569694
-13.316196701980164
-16.420923053006696
-17.107461698008667
-17.153196824584406
-17.519581621370378
-15.80004271406826
-11.956309197295822
-7.9756070007449225
-5.236112713030548
-4.648654120266757
-5.602982664068903
-7.461092873724454
-8.817984163830817
-8.109010693424706
-7.436003910148125
-8.53991491517937
-10.049595246665035
-11.622685054886512
-13.499266257697133
-13.202311481891067
-9.36925478844064
-5.286798164213484
-2.06668594521489
2.5150802923414273
7.984704849574989
13.556455631047987
18.486414360861474
20.330586063093417
19.489510522815607
18.658640439856605
18.1989324064365
16.140092483529042
11.535552051699746
5.69959513868515
0.5333170913074081
-0.9569861736222911
2.961141927050898
8.921319845819372
12.248854655197103
10.83923664059216
6.172455721347916
2.620631464102709
1.7297754080207528
0.7457063838451926
-1.7050255228235878
-3.4002178100400333
-3.138147849183292
-3.100877568927457
-3.6101444467498527
-2.8114693373762742
-0.3984365873045843
3.0822247173709623
4.353174636718471
1.8517623568014465
0.5167289653730545
2.389674586342569
5.846880957856449
9.519921833715856
9.447239832914756
5.404428184673723
1.3789301854778386
-1.862678947497168
-4.753529714392281
-8.51035228484412
-14.202441091717478
-19.31429541046426
-21.349716072047414
-18.07841191575056
-8.296808653358582
2.8455640157693667
10.234967420035945
13.854323491792762
12.718020988827943
6.977924176499628
1.5417280433322984
0.2062247077463187
1.7800037456293707
2.401730397358449
0.5168985266094851
-2.030181541686211
-3.5465219934764507
-3.4736349159794524
-2.560266661677837
-2.9624406826311636
-5.03371243597362
-6.049184291321971
-4.597755164434955
-2.3198687396067728
0.2925618675795413
3.2762275400784997
4.972277386220704
5.017968700013395
3.3867169036421
0.24979011334838638
-2.1048411101849713
-3.576913361320905
-5.085540331621729
-6.163055979007044
-7.2394661344579845
-5.6182643510656165
1.0280859897795096
8.344977239535659
12.847562970887642
13.656623680239502
10.530757806217153
7.573714901486556
7.817331540043694
9.211223985002006
10.982349639297933
13.883384514683195
16.47663170154226
17.653421203428703
17.59700357366789
16.173202440214144
13.865966243962939
11.288323029982191
9.5670907674574
9.792975987219304
9.703549655934765
6.635902417209682
0.9106635837407775
-4.874573909095654
-8.342137113154692
-10.608251147795201
-11.936066876226043
-10.66101234825709
-7.509488069727094
-2.2054189103749504
4.500127030510423
8.60604692833709
9.246501644249621
7.36431354308159
4.10009556023677
2.035786602977532
1.533110215480388
1.4911216914962226
1.1167314852237646
-0.6884252268157901
-3.077245947791264
-3.8364106625945706
-2.4740138300117764
-0.01904051354694917
2.767162607080843
6.118795102847702
10.139729588867255
12.607561854857476
10.566509542863718
5.683626929838888
2.798169173414463
2.921122415411816
3.3958599924813697
2.599701573925875
0.5094540369214846
-2.618779413400754
-5.083365053436375
-4.67398376597897
-3.852532720382963
-6.934734973365429
-11.966164451843913
-15.05907569392786
-16.886462550476097
-18.093269201197
-17.658362094588327
-16.241583540251934
-14.630914569129441
-12.541428227117466
-9.749532801746183
-6.741277568847563
-5.683119188374238
-7.36830912074016
-9.011040355594584
-8.7094467817593
-7.083317689983897
-5.341766226198285
-3.7249366186246675
-1.5961864768121552
-0.43801911382423836
-0.5367833276665361
1.029862028389716
3.948078625332982
6.450858264973985
8.03300275916883
7.270384641326975
5.330648659073707
4.320180335821821
3.054153925522085
0.057818463412691035
-4.28649744306374
-7.413034529474388
-7.064983528853435
-3.8111946347067183
0.9503257167467508
4.70933537993988
5.167409277031907
3.9515908712710783
3.440171132814171
3.9574769282601268
5.333845677678265
5.965185600269107
3.9811382109280307
0.17627933538292548
-3.7405771437948454
-5.546111212014355
-3.2098546482593107
1.3393183525655143
5.014763123540192
6.724517758991463
6.008382474696531
5.025484304333258
6.701438610436533
9.772644293589844
11.786863793969586
12.706152806524488
13.499203139949106
14.422816949567073
14.331750010631026
12.586083881796304
10.961374333792294
10.34272298672617
8.517354612244608
3.792048629876891
-3.2364767439591757
-10.125095147118035
-13.00235132924228
-11.064673496164707
-7.5707585330189335
-4.631407740722195
-2.7448916942703137
-1.9224902435721458
-1.525861717504555
-2.364096506727893
-5.2632332516700355
-9.177049708493556
-12.7861962756088
-14.430159210433603
-12.582472474528409
-7.801953449129993
-3.240949364602884
-1.4013632536462546
-0.7473237115855753
0.10845935545447671
-0.1705919610963461
-1.6392151724578463
-2.909245311171457
-3.8199917170953603
-5.089044516462634
-6.346049956567806
-7.106085733518458
-7.470386716630777
-6.956538618964889
-6.769329536151198
-7.694787156723116
