AAD_Filtered_TADAS_FILE
AAD_BASELINE_CORRECTION: BASELINE REMOVED
AAD_FILTER_TYPE: BUTTERWORTH
AAD_FILTER_ORDER: 1
AAD_LOW_CUT_FREQUENCY_HZ: 0.025
AAD_HIGH_CUT_FREQUENCY_HZ: 40.0
EVENT_NAME: 202302060117
EVENT_ID: 13194
EVENT_DATE_YYYYMMDD: 2023/02/06
EVENT_TIME_HHMMSS: 01:17:32.00000
EVENT_LATITUDE_DEGREE: 37.288
EVENT_LONGITUDE_DEGREE: 37.043
EVENT_DEPTH_KM: 8.6
HYPOCENTER_REFERENCE: AFAD
MAGNITUDE_W: 7.7
MAGNITUDE_W_REFERENCE: AFAD
MAGNITUDE_L: 
MAGNITUDE_L_REFERENCE: 
FOCAL_MECHANISM: 
NETWORK: TK
STATION_CODE: 2104
STATION_NAME: 
STATION_LATITUDE_DEGREE: 38.2644
STATION_LONGITUDE_DEGREE: 39.759
STATION_ELEVATION_M: 919.0
LOCATION: Kahramanmaras_Pazarck_Turkiye
SENSOR_DEPTH_M: 
VS30_M/S: None
SITE_CLASSIFICATION_EC8: unknown
MORPHOLOGIC_CLASSIFICATION: 
EPICENTRAL_DISTANCE_KM: 262.22
EARTHQUAKE_BACKAZIMUTH_DEGREE: 
DATE_TIME_FIRST_SAMPLE_YYYYMMDD_HHMMSS: 2023/02/06 01:17:54.7016190
DATE_TIME_FIRST_SAMPLE_PRECISION: millisecond
SAMPLING_INTERVAL_S: 0.01
NDATA: 18251
DURATION_S: 
STREAM: HNZ
UNITS: cm/s^2
INSTRUMENT: sensor = GMS+/GEOSIG | digitizer = 
INSTRUMENT_ANALOG/DIGITAL: 
INSTRUMENTAL_FREQUENCY_HZ: 
INSTRUMENTAL_DAMPING: 
FULL_SCALE_G: 
N_BIT_DIGITAL_CONVERTER: 
PGA_CM/S^2: 80.515
TIME_PGA_S: 
BASELINE_CORRECTION: BASELINE REMOVED
FILTER_TYPE: BUTTERWORTH
FILTER_ORDER: 
LOW_CUT_FREQUENCY_HZ: 
HIGH_CUT_FREQUENCY_HZ: 
LATE/NORMAL_TRIGGERED: 
DATABASE_VERSION: 
HEADER_FORMAT: DYNA 1.2
DATA_TYPE: Acceleration
PROCESSING: Automatic Paolucci et al., 2011
DATA_TIMESTAMP_YYYYMMDD_HHMMSS: 
DATA_LICENSE: U (unknown license)
DATA_CITATION: Turkish Accelerometric Archive v 1.0 - Disaster And Emergency Management Presidency, Earthquake Department
DATA_CREATOR: AFAD
ORIGINAL_DATA_MEDIATOR_CITATION: : AFAD - Disaster And Emergency Management Presidency
ORIGINAL_DATA_MEDIATOR: AFAD PROCESS SERVICE
ORIGINAL_DATA_CREATOR_CITATION: AFAD PROCESS SERVICE
ORIGINAL_DATA_CREATOR: network: TK
USER1: GuestUser
USER2: 
USER3: 
USER4: 
[...]
-9.759197460560106
-10.417119671728194
-11.59025519029388
-8.106925084865006
-4.112148228019089
-9.162648955225915
-9.86113469900437
-2.6618718074002423
-3.559651659802931
-8.080021608900925
-6.023472677307101
-1.7073785657636575
-2.296259969363221
-5.94256803454304
-3.6678315619914916
0.1300568962626221
-0.20043678155187292
0.45049879609853766
0.9432932446808228
2.364717187771631
5.0535648048853155
4.771445205940485
4.448057017286606
6.489213109433645
7.681438982008981
7.746046081915554
7.713642082210242
7.1146301364574445
8.851717577721187
9.050282305430354
11.93368919842741
12.159002667622206
4.715273746902926
11.442047546592068
12.06701288298601
6.206600987347759
13.063780753046736
9.901116787385796
9.792125187418293
11.78055577393088
6.4383268246204075
7.394987930575332
3.2849824045347185
1.1035507357886727
1.756881542857114
-3.996725824268256
-2.3178609661091385
0.9745580468744787
-2.5865656499341
-4.785546015082937
-3.923586553374759
-5.119903215854666
-8.644198539933164
-9.345513357451233
-9.478694354482712
-10.250807706858575
-12.00129148730561
-13.486778521140222
-12.382167846542078
-14.291974086840945
-16.3613029963217
-17.31771004188762
-18.93362332268318
-18.806060046339912
-19.632430612461526
-20.225467378934
-19.83636753295292
-21.467899412776745
-22.425384273876528
-20.95952256582935
-20.37426611517252
-19.82966976214447
-19.862700212781895
-19.50335383337665
-17.073513351700484
-19.844021488316695
-22.368298548038887
-19.543468403429365
-20.35821404638286
-22.27780576222293
-22.468316405031686
-23.871156516965655
-24.547765961576165
-25.378321625348786
-26.509517845523675
-26.451983445946606
-26.47516930283047
-26.19371796560082
-25.824697900420304
-24.886437960457894
-22.35655626402514
-20.902074068299722
-19.22490439212045
-17.254667435603672
-17.011099651374064
-14.4003428915001
-11.363717734605862
-10.49629553794635
-9.421076671960154
-8.175655451217784
-6.6839083412893086
-6.8704137722931655
-8.030507052058805
-7.948193878061701
-7.521346577958982
-6.866702176483573
-6.004984460518172
-5.960093364850401
-7.2223845944446685
-8.135327177525928
-9.067602516677272
-9.804441703846969
-9.121798472009333
-8.68690286332688
-8.103537276239413
-7.2578940334687685
-6.767471190085077
-6.619146214650152
-7.023337597449973
-6.901657545143792
-5.921066622471798
-3.9751278789970876
-1.9604238301642463
-0.43728951836177254
0.8594253849126203
1.8573337744809257
3.6296667825379467
5.28827758659677
6.470589728869427
8.085701663414008
9.731018247267928
11.324942337312269
12.585797915347266
13.551615880745564
14.286439828708527
14.994350563611071
15.785786456054476
15.772056319310948
15.062743419901658
14.489590294686325
14.041744928986487
13.60569205182972
13.353556644499132
13.093330946743555
12.833721714240585
12.67316462657477
12.67559768186126
12.781864426458691
12.339165048254383
11.447806956905806
10.94856351229501
11.251149866992273
12.393166714397914
14.00513147792604
15.213820038916118
15.619971220097238
15.095436707655512
13.813592367862851
12.97849076204225
12.739540934424252
12.455450664185289
12.027269465712882
11.684350990559135
12.387108152731834
13.620752393194204
14.10322017362576
14.796865650849448
16.178537150928832
17.484687542351598
19.111232828093268
21.12626832110903
22.96306667204146
24.45999372585014
25.436323530362806
26.097270220932003
26.56983844986899
26.85866087898183
26.79585926975714
26.114958505210165
25.002311100170814
23.182737104558043
21.259473131349864
19.533395747540474
17.380003890627734
15.696877374881153
14.420475409886485
13.20889185298711
12.7705493890824
12.761970283162473
12.448453674665346
11.627708734851081
10.463570655192399
9.010495691380585
7.861021087300515
7.140824821742574
6.129380410424412
5.425779496542176
5.6349452335464365
6.398692528215974
7.238927599016527
7.294114739727404
5.849201927175756
3.284697437490707
0.6063260230773987
-2.0814624884712205
-4.751625098494327
-7.1277776187471025
-9.395841421687626
-10.76086170726803
-11.597305217461338
-12.721336318828339
-13.437624255820248
-14.205953971800158
-14.317047067968748
-13.502049249702718
-12.984572880165695
-12.640119355823002
-12.52336084492153
-12.463509795374055
-12.16619050014329
-11.09197728208127
-10.408727426624424
-8.973389843177772
-7.455242498249638
-7.829098620329471
-3.856123428882556
-0.97352409241069
-1.8634254531403063
1.0356702973493077
2.3576525321371493
2.0297289639951352
2.826509429841554
2.800023807747623
2.576830234934225
2.118954521022148
0.12821129428827668
-3.1367836871062527
-4.134081340536043
-5.846071804204118
-9.498276309307549
-10.964459143067792
-10.557300720872982
-11.051651408628828
-12.058019390292959
-9.74954765416776
-10.586100869540903
-12.520703042931448
-9.764565277643854
-10.83285196408857
-9.501137753642237
-6.213243574977674
-7.552919065716615
-5.973015381361283
-5.6280293667746895
-2.7833115993536857
3.5097949062400082
-0.43982239131647666
0.6294562477960408
5.369733079677689
1.0413300862789472
3.3031056655582813
1.2271286614681267
2.694922268254026
10.587336758402984
2.4988882744504566
3.5331991184063396
7.589396113767864
4.241183316485287
5.303106674201115
2.203948695750258
3.435599091314132
2.9059430883620943
-1.8437994803897217
-1.0579094282349535
-1.1907379141002326
-3.763720618968855
-6.740838742157422
-5.766753341566325
-3.972268345335228
-2.9423210147813244
-1.6896248446451294
-4.533979183017772
-3.1216418341609584
-2.4137026101073533
-8.066851008985173
-5.868073062209226
-6.664899892954913
-12.448549580568683
-9.958277466272408
-11.572755055997746
-14.802095462728735
-13.560726874191905
-14.704954569185109
-14.914082168905642
-15.014949134121023
-15.573081908001987
-14.146482279889312
-12.53795908690564
-9.782165658822533
-5.312728180819934
-2.34311750113126
-2.2385057094159078
-1.071798028010915
1.9136301234485131
3.1904119922864362
3.3508053719493334
3.876337939026093
3.4574553006148667
2.5280131003873754
3.8567904756327622
5.3795153010688015
4.656475998400096
4.909875199089764
5.056421280754328
2.7736820556277273
1.2534575252065585
1.525120046543845
1.240128053310009
-0.38364367348309425
-0.48003377662538743
-1.4367850882970816
-5.09947522796886
-4.6697935351411894
-2.840099019122415
-3.219917054702921
-4.26331700825007
-5.280088641337207
-3.347026450565419
-4.077793241929599
-5.601969394729066
-3.3791531021849903
-4.355750002829952
-4.880776386714882
-4.147838908563877
-6.628393683885048
-8.07903120568675
-8.338883421698453
-8.972278631382926
-9.417347790863419
-9.816255018923279
-9.589735359329577
-9.051483396096621
-9.234191962286898
-9.514001845525835
-10.045900159273527
-10.469111113515497
-7.913128631950055
-5.2092614290198895
-3.8646982178955027
-1.1282682267548874
1.438167116046946
3.1824920090514075
4.786848230517474
6.851038828486812
8.847153510125658
9.746335846246252
10.28483019467898
10.269148501350504
9.175927668151314
6.8091142225074375
4.998003846275737
4.218413922262261
2.96352226437598
2.2956107662952308
2.079643928468681
1.770141976666206
2.5080101997157294
4.057771306343821
4.939989381398452
5.3057027141850694
6.00335620878186
6.736282859500547
7.648016557518151
8.55953314578914
9.639658135026819
11.062927709907045
12.071241428408314
13.127910985941545
14.290133186704754
14.737974334223294
14.582673018747613
14.144500558838704
13.022804131126097
12.297995912248581
12.3893873757847
11.208084169834727
10.063517483186374
9.639108409171005
8.029295787923298
6.697537142421131
6.398832356538589
5.8950590600370605
4.9066093084663605
4.403863573879887
5.194182162123957
5.944014892456133
7.318097221531347
10.190918653323314
11.82099706109408
12.60811401303874
14.266618319987543
15.150848683659415
14.7154354172731
14.223263844825363
14.540355539448186
14.967125954262727
14.726575795766289
14.085123970770999
13.600278089604164
13.760919917104138
13.93835989684968
13.92030704400614
13.502471112580167
12.25792129886736
10.710013155522317
8.693051894525837
6.512250155464909
4.288659622519155
1.6389015644682736
-0.4253747934644578
-2.3259688102001475
-4.234564211554908
-4.791630654042214
-4.68351258607355
-4.9760331415017465
-5.7591015031564785
-6.227369352499222
-5.963307369483943
-5.450978871697741
-4.830212349219974
-4.979264006806078
-5.843905168302603
-7.0938070205675565
-8.635643144306405
-9.706775451707802
-11.003179127458182
-12.568726524447337
-13.922765456532876
-14.882893492440697
-14.92051315832117
-15.633491647611546
-17.355636336645972
-18.943749524253295
-21.367457799568573
-23.63734641782138
-24.305227405449614
-24.289068265584888
-23.720878792595457
-22.913968556162693
-22.56091132755035
-21.81918298114183
-19.73329233761636
-17.25042406376052
-15.24120167545538
-13.937340910326295
-13.407628016298675
-12.174539564135427
-10.675270538483488
-9.415824405617066
-7.50798909649543
-6.099186564265699
-4.468945381342075
-1.921622144788689
0.7424692069566813
4.1104972154254735
6.947195986340096
8.277689200800213
8.735913831490068
8.254705491408021
7.143383632587185
5.802399275918303
4.695223799901411
3.9919789610882694
3.9856984360126124
5.013198541730605
5.770790628192476
5.932028432637436
6.047975748197939
5.096108509956762
3.0679640180053562
1.6099784724599977
0.7840446200926238
-0.8643171660244745
-2.6309252904467235
-2.8954455206120966
-2.947450744244245
-3.085066695832544
-2.3696103563873545
-2.18293350417944
-2.6355603035868125
-3.7093493679925698
-5.314478810278627
-6.2701871261827655
-7.360888456913108
-8.274942952738291
-8.556210155448284
-8.426790189952072
-8.007676756241109
-8.572146319732667
-8.871779456296357
-7.78022455396335
-6.4807732835783805
-5.3759447737021775
-4.094428054477932
-1.935728486085179
-0.8203399460050305
-0.9214401166876784
0.27935669630122606
2.503026788474984
4.764765667815868
4.458943894700945
4.476932974793647
5.725460495754211
5.947508200083223
7.569603034660405
6.668575828840383
7.343552167587868
7.467640998342461
2.596823455549699
2.8034379796507927
2.4812902988898986
0.8329127277681553
2.929648840626517
5.515324662663369
9.113729250434929
10.199466146638406
8.460676021376798
7.419986315562786
6.725847990224463
6.454525485546401
8.192492350168266
9.633223273288388
10.011014173089483
11.315229424850079
11.262742668598037
10.58872557606132
10.389124442414015
9.23906337582477
8.359935637650457
8.222899362989653
7.936091678001358
7.470824807430546
5.418840985279704
3.5851389204569823
4.101015778816188
4.04017244436991
3.535259499191584
3.165278807846789
2.1507251257765314
1.7963197263599662
3.0865728696159045
3.700220500797093
2.98046670315993
2.086423144591733
3.4595739785208592
6.079266183126233
5.540488684056881
8.202330550972682
9.931089919814978
8.756066355343759
9.944761169679039
9.599627245674291
13.427732150719574
12.492724828773836
9.174108687391803
16.10222138389355
10.887366128294893
-0.05947693129332926
8.720669045299413
13.544029394624742
1.0771808672038543
0.461539536136596
5.849016234164878
0.9509201268469644
0.6306093861047983
0.16834670132737747
-0.5903620566460221
0.1374045862744621
-2.418666285527462
-2.2679149131559844
-5.609350311287506
-5.083783123121872
-4.83055142302423
-10.515558399832372
-6.7016291066792775
-4.578038001932099
-6.670476369616322
-6.227762541054754
-5.500392107367638
-1.7820013999788644
-6.149050319997439
-7.18538742322373
3.280598472008244
0.6195114720083613
-3.0148416696725095
0.3623322408517065
0.5648072415927207
-0.3101069346712981
-3.876011363423929
-2.958451820929607
-3.4160904094917233
-7.613578268239198
-8.10019479012706
-8.352562724168955
-7.9767489726653045
-8.35801724474414
-11.932125963733116
-12.658899965483629
-9.746831713568154
-11.148779827154588
-13.467952046628401
-14.388413675462086
-15.472115313515124
-15.793280574937182
-16.493819974632874
-17.39967656756212
-18.807352497104834
-19.433547680725894
-19.328849939348988
-17.495666960053025
-16.711783285236994
-17.000855530022633
-14.058320508394788
-12.482044597572798
-13.002471042441229
-11.67637801573351
-8.213729039290262
-5.201178470515485
-5.219980783399396
-5.871276363668194
-3.5944300758635275
0.014506438350575114
1.6096231413488746
3.257337631905756
3.5069707622389754
-0.16471205450583234
1.7814353742002333
3.9407052103961915
-1.1488778804593482
-2.7105540943636632
0.6299440467897129
-0.10259049137570775
-6.87066549280839
-1.1859633770819928
8.40270124701984
1.8691743300493353
1.2499751908912335
6.8813318960708845
6.4765162703793155
9.060569007960483
10.645417422040593
14.574468339061768
13.823860478511678
9.283061881972081
18.33095017501395
9.254083666882293
2.8925769548984923
15.60852787556135
4.745853501404762
2.3681868861922286
10.243870811593728
-0.4739072388995949
1.079087634311411
-7.607627184997107
-35.42939955841375
23.32716699402191
83.23905061060482
-6.314386293502277
-60.5695146153636
14.287257291943943
26.25377350328096
-16.00090437347159
27.052221191872555
37.009427853634264
-23.932733254257055
-20.25696348913746
8.456841081551877
23.414845624230573
9.293670129800526
-2.2154881600052296
2.4068322126379544
-27.932099702466843
3.8353323979035934
8.755681101270214
-38.644915138661496
5.293999825653865
-6.450090879030104
-34.51223015145662
-1.0898708663679417
-21.80438042659099
-15.879702589152064
-9.03649366007573
-21.685020209236022
-1.0846786534019206
-21.28981733137301
-24.279633153582534
-2.364609634863483
-4.038575389465589
1.7421919421918939
-5.490481178578231
-18.634488555697313
-22.3024065618033
-2.09592343524519
23.037341290003727
6.063416200622659
-16.99389623924377
-18.367314666861084
-9.043796756206788
-3.612331437109242
-15.673548266037526
-16.1107244894848
9.36089827311902
20.013423563020787
5.523255078834565
1.2020219507509262
-0.1759936626934955
-19.21875167549876
-8.220581527466328
12.543476431607724
-1.1800973579605976
2.3578925547031564
2.1809338765059123
-1.007724386361176
1.6668179221956556
-16.186705722834752
6.105872497433288
17.351177098451455
-4.877886393399664
8.702973743424968
31.274541737313655
30.23286665025973
9.992986550023591
32.36902355345076
32.436387578261126
-20.714468397150874
6.914752329134928
35.389435236928215
3.223542024291379
5.064275069696449
34.561899463415195
17.086412137874557
0.07083049861868992
44.308194723932345
29.419830416331926
10.329121555623631
39.732617202635296
25.13810602660654
25.83956757739811
26.57683645341215
26.508450638655383
24.70875723370363
4.592358265872957
26.698170743710982
28.730358093029576
17.849524162156783
20.171668914573612
7.734716249768215
8.467668505550636
13.167406539218568
14.872595380682702
4.307675263901044
-7.83998103124783
-13.916826849850858
-30.051766921734256
-17.20907096827905
2.4566512874149855
-15.017174740707404
-16.396570590304485
-17.743328952082994
-30.634444964666045
-9.718866482766442
-10.669253113071134
-19.3782080240626
-6.269590345219659
-12.338424988239884
-16.776629155825685
-14.798855924112095
-3.218361624098652
2.239101993261019
-7.090248514769002
-6.15161560660296
-8.713801820575435
-8.216437686310275
-4.091517415593151
0.9241226619424022
2.6150478359178337
-6.1432950554810555
-11.382183219869162
-6.148196061389636
1.9434940644251182
-0.39086946693279684
0.7370164320713196
-13.010597450029575
-13.58380610083509
9.58803173219837
-10.740597846447587
-20.640070453128605
-5.847750741250228
-3.876218560212471
-12.789109816519058
-24.10304879170296
-11.25870237902546
-15.766083581302498
-19.939616661471796
-13.247002945476567
-26.477300153866533
-20.868329382679946
-22.612008540622305
-23.802280741301047
-10.092880932414106
-22.687720880646307
-32.73650645081061
-21.529035753048635
-2.0113648849254027
0.2472570582836116
-1.410760533021461
8.346270850996145
-6.326638372739584
3.677627608503528
22.56966348361667
-6.1973005621965385
1.3722207598700014
18.421906599973177
-3.957412905005305
7.485181168069042
28.821864963077097
20.100869848550953
6.020935654090883
-4.655588105730232
-11.399935997753575
-7.6810056502825725
5.277855356534147
5.063156359185386
-0.5795664971677945
3.2208546673047542
-4.857868853734266
-14.545740256456796
-7.6150891741916
5.050923375926293
8.006020195775996
-9.66682170588138
-11.909542443186998
5.522361780099906
3.2312514649596102
2.004378276669059
3.8402937201757514
-10.84137770473259
-16.398567748867332
-4.60844500022231
-1.4944119548066161
-11.203406244299696
-11.169972522378199
-12.31788407645513
-18.938447854069526
-5.05346083495009
-0.5805635021452495
-12.806711643422409
-13.379594983350799
-9.870846099650425
-2.975771602140247
-6.324047653867483
-8.418244779946873
-3.0454786443597377
-10.335392288199007
-7.897266278956377
-6.985084842713169
-14.755855449943716
-7.117327070015953
3.726634818159207
-2.1700021702536025
-6.684607495913423
8.765089929827614
3.365960065881213
-7.30280105334006
14.816163488897487
20.477375999237182
7.858978625913754
14.17536846157009
24.434652746570393
9.685096452375786
-9.651616608463252
2.1736354469979724
11.740343410093734
8.77980610121464
13.774317788453565
8.784925530367447
5.7419430390361335
10.959376212012108
17.735956065516117
25.1844654538869
11.352103389640117
0.4386846384885564
4.6265572173516265
2.170452241061321
4.878353651269632
3.3098585560454468
-6.3720773251382985
-5.670833315186003
-2.8808067346876536
-4.682521128827619
-2.2833206571038613
0.2774784205504555
-2.997520053010869
3.028712555600261
9.49488250742758
-0.5670299673175383
-2.149016397036727
10.256777305871543
8.723873705881235
-1.9343788524389494
-3.0478257052817175
-3.776356960337511
-7.313653747035998
-5.791373753818736
-3.3022031496548925
-4.178723892745458
-7.191901790421373
-5.204235791252514
0.03292289588292542
1.0051293923533615
1.8434456503864523
-1.8440626512028677
-3.5557435026103033
3.537796097242433
1.853221172701264
0.1297408695108328
2.981889743856128
-3.7487878812105557
-5.754096338768097
3.233874231746959
6.7131190098134
2.4943776717976314
2.995641852772457
2.6868042363733524
1.4957327040282613
12.425220026755172
19.572112175847444
20.848612667443167
18.041598914197827
6.9074521972972995
6.970631382428341
8.665017973559303
8.551085106795657
14.802435979309545
12.859342111784654
9.713734960722439
13.393336484376682
13.29200102447025
6.234674306917957
8.248972129570486
15.848150015359444
13.883923157870253
