AAD_Filtered_TADAS_FILE
AAD_BASELINE_CORRECTION: BASELINE REMOVED
AAD_FILTER_TYPE: BUTTERWORTH
AAD_FILTER_ORDER: 1
AAD_LOW_CUT_FREQUENCY_HZ: 0.025
AAD_HIGH_CUT_FREQUENCY_HZ: 40.0
EVENT_NAME: 202302060117
EVENT_ID: 13194
EVENT_DATE_YYYYMMDD: 2023/02/06
EVENT_TIME_HHMMSS: 01:17:32.00000
EVENT_LATITUDE_DEGREE: 37.288
EVENT_LONGITUDE_DEGREE: 37.043
EVENT_DEPTH_KM: 8.6
HYPOCENTER_REFERENCE: AFAD
MAGNITUDE_W: 7.7
MAGNITUDE_W_REFERENCE: AFAD
MAGNITUDE_L: 
MAGNITUDE_L_REFERENCE: 
FOCAL_MECHANISM: 
NETWORK: TK
STATION_CODE: 2712
STATION_NAME: 
STATION_LATITUDE_DEGREE: 37.184
STATION_LONGITUDE_DEGREE: 36.73283
STATION_ELEVATION_M: 536.0
LOCATION: Kahramanmaras_Pazarck_Turkiye
SENSOR_DEPTH_M: 
VS30_M/S: None
SITE_CLASSIFICATION_EC8: unknown
MORPHOLOGIC_CLASSIFICATION: 
EPICENTRAL_DISTANCE_KM: 29.79
EARTHQUAKE_BACKAZIMUTH_DEGREE: 
DATE_TIME_FIRST_SAMPLE_YYYYMMDD_HHMMSS: 2023/02/06 01:17:07.3433620
DATE_TIME_FIRST_SAMPLE_PRECISION: millisecond
SAMPLING_INTERVAL_S: 0.01
NDATA: 10501
DURATION_S: 
STREAM: HNN
UNITS: cm/s^2
INSTRUMENT: sensor = ACEBOX/SARA | digitizer = 
INSTRUMENT_ANALOG/DIGITAL: 
INSTRUMENTAL_FREQUENCY_HZ: 
INSTRUMENTAL_DAMPING: 
FULL_SCALE_G: 
N_BIT_DIGITAL_CONVERTER: 
PGA_CM/S^2: 554.850
TIME_PGA_S: 
BASELINE_CORRECTION: BASELINE REMOVED
FILTER_TYPE: BUTTERWORTH
FILTER_ORDER: 
LOW_CUT_FREQUENCY_HZ: 
HIGH_CUT_FREQUENCY_HZ: 
LATE/NORMAL_TRIGGERED: 
DATABASE_VERSION: 
HEADER_FORMAT: DYNA 1.2
DATA_TYPE: Acceleration
PROCESSING: Automatic Paolucci et al., 2011
DATA_TIMESTAMP_YYYYMMDD_HHMMSS: 
DATA_LICENSE: U (unknown license)
DATA_CITATION: Turkish Accelerometric Archive v 1.0 - Disaster And Emergency Management Presidency, Earthquake Department
DATA_CREATOR: AFAD
ORIGINAL_DATA_MEDIATOR_CITATION: : AFAD - Disaster And Emergency Management Presidency
ORIGINAL_DATA_MEDIATOR: AFAD PROCESS SERVICE
ORIGINAL_DATA_CREATOR_CITATION: AFAD PROCESS SERVICE
ORIGINAL_DATA_CREATOR: network: TK
USER1: GuestUser
USER2: 
USER3: 
USER4: 
[...]
352.9503592970882
341.867288824764
398.4493008082295
438.15195205744925
352.3399346388388
211.36141450323012
25.92363382117013
-59.26283211272934
44.731136854974736
150.003799892791
149.17808809716976
73.30606647651936
22.159536635480098
47.521790477790816
152.84671023787385
304.07223515657233
288.5089238378792
113.10532156004217
36.17452303424198
27.818018429675014
-42.88899990991007
-95.52861739191556
-119.67079214426043
-219.19815471864652
-307.6890171533988
-323.2982665082311
-376.5730890347009
-406.0399915432577
-327.2811342496417
-247.31591174688754
-240.37421104999567
-248.19937159768526
-213.193642590288
-214.7410374901526
-243.76158329855804
-138.66341071122702
-21.67490941172674
-78.94857976830869
-70.74511730817683
125.99082558140746
227.28910828304603
180.108830974908
151.63064710632935
190.50506453707862
269.1893396679248
256.5976926134952
231.8302018892735
369.192436713434
324.4347053319497
12.341089932575567
-7.628316142800514
191.0737150500865
209.33788257014018
244.13171686244698
295.8995449157178
205.10471205850695
81.24692682761204
-96.70197608527582
-191.10178036889295
-137.76810940997927
-196.96276926215273
-280.44190034822947
-304.19775984695974
-356.41838183306356
-345.3534114581036
-353.9727397542072
-393.18783504402876
-380.99309067604935
-453.0210915099812
-375.6802607180524
14.893635757203855
262.2043386563434
258.85519196285014
286.6265368133338
370.2817370482835
377.53999766553983
224.58976617583406
95.99840803858906
125.52219803243148
108.71329378367777
37.13464855971043
55.14658522943287
20.383582882379354
-147.80874143956848
-182.31365828442452
-57.22586521038487
-33.52530118162932
18.38097051900209
179.2489265965689
171.58262969026586
29.967351701193873
-36.338518687853714
21.110557917195738
164.2972455464089
211.50964616499903
112.06433589235625
67.00375321852731
93.64997146378099
53.69277545252057
-14.09350151342237
-42.48868430697291
-24.872099022775394
34.94898762230756
93.73755648813612
110.57809407386384
4.50047077363996
-128.23404676705695
-113.76126056568403
-98.94105431205085
-139.9822894094908
-119.05668482392701
-35.821887893709096
93.57398227039903
143.2604749640915
85.31722121658757
59.495820795125226
25.688211739903686
-72.96766202745859
-142.98657555989456
-67.33950582527311
59.62026857364529
43.26002448036215
-12.23994978705007
-49.401193999336705
-184.44669079709183
-302.5796742024122
-285.7838442747741
-154.26287994314282
16.974028657778206
101.84657442072887
153.2305272993569
250.82872253858454
303.46121087800714
257.4162406998391
152.50464848223825
62.59240493537528
20.27541142979389
38.294129248766204
110.06412179145316
160.601786364163
184.0157587464596
147.01912745241947
44.796052790728346
2.87927590402935
-29.331885722309156
-91.91555013593732
-112.66420498931247
-115.33029116945825
-101.28367257239626
-105.5433374596323
-104.30155715199098
-104.46074887653795
-218.77475368103788
-232.18562122316146
-72.2304691567287
11.736131932049902
52.46344444297694
57.6478414517735
24.822129237071827
125.85767998930383
224.1442145905942
126.23177214088915
13.306633937441466
70.49662948183777
139.60859425352288
75.14212648575094
34.414219222738865
58.250489138198525
11.063990399087798
-74.79783651479292
-87.00390624405453
-50.46963607651425
-56.416690899006724
-36.42075546953291
28.345384664962676
15.707089405741057
11.93044596270462
67.69345812421089
78.81245297250844
52.78022997560655
-39.10702405183811
-153.55805510748615
-173.9002690282059
-205.46274289588962
-241.84446826438014
-108.3031174928603
46.293441937048115
21.538549147027584
-38.76085567445163
-57.05806552852172
-84.90840814974088
-28.432783358922354
84.26054644121787
158.24292382358175
252.27038542323496
320.00508380813307
308.18103577410074
289.79975791588333
221.82005053075864
106.12837188913367
97.31694601188066
99.54953346310913
-34.384414522558636
-44.43526126194522
136.1862262899952
155.49549352558805
19.613672838632866
-22.596768859378194
17.63411546949866
16.56329710927999
-110.40224331336631
-262.8492635153246
-252.70327002038513
-151.9455202650049
-124.75211777200553
-148.10361013908883
-160.2216127638491
-140.44828723367553
-71.2431428989902
-63.17868362465183
-160.985088114577
-196.23840872831812
-168.22647657941874
-159.48057257292794
-132.4723320885133
-132.0302307682249
-183.77697521756818
-246.608318223785
-233.9917328014135
-121.71596253375365
-129.84769399674394
-237.058664584473
-238.2040760892555
-223.64706407120184
-158.246798396944
13.617514957397667
85.00539475243757
99.10413801022143
194.44273428462097
254.0715654412509
223.1941320854619
139.61521472100176
19.147920978991724
-12.593978792950084
87.80522180606744
136.35879047710856
72.33492659681876
42.96323030560813
123.0779329331474
162.41324018856358
8.770222173137066
-180.93245455848782
-258.14029740882813
-224.38334122097257
-57.67923050352257
77.53068217224939
98.40921349394738
146.7786473378023
225.60832299695753
264.64941694274484
240.89875842212356
191.17299710269418
23.780449218736855
-191.392848088851
-61.25140002963089
130.27904625414934
45.32395494176327
70.16192314904552
177.7909117515486
197.9195853844639
208.1818988172778
94.41472624188285
-24.610628944842627
-44.02543092686595
-81.67272245764815
-150.12924679375305
-225.21830113657356
-188.62985480333458
-149.78951445858428
-274.0285217484677
-320.08668035548465
-259.8083922280265
-222.2435225030377
-164.58777804715558
-163.8194266167955
-173.30498250998446
-115.59709668571845
-81.22583603088037
-46.45340404919352
52.37591330456258
196.92147014273277
180.72305402392033
-2.087565023819994
35.344260941839075
194.09000597238028
210.84680968782396
245.49120582498057
272.1219340169108
155.1209778237526
-40.37332475519541
-76.17350809791087
87.81523596238787
145.5542760945598
167.7954297161055
217.2624316426337
123.06834771649135
92.44712521517465
115.55136654784337
71.337499803089
66.74599865141053
36.10484647824733
95.44600136741468
270.02747564632716
309.2130285456441
213.78632238456754
42.6400676452293
-34.82135285382642
87.63998594676222
134.73405171100467
44.35824084475221
-28.409290360553783
-73.44145395643613
-115.18767221337636
-182.31882906444682
-190.9841057508835
-87.83927303967782
-82.46256274107358
-213.51492736260602
-278.13637124013513
-319.6308142087859
-344.64726524606345
-112.32486527742796
173.5993973241164
151.72763306868197
97.19349784719438
106.8887452330743
-87.09591426750525
-217.05534159510225
-197.31277953261264
-225.14141108526817
-49.67302702539083
180.84008971053782
142.44565550006226
-6.544448328224846
-171.01185150198674
-155.25711209902815
26.138673687997862
57.853386063370465
64.01819816171428
75.39024696905534
-13.157770966380673
-33.36486053848594
1.8459286857788704
15.838553882783332
20.116940289989337
-18.86391926756207
-50.21330971396639
-63.739399780306414
-149.1860425723646
-215.43849322353057
-78.79492585197067
98.71590880428808
100.81011137673735
59.313158991604936
2.2409057903512646
-131.2070398550088
-160.35352065506538
-53.665391233068625
22.312216078028037
49.99065563118845
43.443446464218724
-11.965839883598758
-30.37873037084407
13.917195001082936
31.934127261094545
31.4895471054952
62.47972246890512
68.14357074943905
5.665360551241567
-63.32246398883733
-63.63851097489645
-15.34194165713538
-3.9766993929687584
-7.170433678700394
48.37457579952325
97.85696653805867
74.93491670656071
12.122737584684339
-49.46045019088624
-41.506652334287885
41.165968347492765
72.85378623380656
3.9218812017520674
-62.95962510907856
-44.04938174765113
-4.846442507980528
-45.3809076558908
-107.8626413321522
-128.5410367086982
-131.49266129496613
-69.36399207116176
0.19923423053839873
-35.42684688255317
-61.275429785741
-35.76546654771858
-31.799824499532665
-17.901143422404388
15.559379000931685
102.04443842346316
174.63508805048832
96.92550422635883
45.94343868150812
123.03993898205121
145.18597732020206
124.58991920575853
153.79413440047065
200.44268873359763
227.6237140500932
131.75554770891594
-82.49040814254151
-175.91670052439707
-136.711936016558
-193.17446960120324
-259.4555857964778
-199.2136342447755
-205.84167888636554
-218.35824294274067
-6.048963256866093
185.94085486146798
189.59094602986553
211.39967785436755
272.1423984378104
298.6764680061965
293.5951457449638
245.77482425137595
197.02535856418558
144.8841694959895
42.4210456791229
-93.64922194700925
-191.01275111053292
-211.09160492147242
-232.51129415725782
-267.5560777977042
-256.3013748172751
-225.40495232633234
-162.7844363625427
-69.84810412500201
-30.228041390879334
-26.140430547256827
14.917842042184438
47.01107466944757
-16.043534597237482
-91.94482664532859
-57.180676105987594
-7.330172998073637
-27.52375542772124
-22.20278728459642
18.634592932615906
8.66317394247563
-23.38116349794881
-11.370007088021913
22.022861840548753
61.88546630531035
113.29081549374679
133.31378611548092
107.02721676841634
83.67032162179436
114.9137193386697
172.58955031111716
224.439335629251
278.39802941799815
207.4278859155138
48.44420096071558
62.96358926243143
128.3041215984215
51.87749201546077
-18.693288759153816
-36.796284407865734
-47.99082708471253
-46.63937637107034
-88.32347819422917
-153.70584747712908
-146.69108978399066
-87.85166261600406
-60.19000553059458
-45.5287492283701
-45.66259501998562
-98.4434199656886
-140.32238764918108
-163.37913303897764
-149.15558626578985
-37.79263581023503
30.264515896989952
19.10907561894088
71.61005975437536
114.91715386032935
108.99919865143801
155.85133923708239
158.3732625205486
70.2418033575847
12.710021470623555
-40.56114021847812
-123.73007459044645
-184.84459476264323
-156.83107661869644
-19.286338740200154
38.28293511860721
19.645774219571106
126.06171250163099
203.2305855770071
178.1417660579692
160.42990869800877
50.13590663756905
-20.667070808216774
101.61748421114268
193.3203423617935
194.2150067666245
151.26738840064237
45.47208547595205
-5.125609477257543
-30.969596903099685
-76.46821710435849
-12.627733398114444
80.68769325753098
83.67534030837766
54.5045842381966
40.14400928735277
39.97331984579519
22.76749324297357
-34.83736106222297
-159.16818088275363
-264.98272480000054
-211.3739115105164
-148.3371011627697
-139.0581266011103
-27.95719592282713
19.802442462852436
-58.705040009307645
-12.11075727095554
57.47022833568046
-16.7203935958938
-56.05857175090828
-42.99202214620498
-113.05782250361251
-147.20439470682427
-54.53782995395039
-12.251388853619366
-78.47653499554028
-58.63698486816894
58.02520266573541
95.447991677134
108.07271908275743
149.33576905474288
96.08321634724702
50.51858078210047
116.2162654317232
126.74199367020451
80.17335202570194
96.20247074919767
101.12084110579312
27.50419389859516
-34.089820138164775
-6.200010098747531
7.431458769088384
-71.33045088984784
-100.96441729875136
-43.709811793534826
-21.39409097799427
-23.73100909840105
-27.32979858084032
-64.36106660256652
-53.75276914785026
18.551192741956907
6.615725757554144
-40.29697641312894
19.25560320553904
32.08778362567893
-71.78620894837628
-89.1422747294073
-28.535375717026188
-9.645899368015616
-0.7445580793207948
-10.611601295527949
-35.537018584313394
-8.153222531541658
10.339302982533708
-69.02379306180286
-159.08290291005764
-135.36877208906736
-46.4223303614113
-31.11101907259056
-81.85707319724035
-63.463263229683605
26.046955157563907
80.57849844085727
75.21728259324932
42.92655940113426
6.242681335673401
-58.288536232858625
-120.24193368244931
-117.75557046948181
-104.88442510872778
-79.26807048431826
-18.00450005788478
20.054615140670744
62.14485602397027
94.03129120819725
45.31895711580297
-38.52022888494183
-74.47115400494482
-51.58187440502939
-39.17791003256863
-38.78040705352045
-17.941556214831802
-16.367385448972787
5.723792987105374
77.64559456949802
116.04695669361588
87.49636954230914
32.2152964470286
7.9442769473363395
17.95385595578808
-3.897862251867738
-45.698429072722604
-23.33710164794697
36.704730512390604
57.260258953058795
59.12227333451717
55.53384409103133
30.620425839820392
1.8068880013773156
-60.327160492830195
-170.40647603657712
-235.0106942346768
-224.02783466696954
-232.23978095698376
-246.38518300693065
-241.54647694082794
-261.76534822062064
-151.3146842748084
42.45865925658619
43.32588618133323
22.847761193055522
122.72564997052439
184.74516569960738
212.9932704976295
217.27517521665033
197.49589918043733
149.6087092546386
67.42836821586049
15.306403883120515
-85.44807116841518
-182.13936459556953
-192.19609560959825
-243.5362464171115
-292.5093220064946
-322.46011320492227
-356.67509953964
-400.8351578771514
-459.89739483481236
-201.41612549349603
222.18028272813223
297.0188189231223
305.51216297334935
451.61355654297574
511.61491867264004
543.4933666688075
562.7293770443923
495.2229800974063
377.6876766958425
225.3634575095795
82.98333118230465
22.447867170815773
13.530154971137028
-43.05465224538524
-130.33663626823093
-199.95071018104073
-279.49677520732394
-328.1312651781477
-280.5120285015925
-159.63506558205094
-61.48913654022801
-6.89915959514526
63.17637353057476
81.86273641809663
43.75623089974972
73.04353131871622
144.20041495881057
194.39689780819344
206.02015527667638
144.38425189630092
61.59781208124544
-2.9587915709099786
-66.8212132246461
-79.63159532023361
-23.177185938706717
37.60178776532333
56.57729593989648
54.77794016470156
72.88849110191978
105.96824498393367
168.260398421987
199.31793229825436
99.85329929649583
10.116707815859158
26.56905533210094
51.381433323891535
68.00912470259418
81.45801751250674
114.59893807758797
152.64540626635366
126.13593721644449
95.37974075283128
56.15468705630933
-32.37433430288297
-87.19555433904216
-114.5279607351829
-174.40611939364246
-236.30265016797432
-245.15198315980072
-224.85992825693933
-200.83535061100136
-122.06853077099895
-31.619919442870447
21.607370769045655
94.30472480911493
174.82939983619178
203.68944505942406
150.67082776230384
30.101838115383952
-120.25415422047578
-221.77768215618306
-161.86201593048818
-75.8466023386634
-121.06832894873031
-113.37883941166065
-3.131680641788429
51.85609302296629
66.10496112202347
69.01939535368311
58.32618082691577
75.44195368014407
98.31663718086958
114.86479251073041
159.1339314768129
158.55051329898964
28.456789794116535
-102.6974275695449
-120.11773623167485
-96.36190183297572
-109.32247445244047
-193.51390713056347
-187.84579448659306
54.179162294468085
198.6596550433248
3.977238387644902
-162.08299061422392
-23.547389645179372
125.3928274540768
55.792184524303
18.205661279302976
127.75500308432684
163.99952630914237
129.24531459838823
167.04938077762955
155.19362390240437
23.686078364526356
-12.531776533841315
59.2982864497235
40.32802092856419
-26.618546840556647
-19.562413671615143
35.744277542753
80.25566139702701
94.13517955516438
95.27299417739513
107.41752966744764
126.52846607310352
74.08174627408337
-37.04335736720455
-55.24845703491553
-36.931965731350324
-72.5984961863511
-49.53468350615999
-5.0397958857128975
-55.00259260997282
-129.81597032114786
-117.13000955814341
-72.89829883034842
-150.32819764497356
-203.63877911889244
-119.80103037437385
-138.258461982302
-172.3196232171996
-95.43825598484072
-91.86797748843892
-22.89163238077553
133.78564749520777
125.40408260846922
67.77570154670066
60.82027522547402
5.585159843629556
-56.16792328843892
-14.65143231731823
94.92148238045976
116.321445932961
96.79642042695734
164.24811314166053
231.0582073517588
97.88596587539811
-185.1770736236923
-198.48624151304315
-52.013466128621516
-126.0696744829237
-66.72450973558516
130.72887321600066
104.85559656596234
84.11380073351373
89.91098172459739
-23.247094665704342
-114.63905035808666
-112.03788341721807
-38.673036811908666
-31.8306978364337
-60.1954565996191
-57.5586935070125
-136.20942331382813
-75.01214849912273
103.24287944714172
42.667311781346775
-62.86290793797386
-34.85131707359634
5.217556421536307
27.144729415770236
-25.9533274160993
-93.96806976083727
-104.2390501568778
-71.52065842022394
20.571239878658645
19.731718329467096
-34.52105378544031
61.113171724772585
111.73188678778473
61.198779245960154
106.8860196508714
167.1965561070773
180.00754607967363
123.44344150565735
-9.609204457637139
-31.018029792640533
-54.598658672890274
-154.149283607323
-19.48136820399038
158.2188790759887
95.37619725839961
25.244293894411303
8.078728871491217
-10.67883592304205
-53.416608516867875
-164.88566750670077
-145.902040603126
-31.11913827452453
-9.119811741637877
54.563005910129355
129.49324894912957
106.03699350459009
39.224851552764235
-60.93811285745967
-50.460885313639146
63.21077306133503
50.51205744664253
-17.204334924201355
-33.412549702930114
-45.12634595347191
-55.188718936748636
-67.30376516227267
-29.761717517885025
22.815401764469385
-7.88169541465813
-38.67098298748179
-27.095526644258182
2.382083233170278
60.731486657022366
81.39152040953495
55.01268256815131
28.71490630686145
10.894551304901457
14.055613814513272
-11.209491545543914
-38.18931205423955
-0.7167612986781027
-19.970420509880146
-56.84407779886824
32.39515949825699
79.92650176702688
39.51523846456613
54.9864312302212
70.38043516687692
65.66213854932656
55.14879386626804
4.003732920926916
-32.42968422819448
-76.33521864552101
-103.63588555989355
-9.344542952607656
101.56444733156017
142.5008543882611
146.49666478546285
70.41921098165244
-45.26033182887773
-69.63184198202919
-34.64137566587237
-49.15456331358705
-73.77536653937234
-55.580857137434215
-46.58895762878595
-52.35771349648019
-65.58774974285683
-81.83025725233082
-38.44467257848525
-2.181408651197625
-35.654193618994576
-7.819476020981256
66.16136595286754
68.4768335259726
33.61499090671429
-20.22211387866165
-41.82294332874482
5.575621641866401
13.95735695273905
23.43648317882142
101.47835021878728
155.20751541541372
169.02070438798964
136.13483910671704
41.54506087927601
-31.460915383573788
-58.252626153426675
-92.38562733578682
-125.4763921014169
-73.88001797594835
36.061330358252654
60.61235729515357
-6.26383885153691
-69.03846134186266
-89.42186095708739
-77.46158202308803
-50.744273317531615
11.597082563435292
97.34172282309268
109.0005439378218
24.2620050569988
-33.01976846956858
-7.78885861023131
-11.842063350614307
