AAD_Filtered_TADAS_FILE
AAD_BASELINE_CORRECTION: BASELINE REMOVED
AAD_FILTER_TYPE: BUTTERWORTH
AAD_FILTER_ORDER: 1
AAD_LOW_CUT_FREQUENCY_HZ: 0.025
AAD_HIGH_CUT_FREQUENCY_HZ: 40.0
EVENT_NAME: 202302061024
EVENT_ID: 13207
EVENT_DATE_YYYYMMDD: 2023/02/06
EVENT_TIME_HHMMSS: 10:24:47.00000
EVENT_LATITUDE_DEGREE: 38.089
EVENT_LONGITUDE_DEGREE: 37.239
EVENT_DEPTH_KM: 7.0
HYPOCENTER_REFERENCE: AFAD
MAGNITUDE_W: 7.6
MAGNITUDE_W_REFERENCE: AFAD
MAGNITUDE_L: 
MAGNITUDE_L_REFERENCE: 
FOCAL_MECHANISM: 
NETWORK: TK
STATION_CODE: 6302
STATION_NAME: 
STATION_LATITUDE_DEGREE: 37.2342
STATION_LONGITUDE_DEGREE: 39.7509
STATION_ELEVATION_M: 550.0
LOCATION: Kahramanmaras_Elbistan_Turkiye
SENSOR_DEPTH_M: 
VS30_M/S: 936
SITE_CLASSIFICATION_EC8: A
MORPHOLOGIC_CLASSIFICATION: 
EPICENTRAL_DISTANCE_KM: 240.66
EARTHQUAKE_BACKAZIMUTH_DEGREE: 
DATE_TIME_FIRST_SAMPLE_YYYYMMDD_HHMMSS: 2023/02/06 10:25:08.4861440
DATE_TIME_FIRST_SAMPLE_PRECISION: millisecond
SAMPLING_INTERVAL_S: 0.01
NDATA: 14501
DURATION_S: 
STREAM: HNN
UNITS: cm/s^2
INSTRUMENT: sensor = CMG-5T/GURALP | digitizer = 
INSTRUMENT_ANALOG/DIGITAL: 
INSTRUMENTAL_FREQUENCY_HZ: 
INSTRUMENTAL_DAMPING: 
FULL_SCALE_G: 
N_BIT_DIGITAL_CONVERTER: 
PGA_CM/S^2: 27.007
TIME_PGA_S: 
BASELINE_CORRECTION: BASELINE REMOVED
FILTER_TYPE: BUTTERWORTH
FILTER_ORDER: 
LOW_CUT_FREQUENCY_HZ: 
HIGH_CUT_FREQUENCY_HZ: 
LATE/NORMAL_TRIGGERED: 
DATABASE_VERSION: 
HEADER_FORMAT: DYNA 1.2
DATA_TYPE: Acceleration
PROCESSING: Automatic Paolucci et al., 2011
DATA_TIMESTAMP_YYYYMMDD_HHMMSS: 
DATA_LICENSE: U (unknown license)
DATA_CITATION: Turkish Accelerometric Archive v 1.0 - Disaster And Emergency Management Presidency, Earthquake Department
DATA_CREATOR: AFAD
ORIGINAL_DATA_MEDIATOR_CITATION: : AFAD - Disaster And Emergency Management Presidency
ORIGINAL_DATA_MEDIATOR: AFAD PROCESS SERVICE
ORIGINAL_DATA_CREATOR_CITATION: AFAD PROCESS SERVICE
ORIGINAL_DATA_CREATOR: network: TK
USER1: GuestUser
USER2: 
USER3: 
USER4: 
[...]
5.302019925621734
5.677245422349065
5.552470152995141
5.2059946909425205
4.80626007580671
3.9905654193715696
2.3190533840072556
0.006520196016592886
-2.219681785781343
-3.6563262308525153
-3.7889196369381852
-2.8945314544513363
-2.0494426933133885
-1.757929031610138
-1.8030522429896039
-1.6847071638200868
-1.0437032988910135
0.2068194838891138
1.670750810751039
2.7070755347579847
3.1226207722224504
3.0669263673142177
2.752672815762921
2.114082495122647
1.2288007176833704
0.19888361540396624
-0.9377622629664933
-2.002488218563838
-3.2597822345116048
-4.812224769134296
-6.104582786645235
-6.813523303078357
-6.940642524213833
-6.242324719989879
-4.5195474883077775
-2.2174260347194763
-0.10598350008124435
1.6439382395382232
3.02657932337256
4.087503217275653
5.111369664305524
5.9399818317875
5.994314918681498
4.9486905367593605
3.218842276826154
1.5728962978447223
0.6783986142708973
0.3203414907279543
-0.5842247682200282
-1.7419442812431258
-1.3937302933477262
0.34657003343231196
1.3235616531747176
0.5295725662938078
-0.9115062438716701
-1.4679000674964937
-0.8229109389367836
-0.015132112310576934
-0.09389539030517972
-0.6202952975389371
-0.5457183521985417
-0.10774552501155793
-0.6057223710359698
-2.204610237839501
-3.513226632332838
-3.429351600355644
-2.2500774011635247
-1.5278978862677446
-2.3839317742782575
-3.3333070820460162
-2.8165106832317557
-2.303074697145865
-2.9291440645173656
-3.3354224666765435
-2.3897820723036136
-0.9352724281795258
-0.06809208814475873
0.28674949485287105
0.7572511527137757
1.7356831856552077
2.6589983801503227
2.5502633827618157
1.8978141554954244
2.1522592234362508
3.440624787656943
4.72695992310199
4.955998576670775
4.170215279677742
3.5544833805447875
3.6465585023688365
3.4344733150716946
2.5752507767977475
1.9648135464537655
1.5202385914839853
0.6672671414376798
0.1478739243800843
0.8036772660101674
1.693698901730846
2.1193646815473746
2.2626079608355476
1.9373702728020628
1.482376120260254
1.3008985804804587
0.5616835180086419
-1.027638571644003
-2.034705199974158
-1.743188031005205
-1.3856463952260287
-2.0259737830924562
-3.532968842290508
-5.285495484633818
-6.452674939057852
-6.994739645395516
-7.33680811097284
-6.98457331408635
-5.865000503211996
-5.004225025169729
-4.654834904753747
-4.035061404155654
-2.7801783518924164
-1.3472168384158907
-0.48257725349549524
-0.5775205611923377
-1.002709350032751
-0.9575760427922859
-0.523825255736823
-0.4576870949341423
-1.0573860957131027
-1.5472442207096893
-1.022517751041122
0.5749330001908478
2.3143376776174343
3.2033532232510304
3.2154208144206806
3.178170355044745
3.520379339655746
3.9953362379361255
4.370099376453227
4.478128482142184
4.248839579270952
4.037149480209653
3.9038647333673726
3.4327349471966744
2.7859319899755794
2.4644528053790453
2.2832291264864795
1.5334882310546514
0.3352043437455184
-0.44467075776987497
-0.3721242425239394
-0.09726838480002384
-0.39248173287518917
-1.1588328847467073
-2.0563401037952604
-2.7568789988289097
-3.1356621279592853
-3.447227310355514
-4.159342185755871
-5.166544110170108
-5.3687161204512135
-3.8530982100730893
-1.161497504730639
1.1558763828705227
2.163776451499287
2.349456548784787
2.8180384627328685
3.693369949016168
4.099934274796671
3.409572851785016
1.8076409878240245
0.07388672961386804
-1.0581150535957813
-1.3503653818918142
-0.9947022407467115
-0.4553736584093979
-0.09354264268394778
0.24782426926744
0.9668438239416678
1.8573158739584652
2.2254122626575747
1.7365581532340395
0.5434688618017961
-0.7801150222720551
-1.5296968186053295
-1.4837477041876344
-1.004551186917314
-0.3801816523077227
0.20803703168343918
0.6067932657651036
0.8949743469980371
1.230635477319548
1.756588394852822
2.374840582318183
2.67843765653826
2.1349319928101584
0.9890990216794373
0.4453552821096436
1.0997848054841124
1.9470890313118965
1.5379301830741618
0.11446826717182637
-0.5204724372675437
0.3696169536765601
1.391403660662578
1.663688514238062
2.098633841850234
2.988979669552237
3.090578721276877
1.7480218669535652
0.2161525386346428
-0.34064444825729834
-0.3822623040430649
-0.842625807731155
-1.722784191816202
-2.1424795558668595
-1.645615071102328
-0.8822953475830005
-0.41955146241688845
0.40923251191068694
1.9827410760262074
3.5579922507021804
4.618662036488723
5.290667023991945
5.6516160566066
5.3372010776497465
4.25427073938995
3.0258134597696693
2.594009256697908
3.3622609762088733
4.495865934879266
5.173074711466731
5.812858671678166
6.990085776935915
8.120684164434271
8.24812147106125
7.313988446616474
6.012576271598837
4.7332509395738205
3.1476760470706977
1.0443394014915048
-1.072389592919005
-2.428366716688784
-3.1922144690078986
-4.303305670088601
-6.027528646607882
-7.576822594434581
-8.18008816968157
-8.016467893287233
-7.759129500997186
-7.257467410146396
-5.2177567710319686
-1.363495411241616
2.7607984702124964
5.639762800584648
7.156373052366743
7.964251234645935
8.055416786701816
7.068995923535251
5.2660465924728594
3.385457924411872
1.6617652841530566
-0.19600580107299145
-2.2108976681295776
-4.18667449006542
-6.343533890708913
-8.447568331584804
-9.330255759325972
-8.701218934979854
-7.3448283640589
-5.874595909291008
-4.340208102396748
-2.451958311994928
-0.04762198323043206
2.3348865820800984
4.255126563845809
5.810268091502597
7.044784360312691
7.906444690768622
8.235700374179931
7.8933094465731815
6.6927776819592575
4.76253903011024
2.529512612156382
0.4673853776237767
-0.7479642566378324
-1.2365774010332793
-1.7483298950210642
-2.176861745125611
-2.721211277945316
-3.6121077046623413
-3.8581262231364755
-2.5760433728676952
-0.15456116196962325
1.9171587724824972
3.174423356144489
4.5892127645958825
6.0935338788956015
6.936046056241776
6.789210085231429
4.985209443868543
1.7543880257954065
-1.3039293156106078
-3.10315404930931
-4.19290814516647
-5.574426796443495
-6.1854148691914395
-4.569833788733614
-2.4572637728716376
-1.334751057002568
-0.3395558814560015
1.058078894982619
2.9017491317293915
4.457746053155972
4.764098588055432
3.8310060216609356
2.7525528481828156
2.2408430951364267
1.3192141142837388
-0.8765689649373857
-3.3052786065322586
-4.288483794828453
-3.6167199216659855
-2.4955785217946542
-1.6514185255854317
-0.08654053415061091
2.340425348410272
4.65355986434998
5.465483789824354
4.536794483434117
4.516117634733611
5.404149478203358
5.4141107435776785
4.638271712755688
3.4067451250237015
1.666642486460602
-0.21316945653054983
-2.1641309455514772
-4.418373484132904
-5.21405474924617
-3.6698795467643968
-1.669782491526355
-1.0671589749673185
-1.1401898012443565
-0.2854543601453882
0.9041770604748667
1.0943976632093428
0.028065240843626008
-2.11313969223054
-3.3502641867767156
-2.4849150019848225
-1.8009203938488934
-2.076144581133794
-1.867664473592795
-0.16172972246993308
1.9632611973967344
2.932531223633778
2.820185673638032
2.4109804841343543
2.8074749682856273
3.9048233549518163
3.903254724397988
2.347594546263177
1.0899731482552806
1.2243317400158802
1.491733829372009
0.3704972742366549
-1.6294566267881991
-2.470176208190169
-1.5484171402035465
-0.7973228664128889
-1.2077655442404962
-1.3689778807304274
0.25942256192933416
2.868971347701916
4.038417600976056
3.3577291734903416
2.85587742495052
3.814563019529106
5.028229733724227
4.846432190694798
3.666374695877594
3.1858963571744074
3.8363040201583436
4.321790557698045
3.654839783456712
2.7250375432259757
2.7645117874356067
3.531422978995529
3.596027071552251
2.627750295724371
1.922197335931242
2.047682554528408
2.1536699059315914
1.1409519273244082
-0.5930459048107575
-1.6386274058337167
-1.8241860080729861
-2.537307340523081
-4.06326141923891
-4.407420008946663
-2.7139032065415467
-0.77872897641798
-0.5002057174369949
-1.4021595607328972
-1.3753701718569284
0.08458867371146148
1.4510842673684368
1.6029846451529681
1.2338546448964902
1.3937297654088994
1.7813547817557425
1.1910742031448371
-0.7149154778569408
-2.753889495153223
-3.896966387172769
-4.162143184344989
-4.191367731914594
-4.009239481955924
-2.91011777270097
-0.7913322053159035
1.4422368267298298
2.729140254126669
2.7746818801957054
1.8901855518783537
0.5524199793960572
-1.122619482432954
-3.030568945565279
-4.84616414592715
-6.168594623021225
-6.492373802099319
-5.88851012291257
-4.815018885160061
-3.5963300695504254
-2.38460127755806
-1.2144448872004934
-0.06317725359703742
1.341286385121409
3.238714041746816
5.151716124445472
6.251133621684205
6.3051243540719675
5.756322261892319
5.194768184862361
4.788394368153527
4.337529003776526
3.6296297712638905
3.1616170830222785
3.5534908545104047
4.44923997477089
5.355489650586893
6.031187881503413
6.042517707330599
4.63398230910523
1.8632957478873806
-0.8334099675010586
-2.3385306928075846
-3.2944233858283054
-4.7247871851068295
-5.581574637504813
-4.176311207275998
-1.2436788248525448
0.9657916027519594
1.758728316152473
2.1816421181065633
3.0375676367629083
4.167222956364887
4.95424235194657
5.216921632801376
5.34814389627549
5.695880010663411
5.816883150030788
4.79567732847938
3.0606559651499574
1.5710123722516776
0.11032775467377305
-1.9729106109748353
-4.412115764828033
-5.656934888828992
-5.142192764656948
-4.045081933897539
-3.143738710751062
-2.0130364991006626
-0.14641633791686187
1.8393969165997817
3.149549779903135
4.227586514777232
5.6885462497764365
6.472912179555459
5.310479805785887
2.8698434084975055
0.5954512364095123
-0.9541130918283294
-2.466616537417702
-4.642690512392982
-6.732680495336563
-7.610913054067935
-7.288402839527468
-6.54145708956806
-5.700545828496816
-5.032571785520358
-4.946952233126645
-4.7393296370235465
-3.5394364448816855
-1.3500934168915302
1.3875939685621554
4.283693444926054
7.089522860154117
9.410882077569502
11.022479285841037
11.636678611028593
10.806726736035234
8.858395474541268
6.325861539146903
3.2884064981559358
0.4309165746183557
-2.075870460411151
-4.689328904243658
-7.061760440138539
-9.273971109126148
-10.89583572810776
-10.712049771339357
-9.10666905327248
-7.312516601505114
-5.746519787787492
-4.3328005097619515
-3.0960583329113485
-1.8531683330135464
-0.30785868278711376
1.0733524673425827
1.39118325509422
0.9286818819276295
1.00173850334733
1.9712195278832416
3.1011844225659395
3.429495717115406
2.604202419690955
2.1470623281115326
3.8461921599130338
6.3671335602360255
7.153086093642958
6.479212075902006
5.800386149083329
5.424924488713373
4.859299042798732
3.995900612037595
3.042742891206408
1.9507334084038168
1.1015945509475498
0.23062648814719758
-1.9226071166098784
-4.948779659388509
-6.811715045715044
-7.775562726416544
-9.355473138811547
-11.075628840359588
-11.365631983427228
-9.692180061620109
-7.832301802864838
-7.412154456778187
-7.038958610686606
-5.178619134842568
-2.855666303101144
-1.5489768311793752
-1.8180189634458972
-3.0022214085154917
-4.075126226914041
-5.128286322291257
-6.5031785531179205
-7.739201663073548
-7.940648629034183
-7.0602549358483015
-6.04060691228952
-4.8908242635127355
-2.52614198526841
1.5048385394868784
6.661309654527355
11.518917301031202
14.633530705786585
15.952747184113262
16.19493436796271
15.699741931363592
14.15096502475944
10.927146034956253
6.223230635305604
1.638873528053425
-0.9750306897998785
-1.920125862076666
-3.110309069468531
-4.706252203941086
-5.115808883544789
-4.473485446721696
-4.159016319762917
-4.050893082634286
-3.245785939504593
-1.1430354461047814
1.5719892329903153
3.365756571820972
3.518424576282709
3.089310180032153
3.649042233735492
4.451846431466357
4.007411600559496
2.312697019496059
0.7841581347158826
1.528531762407071
4.839019976110364
8.95224384676674
12.338294118489914
14.836718989866013
17.210376161143007
19.21139152954694
19.103882004392123
15.974484994747687
10.838262889753027
5.6116093995160305
1.2242913984285395
-2.9937998602438
-7.224116865710317
-10.564444775637275
-12.120234664379232
-12.307439187084388
-12.28866668736882
-11.94065995075446
-9.792488022263242
-5.4255937014909374
-0.986163099995982
1.3076365562019356
1.7977451443138595
2.710347772988689
4.288221646598124
4.577443258473827
2.371125803171609
-0.24668050132399535
-0.018772299887883488
2.6185475537393095
4.830931376905125
5.222152323246301
5.447697542499403
6.6921670054642926
7.9615572434394535
7.88661302339769
6.182747734738625
4.457237941318587
4.020660400523554
4.004151158478566
2.7016943804037767
0.3723826555279807
-1.291817338542214
-2.4578522392816384
-5.165617240366547
-9.594064700563875
-13.619182820362582
-16.18872298530659
-17.787848951569096
-18.82376776636357
-18.78675174721116
-16.50003602740813
-11.735400272295706
-5.620935229737803
0.3865656300930131
6.235600434758357
12.772376069755504
19.203525414317944
23.918300553356865
26.45348024195562
26.842156766881967
24.979805103372854
21.61712404113503
18.07712778923952
14.898149264589692
11.86513312087197
8.976276787836435
6.525697604358045
4.729182211249747
3.899502113316698
4.07274496864763
4.3027058910636065
4.41120577444701
5.782911553542729
8.394104332462645
10.701480777751451
11.658142910569946
11.445149370984181
11.155434625262343
10.710597623457423
9.387001957940324
7.797959444243645
6.904144694165939
6.423011974747514
5.9317772106579
5.976501020911317
6.861984203574175
8.157859925739967
9.337359873054654
10.040502795566391
10.760211680870446
11.91259556583837
11.24992199144665
7.7567793968083505
3.492304985984182
-0.8206842235075089
-5.360286271861332
-9.373322124364824
-12.169081809208391
-13.614047738768395
-13.51638901790716
-12.884993906384317
-12.702836035975844
-12.650744471432523
-11.766622184121012
-9.199525362013816
-6.627979162511817
-5.50948299710416
-5.1352341415702965
-4.741009806163353
-4.1360003085061345
-3.943838053002062
-4.463626135885962
-4.330383324506679
-3.0798699351390204
-2.092001491108981
-1.7645491969516718
-1.5645279968977213
-1.2187829227650984
-1.094615632318449
-1.5920361740200064
-2.4031637369500447
-3.1152476930107493
-3.6873558373756308
-3.60670705639635
-2.7269825683971183
-1.6156997470820649
-0.07426711528522127
1.8956842886416223
3.1758017193011736
3.0507426621208884
2.2786892579151554
1.0681535330698289
-0.8849563477607109
-2.503746111645073
-2.9033454495688003
-2.472324074293927
-2.181625032319349
-2.4706999722452463
-2.3247198903570503
-1.3699627871727256
-0.5437618173130361
0.20988217117219352
1.121322494097936
1.5706745015951222
1.8849463677671618
2.5958291265036157
3.570107943571238
4.727777066099087
5.6902500408825505
6.275814457924275
6.801071438183971
7.320868586105661
7.841498201191613
8.362132128326197
7.9403916145425155
6.3064456009414425
4.593257457170634
3.5532782533393106
2.8812836375235222
1.5586361910045454
-0.3538112739529493
-1.321076282658944
-1.2031269568304854
-1.2566966654008866
-0.5644032987430202
2.0048767668036915
4.92155755303654
6.221594018337901
5.844494913442405
5.301725708555923
4.938464301629298
4.412401058500419
3.671374384103095
2.4605060630697495
1.2137970209137074
0.44863463351773536
-0.17540716088597838
-1.247518385724955
-2.4076876558976266
-2.8587297386318355
-2.6005126538492087
-1.9193096884239285
-1.273052475117273
-0.5284492073579206
1.5725253499427518
4.903272794962621
7.706814718622935
9.377430106033243
11.054493482658403
12.496729532891049
12.451280989172613
11.648259932144914
10.760402334292284
9.065878800013609
6.3162180755293384
3.351945724029928
1.0306475507616768
-0.26638622968040354
-0.6778202911237577
-0.6516044152913374
0.003189887415257683
1.5204374667680203
2.7587634732778867
2.682760343411338
1.9763322499079337
1.2191349662068043
-0.37944887812675865
-3.112084798486014
-5.604200198072351
-6.896172613505723
-7.08018273949267
-6.1321500683893255
-4.324475333971926
-2.3827876609739955
-1.0990388868873233
-1.126586181919563
-2.6132127986144873
-5.046520003255863
-7.485750020300406
-8.924028134444033
-9.049475101155416
-8.028312859516653
-6.24431560466598
-4.601885729883274
-3.5833283180887703
-3.1305494639651146
-3.1068264988613445
-3.873264429578791
-5.574441969885931
-7.265858361452535
-8.595869359935806
-9.807041129343176
-10.433875857181663
-9.555260616795186
-6.935787445200216
-3.5576171807695744
-0.45130636171217403
2.2576586323698478
4.634509193043159
6.480985047325743
7.148106273150008
5.930503733586036
3.714837673474543
2.3252135415710935
2.129377015300637
1.7739967171949649
0.31123672613173387
-1.499949204218688
-3.1016534667132616
-4.990948769887257
-7.009056367121334
-8.207475397880039
-7.945213015636321
-6.818187888558803
-5.819646913334094
-4.79586531831445
-3.24985752337184
-1.7424284510815675
-1.2009075663209317
-1.6661326863230488
-2.3133446952620527
-2.5710348445949665
-2.9232117708160743
-3.438176553131368
-3.331174953073189
-2.099585980782254
-0.061238587568398194
2.0572593785033253
3.923049099866221
5.915301569506971
8.078195833068005
9.410702296648084
8.729990533024154
5.822230404669048
2.0885650314930215
-1.1844500872731738
-3.7921845351616486
-5.848583213577054
-6.948886549968389
-6.306426750769155
-3.854814732060737
-0.6501236570397805
2.0031134609860506
3.5007536784356885
4.299653232753829
4.7922962743074935
4.488409139896814
3.255484457526842
1.3681380546204776
-0.26143368678768913
-1.057158799460186
-1.775756757710026
-2.9756275922928466
-4.636967068708542
-6.5869792130407365
-8.061177646898798
-8.516151985954737
-8.030141331909933
-6.6624072031371435
-5.339331264608843
-4.822253994328934
-4.469131320506187
-3.9150553868652063
-3.5634395228434808
-3.808314814078498
-4.647934521966469
-5.185012623929798
-4.716401002721673
-3.5671779766806315
-2.061533421611001
0.08462449735508565
2.821887584772503
5.311390423310235
6.986256278543862
8.042721524984303
8.900489228682115
9.560403898860804
9.661569553979495
8.962171653554405
7.238718921291472
4.335107568106618
1.1714321505880745
-1.2934101140268743
-3.5990180692708527
-6.772250645944728
-10.313060568556423
-12.087851953660875
-11.268660731492027
-9.325388647078281
-7.3487311957177495
-5.045615307683123
-1.9799541238568876
1.6282382514439273
4.480225182441069
5.301160400714803
4.37895694780811
2.703735445946435
0.30152743252775743
-3.0930943161640148
-6.483054489838963
-8.190338915950989
-7.8907423733029445
-6.5118341053877415
-4.314171203200491
