AAD_Filtered_TADAS_FILE
AAD_BASELINE_CORRECTION: BASELINE REMOVED
AAD_FILTER_TYPE: BUTTERWORTH
AAD_FILTER_ORDER: 1
AAD_LOW_CUT_FREQUENCY_HZ: 0.025
AAD_HIGH_CUT_FREQUENCY_HZ: 40.0
EVENT_NAME: 202302060117
EVENT_ID: 13194
EVENT_DATE_YYYYMMDD: 2023/02/06
EVENT_TIME_HHMMSS: 01:17:32.00000
EVENT_LATITUDE_DEGREE: 37.288
EVENT_LONGITUDE_DEGREE: 37.043
EVENT_DEPTH_KM: 8.6
HYPOCENTER_REFERENCE: AFAD
MAGNITUDE_W: 7.7
MAGNITUDE_W_REFERENCE: AFAD
MAGNITUDE_L: 
MAGNITUDE_L_REFERENCE: 
FOCAL_MECHANISM: 
NETWORK: TK
STATION_CODE: 6304
STATION_NAME: 
STATION_LATITUDE_DEGREE: 37.36509
STATION_LONGITUDE_DEGREE: 38.51316
STATION_ELEVATION_M: 617.0
LOCATION: Kahramanmaras_Pazarck_Turkiye
SENSOR_DEPTH_M: 
VS30_M/S: 376
SITE_CLASSIFICATION_EC8: B
MORPHOLOGIC_CLASSIFICATION: 
EPICENTRAL_DISTANCE_KM: 130.27
EARTHQUAKE_BACKAZIMUTH_DEGREE: 
DATE_TIME_FIRST_SAMPLE_YYYYMMDD_HHMMSS: 2023/02/06 01:17:34.4945500
DATE_TIME_FIRST_SAMPLE_PRECISION: millisecond
SAMPLING_INTERVAL_S: 0.01
NDATA: 12501
DURATION_S: 
STREAM: HNE
UNITS: cm/s^2
INSTRUMENT: sensor = CMG-5T/GURALP | digitizer = 
INSTRUMENT_ANALOG/DIGITAL: 
INSTRUMENTAL_FREQUENCY_HZ: 
INSTRUMENTAL_DAMPING: 
FULL_SCALE_G: 
N_BIT_DIGITAL_CONVERTER: 
PGA_CM/S^2: 238.228
TIME_PGA_S: 
BASELINE_CORRECTION: BASELINE REMOVED
FILTER_TYPE: BUTTERWORTH
FILTER_ORDER: 
LOW_CUT_FREQUENCY_HZ: 
HIGH_CUT_FREQUENCY_HZ: 
LATE/NORMAL_TRIGGERED: 
DATABASE_VERSION: 
HEADER_FORMAT: DYNA 1.2
DATA_TYPE: Acceleration
PROCESSING: Automatic Paolucci et al., 2011
DATA_TIMESTAMP_YYYYMMDD_HHMMSS: 
DATA_LICENSE: U (unknown license)
DATA_CITATION: Turkish Accelerometric Archive v 1.0 - Disaster And Emergency Management Presidency, Earthquake Department
DATA_CREATOR: AFAD
ORIGINAL_DATA_MEDIATOR_CITATION: : AFAD - Disaster And Emergency Management Presidency
ORIGINAL_DATA_MEDIATOR: AFAD PROCESS SERVICE
ORIGINAL_DATA_CREATOR_CITATION: AFAD PROCESS SERVICE
ORIGINAL_DATA_CREATOR: network: TK
USER1: GuestUser
USER2: 
USER3: 
USER4: 
[...]
-57.834319639188756
-51.72976061441984
-52.245565810651264
-70.69728495766942
-84.64752211947435
-74.20114582114256
-42.808548392312474
-1.4617471352435703
37.27755750665732
58.25341719809827
62.226702678769385
64.78377403916852
75.2110366189479
81.92862824697929
69.05732184300098
36.6394060680694
-1.9280876229255557
-36.21077475602708
-59.94483925295304
-62.865898602169096
-42.43574514912949
-8.810011500242688
28.635032881566783
60.02980229954755
74.24737658222253
71.01617468503446
61.776888047374044
47.27225292241853
30.373734895426594
7.861096183138888
-19.39176649134188
-40.849993294100194
-60.08209266658416
-78.09447268880827
-96.66319579047044
-110.62631433230945
-105.18101664075
-78.98610868098602
-42.49786162217913
-5.448218588491523
25.496518564569914
54.88372175608702
84.2819512421072
105.30020146468259
110.60999803610929
112.13310601979184
99.79513518761203
54.21932842514295
-0.23428732707007816
-34.78947780514006
-43.09191709088083
-45.36821842462555
-53.06992472638866
-61.66565337751062
-58.71070659042508
-38.35919485264848
-10.011232806546499
26.56223867602592
67.52860588278953
99.4617759362209
108.93303459786918
99.43323979240341
77.07060839527077
38.120009609053795
-3.2482716741719244
-23.621029086952703
-26.18045822225256
-26.98257411712308
-23.504926341803888
-14.20647049812322
-18.731010098450746
-39.73125250549372
-61.494730847749665
-73.76163515217058
-72.04136786216074
-59.56021340897646
-37.84557789149039
-8.256723699400666
13.931692395798006
16.09201527575715
4.8921777493201795
-3.2538367116169904
3.2176126757497046
10.583993094331072
-4.842424270989617
-43.93823983776283
-83.1448571839871
-96.22249728945611
-76.20822111414688
-32.11465602720086
12.671536023511152
40.18292084440823
53.93036896047002
45.403928169803564
15.279419279617855
-27.64742017398519
-73.23223538279552
-104.1142198034123
-116.93736021537781
-111.16228663971673
-82.66171061590764
-46.057840634833425
-22.59654540127242
-6.2871586461606315
14.331478399654081
33.0044735382234
34.291747732538155
24.490810321259588
29.837286859203154
53.64227655807009
79.91943298045213
99.25845187542005
110.66281755579881
107.05513987100296
84.63751551943093
54.053522436302046
22.55066458311903
-4.0932077068405635
-26.730391586403357
-35.35428808167634
-12.007677973846432
29.226809245435394
54.32877035869624
50.201564721678885
24.81878763638798
-9.627301812296208
-32.59007914034032
-32.45930863154657
-10.73816292182145
14.592537808933109
21.173294233937703
9.664696231623505
-8.273251947129944
-28.400997295734044
-52.499630683377134
-74.40090719820917
-85.60962643427605
-87.62909885158936
-79.76705072667826
-57.62800537472715
-29.31715169685706
1.4394955432788568
32.81863712491157
65.01218730705935
95.16292654940383
112.90835554441936
111.17971443269248
91.7190124154611
65.32706947738889
40.45202800831417
21.480066843174473
14.36976263059922
14.580717925341162
18.233028849631726
36.829400263561645
52.68262199877286
58.42064663890497
59.45803956054112
61.80451811842556
57.71867567826821
36.86191342135145
14.084043971040375
-0.2828931144189016
-9.41220562083186
-23.377154047206595
-33.997838337571245
-30.032132668915054
-22.741961342837833
-26.084299871286966
-35.747578329793065
-51.36430687227048
-70.29816543812211
-88.87742229372915
-105.47354212154892
-107.54477570948163
-95.30470832299753
-82.60079961568469
-75.75645412672654
-63.03736133379068
-37.284464644169056
-2.5406748531082344
40.309536538689635
75.19473899796917
96.55010698817668
100.64599581066767
82.614783026033
54.43229933667775
30.220473765726442
18.21341160280679
8.285153411406771
-9.759659375509203
-38.73774647938274
-72.95048419687559
-96.47353132479789
-91.72500188278514
-54.04898479521248
-5.454006377949981
34.583410171440974
68.07213119915474
100.2203182267226
121.45893377122846
115.29850492784033
85.46365314732918
51.395124050636426
19.36679322527115
-14.173567911544689
-36.1576070568842
-42.767728425580444
-45.4005808571111
-30.92280551638514
-1.1734920576305063
29.023595938501572
49.02647440872573
42.46755587149705
27.85844959706639
33.8785797421745
40.55142381533599
26.631799624819173
0.9271209125081645
-16.862999164536102
-18.457190279839352
-10.885114561967166
-6.135726741933596
-14.772090585635501
-27.904806627224616
-32.2790230305109
-23.19842548291428
-15.140218743096964
-23.033479680082674
-40.61085661106563
-51.78146372400059
-55.291891312463555
-56.30923674123492
-47.696595065211085
-19.388163806454173
20.20757734422581
55.58768551293149
85.4001632535566
98.8002584701949
77.5787973790862
29.428032478522834
-12.944874341517497
-34.735234228894754
-39.30366150992455
-29.60258802699365
-12.552843889654076
8.851093932823304
20.43895335467015
16.27542085914379
6.072215100333098
-8.610141665101699
-21.073273652857093
-27.248191253128464
-25.338518384880878
-10.907064414160251
9.111417962479134
25.11143032129024
28.568462463389714
9.319668181665573
-30.81205115832212
-81.29819974832289
-119.7985212713635
-131.39992582748638
-110.23037285649139
-57.5035585600825
-9.940923751795504
11.483179921684915
22.803100748217982
46.0023239625017
76.84643055966272
81.6872427857034
53.07032203268839
21.762506196716533
5.146212875141838
-4.3013958989738645
-11.249626133259348
-7.90523471174927
-4.295761755565445
-15.603627010692666
-35.24349505091042
-56.97027438608703
-72.24915723170324
-75.16938564901477
-60.05671960327157
-26.092392498791494
17.681789329744554
53.50474411269921
61.13048375742216
43.529609529290944
31.815347234891036
46.5087833588887
70.06944663346931
77.26609245053619
66.1631675195629
52.820767834232754
48.05755527368837
47.12804546608106
33.46965996933493
8.496707939695506
-4.9069674786735575
9.195249315460327
39.280323367682676
61.35420275805627
71.80463901676613
75.2683152304957
76.58694948412553
74.74985039955828
65.27972871496657
60.23278215629122
58.15085949729133
38.83141337999196
-0.9583641422009863
-45.57942716808098
-64.29783416433811
-58.21010973200795
-55.58739925415114
-66.07328860139583
-80.73359871086254
-85.58750476737144
-82.70893994737862
-71.99856962940943
-49.032757628097244
-25.42497782154115
-12.3964239131248
-6.173141797471755
9.459860523069334
39.99290974735717
69.49478686369304
89.5011813212993
109.815547405166
123.19862641060763
108.35939157158171
59.7500846757191
-7.789912472138852
-65.81797084179344
-106.75075902300229
-131.69709917094548
-130.62820699198355
-98.83712377038115
-48.14206664706183
6.643170434779257
55.38002730655734
87.20239452908979
90.76491409650687
64.31464880290221
10.061017053059711
-51.87312773157619
-94.06635070885442
-106.28124605194415
-85.14471641178137
-40.77491108965484
-7.3216314567991665
-6.972046854042326
-18.591643604690926
-19.20460903407231
-5.735993124161991
1.150456552736637
-4.663831782438854
-12.550104245937643
-11.726534826451378
3.849250414909858
22.246972938538175
27.79887076667625
18.199072737771527
4.119574375566738
-15.842874043689152
-37.156952297886924
-47.88118546068334
-54.15654400397733
-68.0686258921112
-85.37515636116214
-91.2654336365178
-75.22657575155854
-50.86225808187958
-36.88377950258369
-39.62332603058215
-47.15374325798294
-35.91450984050971
-15.817140349849362
-3.2672352209501807
1.4732044090087806
13.034056974022098
38.932870999819755
65.47835720911351
73.27439175355728
62.062410052600264
32.99939777252038
-14.131073585912022
-52.847964391806386
-63.014104154348665
-49.802087465940325
-40.85132864384157
-43.891457368792175
-51.90826642217003
-54.45660301932379
-38.21223140119501
-1.1829047806535555
56.66935668617036
118.63754218215921
160.20474262083673
170.4683808902366
155.38967141979143
124.35830364007037
99.63970480479544
92.5047267441511
71.93465878171466
30.37448749140382
1.8621301155544525
18.95454575861544
64.95924492641828
98.4205082076343
97.32091683039319
67.91738232496134
25.680838349430406
-6.065681975366345
-14.742659227245108
-12.049692373425861
-7.845022903419346
-14.869015026787428
-20.393929168913488
-11.682476601717148
6.051748180351252
22.570793879875904
14.608096180038954
-31.506724392066786
-92.90043363752606
-143.55252858160682
-172.87336001566825
-181.3832209616517
-169.00608541388493
-135.6720642510881
-94.97684978486741
-61.447023683623044
-39.10627622385918
-16.725375263394515
15.345471720143916
44.84670855849108
61.41212902030217
65.96155245413135
60.9861685546452
58.13200337600908
63.97653835184835
66.8676711700125
52.618921451402976
26.368968300957945
-1.7448328042267311
-27.657882056067628
-47.26436812386348
-54.26911598171844
-44.1758417346156
-18.12603858292742
10.128226499357794
28.24475925469698
35.41118511860397
28.813957513062075
11.452913025996027
-11.096985572345384
-35.80118960393669
-53.82167202818667
-52.588794751365
-34.61250656741536
-21.109045261829873
-22.422179998825992
-17.56854646988897
1.391961584533116
17.212777269700336
18.98141762321125
6.695217747312275
-1.9250423835609987
0.8428710938622234
5.941456549228915
-4.698388697817165
-37.6624154980599
-75.3692269576518
-94.0558937836143
-82.57575146960801
-52.3072434473583
-22.260705901773374
5.239925072132111
39.282022560647036
69.96125990446886
83.7583219213804
78.96916938540376
55.04497748984396
20.015715678201612
-0.686507969658432
7.155998924731127
31.823352339661717
42.347047214038895
18.315100063643722
-26.643630829122845
-68.67873344963162
-77.04680145095972
-34.27365533973449
33.3332158934774
76.34198813670822
87.18133490111383
87.78799068015459
83.48648880191074
82.49206837976993
79.87807832834474
54.02585148300329
10.553661811170182
-31.78237726722545
-74.10743308266802
-120.4909454790746
-156.9268363801332
-164.22372034401027
-144.15017934281232
-107.59551647740072
-74.96318777563808
-59.58420560728348
-44.839966266569895
-16.508310457062887
19.403295480937956
44.102733708749085
55.897838081904744
66.1381088221575
75.80480166051723
75.90808213015038
52.51013170291693
4.9467088631367835
-55.586312461194
-113.49540598443652
-153.69736145230763
-164.80408236459562
-138.09317300078482
-81.77835294444286
-21.78290914237341
19.742448251069643
44.82587552800956
61.77553151156187
66.43178212098874
55.44855902676835
31.98391639216094
8.243646117671702
-4.0254492392355985
7.516547148904672
41.566082461363216
77.96072783637092
103.76413186790113
118.24031291988369
129.2444667408965
137.07246039742014
134.75831540361082
126.22518113075718
128.68799846114928
144.98681572848258
155.35132230921045
154.12452577958305
150.66284144479775
144.7520507827901
130.49392729131836
102.88753303479825
70.21223984075432
47.91235251236724
42.841760016126585
44.50947555648659
28.391498336105077
-12.646386729841055
-61.99301172509001
-91.27963378654833
-88.33993186341561
-64.44425388152217
-44.217764673109606
-35.47697580847829
-45.39041471608711
-69.33164306380311
-85.44735353152342
-100.96079759885659
-116.11658100809842
-115.2382317234215
-80.60827954701615
-21.875337619547103
34.03705852139054
73.45247865172438
96.0694554761685
110.51876641577759
117.96612127199728
123.5425375627598
128.24952202020214
119.53097095295068
89.53044202326103
45.89039501876517
2.0050621382118576
-35.63709970493204
-70.22960996347838
-102.65154705137424
-123.08417756231508
-126.15900818546494
-107.62705900744042
-77.25283236413178
-53.58406772929323
-45.7849289418833
-40.6278964804853
-19.848603811708276
1.2327111510313327
2.0199436002248357
-26.644509053624606
-80.30364824033619
-128.57003703645836
-145.88370103558825
-135.4352540179335
-108.59856459657425
-74.30879977942571
-45.70729491576301
-32.69913890698059
-29.499615336216213
-27.805564280318315
-26.516915887113612
-19.390083367277363
-2.4791760377567074
15.274137239294523
29.243787491563964
40.310105281741045
45.411904286451794
49.729083184300926
60.82879312053693
70.25368663933622
66.46899935508974
53.810129983974925
44.60893813373076
44.359795810566986
41.86934515492347
27.797640288655987
11.216676266690742
-1.1860329876683806
-20.354459480892864
-56.65173089508638
-69.18795404685973
-55.211862809536115
-39.71123452529723
-43.051882911707764
-71.19418973372845
-101.64767770781908
-120.86366102832132
-109.79886167111326
-69.44004078091248
-13.908247219989617
33.77181083251677
76.99327591071051
120.85819362745943
154.3834832693499
165.09154009097213
147.42122008051672
107.8635959395799
57.97132712240607
20.16128297131611
12.402167078476795
15.075850659295863
20.869117723804475
13.328520317776317
-25.308567537527782
-68.90574860165587
-87.97637030529248
-71.13565614471496
-34.457517748811746
6.301999425807313
35.159265769631894
57.360550307339395
83.5125012701816
110.63801982427256
120.41499036654099
95.63373905779395
38.20449118002167
-36.27661201892327
-105.2322878516503
-170.30069064732456
-217.3728774295664
-236.4706472514199
-229.48703257799173
-174.39542763556034
-65.02923003841623
56.46199912635881
139.71530903364734
157.24916049831342
106.54017813579767
29.697256070806667
-20.313808817583567
-33.47104630711992
-25.375949932457225
-14.354634003424732
-17.346194725679354
-12.890419015390556
3.419659636280034
6.7771868872207035
-14.156494138063364
-43.719709161846936
-70.35456912193602
-91.15469044442867
-90.33047082299203
-57.68881171707878
-13.34037128976738
28.07845569060462
71.83003723327624
107.10082369622441
131.78387257676965
154.66122763934814
164.95850223085446
152.1112481211815
136.64985688427763
129.51702186266084
112.73430680328873
77.44888008785762
39.333161010718875
11.824941481548198
0.11578109043156463
-9.026292673428005
-20.39350685987725
-24.791702978421014
-26.465092971914398
-28.32352298928077
-25.204638430417354
-12.415682987198617
-3.137863336306887
-12.322153159511648
-44.87077455272386
-88.207743379293
-124.92774392525367
-152.00592945663024
-163.57321533997293
-151.4604872081031
-122.09870196959372
-91.694218226608
-64.9393154436076
-43.50281333849722
-40.229147522879174
-57.29886273795676
-73.80747199372544
-67.16630167980838
-33.24066681684721
14.188585561256419
62.012296660606665
107.4586147340988
139.36350026198255
147.75748049843196
142.58605282067484
123.262863790706
81.89892259860673
20.511999595766763
-38.844940888935994
-73.47384482551563
-95.47659167141109
-114.69249778021367
-116.0283363348114
-98.66390572920228
-78.73952360935148
-67.04588108472076
-60.36097553700763
-47.645790335230814
-19.410998861395573
29.544548227034618
72.66600603213848
86.65388273799041
78.19861166956099
55.66546421045275
24.768021656378494
1.3862764951795883
1.4707714960284
21.66907471174285
45.143121877345294
63.57623137964877
81.11026772524716
93.09983477017788
87.45315424605938
51.08358733997988
-5.732787165465289
-61.38927824340621
-98.49182530616264
-105.10605266936254
-90.79362150518892
-80.88567258161753
-89.05314651086904
-90.50101846602534
-60.487257980172814
-8.995185644895782
28.744831451422
17.55179954237778
-23.436939280428863
-49.08848356827811
-44.5768756412666
-30.353509619712938
-25.034549080995937
-27.8912089302234
-30.822352592858966
-20.108667285208792
-0.5652715925366677
24.04523672958274
46.890524308456385
58.439266224639134
69.86828714730163
79.68995017407568
66.16795306135636
23.860099937014017
-21.34859439788784
-41.76307645900441
-41.258068495183146
-28.759612145021393
-8.850450487449882
8.494584353330726
32.58792432254148
74.51601942458905
115.78226266848691
135.5749003891948
136.8836572437689
121.77246399178011
84.95318995145695
35.98326819255873
-12.875593951212505
-54.53186224806172
-82.87325000194768
-90.6430275708195
-70.6139220633166
-29.47089815510848
6.9857529910741505
30.45266406881242
55.281541006079316
82.59179270520659
85.22747056093755
45.588787471590805
-13.445397361360433
-58.5953450283662
-78.55904945551417
-88.14094179534123
-84.82950335361052
-64.17603753175186
-42.09700789083482
-30.835939647515985
-19.096321254850334
-5.343887176477224
-6.295181873057108
-22.64666958351833
-49.431463655392996
-73.99012065084688
-77.91847295001325
-58.422757593978986
-21.29650657280765
16.93586156282888
35.0068647776881
34.039335198509754
25.666538666054755
22.923288076466932
30.733561741912272
44.891698965869054
57.660966753234
65.7795763116139
61.361645756753084
37.882827789881965
3.168960131704832
-30.131871594842387
-57.84679016309208
-76.95526195765291
-79.84225949081744
-62.39783862311985
-31.67694132838595
-11.881017917173258
-2.515291660134831
3.8211648797321542
-2.9419927699159154
-16.598776576753384
-23.184989333061605
-23.55259108495589
-19.945927325482216
-3.057253332205548
28.981757673015256
62.30370153865244
85.68367593512684
99.88831900802214
111.96666756909468
118.5644529673838
94.77594992151202
33.84705698619191
-31.41142138719417
-69.16435816097709
-83.82662698736743
-94.58092281460932
-95.19681452409283
-76.92308388560814
-37.23968663336952
23.860610566216604
88.05835174001037
136.74150670339125
155.0374798266719
135.17268689124214
82.58622667789841
12.040991573498777
-45.03208943166922
-65.80308223478568
-53.387135710821376
-20.87559960981388
10.371296332485992
27.445120482428017
37.84348041285821
43.055532270395474
33.95460871323489
3.3535495132968056
-35.616174941533465
-61.65966392871301
-66.33583105481206
-52.034758132852765
-49.09241263283142
-66.49024035385028
-74.18143342916204
-63.32556681988221
-47.8827906611907
-34.45932846126131
-20.67205520107533
-5.2060143979003595
6.990817097865156
10.280337777284887
6.262968144610274
3.379510073848361
4.061102094205351
1.177897397928347
-17.837920632247467
-56.714874380512924
-96.97883985397351
-113.78733698020136
-89.1297787986954
-34.12182015451463
23.14488695757085
64.8648031893453
97.79317804966685
119.8784793680942
112.1751741972992
75.79506288723412
27.802077986221455
-13.954886139314391
-47.97390535297852
-65.34632509007069
-55.6771231841886
-32.87374448094771
-13.17528303382099
-0.020477181222578914
6.396674224014279
-0.7355315421072022
-21.1704634133043
-46.621549987673454
-64.84297674557791
-71.26886570244007
-71.92714251595183
-70.44118125745679
-64.23503630664015
-46.77231349913925
-18.689430820404123
7.1406439196830505
19.402530904093172
13.494509421647606
-14.20038935816624
-41.67843949968948
-48.402141156158535
-37.087567180880484
-13.07813059952027
20.141649550520107
59.31693083306127
92.78247510232828
