AAD_Filtered_TADAS_FILE
AAD_BASELINE_CORRECTION: BASELINE REMOVED
AAD_FILTER_TYPE: BUTTERWORTH
AAD_FILTER_ORDER: 1
AAD_LOW_CUT_FREQUENCY_HZ: 0.025
AAD_HIGH_CUT_FREQUENCY_HZ: 40.0
EVENT_NAME: 202302060117
EVENT_ID: 13194
EVENT_DATE_YYYYMMDD: 2023/02/06
EVENT_TIME_HHMMSS: 01:17:32.00000
EVENT_LATITUDE_DEGREE: 37.288
EVENT_LONGITUDE_DEGREE: 37.043
EVENT_DEPTH_KM: 8.6
HYPOCENTER_REFERENCE: AFAD
MAGNITUDE_W: 7.7
MAGNITUDE_W_REFERENCE: AFAD
MAGNITUDE_L: 
MAGNITUDE_L_REFERENCE: 
FOCAL_MECHANISM: 
NETWORK: TK
STATION_CODE: 3144
STATION_NAME: 
STATION_LATITUDE_DEGREE: 36.75691
STATION_LONGITUDE_DEGREE: 36.485742
STATION_ELEVATION_M: 843.0
LOCATION: Kahramanmaras_Pazarck_Turkiye
SENSOR_DEPTH_M: 
VS30_M/S: 485
SITE_CLASSIFICATION_EC8: B
MORPHOLOGIC_CLASSIFICATION: 
EPICENTRAL_DISTANCE_KM: 77.04
EARTHQUAKE_BACKAZIMUTH_DEGREE: 
DATE_TIME_FIRST_SAMPLE_YYYYMMDD_HHMMSS: 2023/02/06 01:17:22.8559990
DATE_TIME_FIRST_SAMPLE_PRECISION: millisecond
SAMPLING_INTERVAL_S: 0.01
NDATA: 11251
DURATION_S: 
STREAM: HNZ
UNITS: cm/s^2
INSTRUMENT: sensor = ACEBOX/SARA | digitizer = 
INSTRUMENT_ANALOG/DIGITAL: 
INSTRUMENTAL_FREQUENCY_HZ: 
INSTRUMENTAL_DAMPING: 
FULL_SCALE_G: 
N_BIT_DIGITAL_CONVERTER: 
PGA_CM/S^2: 451.611
TIME_PGA_S: 
BASELINE_CORRECTION: BASELINE REMOVED
FILTER_TYPE: BUTTERWORTH
FILTER_ORDER: 
LOW_CUT_FREQUENCY_HZ: 
HIGH_CUT_FREQUENCY_HZ: 
LATE/NORMAL_TRIGGERED: 
DATABASE_VERSION: 
HEADER_FORMAT: DYNA 1.2
DATA_TYPE: Acceleration
PROCESSING: Manual Paolucci et al., 2011
DATA_TIMESTAMP_YYYYMMDD_HHMMSS: 
DATA_LICENSE: U (unknown license)
DATA_CITATION: Turkish Accelerometric Archive v 1.0 - Disaster And Emergency Management Presidency, Earthquake Department
DATA_CREATOR: AFAD
ORIGINAL_DATA_MEDIATOR_CITATION: : AFAD - Disaster And Emergency Management Presidency
ORIGINAL_DATA_MEDIATOR: AFAD PROCESS SERVICE
ORIGINAL_DATA_CREATOR_CITATION: AFAD PROCESS SERVICE
ORIGINAL_DATA_CREATOR: network: TK
USER1: GuestUser
USER2: 
USER3: 
USER4: 
[...]
6.9016895422466344
1.4952299505917874
7.93125422865215
16.056811136798196
16.071094135755803
8.942956238531778
-0.1421392684842921
-6.614057413264975
-6.241596372329261
0.4536659842320993
7.278482801981528
10.774536159741702
13.56332234243285
17.98561779781108
18.98379417280478
11.973552584290418
2.7774095349198755
-3.0499659540290245
-9.664786827220828
-21.473398469655987
-31.63435997354671
-33.238991475210355
-33.12561029000481
-33.93307803012341
-29.56067813981651
-22.738690607221525
-16.996941358425392
-11.629934079954069
-9.208338992144947
-10.546566882611577
-12.631732218935744
-11.999406686105882
-9.368210153323904
-7.498052672552513
-3.07819712177577
3.8958375431393404
5.970747568526425
3.798356570548213
4.254812881217049
6.697089225327521
6.883297240721151
6.741753564484474
11.180979781296806
17.04676581673344
16.096841905949336
10.260469339559721
6.6493551420325625
2.976247755404496
-5.0263015257718315
-12.534629471265523
-12.115204687217954
-5.866712619719882
-0.4436125488851207
6.437044176523549
15.755911106104634
18.9708427436592
17.935484283632114
23.607734829770394
30.99683996704972
29.40830390011227
22.065351951830976
11.46440408286775
-1.4181566272109092
-5.49211199508233
-0.5838941188544156
0.5388364959128545
-1.7723644222282193
-2.2764345463132205
-3.4373108241678505
-6.907848302698196
-14.014438909462472
-21.972785824162482
-25.04772585339498
-26.772768338483523
-27.487098168362866
-22.01663232248604
-17.801026308311847
-22.161113278013435
-26.566217825103273
-20.185829189029665
-7.873231567676008
-4.331982849088782
-9.059990184270116
-9.566987818381746
-5.530346720109329
-3.7204160109143274
-0.7370906535200237
7.268411365776417
14.319656865694004
19.461616421927268
23.525535009682756
22.101248646725487
17.53531350497221
9.535762533003574
2.322218639481452
9.587430173506027
21.17264048132905
21.173252324047233
15.064013339259576
8.820463277744713
5.717674836640788
8.587287973255476
15.385101692110371
17.84299117420431
7.524129239702731
-4.643791886930059
-4.275327896821013
3.2843982646373124
7.968033704894627
5.991608044562635
0.21236937665937194
-4.940132005786293
-8.666365991585318
-9.639648988746556
-8.330968394377274
-6.931326899616039
-9.89785339754419
-21.612406078818996
-30.658576399627993
-24.284244156885713
-10.076712933489357
1.656524481229203
4.4390688780484995
-6.765060350003695
-20.741770581452915
-23.543395904337356
-15.885850060427876
-2.643343892804166
7.000014952489169
6.096729595590525
4.156526823575644
9.039194831869864
14.730929419491698
18.731746978661917
21.800646473542134
15.628523701404125
0.611018598230751
-9.095536685146989
-12.757831083179942
-15.789138924041549
-14.40842541123311
-10.514202240576138
-11.308251173615549
-18.12742868903765
-23.01410366433044
-18.171277668136252
-10.039864728596203
-8.287365049079654
-14.176706219740941
-20.999396563252628
-20.819173965868366
-17.637022213867887
-18.36949605674793
-21.349916875915454
-20.325776619601744
-11.449465648880519
-0.4866236999160385
9.064503101024902
18.428994920682833
22.693448681941522
24.227696480337958
29.958023731121923
33.759401815383455
29.199958810389376
20.33922142281823
11.027908467097383
4.5821271773476795
5.833167113879114
8.288387512281071
3.738348178490888
-1.4217527221598942
-2.457367814162319
-0.8040697399908977
3.2457044050753336
3.7478838044834712
-2.991296084817937
-8.59731023918155
-7.090662360557476
-5.067913154087882
-3.845332368804454
5.13224266557778
18.412641017924294
25.77456446635956
24.175723770006325
16.26018332800984
12.619821154990182
16.032483528208395
18.62319857907142
24.357888958075677
35.91895791814601
41.777851922617955
35.88503541092701
23.965095757468696
15.546485636489457
16.10197614641146
23.44316964423861
32.224419862582266
38.10975634366461
39.40762719821983
33.61968080464235
19.76152805176466
4.136687323993743
-8.178902253592764
-18.733062430503313
-32.25594491179491
-46.746826827409755
-50.89075035621949
-45.141017861848525
-35.23623585841462
-18.402160209825357
-5.050312362632754
-4.9363251323924064
-9.140327505051147
-17.021230798314303
-30.804399655095963
-36.88409687572321
-27.287552552250553
-16.50283782442855
-21.759130843884403
-34.450018799082585
-34.628100597520394
-25.511759549372147
-18.501566632675832
-8.740489408218654
3.8948411557946647
5.254187919522623
-5.609033182670282
-12.70713291942434
-10.47781475708883
-9.194391484470271
-10.949852906669744
-7.635201323403231
-2.532308499468859
-1.5951311851717265
-0.6408014920877912
2.2211863843058706
6.3975386919745745
11.448315168172092
15.537388576334099
22.820853006840846
37.3893929939602
50.44892065426379
50.551979162952826
43.16876373006408
36.36409389999616
23.94335121756626
9.34443131529941
3.3765001282022418
-1.7917653150154096
-18.26495862012252
-43.349307201566994
-60.39448340510747
-56.84684140732212
-39.971883547325895
-19.727202746069494
-2.81519797003694
2.268810876504339
-1.722892099627748
-7.900456079542464
-13.888536897874355
-14.664528819745748
-12.92863406618243
-16.756798677399114
-22.961790922618075
-27.30323692093253
-28.27747192080981
-20.304638416040422
-6.211408662109257
8.982027206313589
27.39890268122537
39.114968173450855
34.53737375527586
25.83227916452885
20.55581737369943
11.1198188445892
-2.0409802504902808
-10.906300134892025
-13.341505098579155
-11.60685013712188
-11.403781865897033
-16.696537273384063
-17.854388043962253
-9.740405842950922
-4.654046110313845
-3.037550233215581
4.834193017007946
14.973154666500713
23.424776736523974
31.254649323339574
35.88062203956035
36.67901767619726
34.28026819237353
27.656270518654093
11.271101020369384
-19.7684159418143
-53.165218935978146
-69.34155160403995
-63.40023911409896
-49.503348841143385
-48.23505208914162
-55.851482818574034
-49.076917183902324
-26.13390925582955
-1.4703015487880902
23.309470689277944
52.127202779653956
75.91611910835438
75.29631493106046
34.95228900419964
-30.7779951199015
-73.78876660241947
-80.22843882350404
-76.32316591255947
-55.149874043968246
-12.926908578032034
36.45192452630149
95.31192415650794
124.41190521765527
101.99547494764677
80.81813848514614
65.91014558547452
27.400407979301622
-18.435438691893616
-46.97180969800195
-51.39830426020301
-52.97350606811083
-57.846239957478346
-30.48246886438203
14.626341468169715
28.657109349365353
12.838267520567744
-19.06837877026503
-61.584525352957925
-88.15397325563973
-72.22726196820544
-33.38267237196142
-15.555937365729253
-16.36339835051858
-18.253072472293148
-27.012964515023615
-16.999305715837952
33.62826176861373
81.55021919310767
84.0624459327934
48.15937271097752
6.459546353975751
-4.305365602789907
20.67983781876181
48.795876949166356
77.09294801218206
110.43009212974181
94.42313254349362
23.988782010851452
-10.764202668389501
2.075762499632722
-15.750734037921932
-61.20659465333075
-71.44689105801032
-60.252362076651785
-60.2774930510551
-27.96326570210107
46.31566883947356
83.32480723633404
48.951111720646324
-11.224995397421837
-40.70221666720237
-19.040474481831236
12.194044109475962
18.581913822695814
15.670635398781446
20.142870594085736
35.79467755325835
49.628110394198146
63.9538647738858
89.00880536812156
83.02564114848151
43.01696747610205
17.952132054540915
-10.572667690908668
-54.3677758113682
-60.5681837504974
-23.454027981195665
5.042455966963554
-0.8830381554936119
-27.011972345139142
-52.69197174983443
-67.28589329067013
-71.27900743095752
-77.17407476125398
-93.08770676823157
-95.68777657440222
-69.26201919147795
-51.38890780733551
-50.84082032130506
-28.86149294868436
-5.5134838398158195
-12.050409618764723
-26.21827931165169
-39.74987075568115
-44.290995986261734
-26.741483995164334
-5.529559102723422
15.32216713590375
26.24975852501376
12.302497724304056
7.343621002833733
15.847769508598141
9.793466704572436
11.611639251646357
23.804299754299777
-2.4798128509014132
-56.30412369180626
-72.1203728280219
-50.90293194519731
-23.94559261907626
19.595182701104424
53.006012161140255
41.98916842190114
18.79602587542209
3.0150662855730204
0.004060909323858506
20.070586772164663
32.0119016731705
25.479143646288605
25.531197306111405
9.692615806422284
-41.03433215300953
-80.93223822453562
-84.93652167281051
-67.36246433980942
-21.14219402712566
31.292924595686195
41.11515954956846
31.734861908615322
40.61258423153509
49.767733796471774
54.48389025931026
65.5946195008671
68.98375318689881
53.03877846221715
26.329468341961135
6.014916128678724
-7.706030790373599
-29.561081922178804
-56.152882764527135
-74.35115132732138
-81.48199106101833
-96.43267681955052
-111.74586152733298
-68.96363536017957
2.4549738714568683
28.994980729566667
47.845381406205306
75.97571929012223
85.28800245435644
89.89543321087018
73.40760845831204
41.15304529530979
34.720414540952234
28.410446044111037
-7.321931677561974
-57.956767991675136
-93.45540600563037
-76.57805665446219
-17.85698270602755
29.409387573629317
42.43947147026067
28.853603687816072
1.5094481347605204
-23.381396579324985
-35.26852818458809
-25.504026484033517
-6.016173200166422
-15.271389627954862
-58.75831932280869
-101.64513809438077
-107.37537993030519
-80.72254111089883
-68.16551814896572
-57.655171386969094
-17.139959960170444
20.189398296383676
51.62147769764588
89.4476436961101
108.97398956054205
112.32105663460952
92.70841044531507
56.50577504895603
49.18451675757405
47.954925884151265
35.06688261105177
39.26608943235908
19.50805491497075
-31.909502895023195
-51.169671340620056
-51.35624559258416
-70.03460213601872
-91.45608154601811
-92.8340224794655
-65.20006122995044
-30.08363175715731
-16.80173370937232
-18.027331271537545
-8.597865527930884
19.94656910106182
47.72753952726285
58.58005585078642
65.44318471345036
64.3520804313305
34.800808974968504
3.4079684243229855
7.279812755563361
38.18487606073895
76.35092682380701
91.35168900673472
66.09360376509721
42.43246174959185
36.160580825112355
24.963201567329556
17.57231522396221
-7.043438313910355
-60.49861996500167
-73.00505147790702
-43.66243759202913
-44.80127085373497
-60.06222598805787
-47.57926639250655
-22.49483666372645
1.3203295370892634
14.883124407218641
12.036572941787421
6.667858774144028
-4.315983385027992
-34.92655055727844
-62.787373576559006
-68.03644149285476
-85.8660221310384
-134.46995850476765
-164.28959139106144
-144.37287651417262
-99.09933009322945
-60.265784705796484
-30.011751942895355
20.925621151095516
75.37137445375336
91.63488714696017
105.76801173370211
132.43395524499235
130.43843005769477
114.73152067437266
98.73685860392878
73.57023383802496
65.14903499702883
74.97604270921767
79.35356477911938
69.25487104406456
42.4201531573127
7.430869528662656
-26.851272264443693
-39.08056130589246
-9.840964849595363
28.651727799102773
41.65928054322789
35.245302733547035
22.270721874205957
7.225047074471275
-18.12438764000316
-51.865568949640064
-68.59692858772587
-75.51783638818911
-93.88479301960253
-106.99816701939099
-116.5584802470109
-135.4186784824501
-140.83903040779904
-129.12248762980374
-110.95731474032564
-81.74660594252416
-41.656614348412724
16.52153968133373
73.12763968949704
94.2283661690421
101.4614034136126
98.58923571220852
60.03620641631187
17.15101058937684
-3.8418572214213045
-18.551475934423188
-28.99433257622215
-36.0264662509634
-43.11664224729862
-41.77860123094326
-34.75002302168991
-35.51091108026519
-48.80045625848068
-64.2824955924612
-65.02331114064154
-46.67997376153008
-15.44917284917659
21.938756859894802
47.1219468168756
36.214348513568176
-3.5349237079223874
-34.76170073069649
-33.00756931741233
4.195056878707412
61.85901215624798
103.01993909005499
102.1441216737115
69.94558308278194
41.73431680581087
53.07599852029999
89.34715250102573
99.64330986722823
74.27226257308659
31.747020130606497
-15.547160904268717
-44.432233375453336
-45.77947908033705
-36.37597110736973
-30.30977755219741
-25.520251488931574
2.572005646763987
62.49897172931216
135.17739161398578
200.8053646029695
218.87384866745055
185.18087297829481
156.1234519947773
136.720576919742
95.1886836207117
36.87760088865527
-16.830211681391642
-41.10304188956214
-30.789290920410796
-9.561409221734184
16.690585728175805
35.06078314170411
33.837402076992085
118.57192867510082
319.11020581654986
374.6606394610226
177.7667513429648
7.8648049085803695
12.999123385540532
56.291684788461254
54.579100376738076
34.801540041989256
34.62669422367067
111.89238836552589
261.5233169910702
341.47505111980877
273.081199411404
149.3876044166856
49.249214555618956
-12.805397176568917
-34.645192975046015
-30.458587808546323
49.5603024388906
202.18527915970768
219.48405715811964
65.53562583701012
-7.249358158305988
11.264065785484899
8.5009760633968
146.30514282981298
380.9009051596162
442.8696885984427
436.08110515818635
433.76200415686856
254.09157637768968
87.71585394128485
177.59793802853412
311.4375207146661
311.02162860894146
255.0072703354571
216.31707424126418
185.50593199586112
142.16487612496798
140.95648106323856
212.3088307412036
254.5394728435817
191.64875770775572
84.40961795380626
3.234560396082521
-37.47178967593641
-29.5444786233791
-17.758127710396515
-52.540821487380974
-92.86963337463308
-101.79748384726697
-80.92154050232978
-59.4783164939706
-77.691414731834
-88.72590811942167
-58.23535286060821
-31.096335730211635
0.40622134681442257
42.8122863649948
52.56052571468349
60.78246136926808
113.02560710855246
128.3348510015238
44.22033459482116
-34.537083303712684
-27.26786946819878
1.2242864247170202
0.11123319079774345
-26.92257355775043
-83.98575157913386
-155.004230322268
-216.21892535896694
-256.1428292153394
-255.21209099245547
-220.7412324794118
-192.31012725634713
-185.95400151757818
-188.5406935302871
-186.86782567065978
-175.8874187322375
-156.19996224080006
-138.1378023029945
-135.96225749128297
-139.59312684492366
-117.23696183313096
-69.31672642128109
-37.45407688917112
-41.45228621633137
-67.31150646310725
-95.68609699021995
-117.2263928821776
-172.90351743819232
-284.3252858754234
-369.439084297955
-368.82772133508695
-311.34971222828204
-254.74487470999875
-256.68770890541396
-291.7379455983823
-288.76529690521124
-248.5579739405019
-178.63950014950692
-74.44347291345481
20.347817820312695
68.7368361802954
69.80237646169246
33.37670559329651
-14.236047849756417
-47.081309545455305
-64.82629159002025
-83.46831922793787
-112.60620310672763
-145.42283624602936
-172.51904686933375
-192.27293043286596
-207.30936739304292
-222.89932155632664
-238.9811494490374
-251.73575554697806
-260.6542105993419
-256.12728374135804
-226.5341856251385
-185.58938835600208
-161.54958792983092
-157.76053577902158
-157.66626897143038
-159.7972131036774
-160.7317243383634
-146.77006213911466
-126.94797266994841
-115.18249104429538
-110.29113514057572
-109.11336185318562
-101.04272300058763
-85.62829157470334
-83.33025550016205
-95.63040168500483
-104.00830520896031
-105.52355880796271
-103.45577699948404
-90.64400967833959
-70.26067651812734
-60.966399603171965
-72.7710074134992
-98.3574903835179
-122.71795988095397
-133.34286660194044
-124.5746772350182
-99.33730089882798
-69.47069541690982
-49.32461703899924
-48.32339495550867
-64.25888214174326
-84.08379419946276
-94.36705971151824
-90.51804962387119
-85.115893776269
-90.74125989984609
-93.4122732167731
-77.23150815672568
-49.04832791262016
-20.73671709187914
-5.8208471948838
-14.669975076466176
-35.42083734934275
-48.415924967609065
-44.25661900321291
-29.488135460164223
-27.85665400676771
-42.804356794300645
-50.37832413937026
-47.79868033420936
-44.69495463198147
-32.278410813453455
-6.509255090199382
19.19678878114511
38.03424792573753
59.46788178941641
85.68511030089459
112.00514052025233
145.61421260208832
174.68300167057188
174.1199231252042
159.81973535082525
150.18116725651353
127.22489409814578
94.98426122209548
80.39004109111904
82.73814336031376
94.81191288093888
108.70105235998517
101.05576254194293
82.31489086962584
88.54136936769869
111.09391873972756
118.61591976805146
110.85564188529362
101.07488228825719
85.57452338857186
66.74725941044169
67.57479971988039
84.06298528463057
83.25077388634233
60.69932480360391
44.82036698984033
53.97434957814454
68.66159637213981
64.32219444708778
52.63487284742582
49.87040693962897
52.75216758869829
53.844192163965964
52.09025207483073
64.01786155498795
95.66633094696967
124.90903391207053
143.1794226370036
154.0767549582448
153.44451568564008
151.39901343391227
161.33744338277597
170.70518521338718
164.28076959818344
149.06144066917867
132.2461548853023
114.87438139975701
103.79396826573905
93.05782643715693
74.4054319857956
66.32270658507464
80.27005969382573
96.28319952768425
102.80056769054235
111.45450470346208
123.86555459061576
124.80700490833455
106.05340002886213
76.35693229563033
50.49979108669107
33.40790283173236
21.575700550844104
4.346334112807411
-35.47159300623878
-85.70770954069799
-100.40068091323151
-69.55884068817434
-38.85619694212804
-31.822210202685426
-24.052183978841626
-9.49019521499858
-8.48761824494752
-21.41488018878446
-35.580643950076706
-42.065147866966
-31.47930938102572
-7.969401304814047
8.242131366976336
15.228618007857582
32.470106114941416
56.38918536293061
66.20254299534236
58.55085576746968
35.92010164515892
8.770305997892308
-1.7593018987853442
5.619917901057
15.523761251367981
18.55972971743833
16.970568762245083
9.02785272903222
-15.820648636898547
-40.92962055759688
-50.81966074106492
-73.56400754256278
-113.62300530831592
-132.75231315398358
-118.84830050311997
-97.7253161769197
-85.3576535061572
-63.62410608765682
-26.76853813119895
0.29940791207471984
9.184014616960969
8.072050767725653
0.3198731460776665
-14.117243385339973
-33.52595435904097
-50.35513549664116
-64.36763410155508
-75.27437404371324
-76.09247772579118
-66.26706220707078
-40.39192605181122
-9.453739549408116
-4.496654920624787
-16.118681479959665
-18.715478713017767
-19.890144347358756
-22.269830185059202
-20.848742582849567
-27.016445224713365
-34.915680787680785
-27.02077000111821
-16.825499577219663
-21.03463148731493
-30.96280020571871
-34.80779747127569
-28.058224377770305
-22.82165674865883
-29.947861606076966
-23.834747702663563
6.405655822000167
22.56582811663223
8.749249151609963
