AAD_Filtered_TADAS_FILE
AAD_BASELINE_CORRECTION: BASELINE REMOVED
AAD_FILTER_TYPE: BUTTERWORTH
AAD_FILTER_ORDER: 1
AAD_LOW_CUT_FREQUENCY_HZ: 0.025
AAD_HIGH_CUT_FREQUENCY_HZ: 40.0
EVENT_NAME: 202302060117
EVENT_ID: 13194
EVENT_DATE_YYYYMMDD: 2023/02/06
EVENT_TIME_HHMMSS: 01:17:32.00000
EVENT_LATITUDE_DEGREE: 37.288
EVENT_LONGITUDE_DEGREE: 37.043
EVENT_DEPTH_KM: 8.6
HYPOCENTER_REFERENCE: AFAD
MAGNITUDE_W: 7.7
MAGNITUDE_W_REFERENCE: AFAD
MAGNITUDE_L: 
MAGNITUDE_L_REFERENCE: 
FOCAL_MECHANISM: 
NETWORK: TK
STATION_CODE: 0137
STATION_NAME: 
STATION_LATITUDE_DEGREE: 37.704858
STATION_LONGITUDE_DEGREE: 35.723258
STATION_ELEVATION_M: 500.0
LOCATION: Kahramanmaras_Pazarck_Turkiye
SENSOR_DEPTH_M: 
VS30_M/S: None
SITE_CLASSIFICATION_EC8: unknown
MORPHOLOGIC_CLASSIFICATION: 
EPICENTRAL_DISTANCE_KM: 125.32
EARTHQUAKE_BACKAZIMUTH_DEGREE: 
DATE_TIME_FIRST_SAMPLE_YYYYMMDD_HHMMSS: 2023/02/06 01:17:33.6420280
DATE_TIME_FIRST_SAMPLE_PRECISION: millisecond
SAMPLING_INTERVAL_S: 0.01
NDATA: 12501
DURATION_S: 
STREAM: HNE
UNITS: cm/s^2
INSTRUMENT: sensor = ACEBOX/SARA | digitizer = 
INSTRUMENT_ANALOG/DIGITAL: 
INSTRUMENTAL_FREQUENCY_HZ: 
INSTRUMENTAL_DAMPING: 
FULL_SCALE_G: 
N_BIT_DIGITAL_CONVERTER: 
PGA_CM/S^2: 49.591
TIME_PGA_S: 
BASELINE_CORRECTION: BASELINE REMOVED
FILTER_TYPE: BUTTERWORTH
FILTER_ORDER: 
LOW_CUT_FREQUENCY_HZ: 
HIGH_CUT_FREQUENCY_HZ: 
LATE/NORMAL_TRIGGERED: 
DATABASE_VERSION: 
HEADER_FORMAT: DYNA 1.2
DATA_TYPE: Acceleration
PROCESSING: Automatic Paolucci et al., 2011
DATA_TIMESTAMP_YYYYMMDD_HHMMSS: 
DATA_LICENSE: U (unknown license)
DATA_CITATION: Turkish Accelerometric Archive v 1.0 - Disaster And Emergency Management Presidency, Earthquake Department
DATA_CREATOR: AFAD
ORIGINAL_DATA_MEDIATOR_CITATION: : AFAD - Disaster And Emergency Management Presidency
ORIGINAL_DATA_MEDIATOR: AFAD PROCESS SERVICE
ORIGINAL_DATA_CREATOR_CITATION: AFAD PROCESS SERVICE
ORIGINAL_DATA_CREATOR: network: TK
USER1: GuestUser
USER2: 
USER3: 
USER4: 
[...]
-8.117776193895729
-15.153279068540046
-19.525892383897528
-19.909266785347427
-16.732357737499626
-12.361173565065487
-8.85650660505516
-6.853298846257774
-5.533449394771447
-3.1832297107433605
1.258995984006292
7.548881544561981
14.25481671503372
18.98622294507533
20.508389426218756
19.04981136465566
14.189400033315774
6.467662476666262
-1.4721931961313868
-7.430147908986457
-10.19204898273724
-9.85246452703863
-7.774189983959654
-3.8469067761089026
1.8681955362451599
6.667810932068175
8.97927841082312
9.54176752612674
9.39570776443221
9.520204767034082
9.225370271113018
7.626318982912743
5.89774562631372
4.466445363545961
2.9446756748766463
1.1288224889156582
-2.333313456670996
-7.212918903740279
-11.167377149883565
-13.541906342487971
-14.58964448887033
-14.519358473310731
-14.64182564371213
-15.584388859720672
-16.402167202372844
-15.149619914463615
-10.014134930854937
-2.3107775576300993
4.445491331087198
7.9835112160376
7.771017724084011
4.5945697286314475
-0.19403493112206466
-5.107596433572423
-8.795663025113042
-10.568162547325553
-9.69656404942096
-5.815027763561099
-0.008159703547179608
5.770102878890667
10.088897515734045
12.77908221558349
13.850118713478794
12.586303561469906
8.218819944247459
1.538365252633819
-4.944792507124304
-9.706253180812842
-12.192136286341375
-11.39424348239111
-7.48372209199733
-1.5992883389099546
4.6735730945130545
8.7783610418234
9.870985278445453
9.18104034312509
7.092452127963269
3.6335507499934145
0.18313602194619713
-1.3354266120671539
-0.7927810919040522
0.02314865183371826
0.07514009730915237
-0.7303848787065289
-2.3688475942554907
-4.424544267022626
-7.069265732089088
-10.021685498602716
-11.605660104143892
-11.248411679719469
-9.276328451154933
-5.3292214218350695
0.298194192392693
6.180921035018461
10.730239844046956
12.81266742311512
12.34035464132003
9.900827396332465
6.112031202596825
1.808988404967893
-1.8086349896452394
-3.6629675931573713
-3.794922824809278
-2.94870934268939
-1.7385463245025365
-0.8522969247564042
0.030103771132496307
1.6849415507107564
3.8272423089100145
6.20769631573566
8.056684568176117
8.238456499757161
7.040742412734459
5.242074435474951
3.7636810736382653
3.122803659485815
2.642477368271889
1.7044399134689212
-0.011013595481250665
-2.1821577599744013
-4.117654485530547
-5.919927954496759
-7.659944290130949
-9.579682892452816
-12.149947368878173
-14.103795910897862
-13.283957974838362
-9.646751776452575
-4.698847844187177
0.8459477197585901
5.861209775372146
8.610715406234055
8.891716412712274
6.744392091724809
2.063777265998396
-3.8490934687526375
-8.823278079855028
-10.517971651345928
-8.460455909902787
-4.750591962955211
-1.2771741149364604
0.838585655989108
0.7526140921927487
-1.5115127692113743
-4.787568418773686
-7.492232690943605
-9.206608086106511
-9.442270072006067
-7.449461857620517
-4.682869445721346
-2.388457368397822
-0.304283546578795
1.087778848394153
2.3867594581221816
4.869367205295782
8.090573548830408
11.813444352636576
15.161102287014012
16.079071492782006
15.277009680228579
14.33985129528941
12.673534701914907
10.484546608819262
8.694924669763655
6.656193826049029
3.083741917259369
-2.8926784904933314
-10.536844028286914
-17.622328799052703
-22.48177536892497
-24.191334154724533
-22.72816550004477
-19.26417807782256
-14.836004068032059
-10.06483411107053
-5.094083108910542
0.5003406885549955
6.405537781724678
11.517608609838653
14.825214727593748
15.411832403493827
12.731599578733265
7.2952202570285625
0.6235536545799697
-5.503746040546357
-9.512859920249523
-10.839828690455278
-10.239476030643502
-8.434499861240411
-5.897174671944035
-3.2397598656163007
-0.7572843657357571
1.3494178686154976
3.325856217047122
5.7357677903552124
7.760819531342968
8.138557301258563
7.218099410105268
5.826629071534188
4.53496704883947
4.024964534296294
3.4613091055701743
1.4091706066936476
-1.6246876947712974
-5.211424918075865
-9.732517675683846
-14.275263542490649
-17.804462255210368
-19.649095009036756
-18.745566111342868
-15.56049951160742
-11.59107861087085
-7.230739609407477
-3.0176333865459086
0.31937804406655734
3.274703492221186
6.4977152705685715
10.003187510345455
13.239439726407191
14.886086440835346
14.187313580084155
11.83617675782817
8.270122254111751
3.6021608185474374
-1.0539222449850865
-5.191667081959788
-8.516305664378327
-9.818981414712852
-9.999095237285605
-10.248118606190591
-9.32601816752593
-6.851653272411857
-2.7327914977677064
3.5733462655204686
10.740879832173194
17.145120756545037
21.73212895208203
23.70653476453949
22.731652002546877
18.26760758539642
11.401177721281526
4.516083172177535
-1.485982989855579
-5.717670834311908
-7.418874047103742
-8.163824735730193
-9.383599949488705
-10.938491801427205
-12.893813612534734
-14.686893833744504
-15.040421088034053
-13.740979697093819
-11.094292424403902
-7.706191841460171
-4.393141949207654
-0.9577254910450334
3.4532280548239345
9.785030949201774
17.49650270806008
23.378340285279787
24.82616267735983
21.732745932665885
15.372232464062211
7.593010755147117
-0.5738632212987681
-8.096430474170822
-12.551797694458633
-12.138456612080327
-7.528026161159958
-1.2407757498950829
4.290474764284331
7.455122329210968
7.600931054661106
5.677604268488745
2.710964080802267
-1.009462752969778
-5.392819829700874
-10.842957669400432
-16.175547598360335
-18.57062093886134
-17.18252144750015
-12.599628621881775
-5.125116764280363
3.9047381773413954
11.965117795809263
16.476956927752965
15.990880058720512
11.419795769468768
5.001587099450899
-1.2283014895010222
-5.714893444361037
-8.4392472910844
-10.317710137847692
-11.710003174594348
-13.000417395847206
-13.974897977503476
-13.804537328476602
-12.836162177146216
-11.614251647415827
-9.65055316029509
-6.642449476433276
-3.0076528848960766
0.8955284286997601
4.91343811802318
9.097491931980523
13.798705813405263
18.420819982045156
21.1980003331456
20.57046959208704
16.01179386675022
8.800998791657715
0.9218445244700527
-6.614972977432714
-13.196157325541659
-18.194169852327125
-20.769416370070303
-20.453124856719956
-18.086409255615052
-14.467410098181276
-10.063479874349774
-5.583498020674147
-1.0023859669339947
3.7927732204225335
8.198964273837477
11.537640124521843
12.646698870533378
10.827312552745676
7.5037571739861155
3.8813497021514904
-0.6540884707995094
-6.081500024211967
-11.353696723155371
-16.06506731698927
-20.215473937024278
-23.594877551467775
-25.69576542158631
-25.552418961210723
-22.65820605699215
-17.610933072175428
-10.701749582209054
-2.167740500884599
6.788742720855219
15.77049857583205
24.687429351914744
32.16997819891716
36.64103784653941
36.64354193741913
32.21732055138462
24.817521538855736
14.82129438726383
3.4920327060835805
-6.702372327095274
-14.390482563299376
-18.614662792138184
-20.15579712375702
-20.651819038695123
-19.605726184929914
-16.832171290680346
-12.875131638423579
-7.810649607672123
-2.7187720105940585
1.4766621960897295
4.594927373762114
6.706145764167474
8.591410661678927
10.009051302342064
10.052861674417871
9.12168893996147
7.424137554384339
4.193939354577159
-0.7168031900056895
-6.544321654825838
-12.443951571374162
-17.358117646730925
-20.298052939439334
-21.105554295636626
-19.751680726912397
-16.303532880975123
-11.399067084636464
-6.013101662608849
-1.212060378300564
3.0097284982216688
7.1905464776983665
10.992389367095234
14.067823319295478
16.485212685202484
18.52648166436095
19.75359673117176
18.786143424352467
15.405322754448884
10.363320163004877
4.515098596784317
-1.1097745173575402
-6.042397991989167
-9.495299172003577
-10.703447283831697
-10.035814263472354
-7.509186520789963
-3.036728242880072
2.670258212901724
9.161847329538913
16.124483409795207
22.479262417940916
26.498956717197082
26.681852086234443
22.801542938449188
16.275234871540775
9.299087884296865
2.9516110648045224
-3.3342530019651355
-10.348810643812007
-18.299121573724264
-25.887689284385903
-30.855788911209654
-32.2706933861624
-29.514224125762784
-22.448431783757222
-12.351598688090924
-0.18260628696931602
11.33564496065984
19.662699874647004
25.989406085945596
30.019817688808388
31.0179197613049
30.34584811912874
27.654332314752782
23.71106820790965
20.03809367433626
15.463448393466383
10.681363028752438
7.311892972931746
4.064923890810085
0.04403986067990281
-4.6228306104463845
-9.888292291290442
-14.629838924382456
-18.26465742897323
-20.97042717223522
-21.830521311680705
-19.702416843270033
-14.246455868155692
-6.6214447133259915
1.3547643491589003
8.662450992621837
13.696444992935142
15.23281143684838
13.769467135182497
9.937281244137885
4.899884115507742
-0.08086512964133648
-4.359477490211659
-6.937812919776112
-8.156611889082711
-9.52022095699722
-11.210435972725126
-12.885033182542156
-13.353871052697421
-10.583199747328798
-5.709103334309482
-1.553485382518063
1.745807308344606
4.194774826842024
5.648129058491148
7.323954103560339
7.9963590659130155
5.678744031011341
0.8019280763141735
-6.072598877896932
-13.246510183192642
-18.986240164326972
-23.07478594628885
-24.082859360863864
-21.277232421350682
-14.363355892826146
-3.0822866896085244
9.305441708350374
19.228238903851597
24.4189472435381
25.055589472859825
24.88707399391068
23.726989411130393
19.682772282403246
14.550053740857097
9.130587668395686
4.880073493232839
3.0749775206942482
0.6447882069659528
-3.3183277398549658
-6.742030347913735
-10.005348508747373
-13.474752704230053
-16.660251924624983
-19.991747289900466
-22.84044443406149
-24.207126993842444
-23.198321588593725
-18.781784171184267
-11.86949411647388
-2.276926793253768
10.019345998466894
20.807673000488766
28.406702285048663
33.53388952461853
34.48295878765028
31.52876589186333
25.843278220276034
17.325636986142264
7.013622501944212
-4.234768530173497
-15.076777177614456
-23.66282516509319
-29.657861666509763
-32.74587859099192
-32.91741694506888
-30.60161018978337
-25.37927025728904
-17.493560418991702
-8.476673955470421
0.33861077476624246
8.868017389809388
16.632570051854362
22.46265860589292
27.081804920921236
30.64428122246619
31.36146651048074
29.64321987140748
27.754669472894765
26.12737375158941
23.061709279186545
18.089234002483245
12.943162955807129
8.66678910340344
5.811848881398385
5.1196711625339635
5.480886541263969
5.1163381269129395
4.675751966584584
4.994898032286363
4.614098767238616
3.2564459133266745
1.6702923684259763
-0.82293953761987
-3.69173622570921
-6.051670277896658
-8.53446657983057
-10.727584561578157
-12.168566498471474
-14.233037021345371
-17.27345320263718
-19.460664313443285
-19.419045723833204
-16.8808873917268
-11.846641406724004
-5.248163142929662
0.7197846876725176
4.177815380671586
5.608130215846923
6.731636839711311
8.418507349633838
11.211548208002702
14.991517499195274
18.427460570923238
19.943861368835314
18.359413152088827
12.865616512500209
3.3527929479213765
-7.870284668474874
-17.74065171329607
-25.180656098496524
-29.02435964250602
-28.227373260121173
-22.69837187805771
-12.595000808838265
-0.2545255943923764
11.536966332549822
21.171332816754376
28.059131988301903
34.09991038273825
38.87812278801947
38.65934546733053
32.11027871799803
19.624875817647748
3.1682864894156997
-14.077966105545988
-30.01767458466897
-41.93361115167696
-48.117315354086315
-48.650225597767985
-43.798465300919084
-35.94939554000144
-27.096913028867938
-16.913824859438513
-6.312443848770452
2.9886090738384925
11.354112073148103
20.3400784590781
28.766140820279748
32.47184288995456
29.050087432161945
20.667504454705206
12.055572393389106
5.538123359428062
0.3001767844754962
-3.913262967180792
-6.154589315821467
-5.5154729342029425
-2.601505115366236
0.9266298384773355
4.820591317782202
9.369273566872938
14.312585055426997
18.71443562970559
20.80726131460409
20.312477875496604
18.587974162914808
16.405037476207323
13.745498702955905
10.77455881271828
7.861272301245151
4.1452422928360875
-1.355610953748304
-8.019128244988764
-15.062425501144308
-21.592934263285954
-25.525511226224733
-24.627784699173745
-19.154664913360463
-11.608393278142898
-4.001611778054342
1.8805534421341081
6.684239870465179
13.032450504458092
19.484292338657262
24.280499773252227
26.856506194224696
24.17121144967242
16.48057692655294
5.776983844716966
-7.787562340824037
-20.62422650482075
-29.712923134338492
-35.26165813773653
-36.53396467337231
-34.338081804205565
-30.92821503661091
-26.721027398391023
-21.256637285654186
-14.763428242870969
-7.568384679637768
1.0657094019766797
11.313737311457945
21.99911747692548
30.368577465931512
33.03237321527607
30.83887760903445
26.184946697740532
18.50189170104527
7.512790092152269
-5.9826275951585055
-20.240922973146514
-32.73054273361424
-42.28991894695095
-48.369213990379414
-49.679051346671656
-44.801493661872776
-34.227687465589014
-19.310597771309617
-1.3734829525540582
16.404908951168782
32.14805133081092
44.15804699232201
49.05919263784572
47.74842087875999
42.18104909855232
31.96480947049678
18.57636479495687
4.063324047888889
-9.684354934966377
-21.265859359683866
-30.572507801351815
-36.57902324047976
-37.92136894639124
-33.64890462110183
-24.822856177171737
-14.126836332550155
-2.7775053926908444
7.263951437538683
14.583970548525295
19.698176558909907
23.109633483503078
27.90953864210483
35.168861216868265
40.17926217493018
39.43073192006847
33.367905270736124
24.488229036836504
14.563778553938452
4.069776813576387
-6.336847875006263
-15.860351060051133
-22.600886636635984
-26.01849716771194
-27.559176480916012
-27.474631445907786
-25.46507162383214
-20.66911766852624
-13.042761829840638
-3.280445166661519
8.559969611333617
19.954432733025097
28.493479769671453
33.32759203045608
33.957814918733874
33.20398364599771
31.976203713541203
27.630673179798276
20.38746383012851
11.186025596147214
0.6562986974541157
-9.88154532129773
-20.56151631053209
-30.082470849033495
-35.43325858269125
-35.94366713178981
-32.18889654585336
-24.484182113818942
-13.997998487197474
-2.255701726394978
9.438781827972557
18.839481668825698
24.566604074044072
28.860684086875615
33.16055035843031
34.425068346976246
29.51469061995394
18.899492842265715
5.892326301538354
-6.154521600570275
-15.453441329136012
-21.513124752071217
-24.588275204490845
-23.913131323956794
-19.037071542954465
-11.661821103369029
-3.170329571965572
5.561329655351074
13.765549290929707
20.494764196288994
23.85543638139747
23.548794064051343
19.849737559189883
13.632211325083153
8.451456140515523
4.663629856338853
0.3273794847932069
-3.4216751546951505
-6.954165988145603
-10.88397018167214
-13.370987888263848
-14.994828095052128
-16.04049427093734
-14.838852698965209
-11.542365527244408
-5.997876364377827
1.3948609384364152
8.409117328692515
13.545143687553832
14.629677887766992
11.207321626432051
5.957091987403966
0.3103827719476628
-4.6601736672963305
-8.025638698749965
-9.43215580107378
-8.363518114174454
-6.8741326589317335
-6.551336474295777
-6.410386173553153
-6.008355172977375
-4.729232373449464
-3.336631507257333
-3.1042026092997603
-2.4643238619019767
-0.7458401487102275
1.3014371687062145
4.047806627802795
7.670277300682453
11.37631111114872
14.356895680798823
16.94845224372712
18.56023587133941
17.408460190133322
14.363942974679192
11.413083776547484
8.983428808331123
6.590741974666797
3.364917879903177
-0.9006561538388783
-6.107968995776377
-11.35624250638544
-14.99383244939183
-17.628704232444235
-19.846371805398938
-20.267834111452967
-19.030610191455438
-16.851674497675972
-13.063044497253378
-7.052609597931528
0.9537246252496284
8.955248977793511
14.158574506546234
15.892710755375385
15.071939654701843
11.947868425356527
6.517566984255647
-0.23734516786539042
-7.321206733532583
-13.93072945008648
-18.85139504013371
-22.04230071985129
-23.660429876369918
-22.729787453082846
-19.207304429473236
-13.569296865864228
-6.110943820076916
2.8227787612085855
12.688547793906336
21.25387397978948
26.52488765382455
28.097066762932652
26.304807643764985
22.637334895339983
17.313962512616698
8.943288355178735
-2.8692781040910695
-16.745918509958898
-29.660455914638746
-39.45629508393941
-44.90359787826911
-44.4110182723594
-38.94191122898733
-30.99753289290373
-20.860969164285176
-9.073446650875745
2.0525366621443513
11.048821093549059
16.6076992219378
19.364069894377955
21.309191780147042
19.753899540956464
14.44547528991554
9.632833791339673
4.5928782089294815
-0.857036232340938
-4.296878618305588
-5.8142517477943265
-5.254890652587938
-3.189939469971578
-0.27861513921558506
3.485895779692567
6.302905445646187
7.935662892333075
9.527355725617493
10.487205965139385
9.58170060017154
7.139407693395656
4.737767508461346
1.9351261522193466
-2.7997274644823102
-9.865759540096528
-17.783630357303903
-23.672128969873157
-26.1587484103175
-23.448936921253626
-14.767455423517784
-2.8677441469386444
10.163138750754257
20.636627253997066
26.17844471243256
29.746105318865215
30.720074015807707
26.568454165653183
18.326438340621007
8.201478345370441
-0.3767491493522533
-5.969632652573595
-10.40230144670108
-15.37462068255141
-20.22190284801648
-21.559096069342644
-17.914206509680504
-10.811535100961654
-2.730819564961492
3.1628478568122063
5.742213987549852
5.772840909951051
5.348408528837412
7.864539339625784
13.386899142580035
18.557197899888354
21.388932066803708
22.31767705806819
22.06565445495061
19.66986970189989
13.105491740340074
2.045597540002377
-10.523010071668214
-20.609606761610337
-26.468473131547498
-27.989399091737866
-25.698445626294035
-21.145024530380464
-15.624624676537877
-9.74266612167435
-4.372764127398734
-0.03599001526954494
3.370557952119295
5.479507812986303
5.681911686854607
4.810065350797989
4.625894317602056
5.351560869033092
6.139390794425517
6.658848338882459
6.871099568566528
7.170651423444208
7.77532032294108
7.843191877053776
6.603119113293822
4.451769031651891
2.5597901534722083
1.6436158588201242
1.8668724462153246
3.040662992454512
3.615428997939811
1.6061475241642407
-3.563649871957747
-10.766254887791161
-17.686723400838705
-21.915906069768067
-21.02385292091299
-14.273824735178707
-4.66710499414335
4.422905405131231
11.565683345871522
17.091249476563437
23.055627562085657
29.489335043088552
33.72861239269329
