AAD_Filtered_TADAS_FILE
AAD_BASELINE_CORRECTION: BASELINE REMOVED
AAD_FILTER_TYPE: BUTTERWORTH
AAD_FILTER_ORDER: 1
AAD_LOW_CUT_FREQUENCY_HZ: 0.025
AAD_HIGH_CUT_FREQUENCY_HZ: 40.0
EVENT_NAME: 202302061024
EVENT_ID: 13207
EVENT_DATE_YYYYMMDD: 2023/02/06
EVENT_TIME_HHMMSS: 10:24:47.00000
EVENT_LATITUDE_DEGREE: 38.089
EVENT_LONGITUDE_DEGREE: 37.239
EVENT_DEPTH_KM: 7.0
HYPOCENTER_REFERENCE: AFAD
MAGNITUDE_W: 7.6
MAGNITUDE_W_REFERENCE: AFAD
MAGNITUDE_L: 
MAGNITUDE_L_REFERENCE: 
FOCAL_MECHANISM: 
NETWORK: TK
STATION_CODE: 2101
STATION_NAME: 
STATION_LATITUDE_DEGREE: 37.93088
STATION_LONGITUDE_DEGREE: 40.20278
STATION_ELEVATION_M: 692.0
LOCATION: Kahramanmaras_Elbistan_Turkiye
SENSOR_DEPTH_M: 
VS30_M/S: 519
SITE_CLASSIFICATION_EC8: B
MORPHOLOGIC_CLASSIFICATION: 
EPICENTRAL_DISTANCE_KM: 260.24
EARTHQUAKE_BACKAZIMUTH_DEGREE: 
DATE_TIME_FIRST_SAMPLE_YYYYMMDD_HHMMSS: 2023/02/06 10:25:09.3579380
DATE_TIME_FIRST_SAMPLE_PRECISION: millisecond
SAMPLING_INTERVAL_S: 0.01
NDATA: 18251
DURATION_S: 
STREAM: HNN
UNITS: cm/s^2
INSTRUMENT: sensor = CMG-5T/GURALP | digitizer = 
INSTRUMENT_ANALOG/DIGITAL: 
INSTRUMENTAL_FREQUENCY_HZ: 
INSTRUMENTAL_DAMPING: 
FULL_SCALE_G: 
N_BIT_DIGITAL_CONVERTER: 
PGA_CM/S^2: 25.766
TIME_PGA_S: 
BASELINE_CORRECTION: BASELINE REMOVED
FILTER_TYPE: BUTTERWORTH
FILTER_ORDER: 
LOW_CUT_FREQUENCY_HZ: 
HIGH_CUT_FREQUENCY_HZ: 
LATE/NORMAL_TRIGGERED: 
DATABASE_VERSION: 
HEADER_FORMAT: DYNA 1.2
DATA_TYPE: Acceleration
PROCESSING: Automatic Paolucci et al., 2011
DATA_TIMESTAMP_YYYYMMDD_HHMMSS: 
DATA_LICENSE: U (unknown license)
DATA_CITATION: Turkish Accelerometric Archive v 1.0 - Disaster And Emergency Management Presidency, Earthquake Department
DATA_CREATOR: AFAD
ORIGINAL_DATA_MEDIATOR_CITATION: : AFAD - Disaster And Emergency Management Presidency
ORIGINAL_DATA_MEDIATOR: AFAD PROCESS SERVICE
ORIGINAL_DATA_CREATOR_CITATION: AFAD PROCESS SERVICE
ORIGINAL_DATA_CREATOR: network: TK
USER1: GuestUser
USER2: 
USER3: 
USER4: 
[...]
8.6233140198608
7.024860728526187
5.190723674068215
3.386523038210119
1.5204339569717145
-0.5597029516894978
-2.769812972108003
-4.8752626563876085
-6.6633140443208685
-8.069609065051159
-8.884503074704178
-8.890845482151784
-8.221928519189627
-7.192435730533242
-6.100709425439002
-5.089398831051749
-4.2057441573790335
-3.4225630460875576
-2.5177792601980014
-1.335627000128869
-0.031198709190214856
1.051800578860275
1.7544727842505672
2.189468697994569
2.3482203271846274
2.3676158307672512
2.852506183113764
4.1340548204804834
5.8820010799149784
7.6895085096400875
9.334852226020761
10.525073759311134
10.987469091112917
10.849112343466192
10.549550283811584
10.337437983767721
10.086594675708366
9.485172868994182
8.376469486225188
6.842806224946361
5.024237228124643
3.1987074390430044
1.7004973341717093
0.6697187329065687
0.1054228473244293
-0.09917825865353148
-0.09582346388584694
0.06028283309811011
0.3735240242687369
0.9655574615402884
1.9999938189124502
3.390677974764002
4.748296114284809
5.615815867272674
5.665513465738181
4.821756273673168
3.3955404147376727
1.7718753923835306
0.17772394331888078
-1.3100650765231243
-2.874602083813967
-4.702998883996796
-6.540941760618029
-7.835984493988109
-8.283818114412586
-8.001212367026284
-7.382319032627101
-6.806412845586496
-6.39949238122271
-6.12517117837646
-6.13779854858377
-6.48960015683341
-6.837571769045201
-7.07526314651847
-7.47654272360102
-8.189306382369315
-9.020488636395168
-9.806143170677165
-10.637843886552094
-11.553180575226932
-12.199580868632482
-12.140925753261401
-11.525923845320953
-10.949643152656996
-10.741141105936274
-10.750299388582746
-10.782527014734892
-10.814848248298027
-10.885607989475128
-11.04710465695168
-11.229203112812923
-11.357068778481558
-11.451272642329206
-11.376699292037678
-11.019643363018409
-10.27863402458298
-8.989564647046832
-7.337166725195132
-5.724437178957796
-4.415284732279679
-3.4937821434546557
-2.7815246068586
-1.936932750950922
-0.7264992071369599
0.7630102561730788
2.1903839329453447
3.326997228391023
4.249335265523174
5.187046460314676
6.147091220839022
7.089218043430448
8.02156046132549
8.612936641369322
8.48364954909471
7.664723609340344
6.368155035786684
4.650566445997947
2.483684377567515
-0.04373253082761187
-2.670319895550097
-5.149793519987426
-7.399699054064212
-9.418712068116829
-11.113311971669999
-12.453749003598887
-13.362203464868168
-13.475554329594836
-12.71754884547103
-11.432770436574458
-9.78192058159539
-7.711758133108744
-5.287010211059819
-2.5251135834055023
0.5558154476082023
3.6338315734081656
6.329451465803291
8.359527918243012
9.34784065012385
9.021143740657497
7.4981815648489505
5.283180413705634
3.053536072614907
1.20035082498294
-0.22192979004103655
-1.0672906703610676
-1.0704783000287639
-0.16747301512793653
1.4361075598621047
3.2756751542033498
4.743787594624522
5.440867432098498
5.4929119435748355
5.394869788945835
5.486215561395924
5.6595656731581805
5.468970766029833
4.61552636473229
3.248047223121842
1.6796049402949507
0.1385232726750724
-1.1466888434486715
-2.219526632693497
-3.4606642927112947
-5.057459129624735
-6.742400762028303
-8.041931400283104
-8.517463917326312
-7.696050933836833
-5.596089206611009
-3.106766289347314
-1.1036653152115603
0.18502143022817605
0.7999066893424532
0.7571640570025718
0.26150880524217357
-0.31305455086589234
-0.8765978369101158
-1.6224651001780779
-2.657569519343587
-3.9049553498613667
-4.964306319193206
-5.399787982360296
-5.2140894228380965
-4.641073013469849
-3.9883477162171963
-3.663830030552971
-3.9320528051871793
-4.7175493994577815
-5.625186587247951
-6.225757554622476
-6.244558707848827
-5.590336820384611
-4.494385168100726
-3.334779546825411
-2.4673775994436573
-1.926662487894089
-1.4938922400458632
-1.182928199429189
-1.0188073629172805
-0.9027540180430302
-0.8210900381213151
-0.8359150005533629
-0.7230826466611127
-0.11222929925835692
1.0013625914091377
2.550307127254703
4.534991485766954
6.662346761439932
8.46216224620404
9.66444825448851
10.193684351925492
10.060353173658998
9.388284851979666
8.33621001028981
7.122812952294005
6.063363037720462
5.430404490550399
5.276188696780979
5.469699334264688
6.034843729536513
7.014285241333121
8.15444564696832
9.073535752583561
9.653923240415894
10.11000692865883
10.51824729800741
10.692288634137695
10.565110551431603
10.32385642386065
10.074534287749014
9.826097675101812
9.799178081537901
10.255728771403884
11.041396113497772
11.692111137473729
12.089031963443604
12.512193597225847
13.014320631749925
13.301806839563143
13.360221001727995
13.471192207455431
13.594688572628497
13.382073429491703
12.650565806732844
11.633364068335235
10.718631021889982
9.938677310518253
9.020143481529193
7.84814288630781
6.485032710623634
4.904791900946639
3.074511740658001
1.1829102770536852
-0.31072362871486914
-0.9877134035785656
-0.7924912672570675
0.10179274001586383
1.3816247977364784
2.6094683348148044
3.49473144735778
3.9865236581283297
4.027867089015065
3.6549935022129856
3.167054559589441
2.7668760243941755
2.511546731770597
2.4949956055991844
2.6365164527930496
2.7406409073467195
2.7240438872013426
2.614625855254281
2.4588813106874348
2.268031078507921
2.024073116067297
1.6724927401428031
1.0979665807270427
0.07544810644197769
-1.4166688569003762
-3.0354058534380495
-4.359299058470166
-5.035410798656464
-4.76010458649579
-3.422486410153401
-1.5194653802672
0.1543596950698883
1.3052006379811312
2.0836990550467895
2.7292986943109745
3.4490453125405685
4.200791390800554
4.730243525844529
4.972051266021065
5.123426299718538
5.227594787014289
5.2226952313968775
5.158536857397485
4.936136473429294
4.364831572253907
3.3986308736057933
2.2441991933286776
1.1677552507390323
0.46934706908008844
0.49490482248360046
1.2829367867459724
2.705886596692151
4.505283742534943
6.290365903187342
7.738097731815209
8.540802881785849
8.516075104578347
7.798627136344003
6.6953193629444465
5.436644583619264
4.145227409918679
2.8968498792806754
1.7814144422613198
0.9261812065900239
0.36341481202907433
-0.1006119444654184
-0.8108509245227472
-1.9074162844508433
-3.2691019378653627
-4.78743238356062
-6.210126923768262
-7.185813561377477
-7.598589027966924
-7.5182512252569484
-6.985695062986781
-6.004047148667716
-4.511367898159844
-2.5917848185048635
-0.752927053377312
0.43801693641971695
0.7320919586240009
0.15043173290180098
-1.1361519186569655
-2.8138948538905533
-4.460608455922101
-5.7859402004295815
-6.753109701619334
-7.29264301071504
-7.339479175925735
-6.953578835344475
-6.138325381015126
-5.018226687078368
-3.9448805870415273
-3.2140309097497943
-2.940123362038331
-3.0657788443547394
-3.2416965337213193
-2.986490939777831
-2.095134237262567
-0.5834186998211263
1.315269926443812
2.9693446464880404
3.767922875651079
3.6375852980740624
2.775454033851398
1.3267743999012809
-0.3695909906862802
-1.8507596427055784
-2.8632197709347915
-3.4746364020253284
-3.7348649188622502
-3.5536838886584063
-2.979924967381962
-2.1472699553578845
-1.142600534103383
-0.1435219043493307
0.5380081830145502
0.7562156551021115
0.6101333248358694
0.28449556279685967
-0.12759139833532723
-0.3957134303427709
-0.1660631323871075
0.6416247196775837
1.7752094198530317
2.815598497745719
3.5528978989533884
3.868425373004184
3.578828367756829
2.5973939310970877
1.0703135244481008
-0.5941435537394734
-2.1219518462927494
-3.4266470107501794
-4.300880236472412
-4.574987692648452
-4.458550499875366
-4.401979344525074
-4.638833919457105
-5.05583538486411
-5.496877991103532
-6.123175860648771
-7.103679351328357
-8.23499069066496
-9.273122401452305
-10.112424153457297
-10.629991324505207
-10.5315489839479
-9.590196917867065
-8.04853084530847
-6.472544276251238
-5.1886372746702305
-4.2248500703182845
-3.6808999490704473
-3.5388844579029763
-3.6284234506042248
-3.829944032867452
-4.082111041183445
-4.363626758909803
-4.615744206598246
-4.813657979150458
-5.144833479565815
-5.6497815956516835
-6.027077130252809
-6.235589494813938
-6.438507730274237
-6.551906372569932
-6.555833397711021
-6.567336829344934
-6.377861518121087
-5.742592265409259
-4.774228931351373
-3.6809519285790633
-2.6371260904059333
-1.9119782613991205
-1.7753687950035655
-2.3490867900326498
-3.54475782119824
-4.85406817136531
-5.7020994702649475
-5.991447211385418
-5.795822162833671
-5.310265510324407
-4.719548102721074
-4.022316613887965
-3.189518242405008
-2.1419847982947897
-0.9523824173207998
0.16786594020659587
0.8370279568538512
0.876096094117754
0.2866626069256931
-0.962965738581274
-2.596116895343374
-4.140812296225495
-5.160766930604298
-5.467755738876928
-4.983987994744749
-3.9037196783503414
-2.7637226173791536
-1.8062925276012824
-1.0653636970267262
-0.5341158593565114
0.12154702409798772
1.164189931281733
2.410334508795328
3.5281364945722333
4.243898791655159
4.371166412072459
4.057570346143144
3.5071121156511516
2.717540296209459
1.893377993002541
1.42106536298456
1.4322243679779114
1.7111875828825625
2.003743194287877
2.0311324173645486
1.7181725894333122
1.270056772504618
0.8593608960673985
0.561055220765698
0.31437362698980537
0.0001289123924791075
-0.6789234345414642
-1.7916608412995525
-2.9735305309316535
-3.969857238845727
-4.503540986833606
-4.226227403099375
-3.17035688019371
-1.7692715046960987
-0.3623410616021802
0.9859133868628088
2.177995306750624
2.9601138396091997
3.154276796332089
2.931899197427239
2.499112689247617
1.880133662926379
1.2087693964402333
0.7408346310691484
0.7199583471629866
1.2173318842352892
2.2721729801859936
3.760859445821989
5.50861617510963
7.475641435944497
9.211286159781459
10.33588412725589
10.876375978039837
10.965651559554779
10.671932174977483
10.081881677046647
9.410644078277803
8.514248797123633
7.099384431559001
5.230268049832481
3.3990110767588946
2.2455427984686667
2.057929028004508
2.7102405609227653
3.8812787206738397
5.106153940835561
5.817522853462307
5.912349557196038
5.755851078704299
5.513293740834936
5.224619768194565
4.868673745125443
4.30831206909473
3.539016812975565
2.7049766086839986
1.8429950577947876
0.8972890294401371
-0.008835404885578055
-0.6682394217892145
-0.9302350985470825
-0.6757727925705853
0.17573081431646412
1.6685291235795643
3.7619343661882056
6.323343033278261
9.113434245533792
11.731582439380238
13.926315916964935
15.678935397946677
16.816705582247042
17.19278874437036
17.010301217188893
16.47768038254777
15.690665754900682
14.876349935572255
14.242096574561412
13.676790007505932
12.901610313940015
11.816994214345796
10.474784155650916
9.021568913834992
7.78011869747666
7.055685180909961
6.761796076391915
6.672418070805959
6.645878964491599
6.441766003236854
5.8913954716724355
5.015193425240321
3.91732914303794
2.6048651380511068
1.0599597432384202
-0.6177840419945682
-2.3730120406657984
-4.149423369504816
-5.733272845561045
-6.906645292126632
-7.560904096650161
-7.6368364411949825
-7.2087741884734715
-6.5686080975775045
-6.0140171792301285
-5.576234473606236
-5.0777076877125795
-4.471285043209933
-3.99972275654101
-3.8753647834063294
-4.080335835590017
-4.606283031370788
-5.534294718480522
-6.743627508364566
-7.98461075188905
-9.085156205224868
-9.843651149720502
-10.010655692488074
-9.412108104287096
-8.183568596728994
-6.642743560108835
-5.023956946037329
-3.5057832920791676
-2.3218615551191464
-1.5020762321005074
-0.8399322484548102
-0.41150135925359216
-0.3855941657099934
-0.6201842283009076
-0.8883743087653988
-1.1183702892975365
-1.297736141577506
-1.4095872810670957
-1.3488872826004112
-1.0899540791134577
-0.8067574443355643
-0.5665643629254142
-0.3122123673993308
0.1238176779310462
0.9196558223527272
2.2366634055881613
4.211020973802217
6.751446844811678
9.59166121818268
12.335533651566251
14.541073911930425
15.882069772637246
16.276517837253508
15.792167298183674
14.519477722662836
12.575231236444077
10.185378263898532
7.7826144818766245
5.59825439925046
3.6236486146788582
2.1359714069337707
1.5068083018633494
1.6260926078262214
2.085748098572875
2.6406860192720214
3.1986988140500068
3.713358824433977
4.246464988753087
4.905086792129799
5.670660239275658
6.431923956311985
6.915065941727323
6.746295158679214
5.744946165266824
3.898224351490664
1.2632012542988924
-1.9330500199636165
-5.3566795928154285
-8.538019699445794
-10.985699937770681
-12.653310298913981
-13.85385511617838
-14.854886545376244
-15.793137688866025
-16.63730883749221
-17.140742400594117
-17.006443120555726
-16.02798791477671
-14.377099187466452
-12.635988159940302
-11.369551124977738
-10.701204971399122
-10.366815090124215
-10.200932161564646
-10.359182369119145
-11.087772786713899
-12.542939571927608
-14.83536974880691
-17.778724729923226
-20.86778522153525
-23.564068490295515
-25.403463203591507
-26.169357847842104
-26.015870846901848
-25.075808180806483
-23.214464608972715
-20.283527521496307
-16.459028192870967
-12.043478411263937
-7.276732701669356
-2.5846696767090003
1.4605929402283506
4.3850382732756845
5.979144781413656
6.246924673104974
5.458945113864661
3.9766703517297035
1.9749897806140717
-0.44479784929183164
-3.2003882562475385
-6.11479411755483
-8.797751654662042
-11.017893399891342
-12.54976707268855
-13.150211962138071
-12.647063114296436
-11.007659630974999
-8.73214844857693
-6.275629361332775
-3.7536842986175234
-1.2857477926542529
0.827222502201695
2.334445687717541
3.1468418733781642
3.321832847629282
3.0293028559605784
2.4439081312035227
1.8350627475655255
1.4309717416260224
1.3640907013089323
1.4858033106099395
1.5432179248248812
1.6041534988507946
1.7483735995262013
1.867989768728543
1.896523805387504
2.017964822861557
2.2223183323131823
2.296900184918001
2.395403817219358
2.7509719719263948
3.2882333518812876
3.5837623129712997
3.3930855513836256
2.8988096272732036
2.214936560871005
1.2539473114435518
0.14146388372714722
-0.7380434063338108
-1.0288635378631692
-0.7328478198454201
-0.2156028279239184
0.2774167519200806
0.737311733291761
1.0529972765615065
0.8080802374656446
-0.02097346489660912
-1.1189750755247576
-2.4851317278683926
-4.012092122807238
-5.311786139442205
-6.0346040997349
-6.0416789779792115
-5.465789091297334
-4.461219412802052
-2.962905506943434
-1.065568192963758
0.7838425686402617
2.1419290627797607
2.8473313507783216
3.2255039437010447
3.75538232177987
4.389196672000185
4.806785276736954
4.876302995477662
4.46995213448699
3.7771566679987587
3.1959645169855393
2.74506849035494
2.2742090302846014
1.6989288288718223
0.9115072453591951
-0.2103519062917562
-1.4846433429439054
-2.6141258543218084
-3.6274711148016388
-4.741750117888293
-5.959643539188182
-7.070065676216696
-7.897822020148363
-8.29987045590176
-8.213327199882531
-7.768926053122449
-7.425674909042921
-7.5212126247948055
-8.021338460467199
-8.91487202230515
-10.201328851698523
-11.789569134988037
-13.47242495406781
-15.149832612517237
-16.724629716717793
-18.10935770797123
-19.367510785115787
-20.41139712474483
-21.066168418314383
-21.16553230163413
-20.731098996902467
-19.88406624267503
-18.738025791629376
-17.343515657598978
-15.72017582959851
-14.178965140571496
-12.925282768739587
-11.78448613939286
-10.60564945024606
-9.446095195852902
-8.469441442234645
-7.797715995119304
-7.331482319687651
-6.955619123777786
-6.650854211944348
-6.271140973458447
-5.72096555769393
-4.995982037967392
-4.1116690484591345
-3.190980462807397
-2.3381043818370966
-1.6646220212137137
-1.3637851379558446
-1.5392455737619994
-2.183342975706595
-3.3207630791972207
-4.761632703934107
-6.062863118754867
-6.970220235866634
-7.481097544845137
-7.689168554903304
-7.672247921750799
-7.407484677851963
-6.901373986175892
-6.137377227888576
-5.1064265229686345
-3.9884876761307955
-3.0121750922887087
-2.3755870995695765
-2.1818926836468786
-2.3932875485169647
-2.842840925064063
-3.3577931721524443
-3.75923719113855
-3.786121456163997
-3.3349988470421703
-2.670037006478584
-2.1701456439658764
-1.9283704627716869
-1.8063261563149133
-1.6941443187504024
-1.566739933559601
-1.408815269987848
-1.2648810691900814
-1.2465248134775695
-1.480946146538759
-2.109004801274671
-3.2390474524923665
-4.681957898249767
-5.952345810296036
-6.752819806440357
-7.103852556352202
-7.056085184729068
-6.698017757049105
-6.209139194672403
-5.749378898220217
-5.513466469818736
-5.655119967388611
-6.2390503402715165
-7.207498219104891
-8.264235103938939
-9.190730092670185
-9.99035354043613
-10.52600689102812
-10.680934664241088
-10.544456033317571
-10.17276902039461
-9.645446476748656
-9.213754107871875
-9.061047136607085
-9.104847133547727
-9.21857311784538
-9.392638831307108
-9.69842788894091
-10.233106185556002
-10.908632020983624
-11.430947989443506
-11.646691294507667
-11.540315240985255
-11.113824667281918
-10.494072592995144
-9.787921111175427
-8.959798794700719
-8.036178163415105
-7.061429809547104
-5.987401614758311
-4.749788212178701
-3.1517319822298457
-1.0623427734408297
1.2492688323757721
3.403830507099804
5.28323015966667
6.7387066488532925
7.460336908680028
7.3670445013885795
6.559121837302991
5.323375148420473
4.179102493503386
3.375223483087305
2.9381215299150747
3.1415405285211717
4.182772828219685
5.884757298021771
8.079360264000297
10.693808942234925
13.450853886102914
15.959839000133059
17.937742039737625
19.38454474967653
20.48099864748655
21.1517260347293
21.30133636210807
21.270460942640508
21.35000937146174
21.40892099856812
21.505800569041465
21.736916610393916
21.930166072961107
22.03176351406218
22.110696410698985
22.121938003439766
21.915728540915836
21.472572529356714
20.983857752051026
20.704189929352832
20.568821103292645
20.241370547108673
19.43345920478332
18.061501593638685
16.249321992846195
14.327763258388345
12.56588386962859
10.887417371695626
9.277629605335925
7.822880612815463
6.415089671854417
5.02008219493201
3.943236317331375
3.328910446785151
2.864555755703789
2.165071397140806
0.9898083751169751
-0.7310155940549956
-2.852074582657448
-5.262079138562571
-8.037410749022285
-11.138837432496013
-14.320833510059161
-17.313870357038248
-19.866978145193208
-21.81175007160815
-23.12148389286438
-23.78746140473325
-23.87372439798912
-23.52618076229354
-22.88304063649376
-21.997550064943372
-20.92652011999651
-19.77908764641073
