AAD_Filtered_TADAS_FILE
AAD_BASELINE_CORRECTION: BASELINE REMOVED
AAD_FILTER_TYPE: BUTTERWORTH
AAD_FILTER_ORDER: 1
AAD_LOW_CUT_FREQUENCY_HZ: 0.025
AAD_HIGH_CUT_FREQUENCY_HZ: 40.0
EVENT_NAME: 202302060117
EVENT_ID: 13194
EVENT_DATE_YYYYMMDD: 2023/02/06
EVENT_TIME_HHMMSS: 01:17:32.00000
EVENT_LATITUDE_DEGREE: 37.288
EVENT_LONGITUDE_DEGREE: 37.043
EVENT_DEPTH_KM: 8.6
HYPOCENTER_REFERENCE: AFAD
MAGNITUDE_W: 7.7
MAGNITUDE_W_REFERENCE: AFAD
MAGNITUDE_L: 
MAGNITUDE_L_REFERENCE: 
FOCAL_MECHANISM: 
NETWORK: TK
STATION_CODE: 3143
STATION_NAME: 
STATION_LATITUDE_DEGREE: 36.848907
STATION_LONGITUDE_DEGREE: 36.557138
STATION_ELEVATION_M: 430.0
LOCATION: Kahramanmaras_Pazarck_Turkiye
SENSOR_DEPTH_M: 
VS30_M/S: 444
SITE_CLASSIFICATION_EC8: B
MORPHOLOGIC_CLASSIFICATION: 
EPICENTRAL_DISTANCE_KM: 65.13
EARTHQUAKE_BACKAZIMUTH_DEGREE: 
DATE_TIME_FIRST_SAMPLE_YYYYMMDD_HHMMSS: 2023/02/06 01:17:18.3195350
DATE_TIME_FIRST_SAMPLE_PRECISION: millisecond
SAMPLING_INTERVAL_S: 0.01
NDATA: 10501
DURATION_S: 
STREAM: HNE
UNITS: cm/s^2
INSTRUMENT: sensor = ACEBOX/SARA | digitizer = 
INSTRUMENT_ANALOG/DIGITAL: 
INSTRUMENTAL_FREQUENCY_HZ: 
INSTRUMENTAL_DAMPING: 
FULL_SCALE_G: 
N_BIT_DIGITAL_CONVERTER: 
PGA_CM/S^2: 351.381
TIME_PGA_S: 
BASELINE_CORRECTION: BASELINE REMOVED
FILTER_TYPE: BUTTERWORTH
FILTER_ORDER: 
LOW_CUT_FREQUENCY_HZ: 
HIGH_CUT_FREQUENCY_HZ: 
LATE/NORMAL_TRIGGERED: 
DATABASE_VERSION: 
HEADER_FORMAT: DYNA 1.2
DATA_TYPE: Acceleration
PROCESSING: Automatic Paolucci et al., 2011
DATA_TIMESTAMP_YYYYMMDD_HHMMSS: 
DATA_LICENSE: U (unknown license)
DATA_CITATION: Turkish Accelerometric Archive v 1.0 - Disaster And Emergency Management Presidency, Earthquake Department
DATA_CREATOR: AFAD
ORIGINAL_DATA_MEDIATOR_CITATION: : AFAD - Disaster And Emergency Management Presidency
ORIGINAL_DATA_MEDIATOR: AFAD PROCESS SERVICE
ORIGINAL_DATA_CREATOR_CITATION: AFAD PROCESS SERVICE
ORIGINAL_DATA_CREATOR: network: TK
USER1: GuestUser
USER2: 
USER3: 
USER4: 
[...]
22.364435722968537
20.984119293325406
17.79112662562391
9.12668948239817
-4.520451911028653
-12.047990376438893
-12.122130211210921
-9.014410520311385
-3.914236740321681
0.4963753673094941
3.4468860486069968
4.9419975514246515
4.947851624262716
4.963679756475422
2.2650205563439183
-5.126173460357696
-12.832776637641134
-20.281713654674295
-29.77501490959121
-37.51878477248145
-43.11027551118578
-49.599978502395615
-51.9835660904754
-49.53509325123767
-47.01102769543116
-41.55696035209355
-32.894049107906916
-24.267275312744786
-18.59512982037458
-19.65125716181958
-19.783187517130713
-14.465390745849245
-13.067780202994168
-13.676097976160776
-10.143151770644351
-8.023235767808963
-8.103352883952326
-6.400717731954638
-5.749436689232087
-6.1590371906523025
-3.0704968616359922
0.5133524928921844
1.5679585200754045
2.6372936167752496
2.667625840738909
1.5659610285999181
1.1060537536056354
2.8281644346410086
11.096139721433863
19.81419655148367
17.847087758411476
10.967642284551664
9.691127164937148
13.625232091075064
17.2844176528052
15.808873123495488
10.019924188468453
5.794205431062598
6.144456312110179
8.877027175831547
8.581257705557922
5.502562732499568
8.766434687838263
17.664871187590936
22.390038546500858
24.884102094845947
27.73198844877411
23.028284411356374
9.595475143743593
-1.7007163817343438
-4.217111866976499
-5.090999404930084
-9.337471622518436
-12.018919108534293
-13.677752992230467
-17.049903039846413
-21.075046098746082
-26.600333589071013
-26.52799810794997
-14.211633740350853
-2.9309839758564804
-0.984299453349139
0.10263083298883159
-0.4884218975931611
-2.6708515377976525
1.3636966869765288
5.38900303269782
3.7358926222057454
-1.0130876817951506
-8.539421729933228
-13.047183735225172
-14.516895408265176
-17.745341853102047
-19.05053639952835
-19.98868863341414
-21.425167961933987
-22.83301679070505
-30.15420743755073
-35.18449321854551
-30.134104877374348
-21.951986694090948
-10.998961097578693
-1.9737148042967396
-0.2275106368687212
4.641502657137421
11.52847244891119
10.14643643552653
4.905649868445717
-3.3136013183635282
-20.401179041233096
-33.45173041447002
-28.000841123838388
-16.943336111176936
-11.837974997098154
-6.428973085507958
-3.701896031341199
-8.627112157850165
-11.348099122019432
-4.750771234702932
3.6408191222111723
3.1232441482051274
-3.145724812937582
-4.1097145099567305
-0.35032407735742555
5.278410936069369
16.378740129987943
27.378926784994103
30.453590047882017
26.385692803823044
16.180430999257737
6.623197554706351
3.6277422627959655
3.6396479993557445
8.845181365209676
17.069921116215728
19.093958033946482
14.808876874581133
2.700826198930551
-11.274164123469994
-15.001236047921221
-17.583169762488325
-22.262487605262994
-20.34660863519919
-20.067505199642188
-20.54610853811568
-15.148961441204564
-12.33329000189174
-7.515833323177603
1.743001956047357
3.1499938013142734
2.962079286294874
9.56538973205146
14.467506175762187
15.905471817622939
19.599148066842567
20.688981909964447
13.776446873486789
7.734126366328439
6.136204549740366
2.5508585542981814
0.7341580229763504
4.202735363520364
4.448941992435459
-0.7685417661312375
0.9646499459956548
11.172446545270725
16.299577094352696
17.968995078068833
21.8578531333719
23.95934584639066
26.234197337499964
28.012547206880534
29.51612993737723
31.19379129082956
22.982409731751428
13.536933274597654
13.469489007057861
10.29536856546389
10.376332057858573
22.559044754340462
30.908684804037197
33.25028828667489
32.1512387473032
21.789224512363113
10.470940168921201
0.26694319684779677
-14.23075281579048
-22.64173172642822
-22.615000864192833
-25.58959941000238
-32.817827524342064
-40.237649539942886
-45.376043191894134
-47.885118728497226
-52.12054365197037
-56.54143525957554
-59.274650844141114
-66.32747422519576
-72.07578899473182
-65.81241364045452
-54.48929419471702
-47.88258010182005
-43.48881136761946
-36.65062144658568
-28.200982482140265
-17.682556118166982
-1.2206095552374585
19.66570332736914
38.465056307388444
44.36304944304358
32.60528910090287
21.480914440879857
22.3699245048856
22.553112222275725
19.505810478763138
15.494579405496307
5.841275607940737
-1.0647279575205855
-0.2864060792273388
3.131619097593507
14.145358990711875
26.916713848497363
26.110289174164013
23.085733362749398
35.076705651509954
54.359204335475766
70.08426450299446
81.78800262970496
85.15713583660182
74.31289697812781
56.04634875522292
42.202302470011745
33.02202259013196
24.275954499622923
13.85872653796923
-1.6843089481386941
-14.598832560732395
-18.027956022085238
-19.37609007806733
-11.18072501820946
9.876217856671273
26.192360365501727
39.204833204991914
46.39190484378944
38.21931792350108
34.899626722299715
36.75482259280676
25.916821242834512
15.234113332148432
10.01896535975642
0.46818591459969716
-9.864117978527336
-18.70337334770423
-28.289941464500583
-35.76972150805725
-35.524125911778555
-29.97710063889316
-31.68380260123657
-40.18337569056422
-44.92992959985544
-51.86633786907998
-63.414858639807285
-62.87321663716415
-50.87618789569709
-46.36268985126169
-52.45623099107187
-58.28474190912928
-51.7127777094983
-31.47826725811646
-10.433847881561356
7.02609104064531
20.265378439857944
18.196846954321007
2.091828516193751
-11.481547292724402
-17.62797253827201
-24.031126539499756
-32.7956563102093
-39.32845715461295
-42.05147026935705
-45.643490894233636
-53.8934623188217
-59.5687435866292
-56.18680871602928
-48.027516668712465
-35.730858847371074
-20.186683626414716
-9.748767622096482
-8.200118932287252
-12.361096901717382
-16.585199643620726
-17.45964656777138
-15.450275097903816
-17.663187694901485
-28.656583675575288
-31.589663121141346
-15.304654782579533
4.357208949949525
11.233951676537368
8.812965619067363
15.989042301675191
28.30896257535039
26.49844446693391
20.809184886305886
11.950949409878186
-11.10443581839571
-33.03564410811109
-44.5342434311967
-45.968861125587445
-35.677304974965075
-23.58113522360685
-15.928285696031535
-3.344887425673069
21.17367335329837
40.27603354127788
43.21350897691812
47.007483798827494
49.659103384351496
47.81013385377834
57.807797855551044
66.53646783941308
57.098717552789466
42.57095185039458
31.37304921559585
19.575222999661325
6.490529858495878
-0.6377519135130814
-3.8931201091486836
-9.368637931086814
-3.773349056853459
7.804369025338952
10.07677225814586
15.430751326629332
17.62171317950055
3.021531555346728
-15.07724345352867
-31.35466323003736
-44.11513675272096
-48.61000975702961
-51.41839431380116
-58.67856924920702
-61.276793168394185
-42.88703067630697
-15.675597117232371
0.9079660439084898
13.308635823162518
23.41182415829926
37.661354782532484
62.458744587613054
75.2269425673027
69.6404490208132
60.312661883705374
45.77849406735405
28.93000356828525
19.15727899577744
10.478717941140268
4.260245512814149
13.098060887775578
23.2585955665449
21.2713784912206
24.429533528319343
32.6753739437371
37.81427922903722
53.22031196193703
66.32064993591858
57.71403940609117
48.11548123042369
51.249188904053725
55.1678591921383
55.23508253526197
54.437098780921495
51.38942873678455
40.225172817576784
26.751178652681524
24.468232917283807
27.63817415424267
23.19996612849453
7.274345364595143
-14.958845759073961
-30.222274740400135
-35.82033955517248
-38.13823188639955
-42.46206308771122
-47.197709092370914
-39.050193792313834
-26.133627007371373
-23.674605582699648
-22.677694794856496
-26.381820216266885
-29.518045923420328
-12.294528706624993
2.6044314859173134
1.7049502687377442
10.255803062272326
24.861439909356754
29.949380020761435
30.830983069751674
28.36521563500467
21.509689060776182
13.729773563551172
7.250104529911791
5.644901159421822
2.528388612686477
-5.028843882060662
-5.372918030712486
-3.6425100586918755
-5.080954981108438
-0.01003373125109448
7.502658243505829
16.56535613118184
21.04365611103769
7.33506321268767
-0.5136239993610221
2.6566622185763107
-13.251649645226893
-27.717692310426585
-21.65455581604757
-27.527462751211097
-44.02548214412295
-52.2737140715952
-67.17784198517992
-73.52756748675094
-50.628987247837124
-31.99734885029096
-26.59687900144983
-15.312852543383514
-17.481958737606682
-35.98147421772788
-42.81193991321784
-43.42282155653086
-47.15634527588595
-40.19200798702179
-31.310528529333396
-32.58003290981527
-31.940960961307216
-26.825425864687457
-16.511168476408177
3.508208076120433
24.719653338438533
43.26709208384984
56.00781928403485
57.290091228449164
53.57613838233996
48.1410073811758
40.52668061524969
36.13129903851878
32.03243488057793
28.44197749856054
34.97115346002284
42.01910297495647
45.78336165140494
61.13861113299205
80.19926561469994
92.87450080445547
95.30907882583787
90.16091279483707
101.57142808048475
108.18279899372772
83.39890187211529
64.91726610355286
56.71117849941278
39.63140773794942
28.369993033163023
14.160552238659744
-11.285410399444725
-26.23997918076163
-21.19084501884233
-12.481908636890656
-13.031833009941414
-7.012594422221501
0.13390051846270948
-1.0034113613783866
30.214628734461492
81.89210637804946
87.62348336526821
53.43206633420928
38.1826144126314
55.87583158013126
54.15811826978191
20.78478267905676
3.1489591064288605
-19.47126913425191
-71.70758767237561
-89.78282934339146
-50.22540566197664
-5.491809327745269
15.180626743255642
4.041223234556078
-18.957445291868453
6.103990617041663
58.91292813711381
74.42462585989725
72.8786092591617
52.24630688722091
-10.014851679112208
-48.960292019147005
-37.004053865862794
-22.502118678447214
-13.054089189089856
-5.579689185523258
-34.07773116699695
-83.54534243493664
-98.35644672014313
-97.44604736351222
-100.96952095697154
-69.36392694363118
-27.480911054102723
-16.514568531121025
-11.447274892573311
-18.94846002784665
-39.41316120478209
-35.44134572254055
-44.57997703566264
-79.7444324194386
-73.86201085486033
-48.90210614423375
-46.47674787488256
-41.52165683059388
-59.87696762038822
-104.68045940461474
-105.75141103925006
-65.01501153992776
-24.177614726451957
14.282616008171509
33.42613441748679
32.250761711437946
47.035448423193735
78.07702614978828
115.07293027870743
141.9896073161429
100.63136526837194
1.292079715430103
-71.03282736547992
-70.78603316723901
0.09704305036838082
55.36491191912528
24.196935983235974
16.823814296274847
83.2977785194841
78.55065071128611
-14.729628485115281
-54.14862563306754
-3.973416877970881
48.07930121250612
23.670768116875216
-34.125355368134194
-36.58059879497966
-20.641205577550558
-22.17410451964411
1.2623786216571249
13.426244812351497
-27.100996780266406
-67.71509802042276
-92.58815115157132
-134.51929118845376
-161.2432883106554
-133.0188571256365
-78.3003352060402
-24.04730614175975
-9.72565177314343
-66.680274606064
-114.08786087121648
-94.05056811226318
-63.57557007097269
-47.066156237088435
-2.2015117761049208
58.14730798675839
49.99836258810145
-3.2978318304622025
-7.442466721990109
-0.2014851892958422
-5.652034757875918
17.469395311276436
34.37303331941558
52.43990737558244
95.91446153986185
121.53018686278709
130.50891946625342
110.58688834897914
61.12396363243644
59.065491282921755
84.89088003618107
71.10051301572301
33.95527020106015
3.0762604915129805
-2.610716937717289
-8.188530527997033
-41.22442372978964
-48.460364599641075
-9.896858597809297
32.83718088878709
61.380469905810145
81.15811215287368
114.25569841112026
154.4460594304566
166.27172821085935
150.16343761115462
130.67211633200526
131.5945518340933
151.63755552667655
161.35493800487205
164.63214450615052
182.70631681513697
192.48507181576184
171.75271973024135
142.67055350851004
123.53563774431122
118.39603186541596
126.36600761921746
126.13293499827051
117.72863594636695
114.25438490743004
101.61044778421517
83.80768565308563
72.97517307814022
58.856486192913344
51.74635742803641
74.96466007044386
111.93325943073536
116.06427755871029
80.01572077657205
47.15817362266752
37.86388369642987
33.430301446684226
35.207716967319925
58.007175968846
80.78712054835252
75.78308740151249
38.93631302364419
-19.185248937377324
-67.61479619134309
-95.25129314236123
-127.44252307377536
-162.55027297650878
-169.12502072046348
-152.88846956909796
-163.86353178111716
-211.027960358096
-246.59820553332565
-248.51576864045992
-234.94646062457875
-230.57686382163342
-232.58201242209353
-212.88055688995684
-169.0449572167706
-122.98791132567635
-108.80240311222342
-134.35912704778391
-146.70437613362276
-127.5829287934221
-115.70681740147516
-125.35969908052034
-143.65249253549266
-153.41505386541277
-160.02381065076133
-182.94049299305223
-218.23666853762205
-255.40110359381154
-279.6963296248923
-283.43103447296016
-290.06523737225183
-312.95137211866364
-333.62577055636274
-338.45147463480583
-341.32321956813126
-346.48695277851266
-333.5807179765565
-312.26272466694945
-300.12034011830224
-287.0637935650724
-280.12375069302084
-284.3054603251327
-282.35941456275276
-269.45013002335725
-242.2447860760107
-208.73963694327367
-196.64770109684153
-204.3243607312259
-207.02158199868308
-192.7497774148561
-163.32266374870298
-131.4481474099316
-96.68386866451408
-51.46326685255082
-16.829619052807615
-8.138990492285018
-9.668970476490703
-10.375556252468243
-12.17530430999794
-16.118784325143
-25.98431396951329
-46.852895003710174
-63.51818631593322
-64.56544525356425
-71.44011546977437
-90.09025134722415
-112.31260507223774
-131.99944849116673
-134.87297707738296
-138.54124264539436
-136.88049111059874
-106.42613794329515
-98.49674834638746
-114.45487184884864
-105.11847597070194
-106.69690788556876
-139.81342150049443
-173.96792443792592
-201.9481430051262
-216.96658584875172
-203.45995792181657
-154.49345389826274
-94.50240552568832
-55.26343838624882
-24.683878304150923
31.912077321071965
132.42091260934993
229.98151485512452
247.16961272032842
218.40582620658202
251.42977269789662
330.7679702388575
344.97602341164844
284.7844257641582
227.15665977338315
207.5157528426569
218.95696076160044
217.62126211928555
160.47162267046048
66.86905779607608
-22.749495612347776
-80.32553691294383
-103.2645322440444
-104.93217916368823
-71.12516516825022
-7.556133226064807
42.79833526173639
71.76780669182186
100.21591441330465
135.95488587358128
180.80646717999772
235.1131352869848
273.2952706366493
263.0050172311034
217.53629194094034
156.98080535426945
68.7887989802118
-38.54677752556978
-124.51331910688751
-155.2588131356756
-140.08000045112612
-132.43274639658375
-143.15662027501585
-149.68826032456747
-166.6852416980022
-160.917766611664
-79.86320236390755
20.625341961516316
82.90938762702659
128.88689127093096
175.98153639363596
201.54549191866104
170.98886353638653
99.62759787851176
38.779424401955474
2.422297646659977
-23.45975757663183
-60.487146927943314
-107.93922594372623
-136.84890126441044
-157.59570366307292
-188.59416012275307
-200.74321923240004
-181.79008371660302
-141.81450248143256
-67.57133723620095
12.724570873461827
46.99230538646799
73.2962518348912
132.5560634409025
189.055213322451
227.27288096271175
258.0063363285637
280.899539820616
287.4432933161441
264.943359797489
234.5902182696845
225.9358376032011
233.87042192922772
253.3092816912857
288.7589929794613
321.9076222211151
325.63685813130485
304.56180045283133
268.4586412039883
222.13543975663413
192.82425648823107
183.14418235214842
177.61951909288345
187.30047334294125
206.28274665873676
210.23669035825347
190.0058099750111
162.3577853225816
158.3562882146444
176.72042268407725
208.8734603832623
245.89402404033666
251.42780837595578
226.00116238842332
174.1143049450164
81.5432071963768
7.639059351074117
-10.125985042275138
-18.1357703897509
-18.568330940041022
12.90907279263835
47.75480793916843
52.965486922219505
42.614334902484366
42.004085443506604
56.233325452697436
89.72084522055674
125.89692192786951
129.00685416028801
99.62462824352114
79.74974189908728
98.3685789641401
120.24816678051447
110.67166545680064
90.15732274909189
67.40209617815039
47.22962837828921
38.977631074215054
24.59573064070611
18.738104415083164
42.91727291588417
64.37622723674578
63.58685609266018
54.90902478962641
48.3602075868185
45.836394893426885
40.712685400891644
28.29836265515822
18.516731065659354
25.22193112536992
38.69811578993811
38.85455861913371
32.46938815968407
25.374807562351574
15.73645845456367
23.3615097898683
51.7232939433394
71.49586080986518
67.55191166639199
55.79044527194985
52.86352047913067
54.044003277850685
45.550754817864146
21.845159538868433
-2.2580681858818923
-16.996689983407116
-44.86215247911097
-92.3344530750186
-131.35975405396576
-146.62500225713768
-149.424143983185
-152.36796919603339
-151.68968579816726
-139.271063381626
-108.85600497707682
-62.39205170985063
-15.97102601223619
24.020405786532002
60.73758841866926
94.48468240333185
115.48062913185326
115.27713439757026
117.86564012145824
132.4269345141718
135.01025689733996
121.35842074761196
97.0204748124227
77.1978890688637
74.24794849763603
74.66925369091031
85.10550863382097
104.29277969624708
104.0903666525862
97.1304914980951
103.42148153906935
114.3110996532142
128.88253077372832
140.267875503659
132.83673529640177
109.6820388375798
89.04749210744373
82.94805349144394
78.66011528209174
63.57270915205488
49.17458576219926
42.4885613401622
37.26746639380161
31.686394693980382
28.946271047098985
31.21600325986105
35.537051638881614
36.59366394222758
35.8151505331327
39.58062959548779
45.228013417373056
45.146653798988794
39.77391964515995
34.373003187201014
35.53371508133924
42.441421368664784
43.34618933743367
27.64883870396499
4.359315544324351
2.4130938573241374
14.670916475199647
9.240262043119301
7.1790579677831134
28.55828598418529
48.659255466677145
61.0505606236369
76.30910124029981
104.14895562781041
141.15641618820047
163.28585058103943
180.65165458720958
198.23907048957912
171.2796775646676
99.60408957885002
27.82665947399242
-22.559061527861765
-53.78798265369245
-85.95393372921293
-118.77351351164799
-138.88913436561438
-154.09010409088725
-159.96965993688897
-156.99393054484798
-154.00698248587526
-136.2795482849797
-103.9954822556196
-70.57178758658718
-44.325834624728834
-35.036062654640105
-21.957420416442346
17.84592109264328
68.67383959664569
120.1219250605909
168.5037258980614
