AAD_Filtered_TADAS_FILE
AAD_BASELINE_CORRECTION: BASELINE REMOVED
AAD_FILTER_TYPE: BUTTERWORTH
AAD_FILTER_ORDER: 1
AAD_LOW_CUT_FREQUENCY_HZ: 0.025
AAD_HIGH_CUT_FREQUENCY_HZ: 40.0
EVENT_NAME: 202302061024
EVENT_ID: 13207
EVENT_DATE_YYYYMMDD: 2023/02/06
EVENT_TIME_HHMMSS: 10:24:47.00000
EVENT_LATITUDE_DEGREE: 38.089
EVENT_LONGITUDE_DEGREE: 37.239
EVENT_DEPTH_KM: 7.0
HYPOCENTER_REFERENCE: AFAD
MAGNITUDE_W: 7.6
MAGNITUDE_W_REFERENCE: AFAD
MAGNITUDE_L: 
MAGNITUDE_L_REFERENCE: 
FOCAL_MECHANISM: 
NETWORK: TK
STATION_CODE: 0125
STATION_NAME: 
STATION_LATITUDE_DEGREE: 37.01519
STATION_LONGITUDE_DEGREE: 35.79577
STATION_ELEVATION_M: 25.0
LOCATION: Kahramanmaras_Elbistan_Turkiye
SENSOR_DEPTH_M: 
VS30_M/S: 208
SITE_CLASSIFICATION_EC8: C
MORPHOLOGIC_CLASSIFICATION: 
EPICENTRAL_DISTANCE_KM: 174.48
EARTHQUAKE_BACKAZIMUTH_DEGREE: 
DATE_TIME_FIRST_SAMPLE_YYYYMMDD_HHMMSS: 2023/02/06 10:24:57.0892420
DATE_TIME_FIRST_SAMPLE_PRECISION: millisecond
SAMPLING_INTERVAL_S: 0.01
NDATA: 13501
DURATION_S: 
STREAM: HNE
UNITS: cm/s^2
INSTRUMENT: sensor = CMG-5T/GURALP | digitizer = 
INSTRUMENT_ANALOG/DIGITAL: 
INSTRUMENTAL_FREQUENCY_HZ: 
INSTRUMENTAL_DAMPING: 
FULL_SCALE_G: 
N_BIT_DIGITAL_CONVERTER: 
PGA_CM/S^2: 50.677
TIME_PGA_S: 
BASELINE_CORRECTION: BASELINE REMOVED
FILTER_TYPE: BUTTERWORTH
FILTER_ORDER: 
LOW_CUT_FREQUENCY_HZ: 
HIGH_CUT_FREQUENCY_HZ: 
LATE/NORMAL_TRIGGERED: 
DATABASE_VERSION: 
HEADER_FORMAT: DYNA 1.2
DATA_TYPE: Acceleration
PROCESSING: Automatic Paolucci et al., 2011
DATA_TIMESTAMP_YYYYMMDD_HHMMSS: 
DATA_LICENSE: U (unknown license)
DATA_CITATION: Turkish Accelerometric Archive v 1.0 - Disaster And Emergency Management Presidency, Earthquake Department
DATA_CREATOR: AFAD
ORIGINAL_DATA_MEDIATOR_CITATION: : AFAD - Disaster And Emergency Management Presidency
ORIGINAL_DATA_MEDIATOR: AFAD PROCESS SERVICE
ORIGINAL_DATA_CREATOR_CITATION: AFAD PROCESS SERVICE
ORIGINAL_DATA_CREATOR: network: TK
USER1: GuestUser
USER2: 
USER3: 
USER4: 
[...]
-10.603961834013408
-10.818970047866287
-11.246823282532585
-11.723734039063846
-12.099855838137776
-12.635163817410874
-13.194431612370542
-13.568907117540968
-13.95863496278118
-14.32094440259
-14.491663877434773
-14.64049654432249
-14.68527763088429
-14.351656706627343
-13.763232980795209
-12.97042223485982
-11.878883875642256
-10.580543789367876
-9.149739140990407
-7.690234062101106
-6.323253938161405
-5.005189744827417
-3.8056672352071192
-2.774760011927875
-1.8933307291069128
-1.2245673853561605
-0.7103684145885486
-0.13944596867713024
0.40055624115545985
0.7404789107205328
1.0571458468429051
1.2633330044696391
1.276818842769958
1.3801004187724284
1.4028797858597495
1.1705829472364309
0.9371474358799019
0.5369245537336448
-0.10832638965104954
-0.7773447420138954
-1.394013406567486
-1.9214935782534728
-2.3619148742149148
-2.8955321455095455
-3.310344868020027
-3.582078862532506
-4.042199242603064
-4.4645238345084675
-4.835402232236331
-5.3127608100267505
-5.823482745563277
-6.380648846694412
-6.947709399600623
-7.438968331321832
-7.856384853269196
-8.113376599946134
-8.177481349071869
-8.028909016586526
-7.549705638855089
-6.7103128932465275
-5.5936402697909005
-4.28766544567935
-2.728638629823929
-1.0178030263326414
0.6864882594881341
2.3374578414201133
3.8365043179226452
5.162301981247912
6.339798600975637
7.231500077520867
7.837618527063515
8.346341170849941
8.599979188239192
8.597649508430514
8.467729895056438
8.165897386561648
7.810468978524936
7.4406181283226696
6.928596014006042
6.355318663208126
5.765544317639292
5.159372772152609
4.740744774528867
4.4633998539268305
4.3171368235078615
4.4466453436109
4.803637118120594
5.414050448728573
6.416157599848109
7.712530006864059
9.200432399062828
11.00444460103663
13.00641235424954
15.045181669070228
17.178356217922865
19.28128809080981
21.247594628423045
23.204249179402186
25.044903993855073
26.710768703404867
28.27563595103305
29.62966881809179
30.774211311050006
31.75423981081982
32.526372851311784
33.12757756150656
33.64804213891897
34.043054897972624
34.30033813408353
34.52976050491605
34.684883830937395
34.77676692507262
34.898910197810224
35.05125921630957
35.25419037266726
35.54190298053263
35.84707709068546
36.2029450323089
36.66960016766547
37.198924865654575
37.81523865164138
38.516538291475115
39.239501111881346
39.975437804459524
40.79119665066055
41.53199898702681
42.14484701264221
42.66780625167447
43.035848401652736
43.24565442379537
43.23514726650037
42.928554941625215
42.337485473930194
41.46824128224659
40.35455095827067
39.119894956032034
37.79257126907469
36.39468324507431
35.018216467333495
33.65814217143754
32.31217337109491
31.095067901871467
30.032722039302506
29.07028019806039
28.20176958656115
27.3934908238861
26.57019075071627
25.712279336805903
24.76301719745387
23.702948300049176
22.499469915005058
21.059956233962488
19.346789730497505
17.352604299319065
15.160845685872534
12.688948479065848
9.931759425956358
7.053047428782871
4.069272847957976
1.0527899080086438
-1.8284449199718813
-4.560708654168949
-7.10232595250475
-9.27747544189691
-11.142084927017372
-12.83084307908276
-14.25453271415279
-15.384681129132733
-16.42672464275834
-17.31123306944289
-17.910531935856742
-18.348600976736314
-18.526258478935745
-18.39654580728301
-18.29540872740396
-18.164364759089597
-17.911909511668686
-17.844071390796348
-17.847786267216684
-17.820870641292956
-18.106757619233104
-18.580745844730608
-19.058369985694675
-19.848672060950584
-20.740181402481966
-21.4623208460379
-22.149726173389624
-22.66290460927269
-22.952852973442845
-23.034449960222766
-22.759368209677106
-22.191872040112173
-21.381891840424778
-20.38076260004697
-19.360780320875303
-18.179839541776346
-16.915150911285632
-15.833698878558602
-14.741623781336255
-13.697176888870732
-12.915654758405932
-12.362860611982901
-12.029458204703664
-11.97588795128235
-12.054240119862017
-12.195283389464244
-12.44848838398755
-12.615226750359719
-12.607894969497163
-12.473136478916542
-12.14597398646019
-11.556128594407811
-10.804583483922118
-9.910274616855487
-8.921564748474172
-7.9627851275202435
-6.967755770337599
-5.973580818827192
-5.098559155230718
-4.276002206691702
-3.5315319804341017
-2.9167962133975456
-2.327628051853914
-1.7700949617858421
-1.225662937347504
-0.6631269015391221
-0.1747909773173902
0.2744490026112571
0.7091144598720149
0.9889681925646668
1.187134285607734
1.3257170054371339
1.3354800141906817
1.3991981699682583
1.541268650797247
1.7015324686121025
2.0539553603760847
2.6167569879591133
3.3645584841167437
4.377811149881052
5.55251393674708
6.789348864567484
8.095674655432818
9.309274071747195
10.336532731068793
11.268499468737659
11.945710845540587
12.289631445148697
12.403208201149837
12.195478469868101
11.66853893358669
10.872526163023066
9.819098029411894
8.646832491342833
7.403490980225738
6.081529327222761
4.699624288052644
3.262834194933559
1.6913628074504274
-0.007042946299853094
-1.7423326307351723
-3.4881431814396504
-5.127653700000074
-6.5646165838444634
-7.848455827921203
-8.93494260101654
-9.78842095075606
-10.498442786158522
-11.023411604559806
-11.40749989129876
-11.755900232528496
-12.043789709362512
-12.31276173143337
-12.686807201534746
-13.146345083018838
-13.733802298209618
-14.547413462103084
-15.468701434419451
-16.56847188132072
-17.83407732611303
-19.1831516421543
-20.58651590069162
-22.045427600184865
-23.479600636391165
-24.80139927515291
-26.039080041173943
-27.15589230668239
-28.17681632226958
-29.032201703489424
-29.684591711641612
-30.236633709479126
-30.735099324430045
-31.04582638866548
-31.39891926832724
-31.868482406428026
-32.218607778373816
-32.50276190697545
-32.7638178148498
-32.93366438865352
-33.03874622111283
-33.09868051818532
-33.045222384155956
-32.83983537469353
-32.42920791752357
-31.816915422226636
-31.0119466003805
-29.94220183035774
-28.629599728762802
-27.118821914433745
-25.302575892798846
-23.193146253348793
-20.872423814928855
-18.393675162687842
-15.762857222567227
-12.984748760948696
-10.14855478174403
-7.286642795288881
-4.376127743891671
-1.4508635297901133
1.4128815215489017
4.204071952404311
6.869394746788506
9.327676902292367
11.630538576048027
13.853232717767664
15.955278876046313
17.923916732712346
19.855315777814454
21.771285993157708
23.675426699500335
25.650495810859294
27.556467009363832
29.36261557229624
31.10738402803615
32.68008160350779
34.137167342899694
35.50569605424163
36.76443102110309
37.9393266595776
39.087529866647046
40.15097463273428
41.03591380767543
41.77795214773172
42.344427502446834
42.65771729003516
42.76558228071173
42.65887444684655
42.303837251461175
41.79245703175229
41.17802134818225
40.42310472202408
39.61769976433481
38.835314879055794
38.02530052245453
37.176003507003884
36.271823421044886
35.337640139501126
34.40867721942473
33.45043402191507
32.52905063235386
31.554831540573566
30.43394411339475
29.198597835139037
27.846135917709656
26.27585092136275
24.353776976978168
22.215416739351138
19.85891710158127
17.17138964785627
14.282615224213208
11.287304751187172
8.135384290061893
4.970641185190016
1.9518052918149067
-1.0173235456771619
-3.9023559153388327
-6.527595590818082
-9.046425917592588
-11.461574724844366
-13.753403637773904
-15.938677734445786
-17.808292446964703
-19.360269847657186
-20.61702956836327
-21.477302880304237
-22.037009691665197
-22.295168826092155
-22.24170333686857
-21.926918576027607
-21.313839338446904
-20.47674934084304
-19.53767408503478
-18.55251273118664
-17.5546861138486
-16.601218482796874
-15.63177756799815
-14.673958968699772
-13.76943389527123
-12.941326938456681
-12.130612829234867
-11.378557491054876
-10.73322342606284
-10.002235518391888
-9.213960836103633
-8.462212707385783
-7.645625146852841
-6.804609503708215
-5.986658246183215
-5.10030166943765
-4.179244181742835
-3.323179031263369
-2.5439545712947877
-1.9002251442421236
-1.3736120783248134
-0.9746254162025053
-0.660383462576668
-0.23700686973334356
0.28193154477947263
0.8226308998868578
1.4754208862545894
2.326465661729985
3.3026503188066028
4.338521487315574
5.473229366713775
6.635702946695006
7.735177853002408
8.81507683932939
9.884834582698353
10.814759101987448
11.550059800045975
12.16542435913802
12.698347132641956
13.168153929754984
13.616093153514068
14.20285302890762
15.031365438374651
16.145043372177536
17.52882133858691
19.140232955830257
20.92153975655849
22.683335229627943
24.40403252699596
26.00365979215261
27.31825902787047
28.44557667550253
29.393042814430704
30.085477804380695
30.46610667077392
30.610664113553085
30.623170971348006
30.3660011031416
29.73777828452771
28.805348815852685
27.574116558051955
26.005767405663015
24.161423620335455
22.09545733661408
19.85833596015612
17.452187370908877
14.917409806898055
12.31472053324155
9.692198201748838
7.1318605342634775
4.708362951293667
2.4526013609287265
0.31579461097292644
-1.690262787720791
-3.5836505431665087
-5.452734578179658
-7.314132197376302
-9.18799938855559
-11.109940187379857
-13.03194562492474
-14.937110292928699
-16.724527989972557
-18.294689728996204
-19.677332411497872
-20.817660174821377
-21.722012994253767
-22.516007492765706
-23.166293385000593
-23.621465586610256
-24.01839289200616
-24.384422411264506
-24.700675827522275
-25.01698945544846
-25.39137827745402
-25.823750364060423
-26.36758618208973
-27.036263114462436
-27.653801707366338
-28.22621658304783
-28.839680377998935
-29.35346126731703
-29.771618945684416
-30.16270236363391
-30.4866316428518
-30.821602039453232
-31.12109567386501
-31.278650131728277
-31.388138053041885
-31.556883520209983
-31.694854530447536
-31.802264799030926
-31.783467033068025
-31.500503397681236
-31.101269992966472
-30.533652971696633
-29.700115562997688
-28.76139389373367
-27.71262998021466
-26.418183084691766
-24.90125043712237
-23.287252740929045
-21.605365773735596
-19.7493883231817
-17.722330800775772
-15.667443796334288
-13.676742923592478
-11.793368022572272
-10.097703236805664
-8.560437855984878
-7.137726169084998
-5.8830633871584475
-4.793590700061305
-3.7968601506161175
-2.8874544579629333
-2.121492679009026
-1.466973559753617
-0.9005090702673835
-0.3686825217446279
0.13313403905457882
0.5156956525256091
0.8345185363173996
1.1201381892907303
1.3299587778345734
1.4923074524957207
1.6301265479042877
1.66958759891763
1.5917751410714496
1.4613582869030246
1.264793868362425
0.8930952680088482
0.349490302051731
-0.25867057750081796
-0.8510586125531945
-1.4515050286893305
-2.069251410926229
-2.6793788861922736
-3.305387843381391
-3.9749266312071043
-4.730526453843428
-5.521046809041611
-6.345025015450974
-7.225227166809194
-8.243391169039782
-9.32086857281842
-10.41823929969382
-11.49088156885417
-12.324439303916463
-13.034733933468408
-13.683513004610909
-14.15063620179832
-14.401058598657608
-14.522781173323095
-14.506911201469668
-14.33691659304319
-14.080906604052835
-13.748891304086909
-13.464001920265556
-13.24831014458269
-13.006587766709833
-12.764262511501869
-12.597048750741333
-12.52728296990207
-12.518151038193086
-12.600722762718505
-12.815914332031216
-13.179839239762849
-13.728393651585147
-14.31988842627915
-14.80526548322045
-15.27595207507017
-15.758519439070989
-16.100574478134146
-16.236291268257666
-16.306055735524946
-16.501201155241652
-16.90646342644474
-17.439096143870685
-18.119256638207414
-19.006251590511212
-19.999763910507486
-21.14407008336957
-22.413173814715723
-23.6419905531488
-24.82688362796252
-25.942901023830885
-26.9128097253226
-27.753409202006424
-28.45934636716826
-28.94862266248202
-29.20987897897525
-29.285226094551042
-29.13182958030795
-28.824864548239884
-28.41222750723126
-27.870531368825606
-27.232875993042647
-26.436052361136976
-25.51954674436289
-24.627879945230216
-23.671884873483528
-22.768405714716156
-22.03830962208704
-21.29480138284322
-20.604558068439644
-20.10242636852668
-19.66197180300293
-19.22338678140023
-18.76110772369157
-18.196904732419135
-17.544616973016588
-16.81879523760341
-15.968253189803331
-15.031568145014191
-14.106077228543064
-13.02406133856599
-11.81953424457021
-10.624431417581706
-9.282991132833132
-7.770272180746666
-6.293227584012156
-4.842860984267007
-3.4092715679309324
-1.8946364155496636
-0.12235797325428645
1.8226710414721632
4.008435708191081
6.540567657457615
9.334258841955704
12.343853147427165
15.530078417000624
18.73327695515576
21.90776028903708
25.16763634084886
28.378522230192743
31.43158493931652
34.341224538720574
37.09661425793827
39.67960281966184
41.987883204329044
43.998941890433215
45.777062047069855
47.379950111806046
48.762581012555295
49.92194866476444
50.845696131894485
51.49454308625346
51.89416188210979
52.03088560832712
51.859917904514035
51.43239523401543
50.79474913865396
50.01419140744036
49.13231247271758
48.13564912280805
47.012582423492006
45.68043690230159
44.233400138804086
42.78167575044377
41.32736826239567
39.87565966474873
38.4066116862319
36.92247665057209
35.433436324359974
33.91390573735543
32.361112576859746
30.7405110919996
28.981185909285724
27.16373052118236
25.37870281931092
23.599432558859714
21.777729766734062
19.956459197115688
18.137123141301043
16.312467845456847
14.504932248627785
12.744623426290946
10.999303990386512
9.28941515703135
7.79281712195769
6.451948142687444
5.275051196192717
4.263311406130427
3.297301695504129
2.3665395747145705
1.470987825132056
0.5649373733468321
-0.3365093791185529
-1.1692144995016949
-2.044032465699466
-2.8038343158859167
-3.3961920851957004
-4.09848169022464
-4.824880558915835
-5.364813453126278
-5.889227925092406
-6.3491832128983745
-6.49970429102159
-6.507182294904475
-6.514115575133613
-6.528516457295161
-6.527313782972347
-6.322648650727002
-6.093895138148001
-5.978349366041966
-5.750254764651955
-5.4297928441667755
-5.128955579842215
-4.819812435681865
-4.405842111800364
-3.9551152112889474
-3.49652209622998
-2.8962370930259875
-2.171242624080783
-1.443640495241996
-0.6659983350141259
0.13600199602115678
0.9568652534398181
1.7546599168557766
2.423443135504537
3.060877053578573
3.6320266386403417
3.980888772437303
4.308157386659965
4.7643042083089915
5.173289965480133
5.397972052593124
5.575313001759009
5.949753822274097
6.451531207885141
6.872469453773998
7.321989155730978
7.781132936664581
7.994546323252336
8.017957802800273
8.02911315199403
7.96864106353642
7.790752109848695
7.485377368465273
7.1321692258803395
6.951623480701435
6.804054600269902
6.697239847359039
6.717933961143889
6.842376171636438
7.16167965226845
7.598538765349817
7.99980459114852
8.33149783575807
8.607219362338695
8.884805725303986
9.110577955539469
9.220190040026198
9.239913037266641
9.10639158804576
8.718400991945353
8.21834749612062
7.66476094451947
7.06283727442014
6.381701820692626
5.587995543305526
4.7801472833860945
3.984768799821043
3.0811559394298107
2.12013754042802
1.2797141191872903
0.5300981132699868
-0.15509721602795193
-0.6424909786711628
-0.9218262849094462
-1.2832430742237304
-1.5660281282643984
-1.6430976783789741
-1.6201630351430214
-1.489828178164285
-1.276768977301522
-0.9650290311364764
-0.581934790906904
-0.2100902545185794
0.21944389740372852
0.6909321322976751
1.0510831853519484
1.2325361026615427
1.433086490962356
1.7034459654198948
1.8391703103721133
1.7862356436312845
1.6273341897387703
1.32955489983685
0.9652150739846642
0.6478381098934225
0.3750756789448837
0.1866928604959896
-0.09340048769261873
-0.4948318448282914
-0.8847749550142685
-1.2544125166685234
-1.602271094281195
-1.9296305647525678
-2.3884341292887963
-2.7776248341033263
-2.835906586663712
-2.6123828149320216
-2.2910274216321995
-1.9709377228391474
-1.638471604791155
-1.3022764252955894
-0.8361688105294881
-0.2978989725982736
0.09573685925371217
0.2982207476641095
0.34639388226633744
0.2487931783296984
-0.008907641333638333
-0.4039100318690322
-0.8794964823506565
-1.358858637439293
-1.760454237902283
-1.9474447815127303
-1.7705971609060143
-1.4330252925024705
-1.0492257926003283
-0.6016802521987471
-0.07734845353945777
0.5695663886141022
1.487968947896402
2.693499425844637
4.096086064127623
5.709115775205671
7.494053061521985
9.393213661186557
11.39386211145234
13.627393064635344
16.0605473406554
18.625205791553384
21.24999766246629
23.79594829994429
26.17128293937412
28.36782513853728
30.36325194328428
32.23112968947126
33.88125959815535
35.123882350425106
35.961814017633266
36.40563251149818
36.57965384471782
36.66176727958372
36.56172746622271
36.27348960389196
35.821473028677616
35.21791110734726
34.54174354757546
33.884402052251666
33.24042459604759
32.55898750164319
31.955869918734976
31.38618174007209
30.884443101675277
30.46080539382632
30.068841435137816
29.691006357691926
29.32730133654321
28.94694302828596
28.572351169969007
28.150071696124698
27.567588306618962
26.828687607361317
25.995474954772863
25.085837974300386
24.124494118601138
23.156650974011587
22.1401154798701
21.099581676884792
20.063868948423192
19.13770403699622
18.34203957639917
17.65654230708196
17.09321394515782
16.608906120624283
16.12111532933431
15.668442591352802
15.28402395522619
14.880220843145628
14.534317750139083
14.227534858973085
13.848253772607185
13.420497373353584
13.040988362073387
12.547036959152795
11.92507613138935
11.341100193840862
10.684660373177795
9.926333096138016
9.228583140000314
8.63212588916597
7.912541571614169
6.940176272214316
5.682829171889288
4.077074377020244
2.3123813007850242
0.3043050384882781
-1.9499983372268395
-4.294032376142318
-6.923439016088393
-9.70586012794523
-12.479304212248463
-15.303830471893153
-18.098567664371732
-20.678416811152964
-23.088290192411243
-25.299745666473545
-27.369036963933894
-29.34836986487128
-31.113876120700688
-32.745390018651094
-34.27950250128219
-35.603908325112506
-36.78438458462607
-37.78013335584835
-38.50832159645564
-39.04942354065868
-39.284883469927834
-39.25361492053712
-39.114470714537234
-38.81382882380111
-38.23904764810683
-37.33659431400729
-36.135429079010315
-34.82740861987894
-33.51124610137614
-32.01568642706495
-30.298520697623953
-28.47783044864019
-26.361206636585667
-23.97536950272796
-21.693175632531634
-19.513586409557686
