AAD_Filtered_TADAS_FILE
AAD_BASELINE_CORRECTION: BASELINE REMOVED
AAD_FILTER_TYPE: BUTTERWORTH
AAD_FILTER_ORDER: 1
AAD_LOW_CUT_FREQUENCY_HZ: 0.025
AAD_HIGH_CUT_FREQUENCY_HZ: 40.0
EVENT_NAME: 202302061024
EVENT_ID: 13207
EVENT_DATE_YYYYMMDD: 2023/02/06
EVENT_TIME_HHMMSS: 10:24:47.00000
EVENT_LATITUDE_DEGREE: 38.089
EVENT_LONGITUDE_DEGREE: 37.239
EVENT_DEPTH_KM: 7.0
HYPOCENTER_REFERENCE: AFAD
MAGNITUDE_W: 7.6
MAGNITUDE_W_REFERENCE: AFAD
MAGNITUDE_L: 
MAGNITUDE_L_REFERENCE: 
FOCAL_MECHANISM: 
NETWORK: TK
STATION_CODE: 0124
STATION_NAME: 
STATION_LATITUDE_DEGREE: 37.4087
STATION_LONGITUDE_DEGREE: 34.87911
STATION_ELEVATION_M: 791.0
LOCATION: Kahramanmaras_Elbistan_Turkiye
SENSOR_DEPTH_M: 
VS30_M/S: 583
SITE_CLASSIFICATION_EC8: B
MORPHOLOGIC_CLASSIFICATION: 
EPICENTRAL_DISTANCE_KM: 220.84
EARTHQUAKE_BACKAZIMUTH_DEGREE: 
DATE_TIME_FIRST_SAMPLE_YYYYMMDD_HHMMSS: 2023/02/06 10:25:05.0718050
DATE_TIME_FIRST_SAMPLE_PRECISION: millisecond
SAMPLING_INTERVAL_S: 0.01
NDATA: 14501
DURATION_S: 
STREAM: HNE
UNITS: cm/s^2
INSTRUMENT: sensor = CMG-5T/GURALP | digitizer = 
INSTRUMENT_ANALOG/DIGITAL: 
INSTRUMENTAL_FREQUENCY_HZ: 
INSTRUMENTAL_DAMPING: 
FULL_SCALE_G: 
N_BIT_DIGITAL_CONVERTER: 
PGA_CM/S^2: 20.112
TIME_PGA_S: 
BASELINE_CORRECTION: BASELINE REMOVED
FILTER_TYPE: BUTTERWORTH
FILTER_ORDER: 
LOW_CUT_FREQUENCY_HZ: 
HIGH_CUT_FREQUENCY_HZ: 
LATE/NORMAL_TRIGGERED: 
DATABASE_VERSION: 
HEADER_FORMAT: DYNA 1.2
DATA_TYPE: Acceleration
PROCESSING: Automatic Paolucci et al., 2011
DATA_TIMESTAMP_YYYYMMDD_HHMMSS: 
DATA_LICENSE: U (unknown license)
DATA_CITATION: Turkish Accelerometric Archive v 1.0 - Disaster And Emergency Management Presidency, Earthquake Department
DATA_CREATOR: AFAD
ORIGINAL_DATA_MEDIATOR_CITATION: : AFAD - Disaster And Emergency Management Presidency
ORIGINAL_DATA_MEDIATOR: AFAD PROCESS SERVICE
ORIGINAL_DATA_CREATOR_CITATION: AFAD PROCESS SERVICE
ORIGINAL_DATA_CREATOR: network: TK
USER1: GuestUser
USER2: 
USER3: 
USER4: 
[...]
0.26726323092620835
-0.4501518875438065
-1.070189585871192
-1.4437238141080257
-1.5159782141463451
-1.3715172757753036
-1.1228798098278199
-0.8764413065992028
-0.6389558482879223
-0.34981510114573666
0.04680721615470537
0.5581313476969629
1.059661987324786
1.377561399192453
1.469471000199409
1.481491652953543
1.540126306970453
1.6343828170584185
1.751487722195717
1.8814539214025625
2.015678989354831
2.1585267250263676
2.302666228801459
2.3534839889984815
2.160786936803264
1.6664007394113682
0.95407394993916
0.2628685751369841
-0.21924176751527732
-0.45506568142763787
-0.49556968209082075
-0.3717568715601796
-0.09763528798061363
0.32037326974649893
0.8780203875731384
1.4517241353440073
1.8814664502188057
2.0286848145883227
1.8566873065956042
1.5047474718331886
1.1986401204804862
1.0633897009172502
1.0294588224895391
0.9642143431581844
0.7732084679336197
0.49435751370443737
0.31521588076812723
0.3951561484032843
0.7126778949606125
1.0842504994942417
1.3092179761606582
1.2574240317662264
0.9318522485289423
0.4547316128797187
-0.03581928209734232
-0.5274017575913099
-1.0892554487403545
-1.6832264517494981
-2.234467131133043
-2.6832646565255165
-2.9334294653110797
-2.9436444895329075
-2.7695026727869902
-2.494698305428599
-2.185660281556406
-1.9019368997919117
-1.7335065479258018
-1.753733292321159
-1.9193087443873746
-2.1244190837877595
-2.2413739997723283
-2.152521467005055
-1.888562548623258
-1.627970872288613
-1.4919274795293245
-1.4397991359120756
-1.4145357880563492
-1.3805294844357314
-1.3149543879328243
-1.2315748759564047
-1.2217719400457374
-1.3846750265733383
-1.7363342479811694
-2.218160065519471
-2.7087754187795445
-3.1102274261555998
-3.3598553805545968
-3.432501174566491
-3.3420712824602026
-3.1151993239857623
-2.7608784812852103
-2.3000586955711375
-1.8660297038444027
-1.589705553545283
-1.5091870789893602
-1.5752489755393246
-1.6774465053429257
-1.7156736278778209
-1.6780526474227015
-1.653640340924442
-1.6915217466674775
-1.7520099368630708
-1.790446462848986
-1.8154794226755557
-1.8970170170139486
-2.1354293542233673
-2.5024421823302023
-2.7939321930540184
-2.8237230914533034
-2.6137637907242257
-2.345511003450745
-2.1982414228719627
-2.2149357946221016
-2.232433548532907
-2.1016258425551673
-1.9345561890439382
-1.95523464295555
-2.2769830776620577
-2.7961076920344463
-3.2506513767503544
-3.4599906433269343
-3.446680383861975
-3.403861458102751
-3.5237748900812482
-3.8653844480356505
-4.241762297586738
-4.303624670268872
-3.9458918573776116
-3.3298954386358655
-2.640299081127674
-2.057098244813726
-1.7085559523051346
-1.5716958124592515
-1.56468255700607
-1.624469367967979
-1.7121556092022692
-1.8414422588499422
-1.988834549923055
-2.114174902658071
-2.2580678475401195
-2.4590554736484425
-2.647191509220613
-2.7079078716875022
-2.6648286599771827
-2.604756968561691
-2.5479160342358065
-2.5235798409626637
-2.475136023858314
-2.292136686255696
-2.000523450921631
-1.7440109441711826
-1.6669348922718836
-1.8299054987898704
-2.1557170446069454
-2.4435284755771027
-2.5493694487278393
-2.422401017169035
-2.1043001199524665
-1.7288901887664887
-1.4314105859968558
-1.3002458211045007
-1.3742787982086855
-1.6367201663819315
-1.962383661672613
-2.2264328942509346
-2.394390094955298
-2.4277885449527408
-2.313189862226248
-2.191520309454984
-2.1209370439916557
-1.9965441483130213
-1.8227587328542416
-1.6761225412112177
-1.6546281026418213
-1.9205585280540864
-2.496911920578214
-3.2277975743936573
-3.873737384843361
-4.284143870825623
-4.510701750024338
-4.676575699940191
-4.877313120137824
-5.048275681677177
-5.053030952017037
-4.900961757252473
-4.651761486359155
-4.327829824465083
-4.019994025338119
-3.7576891195557964
-3.4691498600902384
-3.156919950858957
-2.88871491990995
-2.664008326161467
-2.468849407304954
-2.306792967583838
-2.0762249568967373
-1.7475340690691163
-1.3684056209199655
-0.9656142451923415
-0.6139898305161707
-0.34384794369503224
-0.1055651527679358
0.19416938109149842
0.5984610554005997
1.0409465370832733
1.4742984487977882
1.770121757477153
1.841784687551527
1.7197593476057118
1.3300044943648577
0.6369961961599836
-0.21321990403826968
-1.0333059555415445
-1.5941967663490748
-1.7693456874001336
-1.729764489445452
-1.5606844454301545
-1.2644204117798705
-0.9421393438118428
-0.6292253269508041
-0.31830478410877705
-0.12997396451052706
-0.24788389047060833
-0.576989963909446
-0.9962129118675177
-1.5183209029897584
-1.9475354950114778
-2.161506105325762
-2.1540089527633457
-1.9530297177042328
-1.6764542874024455
-1.3767356094970613
-1.0804724497926184
-0.8449340905289066
-0.7033276107899824
-0.6135536969960041
-0.5499272322031268
-0.5462719005797956
-0.48204750203393393
-0.06837905846716501
0.6814386969884421
1.3897309320772384
1.8067098706352862
1.8745210841629476
1.6608966261142475
1.339150476018742
1.1143375815211976
1.0892722046702772
1.1258144326238404
1.0879025352943879
0.8359639839444674
0.3834058952833097
-0.015574128341965735
-0.2735634677819073
-0.45894911171484476
-0.5880306745783044
-0.6299778464000638
-0.5951210616489099
-0.693347118985708
-1.1454806150035899
-1.831211492207771
-2.456222310494183
-2.846618094423662
-3.052051035957054
-3.091905176701077
-2.896091921352357
-2.703970096541455
-2.75338150442636
-2.8577829788691247
-2.9004219352570924
-2.972054231606362
-2.8707360210083395
-2.430933624833114
-1.919266851804509
-1.647127524270172
-1.8364555207081388
-2.539426903567103
-3.4989879614606787
-4.215650425646069
-4.512230004936586
-4.450440778909201
-3.955554959393068
-3.3220504313809673
-2.9266752509781617
-2.778581506370377
-2.661735072017218
-2.6234493548245506
-2.7047293012476423
-2.4973289135145293
-2.0709398670921773
-1.8309686876255675
-1.7295399700668543
-1.7892846335356067
-2.3817186451695287
-3.5903792095441287
-4.862969077741122
-5.552109908573712
-5.649881525282482
-5.49791781849409
-5.2902876233365435
-5.179022334292256
-5.077555960731477
-4.6055253571416035
-3.8285871386396577
-2.9790119424859482
-1.8999811022151836
-0.8550442721952135
-0.3239632795184478
0.1332829839149147
1.017110491472404
1.4357155635041599
1.0542260526562715
0.86671772675517
1.0440111201686186
1.2086775055273775
1.4529560242305348
1.8033313831295392
2.0496367604849755
1.8197953687112138
1.2962834010451336
0.6857215119152308
0.2314769757532061
0.6077009780700645
1.438126547982418
2.474083005429675
3.629128068149387
4.255325060988667
4.334960280464456
4.421168293790369
4.654693683737459
4.782437520213774
4.363918962349626
3.4629264314976824
2.8767578621128416
2.996800835200584
2.986960806502146
2.1838255852129262
1.076120396375826
0.36610504174427844
0.24988133684067626
0.285716533497929
0.35219726535433155
0.8194309203928537
1.4031548458171854
1.2376509695260363
0.727921137005307
0.5788657696640245
0.6053968312959646
0.4564965511560439
0.974702642565759
2.59281261673374
3.5887418670473146
3.2188481344377338
2.638525077673833
2.2859831419192727
2.2874623849372857
2.354406159909425
1.8742223435124523
1.1254886904194772
0.06458774416626259
-0.5240668690039962
0.13980415391219667
1.3641895282377727
1.8621535547610168
1.3078696086759802
0.6312491893193832
0.10128107294455725
-0.6010421257626319
-1.3787983361698766
-2.047397716740611
-2.4911028223517615
-2.0874071882252223
-0.8024856926592072
0.6823752925244586
2.261958360208446
3.0542826546175346
3.1802390884439413
3.973569258883765
5.279450226625257
6.147351463193934
5.929748872355127
5.795428998387763
6.913913196913369
8.173346023182443
8.743785813190254
8.851549648988144
8.346545891375715
7.742023255609558
7.834184617966467
8.879633097193247
10.053310497831667
9.816493703022964
8.122263878697188
5.958882924629685
4.963134455731972
5.41979703206485
5.028715900381555
3.6177220462088107
2.847436894366913
2.8471474082550685
2.9289357137285146
3.037280428494821
2.4582980996962727
0.6716013039000798
-1.330378884440032
-2.449931110709554
-2.164486888291151
-1.1910852233436862
0.08012205903892278
0.7070260756184021
0.9448814304546922
2.1209173471247453
2.9253547438970755
2.2855842959197323
0.8865450285842055
-0.180446257937527
-0.6592167169691032
-1.0921441974774004
-1.2495642148416104
-1.1265191532906387
-1.8636902901754606
-3.719586573259067
-4.831407300497537
-4.179122550140227
-3.183183677759076
-3.3935719153128163
-4.337593867026348
-5.290631608583768
-6.513331291057449
-7.189223089460614
-6.786586980531673
-6.198956356714774
-6.44746231934186
-7.243614545167264
-7.258199735544323
-6.031065397469331
-4.6122504167804275
-4.298260314443804
-5.011173841667105
-5.5988578928068256
-5.344575994551004
-3.9294430975927894
-1.3059636115921744
1.5631188240478362
3.134085808187721
2.942093347043744
2.292781483892807
2.219098138729306
2.4611756447569233
2.624014715100612
2.4297045754982745
1.8767284061639316
1.3950038319602023
1.0799560306234932
0.663077156659658
0.39754198876420543
-0.0031001951601538017
-0.8169888322246828
-1.014102361540436
0.17258457350963824
1.7705727931628863
1.998911899688863
0.7352382286638599
-1.1112822714537358
-2.7042308371917034
-2.8195418418259344
-1.7627292131261565
-0.5781680301673358
0.38636861823373
0.5310308710977298
-0.184965911627543
-1.0474586444882086
-1.455554837596091
-1.8977772164317979
-2.66104037458181
-2.8746690386490004
-2.3249063585399448
-1.6287681144744388
-1.11353483255429
-0.6308556284959521
0.22403201754797214
1.410082877965729
2.8582999078373397
4.042269315870481
4.43272991262879
4.639922926681101
4.455994712134954
3.698109456593153
3.00251255361377
2.65450984985878
2.5850104942305467
2.4471655018270986
2.5616749855871594
3.093884516703973
3.527647178665324
3.8651342712002843
4.335005705851557
4.9680596086240785
5.531437341086457
5.011085540517599
3.6413457166618333
3.0390675716525526
3.169232117125274
2.9187472515312067
1.8163325389129372
0.7314223935933032
0.22443292309101018
0.12145461184758011
0.7883273934416
2.2891634944048302
3.803595202242256
4.583748057781274
4.436225530109521
3.250319395380463
1.4418191328058183
-0.043237084883454645
-0.591328544032647
-0.27904002307853487
0.6352860921996334
1.677680921987354
1.867384481971946
1.7030868334080553
1.850860190812179
2.5029680080890726
3.5747873428929497
4.107612962805651
4.256368614349703
4.101216033829714
3.4343558312107443
2.1347594632612124
0.5618788871398986
-0.46684386465809413
-1.2045751635290085
-2.319229870640845
-4.057282868452779
-5.830992306110571
-7.007832902462731
-7.378000099155689
-6.484821106137673
-4.831239067140012
-3.808911605463255
-3.262802953213685
-2.084076501208481
-0.017389528220299183
2.3855677545791774
4.115037809130112
5.100013652150788
5.9758088411254775
6.264341905913216
5.78391381529925
5.125302180161002
4.829586403922969
5.177925670094541
6.001286418212047
7.291948493971612
7.816664847810548
6.881335622419064
5.772106892447179
5.4210276930051
5.935644737835233
7.054670733045909
8.034212122201744
8.034878520468656
7.178570154980645
6.050433557131772
5.052792794640547
4.638804182338556
4.951484990842688
5.5651387210840815
5.849585404461395
5.6376182837918245
5.249839609902713
4.966732079871102
5.31689545772301
6.415737941951356
7.534087869174265
7.976714159846234
7.235929675180339
5.456097129050883
3.688026164091194
2.9533873463882196
3.475700709282133
4.505244953020531
5.472007477701941
6.158348312160263
5.84354422854058
4.4096458273192685
3.120413389450147
2.7248551845185447
2.8961818687364658
3.0655083542005714
3.016096637762941
3.1897975817529125
3.4129845442044804
3.3476228613536803
3.14871366895894
2.7361295922634596
2.0743048229661167
1.2027412196004352
0.5738756416690912
0.3696142838101209
0.30855958799758787
0.22272057230176834
-0.11455481345460962
-0.3389002400798357
0.2054429129842068
1.2958608871156856
1.6314225648764733
1.5695946310660933
2.1970683642887736
3.0657947543448274
3.7024129878662237
4.232038676754799
4.68825018138805
4.398628477990561
2.5612977822822547
0.340872143859301
-0.43669744505594627
0.6175903041044953
2.405645493000918
3.5948784872929678
4.770435789957279
5.625988929167926
5.840495562276353
6.674118440127639
8.446423634052145
9.966015054340458
9.43409968767153
7.446582703240225
5.9691458997869296
6.107268486610256
7.864154733153707
9.948294344759594
11.501036676345734
12.110877267807188
12.39354878207168
13.247085202440827
13.864519823839176
13.538725668251697
12.548701536404486
11.868960526674323
11.846132484073491
11.799351356174583
11.70724659157557
11.766597506556222
11.905666502458136
11.830326536305535
11.199658660644316
10.727247143519028
10.669254905386826
10.30671016722396
9.445077530649574
8.062990375286143
7.098324803670604
7.433698539330737
9.076025588162825
12.054556875066567
15.560834327357046
18.341302211195078
19.380054547332957
19.245972477829543
19.053582525466283
18.928090455309164
18.738795590282614
18.45212577244549
17.926652483404133
17.181644400880767
16.765927255686957
16.53313187419158
15.506071281042699
13.404486428718155
10.779065963743943
8.389003781529249
6.774598804398032
5.727046710669306
5.037659613226501
4.124729477797736
2.6022465895530034
1.15826332741626
0.5785698251704264
1.0621926684996112
2.1187530698359835
3.153559337280164
3.5511772082623883
3.3035347446915218
2.995656643104905
3.183070348575805
3.816026933351963
4.025155459669461
3.8736311386144853
3.7260844828726425
3.6691879454481033
3.9923086698118833
4.298190228060402
4.5029000080920945
5.042484478025736
5.429929986359661
4.633928100313827
2.5232151268084446
1.0229151580174956
0.6931557517276704
0.7784528368563556
1.6990364058065999
3.194567139339541
4.275470046378672
4.344796117681554
3.8607654562109066
3.9431952721069234
4.453967743673108
4.239427767241643
2.866632191462504
1.0823526646249344
-0.342439411338929
-1.4973146329773095
-2.538899549008967
-3.070582961491786
-2.8209235177186036
-2.517993935610075
-2.481199073043187
-2.2568595269386775
-1.6642641833385485
-1.1557581074980379
-0.7808547819456897
-0.15355711265793134
0.606062250993509
1.5754112867732313
2.723189805131279
2.968582858191956
1.6314635825946937
-0.2980706735511492
-1.3384421811780942
-1.629707425140068
-1.58323848149905
-0.6729448459593319
0.9148889143086055
2.344373006257782
3.7621427121136626
5.496501276451558
7.1691810804074905
8.485854801166973
8.53960886541131
7.608598853643159
6.608596774033653
5.747166345758168
5.159991870993979
4.556217869083521
4.216147287837627
4.419353278283555
4.575336031740892
4.3167181086165805
4.110591474691737
4.379904635664342
4.869341643822363
4.9474210309578215
4.752296749744628
4.821749627949126
4.789809779769116
4.260427393070404
3.783499190912072
3.8874899080528014
4.970059870188622
5.9827992942770365
5.626448381781682
5.125160000646285
4.899840875390908
3.927788859977108
2.6767116437297673
1.8414477814700947
1.0021776021778313
-0.9818987675871342
-3.913881004242334
-5.783031560429877
-5.961378919138956
-5.105705163982471
-4.344511104270101
-4.715293188157051
-5.641486915294086
-6.612301244203977
-7.997988454202014
-9.189543186799822
-8.971829917235741
-7.375169586237564
-5.9846693847216645
-5.569033708972417
-5.6457224797158885
-6.217622373316836
-6.905395749154496
-6.6389990029373465
-5.510638692170595
-3.8600318794479644
-2.187603781524626
-1.6790694035549265
-1.7534487641014829
-1.7019822120473926
-2.2054048240921484
-3.2612197610324207
-4.255983324668153
-5.188732169081517
-6.664021647846699
-8.332866003777811
-9.185961572335772
-8.842119129501839
-7.324252977759394
-5.060119330382662
-2.8849132566022178
-0.8459561983866819
1.3743061948117665
3.123647880112787
3.9319555372755097
3.8924431729788167
3.3914841104279683
2.933166853586923
2.2240219110416537
1.1510288077506785
0.6425364748351916
1.350802430267165
2.4842589084254745
3.254650448377297
3.5893515758188284
3.7334188184578485
4.057619573547001
4.503017737393974
5.261961196432755
6.1039995031034735
6.098180275465405
4.872369688680522
3.3850539225941034
2.363048216366182
1.201011871590544
-0.4287350048285104
-2.365155856825548
-3.868227560459406
-4.181977236538446
-3.5733420337063517
-3.5323972762884197
-4.724454175272312
-6.095817886299106
-7.186249756821411
-7.772086702078552
-7.899313381440287
-7.760821638342151
-7.552777825164302
-7.4891172371293
-7.358198681755635
-7.3474067860300245
-7.121448631451052
-6.312443873785783
-5.241902697871476
-4.262936474974672
-3.8616872432476486
-4.121372593218376
-4.471241346346132
-4.357692849809759
-3.657036395409063
-2.6938756004502844
-2.236940559722976
-2.666701811785662
-3.4425782543754937
-3.937867620960977
-4.182240380072709
-4.361583911014708
-4.855401422946499
-6.100019966331142
-7.724609469604038
-8.578513302076702
-8.58532411736339
-8.947002072834845
-9.826146428442371
-10.432188681387851
-10.472494451344494
-9.757313457333424
-8.096623580050705
-6.029858111841296
-3.8364400914207195
-2.244122766046731
-2.1679001529408257
-2.7355644037521976
-2.644486252793498
-1.6962848535479114
-0.844914306440851
-0.46786449032257404
0.17587857961032666
0.8388897146320051
1.266086265969989
1.987581360711162
2.9945626484247283
4.087908041935012
4.49125755377027
4.180394102804211
4.085614662444817
4.126211631684735
3.777629599164733
2.9854574506904594
2.2328594903390524
1.554242859372547
0.8016652445183139
0.37424533605171356
0.7614788863274929
1.2589918964465021
1.1191594602945816
0.6318259819880016
-0.3248225041287437
-1.6789342649433179
-3.010507305476838
-3.769374661570543
-3.667464466376811
-3.088631647115784
-2.1875013282936404
-1.399419588086983
-0.913438721426906
-0.7703785187444512
-1.1307693116762363
-1.7380101800162728
-2.5086689904117976
-3.2557146684093157
-3.7670339669478086
-3.915502505793777
-3.7013767161924775
-3.160554884564898
-2.721669990786067
-2.153315753426124
-1.3735587870925772
-0.3766702458514281
1.059523535839675
1.728161212695717
1.4976486803178826
0.7475569489827103
-0.36058027909720036
-1.0739126068026421
-1.4134156537203122
-2.0694822647065516
-3.344168410929167
-5.056025327663948
-6.519295026970162
-7.250076143647021
-7.174097965064088
-6.229231673810507
-4.948231560569133
-3.8766071083885842
-2.880371720316912
-2.1764962752044408
-2.0512406450712297
-2.2662620701501566
-2.445868732253751
-2.60233569266235
-2.6667686329607068
