AAD_Filtered_TADAS_FILE
AAD_BASELINE_CORRECTION: BASELINE REMOVED
AAD_FILTER_TYPE: BUTTERWORTH
AAD_FILTER_ORDER: 1
AAD_LOW_CUT_FREQUENCY_HZ: 0.025
AAD_HIGH_CUT_FREQUENCY_HZ: 40.0
EVENT_NAME: 202302060117
EVENT_ID: 13194
EVENT_DATE_YYYYMMDD: 2023/02/06
EVENT_TIME_HHMMSS: 01:17:32.00000
EVENT_LATITUDE_DEGREE: 37.288
EVENT_LONGITUDE_DEGREE: 37.043
EVENT_DEPTH_KM: 8.6
HYPOCENTER_REFERENCE: AFAD
MAGNITUDE_W: 7.7
MAGNITUDE_W_REFERENCE: AFAD
MAGNITUDE_L: 
MAGNITUDE_L_REFERENCE: 
FOCAL_MECHANISM: 
NETWORK: TK
STATION_CODE: 3131
STATION_NAME: 
STATION_LATITUDE_DEGREE: 36.19121
STATION_LONGITUDE_DEGREE: 36.16328
STATION_ELEVATION_M: 203.0
LOCATION: Kahramanmaras_Pazarck_Turkiye
SENSOR_DEPTH_M: 
VS30_M/S: 567
SITE_CLASSIFICATION_EC8: B
MORPHOLOGIC_CLASSIFICATION: 
EPICENTRAL_DISTANCE_KM: 144.98
EARTHQUAKE_BACKAZIMUTH_DEGREE: 
DATE_TIME_FIRST_SAMPLE_YYYYMMDD_HHMMSS: 2023/02/06 01:17:37.0224140
DATE_TIME_FIRST_SAMPLE_PRECISION: millisecond
SAMPLING_INTERVAL_S: 0.01
NDATA: 12501
DURATION_S: 
STREAM: HNN
UNITS: cm/s^2
INSTRUMENT: sensor = GMS+/GEOSIG | digitizer = 
INSTRUMENT_ANALOG/DIGITAL: 
INSTRUMENTAL_FREQUENCY_HZ: 
INSTRUMENTAL_DAMPING: 
FULL_SCALE_G: 
N_BIT_DIGITAL_CONVERTER: 
PGA_CM/S^2: 363.033
TIME_PGA_S: 
BASELINE_CORRECTION: BASELINE REMOVED
FILTER_TYPE: BUTTERWORTH
FILTER_ORDER: 
LOW_CUT_FREQUENCY_HZ: 
HIGH_CUT_FREQUENCY_HZ: 
LATE/NORMAL_TRIGGERED: 
DATABASE_VERSION: 
HEADER_FORMAT: DYNA 1.2
DATA_TYPE: Acceleration
PROCESSING: Automatic Paolucci et al., 2011
DATA_TIMESTAMP_YYYYMMDD_HHMMSS: 
DATA_LICENSE: U (unknown license)
DATA_CITATION: Turkish Accelerometric Archive v 1.0 - Disaster And Emergency Management Presidency, Earthquake Department
DATA_CREATOR: AFAD
ORIGINAL_DATA_MEDIATOR_CITATION: : AFAD - Disaster And Emergency Management Presidency
ORIGINAL_DATA_MEDIATOR: AFAD PROCESS SERVICE
ORIGINAL_DATA_CREATOR_CITATION: AFAD PROCESS SERVICE
ORIGINAL_DATA_CREATOR: network: TK
USER1: GuestUser
USER2: 
USER3: 
USER4: 
[...]
-1.818549347639286
-4.296342186100736
-6.922467965926842
-6.918218051753729
-6.909075648868502
-10.849547648108562
-10.132132455345918
-4.964048520414552
-9.069153237187937
-10.803320654576451
-5.328981178082392
-3.9064650412419755
-2.4469068879646887
-1.6779791427289312
-2.130079826641461
-0.8421685235038413
-0.26406415322549354
0.026068554014396738
-2.3007218174558814
-1.4525443265477125
3.2652066561594557
0.5152371006195464
-2.5728606972966777
2.5142106593625537
3.087399120949182
-6.402114655090579
-6.689962764751398
2.3144169197817006
2.164270009457093
-0.7239021245918266
-0.15709593506145825
1.086460742601012
1.626708353062598
0.1552671035287532
-1.8171763640057024
-4.890541662423191
-0.1028972412066851
6.98566975785179
2.237692455954787
-4.468169567938215
-7.959391210550156
-8.105060886649486
-6.0249933153903275
-7.893583986387134
-10.062522243027948
-8.188392075736894
-3.630977088817402
-0.9162164071677847
-1.7450025118143095
-2.812812975287979
-1.6349582204635325
-1.2217845598456318
-3.874658898906187
-0.5811438920460242
10.288121570143169
18.66120133427615
21.451985549287013
19.05299870891715
13.635197386561885
10.539160616486281
11.02568316870898
11.478661529791712
9.33679520933599
6.692683830964487
7.111723319211799
10.111950188946686
9.6790866996032
5.4499119097870485
1.809765950660471
-3.2479189044118955
-4.614718947861868
2.520100482147995
6.69733572956567
1.8327133372942814
-0.758001117065248
4.504651433103616
5.415868638562408
1.1628074790056755
2.295211258470569
6.393999572553595
5.779842626605244
1.877820535724383
4.4545081326328395
12.379965276423947
15.450497536178165
9.254008086051117
2.420916142452429
2.445327490432221
-0.7097961837600393
-5.146243966009861
-4.641166620488364
-3.84209627306013
-4.240716848742608
-9.163400099286713
-12.858459457892751
-13.625768538874137
-14.04696163213459
-8.561356872828647
-10.8682888822787
-19.91832095655435
-13.235035541864328
-2.5142631739515684
-5.394835022151806
-12.080006773417079
-12.196178089401608
-8.822563817094021
-4.793613915396125
3.7225107178062506
13.343079434194856
14.518491115325478
12.939387960946982
18.21433076881683
21.98310966471969
17.2196310886391
12.5573678650911
15.71440853809536
21.851475386137956
23.265592034544337
20.961852401372003
21.391662989474234
21.12610961723205
15.783493565475005
15.728338845422655
16.989940927368227
9.163146325798992
3.319417954781754
3.7526073550719805
3.476788296991946
1.4915420754955018
0.18319757792992952
-0.5195191038532875
-1.553438138925389
-1.6335227090711868
-8.653545748061152
-20.213354992412896
-16.742704410701197
-6.9509312240954255
-8.999009583427776
-17.211117528323797
-24.18791508882961
-17.442773798049103
-4.930108499062873
-8.671131952411175
-11.375130065533865
-7.8544445207629785
-4.583060743898187
1.9289802523921873
0.2478729285884555
1.495039229347705
8.50753757149727
7.031282987863473
2.404769707661761
-2.3778500874675492
-0.9389515965469384
5.681053052793264
3.9386970093478246
-4.043577778271719
-3.3056046245059028
5.482581196243795
5.404497302644566
0.4926668911531893
4.611488887282983
14.982325883731338
20.20376859784219
17.61422962019411
17.648501173747043
17.996004029111123
13.644566237291164
12.257904358059424
12.707714983106955
11.802461649336172
11.422301023661207
11.519389267943534
13.98633797113047
15.402161843578765
10.623706613899113
6.324248438210685
5.556474308284894
6.615207347437539
8.862598862220787
8.127221619626123
11.978184407344163
17.602327316851472
13.104440292547316
9.097667772323076
5.985497164638721
-1.572674935841338
-5.648351735935962
-6.281514137989394
-5.47145590562702
-4.891541406727649
-4.6763968550014665
-1.1350377422788462
2.6340316859620097
1.4816908057243539
-1.5480653988084137
0.561618489170485
4.855656171047148
5.571278783768597
4.503680547499687
6.048705664615767
10.322200854470855
11.877833155713873
11.614060059370505
11.799241325680464
14.34632300640206
20.898313527369403
21.460823670460137
15.477846185429334
14.070882812672497
17.948720212633138
19.62635060416366
17.414130270714608
19.528467273389246
25.338937589456144
26.35246130030463
21.600198401101547
18.534391615596533
22.66977215902246
25.37967525162678
20.091515268551305
15.442190893450793
16.828279516856476
12.715987692674567
-0.38804991458835364
-5.9997319285798545
1.4705446927579773
5.690305960721083
-5.8672869025414665
-11.913242872685066
1.6493628355531575
8.200858585064449
1.1201300456039884
-1.5443755006002124
3.1050075398257575
7.014347095693606
7.788426013673518
10.05690132735303
11.672512137095435
12.49555296689763
12.318760432441557
4.27227817978289
-5.727547973057421
-6.653490715609688
-2.8784717521023073
-4.662066233656362
-8.468369604656038
-4.14909169472782
-0.9679400339171906
-9.150911955245864
-11.74212737038988
-6.032905869426611
-9.354185296388113
-15.408893143891328
-16.798260976531378
-18.63098859654131
-24.58209072058848
-34.688775608816755
-30.87590265024352
-16.13800230240774
-15.310979927163848
-16.403955138735334
-10.079341111368695
-5.492747775652072
-1.3841484874057612
-1.0669047889276235
-0.091830805970827
5.970266013571617
6.397400196674581
1.0938423163135182
5.679073290668167
19.36209853431445
20.988225079109153
15.315053960052856
17.8242150239263
20.125274669180392
17.573674402167548
17.12320875492452
20.75270755869748
20.834572402938857
17.32704674794144
22.02849449955265
22.540316689653896
10.05397291106281
6.704062973550744
7.428510769496471
0.0944555860882931
-2.6172897251666747
-0.4575333049538982
-4.282957925268365
-13.311732781630003
-11.240179112916563
-4.455668202597002
-12.157838018745272
-20.143433282182713
-15.67518089349816
-12.691770951771568
-15.53570779717956
-8.648562987354664
-1.7143434541844567
-6.11045180760181
-5.096929481243222
-3.468098890894285
-4.625009194984294
1.2437528767529886
1.393632576849973
-4.878404871436038
-3.8574462794685487
-0.9950691713615177
-0.36202000178711224
0.8512755621447271
5.337136302691834
7.176310183888323
-2.5180034132540046
4.658588000358634
22.310785768495755
11.195392828664197
-0.4935041246612711
4.708129955546367
7.75403864109278
8.443089013999906
12.626389997832732
14.893504521915988
5.295188868985213
-0.7129935834893361
1.8838272029099783
5.365846920627033
6.3274411803287505
-3.479932672144286
-2.0657657840541437
8.920804905174508
4.011096005815618
-2.867713941672017
3.176916382096256
14.421825840144017
9.489379972414964
-5.676538816745627
-10.976398418326175
-13.374002620079684
-13.011596292920839
-12.332525061501551
-12.13351323581911
-7.17474704405591
-12.000888788244195
-22.38559720122655
-20.100277701039943
-7.360063992190055
-8.212851061876133
-27.04771817694207
-23.993693957076896
-13.695420084396696
-22.442310421054174
-23.199890139945577
-21.98041098622743
-22.668765508488622
-19.89417105772749
-16.561444345337538
-10.661955584283785
-11.893361836070378
-9.620143607889444
-6.9820039104088325
-14.917292966198366
-11.187672409680815
1.3208658127838087
-2.39976124591349
-11.745318386174523
-8.233597822049605
2.1940770710543687
4.367202414209382
-4.044086124204533
-2.178412893766356
3.557598479020797
3.1527005216892983
7.866842329226905
1.2800220624347642
-6.8970755515144395
-1.931385392940301
-2.7456457089247026
-0.7236813087902786
6.701044208747526
3.910253249189586
-3.648117973596361
5.901039399983458
28.601714684879514
24.301104446159044
8.047342897633987
16.726722398710326
21.920729192104123
13.53807579238945
10.158967083212971
5.567704600928243
9.172314304354282
19.343775492865596
15.800414178089497
15.594966302817872
24.07768128621436
26.175039647113426
26.26219223976649
31.963718481407366
44.022203222667926
45.06269777375592
36.810191602916916
38.24631273996685
38.54883172458801
35.82916313751011
38.55722482975521
42.804514440445125
41.714455428811995
33.7966503796063
26.160164464409142
24.74680527878042
23.77887474679432
16.816837148143474
16.81235413162517
17.26188021448827
17.643065924514687
21.41622701899596
13.298050502931085
18.297201350676097
24.84253218674516
20.2271886499921
32.71433528858909
30.507648337922234
20.686672050761864
32.23535809576586
31.3287975747403
25.95684561251453
27.63161349754458
20.029541451372225
26.14396341992717
33.60675110857116
7.022577194252526
-13.418181860341294
-5.620359194880741
5.761335286192729
9.628267544208521
-1.6365767591669023
12.74425037063298
33.60214230834258
10.705828554715131
8.37704355896898
24.340018480794107
15.565404898291447
0.7918668751076199
-12.333163722578357
-6.005566598593078
15.255262085684974
16.28358327332471
10.028580083625704
16.329677695896955
11.197433942968997
1.5897709448764739
-6.6698808465691934
-12.663304893937587
-4.956651622879758
-8.623800223459975
-11.15249650201144
-3.0088637737681365
-4.76343875454991
-14.370210684584992
-13.105524035714081
1.74125748476527
-5.049441192319115
-16.706001564214457
0.9524151998443268
20.52475281437053
13.902143820531702
5.216047738814516
20.972556155993598
37.56866642502234
48.26814193146707
55.46683705792507
53.95250809159481
62.974262224602576
79.82676309704057
77.00093664414284
56.970687397881434
50.66259362464226
57.414389362983194
52.40817910485414
44.277935609701935
52.28283412296269
58.80517146385934
46.16137205725425
42.300245067093975
61.648135427638394
58.066642678344365
29.50252238435598
38.97411320191389
64.83800482699016
38.20979633209645
5.322288761180207
36.30645054050865
52.042811776788525
4.701399173785688
-4.862197520824206
24.798115224132605
35.71001242305467
37.09073729690155
30.731037275487726
42.90592417472292
64.37209967608791
62.5499380629022
54.780275989176076
36.64319209723754
20.33386743057509
21.43930855923296
12.843762433381183
-10.011069726790213
-12.4674191714162
14.941715753116382
25.25209933893791
-0.9252537593421487
-21.745486585057318
-5.055042634737787
8.353774179741066
-19.467348909542324
-41.925084822257254
-33.97271198699478
-19.02777720346549
-19.498506044186826
-52.25553061813415
-63.07269458843659
-23.37920688876697
-20.006424974654983
-49.15187358203805
-50.64669347327259
-47.63490444892664
-31.055432769705355
-18.84876392804161
-31.252339947469462
-15.228448681856294
-8.43261137241694
-21.159386344423254
-1.704335874139162
-7.685001317183754
-40.785735045845264
-42.06355791583785
-34.32876838854692
-38.10009779773
-50.9053799235404
-57.248347576258155
-52.48805055289454
-59.08342938709677
-57.70745026635821
-52.61866944898614
-70.90840699543483
-79.24549114078533
-81.80341298106293
-101.0885780375392
-115.93761922796043
-117.42059470068106
-108.03563368518662
-110.55930824616341
-109.06384046607924
-88.88571056992254
-100.02672370409748
-114.34605420386639
-102.19042354812771
-105.0040448767237
-113.53390162335793
-103.96070030143571
-96.0337789014082
-107.0545405456316
-95.20171445759755
-52.88875851427196
-55.78641503098421
-86.29863214468028
-74.83673622519291
-59.019583460570665
-69.36992961775331
-79.51447550946763
-93.55291460104019
-104.6836465287702
-97.20962004562857
-90.48698911810803
-87.71540505028518
-70.69365236025813
-54.371847381039
-61.90308830329663
-63.56094675501578
-60.29378029418887
-78.48011580891445
-85.67799195063085
-84.98651917217597
-82.73221064454934
-61.888697437429585
-56.87989867953867
-66.00574325776921
-58.107998159617836
-61.43617960182421
-78.85667707245915
-51.28851353153532
-14.306826028749029
-41.443122521422964
-47.375840217744894
6.200176331748266
13.524946742944854
-1.7010591980864587
17.7358114537177
27.63350209784827
31.215556628585883
47.03187493867121
67.29441862069547
58.723600056282265
25.914269497172192
31.127531565794317
49.89293496660466
64.37231340161783
90.50196158316932
129.76890419612093
162.71419940402603
150.46106353599998
161.97931174148368
201.08369500640072
209.09928123294802
206.8917993919737
191.27161785454643
177.69832712801025
171.70077627264527
173.11566691376547
185.5592016590662
169.9860915070233
145.2784814667143
166.31534017708788
194.53566343488416
179.34378759271897
182.0045972417731
198.52352811993845
174.9178266566218
158.26361072695713
166.02703479660445
166.08172024461604
155.43599954979393
152.67802860260528
140.46428580119593
118.23213311446408
121.19681293600195
118.89090731326922
92.74021455267203
82.79215155925988
101.003903365527
93.4864148840931
51.91069644145168
29.89102255012622
23.343891451079802
12.558724743583522
-14.727077375030909
-39.99759962472312
-32.959242140142464
-13.539548483664376
0.06540666723738936
-6.713269857321035
-25.387833668079598
-27.88407840834487
-22.887121100590836
-48.21705417174018
-104.6541678314042
-148.85075052965152
-205.81618383009274
-279.020708886582
-296.4766932132007
-273.2877403549975
-256.0796874449753
-273.50527001069037
-321.6372922201882
-342.57829185286187
-358.6290191485725
-366.08590144282084
-310.77658926891485
-264.42539069513356
-273.9485922268444
-289.9993998183592
-290.4825742926709
-283.11346841254544
-275.80143005721703
-266.00441770356394
-251.75598689419127
-233.89584195058532
-215.36306002101
-207.7109200630666
-187.92699886945599
-144.21663252256556
-145.41653512464603
-173.92182537532938
-164.87578102130212
-129.29775273231436
-45.05924805401181
54.776772157043965
107.91565311079644
137.91224570879447
181.28971508728594
233.2438379538021
302.2711881661117
359.9941764766435
266.51837326896083
126.8472395038767
139.9618231891304
194.5729007219761
189.78103585786863
155.98881155105096
134.88168256807097
130.9090316614631
125.6423429465127
146.4742170937369
161.74659615657208
127.13764032691941
85.06349677659644
85.44142935628746
97.59536336535679
56.41921837811872
-1.48856211896955
-26.802517594365558
-45.22389410040686
-38.27435723785198
6.137361928401583
7.316862798091047
-57.65367823509695
-79.43407144232638
-15.423654400190603
55.91175539426631
91.43980231157164
51.75126841654942
-12.897750307045134
41.962323312639526
122.47178104557041
91.72082896548179
60.192522841351284
113.33543332568829
185.8584738843652
203.99234352887143
172.470560698328
145.07898883847642
138.12392383421016
132.62003566087668
119.84934962275149
112.19804842101847
116.34093918057147
95.40904365456474
33.095207653266435
-20.68682769066945
-33.59339086554465
-9.502908821099645
7.118936226502693
-32.065278561667455
-90.74083732899041
-116.3027681608518
-95.58064580504983
-51.48177002176924
-40.667575935258746
-81.33962656708887
-129.2116085829763
-135.74899296717496
-111.75472385423448
-108.18846945512229
-127.4622199128161
-143.41409537541918
-138.71225012264904
-95.79262532604149
-51.69858906539515
-33.69061621577315
-9.861827074946245
27.575052894653325
62.51928332105884
68.49942734790558
58.66649913720395
57.955273794589296
66.86714302205283
97.88613695160889
104.8633693434612
75.3108328887099
99.2563627145968
180.12707033962582
164.2256070763149
22.31924512118507
-66.49985482769858
-67.68839500318106
-82.73233624009524
-126.20545614861327
-169.29883779717835
-188.8438633345779
-168.549659573173
-138.89110553196556
-123.25821907689149
-101.74461711200702
-89.27365297887988
-93.69387576894164
-109.63554636380204
-132.9564982346965
-138.56973680916406
-137.51225820165692
-118.86204389929773
-87.48047792270587
-106.00937181165543
-127.57668574886353
-73.13741501715582
20.637120008854872
67.18166223447858
55.45532414927285
42.4427451840962
24.442603778852448
-3.3484611161288282
-1.5034360496054286
39.329659916961454
70.16947673851676
62.02590525204749
56.12471031431507
70.0288768839398
101.68711778698157
137.81333881125954
121.47522435066416
42.17302725973515
-13.206376979127706
-0.017693736646071646
30.443648104891206
21.779060963214274
-27.974841476454543
-57.93293742709411
-63.86207255564828
-80.21825938418252
-87.60286367504209
-88.13893544230825
-90.19398332637456
-79.25243422726162
-82.12119271090886
-110.29814786664546
-108.86275984546296
-51.532567973440145
32.86990853408438
82.83676880630493
35.60945375893909
-20.036813981919817
29.151787143571454
80.34920364520467
67.97891877082786
62.014861822950046
71.39056628802972
70.61198782917457
57.367502711011724
63.63805832501548
87.6105408080796
99.32196605563888
97.79430950857802
74.59131895943398
51.495639069985096
44.152887988950305
35.397264103029954
33.096109258445374
34.2355002343661
22.17858922461308
17.49412309051212
44.28929776498906
78.6536991598351
93.46143335411298
96.15491792766798
104.85874069596844
116.47381001311217
121.40447484186984
128.1164438107183
114.93742324371931
71.79906066782488
41.953395422414324
51.514442067932265
99.34185456125677
146.0717239246299
162.53914923765987
185.2061677593697
187.69957879579394
119.04815961971414
58.99308811716593
60.65395660133841
63.20906287768861
41.33055450270503
14.989362405670375
-6.423823728117831
-21.845973819088655
-24.477860671785074
-22.372538144472554
-41.67829421505948
-66.30158393778083
-68.92744138011086
-61.3907981591978
-61.05089903461472
-80.13780797782513
-108.15757927022885
-108.26181836090466
-67.80910126931214
-32.5840105394034
-56.48753250945587
-103.00645374540761
-112.86234318259912
-97.48996100203628
-74.68839965776942
-52.98070420365985
-41.091793964812595
-34.10238046236438
-46.637703641725615
-88.71549360755286
-147.763055710326
-184.82492121680835
-134.152359917988
-42.64589429365805
-30.663025011006013
-122.21094072507239
-250.81632500300316
-298.0374628126212
-261.6676853423143
-230.46295666687496
-196.88015130429056
-205.14515870056962
-264.22163403380733
-257.9147577340245
-184.74002798497196
-119.6240162779203
-119.22480517178589
-140.1837169384444
-88.23880473660333
-1.1935217367553386
63.128459041530775
106.21696554613496
150.7632162444986
178.4339323327687
155.722133586458
129.6395686192289
125.81521220196596
131.63896338338432
140.20452257937634
113.3090726729066
58.13617669853037
48.46731329330641
93.81496034952923
115.93326338358315
71.0498883521434
32.920130414918304
60.53423450146329
69.12538666454823
30.035041744577963
15.541807368240447
20.67183066096835
20.67227849259059
20.99846743559081
27.822362637346007
31.217606657943787
12.40948780908028
-6.983302044478223
-16.827788050828083
-27.20775440208155
-19.323594169057536
9.398261792266531
9.29608301745765
-34.4532447361653
-72.21838517669691
-62.33685933282704
-11.344029345802488
-2.359351379239867
