AAD_Filtered_TADAS_FILE
AAD_BASELINE_CORRECTION: BASELINE REMOVED
AAD_FILTER_TYPE: BUTTERWORTH
AAD_FILTER_ORDER: 1
AAD_LOW_CUT_FREQUENCY_HZ: 0.025
AAD_HIGH_CUT_FREQUENCY_HZ: 40.0
EVENT_NAME: 202302060117
EVENT_ID: 13194
EVENT_DATE_YYYYMMDD: 2023/02/06
EVENT_TIME_HHMMSS: 01:17:32.00000
EVENT_LATITUDE_DEGREE: 37.288
EVENT_LONGITUDE_DEGREE: 37.043
EVENT_DEPTH_KM: 8.6
HYPOCENTER_REFERENCE: AFAD
MAGNITUDE_W: 7.7
MAGNITUDE_W_REFERENCE: AFAD
MAGNITUDE_L: 
MAGNITUDE_L_REFERENCE: 
FOCAL_MECHANISM: 
NETWORK: TK
STATION_CODE: 2718
STATION_NAME: 
STATION_LATITUDE_DEGREE: 37.00777
STATION_LONGITUDE_DEGREE: 36.6266
STATION_ELEVATION_M: 527.0
LOCATION: Kahramanmaras_Pazarck_Turkiye
SENSOR_DEPTH_M: 
VS30_M/S: None
SITE_CLASSIFICATION_EC8: unknown
MORPHOLOGIC_CLASSIFICATION: 
EPICENTRAL_DISTANCE_KM: 48.30
EARTHQUAKE_BACKAZIMUTH_DEGREE: 
DATE_TIME_FIRST_SAMPLE_YYYYMMDD_HHMMSS: 2023/02/06 01:17:10.4534030
DATE_TIME_FIRST_SAMPLE_PRECISION: millisecond
SAMPLING_INTERVAL_S: 0.01
NDATA: 10501
DURATION_S: 
STREAM: HNZ
UNITS: cm/s^2
INSTRUMENT: sensor = GMS+/GEOSIG | digitizer = 
INSTRUMENT_ANALOG/DIGITAL: 
INSTRUMENTAL_FREQUENCY_HZ: 
INSTRUMENTAL_DAMPING: 
FULL_SCALE_G: 
N_BIT_DIGITAL_CONVERTER: 
PGA_CM/S^2: 585.788
TIME_PGA_S: 
BASELINE_CORRECTION: BASELINE REMOVED
FILTER_TYPE: BUTTERWORTH
FILTER_ORDER: 
LOW_CUT_FREQUENCY_HZ: 
HIGH_CUT_FREQUENCY_HZ: 
LATE/NORMAL_TRIGGERED: 
DATABASE_VERSION: 
HEADER_FORMAT: DYNA 1.2
DATA_TYPE: Acceleration
PROCESSING: Automatic Paolucci et al., 2011
DATA_TIMESTAMP_YYYYMMDD_HHMMSS: 
DATA_LICENSE: U (unknown license)
DATA_CITATION: Turkish Accelerometric Archive v 1.0 - Disaster And Emergency Management Presidency, Earthquake Department
DATA_CREATOR: AFAD
ORIGINAL_DATA_MEDIATOR_CITATION: : AFAD - Disaster And Emergency Management Presidency
ORIGINAL_DATA_MEDIATOR: AFAD PROCESS SERVICE
ORIGINAL_DATA_CREATOR_CITATION: AFAD PROCESS SERVICE
ORIGINAL_DATA_CREATOR: network: TK
USER1: GuestUser
USER2: 
USER3: 
USER4: 
[...]
52.40382612991149
42.442780314885766
32.83391313509915
20.812929113223415
14.059830311588641
12.706734708502394
2.326729343772472
-7.476374794889742
-15.082801095952176
-23.849812183257818
-20.214493153840895
-10.545456759600683
-8.331562098303067
-7.570016768793697
-1.3428188189813726
0.04261747313059759
-11.010325532318827
-19.24185535545595
-21.33420808630309
-31.744879811692098
-40.33950585957369
-47.22116728297278
-58.77423463430642
-55.85985411648364
-50.0755459788961
-56.88311801012177
-52.53910452373734
-36.98582484960158
-32.635133455422356
-35.893761185538736
-43.765487344740166
-46.76446674543354
-37.3920580428966
-36.22334958492237
-44.445386194759585
-51.7511213313024
-54.32735132357543
-54.7602461755825
-53.20257384275979
-40.77409877001134
-18.78280561222156
-12.038903640979186
-33.36733217463322
-40.4799097630837
-33.00638826012989
-31.6446063278796
-20.097713274629214
-8.399071757492525
-1.8161622936271602
-3.5800831038252476
-0.18425445227650503
22.576801255007286
43.3899522173187
65.45823964044932
78.28613123587833
59.19012830667173
26.10448886130627
12.56009896437783
14.64007721214533
14.217332255923564
15.798955565921327
4.190578145796245
-7.622694888348528
-2.097569200753013
11.227797256986342
28.563899504214053
36.00072762397959
49.61361270535047
65.38192546556675
49.50187996080693
20.255263812522646
5.022271540998991
-5.101572985303965
-9.418111038403614
-16.80382785904122
-41.827153870863306
-53.918192952944466
-64.54651970444245
-74.5891612651924
-40.53525207496999
0.7765000434443668
21.542139829842572
31.225121176567676
22.388791204972026
15.432774230958755
30.1553471617143
40.88760141035975
15.457519934294154
-0.6367126284221379
-1.3151813949269837
-22.552581565718985
-29.571910324759497
-28.072825531966355
-19.215639812100672
-16.235445467581776
-6.509352671061985
45.5483887701675
43.57361969437416
14.657430249707872
32.793903649554075
41.97347606095609
50.7651058187723
48.710873530001436
5.276921904192414
-36.141263351538555
-36.31789091384226
-8.432123882380264
-14.57268370523814
-31.257561719333363
-7.448032297299224
8.990280736337063
9.094044016363817
17.305206591492524
24.52952700388813
12.259891719706637
11.577598950555323
33.93017675777292
17.941468097353095
3.569197331311555
5.993133794358337
-25.65457361853411
-25.511148194744592
12.993611404972905
20.35449368407627
26.26408518015068
36.503098905986114
18.68257603299653
-6.159780261777693
-23.184291323156156
-14.969237227797162
2.3975101194458848
-14.790148983511282
-37.185209978589086
-36.96658349625209
-47.36685214349352
-38.445901032868996
5.153540944968045
5.092594444131851
-12.43561586470321
-0.690740626986986
30.016580948568087
41.524979674937626
-0.5538978144893427
-10.908101176961019
3.1869767161094025
2.917469107625739
15.51806325941512
9.229966533249552
12.002968735158792
-0.4769720977591412
-30.075129744911557
-20.925567328125503
-39.97728278666001
-57.56376695265503
-17.955574307785614
10.203873852170885
8.458175862355041
5.063314872137268
-9.638670088651466
-18.624103726924318
-10.503313272978094
-11.429494282997531
7.652210115855736
31.36834391286433
24.167691540165084
16.958562193717693
20.609350628819396
13.988180659180129
10.546900548160055
47.67476667217746
56.98953090718926
26.01218983038734
32.365587809831
30.214340660187812
24.574929262771715
36.55544241821288
22.95445308479567
22.17773481952311
22.049517779437075
-2.849664515185153
-5.0267441568767195
16.855293236388555
29.96265565861689
44.606258598409674
51.58482486537339
40.53185645456126
53.49802387494894
38.58051808007769
-0.5075263560344153
-19.247163724522203
-48.18821094714827
-31.820879894931885
-6.863795735851551
-22.62078363357103
-31.55581541350398
-10.210683052920782
33.527331854436255
7.528961455515769
-28.857861593233626
6.542804815722422
11.25416353517794
-14.859075952227629
-24.63503441376598
-29.57182802829072
-26.326984333961665
-22.42658023747228
-24.68237586398841
-29.37729866662565
-22.49279335126527
24.35514590560109
51.82174014611058
10.284409962495872
-3.8826173136366973
4.601275338710916
-26.861745991251883
-35.19636495010002
-25.753540237942467
-38.68126541199623
-42.302331587910885
-49.98337284740063
-58.379510332371666
-25.600252748067984
-15.108517803393914
-49.24875249745448
-41.80311257249921
-29.09734311339591
-34.30530466488047
-17.556041082770047
-21.03825995125982
-27.61395548537082
-4.207041570392703
34.19236860444161
61.00074701299344
57.36117037694891
53.40022835981037
65.47497336653535
54.051521801319794
8.066035943788268
22.191343652738674
60.06751033258986
24.176791730269194
11.256009156547554
33.74616015147061
27.804035080964024
23.33967210050506
20.569079771482794
10.428685411322475
-7.3767653842510414
-17.751867381184912
-7.316060525191504
-20.137445353753293
-37.56099943595777
-24.388287578290473
-34.37918860689425
-90.48692696321149
-123.12165635818876
-107.57231549436584
-95.91167284419987
-65.2389337542168
-10.444825808264095
26.842442137725488
38.73811437638194
36.49346025605438
39.04558276293664
52.465299818318286
66.37867098881064
16.136445045947305
-24.959997185745678
-0.21908463068595282
9.908210485686832
40.45802346526683
98.77962958584465
150.34295708682694
145.07051435217005
99.83122208209967
97.72749744070424
101.57210018613723
61.660951338736886
-10.352692268051614
-58.139165013387334
-99.00327785738833
-122.82092119277627
-105.08824997031387
-112.1193368287716
-101.3489973662122
-61.02363300319526
-6.794756192161326
37.36411175043937
15.292917481209976
-10.489657827690872
-22.703843132869835
-6.042185643321053
25.247165021619523
-7.84523492423717
-30.225254196833333
-3.3689594505071265
-19.084911141948268
-51.773945874926405
-15.41734730039574
-11.373030720850535
-54.69796101156008
-30.0635110246256
-43.67853617276537
-84.22245999921138
-86.84189547680516
-117.94612292245732
-107.75499539316002
-83.49298404365835
-87.05303685307858
-87.0896874977942
-93.70510676950127
-62.00611864309206
-17.147992052762824
-4.817844586695906
10.099272653232843
71.48215382634305
92.49766730227195
39.02464762219985
31.551275857650932
32.11281955897201
29.705575294704776
56.30066966565357
58.57507202730494
26.14088730372607
-20.14384887995762
-22.01818886072937
-4.064681105785006
2.7992854122928303
11.759791049643828
51.679383653479356
97.14308197934328
70.79174237963511
85.03637097993271
132.5987807990373
87.34581936241902
18.709823533557334
-20.21433492898626
-62.29115999787594
-105.57483547228898
-98.74979636753214
-55.48808674198585
-63.7616093019954
-114.77816424099142
-139.08449451045806
-122.45236947392688
-77.40216072160317
-69.15737819974224
-84.57239754741899
-54.18179394623606
-11.57648944799729
28.492852140359968
52.88491348113013
64.64846427540269
38.73734269104619
-18.678363519802105
1.7652429006759949
18.103353048520827
3.8550611604645058
65.60033704223419
95.80490933432424
61.02021028879997
51.618944210229664
36.83997109754446
2.1562442601581617
-29.946211247018194
-81.56987403592042
-161.93332003465073
-211.6918634398712
-196.32077648472438
-148.23053747039873
-105.75721802391358
-104.1175576402465
-107.61443706150379
-62.92845019515067
-5.571414420171196
-33.79606577869522
-86.2508903158849
-26.709737685878554
14.952965791008427
-23.828569291561806
-34.79516740118918
-34.38193787397111
-60.767019232836944
-91.11790673060808
-68.90751565097062
-31.129771394568248
-20.440021592599606
16.48321431397136
24.49627175028961
-5.274000337995195
-7.026109042439644
-3.5865829159136977
-11.843413917071631
-51.85830787652507
-84.33575723826954
-84.55179404991013
-94.29043543875936
-89.57474902482811
-97.04117891228877
-132.6326135677139
-101.3077864009575
-18.268541971245433
-39.44993047913816
-134.34361721385832
-139.85724356975896
-76.04011690125233
-22.53008137168698
-19.33409517306446
-69.04549961613138
-110.59009963038854
-99.48192662241792
-86.16291065166196
-134.19481705117994
-150.4038697206981
-87.01977758838463
-51.11335177748838
-74.63191350435152
-86.46308271668974
-55.4834581409393
-40.107398783806076
-61.02979206463352
-80.05112659582105
-77.53805792513064
-85.06167140663794
-110.50829328231836
-52.26181791537578
30.632278960343626
41.979415986424925
83.68065786760411
49.81543372294342
-107.09055096284264
-170.7749478172523
-156.9723708646658
-139.14875784079834
-78.87020221928034
-5.625157188415457
27.760152095374902
35.96229702658083
93.87447612344879
272.72873864271526
420.60506325112266
379.3805922908783
305.0653457482691
199.56828160990503
140.3605337321691
214.7040620168589
147.63867446078032
11.343772913422063
-30.73774424514922
-66.71785909759578
-82.78269498554202
-8.841311422458967
109.71144461555699
142.43652994338532
94.77736613163819
59.94525053235884
82.99901408224726
117.14245826452006
103.96206382937866
73.1678397070775
83.86203167710111
102.65714129329682
30.441795640225397
-57.36512072033559
-49.3879538344036
-13.31027011215426
4.356487301522023
31.936310690829806
34.612365425378435
-36.10463684438214
-114.52272540075123
-91.32999461801137
39.72161034860822
214.27259286940284
327.7896203623781
282.0892642219501
138.89725018015702
107.77417004335874
198.03252628946854
198.38135536717698
89.96319859242243
-3.7785491279177754
28.217715297545965
124.65800449849512
140.96528022699272
106.53449415672317
30.331418072281853
23.461452934101104
124.80333440278127
158.12370962367052
148.04956192166443
137.96379466532292
77.3288659114029
45.6013112410054
63.64949534332424
22.85472369222768
29.00175007937184
137.83699214435944
173.53734185450705
187.77662644506918
235.51185561567732
219.81045678071624
231.73993228401824
339.3449984337256
377.7712339005228
359.66748374682055
382.1443823704796
349.0337245540532
317.82689373039375
266.48448943692074
155.5984564186741
121.50985857873484
24.84487442185584
-77.0173691860491
-63.43559383062052
-127.27549471830709
-135.956348685151
-81.84207435925349
-140.17874894875143
-139.37542220451982
-96.98103178034856
-164.0910010032315
-275.3529551985686
-322.9162034158854
-227.33871339900705
-46.053943847594496
75.57419591930532
100.43857378381536
69.1652382822279
105.51020627717593
166.6387913227271
88.64985228312462
22.122202787704776
6.822014964385744
2.360805357065729
-47.186142902128886
-210.5582908711957
-172.88190916450517
-41.487987682838764
-73.75452369127858
-82.41248807799927
-20.416569268832465
-4.675895152213642
-126.9827309006787
-200.7864381827977
-138.1404554092801
-108.28740819857975
-138.15723231616894
-169.62404269821795
-115.09951430385178
-50.55857712071165
32.238630252492996
119.83925049716821
-3.9336369554525374
-117.96557397161654
-63.98440567195723
-50.569705276627914
-67.49754849813023
-78.16018532134791
-87.41600671827139
12.283867330658603
254.94614436629183
364.5841097139433
248.231416723466
235.78122175386832
233.45830903042275
115.74814926716444
51.45987529765658
-76.5498028637053
-277.006623863029
-385.43271045426695
-365.5684974956703
-336.7414336584241
-361.35110262797065
-291.3953408270734
-173.30842385691523
-123.34995508320954
-107.07954349733828
-84.71331487328922
-34.7402558514914
-10.739588314857993
-15.513220987627152
-44.898273314364204
-116.71986220409285
-56.473181989884296
88.82289090150152
37.87348162878758
-30.805571735669854
64.39535890077386
115.08107655542221
96.82175616814128
130.4242966881093
171.48768231232472
126.5259546333563
54.75914907726311
66.53892119887209
97.28016914451213
118.36845294509901
216.7952156542619
302.5132705150473
331.83225591879983
273.95357151923935
147.8242419466735
283.73037298657596
419.81753465755014
229.5940443763899
119.29045232984893
181.97802581656217
261.7191044549546
289.3343117697025
266.23191093726757
275.10878102389415
238.32705957077016
145.36714180783915
23.774621752108345
-79.03245013096944
-76.38527693315798
-34.20280518056611
24.43216023303613
174.93743186450848
281.545606582148
157.318326477691
-27.29679604638882
-76.196721259448
-41.95507895013149
-28.625366801728703
-45.371751160030136
-9.934012737722744
33.46839509441486
5.919936849566818
-52.64931720963934
-121.97438908635473
-192.1632024447469
-237.42327165119573
-246.2732889529392
-201.33570500472212
-136.33010491279057
-112.45760101449657
-136.0211527502009
-126.74694367274135
-51.00121838077496
-75.0771803927291
-233.2041553896209
-349.9857613225606
-329.34908800427246
-192.54202057244925
-82.84822182432477
-66.26790939078292
-113.3099867600244
-202.39649925551097
-195.87893955973968
-53.34064192232691
44.101170263967546
9.604359674462328
-26.312990285787283
-0.9091632691448657
-21.09947373053609
-59.86830560241105
2.3745297088878954
81.16766486098786
114.78032579462854
140.73733731471538
111.79320363941824
144.83628630898087
329.2938376845016
545.7345217413297
597.9326403790865
368.47973769200615
217.85247992730197
211.9088905291969
66.56604487856082
10.462335321435908
53.98847471486078
-1.9433525404823269
-20.397048587104848
33.56124194886279
55.27796429985398
-12.36969819400847
-93.96847371839077
-70.20505662440978
-52.484970526260724
-158.97930763694103
-278.86339169083783
-277.21025802341313
-193.96588136220953
-175.0319931607712
-205.1658558125676
-203.97526974699383
-236.6610291670087
-304.3810146606928
-288.4434659637007
-182.76680659349879
-74.42597228506914
-15.832821036923535
18.72331076424532
50.25785316631687
22.030915639637488
-9.95978422848744
54.82393891657398
162.12808182887264
169.23588110180327
44.43759743008679
-6.646161273286183
83.86648928083973
95.25977580741046
6.214905111393616
-15.707581762644864
18.002485096352096
43.15301021629495
97.1250446235799
172.7744405531768
202.08030363479415
191.76117448236968
148.09299373237207
61.46880847145299
-15.492939899726558
-35.930125964693644
-3.863438524525393
-0.4285910734047561
-13.11101083551537
-31.819441707016455
-113.96399384896242
-123.98669222176599
-71.14738991360908
-91.27391060439442
-105.57611505210092
-43.00307268531761
-3.596947530959957
-91.97735436246101
-170.70283034877255
-181.26819650335628
-239.35666097693667
-268.11056806138237
-206.88366041177906
-135.4601856084187
-107.38365334205109
-99.47160373961722
-60.97101767858339
-12.172381460324576
12.92789900330875
-1.1133043737128816
-62.2638367193552
-104.8620728112698
-16.961926315409034
135.1744524501729
116.80657217126961
25.627706184630185
47.68213993578386
32.89068031709387
-11.762365436041451
6.991231125615205
18.71627263978034
-6.468208788614187
13.344902758111536
67.33192954261783
3.7792199716408152
-20.83871796926195
86.16913904927911
84.87503559493456
19.177738515816866
53.20146442240433
80.09230448350179
40.199716480574054
21.963572250853872
-26.479701641619634
-144.03252074574374
-186.82123684176904
-116.4852982411673
-71.06382399113315
-56.348156430764575
-39.54440672246097
-15.673442065227444
49.10902351322454
7.550678436939135
-73.34630013994442
-27.987732222423272
15.453761312824323
20.150566998836705
-7.379643442442641
-10.89114373192557
4.965380875599598
-62.275244594974566
-68.229066492203
-30.599394670968024
-80.01048075964233
-102.09187161000649
-45.98580102474692
-8.913314660548515
-31.88990851868058
-41.039456270525555
-5.252667416395291
-1.4434848610838404
-4.100962137248585
76.77302454387387
91.84603729162153
-21.808860813027216
-39.92241248732847
50.97885082885821
94.1404448816282
67.29031178829977
-13.43207497649387
-59.22113918399576
-20.175257350531865
-46.98013909329935
-68.63940554553996
12.34933936298202
27.980663964649732
-28.226862919696142
-90.03453962434916
-114.40251682215867
-45.52059876639507
82.36614086259296
145.82456488150507
90.08103868642168
76.42599110009972
96.65356134086059
45.376534309195
19.44348584707747
22.176460633313816
-31.93611457842414
-101.84930535697124
-98.09099612509594
-49.17019547064033
-18.026604672827922
-6.176133068676583
4.455772972200618
30.091203025056195
50.20071807023414
72.10850437419846
103.9847977913013
133.43262591374958
157.08131760589947
92.91956519435652
-53.08082104940603
-112.78503343724721
-102.16988935131515
-119.43272656988843
-101.46328646695082
-82.8957750112008
-85.12866555184503
-33.21633695034552
6.220518929689303
38.16174810597711
69.37646061830638
32.89946139602142
-2.167207214266549
-50.87783322093815
-100.25065875375131
-58.10121728529209
-18.443346105427917
-62.00227830542554
-64.24209703402488
66.12156986187114
94.55505803270343
-11.811866793573751
1.2992408675973908
41.607548207556135
43.87135610239508
70.62656889139305
39.47904056141461
-17.04030501339585
-9.343480356209552
23.746432795479897
1.6222417355726606
-27.458128338452084
38.43558238844057
115.87620889748769
68.4433175683318
-5.946588540032054
-8.60123882848003
-16.955111998140275
-28.794460139081977
-51.2269086748008
-78.93213477433684
-43.3891841565262
-22.12629465383034
-55.955383156703626
-86.55662568888421
-61.39142179834774
1.8999664541983228
-1.1850163501861102
-63.654450902593865
-121.45820910833534
-163.63053701444173
-184.55419098177404
-198.89042686469446
-197.56203863014773
-145.54899571221802
-88.81747686779532
-90.0365454115866
-101.75517635619696
-50.41462634664799
57.04763528191462
139.1133430511497
152.70603666764194
152.6242690849982
159.78546636879668
131.34037127062638
91.8647506301424
115.19905245562404
163.11873433809794
115.64279950267904
24.5143377426327
15.544205080867663
13.290045780754703
-40.98196154406997
-75.24753294589813
-20.51211118914797
66.32510159434116
39.36663166195695
-3.4208432237374073
-6.800791133111703
-55.41832811023323
-29.18909852780397
37.88791149439913
27.91216061906143
15.515325374160497
-4.706213258180523
-36.55135169127529
1.422994217599307
51.628842319081066
37.141469286853294
21.323416913079456
37.098080629865095
72.09476351472078
28.149956857628272
-90.88106222913669
-77.31080525737791
-59.249659704940235
-97.05935562502862
-38.68965607564432
-1.2753377522539968
61.45076883028872
124.13494736586775
85.85721300975513
107.27990478530963
135.30952323006733
107.60297807557112
114.23555144098415
102.21527487569467
30.109807739267794
11.006185571461108
84.13667782425928
77.6713111285069
1.89294611925599
24.57634099191588
42.079050031229336
30.895434106664737
18.18193824568299
-73.21217306408182
-38.928413613148145
61.17667791679625
-27.967290206703154
