AAD_Filtered_TADAS_FILE
AAD_BASELINE_CORRECTION: BASELINE REMOVED
AAD_FILTER_TYPE: BUTTERWORTH
AAD_FILTER_ORDER: 1
AAD_LOW_CUT_FREQUENCY_HZ: 0.025
AAD_HIGH_CUT_FREQUENCY_HZ: 40.0
EVENT_NAME: 202302061024
EVENT_ID: 13207
EVENT_DATE_YYYYMMDD: 2023/02/06
EVENT_TIME_HHMMSS: 10:24:47.00000
EVENT_LATITUDE_DEGREE: 38.089
EVENT_LONGITUDE_DEGREE: 37.239
EVENT_DEPTH_KM: 7.0
HYPOCENTER_REFERENCE: AFAD
MAGNITUDE_W: 7.6
MAGNITUDE_W_REFERENCE: AFAD
MAGNITUDE_L: 
MAGNITUDE_L_REFERENCE: 
FOCAL_MECHANISM: 
NETWORK: TK
STATION_CODE: 3146
STATION_NAME: 
STATION_LATITUDE_DEGREE: 36.490758
STATION_LONGITUDE_DEGREE: 36.226952
STATION_ELEVATION_M: 698.0
LOCATION: Kahramanmaras_Elbistan_Turkiye
SENSOR_DEPTH_M: 
VS30_M/S: None
SITE_CLASSIFICATION_EC8: unknown
MORPHOLOGIC_CLASSIFICATION: 
EPICENTRAL_DISTANCE_KM: 198.99
EARTHQUAKE_BACKAZIMUTH_DEGREE: 
DATE_TIME_FIRST_SAMPLE_YYYYMMDD_HHMMSS: 2023/02/06 10:25:01.3098710
DATE_TIME_FIRST_SAMPLE_PRECISION: millisecond
SAMPLING_INTERVAL_S: 0.01
NDATA: 13501
DURATION_S: 
STREAM: HNN
UNITS: cm/s^2
INSTRUMENT: sensor = ACEBOX/SARA | digitizer = 
INSTRUMENT_ANALOG/DIGITAL: 
INSTRUMENTAL_FREQUENCY_HZ: 
INSTRUMENTAL_DAMPING: 
FULL_SCALE_G: 
N_BIT_DIGITAL_CONVERTER: 
PGA_CM/S^2: 17.674
TIME_PGA_S: 
BASELINE_CORRECTION: BASELINE REMOVED
FILTER_TYPE: BUTTERWORTH
FILTER_ORDER: 
LOW_CUT_FREQUENCY_HZ: 
HIGH_CUT_FREQUENCY_HZ: 
LATE/NORMAL_TRIGGERED: 
DATABASE_VERSION: 
HEADER_FORMAT: DYNA 1.2
DATA_TYPE: Acceleration
PROCESSING: Automatic Paolucci et al., 2011
DATA_TIMESTAMP_YYYYMMDD_HHMMSS: 
DATA_LICENSE: U (unknown license)
DATA_CITATION: Turkish Accelerometric Archive v 1.0 - Disaster And Emergency Management Presidency, Earthquake Department
DATA_CREATOR: AFAD
ORIGINAL_DATA_MEDIATOR_CITATION: : AFAD - Disaster And Emergency Management Presidency
ORIGINAL_DATA_MEDIATOR: AFAD PROCESS SERVICE
ORIGINAL_DATA_CREATOR_CITATION: AFAD PROCESS SERVICE
ORIGINAL_DATA_CREATOR: network: TK
USER1: GuestUser
USER2: 
USER3: 
USER4: 
[...]
0.06809061330469907
-0.740867872894706
-1.6162868430081891
-1.4492517343311377
-0.5349364214438941
0.16912943997791793
0.2319738909501449
0.05239164393134892
0.3326333974807725
1.051662131912763
1.4109419954127536
1.2666836146851759
1.2511605178993268
1.3744151913417033
1.1977313735547765
0.6772304062519563
-0.0027800579265123047
-0.5792535949381598
-0.8042391040601437
-0.967252704487873
-1.8976391879554986
-3.5266353808476105
-4.5111735723385085
-4.3006546656016535
-3.5247838511126575
-2.6867967839707663
-2.3638081002355236
-2.9834262058965613
-3.9653354494870983
-4.398817368495153
-3.9593340691696968
-3.028783245266539
-2.248235761789603
-1.8099614723766617
-1.5582370493490116
-1.3958179175361518
-1.1619165617358254
-0.6573740715754388
0.09013036452847106
0.5209727964567501
-0.009907464435909317
-1.0901929710721319
-1.7943572001661523
-1.8829288714161598
-1.5689063982616243
-1.337801763100298
-1.673648186213994
-2.537040824678782
-3.693535336475153
-4.714635756934974
-4.899806741369162
-4.1493083739996655
-3.0703334536276454
-2.0756067727351506
-1.3680456150905125
-1.2364995740649287
-1.4902143077224037
-1.336499253897348
-0.38534613141968
0.7764710797588855
1.5242077580180442
1.8229770195823185
1.8065619047717834
2.0666808452195076
3.06869510751585
4.068257030627326
4.3223412071371055
3.891208436354536
3.273992490959036
3.109616588820311
3.1971221246903063
3.008375089465466
2.688458425897278
2.1568491381215025
1.1231145482635323
-0.062295706560143445
-0.7910888871710383
-0.7460717981073863
-0.22705023990498524
0.16325893494326912
0.6480763373966432
1.7030111481527022
2.537116657662728
2.260702145295216
1.5270534256493244
1.3434994174447275
1.5091335062550728
1.1201253112338627
0.02408924657895839
-0.9762583189419003
-1.2961743108200905
-1.1071369793787265
-0.8525396688388237
-0.6685655197343455
-0.40114754260062807
-0.35032158089252097
-0.9248329173257549
-1.4446710389815434
-1.0966547161315152
-0.3526266458101121
0.0025596780128334597
-0.09854063688650813
-0.14406230458111408
0.5213253902133912
1.7610677298850257
2.7685705500895645
3.2006886007144253
3.0618785903392514
2.6099270249496485
2.4703013043965782
2.6326159600136507
2.6469938575753442
2.609071185617139
2.62411083750676
2.5395266725030434
2.1987872281440133
1.4235784274928371
0.44280615144429114
-0.2632229360722025
-0.6092944389096357
-0.9520819689322317
-1.6210851872225194
-2.3102419057934256
-2.6764425764011834
-2.952953977773967
-3.130169471654017
-3.2077428002840396
-3.677562147561147
-4.408294024949454
-4.809923913172901
-4.897772434078685
-4.784002810907559
-4.358443451071988
-3.802007674470118
-3.316973167439638
-2.6816240027605676
-1.7306169080949707
-0.8446924038803835
-0.43758681095330004
-0.6074277657909857
-1.546304919228822
-2.9778357318063984
-3.76077855224006
-3.5677950326426617
-3.4299933683442663
-3.904767493023715
-4.339177153682175
-3.8954843695823205
-2.484920174604125
-0.7428555523584573
0.66338036435987
1.6639404179642827
2.7178304695172693
3.82533733961954
4.3820267429402495
4.353236728886226
4.22670982422552
4.219312772788146
4.412519020828515
4.684537073287282
4.573721258899467
3.8374920820011065
2.728895419799629
1.5902692162515302
0.5004737990881228
-0.5482620626358896
-1.6855786581733996
-3.2444097282730984
-4.845300697721521
-5.3805675543297795
-4.6006102605962464
-3.447373544513545
-2.8515563980315886
-2.8166165041397684
-2.660887148562908
-2.0282158930348406
-1.0848026624235219
-0.1124304140564256
0.5468261497681782
0.7941539048978071
0.9491766069553268
1.2766838755496868
1.865923529482501
2.8923788005455386
4.255546636474721
5.30723170550021
5.4278280572888935
4.425702124509083
2.7587721690118574
1.3342345036149852
0.2715854962389182
-0.8660659343505408
-1.6666179293500119
-1.7262263720202624
-1.6554961636218948
-1.988917314316483
-2.5436616381818533
-2.8450510871300554
-2.53426641579065
-1.6799006681014348
-0.7818066054301346
-0.5508600484595105
-1.1711738966469472
-1.7367926964024283
-1.3685056730810445
-0.2694583551472809
0.747570711639597
0.9678426397793884
0.3863906437263929
-0.412181356042663
-1.2809657088546307
-2.365923305743483
-3.2706598817785375
-3.6263525854924574
-3.8200760691782008
-4.4043127488064195
-5.333482726128049
-6.038307745184297
-6.128652407484063
-5.652008322161941
-4.527726335501665
-2.6837298858424217
-0.41478512330182127
2.1146333073907355
4.548447596352117
6.20192868803174
7.158149051388658
7.986672221486115
8.740796180497036
8.875490193434816
7.741635230587585
5.674630233705561
3.7863951734215755
2.624502948576167
2.0302739580345897
1.4450366511208013
0.38753293081671897
-0.9540443123836833
-1.970399574135706
-2.1835335709887045
-1.722218587975074
-1.3561556754369968
-1.6064636349425765
-1.7873230525176516
-1.0335209041208353
-0.23059897443363234
-0.6374880797452752
-1.8733335238328606
-3.011463791450621
-3.1573822570790444
-1.6703954021371339
0.5190002486916412
1.9217180593562961
2.354132765252417
2.4862822863978837
2.969202799144707
4.043054443787819
5.1439705988135005
5.586790909388612
5.62557266946341
5.80130893803976
6.004853889340974
6.08461620522495
5.89260967591184
4.876415044161208
3.191764939982429
1.5332656034560066
-0.3356357336657945
-2.7549354317981276
-5.345867784872737
-7.332151169561717
-7.5103530094178215
-5.893116432744031
-4.4558095761722125
-4.300968358615533
-4.60952554361659
-4.330062527915763
-2.7166227634520856
-0.0273919514509318
1.9660749459324205
2.346966779601417
2.2041355828208347
2.3535456736033886
2.667175790226463
3.355402967230958
4.6535236026649125
6.021613514948039
6.805088802201803
6.9590714521393435
6.578589007990892
5.468453293494317
3.6631728546153135
1.728609820068372
0.1343620757187035
-1.0756190346492989
-2.0750188893441117
-3.2112338464491392
-4.3136238037429955
-4.696121317685376
-4.65765416586793
-4.749237355102596
-4.391974156669568
-3.426168960386576
-2.5172990401487314
-1.7664404763908248
-1.2046998833108715
-1.1750274093427808
-1.4617279782958812
-1.430265855290158
-0.7230335912506597
0.34672068209765683
0.8906472405954458
0.4615051226262292
-0.30518948266062745
-0.44643494444101334
0.21826706608011234
1.1007413914107016
1.6250817929561903
1.536394743618796
1.2424418877037442
1.547163327462822
2.5681101528185044
3.813874328074697
4.4450620818649575
3.8019393945272757
2.6483717168915155
2.0018857632428224
1.940408808958098
2.6329529020576676
3.800447573743629
4.513440549568237
4.854358179097128
5.225500301589741
5.141996673915536
4.4406130067901275
3.586907891385998
2.7153444111169325
1.8976040929450142
1.1329050151560005
-0.04262365806985416
-1.5393611547837147
-2.545609981122211
-2.7969080756744567
-2.810087440949764
-3.157177626335316
-3.925103273381062
-4.872918626502687
-5.53179178217531
-5.348328144590548
-4.54898552653667
-3.6677796896971886
-2.7837379882502247
-2.083282908957626
-1.3930548380871295
-0.2800879131145516
0.789844315942073
1.3998179799193882
1.8960847189883896
2.373346974158711
2.604851503064972
2.4388002863301845
1.8387065678928662
1.2865309787936585
1.3410270780019715
1.6705848725661907
1.6549212940378202
1.1888241894710996
0.5855650915311378
0.5606592235599325
1.3546169435122486
1.8829859453780236
1.171959947221756
-0.24468702468539696
-1.467552953572182
-2.411859111180867
-3.1580588900173674
-3.722138179894293
-4.474309513515086
-5.684184044242284
-7.18323689689194
-8.578233883879024
-9.70629989929035
-10.776454082609503
-11.714811194028242
-12.151544792755423
-11.758867716614112
-10.44568042268524
-8.861126544432512
-7.646343515227685
-6.5851585248632984
-5.313826141448796
-3.8286035474597404
-2.5011704478137684
-1.7346608567805946
-1.3297908065853306
-0.8650625011062466
-0.19116391384989803
0.8281512836653538
2.076400451486709
3.2461819817419872
4.550789634746605
5.853221259247475
6.164901404780883
5.209692859649978
3.616151528733559
2.2850495541448486
2.1400647177086563
2.8781292531335043
3.512430181254488
4.159552477634085
5.1756478534454144
6.2184270029632245
7.155405439650938
8.325250422946022
9.830636562909616
11.09569071912768
11.249246361654276
10.181115073379836
8.809209172702746
7.907344015801233
7.220204715974475
6.204713250121962
5.091973197452191
4.400240659444478
3.9619554417415763
3.3042981593510197
2.429815785245467
1.857593595564191
1.940681018661096
2.2706777479782367
2.3866861989021544
2.364708713444089
2.443461343820784
2.978854847916274
3.8094462729404897
4.119210960358817
4.104282096462324
4.535249574861132
4.933126676075981
4.508363826184802
3.333248341445996
1.968846406360435
1.2008803280588665
1.4619550455875256
2.5303405827859966
4.07760369533846
5.446800655009062
5.529747501937779
4.345314951231576
3.6145710378411025
4.26505530341075
5.037772987839181
4.722987887460789
3.686474667561505
2.8295185725623
2.4705140735995683
2.22364083599879
1.7781948265718412
1.3266859070376023
1.1646579872617566
1.6266110602001276
2.8430398530489556
4.328737207122216
5.453724101907666
6.0740226140903
6.477073475906355
6.73429816448979
6.572007452683766
6.092463358882755
5.576119933101031
4.759646445786308
3.2376967165369916
1.0706507123418636
-1.3000000459993317
-3.6374967606493747
-6.021582748035651
-7.975668106010811
-8.841125592077164
-8.928491327925956
-8.553944741035869
-7.426942160942816
-5.883946428784331
-4.686652348556326
-4.079266393782375
-4.056646263189056
-4.4163421547377295
-4.80842612538139
-5.119978754361748
-5.008309312336219
-4.082267890199797
-3.0313537061052505
-2.5740600228872785
-1.9499954163532776
-0.5232596174131801
0.9694514748552967
1.6805415033368114
1.3659048167913053
0.4682977518849105
-0.17269055975379882
-0.566690064515178
-1.4544499174260348
-2.776759767249545
-3.841269063944582
-4.852896656743941
-6.329706787517391
-7.6639728409889765
-8.193418887122665
-7.97018242866103
-7.180442903553319
-6.449649978711422
-6.072930154445008
-5.150420717168021
-3.157372038095093
-0.6708984805157268
1.70177308380779
3.317618478190177
3.347370056915462
1.9211203446725724
0.36188939624163535
0.07260276519213692
1.431566280492995
3.049688042619561
3.155275397270592
1.9938781298484742
1.2425324038190864
1.8858381035011893
3.7985750996717664
6.208708956647552
7.910680387731619
8.089426783418439
7.518737163582213
7.810704854027146
9.178804294234904
10.397242729381702
10.757794831055486
10.566575601637988
10.322582943266648
10.174427752240554
9.616200896503154
8.169728345604655
6.230883108551174
4.366620729197996
2.7480051274612283
1.3777499893735625
0.058672205824324086
-1.4746398766507935
-3.317543969138592
-5.111678804315611
-6.391505203978364
-7.391811910872992
-8.272136491372395
-8.745130586344857
-8.894579551242485
-8.794853961745726
-8.470445276498953
-8.084720169075565
-7.4559912121298
-6.315543104398046
-4.446433236991431
-1.9850484011280418
0.36381891875431366
2.3754955571099434
4.440663725084704
6.69064029531638
8.696698335645076
9.951070653438887
10.711993595448163
11.451006743763244
11.826791873925735
11.334674246671613
10.049603947367816
8.23689751183037
5.96285776930073
3.4939439740852385
1.5976523079490421
0.6233301451733165
-0.00035078846728114183
-1.0197122534201493
-2.7778321946938873
-4.421676446966116
-4.406714611035322
-2.8617366322662035
-1.1501006804535048
0.469729203257618
2.5505215309630986
5.203509329800923
8.01896073867081
10.1219136377028
10.419155509887963
8.765521392497797
6.4260876437152605
4.987272542353767
4.729301858975693
3.9222279783654934
1.3609221910860667
-1.6842448622875692
-3.934751011465896
-5.404283080533496
-6.431254324504492
-7.591442596432267
-9.103835490627363
-10.502486211277011
-11.161931547907683
-10.33563035345745
-7.77684083076166
-4.423338979975033
-1.2556740726522537
1.8580865980108894
5.176513591410237
8.280714627122904
10.790286032637015
12.56996728746092
13.610918245139827
14.080740720047766
13.933823805007874
13.015833990573524
11.439706721633984
9.416734205471208
7.312426905892817
5.379674479042631
3.2533399723194996
0.7795722249630294
-1.6294482790301426
-3.771893223904489
-5.386701091512769
-6.29398553018478
-7.111532090388026
-8.251226087334043
-9.081378221040488
-8.968694337059103
-8.37836195104164
-8.387491289163979
-9.21577947814359
-9.90803814215527
-9.649787055852054
-8.773178834825213
-8.140452177701432
-7.922351661530379
-7.48703737295239
-6.469648233878674
-5.130997949576344
-3.7677340921179567
-2.9272125994967744
-3.042104775073849
-3.3467956087366173
-2.9141100486912093
-1.9002272289671975
-0.9451826548485501
-0.36137436071156714
-0.020622749179138897
0.38049740054771364
1.493618394787215
3.773057467821412
6.477489547292566
8.632794199101074
9.935920788618182
10.602430275777092
11.454081927841582
13.019167085054706
14.855402346854985
16.407790037536444
17.35243372747085
17.434548802039355
16.799854755687242
15.913449018301215
14.848543747848582
13.226925011009232
11.131150259521501
9.220982311047614
7.835342483306455
7.080142852853906
7.168955793032377
7.914637367777873
8.752677741778255
9.158563997373472
8.86643224232159
7.942071273719839
6.6127520277769865
5.3495035753061755
4.63371126988718
4.552216285455593
4.86678407869608
4.973198204280885
4.306130019975031
2.971327039971094
1.6359101861943215
0.7204987849873765
-0.12858606256478886
-1.0785150578779323
-1.5860677014045916
-1.3358405106197178
-0.7568348666680067
-0.592047537901957
-1.116722480450861
-2.328743008622643
-3.787044853960545
-3.8642382570444447
-1.7823817183212582
1.021940205164889
3.0522637420979715
4.029400785100955
4.3893255124582335
4.5810241114827335
4.747072038450358
4.785399865973139
4.442432222343094
3.799353777812501
3.029673695490754
2.095715455216987
1.430911912909639
1.2547209507851265
0.8883120602715577
0.01675429463946455
-0.8455568260839617
-1.2492060664514368
-1.145903163006603
-0.7478041002919846
-0.7296367742096012
-1.5896041412594621
-2.4058593245491267
-1.9217554585903094
-0.41403685045555083
0.7296847470150756
0.5046636492902256
-0.7027575278009931
-1.6881199484145
-1.7028954095609787
-0.6211048856428392
0.664408139151726
0.5929822092133008
-0.834715633565233
-2.132740525613955
-2.5568831131450622
-2.146972371678287
-1.2344237945137453
-0.7508795781123715
-1.1036308371292058
-1.8181731089247273
-2.576463596292824
-2.9717719749756535
-2.983957776496246
-3.234680510975595
-3.2301865623266885
-2.5040918618429777
-2.1659002845338047
-2.4572525984840867
-2.6349740639391106
-2.561806883687474
-1.8401251219795105
-0.7412126573196083
-0.3874686692362678
-0.5789650383769883
-0.7285073314798949
-0.6124680039060975
0.11576871912575318
0.9501278977969692
1.359450194770767
1.5347974274682776
1.4358148227080705
1.3831099293839162
2.4423108470599977
4.708830210494958
6.582440215484577
6.770160682131515
5.5386768730892735
3.995267705224727
3.145472136011776
2.9279147486006125
2.5498318965080093
1.1946157990237944
-0.9698484260328676
-2.2295247063224775
-2.4191781241816708
-3.0604745916068947
-4.103303312048766
-5.081072812613945
-6.0358236710107835
-6.475564857054499
-6.251230713567025
-6.200957060201097
-6.9863389989091855
-7.825087068090944
-7.933028568529186
-7.341761264683465
-5.5445146350353935
-3.425241548823427
-3.1512741915935027
-3.502151027773371
-1.813834248633851
0.8716819897561976
2.6945562645063474
3.9094142585380247
4.418013280486782
4.674409044846559
6.26977106445463
8.509733717945954
9.90747349276522
10.875805566562734
11.520241901826505
11.257443787996388
10.70751305705589
10.254820545609018
9.556949651507447
9.574234550442874
10.231909226794551
10.125731144651377
9.12762794149533
6.477604695127273
3.5024588996326855
3.2045178360056568
3.675555021282434
3.615638353413454
3.89270884884883
2.534787176058581
0.9435862294643819
1.6232093385151225
1.7586973229042928
1.2944903976559416
2.2408051818859933
2.010487082923684
0.6671092364404777
0.4803553240298064
-0.42904613475689796
-1.4174231199953091
-1.0641551467653145
-2.0537109242144633
-3.9299926683890627
-5.647331911177227
-8.180847011411664
-9.903754018681543
-11.093291125142711
-12.762861357186852
-12.857886441012383
-11.900886998350106
-11.298630172565348
-8.619920224316509
-3.471304281466687
-0.05207287833387111
1.0678100346769628
2.5964065558324503
5.258171996929473
10.251662658306147
14.425988480986918
13.780104219515426
13.214269680837104
13.825854408874878
12.137960463514016
10.568535368653876
10.772348714770931
11.34361238318294
7.941749470550965
0.7802300855371056
-0.309146888924471
3.6478117583951906
3.0251520053003254
-1.1934083795567632
-5.1334545248531835
-7.356281021986959
-6.465218587447973
-4.912090110187749
-5.112740406976622
-4.754171072157009
-4.461989582748192
-8.302382624341819
-10.919127448257148
-6.652831986338677
-3.184550955322445
-5.567486430232406
-9.526169678953723
-10.981576496110971
-8.876957723855458
-7.078210341231053
-7.219641052575396
-5.588992881027404
-2.5077484720694634
-0.49490737727007117
-0.6435465146495859
-2.7451879849953102
-2.5913294695676763
2.656745237660992
9.320179446729139
10.612983566093973
4.148183382837852
-2.3303987444803758
0.2482870346313498
8.655818595027444
11.495774565538232
5.1329981644696785
-2.12511141259077
-2.0781878256561974
3.3704764389737285
6.481238685080854
4.461942430106111
0.27375547590950805
-5.190855110724692
-12.638417527442638
-15.861362089515566
-7.239931882646643
3.050957412273634
-0.371267162342062
-9.195120072078206
-10.718163413440688
-9.34282209068042
-8.299837703087913
-5.123347816249337
0.062218356570540485
5.187234155668238
4.32420235013369
-3.466293909935267
-6.131694246560068
2.9326126012036307
12.53595255990893
11.46798573955858
2.612354063775514
-3.0357810668972225
0.8612105756079913
7.529636773335708
10.189239020782438
12.379176333734629
12.740400007061954
7.702563199186151
4.09651838730073
6.867060269058971
12.245635615153276
13.825333933455667
8.494349069621592
1.7351919130144364
0.2340211629853979
2.5478261670288886
2.8279191731234556
0.11682361209441852
-1.6119786767095325
-3.2537452741208672
-6.478025848799035
-7.450739066692114
-6.138340404617244
-4.686155764767871
-2.6196925478708306
-2.337532006160905
-4.106858070255526
-3.947005502154723
-1.6453284154393855
1.273486390155514
3.2081322682095186
1.1862985051997932
-1.8148443499005034
0.3102843367694729
