AAD_Filtered_TADAS_FILE
AAD_BASELINE_CORRECTION: BASELINE REMOVED
AAD_FILTER_TYPE: BUTTERWORTH
AAD_FILTER_ORDER: 1
AAD_LOW_CUT_FREQUENCY_HZ: 0.025
AAD_HIGH_CUT_FREQUENCY_HZ: 40.0
EVENT_NAME: 202302060117
EVENT_ID: 13194
EVENT_DATE_YYYYMMDD: 2023/02/06
EVENT_TIME_HHMMSS: 01:17:32.00000
EVENT_LATITUDE_DEGREE: 37.288
EVENT_LONGITUDE_DEGREE: 37.043
EVENT_DEPTH_KM: 8.6
HYPOCENTER_REFERENCE: AFAD
MAGNITUDE_W: 7.7
MAGNITUDE_W_REFERENCE: AFAD
MAGNITUDE_L: 
MAGNITUDE_L_REFERENCE: 
FOCAL_MECHANISM: 
NETWORK: TK
STATION_CODE: 3123
STATION_NAME: 
STATION_LATITUDE_DEGREE: 36.21423
STATION_LONGITUDE_DEGREE: 36.15973
STATION_ELEVATION_M: 85.0
LOCATION: Kahramanmaras_Pazarck_Turkiye
SENSOR_DEPTH_M: 
VS30_M/S: 470
SITE_CLASSIFICATION_EC8: B
MORPHOLOGIC_CLASSIFICATION: 
EPICENTRAL_DISTANCE_KM: 143.00
EARTHQUAKE_BACKAZIMUTH_DEGREE: 
DATE_TIME_FIRST_SAMPLE_YYYYMMDD_HHMMSS: 2023/02/06 01:17:36.6820400
DATE_TIME_FIRST_SAMPLE_PRECISION: millisecond
SAMPLING_INTERVAL_S: 0.01
NDATA: 12501
DURATION_S: 
STREAM: HNZ
UNITS: cm/s^2
INSTRUMENT: sensor = GMS+/GEOSIG | digitizer = 
INSTRUMENT_ANALOG/DIGITAL: 
INSTRUMENTAL_FREQUENCY_HZ: 
INSTRUMENTAL_DAMPING: 
FULL_SCALE_G: 
N_BIT_DIGITAL_CONVERTER: 
PGA_CM/S^2: 867.576
TIME_PGA_S: 
BASELINE_CORRECTION: BASELINE REMOVED
FILTER_TYPE: BUTTERWORTH
FILTER_ORDER: 
LOW_CUT_FREQUENCY_HZ: 
HIGH_CUT_FREQUENCY_HZ: 
LATE/NORMAL_TRIGGERED: 
DATABASE_VERSION: 
HEADER_FORMAT: DYNA 1.2
DATA_TYPE: Acceleration
PROCESSING: Automatic Paolucci et al., 2011
DATA_TIMESTAMP_YYYYMMDD_HHMMSS: 
DATA_LICENSE: U (unknown license)
DATA_CITATION: Turkish Accelerometric Archive v 1.0 - Disaster And Emergency Management Presidency, Earthquake Department
DATA_CREATOR: AFAD
ORIGINAL_DATA_MEDIATOR_CITATION: : AFAD - Disaster And Emergency Management Presidency
ORIGINAL_DATA_MEDIATOR: AFAD PROCESS SERVICE
ORIGINAL_DATA_CREATOR_CITATION: AFAD PROCESS SERVICE
ORIGINAL_DATA_CREATOR: network: TK
USER1: GuestUser
USER2: 
USER3: 
USER4: 
[...]
29.19569832686772
2.953818035258098
-24.123742935246838
-35.92966125729124
-38.19214847468282
-36.0892144947217
-34.03930528309459
-37.83749423251321
-42.64664178403126
-38.54290407240107
-24.67309364640095
-10.738041724808387
-1.3204413090273577
1.4114444016245768
1.8096141485692612
6.908688895047922
8.736908846039915
7.996853458474426
10.165204466824486
9.65888574429879
7.693846000195335
9.030265475457329
13.488923978151705
12.657635708285692
1.4531316520057276
-12.058780799568408
-20.389750725470766
-18.330506424113306
-10.001759109414172
-5.035812757269742
-9.650510354202897
-23.089950578842345
-27.62559754594267
-25.69978455132551
-36.93581112946687
-50.678495097934764
-53.98488880162925
-50.92296510726316
-47.34095633633079
-45.409341298033894
-36.695225307355216
-22.061917524378416
-14.21342061522537
-16.67410313299685
-23.526933932432996
-24.592549140509384
-18.105954681512017
-11.633421361891788
-8.553850044122136
-7.759666598024408
-9.750308190977528
-12.222571822499361
-12.462957860774452
-14.456723296386755
-16.25790277459801
-16.773761390743815
-20.330474000500566
-23.238961580671532
-21.31711842540222
-19.671753841207043
-28.386695649509875
-38.789817890562944
-37.360949606878734
-29.984580454763545
-19.408129017537494
-10.133772820306186
-6.523238791740128
-0.38094914791282086
5.246949180226507
1.4061057320353214
-8.830633562098535
-17.101954072434392
-18.64841684102087
-15.020488873032773
-9.885372637625268
-5.891759710887621
-2.2846493636823353
-1.05216742671635
-2.98338573179908
-3.1796900437352464
-1.8889450946744075
3.3957015221923608
12.064559821355905
17.097970752393824
15.267141700786736
5.001297018322619
-9.291054882313162
-22.923998501464098
-32.38344207585684
-35.1992564289635
-29.3553586993218
-14.770118223074673
-1.0591491618856315
4.2731150980331805
0.7481331968602809
-4.093905613739999
-1.9896836169380434
3.9021424480830094
8.692664649994711
13.806168512416452
22.91220765145026
29.425925500270264
26.653203119114274
21.94561158312488
21.063602832158367
26.837418478123947
37.39172023737791
41.27677076743111
36.74772660608094
34.26797403213738
36.79164634224058
37.67306970262652
33.654106954911406
23.834354392420057
10.998262092985767
4.608421602373174
5.718853258942952
4.228657536091741
-0.36185357478071245
1.1435970155847197
6.234866235110841
15.358988476076014
30.212752319468287
37.57326349698467
37.1742190507029
33.366749904168735
24.523252947177728
18.284253346039815
12.576170067472868
3.115759019171038
-0.2343550292274333
0.8380956083259755
-0.9343207900436246
-5.6251622161809705
-9.860193330339952
-4.7831916971255835
-0.6230129726895127
-4.925012353673605
-6.890077724701535
-7.567773411382731
-4.807029489029426
3.962707411427932
8.913861032546476
6.095224976954145
4.654032035057287
8.249999818839864
5.539780986178551
-2.1179642016679954
-2.840671126554943
-0.8118129723150367
-0.5740071099484411
0.9096871869214441
0.5142555723412592
-3.1607440101767206
-3.483814920322563
3.3467260383272928
8.046008389539525
4.080217307430773
-2.8107532068410768
-8.7399822525701
-7.828820566059779
0.4030817795631717
5.888545198509462
6.500496455926085
4.3686756080291795
5.128083044881352
12.085847264611678
12.520431586809725
5.591251642388441
-1.5728498954059955
-14.2091350773367
-20.327343263679488
-10.082507144965554
2.336378768356859
15.275306236442768
25.554173601071152
19.66209455572027
7.532234676446327
0.031629210026700466
-8.54861848012791
-19.317272985118148
-28.1014725793459
-27.93405587815826
-15.999858888985791
2.0029598311699024
17.199109217028493
25.85842819128258
28.949124016745206
26.908806615382424
29.065785445395555
30.310311906502925
19.54661993613702
8.02070285532434
2.8704496179494137
-0.07952347832594812
-9.981458114606067
-20.818750998352755
-22.13562179946154
-21.242691340225168
-19.620925009404438
-18.17986172781907
-14.614558211474149
-5.868441161163374
3.9452677836487324
15.159403553438375
22.577230538279206
24.33633652369687
26.39847163822373
25.485252337251325
14.116839645317167
-0.9685833845717962
-5.2788206871466645
-1.580265807925207
-0.7312031637413486
-1.0890179681921381
0.6944800537157858
7.144707694693241
19.55149958314284
30.705292135841166
38.81056709550242
36.58992481689196
22.994714861004798
17.024981297693333
15.78996189771881
14.011670133060042
21.33034075839228
33.13118552298249
36.151811697109146
26.10809553914471
9.128330213412333
-10.128686373449773
-21.3832562153692
-21.418354386376652
-18.61142518601128
-13.063812286635768
-7.7690308789828455
-6.3245313088810144
-15.176068128969654
-31.730815654646882
-36.15436874250819
-29.84780435353144
-28.652129501347382
-31.78709456516071
-32.880843997576825
-32.87787199714653
-28.2807227445024
-17.771149955872673
-6.239673223236616
3.3268168839604177
3.5678488935167825
0.5135998384854948
8.384405436247254
23.62480004373887
35.86040256014005
37.38890677410886
25.141659273925367
6.563815213727946
-9.012620704319142
-22.1364518058672
-31.07684766914673
-26.532175160116363
-7.7184885114377995
16.6074409806591
38.06352248143338
48.787272925295234
46.632507045044164
39.81321518938672
31.679982109305065
26.91695200122125
29.2919138908217
25.539026633678585
17.413828758486737
18.405542261953567
21.209575884800568
19.454271291568112
19.255024642055695
18.105446365202525
11.185089136098748
6.680492937407881
7.474074463720362
7.8944602371051715
9.629474457081598
8.550861281290782
-3.430803783600109
-17.0341924115257
-22.30709504354271
-21.41206705715569
-18.012859323410957
-17.200688528316412
-18.885769826860972
-18.407761393219783
-18.065526277167038
-18.149595664548112
-13.68867248254405
-11.67090077793666
-12.814606209669325
-9.396313815215539
-12.960886433736423
-21.874335888664657
-25.883243955575935
-29.81278713581925
-33.49789277734341
-35.235768608973466
-28.8045179178871
-16.3512661128227
-10.95271795034807
-10.294468450507193
-5.241365769366047
-1.0326827112297623
-6.689952902111083
-17.327900027621887
-25.277872167090603
-21.375422347734403
-11.960437116526226
-11.18741414291843
-11.186504315375949
-9.94415951048279
-6.0071438083269735
5.991314304745973
20.130335046441235
35.46617669244813
46.602589727895186
42.95448411636782
30.947891442256076
25.0119800184062
22.275628762975536
12.916848506649433
-1.5310766913800977
-11.64917052725588
-12.188685781841537
-17.566041565431266
-32.03175696525353
-39.76314274489647
-37.740117940269165
-27.743814920825102
-10.958194103536215
7.324698240033328
20.79460233918056
22.859514221444698
14.479927884489154
5.166403214705934
-1.2745925927342028
-6.986624041146888
-12.51798101907724
-22.106169273301116
-28.752938122093582
-21.807102414948613
-10.675474181008363
-9.56759728701914
-17.496496410903095
-21.60010027879744
-19.995084279338382
-18.801685530766814
-16.890598983132232
-13.182954759270087
-4.640760335607994
8.75804484333786
11.079266045624198
-5.11042131342137
-21.242155417892814
-19.430634406141507
-3.0916404216991835
13.287163973832035
22.254452634882238
26.535308338368637
29.13378305211781
28.999572930361776
29.75062333459997
40.76909765819618
60.48182968004913
71.77605504401784
66.2385284430885
51.48889059472217
35.07476668759615
22.058862507304156
14.414426549869082
13.409268656139055
22.00418931734938
34.61236434225069
34.836158662688305
20.451099476186144
14.210732772620773
24.13310581175964
34.708639448746275
41.265126936773314
48.70251310647734
48.605565179512
29.93206327546682
2.111977537485569
-20.15298035559442
-28.501804243474744
-27.619847017874743
-31.938897432739058
-33.354362949915426
-17.97762797080028
3.5629896135071797
14.571419631937998
15.398980837924846
10.024583999344827
12.528098042477687
36.81094532414333
48.12239065060582
29.008830519034095
7.2635650482584
-3.8970176260446765
-4.661087567442235
-9.094871204759734
-17.508842656068783
-16.661153644891844
-12.370563556815801
-7.079285128272638
7.726144595251406
38.5491389492182
65.09850839997398
64.97641663202315
47.68410204879837
21.13004176011757
-3.9724335635657826
-20.342067606968183
-36.09323976988352
-49.90693878118264
-55.883737734226976
-37.363975775956625
-2.4355367723204413
11.063868223202352
-1.8913510825307418
-30.53837779103888
-56.92673423951155
-73.08906724286723
-87.1285468326437
-64.64381869785892
-10.212200863513228
24.58584805594461
45.854758151168454
41.918777357673505
6.928197820514633
-31.018332601191958
-60.73736366109937
-49.17363124927017
-26.1112312004434
-22.60841886195256
-11.8706502082002
-4.192359621109081
26.63753700952309
79.65752350813793
100.67737572804656
92.78159898334512
68.75456949255108
44.340047361416495
22.314567516167518
-11.90670595747077
-36.81492700837909
-30.703382686403955
-11.926782329004766
-20.924419530582643
-58.65466965088344
-100.28829951902637
-112.53375796975729
-81.27075358259894
-49.99437477695139
-20.58311054738684
15.400392096525609
38.04972835747745
53.1959468023082
41.82939025412147
-1.8172551279930764
-30.720599706698525
-36.66719443347741
-36.17555232129542
-19.48265764690049
-8.504256153229765
5.082392237356643
57.86129042874238
113.60359237221232
129.2528253561758
101.35592420263335
69.35062417059548
47.68132336116831
23.05883159641381
18.442973628609096
17.213032648207264
9.493135032381955
22.207007609796072
44.24611731468513
39.22200279632069
-8.750073267610492
-59.49362117351631
-78.23789187038044
-63.08789232585608
-34.70148034382467
-46.83038523965126
-82.05847224114763
-76.48968867875973
-49.7605744048111
-39.26321712833153
-51.09564719406366
-69.0330624070548
-76.2181486331343
-80.50439963510654
-61.27356889122156
-22.35458870064453
29.749780902208688
56.294434103495085
-6.490174574799908
-79.35657620794292
-98.46356236180323
-78.05505285154916
-68.37415159231229
-92.58745787802972
-52.63895747043978
70.78805193376398
134.92611037149678
44.46286698392807
-70.3815981260428
-102.91541622225702
-90.30405590289074
-26.47989183668095
21.68834983641636
-40.01549813411006
-127.90646601851039
-140.41306930879668
-105.44218981628805
-68.7664716241307
-30.909163474458545
19.329905269230004
67.7289820270309
141.04509559096334
218.32897657415222
211.72870453434066
161.60115348542377
79.06145418822018
-5.578817322538498
-21.018714756965544
-32.58058731678659
-50.86700066973299
-28.824694611121558
66.3448762344364
209.22991519682552
275.72274622610166
233.1075638597706
194.18314379937348
215.8553940941781
213.49211502666057
177.85781736914484
175.99579657061767
174.12469341719782
130.7468228309192
107.04315115354999
145.6928703234339
165.30127058747482
112.0147856038826
-0.9990966133922036
-125.56118791081171
-159.89349003379726
-122.3695977293077
-73.46352169455362
-31.095469029460315
-72.85070478464827
-129.27165950591163
-126.0066913558473
-104.51424386509377
-17.14625683681724
30.148415788941925
-42.20429758824101
-93.3459573127078
-137.0735134323124
-207.5986445889234
-213.87862775352332
-147.63933444311337
-92.37270572735329
-83.88130889913397
-3.827400771881486
191.58433144905294
300.1397645355544
276.70731687922773
192.4667192469477
28.86725500715726
-99.64262879775508
-209.3383308440678
-341.6647017716779
-329.4746791826853
-164.5233678500986
-30.838726890413135
-83.42968620166162
-211.68335342604357
-325.21068487104054
-362.4202686260416
-170.5474898106711
31.179169942475735
74.09322586652432
58.339195324122485
152.24825199662519
266.3166675516325
111.69095669874797
-131.36739765516393
-257.3781267731453
-102.95449389097712
133.8167141344062
107.2516221217037
148.05096280233332
263.4936240833756
261.30361922420354
199.59215648885373
110.00267748539133
35.32744318972296
-109.533887871303
-218.76878351718244
-152.16694489022805
-116.54104543503671
-128.288397178826
26.548030235299848
158.2510237974813
176.05388473173252
202.94154649802647
99.98380910182136
-74.77101228024779
-199.59737230449508
-204.66418202495962
-62.39834237575455
-16.81586679491573
-15.905846415198521
69.8932003561951
49.322983524072924
-28.797417569414453
-19.627340663172347
50.28699505310866
94.33349100418954
31.920152676840125
-115.86193523409489
-262.73918013756656
-353.73598525095974
-371.2965586746998
-117.47009548862302
179.6093472992569
127.97415650016018
112.57790136253051
115.07955756165742
-141.9000503715083
-207.17451507442058
-59.46293362470133
-126.37178300294005
-235.92158864478765
-168.27094673276244
-67.20800944216917
-2.964753615784942
-35.98405527761101
-105.17751611721283
-67.00231699713983
2.369684465934706
54.707009542081515
47.13403420660912
56.710074226631136
377.4897786669211
745.4169477643132
627.0992053003979
242.40259772959743
61.09575589917168
-11.761512470073864
-193.16344935048215
-294.70015535143256
-200.47361081852853
53.97473504455178
458.93072757190765
757.9444106651231
856.4425627416304
673.6183109890919
164.73710592128455
-218.7212424811179
-411.89911051314544
-484.99849291851586
-380.2714764401318
-308.9853061137209
-208.37705125883224
-64.17464447406257
57.110581096826316
96.10302854095201
-76.90407293876409
-216.42402763046687
-218.37001396525582
-119.34561347734747
170.8424094948026
401.82780474023093
318.6159527715914
263.46574355752267
467.9822838547715
378.2391504114708
-7.607243168823917
-219.17472149072822
-314.7292534270883
-187.99460962958594
32.833155198979355
23.77440046742976
-131.43322588967584
-258.2973296979924
-284.65147995803676
-301.2648613544966
-160.9007665362193
42.49132537041923
-34.596273538942086
-197.15070458031548
-237.97769367077535
-62.10741721162048
195.4697850156933
184.29154097102185
64.46193191796304
23.817284051346533
-80.14504457511424
-227.3931110315632
-268.7492998096524
-156.26375396371384
-53.74472953551058
-156.59381559512258
-261.1491921592556
-182.1115231792293
-108.87266737953246
-94.3913970218388
-70.24573661032188
-48.088700522769706
-88.76727286907733
-232.21867792966134
-334.03847941510026
-297.36723877086985
-172.23905206788734
6.053221551261762
134.22619546038325
166.01851266314384
193.078324309722
219.57415545409225
159.32367051876935
21.34385175879657
-88.25935776896588
-112.4342312244038
-35.0954494683598
89.99280503334975
183.9172491099284
207.37565213028657
124.9684832186603
18.686963170431245
-54.85051759199535
-130.11664605920564
-207.7233937914124
-288.46162119616974
-287.51207513155157
-131.83938178437657
94.91751413039118
272.93177978943675
265.12119936211184
113.51149814572379
64.40735666704246
114.10095661918434
138.61780136906398
147.65975237919173
130.63274071751874
109.39183508931221
113.73625021672285
78.94786274079767
-6.726994756065338
-72.14551006752443
-113.02040918351834
-160.7085440480027
-173.60823418899466
-20.963720013872233
282.0698103797374
498.4950539705858
528.6691644961685
444.2738696762721
286.93420408792383
66.75259403989527
-131.4608273403162
-227.22299352867145
-287.0243904472859
-341.1492783906936
-347.83803886222375
-293.9492082947792
-145.66321597465628
-32.56902977600242
-101.99897439629041
-159.69887368115542
-157.40173022985843
-211.66651567439314
-123.49667338503887
162.39068963578663
375.3877767105671
380.3803179183962
316.9633726947245
261.50153112288496
153.3971160559647
149.85919496665076
267.8744320954331
206.5088207331472
55.89149688717669
86.38374466221282
98.79637501197371
-83.54726957956466
-268.87778104044037
-318.1051585329619
-267.96206936949204
-191.69158837121776
-184.0544251071055
-167.57449409926488
23.070770949930207
285.48188232017134
426.8781886656584
225.7792757221385
-84.54753437096281
-71.74151044377936
-29.352566421710264
10.345324396121963
236.40283216989675
396.4472750025882
387.87458939686434
283.6456323111327
180.4407975891715
159.5881834520102
283.72628894438486
319.9302240975229
130.95655598432825
78.295974868753
146.83800445849909
110.64017660854996
39.33237446632903
-51.68853590071938
-170.1226235147192
-258.59556848734445
-247.65086610273008
-114.2032468428755
-18.187999520691815
-27.910688897546553
17.54574524059238
156.10076364658042
266.1586919998309
226.01525021910675
70.84228373572768
-50.066754503203505
-141.63071154194375
-210.97836183352683
-219.1579746841648
-235.59681460381543
-276.3628719592879
-308.29247941740755
-342.5756973554995
-386.4094833328468
-416.34049287014494
-406.8115726338219
-374.852069124951
-331.06003308180414
-258.6868771574476
-119.46688372442372
49.67057262525429
99.27630259209273
57.408586532889935
83.8854818708097
129.71611202703795
87.90537620566565
-3.5213973129481713
-90.63870922918136
-158.3036420724575
-180.99997843287008
-160.54183090547653
-115.6638131854314
-36.95652653741566
-16.780993062750078
-135.35945530197588
-244.59458449515492
-243.32364703138433
-222.57897834000477
-235.89752321027535
-226.58656981643196
-173.52165570167446
-59.110890228754144
113.6395454614312
165.32921719893307
89.96023535183956
66.34656386080044
99.87703449706385
73.17703161156577
-18.779709816399475
13.925292844355413
182.9033583338956
352.38506957776036
310.12242190483397
17.808453472497273
-114.01265226777714
-65.83947649137646
-60.18039036389462
-47.61337869344499
-23.04401824979867
12.695074426724647
7.892986429815792
-22.550831566424886
52.9274193557776
170.14361970911477
128.60152211734803
-93.24792004459222
-256.84687839209806
-239.50239646937337
-149.41313091060312
-65.65636628597244
-55.49964713905697
-129.66762929491844
-186.15763514928693
-173.5567055248672
-127.38936606920731
-63.14568842712018
60.04863163216386
219.12916395190783
264.07090264385516
182.08861017699314
214.99660809873257
261.2526942719589
65.39722436990023
-136.74735752760154
-228.42114566026996
-282.2756615084125
-277.0831253403661
-162.09619359691612
55.595470888993304
81.62708943952397
43.922918736729684
128.3421938915881
59.72859777056227
-38.222011952855084
-48.49295278271078
-60.17187576673442
-22.19769030614388
24.534192501973017
59.62003313644126
93.56184345662996
119.68030789875745
150.21652333713234
151.72571950321634
94.54142101683414
31.994218835873763
-5.1309023942703735
-26.278205952094297
21.803779297622906
35.952610179505484
-20.01922524579922
1.0590838451911442
25.562346029028063
70.67937569568848
124.93586786137924
30.02486960984842
-74.42673138457928
-90.4148735027063
-37.815699149443155
94.590918140118
222.01137858357075
240.7519267493494
149.78557232003334
