AAD_Filtered_TADAS_FILE
AAD_BASELINE_CORRECTION: BASELINE REMOVED
AAD_FILTER_TYPE: BUTTERWORTH
AAD_FILTER_ORDER: 1
AAD_LOW_CUT_FREQUENCY_HZ: 0.025
AAD_HIGH_CUT_FREQUENCY_HZ: 40.0
EVENT_NAME: 202302060117
EVENT_ID: 13194
EVENT_DATE_YYYYMMDD: 2023/02/06
EVENT_TIME_HHMMSS: 01:17:32.00000
EVENT_LATITUDE_DEGREE: 37.288
EVENT_LONGITUDE_DEGREE: 37.043
EVENT_DEPTH_KM: 8.6
HYPOCENTER_REFERENCE: AFAD
MAGNITUDE_W: 7.7
MAGNITUDE_W_REFERENCE: AFAD
MAGNITUDE_L: 
MAGNITUDE_L_REFERENCE: 
FOCAL_MECHANISM: 
NETWORK: TK
STATION_CODE: 3137
STATION_NAME: 
STATION_LATITUDE_DEGREE: 36.69293
STATION_LONGITUDE_DEGREE: 36.48852
STATION_ELEVATION_M: 260.0
LOCATION: Kahramanmaras_Pazarck_Turkiye
SENSOR_DEPTH_M: 
VS30_M/S: 688
SITE_CLASSIFICATION_EC8: B
MORPHOLOGIC_CLASSIFICATION: 
EPICENTRAL_DISTANCE_KM: 82.48
EARTHQUAKE_BACKAZIMUTH_DEGREE: 
DATE_TIME_FIRST_SAMPLE_YYYYMMDD_HHMMSS: 2023/02/06 01:17:23.7886580
DATE_TIME_FIRST_SAMPLE_PRECISION: millisecond
SAMPLING_INTERVAL_S: 0.01
NDATA: 11251
DURATION_S: 
STREAM: HNE
UNITS: cm/s^2
INSTRUMENT: sensor = GMS+/GEOSIG | digitizer = 
INSTRUMENT_ANALOG/DIGITAL: 
INSTRUMENTAL_FREQUENCY_HZ: 
INSTRUMENTAL_DAMPING: 
FULL_SCALE_G: 
N_BIT_DIGITAL_CONVERTER: 
PGA_CM/S^2: 848.012
TIME_PGA_S: 
BASELINE_CORRECTION: BASELINE REMOVED
FILTER_TYPE: BUTTERWORTH
FILTER_ORDER: 
LOW_CUT_FREQUENCY_HZ: 
HIGH_CUT_FREQUENCY_HZ: 
LATE/NORMAL_TRIGGERED: 
DATABASE_VERSION: 
HEADER_FORMAT: DYNA 1.2
DATA_TYPE: Acceleration
PROCESSING: Automatic Paolucci et al., 2011
DATA_TIMESTAMP_YYYYMMDD_HHMMSS: 
DATA_LICENSE: U (unknown license)
DATA_CITATION: Turkish Accelerometric Archive v 1.0 - Disaster And Emergency Management Presidency, Earthquake Department
DATA_CREATOR: AFAD
ORIGINAL_DATA_MEDIATOR_CITATION: : AFAD - Disaster And Emergency Management Presidency
ORIGINAL_DATA_MEDIATOR: AFAD PROCESS SERVICE
ORIGINAL_DATA_CREATOR_CITATION: AFAD PROCESS SERVICE
ORIGINAL_DATA_CREATOR: network: TK
USER1: GuestUser
USER2: 
USER3: 
USER4: 
[...]
-11.797093782771128
-4.822050796349601
0.12560954953094874
0.45608738067148047
-0.9014869445257979
0.1675236152307297
2.5647777388088904
6.513761175607384
10.453695350720148
11.242572981823248
9.18899323797796
5.0542473331926905
4.645504286476174
4.3684953138961715
-0.4846782499430801
-0.30137731242448224
3.288821902452062
7.678076551146031
10.520427046050084
6.0078806281573325
0.8304838931385307
-4.11468921028782
-5.767944570569471
-2.6740877065301114
0.2576791549690484
4.762062358534781
4.094333756723232
0.34513560552546346
0.9874461223266149
4.8388413978772045
10.309524474446041
9.329657077352982
5.557104755457737
8.879716411672007
14.563879440976937
17.699515109086434
16.070922154739005
8.951448293524738
2.7983978113807857
-0.20556277625517264
-1.4449224004130647
1.776578844042288
6.3130245584831135
5.972707789109167
1.6779307342374756
-3.5540981388554673
-9.61495596168208
-12.950460838970521
-10.100530312669315
-3.1262517594003367
6.8221474079534525
17.388819605100036
24.37723136062708
28.13225415894644
31.683825265559598
31.96487112271633
24.176943927037012
14.629079064022962
11.327673981108916
10.591765840306469
9.055916455518698
6.538979067393369
-0.17158709891667223
-5.287934752879818
-3.0002630569388757
-2.994319798977971
-9.966001066527324
-11.515123749582223
-3.267937450395576
4.890590885614501
9.979490186576681
14.927997313402429
20.200878200933857
26.74093200533161
33.58801877996045
35.75330169199487
35.37577210102127
37.59462811452859
40.318877643157904
43.06415624718891
46.42823821928972
47.54891533288803
46.956939116351066
51.250446957433475
57.06560074177866
55.47330902039455
49.20030111241807
43.66604484019896
45.01567211166058
54.71093739599895
61.46720640147395
54.97500892305506
42.44961343644152
34.33437766635687
26.7440264211255
18.910817072826084
10.346786526026587
-4.27703468419319
-20.26461590802892
-33.34414192670193
-43.26117568493266
-48.0553190751676
-51.62411733894568
-53.801805431363796
-50.59250323618992
-50.53744167225444
-53.18060201305701
-47.50358303464875
-36.91491027618432
-26.829002988197384
-21.19005211439868
-20.905881340106678
-20.814790571317968
-22.653847727876226
-25.587626086340705
-27.60349462997412
-29.600747771044546
-26.848573889568804
-21.548101617093135
-21.74498309596034
-26.122243138835884
-31.141020020403218
-38.835337916575874
-49.73038957042825
-58.21659955112982
-59.3071256620933
-59.201049813346316
-63.60538918874551
-70.261843727061
-77.20656694333216
-76.15927230860848
-68.94463184161093
-65.9637952505843
-61.063088361099524
-49.493390376008946
-32.695941821540366
-16.297514870804083
-9.139904778577431
-6.513599462421974
-3.5387353614742714
-0.16311616391813735
4.305629112801091
4.8054811120424175
3.727269506333374
6.53754183418082
10.718119289759711
17.73110546860753
24.08160135033973
21.9558898629638
15.812574908210829
10.819350324727537
4.295172530295644
-3.411389239224878
-10.122792624036482
-16.389950541549197
-16.39272234999159
-8.18128419958909
3.0219171376507368
11.491738650792412
14.863312575701876
23.790889743991887
33.015844181198965
31.252894727926996
26.962340254510817
26.57424664237659
32.863234870904535
34.710572115632395
27.4984145008573
23.517339653079418
19.62386409906315
18.372321322583797
18.340504034463915
12.24777213673443
16.907239112958926
28.827450222909835
28.30031814999186
25.152500367819496
24.401729697674654
20.10114993288899
24.44311950115967
34.78760077104857
32.15605463442435
17.918770968817704
3.8290666822394046
-3.11148779715536
-7.389724888943533
-9.65985302372846
-12.090345399994732
-27.566049311689188
-33.56688867733117
-16.105300113284958
-3.104464809780931
2.0960814707372326
8.353354959874851
15.189348534426745
24.944822493031147
27.804307083088652
13.728671213432378
-1.8420754323536719
-4.263090235874745
-3.7554767931257036
0.3069376051539724
12.93827982830699
19.792892837992973
6.477640552433928
-23.531301659319055
-42.355023790708124
-40.71078887636831
-26.201720592371224
-4.746454922162227
-3.0688326668591865
-24.68816541953406
-34.969864195148084
-5.489310871610644
28.59764343798796
20.6548451646862
8.529573652103359
20.46841984776595
43.34152595596297
53.72440277923077
28.23810657761316
6.471935088414392
0.8897630861738796
-3.102800960706113
11.913547746596894
23.492981097913013
39.14946877036157
64.89225591515526
59.971303732399875
40.9096245043209
37.51096249692643
49.72961095528494
49.256082136178655
25.202889601132025
8.682710374548524
13.323942183142119
43.82653801688877
65.0871728636078
50.60280389442215
37.90578886653492
28.668123447056267
20.161141241805137
22.239622653630082
13.99801358880338
17.542438270629
37.573826601142265
36.00356566432583
24.48290907367881
4.226896869594485
-12.725829141670712
-7.55584200761431
-14.578419447487022
-21.576307993631378
-10.696021862439832
-6.486395989655895
-6.809255391851717
-5.124041093725723
-7.8554337299841634
-4.887070313464397
9.957037103617443
21.62419342747576
32.61036770689258
34.26427951595086
20.427654797846845
20.865876320625837
25.86569410737812
25.78926963309857
26.67801999853635
4.246269210473828
-4.673963449660808
16.225613288309905
15.601897402379963
14.60432478127018
22.332192705378727
18.03499411902491
10.724183676076894
8.298237870209528
15.293612736658549
6.070083306574923
-5.413601101920844
-6.810172765602571
-34.06534284882676
-53.1684313198079
-35.23479408304831
-19.271573216980997
-23.11872490468998
-17.08584050787651
6.454396234993643
19.65358579932198
52.47992395355478
93.93166764303368
83.23947542447853
60.30072579397579
38.82084244904695
10.967486855882704
6.679373800740782
2.529340985096654
16.367254625246122
44.55542360194212
32.17253076312923
13.572532093596417
3.7200620198953445
0.8897961230843366
7.044024774992378
-7.067498880714312
-20.659162979428597
-35.85902888077996
-42.413891526837595
-8.480862713580292
10.432922214934885
0.47430455844926755
10.05841541669912
19.214820287362457
14.291616404905872
23.819051846635354
27.258794837002913
-8.716544329327355
-52.54286360912379
-50.34609993998763
-40.91026851898409
-32.54614200001085
3.3991960437932294
5.866901164891674
17.996008652121805
59.703162949387156
54.36491814263397
42.23499558990178
31.644358904117112
-7.304105012970376
-55.186375556703396
-93.87747115098091
-97.0081987594217
-76.32735172420338
-62.157152448473184
-62.0363394539594
-57.76741984872924
-31.089996105167522
-8.434253219058837
-14.654982280588534
-36.63525520340273
-44.57527329371744
-42.12988492444645
-42.69586933281013
-35.04323913718656
-23.84291509131965
-13.76868850443528
-5.500616897596059
-3.4051257832240323
-14.41841026680729
-36.652629401722656
-28.229294864901433
4.019169023959091
16.709083280077238
32.09770726927046
45.18458962560026
41.34990767654923
42.24436023567527
13.750566719297673
-39.422557994133534
-64.49278243361194
-64.53687245745552
-55.805492179216884
-56.114698825193585
-48.675857551804704
-18.475393858765432
2.004409986990328
16.423881450187256
25.86931400936582
17.734418036317248
12.061847770487944
21.658038392145876
37.863456282597554
33.923675312215096
4.722285682808122
-6.311409780244601
10.94557960154602
10.284242897523757
-25.500755598714036
-44.229598251506445
-32.31869130442316
-36.58271934420565
-34.102549808732185
-11.088258525264072
2.6127742925279964
10.182473020661329
20.476042379745817
48.39704148192355
65.9798055585127
51.638058454843566
41.43378853037318
36.40863462347103
29.12116170976532
17.28660683321398
13.380517285623062
39.57811012935693
53.235259745164456
61.58448794956397
89.17653856759605
92.92718705050815
100.9479442335941
105.23088811129527
69.04204046716936
53.99569059862543
56.719825662195746
50.94722040689156
45.56425138722267
34.240903128175255
42.45829327724915
46.174631985787
33.05474241810406
40.31482715480623
44.4597842883612
47.04882070100878
51.04407589060234
44.20961217289596
52.13932801727541
67.2550558464538
90.62929232969836
103.50589470196849
81.48147158874505
65.59037379104608
62.08069606281811
63.34305398674258
54.12020239695225
30.734267269100105
33.02034642656963
43.47400384066204
48.68505485997845
56.12561259141245
46.78151025688981
26.61272006201111
3.3588981600343377
-16.094904797270594
-26.939020482836145
-44.86553719973839
-60.31351982075833
-59.375876669039
-61.88770984746006
-68.0460267938502
-64.52483170632634
-70.27745620029455
-86.27076116743831
-106.0872365979318
-131.51380727560678
-131.70511582170258
-120.245023990895
-115.81725008174502
-89.40337011285209
-51.14878861508959
-20.95703421556194
-29.34593034896584
-73.40822590118664
-83.42389944336266
-56.140222446345554
-25.69028572115874
6.977596260702929
27.67588101086723
32.57535691228635
49.88407914594545
70.2815505318806
55.60271126587503
20.31487035423121
13.873570567954554
33.958593609374056
37.286023324362695
27.331443115745063
23.432041578457092
25.931147406372933
56.08209383650121
90.55057935527577
58.76670943918563
-10.127501813551529
-38.77162459117871
-33.51711123174365
-30.653472241693915
-50.02063776182059
-67.63556318242881
-51.76323921755912
-36.73620007717192
-34.86184510119487
-28.197217187923485
-23.27121252928273
-16.941943170082624
-13.263993627759463
-10.474245910314224
-7.44280751530811
-20.877322814973553
-22.071035311174022
7.119078849180879
25.881848001750182
15.436348935701133
10.769087939474552
19.01929285377705
0.23064645819009272
-9.257181908947176
-2.163630213488558
-30.76287024511069
-51.889077950707595
-52.8197537277718
-51.385695659196294
-55.09039246004361
-89.19099967310748
-115.32603001772965
-124.43120265075666
-135.4770716348368
-144.8928463303332
-174.35899255681352
-219.30849409495707
-251.67078671566907
-245.39766494721036
-214.34169206174482
-224.75903338781794
-278.91282648740736
-313.54302265160993
-314.3322366110646
-313.73749603801014
-316.0067643785358
-306.68907931915123
-299.0995278294506
-291.367051069242
-260.76497577544944
-228.720005061457
-210.61394597038517
-183.40229854485415
-161.39138028293684
-167.35015828159553
-163.51206006864322
-116.64741088449145
-59.7825878536749
-32.23816429451862
-53.12779943863104
-106.6704745675154
-122.95721029878545
-93.08123834445949
-62.92623450445756
-45.328489118602725
-57.22778833130903
-83.50443879734436
-97.98613313738737
-121.1869024354788
-137.99599112034576
-131.68436958746804
-139.19314713681425
-159.5691845686262
-154.44614849034397
-128.4181063772625
-111.07575564728802
-96.23874481800921
-57.82021460418661
0.5742230031231833
32.915489868309145
28.239829357547357
33.491148502559845
47.09077511767179
47.99774532566875
32.24968633584688
0.7817098156102408
-10.821278793257799
-14.225183772216935
-45.37403949867279
-73.92791118066964
-90.87494519900487
-113.0686853322796
-131.25242945244588
-138.78530664965808
-119.62787040614253
-85.0511221700716
-54.44384525604793
-16.298320611152665
0.060733241388148444
-9.410370216692458
18.212524264271952
78.46631408744828
104.03919585494526
97.27772232475186
90.39802860921021
70.0762463483886
42.36379762236502
23.242351973043654
14.179192003979042
23.808589320647872
41.00383337227849
56.32306052825233
62.951167873806625
46.892797758989246
42.393325548767514
53.31058630916554
25.600642640234483
0.6966315345712382
9.827778079045563
3.763673278411198
17.177379079799532
61.33427277699487
74.01205662212867
46.48222511817673
18.749097972236147
20.936792869842467
28.617687917168766
50.23361947935518
88.30042086367345
104.55347461829994
122.05554069722477
140.46920168955467
136.25833393080595
109.81093885617702
81.44680823558699
73.11012191791652
62.13690712640997
46.47824474790482
57.64876801483245
91.20940791201204
105.64737705439214
123.32122109279153
152.46188578348895
145.10188568124906
136.19209641543813
140.37332482742323
151.34809655727534
180.2222888129494
167.7424754431879
108.08526171011589
80.11670985380933
92.9481019134081
101.68465783650741
104.40214089292688
90.09745700927331
56.21145756648562
62.90040460198813
129.41983389360445
191.3935700420375
191.39950386619574
143.6735046836293
109.84234286461839
113.20430045103795
119.80013246812773
128.18952929434155
143.91421729537308
170.22025672697052
222.79242640573398
241.38930313762256
198.93504861955714
166.88101701126328
170.6688526138131
190.46863038994783
200.4664743372558
163.8370263154704
138.4770350354932
170.20704645479853
181.03191320102442
161.40560271419537
121.93729583132337
50.05377403131303
-5.459152337072426
-54.06388003792511
-139.284070403339
-247.1058972351338
-328.5123009936687
-363.3183491935709
-377.79584442684285
-359.4318191689908
-314.71052163523007
-293.988028204596
-294.83035290080556
-316.93367782513315
-332.31644080790744
-253.24196869524573
-6.487271433947648
297.4713958572983
437.16636812599336
638.4750644230959
845.1026288558777
616.7919191235768
417.15597204371664
464.7834261109297
347.67207992140226
173.03669005770092
142.9661747461068
225.85524168087076
232.96530919079532
173.95872976469255
157.86175533416295
71.38355997144859
-38.78622217282017
-91.57480517753258
-114.97863277558142
-139.02281887669656
-182.37541469747717
-223.57307507703538
-268.10077140592557
-301.7171481840474
-294.3304661170553
-257.1619618783614
-205.22028010286687
-152.22137624260895
-111.565982937954
-87.07323891111044
-79.24613572972007
-71.32028801762749
-62.85937434533473
-75.56412693883442
-66.81875580452916
27.81747705455606
186.96319475889214
316.073180888411
340.949249800384
282.1253128268168
223.68184910179843
229.05833251722777
264.132872284329
270.06608681216255
252.3103559140974
204.46375627427233
163.0608235229922
189.50668979531784
229.12518239099228
216.9661648957409
176.10574017811606
173.09990706341142
196.75668911251884
169.84872623839888
117.82648216287134
59.98985504664912
-44.99835662847854
-159.0642053475011
-219.92294680567528
-204.14312042033453
-146.42241393056747
-124.07129812808635
-148.3923711718253
-184.900382698742
-237.57220569493057
-292.9923351757048
-303.93107986101035
-260.06147881361727
-179.76005285384446
-101.08017759977687
-84.4767559070044
-117.64490436418679
-102.33012762906509
-14.340961512630399
80.91653265479272
107.37727278236433
11.990468213425876
-138.2200922978117
-190.8687299225136
-134.3259206573011
-107.24850127721513
-123.5874563357109
-131.10264925858107
-163.68232360199508
-175.11644177672662
-105.1939020218037
-22.4253117137045
7.686339644168565
15.504267847903035
13.654469189307092
-23.151379625189204
-51.249982737094804
-41.21738346411145
-29.052342356937746
-16.17405590887881
38.899949710910725
120.76829281576161
158.49971432449522
137.7197920264507
107.52461740179001
85.42859529536
30.899392379521373
-53.25083111024121
-106.25282377185655
-108.78148304369269
-120.68049643113211
-148.68531769681246
-99.84485937580045
-1.1337379896244897
47.507374812691616
47.40644646090245
29.430436303040697
29.88191527014696
72.23953951286194
116.4246006797297
132.37733224134865
137.36111146975617
144.01287409184903
164.40463309782098
190.72028222567226
193.17707381693313
165.13750733100028
99.80463646968327
20.297030032160833
-32.10154950736478
-73.70940863950975
-123.43255499882136
-150.74915164992464
-121.65720262434304
-60.624342288715056
-8.760049224184145
20.868018319115304
12.485411215967586
-10.707747000969123
-22.93376463636656
-56.582428455270886
-120.5633100735889
-161.97302560375107
-150.08480848634406
-125.10782819819251
-104.78101112036991
-87.3543556351886
-95.49534096989348
-107.64187210219146
-94.49772294056424
-58.81195595552827
-11.460643997866532
36.44613962560905
93.37547764090664
164.42227177803335
224.3447862194538
236.29043727646646
202.96312497431697
146.0457377379254
59.678017504012296
1.6938540497253156
29.89189102009846
60.31266155728648
40.96230157200269
17.50711058705808
-22.15882175197268
-90.1851607022208
-132.45047260823327
-132.12896305135712
-116.23503020060282
-97.54090506664984
-93.08415316013715
-110.0138071556733
-110.61369394893005
-68.05556463992767
-11.52118044939645
37.25273823126018
90.51234634031078
130.68594427163598
133.06627778284818
135.86224981825572
170.13776025606964
195.81431415910254
174.60985748102576
106.67660229058531
7.825540618440546
-77.63297793929196
-93.14902604577622
-54.12992427898703
-27.493437451330415
-11.153495204622855
22.067865529099073
32.75623278149083
19.01422880799444
43.943420063191745
86.52627213798726
89.24794904828492
70.0569384772231
60.56669247272443
72.13669637411694
103.75698246626507
135.49134364100618
154.4666395114678
163.28817435493673
148.18191909400056
123.41252820958101
129.63348477593095
146.30112887413392
155.31725615387694
172.04791597384062
174.06584079354639
139.56518079860786
88.20122535993363
40.45500763606419
18.16697194677293
22.467169634033457
12.596555393233647
-6.054503691382925
-9.75991326333496
-3.7931423172885697
14.743676197079296
27.528042110341392
21.110510887447376
5.343755369928317
-26.53802820088438
-73.65603786703082
-113.70811790785895
-139.0664043951919
-149.16119799349812
-136.98200649398547
-106.93789980638465
-72.22814488337347
-54.04397084950437
-38.087738405635235
-3.507233201344363
37.12618857176983
112.33336355870469
219.5739350220023
283.7006413449611
255.83828998813703
176.00210856218885
124.87695935627254
82.50259205676682
9.827212799089173
-54.20576541695063
-79.22838422077231
-91.07190685077487
-126.70626566713703
-136.61405962042576
-82.30462086809301
-26.772722658374892
-1.4154712773909135
-1.5819066220197957
-40.63468351081034
-86.32189903018308
-82.90631872705166
-43.71749500295988
-6.149704228046036
22.53143629615227
14.274144218738154
-15.806289492099339
-10.958714815243912
-4.007811187682077
-20.344167790877652
-31.44293892483252
-41.053109582431276
-41.900947212366965
-33.48221803635805
-28.58417053122558
-10.068179386363902
16.541575415871
34.52926995546185
49.720473439228826
57.7950067563812
49.200827051985605
37.087579151523606
35.41825093581572
29.299174497654477
14.012523249776171
-10.164312094665643
-44.15289244609894
-71.96209489047769
-107.71699673681435
-145.4878509369495
-154.8542089741486
-143.02137880469968
-112.23447978023144
-73.98336066520643
-52.06587658250279
-57.85261593674533
-82.02809770790921
-94.58282808036006
-95.0413486544587
-73.37010810559397
-16.503429920828154
