AAD_Filtered_TADAS_FILE
AAD_BASELINE_CORRECTION: BASELINE REMOVED
AAD_FILTER_TYPE: BUTTERWORTH
AAD_FILTER_ORDER: 1
AAD_LOW_CUT_FREQUENCY_HZ: 0.025
AAD_HIGH_CUT_FREQUENCY_HZ: 40.0
EVENT_NAME: 202302061024
EVENT_ID: 13207
EVENT_DATE_YYYYMMDD: 2023/02/06
EVENT_TIME_HHMMSS: 10:24:47.00000
EVENT_LATITUDE_DEGREE: 38.089
EVENT_LONGITUDE_DEGREE: 37.239
EVENT_DEPTH_KM: 7.0
HYPOCENTER_REFERENCE: AFAD
MAGNITUDE_W: 7.6
MAGNITUDE_W_REFERENCE: AFAD
MAGNITUDE_L: 
MAGNITUDE_L_REFERENCE: 
FOCAL_MECHANISM: 
NETWORK: TK
STATION_CODE: 4620
STATION_NAME: 
STATION_LATITUDE_DEGREE: 37.58568
STATION_LONGITUDE_DEGREE: 36.89845
STATION_ELEVATION_M: 698.0
LOCATION: Kahramanmaras_Elbistan_Turkiye
SENSOR_DEPTH_M: 
VS30_M/S: 484
SITE_CLASSIFICATION_EC8: B
MORPHOLOGIC_CLASSIFICATION: 
EPICENTRAL_DISTANCE_KM: 63.46
EARTHQUAKE_BACKAZIMUTH_DEGREE: 
DATE_TIME_FIRST_SAMPLE_YYYYMMDD_HHMMSS: 2023/02/06 10:24:33.0010330
DATE_TIME_FIRST_SAMPLE_PRECISION: millisecond
SAMPLING_INTERVAL_S: 0.01
NDATA: 10501
DURATION_S: 
STREAM: HNN
UNITS: cm/s^2
INSTRUMENT: sensor = GMS+/GEOSIG | digitizer = 
INSTRUMENT_ANALOG/DIGITAL: 
INSTRUMENTAL_FREQUENCY_HZ: 
INSTRUMENTAL_DAMPING: 
FULL_SCALE_G: 
N_BIT_DIGITAL_CONVERTER: 
PGA_CM/S^2: 66.824
TIME_PGA_S: 
BASELINE_CORRECTION: BASELINE REMOVED
FILTER_TYPE: BUTTERWORTH
FILTER_ORDER: 
LOW_CUT_FREQUENCY_HZ: 
HIGH_CUT_FREQUENCY_HZ: 
LATE/NORMAL_TRIGGERED: 
DATABASE_VERSION: 
HEADER_FORMAT: DYNA 1.2
DATA_TYPE: Acceleration
PROCESSING: Automatic Paolucci et al., 2011
DATA_TIMESTAMP_YYYYMMDD_HHMMSS: 
DATA_LICENSE: U (unknown license)
DATA_CITATION: Turkish Accelerometric Archive v 1.0 - Disaster And Emergency Management Presidency, Earthquake Department
DATA_CREATOR: AFAD
ORIGINAL_DATA_MEDIATOR_CITATION: : AFAD - Disaster And Emergency Management Presidency
ORIGINAL_DATA_MEDIATOR: AFAD PROCESS SERVICE
ORIGINAL_DATA_CREATOR_CITATION: AFAD PROCESS SERVICE
ORIGINAL_DATA_CREATOR: network: TK
USER1: GuestUser
USER2: 
USER3: 
USER4: 
[...]
18.40482694806041
12.079507087320701
3.565531725488296
-3.384784736302799
-5.825919215440071
-3.3561016310241114
0.9729489203120218
3.127340458525169
2.2575067453202506
1.2175460233942894
2.1334312925622614
5.163577705949564
10.160107043224818
14.612120630368088
15.36378982109788
12.85548264574489
9.443214000723895
6.488737288859441
4.650807993931836
4.177427764908175
4.4059096351713025
4.66840473162766
3.8566966154440783
0.3342019986072444
-5.638398668909374
-11.502382741591186
-14.366012555578768
-13.521890716968453
-10.11934321176396
-5.1274512617513075
0.19744468288791828
4.666751394322978
7.827129609855137
9.872641872542165
11.775478210442547
13.385056797840784
13.86872849663136
12.47443872972117
8.563367784814895
4.104554474752234
0.17448526251673072
-4.5537797957774835
-9.425887501283821
-13.123704730949964
-15.41335246444697
-17.071525642266923
-19.188753233073385
-21.46193329083742
-23.272656219445906
-23.53302146694877
-20.13287694385337
-12.62961737733428
-2.5079159929666743
8.085508789657952
16.499457906480608
20.67434329325769
19.637899812796007
15.03117736816753
11.39436565413352
12.070399635809395
16.53484883590739
20.892591566927216
21.333450091015074
16.844924143851653
7.952611742714831
-3.2816442014341423
-13.250892411602045
-18.84191107073863
-19.533934439140282
-17.92659938444617
-17.678324050805447
-20.8380681952027
-26.17650191253635
-29.995807938830158
-28.61296943377116
-21.826756285961803
-13.077712870725279
-6.200481372385028
-4.425001563859611
-8.156696320897382
-13.988091146192605
-17.81033475408975
-17.423193732939914
-12.975283677371417
-6.122918245924633
0.6480345255620165
4.8777913873202134
5.065679986656177
2.0394849417833374
-1.8363680320689897
-5.021331756483491
-6.5029633056866265
-5.68137613420902
-4.006258920565299
-4.1326729148631
-7.00995248932377
-11.532983965068397
-15.165264246694361
-15.715678191208326
-13.115684727521893
-8.23112049026365
-1.8836195457011213
4.959645719388412
9.538392936660202
8.408784679619513
1.961773751238703
-5.179045183514183
-7.7398673675736225
-3.7459146647364125
4.558635253035572
13.004776756508285
17.65827573879284
17.11858040522582
13.277413360580862
9.381234923217608
7.199271928372907
5.243858967338723
0.8190146631687524
-6.520401231972464
-14.043922087703255
-18.187991009022188
-18.425128253875776
-17.38033009693579
-17.59868849705215
-20.675521366540764
-26.84827570256522
-34.20331016681361
-39.74643716235502
-40.24437127187056
-34.45387251600519
-24.986519937914696
-16.2928303394538
-11.718113278830206
-11.034620084880867
-11.110733787298706
-9.117887288725719
-4.0661017556308225
2.496261072788331
8.163399087712715
12.298317829687745
15.23132645953814
16.236534203355074
14.90156224168368
13.176277346539575
12.796065561055867
13.74028298347881
14.335560169539281
12.141403953329098
5.882650439206796
-4.224431991964314
-15.527427821741739
-25.05591222583207
-31.03765842195458
-32.97472067497404
-33.62200340989452
-36.166269724743444
-39.92390422058627
-40.91715901481654
-36.99534614180805
-29.621789962658156
-20.541639650427616
-11.955872414744546
-6.1470328159247725
-2.615527789898947
0.2574334395915911
2.759972011035
3.4487694516672307
0.6895314173577294
-3.9286281477689173
-7.421812534159635
-9.595679535704567
-12.840508037202156
-18.199694284457085
-23.12106132316436
-25.260312087189337
-24.869640832075664
-24.937649795955313
-29.03342997836975
-36.11890307650859
-41.97502712654655
-42.52266488217572
-36.45441576159919
-28.04446054809418
-21.903329366703513
-17.9846255131248
-13.677428589154413
-8.34243895040817
-4.359028351398675
-3.0348923397896437
-3.995949138847658
-6.561768329274883
-9.100137051910549
-9.87774710058971
-9.507675864328158
-10.776444136313392
-14.398024922993914
-18.211153402439333
-20.25611257059517
-20.28929983626116
-18.56358704393947
-15.154793984072862
-11.524902487822267
-8.440249440374883
-5.2186733337373985
-2.573604532302879
-2.1750663358508278
-4.226709030492791
-6.097481314531499
-5.6471742044876425
-3.2782093060357607
-0.007045934260764899
2.3202660120585663
2.8178524149807207
2.1453016262188287
-0.5612167656203654
-5.703834736501604
-10.476928276915881
-12.143935093657166
-10.662367293791364
-7.372097912152622
-3.433907720885876
1.383778749396448
8.583059887593718
18.08273696367182
26.526041148753613
30.76000478835921
29.94196186178897
24.718733427520863
18.661327545139454
15.886284492797163
16.745320036215606
18.69798047736231
19.869047162936074
20.10872057241797
18.70243968371151
15.232768063188031
11.527655668892354
9.918828186615375
10.48148295697683
11.14313244453852
11.072193920161716
11.073995049196458
11.072698708800296
10.069402545601825
7.862433627907067
5.486717176120508
4.63198572382502
6.220700246525242
8.766353119261279
8.935422414345734
3.992992377030783
-4.7399170202549215
-11.92188638756679
-13.597598881957488
-10.635905172584566
-6.980981326381049
-6.633523952050185
-10.986515621923886
-17.656554649551783
-23.20203814349606
-25.763560526137752
-24.7654785116778
-21.46159954800696
-18.097083093003185
-15.271010962109525
-13.331090258367997
-12.516915159597879
-11.543062617600253
-9.081911944628274
-3.082760951541596
7.523944776775636
19.21006717569954
26.45397271962156
25.503668157266613
17.29340861016611
6.8832117228149485
-1.1070484684047357
-3.3717323025576555
0.6895342464230897
8.47674479466512
16.43311374623802
20.859466723948987
19.46350068448918
12.520889905143584
3.645768068280988
-3.8003866153423695
-8.10506576800082
-7.0668876981208175
-1.9465309724491036
3.359379468311578
6.621930572445165
7.97175666418819
9.241646931904327
11.918369098847116
15.937102016630632
19.631029754695668
22.185466081116516
24.74706906591769
27.306988966868083
27.223633390999264
22.65170076761291
14.985200992064115
6.368712970347309
-1.7820636721753693
-7.4740812231183815
-8.660717665641162
-5.591865347813849
-1.3307473131993994
0.5446701905479857
-0.507910785673514
-2.8079740540936053
-4.8171553094831765
-5.225091724677284
-4.1139463319378535
-2.787297055197332
-3.8325108189699337
-8.140690299627662
-12.515694263780071
-15.016316041903162
-17.08717354582982
-19.583086622318017
-19.048987426953655
-12.282337272372374
-1.6271789919171222
8.175608130304205
12.416532971753652
9.412414128809845
2.454217225359376
-3.3031466015048485
-3.869425643676325
1.494397749209907
9.711010760376052
15.864502297410233
17.477847243508087
16.238021965274765
14.597946461967354
14.220408320952753
16.285926883263247
20.08746835766225
23.579486026364904
25.199956154957878
24.137077847160473
19.862305046732004
12.863057988972159
4.75362081336856
-3.00420568434612
-8.580835343687205
-10.511061843633845
-9.262378986961844
-6.5284664360266875
-3.5839028744306036
-2.0554284923677395
-4.374350666010873
-10.297347667998292
-17.58271680257773
-24.416636136367313
-29.425823549176084
-30.881418466377124
-27.06882423636463
-20.069230676781668
-13.943180047094186
-11.368618585357407
-13.322591433438836
-17.733747595761773
-22.28503058484522
-25.87432427933229
-26.521926094316836
-23.511259852807363
-18.24660549058619
-11.914258696092563
-5.412572290408767
0.6592018480058202
5.865015666007316
9.497977928083156
11.445175360416687
12.926193985166469
15.441947463760782
18.280009652770953
19.011604483486924
16.03814389388062
10.047134838636964
3.3273139166526517
-1.9449652157714032
-4.18872608354418
-3.199601768194478
-0.02790599976844699
3.6351743711537767
6.690529386103536
8.862288125166485
9.777527553866507
10.102052780755077
9.577051445925163
6.717928148371751
2.1151146048480585
-3.0033360820708275
-7.97557576685121
-11.517557195757856
-12.953887592547144
-13.19985833992451
-13.292516174161626
-12.872176696937723
-10.836460606913187
-7.272892627580452
-3.2634856176782256
-0.8743894591675205
-2.0108418945834314
-5.513971292689183
-9.08314164818862
-10.410313423341757
-7.63028501373052
-1.2308751371849211
7.20874363917249
15.33068765182637
21.317777679263063
24.416095557035344
24.584827196594674
23.99460979707897
24.27570354818629
25.46381128052088
27.40539153108686
28.740734504157032
28.078385989336017
25.701589063355854
22.447493756401514
18.76926551537229
14.585586162325667
9.349439226307096
3.323274774353721
-2.194959617084722
-6.076658853500014
-7.977962193536944
-7.8480094366887005
-6.231024416884092
-4.488458145297671
-3.180086546507862
-1.6142366189111683
1.2570839112086056
5.5367821064443685
9.615622963202696
10.64453861554172
6.309828599812248
-2.9680397002074654
-14.781910134020213
-26.208427355072747
-33.80287817635471
-35.00751175667997
-30.205337262153897
-22.221652417755863
-14.566549164008439
-10.492307216390923
-10.991255690422566
-13.431432217166119
-14.942122596881845
-16.244955731148654
-19.996525927617675
-26.8681741558954
-34.10482957658043
-37.5562427899719
-35.00629645663345
-27.920071486769668
-20.269428438619226
-14.221817910797661
-9.401852607250039
-5.481428684949125
-2.6589682981561236
-2.4203868928600145
-5.786725928677777
-11.386510530239113
-17.206033830083154
-20.96908190096909
-21.71315598461156
-21.077763616298512
-21.262750505814957
-23.509855823838034
-26.320021800601957
-27.250119216226462
-26.0485154157325
-23.62687284615695
-21.42170545995846
-21.193092341533834
-23.453975029162528
-26.996725365573365
-30.641583278958326
-33.71860185203741
-37.11667302194599
-42.917613215816594
-49.906569370215394
-54.78139648464868
-55.774389508732376
-52.9691981535003
-48.03926899348364
-42.85879078076166
-39.50578709810314
-38.31951981993546
-38.03547622216417
-38.66130851846621
-37.585428887939685
-32.115459905334944
-24.303827772177883
-17.121761555930178
-13.37910973963182
-15.025932691503645
-21.173577550360775
-28.1337673923596
-32.50211189098832
-34.53396149506006
-35.932285696236654
-36.73758622441961
-35.700790122833524
-31.319896038978225
-23.291363387351016
-14.62454378042891
-8.663479178592118
-5.571974029414041
-3.877215309312068
-2.521096434410347
-1.6968396426951047
-1.2341907248025268
-0.07677062355161882
1.7479559154845492
3.9361365304354505
6.741552114155933
9.456067206447523
11.332587308969783
11.912854630949203
10.673148377968161
8.434298582683773
6.388111295159838
5.893865373423982
7.202220295206646
8.04182760610744
7.094011282886533
4.774184337704395
1.9611953149106751
-0.24439564787852133
-1.9168049884667437
-3.6181367089864347
-5.555834935926347
-8.167173102206856
-11.374549269390421
-15.016355541435956
-19.064413808907716
-21.99537551489554
-21.906768563135426
-19.046308044020197
-15.256877888710692
-11.539733143083842
-7.745654589315126
-4.606502780153187
-3.478454305622679
-4.271143378967981
-5.298809043631381
-4.744047542291159
-2.153289160884898
1.506166864229524
4.407940812064915
4.937614699965112
2.265565594254046
-2.6739965065218536
-6.841586149105868
-8.198531370763119
-6.279338359891391
-2.046397862399388
1.9813210581049425
3.886463528514606
3.547168602430375
2.86839812115556
3.129975690734396
4.144769555090713
6.004982620865826
8.19637670963468
10.378940302596849
12.199910060508968
11.555524262066958
6.588911719446338
-1.8415992754101231
-10.296735548797672
-14.90073714836634
-13.878804609059571
-9.570289356003208
-6.610244960400068
-7.305545051773733
-10.289629844586338
-12.024532669792038
-10.597282998791535
-7.229581954841395
-3.7907683436554898
-1.6802294868632033
-0.9481058481979563
0.20679355953093945
3.7046293245041353
8.34863166413936
10.699221522559647
9.868415065647437
7.303620187714714
5.5634140118544
7.684469298525803
13.044261200280653
18.038090494158247
20.097488639419655
18.349135813714096
14.922001703920277
13.258795233152716
13.525732370242403
13.268976253958924
11.623105368268583
10.03077734862852
9.231259575089425
10.484741924700245
15.872133512422145
24.326396818207293
32.94913451458204
39.473495263881645
43.03655450860102
44.04869563950041
42.61292808026226
39.20855849178872
35.42399132849662
32.58825012011263
30.2947941573119
28.246898416621015
26.866637737188846
24.447706586792556
19.241225497916513
13.259997596705343
10.065385015503784
11.252883207020352
15.96331337920291
21.31140554850432
24.636529061924612
24.395302036856425
20.852019404064876
16.81892788507007
13.28058316462207
9.093443853263288
3.5732738508848727
-3.137870264586089
-8.49818489942864
-9.188621688178838
-4.625466795198758
3.166383546983088
11.462150312318963
17.791861041266255
21.67869872593655
24.656852658056575
27.69151542139036
30.381062716259176
31.21553795056104
28.588950759171123
22.264438750186955
14.106025673179277
7.250082777057562
3.8908803455273833
4.404534263219439
7.911878633556939
13.326379928718415
20.068846591612427
28.372087123262766
37.992530347530185
47.11998248022919
54.314169856423476
59.414528775161564
63.13466609279101
65.95120699457043
67.47421752384584
67.32195786589871
65.34376431820357
61.87901992539751
57.78124281347091
55.07745676217295
55.672758062140986
58.30582282213927
59.99668791495861
59.29400916461967
56.655455275064895
53.706612147304114
51.41591567227945
48.99953250131365
46.615173812707035
45.04408627051842
43.70698632538238
42.63065088109026
42.44017921872469
42.38276708173876
41.651407279257235
41.169087000153056
41.6461554332369
42.317629502658946
42.65097973617606
42.565333606708734
41.187011510159934
37.93197459910235
33.296043568504096
27.678108795445986
21.996826991172927
17.653414315744932
15.285843291552393
14.261691306741529
13.519024221361763
13.726916427697613
15.975149161418905
19.809908703249963
24.655471173844372
29.881912798422267
33.71491110744252
34.30817413506985
31.363121992989107
26.310029752058647
20.583395746895754
15.47207654971031
12.847134302285532
12.867607003899604
13.992903797657792
14.567601701618107
13.980425757510687
13.131417017889891
12.40640370247298
11.669037061173212
10.723192069814752
9.984946429795992
10.216208516385356
11.13577039664488
11.732910162408173
10.642974565411524
8.290216681342127
6.200018785179785
5.285591768071704
6.619402332677307
10.157615030531902
14.627067462362263
19.242091731578814
24.03215340115196
28.367402963264258
30.376319167873405
28.706473288015594
24.010651692395346
18.12443679154898
13.059540832855284
10.374974502032515
9.999395873266026
11.062116734536064
12.77458093375986
14.315194277709544
14.533129306934914
12.482393912128797
8.529524813625782
3.3030189804282064
-2.2076169789944875
-5.830009846496252
-5.4958928056298895
-1.3433850057287315
4.714267324182867
10.42923717665032
12.854321793024882
10.466340434199502
4.279755213959515
-3.3205217514767207
-9.981078741828231
-14.351827477989977
-15.342346369818761
-13.5545506142027
-10.99547209456304
-9.72305271656041
-11.079282939548712
-14.254980732557936
-17.646455259897934
-19.44163747166673
-18.737352552518704
-16.468280997447252
-13.35311495214014
-9.868743595458733
-6.772400901952151
-4.451637154350725
-3.0988117786527516
-3.041533932787655
-3.8130947892980607
-3.85547783829141
-2.8165027245143635
-1.3647250832955966
0.1037133039286175
0.07403364042530969
-3.0401212155481354
-9.57916890909442
-18.702555178796608
-28.428272360069624
-36.88120509878953
-42.70629643543232
-45.52789291026128
-45.85391889163375
-44.361896973681986
-41.357784253859826
-36.541644227556084
-30.108899376498744
-22.594715013604286
-14.687820708476101
-6.69058184626478
1.7545197577298406
9.788048712148147
16.476687620249773
22.015321110621993
26.11202568545873
28.594988360970678
30.193371100005223
31.218945506827286
30.797989771778678
26.93298661446909
18.382708555564825
6.428217770354101
-5.720829716775994
-14.792932917635598
-20.109805104075512
-22.121877422425282
-20.924944212239893
-17.590021384969873
-13.380713365899764
-9.183618528878013
-4.932459746987376
-1.211450765615458
0.609962501401551
0.7126858910803512
-1.2927470501155935
-5.399609360820804
-8.852478995188774
-8.912078412669063
-4.931171628321105
1.7816439956141308
9.044897900370172
14.62928641514126
16.35372925698044
13.255904916466516
7.090795748192417
1.0901794677078593
-2.5792724592227736
-3.614579396109654
-3.20687398067583
-2.4678789134262926
-1.924383842403117
-1.990278307908056
-1.9663502351168651
-0.7390728201988832
1.0211336907891249
1.862116225988561
1.8428708239402207
1.9813340745583383
3.4974139162802573
6.581782351679758
9.348598619541782
9.712611829192502
7.503791239862924
3.9401523284758295
-0.2672388507024665
-3.939587838431824
-6.258860077113106
-7.623885797241347
-7.51453637068088
-5.2326587544845795
-0.8717708543698613
5.0078672662114165
10.98175994563534
14.684789309112743
15.430397936948612
14.434104594433501
12.693270441449357
10.74875561964347
8.40809256869411
5.5296860872790745
2.3678595619746456
-0.5904202489637779
-3.6783116372265856
-7.845460585020452
-12.596582149197186
-16.09937606058719
-15.7611802533177
-10.494863476997228
-2.3840343476591146
5.582611778453672
11.398060299354032
14.65380915406566
16.11090860636462
16.767939720120765
17.819501291693793
19.59745074219987
21.47046795932373
22.530081844835813
21.98035000417919
19.72101127342199
15.371933689947602
9.02910258870597
1.277382656205283
-7.525633077273143
-15.809017893306974
-22.213676281189052
-25.550319428415058
-24.829837204733913
-22.722869379166
-22.748852172339408
-25.41324120384605
-29.499321766493942
-33.08315451569988
-33.87103815128223
-30.326253938267918
-23.63457330644424
-16.62910839843081
-11.707830784082661
-10.781691207564075
-14.215112287298437
-19.984955324744703
-25.27851241407283
-29.3766984629953
-32.53085901126184
-33.97451069895969
-33.46627198666179
-31.74424935396833
-30.296953609681317
-30.682915102400376
-32.34132004550136
-32.95782049867576
-31.132728137832377
-27.289328351996012
-22.46564538614791
-17.638164205642056
-13.71046522530373
-9.5439585994869
-4.863164510897217
-3.205137907284602
-6.171493700140571
-12.235932887445504
-19.647962745281188
-26.74213715262362
-32.00396024168394
-34.79232427623523
-36.0686565294937
-37.076547629057224
-38.319860934882705
-39.29139976260374
-40.23190617624386
-42.24577554405804
-44.983778425088595
-47.30922807120358
-47.56259548750771
-44.895535746344514
-40.9792065892746
-37.582061247370135
-35.56401875824699
-35.449879963111776
-36.86675897559007
-39.43557714784291
-42.13177902722913
-43.68602845132772
-44.48946921682888
