AAD_Filtered_TADAS_FILE
AAD_BASELINE_CORRECTION: BASELINE REMOVED
AAD_FILTER_TYPE: BUTTERWORTH
AAD_FILTER_ORDER: 1
AAD_LOW_CUT_FREQUENCY_HZ: 0.025
AAD_HIGH_CUT_FREQUENCY_HZ: 40.0
EVENT_NAME: 202302060117
EVENT_ID: 13194
EVENT_DATE_YYYYMMDD: 2023/02/06
EVENT_TIME_HHMMSS: 01:17:32.00000
EVENT_LATITUDE_DEGREE: 37.288
EVENT_LONGITUDE_DEGREE: 37.043
EVENT_DEPTH_KM: 8.6
HYPOCENTER_REFERENCE: AFAD
MAGNITUDE_W: 7.7
MAGNITUDE_W_REFERENCE: AFAD
MAGNITUDE_L: 
MAGNITUDE_L_REFERENCE: 
FOCAL_MECHANISM: 
NETWORK: TK
STATION_CODE: 4621
STATION_NAME: 
STATION_LATITUDE_DEGREE: 37.59347
STATION_LONGITUDE_DEGREE: 36.92909
STATION_ELEVATION_M: 655.0
LOCATION: Kahramanmaras_Pazarck_Turkiye
SENSOR_DEPTH_M: 
VS30_M/S: 714
SITE_CLASSIFICATION_EC8: B
MORPHOLOGIC_CLASSIFICATION: 
EPICENTRAL_DISTANCE_KM: 35.42
EARTHQUAKE_BACKAZIMUTH_DEGREE: 
DATE_TIME_FIRST_SAMPLE_YYYYMMDD_HHMMSS: 2023/02/06 01:17:08.2811230
DATE_TIME_FIRST_SAMPLE_PRECISION: millisecond
SAMPLING_INTERVAL_S: 0.01
NDATA: 4639
DURATION_S: 
STREAM: HNN
UNITS: cm/s^2
INSTRUMENT: sensor = GMS+/GEOSIG | digitizer = 
INSTRUMENT_ANALOG/DIGITAL: 
INSTRUMENTAL_FREQUENCY_HZ: 
INSTRUMENTAL_DAMPING: 
FULL_SCALE_G: 
N_BIT_DIGITAL_CONVERTER: 
PGA_CM/S^2: 146.785
TIME_PGA_S: 
BASELINE_CORRECTION: BASELINE REMOVED
FILTER_TYPE: BUTTERWORTH
FILTER_ORDER: 
LOW_CUT_FREQUENCY_HZ: 
HIGH_CUT_FREQUENCY_HZ: 
LATE/NORMAL_TRIGGERED: 
DATABASE_VERSION: 
HEADER_FORMAT: DYNA 1.2
DATA_TYPE: Acceleration
PROCESSING: Automatic Paolucci et al., 2011
DATA_TIMESTAMP_YYYYMMDD_HHMMSS: 
DATA_LICENSE: U (unknown license)
DATA_CITATION: Turkish Accelerometric Archive v 1.0 - Disaster And Emergency Management Presidency, Earthquake Department
DATA_CREATOR: AFAD
ORIGINAL_DATA_MEDIATOR_CITATION: : AFAD - Disaster And Emergency Management Presidency
ORIGINAL_DATA_MEDIATOR: AFAD PROCESS SERVICE
ORIGINAL_DATA_CREATOR_CITATION: AFAD PROCESS SERVICE
ORIGINAL_DATA_CREATOR: network: TK
USER1: GuestUser
USER2: 
USER3: 
USER4: 
[...]
3.4560119659263013
1.7006667952832868
-3.1686927738302115
-6.080442119706545
-5.774088521638321
-5.471671872486874
-4.3761979351425095
-0.8259729692869195
1.3583715356962869
0.1459206198743576
0.614950489430151
3.3907484470441354
2.946230564538114
-1.137870322364041
-5.715977295418075
-8.746289618582528
-8.68329188875798
-6.795996782274803
-4.505014572795774
-2.0411124174508464
-2.8968552184472443
-7.634203770647607
-9.927702083639868
-7.986291422090197
-5.846581479583695
-2.7776624503097955
3.0931561938474395
7.687034007722389
7.320755978675282
3.396344410180451
-1.7378866534896136
-6.705745506732702
-9.613295026903304
-9.573248714997671
-7.8271574224878915
-4.948378835921922
0.24837675303234616
6.315272336202869
9.226681163001114
8.930374463672562
6.669629346993053
1.427919959765197
-4.632538052650625
-7.832285573343391
-8.446888569062198
-7.3555174076325684
-3.856884252003703
-0.4062990827759027
-0.508603788058356
-1.0353920930489158
0.8186396549763332
-0.12149429220928927
-4.036218933994357
-3.921600484624898
0.24430093781601167
3.628568808856118
4.562819329789352
4.269846512255441
4.0669499566096174
4.527815591390217
4.8414695520864885
2.0456949604655983
-2.293623468367845
-2.5209252626762946
-0.38481170235061357
-1.8384063936598207
-5.59747537973351
-5.6251268951294655
1.0606635257143022
9.278231042431221
10.173122319921195
4.611521220686768
-1.345924484595016
-6.228774940888467
-8.926557670443708
-9.17115440724786
-7.180946460358218
-2.2512031755490947
2.2901933827855014
1.941058577884411
-1.2915880859186415
-0.7428752906221264
2.511122248977418
0.785681900750193
-5.805268044612153
-11.40246336447298
-13.938673201902976
-14.648168728226873
-14.068715397322027
-11.438492139162124
-6.13581072322032
-1.8567594979753466
-2.4278749846531986
-4.121261605521073
-5.067104489011098
-5.293428673838299
-2.4401937545316366
-1.4262608599598139
-6.3647206006716335
-11.532852959595171
-13.827873159533713
-15.780247513400097
-15.979143288408501
-13.356116963710818
-9.843714571264604
-2.4935025625830733
5.562718368695349
5.628749694748342
4.142242993805981
6.565907967021383
3.706206639832005
-4.7003578892350095
-10.079880025169041
-11.860557442703634
-10.909128750640072
-4.769059842663585
3.838203375045849
9.076256675878438
9.806482921489273
7.897460656736889
2.63523115329484
-4.605997828499529
-8.214407167491284
-10.955239570113323
-13.975590070338658
-10.231096609136076
-4.044872382761505
-2.992763854753938
-4.26119630828
-2.2633650852983456
3.6859679579744915
8.629206550088389
9.142843377996984
5.698705283293388
-1.2785609689057957
-8.68053086794886
-7.4102680365589455
2.4392676319767372
8.021712450599475
6.851158436282432
5.3959417775663
4.44769203086125
2.8380973843264874
1.8298170897716604
3.5956828527121756
5.182172330845397
1.4173661775713462
-4.383102945283182
-9.839000228506908
-15.66018194804992
-15.717847801899238
-8.570045428345857
-0.01559283457779432
3.6290585979674317
1.0549384216450493
-2.6180662290706893
-9.21137597249129
-16.96672813244565
-17.854407294081604
-17.229253231670132
-17.534401924831165
-16.776166644884377
-19.75423445129161
-17.6639869705968
-5.345318034738008
6.973887763577409
17.062098669323866
21.514713365024264
18.307257358951226
12.034999595852124
2.999549648764822
-4.731955525716698
-9.77362649964798
-16.91303516782338
-24.356747127119217
-27.150762560608143
-19.446244789336827
-1.1519470034634616
13.575471022060116
16.82257817454498
12.468038421977813
2.8705380261643034
-9.357015961944692
-23.828403499783498
-32.80562642160102
-27.276268981238445
-17.118313822971558
-10.447628535852628
-0.8952715353566668
12.885795298232965
16.751769234496575
8.182013459550962
2.611007228877999
-1.993390581055425
-8.822641398832335
-6.555607470888112
1.228698134045015
3.6018930672996343
3.0573263728353677
4.465927159064654
5.792162692542682
5.533234106013947
5.047673514419232
7.398675875036105
11.839015000196197
15.864273705447602
23.793066185780496
26.95999953117119
13.113296205011991
-1.1381385340643386
-3.2151988769887243
-6.305774426176924
-10.027474385117472
-1.0175199721449446
14.010328376163214
19.975830982724645
15.160731921942856
9.766379296978917
9.121616083591022
6.362037771036088
4.609614201347557
3.1137061264585832
-10.560459858590093
-21.019858726474517
-11.245121345257209
0.16886361568820532
-1.277255201528032
-2.592272714747887
3.532475802627813
6.654613429524597
3.112095887069262
-1.7007527936433553
-10.053105607296356
-17.347488761222948
-9.509570436710355
2.7600416479791434
1.3190017565250216
-8.196194719344646
-11.247096468708898
-2.794236013843642
12.854410832178024
27.82404117094903
33.15353950208247
28.338107727286918
14.508464282925
-4.628828637623972
-20.885453611861596
-32.87852776422783
-32.05839508651101
-11.03226470034664
13.349094713595981
14.301320430443713
-5.7043421130249525
-18.23079920979445
-14.587409401853986
-0.5786673988705809
14.198314619395564
12.924389674141068
4.9972193145345605
8.615302009680681
9.622012973417855
-0.5147721140093683
1.464630396618164
20.021133332983403
29.144687830982235
23.77637816432936
15.624558873098655
8.88837529960755
1.4509986632415983
-0.3999120482238741
13.548579215719805
16.700849751755253
-4.379927518370083
-20.237593780919763
-12.87649524803458
9.057260209456432
20.177228100750124
14.965060152864215
6.468657181804377
4.019349630348791
7.539146045362041
7.142791600334098
0.19652119245101746
-11.060914090475029
-15.118033999905402
-5.321374502682872
5.039939972549141
5.030848346571835
2.8066883268526306
12.698735076132916
28.42051760650579
36.34392007578823
30.13109822259689
11.749725102017191
-2.338504629154677
-0.022918538968235955
11.13948906185688
14.603345257086678
6.275696991936655
-1.6679443825560063
0.44817775668376036
4.418606117561086
-3.7522105061603757
-14.051132330335767
-5.22272128415702
13.94856836420997
17.675849140191517
6.062793823608958
-2.338032115374903
1.1962062896451178
10.251005987045373
9.187186575866672
-3.403055090304244
-8.552201125144284
-5.607405648933694
-9.710568581252378
-13.037598324976788
-2.856724419169045
9.174537064752485
7.499360664993743
-0.22422379309438775
-3.087313734773934
-2.365480955497956
-0.8828693394784327
-8.787585722423875
-24.143333889618994
-26.31513480368459
-17.32627151000515
-18.600577223713103
-27.405468193440193
-25.442436895026372
-18.03540534345209
-20.546622067709567
-25.20771537201617
-18.927764909794107
-12.608779964654246
-16.609822698199505
-19.04977528183244
-14.271532903956297
-11.475793496681204
-11.050345522833112
-6.624734238893993
-0.9066821564467922
0.9850354842413112
1.3982562019017213
9.785695768353197
25.998167951169865
36.20455268420671
39.50227324427366
46.27511586433213
51.05581217358824
41.93056490980049
31.483231631314535
28.619114393512202
20.690452052640893
16.641811997681785
34.15120438862801
51.89310028746141
40.06765150743401
21.228971778914968
22.848285816365557
24.33709510770538
8.313007528090587
-9.995189056594896
-14.558030009408295
-7.28230779944882
-1.642695138919276
-13.405767170107428
-23.718941723169618
-1.4537322979612983
30.64650866088747
34.92646375385235
17.97475339602667
13.99892653480895
32.13472017667358
55.51201261888701
70.9200950455628
67.20440378639881
56.01312378890934
54.76725663093816
51.63069056666701
38.6023884788051
15.951340624227496
-19.336465964605654
-51.639244802540894
-58.30096844399273
-53.518185901283424
-61.86584508578619
-74.62375161972552
-83.93382242411931
-83.66837265667768
-63.46752555625709
-38.9899083453728
-32.20288266526333
-31.37545697854971
-14.980672321564668
6.122334469250441
18.15783903176444
17.35522194488943
1.6866996619411034
-10.843322222655154
-4.792897573042557
3.1564076194292086
-15.706891634618804
-53.79066743685252
-65.85622111849142
-41.358154744971955
-18.474197205699333
-16.690350965321727
-27.46190823207639
-33.00022832044315
-21.20627246114832
-15.02242422247048
-32.17109075405556
-51.47669157681628
-56.0927289985868
-43.93499715648805
-22.231397680776706
-12.789836118193627
-8.891431969306892
14.589228968605816
40.21721664808523
48.99868489687096
50.61440677893035
41.88805035627119
18.066060289178587
-7.010114285190526
-14.702667080598468
-5.328145272817817
-3.9189475805838776
-15.396676765916636
-15.965334697790627
-1.5569289900715377
9.953533927100445
9.574324039453465
7.698663952983789
14.478936321931034
13.161822132831267
-2.896791735767752
-7.275557592809954
6.776595783816571
17.485062786513993
16.87649651934889
18.17300927475628
22.61149149626929
18.657996040688484
14.232825362648963
16.632399686744257
17.551641968407036
27.563036644028802
50.001543505599955
54.40519205895125
35.30727713070988
22.865047943067765
28.541113334346512
26.72589270959826
1.1067870469915833
-16.898014539393326
-5.004093382561389
9.410688057769631
3.8162033483610522
-11.412292220339182
-18.601840716885235
-16.127033044239717
-15.626498798822889
-15.64616113318462
-16.227494285970497
-19.220232270284683
-10.741609673247593
-2.067596501704373
-13.646972325034117
-33.96062603494132
-43.769432811765476
-36.95573368402575
-31.754797715437213
-39.59783971523457
-43.46110935117879
-44.210687482299306
-44.65643502785717
-39.96814050993587
-42.28290712928792
-39.30469033105972
-15.910594973313716
4.013465771562796
0.304518369965955
-9.992362628012833
-2.5387080329324303
13.296916187978937
19.82320197876867
19.87146929982149
25.071000926341405
35.58904483679729
41.94286682780674
42.93652749856703
39.37704725811424
36.929978059391715
36.395507703733
30.870860962160503
21.657259514371134
12.215572201758656
15.3593976195043
37.40622764564672
64.82161112995337
88.35525561571465
107.00525296584446
111.24025565334183
92.23740385753176
70.5773459473524
58.56190681626924
36.883620408713746
12.45746157877152
0.8752963366195946
-13.317834058764614
-32.771361986776924
-50.12047948490994
-62.74874613383767
-60.62526787959798
-55.907993645016106
-60.88892007034841
-66.88883650217953
-70.55942153628443
-66.74887305231024
-56.5004823203732
-48.53551545736597
-42.261046202014015
-32.0728436788325
-14.90037218647612
1.9981867679072405
2.5139597242650034
-14.800662160750964
-27.052889291982414
-23.618176603544104
-14.406924973841345
-8.464076107619242
-6.35448435960751
4.485656953654302
18.131241583958154
12.335905650748122
-10.034364209005725
-38.18336787619765
-61.281788459265265
-69.34693425411119
-67.05054057345342
-45.717821668658125
-6.23619549740448
22.74411728887241
37.35456762417438
57.60918296039857
76.69914210878036
75.9836031829263
75.00563272053152
76.75623949690669
62.36750255836579
44.39761642698665
30.502198805454316
24.165757819190972
26.555619658695583
28.695762927413355
29.470875992889663
26.937921313299725
27.164810664564783
33.925191175349426
31.631221893859536
26.74401020215205
31.6967810738322
24.551958075297364
7.594136527941809
2.520768978787269
1.2624449376016726
-8.177620205442482
-14.131143966543352
-1.326680232234505
9.065415895804874
7.98973604501267
16.452729415678427
21.64980165756417
5.902753176226699
-21.34102346491489
-49.83043107584023
-58.77033795349817
-25.976816438817764
21.515674944620535
33.48093470692134
14.91663178108521
4.1131427814776735
2.788576919779561
-1.8841105372703613
-3.319100376075651
-2.465354055193488
-0.9688638058917609
16.25681259461561
41.204369812118586
45.6257175463041
31.38801472896315
22.088190953926702
17.331022192311554
6.8346061100245
0.006448532995647502
-10.111872717973544
-35.450045581901016
-50.574395254565424
-41.421533002594956
-35.859907079361314
-49.07204790225292
-67.66005087726263
-74.42661134750747
-55.86390525087414
-28.800986385431475
-11.955113897303402
5.567308191471335
29.46840276284516
62.5064054497413
95.1133623500382
110.7179502081439
95.76668570318499
48.67737158543392
19.466702686602375
33.73363605116908
46.1750377524707
28.80136047256843
21.5297588558863
45.024342173946785
55.3987538463159
57.74221371851205
71.7041106391392
73.24044866103561
71.78039505388523
77.41212150878191
78.24885391873407
78.95097814979326
80.17720347417931
82.44127372209405
100.63227755454353
125.8494145243315
117.88090482696555
75.20858031691392
44.67947235860254
43.62508295581301
48.19263304336107
36.246286517337786
5.273763850734901
-33.07061581209874
-59.85346585594089
-70.99666209504292
-79.07621619783615
-74.7695149680575
-61.24758672083406
-56.47358099262995
-49.14969180692545
-39.07579329130947
-38.0104517441366
-39.00962061238598
-29.051258983465328
-13.52640588516031
-6.629398466983303
5.259949198958391
28.918871401158334
44.1519333818539
51.99581362703374
60.25611082771925
49.58662519371689
21.803450235462
8.74410744605373
-3.64412461443398
-40.61275060541656
-82.80889255326886
-114.24681960132703
-134.86268174263992
-146.9368926631304
-140.62817140017515
-126.1650578741966
-125.31434834449068
-105.94332759635371
-65.32684611746917
-43.890143906229895
-33.507955046427846
-21.072033192985106
-17.746246907359577
-13.222600645791053
-5.095067653299827
-9.067479710683784
-17.26743327312016
-25.632457904320823
-39.36655940386773
-50.72333570496444
-51.290540566628145
-47.94959462189586
-52.70913378568691
-57.73418690020811
-49.82874259192233
-30.18366365528908
-15.946803946845959
-10.650350788148112
-0.5857856576285421
9.34317407304443
21.198533490636134
44.78543120995549
54.53369235662427
32.00747390450462
9.534537113489261
8.686436031900772
17.954507379062836
39.26530860369036
71.59372069743017
87.39159043114793
83.79112237587813
84.7817477832755
70.09899062394781
36.716603006175674
26.31276565022293
18.74634296890715
-12.398431744340677
-30.694802653176083
-25.075563508997906
-36.10753685945998
-51.749529089087936
-32.36226767199044
-15.10419202709313
-9.357593266251715
24.736606680502465
60.64224241874508
61.95642615177617
45.15391891582343
25.760571326675656
2.432652394168648
-17.381934831702857
-41.656963907525636
-74.75209984272092
-78.27257758508136
-47.71131735032214
-16.842981188195683
17.924179199683557
39.716595276121744
18.419940503903028
1.115782398847943
7.660413626604366
-15.938773161877153
-62.79287914143585
-93.96074371416987
-121.6804797750869
-140.36568283329743
-123.96398613374733
-95.97829938645148
-67.88192489558276
-12.957223511079741
44.3687159560384
67.75744538032116
79.58407242530541
90.17742071345893
67.97791312782306
22.519074748980035
-3.467364111777047
-14.433853877940487
-16.17273978051202
3.1332021886258064
13.84170437956165
8.389040139241413
21.630951989377316
38.71243668254234
27.26465174411326
1.8305492423265852
-12.648784226996813
0.14476322029552105
34.55679366955742
56.68788556006951
55.71665115620195
50.177087047478715
42.617990863579806
29.21436019456607
25.652192211718813
30.68257958914046
33.81175277573513
45.12308703992217
57.30943965611576
60.61691801681854
60.16726399175225
44.73621651690698
17.85924319484663
13.346909431199736
20.94971364836206
-10.508450033187422
-64.26517776585204
-88.25808185540704
-91.6760672874675
-102.78264759140366
-112.20445702440009
-102.63289476060397
-91.58416546417831
-89.73957644479812
-92.23289042391315
-105.77967917086814
-106.68427235457779
-62.987094224467306
11.93878929926068
67.62749620916266
77.3589841765104
81.96647253167723
99.83801380518858
87.59454197516149
57.6496994483335
54.18485732568196
55.0228758655839
38.493840521067554
17.313722899023304
-7.66932883978172
-44.94973172872532
-83.04522210156071
-98.60501867818604
-88.61567230079237
-66.55891929992664
-48.137545964648865
-31.31430152984924
-11.110726125075903
-3.4206857837332016
-3.2984095190146134
-0.2574526907719775
-4.6420374596505685
-10.747794831600332
-21.46819527185596
-46.54733577242844
-63.08634611094837
-54.92784892719221
-38.67873039233123
-29.39553676537736
-21.689944201433292
-19.01843299000377
-30.480605875709504
-44.30697171343234
-49.04679166791378
-50.909749290833744
-64.22042451627244
-85.24860125056682
-107.38700644798328
-123.95080740236365
-110.13966971440287
-74.91058971791243
-44.00424489533045
-23.884394988524278
-10.952939494571313
-8.435293917941697
-19.88701825660392
-9.02782017091851
24.418535446802856
41.71336962736883
43.54701031571726
42.89666950522045
39.70640509549821
43.121846052883335
74.21286379662314
110.4006579580652
113.29402553279105
86.88705240392586
53.45301632139784
28.982946117743538
17.871035167997373
11.393202047307174
1.0475974629292266
1.9883639868374066
8.940119542817305
-7.852520818451616
-30.45849137083422
-22.807714642756647
4.036220954795515
25.46169933739907
39.112506430143455
43.972027647366396
45.671800534482074
45.073920009604386
38.4460800526324
38.7977415447746
39.6251086704273
27.841790439828447
15.084442065628288
19.323911623192146
39.05133675678349
51.84763439980816
50.68349035567462
46.80125253566558
47.52222824392561
50.87126067478975
60.61041487270974
69.87305890989451
61.6457293908598
54.349615328427504
58.84727078611576
62.35361136324222
60.58861902237334
57.443026089748486
63.894965056261114
65.47893391464977
47.13308285496953
19.802167899745736
-10.65864635478803
-33.90162852061208
-42.142140600255274
-45.87719477497707
-49.69992111358067
-52.47267424909091
-50.8566074741932
-31.703496644143595
0.8362610498387332
23.551686096282847
21.077092598970562
5.440798383095738
8.356295698488616
24.531613672925836
30.980786820094817
32.96061002380866
30.591657967142183
26.189224770393437
35.187555476097074
44.56507567918682
36.27524198802251
32.62197141157712
53.67043885959271
80.76046087130277
88.8292997771292
69.58576396737597
36.61100446983605
24.22926475600025
48.71457050559991
81.21921777238052
74.32944550013588
25.701300513416445
-10.462526674126892
-10.66624339976871
-8.628036821670563
-40.156663786225295
-92.02780757936375
-121.40638422803748
-122.45862057471469
-109.63663317156404
-96.54735245260524
-84.9354366303693
-61.61349489322757
-40.47520206389038
-29.108991806790698
-15.144423195730266
-14.398160902266982
-37.66795230752584
-69.95060400485377
-93.20872899930822
-97.83057445237667
-93.77278961922893
-86.98926633875601
-77.55896851113043
-62.867357786283556
-32.64501027247546
-0.6685915703047425
7.208172155754361
-14.616630298510303
-41.380239167601374
-39.73035159914803
-19.245152979496662
-8.104023521161244
-10.51585675228737
