AAD_Filtered_TADAS_FILE
AAD_BASELINE_CORRECTION: BASELINE REMOVED
AAD_FILTER_TYPE: BUTTERWORTH
AAD_FILTER_ORDER: 1
AAD_LOW_CUT_FREQUENCY_HZ: 0.025
AAD_HIGH_CUT_FREQUENCY_HZ: 40.0
EVENT_NAME: 202302060117
EVENT_ID: 13194
EVENT_DATE_YYYYMMDD: 2023/02/06
EVENT_TIME_HHMMSS: 01:17:32.00000
EVENT_LATITUDE_DEGREE: 37.288
EVENT_LONGITUDE_DEGREE: 37.043
EVENT_DEPTH_KM: 8.6
HYPOCENTER_REFERENCE: AFAD
MAGNITUDE_W: 7.7
MAGNITUDE_W_REFERENCE: AFAD
MAGNITUDE_L: 
MAGNITUDE_L_REFERENCE: 
FOCAL_MECHANISM: 
NETWORK: TK
STATION_CODE: 0131
STATION_NAME: 
STATION_LATITUDE_DEGREE: 37.856602
STATION_LONGITUDE_DEGREE: 36.115347
STATION_ELEVATION_M: 769.0
LOCATION: Kahramanmaras_Pazarck_Turkiye
SENSOR_DEPTH_M: 
VS30_M/S: None
SITE_CLASSIFICATION_EC8: unknown
MORPHOLOGIC_CLASSIFICATION: 
EPICENTRAL_DISTANCE_KM: 103.35
EARTHQUAKE_BACKAZIMUTH_DEGREE: 
DATE_TIME_FIRST_SAMPLE_YYYYMMDD_HHMMSS: 2023/02/06 01:17:29.8683590
DATE_TIME_FIRST_SAMPLE_PRECISION: millisecond
SAMPLING_INTERVAL_S: 0.01
NDATA: 12501
DURATION_S: 
STREAM: HNE
UNITS: cm/s^2
INSTRUMENT: sensor = ACEBOX/SARA | digitizer = 
INSTRUMENT_ANALOG/DIGITAL: 
INSTRUMENTAL_FREQUENCY_HZ: 
INSTRUMENTAL_DAMPING: 
FULL_SCALE_G: 
N_BIT_DIGITAL_CONVERTER: 
PGA_CM/S^2: 159.765
TIME_PGA_S: 
BASELINE_CORRECTION: BASELINE REMOVED
FILTER_TYPE: BUTTERWORTH
FILTER_ORDER: 
LOW_CUT_FREQUENCY_HZ: 
HIGH_CUT_FREQUENCY_HZ: 
LATE/NORMAL_TRIGGERED: 
DATABASE_VERSION: 
HEADER_FORMAT: DYNA 1.2
DATA_TYPE: Acceleration
PROCESSING: Automatic Paolucci et al., 2011
DATA_TIMESTAMP_YYYYMMDD_HHMMSS: 
DATA_LICENSE: U (unknown license)
DATA_CITATION: Turkish Accelerometric Archive v 1.0 - Disaster And Emergency Management Presidency, Earthquake Department
DATA_CREATOR: AFAD
ORIGINAL_DATA_MEDIATOR_CITATION: : AFAD - Disaster And Emergency Management Presidency
ORIGINAL_DATA_MEDIATOR: AFAD PROCESS SERVICE
ORIGINAL_DATA_CREATOR_CITATION: AFAD PROCESS SERVICE
ORIGINAL_DATA_CREATOR: network: TK
USER1: GuestUser
USER2: 
USER3: 
USER4: 
[...]
-51.90456928852682
-58.63493556758849
-33.52633568033507
-10.687120688625553
-11.883078172628858
-14.46769085891118
-4.150617497043278
23.632482903894864
51.884134423181685
56.37637267036483
37.06169394371201
5.60713443546861
-10.188071934106876
-11.117549271323844
-31.41306110983163
-44.6839247988819
-17.554821493240336
14.84916608058212
26.32937299659696
23.859485348748404
19.548496932073927
21.08482140795069
13.232525897041349
-8.365413499536986
-21.11110348027562
-21.81401402426618
-22.80169914814292
-21.776838830389604
-18.875383443748355
-23.21867858636855
-25.634973369585907
-12.580005004209752
2.1716487008785976
3.100417802533744
-5.191551224555169
-15.286530833767262
-23.498647630308568
-27.047883663614254
-20.048613780938147
-5.01578133929003
2.1316051049203564
3.2041507579599466
4.796189464392821
5.35863527244887
15.7649761245361
24.028334679095252
16.42969179200072
9.046385674762714
-4.206370125469708
-14.103066244729408
-0.45124185177028514
8.21662062664129
11.545254780842317
23.9030146861902
18.576142750203946
-3.734850348672294
-23.877891414752472
-34.366188003511006
-27.988035277035973
-17.1832964824935
-3.1253942389696294
27.002686411527648
45.03357436974609
32.58570371773078
25.30111378850582
21.672583941177475
-3.8645167756495327
-19.428382242556854
-20.50333328631652
-29.885918541253762
-19.834094975633004
0.7981287860807641
-1.2557470662834505
-1.4607172389908984
7.891902414695458
7.704147637324586
11.266480977467058
26.05513601050653
29.433928883948937
16.979106963096896
14.993676030280824
20.374147254999134
-2.7791477303757546
-36.342789497273415
-34.07614303061376
-16.288044615722217
-7.2043768932376375
8.96650195878209
18.896843120595044
11.941830677541509
9.70081427816258
9.116418820945597
-3.10282189547148
-19.37745894593849
-32.85287424059677
-41.761483405345714
-33.73767502577685
-1.9420258031810687
26.573716255689092
27.28644285807033
18.789901200839616
20.147457799611526
17.352076662181556
-0.25219765716340603
-22.853462606236373
-46.11552616093481
-63.9670817554295
-58.423817773764355
-31.126917347249744
-3.6448246920442093
13.188018685860788
23.017194322924187
27.987103754498204
25.426002032388922
24.783004019117946
30.80981588826988
20.0114626344453
-15.181584432091807
-40.42606146813305
-33.39904213964113
-20.734461285911962
-26.189331823437602
-25.243517481863677
-2.360923126950869
15.176161891595433
10.775007122376067
0.6046003464604942
3.6521537151452685
10.99669205474407
5.807073833689714
1.727036037073957
11.214535243001682
23.398391481370872
30.591418889129635
26.18734245094132
7.450101554423694
-14.170034179001458
-32.46056151891401
-45.61799766607583
-43.635028371877944
-21.88469762119294
5.0136318762284855
11.157985108142846
-0.6548552660657014
0.19988763157052442
11.424195600949622
14.702703670952127
20.758587740100985
38.67044325585871
52.36369171596994
44.85017699332703
29.721852422469755
18.009083564885646
-3.7328561506496905
-18.505466572496236
-12.948082438905825
-11.119570634842763
-14.363728162337015
-14.570347209705663
-14.072590502180043
-6.67282094136217
7.2325054634099555
16.105049975722714
10.856525369593053
1.5711108816425094
-0.8498362110782868
-3.508115418646116
-8.35605769952821
-23.359301491034508
-47.79335240270964
-49.9220404825812
-25.25433664862468
2.7645521380824345
25.719572058563564
41.136754091339014
50.28483848438762
53.030250645802774
41.53833987197686
17.420819057780484
0.278341016851867
-1.7516212958058555
-16.73477972928267
-51.24945919368748
-73.04081403655132
-68.17166082061016
-35.92279564138995
4.103527561881444
24.047550599554516
41.35170714970486
62.05601044564329
61.407927778465215
40.51279287847759
9.98479803005714
-11.3225956360952
-6.540409102711583
2.178702179542944
-0.48201064277941347
0.550889287973942
7.378810507399193
2.8117674328642215
-20.048238979381065
-32.84145344427964
-5.268415279456272
31.2150980293501
26.580064301858386
-1.7758306152514867
-14.628800062965654
-16.389744431718334
-16.90002771610113
-16.64033728849931
-12.474921587798597
10.100278623457687
37.035532954824674
45.7815377411863
39.61549108520767
17.57063530037161
-8.652781778172411
-33.851036243839566
-65.58195679648374
-75.22802118029848
-61.04014055417938
-45.803306671126066
-18.263651864398835
10.044455893655234
15.058773947605781
3.1643389300147406
-3.3297854492797
15.019370798368946
52.04861180440177
85.80146947770317
80.61409194188423
37.35495590760285
5.662465654159542
-29.63511495081324
-77.59351898419733
-83.63465598257883
-66.28025726438145
-48.870312617974655
0.45626041564266334
50.83924875657991
60.442677771608324
52.007651303008124
43.89827950403556
26.900704391976635
1.4848680769854652
-20.813927178049177
-33.0744187802547
-32.06702157180533
-19.656704787701635
-0.025011255648490823
19.17296465199315
27.59544960865375
30.70297037180593
29.40453133122398
14.638932597856515
2.4404571738029306
5.769062298553364
9.624609637936697
6.342489689801104
3.533915947787667
3.1028661126726
0.830698661581768
-4.608842500772776
-17.82258993089814
-34.47835527125354
-31.782319673108887
-11.224724068114423
0.3296229531522371
1.3079399233594025
8.919052710936775
21.27623408293949
19.813976584637867
6.719839024109513
3.105062533132958
7.201454402190616
6.239170408007563
-0.5321463897145692
-14.40865264843507
-28.099278690615645
-20.68183782678104
4.423977238627768
10.605200274386888
-3.97219600307883
-0.7128256251955802
15.239126706206873
14.389624703814984
4.280471715554476
-5.472400691063724
-18.194291895932526
-14.19843884472261
19.075160520205934
46.1937981194197
46.30045601885532
36.3383357613291
21.36846750335064
-0.34129096662277786
-36.40720346006121
-68.41553105043965
-50.23068248270677
-7.054937029639139
6.66387326463336
-4.484920334338403
-18.20048352798071
-25.180118797725903
-21.045536477434435
-5.32981786331205
13.761816692257346
41.701624727081345
74.63476973283632
71.31206081566457
34.442427664541356
-10.124995167290887
-56.14806764035898
-72.56773149941762
-65.09464699323644
-60.386496882318006
-44.4461589592729
-16.802808009587928
11.279987606947453
25.586345509282587
22.474925634679774
26.98222101864771
38.803634580313364
42.21865123554853
33.16178496602672
18.1342822632634
18.42502283927887
23.368680336966968
10.378268365347035
-8.783915330818731
-30.07135377001272
-49.8247928532523
-45.84316632813106
-23.96585628728729
-4.935234331399305
6.510459740372134
1.705206087259469
-12.600825671881697
-9.52689581698664
11.286422785642568
26.402602037507993
20.993520957572102
3.0669389040351005
-10.999920514656896
-13.035122981965184
-3.713631116423464
-0.11652010034407836
-2.4990666379044515
7.437879469164546
24.13295636597833
38.387208433913784
40.72508857661654
22.679743325864994
-13.161971964473393
-56.71794872164715
-67.46259417916114
-33.14366102112228
11.296792332068298
43.855202913825316
35.96378371596928
-3.7409438111737927
-11.673236856859395
22.835451848122922
54.06414293473391
58.7728755307642
47.93028694676938
23.673559413774683
-11.644993900840788
-39.142221231488456
-58.37184830309738
-64.90584247877158
-58.51988392542302
-62.75341724967175
-65.43760900997621
-45.37509452858972
-8.516229708539445
30.473985173301603
44.81928003699351
38.33404870491082
31.60371339530756
19.639129905248144
16.474742306498925
26.39645299866713
18.4858366212301
-7.130747718789697
-28.46128076191099
-34.21010231568684
-23.57858326324494
-10.534410292680308
0.26579600252623203
10.116884819653308
13.752595763644699
12.757235323611816
4.1654600732726585
-14.420257399449419
-33.621634952119685
-33.808258144672095
-2.5007804963548406
27.586778454825357
35.09105244199234
42.45840868253879
40.84831641458886
25.3309397265184
17.8890808804112
6.556024503823536
-7.356522936961732
-9.573532160446362
-20.509990303065802
-35.56347870135077
-39.60561408991992
-42.24008785894155
-26.955694243963816
6.2466945355247185
23.227345422548122
29.25235573986664
34.574857046050504
32.39213518094184
27.84258490714412
13.853677995859316
-1.5523934108736055
-2.563033130250703
-6.457839805314368
-4.623601578583578
17.78653702910572
28.16850154623836
17.389430661367097
5.185645945486956
-18.1571062873776
-51.668015503658
-73.1516459979707
-85.15683725122767
-70.48514006739376
-11.514931120874552
34.547249848377476
38.02461385491107
35.23130027134556
34.88541775448227
35.250364498907004
26.9003415539897
-7.401975252390043
-35.45603149206608
-23.933549920761926
9.550070381781214
34.97021066608473
41.59441476571752
32.83749613632513
12.363266261239362
-7.973426386636845
-13.659531390535594
-5.711479784006552
3.381891427003975
4.911430287803637
7.638641080507975
12.06557242834886
3.2184111759463723
-10.790390623157442
-11.489992247774747
-3.64703800228358
-15.00743669326498
-50.03357840895569
-63.82842790124835
-37.81182899909715
1.6936832474034558
36.56737128007931
54.57891649661685
55.19447816089714
47.25714483748293
30.073302140168664
-2.0596362450227232
-39.62803499581834
-40.08119779265327
-4.425217360772321
7.390775155183453
-2.61838918638907
10.533662988258788
46.31850416268436
73.05447954802031
61.614798402451434
15.653939575448033
-27.40038162456465
-47.30138010213094
-61.31080406072737
-67.85206981080324
-43.73672760072063
-11.994069819248857
2.1492917011477077
15.745768442514791
24.357712065290894
12.41590616983346
5.581655526119407
27.935460032654362
55.951665275270265
62.85777653319793
51.38059220731925
28.701389650482827
7.401139986427141
0.9890210517049215
5.613261556527874
6.235120335121418
-8.373396879714768
-26.420680894038906
-37.586756048684784
-52.31106218761766
-68.84310138435896
-72.4069759312998
-56.85654378597336
-37.69063385863499
-26.692838011738186
3.1697226453608986
59.65512074571654
101.87172518988764
108.90382918547756
90.44084083202392
56.5773056738786
22.335755757055082
-5.123298092364238
-30.214189774191475
-41.77581618736007
-33.5779880360886
-28.616355902490568
-37.66898601467912
-42.44554072583907
-34.715455195585726
-19.072882789006727
10.660809622753279
47.53953457303377
70.52253538716246
79.71966791689083
66.91594715095712
24.478353115518512
-4.565608129014686
6.7326394652351444
32.48428018111329
45.665631660109405
28.08968035923726
-7.707654539701869
-32.89708596342778
-45.17022851729339
-34.269819403138484
-1.2858175590531997
18.277773384539486
14.3676308775451
2.4661687774267653
-13.93336553000999
-40.13548719865192
-50.23999340068368
-18.030066434068384
16.461957204913897
29.29208244093221
37.04643662900053
37.325490134119725
40.961483813467865
45.34916443211858
30.350147859424712
0.34108269694618903
-39.36938496650661
-69.71463472134182
-77.63681048198175
-74.55023469496385
-61.44878730929378
-47.79686453577295
-36.45523510302554
-3.662038698417919
47.55196076540643
82.4690892228225
86.77658167978838
63.49291277114447
16.864548920517525
-21.73622160324988
-37.39487344316014
-52.02062632162639
-55.0084411993007
-42.14694045948177
-45.98967005096722
-62.41760560990945
-71.05998932932103
-67.70034231583561
-35.582910792877065
17.7706525053706
62.84483026917523
89.26422809158555
81.1388012516286
55.01581354118548
33.5524999106315
-13.605081507919328
-54.909293398915004
-52.57169123253939
-49.83030908296537
-38.54060451542486
-4.472821240647457
25.28487992720835
50.93199747861798
55.514983634523794
43.43592847791587
44.155250962288065
20.345406270049118
-44.544401695185805
-79.17426236916677
-56.85526251330325
-37.699729424521834
-28.484782180587054
0.6370131422198778
9.853823822191744
-3.383302904938255
6.598562158576586
18.175683909575252
21.28098833075999
37.03078862054205
42.15730484730363
36.111065835372415
43.36424017060903
44.29812978793341
23.499270672329136
-2.993043593486983
-27.39309402311823
-44.421112890095806
-42.580864026154366
-29.863251252217797
-17.10498757710955
0.5906590147408044
8.142363272943141
-12.94096498457108
-46.38005080238324
-50.00199691764672
1.570484188780331
57.61036319444869
69.89565210454691
65.6014268918325
57.41856606594375
39.237392534460625
14.88375247168944
-17.112514387899026
-46.876164638604365
-71.10065970931278
-82.68678470380253
-77.00514340788409
-50.46834883644148
21.301754243380895
95.53576522703341
107.67310174640043
64.32407033298546
-4.813569090483924
-53.911082119812036
-77.83182262441358
-86.47076425726716
-43.47946612552301
15.383260516609326
46.45647002234519
60.28944591664353
41.150598537093366
21.665862623024715
20.357331820557423
-12.03567644858096
-48.042170469142064
-50.555414104007525
-50.7633272225155
-57.94751708826319
-47.80848378592855
-6.719347576596672
35.589488036726166
63.904404924990246
116.59549080141421
158.43198328787204
127.8327512563044
77.71387675501313
30.01998904190964
-60.502313631349914
-145.54521167786734
-158.7861017175963
-119.82169328849305
-69.19191741352887
-24.425543835252384
16.507400170160313
48.76297634233116
61.62911034378901
64.6174568607869
62.48557689857842
53.57673993059256
50.61494793122862
51.948420648621784
39.67692096514108
10.636730726318572
-19.09368570129089
-30.26316553221976
-31.185343632777474
-34.4129288026299
-29.067004542338246
-26.136431297702163
-28.724095254415317
-1.0042591781751744
54.35149661134764
88.97374515608034
80.19777382874442
60.49371416381493
54.43294400603677
36.27673311389066
1.2229212418046271
-27.888118514580274
-37.722292733169844
-25.086018399524473
-14.206482390237554
-13.459469678005457
-6.392825508016729
1.984741379890613
9.458012903342164
6.848058410591895
-21.81037728673275
-50.73979014466555
-51.80492444230564
-30.01531178344886
-6.256998525410643
0.1299144191885576
6.297073786054633
35.7730686243979
69.9783207168224
81.57061730732657
59.238942649761256
13.074697547465492
-26.541377555934524
-35.38594475114913
-18.937104171757618
-11.510969193057221
-16.053362200328245
-12.397042078221213
-24.000482883640224
-50.48236093735476
-51.09790669207088
-28.899877152662743
-4.543886010117724
21.580259111378744
46.71262999656207
57.707217394696
50.5593407407137
35.33611423980091
12.629627988561593
-13.718575960600685
-36.098659467384266
-53.65960639703884
-51.36350361880127
-27.71606775645818
2.82549657261664
34.8112612240571
44.95789270822394
15.413148254225002
-26.56399348828367
-37.912668857857604
-14.510656720992332
9.403345321855562
19.674724492641392
15.938563543182525
-4.708918971174217
-20.064886319567915
-5.303270986588552
31.149441620961255
44.77144031288827
14.848334060843996
-19.38569114860393
-33.87502526020594
-37.57285981085333
-30.753645169253165
-7.579964204265905
23.84430702817543
34.0959710285591
14.18836987894418
-5.587463623215335
0.575735464774928
9.20982221574366
-15.674934504957047
-36.40740333638433
-10.06055007008854
24.374600827959622
23.783685613225952
-1.9930861047489028
-29.225230810913633
-52.75130117708253
-57.2597346007402
-38.532560028328525
-25.176400478122396
-4.103853847067502
28.34012178130765
34.76402408193861
30.13772812084321
28.77385539948034
16.607623025277267
3.5439268821013497
-3.659683365063914
-2.2583517105815365
3.7254518810173827
-0.03334343008944515
-8.724939018079676
-12.460377014968607
-7.2591514061035465
-0.6445078165440229
-3.5819635362328777
-3.498560949085011
0.43085608240025447
-4.354165356973531
-9.978145529203251
-3.008574032544187
28.131089132480593
55.41531579484649
47.888759690163326
31.85873451847007
5.4261193386049245
-28.904375329103488
-47.25760097523802
-76.21127497966206
-83.02628673577838
-35.507140840042894
1.6746879448068435
13.815482765567316
13.737411843140418
-11.479441264471697
-27.92929992716573
0.8527288615273061
45.46530901360776
68.23517955851183
79.31433682798452
68.07412596211188
25.14852360866311
-16.343113695982705
-64.14661271762185
-104.97011094157848
-95.62300933881518
-63.11179662076443
-29.381923495607257
9.611052019067277
39.265714219677946
53.35075418347099
55.23063509977916
62.66211342246957
78.09717541874689
71.86378339763174
37.529694277365614
-10.754811373204356
-50.88165978527981
-62.35676279313882
-56.70146982919102
-35.91723862877135
4.366548309164075
48.84892016913049
83.31052232608772
64.95356991197349
-4.651606393840687
-63.23845247507225
-99.87211070471933
-86.31350956689626
-22.170438779573303
20.090430285619377
51.4701743652334
67.33018192330749
31.243072496661778
-4.312478816145539
-17.077441780127643
-10.688895850728658
16.699318721640232
29.910240995793377
21.980669671293327
13.868294935427786
21.843986878748066
21.25031279206409
-4.104286318417059
-6.595294978676768
4.16973950047399
2.8981569156091966
6.623798250890694
-1.3329092443787565
-13.7259736861577
-15.805116478703146
-14.673138492769828
1.565636311260463
24.84953109532797
56.206666189351296
83.88493990063928
60.52923038094943
14.991490285483565
-7.796155296456854
-28.66095958550338
-50.46296239465394
-72.06539881152864
-104.8979180219399
-110.70120373829529
-62.65929671337516
5.095689776395333
57.58773563305107
79.03407632982379
80.14238756035368
76.59478028285096
56.162438761581974
25.182657117974962
-2.684704417183283
-33.14609108958311
-56.89082893283822
-72.65114784198953
-72.00692837386258
-32.22365750436073
5.318826564662524
-1.9066847561808578
-17.799662740748445
-15.794174409621409
-7.302610744845329
17.300383315513983
63.776974521360856
90.85612745730394
83.4986930565236
81.79424317957546
71.24765973704703
27.360460592535393
-5.141898972675247
-29.191141995554073
-74.01981700955254
-103.60284232710912
-99.54753384232603
-80.2201263635005
-56.906706140625104
-46.92573693984539
-43.83455870631686
-8.6267691035532
38.004997968097115
44.166517868066585
48.75910162592436
82.53157892208125
101.99670939530874
103.2560910507238
90.49841331690422
41.14193439074157
-23.515015993183326
-62.06736631649067
-86.40762400520997
-112.64340718033162
-83.25479654077348
-13.15349726917417
1.6171308461831104
1.2310151598653247
31.507102030414973
34.34325973186303
15.742753195395354
4.51506923452648
-0.06903707229860248
12.628967194809047
24.727769838126832
29.272855990137128
34.01631475943275
22.508830546129474
12.530660738508983
17.202240489685526
0.9424597086579203
-36.35357413559447
-67.50351690614949
-91.7449487432604
-110.40954288761543
-100.9701299169781
-45.39064584666792
16.589798203423022
64.17886803470014
118.05809414112981
