AAD_Filtered_TADAS_FILE
AAD_BASELINE_CORRECTION: BASELINE REMOVED
AAD_FILTER_TYPE: BUTTERWORTH
AAD_FILTER_ORDER: 1
AAD_LOW_CUT_FREQUENCY_HZ: 0.025
AAD_HIGH_CUT_FREQUENCY_HZ: 40.0
EVENT_NAME: 202302060117
EVENT_ID: 13194
EVENT_DATE_YYYYMMDD: 2023/02/06
EVENT_TIME_HHMMSS: 01:17:32.00000
EVENT_LATITUDE_DEGREE: 37.288
EVENT_LONGITUDE_DEGREE: 37.043
EVENT_DEPTH_KM: 8.6
HYPOCENTER_REFERENCE: AFAD
MAGNITUDE_W: 7.7
MAGNITUDE_W_REFERENCE: AFAD
MAGNITUDE_L: 
MAGNITUDE_L_REFERENCE: 
FOCAL_MECHANISM: 
NETWORK: TK
STATION_CODE: 0139
STATION_NAME: 
STATION_LATITUDE_DEGREE: 37.400943
STATION_LONGITUDE_DEGREE: 35.445322
STATION_ELEVATION_M: 238.0
LOCATION: Kahramanmaras_Pazarck_Turkiye
SENSOR_DEPTH_M: 
VS30_M/S: None
SITE_CLASSIFICATION_EC8: unknown
MORPHOLOGIC_CLASSIFICATION: 
EPICENTRAL_DISTANCE_KM: 141.79
EARTHQUAKE_BACKAZIMUTH_DEGREE: 
DATE_TIME_FIRST_SAMPLE_YYYYMMDD_HHMMSS: 2023/02/06 01:17:36.4746400
DATE_TIME_FIRST_SAMPLE_PRECISION: millisecond
SAMPLING_INTERVAL_S: 0.01
NDATA: 12501
DURATION_S: 
STREAM: HNN
UNITS: cm/s^2
INSTRUMENT: sensor = GMS+/GEOSIG | digitizer = 
INSTRUMENT_ANALOG/DIGITAL: 
INSTRUMENTAL_FREQUENCY_HZ: 
INSTRUMENTAL_DAMPING: 
FULL_SCALE_G: 
N_BIT_DIGITAL_CONVERTER: 
PGA_CM/S^2: 17.428
TIME_PGA_S: 
BASELINE_CORRECTION: BASELINE REMOVED
FILTER_TYPE: BUTTERWORTH
FILTER_ORDER: 
LOW_CUT_FREQUENCY_HZ: 
HIGH_CUT_FREQUENCY_HZ: 
LATE/NORMAL_TRIGGERED: 
DATABASE_VERSION: 
HEADER_FORMAT: DYNA 1.2
DATA_TYPE: Acceleration
PROCESSING: Automatic Paolucci et al., 2011
DATA_TIMESTAMP_YYYYMMDD_HHMMSS: 
DATA_LICENSE: U (unknown license)
DATA_CITATION: Turkish Accelerometric Archive v 1.0 - Disaster And Emergency Management Presidency, Earthquake Department
DATA_CREATOR: AFAD
ORIGINAL_DATA_MEDIATOR_CITATION: : AFAD - Disaster And Emergency Management Presidency
ORIGINAL_DATA_MEDIATOR: AFAD PROCESS SERVICE
ORIGINAL_DATA_CREATOR_CITATION: AFAD PROCESS SERVICE
ORIGINAL_DATA_CREATOR: network: TK
USER1: GuestUser
USER2: 
USER3: 
USER4: 
[...]
3.840373901580118
4.716685178411156
5.429792915556107
5.1626308871377375
4.051277430947205
3.093045039051914
2.8392321747652485
3.03661628914386
3.287795893807511
3.291380256022945
2.9388680512015726
2.513956823637321
2.3768822971280636
2.528536272783617
2.7234507687748115
2.97604095312559
3.553931681359378
4.428802405216938
5.233259471972222
5.733042536775833
6.055644424642929
6.28752133392548
6.234051917017594
5.714894155146587
4.660236060455271
3.22421372519939
1.7984153511329228
0.6082694730535226
-0.47827070182851733
-1.6711557988476093
-2.9785761457254925
-4.289898741877057
-5.426057892122977
-6.228125222214718
-6.872936838220882
-7.710812772041295
-8.725378182201409
-9.456845372425745
-9.55679888174509
-9.025419937585674
-7.8268858584621785
-6.0540791541383685
-4.343175414027781
-3.394463255163857
-3.1376464335263288
-2.831127890633856
-1.9224443174150811
-0.30797924464828746
1.8097747420824704
3.882096790784145
5.265678144852181
5.691500448179499
5.466948386035323
5.21530276673317
5.422998653949965
6.19171391768508
7.226432090526598
7.955901072286846
7.910141658885595
7.208904184301919
6.310896662186669
5.378319950455712
4.450054242594841
3.707738629365112
3.1577047848225233
2.724957236843243
2.7020708177116837
3.4406858935876268
4.656722396514164
5.614159219973359
5.877711699009881
5.587502892026047
5.297640539431077
5.483234418825827
6.022242661011676
6.420220160021846
6.45634951095148
6.255538869223085
5.952331600420418
5.646073170991767
5.352673139449063
4.845934885334981
3.833653232750206
2.372554273603211
0.940757323600088
-0.04641091642098015
-0.642506019106774
-1.2420880628303974
-2.096717580949266
-3.028683287573521
-3.620311404167798
-3.6114322143846724
-3.136559293665486
-2.510072186742181
-1.970400407058336
-1.6515873892550326
-1.5264819748299363
-1.3568514902284985
-0.8033092961309132
0.2849161461577464
1.6841095220438702
2.903429481140438
3.576503219425258
3.689322750995199
3.3469349344727624
2.6274914766236614
1.493710448666961
-0.24019881068518764
-2.496358034320462
-4.721018400612327
-6.403496506448575
-7.617269026427674
-8.761251870677683
-9.905489035478963
-10.685973454164904
-10.715568565464867
-10.005809858731208
-8.995200229680382
-8.13821541232925
-7.621890829259237
-7.371467201879521
-7.099471032459098
-6.439970429608569
-5.3029225661012145
-3.9799717379763573
-2.7037517526063866
-1.4982941273021546
-0.38216766840500993
0.6413510989761252
1.580220521044741
2.2591519633182253
2.368000485658328
1.8779355364971906
1.0274227411107144
0.09947814207990413
-0.6078049713840168
-0.9673349665868674
-0.9315125765879874
-0.3963599131698399
0.5297888227380432
1.4214512975781897
2.0021109263752894
2.417434282754758
2.8180815015274336
3.2285725487757806
3.774746086359906
4.48339577900631
5.046608825710317
5.290774131433214
5.547305270651027
6.059296277522878
6.588682273834802
6.957293387622978
7.433046042961482
8.30716617144424
9.351060872274255
10.11569729055406
10.499739313778964
10.53504947959872
10.171179878736545
9.472741097197666
8.654742684887829
7.818954842868274
6.791794973282303
5.589296403363334
4.639283963296917
4.170522735244083
3.8878242554043276
3.5209725586689755
3.1795629954805547
2.9263435777836135
2.6449430990189313
2.392647776516749
2.3988905549433945
2.5973261328701307
2.5337528905575364
1.9321036711305537
0.8968156460845494
-0.3502764395870779
-1.6050464894805754
-2.6099790855542753
-3.091821699283712
-3.106520539673853
-3.0221286228921684
-3.0408378987941154
-2.98434374026783
-2.526549872937988
-1.5178041823845299
-0.1407342699644598
1.0635955188746913
1.5178424269648296
1.157451150151957
0.5001603768498779
0.1741047056906309
0.515645841821997
1.5092897024708665
2.8694274232995687
4.2257111619893255
5.298397889562536
5.904776839549169
5.987998112339896
5.608384946193492
4.854899340269412
3.7774320890893076
2.281429719290144
0.3262305840504689
-1.7146950095451616
-3.1950150987844266
-3.7862060699949955
-3.731111744834774
-3.479310500075116
-3.4233628413190487
-3.645515416824181
-3.7817549196953113
-3.5736064564470067
-3.1466685304059423
-2.650569512954739
-2.1006875182593525
-1.5373328315653871
-1.0293849809971025
-0.5602994702275628
-0.20129232828020782
-0.11005722017508111
-0.23848739060524923
-0.47944647262367746
-0.9823753679131261
-1.8975491867578376
-2.9667217963063677
-3.7730224401515793
-4.110552637456355
-3.8817502314779486
-3.0723242483111117
-1.923492465864
-0.8216474241709829
0.10358613910813462
1.061187682097502
2.229106345852825
3.467366303352471
4.504686906955362
5.370756182780945
6.298347446461984
7.278469190479601
8.052233997645112
8.434565853676151
8.488376362097828
8.410716299227095
8.453588339467974
8.88238182882689
9.605308098019007
10.01333829878683
9.598708793319108
8.552225575481494
7.423762199503125
6.4413531175523975
5.560009643059337
4.783559924188604
4.090018850912287
3.4911545833055997
3.19413162112956
3.2921486734973904
3.4913684377823326
3.5263801619942265
3.4706285006007835
3.2993236455255657
2.8354846128796964
2.175292615260391
1.4868095706875297
0.6148836864594072
-0.7173583544913311
-2.479121480497954
-4.382328519177444
-6.046076668190844
-7.107595794165095
-7.6130926235949445
-7.991429103635789
-8.522685270922475
-9.122454892436759
-9.631099637123725
-10.044395143800907
-10.456019826504455
-10.931784467950541
-11.364791183778621
-11.562036431013446
-11.426882691425865
-10.868579937148407
-9.751081130326037
-8.107474306973044
-6.276232750335318
-4.752833743867025
-3.8665048454681488
-3.518456507612763
-3.341094266304661
-3.07147428075883
-2.645049848839455
-2.215516623133086
-2.085227831390659
-2.301724664724911
-2.4461803797882493
-2.2166420027493445
-2.0559664475074535
-2.4807854402374345
-3.231687231937976
-3.8120455809631735
-4.141728663465817
-4.350053918730652
-4.5874669534151895
-5.080503490895597
-5.87676365161005
-6.7030745405316425
-7.40634077941771
-8.163458915240327
-9.036192237564093
-9.73383229413357
-10.030787454979048
-10.02097968945425
-9.881522255616364
-9.785011019175284
-9.941588803506956
-10.422483371567065
-11.024943845979838
-11.345687886824155
-10.991103585621806
-9.932146280388075
-8.633162128341468
-7.571786697738978
-6.743600594243305
-5.792325828930705
-4.3923565594990714
-2.620600442272617
-1.0334896705880094
-0.13331836841197567
0.055613387530437874
-0.2680801845336757
-1.0901518406879418
-2.4644748593482433
-4.237141259426666
-6.10124593320247
-7.76728616021056
-9.1008072379098
-10.10415935247572
-10.852756507225497
-11.477550635519648
-11.960246736878092
-11.954275309601416
-11.109777178729576
-9.543957453664188
-7.7551812557734765
-6.228822472263
-5.176895048952694
-4.482032468301045
-3.9352314032420455
-3.5611136099968896
-3.5624724732624253
-3.8435192545762886
-3.93307689877789
-3.6148777219622668
-3.213632367750085
-3.2033548690632307
-3.7362849129877316
-4.456076177006966
-4.824224629872585
-4.6189141191098475
-4.093811170400019
-3.708086368142382
-3.7539906149004847
-4.1577064305676155
-4.489403652595269
-4.420200846639622
-4.128484359381521
-4.0354549814487335
-4.329288404129576
-4.853808900396157
-5.309539987350308
-5.402209730705403
-5.0638589234667
-4.652381324361863
-4.596284741558354
-4.954258220491534
-5.4879816365981124
-5.916957671969375
-6.102714551548241
-6.112132180181681
-6.090506694919766
-6.080997465411456
-5.922904144758734
-5.405574670832151
-4.584670995658453
-3.6951582511858567
-2.8167809526927727
-1.9857660904887946
-1.3699123369651725
-1.0305243841657352
-0.8123330085051016
-0.5645716659955112
-0.2566076353400145
0.09152713481665455
0.4681758380088797
0.8770438578848588
1.3179332298849717
1.8045843431903887
2.3393062139598677
2.713120653742477
2.5179611266379505
1.5422163121452044
0.010950622811156895
-1.7404787705820224
-3.6659746941927573
-5.691774441149757
-7.554588218524833
-9.198442715286646
-10.73226250773695
-12.164789973558795
-13.304506658234665
-13.88702125970606
-13.81239751319971
-13.269385920384
-12.60807636660815
-12.01358741953772
-11.48900094889875
-10.942649604638984
-10.231732752839154
-9.262910447247735
-8.120313266336453
-7.006683425405128
-5.893306524124277
-4.642542776802835
-3.300611545914434
-1.9756981680433312
-0.8112280345969932
0.008266565437790379
0.5721542711593862
1.2372604171492871
1.954729608476688
2.247101985774667
1.9514306190995072
1.2805063572627473
0.4032755622421423
-0.4688481597376994
-0.8293288522932492
-0.32545806505638264
0.6401393269795994
1.3096662080386168
1.386947904690223
1.0194978082277106
0.27618985837774124
-0.8610433300546515
-2.120115232593952
-3.0904859791363375
-3.7786264556058304
-4.366876590518403
-4.564069347613398
-3.9241471390700053
-2.5973600694106547
-1.2125302926426567
-0.18202841510779513
0.4096128725832885
0.6001514920105454
0.6188032263065711
0.8206339499821351
1.402407204949776
2.1097443381848153
2.387112820523052
1.9856853564605754
1.1752692401452778
0.3363067917766553
-0.41228253305990603
-1.0792655072727595
-1.5081358224648
-1.4894555350166883
-1.1227600787623349
-0.7109384298588107
-0.40102273691451246
-0.2649520653940373
-0.3633058832649783
-0.5316815814750805
-0.5059299888632215
-0.27761348651801326
-0.06076043425998771
0.017005061415491043
0.05167475792235207
0.2970589118975306
1.0395561961001674
2.4107672044226027
4.2456819220491
6.165688264349874
7.819208462474974
9.030043391547864
9.838490298207718
10.34590215949417
10.420136907529258
9.980118962854464
9.352598921184196
8.718855438635117
7.881892011479995
6.981166023394752
6.474932829951002
6.419984453285399
6.532830698267462
6.626501394661365
6.584906166825314
6.235415300584261
5.475705904388572
4.328219244144378
2.7779562305318404
0.8928675684698807
-0.8840996897903645
-1.955531036160631
-2.1331505228323002
-1.8414449234936139
-1.6783964855571376
-1.932894513609893
-2.6278939070013076
-3.6319410230536957
-4.583034189516026
-5.192991778930553
-5.700479680193764
-6.571390284132698
-7.966861580090145
-9.696334096141168
-11.377449539347706
-12.718651857975948
-13.672883508271482
-14.294772946504462
-14.604939757207243
-14.521338099172205
-13.996886281133122
-13.213907052453914
-12.282304279114744
-11.000764931513476
-9.33063672244014
-7.552109140245184
-5.8003972812464575
-4.103859464246814
-2.665821606939363
-1.6362050615939105
-0.8958715246012756
-0.3779508932293283
-0.28305416573347375
-0.6143578645579837
-1.1227506076650189
-1.77970622644058
-2.5980071810542555
-3.4240157405219045
-4.160874917389267
-4.8894009842707895
-5.733687593434654
-6.58430990435701
-7.144022561856891
-7.171040699569562
-6.595804293507191
-5.5364277639063255
-4.203206556675193
-2.745150792059959
-1.1972863526842716
0.37353796167221576
1.769276267770793
2.765022401669796
3.4371062878592133
4.150907199891988
4.987380678232878
5.609010781368339
5.747484177631011
5.3558222292157875
4.417046693095281
3.0455213677920483
1.4972165838224287
-0.11015255304467485
-1.8510031355886256
-3.68443320847874
-5.508367388628154
-7.212307836255018
-8.449497070006606
-9.013544429464174
-9.052933122419468
-8.762806349385864
-8.20439532644557
-7.534511860783123
-6.798877375581271
-5.696561227524638
-4.030939435477974
-1.992879835232181
-0.308932098919004
0.6088538783979033
0.9367630154729223
0.7481925994126176
0.2970253091245614
-0.2140960147691115
-0.9112003897606612
-1.781483599900535
-2.6719472716582775
-3.5917715202982117
-4.602445348140491
-5.729500665158469
-7.108195399258141
-8.590188184749008
-9.705385009980402
-10.369443243858633
-10.932373875003087
-11.557937789479046
-11.960110925908019
-11.852448420314325
-11.270730951556168
-10.26705199249091
-8.85334477422203
-7.211040946268226
-5.464533668690623
-3.4802760601374287
-1.1570649176368963
1.1518747831708194
2.9758972008198294
4.328600861643605
5.285891389811676
5.80305205063197
6.023778199044482
6.180767944413687
6.434456019960605
6.636604687199299
6.590567597395832
6.195122084167795
5.278030604441689
3.985918230938263
2.7384734935981894
1.9442568832974239
1.7886467896504823
2.0020639262891673
2.2808511235577282
2.668766364019431
3.3212077155537285
4.080736421086572
4.680553123531418
5.198914019208886
5.692615296273983
6.266263277550353
7.130200727574282
8.052746776365641
8.637447307359752
8.59354674150226
8.044924701304677
7.252091068036998
5.928553317005429
4.041002443428543
2.028973706893868
0.24313496146362776
-0.9310858523949993
-1.2424517771923238
-0.9373531006314915
-0.5818379482858712
-0.541611120858617
-0.6789355077721253
-0.6243448977487074
-0.19194575671640324
0.6196242506802968
1.7017927267768331
2.866956905858547
4.09158677586051
5.551111821325204
7.459853784367268
9.79475328279482
12.212080271890716
14.329787931259185
15.972750995794513
17.229781046915445
17.999023915274798
18.17707553000478
17.96781234075224
17.49732627581403
16.88100167782016
16.06638582656598
14.866269601336317
13.232561601261102
11.230129127878374
9.169351599113945
7.296938013641377
5.488548737260562
3.4494866716787502
1.0360653073867376
-1.599777425144243
-4.184449117829833
-6.485709076561176
-8.33881605976049
-9.640119846956985
-10.361539921932527
-10.457600272574066
-9.798905113150951
-8.37016535145048
-6.424723762745447
-4.347731601569443
-2.484221252897624
-1.0998620393668177
-0.2578774322747828
0.2013518487573491
0.3474504761519896
-0.005116303722582774
-0.8975770074214243
-1.9224779423610157
-2.6565847702542924
-3.110672485753826
-3.5107374396309785
-3.8526834738360614
-4.034493021708782
-4.12390439453534
-4.1274438118250005
-3.9420697719450297
-3.569098800113795
-3.2283411795071784
-3.235468812383927
-3.737919344629118
-4.51415762546607
-4.9876785050824965
-4.833611709474951
-4.319167703500194
-4.007038167025797
-4.37082128155854
-5.374391781890599
-6.553780860140851
-7.397417177248139
-7.647022293919038
-7.469638003300113
-7.1871092398553005
-6.996926641225225
-6.800008244941603
-6.312492270429181
-5.565191425265111
-4.703522640995273
-3.568771718854442
-2.037154268913697
-0.25387221631513973
1.5692329275023407
3.3581651066940204
5.0522754171024715
6.364039940572812
7.014424288122687
7.068913719175975
6.8200863357473445
6.472556672345624
6.062794832934589
5.5424235476339385
4.813062174983551
3.8086565124720195
2.7107927384066004
2.001437073564954
2.083115233097052
2.9195202764083206
4.050813996734405
4.963434491874541
5.517399100869864
5.834120121515078
6.060890996628607
6.299166606563343
6.437174782198909
6.249650431398292
5.692429885439352
5.04395610189315
4.697943719585219
4.807315731295345
5.261876952525763
5.8025680385570695
6.049928089825934
5.608838774971859
4.48514477431121
3.293118745601382
2.574426283957584
2.355207522433964
2.5147896981480553
2.8489325419321587
2.8070561589719705
1.894532569551672
0.3784812978000127
-1.2091330644986296
-2.8092987610819087
-4.35442051650576
-5.4359937999292
-5.81299083786165
-5.775023356046945
-5.669747441403721
-5.458659723832952
-5.095170506148845
-4.577470470597377
-3.7179636352783345
-2.400858891414063
-0.7605794275014786
0.9025033718343847
2.428372446693371
3.888146669705741
5.1701856740544
6.025045975100817
6.406405768505401
6.432992636380839
6.271966233868714
6.030976142569249
5.789291178019333
5.704888466708122
5.77758752686344
5.691652419268479
5.242015987277331
4.624934749764247
4.140120767447991
3.936781101474939
4.139596553797472
4.86641885398749
5.981227290001431
7.162755289565421
8.152961675857199
8.871521106241033
9.474547436728612
10.149984145581298
10.857141290560058
11.367210806577958
11.518594047958848
11.351802644810554
10.98198802853613
10.39927194667298
9.455178239515286
8.191193144427643
6.937503417406432
5.930778719462121
5.240722843111838
4.894816635885376
4.602786466222103
3.8443732274207956
2.577830713693617
1.1847413781178158
-0.22690296236873644
-1.6373254287904777
-2.636307147297464
-2.809969275770681
-2.132288401640327
-0.8152354416590103
0.8213120680037223
2.432187555590449
3.7519323638741735
4.75478159230693
5.594289786951905
6.356362070067114
7.085666276596219
7.6741371770204045
7.86219742090319
7.581183970607195
7.039939713704721
6.418550285170988
5.578406062579491
4.31522453625943
2.5489310946430077
0.22288412913986552
-2.5575470393099504
-5.533528752240007
-8.463947239816996
-11.122762570420786
-13.305605956424738
-14.8336264616759
-15.566753539916721
-15.542049731445143
-14.935655838816244
-13.882153459572303
-12.513429037211841
-11.083513458231385
-9.87541849223594
-8.985500467863679
-8.279360539298478
-7.534338546532765
-6.586314223714809
-5.345240556524137
-3.8327202661133444
-2.3236910647950433
-1.1856036333550084
-0.5726234534844576
-0.4393961655231953
-0.6270003633305443
-0.9605819551988685
-1.3633458467205577
-1.8743772831038152
-2.489414685075754
-2.9975928375010414
-3.258148387636727
-3.2674249724186843
-2.890526825886192
-2.016121557263637
-0.8526798446406602
0.24194034439821793
1.2561061694807767
2.4116477916928343
3.6271632489041745
4.535185634510334
4.902250647718996
4.901856042498187
4.955681889751753
5.423051752876622
6.471763400103946
7.975725023313488
9.54341105176045
10.820455615624242
11.692090725125052
12.204905182599525
12.431476821490673
12.424530999431115
12.249897043793647
11.940722054667662
11.39092620698387
10.489264277566665
9.377395044286013
8.35272236824607
7.505974020470447
6.676360491675517
5.836865653417739
5.16132921626075
4.674404438277241
4.314515717091146
4.1679293170667435
4.350153119077254
4.890033340768691
5.67310648531185
6.358278431800557
6.590019787196468
6.315475170972839
5.738477037974621
5.18949384314514
5.059013472985986
5.508965536926981
6.320041408595707
7.242979306210981
8.263786581572205
9.341343895375246
10.253077097910023
10.822386489081
10.931220505825067
10.380306560793924
9.041735170628439
7.079212125137398
4.761883977297198
2.1764984911256
-0.5523105685533525
-3.0571156362824206
-4.949641955983899
-6.003222431569244
-6.194629313359635
-5.79164949485508
-5.2927726343930575
-4.961993949530311
-4.629984050050147
-4.1304914501062795
-3.442653092972614
-2.5522494944326826
-1.6595958157116057
-1.1162234856213549
-0.9662947562483436
-1.0000845309268755
-1.2013525175902948
-1.68298032852494
-2.258365679504455
-2.569768808113765
-2.5422794808129936
-2.44972143954514
-2.6459719258203203
