AAD_Filtered_TADAS_FILE
AAD_BASELINE_CORRECTION: BASELINE REMOVED
AAD_FILTER_TYPE: BUTTERWORTH
AAD_FILTER_ORDER: 1
AAD_LOW_CUT_FREQUENCY_HZ: 0.025
AAD_HIGH_CUT_FREQUENCY_HZ: 40.0
EVENT_NAME: 202302060117
EVENT_ID: 13194
EVENT_DATE_YYYYMMDD: 2023/02/06
EVENT_TIME_HHMMSS: 01:17:32.00000
EVENT_LATITUDE_DEGREE: 37.288
EVENT_LONGITUDE_DEGREE: 37.043
EVENT_DEPTH_KM: 8.6
HYPOCENTER_REFERENCE: AFAD
MAGNITUDE_W: 7.7
MAGNITUDE_W_REFERENCE: AFAD
MAGNITUDE_L: 
MAGNITUDE_L_REFERENCE: 
FOCAL_MECHANISM: 
NETWORK: TK
STATION_CODE: 0127
STATION_NAME: 
STATION_LATITUDE_DEGREE: 37.816183
STATION_LONGITUDE_DEGREE: 35.92044
STATION_ELEVATION_M: 614.0
LOCATION: Kahramanmaras_Pazarck_Turkiye
SENSOR_DEPTH_M: 
VS30_M/S: 583
SITE_CLASSIFICATION_EC8: B
MORPHOLOGIC_CLASSIFICATION: 
EPICENTRAL_DISTANCE_KM: 115.07
EARTHQUAKE_BACKAZIMUTH_DEGREE: 
DATE_TIME_FIRST_SAMPLE_YYYYMMDD_HHMMSS: 2023/02/06 01:17:31.8820710
DATE_TIME_FIRST_SAMPLE_PRECISION: millisecond
SAMPLING_INTERVAL_S: 0.01
NDATA: 12501
DURATION_S: 
STREAM: HNN
UNITS: cm/s^2
INSTRUMENT: sensor = ACEBOX/SARA | digitizer = 
INSTRUMENT_ANALOG/DIGITAL: 
INSTRUMENTAL_FREQUENCY_HZ: 
INSTRUMENTAL_DAMPING: 
FULL_SCALE_G: 
N_BIT_DIGITAL_CONVERTER: 
PGA_CM/S^2: 54.987
TIME_PGA_S: 
BASELINE_CORRECTION: BASELINE REMOVED
FILTER_TYPE: BUTTERWORTH
FILTER_ORDER: 
LOW_CUT_FREQUENCY_HZ: 
HIGH_CUT_FREQUENCY_HZ: 
LATE/NORMAL_TRIGGERED: 
DATABASE_VERSION: 
HEADER_FORMAT: DYNA 1.2
DATA_TYPE: Acceleration
PROCESSING: Automatic Paolucci et al., 2011
DATA_TIMESTAMP_YYYYMMDD_HHMMSS: 
DATA_LICENSE: U (unknown license)
DATA_CITATION: Turkish Accelerometric Archive v 1.0 - Disaster And Emergency Management Presidency, Earthquake Department
DATA_CREATOR: AFAD
ORIGINAL_DATA_MEDIATOR_CITATION: : AFAD - Disaster And Emergency Management Presidency
ORIGINAL_DATA_MEDIATOR: AFAD PROCESS SERVICE
ORIGINAL_DATA_CREATOR_CITATION: AFAD PROCESS SERVICE
ORIGINAL_DATA_CREATOR: network: TK
USER1: GuestUser
USER2: 
USER3: 
USER4: 
[...]
-44.03158928115677
-41.550950895918724
-37.26416036322976
-31.644917829708795
-27.205954812482183
-25.58500566837673
-24.555758521347162
-21.232342458899595
-15.157661338504056
-7.3079873339534025
0.5674095852962577
6.948446208130839
12.186336889131274
17.177544831245758
21.752979783127575
24.55058120225201
23.524513236532716
19.23574336699015
14.860466492369964
11.964779529472189
11.371668794625712
12.995035572888886
13.195189782691156
9.337184352270944
2.85807130515418
-3.7812185019392786
-8.071908241365001
-8.343163267586238
-5.644821704621505
-2.3311791721422868
0.5770608153415637
2.947620160592298
4.300782775133944
5.137732240051104
6.795814319832793
8.62279696653786
8.472127540689465
5.879432945515579
1.9646783289240934
-1.875111725780388
-4.281487223315775
-5.546244634086131
-6.624804869083134
-7.6036327811030615
-9.102230607978743
-10.437174708974817
-10.378809069384602
-10.13858423959092
-9.190976817307211
-5.552798237903328
-0.15871278169068148
5.572882517310738
11.090159998838253
15.527299015017533
17.051063873494357
13.548080898283677
6.461211310696987
-0.012809817755459167
-3.6249634164964046
-5.039908605848591
-5.928668285373212
-6.700412009752934
-7.38329041492493
-8.19985394494193
-8.355210026850312
-8.351972641403544
-9.542841306298849
-11.033232515764633
-11.222406846041538
-9.783702997826044
-8.38762631538352
-8.748455619487224
-9.35999195887568
-9.185520170486654
-10.54172962747797
-14.075224166892182
-18.004751136774367
-21.66061158350347
-23.330649628528406
-20.733852327462625
-15.777788165362987
-10.840793705687917
-5.606368612022869
-1.4469589889074075
-0.343946551723527
-1.6508696301837735
-3.029881328525322
-2.030441987767385
1.0660522401961543
4.498310886454663
8.440316981767022
12.277050559659084
13.787078045259197
12.899566170030035
12.099314208536383
14.321122597615098
20.843351230177213
29.21985989931615
34.04108530432042
31.78426902359662
24.22519177862343
16.211490153994625
11.537202184368374
10.31008878601618
9.685676030867878
7.469099718219639
3.7532641863097362
-0.11450674451132185
-3.43170354505303
-6.650169351131272
-9.598906486333451
-11.85834209088751
-13.634308446500622
-14.78342345774987
-16.04914425158929
-18.688199462253046
-20.81729375586992
-18.34693192372325
-10.165585847420418
0.3879672863479229
9.338238470885273
15.04253973222797
17.94450804606434
19.055015839109192
18.47193197806545
16.759127505219823
14.895696596089092
11.663542388484478
6.861291325235555
3.180301044084763
1.4803880212791347
0.008653373097208048
-2.895579106551013
-7.038289809241794
-10.910461355477384
-14.451300035488629
-18.106039106482086
-21.453833513943586
-24.271382308796362
-25.75438612799923
-25.164895114141142
-22.79333504237426
-18.918234173120844
-14.43930986632595
-10.3574236380376
-6.591355683136938
-3.3028112552840376
-0.4595663903474929
2.9127015820293503
6.721268796958351
9.050934590542338
7.392443864011877
1.4575874506707656
-5.6558382286912865
-11.376078012250437
-14.148645733984146
-12.713084902400052
-9.622424061176622
-7.432965950338736
-4.793929745116096
-0.8894242690166358
4.060147227137499
9.007914277311718
11.593652325860226
11.444396527639347
9.874327892578352
8.787158033003124
9.723389964648431
11.196849244536448
11.481908938853238
10.954756128744611
10.03687406627009
9.818574025644429
10.961930781819008
11.152131613132244
9.21138749335149
6.556828583397773
2.884425377042379
-2.0344674348144984
-7.102958746371411
-10.949633303118885
-9.498121189730668
-2.1032473937776297
5.138816934708776
9.134411445683483
10.61413011980852
10.47821312201293
10.101921152413201
8.646434280289677
5.9139709377909995
3.48909068952955
0.5306944639620937
-2.3756291885635656
-2.9353368405468863
-1.6331002954163465
0.26168048557724716
0.756766808811979
-1.4099628283838532
-3.2521954176012215
-2.631229723483881
-1.1690200131511341
-0.5553141761869325
-1.975648270237058
-5.721676627936299
-10.229862191064854
-14.16713466049945
-17.66855913348312
-20.879861845908486
-22.95963642676364
-23.1564052339596
-21.817636442198058
-19.006749028837262
-13.368507068798195
-5.060592360783055
2.7996999343866107
8.786349983662603
13.520175694112853
16.28848566788843
18.262682181330018
22.0494471568194
26.636842640548984
29.724509988693985
29.760218351554034
26.383385833226583
22.17795459303221
18.835558724326788
15.928940241624542
13.483183072963003
10.184593941691343
4.329992397562462
-3.5052247628091373
-10.883194156887214
-15.123339143902518
-17.03002166622256
-19.943548467267824
-24.31481356646866
-27.80337920277114
-27.93230792170532
-23.730642007000096
-17.669551043795458
-13.35085794547888
-11.050868759285539
-10.357123681833082
-12.611057004777107
-15.45810374011933
-14.061801158521073
-8.656011166507303
-3.0798709795451855
0.03215430847364219
0.8668581710518757
2.1032769715612276
5.525139629561574
10.245391541616929
14.565396873899262
18.210376449122872
22.273050444179614
26.3376410231667
28.31038943615658
27.181888761799733
23.235095482231575
17.89045937413048
13.602992135308847
10.442730729656747
5.385852217816104
-3.119941136070422
-13.225347013447676
-21.006743902572627
-22.606559285070293
-18.118669206402853
-12.25734739962561
-8.94764532620279
-7.3744674432951
-5.434569982553247
-3.451396812979111
-2.1311869127627174
-1.542094513235573
-1.8288351506828002
-1.9728176976029752
-0.33636637761631377
3.5842371840891736
8.330031807549712
10.574814882333147
7.8165081645229675
0.9469986465442161
-6.333926483097971
-10.73101790495592
-12.252991952166987
-12.491988340795707
-11.607232568690367
-9.467160313184845
-6.979470771712678
-5.252868060451702
-6.125149455437564
-11.009256091233711
-17.538364819414298
-21.988087304918338
-22.65106768975575
-17.98365737388163
-8.269266811011844
2.806553152598571
13.173660142515237
22.3043020049789
27.656367758706764
27.975437548088493
25.402892039716324
22.5785702877877
21.458987339357947
23.03855658338724
25.585577621479562
24.68854325736155
18.123546775561813
8.637769032795896
-1.0223644870300022
-9.861143094002058
-15.938835350879671
-19.337584228770922
-22.28430686863228
-24.985719318707414
-27.719773562764363
-30.927337843507196
-32.55544439045745
-31.419659179925823
-28.23008400115097
-23.383647130129226
-18.017714069473584
-13.685206474308911
-10.573381637577173
-8.230898294378331
-6.91966857224917
-6.857628600096124
-6.902892733670277
-5.594165416265353
-2.173018914659043
3.570133064755759
10.840041191734656
18.15536088481542
24.0889616972313
27.419656932168103
27.70104105782351
25.9381637269177
24.16502743555209
23.79391415611631
24.99226327286024
27.114128885075367
28.610723882057936
27.902467448505103
24.82372641071552
20.713406779573173
16.647711680621388
11.894790419416925
5.695422112212425
-1.4067476239732906
-8.781035346633379
-15.087401327015282
-18.41526018544739
-19.286890498808738
-20.352399570344954
-22.942874209103582
-26.11239228133172
-27.61713182802885
-25.619567534483323
-20.849600140727016
-15.150821449597906
-9.296690886615828
-4.399356451231914
-0.6988233664179326
3.4855207861735824
8.016132928827114
11.773566597501766
14.846980534209315
16.010079790542626
14.547254189397448
13.327285034866238
15.290015689477015
19.68059235062176
23.184096521948334
22.888934696553164
17.614181106688193
9.456131997115117
3.2857363612042727
2.2075125351751548
6.7159200216723764
14.949806521050794
22.349752967279745
27.12892011518574
31.31158416718191
35.608687179899725
39.49758979394193
41.74504326988934
39.64298155533404
32.20260412153616
22.22872696945001
13.170970627823783
6.41979730480716
2.71325987931994
2.040024425930738
2.6394384439160055
3.000070104180301
1.8867571941754517
-1.2950148293027288
-4.722493616545746
-7.418732025513346
-10.420484698565305
-12.829120771092754
-12.233885938064372
-8.363626238759126
-3.531639179779727
-0.04540392844670515
0.9107881857018645
-0.7469687370544076
-2.9324852607223186
-3.9232057716469635
-4.448756435949678
-5.146838041536104
-6.597578278044438
-8.653894028572985
-9.28569502483206
-8.755631912557487
-9.432592725498639
-11.494953512446836
-13.965756058540041
-16.7698437448417
-19.72950354681392
-21.001460953412195
-18.381255905177156
-12.525495998423937
-6.85864127254974
-3.9985797466340216
-3.4607046449064716
-3.836236955377857
-4.140158959872524
-2.422878429728413
1.2795781886161228
4.722716880312791
8.104403449927819
10.77078886986204
9.800201762563276
6.066124784334395
2.000586378387071
-1.9830409611768767
-4.639430897646792
-5.3797717293622584
-5.58727362207528
-5.5552600574451585
-5.3645588077113535
-6.070783876326153
-7.265840013857725
-7.7197619508360615
-7.534455097944749
-6.983383100037539
-6.336058057568298
-6.196480832612987
-6.0293336306404965
-4.986055738781969
-2.6268075062297354
0.839251443916232
3.3127751614362384
4.31380590993743
5.837320898288333
7.57612177371793
8.835050179714331
9.909328145850182
9.3485355568659
7.824482830677272
8.319639080285455
10.817989739364387
14.395351300287906
18.11190603653685
19.175805191309628
16.955136364698728
13.467722705290953
10.716878495325476
11.15981542559712
13.775862075781488
12.90204912596516
6.7675938285987005
-0.5413591001280453
-5.378438568631739
-5.960334813814311
-2.2767859359048344
2.809600513071626
6.719797589705941
9.090014438653835
9.963769549893602
9.807430613846956
8.687296588180224
5.981529918549303
3.026926208350564
1.1547860186447099
-0.27373629044002235
0.05995087940778954
4.135653506736992
9.180764860313584
10.696078329637583
7.976387821121192
2.919449130367085
-1.8220069506792993
-4.122314916660707
-5.113208110442591
-7.138669292321086
-11.31790301007013
-17.684689258482734
-22.74141664723321
-23.04754738301604
-20.267871711181492
-16.515655220140356
-12.959534455653916
-10.691674247052283
-7.665608547952714
-2.828143571735772
0.7381086362217006
0.604963126917486
-2.9798159192069016
-6.399391550549677
-5.365606207673734
-1.7339383484934998
-0.6697688337567247
-3.668130051344515
-8.62470591520007
-11.3424627820076
-8.882291539180887
-3.5374362882319255
0.6653093045155777
3.0277210855992864
4.883545239061704
6.992941269961517
9.898258005902973
13.73974630787045
17.19533485379315
18.970062453365706
19.134103965220252
18.634663222997098
19.59131474337404
23.51906616664981
29.053030323429
34.52398862365868
38.40486446099806
37.49428735267668
31.47930406785163
24.416059229646734
19.254149554252322
17.439887048112645
19.418404486798767
21.727745386749266
20.05007478941528
14.56246539571917
8.09095966239582
1.8379975213624893
-4.96907451474101
-13.347846330308839
-21.99272406575722
-27.007773710973485
-26.958011122233923
-24.536977959029358
-22.69059943805214
-23.20984089071794
-25.986868644783144
-29.269796487581324
-33.122672778466864
-38.54390269733985
-43.53297979700773
-45.28772653056265
-43.78049867909473
-39.42422000931823
-32.84941940998724
-27.087578362562056
-22.926618231364902
-17.132940052788467
-7.527584313088187
5.67593076931051
19.787338185841104
30.426177966671258
34.84001041398517
33.52895285365576
30.970555873001256
31.214188146781073
33.1716184949951
34.810486019341965
34.2077548579759
28.928208341832534
20.9279455457917
13.035673543005366
4.948656244734804
-1.5192780615565895
-4.272149974715678
-3.818753549004997
-0.982599203935918
0.08914610317257791
-3.2460442995928895
-5.889727280101268
-6.021645577837685
-6.854983407102274
-7.006759158177464
-4.649205222709749
-0.05328548900034753
6.993374240423799
13.189338436157302
14.642112076662627
11.460097788082157
3.8693165908390625
-6.215385694723779
-13.175172578329242
-15.491228647596419
-16.972676306233332
-18.46927005849372
-17.494236376687464
-13.458306042750058
-7.986055089508962
-2.3569504537373946
3.6162072693836453
9.177871931961043
11.779552199692553
10.323844522615065
6.00058319245636
1.3968267011845987
-0.6769390404616419
0.9358093540268021
5.8489339270458345
12.151931727451641
16.40512751371141
15.773179942581924
10.987406825132073
5.941506083598655
2.4500868745663555
0.08696300378383118
-0.9308103534765197
-2.3388307226514216
-5.350311779310505
-7.142635589182693
-6.00896644152131
-2.7175389017388354
1.617915056158003
5.48252941397416
8.826895873133218
12.581144487733518
16.364232775588217
18.552800197678323
17.67026508052412
13.8958584290086
7.57504472937031
-0.7144686767735143
-8.424042978935445
-13.573388066771084
-14.698140473222363
-10.667382740114244
-3.8985654291079266
2.904666668494108
8.954605541256848
11.741790958614494
9.608307675802244
5.611313353461262
3.9765795593623086
5.501578243814522
7.863803425390769
8.76622005797648
6.513207686288461
-0.02188129029046382
-8.899856295991073
-16.36977879810824
-20.939705063042684
-23.54344934905309
-26.89965696477483
-34.060170357420944
-44.26831157754391
-52.75676521473958
-55.12285234189355
-50.71241708110642
-43.00696649913741
-36.05743201582922
-30.095352857667464
-22.65030474072185
-13.00967476041318
-1.9820976330350826
10.626627870944725
24.39304623028471
36.664665028824025
45.07354867021649
50.136291182251725
53.04256530931499
53.32563219223845
52.12648701211153
52.14455885569998
53.47069569203543
54.365498897969104
52.1974980219779
44.97797868984866
36.264338970760164
32.133183919961525
33.177922326559546
35.59180982078585
36.84045254114242
36.24425162397174
33.44867743193055
28.5207296193547
21.84933138869216
14.192219145897145
6.2868943089743095
-2.617776770331674
-12.2397268086667
-19.262730949536838
-22.953557263319844
-26.328644209297252
-30.250606076489447
-33.77847720364873
-36.98540615831385
-40.15625661085932
-43.224195062939195
-45.235739919661924
-44.820120316018084
-42.553558712119965
-41.26308987504112
-41.980590986119815
-42.08985495669175
-39.91271176007388
-35.52113652150576
-28.905290674461238
-22.443598416985864
-17.995477373893305
-13.65901092189401
-8.6207416259062
-3.4441364847418097
2.066026761568733
6.908376790434953
10.951653470182071
15.210244390177357
18.163849700451937
18.368673081503964
16.27589234002761
12.061817378364127
7.181668333559715
5.120475026529928
8.386435622351314
15.194293108433522
20.613527215851043
21.819259490874884
17.916861976740552
9.197929853292328
-0.7734370960148854
-9.747617432346294
-18.682298641897965
-27.170087570079673
-34.15305400272683
-39.28785709358278
-42.11263808836399
-42.72208300564424
-41.1156141012558
-37.516917022376724
-33.58765071131543
-30.764264610074605
-28.619434644383368
-25.438404780143163
-20.303090873667244
-14.28757868791869
-9.29595185250192
-6.0061443968961585
-2.9518649173883738
0.9337358523728444
5.46272618773889
11.217277491894286
17.334475176359224
22.069473909668964
26.473166010077275
31.110730825887863
34.842096775435614
37.83970339694324
39.96363769421848
40.31034089510202
39.56941688673259
38.78024485877957
37.628283577998666
35.648145317462536
32.2575691702566
26.68293408113188
20.446331244587434
16.220207347368785
13.757911593817411
10.144547260313788
2.7416784866970074
-8.748099973186143
-21.97064684359518
-33.213608845560906
-40.21642277350172
-43.76468885271004
-44.64490345765524
-42.31318181068837
-36.83963743961436
-29.010602925556764
-20.92672385638322
-14.260411250266811
-8.163643746008812
-3.2694705922236724
-1.532735448235346
-2.9616013703352078
-7.5475887250792555
-14.092430839712796
-19.51310215745687
-22.23867358816788
-21.433332876409295
-17.622014519131497
-13.393761675538002
-9.60181755703406
-6.066944136104595
-2.671592149149426
0.7125985223856325
1.5439536160139822
-1.8794663106376293
-7.574979771695417
-13.835383028665563
-19.072249509791032
-21.498380703059745
-21.090957510208824
-17.37788345899199
-9.132466909363123
2.14505077259311
12.970349419503941
21.65244306825373
28.552873192469956
34.50334967443018
39.94937921398128
44.34782477775327
47.53562963260933
49.613925374398
48.9919439275909
44.66692401127008
37.77391104836364
29.25782568127579
19.891223204623678
10.747445314472259
2.133997527441469
-5.5443876040493185
-11.763737097755048
-17.205911445744448
-21.940061830622106
-24.683643568627385
-25.38680169245679
-24.512830118704933
-21.664980533935417
-18.314446480139846
-17.31965552630892
-18.661095372070378
-20.291191698553266
-21.089937300905653
-20.12498830999016
-16.95677711422188
-13.069116232022749
-9.264683578882483
-3.7953912066130577
3.5896266565242847
10.734333661039452
17.795446561266235
25.02975931372811
29.054101319789176
27.887992959519675
22.625478571688795
14.293087073952314
4.658158704688619
-5.127248867655301
-16.180677596260015
-27.421170867474455
-34.574050402059356
-35.87956554914792
-34.15259521110309
-32.799500733469635
-32.74890118345177
-33.0435186002286
-31.314836153859467
-24.7978194414851
-14.202968485740897
-3.0857535902671342
6.964254221922579
15.23201849048181
20.336033899935394
23.06305648218078
24.807830307533536
23.857352353243872
17.941891613998333
9.185190947182921
2.0110366924543857
-3.453485840291115
-10.234552815773887
-19.514313297168247
-30.79466081847499
-41.96359338345407
-49.771933495078656
-52.8865006765365
-51.88317773908908
-47.9208474003809
-42.63650186769174
-37.183107993108344
-31.536577765249376
-24.854518228130264
-16.228600521737434
-6.241034049695209
2.6773673312035258
8.970037569417736
13.204638388361406
16.754141736836896
21.816152730745845
29.254296379146954
35.930426039863704
38.82159509261461
38.447721430518385
36.16500527356561
33.20446840197351
30.923648592986755
28.842015195088415
26.01418834171105
23.692445752586014
23.019851811078112
23.077385134753527
22.663321889722607
21.45526691740112
19.883922219209254
18.079228790361373
14.830293794264913
9.344322124576982
3.093147211769604
-1.8337281983777076
-5.291946821452371
-8.702331706803458
-12.919340350404559
-18.26041709265084
-24.63641196753099
-30.428854458862336
-34.02525523537876
-35.170886672261766
-33.745218696804685
-30.610253855041336
-28.494447519180067
-28.575107380238418
-29.379995402621475
-30.924247786782473
-33.74261782356937
-35.53992543304085
-34.5541999302541
-30.611296428956596
-23.69127747166396
-15.767189942385366
-8.976826803600911
-3.949022433456343
-1.2332543340028805
-0.3825510247035192
-0.9845960244151324
-3.76566785192522
-7.992046096328762
-11.631773675560709
-13.370992845549765
-12.886350683486372
-11.274604997737509
-10.142156970483974
