AAD_Filtered_TADAS_FILE
AAD_BASELINE_CORRECTION: BASELINE REMOVED
AAD_FILTER_TYPE: BUTTERWORTH
AAD_FILTER_ORDER: 1
AAD_LOW_CUT_FREQUENCY_HZ: 0.025
AAD_HIGH_CUT_FREQUENCY_HZ: 40.0
EVENT_NAME: 202302061024
EVENT_ID: 13207
EVENT_DATE_YYYYMMDD: 2023/02/06
EVENT_TIME_HHMMSS: 10:24:47.00000
EVENT_LATITUDE_DEGREE: 38.089
EVENT_LONGITUDE_DEGREE: 37.239
EVENT_DEPTH_KM: 7.0
HYPOCENTER_REFERENCE: AFAD
MAGNITUDE_W: 7.6
MAGNITUDE_W_REFERENCE: AFAD
MAGNITUDE_L: 
MAGNITUDE_L_REFERENCE: 
FOCAL_MECHANISM: 
NETWORK: TK
STATION_CODE: 0120
STATION_NAME: 
STATION_LATITUDE_DEGREE: 36.77006
STATION_LONGITUDE_DEGREE: 35.79005
STATION_ELEVATION_M: 35.0
LOCATION: Kahramanmaras_Elbistan_Turkiye
SENSOR_DEPTH_M: 
VS30_M/S: 439
SITE_CLASSIFICATION_EC8: B
MORPHOLOGIC_CLASSIFICATION: 
EPICENTRAL_DISTANCE_KM: 194.62
EARTHQUAKE_BACKAZIMUTH_DEGREE: 
DATE_TIME_FIRST_SAMPLE_YYYYMMDD_HHMMSS: 2023/02/06 10:25:00.5568450
DATE_TIME_FIRST_SAMPLE_PRECISION: millisecond
SAMPLING_INTERVAL_S: 0.01
NDATA: 13501
DURATION_S: 
STREAM: HNZ
UNITS: cm/s^2
INSTRUMENT: sensor = CMG-5T/GURALP | digitizer = 
INSTRUMENT_ANALOG/DIGITAL: 
INSTRUMENTAL_FREQUENCY_HZ: 
INSTRUMENTAL_DAMPING: 
FULL_SCALE_G: 
N_BIT_DIGITAL_CONVERTER: 
PGA_CM/S^2: 17.151
TIME_PGA_S: 
BASELINE_CORRECTION: BASELINE REMOVED
FILTER_TYPE: BUTTERWORTH
FILTER_ORDER: 
LOW_CUT_FREQUENCY_HZ: 
HIGH_CUT_FREQUENCY_HZ: 
LATE/NORMAL_TRIGGERED: 
DATABASE_VERSION: 
HEADER_FORMAT: DYNA 1.2
DATA_TYPE: Acceleration
PROCESSING: Automatic Paolucci et al., 2011
DATA_TIMESTAMP_YYYYMMDD_HHMMSS: 
DATA_LICENSE: U (unknown license)
DATA_CITATION: Turkish Accelerometric Archive v 1.0 - Disaster And Emergency Management Presidency, Earthquake Department
DATA_CREATOR: AFAD
ORIGINAL_DATA_MEDIATOR_CITATION: : AFAD - Disaster And Emergency Management Presidency
ORIGINAL_DATA_MEDIATOR: AFAD PROCESS SERVICE
ORIGINAL_DATA_CREATOR_CITATION: AFAD PROCESS SERVICE
ORIGINAL_DATA_CREATOR: network: TK
USER1: GuestUser
USER2: 
USER3: 
USER4: 
[...]
5.735639564674281
5.601628917560649
5.486178880092226
5.399574335769061
5.335126559198721
5.273007340036624
5.211009761340585
5.1414489963651935
5.074971516990202
5.011255502950008
4.93678393685023
4.863786622799931
4.805509936835604
4.763990312308103
4.726330784066244
4.672891078017183
4.602803251216526
4.525123419884939
4.452415518853872
4.388244690284321
4.320348427051552
4.254044496511311
4.195894802532956
4.165025524345882
4.17575130027996
4.196356804569831
4.196823517519007
4.184352531288783
4.171073682223849
4.165654614177558
4.167839987715809
4.16267587368337
4.139011328333889
4.092131596557847
4.041871440809559
4.003414879082436
3.9722586769895476
3.9636542845713922
3.9827717780502554
4.002116691535933
4.0168959351120055
4.048563843683262
4.103089820126878
4.1620859574300875
4.222609324259639
4.2893977510019825
4.351219437644351
4.419824540665634
4.521205589797388
4.632796036600733
4.707872393926945
4.729721786435271
4.70047900255255
4.641661997880364
4.594547556795821
4.56569776211842
4.53921669045116
4.501859221325384
4.420058300154579
4.265561271657518
4.057543681302725
3.852204401966445
3.664299668326448
3.4788681066140694
3.2784803590605804
3.0715714653425445
2.8649920587566027
2.641814991812401
2.4025762765306333
2.1628018362256296
1.9454236313052522
1.7426663812862182
1.5570578207587222
1.3858824961720548
1.2149589841827697
1.0709661240802857
0.9831515625887911
0.9418398163397156
0.9082669227265832
0.8606404128709384
0.8010367126301636
0.7476643757687017
0.7179040041141141
0.721402383846016
0.7429772344173343
0.7787178775684558
0.8326650119933316
0.899708094070019
0.9759245033769771
1.0614333016335329
1.1573112270350066
1.2611321504477908
1.3775866888324868
1.483864133653378
1.564702793082765
1.6249107886404688
1.654212073165458
1.6409851473853447
1.6195175323964683
1.6094766567274061
1.5848418345574267
1.5498402210057507
1.5364170225402274
1.5412567458551107
1.5493132137236276
1.5724021905827525
1.5840838841377747
1.5537929795690564
1.4974048549235612
1.458130514546568
1.4605408916536782
1.4952868293800576
1.552444948400381
1.626115385805491
1.6861152434225277
1.7468982801564923
1.8337925565344968
1.9415057278929972
2.0680440669664897
2.2104350313562016
2.3516120250637504
2.448108313396808
2.5225965884906136
2.6203842083041615
2.732977380735846
2.8359197789676234
2.9425989632648824
3.038318172381317
3.1203780083533297
3.202699916975774
3.2812170148868667
3.321849875190485
3.300067278407715
3.26256248167472
3.226652927846183
3.173792942717183
3.0898120707037062
2.9887130624448957
2.8852026201220156
2.7901166718693995
2.741730422878249
2.749208728484649
2.778091634462021
2.8048286564225067
2.831203455475753
2.874155820632886
2.926653634609799
2.9727826972133973
3.0074400473038754
3.0082152620395064
2.965262004101345
2.894584283858222
2.823107992052101
2.7633326792435153
2.7081779437976956
2.66030723552515
2.597489539122054
2.4990800654249123
2.382613894800752
2.2586872773963984
2.1349087640239786
2.0148239888910275
1.8892051468426874
1.7555736256291123
1.6080237223212017
1.450517933594214
1.2919586792676834
1.145204871333866
1.0368326039004285
0.9831344296722649
0.9847345521391647
0.9932084847601671
0.9659504476793787
0.8924939142222499
0.7982040434267345
0.718440915219865
0.6680999471135437
0.646258577127714
0.6259678899145064
0.5806002566083465
0.5123999740828942
0.433489353765861
0.36183480274552554
0.33139350541516877
0.3449624079850884
0.36694454985712244
0.37277601712212616
0.38448825558789274
0.42539845838960766
0.5030497023333215
0.6047113826395276
0.6946173599213166
0.7620116879852863
0.8066232269898176
0.8284123010653436
0.8434459310330686
0.8289675819685833
0.7806262286244584
0.7162444182044816
0.616135925607997
0.4588749700598903
0.23694987615893576
-0.039871083980696595
-0.34189114618022076
-0.6371027268524145
-0.9042500063497055
-1.1384491827284076
-1.364281295321302
-1.6265132723469908
-1.9342772113443136
-2.2628896476196583
-2.591478747208795
-2.9084069874482466
-3.204786672732167
-3.475683953749526
-3.7289994399549165
-3.983934210717181
-4.225388055017355
-4.414718377925855
-4.55454858854392
-4.678890767014225
-4.789259729061295
-4.877500780783261
-4.942251355572546
-4.96919504547925
-4.969409105914006
-4.966527461463699
-4.969862653575533
-4.960526174898866
-4.938186655254902
-4.918340743246722
-4.910020907984684
-4.92599011049946
-4.971289680596426
-5.033550303873649
-5.118095786059032
-5.230047306787515
-5.348887350893126
-5.437288315763238
-5.478148948798357
-5.500673956515434
-5.53200603040908
-5.58543869827185
-5.637008780407331
-5.656492076376384
-5.66257961113694
-5.673842514828105
-5.687081831977767
-5.6965036981814725
-5.705063553381088
-5.719139577879934
-5.723192654882614
-5.710314555520615
-5.702368359372545
-5.734116900615242
-5.795434694590613
-5.8380929248202165
-5.83173234712426
-5.813694970508767
-5.839185894416924
-5.89926499517211
-5.952505480941368
-5.983833994346546
-5.9974921562222425
-5.997621485110798
-5.969863920560041
-5.914170438865805
-5.8526507837434805
-5.806988402100816
-5.790222280628403
-5.790553520121179
-5.803976375279381
-5.806306426889261
-5.783214295988555
-5.752940393719711
-5.74354174096421
-5.7664274207962585
-5.805985144858843
-5.836507638955037
-5.850460169614411
-5.858899612269683
-5.875222260790786
-5.921799930036902
-6.016619343186418
-6.147406703686137
-6.279756903457512
-6.410998639304366
-6.556630998313167
-6.69042815719242
-6.794234086297641
-6.901687832966722
-7.047129493480889
-7.202343498335214
-7.328346668836621
-7.428345934775234
-7.479912046503602
-7.494333579210237
-7.495625554247098
-7.448428665686069
-7.345576634284021
-7.236736879476346
-7.169210663721354
-7.135765390608113
-7.087848966682835
-6.991317075320988
-6.856925785030116
-6.730052705706873
-6.621212530353512
-6.532895252211407
-6.483486708171935
-6.460299944329316
-6.452341722681477
-6.440135264782441
-6.430581237438173
-6.434070556717788
-6.453401056146496
-6.509826422977562
-6.614468303081772
-6.761092774893973
-6.924958373822301
-7.092879591473741
-7.248373464053041
-7.365317463570135
-7.429507402026551
-7.46428290790244
-7.516946844546997
-7.604890104277214
-7.707595831428586
-7.807650472749427
-7.909047692640401
-8.018560220962817
-8.133190025621106
-8.249581539053814
-8.360860229851033
-8.473316662578174
-8.607621654593176
-8.765726373382348
-8.940557073687202
-9.105077494011494
-9.238062951039936
-9.338560823979085
-9.414316962974755
-9.472576420255818
-9.53913236638612
-9.631673802871555
-9.72723719082397
-9.815011446182138
-9.910479008835454
-10.041209426109805
-10.176179249444484
-10.273212099214179
-10.35245525364763
-10.446120018545221
-10.563982042743335
-10.688264810925865
-10.79971634900102
-10.894251712181175
-10.96865717089511
-11.03087290001184
-11.119536250766632
-11.247152338121898
-11.378298837920745
-11.498067678348802
-11.621252285729671
-11.766512777564198
-11.905765300772533
-12.017844592547286
-12.13397378282971
-12.280679183389335
-12.44161849043168
-12.588912775691657
-12.731439912157715
-12.878139045264861
-13.029090137178299
-13.178448157315202
-13.334752021754385
-13.505926929598365
-13.658472814935692
-13.771226175996949
-13.880074890334939
-14.004789265115251
-14.120676646494024
-14.18492085696497
-14.19577610787728
-14.190645658085746
-14.176969244870458
-14.137771982601002
-14.053702262074454
-13.939575488305879
-13.819911965471979
-13.679938233929136
-13.50705217778108
-13.30287164089271
-13.087971983324024
-12.91495778559383
-12.790585595935474
-12.66471754535363
-12.50838689752722
-12.35401243468314
-12.236556549223865
-12.160633802301705
-12.133765225396635
-12.145057739844226
-12.153141484263966
-12.134329516313754
-12.099572704202302
-12.08366763131349
-12.099238104374143
-12.118234374018162
-12.119682280549483
-12.101079289435457
-12.07139383604086
-12.03026326879963
-11.960515515724135
-11.874659768776933
-11.798822201358178
-11.741942359838074
-11.697575233007257
-11.668968686848226
-11.634269098951748
-11.570302418507664
-11.500742250198698
-11.411477406858818
-11.287248926923564
-11.169738158615015
-11.088955049123829
-11.020280680032428
-10.945147466151402
-10.842882257232798
-10.702507689752453
-10.5667808352535
-10.453580924898091
-10.34101368034147
-10.221669465753326
-10.09284344462497
-9.9413317195467
-9.755592108164192
-9.537172695349748
-9.319433979195251
-9.142425206853853
-9.019059705130553
-8.916220657816586
-8.802259907224323
-8.693529619234242
-8.612991033363864
-8.561185467330983
-8.512969197234906
-8.450526342773093
-8.390598930417582
-8.354333945439812
-8.332312913081095
-8.304259055383334
-8.252452951101585
-8.179242095241518
-8.105269719318947
-8.06175761454515
-8.047127989548466
-8.015528125811391
-7.953462481601632
-7.875746838259155
-7.805710867594691
-7.758822144042188
-7.710238722506103
-7.63528325099596
-7.54030940824198
-7.446933150667946
-7.3715079554280205
-7.319116748867607
-7.278546314365784
-7.225339455712854
-7.166400019153797
-7.1281306825672806
-7.10447169256864
-7.068571585581786
-7.011401045635424
-6.93296573817682
-6.830764511570068
-6.729302778495952
-6.624228289308157
-6.492037057024339
-6.341268813586376
-6.184543816236388
-6.007810041431725
-5.773529001762178
-5.484470918058785
-5.19335945606553
-4.940601926201654
-4.707182012928923
-4.462628226360483
-4.201370464315585
-3.9471394540293803
-3.7091752711951527
-3.4987331940448865
-3.3128045019850494
-3.125048249268011
-2.946546988998808
-2.800846660618113
-2.691423669298454
-2.601359150889432
-2.509311888163248
-2.4103789339573307
-2.3084615615715824
-2.2029722668143803
-2.10047569282777
-1.987197872162601
-1.860434338118003
-1.7310946465005317
-1.5922461248326663
-1.4233326771559591
-1.2348790896420117
-1.0753504689827853
-0.9601296346899897
-0.8404965054578222
-0.6951147305680255
-0.5372127658980507
-0.3675098535920908
-0.19123093195657992
-0.01685921818453265
0.15690977814888302
0.35537300141942485
0.6019964189947989
0.8819508377946343
1.1403513818627078
1.3678456978635312
1.6005516099437556
1.849060222108889
2.0914929985897177
2.3246208105145025
2.5503394029928037
2.7632981093129407
2.979227631065331
3.202174497155405
3.421719797284899
3.616978779028976
3.776611820735697
3.9206079798410007
4.059466881536232
4.2094167377673
4.385124216937292
4.551025282586966
4.67215244039386
4.77937275678363
4.908012206319622
5.030785515065834
5.133073822309662
5.2392788983199345
5.358073871297713
5.459523276032584
5.530383179568025
5.608287299345107
5.708847305943399
5.81016319675443
5.884431786537898
5.928473252201041
5.974339363899712
6.048604188872805
6.163413868402712
6.317594399511028
6.509563182427475
6.73169174528695
6.960206631914962
7.186786208296289
7.407555515528495
7.610591684968862
7.776272625780727
7.906323220846464
8.044681881177562
8.221133981288624
8.426468883820954
8.60828467467853
8.737428804762581
8.844147814072759
8.948342992087769
9.049402813790758
9.163406129002368
9.31042233946953
9.468346281145072
9.601807512864829
9.688290401953601
9.757433866631294
9.863044071506884
10.01035236318356
10.150476826965377
10.238528194709493
10.298153159204032
10.373715101419638
10.472514286963515
10.567374471030403
10.6229890511738
10.633764714832456
10.625134617849298
10.637286662261191
10.681023883948898
10.721575430466523
10.742559295291707
10.754438258686712
10.787143557514531
10.857852568041853
10.91996160926232
10.943187394315494
10.949046583402039
10.948658438894546
10.965355415622803
11.012725879924878
11.082396077662974
11.146818328072852
11.20332739528924
11.287136142552752
11.40739028904037
11.563292062295382
11.75817596818862
11.987937534959489
12.221668118815037
12.441468555860762
12.65717043203314
12.88557153435256
13.126905556507513
13.364334817467244
13.582096191193287
13.778980954735573
13.979061985650093
14.180055916822734
14.358786048571174
14.49626591377321
14.607810570810996
14.722545263928328
14.835154206962867
14.921922938064125
14.955338593784903
14.928891954134642
14.887754413922897
14.880607261078625
14.912976786625347
14.948583390048062
14.945606637864877
14.936530656455323
14.962563373740212
15.02074413943549
15.064524104274133
15.075425984732362
15.115538066003351
15.240827474425421
15.433524135270337
15.616748480434083
15.746179612116109
15.844484581973484
15.957226788632022
16.08437776072271
16.202509863625984
16.313823695985405
16.42115512261502
16.521913639956583
16.608393041931283
16.655806176456633
16.663639048367628
16.67883348206082
16.73034518534363
16.80544934913754
16.864206019605383
16.881305239977124
16.879682931764126
16.880399896063153
16.88919702645624
16.892009505788568
16.88812415181133
16.893217588126735
16.92548610007862
16.980709900234224
17.017175611695762
17.01372645811989
16.985619458194133
16.953894188583945
16.90971457740517
16.839988428282332
16.73984482015295
16.644745386185473
16.563298966438595
16.452620066061925
16.28985493362286
16.09764213455688
15.910430118372203
15.740819491359218
15.608551877252257
15.487505923735375
15.348292367258328
15.189676227106196
15.02229767096641
14.852123570861957
14.671258132904477
14.492549588158418
14.311776895704918
14.11927211774131
13.92183279859308
13.726443101852263
13.542990544751197
13.384264657248973
13.264562931937057
13.186952097583736
13.136560329000904
13.078704279044103
12.995114345593013
12.91252515027279
12.834953970250822
12.742961604389663
12.63070809681042
12.495649327397441
12.358833106179361
12.237372906373208
12.103061086080656
11.911633644775142
11.659776169171518
11.387329495217172
11.149176097492681
10.964838571055974
10.799694890376031
10.629121411325448
10.465885341193916
10.323409744941594
10.198294965030113
10.098950741637848
10.022894078628505
9.953484978031131
9.888276588416991
9.834993745078243
9.808683610052153
9.821100147506513
9.86223470362113
9.873602605458517
9.819191761845985
9.731145676084564
9.65948603747322
9.59658289125965
9.509906675019844
9.399600336278397
9.28442092662423
9.186130660792209
9.10567507921781
9.029783934302232
8.921852295502298
8.791995774397188
8.674755960020853
8.57015096049935
8.489963266670124
8.451551893069581
8.420726666298176
8.343934221131928
8.219081279200458
8.081417314608316
7.9816522713740214
7.934236923135166
7.919646745221509
7.8946565196411855
7.8119710850868405
7.69925568591495
7.618535410817117
7.56762696543031
7.500056353175756
7.396155029045912
7.259520799856601
7.10578600832949
6.939094021541386
6.7413742384599775
6.5135468010978625
6.303193395587511
6.165341631306149
6.104053174588598
6.08555866898959
6.085211057601031
6.102058688499527
6.13584856553247
6.178093913835878
6.219878764282049
6.263421946616312
6.312921351093443
6.377120467738166
6.459418665863681
6.510994597043438
6.510394208363878
6.497390468263674
6.490029677279154
6.480976002802262
6.467937392791934
6.4235805609801995
6.329199531616909
6.232667700459477
6.1726880448351436
6.130188239700399
6.0793639056082345
6.030575502008102
5.991992100218969
5.938112831158505
5.856446296937903
5.770561997751399
5.692357323481847
5.6115912021871
5.526988694424983
5.438974931904103
5.342242951479638
5.228155184473727
5.087238842920734
4.902820050591034
4.660766403768206
4.398068986817297
4.183576688469031
4.038483534160666
3.906882902427339
3.720292893569867
3.4828424482663185
3.257448132775696
3.0797649818805035
2.9276084787691197
2.7781287053458947
2.6146633266035804
2.441082410552244
2.286731172859419
2.144289955136822
1.9840779794166667
1.7815973457427927
1.5331812522599024
1.2607363259891757
0.9888726830594565
0.7386817336977854
0.5028620244081615
0.24870362974722476
-0.048602054820715536
-0.3515370926405845
-0.613113093156075
-0.8320591839249493
-1.0246508127477674
-1.232274466810979
-1.4560981356454363
-1.6901582883205286
-1.9416351934589047
-2.1889893991277525
-2.407028425811808
-2.592177182200961
-2.761859056347857
-2.945957063371806
-3.1269240709034736
-3.260613754071898
-3.3607798446473205
-3.459677430972259
-3.5800780426795766
-3.713363105585604
-3.8247135265940724
-3.898050847718821
-3.9550842205721577
-4.020041245898377
-4.1014425659552725
-4.183327568617038
-4.239741364133891
-4.279770722461401
-4.321779872926498
-4.371026366495364
-4.405813340421901
-4.393867705203377
-4.338038142806196
-4.266183013127828
-4.203342457411883
-4.166197355923341
-4.159647291269996
-4.154705358159313
-4.118362709734157
-4.056355274431592
-4.014963006269114
-4.033412931198179
-4.079562381749157
-4.110589226292172
-4.148769802411496
-4.255072030333588
-4.448624640413928
-4.67128411593928
-4.845702189983564
-4.9679858616910275
-5.075468041894606
-5.189759440088851
-5.327434655115508
-5.486962318149918
-5.631058796014696
-5.727730710086742
-5.816305863830206
-5.936601457338718
-6.076869835438387
-6.190424541354048
-6.2584235790996585
-6.324164700079219
-6.4235791643531295
-6.545035330525644
-6.654763043508952
-6.749798852179703
-6.869231322948423
-7.04272534771632
-7.2379158014259755
-7.421610180550052
-7.61766893344817
-7.850317008269449
-8.081884947728248
-8.28726284844819
-8.477427344116313
-8.643356806114424
-8.789464189755638
-8.932557626120948
-9.092605787882757
-9.262657796832839
-9.428146415396963
-9.603212471270924
-9.816102550559796
-10.04656904652219
-10.24414231727546
-10.407678582832148
-10.570521861906075
-10.745152464284065
-10.908970693121761
-11.052867973305707
-11.2051638411575
-11.394314759598798
-11.601127998859871
-11.801482408258265
-11.997692882243754
-12.206438775977515
-12.42036762658637
-12.616551813234528
-12.788846185971341
-12.92861226387534
-13.039624693696862
-13.141123685476394
-13.231923468372534
-13.304075625027727
-13.360043983859319
-13.410899478681172
-13.452645930405922
-13.506573990494251
-13.604010164791864
-13.745609596726375
-13.901035251453882
-14.016148873856203
-14.101659055724584
-14.183942684594403
-14.242640197617746
-14.264983925088824
-14.293709463620498
-14.352961018842938
-14.419030255162696
-14.462702110889108
-14.46597485722575
-14.429985875930141
-14.382527342845854
-14.368363744792642
-14.386901193857954
-14.401512910447897
-14.381698202973526
-14.327519001841072
-14.257336635057124
-14.20009453711383
-14.169320005962211
-14.162474600750885
