AAD_Filtered_TADAS_FILE
AAD_BASELINE_CORRECTION: BASELINE REMOVED
AAD_FILTER_TYPE: BUTTERWORTH
AAD_FILTER_ORDER: 1
AAD_LOW_CUT_FREQUENCY_HZ: 0.025
AAD_HIGH_CUT_FREQUENCY_HZ: 40.0
EVENT_NAME: 202302061024
EVENT_ID: 13207
EVENT_DATE_YYYYMMDD: 2023/02/06
EVENT_TIME_HHMMSS: 10:24:47.00000
EVENT_LATITUDE_DEGREE: 38.089
EVENT_LONGITUDE_DEGREE: 37.239
EVENT_DEPTH_KM: 7.0
HYPOCENTER_REFERENCE: AFAD
MAGNITUDE_W: 7.6
MAGNITUDE_W_REFERENCE: AFAD
MAGNITUDE_L: 
MAGNITUDE_L_REFERENCE: 
FOCAL_MECHANISM: 
NETWORK: TK
STATION_CODE: 0128
STATION_NAME: 
STATION_LATITUDE_DEGREE: 37.250287
STATION_LONGITUDE_DEGREE: 35.062788
STATION_ELEVATION_M: 236.0
LOCATION: Kahramanmaras_Elbistan_Turkiye
SENSOR_DEPTH_M: 
VS30_M/S: 494
SITE_CLASSIFICATION_EC8: B
MORPHOLOGIC_CLASSIFICATION: 
EPICENTRAL_DISTANCE_KM: 213.03
EARTHQUAKE_BACKAZIMUTH_DEGREE: 
DATE_TIME_FIRST_SAMPLE_YYYYMMDD_HHMMSS: 2023/02/06 10:25:03.7275410
DATE_TIME_FIRST_SAMPLE_PRECISION: millisecond
SAMPLING_INTERVAL_S: 0.01
NDATA: 14501
DURATION_S: 
STREAM: HNZ
UNITS: cm/s^2
INSTRUMENT: sensor = ACEBOX/SARA | digitizer = 
INSTRUMENT_ANALOG/DIGITAL: 
INSTRUMENTAL_FREQUENCY_HZ: 
INSTRUMENTAL_DAMPING: 
FULL_SCALE_G: 
N_BIT_DIGITAL_CONVERTER: 
PGA_CM/S^2: 10.323
TIME_PGA_S: 
BASELINE_CORRECTION: BASELINE REMOVED
FILTER_TYPE: BUTTERWORTH
FILTER_ORDER: 
LOW_CUT_FREQUENCY_HZ: 
HIGH_CUT_FREQUENCY_HZ: 
LATE/NORMAL_TRIGGERED: 
DATABASE_VERSION: 
HEADER_FORMAT: DYNA 1.2
DATA_TYPE: Acceleration
PROCESSING: Automatic Paolucci et al., 2011
DATA_TIMESTAMP_YYYYMMDD_HHMMSS: 
DATA_LICENSE: U (unknown license)
DATA_CITATION: Turkish Accelerometric Archive v 1.0 - Disaster And Emergency Management Presidency, Earthquake Department
DATA_CREATOR: AFAD
ORIGINAL_DATA_MEDIATOR_CITATION: : AFAD - Disaster And Emergency Management Presidency
ORIGINAL_DATA_MEDIATOR: AFAD PROCESS SERVICE
ORIGINAL_DATA_CREATOR_CITATION: AFAD PROCESS SERVICE
ORIGINAL_DATA_CREATOR: network: TK
USER1: GuestUser
USER2: 
USER3: 
USER4: 
[...]
3.3551296261838264
2.9187182981750293
2.688813039926699
2.5896817835799353
2.1125030781998713
1.6303171814887318
1.912576241165868
2.6753322849738668
3.0651376662984715
3.025409747115118
3.050435946402146
2.955358025755343
2.604864793417398
2.2022202449989225
1.531495402918886
0.8905887263497926
0.5007328719757868
0.10616334220498752
-0.14611279103812883
-0.6073492410284045
-1.0407608147529623
-1.0187443809062
-1.0777824484643883
-0.7838580972398916
-0.9245921826626733
-1.5581537854033234
-0.47133730846904026
-0.055822875140434346
-1.1309107284544504
-0.6628026898725089
-0.862599815785382
-1.4849649065069261
-0.45921157300991
-0.7201728997217612
-0.7993101580345613
0.42822789800769445
0.13537888885678834
0.17182839683855317
0.814537266662682
0.45896314817093836
0.4999150214519699
0.6406738035976313
0.5668716904670521
0.9293009326324677
1.5716171008366076
2.0729005884937446
1.700207141234801
1.4975700273420929
1.5529845225205208
0.5699160009506532
0.016766562535188132
0.17493638906379266
-0.11294077297950433
0.023144007127460304
0.4413071993640815
-0.07023586630783314
-0.7452678084094645
-0.5201361242889673
-0.7420180319364601
-1.8941140591598276
-2.013531100172657
-1.3907761193648915
-1.603125134194301
-2.398282740752251
-3.144353238024754
-3.2600799723650495
-2.867612062909754
-2.8771737407989826
-3.1460557720233497
-2.9551284958047837
-2.6882915194062473
-2.989375346442461
-3.334406603247851
-3.4386602661308725
-3.413994757149816
-2.8396768584603285
-2.437786075335009
-2.9668543072621345
-3.3379583479058907
-2.981201922615098
-2.9707475290540106
-3.5264498764625403
-3.238139019259761
-2.549840163998713
-2.8045882366423447
-2.3864129610398623
-1.2702890483724052
-1.4493738589637797
-1.189452873016493
0.1242279208173263
0.1822493844782363
0.13838200553342955
1.1330881129126151
1.4775454084058293
1.260962109281394
1.0711491208790371
0.8129765054224274
1.1253890924022105
1.055374103901729
-0.06305855596400635
-0.25877893052749673
0.2019950962696585
-0.8099579189605512
-1.7503905681758793
-0.834184065286551
-0.4384430692370065
-1.3048852500184094
-0.9290660991320718
-0.18458111619860745
-0.843481123444133
-1.2872644226027508
-1.114609660044321
-1.127817417878293
-1.0947951649906074
-1.262412484600898
-1.1133387429388555
-0.4234578833181975
-0.1336751584380639
0.33066957774902533
0.9645474863931788
0.8303667205859072
0.7768978244340538
0.9115842640008707
0.273099127561359
-0.05145295475530633
1.0739207247830544
1.9444148024291794
1.363636678408306
1.152286204877172
1.5338997206699045
0.8905754342536537
0.1534901013492486
-0.2959240886770578
-1.4471125195444487
-2.014734945869831
-1.9586622689728181
-2.6880927006528963
-3.17575329945426
-3.089699077809056
-3.3768995623633824
-3.7405924935212176
-3.7513339013352334
-3.329443105018092
-3.4643233300653296
-4.50431611166143
-4.713527944171912
-4.784123267750562
-5.78843184234795
-5.937270162233907
-5.779965624201238
-6.415855958643068
-6.399456948668675
-6.064094240196909
-6.162774393752911
-5.901709388073147
-5.580144363618654
-5.62252004633484
-5.781621557355273
-6.122404505358924
-6.310030535645792
-6.089265250124671
-5.945856180331829
-5.766269519235908
-5.074882183606011
-4.6037854194737085
-4.828385639159449
-4.8090586091040946
-4.524451168549737
-4.848205984846473
-5.3573513742181325
-5.346724128171119
-5.290604865826636
-5.396537577053646
-5.027264507911042
-4.689969191979752
-5.1175419828832736
-5.431471675462804
-5.39791149936962
-5.374671384568461
-5.0457445326306765
-4.956109449615077
-5.154120863300134
-4.995180183787339
-4.913919145320423
-4.572033395380854
-3.848212279041902
-3.8677126253065626
-3.8122995321049356
-3.1034846902871984
-3.348131714117697
-3.9273374556555676
-3.312581386222241
-2.828029298648212
-3.091719329179964
-2.7959902590909937
-2.3008486754749
-2.873430546187958
-4.07737644764767
-4.6819450768730055
-4.816785909337838
-5.338487380682792
-5.6689204557741375
-5.087491500568801
-4.388509977243121
-4.114942396320798
-3.986311664977005
-3.9392882933310314
-3.8625151644389337
-3.583970661083624
-3.269028135117803
-2.95218156985972
-2.60672212499526
-2.5305701754357353
-2.5624143686612895
-2.394659310169859
-2.5836251089365363
-3.2134145466709194
-3.4923308039920933
-3.5515342649505093
-3.967450735091135
-4.285801786489883
-4.2498868837178065
-4.514305866855932
-4.863963537737889
-4.830332476541178
-5.056415934588895
-5.2981956924159705
-4.973110108684768
-4.919608493012982
-5.107442564551805
-4.833519927330423
-4.456482464708948
-4.067528338353838
-3.606553359007949
-3.0540350043518885
-2.235660352813127
-1.9028814264459701
-1.7790969398768608
-0.5875344344890793
0.6671219607069651
1.1716364836295856
1.9345747024840168
2.636764344618496
2.6331737369608783
2.315571166268607
1.9106413724752718
1.9173508429460968
2.2904799800628646
2.207459369254449
1.9816930452104067
2.017214519548962
1.7980988501256776
1.2737729809543004
0.7459555655761454
0.2917024283782964
0.0559355739996821
0.020340847521460786
-0.06935116816089489
-0.19727336277754945
-0.2897560962960869
-0.5508170966358485
-0.894294871665895
-1.1248611722847608
-1.302260393939699
-1.3085926348408992
-1.4262393884231297
-1.933154758500792
-2.1393362690879565
-2.093955282287643
-2.284886544457052
-2.1627983725543087
-2.156095168893413
-2.684134348115681
-2.4801336038283512
-2.064827604606437
-2.4763961512437325
-2.279037237495107
-1.6396931344310854
-1.8888089348494606
-2.0174025132670503
-1.9020796158355031
-2.3399429122501867
-2.6150158192422763
-2.8096307836029246
-3.2340955271853993
-3.153765276290014
-2.90815987674235
-2.8625141923009787
-2.5756242804128955
-2.438195807039139
-2.361401596431768
-1.8289606976060702
-1.6800942520937503
-1.9528482218438301
-1.8581833717472795
-2.0369977661080263
-2.4804986007368397
-2.464046364205117
-2.5067773882055056
-2.675022929171422
-2.6972164420893123
-2.8287232296422054
-2.823209986570438
-2.763947465608523
-2.8330279301609362
-2.7114720435811637
-2.7093698087661133
-2.9180987908494735
-3.040278657979188
-3.352549586509966
-3.8254065601663005
-4.278257392567949
-4.599660639276211
-4.433070062497941
-4.535845784734878
-5.502686430205091
-6.06344945125248
-6.0065589075110415
-6.115595369728457
-5.828566635079682
-5.344561323440046
-5.228155337249445
-4.688431369223131
-4.035316734725605
-4.021943533243971
-4.047777060741729
-3.9721397682713375
-4.106994237803833
-4.391598270876955
-4.726873097526811
-4.903325868000749
-4.966675517336166
-4.953193426988678
-4.788537289454952
-4.937628644852621
-5.472781838624671
-5.565924698874289
-5.059560710421006
-4.890128936793109
-5.011959180842358
-4.500960516403639
-4.134175271387304
-4.667997806932029
-4.8608911991444685
-4.525375384199206
-4.786667571496459
-5.334600511460969
-5.428801567849482
-5.418637809089132
-5.533874109664631
-5.56073105024424
-5.576213630886854
-5.425153832052013
-5.210308974437526
-5.48832017521123
-5.661580878444009
-5.332564203629915
-5.231714599258169
-5.148741894871934
-4.756381857700473
-4.447163702469017
-4.033442016455023
-3.3442544561402285
-2.8472197791704645
-2.5927593945781195
-1.9402680001764143
-1.1118877120475146
-0.9538606795331198
-0.8445039601410876
-0.3715428235915472
-0.5106610413200219
-0.9906638131541506
-1.1281188638257345
-1.4346852090637718
-1.8391599664453926
-2.177191212837905
-2.8300101130271877
-3.2376126587802356
-3.2272170017997257
-3.47491080719225
-3.7224995383082025
-3.745242269250598
-3.715097481866181
-3.8485882636636854
-4.525105053055852
-4.87502186332153
-4.50617529485599
-4.349769733542022
-3.895071631346858
-2.9653528553758175
-2.6571353488623104
-2.7779487056874017
-2.6258072325048794
-2.165091173389266
-1.6816342025887692
-1.0401847307270888
-0.04590823926336799
0.35711052590954656
0.28939609977738584
0.8176219788408718
1.0498263296831858
0.9072132957054135
1.618430769263055
2.065871954067931
1.566450037961928
1.499291445054194
1.6334078485235826
1.3403742730227082
1.0640465113212472
0.5707316651447658
0.34341060970668996
0.772272170187416
0.6747369243850748
0.4975474923283726
0.8610489285548777
0.6450593194235106
0.252725113273123
0.11306132997480466
-0.3170013888438307
-0.23262538246114448
0.015813942467613227
-0.6533541470782845
-1.1727792354424926
-1.3246714589822337
-2.1085572801017034
-2.8088476985528517
-2.5393515740952672
-1.8752353837753717
-1.3527084766417583
-0.7174469917116828
-0.10980773085240801
-0.19547392366170627
-0.6506788511162993
-0.6234411205963691
-0.20993665415410173
0.033137900840252726
-0.0498147119354936
-0.11860742779365868
-0.10450122814831829
-0.45036107572143114
-0.5761947020673523
0.3446185787161127
1.2490957527469455
1.4250785839791793
2.0296573541262393
3.372052109406038
4.738656197024343
5.787453402290136
6.373409274058852
6.945934471737656
7.499244700254012
7.507993782984481
7.760851263419879
8.355935849467386
8.581064270206209
9.025009204928317
9.213256654435963
8.481301870783554
8.04798321694249
7.759380485916405
6.868125496816218
6.17082827171069
5.357856900750701
3.733254061244848
2.1314652971590387
0.6631246454976385
-1.332682732587052
-3.472229588893264
-5.257451267417649
-6.383807036551591
-6.5324762674645855
-6.352508239435453
-6.212063594202567
-5.691401515611429
-5.3879009599413346
-5.533524817871355
-5.0726743126939
-4.145232944741306
-3.71067755908755
-3.5313786354731205
-3.0435300702059718
-2.3525908581039756
-1.5434912263552918
-0.38233812619231294
1.1304779299029037
2.6530918049287644
4.0128105417361875
5.178456087701201
5.980122322231558
6.653029671115444
7.519258404625216
8.176317546363707
8.436485899337635
8.475169325423975
8.340009141321428
8.273648131922256
7.9195777664978095
7.006392214101699
6.0829106207386
4.916090510737985
3.5645322270432835
2.7324715264738924
1.8521076984134084
0.6416466502990359
-0.390496946283315
-1.3944862117397465
-2.452383067102437
-3.59710037671461
-4.740449799703652
-5.378669824355159
-5.922208546150241
-6.802696429226966
-7.2215963172659805
-6.710707976295945
-5.6385358605355265
-4.483130476434081
-3.5380268437269144
-2.7306925524945886
-2.015155915899857
-1.301717229766897
-0.30974796889499423
0.776999061426634
1.5124793791545856
2.013963037994703
2.8021934287146464
3.6460609475008736
3.9346527808574057
4.2379509850615085
4.688059747682547
4.143681011474961
2.9364474171538872
1.986984365453929
0.910625223711567
-0.1769489935580595
-0.8464135066834295
-1.1338643399790282
-0.5947418633696472
0.5808355109236545
1.592909768613575
2.4552484914070036
3.4692816156370467
4.996995840459295
6.1087352445592
5.501742088543015
5.400428583452364
6.626665854775486
6.124572297534545
5.209444270643669
5.853106210508012
5.111429126610768
3.9031288905550294
4.9187017479483615
5.5139135524555964
5.442046710032602
6.940653988282251
7.905817592094106
7.828132204743495
8.668742176356275
8.410465442423552
6.678886265123475
6.595771071427992
7.1697852334664365
7.125582171041752
7.976753047905062
8.567025275496727
8.248487259159637
8.181252977834507
7.245727948345791
6.083686827081113
6.379644321962888
6.143483021854583
4.935597051928368
4.562962773247649
4.015632757433412
2.9080759038862065
2.685676182060107
2.5058492591211188
2.0448650717437915
2.7345353362931815
3.5539141091594417
3.44147075391362
3.7788238082194288
4.550933982004943
4.7292686042838366
4.903000732772717
5.374041369962863
5.659443695664347
5.775642293811398
5.308907677840975
4.075298024185519
2.9922981438904186
1.9962784699769545
0.6554245473294452
-0.279757647581981
-0.6669073260495099
-0.7003386683323216
-0.10149634042544976
0.597269075423249
1.199477504494741
2.046692242756901
2.562742917717121
2.9389613628119977
3.655207195751248
3.5667557436371684
2.6720030711625675
2.3137285641775924
2.2396788984592013
2.0274382059222007
2.342712349526539
3.4220124144455797
4.745239933252323
5.894906655607365
6.812511449536737
6.9388303004209195
6.0356720342049455
5.115212112263229
4.552428792721805
4.13920685142482
4.070786180877704
4.278629036861851
4.8337911295735365
5.515562240761723
5.719917225660611
5.85144112813732
6.188453560269487
6.470251436098473
7.135678290199596
7.814994840974347
7.8276919014257365
8.102825902142222
8.259543064332977
7.6319400662021115
8.148860018392625
8.791786364496275
7.441826324465938
7.054206672004753
7.933642949829912
6.921472793124702
5.8591354672508755
6.239650426483129
5.593315334198291
4.479991959287073
4.92797109696465
5.4785094104348255
4.984347238709566
4.914348746376059
5.49273194856081
5.708275850502354
6.225801768607096
7.608692813453175
8.750504678663354
9.139825627340766
8.967442112720748
8.06977041232497
7.55099834166185
8.036220398292839
7.750318992754904
7.327849720414387
8.300189350611916
8.49196084577142
8.14629779402104
9.464012688058158
10.10271283382548
8.896750119909974
8.35927049981868
8.460425909309912
7.644931819270558
6.195887442972954
4.649760088610914
3.092124886831219
1.5625503002661492
-0.10111075862009726
-1.1085836433203686
-1.0760985187397119
-1.1683625827670752
-1.0003427685706454
-0.3304158267818279
0.017084158652649686
1.3710126479075235
3.273291518813047
3.9829659068533148
4.7334876180242365
5.235911502061987
5.011913689073012
5.406506332102272
5.229709887666663
4.461646174471062
4.429365814553664
3.5840646957474833
2.2612027194481725
2.0285005973445305
1.9233645812324993
2.017595103854421
2.733940535571593
3.2057565449529175
3.5883094174507617
4.00670823101
4.0181012238933285
3.814801795521537
3.478688551303205
2.8628057701778267
1.8815443221583221
0.6228645949495142
-0.42632998794512617
-1.037658535968077
-1.3348225784083683
-1.4551073904451843
-1.350808126042271
-0.6804470979708561
0.13480204714544822
0.24929213930323985
0.052403112569636985
0.18062269695241215
0.45851477742930324
0.7335231372578277
0.8543387387199354
0.6106526314141313
0.2913851481672285
0.29769614634444314
0.4339791285093798
0.20581937232659284
-0.3397586840693632
-0.9462314000443532
-1.5788457910038056
-1.8311023399495263
-1.6411653738635352
-1.5728578824244643
-1.4003600139805845
-0.8493857382252377
-0.3659227151444439
0.07577998178990386
0.5847568470634459
0.8368258351900827
0.9523090699223349
1.2805222287165863
1.592711416993283
1.5670242692942187
1.488555632335194
1.4670934468243644
1.2412283491033664
1.0418996220374719
0.9944316772636292
0.9996409526105531
1.077332414981659
0.8554002505182554
0.4137445907252944
-0.050913215743598576
-0.9760838903348575
-1.8787815578042075
-2.3795296109429604
-3.044877563327617
-3.4025715729888373
-3.2226547547725604
-3.431360268021481
-3.8946225842890803
-3.9204930661775395
-3.7922336723021925
-3.8228965033030033
-3.5762197248642367
-3.02571522505453
-2.9119419552648567
-3.1381831562148093
-3.088873036622063
-3.01139770454742
-2.950016778309027
-2.446080139156722
-1.788368440357246
-1.5232531833993883
-1.6417632608384498
-1.834009004013226
-1.8324118987343063
-1.9069990163243495
-2.362369658632594
-2.7390545146792245
-2.958411973765098
-3.513486451242597
-4.102140477387858
-4.312929849193278
-4.535328473903632
-5.066603002494623
-5.530890780702023
-5.66434086449255
-5.967305434966181
-6.505003045248414
-6.725958186821245
-6.9582765075743005
-7.417219085151682
-7.456687490511652
-6.96943331151646
-6.26341999350198
-5.670679333149486
-5.434917904519488
-5.148322003766036
-4.674349869851703
-4.450737981169963
-4.260284368125446
-3.7488713360392434
-3.330116900532603
-3.224098212401131
-3.285180139836496
-3.7358641473039715
-4.571763871201838
-5.464781542014068
-6.149584355098877
-6.2898725934455975
-6.213142229407354
-6.3354810711941205
-6.246961019379622
-5.935761144090877
-5.5121121400963835
-4.9397982146230435
-4.727476980433266
-4.524100528289195
-3.8590405471743336
-3.3428726307104086
-2.9021045535092695
-2.606378951371094
-2.9890044758005954
-3.350233917823592
-3.395776716482843
-3.495060778272551
-3.5537305229927
-3.866925294155777
-4.345498700491611
-4.705154856965544
-5.333401589692269
-6.045237743993108
-6.586438921716004
-7.024089202385636
-7.1548503218166
-7.035769412852069
-6.6349026515865495
-6.0190679371966525
-5.527943273462435
-5.024469218365621
-4.531466079491588
-4.134823423147996
-3.740200723533391
-3.507724718717345
-3.1928127129260653
-2.711775305972199
-2.4357452307002623
-2.2786640451493723
-2.3515538764983437
-2.779577183959941
-3.1587758094809284
-3.5118221295938854
-3.9302354343493304
-4.144770770211607
-4.3194602017737225
-4.559496142113588
-4.510735828753766
-4.273897254464918
-4.075600140922857
-3.750073069996572
-3.5023622480202192
-3.405062153580145
-2.8833964515694688
-2.026280920618704
-1.4627587450032362
-1.023547306556328
-0.2687518424063719
0.5258611969182763
0.9860343513451292
1.2896570604857698
1.543791513020822
1.5260529657158848
1.2122737151010778
0.7999034144874084
0.45257900602593976
0.30754009077397704
0.4278327744489959
0.5811437845048902
0.5795740217905972
0.5975182158212213
0.4587768095908266
-0.03376675801002752
-0.29655014119907275
-0.21088062689242457
-0.31196133647344754
-0.42734385053753093
-0.3648299114609777
-0.43595897751831664
-0.4433657973620359
-0.155157541493489
0.07162022126954373
0.12189433411300216
0.19197467078941483
0.2530514523950967
0.10042244324029358
-0.27575691221591564
-0.5144358919624713
-0.5882856411479179
-0.7757604294236463
-0.8794379283378937
-0.9591782114376985
-1.304840431707842
-1.6423030706864696
-2.0018286685660143
-2.4416876993529497
-2.526284896541337
-2.429130494829817
-2.311419538875437
-1.9191137209552158
-1.5936668952380857
-1.4303821373489836
-1.1067214870634245
-0.7049106346142637
-0.13905656461293922
0.4838164133371448
0.7069482285002036
0.7632132958696265
0.8625853378818074
0.7020859424292069
0.48014063694419695
0.5024658637563938
0.45395080275637856
0.23348732397604666
0.13396505429499042
0.09732292780009226
0.14923537630689732
0.4834661669900426
0.7267679324427958
0.6695668576107177
0.5778620078927096
0.225294249920943
-0.5169973234240688
-1.0219553997344517
-1.1316559753933406
-1.3089574930919157
-1.3523548928171405
-0.9862007305199146
-0.7674653464742268
-0.8172727562787131
-0.6658555500828822
-0.4936852668914095
-0.5361563470841787
-0.4517397452484062
-0.04144412854058688
0.5460322917300241
1.1381222211647848
1.693838271565845
