AAD_Filtered_TADAS_FILE
AAD_BASELINE_CORRECTION: BASELINE REMOVED
AAD_FILTER_TYPE: BUTTERWORTH
AAD_FILTER_ORDER: 1
AAD_LOW_CUT_FREQUENCY_HZ: 0.025
AAD_HIGH_CUT_FREQUENCY_HZ: 40.0
EVENT_NAME: 202302060117
EVENT_ID: 13194
EVENT_DATE_YYYYMMDD: 2023/02/06
EVENT_TIME_HHMMSS: 01:17:32.00000
EVENT_LATITUDE_DEGREE: 37.288
EVENT_LONGITUDE_DEGREE: 37.043
EVENT_DEPTH_KM: 8.6
HYPOCENTER_REFERENCE: AFAD
MAGNITUDE_W: 7.7
MAGNITUDE_W_REFERENCE: AFAD
MAGNITUDE_L: 
MAGNITUDE_L_REFERENCE: 
FOCAL_MECHANISM: 
NETWORK: TK
STATION_CODE: 0124
STATION_NAME: 
STATION_LATITUDE_DEGREE: 37.4087
STATION_LONGITUDE_DEGREE: 34.87911
STATION_ELEVATION_M: 791.0
LOCATION: Kahramanmaras_Pazarck_Turkiye
SENSOR_DEPTH_M: 
VS30_M/S: 583
SITE_CLASSIFICATION_EC8: B
MORPHOLOGIC_CLASSIFICATION: 
EPICENTRAL_DISTANCE_KM: 191.74
EARTHQUAKE_BACKAZIMUTH_DEGREE: 
DATE_TIME_FIRST_SAMPLE_YYYYMMDD_HHMMSS: 2023/02/06 01:17:45.0691670
DATE_TIME_FIRST_SAMPLE_PRECISION: millisecond
SAMPLING_INTERVAL_S: 0.01
NDATA: 13501
DURATION_S: 
STREAM: HNZ
UNITS: cm/s^2
INSTRUMENT: sensor = CMG-5T/GURALP | digitizer = 
INSTRUMENT_ANALOG/DIGITAL: 
INSTRUMENTAL_FREQUENCY_HZ: 
INSTRUMENTAL_DAMPING: 
FULL_SCALE_G: 
N_BIT_DIGITAL_CONVERTER: 
PGA_CM/S^2: 11.149
TIME_PGA_S: 
BASELINE_CORRECTION: BASELINE REMOVED
FILTER_TYPE: BUTTERWORTH
FILTER_ORDER: 
LOW_CUT_FREQUENCY_HZ: 
HIGH_CUT_FREQUENCY_HZ: 
LATE/NORMAL_TRIGGERED: 
DATABASE_VERSION: 
HEADER_FORMAT: DYNA 1.2
DATA_TYPE: Acceleration
PROCESSING: Automatic Paolucci et al., 2011
DATA_TIMESTAMP_YYYYMMDD_HHMMSS: 
DATA_LICENSE: U (unknown license)
DATA_CITATION: Turkish Accelerometric Archive v 1.0 - Disaster And Emergency Management Presidency, Earthquake Department
DATA_CREATOR: AFAD
ORIGINAL_DATA_MEDIATOR_CITATION: : AFAD - Disaster And Emergency Management Presidency
ORIGINAL_DATA_MEDIATOR: AFAD PROCESS SERVICE
ORIGINAL_DATA_CREATOR_CITATION: AFAD PROCESS SERVICE
ORIGINAL_DATA_CREATOR: network: TK
USER1: GuestUser
USER2: 
USER3: 
USER4: 
[...]
5.803213299858189
5.140823302097572
4.20140569133454
3.274531038818894
2.42927877688732
1.619891480297261
1.068061788445786
1.0314853555683734
1.424970920357737
1.9123550874292155
2.1460621744481503
1.9991916499440834
1.6278527263043745
1.209907670387721
0.8762534213444086
0.6603069813931733
0.5148790490908707
0.4426970474174907
0.3999945384998057
0.24291537392360504
-0.07292013973054608
-0.40235444114357083
-0.7280342334081623
-1.1121312820283071
-1.5052670328990938
-1.9035420691854343
-2.3499737307863464
-2.785931897168027
-3.015382266231744
-2.840509356478887
-2.3007177029459767
-1.6959328200136008
-1.3350418385232372
-1.3546715938617495
-1.698355174646543
-2.180455355433189
-2.545338431348074
-2.6714341533580583
-2.6828162253782266
-2.7355785991585373
-2.8031179217438784
-2.7537561942853768
-2.6394279594813623
-2.7318721434238142
-3.1732446750274836
-3.752908090575755
-4.12891840781667
-4.154695365940217
-3.950368035592026
-3.7364577929302536
-3.6158189273594328
-3.5999316525977454
-3.608267824387406
-3.425699498368738
-2.977716802866433
-2.383078876922181
-1.7621601783422989
-1.1284815004321072
-0.43438230474323947
0.10582779732405849
0.12308129883557323
-0.4360360679615848
-1.2048799922787545
-1.7172944774651953
-1.8222740053343098
-1.6258672007164412
-1.2304666183605422
-0.6589145577140632
0.0028197535153406594
0.50349187441613
0.7061848253684315
0.8120253025311859
1.063804240032041
1.5772632737824552
2.3462606422602588
3.2054168760236497
3.958943896697459
4.404718591164352
4.495520643430522
4.429668269402303
4.457318912850993
4.621253979540747
4.789008131238237
4.740143213454299
4.225968453849333
3.2186803415853182
1.9905350351136828
0.9847546873490096
0.5247956692586684
0.6160198644706091
0.9902569334833894
1.3523332353572393
1.5863907166006803
1.6718764332228297
1.5277607837800453
1.0645374745482508
0.3498145568095709
-0.32344174919057517
-0.6247356586866158
-0.3893093358031003
0.25139748087229
0.8850818914527797
1.1917655950415385
1.0939955743944891
0.7738104711880034
0.588594149636572
0.7755643345006342
1.320345020609248
1.9332587914466879
2.216017922701768
2.0611978274853597
1.6554911926669964
1.1162810018035159
0.4456434025756581
-0.28968226349438786
-0.887635200089515
-1.0964839875427563
-0.9438242881123802
-0.8890987693402559
-1.241086457301212
-1.8084027099038091
-2.156804821245528
-1.9659131615979237
-1.2953423726521
-0.6200721177126804
-0.41306321652890426
-0.7390317267532014
-1.2903899483800423
-1.6773554078843078
-1.7045307738638125
-1.4496417193928812
-1.1136191230840335
-0.8662646058393583
-0.7388253291143423
-0.6239877555825615
-0.5185511101935786
-0.49624395407424765
-0.6112085016648314
-0.7755229588785156
-0.8331856629845471
-0.8705070033927325
-1.111491412387152
-1.6557887305249368
-2.411421807082475
-3.1387264066509957
-3.5772389615999267
-3.607787423826245
-3.2982040302730624
-2.764377979958783
-2.0970196853072816
-1.4546239786119148
-1.0753989453637967
-1.158304957162209
-1.6877998470238624
-2.338179527246465
-2.6859869740517026
-2.5068979078967444
-1.8612777657383037
-0.9892379991610816
-0.18083740060749492
0.2800076696570444
0.33674587835752623
0.18096245117390736
0.0410941820821669
0.14229634576240296
0.5840079948037834
1.2098021904292884
1.7998681287218539
2.1773520020065438
2.3025965983377845
2.3663525882695953
2.439659880360795
2.4471769126859604
2.4095170124116145
2.3561933514538094
2.4317833888507066
2.8405105981187955
3.431350318874944
3.904755718167102
4.084729627226205
3.986795973145554
3.789704178491751
3.589239246373712
3.4445352236761995
3.3975089909087557
3.3767533701007206
3.330165777077645
3.296128925118314
3.2868653421224994
3.22305133451305
3.052161459945949
2.8000013072342824
2.5285445382789034
2.3821055018890984
2.486434833505857
2.7672487455619668
2.9738815794178364
2.9100122706577003
2.572457804452767
2.068306213006523
1.5883847312442514
1.3245436757079792
1.2313498848003133
1.2090599261240258
1.281791066038691
1.4901593396308033
1.845191368927776
2.126421210311557
2.026857640881485
1.6031052498182232
1.0611375421850835
0.49221548667878817
-0.0426349698458694
-0.5272192937747335
-0.8632174852881834
-1.0650363830470102
-1.4194882959705644
-2.0748737808472497
-2.927236090100393
-3.7022228743000376
-3.9927055590571983
-3.656931022417219
-2.9382236223207516
-2.0940725810880667
-1.3224408338207165
-0.8596716875769136
-0.8550114458295612
-1.250957581906584
-1.8833224992970723
-2.486258528728047
-2.662347075851417
-2.1868392883627124
-1.320743587876033
-0.5776415672311968
-0.24451854018410282
-0.14315208351649555
0.03107328043188625
0.20934468344144608
0.3162614949352306
0.5334199990948519
0.8586525989004977
1.0483802791762522
0.9306522365563311
0.6114970198634929
0.35518026355340765
0.36945349950594814
0.7001544945459931
1.2573626264456224
1.9480553217117198
2.6397283513595444
3.034977378527383
2.7922561412270928
1.9165490429847343
0.8372327625935717
0.05997554670205414
-0.26702598924995286
-0.39250672997481406
-0.591645820050101
-0.9374507855804349
-1.387112817495113
-1.9030194555989859
-2.3638395555300353
-2.5858197809441643
-2.544469185014098
-2.483609191121442
-2.6069744733425315
-2.7792151931448648
-2.779165462304164
-2.418925777106851
-1.5335496710286212
-0.22764211144135288
1.1231339083011727
2.0355665388608273
2.270587858873183
2.037183053829697
1.7614765188511246
1.7843642100939903
2.006221343763271
2.0878730592492976
1.9134156750844704
1.6365497724363756
1.4351446834899937
1.381596793394961
1.5064561390864137
1.8199688362203712
2.1819723229954655
2.36957645646273
2.3397752649692105
2.2476035425294283
2.274332101826177
2.383152238870596
2.444634457638466
2.3317665007087003
1.883678057853331
1.1857553533360399
0.575257890403918
0.31134617535671144
0.38501034371465936
0.5975812312405127
0.8538012331468774
1.1700060165840847
1.4364048990786498
1.3826603476533033
0.8397353838346842
-0.035214488221826164
-0.8234246049476217
-1.117948100926266
-0.8043245574307729
0.08956781799451327
1.4281126320491684
2.7602219276403144
3.5328639684824
3.422869172915476
2.4883745243404514
1.1980433059689188
0.08384122792103414
-0.5897083247893218
-0.8359555108026024
-0.7532485546894248
-0.39323233603422336
0.15769033442026265
0.7347562566505286
1.090069231224543
1.0587170764697562
0.7064650374736899
0.24992515304291238
-0.13023622134920704
-0.41035572455695707
-0.6694915990874731
-0.9451769442964641
-1.2291862668903748
-1.5310162321958798
-1.836981575429851
-2.085853643007709
-2.1857644362469846
-2.1332289196350636
-2.135151704101957
-2.3544979916143114
-2.6900221352162403
-2.8559801067206774
-2.718409207195524
-2.4298715356410563
-2.0383689020927642
-1.3794332390631454
-0.49281123110877617
0.25250093828784215
0.483975162853892
0.1531802650549696
-0.4210275976226473
-0.8828447495695917
-1.0646940517045627
-0.9750016224811653
-0.6975548273826535
-0.34556523893040664
-0.10791722216567211
-0.03740022741313248
-0.010301088241427774
0.012144729709909444
-0.004607417643701518
0.0030201806308108817
0.26538448561335487
1.0302167221320102
2.21556620079279
3.3579536893886357
4.028310027271135
4.069803067792896
3.7023572366691875
3.3674966003642055
3.3572933569589685
3.646052064468174
3.967152248760338
4.050041675480564
3.835287061329808
3.4317375653094233
2.857073902720836
2.0653733262821654
1.083518464356539
0.13274371038855182
-0.40209799304243854
-0.3594132736549945
0.047619049847736135
0.43467722572980516
0.514428046086035
0.2692986524362622
-0.08739353168402614
-0.40436231114449406
-0.7206046828324968
-1.0796012321437563
-1.4241214972642908
-1.643466004960088
-1.619602510752143
-1.2301592721643009
-0.5073905087723352
0.301801402383719
0.9424495824525577
1.3634963305389474
1.573570307652707
1.4776460928143489
1.0347931856599106
0.2654899788662765
-0.6323502741286331
-1.2062115115769811
-1.1675187810331724
-0.6644756269288217
-0.09914444937874763
0.24486570833926175
0.4578075950235808
0.8236295771710833
1.4575342614954596
2.1871341058744287
2.704471932472535
2.842688034510375
2.6253858256247096
2.153646667449385
1.536683550724501
0.8403544046641267
0.15565657379401307
-0.339462239906344
-0.5877577259815695
-0.7218901387508164
-0.9163124076236376
-1.3175474257827477
-1.93825155376771
-2.6056575877380386
-3.0629054458223304
-3.174658649835875
-2.996644898231281
-2.708534130997113
-2.4089147782894145
-2.0411848026758475
-1.7105863436702555
-1.659885041558828
-1.9307730759942878
-2.387884998367086
-2.8081156374277296
-2.9404566010241058
-2.6920012528042134
-2.1992543191521072
-1.6902141790045855
-1.2586137579167644
-0.8229768556220156
-0.35030642045158716
0.005707561929293696
0.010428959761258811
-0.41867324973246745
-1.0201473329124449
-1.433747352042011
-1.4618681627483219
-1.1284563055155814
-0.6149035238966061
-0.009812675501580992
0.5897324397162811
1.058954328122648
1.4634728069711103
1.825960177909465
2.0494123711975174
1.9942567110068283
1.5920614815057978
1.0820602161231307
0.7312885522726364
0.6106613361957061
0.6773083513695491
0.8268955255972054
1.01047811041569
1.1712357933538895
1.2168322956448456
1.1028948351782817
0.7609969263736361
0.1369619559252014
-0.6802312382083509
-1.490021666493985
-2.069058305690419
-2.310697433348352
-2.33652836885169
-2.3271042343406734
-2.3854903176489075
-2.4920440275287867
-2.5576168162484265
-2.5745353453386217
-2.613604547043635
-2.7544856166612615
-2.973124600788519
-3.040852334815427
-2.6900496569088057
-1.9617949041799558
-1.1308413111937508
-0.4004640691642064
0.14162792497048357
0.45583938620084835
0.4798237797047337
0.2315973881504811
-0.043422310755400886
-0.028663760995737284
0.41103499586118264
1.1472597012754167
1.8870160535108442
2.355838732332632
2.4346771481795795
2.1594878677632736
1.6030352678988369
0.929347234817683
0.384821994817986
0.10891661299312175
0.15159328866699964
0.43822078664683795
0.7021484276149684
0.6996384604298024
0.3825030325776524
-0.1908454392263117
-0.8046132280146324
-1.1957746598324535
-1.3230656194431074
-1.2315173839975582
-0.9998582599519398
-0.6850880993895279
-0.23128484671083283
0.3334789870116677
0.8794361731729239
1.2984636299607712
1.5069369294143409
1.5281684052504279
1.4560312228890748
1.3408727959120719
1.2007890543315423
1.0843796422228293
1.0480405601933203
0.9947235341260978
0.7530485845006268
0.33014527668727056
-0.1273734918441615
-0.42149673543226623
-0.34000563725947414
0.12748550942021922
0.7041495905232865
1.0796851894812716
1.0918777813143403
0.8379938114921026
0.6875545379909188
0.9164391295080881
1.4525606833572688
2.057044231384406
2.4878115155059946
2.5599483099038203
2.257490757159587
1.6464932555766312
0.9048966678039551
0.26788076294746377
-0.1627000337552474
-0.3081062640046778
-0.14852873140277106
0.09420454844113152
0.10113068286361324
-0.29359390691993703
-1.040161238015537
-1.8748101062553977
-2.466265223062759
-2.648469079440226
-2.5151862395131572
-2.403513684776053
-2.615057154700175
-3.1431633913645
-3.792420296432427
-4.345367373579262
-4.68624863165284
-4.84428551416802
-4.928887747822206
-5.030690045258523
-5.062745610368976
-4.919857193929661
-4.6884035731689595
-4.538945711917109
-4.560335755013767
-4.634398695825239
-4.485773409587148
-4.070192257162967
-3.730130479147399
-3.7712876141793457
-4.183168647831548
-4.641856013088628
-4.779976522700007
-4.532570083981421
-4.056029951729459
-3.5626380341387667
-3.2707693230351107
-3.2829422613641124
-3.4087813778881366
-3.336448936445392
-3.018138964763393
-2.7523903228442212
-2.950089459714893
-3.6586015453835303
-4.457928636503833
-4.859931070182394
-4.643256795686152
-3.9022257661536317
-2.9041115212672928
-1.904595083957308
-1.0531009603732095
-0.4615958216375795
-0.2327693441909174
-0.44943545666154716
-1.007201892240657
-1.5358199451681946
-1.58405437648318
-0.8400904282081224
0.5769038640277079
2.2022966531784958
3.5246830293457085
4.127691348555926
3.9511213721834966
3.2546989326194837
2.378572145740702
1.7651984306445603
1.7081807308109267
2.131100469493911
2.8112547729513193
3.4705302702312273
3.844343165406722
3.908138665878031
3.8043100457744847
3.6881072274834956
3.660334062472574
3.6725340762068024
3.6295920134197748
3.5616877335600896
3.524262839560628
3.43733686642106
3.1816873972562143
2.805356306846806
2.526769000450211
2.459562685129538
2.5867272651275384
2.862883409146421
3.239095767163257
3.643771738640818
3.980371871027929
4.207013876842824
4.35244523022755
4.466708094008572
4.531849320975022
4.58169752838943
4.768838476079229
5.28528658298796
6.159467056943867
7.121678646116723
7.886337377460488
8.372107383716418
8.569993244411476
8.538589886069479
8.451558624030913
8.50387275504921
8.840245307949024
9.463170006243724
10.231789695532003
10.889247909741107
10.9866697682065
10.284046791411537
9.056297393250954
7.713776645228604
6.570090015190983
5.668898086733941
4.847817088404559
4.035714475529341
3.264337539238081
2.5589547392624103
1.9079513454643686
1.1951239627383619
0.3577317806198477
-0.46743561412329404
-1.134300264947933
-1.5350145763992809
-1.7269085696478335
-1.908820652324499
-2.18721215017496
-2.5390215709855335
-2.8946349474411286
-3.2453839286475623
-3.594528907116386
-3.8961220058985964
-4.145349504574409
-4.45099500582008
-4.938953824743188
-5.611558910573079
-6.290476252267267
-6.786472802904864
-7.0120820721769395
-7.002917289646716
-7.0795393743746216
-7.499400815066241
-8.185957644486004
-8.840082740323814
-9.054155151100515
-8.706046519865787
-7.94894267624533
-7.025938654356837
-6.24584077880014
-5.824867648818393
-5.883884995655674
-6.319243975093842
-6.7117650153638335
-6.723947318564952
-6.4139956432388
-6.07843392088824
-5.909748060432379
-5.879690975517278
-5.820021537689638
-5.639425165354162
-5.423817816136083
-5.2056544987963695
-4.873587478243196
-4.402418072303005
-3.8530627687690564
-3.19055450371727
-2.4477852399817674
-1.8169312671601363
-1.459961742009741
-1.4332347114468806
-1.6671885301455256
-1.9563281758442295
-2.0543856205979374
-1.7997221225711029
-1.2183245848828868
-0.4371258369485758
0.3785964081662421
1.0438040716823769
1.3925248149075347
1.2891382085785905
0.8621244918541177
0.49587844404567843
0.4690203993656051
0.7761123859462954
1.1491915047826426
1.3751244582775421
1.4712762886247515
1.5353353781632644
1.5919091192232833
1.596730207203295
1.5483151208272994
1.4711990730297515
1.455241256657688
1.6071930275872373
1.9853075362953474
2.4550673328610833
2.723124106864802
2.585250456127535
2.1144950841531687
1.6745320215944937
1.5091361938282224
1.5331124549244142
1.4822968129520464
1.1976129559895248
0.7190001642384197
0.13444373261958195
-0.4760170135916508
-0.9684285063018498
-1.1057575261270514
-0.7529013467108688
-0.027265749485815026
0.7730722038560787
1.3691043937285943
1.70863362039029
1.9185315785682653
1.975401592950001
1.6932261640630155
1.038931836354767
0.24264273522084348
-0.3533943165053931
-0.48424115977551563
-0.12479064451224689
0.4830662272889036
1.110881334330329
1.708738480743532
2.2559437329545307
2.620289145639576
2.573531457797796
2.0585553191948023
1.2775884778014694
0.5054957359678787
0.03381764321330723
-0.025756085846149624
0.21148651798444845
0.4857617587115703
0.5144489755517766
0.3660205742034053
0.29340357370633124
0.377204661849913
0.48098160723053507
0.3480155722168204
-0.013953292148636453
-0.25188209042866566
-0.08434462390077088
0.35548249173348384
0.6884954238962608
0.6787144927396997
0.3592984408529211
-0.0685886432126265
-0.4372852448070092
-0.7575211061326532
-0.9829080981309287
-0.9086031560035014
-0.4497898346983891
0.2625233696495906
0.9601864476262494
1.385361787360215
1.349092677896196
0.8307580875364176
0.1531997581631644
-0.21892239898095475
-0.011512559269276721
0.8009418367812551
2.051207326521418
3.5104532418366237
4.873648688699967
5.851814066992376
6.342362377425101
6.39398061691674
6.179140481814116
5.89786099760778
5.577290239058949
5.188641495139254
4.842026821170093
4.6863539114899915
4.724060309064274
4.79853646705474
4.713604338812629
4.327993603769389
3.6569774126287453
2.8057071880336824
1.9843470391708393
1.4836635347264
1.4323884441689736
1.701842323536405
2.1032320792829817
2.5098579374308185
2.900798023195653
3.3136292767166493
3.6788688019872597
3.8367012856545966
3.679424851402873
3.245163286915692
2.681228874529552
2.062361913402603
1.4107468141968933
0.8151299648780553
0.3378517681309643
-0.012488740507306294
-0.28485824946906535
-0.517153533602922
-0.6895037554465782
-0.8668842416604579
-1.200371203470902
-1.7799700349975778
-2.6147515087238538
-3.5503836573120533
-4.256729681086264
-4.558074204464427
-4.617551914633754
-4.7303160688643615
-5.069185936553259
-5.472689803587105
-5.720619066045837
-5.822362183233356
-5.890138106270545
-6.080310721837193
-6.391225172035333
-6.568807174461338
-6.302657122580826
-5.471537289808666
-4.364778393292623
-3.5580455157720348
-3.4106894307431457
-3.8318611326932475
-4.435768186786557
-4.814291548032446
-4.75715397460903
-4.344493762351012
-3.796596476737324
-3.287926517303342
-2.7762831633920566
-2.148630690101919
-1.5434282855409418
-1.2466474417742337
-1.3155088149202017
-1.5727881498563114
-1.9238018445054152
-2.331832306627834
-2.8103147614639523
-3.342277739214404
-3.7353966393385494
-3.827841553466388
-3.582031415648664
-3.018343181471384
-2.305734086950259
-1.6707772785993846
-1.341284933992864
-1.4026707385999884
-1.680474548864371
-1.9449628510389787
-2.0792360413254167
-1.9923137344610464
-1.5308547972512179
-0.6668188077157082
0.35035904499053033
1.258027393206265
1.9898813528214112
2.560808679576772
3.0269285885383126
3.299888440934569
3.2084786722094387
2.782190037707262
2.2357071306427505
1.9269610347056167
2.0764165128922722
2.5771343238105837
3.204147837980258
3.6416127057376784
3.773240079209859
3.7704377038077217
3.7318799448825817
3.663360291262559
3.5708164286040747
3.5078702206829546
3.4954182935611504
3.4234593509910853
3.2267892864885006
3.024434852267548
2.8908473242896724
2.7311865040947527
2.4801111196259207
2.2492175114706914
2.31958979671827
2.929286419681922
3.8938182073875836
4.679791331583155
5.011122860225892
5.0021568652320205
4.93413074279402
4.96888559473838
5.055183107127689
5.071466541693631
