AAD_Filtered_TADAS_FILE
AAD_BASELINE_CORRECTION: BASELINE REMOVED
AAD_FILTER_TYPE: BUTTERWORTH
AAD_FILTER_ORDER: 1
AAD_LOW_CUT_FREQUENCY_HZ: 0.025
AAD_HIGH_CUT_FREQUENCY_HZ: 40.0
EVENT_NAME: 202302060117
EVENT_ID: 13194
EVENT_DATE_YYYYMMDD: 2023/02/06
EVENT_TIME_HHMMSS: 01:17:32.00000
EVENT_LATITUDE_DEGREE: 37.288
EVENT_LONGITUDE_DEGREE: 37.043
EVENT_DEPTH_KM: 8.6
HYPOCENTER_REFERENCE: AFAD
MAGNITUDE_W: 7.7
MAGNITUDE_W_REFERENCE: AFAD
MAGNITUDE_L: 
MAGNITUDE_L_REFERENCE: 
FOCAL_MECHANISM: 
NETWORK: TK
STATION_CODE: 0133
STATION_NAME: 
STATION_LATITUDE_DEGREE: 37.745495
STATION_LONGITUDE_DEGREE: 35.864025
STATION_ELEVATION_M: 546.0
LOCATION: Kahramanmaras_Pazarck_Turkiye
SENSOR_DEPTH_M: 
VS30_M/S: None
SITE_CLASSIFICATION_EC8: unknown
MORPHOLOGIC_CLASSIFICATION: 
EPICENTRAL_DISTANCE_KM: 115.76
EARTHQUAKE_BACKAZIMUTH_DEGREE: 
DATE_TIME_FIRST_SAMPLE_YYYYMMDD_HHMMSS: 2023/02/06 01:17:31.9995260
DATE_TIME_FIRST_SAMPLE_PRECISION: millisecond
SAMPLING_INTERVAL_S: 0.01
NDATA: 12501
DURATION_S: 
STREAM: HNN
UNITS: cm/s^2
INSTRUMENT: sensor = ACEBOX/SARA | digitizer = 
INSTRUMENT_ANALOG/DIGITAL: 
INSTRUMENTAL_FREQUENCY_HZ: 
INSTRUMENTAL_DAMPING: 
FULL_SCALE_G: 
N_BIT_DIGITAL_CONVERTER: 
PGA_CM/S^2: 78.077
TIME_PGA_S: 
BASELINE_CORRECTION: BASELINE REMOVED
FILTER_TYPE: BUTTERWORTH
FILTER_ORDER: 
LOW_CUT_FREQUENCY_HZ: 
HIGH_CUT_FREQUENCY_HZ: 
LATE/NORMAL_TRIGGERED: 
DATABASE_VERSION: 
HEADER_FORMAT: DYNA 1.2
DATA_TYPE: Acceleration
PROCESSING: Automatic Paolucci et al., 2011
DATA_TIMESTAMP_YYYYMMDD_HHMMSS: 
DATA_LICENSE: U (unknown license)
DATA_CITATION: Turkish Accelerometric Archive v 1.0 - Disaster And Emergency Management Presidency, Earthquake Department
DATA_CREATOR: AFAD
ORIGINAL_DATA_MEDIATOR_CITATION: : AFAD - Disaster And Emergency Management Presidency
ORIGINAL_DATA_MEDIATOR: AFAD PROCESS SERVICE
ORIGINAL_DATA_CREATOR_CITATION: AFAD PROCESS SERVICE
ORIGINAL_DATA_CREATOR: network: TK
USER1: GuestUser
USER2: 
USER3: 
USER4: 
[...]
5.610408635070833
0.7064593505039448
-3.833183379008015
-7.192816707066565
-9.366646732033209
-11.98686743901896
-15.279054727474938
-18.02385963183958
-20.47815538729655
-22.046272154839258
-20.124757456193457
-15.110848258813302
-10.184066437498855
-7.7788476506167905
-8.611653292014472
-10.245098736721012
-8.967639101881096
-3.29061164127582
5.050731314068396
11.596993727099024
14.013159500708964
13.565763276889065
10.42500107854011
6.227961246858856
5.420015125536847
7.899081147173113
10.325027466155904
11.444705320328186
10.303963424085863
7.447871599745192
5.907852000218361
6.766397936883017
9.47421356360884
14.382611084936032
19.562247747066223
20.754562783602843
17.957652059350377
14.506762791418744
11.52659129411882
9.587147400439259
8.131751170192047
5.0380471373697295
1.480385172549074
-0.9562897190264877
-2.837985093098939
-3.7242309146577046
-4.069749258917151
-5.510671109489477
-8.64817546904518
-12.71084631118156
-15.168497145223025
-14.389748363042223
-11.06710827951262
-7.078867556247252
-4.7551599487770355
-4.333896591324762
-4.571020795968987
-5.026494522307885
-4.847513161264184
-3.816783798516716
-3.237160785694609
-3.0398403071922666
-3.036004875165454
-5.05064049084474
-8.753287236357925
-11.56564086366392
-13.780108339713518
-15.685862978287046
-15.090791528566008
-13.019307315931707
-11.695960898952283
-10.14801087316143
-8.804181434795694
-7.977121817130105
-6.410976336935305
-6.623875790978543
-9.590208917517629
-12.176151153387147
-14.135923227877786
-15.6896371794681
-15.23496310464115
-12.580513593952434
-8.824480026068423
-6.38190047643464
-7.198043771494715
-10.118470393671004
-12.938826200904234
-14.748309598668557
-15.132879887823512
-13.51573360196822
-11.16378488865317
-9.999806593632309
-9.2930650095466
-8.043873669552312
-6.480447731510918
-4.852336177850488
-3.1860314803536065
-0.20868969880732516
4.26922987543562
9.030101422117044
13.703866225363235
16.176724912191226
15.507561517282058
13.397614501783673
9.119356306133445
2.984944876780282
-2.708050588769091
-6.973599534899691
-8.401401319944762
-7.441682907776652
-5.966135533493765
-4.483242879981071
-4.411842701793669
-5.776704733851415
-6.583051616845762
-7.074758228889758
-8.245172812839726
-9.22725882824211
-8.838942154784426
-7.417610481717605
-5.691386421131819
-3.332686932389059
-0.6032384510103888
0.5641684508243829
-1.0504848247147567
-3.6649391138662035
-5.265701911988427
-5.120060997763027
-1.4203710411551242
5.450775952309298
12.684837979569803
19.42181845344253
24.449286071046885
27.051509194222213
28.412047708526053
27.85842608883205
25.311283214240678
22.667156986352108
19.17167096317945
13.29941092935047
7.636286075990766
3.5135462705479017
-1.635114884726098
-5.383819152394343
-3.888656168439651
0.6694451445253929
6.724018160554728
13.500052777702495
18.308669958843687
20.39836906079643
20.383129353823083
18.250737349581243
13.083254901545578
5.870138787930227
0.7511359534608362
-0.5346513015768318
1.126876330566366
5.072851330640451
9.292903196923142
11.799210840087351
12.747205290386212
13.002519820058344
12.99174332309007
12.849674032484058
12.308978921569786
11.151920133989732
10.127824190001679
9.220351693450889
7.221806555275031
4.216192761176223
0.4883590695801495
-4.163385768377121
-8.920435220877746
-13.39839852347148
-17.573334277617256
-19.810711310631383
-19.127686931571994
-17.348651418470975
-15.330231552840342
-12.258753937163311
-9.154834284583321
-6.1851619778659535
-2.6659575271766403
0.026359379916960548
1.4760283459052692
2.217315270613
3.4976611999521943
7.467507328746155
13.955010051144066
21.138995041617274
26.84695888608034
29.532133902113465
27.947775557379902
21.800563550115516
14.617976984746084
7.830810454702586
1.6044122994487278
-0.6317074467961495
-0.8149660792222361
-2.6714762907395677
-4.4664089557532325
-5.680008149795935
-7.177896535160963
-9.400751326900528
-14.31314502649558
-22.831111943095735
-32.32655645794739
-38.90410787644895
-40.852237908563275
-36.955364023426
-27.609734539933246
-17.679771772397856
-10.561914405316747
-6.405128405696512
-5.226275844798844
-6.752612221152575
-11.276371067927851
-17.142719947814435
-19.68996984194507
-16.10306447243275
-7.043362105960978
4.79203822109331
16.79452953304672
27.52395004554014
35.03946680877404
36.52079288798583
31.803061417811808
23.854305279914062
14.125212762794007
3.415249708517872
-7.4755511337597955
-17.532611615830728
-22.757993454217193
-25.092730680437985
-28.688958173030397
-26.46327749660877
-15.437376889536507
-2.641984467636996
9.237161030947373
18.077612702842725
20.77346838088753
19.210433847883387
15.565383220323126
11.637296390611953
11.452679151213676
15.627555941981889
20.564813693908388
24.860547396074484
28.094724809669472
28.2669717973998
24.74715497762493
18.824851540677262
11.710408211860619
2.8727923478783053
-6.472880917527562
-12.319195872157717
-14.694967220084017
-14.589416749905729
-10.99167587562146
-6.884638275051107
-5.166007592461466
-5.783879450317651
-9.009697898860523
-13.287064321448156
-17.4117357793791
-21.6915733454132
-24.072873355921832
-23.328600581477904
-20.747044005852736
-16.407487693376503
-9.724815635395773
-1.2199202917359644
7.457945262601967
14.207214848702671
18.191358231504122
19.635656975538545
20.396589855335343
23.92252476027245
28.525411606744033
28.515175772297713
23.84080497789085
17.178487279876055
9.523744740922776
3.009040775505052
-1.241562277970947
-2.8714831549391158
-1.4311293174761097
0.7925091097773683
3.0634648642755002
6.331131723710152
8.267002434735577
8.373204136655142
9.548039280005549
12.328246913289878
15.40668049970233
16.72952367566994
14.420153146779947
10.148302663489504
6.773825444458027
5.739204051309026
7.259014631517638
9.85316726600053
13.721419371439435
18.94186145464584
21.04635410476704
16.49560939395275
6.268675047835054
-5.031121507321416
-13.793524334936814
-21.649936908709474
-27.757360013783906
-29.59290205213592
-28.724594093504248
-24.023565481210507
-14.87240826397333
-5.5722458241907775
1.4827346230276544
4.368143122724372
0.4237122826969007
-8.201020313952007
-15.978637359089602
-19.986214104110488
-20.14662376432826
-16.643993864154627
-10.633435556606718
-3.857891125526316
2.4194597975023733
7.314486641362572
10.707484046781401
11.673586158380648
8.969148439087359
3.4881900379198516
-3.0329539066112168
-9.237508573744188
-13.297797761674207
-14.361078897588543
-13.660428139552511
-11.59858968335532
-8.250314165121258
-5.965714263371184
-6.16218367820113
-7.499362035730817
-8.447611516157467
-7.198913346376482
-2.6934996423483883
1.1908075294051836
2.290068333955445
4.029744925536818
4.073647968073378
1.6325889299340812
3.5763360752740936
8.05632616148077
12.038122249507213
19.662015735059164
29.36637630930909
37.26213859079047
42.10771890471084
42.56930936567581
38.14419861800901
28.829806957057613
17.43411625183935
8.109802404599844
2.3875298960576936
-0.9024854092392162
-3.7912774407468826
-4.734128028795677
-3.019256896060323
-2.982005922863579
-6.516758904462731
-12.510433481515033
-19.7966415079707
-25.464299643322764
-27.30036876066513
-24.464974447943842
-16.93973654187594
-7.9708359615493904
-0.5219844728303815
4.903707365866786
6.8905403292933025
5.615871799384277
2.8213618961193365
-1.4660218798087015
-5.531969250937611
-7.672911018409675
-8.538952158964547
-7.408201981629712
-5.844069977027323
-6.669563386222207
-7.6847759379303024
-7.920760672116843
-8.631806956140403
-8.474435916271936
-7.208097956326915
-5.049802228683547
-3.275445379375347
-4.88246084559703
-7.075894342322125
-6.144733380798749
-2.712819671094775
3.745424741830402
11.737001413887864
17.886971493131714
21.859081838978728
24.223448025952326
24.895342750995184
21.76092205961745
14.590574934620383
7.878543199586187
3.4093751040555142
0.7740668725496467
1.0655769503087007
3.5476349131921148
6.659010745658355
9.735362363517249
11.539846167739848
11.31608587192988
9.925082734698428
7.650539499020005
3.546138899170506
-1.8357100505038422
-7.351903532786662
-13.905618126890907
-22.225430536986135
-30.177420960288615
-34.74283480421626
-35.325064594016844
-32.724192493630866
-27.645874754447025
-22.118682228391684
-16.636233871334756
-9.482671708447649
-1.170732178654911
8.129240666598614
17.74712409943769
24.88399044795262
29.11497571186634
28.989328393276143
25.903558844606312
22.43277527447554
15.123106788643582
10.539324046900026
10.755649383055077
2.4330973523015893
-6.264752669214513
-4.421851874907025
-3.4655492066256364
-4.709713494850234
-4.5111380472441756
-6.22717765839231
-6.806434310430226
-6.5320728872615375
-7.073364735293197
-4.264365134202025
-1.1252712707740737
-2.3211289274672047
-5.796437969484537
-11.016324469468683
-16.152258202198293
-16.90406931294994
-15.837857483435332
-15.75971968547709
-13.361346636914993
-11.268264086848063
-13.337604852435899
-12.658210662525255
-7.328714394357267
-2.8358637544443535
2.398572143620481
9.128615538396051
15.620872363862881
22.671167978479453
28.255852350478225
29.97739642698546
28.771277520420924
27.434988450677196
25.349641893925018
22.523839488500787
20.534139561932978
12.872211955471645
4.957094174442236
4.615769830267781
-2.607329340654997
-11.358047747419459
-8.191156929941195
-9.082674438720138
-15.788244799421264
-17.36719898976906
-19.15558727267958
-22.318945711834353
-23.238024483139192
-22.98573945492321
-21.698534276313556
-17.539316321801948
-13.520126553458638
-12.986449873332173
-10.104700679095552
-6.49322839940884
-4.141725494035597
2.8266578970535043
6.740454989238793
11.958689909417906
26.170422138125286
28.900103749447606
25.01075308232494
32.431675766133196
36.9076772601315
38.5919901868106
42.8712111189396
35.85731890547911
23.301711482431628
12.58568237070338
-1.1768705004870306
-8.240682712352877
-6.474949438950199
-4.99840496106447
-3.0317772404238985
-4.215869003581274
-10.339093434049122
-14.957999981017233
-19.93929501727906
-24.628386694336733
-24.97771513689072
-23.308602612519746
-18.305160953354626
-11.50415599898391
-7.078905104804137
-2.4302961792552797
-0.8071797766074131
-5.188298908411109
-9.914955538052531
-15.081952880861055
-21.713630117415477
-25.273380282264913
-23.83915811278715
-18.59773803391615
-13.646308648986448
-11.156013052212463
-7.052891358354579
-2.2893775979392323
-2.2703477566204078
-3.8707672852069384
-2.2284351742870396
0.7646449518248101
2.891965656827112
3.8947351987030845
5.56240619363725
9.202890088821412
11.60947894983955
12.361042631405764
14.002018894314082
15.950032102975097
17.83833415012914
19.158593118407673
18.623225831630197
15.496165144057779
9.01056479864525
2.3134097553037924
-0.9742597787337653
-2.407458259468039
-2.5216885817824797
-0.06480233116358396
2.4630691913685605
2.4041801755143473
0.9335283203825443
-1.2143044720551948
-5.905453177699177
-13.00154859177925
-19.04950896765809
-21.14225465000677
-18.789269261739012
-13.276339714443589
-6.21995578713132
-0.03997054051549607
2.4563701105324283
2.3283565271773736
1.7088117815574113
-0.471433237958692
-3.5707981401536695
-5.20928504127593
-5.438553198222136
-4.893088588824376
-3.5331651131924273
-1.4696165772092529
1.0284826654328374
4.583297259846676
10.111231219718343
16.093031590248874
20.84389686779132
24.246923830067743
25.57225833654275
25.7886811839932
25.812519124771672
22.2001135203989
13.829464436902038
4.377298457525139
-4.8504034294146505
-13.484396812903595
-17.9649258516557
-16.317314777415383
-10.575154332938572
-2.840252948073659
5.117811140037742
11.095068456775923
13.701616510591075
11.596244661426132
5.825748827187309
0.9815705302602854
-0.6501428894804967
0.48359956804580545
3.5275011070016027
6.274555179875838
7.8141884585923895
8.49593447679444
7.636023550867287
5.510180003141933
2.9272829980289417
0.240119187412417
-1.6217808257440696
-2.958315445670095
-5.343942659561403
-7.924364822296733
-8.361051902594983
-6.167384652871436
-1.1362696946225566
5.6149047362362525
9.978012112107722
8.844760775527433
0.7621294898695755
-12.514790957297357
-25.144616960457075
-32.484649287712244
-31.92416939551687
-25.99388740115136
-21.105782449729823
-18.152602152438337
-17.541799784331303
-21.233728036523168
-26.873467281126274
-32.82237703670179
-37.83920564595867
-40.05591906097931
-41.34682084196501
-42.89526796231005
-43.92375804283535
-44.683426336692385
-44.67528546257071
-43.18606458839872
-39.90430049332113
-34.33098290116616
-27.78267921199477
-22.65177719907499
-19.202956369182846
-15.097011467019891
-7.5301317063472615
3.05082357647703
13.307470856979771
21.474131889785216
27.54795977431102
32.387465616995165
38.20135693601433
46.6680152720199
56.932572103315394
66.58139136680246
74.31402685908162
78.15080460557441
75.3428865217749
66.67488075017864
53.20488965920596
36.28059127446314
20.950074913279614
8.963603875878393
-1.4347443649950828
-9.8724758406609
-17.18891377180328
-25.114836044912522
-32.37132720736579
-38.137861394920655
-43.431991179739995
-47.43811463565373
-49.41880693498166
-48.859449844035304
-43.432659987660465
-35.18069991448373
-28.737162838793374
-24.76309863981455
-23.917072019945646
-26.36922508208205
-29.955447510056374
-32.189348964991304
-29.968528364345378
-24.55887023755312
-20.413348442512472
-17.262816836087087
-14.388098605594742
-14.160201938521496
-16.86163954045767
-19.97435804995548
-21.06705801760682
-19.218579053706907
-15.382763174137281
-10.711513412162953
-5.016392949638253
1.2528863275301696
6.094647135776974
8.233647507846317
8.211057793464756
8.220171069439905
10.78055968729491
17.056090182306704
25.530852315141537
32.063705594824356
33.87087278219025
30.32900873468107
21.894754554687758
12.097305857782262
3.6689696547072614
-4.202093987777587
-11.886802628324677
-19.84557189233324
-28.93731207373017
-36.54362109044785
-38.788552116317035
-36.645940561326256
-32.92862335343056
-26.83275536730682
-18.082365069998527
-8.626693485792746
0.7418733835415406
9.440549918920402
16.04756681288127
20.057363248892585
22.98983244564496
24.721796733618827
24.248674331326797
23.920378320368453
22.91734255432193
19.80437435763987
19.455865334545006
22.52276846404847
26.28634357060916
32.162962705750736
38.23418545793359
41.00495710685328
41.55596105672101
39.8184962299661
34.71753599987179
29.024587114132974
23.770503344508334
16.645926563724387
9.736277492444678
6.093272326785496
4.496195710219977
4.0334688336760935
2.764849393267226
-2.174578953222689
-8.908843572872042
-14.653390968057277
-18.384929372066505
-18.349517301500974
-15.000285368867504
-10.99279443471362
-8.474388289593263
-8.88239018635057
-10.979696687128964
-13.232943927831618
-16.356461625275774
-20.15721424933282
-24.27255842908035
-27.727748642581
-28.065545073049634
-25.849894558888813
-22.34079496666784
-17.492726311773733
-13.774576609643972
-13.047001985610244
-14.610287507838473
-16.775923132464815
-15.94647801550765
-11.142231539400251
-6.33108780451695
-3.594926835312538
-1.0129015742732836
2.986728935888498
7.748566719385672
10.594581423441632
9.185633905559277
4.803170829299773
0.16972619518107895
-3.03954089622367
-3.738671422036737
-3.194069888840007
-3.4615272666986363
-3.911614773534658
-3.3511157512476517
-1.8222679965395598
0.7500146036365399
4.229319746671154
7.790734059105545
11.996930572152342
17.45748858420269
23.317707316208732
29.91517796074131
36.21661280459411
39.11369039703082
37.974451390934604
33.99340263950646
28.08322950455733
20.211303744045242
12.341141764410958
7.36211571146118
3.2730403837835067
-1.023493239053703
-4.060034366230436
-6.421291751333779
-6.803880381055988
-4.69202729046862
-2.9105966855279566
-2.716647538778457
-4.5666732325166945
-8.345716352796382
-11.809173259261089
-13.622124035835515
-15.487849947242577
-18.56678887499147
-21.01353126668401
-21.696851549430672
-21.445728993365613
-20.71566380215108
-20.25346033356127
-21.283101382585265
-23.65562758809256
-26.522023478491693
-27.90504665015019
-26.360037606016874
-24.860078599296823
-21.872862618780413
-13.635481751105946
-7.370855651901759
-5.507695272399663
-1.8740815655900633
2.575771303935256
8.031917423097983
14.89667453306121
19.090789527338018
22.092643801753862
24.744421947593636
23.83293608294891
19.307734910458883
13.4253504355881
8.064567907428357
3.4777472349450114
1.1200686934766242
2.2408845162487854
3.8676092758946887
3.9121985749074546
2.804169574301482
1.0564899119099274
-0.7417876523861696
-2.4319502176634025
-3.349904429720243
-2.4492947485959666
0.5714542402457135
4.820179686512982
8.39838978507808
10.597487613959913
11.382723354040259
9.513541908536826
5.12169514210985
0.1600323029803461
-4.611548745991996
-7.476128552315356
-5.752860309399012
-0.41738496985471596
6.220159017691845
12.506589769281394
16.089819744281698
15.955182086924868
13.187734205004425
10.724933047731502
10.628618938663084
12.454817922558817
16.608680049505676
21.449547094660062
22.96978372975776
20.906393677025097
16.125690521099514
8.624551635782497
0.5855337248621114
-5.779228766930436
-10.74108554410262
-14.75101535694308
-16.241178185587792
-14.15069743521349
-9.692378621051418
-3.9402401255906314
2.3923659201503438
7.906897417505704
11.071090995645534
11.301462584280163
9.990447271042196
8.803154513860676
8.853135321981048
11.4462602415499
15.219203058376646
16.874055577479
15.15361127825851
10.836230475581187
6.503848830472556
2.9213756315100157
-1.16939560588804
-3.4939244869533046
-3.4885984745921323
-2.836397153376396
0.5507187525803696
6.508018687502297
12.634817401754498
17.97932157235882
21.03134849178839
21.636734641679944
19.919178638679135
16.898931308527427
14.810887625657696
12.7617851422228
8.968136679420338
2.8823126184014263
-3.563989963509284
-9.231342590109985
-16.616324106246726
-22.39100989021176
-23.872215866182803
-25.868244694683128
-26.82957363947312
-23.620655862297955
-18.38588747965758
-11.257587457611384
-4.489433379551494
-0.7490325189247086
1.5943564125723935
1.6687261264728155
-1.6395229954388204
-4.884097360980023
-6.052024498526225
-6.556684257886799
-6.053511748123983
-3.7951852898674874
-0.5752045018989581
4.556639594059368
10.352371745710764
14.031533877617813
16.924405296900257
