AAD_Filtered_TADAS_FILE
AAD_BASELINE_CORRECTION: BASELINE REMOVED
AAD_FILTER_TYPE: BUTTERWORTH
AAD_FILTER_ORDER: 1
AAD_LOW_CUT_FREQUENCY_HZ: 0.025
AAD_HIGH_CUT_FREQUENCY_HZ: 40.0
EVENT_NAME: 202302060117
EVENT_ID: 13194
EVENT_DATE_YYYYMMDD: 2023/02/06
EVENT_TIME_HHMMSS: 01:17:32.00000
EVENT_LATITUDE_DEGREE: 37.288
EVENT_LONGITUDE_DEGREE: 37.043
EVENT_DEPTH_KM: 8.6
HYPOCENTER_REFERENCE: AFAD
MAGNITUDE_W: 7.7
MAGNITUDE_W_REFERENCE: AFAD
MAGNITUDE_L: 
MAGNITUDE_L_REFERENCE: 
FOCAL_MECHANISM: 
NETWORK: TK
STATION_CODE: 3120
STATION_NAME: 
STATION_LATITUDE_DEGREE: 36.58924
STATION_LONGITUDE_DEGREE: 36.20568
STATION_ELEVATION_M: 102.0
LOCATION: Kahramanmaras_Pazarck_Turkiye
SENSOR_DEPTH_M: 
VS30_M/S: 455
SITE_CLASSIFICATION_EC8: B
MORPHOLOGIC_CLASSIFICATION: 
EPICENTRAL_DISTANCE_KM: 107.59
EARTHQUAKE_BACKAZIMUTH_DEGREE: 
DATE_TIME_FIRST_SAMPLE_YYYYMMDD_HHMMSS: 2023/02/06 01:17:30.5958360
DATE_TIME_FIRST_SAMPLE_PRECISION: millisecond
SAMPLING_INTERVAL_S: 0.01
NDATA: 12501
DURATION_S: 
STREAM: HNZ
UNITS: cm/s^2
INSTRUMENT: sensor = CMG-5T/GURALP | digitizer = 
INSTRUMENT_ANALOG/DIGITAL: 
INSTRUMENTAL_FREQUENCY_HZ: 
INSTRUMENTAL_DAMPING: 
FULL_SCALE_G: 
N_BIT_DIGITAL_CONVERTER: 
PGA_CM/S^2: 0.020
TIME_PGA_S: 
BASELINE_CORRECTION: BASELINE REMOVED
FILTER_TYPE: BUTTERWORTH
FILTER_ORDER: 
LOW_CUT_FREQUENCY_HZ: 
HIGH_CUT_FREQUENCY_HZ: 
LATE/NORMAL_TRIGGERED: 
DATABASE_VERSION: 
HEADER_FORMAT: DYNA 1.2
DATA_TYPE: Acceleration
PROCESSING: Automatic Paolucci et al., 2011
DATA_TIMESTAMP_YYYYMMDD_HHMMSS: 
DATA_LICENSE: U (unknown license)
DATA_CITATION: Turkish Accelerometric Archive v 1.0 - Disaster And Emergency Management Presidency, Earthquake Department
DATA_CREATOR: AFAD
ORIGINAL_DATA_MEDIATOR_CITATION: : AFAD - Disaster And Emergency Management Presidency
ORIGINAL_DATA_MEDIATOR: AFAD PROCESS SERVICE
ORIGINAL_DATA_CREATOR_CITATION: AFAD PROCESS SERVICE
ORIGINAL_DATA_CREATOR: network: TK
USER1: GuestUser
USER2: 
USER3: 
USER4: 
[...]
-0.0023161593280292426
-0.005568267319935303
-0.004353743306910612
0.00047729164958705534
-0.0017542456796903992
-0.005146841935341577
-0.00023685998134310033
0.004290613670904356
-0.003913459895345356
-0.003357054883137709
-0.0022720331433992522
-0.004404575909621622
0.004167472612327449
-0.002014040303842931
-0.003624348438791805
-0.0007579988025789503
0.0005053629108991523
0.0009946819742491545
-0.0006156321295709948
-0.004099806841478186
-0.004130694341575439
0.0017857105057355956
-0.0034929803434858007
-0.0023864485760631757
-0.0009046452318100207
-0.0018822609857781709
-0.0038726769674892396
-0.004437453105318027
0.00039198940988781095
-0.0022918506908264306
-0.0018281464429657011
-0.00319246306195785
0.0015873089624832322
0.0011924711967504996
-0.0011015962997004056
-0.0015185224380670722
-0.003115335817932644
-0.0009358962631396962
0.001129767353488814
0.003022113674824147
-0.002932263679155971
-0.0017097297963348367
-0.0005140476131171345
1.210566071757383e-05
-0.0025212410574186055
-0.002813119927738326
0.0014203794454374407
-0.0030016260962377164
-0.0009727228389491688
-0.0026817123228196267
0.0004596215371504594
-5.96782177935194e-06
-0.0020349341824991993
-0.000998989489703944
-0.0024292413880212726
0.005554704918984519
-0.0019172499423159223
-0.003324110772199256
0.0005709785874232016
-0.002090693439278778
0.00017452222878546223
0.0012880578627056047
0.0009450841796081605
-0.0011484907221777803
-0.0014402282369263642
-0.0006087872731234366
-0.003975507599530188
-0.0049730491579010345
0.0023435624923139153
0.0033759943762805946
-0.0003294166197041154
-0.004335815872751322
-0.0034209770449162764
0.0026931601666528187
0.0018434090793316307
0.0031771180968712637
-0.0020402232693860134
-0.005952537041020963
0.0008091231664486991
0.000993740052754348
0.0031633948355611467
-0.0011190771873619849
-0.0012043803705520549
-0.00025219700315283684
-0.0009620269934610352
-0.0005986995078213533
-0.0005556924789183945
-0.0005761731906243039
-0.002830141394335747
0.0005886865887404364
-1.8323863892673862e-05
-0.0012957467104180254
-0.003135088772116068
0.0016598357050390724
-0.0007824198225732834
-0.002483933765706776
0.0006531305813309606
-0.0038890739307325573
-0.004968638829844202
-0.0014623732615521123
0.00559435456948491
-0.0002732580138152779
-0.00023405940583620457
0.002238736933457051
-0.00582146917748826
-0.0028415994987913344
-0.0018573071265032145
-0.000993434671269918
0.00015515438614055907
0.0031957736773278716
0.0007361300537246699
-0.006398414636342399
-0.0029820338125632986
0.0004989925318675086
-0.00036571550551550746
-0.002644176823949777
-0.0028391010587854072
-0.0031857332817319963
0.001983125136402183
-0.001330405249216675
-0.005986277620375808
-0.0004318818343489514
-0.0018962065257026469
-0.0018265717228678024
-0.002537176411636799
0.0021348882388618406
0.0006606165033949818
-0.00538862034686546
-0.0029791123135499108
-0.0019314785920947642
0.001391706802514832
-0.00030147941259545645
-0.0026113422036449507
-0.002110025171455739
-0.0028132035393355946
-0.0022218352983785954
-0.000704721056245515
-0.0001152935779984696
-0.0004146919529095379
-0.0011680107077663285
-0.003501215478203889
-4.050125941237693e-05
0.0006926255682191669
0.0023577773863157226
0.0008251223064593502
-0.0038356226335363695
-0.0012292636121768504
-0.004137931053994284
0.002788634327013732
0.0033387698432741017
0.0014656943276790103
-0.0025701373272422018
-0.0007386384025545983
0.001956815552358966
-0.0005513962317181352
0.0018584130742803247
-0.0025430918359242907
0.0015138426999321104
0.0014860163829397087
0.00036380812358455993
-0.0008788027509596875
0.0015685283557705645
0.001453238467378911
-0.000757324550364016
-0.0023504403273792063
-0.0060662812135302635
-8.385913972080514e-05
0.005030790774552242
0.002417954675967386
-0.008267684564409504
-0.003946886951723106
0.004061457390479919
-0.0009265066727577761
-0.0011068113554431355
-0.002825682954667773
0.0014539308154515613
0.0024466715194828115
0.0021623824392393034
0.0004893963758013372
-0.004551749725788898
-0.0003910533866317284
0.00021321903562967036
-0.0010011368304767767
0.0007517659536837105
0.004616567865960692
-0.0014387755565750814
-0.002660536312151153
-0.002938721813928672
0.0028743404820683605
0.0026305849116365467
-0.007447815286698531
-0.0034377637921657184
-0.0011641895090232256
0.005612071384670064
0.0037390942801382777
-0.0012080512362804634
-0.003447233037936323
-0.002526562222626418
-0.0007228717310046364
-0.0009587302963989365
0.0025622925431490443
0.0009920059985363335
-0.001610455054743555
-0.0018693425960991732
-0.0001477111922058862
-0.00011616810258541824
0.003947224267220771
-0.0008475770748979958
-0.005431661792687855
0.0007645101307719231
-0.0030678023947076864
0.00047464120140756823
-0.0006482749759316806
-0.0037013869481993624
0.0008054979009444094
-0.005792860787010551
-0.00015772686900298997
0.0035474815922650026
0.0009753189427251817
-0.0033834335224637076
-0.0036508562493197502
-0.0005599615547203848
-0.003490337613049124
0.0025398576504698104
0.005358927825058229
0.0007402488608188039
-0.005070074614642227
-0.002782815955699479
0.00013978353136601552
0.0018249771040698122
5.711401359637765e-05
-0.001989340489213006
-0.0023030443575749147
-0.0039504869160828255
0.0021079763447688768
0.0010608927263019614
-0.0009019225883594127
-0.0028469635327171144
-0.003210207045055816
-0.0007519780593907758
-0.0013206236239656905
-0.0014815559810757678
0.0015492888932283398
0.0015906232582974455
-0.007270343972246392
-2.777321271262389e-05
0.0005938654989752613
-0.00130981848504191
0.00011476996505464305
-0.0024223881928217474
0.0027257149199529777
0.0030467492949819226
-0.0014290172752707598
-0.008212751008323204
-0.0004380693496815088
0.005805533653375685
0.00261674897387301
0.0001539076913990138
-0.000633477730573163
0.00022182923995364432
-0.0015727667993545523
0.0022890722987271186
9.280171513261734e-05
-0.0017358759178956401
0.0005582096656062645
0.0007495277758450984
-0.00025609534428460996
-0.0006506465513618168
0.002724067846686467
-0.0005839500847897978
-0.00026018748181917553
-0.0013307701381520167
-0.0010093897692494
-3.744376100510759e-05
-0.0014381792604367752
0.002676363849143905
0.0001243858555106156
-0.004242613284799231
-0.0038242090561582307
-0.0006291095152280246
1.3455005254231833e-05
0.003085464816888718
-0.00029650786646174523
-0.004920022371633377
0.0010679549819413833
0.0009658124777304137
0.0005629820337762474
-0.0021788394337033143
0.0008061897329151817
0.0029113723495225543
-0.0011114315345676542
-0.002234675914304038
-0.0002989004111120199
0.004834587778567252
0.00017385195650141652
-0.0010813422680543217
-0.0013470209049223686
0.0017367734197186798
0.0012974224604387285
-0.0046000198998382745
0.0011291619509873135
0.0018388316213339678
0.00011446561323787684
-0.0037675042784244034
-0.0017843741170847146
0.0006101707493410948
0.0023365054181047184
0.003265646691323124
-0.003558669398810095
-0.0014389349849753073
-0.0016075336840233076
6.8318245811031e-05
0.001935138470053011
0.0052858915106210975
0.00039700713321929275
-0.005953933262471523
-0.0015771479114605662
-0.0013069855959175916
0.0010516585544344075
0.0012097319623581041
-0.0011392662217548672
-0.001981478764066537
3.70626849508392e-05
0.0015026523004703365
-0.0003790489215520574
-0.0012336660964120277
-0.0007960607454713685
-0.00146995020229982
-0.0020295676161445854
0.0012053236876612982
0.0027291817706763003
0.004666989968689149
-0.001993995434173235
-0.008344720652637113
-0.0019228363204286576
-0.0013319161933210307
0.0051682793414307045
0.005475533220895059
0.00032142368498744826
-0.0013628166527903257
-0.005034655013382682
-0.002249504124484812
0.0031370198661356077
0.003789150563244588
-0.0058409532783214495
-0.0029685588149439873
-0.0010234298219145724
2.869151058229548e-05
0.0028923918393753503
0.0023359481229181726
0.001027234908029094
-0.0055603745587631944
-0.0003845707744052458
0.000383065938789693
0.00021814490853659104
-0.0021905283669881844
0.0010791812297885187
0.000999406244007595
0.0014909989996652565
0.0021441804508798437
-0.0024983537751828455
0.002587681167224723
-0.0011377198555948252
0.002798344404968811
0.001923068110609271
-0.0019409110516135045
-0.0006508538101797437
0.000507232251963339
0.001956720344072587
-0.0003711833019661637
0.003985296693779395
0.00040130806629958655
-0.0014019891531705422
0.002917187333721461
0.000713892028413804
-0.0006601223596033164
-0.001092653985090406
0.0002628830974795651
-0.00042700193548194585
-0.0025671822549844197
0.00033984730316451915
0.005884535434091067
-0.0008010584829122482
0.0005612459065504453
0.0003205276109878944
-0.004768979221672942
0.0071201708649928815
0.004229757985354616
-0.0031465612735614968
-0.003239945021278513
0.0006665955936339369
-0.0026807160312736136
-0.0014246143916488896
0.0029242718746503743
-0.0006540940569625482
0.0011672646426190835
-0.004746609959192385
8.540133168966468e-05
0.004199208344006033
0.0005110865486524319
-0.0014665495804379613
-0.0013639251470306
-0.0009594867601100399
-0.005920729877316747
0.0004684036690499076
0.0010703123213914232
0.003027583517588052
0.0008922313700105875
-0.003688454774385568
-0.00021727634430797666
-0.0037944103077135025
0.0021120939411160477
0.003861417663736332
-0.00043598373484395915
-0.007539053882424491
-0.002776024171262636
0.005457219284651099
0.0014837387557907825
0.0010088586094861066
0.000115129323542879
0.0012490251340971288
-0.0031825318482226143
-0.0027338075537393534
0.0008966065364141355
0.0013141840927041245
0.002911301479579126
0.00027978095586657565
-0.0017813115603508792
-0.001182184722334115
0.0019147513866513773
0.0014682979417435906
0.00033274341187065405
-0.001583351726615953
0.0007540761906233142
0.002282837710791517
0.0015000750585622816
0.0023479774834335126
9.879554649584019e-05
0.002828658075017609
-0.0024182500355767536
-0.0004245443939833411
0.008758867555240996
0.0027088945803156327
-0.005096608533695537
0.001377036867449603
0.007371335216758128
-0.0047569099976071255
-0.0012970368598479054
0.005556617278670022
0.006137275666673383
0.001975474491616719
-0.0038430768751720333
0.0009375642520043304
-0.0021760590897795334
0.002357987087137421
0.0005000648406601002
-0.002634547967407158
0.0012316631765938602
0.0037943576775623677
-0.004768560757981927
-0.0028947239766542207
0.006355500879730832
0.0011831241455775676
-4.055154354295869e-05
-0.0021372289560587783
0.00187957121929272
-0.004245822164622411
0.00046477945918910017
0.0032794841158400733
0.0004812193247368416
0.0003169523635128939
-0.0023193203327603875
0.00287894595105529
-0.0006771823695062282
0.0029454305333642236
0.0024554896155177123
-0.0011531456052144248
0.0006847905044104494
0.0017881311830221435
-0.0017225336578822817
-0.005824658918323839
0.0005799164783357962
0.0018533052118061622
0.005280510739245618
-0.0016860237699038007
-0.009468319429464076
0.006747524319744544
0.003696501831240113
0.0002544180014550111
-0.005472740740472617
-0.006172232733152431
0.0032614818360757183
0.0016281412201484468
-0.0016241069163252077
-0.0010992010176865982
0.004754420803106459
-0.005257294558020301
-0.0017396563145586157
0.0046323569486927665
0.0027410018144930826
7.139540665903186e-05
-0.005142286115865997
-0.0017990740339478058
0.001716364627828791
0.005135887473842653
0.0045177535031554646
-0.003562222088568771
-0.0046559749214382115
-0.0029557344568476355
3.876552526375328e-05
0.003047585385329074
0.0010570325383931767
0.0007076852636142296
0.0013370596809631128
-0.0035177323920410576
-0.003759611838032566
0.0045290416101942425
0.0016624958416993204
-0.0011882295870008965
0.0007176808591936668
-2.6884004911177634e-05
0.0014848099435762706
0.0029784417643356257
0.0019856162639879022
0.0011266874557591855
-0.009995249628914744
0.0015752687972449002
0.006564133057042492
-0.003692460269141474
0.005836834182437736
-0.002194611889252418
-0.008301243847762945
0.0004885131197398193
0.007346633115924066
-0.002729488696555387
-0.004396327639525872
-0.004217773504601536
6.866630818135437e-06
0.008054746117386257
-0.00579978824440402
-0.007803710871069007
-0.0008752301407451268
0.0012680946390156757
-0.002770206346472855
0.0065408454180044704
-0.0009287236850672904
-0.00823072122191697
0.003205543090413093
-0.0003519098274195876
0.00236473090714618
-0.0015144060892918032
-0.004523011324535389
-0.0018493127746473906
-0.0032045215091854808
0.00021071134612456828
0.001872255502678673
0.001022943426856973
-0.003079137211044951
0.0033196637229713113
-0.004246756181449186
-0.008772499735453883
0.005331550904598043
0.009475679882133293
0.0012287454344317448
-0.00545601198645417
-0.006122637821629843
-0.0005578011273833996
0.012701467823505801
-0.002001755037728161
-0.0024501791992649303
0.0009562024088522698
-0.005309895542154887
0.004006427291395188
0.007415979494365217
-0.002265774621863874
-0.00413426231126932
0.0020378066449921253
0.000706842527778091
0.004100475801974915
0.0007788260109376379
-0.004331223404066036
0.004169360796562786
0.0016499637142090217
-0.002510933817506549
-0.0012955623865934037
0.0021678581486016466
0.0040265393159794795
0.0012593636766685705
-0.0023205340077986883
-0.007971504347616764
0.004890360584540838
0.004455993144632497
-0.0019040255441888263
-0.00047763516690653234
-0.005053840585874151
0.0006833665372251337
0.005014276186737954
0.0021204520041106494
-0.007741231481558927
0.0006909584153931266
0.004557983379741664
-0.0014975897401620013
0.0022651181397772132
-0.004411567037119248
-0.0012319704007752116
0.0023653304233310158
0.0005304475727011396
-0.0005771636955311041
-0.0020519938527361497
-0.005149090769344933
0.0009698268797715907
0.005333733101578531
0.001969056821645789
-0.00017651493419966387
-0.008374480396213706
-0.005545529217405895
5.281853373501421e-05
0.003550716239854405
0.0047089917204994084
-0.0013293865803981535
-0.0005212388423473524
0.0008816132882783921
-0.0016463018495044292
-0.00488842359852076
-0.001641790703144077
0.0026019871758553295
-1.5528671000043575e-05
-0.003895546097873074
0.0014856334666817192
0.0003318947521750869
-0.0022545431103836496
0.005410332111151951
-0.0012194149016529088
-0.004189123526860574
-0.00425437804836264
0.0016798081770397425
0.00522859000456215
-0.008370075529364918
-0.0005281048537982978
0.004095273540526242
-7.801360998150171e-05
0.0031774343263562856
0.002194067684167987
0.0013290825561393293
-0.0016328408243531224
0.0003306739917784538
0.0027301871674706535
0.0026364700242943366
-0.0029865919103121545
-0.00011989737349869017
0.0011417882164357924
0.0016304628936405477
-0.002020560153728295
-0.0026511114541539252
0.00832467337811678
0.00408262920729298
0.0014723460775958334
-0.004001101647398989
0.0006044200210496861
0.002339323278870841
0.0019049155226474844
0.005293848471719908
-0.0023336013413846083
-0.002074917369488531
0.0030105276066570985
0.0008706561395739067
-0.0014418539744694954
-0.0034340551267341844
0.000532692549029305
0.004178832096563981
0.003901041950673693
-0.0004984980651519793
-0.003924460740919273
0.000545534772186425
-0.002861741613942181
0.0020503019084549675
0.0047588118184825915
-0.0047864172097344705
0.0014383005533566335
0.005293224925661486
-0.0009842163003473605
-0.003454046163331243
0.000981921289794933
0.005974607102308678
-0.0022429880347613236
0.0021676401019258967
-0.0005336945974179687
0.000841381688586474
0.0044455581160461975
-0.00034316787595382447
-0.002664952629395335
-0.0035173811691865055
0.0023620507955977965
0.0050311849652006834
0.0029823960568043195
-0.0014202247367955606
-0.0021232984745445166
5.186362306948463e-05
0.0014377777569603923
-0.000856560113244032
0.002578130800565425
0.00037212317265507126
-0.004850989598432798
-0.0003707571596279223
0.00618809671693459
0.000572275092117313
-0.0022377012651985553
-0.0010296179863588664
0.0083284702431893
0.004229480197381941
-0.0016263506070746856
-0.0013636446270020965
-0.0012676432484375342
0.007976947816703965
0.000538529933509775
0.002733819078069241
-0.006999687559299968
-0.0031660794900601
0.005088177960944073
-0.0018405262755539136
0.005539468049028023
-0.002078621997966911
-0.0015982663242880253
0.0022396566037860693
-0.002436428450478418
0.012636446282848874
0.0024493698789811503
-0.010729460233432745
0.002115842177924945
-0.0010226610006288915
-0.003276156887415809
0.0067146850967710415
0.0038839682524365376
-0.0012568150367473958
-0.003624434191652238
-0.00784925784627926
0.007685805159304663
0.002939223843112347
0.005119871694162319
-0.0032511443657721167
-0.005783851679018614
0.001862066824375887
0.0009149268823570133
0.00864452516003586
-0.007315367580727318
-0.0009942616047831244
-0.002393826737514419
-0.0028092487845128387
-9.839131496076092e-05
0.0026016853994320823
-0.0005899904133047296
-0.0016838059910398047
-0.0029367456472703763
-0.00138665802511709
0.005532533715855096
-0.005476217631059311
0.006705630620393471
-0.0031301062655934068
0.0011996338932579113
-0.0025911815337168785
-0.0020163778879431727
0.010384478837493325
-0.003197118993419067
0.0005455849021239611
0.0018135277238327877
0.004336217451912451
-0.0010359376623724464
0.0023781360206205694
-0.0011761031524582157
0.0022204565609197304
0.0020742304870549283
-0.001708287182783333
0.004524759053346485
-1.4803303002258924e-05
0.007278055393595221
0.0015126638379058784
-0.0005438826556804773
0.0016362320185724425
0.002337032333794657
-0.0021031324386285
-0.0025592130246136708
0.008101351117809708
0.0022076331939579223
0.00202795918169015
0.0021146089906774485
-0.0029193409681606618
-0.00035238826952570793
0.005820204842687154
0.0026675063356046825
-0.003665844635325293
-0.0024758710006975897
0.002589492800153149
-0.000898357797152203
-0.00048163457588244415
0.0051985090984051205
-0.001101020030364547
-0.004692249360378885
-0.0012685442820577202
0.0006192368206989876
0.00645456079490052
0.0034718726352774864
-0.0029490868367638002
-0.002395855435365067
0.0025398103969134886
0.002289732021063271
-0.004385900717641239
0.007402321671299585
0.005694729888771044
-0.007044485921911305
-0.005986866045622096
-0.0006195928972414458
0.007074986306750267
0.0020124176549437796
-0.005840243783408237
