AAD_Filtered_TADAS_FILE
AAD_BASELINE_CORRECTION: BASELINE REMOVED
AAD_FILTER_TYPE: BUTTERWORTH
AAD_FILTER_ORDER: 1
AAD_LOW_CUT_FREQUENCY_HZ: 0.025
AAD_HIGH_CUT_FREQUENCY_HZ: 40.0
EVENT_NAME: 202302061024
EVENT_ID: 13207
EVENT_DATE_YYYYMMDD: 2023/02/06
EVENT_TIME_HHMMSS: 10:24:47.00000
EVENT_LATITUDE_DEGREE: 38.089
EVENT_LONGITUDE_DEGREE: 37.239
EVENT_DEPTH_KM: 7.0
HYPOCENTER_REFERENCE: AFAD
MAGNITUDE_W: 7.6
MAGNITUDE_W_REFERENCE: AFAD
MAGNITUDE_L: 
MAGNITUDE_L_REFERENCE: 
FOCAL_MECHANISM: 
NETWORK: TK
STATION_CODE: 4620
STATION_NAME: 
STATION_LATITUDE_DEGREE: 37.58568
STATION_LONGITUDE_DEGREE: 36.89845
STATION_ELEVATION_M: 698.0
LOCATION: Kahramanmaras_Elbistan_Turkiye
SENSOR_DEPTH_M: 
VS30_M/S: 484
SITE_CLASSIFICATION_EC8: B
MORPHOLOGIC_CLASSIFICATION: 
EPICENTRAL_DISTANCE_KM: 63.46
EARTHQUAKE_BACKAZIMUTH_DEGREE: 
DATE_TIME_FIRST_SAMPLE_YYYYMMDD_HHMMSS: 2023/02/06 10:24:33.0010330
DATE_TIME_FIRST_SAMPLE_PRECISION: millisecond
SAMPLING_INTERVAL_S: 0.01
NDATA: 10501
DURATION_S: 
STREAM: HNE
UNITS: cm/s^2
INSTRUMENT: sensor = GMS+/GEOSIG | digitizer = 
INSTRUMENT_ANALOG/DIGITAL: 
INSTRUMENTAL_FREQUENCY_HZ: 
INSTRUMENTAL_DAMPING: 
FULL_SCALE_G: 
N_BIT_DIGITAL_CONVERTER: 
PGA_CM/S^2: 81.331
TIME_PGA_S: 
BASELINE_CORRECTION: BASELINE REMOVED
FILTER_TYPE: BUTTERWORTH
FILTER_ORDER: 
LOW_CUT_FREQUENCY_HZ: 
HIGH_CUT_FREQUENCY_HZ: 
LATE/NORMAL_TRIGGERED: 
DATABASE_VERSION: 
HEADER_FORMAT: DYNA 1.2
DATA_TYPE: Acceleration
PROCESSING: Automatic Paolucci et al., 2011
DATA_TIMESTAMP_YYYYMMDD_HHMMSS: 
DATA_LICENSE: U (unknown license)
DATA_CITATION: Turkish Accelerometric Archive v 1.0 - Disaster And Emergency Management Presidency, Earthquake Department
DATA_CREATOR: AFAD
ORIGINAL_DATA_MEDIATOR_CITATION: : AFAD - Disaster And Emergency Management Presidency
ORIGINAL_DATA_MEDIATOR: AFAD PROCESS SERVICE
ORIGINAL_DATA_CREATOR_CITATION: AFAD PROCESS SERVICE
ORIGINAL_DATA_CREATOR: network: TK
USER1: GuestUser
USER2: 
USER3: 
USER4: 
[...]
-15.57951830135646
-14.685925642085337
-14.669776485607779
-15.16792515747686
-15.382192873263838
-14.968333550668765
-14.014726751337486
-11.529580265995932
-6.760243487063526
-0.7749697672451541
4.667507548332747
7.3186916569958065
5.657070600129165
1.217236218322188
-3.5418951345742244
-7.9953118642161565
-10.951510596877688
-10.509256661988106
-7.692632967051601
-6.126386166295474
-9.096158616850078
-15.620406153133544
-20.4920724989027
-21.039114536338676
-18.175066992079106
-13.497823916348917
-9.437700140545102
-7.280381317844902
-6.440034249515692
-6.06092588450473
-5.349016816175838
-4.17438320533722
-3.787050662006733
-5.571712433482367
-7.968696549271706
-8.97665173951679
-10.196205767681738
-13.115896509558832
-16.955516215965964
-20.732423388991535
-23.56885909034871
-24.810705082628367
-25.25718104322405
-26.785399013272276
-29.981005096375913
-33.72439357423179
-35.00918989918843
-30.60004250527956
-22.183172210008966
-14.925572325085493
-11.225554544677637
-9.582904698103029
-8.005324203620502
-7.106305211454953
-8.889379657515535
-13.738679021360651
-19.318842211923222
-23.12120860571283
-24.99972475086216
-23.93403044749991
-18.748105849425787
-11.758119356969571
-5.520892641382867
-1.0811146203899502
1.9574294576660476
5.236005165188988
8.533851125048228
10.57518543287616
11.480785769747083
12.67162280386289
14.939959207573832
16.70042810778947
16.665320776812923
16.211841161420843
19.232547255691074
27.78045722964928
37.07900834868804
40.848336451581254
37.191378628579194
26.603761138605442
10.981441988763342
-5.9696590502534566
-21.09350714823092
-31.78111306890308
-35.0078600363906
-29.32744858618338
-17.41272860615529
-5.323215195166212
3.427392571856754
7.373107497023664
5.628696720827942
1.2661041127063595
-1.8900974946876443
-1.3170617283067407
3.0847465772581018
8.3851910700416
12.927666714746637
16.69704548896172
20.22482243023216
24.207243724085057
28.118309798339858
30.425236138691016
29.630034790709416
25.810581854415506
20.74448732226753
16.191715424184732
13.448551872532022
13.424072026926886
15.697930111585078
18.164058092020394
19.002584380173232
17.204260621172747
11.705423084068158
2.9005745012194843
-6.6619411874350005
-12.908231723299666
-12.919781980575092
-6.88865676412732
2.9104200688447746
11.66888207954757
15.73997876810493
15.955379646765925
14.233498746843814
12.274521916251064
10.08729426608512
6.248311516510295
0.6101525395798011
-5.75965487496502
-10.423262622290595
-12.354348749991685
-11.599313579373584
-7.989862670663321
-3.791456464243827
-0.977404557064486
-0.13563739076940906
-0.9078312841536482
-1.5483027232422548
-2.0906364764352565
-4.202828296337133
-8.057658809579724
-12.034254683796382
-14.556595171950457
-13.873428177836294
-8.629482012030994
-0.5455917480527918
7.295400370145154
12.456510727176834
14.063176030125444
13.301364969345363
11.525092158774877
9.79456255371842
7.620869718339407
3.494785493665627
-2.260843259292856
-7.158668683308777
-8.471893874472947
-6.438107900084432
-3.3273793972384897
-0.9225588492466222
0.44068250140877335
2.708919900291049
7.141784536764237
12.827498606253913
19.39835359306992
26.07955528125449
30.789414222245657
32.76785070246145
32.52993408119825
30.167945185386582
25.812805266884812
20.621962085127766
16.350211883573262
15.0759141634124
17.66088558537888
21.968756846810827
25.329911773989664
26.09698666962727
22.73601077168316
16.273928709318394
11.085207387634538
9.85335571614151
12.47359803860592
17.97690793776477
23.1125651118148
24.574660892957056
22.576122428593244
19.480162496150434
16.728800734835897
13.541071944421011
9.205975068133597
4.067617672737093
-0.98590607851814
-3.56047334970128
-2.0916997997101054
2.4144506680531173
7.6434365140183145
10.879310195694558
11.73690080173131
11.701286580111
10.964948174723451
9.303718742515473
7.097515893260583
5.350805925396473
5.422476366355732
8.104513404353062
13.299316828621691
19.703121941613198
25.614277148817003
29.97052051742339
32.42639012049622
33.002970940501015
32.15855541789292
31.575972016977147
32.08483850027542
32.06763121556283
29.8846792602982
25.4724732778768
19.696809874598344
13.796852456364814
9.83938587108373
9.046903441120877
11.310035502011084
16.376397377759982
21.17238874788511
21.299788432809084
16.14175209344349
8.660404104747942
2.7217515159567514
0.6134008405594462
2.4555224374284217
7.471297513338505
14.127888883765896
20.316948354750597
24.514249342933574
26.850898299722058
28.502157120702385
29.38494267841585
28.306978942737846
24.24493881813256
16.44742803323536
6.473182842676261
-2.2096095114365326
-8.250780841415143
-12.338696207603872
-15.427756959359503
-18.1041986329472
-19.975652921189624
-21.629159970408505
-24.164503641829207
-27.665527416307803
-32.389239299816374
-36.9839166366248
-39.202361021913056
-38.32004699558972
-33.5328524705815
-24.654892746135936
-12.930143604061675
-0.5616511680637455
8.139253284419768
9.399488513235285
3.9602372120094427
-3.622558583525854
-8.559418943119844
-9.140776952787535
-5.980449977601992
-1.4096956693398628
1.113350905367293
0.04984825715731929
-4.901677556155461
-12.090773671619914
-18.21233111315208
-22.5114359483883
-25.315962352023302
-26.315962580972762
-24.859419194923447
-19.943732604057935
-12.203346089212065
-3.0461490490791903
5.96017407952184
12.620107053572436
16.20510982048031
15.534494515523987
8.787611766069167
-1.3753539602902722
-9.238599170955696
-11.7649084975753
-9.95658009706309
-5.721240595252629
0.2946762196869053
6.587222762838632
10.44291053596651
10.328584016312814
7.416763678523224
3.901846529452327
0.05243344818507363
-4.297646714973635
-8.734903460780266
-11.921323870524558
-12.200058630682937
-10.410967662545819
-8.970944859488375
-9.968630562713095
-12.248515090678605
-12.285447265272703
-8.57316816622773
-0.8089122400781963
10.186976822984642
21.72648248227105
29.526668945039134
29.62384295948709
22.95235852740249
13.927569618564519
6.616432234378746
3.255684010355212
2.5229414208130816
1.7976511884927193
0.07670547956231782
-2.4979312175614963
-5.983302322218896
-9.709689089020197
-11.424684961958695
-9.889260682984322
-5.26705038678387
0.9985669653595104
5.873801319682251
7.560723071119915
6.918306681903084
6.125299812671538
6.627312597007583
7.493917538552378
6.350867040256922
2.21408372983465
-3.791702214269978
-10.009972979254531
-14.369271117144145
-14.777176950342136
-11.962674777093486
-9.12928623242681
-8.261768233517035
-9.112635546733522
-11.161593624304952
-14.949598264433556
-20.220551601873645
-25.44631002641547
-29.57504675207705
-31.419441142619295
-30.849637505370087
-28.90668339686003
-25.239196507542367
-19.94119656719233
-14.520539399711618
-10.616401793661506
-9.297464388854253
-11.129593737745195
-16.30151546667618
-21.91628955892239
-24.03258779960835
-21.873293210153154
-16.840843199225194
-11.582280257620233
-7.566035988953965
-3.338029964146337
2.1555648086315595
7.549387336228593
9.648118092410028
5.957139601250042
-1.7868492028917493
-10.001273678859622
-17.556503710714505
-24.388637966550633
-28.855077226268527
-28.998409842857008
-25.6138645330169
-21.92470600999783
-21.17422163315863
-24.080453695427334
-27.175970296834095
-26.922233153636927
-23.85582405957605
-19.635792863584616
-15.040979791119785
-12.101483165035482
-12.520950753383618
-15.123706436422975
-18.23626946906546
-21.958615391050827
-26.32172964547984
-30.119405043306262
-33.39856379368617
-36.6904799426519
-37.84769944625824
-34.615487287579334
-27.15159581644888
-16.724849175750396
-7.107124479995814
-3.2450946863736823
-5.306595962595311
-9.486719598753433
-12.462172919241029
-12.197190818145465
-8.052026719993226
-1.321292156147915
4.761072150754876
7.3274327576341
6.48580833645251
4.462971385903215
4.039595714845012
6.357506858142359
10.284652666834274
15.030183633065269
19.417648943130256
22.08583811906836
23.775333059594747
26.055121452062185
30.643089341100705
38.138290016124145
46.85921628323189
53.839890861852886
55.658914658718075
51.65764815431375
44.142804510509706
35.28741092684685
27.334382942746004
22.392709227730034
21.081116164148117
21.88663908248646
22.759056714917502
22.809886363767745
21.736004388134223
20.773043126079223
21.320691860626056
22.332054953349786
21.96310199671485
18.368669908790633
9.827281193299406
-3.1716513902489782
-17.35333823721539
-28.382568902618917
-32.86749940237148
-29.644765137211046
-19.84739443987244
-5.939624803623086
7.708426855983252
15.816617419796392
16.522451895880437
11.060423189975094
2.0884959248005255
-5.63390504833553
-7.9962482584545596
-4.23977082891722
4.233742576321879
14.738847941752958
23.084762779031472
26.633036982603354
25.735172534034614
20.840150452999563
13.396526636035935
6.749139401272548
2.9854846912581205
2.6839918700981005
5.925746764833711
11.599150051522217
17.61939226575393
21.558018581924202
22.505517291477037
21.696623897905393
20.747910353829866
21.097140617362196
22.23305729879191
22.077854710075894
20.7090129864812
20.26409878047149
22.55509533713041
27.246173956641975
32.01092136373271
34.688015546325445
34.31518892365567
30.77652568533345
24.527603953253976
17.358554695389387
11.519286281001468
7.983087334608838
7.032501623614489
8.765966172430572
12.748515024544032
16.916116928465026
18.34480465005937
16.035920861950064
11.251121390238735
6.46709898276223
3.7241004126881614
3.990821797803359
6.386026586203111
8.402817823553612
8.849731888167945
7.651600642923901
4.72456274995672
0.5225151392789699
-3.1697021411781274
-5.0500268871567
-5.440446676630833
-4.51658235951787
-3.7311111498082967
-4.870366629229882
-6.7766492990345695
-6.284724641675803
-1.1501953593165113
7.489466567720814
16.22359388057117
22.686283209332093
26.200782166183288
26.16461731110637
21.728732437025947
14.37025888079017
7.218382357629978
1.74023985938722
-0.7108691971501998
1.05750918192762
5.613682691312117
10.38172670729197
13.961118097794447
15.509798093369838
13.76400319868599
9.690450970650843
5.432882250094156
1.3242453473912907
-0.9312099390386057
1.0902875655988746
7.12334787365544
15.315266456432587
23.089788896420337
27.65573916625665
27.203099936673137
22.845466378451246
17.68526161277092
14.057353866914545
13.86279205742799
17.346377362026537
22.342862756156386
26.372002884064564
28.33970324503126
28.09148761897258
25.785228857606732
23.042314447414764
21.232536770876575
20.120090124347772
19.31831372986927
18.85400900019947
18.421000871233623
16.979519581058234
14.777393569861312
12.72257960317688
10.295591211822629
7.148409323785681
3.95092877149395
1.6301038369665557
-0.3237805806966323
-3.549816682868612
-7.149536054074671
-9.112922904239197
-8.950663266991583
-6.792798917476508
-4.323314694493548
-3.5170537697400115
-4.7089270886678785
-7.23659521724469
-9.760040563759702
-11.953224556456775
-13.83107933367389
-14.273458029194833
-12.325107807517911
-7.656901684541135
-1.6903722255187108
3.612155216480674
6.82567282162184
6.120500400452822
2.398570069157214
-1.841051188924091
-5.171550723311449
-6.371316166615636
-6.12168864036893
-6.5983582679174235
-9.171955561352942
-12.77017684520424
-15.148924650679858
-15.157899876787402
-12.548696299776422
-8.113554886593644
-2.8481909432422796
1.0778635945376371
1.3588668861552053
-1.3422347164999093
-4.873796139245203
-7.92078594488133
-10.692452019080221
-13.60343885450748
-16.955315731284895
-20.739256950318214
-23.9179223900095
-25.477874885598162
-25.030946787280378
-22.87236066481177
-20.00872612779151
-18.391539978561198
-19.78341784529529
-23.988589499168235
-29.038316778067987
-33.39285265327366
-36.52860681713043
-37.458202607862916
-36.262828395345764
-34.169032508248144
-31.869921776955092
-29.59152053329274
-26.67707883790537
-22.934824908491155
-19.70470585072596
-19.5509294917128
-23.843774115749763
-29.974709417538012
-34.638912596617644
-35.41153747621619
-30.423292086694005
-20.685849740513827
-9.230852823914406
0.29783598207528533
5.801703044325765
7.6415119852331115
6.470115061178663
3.4460719028340225
-1.0035906112038506
-6.879474905181624
-12.34492422384461
-15.116691077541056
-13.547281540621253
-7.854082127488225
-1.157484865207169
2.7422886686340444
2.2156643718406275
-1.909336734471597
-6.040163526377869
-6.247380717256298
-3.753829934485702
-0.7035976885071056
4.235497132261227
11.819871911132243
21.076077809368382
29.25109530109916
33.14518689125905
30.789504989127423
22.648538158024806
12.552894386867235
2.408731328502801
-8.382674427793924
-19.286268154962066
-29.741156093755656
-39.037897027877314
-45.68294321028839
-48.88501000344076
-49.58485520314387
-49.64965633578573
-51.002225383415315
-55.08814529246108
-62.288119169213694
-70.86366567472591
-77.40718251994721
-79.87150566200097
-77.21497592781138
-69.24665529396607
-58.68804205023644
-48.05882860985386
-37.57182843145682
-27.980789924415987
-20.123892565458206
-13.664437919717226
-8.258947851515545
-3.6015145526810852
0.09763990135459646
2.2899395810912018
2.589398619964273
0.27002043000188825
-4.528306234737131
-11.213287543114681
-18.85373243961725
-24.927821530937592
-27.607714200136336
-26.914005409678584
-24.478901396822568
-21.98680804562859
-19.35110580274892
-16.499407691442467
-12.746233872956461
-7.463814683173976
-2.5816831533934774
-0.17874011775066434
-0.5164308028300778
-1.8937055639630591
-2.3414979753197334
-1.5343281194262275
-0.11524286950930972
0.6379865065664159
1.065391542922269
3.6773683380794804
9.260984989778029
15.711758617117118
20.83180515712719
23.787142225464954
23.399562887208823
18.039948552914414
7.723274481422258
-4.2571697681354514
-13.54485612674438
-18.800115287786877
-21.341943186695794
-22.646599036224266
-22.583281668668945
-20.651581905074757
-17.75992759448465
-14.652839458000598
-11.782583802057552
-8.92663905074495
-4.280126230021436
2.2735137614546725
8.45485545439353
12.738276152952853
15.848659943195194
19.701228805476397
24.14122919056991
26.99565623494848
26.53207258853078
21.87809243342376
14.440118104110036
7.326154562852897
2.1500065329151163
-0.5994647426206046
-0.8942725769636752
0.9304710827647656
4.990390999080405
10.482127060478089
16.554687031693682
22.99189144119456
27.93014016635321
28.856569180840328
25.00791799087536
17.98806068634133
10.792368850727048
6.390787212347664
6.645261786999307
10.5551749425743
14.956342123319828
16.787970396524187
13.58308291008449
5.35947250998643
-4.217014672326921
-11.321363789475509
-14.828810336266987
-15.461524211525852
-14.722801381443626
-14.224964020293301
-15.051413251093766
-17.26917469703959
-19.316885490882683
-20.047834281511285
-19.70109022425792
-18.01185559946047
-14.811726720895443
-9.799426645274675
-2.801527236880875
4.542754339932389
10.551573343075123
14.217292278032767
15.093299096890505
13.502082312830437
10.760488310487553
9.491716274742545
10.356619901294893
12.063006253423985
13.789641169464833
14.512612338263311
14.070595833503495
13.087799443866265
12.04415510123044
11.404244129484574
11.417751287201018
12.536512912066764
14.047897455119376
14.691425935638785
14.837021615527005
15.732967625132002
17.455302448633756
18.466457845163053
18.01154961252872
16.35097285355959
13.703537207218497
10.45543562241807
7.769330175184458
6.904607916764547
7.136174106366879
7.013068841555092
5.367750275224763
1.4808832008563706
-3.392158370297542
-7.2499635389198005
-9.492545122185877
-10.95982993644892
-12.32218880241215
-13.464091069679332
-13.606210833376124
-11.139490523197514
-5.599911504533636
1.171620639419933
7.000438035060051
11.242232695193794
14.453157601828146
18.009263975000845
22.720030547516593
27.174154639878296
29.868631771435915
30.30661925598975
29.265355073266807
28.18547306974794
27.292765761656053
26.781151638681333
26.673963482203362
26.688966850327212
26.71977809236359
26.181907509104228
24.870777825481532
22.209620678950856
18.205155345281813
14.747723681655788
13.061548561522542
14.160429558399084
19.123390166043272
27.17231908725059
36.43588462832546
45.38662563822514
52.65088631379949
57.23932199705757
59.31556765200439
59.45404207100289
58.261472115883066
56.02536771345673
53.51113060485438
51.64314306474221
50.15787342965524
49.39749285961505
49.349686634994626
48.82931264762829
47.14191515604049
44.35597981989026
41.354886935798916
39.1731408727189
38.54982517770199
39.57387560131574
42.134440952319316
46.506049116347775
51.84257028525432
56.37067942378096
59.198743151184715
60.22286548710267
59.7779925249475
58.904428841299314
58.86108101516705
60.07147030770706
62.649358661326616
66.19468530496553
68.60930943076056
68.8168188118399
67.26873760684752
64.48964873280171
61.14207982068695
57.21394633431119
52.95102651468657
48.331600791145455
43.7715771185776
40.700850747981924
39.733633523410624
41.79520827641641
46.4043290444152
51.481390173107556
55.38814748699256
56.3424023786646
54.26584007994191
50.70201989605603
47.04693378056805
43.88777625855111
40.82444281191785
38.118562748000805
36.767176280139694
37.052793384222944
37.74062586284753
36.61170381260842
32.44205768898051
25.96184243090591
18.72655960233031
11.950206448534457
6.595133970932386
2.724841303920562
-0.12009305999277667
-1.937906165513563
-3.1216436086079837
-3.2476054079854313
-2.443438240558541
-2.352634548877732
-3.3360644736337117
-6.003748090512025
-9.81928577981856
-12.732476756683457
-14.10968590872631
-13.022015197262963
-9.146115557511262
-3.6942269397853567
1.5608773857658895
4.556103963513849
3.5589930916908115
-2.1133295821062137
-10.519755950913181
-18.41442170500733
-24.247999521283177
-28.15923513651484
-29.98631443581277
-29.933243018604013
-28.922924837836295
-27.959571810335078
-28.60988959420792
-31.0422231881233
-34.70511727000591
-38.86741869174683
-41.9018160730816
-43.246609453214916
-43.23651377051432
-42.59524479120741
-42.554109046612254
-43.570999265610276
-44.21162801496011
-43.0284593117345
-40.73333526007574
-39.87554449925965
-42.25163030317792
-46.835102392463305
-51.7542918283324
-55.39836915782664
-56.50223043732404
-54.45186156437787
-49.73803727556155
-44.19734011604912
-39.321474227624726
-36.40974692742153
-35.87478943696238
-36.48520934034949
-37.15575415455544
-37.03449525789408
-35.56119722217945
