AAD_Filtered_TADAS_FILE
AAD_BASELINE_CORRECTION: BASELINE REMOVED
AAD_FILTER_TYPE: BUTTERWORTH
AAD_FILTER_ORDER: 1
AAD_LOW_CUT_FREQUENCY_HZ: 0.025
AAD_HIGH_CUT_FREQUENCY_HZ: 40.0
EVENT_NAME: 202302060117
EVENT_ID: 13194
EVENT_DATE_YYYYMMDD: 2023/02/06
EVENT_TIME_HHMMSS: 01:17:32.00000
EVENT_LATITUDE_DEGREE: 37.288
EVENT_LONGITUDE_DEGREE: 37.043
EVENT_DEPTH_KM: 8.6
HYPOCENTER_REFERENCE: AFAD
MAGNITUDE_W: 7.7
MAGNITUDE_W_REFERENCE: AFAD
MAGNITUDE_L: 
MAGNITUDE_L_REFERENCE: 
FOCAL_MECHANISM: 
NETWORK: TK
STATION_CODE: 2106
STATION_NAME: 
STATION_LATITUDE_DEGREE: 38.4616
STATION_LONGITUDE_DEGREE: 40.647
STATION_ELEVATION_M: 1006.0
LOCATION: Kahramanmaras_Pazarck_Turkiye
SENSOR_DEPTH_M: 
VS30_M/S: None
SITE_CLASSIFICATION_EC8: unknown
MORPHOLOGIC_CLASSIFICATION: 
EPICENTRAL_DISTANCE_KM: 342.16
EARTHQUAKE_BACKAZIMUTH_DEGREE: 
DATE_TIME_FIRST_SAMPLE_YYYYMMDD_HHMMSS: 2023/02/06 01:17:58.3069380
DATE_TIME_FIRST_SAMPLE_PRECISION: millisecond
SAMPLING_INTERVAL_S: 0.01
NDATA: 18251
DURATION_S: 
STREAM: HNE
UNITS: cm/s^2
INSTRUMENT: sensor = GMS+/GEOSIG | digitizer = 
INSTRUMENT_ANALOG/DIGITAL: 
INSTRUMENTAL_FREQUENCY_HZ: 
INSTRUMENTAL_DAMPING: 
FULL_SCALE_G: 
N_BIT_DIGITAL_CONVERTER: 
PGA_CM/S^2: 61.695
TIME_PGA_S: 
BASELINE_CORRECTION: BASELINE REMOVED
FILTER_TYPE: BUTTERWORTH
FILTER_ORDER: 
LOW_CUT_FREQUENCY_HZ: 
HIGH_CUT_FREQUENCY_HZ: 
LATE/NORMAL_TRIGGERED: 
DATABASE_VERSION: 
HEADER_FORMAT: DYNA 1.2
DATA_TYPE: Acceleration
PROCESSING: Automatic Paolucci et al., 2011
DATA_TIMESTAMP_YYYYMMDD_HHMMSS: 
DATA_LICENSE: U (unknown license)
DATA_CITATION: Turkish Accelerometric Archive v 1.0 - Disaster And Emergency Management Presidency, Earthquake Department
DATA_CREATOR: AFAD
ORIGINAL_DATA_MEDIATOR_CITATION: : AFAD - Disaster And Emergency Management Presidency
ORIGINAL_DATA_MEDIATOR: AFAD PROCESS SERVICE
ORIGINAL_DATA_CREATOR_CITATION: AFAD PROCESS SERVICE
ORIGINAL_DATA_CREATOR: network: TK
USER1: GuestUser
USER2: 
USER3: 
USER4: 
[...]
9.479061954129762
8.829871259323228
7.489322709194
6.132627642841014
4.850646203423575
3.8213406301005493
3.2077390381202
2.8987160032173915
2.7294382344393404
2.5864837034758033
2.1118923378940533
1.3429053997288314
0.13078994283309092
-0.6902831147453706
-0.3784604987730461
0.2045091460380679
0.9344695098798801
1.3818269036826112
1.2723506316862079
1.061291644565026
0.5389329392673284
-0.5317920791864168
-1.8215319647975532
-2.3939466746726623
-2.4794346891523156
-2.6111148970653697
-2.628470575640828
-2.783669083030176
-2.963625725112585
-3.1560370525250363
-3.635560800005496
-4.751875212627763
-6.14166492561055
-6.732902870003405
-6.644725440187188
-5.7448783567758595
-4.046307863986441
-2.3917416061694508
-0.639169593872094
1.1170139283038814
2.025266753004105
1.3996960146175956
-0.10787177389597541
-1.411391765835246
-2.356316967298958
-2.775995762209704
-3.0223063772536936
-3.097955391229848
-2.8103452876278157
-3.0322240566130336
-3.681038559341591
-3.416417642202912
-2.1693747064284246
-1.3206474063969114
-1.0468829284322898
-0.9283050531896103
-1.359256855990573
-2.325211445885332
-3.369686426698718
-3.6436616373000494
-2.6412143477766934
-1.2427846259502942
-0.3846768140548946
0.18716950399649188
1.2204521882874577
2.2119757100252193
2.219003968131401
1.8357521066668192
2.0114204133037785
2.4032502633569863
2.4152072771649364
2.4594523786046465
2.099417952744397
0.6665707083459571
-0.9465846663314568
-2.6805360754358536
-4.644809431796464
-5.912622922664902
-6.442602486324264
-6.94311196380953
-7.870647614950953
-9.301629611892787
-10.799233737679305
-11.943953835873703
-13.018145624247428
-14.07373449984893
-14.742061845966232
-14.709536786260754
-13.940965173795954
-12.81317887716104
-11.46495897007386
-10.069799115294739
-8.788615686662677
-8.01777902087277
-7.839988406490616
-7.726060221925044
-7.627341254872942
-6.861017913645576
-5.117960010787981
-3.0326312374658855
-1.2436672693865292
-0.6887872583344711
-1.0878587844712575
-1.5827914750620196
-1.942374493014218
-1.9604319167100734
-1.5227821933157997
-0.6462496978776242
0.37180665382461486
1.3284126332223352
1.6754495685025068
0.7818080455922101
-0.2699694451528924
-0.34831301715849733
-0.04272982360388118
-0.4149149038875082
-1.6835788245982393
-2.700838167689125
-2.881298930937175
-2.6316196312546527
-1.5786914455747467
0.23161820711269976
2.08980790347485
3.4985725435906243
3.9882882741181502
3.6116610560762865
2.7781329099510423
1.5619337411619796
-0.6335642921141518
-3.3895794856706916
-4.63510928761535
-3.5770947902908223
-1.0959098461299759
1.7597526097989418
4.064352880436482
6.134295501158785
8.68251463648949
10.547869692099939
10.899583556003549
10.399041766101453
9.447464667125171
8.592315900374945
8.055770884020589
7.636898991604537
7.347668210827809
6.995350672033269
6.848960409470823
7.334519055924253
7.766968011128313
7.520034150684448
7.034311669570788
6.635709764087721
6.059532630095348
5.014847709114723
3.9132677892500682
3.123026340394112
2.6312912325452733
2.769523808653702
3.784228937823912
5.557572789077513
7.422524259460218
8.871835183674518
9.846051714339593
10.347731136070196
10.05536037275797
8.759303470171494
7.534700462205727
7.074509227574811
7.619968564630473
9.438866196267377
11.334348627431542
11.89655348081342
11.118298229124568
10.47611943472151
10.578999776036323
10.11856773870619
8.632538046731117
7.022844339519396
6.591390862063562
7.225463792994735
7.853623301166625
8.568728804957816
9.003194351242566
8.352206383193849
6.593620862255959
4.6588846439369425
3.362619609692735
2.3991630775497756
1.5050420204999833
1.1841987115786468
2.210401312902899
4.045110913961732
5.766055505039725
6.715890389347599
6.077650751499193
4.009179785764369
1.5823640709122389
-0.12235045088156021
-0.6950615861459996
0.15233845360465464
1.6139817437466166
2.898713610018799
4.374015603768998
4.991425234336273
4.369771209017827
3.616534166177994
2.7728979135149894
1.189379738521361
-1.530859083295646
-4.153680005073812
-4.919062017407437
-4.087696589285558
-2.413089696053151
-0.11577067681092769
2.411966797941778
4.543011975214466
5.7895705217679065
6.0702795838833135
4.928582744178928
2.1942457797503554
-1.133836774005277
-3.5970063731013666
-4.300100941355774
-3.7771662931685954
-2.767805233697949
-1.5938003970212025
-1.4113286893958306
-2.1732114872354913
-2.683664190444998
-3.604090422356615
-5.11130318347835
-5.961115597088085
-5.6251237008035
-3.7000515024809415
-0.7907308430714203
1.552975258303988
2.2813307306013764
0.3946891102432119
-2.992638337706942
-6.252820767205082
-9.205691585324814
-10.408451089220602
-10.045253182637138
-9.951415201941497
-9.802524115556144
-8.91352638660927
-7.073982572467255
-4.850864623319763
-3.5387323628963223
-2.856621505813419
-2.535436022971095
-3.129289701846235
-4.251949328268728
-6.028235183826576
-8.239312731185993
-9.373489214696578
-10.253011404826486
-12.568990084337159
-15.119061509442055
-16.71249718493154
-17.648887407824258
-17.632837636705943
-16.186307287389994
-13.887896850727614
-11.359224971442094
-8.145804260442949
-5.141857088801511
-4.346810997494787
-5.959322286005933
-8.483287834495217
-9.66565791210838
-8.362346684636398
-5.741217983259425
-3.9142166091735078
-2.349766341657821
-0.4297910235371983
-0.8384926487732313
-3.339212613021258
-5.052871257981921
-4.961587051173455
-3.4489390121229535
-2.4318795886213986
-3.021099561368584
-3.312670161065797
-2.950015219411575
-4.815410041685718
-8.87501261706499
-11.989614674792335
-11.65047824537618
-8.624698439198445
-5.527720060576369
-1.469732127699636
4.62199330983341
11.315408835309078
16.302895137641404
18.36297946388331
18.591460766771466
16.79692617852468
13.215334893466336
10.013763147247225
8.612715725936319
9.38023406095781
11.062245810120643
13.12087142966697
17.251627739146176
22.451784580300462
25.04513342584206
25.695288302887498
25.651359632261887
23.87399299438507
22.01110777245705
20.005874448525503
16.533033442913734
12.936577229074418
11.640069259751135
13.551660343368825
14.817147410687756
13.701756712249388
11.631951756384366
6.849462045595841
-1.2256202773355633
-9.112328785138503
-12.68680991417523
-12.099419744011838
-10.723389606272951
-11.59287145803992
-14.286975126295811
-15.467622578887477
-15.380141356247266
-11.794522411916148
-3.923336725921957
1.8769866384470286
4.495845531876729
5.267945160237901
4.1978294559064135
1.768769713694041
0.40685711900999844
1.9022134407485343
1.2624774065830515
-1.1539475766848883
-0.5246614409912925
0.26576752091274286
-2.1388712667238265
-5.172129600372439
-5.82395075034937
-5.76981653828533
-6.677705888843674
-6.515624544090443
-3.689224147794094
0.49730227500094487
3.71850432962181
5.777514565466335
8.253765780158965
10.969669043809509
14.889619297517577
19.088100702137567
17.872377119095177
13.643166992257013
10.525588349982694
7.1949392095397915
5.490019430400286
5.3134181414026616
3.29179417529634
-1.2389509101465792
-4.701640521613558
-5.422651270134829
-5.8548816958648375
-5.847685871804598
-6.012636662658025
-9.239892036624132
-13.745608674332885
-17.159053304836753
-20.549501233984923
-19.303482092287844
-12.544593940885884
-7.63338492075493
-3.78646800132209
-1.1326422800296738
-1.4322401470105768
-2.1564183433319464
-5.349229317072016
-7.883149735359657
-5.376347471163283
-1.263509611950751
3.4404390492263355
7.134717020357221
7.782964775698042
7.604945103907231
5.475940877130636
1.4858346903520119
1.268381791427728
3.683103474093801
3.534242981774948
3.2132381428387267
6.2669483309738565
7.829241946753604
4.772567325265352
3.42272413056765
3.467417307990936
0.7147562932596149
-0.9899167913542523
-1.9015190519119647
-4.821322167581976
-5.641785616812029
-3.027471470903843
0.773740616029119
6.128812123449989
10.870465113144455
11.918500948014406
8.557590433331123
4.600608722797988
4.683003351435056
6.800973467211626
9.298306249095443
11.934786912574003
15.439446197791021
19.039780443529196
19.047089246032414
17.286750794190223
16.12775895441863
14.833624153659326
12.350833201614691
9.49735701563435
7.449487693640526
4.907640983532329
3.233949405758627
4.807093100605757
8.059397888477593
10.347017548745125
10.44665615413395
7.52783492781053
4.443554570411665
2.2532748502667657
-1.2832387377794487
-4.0736619488540375
-4.371732593234135
-1.6534171116794212
0.5956884144714958
1.4835571636189653
3.4252139822202974
2.0025682261645272
-1.8355500897579846
-6.483536876125477
-13.564603283978665
-17.897182162740652
-17.748366578991018
-18.307460063653618
-19.19413714610584
-17.976877912764454
-16.962481942285926
-17.310958853874684
-18.35569553505239
-14.507602163697728
-9.0510013963669
-7.9782028544357875
-2.8891513696049294
-0.8134776637135913
-3.8936438243091938
2.844463920106685
9.538242871107997
5.038483418078801
-2.128029727718509
-4.197087961366977
-1.0358857758246027
2.6078913202867433
4.734630614377992
5.683733634996368
5.489362017572974
3.157768122280452
-1.106088206919068
-5.149782078321835
-7.110788307674056
-2.5547652477419582
6.46060146828747
8.670565493615129
2.5198534115117472
-1.3770159296380218
-2.2938300006640033
-4.713357916925385
-4.562326380712525
-3.887865872025279
-5.636469100140148
-4.664309840887611
-2.8536154494985007
-7.586801107072876
-12.253858952277225
-8.442268913837896
-4.318930513640842
-3.2719639406804126
-2.9196119901019415
-5.084517162589451
-7.2142369534527635
-6.251237315006189
-3.607238410019464
-3.408292109134542
-4.809626964986346
-3.6760789072906412
-0.8398282583531176
3.026535063847417
8.192069123896523
12.01184426105317
13.81479146812664
14.242618274639009
11.534091975612315
8.061219952923757
7.260666882543044
7.347471797380895
9.548973436715388
16.488333238087016
21.805987643989674
19.322837177336016
12.481030196428875
4.834988574344881
-1.4440486481723094
-4.144538670618066
-4.484256963492894
-0.6690089374465318
9.155534242337522
16.57623115255616
15.114476835045526
9.124190510130608
2.8721341881947855
1.3617045394993335
5.676349122918147
7.533420298332287
5.1990590870687035
3.297292246035385
1.5096053829255274
-1.4639695441512846
-4.09977873474719
-4.595934658083121
-4.119144314579499
-5.589158911234988
-7.831432459022925
-9.58573502486191
-11.276216736082915
-11.43354832262677
-9.60905771302831
-6.482339609037562
-2.3529602300639922
3.6177553227640806
7.650029429481419
8.067372551758691
10.37789249648556
12.74120167608724
10.958219287987525
4.924044698953305
-0.08819249626697893
2.2009318516764775
7.313292754013002
11.70042444047891
15.31933915153931
15.770005700949804
17.066432527548624
22.461852279828303
27.773813152284436
30.400166150818084
28.57714747885412
22.273519108540178
15.924317304697023
9.566510695723798
2.044116292376699
-1.6084465589199772
-2.300383622746775
-6.071385878669637
-11.753114877689077
-15.865425289063834
-16.185729628436835
-15.028303691074122
-16.713569469647236
-19.942914437386914
-22.652517093473282
-26.163331971451747
-29.885175212137778
-27.17982435024272
-19.68193296682122
-13.556065035256319
-7.884001507020135
-3.519173591122022
1.530455712685814
6.006105657050651
6.699154810309839
7.203347357032255
4.5843540744247075
-1.2317609971502312
-3.273529198685645
-3.080933796488937
-3.8841727270937967
-2.3132034354498643
0.7166725116893264
-1.7890294831178262
-10.689145075356027
-19.42801200776496
-25.08321887112578
-30.08440349074061
-33.57414294867533
-33.429028881936375
-26.699293860141022
-16.361692613153913
-10.30037587898618
-8.188611253233086
-11.007881106764298
-16.265107630675374
-19.591169509398213
-24.48882032760969
-31.06559065383577
-34.66501297804116
-29.451681150498793
-17.515835965000885
-6.401203943103701
1.436020061216625
7.424307305340355
10.682119537798464
4.720493368680381
-7.571076863698426
-15.430864099217514
-18.407437594027964
-20.67004004451545
-23.907750473891763
-27.282222983428426
-26.279949350500985
-21.574844004656114
-15.70615917235726
-8.885816855125535
-3.4900126614271585
-0.025140056988719305
0.29727276946459746
-0.5911584473704301
1.1516994222578731
4.610271864329957
9.596181628198487
15.105545661191933
18.005404241543587
17.04098639525578
17.800040795556658
21.544680214674052
21.319839023255238
22.734630788974876
29.171879513165408
28.744682822416372
20.788776452411284
10.220384429675084
-5.528836018353493
-18.92017027531507
-21.97237426015767
-21.583897575858547
-19.602819742680374
-13.101424040477314
-9.301351490801334
-11.52251843576842
-16.66240165509865
-24.19532813408439
-31.085173508661537
-31.053965018313903
-19.88946192486352
-6.151129610094563
0.19000006730062755
4.083568219259512
10.858825588617435
20.90909067078406
31.53174758983221
40.16917275873536
49.27391419398788
58.021852177707565
61.93103369223989
59.02098388827535
51.98829191854351
47.57351076986346
50.490170245893296
56.88690674622017
59.34756822289403
54.81768623298731
46.26239013816731
38.66682324516352
30.930959855840772
22.918380096582517
16.790129272466288
10.41450534392472
7.653321846470761
10.542570505432943
14.420250771664376
20.557386586882338
26.67482708441245
28.39688719461635
26.00649549991035
20.54924218954193
15.338252974752665
12.528810825767595
14.739395197971756
18.942652651059312
21.723481631582256
27.179639496801293
31.50179452670949
29.672962048011712
22.189578761089212
10.63537072132054
-2.3937660507996203
-12.222563656547152
-15.443147047890799
-15.899925876654281
-15.789034992410079
-16.926188115595586
-18.328837376824136
-20.633952557933426
-30.51386741000312
-38.700231499568325
-32.72413775678838
-14.099299955194962
6.898043682192364
18.250560956979378
20.263503208213304
17.76876095363948
10.735896814833193
-1.3047654154391954
-15.775588810285054
-23.853967248251667
-20.47221843943151
-11.0478367486443
-4.644237126678478
-5.009830047907359
-9.197237619727336
-16.106582230764566
-22.96161283080743
-24.945323174862004
-25.144503298015376
-25.388597356445917
-23.053303950950617
-22.634231196469358
-24.36644950495789
-19.779872051208702
-11.659520807616124
-5.265535180562976
3.982303341962548
14.645403661486142
20.381095767410773
20.66067276469861
16.854939307410092
7.687297877080162
-6.206796872359337
-15.116842117313295
-15.577206043734456
-20.682606613836256
-32.96927505878912
-39.745637487493475
-35.03448292178119
-19.197203386695502
-0.3601169914103243
11.09852207170207
18.98815106462059
28.795139251745486
39.98542184094383
49.648859041642304
49.93151739809239
40.088430627489316
24.54792067539572
4.851108318448569
-15.388893984094924
-33.02146467899901
-45.16769279102884
-51.4230528657322
-50.817312469996445
-42.8132533891498
-33.00496983744693
-22.686355061401756
-14.65887577948728
-13.228440264520785
-15.27448940939591
-18.190145484287832
-21.772707936298996
-25.61287490863418
-26.594344517994518
-24.94023803600779
-24.203592756221767
-23.921065014341657
-25.30883828060491
-27.07692980360694
-24.554741062237483
-20.000644973177188
-17.778129096066433
-16.158389125760458
-10.671902096591195
-1.8677065398378392
7.99132008145646
16.485462458777565
17.41803830429621
10.13219275044188
-0.847502585580329
-8.516884535019413
-5.410630043716817
7.321488308685275
25.44526710531253
43.73206968460676
53.24857349315837
47.40059489484863
29.79032642634351
10.852273255539261
-3.3472404062887966
-14.59574628651219
-22.664248770005344
-25.312001891097598
-26.597264201501076
-21.60178328124799
-8.024305663347354
5.840745818386718
16.814760062770763
17.944379827539883
9.605231656392311
1.2791109546579373
-4.182266646714505
-8.741600261503319
-10.871744596961062
-4.5676922143452625
6.124768786166416
16.502912874832468
26.502559060771777
28.574374213479725
22.971453510776932
17.187310667391294
6.988430471444584
-10.235776228906627
-23.660384365424136
-25.91636768016423
-21.095815176191156
-16.443379865208453
-14.534215392124532
-11.604447401480742
-10.471470426730072
-20.894770111472177
-36.69575152871039
-44.2189650764078
-43.66074061952958
-38.03302536637089
-25.253817201078945
-9.145845136404512
-1.4131928440669528
-3.6722123534170636
-9.096537194354742
-15.806395788104851
-21.145162853321793
-23.109150774463842
-20.40739972874822
-10.686155154631402
4.589591030715497
18.372087596676078
24.99844312366065
27.96947421192275
29.85095769011214
28.2007364625123
24.799894418965696
24.550225273167264
25.030284821156283
24.690401803760448
27.627765384994106
28.237341241918664
25.74081572691701
27.92436581875598
32.31506808551651
34.03622992499716
30.3472057183424
20.683825779136836
9.199030593197959
1.6108481794882175
0.26012412005795976
0.868041440355099
4.024308141081167
12.039702768797643
19.421732475236695
24.621159337514573
28.46489749708118
30.352445218372214
32.59313319519459
32.970548910691754
26.648260494814405
14.282396410702768
-1.0639638302489582
-10.26339373083343
-7.014640677333011
1.8463093521481138
12.05503432213108
19.225485555295368
21.232648781684304
21.879578359754497
20.94621153708745
20.247937644558753
18.604529278735487
15.913637657700678
15.611823196149839
16.399591109190535
16.567916405540704
14.737255458463629
9.652392082198247
-0.6687100861971467
-12.925413386959908
-19.908729659404194
-22.127752057439398
-22.98416388719493
-20.08964401759456
-13.91289031799115
-11.771716611381825
-13.754145570622747
-13.716381596310157
-13.074501167119443
-14.085469515776015
-12.606284550718824
-9.099554697518585
-6.29991148576703
-3.6700785360948744
-1.6447198709249764
-0.8828705326314917
0.3402371071248817
1.5092740769106332
-2.033683927350738
-10.1956942143479
-18.602387116530583
-20.983352941265686
-16.54120658693258
-8.976586821982785
3.6865083220165586
19.11973474989956
31.44457456036696
38.44499414734517
40.4936588836573
38.06936770221816
31.98885882240451
25.480241874864518
18.97022587107876
14.180395829732001
13.13317399871257
13.246856492954349
10.876199100918603
4.9461193580643545
-0.2709542893894998
-3.6414321147754567
-6.607884069440553
-8.237225972681196
-8.484381291174879
-8.030363389862133
-7.191008635958495
-4.212296548025026
-0.34945017997157224
0.8846495793428153
-1.9151891109361137
-7.349818138802011
-10.244314947828162
-10.259892989606698
-11.906405670290251
-16.94515367618128
-24.820978669118603
-33.192570886423894
