AAD_Filtered_TADAS_FILE
AAD_BASELINE_CORRECTION: BASELINE REMOVED
AAD_FILTER_TYPE: BUTTERWORTH
AAD_FILTER_ORDER: 1
AAD_LOW_CUT_FREQUENCY_HZ: 0.025
AAD_HIGH_CUT_FREQUENCY_HZ: 40.0
EVENT_NAME: 202302061024
EVENT_ID: 13207
EVENT_DATE_YYYYMMDD: 2023/02/06
EVENT_TIME_HHMMSS: 10:24:47.00000
EVENT_LATITUDE_DEGREE: 38.089
EVENT_LONGITUDE_DEGREE: 37.239
EVENT_DEPTH_KM: 7.0
HYPOCENTER_REFERENCE: AFAD
MAGNITUDE_W: 7.6
MAGNITUDE_W_REFERENCE: AFAD
MAGNITUDE_L: 
MAGNITUDE_L_REFERENCE: 
FOCAL_MECHANISM: 
NETWORK: TK
STATION_CODE: 3116
STATION_NAME: 
STATION_LATITUDE_DEGREE: 36.61618
STATION_LONGITUDE_DEGREE: 36.20661
STATION_ELEVATION_M: 33.0
LOCATION: Kahramanmaras_Elbistan_Turkiye
SENSOR_DEPTH_M: 
VS30_M/S: 870
SITE_CLASSIFICATION_EC8: A
MORPHOLOGIC_CLASSIFICATION: 
EPICENTRAL_DISTANCE_KM: 187.47
EARTHQUAKE_BACKAZIMUTH_DEGREE: 
DATE_TIME_FIRST_SAMPLE_YYYYMMDD_HHMMSS: 2023/02/06 10:24:59.3269140
DATE_TIME_FIRST_SAMPLE_PRECISION: millisecond
SAMPLING_INTERVAL_S: 0.01
NDATA: 13501
DURATION_S: 
STREAM: HNZ
UNITS: cm/s^2
INSTRUMENT: sensor = CMG-5T/GURALP | digitizer = 
INSTRUMENT_ANALOG/DIGITAL: 
INSTRUMENTAL_FREQUENCY_HZ: 
INSTRUMENTAL_DAMPING: 
FULL_SCALE_G: 
N_BIT_DIGITAL_CONVERTER: 
PGA_CM/S^2: 12.912
TIME_PGA_S: 
BASELINE_CORRECTION: BASELINE REMOVED
FILTER_TYPE: BUTTERWORTH
FILTER_ORDER: 
LOW_CUT_FREQUENCY_HZ: 
HIGH_CUT_FREQUENCY_HZ: 
LATE/NORMAL_TRIGGERED: 
DATABASE_VERSION: 
HEADER_FORMAT: DYNA 1.2
DATA_TYPE: Acceleration
PROCESSING: Automatic Paolucci et al., 2011
DATA_TIMESTAMP_YYYYMMDD_HHMMSS: 
DATA_LICENSE: U (unknown license)
DATA_CITATION: Turkish Accelerometric Archive v 1.0 - Disaster And Emergency Management Presidency, Earthquake Department
DATA_CREATOR: AFAD
ORIGINAL_DATA_MEDIATOR_CITATION: : AFAD - Disaster And Emergency Management Presidency
ORIGINAL_DATA_MEDIATOR: AFAD PROCESS SERVICE
ORIGINAL_DATA_CREATOR_CITATION: AFAD PROCESS SERVICE
ORIGINAL_DATA_CREATOR: network: TK
USER1: GuestUser
USER2: 
USER3: 
USER4: 
[...]
-0.5765202750055564
-1.286799800444231
-1.889777607865397
-2.2882365459249003
-2.4048510124336517
-2.534560642474587
-2.5697630911234923
-2.3515157393853987
-2.2225146620786145
-2.0658066615540824
-1.9691344747507795
-1.4344684574273399
-0.8208001773244412
-0.7692643918461559
-1.3407772848916333
-2.4234670887880982
-3.3826200258602244
-3.741259996154187
-3.1303634711951625
-2.4411132528398207
-2.320839936824994
-2.45389367444156
-2.623183829118881
-2.147327216861967
-1.6320185080011491
-0.8151340154376844
0.20902195078044578
0.8011314118646924
1.008920213852142
1.1794960991284995
1.8457758607296675
2.2202630913728485
2.767519367708656
3.7109251682407236
4.555551069682233
4.911661109205454
4.512480164571215
3.647529850035432
2.8123416056667003
2.8330815723066562
2.9642735314252087
2.77613976207945
2.688343548739207
2.7171399573370167
2.705077193052249
2.639366824752282
2.962535553280788
3.525104965831059
4.246394615807159
4.774255461864251
5.298153552166771
6.238188567480572
7.406814104366094
8.42032383849593
8.962284695973485
9.410650472444562
9.58810492850392
9.320133772413628
8.715265869308196
7.99458948766538
7.862912967641472
8.603433160632367
9.260772424153876
9.04825703597929
7.851334091843257
6.042396634122915
4.238075886441307
2.9929615240565646
2.5259270143619625
1.9057300435560591
1.1665727729174016
0.30375333591658843
-0.5624966609316595
-0.5082602708014416
-0.3460226120872468
0.05240695721599171
0.7153618854432668
0.9202675081705297
0.7125780780496125
0.7208409935502381
0.9983040799341246
0.8579924334539284
0.7003368046215966
0.565186225458372
-0.0404485988815301
-1.4572241606757232
-3.3123399416129087
-4.883064423794111
-5.946487017885875
-6.63454062314039
-7.387987067175456
-7.624020377190013
-6.927966908475849
-5.922635655184506
-4.706499900817229
-3.1110821993674693
-1.8813132312012621
-1.7222761563571798
-1.9707692626566748
-2.819369894715542
-3.5085633262475917
-3.8376822808122126
-4.179918134737652
-4.125931581557914
-4.233631830442037
-4.337819770259873
-5.390243342635819
-7.165922882449741
-8.426323623929392
-9.32577407715341
-9.861554464599436
-9.710567561322607
-8.90315007134559
-8.484034755998843
-8.206650321364277
-7.9329784157079235
-7.5664658593874865
-7.044752792761142
-6.963063575886841
-6.394276541865347
-5.359558714585465
-4.585219212058699
-3.677595341740627
-2.928796991262484
-2.289170668125335
-1.4107610343005281
-0.2174865085499547
0.5646594937624019
1.3636037091173074
1.9542438018588613
1.7769460656326737
1.0520192850485426
-0.08083693530214955
-1.4184741954265383
-2.6634675737345397
-2.849120834330594
-2.921234981955129
-3.097620531797494
-3.2771926567597323
-3.321603143287277
-2.855479618306418
-2.0702461451036096
-1.1396034760953233
-0.3625004419400977
0.22731873088015528
1.1329896547636424
2.228984377944717
3.156330299367557
3.9201900179394396
4.266986123387548
4.007635215209345
3.608391248380585
4.062326618401305
5.397122125120266
6.834247151025359
7.448823177823006
7.2725013796287845
7.299125785829592
7.255421926600976
7.015650160078434
6.385433492549554
5.592019519913812
4.562197324801926
4.028211715200128
4.236063380702924
4.058048312157296
3.6082977522377058
2.8594236719997954
1.7457423505228615
0.6573214420843817
0.04123341618657226
-0.11643101962911387
-0.09870254110176939
-0.3028735126895985
-0.4546343019521184
-0.7477530153994182
-0.8771410046935706
-0.6204240404343522
-0.3442961424128794
-0.059291099822104086
0.023108677167837044
-0.34735352399967967
-0.4606954690983458
0.41747814394901545
1.3617437387026636
1.968734315009088
2.5107080061081906
2.5695985517856985
2.3785557285677728
1.8405904923406167
0.4280373679661351
-1.2978718016798605
-3.2610361933298164
-4.897190368075571
-5.645959005376359
-6.008981156365842
-6.310103575862956
-6.468038938532822
-5.982075922654115
-5.5864568634954646
-5.4698214510466725
-4.609412247920587
-3.117152355169329
-1.8060303226147094
-1.1026115190065757
-0.8799058032479001
-1.4362237554976507
-1.883402036839803
-1.5132311138676602
-0.9037162940611144
-0.40923855751101085
0.10443870640633704
0.722651724270607
0.8537274360100742
1.0106615828962435
0.6929096539853733
0.3034701351752697
0.14205752050328904
0.1441580458730053
-0.015640653455582677
-0.3479031630165664
-0.2388061759399828
-0.4002158854455074
-0.7524064345765104
-1.3600628159856931
-1.9866275237123552
-2.904194869445475
-3.4211644835057995
-2.9856849931907106
-2.1674127296702275
-0.8594119757789009
0.38438473154440606
1.5892956054460459
2.2978421229511885
2.2684677400412747
2.3430030566539894
2.9470676131317974
3.7808377402911484
4.348263493242565
4.848538576260075
5.186615588649779
5.35390776421658
5.403243277570111
5.454462752990326
5.1420335456780615
4.533803699556468
4.170395431004424
4.0222269523627245
3.7676601855664025
3.731377845217001
4.043084022088252
4.300950936700437
4.66387591238204
5.060055189880583
5.678216829258708
6.011008133841616
5.369514333689802
3.8218775581585374
2.769174681965845
1.9227986833016497
1.208824399768529
0.5099828435417096
-0.8667902310071185
-2.0352051666430735
-2.9397271965045255
-3.3508886398983586
-3.885846991608118
-3.856385354473394
-3.2508046965012145
-2.4829848554105083
-1.2370210534063826
-0.0022947917410431977
1.1921259988940223
2.003287299087859
2.4390938314694495
2.58102320560851
2.1444434753278285
1.0920425819369317
0.23978672248433103
-0.5491083509922177
-1.4597306857468693
-2.168438056030984
-3.115999869084802
-3.956319754007383
-4.06718917312009
-4.004556294496534
-3.831534075322747
-3.3161641953917194
-3.3350721909392855
-3.2363333106007035
-3.1626853060852684
-3.6362128252729713
-4.241887252653073
-5.109907298819764
-5.9376689080114105
-6.320971572473676
-6.3143529645568215
-6.143694819260128
-5.8310167567797535
-4.98235796846552
-4.562148703805023
-4.385991806142908
-3.808631755087639
-2.7841770613404524
-1.185409466619603
0.3203406494019858
1.3319498685141058
1.7711974893829239
1.9337166258696041
1.5795754955467711
1.2703897194303568
0.9104214378752529
0.6822693225409662
0.9126398546519798
1.2274112845300078
1.4678320636285238
1.7387242123529023
1.8583324648828525
2.071511862679905
2.1887704631637033
1.8180095370004143
1.5645415371765907
1.4695228409663632
1.5522596808302402
1.7091072484664598
2.149176363595296
2.640010619026976
2.816653027619434
2.886198963545922
3.0163602798353915
3.031457500314651
3.193701239248725
3.443402571857165
3.652323181754696
3.4541654530030947
2.722334027543976
2.4590154241223083
2.612585111377541
2.5361892856872186
2.4388417862443683
2.2355096125807346
1.8406318116385563
1.8852330769934924
1.7847530155066158
1.1224964206657104
0.47607374065671487
-0.07398596266142426
-0.800348747624234
-1.458346822706384
-2.2765738090376377
-2.9989707045957603
-3.4283816851997866
-3.67004712837493
-3.889067812921296
-3.974463926686523
-3.7921158575695153
-3.54668553571835
-3.3691122344486373
-2.9589075178760846
-2.003304135158026
-1.1856323471527803
-0.3631538691433095
0.5298364108538719
1.002202186569129
0.9152837911900868
0.739815128817088
0.23391286588406324
0.0046407270043755475
-0.16373769321964352
-0.5767955768127463
-0.5201526848394136
-0.30879865016144975
-0.49564639534922544
-0.724799183481652
-0.8502214966254379
-1.1959574136826074
-1.686492881216005
-2.060715645086386
-1.953746508724583
-1.4771492493204836
-0.705924461850879
-0.2557960848746031
-0.34760154646148433
-1.3162826013045572
-2.332202106255258
-2.9383660237188964
-3.3643075205163133
-3.565473001683755
-3.511356006287226
-3.2916277279722137
-3.3091579682045733
-3.2357743160462147
-3.0977927302629946
-2.8334759478492018
-2.534760208151362
-2.5112248169298983
-2.8353679766978623
-3.167168050928656
-3.555882172654336
-3.93097676583869
-3.7435492100958654
-3.149754362906239
-2.478836754726629
-2.085403404868846
-2.028298409053078
-1.4652490493217745
-0.6479946656461644
-0.14447527190752146
0.3416390509109863
0.8923082814634598
0.967082428350896
0.8556904125454382
0.6749845005151468
0.34630178153276425
0.273468031364312
0.3430201306992688
0.586374663668139
0.9921070405348754
1.9670177774663915
3.046581497841189
3.7423164291347835
4.262255267632156
4.822755589833942
5.320689097574117
5.654325307167301
5.985438302054519
6.396241768830564
6.738697092425697
7.081254988338262
7.4446083539265535
7.826758572509002
8.204986649069221
8.604843978510266
8.995011065199824
9.196277103795547
8.973303329964947
8.447902028138055
7.4595725063933465
5.950019752344904
4.615022360044143
3.687850134570431
3.291224186745454
2.987628034923683
2.3468454786548127
1.6972052712609806
1.0301447520984293
0.3410348169258171
-0.22399917296523023
-0.3354772482646033
-0.04651085054070864
0.29601204480698595
0.8861938236706716
1.501550723291509
2.0378949586888955
2.2641164077817124
2.14573421857154
1.8265445662299191
1.9256440173681812
2.5786706593407107
3.527395127747966
4.337261654898959
4.684264467644582
4.721409906324469
4.6879413216932
5.0264069279587895
5.296536579967922
5.460217894755681
5.759092268632613
5.814329741908337
6.111107512580013
6.40370218153912
6.2765004296783085
5.9129723999112525
5.244518826954984
4.395189407700927
3.4261942328940767
2.669033056977234
2.1831748785927245
1.9797012262479887
2.0536605846582847
2.1912205880974533
2.1381788286398526
2.1029986142659376
2.1477120664545284
1.7681392361592545
0.6163439605837074
-0.7166998295789209
-1.7206708329678435
-2.561332101079176
-2.773705743148794
-2.8297041490203907
-2.7933960020749558
-2.8395378717864945
-3.087083879206857
-3.1702537680945078
-3.313353261093677
-3.590112926510743
-4.077336108680953
-4.67770856476546
-5.49775624241219
-6.450071250305793
-7.446127981980224
-8.33229522910274
-9.144093207852393
-9.204377237200115
-8.686682924189942
-8.068178094266592
-7.276335043593187
-6.407108559973819
-5.543420877558723
-5.202624942960959
-5.117229638015442
-4.988793703073694
-5.13163344398813
-5.393612039528298
-5.740583805518459
-5.912201235850475
-5.8792812270212345
-6.04950074872739
-6.303051108383516
-6.287101879173198
-6.152164503883601
-5.958478860942543
-5.102251822051334
-3.7799735901188596
-2.6206718555543693
-1.7444842005003558
-1.0591878816533504
-0.8952819876548784
-1.2384597168009366
-1.762233299516488
-2.1130571273461842
-2.1160081557662096
-2.026920099659232
-2.374266590631483
-2.242995314335245
-1.7643082528822154
-1.705744121910351
-1.4727035679938858
-1.165820426423526
-0.8144135022003013
-0.2423625325163637
0.25628725374195327
0.20763242652074784
-0.08985391977316265
-0.5534000031607118
-1.1105409204661336
-1.5921414991409453
-1.768978329822344
-1.2834134578181182
-0.4587732143709236
0.20637100330652372
0.5325259007277293
0.5244582494756683
0.41991827090575073
0.6701742312934662
0.9273506005580618
0.6357538278675878
0.2198367624731867
-0.11337163644538306
-0.48897902907712554
-0.510927223009402
-0.24519012612523722
-0.3107117111468532
-0.4397823646790772
-0.6609966045227353
-1.211837069492097
-1.972559594192176
-2.5272790520668553
-2.8456617820770735
-2.9324128905578197
-2.8193056569788544
-2.452977950613383
-2.2607371507187954
-1.8161722369757216
-1.5815231164768693
-1.9987591494041292
-2.3564979288971415
-2.760792103487271
-2.8415077205256103
-3.2136068514415577
-3.479512949733875
-3.527372168859801
-3.700442472426666
-3.874181330318606
-3.7464175121607433
-3.2276381098630824
-2.6192399615644497
-2.0084476479410465
-1.479964503925764
-1.3539920190164048
-1.9170763632140988
-2.646210112483086
-3.472601712463229
-3.9838274188444562
-4.024187642778902
-3.8578559013309945
-3.569830395032559
-2.88794746446967
-1.697046634707849
-0.7915119985999926
-0.31021050267470124
-0.17316946730916546
-0.6002857900533038
-0.9328502897732213
-1.0462530207087202
-1.02514037044679
-0.5540125633214189
-0.06715146460455713
0.7180736613521315
1.5004212319993777
2.061271613599663
2.3934252862947853
2.925924115391596
3.300904283691843
3.5062424240210786
3.4375001370475493
2.8251274868602976
2.435611922085422
1.9120290482500855
1.7168749895208921
2.048491842463085
2.4160260290682403
2.4736013401026606
2.4382289213643253
2.552412516990907
2.2996745893421484
1.8456134144503247
1.783574378381731
1.964762730337651
1.6256454115814034
0.9659948836856481
0.43887241449014114
-0.09077123621101052
-0.29050461481716083
-0.5341233954241944
-0.6140609845069025
-0.2883558068791992
0.2955183356788036
0.9254101437063145
0.8641553560245204
0.35470052090131865
-0.5217053375788463
-1.2146152936384946
-1.4401140284559337
-1.5235090299733993
-1.6108337332385618
-2.139744904711982
-2.7291507768268137
-3.4565120278638344
-4.58759779059104
-5.835811511212749
-7.294501209850907
-8.734751193355406
-10.074698160755768
-11.015751735663722
-11.634217185750863
-12.19235343095104
-12.589198290188023
-12.698238143831714
-11.944412350256018
-10.163973126551502
-7.705696918097801
-5.1884539394359015
-3.11801630356707
-1.505961614362648
0.007779078325134978
1.3364432140308053
2.493230429363683
3.6620326527906943
4.416517198653859
4.312055338084196
3.5711532472137355
2.245514254546969
0.8359230747803021
-0.1623572876150246
-0.9520746319411308
-1.4822844989430357
-1.8537381440900866
-1.881558525098048
-1.5076067256680952
-1.2098025619089874
-0.865407389990982
-0.4685856213184702
-0.15915382914543125
0.21677198376233983
0.5616020598679436
0.742964488129758
0.9562618023614035
1.1331844208351909
1.0827127174613864
1.1743960895887604
1.2578724698111836
1.2178501913115642
1.1527349245968348
1.0436787056422263
0.9197741134975107
0.8957665475789329
0.5577176421498038
0.11371565156641686
0.15061477884138919
0.7000473830125965
1.3697340045716142
1.7530912656610191
2.037932009603851
2.0775389505475164
1.8715222389660633
1.4926345855362162
1.0281519912977675
0.6701182984923233
0.38695174940347915
-0.22037779995761664
-0.8540977061458601
-1.0401585748446514
-0.9105900900578335
-0.6167217481772835
-0.22480256675241594
0.1686692019898898
0.18228225182724178
-0.49561601210254075
-1.448823488403813
-2.302183146899595
-2.825707311674222
-3.2600979764122737
-3.763154079878059
-3.8887382521554943
-3.735793316291206
-3.489983790085662
-3.18278273505488
-2.7338028092924547
-2.540286652316897
-2.87950748227696
-3.1861639049310155
-3.5156480110865056
-3.958863660031808
-4.226095773953014
-4.044313059743749
-3.5310907747289244
-2.5471026650604207
-0.9296732275438531
0.914334474717907
2.599265235995896
3.8315722967250623
4.716257344644312
5.257603109204355
5.603604900861893
5.690971818599381
5.604846572544553
5.415827891492323
5.098184545513934
4.761645587801972
4.32857023167616
3.6832195463713897
2.828774735269734
1.8191639068362733
0.834223193062258
0.0477698256088497
-0.41788129833381826
-0.6568283366114194
-1.1280430114403095
-1.6851112818964815
-2.1859194136800855
-2.5034226402903386
-2.3109881735695725
-1.9977136704853165
-1.6022369066677982
-1.0259118632828141
-0.4359783739168889
0.13367904030518266
0.5566209243233453
0.8419912773863858
1.029687355266672
1.4103285210679632
1.8417583584097446
1.795100496252856
1.3865695828832634
0.8498732776915504
0.48927607954726554
0.6121505472407236
0.9926774679942156
1.5032198096299418
1.8771692541288678
2.124534710719125
2.231953300608969
1.9455105500108858
1.647280896968231
1.2359479776803104
0.5498684053339488
-0.3887957316620797
-1.5178423578246538
-2.725860855584708
-3.8021872557241063
-4.602700468847789
-5.02626431930014
-5.029089554030811
-4.701902092688593
-4.051239591509505
-3.181261763353463
-2.307327640891912
-1.7555992970187564
-1.5167043409467482
-1.4486916938278505
-1.3135694319092226
-1.0062278882456888
-0.35626304275587645
0.45951100446258253
1.311542725567838
1.94502387664896
2.1922342247010715
2.0658294637306978
1.4702380926902359
0.8583543110135596
0.598920717671288
0.684077733901479
0.9356084970626896
1.0006331922900498
0.7124960934353285
0.19604144141472643
-0.31092731984248206
-0.5004618307897367
-0.3539361239791952
0.05611040247200705
0.5170848443749118
1.035674998277014
1.5309561434705443
1.8640928684138824
1.825854163874645
1.5855664812906223
1.186428297070268
0.74199413387703
0.7618306975484751
1.2862281395365367
2.0674307355545922
2.8851754365277427
3.4825012273121683
3.5332744118576587
3.1035648628940793
2.173320947480538
1.2733008260896457
0.9022060343153849
1.2067760432012482
2.0306927630519636
2.8965190878318126
3.479744684044638
3.4032261595357856
2.797596510841664
2.0283842294656083
1.298833260718346
0.5503911984835066
-0.14289990282907075
-0.45038869282981
-0.4775131073092179
-0.45176311123836943
-0.6183420734106623
-0.7916325897338133
-0.9227432530202724
-1.1559902542382106
-1.4723414235089465
-1.8016343993441588
-2.20298391779749
-2.749038624270125
-3.048965895858119
-3.319926645482305
-3.6584480395782886
-3.9453398109689566
-4.277886516969978
-4.7800085068313685
-5.4228056672051075
-5.718414820218594
-5.612973741843066
-5.37172373897814
-5.221768920417296
-5.139680093411303
-4.989655762779464
-4.51805696461155
-3.9096823583366103
-3.326053495888234
-2.5665218232541913
-1.7346697745704485
-0.9745073497041182
-0.16164023776428005
0.7337276266396286
1.4837158774206822
1.957276786758758
2.0145898076783717
1.8073885794065592
1.45226759225682
0.9250295014276849
0.344881123390371
-0.2649689887189744
-0.7529062331291202
-1.1049445504144835
-1.341377991547919
-1.2664767971927025
-0.9875089607226419
-0.44386594501893645
0.045114144164600266
0.3560980965589787
0.3762428800403464
0.1018035765495706
-0.3554164626937728
-0.8000502643774192
-1.077207528782334
-1.180316422160138
-1.031908868510148
-0.8497649365685941
-0.5701430197585002
-0.12055088888822255
0.3060664432709332
0.5190910485932269
0.5099250554171406
0.4580956242733213
0.602036566380195
0.9743556013172768
1.3925506096222762
1.5224505125501837
1.5540803868191055
1.4891830903337162
1.262121648327969
0.9362159806006883
0.5271062716755032
0.22557990166099204
0.106731694510099
0.3002521504030822
0.9215228582773012
1.6484601137282648
2.2533816858668234
2.8081402720979076
3.0723556259760576
3.0058359534535835
2.580619081968519
2.0818407404041865
1.8213262152718879
1.6902489285878346
1.7425167479259493
1.809944848662086
1.7271376975240875
1.5855568947002754
1.5348916575419718
1.5001572170524202
1.3879129737648765
1.297076171672442
