AAD_Filtered_TADAS_FILE
AAD_BASELINE_CORRECTION: BASELINE REMOVED
AAD_FILTER_TYPE: BUTTERWORTH
AAD_FILTER_ORDER: 1
AAD_LOW_CUT_FREQUENCY_HZ: 0.025
AAD_HIGH_CUT_FREQUENCY_HZ: 40.0
EVENT_NAME: 202302060117
EVENT_ID: 13194
EVENT_DATE_YYYYMMDD: 2023/02/06
EVENT_TIME_HHMMSS: 01:17:32.00000
EVENT_LATITUDE_DEGREE: 37.288
EVENT_LONGITUDE_DEGREE: 37.043
EVENT_DEPTH_KM: 8.6
HYPOCENTER_REFERENCE: AFAD
MAGNITUDE_W: 7.7
MAGNITUDE_W_REFERENCE: AFAD
MAGNITUDE_L: 
MAGNITUDE_L_REFERENCE: 
FOCAL_MECHANISM: 
NETWORK: TK
STATION_CODE: 4409
STATION_NAME: 
STATION_LATITUDE_DEGREE: 38.56063
STATION_LONGITUDE_DEGREE: 37.49076
STATION_ELEVATION_M: 1055.0
LOCATION: Kahramanmaras_Pazarck_Turkiye
SENSOR_DEPTH_M: 
VS30_M/S: None
SITE_CLASSIFICATION_EC8: unknown
MORPHOLOGIC_CLASSIFICATION: 
EPICENTRAL_DISTANCE_KM: 146.86
EARTHQUAKE_BACKAZIMUTH_DEGREE: 
DATE_TIME_FIRST_SAMPLE_YYYYMMDD_HHMMSS: 2023/02/06 01:17:37.3461730
DATE_TIME_FIRST_SAMPLE_PRECISION: millisecond
SAMPLING_INTERVAL_S: 0.01
NDATA: 12501
DURATION_S: 
STREAM: HNZ
UNITS: cm/s^2
INSTRUMENT: sensor = ACEBOX/SARA | digitizer = 
INSTRUMENT_ANALOG/DIGITAL: 
INSTRUMENTAL_FREQUENCY_HZ: 
INSTRUMENTAL_DAMPING: 
FULL_SCALE_G: 
N_BIT_DIGITAL_CONVERTER: 
PGA_CM/S^2: 27.957
TIME_PGA_S: 
BASELINE_CORRECTION: BASELINE REMOVED
FILTER_TYPE: BUTTERWORTH
FILTER_ORDER: 
LOW_CUT_FREQUENCY_HZ: 
HIGH_CUT_FREQUENCY_HZ: 
LATE/NORMAL_TRIGGERED: 
DATABASE_VERSION: 
HEADER_FORMAT: DYNA 1.2
DATA_TYPE: Acceleration
PROCESSING: Automatic Paolucci et al., 2011
DATA_TIMESTAMP_YYYYMMDD_HHMMSS: 
DATA_LICENSE: U (unknown license)
DATA_CITATION: Turkish Accelerometric Archive v 1.0 - Disaster And Emergency Management Presidency, Earthquake Department
DATA_CREATOR: AFAD
ORIGINAL_DATA_MEDIATOR_CITATION: : AFAD - Disaster And Emergency Management Presidency
ORIGINAL_DATA_MEDIATOR: AFAD PROCESS SERVICE
ORIGINAL_DATA_CREATOR_CITATION: AFAD PROCESS SERVICE
ORIGINAL_DATA_CREATOR: network: TK
USER1: GuestUser
USER2: 
USER3: 
USER4: 
[...]
-2.8770143364275476
-2.4632631769782414
-1.7222609426934432
-1.4695026269860205
-1.58203150730481
-1.6642451831079301
-1.5080953875116543
-0.9501371805669931
-0.344779457261934
-0.0841469082116358
-0.626664673719155
-1.9058896843415178
-2.73002427070784
-2.795216804520118
-2.85612720376973
-2.9555751721527246
-2.7893638263679823
-2.431698022326205
-2.209273855068486
-2.1413271762606363
-1.908045623461436
-1.667519154277386
-1.290170254726522
-0.2578080492828138
0.6315782581259104
0.4155144425450426
-0.3791859432846774
-0.9026093305916209
-0.812923743398855
-0.4383088717034847
-0.4942769882474848
-0.9086779160060536
-1.037540153339742
-0.6341353371586018
0.3188788503513477
1.6717141702644929
2.7945653625621936
3.1321709130560818
2.751856354292216
1.8801377429010837
0.7944767321058276
-0.016516684451726014
-0.3277761868054199
-0.20732826705839413
0.03346714290892789
-0.08729697164655949
-0.16710192059295992
0.5152522803654177
1.2113538589161363
1.0049175848714893
0.40971963901503605
-0.057435198618875055
-0.5628504300269151
-1.098222310342701
-1.3779662765627554
-1.0005406420315266
0.1374329306583074
1.3056456261858596
1.7438031521787278
1.6857946566489204
1.5603510031210375
1.3178402190425909
1.3198949688230799
1.999948335110469
2.901612782433178
3.6156121312608662
4.1895192386842135
4.462981229651841
4.519843253624864
4.740504867486216
4.999552693468022
5.1402419027589055
5.364946547945849
5.33372019857742
4.4753367257146675
2.983492698697209
1.3508875252466286
0.08928890097685944
-0.46391569601178834
-0.8627104115831684
-1.371002088673133
-1.261273196419913
-0.7520661368139523
-0.8156013801051626
-1.2742394978581508
-1.5857106474350655
-1.95505976653705
-2.378040637634578
-2.152360346048349
-1.0542278700436645
0.06494470074753744
0.3109028863180175
-0.1787100054729665
-0.5701365993721276
-0.7231226511971733
-1.1416056070999727
-1.745031235550193
-2.125654514557359
-2.0836453592038215
-1.703287118847251
-1.3077320058873338
-0.8816938161785902
-0.547819534018641
-0.695318636274347
-1.023547125139825
-1.2141214219594312
-1.575822000786996
-2.386438191316352
-3.4782459938910604
-4.480018610168224
-5.23123447804869
-5.370080063720854
-4.736187562364073
-4.069123886098652
-3.6395314447239797
-3.0644482287504
-2.4264603405000895
-1.962344771626158
-1.8090976018936251
-1.8561082249085226
-1.6674990982480713
-1.127080609053483
-0.6088445577888929
-0.44964837783553346
-0.4159679792176937
-0.16405862237801794
0.2993414295905613
1.086492509993943
2.0640621702658324
2.8888711202438717
3.670552668299941
4.204972747989233
4.0075317821416805
3.275438138889646
2.5272338225934954
1.9679866550080884
1.3312552032181018
0.4319453787764461
-0.1184999669250878
0.3167152574229108
1.3646900554297072
2.1087974252417845
2.284414850942439
2.4168313770867886
2.613930522163075
2.615960700326674
2.626896839678719
2.3953871221115066
1.569109227772073
0.8303454609319738
0.4126310350749146
-0.1481368662218555
-0.8931751493350282
-1.6462543321735927
-2.0982562109565706
-2.5224229410283288
-3.475374632842378
-4.477052357075298
-5.195170212805139
-5.844700783540289
-6.067661168794121
-5.524773003590316
-4.846593298508744
-4.971891271919818
-5.4971936656206495
-5.249471850313235
-4.143744571358101
-2.8615177674064034
-1.6733220550211825
-0.2889954020252189
0.9145422846295054
1.0030746479439812
0.3372350352505218
0.025033950825365203
0.15835183598946956
0.017353616262260913
-0.25062172740436667
0.07441359331329925
0.46620304995592693
0.1630545420696033
-0.44850598748451165
-0.6577150923980747
-0.9615280253699054
-1.9241877173054487
-2.2387964771498456
-2.035403908271521
-2.6140198834521446
-2.9281368994339596
-2.918575696103326
-3.6360059383790078
-4.438417594247702
-5.076501370710349
-5.951471148629269
-6.529848434623075
-6.163103931098482
-5.411293921175681
-4.681093074539657
-3.7917396780732764
-3.143258246302822
-2.205412401895798
-1.0076426703551256
-0.5591046631467993
-0.017886419857921988
0.6528511340272701
0.684420878580704
0.4024068012119494
-0.1984250796572483
-0.4794594539100477
-0.2114303606818067
-0.16594306665656197
-0.12889500433004136
0.18322369589497545
0.3400825659519309
-0.08788793838060392
-0.4456287473603543
-0.4060123704756537
-0.6068275855809838
-1.0017915637079502
-2.1483088114122126
-3.301581381151673
-2.9790190381033574
-2.581556254722244
-2.443028291833152
-1.8356248455675006
-1.02952908263432
-0.5676276282530276
-1.1926581460195502
-1.1774058472943114
-0.596721718071337
-1.5536613787983893
-2.069564435096325
-1.8372151811629451
-2.4603001602859598
-2.902060698243224
-2.7234294578082197
-2.490034389843531
-2.427529231421169
-1.3674419973452034
0.010769359210322484
-0.6026540270357413
-0.7557066027790948
0.6380516079918813
1.4780239656721
1.9705406967323769
1.6774990866676531
1.2540117081537694
1.0971354167457161
-0.4739873682086316
-1.9720247846930046
-2.6933684654043364
-3.3182671084004904
-3.1432119743492333
-2.942625113275947
-2.6145971668894212
-1.740234659276994
-1.0623641484683761
-0.4154389382461962
0.5606435125957021
2.0935691042105904
2.5865131840975417
2.188808050361842
3.461758815650299
3.662023204871089
2.5699661773645577
3.9330674513749226
4.338192946851792
3.8383311397731865
6.492850065059798
7.296247454485796
4.848420735836399
4.557233761293312
4.850230684115831
3.2876149958664485
1.7604644126161815
1.237119634710202
1.6505797286072663
1.628806575252971
0.8031424446788188
0.8670225831811289
1.630629142580105
2.220517660657577
2.6102596520337564
2.421222502371558
1.1712163209027966
-0.3157335652374957
-0.4281963514927507
0.006336991304549466
-0.35572498237521655
-0.9925256419821956
-1.4295559815799102
-1.7592291857549258
-2.540376056950263
-2.6622656541621255
-1.6681489524931403
-1.8895208493319322
-2.267463483259425
-2.054896664546188
-3.2101979111898196
-3.4465408101588246
-2.5895166685813966
-3.780310542260089
-4.666838664453177
-4.158207868260213
-4.996703882446417
-5.659023466139124
-5.425884768351344
-6.195167940038697
-6.435753541760864
-6.6391998053905175
-8.320136528126818
-8.679837639770524
-7.778537415955218
-7.4201211588592475
-6.575039337637887
-5.644038233522122
-5.032096651265103
-3.9731427088791684
-3.0480884612894656
-2.086760042688721
-0.2522600045258434
1.4281737247170672
2.0116832038129226
2.2528006147137387
2.4228743119640463
2.4528563104353975
3.1373608338791352
4.516725373813479
5.919308325551745
7.051410228944277
7.683709083628702
8.133103289647993
9.207187228845457
10.8142089499796
12.440724119289625
14.355552406918578
16.135800952089745
16.642331756124353
16.170191009561755
15.398718547332873
14.553103204709323
14.236380220524653
14.272361243570717
13.865962225271993
12.885235361780511
11.096385039860856
8.726204792115478
7.011724680575415
5.788221797301663
3.8199386653589524
1.4016581289510959
-0.5393985733583886
-1.8706696190932675
-2.61304592236828
-2.914777131972602
-3.7908058985887405
-5.31862653808333
-5.9990812528792095
-6.321984004481987
-6.935283848194247
-6.372943168242916
-5.447472674836008
-5.290273129003313
-4.5251413996251895
-3.104250623908586
-1.8863586784926534
-0.9456775902249808
-0.1912594046452808
0.4220811718525524
0.5995986246034141
0.7091197382154669
1.0889108464850334
1.4731999135413132
2.030988665317856
2.377898854812221
2.342572045259496
2.331712716899431
2.3103765010520405
2.8804165498820535
3.6252076426469637
3.4644720434294607
3.5554650709452376
4.110574200638508
3.7633477425809003
2.7884662939471707
1.585234537106334
-0.14338844203168907
-1.9673569904007195
-3.2620285344581275
-4.175608970744313
-5.057216935240122
-5.558861390692925
-5.498134357964257
-5.182860864677905
-4.9392337514513125
-5.089151943527493
-5.285996194567244
-5.337360448076116
-5.504025856287993
-5.566164669918225
-5.58925938233673
-5.689114026659265
-5.852858785955589
-5.871922050436926
-5.234620352771153
-4.765967481485067
-4.780143351710417
-4.448584994471758
-4.171246432499793
-3.680594677009638
-2.9595886984029796
-3.2321110794411356
-3.623711384662513
-3.6663839392762188
-4.647859588620582
-5.960431642346978
-6.256997757975988
-5.528803100655116
-4.537666029419775
-3.8171456371746535
-2.8249281625023133
-1.2403372783447744
-0.16371932077997112
-0.8171610910262367
-2.6015383749160663
-3.555624494869254
-3.5753456707463243
-4.306482018090889
-5.90817368250797
-7.496465173554877
-8.549422685408324
-8.655863766748588
-8.073512364220576
-6.956856152122449
-4.812775343462914
-2.243638942042953
-0.10906795963265191
1.943587571584524
3.667999211561649
3.7603999240449397
2.3893162468078053
1.5796728283483916
1.844651706672155
1.8645984956442714
1.8011939961423313
2.2259524254581966
2.638464597010694
3.1846061791268645
3.7884668521641736
4.023665742151345
4.296419671766579
4.359681513507079
3.7636338697863616
3.2623353214930315
3.7015786315669406
5.299733525494065
7.5300030538255935
9.513946283910249
11.051853544656376
12.295543374311832
13.057938160218486
13.350667472372328
13.693560997364061
14.10782730526299
13.70360305310728
11.843247461418645
8.804040602327813
5.499672082590631
2.994691973897322
1.7233286140798156
1.5415443947208964
2.3434830151749546
3.539981241799452
4.215044312223008
4.606650656855446
5.184328409610005
5.195875915642218
4.31236599240738
3.2279963845551567
2.5844562180431834
2.8124895332572777
3.2185515346221645
2.7342699593958963
1.9621980228944889
1.3420114354005237
-0.1330409479823162
-2.568289075075164
-4.828304249657455
-6.459284766306182
-8.13153912766224
-10.25885470005522
-12.156238004826895
-13.542141213307913
-15.150478013628634
-16.88471547870129
-17.977869885898375
-18.58625427387172
-19.008201543125843
-18.845556332330002
-18.002745346666178
-16.989365045727435
-15.65318302292223
-13.274238332855573
-10.416697933023912
-8.224256493421514
-6.564289961508293
-4.892470418341006
-2.665276321670483
0.4890577145400094
3.3993234992478616
4.926633494080674
5.514296184382133
5.655417429514165
5.767232367913633
6.090311283810634
6.003990053835464
5.625599295793059
5.668382717276141
5.749232531097554
5.246578247334275
4.233303103645935
3.3905753391791333
3.4164411483100747
3.763582788659208
3.0889512957042045
1.010712861623002
-1.6657651799975892
-4.120551149904312
-6.047060060055842
-7.363680280887137
-8.25778716097583
-8.91284064738401
-9.38935594393451
-9.63987598064386
-8.962524171594682
-7.284736283453845
-5.5379185505481185
-3.484707179580137
-0.7652892564393228
1.6254700117580758
3.324183484177644
4.847581925771634
5.9999643591172855
6.198215622929309
5.435877189925003
3.9791484114001943
2.058634225815036
0.10765710483071785
-1.6595559655279672
-3.0935066106330225
-3.586963468467168
-2.9802886255585626
-1.856154177759843
-0.6705339104761838
0.48153714881837933
1.5197355829465995
2.288376517770439
3.1540084096984824
4.60628406861938
6.0548127116372115
6.7780901130839615
7.354774044946173
8.62625813852611
9.929887678783627
10.163764661921958
10.108742439865251
10.62875786829538
10.589007249049935
9.398557605228701
7.8921530462028056
6.442422127499863
4.991818971148278
3.431354714958839
1.6077445472310996
-0.503246675314363
-2.8734472713338257
-4.973600122822741
-6.2113376050042906
-6.894706103310574
-7.540596273098233
-8.035427388061654
-8.232051626462056
-8.845259520645971
-10.313292810266224
-11.310336487085452
-10.580568660677587
-8.802864130015395
-7.3778294228539805
-6.534056377946092
-5.340965110217505
-3.8351026363365146
-2.803291765676283
-1.8560971107683917
-0.6341053316763338
0.5085544486008831
1.2028393666809936
0.9280448554310723
-0.04150444726898278
-1.0370597373033728
-2.0083894569665652
-2.733858537319473
-3.2632747539446294
-3.92464229061421
-4.75434936925665
-6.254593570673494
-8.508041482374166
-10.441009830933966
-11.296364856551106
-11.444408365261399
-11.587816541839626
-11.453557104659044
-10.258846758626664
-8.263902072218182
-6.131669478570151
-3.73131369871094
-0.8707763329430801
2.0459285445686706
4.459134284785079
6.054188097813985
7.534777455783233
9.868384409486247
12.107425272237553
12.941979107198312
12.66801668341584
11.877072456778606
11.272961747999455
11.376410497336304
11.561716977157014
11.327928814076744
10.768554867814203
9.710196665945688
7.916329478520339
5.3188775889913735
2.503328642068414
1.0621803196530726
1.148354791984669
0.56537353694378
-1.1496583235776228
-2.3082143201308982
-2.848707001466547
-3.536990339083945
-3.9403963081272635
-3.744066231503539
-3.7040009605302013
-4.395402677127762
-5.290897083869208
-5.609284470878319
-4.706820653652002
-2.62649915087785
-0.4634010034839377
1.455496536462904
3.4668733961597975
5.690268142049503
8.652677039862947
12.218903265814438
15.934284357039372
19.78068022116158
22.972037391578134
25.30865797821374
27.267094398579626
28.00191386364722
27.041471534693866
25.343129719812218
23.42307556061232
20.899771701029238
17.528690871972017
13.732631525389394
10.09520402969539
6.894837872410873
4.1109386210531635
1.4420926071527063
-1.366051424134793
-4.528924304443776
-8.20206165776204
-11.540169814471664
-13.358401731763713
-13.704938460500852
-13.015325740295308
-11.587752164544495
-9.817058095520716
-7.592144494542239
-5.036011108043975
-2.649259714347993
-0.9456066886336493
-0.7082719932533593
-1.8678962356157434
-3.997765054866552
-6.813519275626269
-9.450853428561732
-11.885225573233772
-14.309646362115123
-16.117405943652834
-17.329821232306717
-18.11257456484526
-18.443091586909205
-18.357553793679642
-17.568210417972715
-15.992753132731393
-13.692889774234493
-11.15318130394552
-9.021146657943522
-6.852613121630718
-4.742520566712686
-4.054275856972439
-4.924928814344741
-6.065713832996016
-6.773689144333687
-7.551779464814672
-8.960014587059591
-10.269830313454666
-10.210005395828334
-9.072618362775264
-8.106763378833225
-7.343234950666083
-6.341781163023169
-5.385044196575432
-4.7416580527041585
-4.156823459163839
-3.1189577154282633
-1.9548948276358071
-1.3464210766121767
-0.6134472962017269
0.8422130365445063
2.6014338910457173
4.639979718501248
7.1280489994262135
9.952100675817727
12.718514515451812
14.894704341078969
16.42525752090103
17.407423895207597
17.807509743168737
17.97097357674817
18.479750992390766
19.019982711343715
18.668085922632713
17.950518624653384
17.937655307565883
18.29000243559733
18.477834309384875
18.402010112206135
18.058552147577736
17.82926182863636
17.66995429701767
16.681350216440354
14.39003890449452
11.740122626266801
9.908053233836286
8.81543081562848
7.83554707005735
6.871722033596224
6.696453365237352
8.036411440073705
9.954865845116938
11.266510241042075
12.422133301042791
14.008110159143895
15.5432377535226
16.19540246490528
15.495607380693928
13.541483952110209
10.842727698663381
8.27281010319804
6.41868115271034
4.761666098345892
2.777325385178825
1.0805339120865525
0.4618481861465418
0.7147221488230874
0.629584797691947
-0.3939099950388043
-1.1173102105161978
-0.9287677119011134
-0.9120467552666698
-0.6582709213376217
0.9055756391867783
2.491301773707063
3.006007360652473
3.3236696033941007
3.731788770766328
3.5945873722358104
2.593539634671469
0.6479066991993246
-1.4608288994890402
-2.4623437639172723
-2.6284175786386568
-2.8480944574227367
-3.031349883520597
-3.2686674169305423
-3.7302809072309135
-4.100015055320973
-4.530939426373538
-5.59331433447722
-7.798371137678659
-10.7950726613635
-13.374860685601966
-15.119580405454068
-15.889226810470177
-15.194588356386781
-13.321599502463563
-11.23880140311067
-9.903185852989829
-9.097360613520069
-7.675215493425542
-5.579680064610611
-3.3383156640186127
-1.2764111879665416
0.19893179860919427
1.0303774975655329
1.2323843639266767
1.1461410384079656
1.3149646072338934
1.1588150046579444
0.011996196996623706
-1.5026358023346977
-2.6464057383780157
-4.0749914354999355
-6.814261322720685
-10.065375715264002
-12.671817860176638
-14.932981739703603
-16.787544630471608
-17.613589866722666
-17.483996012890348
-16.78754869642006
-16.132546748670286
-15.839280787495015
-15.378095771879105
-14.199788101472093
-12.29049886060266
-10.383789302019501
-9.39023114084852
-9.398503963605918
-10.066814896913328
-10.898887607094844
-11.54960116987859
-12.25079237691858
-12.841063873513475
-12.85890496321237
-12.314115661155775
-11.314848022071988
-10.211188697129282
-9.29707942644971
-8.313961103304228
-7.198974854782421
-6.14698933826624
-5.066693051633415
-3.88502700645303
-2.9844925411352374
-2.6650867896964057
-2.548384509339648
-2.3036592598423957
-1.9491544950619801
-1.1055260873645159
0.6545979156588101
2.85318929284998
4.855335495450029
7.1624867576077484
9.950610024342323
11.910882102021274
12.753115193945058
13.474871591532967
14.080720161784365
14.553975618812302
15.183826738417988
15.26117795188144
14.840216457203063
14.864821689943549
14.811616875669147
13.800343251202362
12.013927049437575
9.796754933540894
7.51486278506591
5.638796096810356
4.285932911479745
3.2983522545355206
2.626764442194404
2.2385260337283324
1.9994958446416082
2.1293701179802094
3.085147150377966
5.019019466240175
7.655705882875795
10.346851945403131
12.699199576806985
14.55820061221543
15.490097604997292
15.43340087219286
14.571088821646113
12.864570347549053
10.687633959682659
8.362535970704439
5.975454988522208
4.395654380340552
4.411120937123379
5.675371777759467
7.684477751552181
9.847362058623268
11.027201139105134
11.077543955495939
11.11280931146656
11.357574632767
11.0665247550107
10.187901787186512
9.25941239188909
8.233982339921853
6.779914333045174
5.565435128332797
5.186554522053063
4.57021305895643
2.9203194279086766
0.9277290282074101
-1.169428821087851
-3.540146415417162
-5.422255105304802
-6.138493241080173
-5.794089845140492
-4.668165142379537
-3.444340910588785
-2.732583939419192
-2.2121432263573872
-1.6021699285413131
-1.1391610472375695
-0.8416377293200652
-0.5479556104137107
-0.42953834351159437
-0.809328457393965
-1.3064225732624577
-1.287007496395909
-1.0398837912654804
-1.3828086114519575
-2.629831613180133
-3.8754529755313087
-4.3300390789372845
-4.825190322351453
-5.473827268869534
-5.05692440219238
-3.5343943961544184
-1.7118664137916122
-0.07531554115511754
1.307705604626074
2.4943709055373544
2.918390619595376
2.4480859053398225
2.1432510121952224
