AAD_Filtered_TADAS_FILE
AAD_BASELINE_CORRECTION: BASELINE REMOVED
AAD_FILTER_TYPE: BUTTERWORTH
AAD_FILTER_ORDER: 1
AAD_LOW_CUT_FREQUENCY_HZ: 0.025
AAD_HIGH_CUT_FREQUENCY_HZ: 40.0
EVENT_NAME: 202302060117
EVENT_ID: 13194
EVENT_DATE_YYYYMMDD: 2023/02/06
EVENT_TIME_HHMMSS: 01:17:32.00000
EVENT_LATITUDE_DEGREE: 37.288
EVENT_LONGITUDE_DEGREE: 37.043
EVENT_DEPTH_KM: 8.6
HYPOCENTER_REFERENCE: AFAD
MAGNITUDE_W: 7.7
MAGNITUDE_W_REFERENCE: AFAD
MAGNITUDE_L: 
MAGNITUDE_L_REFERENCE: 
FOCAL_MECHANISM: 
NETWORK: TK
STATION_CODE: 3141
STATION_NAME: 
STATION_LATITUDE_DEGREE: 36.3726
STATION_LONGITUDE_DEGREE: 36.21973
STATION_ELEVATION_M: 111.0
LOCATION: Kahramanmaras_Pazarck_Turkiye
SENSOR_DEPTH_M: 
VS30_M/S: 338
SITE_CLASSIFICATION_EC8: C
MORPHOLOGIC_CLASSIFICATION: 
EPICENTRAL_DISTANCE_KM: 125.42
EARTHQUAKE_BACKAZIMUTH_DEGREE: 
DATE_TIME_FIRST_SAMPLE_YYYYMMDD_HHMMSS: 2023/02/06 01:17:33.6594550
DATE_TIME_FIRST_SAMPLE_PRECISION: millisecond
SAMPLING_INTERVAL_S: 0.01
NDATA: 12501
DURATION_S: 
STREAM: HNN
UNITS: cm/s^2
INSTRUMENT: sensor = GMS+/GEOSIG | digitizer = 
INSTRUMENT_ANALOG/DIGITAL: 
INSTRUMENTAL_FREQUENCY_HZ: 
INSTRUMENTAL_DAMPING: 
FULL_SCALE_G: 
N_BIT_DIGITAL_CONVERTER: 
PGA_CM/S^2: 961.116
TIME_PGA_S: 
BASELINE_CORRECTION: BASELINE REMOVED
FILTER_TYPE: BUTTERWORTH
FILTER_ORDER: 
LOW_CUT_FREQUENCY_HZ: 
HIGH_CUT_FREQUENCY_HZ: 
LATE/NORMAL_TRIGGERED: 
DATABASE_VERSION: 
HEADER_FORMAT: DYNA 1.2
DATA_TYPE: Acceleration
PROCESSING: Automatic Paolucci et al., 2011
DATA_TIMESTAMP_YYYYMMDD_HHMMSS: 
DATA_LICENSE: U (unknown license)
DATA_CITATION: Turkish Accelerometric Archive v 1.0 - Disaster And Emergency Management Presidency, Earthquake Department
DATA_CREATOR: AFAD
ORIGINAL_DATA_MEDIATOR_CITATION: : AFAD - Disaster And Emergency Management Presidency
ORIGINAL_DATA_MEDIATOR: AFAD PROCESS SERVICE
ORIGINAL_DATA_CREATOR_CITATION: AFAD PROCESS SERVICE
ORIGINAL_DATA_CREATOR: network: TK
USER1: GuestUser
USER2: 
USER3: 
USER4: 
[...]
72.06414910669035
104.25545926861057
112.36950972685497
62.23959872125443
-3.463582071479653
-36.88548668750615
-41.95696803076975
-40.73295782113966
-44.436778204061255
-38.91193903901693
-13.732156302767171
18.58105973327831
37.43252740876923
37.32733217794239
27.25594406972431
17.56476282662844
28.006152466010292
53.41378583794654
59.42401559313014
29.6945935875023
-5.295142599223893
2.114233605237298
33.537184171050605
32.78689493887015
-7.188982627519785
-46.880323630718074
-48.29667341260191
-25.461453101320448
-27.910764955221996
-55.60996918032783
-57.13256575814341
-20.095676418100172
22.5998423517976
48.69261627937529
44.79949737179678
15.413637126189823
-4.145445475965097
4.039003905159565
20.82877894349954
26.139189816708807
23.873147854940107
35.863438827389295
68.6287869760922
97.29464204330455
96.9488797033841
78.84987815032399
68.83913739652358
58.15526507829512
27.18888220012559
-10.557112898833468
-30.164907968571633
-30.362508480793473
-33.009407121987486
-50.11941782566648
-68.49788921274502
-69.87500172901572
-47.444741064480006
-16.662747570791367
-5.601146892472146
-22.065185778867807
-40.659568204777635
-31.08518004678538
0.8147636989445426
25.31513466521425
25.072628149422627
2.7186078368723523
-9.04092943323237
20.703582442185642
66.19300753175244
82.54846193232245
67.32190466118035
48.22159582148183
48.69225235947009
69.8046420007725
90.85007085128154
97.94009125308433
92.68850637110792
76.76796577542788
69.02088293217165
90.68379561363723
113.56681303650973
99.23036415378752
67.1583520152722
52.631615055769075
37.00667236271806
-5.783962510756631
-45.61940717122579
-52.84566009436835
-50.26474349357803
-60.62063756443254
-68.76423768242186
-65.26272555205274
-64.55005688482866
-71.92191796835287
-81.98649461988362
-93.06728077807581
-101.38547444923644
-98.26353363429156
-80.79445813871828
-61.1505924628206
-51.94772752997985
-40.99033539604843
-13.488866984042726
19.827194904278592
48.46659997290653
64.22790818410832
55.91680646346007
40.14216120336351
39.007755282767484
51.34501223238929
72.37097039578799
96.21694870487042
110.08404129880867
101.79127910638454
73.29958215950022
42.27205161923036
22.838357277650594
13.513325254482924
10.242163409949887
1.1153218725180214
-35.34882649033296
-89.05554024185358
-120.35502148242013
-112.3723329047103
-103.39939711277034
-126.4237100417194
-149.79474418953507
-136.21374457322918
-87.70014109488763
-38.8143209317275
-17.094932440667744
-13.943281536275691
-11.76948179716654
5.821176616582328
35.76761347037847
54.60515495534917
53.933004480441916
44.236952107870856
44.88356331287287
60.81003075522934
85.71881194100403
114.21665284286213
126.88435718430104
123.79321175160062
121.99063602166116
113.6505814992566
94.37316098683839
69.95979514727365
38.23304052836176
3.5161754737031714
-24.523114289146918
-39.31761936339434
-50.72579668494799
-75.21261627445314
-98.05495017598173
-102.75820542441612
-105.47683285342822
-120.6426226743543
-144.44848446438132
-158.71668458464825
-142.41648804507633
-107.99146658261328
-80.13952749541302
-58.61018436543619
-40.28565254041167
-24.401835870792485
1.6240670760528684
48.25818612641506
100.76946502287008
139.59195556597533
164.87335562216842
179.67504084529574
184.70926443912037
179.43025880025678
169.4188844302558
167.2528688562496
173.65097383548203
178.72298375099462
170.04634217304317
158.19629186733025
165.69787661584388
173.9029198518221
153.4035218061276
101.00332869754075
29.154548070949243
-32.216669493604726
-52.076468460290286
-22.952220930796873
19.25195755684293
24.16844910397848
-5.384197878868528
-32.27153768660768
-33.70076559928323
-6.194881829568822
29.612157121665863
49.47926173648956
48.809234306199144
40.77088199237184
46.266578005204295
63.149943883580036
73.60993608524124
78.6781853677329
74.69574568787166
49.62871201855044
16.42431535372763
-4.855750694497559
-9.995194262349937
-5.447200398907942
8.555196347761155
34.09056259613672
52.37830156389229
47.70005323709571
26.54064171953774
-2.286515189494729
-29.334607066624912
-42.11184501634601
-41.415743831881656
-43.192465331236086
-62.68255545881545
-98.79031146109915
-132.28744789155206
-144.84670592452866
-137.24213802341225
-139.34201383187207
-172.00286553187428
-209.23913734084397
-223.3373495467057
-215.24475603622216
-202.0297973061914
-198.88973229056438
-193.27152749162295
-164.26377856861717
-124.39341678565786
-106.17492830941246
-118.58069559676241
-146.4532629944237
-174.13982840106084
-188.41365189827192
-182.50272876619013
-164.6491503500702
-141.57967462754257
-101.41384016350655
-32.48899133745634
50.207315504356096
120.31768809689288
161.45968355340915
161.34977518524192
127.62474522399017
74.81135750404677
6.101111198570188
-57.07544829321761
-84.61033004568988
-69.11201575015927
-30.896936236996005
6.823161278636133
43.02445079645642
74.3058289907209
73.10337282770244
36.66330639712845
5.828123452046389
-3.5506660652689583
-16.141668486826685
-35.664955516639715
-36.83278718006071
-25.344673973228137
-34.21529339209992
-69.3507340315254
-109.16612044438943
-132.93168105831393
-145.67568935883034
-163.93851233427114
-177.10807710366268
-160.49496514017812
-117.14442479795511
-69.18016525224752
-18.43360196684666
41.8361370439407
104.35992798206006
161.76049665083707
214.43740102524816
256.86687125538316
276.19060881561603
270.4740411838237
255.1548578686448
250.37780644528212
245.9337124248481
218.46877846436166
189.00049503512471
183.07495093519015
187.79491956551757
177.52571234710462
138.8570855030185
91.370560206726
59.72746359751326
45.0601754166428
41.55661100818627
35.4200021464647
17.94898977444263
15.397052371795443
57.98716239941885
116.29757673491754
131.8578873120885
106.89538412562929
87.86214982654782
82.4183958366425
66.35893583709445
44.320075258860314
42.61292254031164
66.61846587180827
92.9991055964273
100.07380135366908
105.05607403115032
137.49124460281814
183.40051429974952
211.91870623393194
214.33555384649523
181.94111480618412
132.15363952261316
118.16399034851612
146.87422641787526
165.15206638157574
132.35669321242628
85.01103801092165
80.2643505133863
89.95617000812844
71.75247125374709
38.06470451103777
3.620525950074386
-33.79051785898045
-76.38405921013359
-108.63653762157018
-125.33090712950079
-142.18969942320066
-154.79206627874134
-142.09923238975327
-101.77229586483567
-50.168622768015865
1.8321456986024438
47.55052521724977
83.97738866876684
111.76762837038802
126.20269405438498
106.70851516111433
49.31274731061297
0.611693413230721
-11.652258920083144
-14.223499983266857
-41.08314649719459
-113.07145619915977
-222.13677888903408
-325.00772785915075
-361.7044143466108
-300.269034329658
-208.7743244774154
-181.36808389945668
-222.3487024548138
-276.0631861511182
-293.82605203479545
-289.6862298090891
-298.70698223904554
-328.6814641196266
-379.2291444187247
-440.4278437911857
-486.15487628914315
-489.3687040831667
-460.67780743175524
-415.2084022224174
-371.4304290943978
-364.3954191911912
-392.3535608870432
-407.78583330065095
-342.7511418486793
-226.18029500194856
-145.05091829910808
-108.99029456349695
-86.15801282273809
-17.12508209906679
98.60985616671773
212.35581317060377
289.38072681637027
298.65640874975054
235.16640591014374
68.99935402855111
-113.60581311267535
-200.37636113373372
-244.67889273517275
-272.4857245557468
-275.7987983646808
-225.54684621559437
-92.49869783314551
67.9548494341293
201.8827502967356
295.1985947787407
392.80840181709493
464.8621518343092
410.92392300172656
272.9728056032928
180.11235766504953
166.52086963857357
85.84597755999405
-117.96059133532015
-242.78859065685242
-141.8610201834017
68.36643276124525
168.63606134768474
121.06724645235316
38.895790180254124
25.062452263378812
119.11799865203467
265.7438464125402
403.86637752600217
478.60990635468687
502.6028515569559
547.3597413043047
586.701393228355
535.3072526815058
347.8948327085784
166.51705478197064
75.64417424375576
-10.08985792341428
-95.6137387562835
-183.74175997002186
-204.42984776488169
-141.91092578097167
-135.01218236936523
-221.2793478383077
-357.3754533886386
-445.92088838296866
-403.7421633477195
-314.77693553875474
-278.82002223850355
-278.1141379349041
-293.0565103481947
-312.74229516803655
-282.99916717582784
-155.8697360962882
12.302122600170495
137.67156029962072
220.03695254573248
251.1011532035149
210.53795997700078
95.94146928896305
2.414261062839698
-13.059544879468312
-43.648468738156566
-83.37649328890082
-129.8349604564466
-192.99540006617627
-207.85146962449568
-175.17403995418607
-123.67386735548202
-75.58281663598724
-19.803989889406832
44.13436003607353
106.29675732278255
182.31612730415327
259.7904046349194
332.22223982286766
363.7476404209565
324.1291083898557
221.59652997228383
49.31078401488608
-153.35577220674477
-328.7564112271617
-443.3865720476845
-459.1389486825672
-340.3264459817159
-146.1966802433276
-50.5111171435694
-76.59085866204987
-113.08259178697021
-176.85350449720355
-288.18798290816596
-386.219253333577
-420.5213477649012
-373.6561647238612
-255.57981375256674
-103.9360460826192
5.975666942284334
64.75222349475035
72.8352135327447
3.186650117299975
-83.75686743259875
-123.7631012350485
-143.91368485045476
-195.03358308769253
-267.94056619092515
-321.3426420283856
-295.8133622915993
-196.0732910076956
-100.31169796241188
-27.828230462955787
25.8637513912593
69.1143035021102
113.23596114607196
172.74483312951668
255.8698225690193
291.98797161822745
260.63766427418875
262.7211634448884
240.3499336106662
51.7166226748764
-142.11582483564015
-148.92941740920824
-12.764477194487121
160.4277683417146
284.2906694048355
322.14233741050265
244.13350698732089
93.77961068772768
-1.7446987597566062
-3.3769593887647735
21.859045342459453
-3.035670295446224
-75.77306158069132
-96.3099914363531
-3.8033098904557994
129.89416901274026
236.9228725270395
312.30252887998455
345.88702195774397
309.3640253471567
219.0243331021293
101.78687797105003
-49.51662422550038
-192.80215573725536
-302.113753508111
-383.16743919011714
-367.3839606264807
-182.669867140974
65.98721120855873
227.03500796049943
313.5636154343283
347.5467023852393
299.83022951085206
197.58110006728506
125.89270567462935
105.38337396770736
173.48295823498123
306.85430628812173
315.7459353353701
259.3640617587324
226.10903447010148
208.08478840975621
176.00114495555394
9.88296495516769
-170.61957132629684
-339.6916218096949
-493.68608020703493
-530.6154526521024
-522.1478410844775
-451.0911473833226
-345.9889779457604
-283.46231530150374
-257.72028734459786
-287.88531395052996
-298.9290247605698
-143.5202508453072
60.06314157932253
146.5635947353059
194.2893974922645
201.92811585977591
185.83741191660252
184.9647432474041
137.3189492406709
58.111828496256436
-5.972923195600696
-31.56296345197317
-0.6581927458860267
-6.0631947049000345
-134.31726057827288
-275.47760073473233
-333.06374645144
-243.60659953047562
-83.22462405646611
15.56582909195411
142.4225514449865
194.24728116993091
74.8728949158377
-58.32019672548379
-177.80847288006836
-231.77139712807787
-207.2057027420338
-215.04709856501023
-249.66699249418025
-271.7104745211119
-247.98883137263448
-250.76785614864494
-327.81465960628
-337.5881621019814
-268.8760056515417
-193.50166498876717
-125.19744965217315
-95.43813453871236
-104.97706400853218
-120.03085310154547
-91.5231481579627
-16.482333237511877
55.648732514498995
86.0322869987874
63.72107767125315
-3.3518183785803393
-63.16600055043309
-55.06725194698537
-18.38904206962487
-10.419760646530797
-55.2366863379539
-146.70419090790668
-171.72980673688687
-63.84647241860507
69.32554447246348
154.50174808163527
236.06997637860485
326.05899882561977
358.6226461692367
283.96242494807603
188.87310312734272
155.40480811323843
136.02054535123068
182.78917681477773
261.98900783958857
220.4916380838222
160.95283512332244
142.27654222400355
167.06185483755695
250.5034007496188
297.53184249908526
324.40880908138723
301.99169931581207
214.05381699490664
122.41804653682702
69.05423251746164
75.73853012860613
64.86491043071234
28.11459377054854
-17.982209826858078
-86.7770955229342
-142.49261580803218
-162.17470712820764
-179.25644569055086
-189.9225803657423
-123.54136687750724
14.532806974485366
151.0322594110913
249.77565603118532
323.884583238633
410.7505776694066
516.1919654120584
571.0130711214823
634.7074093149944
648.4933700626731
657.7519406566485
716.9965037176183
696.7559879918393
659.8542654980969
403.7520716632422
263.84375601283114
0.41298281237117773
-61.24213848861351
591.501331493814
28.740738612707755
-650.5243576635196
-354.4084108808275
-578.0582410618086
-692.4551200431182
-681.7560200477104
-824.7332861493237
-873.5015810761349
-955.2011470735823
-902.628147240022
-830.7818748452977
-754.0550104367288
-634.4810352395891
-502.38497799622803
-331.8704866101169
-143.95667976101385
29.1538604809757
180.46389557260255
362.27949268561076
536.4080360970213
655.4179641577559
621.0197082193972
357.9250332422763
149.2453858381176
180.7433792665577
265.25044568659183
338.2079282444971
413.65881285108276
440.18143282638044
424.30485630415563
420.8669161022836
290.5126385583693
-57.05455966706231
-247.51242669451884
-369.16286746301483
-638.9938010229835
-623.5199936497936
-434.8354419566758
-309.7088562737948
-86.44912522239791
110.73809680683898
242.23100759914385
345.6413625902012
411.9617891767422
409.4316176366447
291.8891718940071
172.88882170557196
91.82759045771162
45.50321601247808
38.725909174232164
63.19332725417683
133.70152996556675
205.22546321247205
237.6332890281014
250.76024429884683
248.5311157095364
213.4675911838798
130.56931909176208
-32.876537852767335
-209.03708224886816
-448.33264774513265
-708.4727606121453
-685.4008899684023
-524.751604118053
-398.6225128462603
-255.22995191798927
-112.18848437967031
130.7888667172059
258.85683203282406
192.20607627739454
160.38639903338887
61.55822617046038
-36.71349703081521
-28.28808552642369
-5.877406368795451
56.94695910500322
115.79008102488531
124.33897009315278
106.28251110349748
57.610271449211474
-3.935432145761444
-26.490559788819663
8.052857515699161
78.90617774704671
168.503935761695
241.99490042752356
275.13256150640865
218.90179286766377
91.11342066157441
1.2925372780033415
-24.07831792090344
4.742995790781202
64.20396903842571
119.57663561169302
149.82246102508495
128.1442772691737
59.19524583789357
-35.716570072242725
-107.7916157641129
-124.24521887595482
-102.0381646095324
-64.60600649538735
-48.09882125406539
-30.158607882795312
7.551934320827724
6.230155610917515
-43.85330599253828
-134.44669388127429
-224.64097488719196
-253.00233606453932
-251.62070625754407
-240.50794629132213
-250.4213287037901
-306.4138526525103
-365.7292458311964
-406.1357964695425
-407.18571690983055
-382.1048110179229
-289.3747775706119
-115.74760151151457
-3.363137274122111
48.46833633040864
96.36829882873127
111.57392109111896
126.41064116910071
172.50031501606458
275.3023732174115
403.38468779463005
500.4370651921645
564.5142727494737
504.89455170506875
342.69792577720335
236.72793118432907
202.72810856933467
220.47740571928293
259.11757708203226
279.92369069208075
304.3791884458613
313.69979053660717
254.17950838567253
138.56200746591486
30.618587231779237
-62.294058940988144
-147.50500188894088
-229.87460002795297
-323.2306709061124
-394.97043372438253
-434.0639440320156
-432.29672989221007
-384.20288910804027
-328.97422611625626
-265.45675926601865
-197.6864224815729
-147.90737385934085
-110.1377282998939
-98.65355083605216
-110.41067705166013
-124.51204344639575
-137.08807470484146
-133.3268309595022
-96.48885101871227
-26.349471467177413
82.75089414853863
228.60280277627726
356.20893013872416
419.73347014738425
462.0326754691159
505.08395080958456
474.6205771559506
363.54247410049754
223.04522734318357
131.95275361541414
105.92056861270011
96.97543915733323
139.6273238510367
170.50219032890627
205.07591919150894
225.32948484977817
244.97410546416333
253.87402726539887
221.9105024330109
258.04491386658
197.84329788539574
270.08149633639886
69.67728001607138
-52.82604238440662
569.2075966993553
295.94565498158505
-157.9450436084505
188.17007395270755
193.81903464207824
143.4124020113276
145.62866378563382
123.08048114362067
158.19360234308814
94.90103655098908
-3.680625545866815
-167.55709063959975
-278.4081242355042
-343.63582268640596
-376.93312551090287
-318.16141550895117
-271.6629474722562
-280.4825367199094
-305.4437507647828
-335.0679052957392
-388.56714641515543
-453.3789709134878
-485.4749625844803
-458.50774726696767
-423.0906838403419
-400.13477373421955
-340.54721277483344
-257.9567290872557
-176.96326374222357
-129.44990768015734
-139.09505267011795
-154.76341158724242
-128.633132908284
-59.70932611639281
4.858900416769137
21.309202198129952
5.686195268994544
9.35870112569463
41.64085731451232
72.03026159770826
67.53445286686325
15.512100513478766
-49.347198067111194
-117.24463890585196
-176.25924947332717
-214.0801808141378
-247.32415315396852
-279.91567583622106
-319.22386681864475
-346.61624781146025
-339.3384512966224
-295.8467033772073
-238.8243348658283
-199.69309546023254
-189.50435765645716
-190.4901208243269
-152.27686230156002
-64.19213448155675
22.14957705810599
70.5887831658044
108.11788793848481
135.3567991152091
149.71066470399924
165.56925162152424
151.13118951051408
137.70841350429885
138.84559688234273
108.52541671272284
38.57968545850961
-52.79114850079191
-84.90116865067877
-36.73760081026351
3.1240525113313065
-37.577567368870284
-153.06228773260236
-256.7595811415311
-281.79891294832623
-208.99492636991232
-87.46571286147763
0.3685159841190012
33.36272671161655
5.921424931768111
-43.92802029780787
-58.352473451160286
-23.611014430399916
41.15618707689199
100.46416525628825
159.85201403086063
215.52597723194535
255.79196370038503
272.59660418932503
220.30197299848695
130.4387329559392
95.76816256836332
136.5620787461533
214.59320017501943
265.9033689646526
268.7239905244183
270.37557380880673
274.8537483511782
255.1384125802692
209.4905836446346
103.67951486093332
-64.90628859858498
-218.9005686677776
-301.14347264793713
-281.18711487930693
-213.1063230652334
