AAD_Filtered_TADAS_FILE
AAD_BASELINE_CORRECTION: BASELINE REMOVED
AAD_FILTER_TYPE: BUTTERWORTH
AAD_FILTER_ORDER: 1
AAD_LOW_CUT_FREQUENCY_HZ: 0.025
AAD_HIGH_CUT_FREQUENCY_HZ: 40.0
EVENT_NAME: 202302060117
EVENT_ID: 13194
EVENT_DATE_YYYYMMDD: 2023/02/06
EVENT_TIME_HHMMSS: 01:17:32.00000
EVENT_LATITUDE_DEGREE: 37.288
EVENT_LONGITUDE_DEGREE: 37.043
EVENT_DEPTH_KM: 8.6
HYPOCENTER_REFERENCE: AFAD
MAGNITUDE_W: 7.7
MAGNITUDE_W_REFERENCE: AFAD
MAGNITUDE_L: 
MAGNITUDE_L_REFERENCE: 
FOCAL_MECHANISM: 
NETWORK: TK
STATION_CODE: 0215
STATION_NAME: 
STATION_LATITUDE_DEGREE: 38.029958
STATION_LONGITUDE_DEGREE: 38.556268
STATION_ELEVATION_M: 864.0
LOCATION: Kahramanmaras_Pazarck_Turkiye
SENSOR_DEPTH_M: 
VS30_M/S: None
SITE_CLASSIFICATION_EC8: unknown
MORPHOLOGIC_CLASSIFICATION: 
EPICENTRAL_DISTANCE_KM: 156.69
EARTHQUAKE_BACKAZIMUTH_DEGREE: 
DATE_TIME_FIRST_SAMPLE_YYYYMMDD_HHMMSS: 2023/02/06 01:17:39.0367100
DATE_TIME_FIRST_SAMPLE_PRECISION: millisecond
SAMPLING_INTERVAL_S: 0.01
NDATA: 4100
DURATION_S: 
STREAM: HNN
UNITS: cm/s^2
INSTRUMENT: sensor = ACEBOX/SARA | digitizer = 
INSTRUMENT_ANALOG/DIGITAL: 
INSTRUMENTAL_FREQUENCY_HZ: 
INSTRUMENTAL_DAMPING: 
FULL_SCALE_G: 
N_BIT_DIGITAL_CONVERTER: 
PGA_CM/S^2: 61.404
TIME_PGA_S: 
BASELINE_CORRECTION: BASELINE REMOVED
FILTER_TYPE: BUTTERWORTH
FILTER_ORDER: 
LOW_CUT_FREQUENCY_HZ: 
HIGH_CUT_FREQUENCY_HZ: 
LATE/NORMAL_TRIGGERED: 
DATABASE_VERSION: 
HEADER_FORMAT: DYNA 1.2
DATA_TYPE: Acceleration
PROCESSING: Automatic Paolucci et al., 2011
DATA_TIMESTAMP_YYYYMMDD_HHMMSS: 
DATA_LICENSE: U (unknown license)
DATA_CITATION: Turkish Accelerometric Archive v 1.0 - Disaster And Emergency Management Presidency, Earthquake Department
DATA_CREATOR: AFAD
ORIGINAL_DATA_MEDIATOR_CITATION: : AFAD - Disaster And Emergency Management Presidency
ORIGINAL_DATA_MEDIATOR: AFAD PROCESS SERVICE
ORIGINAL_DATA_CREATOR_CITATION: AFAD PROCESS SERVICE
ORIGINAL_DATA_CREATOR: network: TK
USER1: GuestUser
USER2: 
USER3: 
USER4: 
[...]
4.362410813934308
7.113416259840003
10.456485765604652
11.64931767319504
8.095395456472703
1.597062139376531
-3.9170362854808594
-6.93199137482244
-4.854143356995211
4.143291564918357
14.400671811425903
16.451404615891924
9.316867449742606
-0.3470210767603326
-8.731362643043601
-12.651896003167609
-10.981876695324008
-8.74317241703099
-7.184110538680753
-3.9120316380621984
0.5976632381555583
6.150693365215579
11.514265918157415
13.51144198931526
11.661278362338397
7.6010805915613515
1.3603218075220778
-6.206018269089947
-10.407796101283965
-8.768833991718656
-3.7888645311064937
1.6093003698139796
5.138459876953616
5.663091670090526
5.108528815420133
6.616080719617696
8.408453176026889
6.395732564632111
2.598210609824769
-0.45972454360738013
-2.8816997513989406
-2.937359477807444
-1.1736771714487622
0.5628085609958855
1.9443255536434332
1.5424694431408332
-0.8619357291977358
-3.732923841146349
-5.701885857341913
-6.875131243486144
-8.214120006357577
-7.353730474546174
-2.6460050267077406
2.344577370880391
4.731983269787355
4.330798383341263
1.2860099300293875
-2.3284806252236057
-2.965997168539664
-0.33745853931838493
2.4884467228441327
3.4452375517996807
2.268806419819406
0.5951648524318343
0.4236941567614866
0.20027673877790483
-1.4688585541527237
-2.777804210380071
-3.6448450324939428
-5.581015692211504
-7.5448512327884965
-6.791518871122096
-2.969723421475409
1.1326323576893311
2.959914239071084
1.5033139401324989
-0.25440434473379847
2.6081347228889267
7.108024265525668
8.036171975718844
6.809817128450862
3.2115259810604404
-2.983382937798323
-6.379110122959703
-5.620390607611412
-4.254259570407641
-2.9054071773667847
-1.6872793312521133
-2.4144928686914797
-3.463248451276295
-1.0694956319110631
3.2038411540800116
4.913342358943433
3.0707923403883033
0.16540127640349955
-0.440437078716827
0.4752046443027915
-0.09995882702448243
-0.553119487183414
1.1511823372405114
3.7970854528635316
6.664320260094662
8.887575660487453
8.799499823215376
5.955574804211314
0.5629914572090446
-6.76584141829248
-14.49830180022481
-19.784864054261
-19.533513025650926
-14.21227316817932
-5.595444435611383
5.36758540085429
12.916347893336805
12.061775220186297
7.115373314611775
3.2852892540580667
1.12701751759106
0.4800170745244326
0.18722051272611326
-1.8860521368623704
-5.657481306953988
-8.897801882177475
-9.695737829719027
-8.657823216847364
-8.181583141325182
-6.646858679676107
-0.9233953086243157
5.216564933064697
7.694597835019826
7.955921245161881
6.683902141508338
3.4307905177509683
-0.6658377590282707
-3.2110552423998544
-1.8023631702119227
2.008688495586444
3.5233622288354156
2.660683753475673
2.6559754863753104
1.8578692294171801
-1.1567830829424182
-3.872798140847221
-6.073828889236698
-7.112299822337273
-6.102789933692189
-4.496423753416792
-1.849752877932522
0.18419611891907206
-0.5972879846210903
-0.7946275510127805
0.7420647869652851
1.4962826035127066
2.2456192297791846
4.704806105014962
6.665316960619032
4.577227722881941
-0.18123102885507164
-3.7896293373082934
-5.5672022050094965
-5.199657318419188
-2.693022324831388
0.03205519979032401
2.921211945511825
6.9001868433573135
10.745450614947165
11.345581022897697
6.770855084218283
0.37191151774900544
-3.806029461016866
-5.250724157737367
-4.02158678685332
-1.4998639374679936
1.6825598329942844
5.861677716803096
7.655298305558253
5.824316787612213
2.9906390531329117
-0.27832899868786193
-3.1273813159986683
-4.842113100317814
-6.787337042014014
-7.62214135061617
-5.130700721618355
-1.5326070907760843
1.3520498171946222
3.518026940001282
1.8190988200221743
-2.885074412345416
-4.448247459416829
-1.771859633463493
3.3079829228476503
6.817778177397225
5.067960675581151
3.9316329488726462
7.059898707850178
8.102161444182226
4.962998230462878
2.133561077080274
1.6189916191189646
1.514502009215092
0.40604722425627315
-0.9413428282933718
-0.9957404899750182
-0.37260434347219185
-2.041648980198333
-3.7495782958429453
-1.2765083723776565
2.985736314331243
6.6360942608346045
8.615479818272131
7.050500180842729
3.241710163768213
-1.7267709572283487
-7.547878128284218
-10.622751971251253
-7.562396568713998
-1.3538389155226096
1.883809394359246
2.5555955613544024
3.9712550735609184
4.3295152263352845
1.376609614201352
-2.1962847454777203
-2.15463333362307
0.5791161300704839
2.6279261838499033
3.5226681692944135
2.817426678824967
0.6159642832023061
-1.7136470086383064
-3.754251248184917
-4.0192283799101
-0.8468533344830943
3.9373077423417207
5.872375243372313
4.727571362887915
5.627842239819151
8.31792205018022
7.89787662386262
5.164958864367645
2.5508042245041977
-1.5896844402660255
-7.744535147051386
-12.742974427589026
-13.819236811821431
-10.049178975226162
-1.4116628189910967
8.588018792369562
13.278536647822023
10.465403135546934
3.91892763428226
-2.973892162216477
-7.877105026188868
-9.317346648684493
-8.701213899600404
-5.820330951332321
-0.21096927649591166
3.2463328701751
1.7339482352196054
-2.444849480697542
-7.417658162171001
-10.676462219087599
-9.59009536818734
-3.800755002220141
3.489465796235912
7.414453900097625
7.930450904233011
5.282049286466731
-0.44025108194893553
-3.0508836655440805
-2.40461473774753
-3.0505665561294535
-2.2885519147546045
-0.8718459972946457
-1.35456130979707
-0.4854211164771503
1.787769119225385
4.022961411514735
6.684475106429772
8.581322685806757
6.452830830670925
-2.014119851818689
-12.85621898856855
-22.337448984907375
-27.681952056317606
-21.670033873466316
-6.93954650699872
7.1001730354583925
18.265330591641057
22.915290991265696
19.180652664277883
12.133400782918141
4.594047976966966
0.0015096464796245518
0.9592571678617962
2.9208568955816774
3.0152677811775987
2.1659156581009404
0.8275549874676277
1.7584413930094405
4.532945611087746
4.3267088496559865
1.4753670130062455
-3.157749495875512
-8.982177958897426
-8.84246215391137
-1.8864407102816945
3.5159767029317393
4.9235583011785575
3.83023312917076
0.5438130124965517
-2.116491466477855
-1.293224301850963
4.208710931804019
13.044633950925597
16.910577980254455
8.803201145173299
-5.517020471170058
-15.66688530408357
-18.500481878201146
-16.240181812255607
-9.294527682478913
0.6926123820981103
4.608322747735044
-0.21464021304112818
-3.3416972354749963
0.7786149425600712
10.14646038319273
20.8824918617535
26.269989005627767
23.2566167741295
11.96124336153362
-4.372684142492048
-14.095502879967812
-10.599801286567224
-2.367243449031173
-0.04025022489685214
-5.0298705004844875
-10.967823697676254
-11.841729304210721
-7.725695632457938
-0.7826681618520193
7.083415378104327
9.308268044811381
-1.1838899061852206
-21.207604166643826
-33.753951607648176
-23.583283439349707
-2.865861081359871
8.23566735355104
13.587364653659447
17.20313446176763
14.10565993803912
10.670468515134903
13.487277469611323
20.8631496264351
25.00354890697901
16.959266359321898
2.5747572856389627
-9.495929593679204
-21.02933171168161
-28.365944510587752
-25.610611583998562
-17.851224446208924
-11.221634782966536
-5.379439303132393
0.044133538853502643
4.516197253221421
8.108436259318687
9.013501794640062
7.262791003114166
5.724949932821054
5.5017338427934686
7.476660582705022
10.66300804134833
10.270195078545193
2.994015503006573
-9.316896120173459
-18.669543867509805
-19.660606241633953
-14.525125210179915
-3.5893492760406334
9.023906843012297
13.797186439913945
13.635840093107594
16.39237753153168
19.02468199447169
17.658499233430746
15.189446764735495
10.806967726179723
-0.08765744526842362
-12.395377172609887
-17.736477673821213
-14.440187224264749
-6.054791995195295
-3.384481775958956
-9.758428560093794
-15.205853278592869
-15.544297686268013
-12.248862369320406
-8.662188183495728
-6.9596039768975775
-0.9669918483139254
8.497888716465216
14.79553530427683
20.64858812709088
24.33989287425604
21.18427273030226
16.886495542880326
15.358839584390998
15.363842624929688
15.202751750823209
12.366165550203453
7.138782902252138
-2.672055951925327
-17.756449880141343
-28.71323430575101
-28.602147270372903
-19.25590069964651
-8.218051194017495
-2.5979890959720007
0.5766814546616305
3.94378453453508
5.5429884205691735
10.000172269657472
15.572109670592704
11.827950587281762
3.3438924406199755
-0.7340426631174295
-4.57573145753057
-9.187988141918625
-10.06028135021811
-8.526754592117568
-5.249764616699991
2.2429944710631773
12.534907036538296
18.566765670983028
15.788709864338522
7.921822369497923
-0.20823900243160615
-3.7411047322626905
-0.4678409952076318
1.6794296683352097
1.2393921841198048
7.124008409962763
14.749902235625052
14.347492551271799
9.554950617282941
4.958229533257137
-1.619368923003168
-11.685131281891724
-20.271305272543586
-19.871309327439885
-12.41381097987479
-5.900868818594275
-2.671077871607784
-0.7835676581470109
1.4653511470885605
6.257275762261667
14.527307528904
20.48436479116094
17.35678138049777
6.466775658401318
-5.805390270849101
-10.343248780090088
-2.3481677477369676
10.726156642887982
19.182692848003263
19.300867559291692
11.414902126006787
-0.7906736876454608
-11.918651321401988
-18.106820270777245
-17.371294772986886
-8.832650904250066
0.9825664282575133
2.336843492685636
-3.0886734290083107
-9.902891695292999
-16.303711473970846
-18.611738948482024
-18.09162840992005
-18.269250888787322
-15.268684753441521
-6.820339862523955
2.3082490474481783
8.733218351189443
14.84362116976912
22.456491857535156
27.398594332422864
26.16019574126828
22.208122574019654
19.268568125641554
15.720209286950507
11.588732831765315
7.223085182565444
-2.9545746326268696
-16.939866433391778
-24.184124125086747
-23.21120457264232
-18.02878981615806
-11.969188438343604
-7.906532758684309
-1.8236457572174805
9.94893688672489
21.515394783249388
25.179785595717963
20.740255292417
12.922523208314011
1.3077034876416926
-15.407224392852147
-29.140483827339622
-30.51521188694553
-21.230781562731064
-10.966059888284885
-3.7143613954982775
2.5415695303146943
8.784001844524514
17.20642622507572
24.69003039103784
24.738493359227462
20.549436813513854
14.485687423572625
4.306314515310151
-6.571523248301943
-17.202759196040112
-27.972470656333115
-28.43316423087934
-12.410703053300304
8.28411691001749
21.641530914299615
27.20052094434164
29.317937029033352
28.505042741040636
18.108667155664726
-1.4303499329716893
-18.937392512638297
-28.721613480020213
-29.727009526430457
-21.22372758651451
-6.718672785599518
7.269240296893412
13.354442250116888
8.935183662436208
-0.6163409798313053
-7.564908497038876
-7.616566167410477
-1.211891342846728
5.637438760398382
3.7868643532639457
-3.045801092544186
-1.1902732445185376
6.158696889345282
8.036455615954491
7.277727333378419
7.331980233442212
5.755535399033926
3.511569562279525
1.8772531537076327
1.9079756186165093
4.270172806262348
1.3095240229662262
-10.005769727344154
-18.663221840437537
-19.10087168442862
-11.545457712675677
2.200663881846375
10.507012820720293
10.659530904830058
9.478613962864042
4.822477301307835
0.49685311140527755
3.266861757651257
7.2869459739481774
8.310574076179394
7.522293974126581
5.247184425851328
2.3443217555697595
0.3583337031858328
1.6593730137411913
5.90337115635326
8.21060018733386
2.9836534304314375
-6.203686600193474
-7.685550112606453
-4.035874825437141
-5.652610338111163
-9.294551900896776
-10.938649313482701
-11.093359947725013
-8.3284759814213
-2.7276913714602657
8.15953752806037
21.52952354689907
27.686727379758306
27.014244974791826
18.42649932421316
-2.354852207061314
-23.56215495918118
-32.582658381741716
-27.016781346552037
-10.445725501789271
6.56339746613902
18.212331586881835
22.62576849466953
20.305088230767055
15.192089948487316
3.652528987703694
-6.555678222068481
-5.551300658950987
-7.85671310580795
-11.869580000840573
-7.425287062832201
-9.977521982136752
-16.085152285110098
-9.283040546529511
-0.9047199336673738
-1.6623481611580373
-6.602559841503142
-9.403007339385656
-4.974843374042161
4.729766687969529
13.77689567620703
21.278777820821695
26.36265300330936
22.678186143166116
8.778212663067146
-8.160244508396213
-24.62452875694454
-34.16902054390365
-29.05963573455525
-17.255583455237385
-1.4374357257248112
20.74287650956482
33.17355825027883
27.023448728059574
8.088781840491404
-13.509254352212743
-19.31996790346005
-10.699156506906526
-0.6572990368427027
16.968681883157636
38.7900032707303
45.94065663815459
34.711550351845254
14.225075449158096
-9.907482839914556
-31.116097954419764
-36.892307241093896
-29.573512217251537
-20.99455473922229
-9.477021424301315
-0.8009328135470959
-5.279823795528803
-9.484882524470821
1.1147972697004322
20.779083683306812
38.01661880249875
45.59100904281466
41.86907964820687
29.71636075740809
9.055939434087563
-20.786328055808525
-48.92629198952573
-61.37090852257952
-56.95494239359634
-45.24142759561541
-33.373382523071925
-17.075731173478225
2.5733896254550186
13.139837907019295
15.062005082336217
17.22436742537986
19.00075763740672
15.198829315596324
6.474655808209248
1.9243709991434297
4.7780951943996826
7.70541981088753
5.388467240178129
-1.4841508462581032
-7.399430615518067
-9.506911854811253
-9.828961604669225
-9.98267135982902
-10.775702442060462
-8.108069927439887
-0.2649553477957309
7.0314542903650885
11.822780447185131
12.07736669759354
3.059931836084695
-12.126020454132469
-20.948613056639477
-14.017828407288118
0.900209601264416
10.48612796866106
11.266152187533196
3.8253683443648248
-7.684291927277744
-15.811408702943492
-16.159585505253816
-7.932381219243051
3.1100450147225067
9.952477465838527
13.336193670256051
14.285556781990628
12.893804170496379
14.59002458506111
21.72162522974991
27.044427559639196
22.026586637379655
6.443728499610473
-14.588170668724777
-34.9414326346008
-43.865094061451764
-37.183931069996
-23.928442874217193
-9.734766611092704
2.965389472936443
9.435287413557154
10.405225898369157
7.843564589053007
3.254748454269925
-0.4448482881141377
-5.945739104088087
-12.895415044967686
-12.545724870347232
-4.348504867311873
3.8297665878600675
6.693276789158493
1.3270664836258186
-9.250244338068015
-16.80980965932316
-15.908971250187786
-5.941443864659564
6.286486588915103
11.324658524250008
7.988468129150574
2.10996474127841
-1.886505792219407
-5.087054425655326
-7.346836997774551
-5.229284235876007
-0.5061472396977658
3.61153679043597
5.175843368270299
2.8821028445003747
1.1814937648299904
-0.34252008115697136
-5.346502537672873
-7.28495893808202
-5.2750564506658435
-4.6706437606044915
-0.08505638414317686
8.999938514363613
11.721272282581898
6.153751223471015
-1.0473007709769857
-6.15063507808424
-7.051592488054863
-4.754425792514102
-3.5337533505310255
-2.730680516478417
0.07029517086857909
0.24193820671166702
-6.325472581593733
-10.654879735614244
-3.113150135933288
8.161520962315981
14.643219621283691
19.122616193834254
18.941707178340174
11.707768637805948
3.654239544460292
-3.5541107832498287
-11.880386923487237
-16.221118349509126
-11.452695730180313
-5.0877391173769695
-4.415675932635818
-5.04348855862966
-5.664433195800325
-6.608172317628069
-3.0045611254458318
5.759312365688721
13.85542082517385
14.765232259268393
14.553700300928583
20.292343888994637
18.967291234095327
6.9900163100984125
-2.9803935951485205
-10.724662869108256
-16.718088090999178
-18.640820867043374
-20.213154293058214
-17.797837585475673
-9.187460181638185
-2.7397365567366707
-0.6511273291955179
3.2287159900637907
11.064241568770484
17.42754428428741
16.863451123259694
11.183816643702551
6.482594003994479
4.366901492672833
-0.06501869548908232
-7.702029258371871
-13.746405195102685
-15.609887252398977
-12.194912412181132
-7.11305059243745
-4.5771254875137135
-3.414802324650883
-6.183670177604298
-7.7440801676170805
1.3690349638226882
9.415925406071226
7.335549027806406
3.098184067685791
1.0782197314207802
4.042623837484339
7.392962815130216
-0.06210925953672919
-13.990969250264047
-21.4008567119729
-18.82330155364774
-12.001434278365275
-3.852072251801354
4.516366238509374
3.973478257882593
-6.32851411598865
-15.937602432539446
-19.949650138806014
-14.124510750291392
-0.5768756740194461
9.696757352880006
14.383807373386237
14.34448608417674
10.649546900650757
7.097895046761844
1.003606193808386
-6.089288939390055
-9.599002563927483
-11.511341272941578
-8.579938503399232
-3.4917410833810836
-3.004412951786116
1.0084540370108346
7.745566278174881
7.923039081492683
5.427980624656238
2.967386630658167
2.6636234467664237
6.93926878189365
8.699813516122877
7.562509472233093
8.20258634165358
7.633086624842178
4.380971800368584
-1.3657863763908644
-7.622332918303557
-10.024277476596028
-10.759824728404096
-10.326477306813935
-6.760807768627425
-4.953084950998127
-5.359883310816353
-6.264755442947498
-10.326133369953274
-11.862742395498508
-4.73056590836679
4.193561752237623
8.188385889847883
12.834660385147272
21.96222459247785
25.284733073256838
16.763085549716216
2.4248588932421953
-11.408092825781862
-18.616640910180358
-18.59328190369893
-15.918261231845255
-11.113629995764335
-4.887621274705201
-2.2231941038661134
-8.462314349988691
-17.67825441322523
-18.069978149323195
-8.849358641328692
8.873162649434908
27.28369329398023
31.32106795741428
27.23970105194164
24.800332023309526
18.434390406903844
11.022506367651813
6.200764380412076
-3.474633096616796
-16.723723731456957
-23.50467809754167
-23.471330807632878
-21.07145026090838
-12.935168556632833
-1.1359500411601746
3.8666228349091702
1.9586527820404611
-1.514759546466716
-4.530373624723372
-6.164431180963394
-8.225791302819555
-7.72820721485892
-2.2291077807940174
1.6460220826396332
4.983125825548567
11.217887764013295
12.905411996746631
9.31391547084166
4.37648145355937
-5.886826232868577
-18.120021547231023
-22.75745775087017
-20.60944107628951
-12.539093211650508
4.260204125707531
19.547007737011402
20.920331384604058
13.266065089985435
6.194471935855901
1.3156978735234528
-2.752229727212625
-5.448821498143273
-3.7549903074584647
1.7606749137270425
4.471676700059732
1.8345492177015723
-0.6032917789911405
0.15497227115476025
0.016880273447195948
-2.519388213130167
-4.799987012865115
-7.543429619294122
-11.763486766174024
-15.138511460499174
-15.005575517573519
-8.967142886503368
2.134159839469816
