AAD_Filtered_TADAS_FILE
AAD_BASELINE_CORRECTION: BASELINE REMOVED
AAD_FILTER_TYPE: BUTTERWORTH
AAD_FILTER_ORDER: 1
AAD_LOW_CUT_FREQUENCY_HZ: 0.025
AAD_HIGH_CUT_FREQUENCY_HZ: 40.0
EVENT_NAME: 202302060117
EVENT_ID: 13194
EVENT_DATE_YYYYMMDD: 2023/02/06
EVENT_TIME_HHMMSS: 01:17:32.00000
EVENT_LATITUDE_DEGREE: 37.288
EVENT_LONGITUDE_DEGREE: 37.043
EVENT_DEPTH_KM: 8.6
HYPOCENTER_REFERENCE: AFAD
MAGNITUDE_W: 7.7
MAGNITUDE_W_REFERENCE: AFAD
MAGNITUDE_L: 
MAGNITUDE_L_REFERENCE: 
FOCAL_MECHANISM: 
NETWORK: TK
STATION_CODE: 4405
STATION_NAME: 
STATION_LATITUDE_DEGREE: 38.8107
STATION_LONGITUDE_DEGREE: 37.9396
STATION_ELEVATION_M: 1147.0
LOCATION: Kahramanmaras_Pazarck_Turkiye
SENSOR_DEPTH_M: 
VS30_M/S: 579
SITE_CLASSIFICATION_EC8: B
MORPHOLOGIC_CLASSIFICATION: 
EPICENTRAL_DISTANCE_KM: 186.63
EARTHQUAKE_BACKAZIMUTH_DEGREE: 
DATE_TIME_FIRST_SAMPLE_YYYYMMDD_HHMMSS: 2023/02/06 01:17:44.1889160
DATE_TIME_FIRST_SAMPLE_PRECISION: millisecond
SAMPLING_INTERVAL_S: 0.01
NDATA: 13501
DURATION_S: 
STREAM: HNE
UNITS: cm/s^2
INSTRUMENT: sensor = CMG-5T/GURALP | digitizer = 
INSTRUMENT_ANALOG/DIGITAL: 
INSTRUMENTAL_FREQUENCY_HZ: 
INSTRUMENTAL_DAMPING: 
FULL_SCALE_G: 
N_BIT_DIGITAL_CONVERTER: 
PGA_CM/S^2: 126.497
TIME_PGA_S: 
BASELINE_CORRECTION: BASELINE REMOVED
FILTER_TYPE: BUTTERWORTH
FILTER_ORDER: 
LOW_CUT_FREQUENCY_HZ: 
HIGH_CUT_FREQUENCY_HZ: 
LATE/NORMAL_TRIGGERED: 
DATABASE_VERSION: 
HEADER_FORMAT: DYNA 1.2
DATA_TYPE: Acceleration
PROCESSING: Automatic Paolucci et al., 2011
DATA_TIMESTAMP_YYYYMMDD_HHMMSS: 
DATA_LICENSE: U (unknown license)
DATA_CITATION: Turkish Accelerometric Archive v 1.0 - Disaster And Emergency Management Presidency, Earthquake Department
DATA_CREATOR: AFAD
ORIGINAL_DATA_MEDIATOR_CITATION: : AFAD - Disaster And Emergency Management Presidency
ORIGINAL_DATA_MEDIATOR: AFAD PROCESS SERVICE
ORIGINAL_DATA_CREATOR_CITATION: AFAD PROCESS SERVICE
ORIGINAL_DATA_CREATOR: network: TK
USER1: GuestUser
USER2: 
USER3: 
USER4: 
[...]
6.518089629889267
5.374011438656074
4.131254239803378
3.5026967820181665
3.3322890310155593
4.951340194491083
7.304314791095125
8.816038306876614
9.65461129542718
10.950096534888226
10.152185207064877
7.50129466246797
7.326547338472583
7.202855103162902
7.045993736016923
6.375523153830973
2.3677882762068148
0.2782403975576671
-0.8329551968798583
-0.0450011851958738
2.1650252852438903
-1.008283665315993
-1.2535157265783943
-1.766658048207305
-3.3512944529117683
-3.899610391107855
-2.779565934734542
-6.203357119367995
-10.85973854015361
-12.052908472921503
-16.773989879466814
-12.826957741011208
-8.866250174519893
-13.432047034159536
-11.389650410124446
-8.160396681276124
-8.94128610984951
-3.1160876600932235
-4.3773454161895
-8.830887095659206
-8.812395434578724
-8.388445809312374
-12.777755634086667
-20.529186781791523
-17.085157404957425
-17.20715509092077
-16.705953868543286
-12.948495809464099
-9.232191447368132
-5.346512964165718
-3.703204176340656
0.29026132488493644
4.061735603637091
1.9851150140745286
-5.519833325342656
-3.9565280275058123
1.3433047577042732
4.040721956031131
1.3170764582491066
4.3036302588970115
5.996802173772296
2.240754415193632
7.778537837906556
4.750107623317362
1.3063166285936898
3.911474995326487
-0.09388711978224268
-4.024277885234253
4.048100635530124
13.77001869710512
4.335771060359213
-1.4690308260632305
7.045328134273355
6.546294220100462
5.368820664145931
8.428023030169708
3.686797153483767
2.8074884329343597
9.243458209786686
4.786951467636961
0.526069447355795
0.3666885249550511
-8.452780164938218
-3.034859450147734
4.072826819928949
-3.3027207302192823
-1.721166938938926
1.5245485651544668
-2.0993916547382923
-0.14673570274687806
1.2396746373938692
-7.540776405812889
-10.46527169331183
-10.118335283610843
-7.876043350444741
-1.6562166104978562
0.8402025783831628
-4.07792401019081
-7.86920418532519
-0.8715218090003167
-2.0319311361929064
-5.165427899101803
-4.145969972711279
-6.210747032682053
-4.75672466675688
-3.5721247289688702
-5.2013932584178795
-1.7360366610028908
0.5326433608762134
-3.951931346304173
-2.4832512864974863
-0.8629086817887603
-0.18752424698686165
0.8595436795709298
1.489232220575543
5.420009322469388
2.6024154718682
0.21250161661817707
2.321585434884344
1.3037703739745614
0.8688533836825059
-0.8449820704194893
-4.229113362324047
2.1061246036067858
6.885803479773525
4.941069535694419
7.801760939101532
5.452935045779608
3.1755646128406636
9.406277909063224
7.251015039353987
4.209661565952137
4.1324299302288825
-1.7101320448488142
1.5825546578816059
6.070933018468911
2.7257634719079955
2.0245953893986313
3.6571427360541455
3.488883252402341
-0.5378824187277763
-3.6005250576721815
-2.3247063914408743
-0.13989774657904344
0.014020746927601413
1.7521110710741084
8.220974979782081
7.926050588400527
2.4906215577317474
6.691634963817558
7.387047697170148
3.7553734282582414
9.887834045792852
10.985346337408041
5.433128918413496
2.4982912597465337
2.6943217822892973
6.583939795714757
6.788719810200355
7.379332669832452
10.680638635976633
9.733233495295051
10.720543935801036
9.130913022762627
5.337511938701633
5.29872643358747
4.948900215016032
6.751714619917967
8.760636762230524
5.659192924510114
1.406838168298222
2.8653934069102145
3.836689780730755
-0.00867488626568764
-5.444786652484696
-7.722282489407666
-6.892099686952862
-8.364397919335708
-10.358024992739757
-11.205776146754076
-11.253714086744825
-7.806218856079856
-3.309774475598886
-4.462968757061754
-7.320540313141324
-4.822840443481457
-0.5167497794519639
-1.991079845170708
-3.001621204515663
0.11797118459298908
1.3975413910369476
3.6100243117905104
2.779954795979293
-3.2008135737759686
-6.947814402499339
-5.9789186437067325
0.053393892575012515
5.7609893545702935
8.155129219237615
7.206000933545906
6.952592558312094
7.70833008799319
4.0554435872814425
-1.2813883027251598
-8.285978818542409
-14.872390416252337
-10.402137303819321
3.3633214430870204
7.595429985761316
0.1785868483827679
-4.538888571365986
-0.5399714229915639
6.913232978200349
9.62952475359404
5.196408962978219
0.619968863304756
-1.2823526719388625
-2.651176750515269
-4.089900280209562
-9.6855515799849
-15.089223221122428
-12.494549220947654
-10.460923519695458
-10.926486603946339
-11.036503858278202
-13.337065111645655
-12.545472792986114
-12.725117645449473
-21.398262944645097
-27.80544877334161
-26.861197067466556
-22.94206294356739
-18.254633565980754
-14.21376555317446
-9.632564427435634
-7.571972398558389
-12.28943032603103
-16.971383968934646
-13.656438192989718
-13.727280161845147
-9.718018367064834
-5.788143041302163
-8.819820619513951
-12.03050067558982
-15.378650793578606
-13.744290140022244
-10.941879590093471
-9.0241663319906
-6.345906183015738
-7.526498964804206
-5.839983821556181
0.01476971160045533
-6.409486259867277
-5.304335191308915
-3.823081554046724
-2.448201960014507
1.3397441737452207
-3.143752144965889
-1.7804770380263215
-5.20556924290316
-1.0726138362562965
-2.6775544369777378
-10.970571163842353
-9.656917496177972
-12.153889167590005
-8.461676383504521
-6.058127453098154
-9.693723659861357
-4.307301941847574
-11.820496076592118
-18.212605264084985
-16.502939514727675
-17.728419317758185
-10.241009436240313
-5.6709811158645955
-9.57841440777747
-10.442841297468508
-16.400702551856114
-15.91854711781177
-14.921588613780303
-27.39023394830403
-11.886941490026993
-3.088057664013528
-10.629927085317517
1.6082769718605139
6.316700395766078
-0.4912508430966351
6.638645708185903
5.354569607611377
1.2090760842645762
8.850544984549392
8.081211167032027
3.7545247029832063
10.534029117928885
11.444357551172928
6.5834474828196905
8.201267277033955
6.984847304996354
7.227168806481449
-0.9020352901933392
-6.501363074381763
0.40560654027715476
-8.152209835306568
-7.143707530758425
-3.451691235082481
-8.196601138983002
-5.855097784876035
-10.04251052167079
-8.036042242075094
3.1008143793338308
0.32919436895763726
-8.284364548283692
-5.639204466198777
-6.574893757545437
-9.232875378114297
-3.4720704131688462
1.530232798196811
-0.4145752789746339
1.636442982564239
4.401851926341909
8.491536762242012
18.41734008188068
20.163467887334882
13.431565600944186
13.851457031549522
10.938142729931974
12.536015185179933
13.226747039132894
6.595772125189705
7.9695182862254015
12.551664482055365
10.409897504574705
12.935374898437079
10.87869884928177
2.44217787150999
7.520001016332561
6.002309029038968
3.6741158876395144
8.717132780192188
5.439051767431273
-1.156994162243798
5.349732997121832
9.034857575780293
3.355778927473387
-4.114321106799033
-7.23812467828007
3.0334410656950874
1.8237026683201982
-6.206238940068761
-7.652133941915358
-10.031061147538692
-2.126444202672291
0.3039961603152039
-10.831545346272154
-15.585924554139046
-13.351621704085792
-13.541972094806647
-16.924249360247302
-24.77437355287085
-32.84990390090198
-27.374564244732433
-25.45415256899413
-30.27927701125023
-22.348677830940307
-19.11928875289044
-10.04630416808768
11.416507723346296
7.7608239409692725
-10.203287510325627
-17.247283449654255
-18.914564259829167
-5.930727967207376
1.739185094780764
-7.802435897595506
-4.272647814144334
8.93438953729956
6.75099156352766
-5.932399509602633
-11.761950044109444
-14.904270650537889
-12.998703354729557
-1.662424404942621
0.610926897261917
-3.367175155776449
-5.08119527260805
-18.07658912334619
-10.95651360363998
23.830852856776087
18.24439080223577
-2.6036223445829907
3.47210402306277
-14.456870006587407
-24.89940000533131
-4.740742803197647
2.717524894231833
7.922266958509128
11.641426483019071
-0.9860274974462918
1.3324074229154301
17.35351442218268
4.462662144931267
-12.60359352573302
-23.194274278634687
-15.113837964116847
24.478490079414268
21.21781224170184
-2.9879276692239065
-16.92241536776615
-34.00968895336975
-22.534188803383916
-19.88198442016522
-27.102910686300795
-7.3829251338182535
2.3169558380555992
7.966160915021225
-2.5735223555070452
-25.066225519710574
-15.551845968127438
-24.177032852630244
-21.07810912256541
5.520005394953238
-2.644109516621695
-14.149967005174025
-12.394565500733412
-15.188546671525751
-22.92404769043225
-25.197923950922892
-24.046828083445405
-19.086501470925235
3.268632197568146
-1.4414466398038304
-14.481683370721862
-23.012350692580366
-40.70188269853286
-18.57997608951116
0.6178472841530409
-12.971413838075451
-25.740945244155665
-38.27487077207163
-46.26147859912535
-23.453372784016505
16.801869797406287
22.10489177961178
17.42345437279556
4.270308001001421
-23.13113554856315
-38.71168613704733
-36.19578095141908
3.3254840610940235
7.02802305917373
-7.849557045649382
-6.411259063994791
-7.965333915018701
-8.091710546451674
-10.129597435924971
0.0976732301268588
13.516204933523015
4.806036639584067
-9.224245453940238
22.22408398911988
49.71563738633753
19.01175622333848
1.3854609653097874
7.469318437759141
-2.5518982773904946
15.724949680488068
23.517653250911266
-16.040746224570412
-28.482999924983197
-13.85702957954435
-14.856152460902312
-5.636099289052409
15.15903641112265
32.60368953552945
41.7242536874222
27.007011099081346
-3.443626368386928
-6.619187763676395
3.7406346936742354
-13.657905611270726
-27.14743859691784
-24.923074595536868
-4.193787023621848
24.438498110436957
27.185539245058433
10.77608498090532
-14.59532572054908
-51.74360705621101
-49.84000584807315
-19.40121594048106
6.217897234872125
32.455199178633954
33.698984598066595
33.868788154251085
23.34358852584406
-3.398566515417608
-24.805537236045847
-45.71617520580801
-56.282450649052976
-11.586315653496463
38.68660566975417
34.16075405052797
47.560992715964154
38.49969408039783
-8.769208755383103
-7.5641937135535535
12.209989414315647
10.246513235250891
16.755336357154317
12.122401840843933
-1.1201092976417037
17.472551298915057
8.521043856137453
-41.68457133508196
-37.48623121405489
-25.679187029396214
-36.80793639710486
-3.8201003369818562
33.786321118278174
51.82889277563649
55.35997031735467
30.382316219169425
-0.16314638165630685
-13.597764755090893
-28.156756990461183
-19.43773133672432
16.6652353612596
27.317750602108788
27.2892911561973
25.533156288596533
-16.40325933722181
-42.779067787007236
-9.421636949944752
3.326795889213001
-17.33613331999773
2.367007417707421
35.00176587298002
46.818229634318605
57.01198873942424
28.30837723961567
-13.592004676937007
-23.98690447177322
-16.47296066201095
2.0765209278837786
14.869846268035683
5.557242717706107
12.843910998276348
20.108052319162198
3.0037635599665427
-1.39050611068468
-11.741789650113377
-22.100420005481695
-24.877535472060515
-2.620940103744322
17.818818781341715
5.364284916581099
27.909679520707186
46.91852957135623
9.911257653050352
-16.305929013100755
-15.062116689959469
-15.378274614132023
-4.390901231260494
18.24767717603477
18.612806363700415
14.430748703582946
24.728715144135943
34.88986794780008
19.912346142828763
-9.12471247752457
-19.08201502984898
-12.83938444094095
5.207669551446349
18.049099478003384
3.5196364218370535
-16.963785462125013
-9.260769128615935
-10.343208831119147
-33.135772357687095
-27.256613467999077
-11.376865946344896
-31.30486644261173
-29.14629609729253
-4.300368734337985
-25.70444515002938
-44.39422318796343
-36.80000057981939
-55.24029668805527
-62.397833451289955
-26.296703198924376
-2.3867939434613397
23.306397298728925
75.79978653967551
71.4250335330659
0.766522734014049
-50.7162541033987
-62.93120560746046
-28.613251046328337
18.31802077746135
38.01336485568022
59.66180171411636
70.94086529653221
72.59196532375445
80.20520147800589
61.885136769966515
18.880634761772857
-11.816004772643346
-6.8700332930407875
-2.736064001201397
-22.404599773991873
-24.746074746077902
-14.585426713631307
-18.67392929144549
-9.705827291888573
18.12424724684601
31.600302455725384
53.71948510264456
79.94787043738778
73.38927616857644
68.7097075967015
85.79012610967023
76.93918929048826
39.317210457843984
11.651757020769196
-25.914228386518875
-72.03505564866096
-98.76782508990442
-112.62390669667806
-89.74626822397312
-32.123046742351974
-10.192167124072103
-36.37142607963535
-41.57609992602076
-15.972932787808352
15.352455017590941
22.312219077402425
7.8585715713367765
29.464900269863247
65.01282208723421
55.316487502157294
29.4698374396062
26.850537242721927
35.317644302111354
25.1940001352836
5.121330974223
-12.265405471294587
-30.378713034417576
-30.93019782891507
-39.08499310830698
-27.895211812193946
12.795439354679504
29.265917261851733
26.915257439891462
42.369782224535726
65.90930696560538
76.50525130337085
61.65429802646222
40.198962237013696
42.31619767729774
49.26806639738144
63.31604866537268
75.61052196252085
55.66431862353376
-5.773555260299996
-81.25833266342036
-123.80262487444605
-103.4500258723255
-40.06734822574229
18.600296038002888
58.51519207894028
82.81435150358101
95.85496087759996
84.1985213533041
42.93252436034117
23.404534559435525
44.903671924463616
75.85935672613009
69.81111712356851
17.801108318792924
-20.849408975594574
-28.23122151019995
-35.83133671504169
-50.357297971616276
-47.71288566611947
-7.260918523934957
28.401073674214867
28.686005320010867
37.446651163402706
47.34296883698621
47.227103481433815
45.97719556279887
27.550346498756088
-2.0445347897001938
-24.116029376101828
-32.08612521801712
-31.492477657934483
17.06039323925825
81.21548813426752
49.62492884610595
-28.178817248047032
-56.75270683456567
-56.061618087394514
-51.83704000876086
-21.56484228038403
24.502244560318076
50.571265776769984
62.4258004487352
60.67229419325516
27.875881203929787
-40.2975290561402
-80.79085682764476
-46.83988175455097
-1.5742507791282323
7.065285289363381
1.905803379863299
5.82084870984505
-6.654949625073344
-30.15907139031059
-26.91181778928966
18.30210319793494
80.4567470421594
80.57905035109286
37.2153579646668
36.62972278230443
55.862424429075865
26.0883661542854
-11.458963652783057
-7.720156402969252
8.861544872330008
5.39917661406346
-29.439814464567437
-51.41220756064699
-30.643561189760206
-3.423205749957319
3.857691318176203
3.6735138443761075
8.53339295351992
19.66406315711546
37.609868442702684
64.19441228660936
84.3741909392351
67.94865995734638
38.570585301264686
30.245519862049715
1.5591604967865216
-57.1271665626357
-78.58422152055468
-37.41582230580864
-13.00066236784668
-4.989302431696135
43.23067288580597
68.29319433619492
29.864280006775537
-29.74698105589802
-64.03205597733326
-52.30597690287981
-13.274346540387958
23.16668850571785
46.918536196413946
56.53366899524409
59.47526767109291
54.91783054467565
25.87592166105313
-21.04992621020861
-35.67391876923531
-14.222287609787232
9.946219743287612
7.6025436104951085
0.6411804241258553
13.18330027356698
7.0759545155542
-14.954391320772446
-40.25151522318458
-46.033074619576055
-8.343004618767056
23.301245270051368
15.379653217393162
-5.252820249012133
-4.113505811736742
45.36797115543202
68.59154259174834
21.330712051119573
-45.84872458409286
-57.392960868918415
-17.675327322546458
17.753266544135773
24.253706077273975
1.163691481025594
-3.7509375387042794
31.467133043111556
44.0737090726365
25.41520059650836
8.716045977229035
-30.530189189074882
-14.297412412815136
47.91597575788347
52.616607808360584
22.310102858748046
-4.320309936997988
-13.301527996517336
20.982307403468564
45.57001397957232
22.069745754245243
-38.00356950255564
-90.59016212458569
-63.19213749449291
-2.3905878152131304
16.21553068318884
9.373554445509948
-13.664402677750296
-11.951343423520726
7.56556475824762
9.334657946451333
4.290872388302309
11.276752803392599
50.70345611079116
71.71207484123624
68.61644582410536
19.666101607441426
-38.330707047403706
-39.158999800321176
-10.036859507974391
-16.629344282080954
-57.17213967601705
-41.88304007187708
19.813474758677316
30.073648129049733
-0.11789508161368081
26.518477520897857
32.61599944772698
1.8408264786322017
-3.083139113848341
-6.653375052151863
-6.64746547994699
-9.328480454828318
-10.124981824499942
-7.810450392081292
-1.7749952185461504
8.81069090522645
-5.146950362478016
-33.15047390216136
-33.66005357701779
-12.749377644387218
4.534734960652064
27.175123166575695
27.25252255128647
-5.5006346853765775
-8.619820982668113
-23.185166487918345
-67.02436262155369
-63.5008494701549
-29.486008358979795
-10.373503594721216
-11.994683767398103
-25.75536317913419
-27.074625233079722
-23.271711286916936
-21.934232244187964
0.63291805637324
25.276764212336758
34.86112802868361
15.129390157329883
-9.563856036411067
-11.328929778064184
-19.95790898588816
-22.274618031926973
-9.301153504922569
-5.018041180221258
-5.283329844476154
-1.3213166079364749
-21.223450075729033
-25.922056769602015
7.479819690678676
30.584173043420712
6.814567788885885
-19.833970873966937
-16.997365486252907
-12.867029202503863
-6.276341270199047
-17.130374898831626
-38.67334543905401
-34.77477732270839
-13.108959622046871
6.749377642499015
28.586734464427913
37.61636268390153
30.260176954533307
31.2103537000615
23.425841255621243
16.503236638557144
26.801937506413644
35.77043997595424
67.9597405159023
88.09982203224675
52.012898369014685
2.388914524523683
1.0923677864081038
52.201321243703234
57.54460571281301
-19.471905623746018
-73.94680959866689
-49.67749397600093
8.390168675540938
45.17022964782022
21.046604849669468
-38.347326520517214
-18.349209960510798
70.48025298506428
81.57896120528214
34.52328088435907
17.211166417448304
36.59915322675653
69.65436886373381
96.17703063688347
70.31341663063131
-34.824846314888596
-83.05217789510618
-11.97843196219086
38.32263218459746
2.5457703932910483
-43.42315756975003
-61.92762658960189
-53.7572880589675
-19.251222922677574
18.123733674762754
42.79585294022929
37.123554342266644
11.780643837622486
-2.0345957451985175
0.6903820481342261
25.1945966364882
56.96604298611919
58.08006110351478
11.847241877537211
-49.19552877537077
-75.59552624681356
-49.55011865045328
-2.5361678688198452
-2.650717258028432
-33.685107113061555
-25.813122387758554
19.829213831081375
53.48538115696451
48.01075400575445
28.804662804042195
8.772489280469877
-0.398299990544968
16.677878630869838
26.346947689273858
-0.5232354491361335
-39.035630430453594
-25.907835302484713
11.545085557787798
