AAD_Filtered_TADAS_FILE
AAD_BASELINE_CORRECTION: BASELINE REMOVED
AAD_FILTER_TYPE: BUTTERWORTH
AAD_FILTER_ORDER: 1
AAD_LOW_CUT_FREQUENCY_HZ: 0.025
AAD_HIGH_CUT_FREQUENCY_HZ: 40.0
EVENT_NAME: 202302060117
EVENT_ID: 13194
EVENT_DATE_YYYYMMDD: 2023/02/06
EVENT_TIME_HHMMSS: 01:17:32.00000
EVENT_LATITUDE_DEGREE: 37.288
EVENT_LONGITUDE_DEGREE: 37.043
EVENT_DEPTH_KM: 8.6
HYPOCENTER_REFERENCE: AFAD
MAGNITUDE_W: 7.7
MAGNITUDE_W_REFERENCE: AFAD
MAGNITUDE_L: 
MAGNITUDE_L_REFERENCE: 
FOCAL_MECHANISM: 
NETWORK: TK
STATION_CODE: 3146
STATION_NAME: 
STATION_LATITUDE_DEGREE: 36.490758
STATION_LONGITUDE_DEGREE: 36.226952
STATION_ELEVATION_M: 698.0
LOCATION: Kahramanmaras_Pazarck_Turkiye
SENSOR_DEPTH_M: 
VS30_M/S: None
SITE_CLASSIFICATION_EC8: unknown
MORPHOLOGIC_CLASSIFICATION: 
EPICENTRAL_DISTANCE_KM: 114.57
EARTHQUAKE_BACKAZIMUTH_DEGREE: 
DATE_TIME_FIRST_SAMPLE_YYYYMMDD_HHMMSS: 2023/02/06 01:17:31.7947850
DATE_TIME_FIRST_SAMPLE_PRECISION: millisecond
SAMPLING_INTERVAL_S: 0.01
NDATA: 8582
DURATION_S: 
STREAM: HNE
UNITS: cm/s^2
INSTRUMENT: sensor = ACEBOX/SARA | digitizer = 
INSTRUMENT_ANALOG/DIGITAL: 
INSTRUMENTAL_FREQUENCY_HZ: 
INSTRUMENTAL_DAMPING: 
FULL_SCALE_G: 
N_BIT_DIGITAL_CONVERTER: 
PGA_CM/S^2: 346.931
TIME_PGA_S: 
BASELINE_CORRECTION: BASELINE REMOVED
FILTER_TYPE: BUTTERWORTH
FILTER_ORDER: 
LOW_CUT_FREQUENCY_HZ: 
HIGH_CUT_FREQUENCY_HZ: 
LATE/NORMAL_TRIGGERED: 
DATABASE_VERSION: 
HEADER_FORMAT: DYNA 1.2
DATA_TYPE: Acceleration
PROCESSING: Automatic Paolucci et al., 2011
DATA_TIMESTAMP_YYYYMMDD_HHMMSS: 
DATA_LICENSE: U (unknown license)
DATA_CITATION: Turkish Accelerometric Archive v 1.0 - Disaster And Emergency Management Presidency, Earthquake Department
DATA_CREATOR: AFAD
ORIGINAL_DATA_MEDIATOR_CITATION: : AFAD - Disaster And Emergency Management Presidency
ORIGINAL_DATA_MEDIATOR: AFAD PROCESS SERVICE
ORIGINAL_DATA_CREATOR_CITATION: AFAD PROCESS SERVICE
ORIGINAL_DATA_CREATOR: network: TK
USER1: GuestUser
USER2: 
USER3: 
USER4: 
[...]
165.85168153451184
97.59592369438985
-10.179131884275918
-24.299518257236137
53.21550048662671
103.89878672296766
100.82633026206776
86.78854126710918
62.908519431383525
24.002147357494522
36.302221130627636
135.76058919733424
190.46905933116827
84.72483907058687
-74.80258137575163
-166.5278042940812
-179.55946596916326
-86.30624959377093
60.90705205528539
107.77377760112253
-1.5479575960079859
-180.0095965137585
-296.37271273474016
-272.7058109040976
-94.745630361422
135.1781330436132
250.47072717272346
207.38525045026662
17.383943172536465
-197.17112861496008
-218.4723764219771
-88.50353010183986
36.02428969370132
123.43144550503466
160.6752104308689
157.79180429942718
97.12096999426413
-28.820461107162316
-136.64067603878846
-165.39724720114316
-83.4452821896047
66.95097089746548
177.8545112209411
212.37389638893285
164.8831968254747
80.92302793192574
35.54859251644732
26.278932868598282
48.89553395435371
76.38653983130558
60.124896360122506
22.01365977163273
-14.885745000842924
-33.86588207897694
-25.279192829787398
-12.060976920565375
16.81854888804362
64.44780265910856
80.27755851197536
37.75797792026348
-8.975366448523177
-5.623745420630702
27.18392439142558
76.73551007998402
118.63876437116589
96.97350413018077
35.58115523373195
-24.979553549790534
-84.34274367951708
-132.24653172049526
-152.63210153836005
-121.11300718574716
-51.67734368650271
3.7834406319541896
27.72373572768653
14.932474521480483
-37.9920394850207
-84.28217190673278
-50.424645652779404
45.93293878510824
117.572766298206
145.0455084397723
132.72481508426307
92.30900509263681
81.25132011997616
109.18974704074654
143.89591084259462
166.18346365713128
161.04210231379702
111.65611225659741
6.661223618823411
-88.92400824843116
-85.14457764942578
10.967573845520535
126.1571964633898
176.84659445662638
147.9260509290243
100.79929749261824
43.57471408609625
-37.69750087657502
-88.69896173422136
-73.84858443877137
-24.09010874721257
22.627308506486386
51.60816300251776
78.867742626692
99.94028620154482
73.40519744359909
24.607843415325785
18.60267623825051
73.30420919991235
176.51480492307783
241.5343531314958
183.26686920379353
60.3015386640086
-52.580891127252634
-119.22231548280871
-93.80795318616084
-12.227439614229871
68.38822053932626
95.45026333137127
-20.410852286178603
-196.16479876140843
-252.69202880206296
-190.3844963797714
-88.74242874992083
-6.4081015212597485
2.4171555607163393
-73.14740209460713
-176.15007563119565
-218.4412843102005
-198.5226078440643
-161.3005555510403
-126.00804744885156
-135.34498025773772
-179.11724542526093
-215.19447243219454
-248.88532086109558
-269.8510318716021
-281.93460101286934
-285.18825410666835
-238.9284861716945
-145.8009018641277
-28.641177093591615
77.30713421813829
113.71801391791342
89.33821851688386
49.76314225840464
19.78484879026349
31.327760899832356
81.46207317623359
110.50249185711564
90.06151331355873
59.10405955076758
48.9912016430011
56.310734689971945
82.23829081372548
125.30908346323719
167.69924687409448
181.36390537339486
150.69193087003012
109.7405463496114
105.13115404156136
138.6272634251896
182.33295607975558
206.43670093910225
200.4371588393256
179.34485360719853
147.69457781603342
98.39488506077825
47.899046319329045
25.17734124088778
51.18755672554312
109.99633104195686
137.59451177860515
100.8043167445341
34.77406731279149
0.6975747798714703
28.392658490358833
68.27505170782058
67.52627595390248
35.54682566011349
-11.612980855928203
-47.22369591639601
-45.55877723388641
-46.80741112578105
-81.25866876088267
-100.52267506734282
-70.57370907941602
1.7537741651541838
91.3368800631032
133.98855467263812
134.64329130504905
155.11748075898137
169.8843354305057
151.7401195912006
88.33303808541365
-12.23120699639758
-22.61474632298222
64.87108744294449
95.03689667781974
54.624842469370115
12.104529757350571
-6.930008564701197
9.994990552521145
21.6906950236425
5.6734287343950776
0.4780548267398617
13.3218474671756
21.632319121761906
14.910407828399439
2.7718406617698315
-10.333382156262818
-37.520045828544106
-53.83962604482362
-43.465654334032486
-53.478117088524655
-82.13406547458973
-76.8532729850594
-27.978707220120132
35.344537012150745
59.62438169726228
36.283416444637716
23.4805285544692
38.248425405570856
64.582033551457
95.78587179485355
122.25131361306877
153.16818636993497
170.92219215433047
152.83667612586208
121.09566567545923
41.867288385778686
-98.65108800758293
-206.18266470167103
-248.28873372308712
-251.09552290157666
-211.99502118536907
-140.05830170027792
-52.10464642393931
-6.978861625184537
-55.05748062087213
-132.83415788021995
-166.09637729240868
-146.49403883496265
-98.96087792998178
-63.215248954527205
-43.660674191161235
-24.586104383478595
-23.620520040292426
-42.30361600821904
-65.4676771098994
-125.46134095166909
-212.08366144335687
-244.19438616492423
-201.85788029926098
-102.30135452160785
14.2709478038833
74.36073267149018
102.48775087197647
129.53102374484743
98.05793716875264
36.66253794710925
19.930523443841835
20.579344358870742
-8.301058649026658
-38.179237980777565
-25.919236260567672
-18.43231150241996
-49.65899721444204
-42.370177920091315
6.988613472844755
25.75413209088395
27.762030134993417
34.47513918043292
57.015843178358544
116.79008585265795
155.09184786623632
118.1223843117399
37.656322361493714
-17.212322293135248
1.9199350001081328
45.188490407981554
58.804578612019974
67.90482962507438
50.100734892184846
-33.94546308277696
-114.62557230334053
-106.13596556482341
-22.473620776970336
69.11873126144728
111.37089009440159
87.59468938221049
27.744040566039896
-36.95436450294265
-80.88640689554826
-119.4734804640503
-196.9354510581247
-258.80766407230186
-229.00529819725372
-110.78518244562962
54.01647533779098
169.1634861235484
192.5633369249429
183.04822089489286
153.0123142063203
107.20587475018492
87.69451986683215
80.91003081499618
63.41202749698745
71.4447139192719
117.18156111754433
143.80764275347718
105.09682631447814
17.436504072943926
-47.25263209600507
-14.265840336249543
107.70139307542634
208.60689026769975
192.09980550746963
99.90240659348571
23.323922236847114
-19.690250125635924
-39.274721072651666
-37.74072825018101
4.417903171303063
81.1296090678895
103.38442200312862
36.74217547618978
-43.14449254265481
-76.12911031962966
-61.79012317800615
-23.438817057641558
23.16972861700027
50.99528473484962
30.014014318037294
-22.37384408167038
-64.46138814202476
-57.2110281920094
-3.0659670207410565
29.691141801851483
11.467391880913466
-16.14928791853849
-24.95409658836864
-14.348041077983199
4.139697412809731
14.77277033666379
16.448521825494208
28.515648276336307
65.50886113555605
81.68643891421401
26.961616226368935
-44.31732099966202
-57.50724634312248
-20.571149319336573
25.53490997671253
48.40960082756159
28.40789337594795
-42.578319577919736
-140.67586887830393
-200.42477470582077
-196.55543901533957
-146.52031117615118
-68.9771510181072
-15.519377600403832
-15.621789380187987
-61.86345367925201
-129.30041352853766
-145.27326201992273
-100.46493177498412
-63.64713058474815
-66.58265956540696
-92.39572484026112
-93.05870867269338
-71.23504133856854
-59.35218360802127
-41.73437440189137
-30.518084434246216
-37.30448510518894
-47.76075057783877
-60.763539059207005
-55.49402500740102
-40.630853825784676
-45.532602731084204
-52.976928178475
-27.64628175162942
32.529401202368724
74.94017582786802
68.68662566260339
24.988425423180693
-37.07863620524635
-70.67530353870752
-74.02950290282416
-78.50693635903302
-69.65838903059095
-59.58682336282705
-71.67509774909128
-79.97585016094293
-72.80695752617471
-55.358841970742276
-21.305150548965788
11.382749752000931
5.006383556929567
-57.06422018789058
-125.28572051304785
-110.58806448383696
-29.595523606733064
23.853530218693933
40.65385933901503
31.48810430993294
-23.24793003534363
-79.0447266950743
-80.47604911028687
-38.05049914800848
0.02913408482747766
-7.061571024583915
-41.54459842062692
-69.92783014661482
-84.19259494254594
-64.85400975094899
-27.70421537090683
-10.178595879774708
-6.028886163909742
-16.51254229911349
-35.95971572654081
-37.13306989312421
-27.976131607335454
-17.688817803345973
-11.500483864799818
-30.40541814066228
-53.41432798090517
-46.77613526091343
-43.00090219645334
-76.95745761482968
-118.92271308200502
-121.28296381672865
-63.63448717841283
9.975102300853031
44.95751646289668
49.94627745573767
20.42045111902901
-27.308125598975185
-25.974356653017477
11.293542517711511
46.97754175267284
83.0632474907918
100.43170248282
92.34857252115508
69.47452720155924
41.20565234365976
11.217276285243786
-24.11073437191231
-24.63742237931842
22.370608405825283
49.08619588087591
42.853351790109045
24.38081114737089
-34.72843767377163
-95.43936803677799
-82.71162254529575
-20.457232185762557
27.743984988478726
31.5555846672162
12.933543472210705
14.793050388413231
35.08448055727854
44.237781826796464
31.87380227728893
33.0776158310525
51.91315201354547
41.40499091864578
25.07970608531454
31.15766865109989
46.44018766699398
83.4590966351457
128.84124854911465
157.184258847136
148.7414515145843
112.4746898507957
107.33802415528953
121.63833473566766
120.99642087254338
111.40693001072863
97.58450723539451
122.73425116567961
134.6199945778659
37.300786646600415
-77.98007516478644
-133.51984675278263
-144.45762275374952
-94.44547058569327
-40.27671772571072
-45.300858399226954
-92.77801563311462
-154.629861986381
-181.9866461781886
-159.34995752467356
-113.66939643494062
-106.7905037012047
-198.98947313428891
-278.9058587159295
-257.7867734823451
-235.8525156953417
-214.6597149534817
-129.5247296201905
-13.108854214147717
83.72119880461217
57.626207446503365
-76.79641291099006
-114.00449479193584
-56.48908040357988
-38.677845500536414
-38.4607522106484
-41.67462531782799
-21.718199109415746
65.1666885096823
120.18597962255897
92.44752896723065
41.69049001763215
-5.675073835794559
-27.257907790385776
-43.40042500493528
-100.04526910131445
-147.1181064782958
-133.27289080737498
-90.85087023228348
-62.75649370048502
-81.94808325345987
-129.56986455495735
-138.00856593891507
-116.690419876965
-100.28909579998981
-60.09529188161749
2.210045829799901
26.914133190287505
-18.853924422342217
-76.89726316144873
-79.2982064808525
-51.64491791666274
-22.25910631199097
16.63049137376631
53.1025280908279
73.18417307510981
66.1485518245079
41.95745073384967
29.930012728239063
23.638179399665876
-11.733165854006241
-81.90013757281227
-141.8872247250008
-145.06465607229552
-73.30018881205704
50.29022553046866
128.79588591498498
93.4028908284032
-6.022269675904215
-100.82720396160413
-160.7617392276678
-184.99166761297275
-190.58736293749473
-152.68473683847287
-66.49658954046912
2.5432317874736494
16.751740364323403
-33.45879277213758
-115.77626851670894
-171.85918530327424
-219.42900470084552
-236.86223987206054
-169.79652065722382
-82.73633249043291
-60.55786043692144
-107.6420019469367
-129.47155057211745
-62.53501464428798
-2.20923565941175
-3.638203230399467
-10.363160488443501
27.17057952592183
120.52602079664652
206.19448742384677
229.3544905154884
216.93216752770306
177.0577897574347
114.22717899545147
79.26369671837772
52.53102225627596
15.088114068958166
48.56178342865561
118.17167217629279
119.32810972466713
38.75366824658703
-99.77119394783726
-156.73466364893864
-60.48420586014657
56.40301770757918
140.9600107740178
192.65453714840245
173.43178386210224
99.69660070794903
36.46246245621106
72.96523417232456
187.78135637896307
224.90196848208947
120.71067208225121
9.077924647778243
7.658459730518419
25.631227243287228
0.6560492161669368
-5.365895164547098
-18.610676174263258
-40.287286589560935
-10.734615130894527
19.8744725348034
-21.91908352259979
-147.68985705006654
-235.04556291665702
-101.92858826414839
152.11487099370044
261.9501459657292
178.7349210735608
26.736512749740214
-111.9891984041319
-167.83032989544793
-15.392096598426779
219.68365567195593
226.09752734943757
45.04348057611951
-100.77538927334102
-154.2469365334955
-141.73453023135428
-87.60081384179611
23.016507241216814
106.36386290586303
82.81518854728597
70.48289337974443
109.94524113840009
128.01790137894872
70.81812599509857
-99.68644960248379
-264.08701013803903
-261.167933754643
-76.16037442308722
181.37586701455484
303.53197223157196
234.0523217716387
117.58682813462451
-21.019138088004112
-184.53070559816862
-249.38168148191238
-210.05270377000818
-175.79103516904658
-123.06766044647408
32.401248924455295
195.82889975526612
205.54475986125442
86.09681328561052
-46.28063859360013
-118.89119110596147
-127.93709872728549
-127.34564575676765
-95.97648749202412
-0.17384767861248682
92.69503159433717
88.95988493345989
-55.19107326537467
-247.56628832429473
-341.52744210324244
-258.18909126178744
-31.776889747090042
115.63048377446763
51.648644773587556
-67.18705357129531
-89.94251073099625
-6.888352920328686
115.76915498286633
193.12313437782146
197.0678849540638
137.89342614470294
52.95326289622989
-22.05009644627783
-76.2924538413556
-53.66307441332865
48.78966926351759
103.297803167788
61.031106199155744
-9.073890790688234
-56.01712385512514
-54.086045165966894
-48.42119996672343
-77.49073492514415
-75.54970591821545
-15.894144152902145
95.82051032871851
201.8300791169181
186.89251768799645
117.52307182221021
57.77524417487247
-41.98726576358066
-99.0569673828639
-76.87157213321136
-13.85412205446821
86.8118914947221
149.0876073834166
148.710956615004
75.25826310873494
-70.54473666186936
-170.1071106888898
-185.43947228236215
-86.72770143417301
110.95166114236727
217.5613878745389
193.6927655904415
91.48445940252238
-63.914088356954906
-131.02370993827694
-87.74695728848094
-39.34627477826887
11.03130801288059
59.30826143587098
50.4565276822452
-12.258186930624884
-61.15513677621193
-71.91477351723647
-65.06815972749352
-13.813420643892018
52.55881023586478
14.938638552771867
-104.68037453611515
-159.21585554606935
-132.62560003046798
-112.56179047934621
-116.42442178539541
-88.36480650420138
6.695695586818564
118.58185466863242
170.24048233018524
135.92354421149815
65.20104049808769
37.55100142110864
22.629715281214718
-20.20763656592396
-2.305727881139339
102.45583237024226
195.48260194984144
168.69096692431899
-6.411263946072461
-191.01280953643754
-225.0160885037872
-136.1775498668221
-61.97722887862985
-31.495411115855834
14.987559680393035
70.73662077426037
105.42992424816087
106.38846646876264
86.57392108067796
71.65519772868686
56.17784874222311
85.27649346674578
139.5571644367938
125.08761763952687
83.96332367320886
30.352550640547257
-13.094811655165392
66.5650950895861
144.61960192989096
106.9720850338053
68.92447125807665
18.04666642657298
-12.680479121861392
58.578762660847765
71.80865918037281
10.280967209100426
-24.114535563037883
-38.23608855969131
57.73382658483791
182.92148960809263
158.53785790284059
61.11728209509458
-30.980233113071844
-60.46341622369168
2.018733670590968
69.89487979001474
119.35589611082018
113.13143113311715
16.969944121987254
-64.28292063216274
-50.415460032058185
-5.517155815820751
-23.472838418777673
-72.8834687901607
-78.4483157906838
-39.046075747061266
4.899676775962507
13.329550275194304
-7.622363197322678
-63.57219272646228
-131.82460066213642
-122.84742197578134
-55.823026405949236
0.8251352682244286
7.536386756137259
-50.29562878159076
-64.28283658170179
15.213671165335988
92.07650378744538
110.16410089729835
81.16289270304857
60.85234612035982
62.24774075543757
26.068389574394423
-44.219200218383044
-87.95788774498514
-72.24252070751005
-33.58518815006433
-26.42611201490667
-2.937986528152857
50.9247401338154
23.804939697033834
-36.0644915508497
-14.248355529825787
5.740026626155612
43.66421420358873
137.483686801987
120.46947639468634
47.560822586829794
55.9339048769369
59.988565635029794
50.90329552536946
49.154070710422026
19.843085736338747
-23.064331778002845
-71.96444776531598
-87.17268731458776
-71.91336744879916
-74.80405395649308
-77.7975769796065
-103.27047252265722
-136.78012638958594
-102.27576461089315
-28.620833605792562
52.6504318898195
96.04262249555676
8.116821234621124
-131.75140138570833
-178.62934254679274
-131.0786993125153
-22.99577018678583
89.51830574425729
104.27954016884338
29.00067795484537
-33.67959483582346
-46.736964566387755
-15.135329340652126
47.51447293892079
97.32275906853343
104.04626091836242
44.11864145492432
-42.90199222902602
-61.67078826746884
-35.11352360807727
-21.193337386346478
-1.2467036006731715
6.91264872385767
-54.941564266055146
-177.74079020141843
-262.7934670729815
-248.7158354042105
-146.9112129943162
10.364652390918613
119.6728868315941
113.72239469097778
44.705119789176365
-33.21670796191549
-78.01993999090497
-53.18038425538442
30.35802049095281
123.2211803534853
158.75176893648424
64.44418828876381
-132.18635497180827
-251.33119593566698
-184.87583634798034
6.5091181080950316
181.38272517799672
203.0659355938288
98.55369561616907
-28.471869551141978
-105.82627181241858
-72.06537531104544
9.817838477420006
58.16323085426573
63.20879218905855
22.110438516222985
-23.054682465177734
-68.49850478722226
-87.65330423470826
-8.380202338437435
76.5909017796591
43.27067396696895
-81.53039197943616
-172.60093015080267
-155.72209198647542
-91.79265727558997
-20.052545593999525
21.07053231871448
6.536918097323486
19.32881274939627
45.81735951016474
68.39954825183892
119.0269756424661
111.58533561057672
48.569077379402074
-29.447330926982694
-111.08637578672241
-96.85692657653729
-37.95070758509949
2.8463496880327663
73.86165710059387
102.7059280003729
92.14322066195145
74.68409568332699
26.149509651335524
39.31852555130286
78.44045490129545
81.92616270372075
94.01665606397047
26.706982668171573
-87.47409003369667
-161.26510971813332
-258.28155311494737
-290.5940250559996
-181.15043221397968
-26.168234069362477
110.20386689066768
166.06224109537737
89.31069938431645
-72.45386308905904
-177.28161523666918
-136.0636596862406
-43.92153874992121
-18.2880428675398
-43.60132360074654
-22.792269625662602
53.296317031875404
68.23490039086353
-3.8679669721751466
-68.79929156586932
-51.33480839976262
60.00346807701336
163.96474294297005
142.3836514035006
28.59788423092937
-80.92663366281595
