AAD_Filtered_TADAS_FILE
AAD_BASELINE_CORRECTION: BASELINE REMOVED
AAD_FILTER_TYPE: BUTTERWORTH
AAD_FILTER_ORDER: 1
AAD_LOW_CUT_FREQUENCY_HZ: 0.025
AAD_HIGH_CUT_FREQUENCY_HZ: 40.0
EVENT_NAME: 202302061024
EVENT_ID: 13207
EVENT_DATE_YYYYMMDD: 2023/02/06
EVENT_TIME_HHMMSS: 10:24:47.00000
EVENT_LATITUDE_DEGREE: 38.089
EVENT_LONGITUDE_DEGREE: 37.239
EVENT_DEPTH_KM: 7.0
HYPOCENTER_REFERENCE: AFAD
MAGNITUDE_W: 7.6
MAGNITUDE_W_REFERENCE: AFAD
MAGNITUDE_L: 
MAGNITUDE_L_REFERENCE: 
FOCAL_MECHANISM: 
NETWORK: TK
STATION_CODE: 0118
STATION_NAME: 
STATION_LATITUDE_DEGREE: 37.03616
STATION_LONGITUDE_DEGREE: 35.31843
STATION_ELEVATION_M: 76.0
LOCATION: Kahramanmaras_Elbistan_Turkiye
SENSOR_DEPTH_M: 
VS30_M/S: 946
SITE_CLASSIFICATION_EC8: A
MORPHOLOGIC_CLASSIFICATION: 
EPICENTRAL_DISTANCE_KM: 205.81
EARTHQUAKE_BACKAZIMUTH_DEGREE: 
DATE_TIME_FIRST_SAMPLE_YYYYMMDD_HHMMSS: 2023/02/06 10:25:02.4848320
DATE_TIME_FIRST_SAMPLE_PRECISION: millisecond
SAMPLING_INTERVAL_S: 0.01
NDATA: 14501
DURATION_S: 
STREAM: HNN
UNITS: cm/s^2
INSTRUMENT: sensor = CMG-5T/GURALP | digitizer = 
INSTRUMENT_ANALOG/DIGITAL: 
INSTRUMENTAL_FREQUENCY_HZ: 
INSTRUMENTAL_DAMPING: 
FULL_SCALE_G: 
N_BIT_DIGITAL_CONVERTER: 
PGA_CM/S^2: 27.487
TIME_PGA_S: 
BASELINE_CORRECTION: BASELINE REMOVED
FILTER_TYPE: BUTTERWORTH
FILTER_ORDER: 
LOW_CUT_FREQUENCY_HZ: 
HIGH_CUT_FREQUENCY_HZ: 
LATE/NORMAL_TRIGGERED: 
DATABASE_VERSION: 
HEADER_FORMAT: DYNA 1.2
DATA_TYPE: Acceleration
PROCESSING: Automatic Paolucci et al., 2011
DATA_TIMESTAMP_YYYYMMDD_HHMMSS: 
DATA_LICENSE: U (unknown license)
DATA_CITATION: Turkish Accelerometric Archive v 1.0 - Disaster And Emergency Management Presidency, Earthquake Department
DATA_CREATOR: AFAD
ORIGINAL_DATA_MEDIATOR_CITATION: : AFAD - Disaster And Emergency Management Presidency
ORIGINAL_DATA_MEDIATOR: AFAD PROCESS SERVICE
ORIGINAL_DATA_CREATOR_CITATION: AFAD PROCESS SERVICE
ORIGINAL_DATA_CREATOR: network: TK
USER1: GuestUser
USER2: 
USER3: 
USER4: 
[...]
2.969010802509496
2.855408616401048
2.826086090333062
2.80854659364953
2.760959203360078
2.8282258865337617
2.9087440456971376
2.9894203570748585
3.1546387163796763
3.314271396570999
3.408799636267454
3.5484965767892236
3.631344879300266
3.656204038262863
3.6299334953549924
3.626655158582883
3.5920835007491116
3.3871082791915526
3.12398289469809
2.9541313545899675
2.7112616784695764
2.4073482234808283
2.2559209970274305
2.169528917001907
2.157761133581849
2.088936272181877
1.9429790513969871
1.8058793514191738
1.7401997859705598
1.7092309625311342
1.5387797748888195
1.354615442085545
1.321499574824791
1.1729040339172219
1.0838592538742546
1.1317684631151916
1.0671570300498767
1.11874497874385
1.279091546237772
1.4014695948251095
1.5709790462618143
1.788410016082863
2.0981351310764738
2.5066648036814523
2.7701894483091953
2.8639675228743244
3.174254868926751
3.878092889456012
3.837466438858165
3.693341082214569
4.490718331681657
4.701578976406989
4.394914124471775
4.7074729303346405
5.139089164453545
5.2941520082871465
5.310947882357252
5.374629401105504
5.812866990793995
5.951389121378436
5.849355787077788
6.170638890093826
6.387160522904355
6.529815167839463
6.75411083939676
6.910370630890162
7.107709802044118
7.341571154679102
7.59599493748235
7.824711797909816
8.135888424796962
8.565042273522915
8.99886036266135
9.442744224958894
9.797062256893362
10.186873835663821
10.596692296104022
10.702417931356166
10.891897309332824
11.215758494954922
11.335143964288802
11.26480967385138
11.283325402570425
11.467582597123183
11.477815877077047
11.22853019297203
11.153862207992626
11.099481268428212
10.736059359199077
10.492149048324858
10.278996540946066
10.098193493740219
9.818917529388854
9.435874760968378
9.314879475502531
9.027362660585002
8.519741511206178
8.25495482650718
7.842499164963515
7.3669665050432664
7.067331139705666
6.6191852876126935
6.240301451936577
5.858513934987708
5.379174956820196
4.895535603199128
4.319549033052745
3.6858138395939672
2.962225868769305
2.093740395625082
1.1261755417811672
0.38776715895782754
-0.01466495864532173
-0.8192318517849212
-1.7682190476585369
-1.9604112044060245
-2.2124011310449654
-3.0017964841337883
-3.5684785529089527
-3.935227621274008
-4.374194643719039
-4.9721903822101226
-5.593735758079044
-6.3003470713960095
-7.244577098547142
-7.962254749779509
-8.540656050693913
-9.30191324480443
-9.94853164568221
-10.390625600091333
-10.953398372809536
-11.293528099113235
-11.452182193363766
-11.839061616462372
-11.936265872714626
-11.854528244098056
-11.78602091775402
-11.59069790435457
-11.334644538474222
-11.22206260878977
-11.179481035740084
-10.910278614940346
-10.76404634978583
-10.801323479516224
-10.893790923989448
-10.940963407578666
-11.063977689480312
-11.406350540997416
-11.733221673301413
-11.935374762452426
-12.128889315207589
-12.27601795801488
-12.417564708396933
-12.609100275102644
-12.656872364979039
-12.597146828342572
-12.561753872055538
-12.52753750593288
-12.355779757009605
-12.27539991384894
-12.134094449729874
-11.892752504826928
-11.915241659270471
-11.910529864206051
-11.779803984416258
-11.663858725971007
-11.701319625971758
-11.552477807893766
-11.252323896601737
-11.117476625733639
-10.804858176822181
-10.446124364276438
-9.911590837070278
-9.32314067097712
-8.495598307477048
-7.43179969171944
-6.461609256100097
-5.37027955551701
-4.532138035008834
-3.640700163012125
-2.5571149227360763
-1.6803599029338612
-1.0286496811396852
-0.3127082985825333
0.5512550811701344
1.296317051552678
1.9717966027441118
2.6699559896844973
3.350675255335451
4.042902575530409
4.731415787983339
5.354745522361224
5.901308635462766
6.330636916634924
6.661696850392931
7.045252613082954
7.368128555181523
7.596357739701605
7.708222011994704
7.638260163491263
7.573517214264389
7.4143736699823295
7.31306370672112
7.179748837552277
6.984354679612593
6.814614384839184
6.731218386308734
6.700735604356242
6.609633844921194
6.356088573221027
6.377585012647618
6.6652718436580916
6.426865060746005
6.519874457123621
7.0238778747012764
7.181130752074691
7.151942195713729
7.618547546273509
7.6925318625450805
7.450273539937249
7.572583075944032
7.331549299754674
7.046463056268338
6.739094628845655
6.557657912689492
6.171807330333035
5.702297630321635
5.3570041058344335
5.026377357156496
4.76467522409515
4.349946074305854
4.073081970369805
3.7964575559315965
3.4986319117037183
3.3152981583961454
2.996213708821237
2.6904567297189326
2.5589042452578648
2.434044886271732
2.4123896192875636
2.4921001889415164
2.709071348781935
3.0733114903679892
3.5727654812846987
4.261201197129333
4.893008681798692
5.505811644392041
6.322676156082818
6.981385235200093
7.501140242508095
8.26467640874983
8.586331702516242
8.689209608074222
9.111707188338906
9.120950985541654
8.972725073872136
8.91650609763596
8.605025013458956
8.257773896012036
8.22933445931717
7.845820049298074
7.527313665589333
7.741844667766284
7.527220237975244
7.478189429202605
7.681718490315414
7.644347534573905
7.576719150556953
7.557476643687832
7.439255386178693
7.247382949678053
6.955687201364236
6.7036340375438686
6.487063577378724
6.168386079506344
5.957670902223212
5.891236444845786
5.807815112808479
5.647944083419939
5.6140325825768596
5.514020151326221
5.37556741883648
5.309438434224208
5.226531716459494
5.138887641861698
5.129459973726377
5.117841307949695
5.05586218923991
5.045391575750314
5.0382829318698
4.920098974163834
4.839544451042668
4.524350587753445
4.060377356849527
3.8295596007031327
3.382204361692092
2.8173393176141626
2.3504262062637307
1.7490495973216647
1.0986452735278507
0.5900033234680098
0.21294007237548132
-0.12288509067140083
-0.4441573349648408
-0.6062225450427126
-0.7009745808750707
-0.8061095633991058
-0.9565084279987067
-1.1158981312906213
-1.2963246844796183
-1.5315388256490223
-1.848426214285996
-2.1289346051456737
-2.530753985870743
-3.012387795449902
-3.425595663458167
-3.890575838374602
-4.536732272643354
-5.239239605208924
-5.70825339485542
-6.425776156029189
-7.021837279371447
-7.44247808622796
-7.958652720806198
-8.355329347452894
-8.669140893402721
-8.947567825494708
-9.08173551848641
-9.207676913794678
-9.312461470092193
-9.249389594710209
-9.256472196947433
-9.261881660238686
-9.231510940243565
-9.134594042155438
-9.161285700990549
-9.229949208738478
-9.20197912419185
-9.202427153398023
-9.160309386317168
-9.181753590932889
-9.366908244867064
-9.378833621311927
-9.288172286811578
-9.184926788836147
-8.949175839648158
-8.76483020399921
-8.546983156435441
-8.2410863082155
-7.808703545714419
-7.342444341373575
-6.9604301667955415
-6.726659465031125
-6.091797640341785
-5.614687513135157
-5.563819832923152
-5.007382101875112
-4.498867429563963
-4.056016084569257
-3.7747815222689316
-3.2844523422194274
-2.7069492571616967
-2.449665802709441
-2.0266052290133874
-1.8310721768898568
-1.6121973219408507
-1.3827952293127657
-1.3220644649849234
-1.2796515947845217
-1.2492867580245355
-1.1398659285631536
-1.0489362322663849
-0.9119635871221393
-0.6565090658544355
-0.45080956219094837
-0.321881726130284
-0.10129806320953737
0.13026955541920016
0.24513815073714443
0.4653847287515195
0.6478212106977325
0.7262046658083581
0.809595301101654
0.8262181474911404
0.6950816425132137
0.4584314339539295
0.14984305959995886
-0.3125555034104284
-0.7547022081520401
-1.1834196522004023
-1.6595292567111888
-2.135924371329301
-2.5467860084955474
-2.9384985503229992
-3.3763478966613802
-3.6134556291833047
-3.554953764665902
-3.786068520639738
-3.8731344912126486
-3.500037826713453
-3.4627123451210005
-3.5634989745258925
-3.337719483977822
-3.2256264843703097
-3.4075219692076866
-3.423890203974658
-3.5404614604200306
-3.8491340096211335
-3.9960696274377416
-4.096860783252976
-4.274743750429095
-4.375673113942116
-4.288226893854432
-4.1555078540986665
-4.088178236278204
-3.9943709821065387
-3.922992133508879
-3.930149815667994
-4.017365726321158
-4.1446956875070535
-4.317237632998396
-4.519298890056059
-4.7989508034789905
-5.119986922162159
-5.335112810009657
-5.553267775924872
-5.853941375526275
-6.225573617905948
-6.6058362245722035
-6.99805501985868
-7.41775595166428
-7.872570603409309
-8.185602213825598
-8.609683330402508
-8.84068043464209
-8.877790338856158
-9.33423525200651
-9.388770635619677
-9.177193207158542
-9.25122643845993
-9.204174188255468
-9.022488155962236
-8.779998757177273
-8.551995341108302
-8.31362213890982
-7.897994759314729
-7.334173215120117
-6.787515801574023
-6.209328886222931
-5.613109268701914
-5.12457081537959
-4.527384750929624
-3.892602256287536
-3.4088519482884196
-2.9023630616002962
-2.390447371810291
-2.0225987765337337
-1.6022034771575207
-1.0649431015808346
-0.692807963404773
-0.40957165340150187
0.016954201765319744
0.3835400069175532
0.6578337927747386
1.0147934376913836
1.4238405822240823
1.8073199966771833
2.145956667276924
2.441389886533787
2.686510322996726
2.8862345217114704
2.9826511679617043
3.006871657944706
2.9671078607800396
2.807124192969484
2.6881021050384346
2.4110360985937795
1.9522900347433545
1.656479035398415
1.2005488102539745
0.7047494549620776
0.3100161886197296
-0.17510371584250448
-0.5145931448283828
-0.7527488738505533
-1.0683325009953306
-1.2358280090218676
-1.1607179682217732
-0.9861414720861418
-0.7479809493238744
-0.548153468679083
-0.33568396271242434
-0.017693131089374776
0.26218303502159485
0.563613074533783
0.9058150175356143
1.220566699117815
1.5171105047716755
1.8474886004896915
2.291940979319976
2.656775158849907
2.9764196711444675
3.262297066182709
3.4746588331011026
3.7149245844507486
3.998310942280585
4.226967643322289
4.434247511218718
4.7402642295428885
4.961560649541761
5.029802474194861
5.1379170042775355
5.224081280330549
5.314115974364183
5.398897635901022
5.4781175012808365
5.648334467525797
5.892359444494558
6.217812919870322
6.551170555021224
6.960515724078148
7.3940344245179555
7.852976967190306
8.271443034172023
8.66957533168076
9.043320759319478
9.382513501385896
9.624838546185789
9.852535958936508
10.122097224662543
10.297438184342981
10.569180999566093
10.924263526083882
11.14823881988432
11.316924150509474
11.597904236337882
11.945850975848535
12.240963414164893
12.353638077675337
12.469519605882372
12.57002970922588
12.609369975887827
12.615701047995666
12.506505593112148
12.38024593220472
12.23130590973111
12.036608498434198
11.904859287599269
11.830712479615073
11.776351469524327
11.65205093635178
11.564556166650176
11.558248617434403
11.573984135100819
11.623832080267702
11.654797187224453
11.691747205031035
11.731235930229689
11.742172042445274
11.707358871962047
11.762751735722787
11.844431573814203
11.908061273967363
11.882677258299234
11.804104400148649
11.731740261848456
11.63796275051541
11.568526857654758
11.547120344674486
11.510080333389636
11.449421678429491
11.397138100232066
11.383479633011763
11.409509565443908
11.328119487955485
11.188150365709584
11.088697153556186
11.00076932294244
10.814107589473762
10.50681883978105
10.06220859201516
9.67950710631108
9.325528141873235
8.91927331540189
8.68916548285371
8.522878333636621
8.381465354142442
8.31845774304106
8.285657196019718
8.400819277287601
8.53519933528705
8.629957481782943
8.691956843556483
8.63486216966371
8.472857084730268
8.248352512276995
8.018599265454373
7.675117969560954
7.158054004799265
6.488097820555469
5.762347656307417
4.976917183336572
4.144554853657864
3.254872373291143
2.2372167034882504
1.1977505397301778
0.18861373132051307
-0.8810405129297804
-2.0489745244658892
-3.240233917951845
-4.367904232903154
-5.374512168453455
-6.3115445306285665
-7.3299323795398825
-8.316818967688222
-9.111141873391842
-9.588781946406634
-9.885901757610982
-10.265614110259651
-10.722439029305882
-11.146526652694362
-11.380957457605506
-11.567877799521938
-11.856241746849163
-12.235028413134572
-12.641351637134997
-13.054915612791948
-13.42483658630403
-13.834973779203015
-14.317241602673613
-14.674982907378531
-14.999522139180922
-15.526339829783801
-16.09197293216631
-16.5550208372985
-17.02425304104339
-17.631449180707712
-18.46211920263064
-19.25726393427494
-19.85643914297482
-20.460770616919643
-21.112785829588507
-21.726957272604146
-22.27599595179432
-22.56060098367465
-22.767090929334064
-23.125033599531825
-23.473148151393993
-23.684159602455406
-23.685383737661052
-23.71391029723229
-23.82038501071458
-23.930201022908182
-24.21926072471661
-24.530590542870023
-24.778591172389643
-24.982138225073438
-25.214423277610013
-25.58203354210746
-25.921298386607553
-26.088009817142083
-26.096378215879373
-26.13445682037552
-26.36499857098386
-26.617369321791397
-26.768503380816846
-26.896107323512755
-26.9321342745288
-26.93195942377305
-26.935311707149584
-26.898826129930793
-26.77566517883134
-26.5062226308057
-26.191794370238338
-25.939496663628454
-25.738651873533975
-25.511880601010272
-25.087389627658364
-24.49583944795492
-23.80212074183936
-23.037736273374403
-22.239281272719712
-21.415629802860686
-20.488619440983257
-19.358858612297286
-18.16785490203593
-16.963095811353703
-15.657859038473667
-14.183085995596741
-12.710848554243098
-11.349249311808038
-9.976902583784012
-8.489479815377734
-6.957554987682965
-5.58277345243711
-4.445782723395055
-3.370109869478035
-2.2811611087863795
-1.3371507914311853
-0.5208277230887208
0.1494147255621556
0.62019855021019
0.9864716869668686
1.3039099943634183
1.5591992339772949
1.600972029125397
1.4462315625232856
1.300127321635716
1.3186583249864858
1.3517020130246595
1.3217692318373704
1.4694617520751736
1.7305923138574055
1.9480644397226645
2.1650158528106944
2.475272001749976
2.7926257389461684
3.1585373583766847
3.6597736535771572
4.2152700667697856
4.772095951682993
5.378428147758471
6.012484925658735
6.606370356658593
7.246444739854341
8.012947681811301
8.567575700647627
8.797719547602872
8.924425186754432
9.014367107651728
9.108616575947574
9.10075518853146
8.952297472039517
8.700631123092464
8.499683512774775
8.402883970942957
8.308869433758362
8.154362388934766
8.020353549828014
7.864661741462302
7.713986688649315
7.583561568320275
7.237139736664622
6.6737059593167585
6.033439803149899
5.4495916016807575
4.957270106449031
4.444140373756585
3.9834425532686786
3.7584637352238697
3.6766182168586155
3.5975408881887216
3.4874753099920683
3.319247735179826
3.082481414558131
2.8376607454438996
2.550503493825533
2.107425549952173
1.608374027922697
1.2088996903496818
0.8740768498180543
0.6281289441869891
0.4606531001531879
0.3023351932154933
0.08469039507356149
-0.1946416217186698
-0.36067272527083516
-0.42280720320569887
-0.3890297416290136
-0.3396110966456154
-0.3941802244672374
-0.42337934653975834
-0.42241377484922166
-0.5256197631403969
-0.6356126552304324
-0.46406627917645316
-0.36829682905373484
-0.6181212239249131
-0.9703786585918358
-1.309399823939216
-1.4098321412536403
-1.347860553393692
-1.3960290031509734
-1.4837534903935443
-1.4982349017084104
-1.500788948197737
-1.3823006974403529
-1.1085361256801598
-0.7185345907377818
-0.35998217338696115
-0.012510975965321062
0.5375115698870649
1.2404998017107123
2.0544489406520845
2.9255664087746327
3.81444994321299
4.6851040828947905
5.563909999798728
6.315293166845817
6.872892574258923
7.228390392010559
7.454771927668723
7.635240651034526
7.8138235917269405
8.071613175946942
8.082740342693452
7.972162352972068
7.9993375285638155
8.168782632666336
8.379347783337336
8.394861194600736
8.319112991754503
8.551007949443735
9.087533498005886
9.529059329490329
9.706475467151147
9.86091233088255
10.131798857279053
10.4080286441784
10.689627678461411
10.662123872799665
10.492786101270028
10.470395064817891
10.452945346039527
10.369473270772398
10.122979194341308
9.601348365000165
9.020768908569023
8.586123214865346
8.22169730698812
7.763127526586897
7.205629361289195
6.729765317747539
6.223673720263747
5.615556861878161
4.833258017216615
3.960661821246613
3.2529958688373886
2.724424017970847
2.1516253665474934
1.5403063750197163
1.0719286655193734
0.782865513872842
0.5400868000352834
0.29088352422126706
0.09396884624592983
0.0930026513024171
0.1192574404745522
-0.1424396498346669
-0.5901921714903292
-0.9245496802323436
-1.12914406059949
-1.3399444957598141
-1.463929700662313
-1.6672067859819537
-1.9889105574683354
-2.309398763022992
-2.558871442359434
-2.651323995532886
-2.6946527886814033
-2.7784531007817823
-2.8263534824907968
-2.931849515161222
-3.0826965514097298
-3.1375959880530377
-3.0141241686804126
-2.8271467318905694
-2.590929752838538
-2.2461246691484824
-2.0126389431262774
-1.8957939312679755
-1.595171178723868
-1.0591524566563664
-0.5252797168109683
-0.11702869488030644
0.07442130164118069
0.20037304611734785
0.5152576028955773
0.9865734623140359
1.3904510339306158
1.7433269019462219
2.0946060372335107
2.3031705821241495
2.3931652567459243
2.5453692632520735
2.5947027297510434
2.4108454861887054
2.2307208674641714
2.178353032374871
2.110043308054971
2.01834512960297
1.995221190924992
1.9866554614438208
1.8646316411144455
1.6113600306596672
1.437717789850076
1.4621302498394109
1.5764194117820793
1.6870201456847205
1.8684543847469393
2.050529055273316
2.133567592821058
2.211726303972286
2.3902241377544295
2.6954037938530635
3.104591483415121
3.5421311577539867
3.983824461454598
4.385504283264606
4.796893288284211
5.017860634040537
4.940843855128609
4.933567035726297
5.120002421784872
5.158583195859674
4.992543870870688
4.870475397011076
4.812802516123505
4.598489205697556
4.2136820568096365
4.03697538631471
4.012607138486586
3.8732636771009314
3.5172547773944958
3.126034451854488
2.861377569564309
2.674497883136675
2.3750345654329306
1.9298890363052548
1.5939030833837664
1.37117362453865
1.175245610572387
0.9118149843699638
0.47402080720339324
-0.009671591930603785
-0.43769215037983145
-0.8759991201330983
-1.470338135075578
-2.0902322974452043
-2.6597522528629036
-3.219755778243735
-3.769568641031567
-4.411144980852403
-5.056037763074484
-5.644087010350104
-6.186885968950664
-6.8104712766195465
-7.555214956417197
-8.348089493018103
-9.100669576021929
-9.845969532145606
-10.613995834891629
-11.363210830417412
-11.890582310592892
-12.357058923568488
