AAD_Filtered_TADAS_FILE
AAD_BASELINE_CORRECTION: BASELINE REMOVED
AAD_FILTER_TYPE: BUTTERWORTH
AAD_FILTER_ORDER: 1
AAD_LOW_CUT_FREQUENCY_HZ: 0.025
AAD_HIGH_CUT_FREQUENCY_HZ: 40.0
EVENT_NAME: 202302060117
EVENT_ID: 13194
EVENT_DATE_YYYYMMDD: 2023/02/06
EVENT_TIME_HHMMSS: 01:17:32.00000
EVENT_LATITUDE_DEGREE: 37.288
EVENT_LONGITUDE_DEGREE: 37.043
EVENT_DEPTH_KM: 8.6
HYPOCENTER_REFERENCE: AFAD
MAGNITUDE_W: 7.7
MAGNITUDE_W_REFERENCE: AFAD
MAGNITUDE_L: 
MAGNITUDE_L_REFERENCE: 
FOCAL_MECHANISM: 
NETWORK: TK
STATION_CODE: 0139
STATION_NAME: 
STATION_LATITUDE_DEGREE: 37.400943
STATION_LONGITUDE_DEGREE: 35.445322
STATION_ELEVATION_M: 238.0
LOCATION: Kahramanmaras_Pazarck_Turkiye
SENSOR_DEPTH_M: 
VS30_M/S: None
SITE_CLASSIFICATION_EC8: unknown
MORPHOLOGIC_CLASSIFICATION: 
EPICENTRAL_DISTANCE_KM: 141.79
EARTHQUAKE_BACKAZIMUTH_DEGREE: 
DATE_TIME_FIRST_SAMPLE_YYYYMMDD_HHMMSS: 2023/02/06 01:17:36.4746400
DATE_TIME_FIRST_SAMPLE_PRECISION: millisecond
SAMPLING_INTERVAL_S: 0.01
NDATA: 12501
DURATION_S: 
STREAM: HNE
UNITS: cm/s^2
INSTRUMENT: sensor = GMS+/GEOSIG | digitizer = 
INSTRUMENT_ANALOG/DIGITAL: 
INSTRUMENTAL_FREQUENCY_HZ: 
INSTRUMENTAL_DAMPING: 
FULL_SCALE_G: 
N_BIT_DIGITAL_CONVERTER: 
PGA_CM/S^2: 17.656
TIME_PGA_S: 
BASELINE_CORRECTION: BASELINE REMOVED
FILTER_TYPE: BUTTERWORTH
FILTER_ORDER: 
LOW_CUT_FREQUENCY_HZ: 
HIGH_CUT_FREQUENCY_HZ: 
LATE/NORMAL_TRIGGERED: 
DATABASE_VERSION: 
HEADER_FORMAT: DYNA 1.2
DATA_TYPE: Acceleration
PROCESSING: Automatic Paolucci et al., 2011
DATA_TIMESTAMP_YYYYMMDD_HHMMSS: 
DATA_LICENSE: U (unknown license)
DATA_CITATION: Turkish Accelerometric Archive v 1.0 - Disaster And Emergency Management Presidency, Earthquake Department
DATA_CREATOR: AFAD
ORIGINAL_DATA_MEDIATOR_CITATION: : AFAD - Disaster And Emergency Management Presidency
ORIGINAL_DATA_MEDIATOR: AFAD PROCESS SERVICE
ORIGINAL_DATA_CREATOR_CITATION: AFAD PROCESS SERVICE
ORIGINAL_DATA_CREATOR: network: TK
USER1: GuestUser
USER2: 
USER3: 
USER4: 
[...]
6.339460547692294
6.323544778961661
6.138160185662817
5.738440781781152
5.1759247381192734
4.56449067150624
3.9689984246683476
3.3656347189142735
2.7308678383303593
2.211542532419332
2.056197572848612
2.329790894323102
2.770204242268904
3.0246165618309404
3.0434525115130646
2.9988448248743964
3.049500937453265
3.2755446731695486
3.62307936861602
3.869801038421288
3.6865769960891375
2.9806210730376153
2.106996125578028
1.560139583675511
1.5326098249179487
1.770268182469048
1.8513443974494908
1.5470994616588993
0.8922797705753164
0.002498219178840874
-1.039996183152565
-2.051930853252065
-2.756851054239559
-2.9886494116013766
-2.902867570070229
-2.911584881222745
-3.204530965719988
-3.6955192825173917
-4.3109360037027615
-4.961740744625728
-5.508363607565733
-5.766723948319794
-5.2809323466829605
-3.5819677678700756
-1.011146236860174
1.3954916444770034
2.909062272309616
3.634111960569585
4.060318829224688
4.619462492444545
5.5089925555975485
6.348312751901848
6.5491136365916125
5.887568083845031
4.563405363214005
2.9641114762329903
1.4138852190393025
0.2076033729909814
-0.5744981748712306
-1.1448876863193869
-1.6779675847043414
-2.07984736670644
-2.0509960624700234
-1.4195052460830515
-0.35730238640645295
0.7666720381870167
1.608320013044051
1.9865003255313003
2.0510535992828554
2.155424084919669
2.5034185436555805
3.1524628287908745
4.07557887348538
5.051302718126319
5.753042455957076
5.932149834640031
5.49882310301382
4.532902242100143
3.1968608364472284
1.7106913820238856
0.31888936020612363
-0.9189250515711048
-2.303238390465642
-4.217363821170211
-6.5726852870769354
-8.853632196123186
-10.562144217538732
-11.444213931990511
-11.57238746487305
-11.312050913550168
-11.046522845225555
-10.748603158208597
-10.095978248033774
-8.873675056329951
-6.930988911585536
-4.348813268855425
-1.7055046034989785
0.3643731760297972
1.6758398493674254
2.3365182367616937
2.4168558349218365
2.0144625981841284
1.4450866534926976
1.1941596912671035
1.662023588488643
2.8959453740606924
4.6233911434321415
6.531918628869859
8.42710780877691
10.23269400004332
11.838371588543614
12.999361312334633
13.513005198165455
13.38142319751289
12.697938855897808
11.467149787468081
9.617282902491715
7.10636215246082
4.182234840726015
1.3672090348744006
-1.064394747149509
-3.1654039350559806
-4.964207666114052
-6.472753820221136
-7.793417497285625
-8.87144704525825
-9.357303730808518
-8.917579079796335
-7.58960594647768
-5.815774724416814
-4.243492919600565
-3.393016992537291
-3.3111702378865844
-3.6290429453913053
-3.8865097392695396
-3.7579196389649887
-3.260490979823486
-2.733341443735354
-2.5186133517159472
-2.8232544369636656
-3.7623957106763317
-5.29538246532
-7.1074123782995935
-8.749927815053297
-10.013327818065
-10.900668503216695
-11.488092692721477
-11.905505800709022
-12.14367896505569
-12.22634331370509
-12.268961377287848
-12.22270759381136
-12.057369022695221
-11.95474478203502
-12.175309217242466
-12.766095137330785
-13.488346874056406
-14.068359903909537
-14.330596977776457
-14.063731628512766
-13.075920578346706
-11.525212817628697
-9.80359580103446
-8.249387141286112
-7.043413772368054
-6.033329388440158
-4.793569880142023
-2.980722228331453
-0.6061977335017972
1.900088506743968
3.9092296963374
5.184401127028362
6.134428593647834
7.2346199573071095
8.538768856361283
9.852296539277438
10.981404191464826
11.790744376825492
12.130654181437519
11.843233300139287
11.049257857455373
10.110748045130224
9.299102342936793
8.691925372518424
8.20596517257643
7.7259345084950635
7.141552854966774
6.406282870223438
5.632906649087818
4.915030942870251
4.324636947259637
3.9488447845147534
3.7555771029939415
3.60377092485523
3.2029764185874856
2.211062107340681
0.4916846476730249
-1.7093223837269407
-3.940961183839974
-5.880364027059365
-7.361479161042101
-8.488253930513572
-9.508055860959779
-10.459928182040825
-11.198191562481284
-11.529200418056412
-11.43130791777989
-11.038801967758436
-10.381666470723877
-9.49583255760184
-8.504838411540476
-7.5359694873809815
-6.679624929873777
-5.847637745033456
-4.893944398073332
-3.8441283131899597
-2.84274455976661
-2.018174181983466
-1.2868814948692908
-0.29964905773731526
1.0792146553326536
2.388298486410495
3.0124484677316734
2.700060598573995
1.6398885152872826
0.4046789748402638
-0.3880625920849362
-0.5902188932425341
-0.5353841352148202
-0.6303747420541536
-1.097247119181145
-1.8948878823961184
-2.7263979736068142
-3.177997440183476
-3.126352967224131
-2.9267318227856767
-2.9858381962804827
-3.424621438199772
-4.01550178685356
-4.338165513318316
-4.1984694738616195
-3.689381388410169
-3.016667033345839
-2.4865574194946385
-2.288418632906386
-2.332021311099469
-2.3985575463714826
-2.2357863006037766
-1.6290507061590107
-0.564733428035822
0.6581925453597571
1.619064780514311
1.998309645362835
1.6908017584254236
1.0196672473438242
0.6016578683604775
0.8831528204109322
1.8184968275881086
3.004765565603907
4.160741284341245
5.297444981362224
6.486907824010832
7.703934196669034
8.969500726171928
10.297905909464125
11.57788259609508
12.723293201219173
13.724771095543893
14.650314608599194
15.497854286148367
16.184178776646252
16.74375714013192
17.231857509724154
17.593895893958972
17.694127616866364
17.477590173625952
17.024515669765144
16.390474717130406
15.518834823106712
14.33393905032372
12.894987781815832
11.298856027277033
9.606572124209139
7.866093297758051
5.937152894925922
3.5976269414962436
0.8846396312252113
-1.8918085511161347
-4.329427532901499
-6.123190045102681
-7.193833976439861
-7.690557190919964
-7.9569722798049
-8.390231709628793
-9.248615675052868
-10.528304217786117
-11.90949630616093
-12.907213774269938
-13.156895395097349
-12.541419970248445
-11.186272212411021
-9.452219445536965
-7.74704858527086
-6.303776863907536
-5.21548253209712
-4.565659368223314
-4.4134787093736865
-4.615986502661376
-4.730123100924361
-4.196104326932651
-2.802071187394853
-0.8466809802393372
1.2471135730874428
3.2328408179719843
5.13597366113448
7.126169220670106
9.191595734564132
10.980315177848967
12.055545336795184
12.369727917422324
12.211797354493145
11.84211013758779
11.422081950500974
11.015326148459945
10.552429247898209
9.905807377676394
9.108838329646785
8.432341184348129
8.199148056437712
8.582218508679452
9.578346964146027
11.086216915785258
12.805611252830591
14.329306731739983
15.48474160506598
16.24748767367883
16.56820052822689
16.53062478321532
16.33578596688033
16.103039042685822
15.862101879934361
15.53204797954629
14.929114689241244
13.971644501503974
12.788606389842402
11.667828692571314
10.862694334836108
10.397605686008472
10.075365398809748
9.527828620300347
8.468190544026191
7.1162067786162275
6.083619703690605
5.779227953260176
6.068458657771933
6.410158436642418
6.219834320072579
5.158411694576526
3.2979129448364914
1.1085290548020381
-0.8374862972251517
-2.219622591049244
-3.1007140659382273
-3.78014329860911
-4.488019018953289
-5.229126754804348
-5.956868651565225
-6.687331609172077
-7.385288638334834
-7.92550299406949
-8.135935720699454
-7.906569996644938
-7.289692947792278
-6.4877019944315535
-5.761959373802162
-5.381038824111913
-5.603331428974806
-6.500365321190223
-7.925228341057717
-9.59321005628114
-11.160837927239724
-12.562607208515281
-14.042068306865485
-15.687575688397695
-17.15284901031325
-17.887690033239828
-17.547418095152885
-16.12921237455132
-13.946834990211196
-11.483832409749255
-9.146648214043932
-7.217344481141233
-5.846397509869162
-5.169922953216804
-5.247546410745853
-5.702313296174398
-6.056300438784904
-6.144264340922706
-5.986013641750068
-5.625744302972286
-5.019515208212061
-4.172620959055055
-3.152104375863852
-1.9174254485054187
-0.4138812737518733
1.338301523019732
3.317862161785964
5.567990614826034
8.005538294908009
10.280867772880782
12.098788182182986
13.498816026687923
14.690306529801125
15.70111221781929
16.239857961377073
15.964825491304836
14.901634050573104
13.504859186725225
12.267514830298063
11.380732722197852
10.750989725895996
10.17542062306026
9.521351798037601
8.780612104242097
7.9699058966771945
7.018008821465489
5.777298490545359
4.158356638956955
2.0974373391426924
-0.4170599626945879
-3.1312828466414304
-5.637381616433454
-7.5642706679430844
-8.595736142239106
-8.636269482610468
-7.8034074791096275
-6.190708713226547
-4.00363304045985
-1.6351651427273226
0.5139657412916583
2.0808333339761846
2.9045732330267473
3.1153863781998035
2.951037025205219
2.417683359522244
1.3190931645184705
-0.28514088569856005
-2.1364926990984117
-4.08036955623976
-6.007855480863254
-7.668718156706691
-8.767622640730046
-9.21175938131439
-9.060457484624166
-8.486966883276217
-7.817997778639346
-7.317512514256252
-6.997241499792289
-6.694631561764779
-6.119441599679256
-4.935957757021682
-3.0294956037973044
-0.5986158673166492
2.0288840427885715
4.607968773637296
6.953589811434478
8.863366811668527
10.232383926821042
11.074522544407829
11.443929068718305
11.419795911890873
11.061535428875132
10.396743619080446
9.499303092576596
8.534595124953835
7.609908629550351
6.572424169517369
5.209749694101362
3.5213331508856585
1.614814513590985
-0.24759222503845943
-1.6383763890832619
-2.2536989209783864
-2.07454899792257
-1.3752259822470685
-0.49535630935801817
0.38152678086122915
1.2654917553600555
2.2528959839324845
3.317612881111793
4.33657143785295
5.174179647633345
5.6803740280063755
5.837225621312677
5.907043051731331
6.146156799704196
6.6148494774165085
7.40751498781432
8.598624854149357
9.964792988376354
11.004754138170448
11.322513691307032
10.925421743272059
10.140410464912847
9.239271738428863
8.344070030181406
7.5042046653056005
6.562558172260754
5.325355475235394
3.733916154998492
1.9333457237554508
0.19891689832812426
-1.3130640221700947
-2.4915767171613097
-3.181867282943328
-3.2839220771046165
-2.9205328395436174
-2.5000143823234513
-2.487307377200823
-2.940671523146113
-3.4676784206363944
-3.669333300522058
-3.4338568881568547
-2.946290455950494
-2.3796021729686996
-1.801198322500437
-1.227968257624901
-0.7114630025855673
-0.3979498391889895
-0.21981540227904933
-0.025572688067519073
0.30167861758631886
0.9964687807919088
2.0178176388447775
2.9327903878907073
3.4572700206033824
3.7396045976967383
4.044874845173171
4.460804714318656
4.8192781735184465
4.8620604353434365
4.61345625530762
4.236373323971862
3.7315451288290173
2.9241276834568333
1.7436743889041606
0.35895364006006725
-0.95426861324431
-1.8814371013368465
-2.4237428120976268
-2.6451721430521147
-2.636993017123835
-2.6813308926915638
-2.7282469247981864
-2.8977672619404604
-3.254157587753848
-3.5530757882838113
-3.9273416639967196
-4.105851251507342
-4.106042951058185
-4.293707587003405
-4.278218225661893
-3.8682069484450547
-2.916223545121716
-1.4908956857477544
0.09984370153724612
1.2966452679011344
1.7224373465638816
2.1119730052650825
2.2098379751410424
1.7664975705902142
1.3360945153684973
0.535498090209453
-0.55282866107406
-1.4591413310029278
-2.0281414883015434
-2.4550088702601034
-3.1573080230349406
-3.7174832372935227
-4.265333962118856
-4.926897228414618
-5.370945945631725
-5.5375857208922605
-4.610318307991822
-3.3553280709918925
-2.667327522175994
-1.9050148393352988
-0.8168813434526242
0.794826290483074
2.549291667336892
4.805987953051943
7.361130531254669
9.085998530281747
10.495619107073415
11.789667636503465
12.834156419872484
13.245204616404088
12.407380983711498
10.99262875691844
9.52585522094397
7.93696758547277
6.4209985928103235
5.204825721206413
4.3289158078593815
3.0571132328283492
1.2125736392235522
0.13527747665771506
0.10205887444659671
0.6516603582330731
1.7398227976971992
2.9892466117376038
3.926613427104398
4.376805852503136
4.602845607125369
4.567124149453925
4.277435845253766
3.7882200154475063
2.9065034309273354
1.6729616784512584
0.054420994358711616
-1.429547740028718
-2.5111300194144452
-3.580032989565586
-4.6348240687559095
-5.794413053197677
-6.974962496226697
-7.883813537740056
-8.315599164921737
-8.036919346279161
-7.102904764882748
-5.3679451116035235
-2.9013245055061776
-0.2107145209961755
2.4281886901615493
4.800087601457028
6.757055239109824
8.264794258769767
9.492093552542325
10.525029306961144
11.183723012885403
11.420050260635325
11.205015684722209
10.612627615738809
9.672762247694195
8.418269494596418
7.082418801247909
5.701174172328752
4.422898887627041
3.4656060154548136
2.693370658336814
1.8492352192189836
0.6792260863348992
-0.9951316826991942
-3.151633358428981
-5.442260014929565
-7.759176920288649
-10.159706072784665
-12.263776284598835
-13.918957524548087
-15.024942451338028
-15.677735221991496
-16.0235635459532
-16.058351479085974
-16.4128780859314
-17.077147491810994
-17.67186910907571
-18.04544159519362
-17.660053831247787
-16.464377512755956
-14.822855000683171
-13.223071476967982
-12.16328839550128
-11.832045195455883
-11.960881303829574
-11.84329740915777
-11.182776698292756
-10.193702011239647
-9.27353879532079
-8.792912282476953
-8.609131441145927
-8.533070415738338
-8.498810216505428
-8.3830264752757
-8.311325918104577
-8.409589086347417
-8.527775249147663
-8.372017429890558
-7.700929728320263
-6.351834267133768
-4.688860773445616
-3.1365452086462753
-1.6558580577765958
-0.48592429237819196
0.3880287179609737
1.1903929235301203
1.9079363974099224
2.5446497174016476
2.9354827730947
2.870853360077239
2.224083654272268
1.1074110332619531
-0.27669109631585426
-1.6433865844974183
-2.6800580711590976
-3.4320396203262034
-3.9774665226199404
-4.426788049150622
-4.916668410933223
-5.244080409192677
-5.419978935442515
-5.698178430096931
-6.1315816462508215
-6.8694542245310375
-7.675481339822914
-8.17200242746606
-8.442864804973626
-8.347605059989226
-7.992417818748404
-7.732243724582618
-7.521944552754163
-7.384159662100018
-7.328562097699651
-7.338477291678691
-7.53841858545647
-8.055065714740584
-8.790524324953406
-9.345760050552729
-9.505804168273745
-9.237095730826818
-8.556738145069062
-7.800092093133584
-7.354032792091545
-7.202323252105449
-7.245934993052846
-7.293177061752845
-7.1630996611788795
-7.224606118513547
-7.703064253654468
-8.46641914356871
-9.274903782262001
-9.739148988524764
-9.67668973971096
-8.945854978234172
-7.627915295744908
-6.18648494920109
-4.774827381432613
-3.3854681148325634
-2.0689825799382464
-0.7593130563040299
0.6198833618653964
2.05822510226458
3.1486045542126186
3.495985911554881
3.0300816162182915
1.8320610141078983
0.3036279802628361
-1.1311378374139154
-2.439673793760401
-3.8635748695564978
-5.49699810677195
-7.451056886304328
-9.674364032747848
-11.631842956316634
-12.984718792075371
-13.89298911498907
-14.591209392339998
-14.773087875762537
-14.144763193253628
-13.032564816374748
-11.75290478008904
-10.431532815278759
-9.109621505724713
-7.885166633213825
-6.826838172251056
-5.720629743344747
-4.458389139850644
-3.2990617925648342
-2.499650698603738
-1.9730843022848912
-1.5282651778183831
-1.1262008618349046
-0.8553932901742731
-0.8200223683848635
-0.9369638459408542
-1.1564320358970455
-1.5556201988215943
-2.1254119800073603
-2.749930841585548
-3.1539068424782863
-3.133982668842301
-2.652915537118047
-1.720745222895722
-0.4167080680218462
1.2031896388051517
2.9407665792626148
4.509947188328055
5.800133622153271
6.706190747658653
7.100078832834025
6.920179689754815
6.277954387343087
5.582965654993692
5.144915888487192
4.743590127348857
4.102742230146637
3.2064768019024745
1.8955666677201084
0.22669268403579995
-1.5205032317567317
-3.3736188150320596
-5.304065367799249
-7.131437632310408
-8.520977959330912
-8.99757230187878
-8.556355115394297
-7.7345264717074
-7.044326112470227
-6.599968590774057
-5.95934458895128
-4.5426518959398665
-2.493947596485605
-0.46211967075271637
1.0048725330156016
1.6111730004708458
1.6037150137944975
1.6575968465100337
2.3723954343311457
3.694196671515007
5.017676949211647
6.019556149537092
6.693945592401717
6.962519284432203
6.761833865642029
6.217353458657166
5.6526689215450245
5.407607320156915
5.591917864986896
6.023176651434511
6.28570517805261
6.120263366142682
5.733371047987661
5.374192287461357
4.974731737710236
4.281052799068017
3.216276371672969
2.0294406658112805
0.986647806924126
0.15522089685486462
-0.4999680144336237
-0.9963494121433123
-1.439862687086921
-2.134927156492848
-3.2786236470270733
-4.741647955147706
-6.325272235711152
-7.7450624352455835
-8.702846965752524
-9.245156333471154
-9.624797256704996
-10.027480317392817
-10.390647510371865
-10.535185402270432
-10.483140050948121
-10.296653379655032
-9.858232757020396
-8.997803955694746
-7.688822888705219
-6.133753160429146
-4.6936026237586805
-3.625170311600688
-2.916896296847652
-2.402166549186395
-1.816879273105899
-0.9400823324762715
0.120853755161659
1.1512716527271274
2.1099275206114045
3.01306723135136
3.9493514717427334
4.983533998337039
5.9942829304135
6.8836686156665845
7.623797983495125
8.107533153416055
8.337846931738072
8.530532491210437
8.892570056576261
9.392365084325652
9.707866537360989
9.619646251578118
9.352910407057825
9.29240544907954
9.584675414973654
10.141233871020999
10.827564685898452
11.48134673463629
11.937933883717283
12.170428191084858
12.29080990639941
12.394835574272179
12.423855713543404
12.239369975442044
11.735780413184084
10.836658628286806
9.573775037106332
8.119933326625931
6.645558743585901
5.2094169442990035
3.773303004142828
2.322552531534667
1.0737203970076583
0.4236721314110246
0.6782069291578904
1.8622820394161939
3.505453964039727
4.927525746195472
5.794053760025084
6.093428735240957
6.034123879530138
5.977297945212328
6.1158684158634005
6.243698109504853
5.9789393660483094
5.192434193246838
4.101774936927299
3.1009735813447006
2.4434273934714175
2.0852793974391814
1.8880452307474638
1.7407253653887245
1.5515210815401017
1.2547472242622362
0.8068649627891139
0.12182528656639463
-0.8861513424876974
-2.126632405431804
-3.356639465419253
-4.339632359030613
-4.941378772324784
-5.1585493898099335
-5.121498478125733
-4.969093225475414
-4.760501147931334
-4.570788627268223
-4.484391497419962
-4.542965513082024
-4.721456630334134
-4.965116214439705
-5.194455242423017
-5.285345621709917
-5.20229275533458
-5.000006340942846
