AAD_Filtered_TADAS_FILE
AAD_BASELINE_CORRECTION: BASELINE REMOVED
AAD_FILTER_TYPE: BUTTERWORTH
AAD_FILTER_ORDER: 1
AAD_LOW_CUT_FREQUENCY_HZ: 0.025
AAD_HIGH_CUT_FREQUENCY_HZ: 40.0
EVENT_NAME: 202302060117
EVENT_ID: 13194
EVENT_DATE_YYYYMMDD: 2023/02/06
EVENT_TIME_HHMMSS: 01:17:32.00000
EVENT_LATITUDE_DEGREE: 37.288
EVENT_LONGITUDE_DEGREE: 37.043
EVENT_DEPTH_KM: 8.6
HYPOCENTER_REFERENCE: AFAD
MAGNITUDE_W: 7.7
MAGNITUDE_W_REFERENCE: AFAD
MAGNITUDE_L: 
MAGNITUDE_L_REFERENCE: 
FOCAL_MECHANISM: 
NETWORK: TK
STATION_CODE: 0217
STATION_NAME: 
STATION_LATITUDE_DEGREE: 38.029958
STATION_LONGITUDE_DEGREE: 38.556268
STATION_ELEVATION_M: 798.0
LOCATION: Kahramanmaras_Pazarck_Turkiye
SENSOR_DEPTH_M: 
VS30_M/S: None
SITE_CLASSIFICATION_EC8: unknown
MORPHOLOGIC_CLASSIFICATION: 
EPICENTRAL_DISTANCE_KM: 156.69
EARTHQUAKE_BACKAZIMUTH_DEGREE: 
DATE_TIME_FIRST_SAMPLE_YYYYMMDD_HHMMSS: 2023/02/06 01:17:39.0367100
DATE_TIME_FIRST_SAMPLE_PRECISION: millisecond
SAMPLING_INTERVAL_S: 0.01
NDATA: 4032
DURATION_S: 
STREAM: HNE
UNITS: cm/s^2
INSTRUMENT: sensor = ACEBOX/SARA | digitizer = 
INSTRUMENT_ANALOG/DIGITAL: 
INSTRUMENTAL_FREQUENCY_HZ: 
INSTRUMENTAL_DAMPING: 
FULL_SCALE_G: 
N_BIT_DIGITAL_CONVERTER: 
PGA_CM/S^2: 17.900
TIME_PGA_S: 
BASELINE_CORRECTION: BASELINE REMOVED
FILTER_TYPE: BUTTERWORTH
FILTER_ORDER: 
LOW_CUT_FREQUENCY_HZ: 
HIGH_CUT_FREQUENCY_HZ: 
LATE/NORMAL_TRIGGERED: 
DATABASE_VERSION: 
HEADER_FORMAT: DYNA 1.2
DATA_TYPE: Acceleration
PROCESSING: Automatic Paolucci et al., 2011
DATA_TIMESTAMP_YYYYMMDD_HHMMSS: 
DATA_LICENSE: U (unknown license)
DATA_CITATION: Turkish Accelerometric Archive v 1.0 - Disaster And Emergency Management Presidency, Earthquake Department
DATA_CREATOR: AFAD
ORIGINAL_DATA_MEDIATOR_CITATION: : AFAD - Disaster And Emergency Management Presidency
ORIGINAL_DATA_MEDIATOR: AFAD PROCESS SERVICE
ORIGINAL_DATA_CREATOR_CITATION: AFAD PROCESS SERVICE
ORIGINAL_DATA_CREATOR: network: TK
USER1: GuestUser
USER2: 
USER3: 
USER4: 
[...]
-0.2761408417356876
-1.0113154681739474
-1.2538186365837878
-0.8645587212151953
-0.40953520935277027
-0.15285901405495955
0.19984340139540402
0.6250842325838543
0.7801811574216624
0.6624605610224837
0.45309683996590233
-0.04034415535126331
-0.7889867340992718
-1.240310067150958
-1.3746212199809869
-1.5343929755516548
-1.5803216480451545
-1.3533863089073388
-1.1357830272555116
-1.1548382773186632
-1.2289635877574048
-1.1119643102508487
-0.5648089959967431
0.3890321393360071
1.4297063006547184
2.8041335060874055
4.667404010002078
6.3605461971656
7.338578633523847
7.2111079410016465
5.677226136660319
3.2897154705316214
1.37070952181617
0.5984355774485149
0.25618090821000244
-0.2933630046165742
-0.8337096361177425
-1.1027060063780503
-1.2161453543087006
-1.6064584732958407
-2.269635691180486
-2.8885886010427
-3.5096954282139174
-3.862656961387489
-3.597617574227024
-3.01933919866328
-2.446188093764697
-1.7370599825613695
-0.6651271295809972
0.33333188773515465
0.5779935130743797
0.29158477710521125
-0.1307304206669877
-0.6753247750738859
-0.8136285322560222
-0.27155091544225773
0.12110266088655985
0.09504494035762948
0.4602653064135311
1.4361253952937858
2.4883346995404545
3.3001299821515095
3.596886673890838
3.0407020705656365
2.0103480193500807
1.2084032340040851
0.6274384825703513
0.12733822745136625
-0.1483569331857186
-0.2770537278717199
-0.32677915933233315
-0.2722958286727221
-0.26511648237440005
-0.49682954258427026
-1.0990421036064775
-1.8896765896426633
-2.288824963387613
-1.951656156058832
-1.108530459168476
-0.05156488483497135
1.1366253801793458
2.1476960478223224
2.553402200231333
2.475438278018776
2.206638422444449
1.4489961102088642
-0.0468507746882598
-1.7635008959233993
-2.9723078846453155
-3.2479351854020884
-2.6919769492804786
-1.9793450332940727
-1.6520972088387313
-1.8627127617759773
-2.6131418466392
-3.381951170061799
-3.399467815582538
-2.6495809112943154
-1.7161307760694258
-1.1000849088233666
-1.1574982178224935
-1.7393893809582004
-2.0755817358421433
-1.9174792091808146
-1.8021484682309796
-1.7612717427224676
-1.2789736620216914
-0.46416329773067133
0.03395905856053883
-0.14022851950683415
-0.9979124708575046
-2.3573776176782886
-3.694045247907778
-4.343453874493116
-4.0824158118728615
-3.218275579388829
-2.0735348279581056
-0.8416032918109069
0.22862040329528555
0.9928730462318027
1.3719982823679113
1.2197083208371977
0.5522258629902486
-0.5186209736735472
-1.5593838575739574
-1.7222558231237346
-1.0406819647496812
-0.5295162937505796
-0.7239913429069038
-1.4340130478005932
-2.0249578875908902
-1.9772563330670911
-1.7056546884572188
-1.795442311927083
-1.9576442444108801
-1.5943344997637654
-0.7829878198315241
0.03401403941810874
0.8074084704531832
1.471883731623393
1.8122638384908039
2.1103265339044177
2.7926513379261833
3.397334591860201
2.8839445711138856
1.3728132681734744
0.003735874025940389
-0.848691376189604
-1.3294567270556672
-1.351778693295202
-0.8441350748990814
0.11070263609035325
1.001098621958348
1.4608340569444838
1.8272360768690625
2.2056686928764186
2.3887492670727823
2.2801341234847237
1.7318242590462918
1.1310220573872447
1.067272310789711
1.319382328016527
1.4621138794705395
1.282925727850906
0.5850590006536797
-0.4697108127402128
-1.3358972054886684
-1.7318013622085016
-1.9666766452217233
-2.0261246468077903
-1.5519651158140775
-0.9210637789232782
-0.5284906964634384
-0.48666894720082
-1.2994345296099954
-2.9339122009386234
-4.313116034488656
-4.336680068539112
-3.054050839035287
-1.4543464468402336
-0.1238983237260346
0.7359858606145785
0.9711522999051677
0.6891607209895065
0.04744884747675003
-0.7506876427866904
-1.559437974772532
-2.045390671730123
-1.5900678493370768
-0.21678086774427258
1.4464832445079472
2.751487493613428
3.349802028282974
3.25117516563032
2.4888042399732107
1.5760658946080597
1.1561947871004297
1.3015718896431994
1.9964455641418897
2.825527167979297
3.2980081175439486
3.487629829618933
3.349097381596613
2.938847056448706
2.4196287063233632
1.4613462917868818
-0.21959649899780423
-2.233556854133615
-3.666562486057044
-3.9312884206428045
-3.2025631858833306
-2.1752235155314024
-1.3894667387621373
-0.5532571177411845
0.4686920561569444
1.1842640618954114
1.467770381797002
1.5721378336032406
1.693996378205454
1.546913244595431
0.9960927468349345
0.8964848021413601
1.6126799275924932
2.5646150532677936
3.3249320032621568
3.6828905235372154
3.8494231909058545
3.985057384515566
3.4502736609890343
1.9740681457857445
0.43132137539132565
-0.24369425609818654
-0.017096411413189593
0.44191294013336896
0.6112938004821267
0.5184379022391705
0.1454519074485009
-0.671601995471369
-1.4786820345647056
-1.6785877421236897
-1.5182632048636393
-1.6203352920157816
-1.9073844631953079
-1.6708125556985873
-0.9216331261724282
-0.2567999914400856
0.15890890171028024
-0.08812146372253113
-1.095996725268433
-1.8533503484260136
-2.0102927112442277
-2.0861725397725435
-2.162536573912076
-2.061246037565352
-1.8004814510399123
-1.3944763165649094
-0.6213701709182671
0.1769501745936507
0.09840089383729032
-0.7204969633660689
-1.3087373663228814
-1.140321913478601
-0.36832182578725975
0.5123141056786106
1.2372170556372342
1.8103476471370494
2.336916973930372
2.553504955138177
1.6829195986225078
-0.04491224371583404
-1.2669301876657388
-1.2374599558448294
-0.21099546689336332
1.1069907669402188
1.8574270031656641
1.4569574411770219
0.22066177143355506
-1.1553133378634055
-2.4982603252832662
-3.3640496324318465
-3.2998546368471873
-2.9363487709688343
-2.6444427816994347
-2.0307847201624827
-1.21734473264414
-0.8731701555820116
-1.429132814109459
-2.5144431436865133
-3.3690772528287454
-3.7604021571844948
-3.983811786469955
-4.131255661572643
-3.530125810567415
-1.7559046052044076
0.4542886524275982
2.34125089785213
3.5536472578436102
3.8888962529420206
3.5824149378315737
2.674718547508749
1.1427501622869927
-0.05278026108652417
-0.05782318947128038
0.6550389453577008
1.4807907381497325
2.2549359043432684
2.4107093435714613
1.5149558070943856
-0.08152985907298588
-1.88166150805411
-3.558799035547515
-4.892087485482932
-5.587824990219056
-5.1761421601208015
-3.3464716165269275
-0.5346793934132076
1.7688869888273573
2.554403272432767
2.622211988963613
2.9365123495834498
3.3007110962743895
3.3954900286974183
3.4281361817107388
3.300261208608088
2.748912105708692
2.202254335837846
1.7541423031830807
0.8603764173115129
-0.2999957317027526
-1.0852058968441785
-1.379349150704085
-1.508108420250643
-1.606217470427395
-1.737491338397164
-2.1651311338102808
-2.4235869530028173
-1.7167979261709756
-0.20516960017864094
1.2346377959058068
1.4985288781132955
0.4090532056399192
-0.7311377530464921
-1.1002435082688042
-1.2761893996663605
-1.4695331265886828
-0.8915814999775296
0.10325447254841565
0.07906527211135544
-0.6524595993957738
-0.6546864842789153
0.32761160777787357
1.4170707223727335
1.6003475465565258
1.1862942472294091
1.6448192409333353
3.1521689728926003
4.332784961106388
4.602636106685107
4.535629013574383
4.267642815147802
3.5750462047719256
2.5115552664939953
0.9625592988346597
-1.245107715259024
-3.782521924846429
-5.646645414656699
-5.813536158765076
-4.41661753080006
-2.9143151304036405
-2.545404062067986
-2.43405341486642
-0.8378281654941648
2.036294242642986
4.6478807453850575
6.231192226216334
7.264833452951572
8.571143384306692
10.219764035780203
11.70679959255146
12.521073585249386
12.437064532274963
11.516743112601048
9.405748557788042
5.776587966792991
1.3361979543337539
-2.962046583173368
-6.6164774813735
-9.07801285414796
-9.661274026728002
-8.1877480610519
-5.642225536087295
-3.497638698419444
-2.4241110464975972
-2.137045214052856
-1.7894760125567604
-0.9940142909129934
-0.1636888917613371
0.4037583285450828
0.4833352767319349
0.5907430135149689
2.0544793921021185
4.623026864259418
6.3584253556204695
5.8599206701199735
3.7317524205048476
1.6610977398961122
0.16991072031328558
-0.6941898019104116
-0.32823176324360814
1.3479588843020902
3.3911413393639966
4.347897070996167
4.0616119709726535
3.7269128740343853
2.9517218295318726
-0.10508719735694277
-5.074245894659619
-8.760749802267332
-9.342208489459079
-8.554931945056287
-8.438415930251672
-8.870205869135889
-8.888645407892593
-8.476579423647884
-8.224989933554607
-8.052510767666995
-7.60884422748714
-6.585705036651921
-4.255455490264865
-0.545598610700971
3.3629473015078135
6.222147074377362
7.632774400204573
8.012193114157677
8.261758218878347
9.193448487092903
10.289917231733654
10.289353151806687
8.977052529734827
6.437622970770333
3.0407748622001334
-0.19714452348258468
-3.1421165789577894
-5.666539084316839
-7.429822541380624
-9.356443587290883
-11.7958929552427
-13.347325300576975
-12.702010434529548
-10.322075962342119
-7.545043930882476
-4.164812597435108
0.1504208691956077
3.668693201892856
4.883173544339782
4.3740884366206965
3.2509963484823787
1.6989849658196836
-0.009135522541193312
-0.6896649765147967
0.16821750492205417
1.6725989214164294
2.655250232572961
2.35839374268946
1.0729012131056455
-0.038846002433244986
-0.7778147322153663
-1.6874982022726115
-2.2918347265517696
-2.207262227792917
-2.206943315884064
-2.524582669128589
-2.250726149423606
-1.1611647939170702
-0.651063789703054
-1.8578380594372088
-4.337256306641421
-7.203523836661486
-9.622031170015587
-10.662170085960513
-9.738677727693236
-6.854223911044225
-2.7756762770228893
1.6407008788026813
5.961221304143248
9.361983882186443
11.065177418147647
11.14395529393326
9.907782230171081
7.818024019833431
5.792033845829452
4.883960681910273
5.46855247668289
6.575070474199716
6.955400861639604
6.234103580098428
4.158735489239273
0.5118947208893925
-3.6513316068082875
-6.379793624710773
-6.912542353693307
-6.427020401904247
-6.459771914824541
-7.366844128875511
-8.435006473631667
-8.808208384263851
-8.1138248944587
-6.340906225519619
-3.6458843386595734
-0.49259827579610355
2.8587420000525983
6.616350928809039
10.589087666216457
13.959291002650057
15.847352291754426
15.853405241945456
14.279601858421819
11.912604799468838
9.8896909465931
8.90438606492428
8.713702774503606
8.485999915081914
7.118189242741271
5.0677727389193565
3.8042141909585507
2.5272331550605793
-0.2696955282826067
-3.9029028962070607
-6.526098419186518
-7.3016058261759635
-6.906324597020701
-5.844733101306977
-4.44362980233269
-3.628858270265443
-3.691604438716278
-3.845630759033893
-3.0766106608789467
-1.952459492534958
-1.7911944970850453
-2.093269452156365
-2.310837395554473
-2.407391307611525
-1.797446836770762
-0.8756458446932176
-0.721426022857697
-1.5622485567561704
-2.0553614291645443
-0.7569909656648924
1.685399892331984
3.675482426692637
3.4227270462996264
0.29838628113655713
-3.386926813906432
-5.272765669548952
-4.9330973235529925
-3.0005604120634164
-0.33872875579208356
2.500351637858954
4.394518847031604
4.496206187135808
3.612417435808324
2.4518964852163014
0.7162450993550245
-1.7087669639221486
-4.018884099807249
-4.967131624724464
-3.8125492268084225
-0.7803320590084991
2.3995957538633164
3.6910885460863025
3.838522042238746
4.868776664928682
6.285461069025865
7.087156327909488
7.733966814148377
8.288010990591603
8.592713708172237
8.898287881070262
9.68323660259864
11.021215828654737
11.644151585687036
11.002798799526973
9.407150707468938
6.65439036738856
3.8180094860356553
1.9886091053659396
0.6913710223154924
-0.8083448966944434
-2.9554179297724943
-5.056345846841678
-6.662065505683467
-7.525629319071646
-6.639944411447048
-5.401618968115188
-5.08039231968433
-4.607973882830838
-3.883089705678298
-2.550833513504806
-0.9051071375924469
0.1854665563556669
1.984820393173731
3.7592876932969053
3.296263143623451
1.0806398860150468
-1.1586440494067516
-2.496919129234573
-3.6303322818383648
-4.238681771333485
-3.242807873135472
-1.739333149347785
-0.09919032871893745
1.3271926371978437
0.6727403194924837
-2.170976339644555
-6.281473152998222
-10.37762920867999
-13.011755430736182
-14.818240679144735
-16.463973766747273
-16.88188975585308
-15.972290238446647
-15.044429117323558
-14.504905262816198
-14.235082041918366
-14.013380106807425
-12.517087602812012
-9.741000956965545
-7.396417549040009
-5.519003871377067
-3.1444771154419504
-0.08969034125009087
2.9778369741797226
4.6118538368703055
3.9784005857946556
1.7557753696698637
0.04343128652675519
-0.05261603047064609
-0.20821476169999986
-0.4029931038231028
1.449533149032223
4.801386102981086
8.134595328863467
10.213802231733588
9.338206433488873
6.0607211129124385
2.9746571996664826
1.6210984679661276
1.5693403629939884
2.1728183190216352
3.338725981906035
3.732313052565178
2.0190762809455696
-1.713219737767768
-7.236022847369753
-13.327612347980358
-17.452926608904324
-17.73968335853089
-13.994568921223483
-7.413499845500672
-0.6978130356351624
3.2920128887488973
4.864325118335751
5.54862318315345
5.07813967595844
3.802887135408388
2.704137153656859
1.941640360408084
1.7834060775310419
1.9672100210230163
1.2241722297889022
-0.8579018553089386
-3.374770385095045
-5.598611391461066
-6.310485064598914
-3.9110113637827904
1.081524882729504
6.1403960918589435
8.359872007219751
7.210482725888676
5.371297994127968
4.829651231205725
5.456033855552331
5.94703242795697
5.401083740938169
4.94165531697995
4.997452194660526
4.001252723065114
1.0670263100796613
-3.0652557023904583
-7.007009276216005
-9.758685197313792
-10.956559869568888
-10.638506902678252
-9.11456963556411
-7.1166051428006964
-4.8295795624860025
-1.2131389614611894
2.976548830308692
5.0323794417916226
4.670485550607476
3.76861435132979
3.197616511692817
3.4426626506586966
5.366247168595783
7.712298044793052
8.101999461384112
6.414059980804078
3.3102533776897403
-0.25316012737116234
-2.6203705649459774
-3.960495070551206
-5.040480975513013
-4.989676822400183
-3.2753307466476427
-1.51835703068806
-2.082014294909375
-5.064134822442129
-8.295552850245818
-10.188798179976693
-11.040986252345618
-11.402172248811754
-10.263548940498527
-7.408970720684348
-5.121299244669398
-4.3660607801810745
-3.7076379080477815
-2.5910082969939707
-1.3330124823181195
0.1908116367985184
1.6724781087652478
2.308858843499099
1.6916025252372937
-0.005513707598980351
-1.8493757087662384
-2.3330892804028722
-1.0519011875597044
0.6312232277440047
1.6416396628339416
1.5949222805272587
-0.44624274796553937
-4.286503443246469
-7.393210334586333
-7.827682156639736
-6.338610077260292
-4.3042806843840555
-2.105724949187852
-0.12692086079686105
0.973348410727899
0.7135821887808906
-0.8826236081675807
-2.8702462801611897
-3.7940688369250655
-2.8449766140882895
-1.1703572775859858
-0.301240879394077
0.2041072941113801
0.6340186311421561
0.14353891156367413
-1.0953939150634637
-1.6931338246415615
-0.6393954762224989
0.9686678848620575
1.5676547827872012
1.5509950095731473
1.502168332686322
1.3172759238352678
0.8994059143783364
0.22397687472863764
-0.22205903690491452
-0.005830818342097269
1.1269187131997491
2.827811705797862
3.611134351440577
3.157480512004175
2.5363380669200524
2.20622670072655
2.3124253454517207
2.9736499257962707
3.8333617634978423
4.300185001056609
3.9719914451378693
2.686951191173326
0.9350485370207277
-0.4361483620346115
-1.7250670691787406
-3.2365248741120345
-4.165502028708379
-3.8789692091031527
-2.5518325021287707
-1.9025120824741133
-2.685309358115514
-2.7852280608865025
-1.6336036517787895
-0.560736945833152
0.05392906868756407
0.2765910686791225
0.48593038542129796
0.717948587207198
0.6022969751954648
0.15549324512403884
-0.9252800545701814
-2.8269899837710337
-5.188093056672724
-7.145450882116633
-7.310251757587609
-5.692912214281259
-4.03412747359953
-2.483410128187275
0.8141535093100182
5.428706767795031
8.45898911365698
8.72820657272676
7.299847013511264
5.657152913184637
4.603482580289249
3.9419293265646744
3.337181395914982
2.7446574806289914
2.181003398655667
1.624812619106008
1.1841198030344344
1.0306686832363945
0.9383626139086568
0.14453746987995914
-1.7433954062009227
-3.275373354557475
-3.130283321670053
-2.313172677594608
-1.4634233160103092
0.025307625902596123
2.2649766210197155
4.590417775069167
5.769328811954038
5.357326956607141
3.796842122447878
1.3944659080311632
-0.9558724281179183
-1.86219805505137
-0.8239555187504094
0.9197417702949059
1.4306431082850377
0.08571638848687946
-1.8193183938558175
-2.084721988646502
-0.41609025639279845
0.9605672749706414
0.7962225607124531
0.10232208223785352
0.2209232735971146
1.1444298118960239
1.2679339542450518
-0.4735348247402252
-2.879737978434925
-4.23363816244279
-4.333609310531209
-3.7332526606556584
-2.5821035857300507
-1.3526253977043625
-1.3243103823662545
-3.046144944595675
-5.221342227245371
-6.21173963961332
-5.9406202574010045
-5.191697958618003
-4.2080472547216115
-3.1418869605288897
-2.4090674720036485
-2.3947840024263547
-3.053280323116764
-3.5618867760367827
-3.503436871704631
-3.1430886968350076
-2.786874520689473
-3.130905855942881
-3.9854668679300103
-4.282294464007514
-3.8554640807239045
-3.11960250300095
-2.781058465542518
-2.7891736839584347
-2.081890965403854
-0.8786409192106598
0.17940254359675895
1.3295905204459164
2.2168146723038427
2.304556100215818
1.951137976641985
1.0427492132902876
-1.267130214764384
-4.157437205272605
-6.232029084927276
-7.9845126771240205
-9.135890682046282
-8.374967402667542
-6.79629605516124
-6.297107258359955
-6.353718306633342
-5.289554883480211
-2.957875641942142
-0.11947310788445807
2.9535730285579085
5.546085191719611
6.94683302680928
7.413638152956437
6.8066701298768875
4.400559378712163
0.6908302273631631
-2.7767469661301947
-5.2554990350711135
-6.3665488156437435
-5.770777521309526
-4.10459476995174
-2.159819176875994
-1.0056954267035116
-1.3758128567218155
-1.731029482601835
-0.5637097037920125
1.719121390714041
4.293886365385108
6.668416292119133
8.65913155120046
10.191359310001456
11.254254738044699
11.39171297257645
10.058248220958772
7.887791408708177
5.144359413972058
1.333362863265368
-2.7077985307928256
-5.3745113947469125
-6.157448745039068
-5.856000549433133
-4.659798484350094
-2.241929678923307
0.06493416241404419
1.217280810941624
1.297416905304593
-0.09636257929177824
-1.8775508809685277
-2.2717569700452356
