AAD_Filtered_TADAS_FILE
AAD_BASELINE_CORRECTION: BASELINE REMOVED
AAD_FILTER_TYPE: BUTTERWORTH
AAD_FILTER_ORDER: 1
AAD_LOW_CUT_FREQUENCY_HZ: 0.025
AAD_HIGH_CUT_FREQUENCY_HZ: 40.0
EVENT_NAME: 202302061024
EVENT_ID: 13207
EVENT_DATE_YYYYMMDD: 2023/02/06
EVENT_TIME_HHMMSS: 10:24:47.00000
EVENT_LATITUDE_DEGREE: 38.089
EVENT_LONGITUDE_DEGREE: 37.239
EVENT_DEPTH_KM: 7.0
HYPOCENTER_REFERENCE: AFAD
MAGNITUDE_W: 7.6
MAGNITUDE_W_REFERENCE: AFAD
MAGNITUDE_L: 
MAGNITUDE_L_REFERENCE: 
FOCAL_MECHANISM: 
NETWORK: TK
STATION_CODE: 4612
STATION_NAME: 
STATION_LATITUDE_DEGREE: 38.02395
STATION_LONGITUDE_DEGREE: 36.48187
STATION_ELEVATION_M: 1340.0
LOCATION: Kahramanmaras_Elbistan_Turkiye
SENSOR_DEPTH_M: 
VS30_M/S: 246
SITE_CLASSIFICATION_EC8: C
MORPHOLOGIC_CLASSIFICATION: 
EPICENTRAL_DISTANCE_KM: 66.68
EARTHQUAKE_BACKAZIMUTH_DEGREE: 
DATE_TIME_FIRST_SAMPLE_YYYYMMDD_HHMMSS: 2023/02/06 10:24:33.5540850
DATE_TIME_FIRST_SAMPLE_PRECISION: millisecond
SAMPLING_INTERVAL_S: 0.01
NDATA: 10501
DURATION_S: 
STREAM: HNE
UNITS: cm/s^2
INSTRUMENT: sensor = CMG-5T/GURALP | digitizer = 
INSTRUMENT_ANALOG/DIGITAL: 
INSTRUMENTAL_FREQUENCY_HZ: 
INSTRUMENTAL_DAMPING: 
FULL_SCALE_G: 
N_BIT_DIGITAL_CONVERTER: 
PGA_CM/S^2: 523.212
TIME_PGA_S: 
BASELINE_CORRECTION: BASELINE REMOVED
FILTER_TYPE: BUTTERWORTH
FILTER_ORDER: 
LOW_CUT_FREQUENCY_HZ: 
HIGH_CUT_FREQUENCY_HZ: 
LATE/NORMAL_TRIGGERED: 
DATABASE_VERSION: 
HEADER_FORMAT: DYNA 1.2
DATA_TYPE: Acceleration
PROCESSING: Automatic Paolucci et al., 2011
DATA_TIMESTAMP_YYYYMMDD_HHMMSS: 
DATA_LICENSE: U (unknown license)
DATA_CITATION: Turkish Accelerometric Archive v 1.0 - Disaster And Emergency Management Presidency, Earthquake Department
DATA_CREATOR: AFAD
ORIGINAL_DATA_MEDIATOR_CITATION: : AFAD - Disaster And Emergency Management Presidency
ORIGINAL_DATA_MEDIATOR: AFAD PROCESS SERVICE
ORIGINAL_DATA_CREATOR_CITATION: AFAD PROCESS SERVICE
ORIGINAL_DATA_CREATOR: network: TK
USER1: GuestUser
USER2: 
USER3: 
USER4: 
[...]
44.49878313451847
71.03971428271421
82.73541483403436
102.85277758199105
108.1354095893985
78.36562905047154
90.59958186720509
113.9273816737005
100.74787952487532
66.49124338341167
39.211602825271534
27.21727661015079
6.843420691036448
-17.999415729553764
-37.211255383434676
-49.95108940246515
-58.97530043052372
-69.2258303103229
-73.70176917500739
-86.91736174488815
-91.61220589930221
-71.81844214076871
-72.8609482749258
-89.14254251277686
-102.59020774793623
-127.01438947269877
-94.10913492272664
-32.89500025258443
-42.043384102933146
-66.06656675035008
-77.99533317060718
-67.71372056293617
-35.49332957630282
-36.22467677458821
-76.39369877508415
-73.27525152679256
-25.576413530026972
-13.919155505536748
-28.774958553530418
-12.350649489108067
-28.250214831582586
-45.520304328772134
-36.96383939557574
-51.62496829007681
-44.10358847385336
-54.89731731522292
-53.299687922902656
2.1527037270802576
8.871184370262323
-16.55826163475546
-12.471957813739808
4.7624641909672265
43.89711499631841
70.38320090961189
76.35454337763693
97.0668690798052
115.83486038342208
118.60854898668056
121.67804053427358
131.1562475987061
117.2725527277774
79.41479626339556
58.26343597585937
41.80058618532925
30.45374109782367
8.357415856380966
-9.594720847408094
-2.237998866189505
3.291784239522891
3.0527289403882927
-8.34009412503712
-5.090330427460387
2.7231641234225155
7.919667481257014
10.74460943066874
4.070269245968129
-3.1568649459447915
-24.48845171775963
-39.357501741357446
-41.29145497751225
-45.80802218666251
-41.22050227868804
-37.497914969667846
-32.9044473281809
-24.040652342925267
-18.926031898828644
-13.489981210599693
-11.958082137563505
-23.795721601102365
-43.614392267219046
-44.426829794224794
-43.25525516479374
-49.72914052602758
-55.921087498269394
-56.07111829727219
-49.4877551376208
-39.27487037419138
-31.511858080666446
-24.07523245523881
-3.224355235407431
22.34417664296743
51.75623432670072
81.14583093259917
106.94524994837371
117.54785359662914
113.1904430179577
110.14174773209072
93.53370141499201
72.38672211871192
42.995706153542685
4.31619676660412
-14.23812655520574
-25.32226005895414
-25.56663990128079
-12.75972011725755
-10.316171228116042
-18.90976735762522
-24.405185043789707
-20.559373033233605
-16.755947912871655
-1.927575886151607
19.13220041425759
24.237033307906348
44.1679958197043
81.69879472490855
100.85006152111893
91.96465465913653
106.63152784989133
141.15342606105185
160.1360055188153
174.83257227260037
179.62432097589692
189.7457544196411
194.09589609948853
165.3583591023383
128.11300184404266
106.58561948479814
112.92053669662343
128.20210290159213
122.01677564679403
113.49781319646415
123.71603338267252
135.23846962452797
133.7054009005424
138.60077404321302
151.46415851056818
151.22179697697186
148.59599881763802
159.9273303544977
168.12983596473856
191.0696150393318
238.80650209027272
264.848734265552
281.57874969501825
317.724595760217
334.2663871436025
305.6175802036125
268.4977680952921
269.3082092784334
270.04134714857935
231.57711419122353
209.58868704649717
239.77654677895472
274.5901160235203
229.82912037361936
150.76022537909273
120.46532652961017
69.93456276864877
-2.582507254616479
-44.041277264274036
-71.71382708184034
-111.0676465042641
-144.36501929500804
-165.85337347176824
-184.18612897016573
-207.13271935154657
-237.32492236898736
-253.13887804519632
-254.33117418978279
-251.81263052256259
-280.88016680793
-299.62618783984385
-284.96454521108996
-281.78409637120797
-276.7412107817321
-280.7704214828923
-305.2553081973513
-287.0352143884926
-228.35749125961317
-190.44657135568227
-132.8990448192667
-60.175769114908256
-20.124378603077563
-3.005119401213147
16.345724169652136
58.40175309020502
75.32280798407511
90.90458685947372
118.11941554065614
127.29755312866808
142.07014000830674
170.59158639664776
218.1351849313331
243.53332926869035
251.2142419886255
274.7622774155507
299.2977306641363
311.09860957837554
297.04903416820144
294.8491557310176
286.5028792158504
202.7228212662047
83.93733053770063
15.415706991357863
-12.79651420617462
-26.16374049885674
-51.44434160185091
-77.56591854694963
-88.51101660265569
-106.62429777313055
-134.95685844043794
-207.94990706330788
-235.7684217559427
-206.25872027213134
-218.0123191538295
-261.9316197905545
-303.1940915806879
-333.6067380617386
-328.1189469912862
-254.98505639590803
-119.88697870238411
25.003593785613514
95.05602154098523
125.36046066753606
131.9096950869939
121.28780732194404
170.4172364229998
228.31174104672994
269.8950815399111
264.8489581699009
286.19133431806165
359.50074277185786
356.13427849538044
340.27613931994017
312.65428565144225
279.5858996465614
328.0919547522911
351.10125370547166
282.12066750106817
205.64912952820367
142.02658372661577
71.10389579675267
17.612474239061847
-23.06417127561904
-57.151022070428446
-59.536962288210255
-70.1433008315221
-76.90107105623557
-84.06284204602603
-113.84209980291058
-124.58340014508039
-117.62299902432179
-118.52573357984211
-114.24045833195825
-93.70117797143148
-76.88982860414885
-75.8015860213054
-83.8204864780799
-86.63105774129623
-88.780051931826
-107.6585867126365
-129.93767819258827
-132.31047589336302
-133.27888508136868
-133.55218863917057
-124.93279942634128
-122.26196175220528
-125.8872867488108
-131.9288059420493
-132.26886828573748
-133.98215196329153
-144.03841450223115
-132.57349472441354
-93.60395737056949
-42.02937338852051
-7.5490921940899405
12.08204485304074
15.06641695969571
5.5028120552622815
8.879802757362599
0.7568771904559456
-10.369634158841375
-16.281176326813988
-31.708211143231598
-38.41826260712758
-32.923688563133645
-42.16311031653053
-63.27376787527354
-66.79659932275268
-67.8232042037394
-85.653358680042
-101.40619855104258
-98.37130363823731
-84.9790092906601
-72.68854208193613
-44.719575997832024
-7.798770751312059
15.796922217172892
21.410649511545994
49.30217319275443
82.12509706292799
81.55498007340462
86.4217801134624
79.18666791195636
80.48015699117249
111.63686104296379
123.97864956410852
119.80391321017184
125.03596429471658
139.42617785681597
123.03782465312494
47.829595475008475
-13.179112215103016
-19.57790921121822
-22.314582769790224
-35.33052390997206
-37.57931684425754
-44.48249293528382
-51.88617625783621
-42.9162128494564
-51.5297004674079
-70.6976598182915
-76.54721513992435
-80.89593205352595
-85.56517340369223
-87.70158042427475
-85.86913887830706
-75.16576904319429
-67.622917871656
-69.3332245123307
-75.67522836285768
-79.1118490239394
-70.4677178046274
-69.85679210308808
-87.16684238479287
-100.47187755576633
-99.42476666516764
-78.80534840031109
-42.65974941623463
-6.541245629972217
15.42013996453432
20.05516444937775
26.852257802199915
31.535886610327164
11.622515432862611
-5.948983617328653
-2.595022505586458
-0.32743017200872687
-2.872113206135816
0.8532700301053144
5.420608932836934
10.564214980693807
8.931946791148903
-1.0024954185164934
-4.3550302424655305
1.521291607637122
14.979521533278408
29.042475699881333
33.60285528889276
40.04072030336282
50.01441163058325
68.48747543344966
107.65741730275258
155.1114022468029
197.30850353437862
229.65272951069971
247.89961444812283
237.90225737190949
236.48357499238892
248.77813065836455
267.7968531047465
310.151422501725
303.4555841567898
276.1314416310489
294.6579901593209
301.1001493590556
295.0697266526311
292.28077973664534
288.368959567876
294.8585945518136
286.97807449726065
289.6766921842135
307.01292713584775
294.0942057479515
276.6734654515892
260.8982601827167
217.25619033433523
139.1621565735938
76.75860359415564
85.5367638862396
116.06561267259039
112.19216047325132
100.88700108525892
96.87107498253663
88.91541997306558
65.61723506841179
40.12152598223898
43.69624632120341
43.560202261173984
28.522059222548837
35.730500927967185
36.27061826327815
16.520005272545532
0.6399805512334004
-13.538042973763568
-27.365105682272713
-40.73626210800241
-53.32213469037094
-55.399760303982234
-65.62937035006996
-86.42597695222378
-89.28959773551367
-84.34798438348112
-79.2255413977204
-73.44315682196233
-65.57585852480372
-60.23150502393881
-58.958319803088294
-51.815907116234094
-46.76312566485543
-55.26229875704074
-68.17925281287603
-78.57093397577523
-93.33482163809207
-116.64846987079929
-151.98678593786036
-192.35112450872447
-216.2824403095599
-226.91282923861647
-242.7492023165415
-239.89165935128335
-217.53148039849253
-215.33444102275465
-223.37841651123347
-212.26847175077032
-203.05990474490386
-214.1710818962939
-229.57243943410546
-243.13692197722395
-240.3055845160825
-225.3638959114983
-216.93087718301177
-219.53745187839507
-233.10025469505118
-238.3632104189105
-231.7489354338103
-224.0887350160292
-217.9357802956322
-216.52266491968135
-227.16191937820656
-238.51173655630444
-243.76377947535036
-244.21901044526413
-235.9105692326781
-225.37672835660072
-214.02867685162948
-201.96128380450318
-203.5948684836073
-208.14629488885134
-185.27269012701825
-158.7151536115146
-147.49519885054977
-140.12720197100134
-137.63724870804214
-142.61681867894214
-133.78958995986744
-115.21235373818337
-116.50885387197384
-122.69487166379369
-117.3763769881042
-110.22609466420504
-96.84406431570794
-74.67808323002299
-51.283443796188784
-28.36394217224354
-17.322304778216306
-16.291271661464897
-17.35192456486539
-11.69919134885275
2.2020567428092392
10.723523337727348
18.2863422443076
18.959592677138673
8.927335903150057
1.4968274047826073
-1.1616133255312535
-0.017946369749854828
1.961915521870921
4.783518952661142
-13.568756630737541
-53.26125217297669
-79.3833950211961
-92.52475164641785
-81.64243184312326
-54.3702508419996
-40.532952432089644
-45.79985309217766
-49.36581280036166
-32.859407562999245
-10.8663253943979
7.391640576292002
15.871426948356383
17.979056830695484
18.480150265942534
20.375830030303767
25.597161210075555
34.56959612917682
45.755325533500965
61.17705107486936
86.99757791947756
115.28039053370591
140.4692227434457
168.32911255036967
187.67681091889128
194.2407342765349
180.41673727964766
180.8534757485491
197.10651309373935
193.04732665319162
197.5936049306317
194.82416450212082
183.01067737888545
179.91097807180364
162.0054656548571
135.56876318726455
129.95076886869478
144.958649989052
175.66740615391615
200.06499772427597
204.35049463443798
192.37056822336314
185.77404867001596
183.5358772141591
163.09575785099992
165.43779603625117
168.37904507091204
145.1723937769919
116.50333584645482
89.9772440944723
84.17977156623839
87.67534950376772
91.3987621215034
96.71827409566849
104.33043881005155
115.751590503673
117.19368424183139
106.64649799227132
107.0104495223462
123.74752558308836
144.41645602444527
149.4472717792364
131.35282355002175
120.91013353710734
117.54788849975773
102.60327123034577
95.18247661788702
100.34409968586732
104.21137130766635
102.94385039665525
97.74289632483756
97.67037091766151
102.38825682587554
107.97595725867001
108.55704292120866
97.02323496115544
87.1715490524241
85.57586371745384
87.4663343347851
84.3263243643453
76.9962065759459
71.69500265037769
66.5581499185535
60.70355398907846
52.587124261330914
43.13883702978126
27.175677716654587
5.533168687199585
-9.998053844574155
-16.437289682738825
-20.83373456590643
-23.55304684657771
-34.006238585177194
-51.572160071127605
-60.62334150975776
-66.54016155184613
-75.84239959347255
-94.87425185107095
-115.48813278506509
-135.23779099974442
-166.22558251797963
-208.30431905464954
-259.8254982287075
-318.829933709579
-373.37527793542364
-415.1371000158799
-450.07355823243716
-481.68647697296507
-486.87370419401907
-432.99441068432935
-340.881439735319
-259.9882874698453
-205.93455841570582
-175.39692148911078
-180.21240365846828
-181.87276576882627
-155.7560489075046
-131.7066045369857
-107.43189071960437
-95.82412524120042
-100.76258940734652
-91.38088775523372
-69.24122727827427
-58.57182739629984
-54.0559146265341
-52.38601547166844
-58.104882010941324
-53.468923115067334
-37.27419227382349
-32.45489148043353
-42.534004975109944
-48.36517928625056
-55.00829075359912
-73.99028917573749
-87.03928598790858
-88.76826936610945
-92.63426681621952
-95.57762707822523
-90.20576769940689
-78.19227630871531
-65.97127635678827
-57.72169264854338
-45.62994849086759
-32.64033908813703
-28.570809457341227
-30.109242801783452
-33.63306185122313
-33.604810123916344
-28.566026440276783
-23.53801027748301
-19.84729473255203
-18.264907503665988
-14.309230033508452
-5.807443054532392
4.340224803036663
13.179313964727127
18.016538708554954
23.641191327119824
30.46239098232162
37.187121991698135
48.29065527973624
62.62266818730279
87.9203834919305
133.46035794891108
200.77065844627867
298.6379607635605
415.61394457052734
497.38997673713703
523.2020735092266
499.9325368675264
421.4337393946584
337.37737320152644
287.8903917821333
281.55794080687406
283.27838136549303
259.6613753395193
237.5017013034667
221.97780277113586
211.21495743039605
195.69791016376016
177.40247994701704
157.10638553536867
133.0846234916959
105.64355581682591
73.56059128836645
52.310565595515016
43.33169583967278
-7.864271021346922
-79.87379747773542
-74.52533972418648
-36.720107402373394
-36.52401059520125
-48.90482545765264
-51.0330404561777
-44.69477721625112
-40.93322004130326
-40.544843165644515
-48.575601642554375
-78.44730525624725
-64.36341892792528
-39.68045459641307
-50.99930605464126
-59.345471490662206
-63.98845497497281
-55.0219721845681
-51.18401548033119
-54.10740988594746
-50.004290772519866
-43.965055302123446
-37.72940919824954
-27.18660933092958
-19.990972518784446
-22.265194846447233
-26.493644828227225
-20.99008676956055
-8.899929816674426
-6.002530218818839
-5.17232093400089
0.37510263480765305
6.930389596160713
11.588790164064312
9.972891262242259
8.377666346410344
10.895251492396135
13.766297170768517
19.512829066831944
27.641610559661327
27.917671463880776
28.454825448505968
36.502410418453394
41.74108251329766
40.99889532268243
38.89101412425209
38.501054922111436
37.021516116362825
33.35652699445377
26.313883188791085
17.783832385324903
13.16563565031163
11.45558522489951
10.892873534127387
10.515235886352658
7.792917291770445
0.6394031508612995
-8.767659163129645
-18.456555774272175
-27.966965853713504
-37.36486946712422
-46.76337291563856
-59.937136730785454
-76.62625974684323
-90.11277222880165
-96.93270551885462
-96.56586979601856
-95.67703515527307
-96.34753920047551
-96.79639134532992
-97.89570245907709
-97.70216942176964
-96.32806465676282
-97.43763733554142
-102.70257328236424
-110.1039708500497
-117.26909185797884
-122.11716846133726
-126.75104345628317
-132.59458733867524
-137.40902590071136
-141.37222523332488
-144.04016383535654
-142.1522438596852
-136.02914151530885
-129.1889231324982
-122.7354706951182
-115.92125411513706
-106.05077748591177
-92.98073665076554
-82.39313002917486
-78.40765327089285
-79.54349086071194
-80.2783114287269
-80.20977843172479
-82.90441959170013
-87.87260849098296
-93.20950661119394
-97.31405200752076
-99.92575311042488
-99.77452969892282
-92.59760086365257
-72.94960344020072
-43.9389908342159
-26.15377212290933
-25.75965023848759
-35.279645884689266
-46.936396587118644
-41.025354075365584
-35.19777190376438
-38.008751560502006
-39.18116542510041
-43.894814633571855
-44.66042632044317
-37.68872351957845
-26.938377524826798
-18.296392028170867
-14.036622281294271
-4.8698293880858445
4.8886391207452045
12.136918941194667
14.73372648743968
9.384978634322446
7.782496364443719
11.958196541222934
14.999220561428654
15.375197484833313
17.09358309907673
19.996929765397443
25.6982616317973
34.40670543257421
43.373949522792095
52.72555377221673
70.12730823278706
87.37553049084069
98.73341421820335
107.22243675502988
111.93412987753517
110.8649992827084
105.6040235229836
100.72645017252366
102.30439938326802
113.88196984500118
116.68960380735774
108.64835485437358
106.08719172869175
107.0015126392723
110.39163287354664
109.88730299520891
102.90867587298402
103.99630377257975
111.73897730755697
114.50660320461212
108.48185410235615
100.44398548058172
96.5443871299883
95.08976489859926
87.45584535040874
79.23089005206276
76.92504696524507
70.62575824327817
59.91807460565515
49.586700313043245
35.32923677289527
19.64473700109069
6.39916935871995
-2.923200038212568
-8.252399170488106
-14.043092766038866
-18.344654388590463
-20.429982802550153
-20.601345353169084
-20.959895276720797
-22.406418624320946
-21.195012185712
-15.845709807385338
-12.353556778395802
-12.863732814518634
-11.715323057481829
-6.928241553260069
-4.433044328501105
-8.205631307801918
-10.612685858977317
-9.05304742223341
-9.383735830614205
-14.324509839660452
-20.15601371430348
-25.13418790921991
-32.04045473268925
-43.16710525052985
-56.79351872779745
-67.82283027368675
-71.2651361988606
-61.20848340907032
-36.135302548823844
-4.83921366495361
17.200222317150356
22.533011825538487
19.16630483586209
17.77725941177043
20.630162356872827
21.517244224268747
13.98626988889558
-2.0561958541016563
-20.29729596113705
-30.769991845393644
-27.730755455808417
-21.761975955054247
-20.888252763122384
-20.07758312866071
-18.322947499784515
-13.174471021983914
-7.058769171388749
-6.072086050601424
-9.356948433719033
-13.070643571592436
-17.135122491997592
-21.4021867414268
-25.858613648632065
-30.17271134846788
-33.37918074181398
-37.375366031038794
-43.77514306748888
-39.637460106297524
-32.77308961604964
-35.58119325273556
-36.986738019029964
-39.922497690934705
-42.72376136273473
-48.93211675144133
-55.6242534478255
-60.71054515521723
-68.70557549193255
-74.84280056470776
-81.69110494728267
-85.66747697744475
-86.99546998249525
-88.04369373870286
-86.98318387824992
-85.73221189402435
-85.5818605183938
-88.03495591556985
-91.33113086811369
-91.99216096408995
-90.20085405144629
-86.53130861060198
-82.07319807576782
-75.83010640125383
-69.26068776056063
-62.40650206426572
-52.81964379506063
-44.97432889065559
-40.466456527282084
-38.25221176314346
-36.25015346045971
-33.76833652321202
-31.880670103565855
-28.787834231931285
-23.752883775765696
-16.68799624164399
-8.00930281050616
-0.6216532777316567
3.564942105191672
7.2951240536743525
12.006283636154013
16.5968900384148
