AAD_Filtered_TADAS_FILE
AAD_BASELINE_CORRECTION: BASELINE REMOVED
AAD_FILTER_TYPE: BUTTERWORTH
AAD_FILTER_ORDER: 1
AAD_LOW_CUT_FREQUENCY_HZ: 0.025
AAD_HIGH_CUT_FREQUENCY_HZ: 40.0
EVENT_NAME: 202302060117
EVENT_ID: 13194
EVENT_DATE_YYYYMMDD: 2023/02/06
EVENT_TIME_HHMMSS: 01:17:32.00000
EVENT_LATITUDE_DEGREE: 37.288
EVENT_LONGITUDE_DEGREE: 37.043
EVENT_DEPTH_KM: 8.6
HYPOCENTER_REFERENCE: AFAD
MAGNITUDE_W: 7.7
MAGNITUDE_W_REFERENCE: AFAD
MAGNITUDE_L: 
MAGNITUDE_L_REFERENCE: 
FOCAL_MECHANISM: 
NETWORK: TK
STATION_CODE: 0130
STATION_NAME: 
STATION_LATITUDE_DEGREE: 37.25186
STATION_LONGITUDE_DEGREE: 35.67104
STATION_ELEVATION_M: 73.0
LOCATION: Kahramanmaras_Pazarck_Turkiye
SENSOR_DEPTH_M: 
VS30_M/S: None
SITE_CLASSIFICATION_EC8: unknown
MORPHOLOGIC_CLASSIFICATION: 
EPICENTRAL_DISTANCE_KM: 121.47
EARTHQUAKE_BACKAZIMUTH_DEGREE: 
DATE_TIME_FIRST_SAMPLE_YYYYMMDD_HHMMSS: 2023/02/06 01:17:32.9806560
DATE_TIME_FIRST_SAMPLE_PRECISION: millisecond
SAMPLING_INTERVAL_S: 0.01
NDATA: 12501
DURATION_S: 
STREAM: HNE
UNITS: cm/s^2
INSTRUMENT: sensor = ACEBOX/SARA | digitizer = 
INSTRUMENT_ANALOG/DIGITAL: 
INSTRUMENTAL_FREQUENCY_HZ: 
INSTRUMENTAL_DAMPING: 
FULL_SCALE_G: 
N_BIT_DIGITAL_CONVERTER: 
PGA_CM/S^2: 68.231
TIME_PGA_S: 
BASELINE_CORRECTION: BASELINE REMOVED
FILTER_TYPE: BUTTERWORTH
FILTER_ORDER: 
LOW_CUT_FREQUENCY_HZ: 
HIGH_CUT_FREQUENCY_HZ: 
LATE/NORMAL_TRIGGERED: 
DATABASE_VERSION: 
HEADER_FORMAT: DYNA 1.2
DATA_TYPE: Acceleration
PROCESSING: Automatic Paolucci et al., 2011
DATA_TIMESTAMP_YYYYMMDD_HHMMSS: 
DATA_LICENSE: U (unknown license)
DATA_CITATION: Turkish Accelerometric Archive v 1.0 - Disaster And Emergency Management Presidency, Earthquake Department
DATA_CREATOR: AFAD
ORIGINAL_DATA_MEDIATOR_CITATION: : AFAD - Disaster And Emergency Management Presidency
ORIGINAL_DATA_MEDIATOR: AFAD PROCESS SERVICE
ORIGINAL_DATA_CREATOR_CITATION: AFAD PROCESS SERVICE
ORIGINAL_DATA_CREATOR: network: TK
USER1: GuestUser
USER2: 
USER3: 
USER4: 
[...]
9.3441292297398
11.744805565078241
14.431728058411373
16.646646911829684
16.878092350495333
15.164923193548209
12.594677886937353
9.911948236550057
7.4518435019393126
4.850321244394769
1.3622700729465247
-3.373885335146298
-9.099187805927047
-14.697627044227017
-18.75737722000283
-20.682569985995677
-21.161488019403137
-21.35283031046496
-21.864896256385535
-22.952596513047904
-24.04071958337732
-24.070088795038213
-22.789875552051218
-20.10201880650104
-16.62861359900434
-13.642276223183808
-11.511844286801386
-10.837221855834237
-11.763446339726826
-12.84840324814161
-13.016127200089732
-11.655075453994005
-8.701778092090004
-5.597586442576194
-4.021231005737657
-5.124502874472563
-9.221564924558297
-14.947287390441542
-20.38669525565251
-24.39726925581639
-26.241343990940706
-25.802770964297494
-24.213270632727284
-23.17579401310488
-23.61910233471941
-25.554266776603352
-28.848857199198832
-32.51685648239805
-34.64392416798344
-34.251021606676446
-31.44557253077736
-27.13375471469471
-23.204420258012902
-20.824606803608766
-19.854249208169524
-19.958107281347022
-20.16986023582491
-19.175939162529257
-16.92682659049818
-14.072297912190011
-10.810803554739897
-7.604579657096127
-5.40312346404598
-4.3860227872847535
-4.037323485724533
-4.4605239677191655
-5.882080113307799
-7.98519287669932
-10.141614054219891
-11.205094835680129
-11.11271105912314
-11.532516746138176
-13.39048243886001
-16.731999622823793
-21.621815909369897
-27.230837373949086
-32.07250824692002
-35.25278432165646
-36.88955688696822
-37.53051718483543
-37.68530192710516
-37.99155343604655
-38.71540853949531
-39.47841474853586
-40.16062612988302
-40.73241340330214
-40.416961260840004
-38.59477640692923
-35.40688545089014
-31.186348211688333
-26.849530594139992
-23.60616555793295
-21.55072878196885
-19.803534864350564
-17.511712778229498
-14.022390624871527
-8.943167074954724
-2.6752213507597693
3.7595098244387923
9.772518178821263
15.447175565388664
20.7949664337278
25.51985496339146
29.326296397440693
31.790465037723546
33.07023392858796
34.75247715420076
38.00609563529192
42.247043882408946
46.35128699930412
49.29712421117872
50.55955602811578
50.69452852097073
50.716726016056626
51.08172524571797
51.540636225793904
51.465574705135005
49.834057557684
45.7945997438021
39.304671797506
30.639122448766212
20.518086626120258
10.292528402528463
1.0580085468460714
-6.4170713375901425
-11.534108305197915
-14.719138006677873
-17.572744780317826
-21.10693841276515
-24.61095186289976
-27.22017520984389
-28.6075471458403
-28.08065929454313
-25.496930239438793
-21.79360504417258
-18.015580268093792
-15.008397568665352
-12.86716231142889
-10.927949984302364
-8.6341912204245
-5.5328127131206095
-1.3928727650138308
3.39997187443085
7.808694829581613
10.746067750658089
12.422307249425058
14.221328509918306
17.266894160636802
21.807581515170074
27.08529211692491
31.759843518832675
35.02142851872816
36.76411062322401
36.944845720906585
35.854801806507226
33.956257384557496
31.04037896835657
27.11966769432833
22.735586483068587
17.836429051978058
12.390986463033997
7.263589873109017
3.60740333902564
1.939436352235185
2.0996296746537264
3.7522200452983605
5.97883292319451
7.635625841035687
8.352485882483611
8.160617219434812
7.312762602607293
6.089836601382878
4.602224653394106
3.5352470566581293
3.7115670121344513
4.993801234774908
6.514559470410494
7.464964558966816
7.351471446033231
6.102758840799344
4.544112361772504
3.7401768930119617
3.904981556277106
4.8795989214454005
6.570817263606967
8.836354129930044
11.602953302400506
14.659972293280122
17.356966371985845
18.892365467325533
19.077503071985834
18.13090973808526
15.956128489576797
12.602301322500075
8.278067829057433
3.1513772537228095
-1.8883762671516353
-6.031405928662493
-9.559206651491632
-12.625112957340779
-14.854218453400769
-16.365624257428074
-17.564431205045878
-18.36422772746617
-18.57218856895418
-18.275431592794444
-17.413216430579695
-16.039461017648044
-14.58980910225125
-13.327146073491088
-12.48184732368725
-12.362704005134024
-12.97267247549241
-14.157921705451104
-15.596598582418489
-16.79153681868795
-17.50449043526437
-17.871336960843795
-18.2801808933871
-19.169637083840275
-20.70964702589029
-22.605923259390472
-24.2740312255499
-25.374580863928614
-25.653870469611064
-24.579096549485207
-22.177711743754212
-19.055228925971868
-15.388265345147177
-11.279102453795343
-7.146383435177641
-3.2613377763028875
0.566044053046847
4.630937052690988
8.530319232442032
11.38694737762783
12.141469382142756
9.913065317650673
5.247553645205528
-0.3820934985675824
-5.342686518353021
-7.841792154083354
-7.439253053564893
-5.282074706060857
-2.8014646944185206
-1.439247066519918
-1.8188244212533422
-3.0529737867878333
-4.0123841629284565
-4.195058413211179
-3.544049425123718
-2.751943052712956
-2.5716746641224657
-2.8174645732010055
-3.1784177343947437
-3.529503779885835
-3.703315092916814
-3.8541804322671265
-3.85341396741186
-3.2578808166528197
-2.4354185663637247
-2.2764519785855066
-3.292262693405059
-5.445607423101535
-8.008375376936161
-10.21102381694201
-12.00241366127791
-13.420459643631865
-14.591897414686976
-15.984016740700111
-17.640637042333186
-19.482770036965096
-21.603224570196627
-23.351569154811397
-23.52224842273609
-21.95121073161278
-19.924809865846207
-18.535086799276517
-17.986473450437526
-18.245493504566017
-19.04298725036834
-19.993277367834256
-20.513389940050985
-19.616833832923543
-16.814042673575706
-12.645588127584897
-7.815528847026175
-2.3401874957013713
3.667820053373046
9.285780903374329
13.901090864375675
17.56966284684877
20.403384917859007
22.398830570113912
23.271933613168535
23.14141935198861
22.64479892415435
22.005767134231856
21.404167819561223
20.957248619800858
20.2733113802351
19.018489288953706
16.449211769242662
11.540191829309864
4.5857720649063465
-2.9721232667210185
-9.594706140001358
-14.268876686214858
-16.955964728307354
-17.949272829463265
-17.630228787883627
-16.934647078648567
-16.551231279438156
-16.233583061573256
-15.441142479387878
-13.845769542072944
-11.226161918779262
-7.463804593018074
-3.1078615804406304
0.6429859118355976
3.148924861754092
4.2557922347704595
3.543420602626933
1.58918542636511
0.2719977072737161
1.041620077894486
4.487612297633421
10.025898177116428
15.699780025541642
20.456083999843084
25.008732253357543
29.536003823662693
33.332203745175256
36.50523323640922
39.24311476609906
40.344516541961525
38.774875524988566
35.09185396351544
30.20402956031056
24.81891665655921
19.764881469074606
15.34836914652254
11.288941030022153
7.522920995559891
4.247231282646025
1.0764746686685578
-2.3822520158594696
-5.3578053631225115
-7.597882848138666
-9.45860732319933
-9.871170734883494
-8.30400226234914
-5.456052446449337
-1.7088664158452094
1.4534632034189097
2.830656156486979
3.9603242775448555
6.035667800048471
7.850022428722869
8.490484750410655
8.187955182942538
6.755474361784888
4.6634160174223425
2.3574804016446578
-1.2217152984110606
-5.179725487856816
-7.818562068847913
-9.375992214870179
-8.951394552048614
-6.169294215705091
-2.3407284695460127
3.0066694844200863
10.001526504631494
17.02550366202865
23.884177479719206
31.295256126115273
38.045636236102474
42.627060901835364
45.434470474474544
45.95239441464236
43.159483916803474
38.343382279418286
32.23909180400287
24.586106179283345
16.546905954135454
8.646101738745466
0.3074472499408959
-7.44120261838528
-12.840444629666798
-15.392675282475595
-14.899370089568986
-11.434315210897305
-6.141495694034142
-0.2639044525469839
5.211559472939557
9.81605845398802
13.895356429846366
17.500409707841847
20.283188288697975
22.184383932106012
22.96714251860517
22.22517397791662
20.459852379412
18.279203546865205
15.307116099593168
11.85259167250127
8.585108578430287
5.1717064673317275
2.3514742048901764
1.8252110286961478
3.5771343149509156
6.536099293848183
10.107589002264724
13.017011902457757
13.697445117993809
12.634116373754473
10.614967756921327
7.2528535300127075
3.0818343543900726
-1.1798725666469645
-5.597327784183692
-10.0839971074884
-14.806282580338925
-19.941406612110043
-25.2332063200172
-30.53259959417063
-35.65650670644269
-39.98618476430814
-43.04461453967337
-44.67690911042114
-44.57019804686619
-43.149760857645056
-40.46643054608983
-35.14812697560716
-27.74560529902741
-20.313607566818582
-14.084798480693529
-10.530455285817904
-9.764897400694803
-10.512589320640885
-13.075960051817802
-18.015165587844855
-24.575220668350468
-31.76513263650428
-38.396207619624775
-42.79781567702848
-44.40064735897953
-44.76719125919955
-44.844390243682994
-44.00835675149946
-42.70514171114916
-40.80089590655643
-36.89085908937847
-31.91970465945524
-27.307908739540977
-23.087016365009312
-20.070472372493658
-18.81641897679522
-19.01056730386977
-20.06266353671363
-21.307639212272083
-23.07319740520803
-25.20044837745394
-26.68480842738725
-27.351273263807887
-27.139296341207125
-25.973650415211903
-23.632978036386888
-19.423733446416485
-13.586298552253488
-6.594635251850314
1.8849512606106995
11.352468911717798
20.156362893257224
27.089825883554408
31.885916555978778
34.51386563161187
35.09356568736637
34.476553487371326
33.67143463181522
32.68596250181643
30.93556207982584
28.513528101391266
26.025077229054403
23.776628318044203
21.885300842857106
20.21468346715598
18.56592963031152
17.01330382245743
15.344758554858242
13.067945346093824
9.715368387507445
5.564524975414554
1.5102808935962444
-2.589473728882644
-6.857225150882887
-11.16927066838392
-16.63978643143187
-23.329864366823866
-29.481589308018314
-33.6305175805994
-35.213047664160584
-34.17658851596983
-30.289221799981494
-24.08970380602148
-16.837396943157856
-8.930573959909138
-1.2113358397110636
4.959620363914165
9.438874520460447
12.497527645245336
14.104421364938723
14.63470634945924
14.895630021493062
15.187461095520936
15.07403955027308
14.196188629149388
12.54580548076136
10.151942738379471
6.716436403645826
1.969800702679853
-3.4707982544665543
-8.297653844569714
-11.491370097025577
-13.033013918723935
-13.239091647737903
-11.944406146578197
-9.210777126069848
-5.182467559741569
-0.05493672020341279
5.009146115639524
9.381760353770456
13.304559777290047
15.774520452811812
15.55827944399099
12.882935547313892
8.695317042816567
3.7395890785835477
-1.9545627568324297
-8.346346091633716
-14.584408116379736
-19.730086204619184
-22.811635489496705
-22.83129265191475
-19.958781211864903
-15.182067203382749
-8.697520170968124
-0.5064940478300147
8.178803549361982
15.774797276609627
21.383581407955756
24.872374710672457
26.636967783558383
26.87977262037763
26.06823907223545
25.105815312845504
24.24303816155592
23.47870455993034
22.845640087903003
22.34042044917614
22.014741653839998
21.196462990065815
19.613818673143495
18.13654234551424
17.214050604320807
16.740454509638
16.406853267159185
16.18536808911852
16.588263963937393
17.248277008133016
17.18380299594208
16.25877928083566
14.510403526357035
11.16130814137715
5.431381714940095
-2.3812377885624554
-11.05654744498687
-19.199931176012793
-26.40718045524192
-33.05589016310045
-38.77161078557109
-43.41720812088588
-47.594170568928256
-50.76072086609316
-52.10336312166502
-51.71510762102501
-49.077857697606206
-43.527898076402764
-35.363101768814644
-25.22662907731898
-15.289965214193106
-8.666726771474671
-6.197481598235538
-7.073716542196803
-9.777020374763925
-12.311889900738837
-14.581473319673728
-17.587215073722103
-21.134111224095943
-24.085976116530222
-25.330503575488112
-24.497112578545927
-21.447651143004993
-16.234526930807842
-9.121190930967696
-0.7110664049983572
6.770658728412498
11.696375572260939
14.065019898360777
13.581642526524785
11.49228362085965
9.698713483128865
8.309879828700575
7.6900039670780655
7.847257895683126
7.24796025026511
5.188476340114123
2.4681338740095167
0.3084503549297822
0.006610861988409957
2.513874008054089
7.326958767949869
12.808730522741197
17.84187821350991
21.997540753430915
25.10704685841247
27.020761470910124
27.59541839707842
27.029607876024606
25.405619764229236
22.95586404617899
20.311992384677062
17.33259079663015
13.510543104473594
8.616725703712728
2.2027168698412916
-5.421896062320504
-13.149750139925386
-20.26540433876898
-25.596048831264593
-27.41491794631841
-24.90284173472572
-18.41083444544975
-8.999309457035698
1.7597370029817085
11.924759500196375
20.202244092368904
26.206969915040553
29.91379520488098
32.28669426230372
34.14233665792158
35.51861697344628
37.16380054083809
39.30424078558803
41.63196662674644
44.57260576814429
47.68747335219525
50.53265534573337
53.72884704761555
56.5439239288999
58.314892162664805
60.7542358284031
64.10630902041902
66.42814566112158
67.50122970863379
67.12010690386846
63.74475254484423
57.33271628842467
48.73243904515112
38.98695878904209
29.563390822961956
20.25997519017643
10.382476109802436
0.9569993323037778
-7.393796880957717
-15.000566089023415
-21.79602869834747
-27.815968809623566
-32.69292271221871
-35.904207438580315
-37.71269619075939
-38.04217237230756
-36.85466292647479
-33.94876227180618
-28.478344990324633
-21.124189818483625
-13.129734715004385
-5.013409060205905
1.8749269401879545
6.347258113416941
8.603103390478594
9.50204881637124
10.473450031906752
12.61296612261855
14.695998101670872
15.008850371750382
14.091962441504492
12.344764355974533
9.39909982765902
6.044430046809771
3.081170348000463
1.2611788130572732
1.4973032132951654
3.526778478692829
6.273832416089364
8.65545673743103
9.933472659886318
10.229303644121847
10.629777323313796
12.015998358985737
13.80088827262059
14.96545585339189
15.853372248411391
16.834373893560322
16.21245828208415
13.401872626214194
9.934283173985886
5.789744174303642
1.5617681381229815
-1.3008614669820953
-3.4363878376929025
-4.709419647332124
-5.2867857445023025
-7.032154867887052
-9.728260252290683
-12.533009056888712
-15.297551342152785
-16.986522454518145
-16.986095028925906
-15.62935724597739
-13.30051155949484
-10.311886832889982
-7.88594714553295
-7.076388042001181
-6.7577136062387035
-6.912474623780789
-8.6645155423555
-10.398446073685845
-11.139887416437919
-11.87412018656092
-12.0715423589742
-11.579870026827676
-11.36537440705505
-10.410327788743695
-7.196890559392857
-2.6266155111302107
2.0780002940488758
6.725720246084359
10.314412779041403
12.519448956941511
14.005430879734845
13.730879999566717
11.649422682634615
9.991836507375655
9.531627762918431
10.01456227612065
10.89740090829452
10.55409103381703
8.646154657817219
6.672728273240397
6.145934466264108
7.523034247946677
9.71858085939829
11.417766352610517
11.896910864260803
11.358689545424074
11.108273878854233
11.78780158158593
13.698779286103042
16.888463391564137
19.512723017510645
19.900435719070284
17.925716784848547
14.23024912201178
10.57055692349526
8.887176570173606
9.85929133001878
12.428950972675949
15.017752876108522
17.06676122148101
18.48887563609924
19.893652778119726
22.183177293670813
24.763644463641494
26.46261430912567
26.491972913356225
24.448797900136597
21.09610005947278
17.703088261571324
14.955830691847058
12.96487407091006
11.467999676569498
10.00785946596323
7.975952035062827
5.043824118310434
1.2430900445126531
-3.2942541804866607
-8.06257994781644
-12.886599023922432
-17.881771310701943
-22.356775801703126
-25.886722868371955
-28.615506027392424
-30.301145360278134
-31.29154233964668
-32.26705483655619
-32.646484820696614
-31.490973210938474
-29.024667594262226
-26.257189310546007
-23.83265089201585
-21.55653115139086
-18.991485041900305
-15.90933441650617
-11.897950363549258
-6.775338644780828
-1.2970992486462154
3.438341935154384
6.598202455446073
7.987391445952077
8.30501430256171
8.373082544830927
8.406716018430652
8.228884849502917
7.682349846098665
6.653789084213214
5.1635313685529525
3.442516231807229
1.345986001033242
-1.4416313331644903
-4.415049168992523
-6.644328881773792
-7.603202366862102
-7.26498909423194
-6.264070381831193
-5.473448496755107
-5.0558302406850935
-4.858285484913891
-5.371771018955253
-6.922111741896225
-8.500515181033181
-8.928942951556651
-8.278570839174145
-7.051322489618104
-5.593248602090052
-4.511891823039941
-4.175979821473522
-4.344036615443722
-4.657653743601572
-4.916960518115451
-4.878795054025207
-4.236882479949066
-3.2080103092647647
-2.4711182588614626
-2.6979405579998317
-4.5501149291632395
-7.8015936302011735
-11.339292321613598
-14.909627626715027
-18.875841070364423
-22.888094190874817
-26.248274390445275
-28.353445105647666
-28.497443530768418
-26.299319725270102
-22.303637133257475
-17.548152406984176
-13.210605560657665
-10.387706054931598
-8.850383336556327
-7.2614587492113305
-4.917273715619633
-2.1077977875412546
0.3901554999354566
1.7800884706795943
1.5577915986440618
0.04345271499381474
-1.521449592420682
-2.546055185988233
-3.641958484155897
-5.627821000044022
-8.966942343468357
-13.120193787121673
-17.023638910700416
-20.417429612329315
-23.326639416369815
-25.32560522937544
-26.235819970540668
-26.192082588979098
-25.42506993737922
-24.88519984039093
-25.46234619944668
-26.991768856717922
-29.233155922529537
-32.02258214519892
-34.729673230197015
-36.8257342577655
-38.120106146992065
-38.59755103444202
-38.40195287503123
-37.966790936023294
-37.97314456243077
-38.46263192033863
-38.74265321768994
-38.16497834968209
-36.00303697021781
-31.94285183827994
-26.8151794466722
-21.433442057750625
-16.07304075192399
-11.146013659380689
-6.6899152023488835
-2.403611710041573
1.602837535216843
5.301065767754592
8.700938635131452
11.184815276704342
11.940698862932589
10.479903395933846
6.887963298938999
2.0155676609386544
-2.6187611376032627
-5.488966979893119
-6.330262150539422
-5.691584718694807
-3.8196227640043925
-1.3744730044497409
0.8344093383177033
2.5053747933622663
3.463507771640613
4.256889883553397
5.753262758358619
8.104673535220776
11.229658346302006
14.619197756747605
17.119871933365626
18.056473789541165
17.525313198314812
16.06618378753147
14.74877285255214
13.92901423800305
13.111710000256428
12.721499274007746
12.551828862307778
11.43470497061359
9.79863602836245
8.132323239061162
6.672618860355073
6.576035024041966
7.2443347479092965
