AAD_Filtered_TADAS_FILE
AAD_BASELINE_CORRECTION: BASELINE REMOVED
AAD_FILTER_TYPE: BUTTERWORTH
AAD_FILTER_ORDER: 1
AAD_LOW_CUT_FREQUENCY_HZ: 0.025
AAD_HIGH_CUT_FREQUENCY_HZ: 40.0
EVENT_NAME: 202302060117
EVENT_ID: 13194
EVENT_DATE_YYYYMMDD: 2023/02/06
EVENT_TIME_HHMMSS: 01:17:32.00000
EVENT_LATITUDE_DEGREE: 37.288
EVENT_LONGITUDE_DEGREE: 37.043
EVENT_DEPTH_KM: 8.6
HYPOCENTER_REFERENCE: AFAD
MAGNITUDE_W: 7.7
MAGNITUDE_W_REFERENCE: AFAD
MAGNITUDE_L: 
MAGNITUDE_L_REFERENCE: 
FOCAL_MECHANISM: 
NETWORK: TK
STATION_CODE: 3115
STATION_NAME: 
STATION_LATITUDE_DEGREE: 36.54634
STATION_LONGITUDE_DEGREE: 36.16459
STATION_ELEVATION_M: 180.0
LOCATION: Kahramanmaras_Pazarck_Turkiye
SENSOR_DEPTH_M: 
VS30_M/S: 424
SITE_CLASSIFICATION_EC8: B
MORPHOLOGIC_CLASSIFICATION: 
EPICENTRAL_DISTANCE_KM: 113.57
EARTHQUAKE_BACKAZIMUTH_DEGREE: 
DATE_TIME_FIRST_SAMPLE_YYYYMMDD_HHMMSS: 2023/02/06 01:17:31.6243800
DATE_TIME_FIRST_SAMPLE_PRECISION: millisecond
SAMPLING_INTERVAL_S: 0.01
NDATA: 12501
DURATION_S: 
STREAM: HNN
UNITS: cm/s^2
INSTRUMENT: sensor = CMG-5T/GURALP | digitizer = 
INSTRUMENT_ANALOG/DIGITAL: 
INSTRUMENTAL_FREQUENCY_HZ: 
INSTRUMENTAL_DAMPING: 
FULL_SCALE_G: 
N_BIT_DIGITAL_CONVERTER: 
PGA_CM/S^2: 286.723
TIME_PGA_S: 
BASELINE_CORRECTION: BASELINE REMOVED
FILTER_TYPE: BUTTERWORTH
FILTER_ORDER: 
LOW_CUT_FREQUENCY_HZ: 
HIGH_CUT_FREQUENCY_HZ: 
LATE/NORMAL_TRIGGERED: 
DATABASE_VERSION: 
HEADER_FORMAT: DYNA 1.2
DATA_TYPE: Acceleration
PROCESSING: Automatic Paolucci et al., 2011
DATA_TIMESTAMP_YYYYMMDD_HHMMSS: 
DATA_LICENSE: U (unknown license)
DATA_CITATION: Turkish Accelerometric Archive v 1.0 - Disaster And Emergency Management Presidency, Earthquake Department
DATA_CREATOR: AFAD
ORIGINAL_DATA_MEDIATOR_CITATION: : AFAD - Disaster And Emergency Management Presidency
ORIGINAL_DATA_MEDIATOR: AFAD PROCESS SERVICE
ORIGINAL_DATA_CREATOR_CITATION: AFAD PROCESS SERVICE
ORIGINAL_DATA_CREATOR: network: TK
USER1: GuestUser
USER2: 
USER3: 
USER4: 
[...]
-22.1669112806363
0.3290518090376262
4.024610445918661
-2.57318522124751
-1.2559547931269424
10.79703994635254
20.46993895264671
26.31403980607072
32.53748501148749
49.282913055173246
85.2378958048012
75.64716461158703
30.511510256819378
6.659725228802667
29.440455134376293
58.30982154304684
34.56689692425312
0.646847992591288
-5.484862473003037
4.5569885154556875
-0.6856934444363034
-31.563766958779354
-40.792064873922904
10.207816566767946
20.21413758635593
-37.43479793790162
-64.28856363249855
-39.99429634796285
7.506660612297997
20.05193015593337
-11.808859251930501
2.4644217243790068
31.48161963425638
9.664267850310416
-15.085654610596789
-25.960708352943143
-29.878841136793536
-12.633953585674256
-18.68174041379598
-64.58288241166406
-106.44382297045651
-118.19300943402664
-106.72426269484413
-107.0354041277566
-132.96729118407993
-135.97841333349632
-88.02825295532278
-66.74899660143178
-72.10841046677436
-35.94631664657495
12.972595272390866
28.90018372235661
33.22965497899644
28.604546957384613
11.117810693384007
32.013815399866175
61.06988941073921
51.262666742640235
54.455023988473485
65.23573534779241
57.0274096324985
10.944298393701239
-28.654435329230562
-54.291322225899215
-90.84888321398401
-109.28451140058881
-119.22917821247421
-122.43215599521906
-109.77177610843611
-79.21026082797887
-72.87915030182054
-87.53500825966825
-84.64624784471967
-72.76292109920512
-61.3496502565901
-29.0223861311988
21.553657079335366
35.49955806904105
15.553298517954314
42.24205874509681
78.1578244284026
57.145590355692164
26.750792272495346
20.128322025043307
48.27868359236191
67.24578824151763
43.03534849909166
29.400408605720596
49.18084819244234
54.9826842874435
26.99877571797954
15.47423717121864
2.9837221000459153
8.271103432953744
57.61696827228251
89.12229971540819
106.42929525211338
130.8948516131625
147.2701955707557
139.051035211405
106.31000088873857
100.6374171225519
106.3793626352191
66.45603527036866
43.56418821127051
55.42720594722954
34.40933438847019
25.206740359874065
3.779308632137139
-31.314885011036637
-2.433641698048977
23.215267377191168
-4.729653605022475
-33.70784832410487
-7.082334693179521
23.638359072342404
38.01147056644319
25.15155887817824
0.803605563162095
13.700094834078724
51.21041598086047
60.48620432353745
58.3461589921891
59.92436528216173
46.92307925197353
44.517751984200736
32.6610211685796
-1.2785515877921245
-16.126106634198923
-11.790255732992303
-14.654513234320126
-9.162359698398923
-5.504079872053892
-5.5559721685345815
-11.05200634789479
-14.042398877756419
-6.137285974280523
-18.87134250764229
-56.63874890522598
-58.773766979579854
-6.98549415189094
0.37320989491399675
-25.975601922485282
5.745702051108528
31.00438774256116
6.763038761940781
11.4002865135355
34.69077508535598
-3.336840828249129
-23.383486802294286
1.3374390562285339
-16.63315718783139
-43.02114880970671
-9.548909721457722
10.326604416424743
-23.28359056630831
-0.20223172869843267
38.72884882967821
-20.944994461280345
-57.71198658086938
1.2834308955884843
11.002369137758937
-46.61282517939809
-35.86361110646807
5.690032440739943
-28.77246091455161
-48.14516372094694
-28.799536519942528
-42.63726637647178
-54.74273662850239
-38.73950036022734
-24.66564778921428
-30.370402223434475
-10.421450196426994
64.44271824295893
87.04931552716153
27.77456947772805
41.69399458960067
96.42238739849441
43.00779257122582
-25.746748675281395
-27.36538080868119
-43.43775908102126
-68.52393098138599
-42.72598752587944
-26.87228656218097
-33.93613423323681
-8.640156795885334
1.581282078464043
-42.73026684960564
-75.34884093479187
-54.00947254611549
-25.29700544640435
-37.94193878583992
-49.64501251034609
-13.579535979487588
3.6175186912508384
12.034079898092385
58.91396546623336
77.39985183054218
55.34790095614034
55.60701988425799
44.064843794937914
-20.17880394346441
-36.086878433128796
-36.954195513079945
-43.7129890751253
-24.27638831068483
-40.32317805149945
-84.9371818507558
-88.40786853997898
-52.75045736789125
-52.256542551277576
-77.04948897261504
-86.55580581265585
-60.57663494205151
-22.819715258397554
-24.050856213735024
-43.229140939778745
-35.14989059865226
-3.6561317170007173
35.62362096978569
27.171109488165087
-13.00749494549999
7.5688064429820905
46.27516442927929
37.92131654146088
38.64688973994572
47.65874738337292
74.06979451650365
101.48598237362266
96.66591548344621
108.51408811172043
140.1208514960052
167.8087602565563
151.50898454430376
106.51810322721559
80.6932316039107
94.08860676110004
89.39926757920857
58.244579576115605
57.89701589965798
67.2833276001102
49.91942991190379
43.32491288397242
30.98262527441994
-8.414031365859568
-11.949381787725192
-12.929324994053902
-56.69770367849995
-79.65641115171073
-30.611317605169166
-33.79248862121225
-60.98669551260515
-25.852627624274604
-8.437571595058026
-47.49348343953317
-86.93839546757968
-81.50947432130924
-74.6704080543566
-66.47450707071656
-71.11789164213852
-74.99499641815459
-36.62011770672865
-13.776812583038826
-24.48469982181001
-34.33582346872676
-11.481555005195744
39.105335999034544
70.39247246173562
60.06291963707555
52.83864414422051
78.229059234964
63.17301645622443
32.78626727820935
-1.0510270735853033
-13.87363551749207
6.294570167900241
-21.583768835832
-54.229297879774286
-42.082828258057425
-23.310272217583705
-43.18796134255159
-60.12991191275897
-63.97513226709827
-71.58735726955805
-68.14232659564152
-50.881380986865786
-41.58441400516296
-49.81800588666393
-41.40805266389542
-10.654976386694296
7.136596397089492
-18.515479333167175
-26.379917194646037
3.804230791914051
8.017050188253876
0.012512683418080579
7.294095304683628
1.751909192447732
5.42645558585068
30.095917989827832
8.659847758524323
-15.254029787038945
21.15136289570456
67.0756378319903
53.83355971478216
5.911112902828625
37.67998276583367
77.68456096542617
62.26798150357067
52.12240493445998
44.231530244967814
38.22087490769936
44.85962496598771
41.72093905457192
42.997134202740845
52.010191588282765
27.840265392407158
29.22085895638145
15.333409735379831
-40.03303793411205
-22.30790605866989
25.184676326967086
-2.958945773586517
-22.778434218180443
18.543840988444536
40.739676677369346
25.128140665394266
33.9673462417724
48.935559311342
60.18356435144688
68.42652185481258
52.85784002355128
54.942906194862374
60.67610268256397
67.12647375679451
56.6215931412295
35.36704755482538
29.869858432683518
30.099644395998038
10.145215850242405
-29.48961619885672
-20.356577702116905
-7.788223461397663
-13.827939075235266
0.9683356529023254
4.940458929037471
7.937406315689047
39.214609568285276
42.65814850344286
10.694177546132785
3.0664010318648263
-13.943567810288009
-11.543940263944481
-3.6088441229595856
-2.154523775253774
16.707444084858135
26.561320556653953
43.736156124348895
66.49458861234918
74.40602573343516
50.95430178283242
48.13388616487591
56.543939053680866
18.492612052369935
-6.6239672241579655
-29.645984176734213
-60.46860536536296
-73.7693369858529
-68.5158060171949
-60.933378872185614
-63.962227235466614
-19.034747388762426
38.473698925206904
39.549994116756324
42.99359510452857
71.32849666779636
63.96108465928153
39.883688942024506
55.261352504304085
81.78366396998383
81.74618897585084
62.3645773727335
65.05811130734126
79.98800814782868
77.60910865105448
73.81795992607475
74.42084501046939
64.03687378042606
46.47431216346726
46.38962146774795
30.831051449667793
-4.178030858498757
-44.50809973616187
-64.83700621174125
-57.41496085181446
-36.17776141658477
20.07189001993592
56.07103227347532
37.29449228398255
40.0812126271938
22.29071621094866
-27.905820254115618
-34.5872994621165
-17.339542916952762
-15.358486666248904
9.495796207637753
47.196304474991585
29.880886801063138
0.7952398432523621
0.8270165495204526
15.246949670191398
29.894279962238404
30.10863967104309
42.408366850178055
53.87610400979669
69.27577777412677
113.55988364168171
142.4667394463624
152.49261318929416
179.26741745944432
220.93482858012325
224.94380826275557
187.22026774697378
155.05757417673132
143.34464155606904
93.80868216974119
41.53292493963429
-13.735439165713753
-108.222314125925
-137.86985769065927
-80.5018008583152
-79.02917814719666
-136.29864428109755
-131.00371080404608
-109.99805047424921
-128.89042114443114
-157.93633248016403
-160.3568782899292
-151.3201912038634
-152.5249874540757
-148.7083629806298
-138.87453190943947
-148.642961325762
-135.15184056142982
-64.62974890370079
-21.01139502146551
-49.39170590778059
-50.42429244485795
-18.025576667181475
-22.989523919279367
-40.08584485517023
-42.83160586805792
-50.92311964757856
-68.81019167698798
-65.36081179891525
-56.5492937234567
-57.692911490892236
-52.49127727719797
-36.74287058824364
-24.167880842398286
-19.768379677191394
-32.98772351652846
-62.034720270245586
-81.73004029291809
-79.12888321944996
-58.887126903068996
-61.156574458692624
-92.80038890501245
-103.17638963581058
-80.23463409497244
-70.28153992750714
-94.26225594021065
-92.68508634495397
-58.14117998871743
-33.69573818083756
-26.418069522633733
-19.633701105365812
8.293778970825915
47.83043670379563
93.50542995350764
128.93866694483327
154.83734377696
176.1739932125414
183.41245699193558
180.1972252853421
157.4957013190742
97.15034549611207
38.02858353020565
26.870027882552964
-12.810155558014335
-44.80991792948675
3.241170950293095
69.68273953718266
94.15696588738075
88.66371043933569
93.51436775341062
82.53492499628051
50.04771288543565
6.1581924732547675
-35.63624173831056
-59.57909131735316
-72.54283420481813
-72.79846214156686
-67.21124999379408
-43.266578024674864
12.423697722971392
39.652948884625545
31.406728747376754
27.152475749599855
29.015363564975793
32.24708366605516
48.86782726845246
52.82300729242818
17.274888483891772
8.363355562706964
4.240362579154444
-12.58341511316558
-6.479916269108959
-1.4399200377550492
-29.266063826726423
-47.53697794078121
-42.634584002699846
-73.21738602467386
-123.88530905649341
-150.22192883001637
-143.24199850133914
-145.8782945931792
-179.85201523944457
-188.70916115708187
-152.80224677241648
-118.42158211608384
-94.48267337661925
-68.11035853192378
-45.352587973453936
-30.23564977658786
-9.933541348251294
-32.55047582300381
-61.55301902586003
-38.89023191324561
13.61604522211073
27.136782773403567
9.636930488428913
30.853389641305146
60.48280001659376
53.991026137429515
34.13668017373562
-1.6095585924353124
-24.663618091361723
24.37215996141482
17.533447098995314
-51.08596858527706
-78.65206687079166
-79.32314828563119
-103.79870863595008
-134.1149795403438
-180.67605258809934
-231.21498486919094
-221.31989096334928
-182.1528725244737
-173.85640053996661
-154.9566892767699
-80.6631390066525
7.844010190440222
64.98007532250752
94.1648680187137
138.70737630431287
170.81121728446126
177.3545318799263
176.443650707629
160.48398069322306
171.70548501580862
201.63732209410745
222.62422672157453
228.30763645697556
210.20469825326674
187.79716629078118
155.7005696563211
111.56989547139138
95.88422687479284
100.66147113108815
85.73792759080573
94.03569409474369
88.18356856386349
55.385127079274525
48.34492970767889
46.18273971729801
35.64812096247747
24.383761918685163
30.789173174805182
63.08993614721478
95.81921128095003
119.4173522151685
139.9068574906724
159.37002585607206
156.58756718310056
143.37157276732447
120.14979067080212
79.66179392747284
52.39803083177268
24.63225812644563
-14.549508342417987
-54.95245482472908
-82.38785979642955
-123.36825088401324
-178.54313166428383
-196.8148984859479
-178.15404951867305
-158.97587127489845
-138.6784440846076
-119.88304437840817
-126.26806652011817
-159.09715353767024
-196.02290788576457
-219.63847725868894
-238.59940801689126
-240.99896490590345
-226.6618509996585
-232.13403063981707
-241.02764618157772
-206.6717282299904
-138.47679089653397
-82.5863657842443
-9.351308598033595
82.12033483239351
62.92313804709071
-15.666354248351894
-33.18640443662276
-17.64186381054995
11.507794318672229
54.524887282791255
77.97083319354131
66.98534075533347
71.40944400416183
109.73400348676198
101.98751035738644
60.08271158345297
104.62875253467216
171.5600316136989
187.58244845790804
149.1988296899047
89.93917701356956
63.80079955616341
55.2285582467134
35.39063440338381
0.07917023054405711
-13.896100252631049
17.184355717311128
67.50210036239973
63.88751036112464
41.479215391165
81.00186436991838
141.31983145421793
188.18995397976178
207.3090718518617
209.05300311229144
229.31859456127404
241.59155151889502
222.24461758267853
180.83881326083875
149.847879900583
122.68868607731133
59.74156338140593
-32.495434989399854
-106.75309674280497
-151.5517252784793
-192.7468755068164
-232.86537871546076
-272.21959162366426
-289.5398580574445
-274.12003445232597
-242.42516155288507
-238.45303476373107
-224.1409680842322
-144.7384944096783
-59.08206591458428
2.989531669097904
56.123716257682375
144.6435297280835
219.3518375768486
223.91109663722253
187.10834817247675
191.60215114006382
195.92164253131088
165.8027141842447
155.25343937911052
120.51500983185642
84.43578743856828
64.41511643788488
37.32050313350881
11.746917892349664
-2.10709412286924
-16.15345013596539
-24.81043053433809
-16.38501072804523
-14.818010703409756
-15.573933565202084
-0.6820140177304045
33.51409647839871
48.997413493862084
58.944003017651006
74.76262511925535
64.67166529346493
81.43767394880017
94.71199931365581
64.38957838356869
40.883231958554404
-8.074601803979842
-116.6587604488154
-215.7097961749901
-236.06338667888528
-222.0277381860258
-227.46787890482273
-188.24115590716497
-116.76082412078898
-69.15098783225045
-24.525721694711837
42.76404570417464
74.20582296051737
64.29954298964364
64.39410012891874
34.92958950801196
3.388820022938189
-15.203339511628071
-45.41917612851834
-53.42261093095764
-55.05216787649602
-109.26802633423495
-124.92617426425812
-54.36045922291946
-38.42866881781555
-90.52510033148742
-93.7428605275657
-52.41390154912356
-42.48822792050003
-57.20681804829689
-83.6193155347461
-119.56221180744853
-143.47555510918014
-151.2692735241583
-171.89998462751367
-209.90564225076858
-219.5301902495631
-205.46467956012788
-193.18085442300185
-180.15704103501767
-170.32411791586682
-147.59291104678812
-119.76982622807213
-101.92249533922217
-90.46243165312717
-60.77153211964288
-16.097473210986415
22.203974511435003
48.91442868641062
71.60862713892955
83.58554741987597
78.02707660195217
67.81485420349006
71.59991390409026
97.0834378225184
109.52250728464432
98.86757346747159
36.53727586131538
-14.562302253907813
-2.281846714947079
3.503233216424121
-1.799791265957778
8.264325208019171
25.36227563972947
31.181095827017476
36.22371383536456
34.13345191830358
18.24327795366167
-1.3484613139076318
-25.08795209095782
-59.621350917448716
-81.57390615437485
-102.21376999958066
-120.181439656703
-78.19059575596184
-38.53113340167462
-59.312765529332076
-72.32565228316993
-40.66753306443942
-25.4734234596359
-13.391737691065076
22.51128510802467
19.68452440014744
-1.5495949140837038
1.4209995834035518
-9.330972025175628
-39.843594602032574
-58.219303671866214
-57.47985377989596
-69.24956059174724
-68.72473778265585
-61.85368935975732
-66.58118448195738
-29.176162664492324
3.2163104590939695
-36.78847283678052
-40.387545319466994
0.38943005553175014
-5.7922871309012365
-8.018213833893263
23.468773881905218
30.827550632050038
9.132128157432724
15.375024682193255
2.9349336292086985
-16.31084934348548
13.71006487919199
24.789820216531236
-18.061831444876578
-35.13790283238713
6.661006932717083
42.7139313277108
29.443577706174626
-2.019001710716577
-1.8669367194792585
27.178104474629077
19.272846714095323
-17.905478385260565
-27.999059071962282
-0.6747396893131383
6.9130601622579535
4.1724109956569375
8.388493546754392
23.110293871043915
39.52783086659378
42.53188026153319
53.58643349023405
52.680637537117626
39.332836080682085
0.5978893800323186
-34.89647074346939
-42.6086453153216
-39.760231911949965
-52.390865634966524
-73.79797931769572
-90.24215661673823
-76.29525939963511
-39.71394099602134
-6.095918677999841
26.526331460754005
81.07828996503086
145.61066571362107
170.44779701463645
152.7092433057102
142.67745460077538
152.37044887997678
128.85618204981796
91.99931248382438
103.91211668457458
108.25303237679744
91.46514645374575
90.56573902762969
114.29074016358385
101.8738687389883
57.69877719417798
76.46190022696823
98.35494466440277
71.2883590162975
14.899314150624182
-40.047152899220194
-49.39436807750724
-58.521130668627535
-87.83834387977174
-86.21749878918094
-61.43039235463401
-70.05001091484066
-62.752176898621926
-44.30400521203566
-73.84352246961572
-46.225009883166
15.997380048895458
17.407904519911643
-11.487912679054105
-2.9979724826385015
-35.324436428064324
-60.14908053108014
-70.9552674225812
-119.47763648647764
-129.71795188979118
-75.4048809139713
-71.93360063997285
-143.7125731007837
-115.4326391230017
-68.17116909961106
-96.80062320342726
-119.63467430474765
-111.4609937961011
-101.24531784640911
-48.2209462623019
26.48709652104416
-13.509406801336622
-73.61538900590726
-28.945466899901444
8.574528902815178
-27.634260780120496
-110.80049388835776
-148.0562810023565
-103.61749896796995
-74.14076710622368
-151.14968111645706
-198.37885963043752
-133.62523052027834
-113.76596134233868
-142.45528035384214
-133.51089410428347
-114.23382129036885
-118.15178091166003
-116.14579553732882
-117.13925452344321
-122.2965183733507
-75.43586588594219
-0.7281424383763766
42.01425722915326
65.23429242394018
58.794742687857855
97.58724379771549
195.5996593219262
231.66923596207917
167.28210563182486
138.6976672690593
147.39260591503975
187.12968340332563
211.83780724239028
178.18980120481376
173.93574119471683
178.7918394505979
156.6927718574354
124.93652999275005
163.74624568828597
163.96664662455686
168.38178194899302
205.0708932657026
217.52591101384226
242.29182731999913
197.54887811012253
170.03933804847355
184.52213448097825
137.60539209008527
100.1529519067972
64.82646092656078
28.430487540694564
59.23413844458633
56.408710741060396
-34.9983018466343
-71.34537046481441
-1.507993313654083
13.822812816955063
-23.049236066417592
-5.1905271567082405
