AAD_Filtered_TADAS_FILE
AAD_BASELINE_CORRECTION: BASELINE REMOVED
AAD_FILTER_TYPE: BUTTERWORTH
AAD_FILTER_ORDER: 1
AAD_LOW_CUT_FREQUENCY_HZ: 0.025
AAD_HIGH_CUT_FREQUENCY_HZ: 40.0
EVENT_NAME: 202302060117
EVENT_ID: 13194
EVENT_DATE_YYYYMMDD: 2023/02/06
EVENT_TIME_HHMMSS: 01:17:32.00000
EVENT_LATITUDE_DEGREE: 37.288
EVENT_LONGITUDE_DEGREE: 37.043
EVENT_DEPTH_KM: 8.6
HYPOCENTER_REFERENCE: AFAD
MAGNITUDE_W: 7.7
MAGNITUDE_W_REFERENCE: AFAD
MAGNITUDE_L: 
MAGNITUDE_L_REFERENCE: 
FOCAL_MECHANISM: 
NETWORK: TK
STATION_CODE: 0133
STATION_NAME: 
STATION_LATITUDE_DEGREE: 37.745495
STATION_LONGITUDE_DEGREE: 35.864025
STATION_ELEVATION_M: 546.0
LOCATION: Kahramanmaras_Pazarck_Turkiye
SENSOR_DEPTH_M: 
VS30_M/S: None
SITE_CLASSIFICATION_EC8: unknown
MORPHOLOGIC_CLASSIFICATION: 
EPICENTRAL_DISTANCE_KM: 115.76
EARTHQUAKE_BACKAZIMUTH_DEGREE: 
DATE_TIME_FIRST_SAMPLE_YYYYMMDD_HHMMSS: 2023/02/06 01:17:31.9995260
DATE_TIME_FIRST_SAMPLE_PRECISION: millisecond
SAMPLING_INTERVAL_S: 0.01
NDATA: 12501
DURATION_S: 
STREAM: HNZ
UNITS: cm/s^2
INSTRUMENT: sensor = ACEBOX/SARA | digitizer = 
INSTRUMENT_ANALOG/DIGITAL: 
INSTRUMENTAL_FREQUENCY_HZ: 
INSTRUMENTAL_DAMPING: 
FULL_SCALE_G: 
N_BIT_DIGITAL_CONVERTER: 
PGA_CM/S^2: 39.707
TIME_PGA_S: 
BASELINE_CORRECTION: BASELINE REMOVED
FILTER_TYPE: BUTTERWORTH
FILTER_ORDER: 
LOW_CUT_FREQUENCY_HZ: 
HIGH_CUT_FREQUENCY_HZ: 
LATE/NORMAL_TRIGGERED: 
DATABASE_VERSION: 
HEADER_FORMAT: DYNA 1.2
DATA_TYPE: Acceleration
PROCESSING: Automatic Paolucci et al., 2011
DATA_TIMESTAMP_YYYYMMDD_HHMMSS: 
DATA_LICENSE: U (unknown license)
DATA_CITATION: Turkish Accelerometric Archive v 1.0 - Disaster And Emergency Management Presidency, Earthquake Department
DATA_CREATOR: AFAD
ORIGINAL_DATA_MEDIATOR_CITATION: : AFAD - Disaster And Emergency Management Presidency
ORIGINAL_DATA_MEDIATOR: AFAD PROCESS SERVICE
ORIGINAL_DATA_CREATOR_CITATION: AFAD PROCESS SERVICE
ORIGINAL_DATA_CREATOR: network: TK
USER1: GuestUser
USER2: 
USER3: 
USER4: 
[...]
-1.0272046561289994
-4.960146847405395
-7.051017713129461
-5.895707116466097
-1.8507390858373083
1.5854115580107095
3.2350891945323816
4.520888348526379
5.435311956606749
6.084099090527937
7.0893349279182685
7.852550399664846
7.183955501171454
4.76265263060296
1.1966722564147432
-2.4038914932419586
-4.1609135233869115
-3.573186470937482
-2.660200299505825
-2.6374494264560684
-2.905156232389718
-3.5708396952844432
-5.363971397339381
-6.901688550276286
-6.432039398332293
-5.200054924891744
-4.309465713128202
-2.9689252118591343
-1.8907101316425836
-2.7983282495516457
-4.957325546052567
-5.821119013559472
-5.158008957902259
-4.932081143252367
-5.13596370363599
-4.799133290496168
-4.999947186094531
-6.528622345344434
-8.168437881459694
-9.083200893995969
-9.217734014827887
-8.205344459700946
-6.588624670244554
-5.21023021378294
-3.939452273342737
-3.6096096410344876
-4.925782397379801
-6.308017827524204
-6.441885134775775
-4.844949486817749
-0.930593147141669
3.7772377650505846
6.649757657755022
8.041494833594367
9.671385993435809
10.77776143808879
10.912791553324952
12.129932750131704
14.647820325327968
16.38434351605621
16.767926071461986
16.32151569245348
14.985702945647633
12.82014169645212
10.280531463624337
7.233890550922769
3.6236655187071842
0.7342998069213023
-0.7009078044203304
-1.5600170060257996
-2.2776569029791696
-2.50052559315447
-2.264683184217203
-2.3862896599358
-3.49130176728627
-4.481733706186061
-4.298956381524535
-3.9304328342201886
-4.06724514174427
-3.864045905614117
-2.6447834278524867
-0.8695823852833895
0.7585380791373728
2.985750649267513
5.903610679939256
7.095949506105378
5.749778779836761
3.6059091778748913
1.6775648405808532
0.24235427825198894
-0.20263599247104724
0.7253035329321558
2.2601104365480995
2.9888971439031367
2.7150804215384117
0.9735243757527501
-3.159458245875475
-7.551701421691584
-8.944888196765808
-8.034784930691126
-7.705975967999973
-8.540893416735791
-9.70203137549051
-11.014236849037175
-11.6686238653987
-10.608609329992367
-8.600407678344487
-6.651162251271633
-4.63987623246281
-2.6731951855807585
-0.7905968630455851
1.3904086183558
3.817620694788863
6.1791219470349
7.715634165168618
7.99857589049428
8.211362270001525
8.45050346661964
7.139703166300222
4.8405292225006376
2.6917994104181506
0.006808963083047349
-3.3101123174972313
-6.915728054369089
-10.140262965326869
-11.455078413699708
-10.772859738399962
-8.979681361611888
-7.461924778409413
-7.6743244255183845
-8.521713010117894
-8.306522508462647
-6.313960319444196
-2.707351762749783
0.5019539483825874
2.597738954588066
4.3030837651977185
5.762603881161355
8.140230289039469
11.483077587085477
14.486392663821475
16.972266145177894
17.9076639714615
16.031862874517056
11.489710542463673
5.451286536337457
0.25721162153237
-3.1162823822654886
-5.251783965289463
-6.144637969287913
-5.9387659101839265
-4.786306754774802
-3.648167861784396
-4.046531206921153
-5.3031283649321
-6.781071531782684
-8.701965250239558
-9.81957254590874
-9.788719044398434
-9.621777241789129
-9.721944406256613
-10.114206651401249
-9.893737112562514
-8.596310342595679
-7.6722277068077664
-8.089923323854915
-9.028022370082732
-9.035665127326507
-7.736072384677958
-5.830237562577061
-3.4418968923623767
-0.2505699318555403
3.765614846965125
7.685750891673115
9.815498120555345
9.69390895914795
8.195043712592469
6.434456257586601
5.13279176234428
4.034644000430522
2.942293124700256
1.9673820263418658
1.1919954638056818
1.4572342081868035
2.955048150515569
4.327380197710636
4.995812473733458
5.243816396012071
4.98995315664452
4.740792395397408
4.660533797838655
3.9895174933237345
3.3228423056179834
3.5795922171288774
4.827515602201312
7.547034276497988
10.832577240460193
12.514178750865652
12.708260610517303
12.445609932553397
10.364415288805885
5.717245753187176
1.9629297560953969
1.9091777453931726
4.02681409048984
6.636245398560329
8.603551675861109
7.983561044528652
4.607890714634548
0.15916543548879208
-3.6111204746523144
-5.555834345379961
-5.533646677978803
-4.235832873978144
-3.347851784185394
-3.9385452630568114
-5.309558692307738
-6.916052289463431
-8.284362490735598
-8.56664123307209
-7.469197480858732
-5.074115674701948
-1.9685811406832818
1.529938929608805
5.501191208940545
8.61952683954507
9.282365796097993
7.704751058084466
5.433234203553164
3.559477691431475
1.7132560335809845
-0.7388178554847824
-4.073488132625495
-7.879882518112461
-10.097489875999024
-9.27328135796951
-6.60659460757337
-4.002172162190459
-2.3354596474153864
-2.2047695108093435
-4.645423898111648
-8.984105961314324
-12.174998041955822
-12.3108822135673
-9.89857532214303
-6.652462429827963
-4.399726419703188
-3.739681116644836
-4.520902415670793
-6.295701838986253
-8.074013746515147
-9.09826456206285
-8.220758609383065
-4.483095468911974
0.38120548750781713
4.245569960664267
7.463208667108663
10.160228810420628
11.089395779337048
9.573800974779937
5.803348895963712
1.083294606822521
-2.767929927087679
-5.155963143984776
-6.486163509805764
-7.187275726873249
-7.401974255185504
-7.338717502648232
-7.301278216513039
-6.907100361952945
-5.587290515827551
-3.6677335599876857
-1.9921186995570417
-1.2275157015713054
-2.3064588302447304
-5.756404324795459
-9.914071598737042
-12.619218520591316
-13.47614468423848
-12.934168235158744
-11.626562499499837
-9.86970800555311
-7.355824258834371
-4.362961031555731
-1.6659145461201912
0.7267250649293374
3.500037901567373
6.785627718560018
9.885977707541585
12.775862223513238
16.163585782291513
19.804863785300928
22.519245857024426
23.54272627778509
23.13540173499031
21.874132007940677
19.85607649124712
17.004698914206795
13.390345565355442
9.416565263901068
5.724216088033923
2.361290298695444
-1.1236266744607282
-4.40616375240279
-6.172917933974844
-6.309070691607429
-6.74402593233569
-8.631979468831197
-11.329456519720187
-14.047439995077381
-16.42072690033114
-18.454745198251178
-19.96907581859217
-20.570868483432488
-20.665920907390394
-20.100916587043493
-17.148194201151917
-11.355114150902653
-4.251561390581584
2.7281003273727937
8.600391339441703
13.543947533593553
18.411814672401423
22.188954597684116
23.02863283634764
21.370302510339457
19.24499180154623
16.71253706650418
12.681872679246029
8.674773535984396
6.735312241628498
6.437017867970213
6.734649219956084
7.551179123518737
9.492911076355488
12.26101773012032
13.413398754644044
10.996337177481852
6.366989840931584
1.2708359292780054
-4.406969229299627
-9.033462425832738
-10.661817396862899
-10.560744686623318
-8.452782915113762
-3.2721164422194726
1.2556242157729325
2.122603255115583
1.4948836871305695
1.5201326071919117
1.6724679058937382
1.6035719274440328
2.7920043766810583
5.652761112040397
8.195917853462868
8.88227583646258
7.338794877632594
3.8198935244394936
-1.0203836693964434
-6.136013126073521
-8.892522933617283
-7.664154394609957
-4.565616809749148
-1.962212448211938
0.2734836608114226
2.7229686605107175
4.029479094244433
2.3011634790143933
-2.0829394052304955
-7.201956326733172
-11.668650614690561
-15.477062903129232
-18.348044128913198
-17.874048683512815
-13.674646140918131
-9.468642603657736
-7.559644208269087
-7.645766798577695
-9.141319093753916
-10.526737122922677
-10.322922674225797
-8.299867985652067
-5.107361379428093
-2.1602056880000706
-0.20536280779229343
1.1938672746619168
2.657541101442142
4.34049869168462
5.313491309741552
4.76696162911018
2.9594290775178336
0.3152591118474352
-2.3816049238374326
-4.096715201255814
-4.4224092974008435
-3.5583592947187777
-2.1733012376301772
-0.9215730373154218
0.7501522073599081
4.000061495941993
8.052562199045376
11.598785117846221
14.68726887919225
15.557584586439166
12.739968280521214
9.179218383268424
7.263751380156716
6.534239293160099
6.926783221076
8.0211844183389
8.627162616218813
8.574372194665168
8.223634075897682
7.188659990459505
5.683030983614222
5.8197965306024875
7.905345779013002
8.520024741390692
6.003391778649197
2.4415101417606855
-1.4148508012724292
-6.994104823412644
-13.621844532305833
-18.820716248731205
-21.673768154813004
-22.1264705754509
-20.084215939428958
-16.828572929213923
-13.561795585230685
-9.272038426192736
-3.4949224148725886
1.2077506493769217
3.0956291023341826
3.430390130811533
2.591621432637527
0.39700671300299084
-0.4052855763730926
3.199425314688562
10.681431274397136
19.523822385664918
27.804048333360015
33.508892871220404
34.971221689258485
33.00568316297734
28.991272178394688
23.369536468066404
16.952599828066763
10.145128254539353
2.9977856748716314
-3.0658817169332906
-5.639231600416797
-3.9170784679367907
0.1539517805375834
4.366361039598078
7.34817298219822
7.7903675477117655
5.419962383981854
1.6556631087438034
-1.1926544858876174
-2.1518099537725544
-2.234697487950192
-2.0916542802824662
-1.7187354898667593
-1.3292248154624866
-1.2187077428185418
-1.870875455225637
-3.4389568398678274
-5.23728667588114
-5.608775303765542
-3.4732706163347262
-0.5375491322942756
1.2688398272615815
2.001709600199618
1.2193994649472304
-1.8903385858586335
-6.454312413410782
-9.998833319000735
-10.237256745089953
-7.700126495944267
-4.717034081069216
-3.5138247055283696
-5.7111703754141265
-9.564073686487253
-11.914863957255479
-12.280549997106723
-10.761561363972953
-7.39011859042958
-3.2842514221208363
0.1058145366635576
1.255692168741649
0.01814249123804884
-1.5965462546181957
-2.070229554823828
-2.395429708848462
-3.6760389847007056
-4.936479686306475
-4.938026337606188
-2.956089037012604
0.822195293995682
4.930247853822526
8.499707807665258
10.491434512944615
9.697604389727738
6.705535360495742
2.399756380886929
-1.7604879143887278
-3.720424597725686
-4.317346002125258
-5.81619966200166
-8.361121336074298
-10.93499897715875
-12.7692655885527
-13.070944652007448
-11.223943880442341
-7.831461168467719
-4.797555048177113
-3.857885473361641
-4.799365409156763
-5.503411013003366
-4.556019139650967
-2.7343154286849036
-1.630476617097724
-1.1046454471538338
1.1041876791814562
5.5337376461658225
10.720073017316244
16.218173009152302
20.43230808786481
21.336075710928785
19.95389130772058
17.353101376497786
13.706598364030686
10.03956554468286
6.346696554994328
1.7751212519132702
-3.445863316047762
-8.341155017033193
-12.200312176044227
-14.636900590435873
-15.47448692466295
-14.838325818410876
-12.198075368194713
-7.997828663736834
-4.853732274973503
-3.5167563279807825
-3.269720236329404
-4.199653410790942
-5.145709256705654
-4.968934212398589
-4.006420025082684
-3.5849011133473585
-4.739662742326505
-5.73728041221721
-4.951821758455846
-2.676151699849292
0.021341295824320303
1.9209251345266976
4.330049251536089
6.826858212334115
7.27551269342801
7.085147328067642
5.341761623436888
1.3787016698091177
-2.5451672556078244
-7.1164508122043335
-9.936722185937333
-9.094742474341778
-8.22389737090326
-6.730542534145481
-3.7180084972590457
-1.3969997260166414
0.2565366481155788
0.944684822953445
1.1051511804710568
2.801156168445109
6.261695805416822
9.841801746203572
11.735174424763914
13.42903989719238
17.035651503528005
20.512411041427868
22.261285614360396
22.826928782040586
21.895666272873946
19.434992710242994
16.521552527964538
14.800531866075366
14.380325933080519
13.22448054117697
10.770718144808761
7.654925897624916
4.472298219302553
2.1378084907896766
0.4976923328414223
-1.343344248616319
-4.759828374566086
-9.529394941248663
-14.05912307501499
-17.92116138774993
-18.1921867437759
-14.65395255301769
-12.748943851180094
-13.857121073375414
-17.45615631888414
-21.98411564382316
-24.829269877389894
-27.336993441984184
-25.972577845037705
-17.929874218152463
-9.816734547158877
-4.208087986731663
-0.6302520685249473
0.6759408660205728
1.832643004331205
2.9920866394913235
3.711284419812702
2.551321561621282
1.0236086315898627
2.274054398238907
1.546198043774899
0.041132186652546324
2.5857615797166895
5.284078099081644
8.346114968159196
10.692711286078042
9.018551983422926
7.848095769408022
7.321158234300255
6.192940649892509
7.533054217091941
9.977789846344939
11.051029283976538
9.086820080890732
3.971244804732352
-0.46760380309880056
-2.40390075373742
-3.229518182328386
-3.6560332463643355
-3.049369149453845
-1.3267145476283682
0.055347812457890166
0.9497442940103542
3.024474476891503
6.031603577053887
7.698112161818941
7.582048207758174
7.2363903512709316
7.330315601215504
7.717167536406246
9.083282006629524
11.740898971270035
13.340249297746023
12.061861030452336
9.067776761184145
4.876986316953211
0.5883812395753706
-1.6216850440859716
-2.42262010461081
-1.4246177866651055
2.9010156186543243
7.936761768161701
12.388543866825263
18.692869320870926
26.13674161713781
31.25228243739198
33.42911821424436
35.03727648008605
37.172763009256
38.670691867986484
38.96037331927205
37.67905752030431
33.969913745757566
28.759905685549292
23.643032614133645
19.25079980867532
16.4928265998631
15.451982522527018
14.452972489001066
11.682530445195972
6.426422302670058
-0.6069560207219111
-8.067668707701673
-14.18222797019873
-17.279470598720852
-17.1509142042818
-14.712951756084994
-11.914627663538054
-10.776741822731251
-11.372867203679908
-12.612221225283317
-13.457518450132705
-12.781832546413042
-9.824268635662841
-5.787133242812641
-2.888746127003257
-1.1105253749949986
0.6254378567096306
2.3107070500972577
3.171477856845646
1.772388990802967
-1.8531252179724176
-5.611573199188169
-7.822258123484432
-7.8433695445230045
-6.447345801275732
-5.62575471409887
-6.663294248964251
-9.311541165412628
-12.891164794434316
-17.42041690238997
-21.922800918031683
-23.86357863237439
-23.096553926898935
-21.84509329076257
-20.015185058071218
-16.245770597542265
-11.049665925429451
-5.300902507102052
-0.508814430590042
0.9929066416174236
-0.7987374969563454
-4.798177186367576
-10.094733105841879
-13.871057623982855
-13.829882722075974
-11.053803785004789
-8.419873502767782
-7.738352726257421
-8.74426971961145
-11.077954271353432
-13.676632216956959
-13.168784066705287
-7.848149425329446
-0.23472992695855638
6.187801872946152
9.942907201433092
11.230706196000154
10.77017257840498
9.965929924544954
9.82386235174996
9.976003308553116
10.120831684224227
9.393302133185404
6.6288787836821745
3.2770544472784486
2.32899365368069
5.331062595338879
10.910688257363013
15.675946716729475
17.041852808121615
14.354009808407755
9.476499319363782
5.132258504173205
2.2576088270395833
0.49159521744433077
-1.4860841445309552
-3.704657033345054
-4.942659378088984
-6.152460311727094
-7.47301803236885
-7.629314967872735
-6.972892492897572
-5.633040904275588
-3.4264221476422474
-0.751462898913978
1.8188307321572297
3.142760848514574
2.518668426862111
0.9671713857341472
0.6393837497280572
1.861418108285565
2.593260806676644
1.3838449510525384
-1.3034639217638169
-3.4030149343751255
-3.4687205015384808
-1.7761181512978501
0.5087833855958641
1.6074508767638496
1.4463089592937726
1.2636762075598051
1.8580991406549336
4.379837420221242
7.9861410822200005
10.469637095308208
11.643150150210793
12.231526988167534
12.776782924390616
12.39605026440872
10.004698481431706
7.1148618471720315
4.881621300641554
2.882138237972408
0.9076570002894875
-0.8011701361793471
-1.29446476539962
-1.106474261578009
-1.8582621909504804
-3.427204681337982
-5.72259466350781
-8.464714002632974
-10.001490001237242
-9.896176829363633
-9.113480794690146
-8.368156513918834
-7.620230476447653
-6.190825625826935
-3.7633781142594946
-1.3577486420727225
-0.5874477994533256
-1.1634568233928748
-1.6188176141944297
-1.5022526238508036
0.08329856841443531
3.319712801849025
5.920900115728503
6.356536840360702
5.007736813405514
3.1967330491858195
1.8887063646335547
-0.13896596134594913
-3.1339788136183357
-4.49958824257793
-2.962796493648276
0.08343825829695527
2.4190356106416724
2.7507976585110705
1.437093163459718
-0.965941342383127
-4.089587613369409
-7.422724604536691
-10.429459431879216
-12.41935752644782
-12.985360224625065
-12.030123309730337
-10.471027040715317
-9.548773332433928
-8.357927959672004
-5.682877802725398
-2.3371884075612344
-0.007236899608620132
0.4080949700144869
-0.44279124852435975
-1.398623366712436
-1.3416154739370951
0.23240106381390327
2.545514329122609
5.235574354433219
8.18976919708156
10.452088805603903
11.351040850890156
11.025362625167576
10.255098732601315
9.872341196263712
10.514624765402768
12.784653149428099
16.179677919954603
18.856651132896932
19.82478032653173
19.912742187250778
19.1288489479273
16.754624257452996
13.412264511719892
9.05693459519815
3.7316477989006005
-1.1078619424411005
-5.075837284431341
-7.7173298886617125
-8.786123854492825
-9.90886184219054
-11.72064442306725
-13.675905185427489
-15.274588725097775
-16.19289275971095
-17.11361210356119
-18.52380803522159
-20.468776194157684
-22.88823974517938
-25.331890950096636
-27.92057020012411
-30.088307960681266
-30.14761081470721
-27.664076395913224
-23.6137571043392
-18.961154217140088
-13.707100825624638
-7.420903949869497
-0.28100360913167033
7.048851423493216
13.232934494574355
16.669019206571996
17.360165013138815
17.430823537322546
18.645856221780942
20.731435453025703
22.723469251353592
23.42059314054584
22.1482545844803
20.438847698826777
19.76783157144304
19.119486738528312
16.948101617537244
13.449581501293979
10.020918520988323
7.4123757451842485
5.389132617086656
3.5701573491709553
1.0915414022519567
-2.9321197070878444
-7.067478467754812
-8.750097999512269
-7.942618638016939
-6.149129913298472
-4.056295463334116
-1.7776567678858
0.9197261884060458
3.540255584537326
4.549584861546412
3.541469300825154
1.1549186307554078
-1.9646784745989379
-4.450867827277079
-4.9366195768026175
-3.3103161815317046
-0.7374739234836097
1.3777224558373717
2.9417150134579524
4.433496510472778
5.849305682400134
7.2600102753182885
8.923729318946439
11.155460360470919
13.176105392033644
13.317706752804751
11.336418847990638
7.871269469057018
3.9158161012719725
0.8847813485182362
-1.4456393968881167
-4.022604116065657
-6.5379174391766215
-8.315043476267554
-8.885409003862337
-8.71094729626307
-9.308922304424577
-11.60113093279239
-15.150766414578921
-18.45460974350434
-20.66747037287938
-22.199701704039036
-22.69328556046253
-22.256214987147917
-22.468563822680135
