AAD_Filtered_TADAS_FILE
AAD_BASELINE_CORRECTION: BASELINE REMOVED
AAD_FILTER_TYPE: BUTTERWORTH
AAD_FILTER_ORDER: 1
AAD_LOW_CUT_FREQUENCY_HZ: 0.025
AAD_HIGH_CUT_FREQUENCY_HZ: 40.0
EVENT_NAME: 202302061024
EVENT_ID: 13207
EVENT_DATE_YYYYMMDD: 2023/02/06
EVENT_TIME_HHMMSS: 10:24:47.00000
EVENT_LATITUDE_DEGREE: 38.089
EVENT_LONGITUDE_DEGREE: 37.239
EVENT_DEPTH_KM: 7.0
HYPOCENTER_REFERENCE: AFAD
MAGNITUDE_W: 7.6
MAGNITUDE_W_REFERENCE: AFAD
MAGNITUDE_L: 
MAGNITUDE_L_REFERENCE: 
FOCAL_MECHANISM: 
NETWORK: TK
STATION_CODE: 0127
STATION_NAME: 
STATION_LATITUDE_DEGREE: 37.816183
STATION_LONGITUDE_DEGREE: 35.92044
STATION_ELEVATION_M: 614.0
LOCATION: Kahramanmaras_Elbistan_Turkiye
SENSOR_DEPTH_M: 
VS30_M/S: 583
SITE_CLASSIFICATION_EC8: B
MORPHOLOGIC_CLASSIFICATION: 
EPICENTRAL_DISTANCE_KM: 119.52
EARTHQUAKE_BACKAZIMUTH_DEGREE: 
DATE_TIME_FIRST_SAMPLE_YYYYMMDD_HHMMSS: 2023/02/06 10:24:47.6311480
DATE_TIME_FIRST_SAMPLE_PRECISION: millisecond
SAMPLING_INTERVAL_S: 0.01
NDATA: 12501
DURATION_S: 
STREAM: HNN
UNITS: cm/s^2
INSTRUMENT: sensor = ACEBOX/SARA | digitizer = 
INSTRUMENT_ANALOG/DIGITAL: 
INSTRUMENTAL_FREQUENCY_HZ: 
INSTRUMENTAL_DAMPING: 
FULL_SCALE_G: 
N_BIT_DIGITAL_CONVERTER: 
PGA_CM/S^2: 56.093
TIME_PGA_S: 
BASELINE_CORRECTION: BASELINE REMOVED
FILTER_TYPE: BUTTERWORTH
FILTER_ORDER: 
LOW_CUT_FREQUENCY_HZ: 
HIGH_CUT_FREQUENCY_HZ: 
LATE/NORMAL_TRIGGERED: 
DATABASE_VERSION: 
HEADER_FORMAT: DYNA 1.2
DATA_TYPE: Acceleration
PROCESSING: Automatic Paolucci et al., 2011
DATA_TIMESTAMP_YYYYMMDD_HHMMSS: 
DATA_LICENSE: U (unknown license)
DATA_CITATION: Turkish Accelerometric Archive v 1.0 - Disaster And Emergency Management Presidency, Earthquake Department
DATA_CREATOR: AFAD
ORIGINAL_DATA_MEDIATOR_CITATION: : AFAD - Disaster And Emergency Management Presidency
ORIGINAL_DATA_MEDIATOR: AFAD PROCESS SERVICE
ORIGINAL_DATA_CREATOR_CITATION: AFAD PROCESS SERVICE
ORIGINAL_DATA_CREATOR: network: TK
USER1: GuestUser
USER2: 
USER3: 
USER4: 
[...]
4.331033307487072
12.200767233767666
22.469158434760455
31.235412831021083
35.413316258347244
36.44899734406838
36.540073396022215
35.45417764663088
33.75595300111377
31.07012556642898
25.418353385656605
18.732311920749908
14.237796702276734
10.555638039981806
4.781463866148554
-3.0283685807599383
-9.231285766293109
-10.24938106855556
-8.482803641471417
-8.165265627429651
-8.368583347584487
-8.61832479186669
-11.226650896763847
-14.947611008218331
-17.671588617220966
-20.409396879449954
-22.66319264855299
-21.93753264640926
-17.617369062220963
-10.58830398014086
-2.30141008677684
4.781458428791716
8.216243508990534
8.098184663914244
7.596941072180642
8.484728343868364
9.386350609216535
9.652243921138407
9.084146124900773
6.921467732970596
4.254692993860446
2.3457691147062656
1.369046622122509
2.172870259460216
3.7156798786694987
2.9521006771657268
0.37062553504737467
-0.927396631217281
-0.32682764953498084
1.1598574222937743
2.430992501520002
1.7941538928314067
-0.4988062833673055
-1.7171762621976379
-0.49359120854142324
1.9892048988696178
3.5393755670431797
2.2219191844915898
-2.1103083565981025
-6.795392578634421
-8.771008254567654
-8.311440458513221
-7.427694431125119
-7.2897319356846495
-9.01683916640805
-11.677063584879201
-12.019640288955593
-9.127311110506755
-4.335123049676661
1.6895249165529875
8.155729983004026
13.828863927452865
18.438061484404454
21.60830715005808
22.212360282305845
21.1670731100412
21.208134657834208
23.111706989861265
25.215679757643574
25.923667256672605
24.838243847845145
21.712556871287145
16.905696316390504
11.925431799668473
7.516879216512332
4.397693564168843
3.2517682678236737
2.680734634367868
1.5966814322934864
0.08798526742761964
-1.8688335916065892
-4.455459145489072
-8.8951323063447
-14.131996346738731
-16.48361621586832
-15.661134032645666
-13.369930497710925
-10.764869207825384
-9.640248513009636
-9.631703895082053
-8.901311132082922
-7.3721495455466
-5.129845837432544
-2.3434544907920674
0.5204483087645883
4.5549319874050145
10.431191446993877
16.346389681653328
20.449671195308948
23.292776676942
26.611453849389452
29.415195374414562
28.164438862356196
22.113715672910306
14.063619467592275
6.804942566710303
2.2243090658934324
0.516662137418781
0.06036343321044016
-0.1071574955797672
0.148285086713719
1.756273483610833
5.477235653341084
9.518567605961884
11.822507809880548
12.085284983965758
10.175422107605387
7.2752019988116965
5.3018419346720895
4.879919031347359
6.622768442928419
9.933318685020204
11.386533539697936
8.600843523270058
3.3828791555802047
-1.0769400778019818
-3.2212242423611297
-2.8833682586404525
-1.5585754488141694
-0.9567800356194975
0.10542848236130656
3.021562936853737
5.928977804664723
6.565246104242815
5.052537975002975
3.4236941985738913
3.7386755595770307
5.322689473995179
5.660492844509659
3.73863768048772
0.20306070057159878
-2.931314633938808
-3.4137712896547914
-1.9971552038745828
-0.8365021330165404
0.420177622970917
2.7658266893567403
5.292787610688635
7.497420061930986
10.272687253629892
12.954690199387242
13.62739106221156
12.420647139719255
10.541330389650172
8.059049375469368
5.288999864544035
3.0487080349970808
1.2103831333793331
0.36162947794792144
2.520938079458915
8.196493481735368
15.592964139867963
21.2779812716502
21.50667945179415
16.001767221209157
8.000901490695993
1.517533091377977
-0.04612672256094905
2.9238584848045734
6.031605749663656
5.5849191689552855
1.7624587686694315
-2.0955803780024733
-3.5733992013033014
-3.002975117974209
-1.6027171226276002
-0.7413453017534402
-0.987172452069247
-1.2925731706593644
0.11591437535737222
4.032860859757734
8.793198353434525
12.466697115666308
15.385575271699516
18.21996695370123
20.43301053484579
21.41799294238801
21.274393220696513
21.081676757427715
22.871128799230615
27.533409557336597
32.754676532656816
35.14062767616925
33.69233729090429
29.535099842853203
23.740982330790427
17.253159922025972
11.569063389769926
7.689806558240705
5.152090519759463
2.8347090068170453
0.5310400925726934
-0.4827615536118086
0.6167615447003567
2.4200693301411116
3.0053963099083116
1.7640406611324952
-0.729657709198469
-2.7467012317353983
-2.5766050799642826
-0.22959626780114276
2.2168353927089903
1.932446537316634
-1.2170665623992112
-4.7006454587320965
-7.211644538815983
-8.823267105683561
-9.470967155891861
-9.040840903217115
-7.536408690566126
-4.986641537849329
-0.908088369617098
4.661037732675532
10.281606285956151
14.864927625754271
18.15802456574351
20.065292539484993
21.095899247545688
22.209427019471246
23.93045113350755
26.10292040909645
27.943497770877848
27.999165351581567
25.486262278110743
21.806633732104352
18.490630296766625
14.940961993862004
10.682831427153396
7.101738342647544
5.5020194403346485
6.080828067473484
7.927546018868245
9.096717226274425
8.936092344494178
8.29156583890038
6.614730072376136
3.3349907558510177
-0.14587972030581312
-3.05824743727202
-5.616031705637049
-7.74355854324732
-10.393273670148895
-14.34204471910809
-18.302592617773076
-20.78479906491868
-21.244282117831915
-20.103751749317976
-19.12146752068592
-19.52470796848028
-20.238860676039867
-19.419475970239745
-16.812886381722393
-13.672829615784039
-10.538343230013307
-6.796885984105755
-2.3653230734995585
2.236651608674689
6.387660724277913
9.256401847003458
10.935897578476284
12.383129671067897
13.279163709991117
12.848454584063347
12.556491081774055
14.264433348784884
16.829033521418605
17.776215639510863
16.206498716107635
12.168503455161586
6.105909805475445
-0.22192369583329288
-4.97694011048857
-8.337006478941623
-11.26159008346381
-13.325697204161585
-13.553453079281311
-12.084498251971628
-9.996327153676937
-8.125542772761577
-6.534135632176973
-4.9664882469338965
-3.0993270084356532
-0.7501808913776212
1.8314783626916422
4.4011095394121975
6.0091532691059575
5.273094481774968
3.3240738737052937
2.6216541086808167
3.902342400613996
6.774906932420041
8.993726468644295
7.309379037852113
1.9498737708173473
-3.9320985363996113
-7.73006463306
-8.820540110351837
-8.728802897572779
-8.304729787645508
-7.183221293623285
-6.634008090500485
-7.125240554403231
-6.911268870083056
-6.240297591353932
-6.981308189770098
-9.711895695445856
-13.520285231475018
-16.498563855047742
-17.75814010217875
-17.38852198050363
-14.768403795065026
-10.088933396504125
-4.44159744344282
1.475551204509925
6.605562899335117
10.264840825045383
12.818083982610396
14.126009374219965
13.589992375189654
11.376866689637533
8.089107035633814
4.215201969844868
0.037692970798934584
-4.406156654435322
-8.187512604243437
-9.630635788419298
-9.058913950191565
-8.283509353586018
-7.8096196799372075
-7.7351318287252395
-8.210883933211656
-8.178381219540412
-7.186399868020549
-6.381209269331068
-6.618252012287215
-7.944455222913127
-9.770125635124563
-11.02251773114443
-11.194853833281245
-10.857248698644161
-10.925429536850892
-11.433047121700877
-11.146570644123301
-8.965930258969877
-5.898904744669183
-4.163878597583903
-4.363396311891955
-5.617212716780408
-6.922667403842049
-7.408033053842588
-6.59926703748897
-4.255201723224825
-0.7123234073727035
3.389979127795069
7.490628726236844
10.152233700752602
11.072611128240583
11.998788814638536
13.319773885136494
13.221830358050346
9.569661695025662
2.9227115643853585
-3.032517045369451
-5.797067995466193
-4.860991824285103
-1.0715073656580454
2.3151273127155174
2.88167354382834
1.3743572791875636
-0.7128275468842596
-3.20574159600997
-6.8802567638265275
-11.384156151811995
-15.494580456189214
-18.818050989541582
-21.302063047607795
-23.313185127279528
-25.409599293222538
-26.985239721592418
-27.448596551638374
-27.069252160282307
-26.080145324544667
-25.45725472487279
-25.987895308824584
-26.169437317385796
-24.948900874474493
-23.662877498700393
-22.999730560268254
-22.176231650306608
-21.289686428684124
-21.0314130658218
-20.418454335644252
-18.00642638973583
-14.098011031515464
-9.246979661924962
-4.188471463116237
-1.0812825505589432
-0.758181998839567
-1.7209498313534297
-3.3130859019003753
-5.792534421659477
-7.939904338052443
-8.303142726134196
-6.974359782524765
-3.7835798104228817
1.7632845853457457
8.157684577324382
13.095640657115224
15.765550220911996
15.78049862950842
12.49267076519025
7.251029576350287
2.835348535841117
-0.1901121653284789
-2.5747983719429532
-4.061492051601926
-4.651044223752855
-4.631886627613344
-3.400107381897692
-0.35645319172440415
3.889721273756056
7.647270588729061
9.289298883114611
8.827971857411507
8.211767595173585
8.504080534999433
8.686025510963617
8.509605291007883
7.530953193970369
3.7844800961528717
-1.6109943696356828
-5.32733578283942
-6.353917349317475
-3.1760226272262084
5.469237269747538
15.369430045702705
20.413238770843506
18.465953341951884
12.072585373976596
5.6540532495171885
-0.23317793201485743
-9.267655584515474
-22.83787457451981
-37.28112576878021
-47.18475303034554
-50.4713565299118
-49.054399255525105
-44.67799095791589
-38.44186115005811
-31.424832502270974
-23.447817555286342
-15.081532287678947
-7.9422618342690745
-2.910599150004599
-0.6783967558435435
-0.9085245504328069
-2.4397619896401883
-4.939023415656026
-8.271320721364873
-12.545119828175373
-17.87514300087379
-23.08092707387564
-26.385051357887733
-26.799306531790254
-24.593781328168692
-20.98444096954566
-17.27701003368784
-13.922217641292097
-10.308050511145833
-6.201974986211075
-2.6504588687860333
-0.44455492502818805
0.49814029824866524
-0.0734282833880361
-2.8316088402053787
-8.348420141263489
-15.99278516206348
-23.481071431285308
-28.8964896820435
-31.249810022156943
-30.227991323171906
-26.824229180326242
-21.78286030279019
-14.605978204404108
-5.803494665661789
1.8527179522425987
6.554723101482305
9.211289129971554
10.296405962176756
10.164573297375478
10.075088228532994
9.206874686180374
6.216572746422844
2.063225849975796
-2.1920927947083158
-6.339266378825231
-9.918275024854951
-12.680685552804261
-14.942932093622845
-17.223684281912988
-20.408381924667754
-24.951374739477163
-30.241185564230257
-35.836649901598236
-41.10470496826525
-44.41661947875342
-44.62458098654179
-41.742295681247185
-36.87245618464678
-31.612195649025047
-26.0358486399444
-19.525832386748416
-13.141720729378559
-8.368657492569692
-5.8370027790541945
-5.555763615388104
-6.385002038007153
-7.271467658953733
-8.88854401914422
-12.498217749421974
-18.17913356283402
-24.245843665611208
-28.29655454072659
-28.91155115703453
-26.1854043885548
-21.381135248238074
-16.679031342374522
-14.074488565260326
-12.940524615080182
-10.991748643571947
-8.187325217926915
-5.962050231305215
-4.825674634424167
-4.9683639094126395
-6.1036310264063935
-7.173545231164486
-7.175875368618299
-5.839495038696362
-4.414847053840487
-4.755366263327029
-7.138169745902834
-10.089079189254203
-11.718817870051744
-10.423862911570883
-6.060396877745457
-1.2466236385893157
1.2095331171865522
1.1021066760084492
-0.5888761816524414
-3.0054688060911112
-5.2922786106642485
-6.309491267426384
-5.516782029166684
-4.064188099920685
-2.7998373895828843
-1.602876244860475
-0.2452201180131655
1.5302600998300138
2.6333756414064173
2.1931306413447333
0.49616930183707264
-2.628159910342709
-6.313417244690864
-9.57789480074993
-11.80255651760705
-13.171000275220662
-17.958036019446286
-26.484715977757617
-32.125886591189676
-34.055550861258894
-35.93673791673418
-37.83653161802659
-38.51033485939306
-36.40922799552632
-30.715140494719062
-22.568218502801614
-13.863840757692575
-6.698001950786731
-0.6947333038732697
5.9197263480694176
12.424776814571997
17.668792196853204
21.177215109708754
22.558704088196393
23.276951175629346
24.425299737985906
24.603263283123393
22.941225408138887
19.566593054165697
14.847155267497868
10.177183894460866
6.056903673214029
2.571329122442595
1.0649749020473143
0.7173328266180354
-0.8648630713198079
-3.762175029593264
-7.269572938614813
-10.338138501619982
-11.786656711514151
-12.601447143200605
-13.702192992952996
-15.395916281359284
-18.25867791508787
-20.876198014596415
-22.593125901803663
-24.845439893709376
-26.98715154956306
-27.11943089554052
-25.155294916851147
-21.405115758437265
-15.111835035069412
-8.144955764164608
-3.3644345253471086
0.7365634312912451
4.848221943971806
8.844549122949664
15.006204545827416
21.853127677785412
26.670280729199973
29.029806354324027
28.397175969622378
25.841515067689834
22.07363093350054
17.127295664064476
12.541912433540363
9.593501023770774
7.35982171801801
2.441086382886081
-4.26383316877866
-8.378052454699386
-10.997497648602511
-14.060512887939039
-18.369356538765796
-25.541075751530805
-32.84801733587549
-37.5882165618898
-41.45340901629636
-45.75988001102993
-50.03876754965754
-53.04285657497872
-53.85123077374559
-51.8809270737571
-47.040679215580056
-40.61671168250797
-33.45268937033761
-26.047500206981056
-18.862388842919664
-11.879003823764673
-6.555233984712619
-3.997386493829165
-3.2679210252779445
-3.191679480323496
-2.036076509094131
1.63243115140846
7.329112787590564
13.476128046603844
18.763762789615935
22.941858812909278
25.735722332650745
26.28809320367481
24.44471189808124
21.22204390833303
17.378784509469806
12.128864619923277
5.587389581514202
-0.7339291943441276
-6.827216724502971
-12.24857102311509
-15.388330362186625
-16.46772430451387
-16.526968680694562
-16.024737013930707
-14.953949208974525
-13.156081541471828
-11.36894968086456
-10.503587703024612
-10.968310847990114
-12.657955569142548
-14.761471006015494
-16.099509301455946
-15.418997510424385
-13.199361827028845
-10.737122850384472
-7.619706328287036
-4.21595113732258
-1.457881900907949
1.110955099399755
3.4145976374059033
5.105401182863344
5.993927348560271
6.3477065391192244
7.486986736861831
10.193011804515514
15.01528191497413
21.029380535904316
25.475982609497652
27.284009174648375
25.8077134275728
20.530634103474966
13.461954690311098
7.421288209924495
4.627089484967125
5.492343753568415
7.339569901749913
6.501298004954836
2.8484684434310985
0.2352977805684431
0.6469890492254298
3.129604414477193
5.734182885082609
6.343633848294511
6.325690730334429
6.826994836517432
5.40646194212645
2.1122866822990756
-0.8340680716155383
-2.164640694404392
-1.6786065600678532
-1.182020936643389
-1.7957268112196423
-2.685405792526806
-3.017516058240925
-2.9404016661491337
-3.633942326629945
-5.043853738879695
-5.778047061076699
-5.161207090918993
-3.468891362685919
-1.503264514253105
0.5449665169674722
2.803271022138567
5.212148224314533
7.807671731526166
10.137596039862311
12.661431079250233
16.504137546258438
21.363136081345207
26.401824730204975
31.024353600841444
35.50809259138082
40.1523014732201
43.45501660715643
44.801022141268845
44.932455844713346
43.09670706120549
38.97631455204995
34.309199426392254
30.46320996607386
27.524127812992223
25.226805906084394
22.975016751301602
19.7697188300406
15.145146844620504
9.590170999448759
3.767274661356246
-1.6685636375657509
-5.9463591715738096
-9.144389903775247
-11.794828398686194
-13.322206994912372
-13.043466505035457
-11.179929667078202
-8.248125173299174
-5.625281416199624
-4.686238275799354
-4.901373166422223
-5.510421304357836
-6.4217033664668275
-6.720569162110097
-6.194671336131619
-5.852962740585421
-5.661754978227675
-5.315991171027297
-4.690427043237728
-2.911258194135102
0.2665776727155077
4.572478481084035
9.883034083093335
15.144998255949131
19.06098559014319
20.73100024194559
19.58007446077628
16.594154946419426
13.553530850803524
10.807160625116
7.894207055084425
5.558176018052135
5.439817232559267
7.091334018094896
7.538925763526565
5.412008252155893
1.9062106899929048
-1.3580884545352072
-2.343743414906934
-0.3187828790615996
2.9513443751440795
5.614542813328647
6.824022458880308
7.426148438301073
8.770048895370694
10.18922219997632
11.519668333238023
13.265230625327186
13.764988797767842
12.16391399526296
9.2402075453822
5.221646201339964
1.3218172160269241
-1.4523922949692967
-4.112631288410463
-7.453725426070785
-11.525011901083094
-15.949446886490614
-19.952616096617906
-23.247583818056142
-25.433333430309577
-26.178041748447473
-26.03830325627968
-25.283187117405756
-23.903937909050168
-22.26570390287032
-19.920122069129473
-15.990308321712273
-10.984316537772834
-6.083375238988236
-1.9437066630614785
1.023380647497578
3.1501002107204212
5.7624454702849075
9.861468144995085
15.167878852817692
20.32631415185397
24.03208149872882
25.87340013958464
25.895684012261995
24.830854317128495
24.047872710011386
23.5676318675645
22.89119432514891
22.690691585484576
22.51844314524541
21.435339505620984
20.257049349482816
19.245641445424003
17.668930038987195
15.302785563886369
11.996246883648931
7.7854591862025355
3.48653696849357
0.6341687319396472
-0.8035802546095039
-3.0038620050208333
-6.286462367195075
-9.196046766171602
-11.303007270010953
-12.545210188338727
-13.061228688964906
-13.237816316210509
-13.40108158776629
-14.019534970623068
-14.778720022610011
-14.74716369975169
-13.289977963204576
-10.772202165110011
-8.85811338358453
-8.032051252291858
-6.944911558640318
-4.6539452082183335
-0.8510460058799811
3.9457131798828193
8.69106565993605
13.092625102413896
16.959548539605635
19.880866576584218
21.531545304126837
21.975139017778
22.125287659570844
22.805567946723464
24.412561316567988
26.420211681788476
26.906989076157274
25.39158307153096
23.279978997644587
21.034997854912604
18.991720878708026
18.192705560238025
18.399144914753247
18.77359746464092
19.168763618189463
18.88922238023228
17.67283400923822
16.711084900317747
16.68196015891803
17.451143303769914
18.08357787870476
17.418609279835184
16.50628374413633
16.804321076569373
17.802030906452973
18.607508206346893
18.8528276525215
18.736118790485527
18.303850101028363
17.11678704547938
15.829663868072007
15.788396796131234
17.39822435600817
19.156893076617827
18.121740130252853
13.617261103072698
7.649674599358942
0.9413369108571011
-6.562444240695383
-13.61095118097897
-19.042570209603255
-22.19345362321396
-22.626972796064408
-21.1140496328273
-19.048348540513263
-17.19105903573177
-15.854335163199634
-15.136371524230276
-14.460784707131081
-13.203764162318057
-12.14894145457623
-11.868822036588172
-11.036690756438057
