AAD_Filtered_TADAS_FILE
AAD_BASELINE_CORRECTION: BASELINE REMOVED
AAD_FILTER_TYPE: BUTTERWORTH
AAD_FILTER_ORDER: 1
AAD_LOW_CUT_FREQUENCY_HZ: 0.025
AAD_HIGH_CUT_FREQUENCY_HZ: 40.0
EVENT_NAME: 202302061024
EVENT_ID: 13207
EVENT_DATE_YYYYMMDD: 2023/02/06
EVENT_TIME_HHMMSS: 10:24:47.00000
EVENT_LATITUDE_DEGREE: 38.089
EVENT_LONGITUDE_DEGREE: 37.239
EVENT_DEPTH_KM: 7.0
HYPOCENTER_REFERENCE: AFAD
MAGNITUDE_W: 7.6
MAGNITUDE_W_REFERENCE: AFAD
MAGNITUDE_L: 
MAGNITUDE_L_REFERENCE: 
FOCAL_MECHANISM: 
NETWORK: TK
STATION_CODE: 2718
STATION_NAME: 
STATION_LATITUDE_DEGREE: 37.00777
STATION_LONGITUDE_DEGREE: 36.6266
STATION_ELEVATION_M: 527.0
LOCATION: Kahramanmaras_Elbistan_Turkiye
SENSOR_DEPTH_M: 
VS30_M/S: None
SITE_CLASSIFICATION_EC8: unknown
MORPHOLOGIC_CLASSIFICATION: 
EPICENTRAL_DISTANCE_KM: 131.79
EARTHQUAKE_BACKAZIMUTH_DEGREE: 
DATE_TIME_FIRST_SAMPLE_YYYYMMDD_HHMMSS: 2023/02/06 10:24:49.7419380
DATE_TIME_FIRST_SAMPLE_PRECISION: millisecond
SAMPLING_INTERVAL_S: 0.01
NDATA: 12501
DURATION_S: 
STREAM: HNE
UNITS: cm/s^2
INSTRUMENT: sensor = GMS+/GEOSIG | digitizer = 
INSTRUMENT_ANALOG/DIGITAL: 
INSTRUMENTAL_FREQUENCY_HZ: 
INSTRUMENTAL_DAMPING: 
FULL_SCALE_G: 
N_BIT_DIGITAL_CONVERTER: 
PGA_CM/S^2: 50.576
TIME_PGA_S: 
BASELINE_CORRECTION: BASELINE REMOVED
FILTER_TYPE: BUTTERWORTH
FILTER_ORDER: 
LOW_CUT_FREQUENCY_HZ: 
HIGH_CUT_FREQUENCY_HZ: 
LATE/NORMAL_TRIGGERED: 
DATABASE_VERSION: 
HEADER_FORMAT: DYNA 1.2
DATA_TYPE: Acceleration
PROCESSING: Automatic Paolucci et al., 2011
DATA_TIMESTAMP_YYYYMMDD_HHMMSS: 
DATA_LICENSE: U (unknown license)
DATA_CITATION: Turkish Accelerometric Archive v 1.0 - Disaster And Emergency Management Presidency, Earthquake Department
DATA_CREATOR: AFAD
ORIGINAL_DATA_MEDIATOR_CITATION: : AFAD - Disaster And Emergency Management Presidency
ORIGINAL_DATA_MEDIATOR: AFAD PROCESS SERVICE
ORIGINAL_DATA_CREATOR_CITATION: AFAD PROCESS SERVICE
ORIGINAL_DATA_CREATOR: network: TK
USER1: GuestUser
USER2: 
USER3: 
USER4: 
[...]
3.2574966185440712
2.669900397223684
2.5705217627717856
2.4588110307549464
1.2328902962742323
-0.6104806103969828
-1.1415101237810776
0.44146290895830453
2.506648915216805
3.499379116595191
3.317771528976986
2.8967546991875923
3.5906976329450186
5.6978778570235145
7.89686022437748
9.060158221003338
9.650735832664903
10.21022175165984
10.591981145569235
10.349033441759483
9.24638834996908
7.875437246543454
7.173007045320159
7.57063009805753
8.503168645257864
9.426377104936725
10.286307264370027
10.984362959030491
11.51013179288085
11.623614315960966
11.314209302627388
10.9253172594944
10.614996700037825
10.799573681444576
11.31808049781118
10.914133228442617
8.997973688756648
6.315911773366673
4.109442024355147
3.19463690755479
3.2884304168688008
3.8697310490156296
4.488586917262992
4.277080259050915
2.9565268205778197
1.17071438432827
-0.25572329443532754
-1.060358995054468
-1.6757440507643062
-2.2642358397939657
-2.2999338236582223
-1.106593825668119
0.9787726365525118
2.6616051450871243
3.573904346682631
4.122516373346414
4.427638701030089
4.269232861631396
3.0758947137528097
1.2885887702135554
0.09559757798466306
-0.3348307620405229
-0.7574179304683109
-1.6081697597294367
-2.113964494868294
-1.7815889607618225
-1.1830251450083904
-0.8938645811852389
-0.6567171041036194
0.07048799536798132
0.8704416842441781
1.3091908394047447
1.0857155538065517
-0.06287145498341551
-1.4279737893159998
-2.3344977011157457
-2.846456568518903
-2.840732166885274
-2.3425619514819758
-1.8847814480136593
-1.2745069851333137
-0.4354138827009321
-0.04129604979930758
-0.3448747894455321
-0.8166627391534783
-0.29108689778706626
1.305085286895593
2.2342999370588146
1.228816968935637
-0.7199829173010828
-2.0833504911679293
-2.6592492482430656
-2.6669094695684383
-3.057374439113095
-4.610855111727342
-6.189350693543105
-6.697450888634343
-5.992715238813396
-4.7404145774448025
-4.076764481135931
-3.6878575896549073
-3.108820780441044
-2.769897269280749
-2.274794830438858
-1.4668509312933797
-0.9045573249645128
-0.7518130056695148
-1.3872911214302286
-3.1479302497873443
-5.246638886651638
-6.288901717828252
-6.294930421016536
-6.854946008813472
-8.30046630917022
-8.779292935178855
-7.294500973661129
-5.436534449296238
-4.3368407142223235
-3.4327387211033074
-2.674665921646148
-1.886058500935073
-0.60659283311105
0.8244332477795774
1.5282129749142142
0.2793101881116142
-2.205318546261094
-3.906540368734977
-4.792028025506046
-5.793994326562586
-7.133667010134519
-7.628135780057162
-5.533855221758581
-1.9305390277616628
-0.08068131470136791
-0.3117257920532532
-0.43958125490742894
0.5334664985596097
2.300617997690838
4.146257014340725
6.009914798620145
7.983626501844177
9.508939426566167
10.087562399697582
9.60345022648106
8.799008477598145
8.342767019596634
7.256946103472398
5.407405151033217
4.395595294327197
4.372072493357768
4.766133848845037
4.50370013086388
3.0151206526198218
1.8397221180903176
1.249850197209252
1.1645955797637164
1.5594455289692188
1.6945142332313219
1.7444706555664344
1.3712665295473616
0.4954516529213644
-0.8572506634341591
-1.8476508850906974
-1.2261655540125898
-1.276357744351265
-2.6277708534355977
-3.343064925302673
-3.545275697135128
-3.733620277891667
-4.320047205281743
-4.037446512629248
-1.0573981990127972
2.2039911155317284
2.9988258920266144
2.9531345886961606
3.1995986607630975
3.163868288075369
3.37145965515758
3.16718833141012
2.09168026537464
0.7618983632332563
-0.7594992704872647
-2.250971748870535
-3.3941956172284526
-2.8686490886818454
-0.9383586908699652
-0.3169663006390716
-1.501572151470541
-2.708967637057474
-2.4866761546595035
-0.07782302654374192
3.5371600142854476
5.488036657694694
5.594283634991311
6.234715593291757
7.359263867408761
8.020798764686619
9.10001218281069
10.248956131192829
9.947615239902204
9.345077710877213
8.908501628890116
7.86678873787968
6.586662082117503
4.424491871974927
2.973651358794221
2.7364958275375133
0.7566634513538913
-1.2055419347334442
-0.8139870230639576
0.2788614075591367
0.9200053470045885
1.6433666104791458
3.278580159927295
5.471730458656034
6.896303064372736
6.809937202937933
5.751655862652712
4.637797317568941
3.976101478051699
2.774692670844648
-0.2919505670827034
-3.944791788158308
-6.119770100666227
-6.784168492638034
-7.896783979390298
-10.292619090134245
-10.600671727390058
-6.167689287139714
-0.4561722039755655
1.9206441857462389
2.015851515343329
3.337340284171886
4.935542920270016
5.020438321655028
4.467697784006589
3.3915437817071448
2.091926658106611
0.8094943164623477
-1.5396236637123948
-4.542196778677155
-6.834246603177076
-7.836143652220894
-7.622930973234235
-8.424918336648611
-10.96531833778163
-11.810751415377183
-10.004788170312747
-7.766863514855635
-6.1052216211467805
-4.421517313493874
-2.322358721313151
-0.3881137575799619
1.350514408811334
2.520281511035681
2.1392828189785056
0.9409475621931881
0.7381261778428898
1.7721736555998568
2.4682871324960596
1.9963683851245604
1.2705705028313756
0.8403809533243145
0.06005042796032677
-1.2328051786944207
-2.3607097745016965
-3.2093039906520455
-3.6191356167361692
-3.441128297205493
-3.6392868585249865
-4.6717919705205935
-5.8720200927813835
-5.9344885140735295
-5.2230593386993
-6.221788992893982
-8.231993445065871
-8.419312452221426
-6.355326353208041
-3.7070804666737986
-2.869947089810271
-3.4853746765927918
-3.1657082678018726
-1.905132835325493
-1.1156470844798194
-1.5244723646976353
-2.709377776639759
-3.8451812266879464
-4.8318198077908985
-6.520142317934154
-9.192134786925358
-11.319159134477122
-11.55163201913422
-10.670878371389735
-10.575032956057663
-11.301128621180045
-11.621035711342188
-10.886103025374807
-9.651666609980614
-9.418527642422841
-9.600577220243402
-8.883913828536427
-6.965822435929067
-4.24663952501338
-3.227597718376065
-3.6098250153372047
-1.0147199337619555
3.882446336389666
4.7264882574358555
-0.7474970679053697
-6.18537802635569
-6.222108326256974
-4.780101639503226
-6.118881608604112
-8.896692251342323
-10.865779169728729
-12.002569816497738
-12.752667250947566
-12.78771384225415
-13.335217506437951
-13.883765027570782
-12.728396732547344
-10.748806091242617
-8.78982134675687
-6.783071176814641
-3.639556511799078
-0.5190501662727417
0.40658952781980207
0.2419398671836914
0.7250054982262801
3.356309196245536
6.570822193140975
7.665209390700234
6.645739215932126
4.266036043555156
1.9527914984504728
0.24390587383261447
-0.864812934020053
-2.064696747884922
-3.194410958621054
-2.6381961604037585
-1.4693820329812366
-0.16774469244438348
1.8683574357887949
4.126867606201944
6.012011025268418
6.214907198575093
4.905131410590382
3.5157849015959175
2.7370354527718277
2.0121003455098685
0.17466688601102637
-1.968493810086805
-3.8936924241896973
-5.498423463544268
-6.121000896364433
-5.548296283699303
-3.417559951020511
-1.4671917372199803
-0.3739313828725576
0.9919424587727554
3.252439317367327
7.267670610765318
11.253928164980547
13.44424433393373
14.401887758973897
14.47032897905576
12.875880591620732
9.96459756669188
7.689707137497069
5.952226240048684
3.668323255548871
0.5918322528107892
-2.00768911900426
-2.7116398946998115
-2.5566759001411823
-2.730713466418424
-2.870264662571598
-2.3688775907867368
-1.248254877706101
-0.002771643417600298
-0.022269637942908718
-1.6079879708700737
-2.9896962408202654
-4.441897749516078
-8.193486262121713
-13.271885650129994
-16.118962739012872
-16.621841999609362
-17.762123590895758
-20.738091732470735
-23.79940672739088
-24.940650585466326
-24.420489827305673
-23.042402528458837
-20.541290221343573
-16.5514651639244
-12.38434426232809
-9.983294760270711
-8.778683635631527
-8.194850781580099
-8.175480331870677
-7.404740767593909
-6.5956880420320845
-8.285043026073813
-12.97711624081137
-17.317264987973914
-18.899416070126215
-19.760934515713593
-21.159106364189718
-23.194503167788096
-25.823875985859647
-26.768712694294248
-24.158447712027183
-18.602427117374972
-12.331781311616327
-7.329150658527367
-3.698741040056356
-0.9824454391527275
1.5306003249295148
4.220207057077688
4.930719225491547
2.5025582947583813
-1.0470135673217107
-3.6409157553035065
-4.36325032058387
-4.124486484096863
-3.1328166870151017
-1.6203753885140335
-1.7696413692370645
-2.283606876623677
-1.4325408085729634
-0.7601968965070512
-0.6972619114825978
-1.614995678493528
-4.446352328409392
-8.165500601896925
-10.737215551956114
-11.53689388032414
-11.230234912836899
-9.916106799734274
-8.339568043888962
-7.762715673020276
-7.3029048966835175
-5.995636064537711
-3.5571067344521716
0.42036976101961326
4.981661148675327
8.765202953440475
12.436636765283584
17.281044811296372
21.491607232663167
23.057280387167495
21.861980558651183
19.44001166171534
18.18347059899366
17.549689169964328
16.15613838170366
14.00486743852932
13.623991596955689
16.120348757621432
17.692506372714845
17.39616865414711
17.042451301344247
16.951522937645944
16.708361596110098
15.459085863396544
13.758263571207484
14.088214066082191
17.159734572502188
20.747006610569372
22.912773067244
22.746570645136483
21.72932366361343
21.978626506433038
22.517272543303548
21.897260521842725
20.16213091346331
18.58790397540015
17.63232740270767
15.915523262469137
13.914317341559535
13.582153698498557
13.464954137975297
11.318554170743269
8.557826556282665
7.7967789549841795
9.979289476591745
12.886909896694075
13.499321747456136
11.831771584319828
9.968026683276761
10.265001992347115
13.568867618733643
17.233220770584385
18.293807584428194
16.931874878050944
15.252522626823087
14.962574158324369
14.612944030469663
12.123928311948626
8.659500719896739
5.607619230744425
0.9783031542502415
-7.236786860749766
-15.824734274500893
-21.500187460398678
-24.83765818035241
-26.895032784445068
-29.70548676445215
-33.99513584682395
-37.25082755370108
-37.905718951451
-36.60582850985526
-34.373727865435896
-31.710863272080616
-28.963400621327477
-26.50333651930706
-24.568933294168286
-23.01759720822161
-21.323138365400588
-19.883584259704882
-19.229693236266602
-18.296158370027417
-16.88847968151244
-16.378699158262688
-16.51447001099837
-16.02812191265231
-14.722287894209243
-13.242017640339242
-12.104759596276045
-10.996204357076817
-10.157041872948408
-10.369844683828289
-10.677698801309889
-9.85904109978021
-8.86261071242691
-8.784418682698226
-9.395861374922452
-10.66774118218361
-12.723259541688176
-14.421049134613147
-14.044855779911005
-12.003305097284375
-9.795999331198239
-7.21561607195522
-4.248753907149413
-1.532291214822997
1.5782027893519048
5.210213759439043
7.418660967979412
6.966718468751694
4.76984966121866
2.4184707215679193
0.7296384047567462
-1.3732364657368432
-4.7057862787710905
-8.866971060054977
-13.11358159686687
-15.826006256248615
-16.564403481222023
-16.591858496231318
-17.263717574259115
-19.00839047783828
-20.758446471849943
-21.28309883400918
-20.678797050196188
-20.067136715304997
-19.635638105431628
-19.461326707309905
-19.83496564362176
-18.830264778533323
-15.433308614961613
-12.72605177367008
-13.110189745805046
-14.653638898566017
-14.389278694886261
-11.701648424064945
-8.72167567730245
-7.779973385150146
-8.530203646702411
-8.476243362936374
-6.020100262218333
-3.2595586904977765
-2.8983239307629964
-4.808974813793139
-6.918370816330569
-6.071631923396038
-1.4785652519983907
3.8629863419644126
7.342323034655647
8.52631936230783
8.663846079520699
9.501914515309034
11.459289908353256
14.176544753896446
16.621824526100315
18.102383686282508
18.595619625636942
17.593201919525534
14.850689786803757
10.427740504128392
5.994401296826019
2.570438462995036
-1.4508022461143095
-5.904893301369208
-8.592767657586581
-8.762800774827676
-7.776788690122133
-6.89351979586802
-6.001045741296322
-4.136086609861179
-1.9408969985276159
-1.040962829137713
0.1757727013459998
3.042679263292277
6.21473435089556
8.760118035313536
9.983667418678653
9.68518365939197
8.652327424898878
8.497751886356834
9.425194974160439
9.407932077599233
8.089690024594596
6.68025233545127
4.891630549557176
1.2584366082801837
-3.5516540442760802
-7.272592005193639
-8.83311774426617
-9.1947857679017
-10.668028350118002
-12.853719431679316
-13.444001518367664
-12.536097591772071
-11.350050924404634
-9.814701964588618
-9.00708640889256
-10.701749373522771
-13.489334295913025
-16.0219429447623
-18.53635678849397
-20.467435287786543
-20.801773364222303
-19.18699137658491
-17.16473478182993
-16.593578635406562
-17.025151101788893
-17.432086446209738
-18.532830845379845
-20.51193934762038
-23.019154392274505
-25.852209324754224
-28.073561988448894
-30.401456927076595
-33.5454820338543
-36.94985615713536
-40.544697904978605
-43.701069225961724
-46.169874744675454
-48.17542678290104
-49.077098685304094
-48.39917334461757
-46.46314161417671
-44.290569772476154
-42.77716293079362
-41.78699645325253
-40.882441445080985
-39.99057187465724
-39.083588223855145
-38.1019924963974
-37.30879404866974
-37.058652068835514
-37.298259479446685
-37.861157021191026
-38.3392364452847
-37.870041700305585
-35.917869380468694
-32.91697484209049
-30.24528887621403
-28.186658732089153
-24.944339228206463
-19.827397518997383
-14.515180881296986
-10.495170412745267
-8.00144958946815
-7.150597331691888
-8.117691809604866
-9.728613785321897
-9.970833589272463
-8.483038758339747
-6.094168241185587
-4.034974507949204
-3.100691821039864
-1.7952432330512809
0.6107448796701777
3.22432854581649
6.023968115423438
9.256473460658153
12.933833407650866
15.711641759107692
16.803260989125192
17.13371209169063
16.248696157729416
13.827233681339719
11.052313953874625
8.640646762171782
6.059764976577846
3.4852323392908398
2.8047348664344605
4.332496246213714
6.450240288753761
8.495315835091413
10.54800611549114
12.512213711160177
14.672726228995462
16.645801370859925
17.208855179135504
16.26768055337511
14.513870911844505
12.52540257136735
11.127107831194246
10.42441212489205
9.205843005302567
7.484241933152873
6.648543291448403
6.418440805724085
6.328626956638332
7.632295822457921
10.723384322826636
14.6827519378866
18.93397167646061
22.767867494398665
25.495469806112535
27.219361218547174
28.014172546161983
27.78184632151276
26.745734331240854
25.018111979586408
22.533333488675602
19.65339591642181
17.196569513668635
15.736377235917875
15.163172806342974
14.821330813028782
14.25546656503568
14.142266324450508
15.193409895665985
16.944491492253025
18.524164086602713
19.220713754487562
19.814723697723025
21.854330179352615
24.080147062283206
24.572289910559643
24.098610287421014
23.098937437176442
21.079674300218183
18.620480495140527
16.3922083331831
15.087104741822916
14.770835574101246
13.913271093593556
11.716938871081442
9.246348454938708
7.340188058214417
5.492438614139788
3.3129235256764793
1.3153222589980116
-0.49300230996448147
-3.0179346128041953
-6.191517485714218
-8.409346285365709
-9.0790502742806
-9.656264744565599
-10.351054312254545
-9.316413971102026
-6.059118692844729
-1.3887748320031643
4.163475300236829
9.773702304949705
14.060911657676789
16.162067491463603
16.966791807590305
17.90143553581171
19.720233882172028
22.228571592210596
23.489784991556462
21.38475691304737
17.014985887745983
13.202034480066795
9.823457471546794
6.443406244301809
4.416228238486239
3.630928923025502
3.546738183265512
3.840766906892454
3.231692908449471
1.336760792418723
0.07260007993701605
0.7419547898339615
1.7566601124176284
2.0500103776323377
2.069774152673093
2.012503853281587
1.9104875318788086
1.3796424499444444
0.8228207659407875
1.5537126453747858
3.001328805008634
2.90131098400699
1.1444684877854738
0.2527636977248666
1.7092145143627115
3.9899403494294132
4.274298448075714
2.0312967030942675
-0.36125369958530773
-0.46311413119428824
1.0540109617200746
0.6319051661624336
-2.9290233947330573
-6.984941193322139
-9.71403256003697
-11.809017457330825
-13.975213401181835
-15.678802000014999
-16.574759325837825
-17.573841002251868
-19.580469586641758
-21.844889260907696
-22.362654804828736
-20.68204719300163
-18.369760402690048
-15.683327622262897
-11.645840806152378
-6.717128628568175
-2.1494737980905128
1.0452360821389355
2.361470702894429
3.0639489334060954
4.521455226876682
5.020202173572361
2.9119140481235943
1.0532282304501916
2.171507224830283
4.461463705527094
5.188700258424876
4.121008302818329
3.6392674195720587
5.523247274866065
8.149256672972477
9.496270707129476
10.155800799120968
11.752946140381145
14.523575202972102
16.885049223858108
18.088033149821356
19.039091780780492
19.68514951601061
18.98196087367137
16.105345554125027
12.095796139492757
9.040245305416539
6.331678004061487
2.912101988609388
-0.2479106233604931
-2.5308130876560884
-3.7378115961364617
-4.140859113206611
-4.902414623487224
-5.94715531333783
-6.225668223787199
-5.615681456507873
-4.856476101376446
-4.106571361215919
-2.862897649567383
-1.018604607998443
1.3924915391749177
3.5233484098150805
4.824925502499043
5.732791241458538
5.603548635270001
3.8871014053044295
1.299579009289944
-0.999700407447973
-2.9306816078615308
-4.963653515860328
-6.65309262559135
-7.569408992084108
-7.459518496365756
-7.020611696975221
-6.849401403053701
-5.930168080901273
-3.874624716382111
-1.3676645576310809
1.0438849119850642
2.529929088565543
2.7046053326997974
2.461050978761363
2.5990668690304313
3.822363289311768
5.27910122970809
4.644724924164541
2.6356768139036704
1.6568883643274537
1.8235079982101943
1.605341302811246
-0.06581306437709727
-2.6370215668756063
-4.43308527474711
-4.499460071130855
-2.8826573372703974
-0.19255251813012972
1.9563352008369042
2.3689873320456654
1.0680541478957013
-1.4560521832351923
-4.002259725973205
-5.243313813915952
-5.69444380649477
-6.933964026371178
-8.78005620408115
-10.306843912604128
-11.693394333947339
-13.186376937376725
-13.568939083310568
-12.298870308716028
-11.400620542539096
-11.662075517822869
-12.119052530845545
-12.304465611413237
-12.667313478758391
-14.268290574839696
-16.528224942659957
-18.22452830200582
-19.356412862064612
-20.121159574858712
-21.02847393947405
-22.975614297274113
-25.336302140514725
-26.516307608214305
-26.554624637023625
-26.35796097672532
-25.848831679516582
-23.708182312351568
-19.854164133284378
