AAD_Filtered_TADAS_FILE
AAD_BASELINE_CORRECTION: BASELINE REMOVED
AAD_FILTER_TYPE: BUTTERWORTH
AAD_FILTER_ORDER: 1
AAD_LOW_CUT_FREQUENCY_HZ: 0.025
AAD_HIGH_CUT_FREQUENCY_HZ: 40.0
EVENT_NAME: 202302060117
EVENT_ID: 13194
EVENT_DATE_YYYYMMDD: 2023/02/06
EVENT_TIME_HHMMSS: 01:17:32.00000
EVENT_LATITUDE_DEGREE: 37.288
EVENT_LONGITUDE_DEGREE: 37.043
EVENT_DEPTH_KM: 8.6
HYPOCENTER_REFERENCE: AFAD
MAGNITUDE_W: 7.7
MAGNITUDE_W_REFERENCE: AFAD
MAGNITUDE_L: 
MAGNITUDE_L_REFERENCE: 
FOCAL_MECHANISM: 
NETWORK: TK
STATION_CODE: 2711
STATION_NAME: 
STATION_LATITUDE_DEGREE: 37.31736
STATION_LONGITUDE_DEGREE: 37.56036
STATION_ELEVATION_M: 574.0
LOCATION: Kahramanmaras_Pazarck_Turkiye
SENSOR_DEPTH_M: 
VS30_M/S: None
SITE_CLASSIFICATION_EC8: unknown
MORPHOLOGIC_CLASSIFICATION: 
EPICENTRAL_DISTANCE_KM: 45.88
EARTHQUAKE_BACKAZIMUTH_DEGREE: 
DATE_TIME_FIRST_SAMPLE_YYYYMMDD_HHMMSS: 2023/02/06 01:17:10.0424400
DATE_TIME_FIRST_SAMPLE_PRECISION: millisecond
SAMPLING_INTERVAL_S: 0.01
NDATA: 10501
DURATION_S: 
STREAM: HNE
UNITS: cm/s^2
INSTRUMENT: sensor = ACEBOX/SARA | digitizer = 
INSTRUMENT_ANALOG/DIGITAL: 
INSTRUMENTAL_FREQUENCY_HZ: 
INSTRUMENTAL_DAMPING: 
FULL_SCALE_G: 
N_BIT_DIGITAL_CONVERTER: 
PGA_CM/S^2: 119.610
TIME_PGA_S: 
BASELINE_CORRECTION: BASELINE REMOVED
FILTER_TYPE: BUTTERWORTH
FILTER_ORDER: 
LOW_CUT_FREQUENCY_HZ: 
HIGH_CUT_FREQUENCY_HZ: 
LATE/NORMAL_TRIGGERED: 
DATABASE_VERSION: 
HEADER_FORMAT: DYNA 1.2
DATA_TYPE: Acceleration
PROCESSING: Automatic Paolucci et al., 2011
DATA_TIMESTAMP_YYYYMMDD_HHMMSS: 
DATA_LICENSE: U (unknown license)
DATA_CITATION: Turkish Accelerometric Archive v 1.0 - Disaster And Emergency Management Presidency, Earthquake Department
DATA_CREATOR: AFAD
ORIGINAL_DATA_MEDIATOR_CITATION: : AFAD - Disaster And Emergency Management Presidency
ORIGINAL_DATA_MEDIATOR: AFAD PROCESS SERVICE
ORIGINAL_DATA_CREATOR_CITATION: AFAD PROCESS SERVICE
ORIGINAL_DATA_CREATOR: network: TK
USER1: GuestUser
USER2: 
USER3: 
USER4: 
[...]
-23.862776564610233
-5.304842791131995
-4.740001330325177
-27.636054765778308
-43.11553320474909
-76.43723704857133
-82.3582683079448
6.602536173710169
88.41855696652797
39.54731886657016
-42.25410401907
-16.426228395877864
50.53720547085389
68.13340755918486
70.49385996933322
75.11282559403041
47.2880225016696
-22.050614748690002
-70.03336559887504
-51.25104819283512
-29.242642498264537
-35.08612888822813
-33.11655835833557
-20.125608576047313
-10.333300303846789
-39.1615373663473
-81.88524861385508
-47.842389251649024
10.881871596666274
-8.103521770145798
-47.50147230559571
-39.516851012498094
-22.845183476946733
-15.101079535494238
5.886022767405137
17.593362445552646
4.931664049438489
-7.816394075777537
-14.353835767262375
-16.364474157468514
-31.427020385212312
-59.93067751807413
-35.1396446382727
26.305664124571884
24.406929344484762
-14.21272487062795
-17.464831660972752
-18.08661433479302
-40.287809820567006
-40.16469042327091
-12.619312006078623
-2.601660563163405
-11.265057136941408
-11.588559796673977
-5.1763178307014845
-3.060981614267505
-23.672438449321056
-49.9981512722795
-22.840757468041144
32.25181783226174
43.4373721801654
35.49069287702998
57.21619702927981
70.76277555266859
42.87581179964806
34.846026566941326
64.74257156972253
57.29599370131543
18.08849353786491
24.51443204028971
75.13677264553316
86.19758264197048
23.843268295606304
-13.155931422767232
24.631137897436048
33.73935598027268
-4.382417945536327
5.623353291983173
45.93626457587987
28.74386569893281
-39.67546234892413
-88.04197023099393
-73.90483061392561
-31.45353194574535
-30.040806867341136
-71.06786268338378
-86.30840067435808
-47.849492342727224
-20.081806281744843
-42.885431321185926
-58.67731889220812
-36.57509321009854
-5.2249456402265775
16.411539530738448
10.09295920030847
-12.993781275294108
-22.71590279453055
-31.83800587201539
-19.265986879483275
55.06494454233549
99.1797127439143
35.04894619856111
-17.256681843772025
12.551435530573377
15.61568582226795
-24.33693549539538
-2.56503330186809
60.5792944815821
50.05086430103812
-19.542498897984917
-46.785415528146615
-33.36557602660667
-38.779721833884416
-63.4098898238635
-74.94282284992025
-64.54204852570109
-54.00125857528607
-43.10626839719519
-3.398280237967775
39.70823674871425
27.19317631913528
-27.47036555278728
-56.26093634316619
-41.21811552462426
-30.51402449341637
-48.61992276132333
-36.47826889952191
37.62507199418563
64.65646132297363
-28.13418782742275
-113.85735066049548
-70.23147013547512
31.745480516870956
48.668132013347744
-29.71913038543354
-68.0040937053813
-18.8906802050479
9.102181662106572
-4.383433822536612
16.757803994292264
42.95731489004436
20.7282126405814
1.6150638842492797
13.140117785534155
8.58636551340034
9.948027047294378
47.25499745311151
29.99411406594401
-42.92720249920903
-28.062734938563693
48.26714716504932
39.7243191234846
-14.688341414063862
-6.566069257301224
7.180932364953083
-42.7184706235398
-60.86368050164841
-1.7710123884439648
14.148202152811841
-31.59239292383665
-34.924459370524055
-2.2249421441061057
7.618491622681323
5.387139885201033
1.783569953918461
-21.74751166095944
-49.80871733503234
-34.17814033054891
11.219783801889472
21.318799887029204
1.5036193155577462
-13.284248932071266
-37.5079836960241
-55.04058893376402
-25.98488648821445
9.667678139602367
-5.129462466613051
-43.13178083267113
-45.07020677293682
-4.256759331409085
26.836491658987473
16.834396424182643
1.751943486445082
1.6465747345138015
1.463670764355642
6.826147824995784
9.58707504831978
-14.512452907388937
-41.89243297081398
-32.67183012758424
-3.5868696934794255
19.723527443647757
52.33371073275911
70.70845893058535
30.335242004966386
-20.586135377830036
-9.637867999557624
34.79963287454294
45.88207418368995
32.70136097333236
34.38429627736934
42.99522550865808
34.18789110394337
-0.43837856856954094
-21.944757018510117
1.602873925633255
-7.092005046412348
-76.08375547880797
-85.5973783710351
3.3355023756513833
77.19840290941534
48.92693381314497
-20.15934468789856
-18.811837573873824
20.614169778028025
18.15704628939779
13.68734264597325
40.43488454385999
45.79624204262621
5.505051251903444
-31.51706383237671
-30.7508326563741
-30.461311477141873
-57.23315229037658
-66.4236797239665
-17.652056789151256
43.49629423735672
32.36132231703282
-23.374100225804973
-29.506348804326098
-13.620140998402679
-26.56262708012947
-11.814128170027738
37.69602371331661
42.39877237552182
-2.6317265120363356
-26.321156260420207
-1.629713387443013
15.298458824882749
-21.817066737232484
-50.911480505548674
-1.3250969901783907
70.59886645125495
72.5550360582392
17.39542710178609
-21.551870750828236
-22.144067368799174
1.5792930077891265
42.275637925079316
62.17203288780647
28.978154781051767
-18.338385924067932
-29.31108046583083
-3.858641186094042
15.40954162222235
2.571640894326426
6.9640213762623056
53.508743898993394
59.36991034227398
2.981559243936813
-10.771009375464978
20.810904746803452
-7.236344075889821
-57.435755217353275
-25.500687267270752
36.02712946322798
33.47880865393944
3.9182725026538363
16.83163597793147
46.29479801522026
35.51241215591891
-4.1810249266352875
-12.831310181971796
24.70368879597758
42.95772022681299
21.227630619758695
26.58921866010902
53.84263466772305
40.33057269284119
5.400401773539969
-3.2870618852840585
21.555431435450235
57.90894450127409
57.6138263165407
16.90575389778591
6.367073657297802
55.36448487627299
97.17183782059999
63.58893322203035
-15.329550608129082
-45.455430574066305
-18.578662698240773
-24.96255158332522
-70.14992419771364
-51.275833741145654
28.402904043380484
38.300517282128745
-34.499090797579555
-72.70277946525388
-57.648843438918604
-55.157744564515745
-57.02582028018645
-29.33853182262261
-9.243686452519414
-27.86688231752242
-39.378530341391446
-20.98723992349382
-19.659818459093948
-49.309838201599405
-53.01487321205983
4.823927105165701
52.849408815736204
26.792456603264988
7.804873162903298
56.79631657367956
85.83146181075236
47.48443573036825
26.793762096850596
64.6230517341941
99.46255211058867
100.57547062130367
67.38963331348705
14.09753201263517
5.609380656777387
16.251740672262336
-32.12014037396323
-53.28940457191573
24.898311141831186
54.205225918072685
-39.11949661514896
-72.81696639763469
11.80078071109925
26.626079406049765
-60.209649371455235
-87.68583775929248
-14.470039211409986
42.14277639564645
1.8603947306668775
-49.68228800361118
-40.08063942330738
-40.60101976142607
-53.24264793702938
-1.6489738174254418
84.198700671693
111.82620204428156
49.401600250833326
-25.431161617822575
-34.771756266569
-18.02994937173549
-4.881369725189356
34.11549640698015
61.773850026011374
23.724613433114236
-30.92399491627092
-33.23387934885031
-35.430638599480325
-87.85999125035104
-87.61153942253965
-9.458903455087647
-2.8745147852994206
-63.84591447257745
-46.819508690075004
15.140412547478492
6.671219169179972
-45.98522762465011
-64.13440059941189
-39.63578230835284
-23.17635744470178
-45.56967084501151
-58.33249224836904
-19.379129947328927
24.003182918410754
23.626143035198968
-5.2256575272731185
-33.04429272774399
-31.603884935263522
5.101464447301727
22.957830504230103
-0.009576086181029543
0.6308008231358204
44.706848548783945
72.61130627199354
51.90385754000579
10.882897203114265
-2.041875745548773
12.409894331835842
20.461153069364933
34.998629299968755
52.02346532851935
42.725377275251354
39.7793696094384
35.380415862217966
-23.292670520318026
-74.51119767809058
-48.584343113103586
-21.08503120167706
-49.291290598362195
-44.65422946562502
22.096763824986077
49.463742638590205
41.058369815865156
63.167412805157824
64.39517335017938
19.777383105341933
-3.7355844749092593
-0.28049156782921814
-19.342376288128396
-44.786493505599125
-19.909135489995613
26.435917039590752
15.202764524474103
-41.72726786767452
-57.740768153299456
3.883824720642728
62.35363186038515
21.913996814843983
-62.5071463137684
-81.95874623289481
-45.381417669483
0.3685791980431199
40.29977085875061
43.87871828937522
-2.5853192724410796
-42.10490410229287
-23.15981675687539
-7.2236947860921195
-38.784407651684944
-25.676718947628398
52.10943376935269
72.9949997472868
2.1214819255374855
-38.464914132549154
28.533270873207837
77.79211584086623
1.7758611830477546
-88.1318288733827
-98.60244814225332
-64.98017496485515
-6.192744355972537
56.44783510149084
89.57192106843303
89.19961173810259
48.65396562158038
-1.9284690531215953
-16.45392360968834
-19.773113792202274
-27.430659038859766
-15.50894009547682
-7.46133688821603
-8.494699275614261
26.986831814260245
64.17247227741969
28.532207992539934
-24.078278768977146
-0.35676912396143823
33.81272619443074
-3.1912476695916823
-34.786073704133536
-26.8638999512205
-49.283871991018074
-69.31958456074669
-26.916220295626367
26.731780312840208
40.71453043129735
32.57390671870161
32.350434301972165
26.503107986691223
-11.341229508384686
-39.115886199755934
-13.817861359096836
3.6281668133401803
-28.56986665864121
-10.83440710778775
80.74343705879069
76.95088401259554
-32.58236485672436
-52.19114073215611
4.148062252589022
-11.928432600690385
-40.69098339634771
23.28550923056384
85.95216313606416
37.20808111609768
-19.038928171794684
23.660406257020583
46.529303387170955
-24.00998705067406
-62.582619856344394
-23.319056677205012
0.07382116569212749
-11.523388175610508
6.728473811788667
49.08673795375988
54.841060235233286
28.16222240968256
14.53519196590357
16.72498647250471
-6.062163206119701
-58.73086795241333
-68.40438951567322
0.057564128076608184
52.732333361005246
14.45429772968269
-11.001593619482156
48.354706850725954
46.96840253055483
-30.905302453483085
-11.058561360031288
46.855849076646344
22.689396312624023
14.04862997578744
36.0271505041703
16.53377429005601
0.5679136836163853
12.419402486214857
29.38554796905492
43.07317585736661
28.55383232846809
16.376339848322043
36.201100753483416
14.244447658998727
-56.22705490619776
-52.09832475422469
34.83949998156748
41.89532368472854
-56.640783232829115
-67.66937903372009
52.91720259434532
101.42198814779765
2.7318731501955265
-61.91695438039275
7.790809263988349
61.583516815025376
9.41404551805468
-21.107362208138415
30.416799211572858
63.59410566175635
23.06285122027092
-20.198504150712687
1.114357783554314
14.80554203367485
-35.72015482463741
-42.25316329277669
32.067893360255724
58.18367132432741
2.173548439077901
-17.16986291900204
31.24753928705852
36.280035794590866
-19.85031719335489
-42.02871203410059
-35.45227586835251
-51.328018295986155
-42.71148204738275
18.429084983392702
45.445018602919504
-14.387330545717754
-75.6421715125303
-57.02566800855598
-0.053558356298335254
19.15363708391807
2.501650137854058
4.479114893559775
21.29957945008934
2.13852185754689
-25.477069778061743
1.250941626588742
31.02773359307958
3.4402532827150427
7.779970016078457
67.52698569733883
40.1680376972487
-43.01404919739338
-16.496184391749566
60.61316662758404
70.0608397528484
52.74169143558157
39.369072034201785
22.2090633274448
26.069747276011746
36.831336393354846
11.802810278019393
-29.096670275648258
-24.155484073348873
5.212562394156675
-13.915308534510253
-47.91372666795462
-40.43174844968119
-15.121284684936763
2.9050367253067537
-8.601050103622207
-21.20848791879372
28.632458024732394
71.53999116286424
40.66044692739599
17.113747651477716
31.706854135278782
23.2754289605023
-9.276370159057885
-26.875004006514775
-47.39032471121606
-75.54852374164723
-39.52783764998879
30.22856890949936
11.238604831781693
-44.519441389806204
-27.040838615165118
-0.10582456752941294
-14.275074275328942
8.657729321920124
70.3398722749233
79.05930860263946
33.12488838823699
5.711579385153225
19.259761055515824
28.474489159397518
-2.874258555377257
-36.759550980808235
-28.498502165642638
2.263334919922916
24.413674496048195
30.520182459152515
21.532762525357924
7.972490743995712
7.465904183931943
22.20817352545841
37.93445890518903
49.11930603572028
58.523239714346296
63.149841003884056
48.9378417739799
13.393944712012775
-4.923166848031687
19.53021140784506
35.62129135909433
-8.47879770920486
-56.636650698753606
-37.77517134734877
-2.09579850298693
-10.515071977284519
-36.26095650433471
-51.76668768906729
-36.978067737733184
24.441341934889945
53.83002366839529
-13.136063023594707
-53.25249098499654
22.91012320423573
72.75932198687335
-5.521175484363944
-101.23318670199211
-90.54860217752099
-1.943712263943373
32.60319720675619
-36.51108302631313
-101.74903282493509
-59.20889160810059
29.99018904999085
26.0302676103102
-44.84742978352819
-28.686900518603117
48.67599547472548
36.62574865301532
-26.02276467450541
-19.029555610957836
12.76934718631536
6.1076232742855225
18.075461956014156
81.89590070066569
115.89246699583649
57.44121858380711
1.478134844941018
43.41944187375559
94.31787587194955
64.07496261529337
23.3956309704841
40.54781850951089
62.703835578303426
28.81263042679604
-19.368508237959542
-6.8723663892675475
39.21470240050655
32.05341278838389
-18.497783410987708
-41.66213566775873
-42.96706695123649
-48.803111182097105
-32.07323116762054
-1.2757549976840925
-10.143454150981043
-47.330278713189315
-56.44002703917385
-37.767666325541704
-33.42402364540113
-42.410189371465194
-25.24381360664074
8.145147124014892
14.237430991746578
-7.625727567625274
-30.206749695569815
-10.689669592624027
49.70058496167616
50.046217577334716
-34.09355454045563
-73.22064291350583
-16.534833285496223
27.97801833680348
7.925083120211331
-2.2299459566395217
10.511145611469583
-12.621770689551088
-36.2951126589514
-16.52659799070116
-13.304254020137023
-55.90985555465912
-90.27591362903487
-63.67318379426895
19.894193640655605
61.23948005610421
9.667436560792398
-14.754560610199901
16.747551380616272
-22.617970848118578
-97.53247133766264
-85.67579784312412
-38.023970998929826
-29.892763029283934
-20.524293494904775
5.879738510344552
-5.127141231043569
-50.254567519135556
-68.53977171555469
-44.69936492274557
-8.314236441564654
-2.005216222914971
-26.319881841609295
-12.461009348843696
40.78329368828306
44.951039287120054
-12.497467361807445
-57.91888187751503
-52.790857699733614
-26.930138317213494
-13.503635997088402
-14.884427501653565
-28.371181232340632
-26.687997260669274
2.4039427765384453
-5.698436765531504
-51.64748664450999
-44.428657358759665
-1.5953093634555056
1.7649737807851609
-2.225878260378186
25.23286749051065
32.78504108061884
-7.2174483978962085
-31.087430794189434
-9.508713828248517
13.584724862339618
32.14387687877937
45.98441577172113
30.430436762756894
12.802694146176071
20.067604327239227
44.25383104925013
77.62029733956744
81.97012114798677
42.9951434289808
16.77288847894429
34.56565002340823
58.79305237611548
39.236864576443395
-4.420763592914193
1.0932177069033115
39.7857007412611
29.73118048461754
-17.039944491832674
-36.140645638207246
-24.418334786578537
-8.78912963897745
-7.029095136857785
-20.474041468074432
-13.817499737863288
14.143201307961698
-2.84376122320751
-44.95949148052832
-28.737537598428958
-4.699063064343589
-35.276479504906156
-57.68038872318648
-48.16132175007858
-39.199098499372546
-33.05006151794084
-33.789293105612906
-30.97375435397226
-20.535118469513154
-25.122978226652723
-24.94540041540665
-1.745464173653471
15.884687135070763
26.054681451174677
43.506966597940185
38.52667585972831
-0.6370660518395104
-3.4226400302695486
62.284530337016776
91.57755409104033
25.670513472128253
-19.087090980757072
25.919224174355143
61.09686823312007
26.264425429036798
-11.131128309017186
5.080340101347645
42.94868577156521
52.12681316525127
34.90207193507881
16.110790673605198
14.629631639731034
29.2901004803479
26.434595910510783
7.888363387451804
5.600925053463728
9.47157703600823
11.241704968949769
8.324133726862417
-23.456255829124558
-45.679904743802226
-8.78739652894227
17.796672329359698
-19.354425133899134
-40.145330216116044
-0.8451822534520393
27.683140844938595
15.90210920757483
13.222685692220102
17.593620812479784
-3.5708863913385045
-15.031049700632268
-4.650394994993489
-15.390309116718768
-35.75805639671292
-39.446311149840554
-30.660888420072556
-5.731001540532013
3.649307552717635
-22.675491562108007
-21.23899810180292
9.49175132378245
-7.045985785468718
-35.67654259032674
-13.503369814982848
-3.774578995206901
-36.172051304177465
-41.14441599118942
0.6097238489823316
48.92683098076047
63.555470295480006
44.17393179688321
36.29158839034575
25.07404929369355
-25.982730764234002
-53.29304750894435
-16.336176096723577
22.05510419641565
19.726631080137476
-3.3585084688986973
-20.442912611144806
-38.952537932170806
-69.96107155294584
-71.21133900092964
-26.34795036150012
5.9241611520112745
9.370827866331474
17.221540525496238
27.279986132671603
32.77235626216135
32.515952803715216
15.44169946423268
4.960116150426302
15.956982310757162
16.58679547711607
1.8578496099606379
-10.525393403097242
-6.416237374548419
25.1495976373923
41.9949027067207
22.56372039858763
18.861763618209405
25.224337316058676
12.51474325167097
33.05270970051925
78.97856483064743
49.497259155072214
-15.054954369379882
14.22349995927109
55.25835682820522
-11.40032296315968
-59.39814202067727
-6.814110281391512
16.179578751352498
-21.27704096009339
-19.588453542326
6.668197398185096
-12.861757534365916
-35.10383995040083
-11.068706927217917
-4.348577544820057
-58.233627859721274
-101.5595903204565
-76.78085115591398
-26.82867979849286
-5.7868530275264405
-5.792740761494067
11.542399072223668
37.94769280087332
16.267717881860047
-33.042997068441245
-37.40512947555023
-17.839356583441777
-17.5240205767806
-19.306121979002697
-2.628968391753738
26.13405945023702
31.54198602797038
5.420415883339568
-0.491719347659334
32.38581496921394
57.46702360144682
53.90816769985709
44.50335619817068
22.034076423657602
-12.323452926990656
-8.966691674105713
17.937791942539462
7.349338310270345
-26.471201449221525
-36.97458724663379
-23.605075071451584
-21.49842950160981
-39.12454596910079
-45.146194083750274
-37.621376146993896
-28.091628484378873
-11.059915341224967
10.086885786591585
50.328577054257174
88.57038640173504
49.02923887048466
-25.548886002186475
-19.19923395634365
29.46452981025828
22.917897230769704
6.35036034963522
