AAD_Filtered_TADAS_FILE
AAD_BASELINE_CORRECTION: BASELINE REMOVED
AAD_FILTER_TYPE: BUTTERWORTH
AAD_FILTER_ORDER: 1
AAD_LOW_CUT_FREQUENCY_HZ: 0.025
AAD_HIGH_CUT_FREQUENCY_HZ: 40.0
EVENT_NAME: 202302060117
EVENT_ID: 13194
EVENT_DATE_YYYYMMDD: 2023/02/06
EVENT_TIME_HHMMSS: 01:17:32.00000
EVENT_LATITUDE_DEGREE: 37.288
EVENT_LONGITUDE_DEGREE: 37.043
EVENT_DEPTH_KM: 8.6
HYPOCENTER_REFERENCE: AFAD
MAGNITUDE_W: 7.7
MAGNITUDE_W_REFERENCE: AFAD
MAGNITUDE_L: 
MAGNITUDE_L_REFERENCE: 
FOCAL_MECHANISM: 
NETWORK: TK
STATION_CODE: 0208
STATION_NAME: 
STATION_LATITUDE_DEGREE: 37.78694
STATION_LONGITUDE_DEGREE: 37.65275
STATION_ELEVATION_M: 1763.0
LOCATION: Kahramanmaras_Pazarck_Turkiye
SENSOR_DEPTH_M: 
VS30_M/S: 469
SITE_CLASSIFICATION_EC8: B
MORPHOLOGIC_CLASSIFICATION: 
EPICENTRAL_DISTANCE_KM: 77.26
EARTHQUAKE_BACKAZIMUTH_DEGREE: 
DATE_TIME_FIRST_SAMPLE_YYYYMMDD_HHMMSS: 2023/02/06 01:17:22.8932120
DATE_TIME_FIRST_SAMPLE_PRECISION: millisecond
SAMPLING_INTERVAL_S: 0.01
NDATA: 3311
DURATION_S: 
STREAM: HNE
UNITS: cm/s^2
INSTRUMENT: sensor = CMG-5T/GURALP | digitizer = 
INSTRUMENT_ANALOG/DIGITAL: 
INSTRUMENTAL_FREQUENCY_HZ: 
INSTRUMENTAL_DAMPING: 
FULL_SCALE_G: 
N_BIT_DIGITAL_CONVERTER: 
PGA_CM/S^2: 14.001
TIME_PGA_S: 
BASELINE_CORRECTION: BASELINE REMOVED
FILTER_TYPE: BUTTERWORTH
FILTER_ORDER: 
LOW_CUT_FREQUENCY_HZ: 
HIGH_CUT_FREQUENCY_HZ: 
LATE/NORMAL_TRIGGERED: 
DATABASE_VERSION: 
HEADER_FORMAT: DYNA 1.2
DATA_TYPE: Acceleration
PROCESSING: Automatic Paolucci et al., 2011
DATA_TIMESTAMP_YYYYMMDD_HHMMSS: 
DATA_LICENSE: U (unknown license)
DATA_CITATION: Turkish Accelerometric Archive v 1.0 - Disaster And Emergency Management Presidency, Earthquake Department
DATA_CREATOR: AFAD
ORIGINAL_DATA_MEDIATOR_CITATION: : AFAD - Disaster And Emergency Management Presidency
ORIGINAL_DATA_MEDIATOR: AFAD PROCESS SERVICE
ORIGINAL_DATA_CREATOR_CITATION: AFAD PROCESS SERVICE
ORIGINAL_DATA_CREATOR: network: TK
USER1: GuestUser
USER2: 
USER3: 
USER4: 
[...]
-0.022516186212907435
-0.02285423016143508
-0.023174423505174867
-0.02302776776566726
-0.022880541845200823
-0.022971570513225938
-0.02317883793350333
-0.022613740084446395
-0.02220518426361153
-0.02266838865516539
-0.022925543171907335
-0.022335760947225745
-0.023128474105677463
-0.02321628011155718
-0.022711992192029108
-0.023223559893607262
-0.02274139325399057
-0.022290551835419486
-0.022776002445685832
-0.02230824161202618
-0.022563947997894147
-0.0241150757636295
-0.023102268773708513
-0.021969416735282993
-0.02280182857049117
-0.023346417870079784
-0.023323322308196667
-0.02335064238015857
-0.02311468616842454
-0.023251544776572305
-0.023435350447025164
-0.023594867331398352
-0.02376713329966687
-0.023218990969453623
-0.021849041901138566
-0.02256494990333709
-0.024596655537863756
-0.02333863322375841
-0.02209189066123215
-0.02322059600476031
-0.02385218296454967
-0.02378321040532191
-0.02383308810552274
-0.023584834547695444
-0.023488801211168732
-0.0235532016227673
-0.023535884136619143
-0.023322590896724463
-0.023923022993378437
-0.02315711174654493
-0.023087872560976094
-0.02409085675559019
-0.022881549986474806
-0.023752048058324614
-0.024751574066059698
-0.024018466658999635
-0.023929876674425442
-0.02398970045205158
-0.02373633527581575
-0.02316767081348627
-0.023235905594552846
-0.02393049129615732
-0.023355305765197468
-0.023664824293885292
-0.02399816076527657
-0.023368238010682947
-0.023704871003438772
-0.023786792859968993
-0.023761231396809954
-0.023789656616035448
-0.023790581429254505
-0.023330321168942694
-0.023818485971493816
-0.024299149365479805
-0.0233561880926787
-0.02408982619616088
-0.02539621011018705
-0.024744340805474625
-0.024613183513423172
-0.024455905946521767
-0.02455065421735379
-0.025229063984032782
-0.02442034694867582
-0.024608175010005045
-0.025002337233687704
-0.024101931119852364
-0.024099610140493694
-0.02411579573136259
-0.023884958354542567
-0.02449384727134219
-0.024435933880768028
-0.02447967776131031
-0.024234048185130024
-0.024136178948849465
-0.024201770093110492
-0.024421695869953245
-0.02527542026198769
-0.02556723805373718
-0.025905786611885473
-0.024793468302237866
-0.024422380680273498
-0.025814355709870465
-0.025831281835652326
-0.02535872483277861
-0.025373823622185182
-0.025140917001278996
-0.025034703400823224
-0.025339523698169678
-0.025909805929759153
-0.02539413679213323
-0.024956013744003826
-0.02495470429889373
-0.02401849992825747
-0.023796804198987588
-0.024163433639347795
-0.023992435905150822
-0.024571210985571884
-0.025242537551796677
-0.02467650149227222
-0.024265883327889287
-0.024727601926832994
-0.024507037695499424
-0.023683605145983902
-0.023881509561252554
-0.02403476791079076
-0.025637463902017744
-0.02602334704731748
-0.024887271449077795
-0.025003824676724448
-0.024245520776659243
-0.024646715722287618
-0.02469492788979436
-0.024684957089569064
-0.024942968030306982
-0.024112977799708054
-0.024551047861877555
-0.024819189055076206
-0.024221998614626906
-0.022877570770746338
-0.023342669500864895
-0.02241053334687575
-0.020764851416151073
-0.019961898647927117
-0.017068395828812793
-0.013580223407191234
-0.009689213291157715
-0.006725842325895282
-0.0025849944118523146
0.002374303170804639
0.008570283523646582
0.014121904288188054
0.016897034400914182
0.018938407848830302
0.020634525939737972
0.021788639888276895
0.02202765356170927
0.022731441486193806
0.024147563449052334
0.025198059847635852
0.02643273341098132
0.029709903372816614
0.03669550771620873
0.04391851823043197
0.05076606331181153
0.06064169187991661
0.07109310568243604
0.07884946485294221
0.08320304524385211
0.08571054254205675
0.0858222902102288
0.08097084959119699
0.06914503497614628
0.05566310242975247
0.04543275379786253
0.03523775289001179
0.022196276880861038
0.011583605363067703
0.009508339966442738
0.012369363344411398
0.0158035382048429
0.02369299089911344
0.042136451441666306
0.0642029483728862
0.08342429749570954
0.10190706938219585
0.11240051800238968
0.1067235810825366
0.08099070761398795
0.04744948547510747
0.02223904497364692
-0.004057932480598544
-0.0302160013027618
-0.04711051144643602
-0.06487132819550386
-0.08238711520332649
-0.07526109991244755
-0.03218304875090641
0.021276990798086516
0.06552690231082241
0.10983903938963441
0.1509234909187163
0.17334282877689258
0.16739999062484626
0.13785516255024197
0.08186761433670994
-0.00713810292037434
-0.103630007324129
-0.1925200467783966
-0.2748418934004312
-0.3479463503125707
-0.4167686584734704
-0.470962564248085
-0.48705790470996735
-0.46733300809797873
-0.4252157244952924
-0.3734261480905906
-0.31051107318622473
-0.22320950494981412
-0.13710497921106649
-0.06747559017568451
0.012745158442994306
0.1123529152881669
0.19140385664667212
0.21748118674025968
0.21432795020166498
0.19585286446926517
0.14764995339808326
0.06403889444211709
-0.02609409532024385
-0.0782230006794451
-0.10889977669448421
-0.1727612698853265
-0.26666966062614883
-0.3267694535890574
-0.3192825290343314
-0.25964347105944213
-0.17888039062101066
-0.07124943111998049
0.07738288240805445
0.20124526355018638
0.25324845152018605
0.24823791199781697
0.22539650294303373
0.20787233124982546
0.16652693124459833
0.10244520631555588
0.031294810898371925
-0.041084788808001205
-0.12075049840875283
-0.23147117204648457
-0.3346962879599587
-0.3956033688859157
-0.46005471953595584
-0.5665345832717504
-0.6616124059806323
-0.6616959070667976
-0.5567415586482312
-0.37160064111699953
-0.12164133448666561
0.1670377156727248
0.40609912946809584
0.4993624026424522
0.488001669766375
0.4640170564412083
0.4398518032672557
0.3963400955533243
0.317835853866589
0.21784706597549014
0.13044800370608664
0.03970638135133957
-0.09476793318200079
-0.2706367627573346
-0.41006063887942135
-0.46046465688477944
-0.4578291896336396
-0.40989776659998567
-0.3007157727324981
-0.16279086018689454
-0.05597593611415267
0.03645059470310672
0.1566593567810831
0.2415330045680231
0.22292377224067256
0.12313251373040626
0.02682177550394893
0.0017200043381557558
0.02843188364877547
0.043233610340750635
0.01579437086122304
-0.01553798409187431
-0.022467335581125337
-0.09124143976668582
-0.273665257314224
-0.4722762801230583
-0.5915747189796335
-0.625869101681906
-0.5970365072005559
-0.4639086608398052
-0.21485992926957334
0.0314705231840017
0.2683760919174101
0.5625297841698941
0.7943026740537847
0.8252090360286098
0.6816919376061604
0.5264115041514541
0.3926962819535412
0.19032125502903147
-0.08625931621595723
-0.4121763122492243
-0.6311596920667624
-0.6106250296912581
-0.41333396262299527
-0.19513249916593747
-0.0969688627529957
-0.012647242026543343
0.15696963711814615
0.34604958066695496
0.5328671576138924
0.6863945246733021
0.838418016193903
0.9359269075857194
0.8971206242252547
0.7401463072028208
0.4489224399761908
0.10897490821449815
-0.13121212928923992
-0.26298514421822794
-0.37991865114734263
-0.49651390472298174
-0.6320244672953926
-0.6796139571894348
-0.44608985300109016
-0.03630678973626786
0.3182950682276092
0.45785465757512883
0.44777228555753257
0.5435303656215486
0.5966497990133637
0.45402645346247306
0.27481750316974485
0.23446297769075874
0.4526312586244466
0.647225852301205
0.6488862672810671
0.43911189559166847
0.049921982992511646
-0.17839757034471296
-0.13421828559610566
-0.0803660985789432
-0.3926967041079133
-0.8154897580050091
-0.7362843623800087
-0.44062523121399966
-0.44974159239760336
-0.6307482690444782
-0.5803150881280914
-0.4256420201957317
-0.3830689292511384
-0.1064687845643217
0.26110742139680865
0.2655832340519033
-0.03672262847999895
-0.009698556614140364
0.46602306726528747
0.4502030658118086
-0.09732113247793629
-0.4292643440168482
-0.3346478557278372
0.23799299935903476
0.8070200457855305
0.6989603287858619
0.03965299897499873
-0.6608597023833689
-0.9956892621780011
-0.9522304579472389
-0.7788648280698656
-0.7157177973923605
-0.9057399955009346
-1.2007459509334188
-1.2486149401105695
-1.1372286732492791
-1.4805928713295713
-1.9185482902295123
-1.3977467345724368
-0.3001651512973332
0.461084479594718
0.6828458290546602
0.6454047404567972
0.793596586532072
1.2597633362963057
2.069522417594766
2.753272985632197
2.514262897167019
1.4457946465397535
0.4540844875621072
-0.12235414092947902
-0.6154669299039439
-0.8276394778570182
-0.6550941101377191
-0.6790767950081176
-1.1898175633741084
-1.9551216494126855
-2.4636279787474393
-2.435593243076318
-2.055441506685712
-1.4439542130411427
-0.6341680690837758
0.24902563962352825
1.0447712832352158
1.5602428592053488
1.811189709161489
1.8270794726658497
1.4679555695704172
0.8684064733122833
0.6947183648540481
0.978411204909024
0.7535265030292149
-0.0849610111332178
-0.7817878416478056
-1.0202553638678473
-1.1779007085583915
-1.653960334461224
-1.9779024580199394
-1.7179764366986816
-1.2796173880884254
-0.8003741118330404
0.012609773826399356
1.1803165311899841
2.000108933230102
2.113798984798169
2.2387127189659792
2.927261946486093
3.8781702654031576
4.099516561948898
3.2049581848981585
2.0923454436305646
1.3514512369476728
0.7444759623175874
0.2113440103804511
-0.28294897401344515
-0.6170357191069862
-0.8311441231073768
-1.2843058060070158
-1.8340277676821464
-2.2774714503065896
-2.3214800136767644
-1.592327086245174
-0.4737589434033423
0.45268475193406504
0.848887870688778
0.1717222693084522
-0.8521542721517866
-0.5915323168031392
0.8306861553677201
2.068694031325367
2.29929638553771
1.926625913100776
1.2998309105914472
0.1967874196006816
-1.0511174374210217
-1.613292403958562
-1.3907067572836498
-0.9476864493012561
0.1550969813279906
1.5901970812753137
2.263289747813398
2.4566626844316755
2.829816221485633
3.448497039336307
3.399029258811805
2.160749498789856
0.6015611444094383
-0.7179871976785741
-1.323688203757926
-0.4443978656968228
1.3209376391410863
2.455570240782952
2.504595701313978
1.8576472849026033
1.0416935345514453
0.5097590540881151
0.22550544626290445
0.21181831458447872
0.3432500454344761
0.6502053712096516
1.4251632847941094
2.4552749912474825
3.2450159297160552
3.626850920202153
3.569021490650561
2.4565542653519894
0.31748794173045575
-1.7613780015423202
-3.0128977983643637
-2.861766562240161
-1.270789067910037
0.506420432151197
1.3758993441067315
0.8935449948382419
-0.5639563319896869
-1.7669844513582988
-2.2371175979553564
-2.5569870022339045
-2.8388702911353314
-2.613984808085117
-1.6918417987725596
-0.23325338467737136
1.1806406414685007
2.0252525297356865
2.1859328565674616
2.0668631951707312
2.005463279121226
1.770331464972157
1.1267422158280507
0.010776012570597801
-1.7450760330769468
-3.6867940234907794
-4.8746369986458475
-5.007289406345336
-4.928757317023999
-5.2856581765824675
-5.158996505196639
-3.6732833973189787
-1.7629106117959088
-0.7586800714801823
-0.17306838684044565
1.3848248997990138
4.286165589519164
6.8290936587413285
6.712901048406392
3.2675489666479156
-1.1698241991541345
-4.05325067192368
-5.276053195142108
-5.06830652041917
-3.8888918106757573
-2.826245551788062
-2.7532955252395
-3.1424701464907123
-3.4252863129669313
-3.940305045430243
-4.115629205644086
-3.3727435027048336
-1.1005444548930228
2.4343621130867077
4.460969451675685
4.728739833780152
5.139268387459953
6.417462425940115
8.240173366469792
8.120763880050834
5.06813153436858
1.431967773654921
-0.6304552264918947
-1.554230783933964
-2.896284804596933
-5.013135641685717
-7.634390499561614
-9.632739604970121
-9.76703370887107
-8.54495270253543
-6.378177348013494
-3.592143924061667
-1.221777127519573
1.1933997469638833
3.8506198391282798
5.666641901635902
6.42426787778538
6.119013932646656
5.0854335281054945
4.520732801202502
3.405816215452622
0.7781267273139377
-1.0630974139108853
-1.102417167041667
0.7754783072819742
3.3733574050060318
4.037187792486373
2.6229497686355376
-1.0001702507249386
-5.877424586791215
-8.439696582343595
-7.217570599347859
-3.286085888131349
-0.008518462584380066
0.1790745538822786
-0.6488508808097688
0.1288271115682223
3.212374473306866
6.703900252597326
8.516826405983112
8.39198808481739
7.0342242589941275
4.046889842101924
-0.1606952413265657
-3.527121685951839
-6.123648732870077
-7.538321835251317
-6.324919419203578
-2.8813467019937136
-0.22557940364323062
-1.3976103078769009
-4.661257644280701
-5.634344559999667
-3.7936563085066277
-1.6641048247144046
-0.6883597126922062
-0.2118213032279164
1.1952665728643606
3.2541440213934307
4.625769153534937
5.327034121373633
4.385213176463479
2.3604435659357046
2.3414424980555166
3.8180708814448185
5.044862115084388
3.4406137817847493
0.2804505554057424
-0.055148769829865676
0.07205533263434374
-0.360680117845601
-1.6728338176827462
-5.112541164954534
-6.5582456010274255
-4.7355949463466915
-0.8312762292103396
3.5640854316231745
5.3064020321800704
4.934316945074014
4.335991132607175
4.6612828911385185
5.930698990904231
5.522311109322705
2.4323573210615126
-1.9232019703350876
-4.44038019693658
-3.4929298498013917
-1.9283512651570804
0.16197140956703407
2.4775815717995298
3.481792204113104
3.995784531432338
4.416686391994556
4.8684770619599576
3.1851715971038193
-0.23017630263382136
-2.0160439566598356
-2.154246422705159
-2.473601499175164
-3.90806472785081
-3.70766606356895
-0.24942273969512
2.9648989742608456
4.787384622870468
4.946588240167776
2.8317884258360166
-0.11746261666556368
-2.9059289153489347
-3.9160837082368607
-4.4485402390366415
-5.208397059828489
-4.572926446113719
-4.254354182181105
-3.710478599845993
-2.514308985921562
-3.086060612550089
-4.412117512069223
-4.260898170078491
-2.299572435407361
-1.0679735864345594
-3.5588596885191945
-6.4094092050497
-5.530737335708575
-3.4613225875050797
-2.812111881571955
-2.308797649078296
-1.3573194759774583
-0.4576952484446301
-0.12582116680565678
-2.221309161990339
-4.992710609408811
-6.873657922221577
-8.598148878725848
-9.111672466725087
-9.322814266564034
-9.435929775357476
-8.920575422992835
-8.25411718822995
-6.010654700972893
-1.9666374621206673
2.0063683384382385
4.479263498543729
5.983835389233869
7.586415356774599
6.241749248829328
2.264173537016696
-0.7002662228528824
-1.0819599997785154
-0.2724660497941236
-1.3989408288769116
-2.1271312623615026
-0.36675515126434155
1.9139109351114734
3.9350465796364675
5.638073534738816
5.3101434158860386
2.7489393013694414
0.7448896977787258
0.8254515667127726
1.2531776498768221
1.5977295819428916
0.5068842855661742
-0.7860034279274833
1.6556367328428967
6.28442991266149
10.389362033660268
10.064042843674741
7.319065595234503
9.124307273848952
11.349914009137219
8.57540257536044
4.4052904986899595
1.8822231261098645
1.945865637670708
1.264511146382499
-1.1340030999077473
-2.041397335214008
-3.664989128129837
-6.408572940306007
-6.771603722470496
-5.399412516685831
-5.502983449504293
-8.50499341851612
-11.831369535332588
-11.046883827664713
-7.4068105541432665
-3.3491052105017283
-1.1973538760872713
-1.4579237414039568
-0.08766745317054334
3.5483125967998075
7.22551466333119
10.174302044251808
11.232931955941353
10.443437715220938
7.280997330876198
1.4625149856573545
-2.8058014764334303
-3.6133060864431346
-3.944984783586461
-5.154297753817831
-5.020272911015273
-4.00295568175445
-4.71274381121681
-9.023352734596866
-13.547196044705771
-11.577909008281878
-4.575629037344695
2.169567629641237
6.182267187959786
6.732143877753647
6.816386601801611
7.7339638806767725
6.743475965948363
2.7170216594761123
-2.4822233030970424
-5.220221262496374
-3.8975849375320033
-0.3061018730639896
2.547453344054614
2.492180218422997
-0.7708797432695856
-4.725077663594872
-7.144919705321272
-7.751912436679312
-7.067852793693804
-5.002338980266276
-2.165936099912998
0.3668167728854707
2.366128095337096
3.038601510777499
3.521207895324706
4.693827960523754
4.9072328395211775
4.625085375755988
5.4517362668003395
7.215831297971196
8.603153199233574
6.465435016375643
4.192757898102636
4.600033306008204
2.9566415641609405
0.7081245850706526
0.7181411953671443
0.7861478915172309
0.4964131939318825
1.0124224783625893
4.012254828312716
9.05271290401741
10.565939480870142
2.3163073439754873
-1.2387969284872686
0.5719848514797066
-0.35027447386886273
0.1195034074515219
-0.1197339954668003
0.0021558059465288867
-0.05988969883597087
-0.028250338894319157
-0.04432816942354344
-0.03610197813331442
-0.040254789085072844
-0.038102603147397295
-0.03916186084193622
-0.038585492594447886
-0.03884228719393444
-0.03867480054972574
-0.038723494570188435
-0.03866215857601087
-0.038656943413056935
-0.0386232222861567
-0.0386040985784154
-0.038577618045385384
-0.03855496265989519
-0.03853043691371946
-0.03850694161407772
-0.03848299915211577
-0.038459362005803036
-0.03843564678893101
-0.03841204865244104
-0.03838846807744272
-0.03836495563130432
-0.03834148543719145
-0.038318070554273935
-0.03829470421038758
-0.03827138973437773
-0.03824812531046715
-0.038224911743410986
-0.03820174850342047
-0.038178635740626896
-0.03815557325904148
-0.03813256103915473
-0.0381095989717572
-0.03808668699351399
-0.03806382501791146
-0.03804101297042825
-0.03801825077062111
-0.037995538341248976
-0.0379728756036254
-0.037950262479985494
-0.03792769889228004
-0.03790518476278938
-0.03788272001381052
-0.03786030456781612
-0.03783793834737329
-0.03781562127518465
-0.03779335327406709
-0.03777113426696236
-0.03774896417693134
-0.03772684292715671
-0.03770477044094125
-0.03768274664170848
-0.037660771453002014
-0.03763884479848561
-0.03761696660194286
-0.037595136787277064
-0.03757335527851102
-0.037551621999786844
-0.037529936875365745
-0.0375082998296279
-0.03748671078707225
-0.03746516967231625
-0.03744367641009577
-0.03742223092526487
-0.03740083314279562
-0.037379482987777865
-0.03735818038541916
-0.037336925261044464
-0.03731571754009601
-0.037294557148133116
-0.037273444010832005
-0.03725237805398561
-0.0372313592035034
-0.03721038738541118
-0.03718946252585094
-0.037168584551080644
-0.03714775338747407
-0.03712696896152059
-0.037106231199825035
-0.037085540029107494
-0.037064895376203125
-0.03704429716806197
-0.03702374533174882
-0.03700323979444297
-0.03698278048343808
-0.036962367326141984
-0.036942000250076525
-0.03692167918287734
-0.036901404052293724
-0.03688117478618841
