AAD_Filtered_TADAS_FILE
AAD_BASELINE_CORRECTION: BASELINE REMOVED
AAD_FILTER_TYPE: BUTTERWORTH
AAD_FILTER_ORDER: 1
AAD_LOW_CUT_FREQUENCY_HZ: 0.025
AAD_HIGH_CUT_FREQUENCY_HZ: 40.0
EVENT_NAME: 202302061024
EVENT_ID: 13207
EVENT_DATE_YYYYMMDD: 2023/02/06
EVENT_TIME_HHMMSS: 10:24:47.00000
EVENT_LATITUDE_DEGREE: 38.089
EVENT_LONGITUDE_DEGREE: 37.239
EVENT_DEPTH_KM: 7.0
HYPOCENTER_REFERENCE: AFAD
MAGNITUDE_W: 7.6
MAGNITUDE_W_REFERENCE: AFAD
MAGNITUDE_L: 
MAGNITUDE_L_REFERENCE: 
FOCAL_MECHANISM: 
NETWORK: TK
STATION_CODE: 0128
STATION_NAME: 
STATION_LATITUDE_DEGREE: 37.250287
STATION_LONGITUDE_DEGREE: 35.062788
STATION_ELEVATION_M: 236.0
LOCATION: Kahramanmaras_Elbistan_Turkiye
SENSOR_DEPTH_M: 
VS30_M/S: 494
SITE_CLASSIFICATION_EC8: B
MORPHOLOGIC_CLASSIFICATION: 
EPICENTRAL_DISTANCE_KM: 213.03
EARTHQUAKE_BACKAZIMUTH_DEGREE: 
DATE_TIME_FIRST_SAMPLE_YYYYMMDD_HHMMSS: 2023/02/06 10:25:03.7275410
DATE_TIME_FIRST_SAMPLE_PRECISION: millisecond
SAMPLING_INTERVAL_S: 0.01
NDATA: 14501
DURATION_S: 
STREAM: HNE
UNITS: cm/s^2
INSTRUMENT: sensor = ACEBOX/SARA | digitizer = 
INSTRUMENT_ANALOG/DIGITAL: 
INSTRUMENTAL_FREQUENCY_HZ: 
INSTRUMENTAL_DAMPING: 
FULL_SCALE_G: 
N_BIT_DIGITAL_CONVERTER: 
PGA_CM/S^2: 19.729
TIME_PGA_S: 
BASELINE_CORRECTION: BASELINE REMOVED
FILTER_TYPE: BUTTERWORTH
FILTER_ORDER: 
LOW_CUT_FREQUENCY_HZ: 
HIGH_CUT_FREQUENCY_HZ: 
LATE/NORMAL_TRIGGERED: 
DATABASE_VERSION: 
HEADER_FORMAT: DYNA 1.2
DATA_TYPE: Acceleration
PROCESSING: Automatic Paolucci et al., 2011
DATA_TIMESTAMP_YYYYMMDD_HHMMSS: 
DATA_LICENSE: U (unknown license)
DATA_CITATION: Turkish Accelerometric Archive v 1.0 - Disaster And Emergency Management Presidency, Earthquake Department
DATA_CREATOR: AFAD
ORIGINAL_DATA_MEDIATOR_CITATION: : AFAD - Disaster And Emergency Management Presidency
ORIGINAL_DATA_MEDIATOR: AFAD PROCESS SERVICE
ORIGINAL_DATA_CREATOR_CITATION: AFAD PROCESS SERVICE
ORIGINAL_DATA_CREATOR: network: TK
USER1: GuestUser
USER2: 
USER3: 
USER4: 
[...]
4.224575614495642
5.447536741747579
6.57880755613857
7.167674844038105
7.326301011754263
7.108177085770329
6.472357324940823
5.756489669391149
5.494793167212122
5.614499067489853
5.680688010836402
5.695813572554246
5.935613025694633
6.109965882889966
5.757465352852943
5.2289807962527926
4.6390567202119914
4.004006297646966
4.179383412293924
4.964842207389769
5.62423526556546
6.3371813174459675
6.852264384087756
7.16096302550249
7.307778162031643
6.599819843841408
5.640474474304854
5.2055512804754684
4.8336797082565734
4.445086326321052
4.143156976566255
3.9795082856175705
4.098971023356156
4.167111494955703
3.8469531141836217
3.3164253287989944
2.9828374835482983
2.47229606821985
1.3734921541406726
0.49444533772147087
0.16420222352500835
0.23282283930714703
0.8736605913392966
1.5272414849431482
1.7821867796416364
1.9145949118760865
2.108828089276021
2.093227958284707
1.6585089366858419
1.6501015476853744
1.9137497483039574
1.3392116233364508
0.6420849226322274
0.23467365125964518
-0.2591453150001696
-0.08358750131266655
0.6618016072808545
1.2378512492423748
1.5771718966411894
0.9044630409061639
-0.864680258847446
-1.9142242085870627
-1.2911339648042237
0.3278124159826583
2.224229734311478
3.851428744816323
4.91863926418916
5.379840657892234
4.967138689368818
3.908775387664396
3.3731269858041593
3.9360813967701533
4.740337564884852
5.01914347004745
4.847828945714527
4.531264849931212
4.663168861043298
5.503975701826778
6.433379815859245
6.976589613737292
7.199622917530344
7.314610233169975
7.448649264312818
7.50725762509515
7.456132076461476
7.510484571308834
7.739083343489506
7.639757769816964
6.668929191967503
5.204198438054526
4.218946536980869
4.047627614520331
4.044389199674973
3.569132958060986
2.8005375729070425
2.135500153191535
1.534000641460576
0.9883781856183259
0.7247680321501482
0.7535902175398718
0.906085324831804
0.8315019799105855
-0.05888560814044219
-1.6639078619751784
-2.787965133257328
-2.527155700311522
-1.2573140766598145
0.3333248418221195
1.9799578249905496
3.1152578419636057
3.023947289435486
1.8432532656337601
0.3933453285803481
-0.5256147891409222
-0.6432180678000511
-0.31789891730372527
-0.10432068597400797
-0.4472258259021989
-1.2411598748022823
-1.799085756081498
-1.778083781427578
-1.398529046876115
-0.8761469785966437
-0.33734780937392345
-0.024198344923310338
-0.14141878404850725
-0.4038329953474827
-0.42196840702283833
-0.4658844467481645
-0.8237068752177775
-1.206212129665412
-1.4378852763474606
-1.5413281207255418
-1.3782052572202343
-1.1268913366099471
-1.3872806881008253
-2.48264606346964
-4.1251103278815275
-5.8310992322721376
-7.282776066310739
-7.9308211251063225
-7.37279467569023
-6.266773577691345
-5.32160471179565
-4.463171136194715
-3.671646123210358
-3.0606444690957844
-2.42894496697471
-1.4858501704897187
-0.3003961170771204
0.7965606741843635
1.669639948899544
2.4014434902664084
3.2560835005822013
4.350780393174862
5.456767063254837
6.487203848112546
7.371100322869276
8.11598338143249
8.929970811999857
9.51290712584844
9.543079870690626
9.381497924614614
9.562228582694912
10.235921744211097
10.879347529309593
11.091543602637726
11.11817183594282
10.90016850002422
10.254242022622476
9.367726272218274
8.37552916520082
7.724048982378
7.796506321449752
8.141132401175803
8.414250590461734
8.608107414858154
8.618205457418641
8.742360629501844
9.391571144873687
10.4220676151506
11.168051298231132
10.966957404251936
9.923253650146995
8.589091149481362
7.258727271955969
6.153191496295472
5.479264075193428
5.172913693928703
4.983854976416236
4.792556592431901
4.559116594291701
4.0873737812248665
3.4245679988390894
3.116021431801606
3.5037857988732357
4.271188823542074
5.013886292865577
5.69720091983917
6.376470681892194
7.046664756740812
7.720767389191727
8.304522641708024
8.687365623923538
9.080830492581441
9.817831504469662
10.74765285842871
11.336502253753915
11.284398538734981
10.733772416621933
10.04718638900242
9.522891960200056
9.375984071330457
9.58136034392016
9.837760978553678
10.201276051429337
10.782265430797912
10.99734612018177
10.373071852856029
9.129273082790855
7.7042388953588805
6.481965649801326
5.681637657649499
5.534137522672104
5.943606639206797
5.945423972121028
4.849584042704381
2.9346336632328787
0.6112382904661072
-1.634903080596379
-3.278750898068774
-4.118421101655864
-4.06044827659407
-3.299446634414611
-2.3560302413752092
-1.7469159249834307
-1.7698502752276482
-1.8088364224616527
-0.973356504347049
0.46329278619278025
1.8705045055080198
2.8617117336506577
2.8315826662185186
1.8995641830954775
0.9381558074398169
0.18566023459922826
-0.5201625995521482
-0.9914640703583968
-1.0464064740054448
-0.830118179847831
-0.6104911866773214
-0.6634206522102296
-1.390045117936445
-3.0314578830848706
-5.109137152144227
-6.717382552593202
-7.361388060089005
-7.114488212115898
-6.364555336888019
-5.547734232203526
-4.93650901389149
-4.812056516970146
-5.379222907808341
-6.51949979133146
-7.895369324114411
-8.821401660714278
-8.504154424494761
-6.891570329327546
-4.874113678568277
-3.3493077180465707
-2.244172589935085
-1.0798966130395278
0.2866137185928767
1.9395876743525258
3.7732628534299293
5.511579648089368
7.009470614269014
8.180803361904657
9.097310799413142
9.837390508181974
10.670196961685596
11.788931831489313
12.487684990132967
12.46972025662334
12.054990113031788
10.807157201521798
8.842871161443895
6.924870561675934
5.030377431537061
3.4714131752270063
2.998452950603356
3.362006056212847
3.860785464681419
4.343753503813911
4.672084127344365
4.661746501314391
4.660362494593114
4.480551585816649
3.7969125163060937
3.342187937349467
3.1992394551412913
3.2024531441692017
3.8203137463027312
4.594806644942029
5.246192325614748
6.021947357931373
6.4682749604509855
6.468268318752585
6.325971094200927
5.882518035372304
4.705187073073153
3.2753533089217264
2.71020851528006
2.8892530304829207
3.5164884157490004
4.633453158339059
5.412315457635596
5.447974714598072
5.127544056098065
4.756533623090966
4.531862805237175
4.426580671990912
4.120639480137533
3.172933719073939
2.1307817203976804
1.6223164749032106
0.5362860708442733
-1.1909116152673767
-1.7436147444482148
-1.3667125794894237
-1.4327576287393295
-1.2933190599231619
-0.5730740427075961
0.28020968946692654
1.894228320600489
3.3235324553806977
2.910985311319763
1.891803722014842
1.419131547931014
1.4394093240781538
2.2857237131758135
3.4790067425275693
4.524051838512793
5.317175716471292
5.458669086300477
5.258092990408581
4.99370394885621
4.59521675900917
4.616796469108895
5.060784620038447
5.09898554568471
4.913169910019388
5.275173668897317
5.660519133133639
5.3673760283741005
4.926548061601102
4.668732826937972
4.225525857127852
3.460943294002113
2.534482560443736
1.9910916563865446
2.561083210318416
3.9159243203205913
4.713068330029951
4.322090469512248
3.106782884948915
1.708161541749772
0.8152003761977639
0.48563008684464354
0.3762721012877209
0.4883046149581116
0.5693109587666605
0.06209489528567494
-0.9394012066829138
-1.8481671795768906
-2.8003488667566336
-4.208032774552551
-5.622334288625253
-6.839111827866787
-8.109366529765339
-9.195641944630408
-9.946146159680609
-10.137844324324266
-9.543547599253515
-8.577795261367509
-7.5032665178636355
-6.62626700331714
-6.273925448527087
-5.838481351236209
-5.0680682606159175
-4.592562735468658
-4.591771844677174
-4.918464093953129
-5.509891999610469
-6.139521033172017
-6.4352172549608
-6.317911046266406
-6.169668314479549
-6.026047441432597
-5.7709058944534
-5.7019903984116365
-5.738864622131685
-5.785161507166906
-6.225097915905317
-7.116291269751322
-8.153095945138766
-8.871271366481102
-8.813206531450284
-7.67753805945683
-5.417981781880191
-2.7989222403977627
-0.6041366800932094
1.1741197844429458
2.6404673351638865
3.8337877346691154
4.456153627101233
4.125039588229563
3.4262521094083622
3.0278992063532226
2.8991747751613115
2.924963567649583
2.9013887654783352
2.699822186648572
2.417135225250377
2.082908079341182
1.7358291614084613
1.3633076238432658
1.1435686481011604
1.4495815893220716
2.2316843320398116
3.275231525946531
4.045271869425449
3.7075740398877275
2.4373549532258236
1.097695164420215
0.4179661673578247
0.9187076498636281
2.444388372155718
4.5796669105587675
6.577109023721747
7.306383437287294
6.711701249096226
5.700834077059775
5.15847487738246
5.139198249279102
4.665623690359228
3.636461283133385
2.9247220425767617
2.848921566717889
3.1850886905156464
3.170058117327505
2.301684513320033
0.8860204016964909
-0.7323930764765773
-1.8756547264413546
-2.0969549386122504
-1.9838547157981916
-1.8150020857745524
-1.2777712665215035
-0.4607718624057157
0.355739825983187
0.9638864281086248
0.9528294316782054
0.16916194020088737
-0.9489377853704842
-2.011762727121371
-2.803387565696808
-3.1210714829930044
-2.9004509230778424
-2.211155582385158
-1.5373446839186276
-1.3556097984766777
-1.7089819744181096
-2.85505321211059
-4.644020906158435
-5.970081339906684
-6.134213763603884
-5.372089488990027
-4.412162932162967
-4.090664198581861
-4.691676085951174
-5.949864471318922
-7.316851640711455
-7.967148157700956
-7.481073737559394
-6.25832065377247
-5.01878494841916
-4.364022235873675
-4.435710148893544
-5.02023574758644
-5.859977812717251
-6.588399124027744
-7.12393878322588
-7.518053294487633
-7.399095697407926
-6.776876027196528
-6.12849416410154
-5.511530841390476
-4.692244101105369
-3.3900268054629943
-1.5658525052706704
0.23615322303401923
1.347713614592076
1.568926239468282
1.3483147610436024
1.3141140916532
1.6944849930715935
2.4792822416784657
3.4334050645633583
3.9431156413653596
3.659573026592916
2.9306422667723973
2.2634653482008744
1.8583184867071152
1.6465904356989491
1.5895311993162085
1.8466750586689615
2.3357945228378205
2.6616996179879497
2.636022866453361
2.2398822022394573
1.547417410770546
0.7203709532129163
-0.3325362742674832
-1.796597672385706
-3.472390744048322
-4.7462734835110965
-5.13382133344245
-4.805361609871349
-4.291596939795212
-4.101476134705821
-4.746750384327447
-6.475362894434189
-8.890258923703536
-11.098209398388477
-12.419863634348639
-12.898952083285852
-13.038982072394289
-13.301727115477496
-13.879881820711258
-14.588474630789323
-14.890999888241305
-14.452331260776171
-13.656793505666933
-13.286039472423768
-13.72841897436218
-14.484373949060803
-14.828485034541753
-14.770003667710807
-14.571108730792295
-14.061948925548073
-13.014329225256727
-11.724385782176972
-10.865279645941307
-10.583550839516807
-10.632431932426876
-11.07667127306302
-11.526891087934606
-11.216303219590392
-10.42026111285638
-9.885497867250002
-9.61626357026368
-9.49214392651248
-9.73221217867106
-10.493831934633166
-11.799610638147218
-13.308227438840584
-14.261669979350678
-14.113510441006074
-12.835278767465427
-10.637230241844499
-7.700479642613655
-4.5975585100137
-2.458702906511328
-2.0208133777147657
-3.2234224034846455
-5.277615770196079
-6.847322810953853
-7.1762674008727485
-6.638581860817128
-5.979281764675444
-5.44281859147883
-5.027325477619033
-5.136943531289242
-5.734728845225775
-6.011250493112696
-5.371784077906362
-3.865589791804746
-2.286681923178127
-1.3115664901768378
-0.816626712733029
-0.52923683887708
-0.050572455547788595
0.7952397945680928
1.5733125015466016
2.0880813059994727
2.4953465025127906
2.8944191451662187
3.0794534357796572
2.7630914554098234
2.247133043298005
1.7825822434448997
1.2809985189856579
0.917940844536152
0.8062475800892149
1.2210578123713407
2.556238748160775
4.2557399899094275
5.367929832081301
5.736770427511028
5.766087543010375
5.588851760714876
5.028950293891129
4.260966680256932
3.558297976653586
2.8194945286546313
2.1318554218580714
1.6423755878942587
0.9573523264358745
-0.09409876648881949
-1.1919614722243113
-2.486697871890692
-4.259483367563202
-6.26074266835218
-8.15764784130026
-9.603184515747007
-10.46646342488869
-11.094757803206239
-11.752006268116583
-12.632273366866546
-13.899802966296068
-15.433121609689753
-16.983532429683656
-17.894842126047678
-17.43290370378828
-15.789326821828872
-13.764072335137
-11.959582127280733
-10.67136709115533
-10.121424775670251
-10.385742199790377
-11.163990051219898
-12.257102287878626
-13.526793054011549
-14.173229539195354
-13.452917592726868
-11.507537736602604
-8.972974308539388
-6.8103459193444
-5.5295354744156
-4.365689998010714
-2.6430660707970657
-0.6724169920956466
1.045577080050857
2.324029131664415
3.616825857274905
5.150203367251729
6.197327598855347
6.327482010763314
5.595227082708291
4.186298897885384
2.313985608142197
-0.290260382422785
-3.44158227321948
-6.4334897852913855
-8.928542906344962
-10.792325252419761
-12.700436280339956
-15.303264624374291
-17.758073323188036
-19.145612486316264
-19.224326851521027
-17.98278566791611
-16.03603173889129
-14.085366327171178
-12.138139571772953
-10.247917074204429
-8.957803904621315
-8.496300650625368
-8.46150104124992
-8.263752132735512
-7.713058276103466
-7.1131990530062605
-6.584732727948349
-6.199146475425228
-6.083571850778493
-5.738379231882513
-4.848771527670852
-4.195275103301096
-4.585728615464892
-5.71529466894079
-6.407417622273766
-5.705380790773415
-3.6824852079014647
-1.0452367979571073
1.6574208644865958
3.534435728315944
3.4065246416196477
1.35704620173273
-1.4660870220049926
-3.808507306326832
-4.678222945446187
-4.2146252058844
-3.246178647964992
-2.529884167011418
-2.634388179156725
-3.294138939720159
-3.9893259114062385
-4.604181002548803
-5.0621570291337585
-5.603235747164032
-6.564031499442207
-7.785770612720081
-8.578475694187937
-7.9234826052369645
-5.501608839390614
-2.3439819969417304
0.08301466632393482
1.286582067650082
1.9067767542271592
2.2125402681922606
1.8357795210384014
0.9995123713401901
0.22537920557131277
-0.2330548477121213
-0.10130073649489552
0.6858040173525571
1.9870546002691951
3.445577500502178
4.092356808194142
3.0987969568518485
0.557744957750082
-2.783260283745737
-5.75768386824998
-7.341469716543146
-7.425250884293004
-6.754890144890037
-6.20722387733303
-6.295556562723936
-7.3715586316057795
-9.424402570507334
-11.779758524906333
-13.720344152205133
-14.747812570447818
-14.639152829915998
-13.595113257959582
-12.037630355970682
-10.697506271387546
-10.211814516034462
-10.49632412491818
-10.83446231081222
-10.457307845006042
-9.322005069240896
-7.579996111090274
-5.1490042153881435
-2.5449330507578387
-0.36164334084387595
1.252062982355911
2.0310967276340883
2.1095993202490595
2.271177517742508
3.0510706813457404
4.61049259253083
6.984117102648464
9.809741521238845
12.404981570095435
13.918602864116748
13.675778258810205
11.92421009501889
9.344059210815168
6.3188290053161404
3.0440967994600534
-0.43581094398952097
-3.8606201395693187
-6.966924461268605
-9.776567904979487
-11.86631979221162
-12.469987085967487
-10.930236471732714
-7.445526734392359
-3.3953825497472327
0.313355895181177
3.0962220739575756
3.936916173093193
2.636847174751267
-0.30678445691466355
-3.8460803582527916
-6.632677072199378
-8.329480633432084
-9.063767234809157
-9.04854638628131
-8.439320848691638
-6.782626653389401
-4.057082032769898
-0.8603281259770692
2.1611698050252226
4.57141468658611
6.511751985106108
7.946155478487421
8.507594564788684
8.122913933298795
7.34542989439746
7.276361285245584
8.107897306398742
8.746106634436535
8.155702421568728
6.223120048756452
3.5688373843994974
0.5780648073266286
-2.335018403714327
-4.325262700644392
-5.23935377571619
-6.164919330915899
-8.491811457261498
-11.829457102936992
-14.244705727034285
-15.130241167145016
-14.967471125180525
-13.973624450802816
-12.550546862213578
-10.63686106206044
-7.512298160263438
-3.009743847815822
2.194086239313627
6.981874113136801
10.378011706127827
12.274771824696986
13.508354059874232
14.789523781049303
15.881571303687107
15.921311075069006
13.91791639774189
9.851064534747419
5.073212825704198
0.943883511730234
-1.8546823287767815
-3.6706434261169147
-5.605140206354719
-8.103797895977898
-11.094198754680637
-13.88316770675447
-14.829391928151738
-13.36008164032351
-10.442537005551403
-6.935035948403497
-3.2648433864566515
0.25466317730852306
3.290670647982008
5.593693367353623
7.2196871000148075
8.247608239696904
8.376848484564167
6.78457028937521
2.924805953313594
-2.2879318165085807
-6.996550546469718
-9.521736598700281
-9.234122661281493
-7.654115784678685
-6.749367227546027
-6.644856556951436
-6.940425327301843
-7.013851486444931
-5.683320720506339
-2.8144434707865598
0.9418489200963931
4.740364127671138
7.649600393580892
9.082707519393669
8.730227252749447
7.745885640138851
7.143572266759949
5.888324882591735
4.015296540747983
2.5862531212719566
1.7823327333451997
1.8241868840777544
2.5760868078085366
3.536481580347322
3.969927475367674
2.8264458692143086
0.20198140035573292
-2.652957902806825
-4.381751902320003
-4.546407612958346
-3.8750723671917693
-3.027004176636117
-2.2605926145847626
-1.3742354329770672
0.20096250303842952
2.6172220315595913
5.475601590853731
8.14081554505575
10.3306393752905
11.55822682003442
10.528648755546604
7.103222670870987
3.077701479654025
0.04282564743248822
-1.5451290454705058
-1.7309935130105094
-1.137193246234572
-0.428827996851774
0.17145587108531873
0.36766269454445377
0.866763998486444
2.7480329497644194
5.461459397514346
8.153689371684665
10.095204326106
10.746709258129938
10.735384087895653
10.734742706787815
11.199689164692222
11.747538873125436
11.184685626467397
9.858174756189548
8.46042428583541
7.172224388231379
6.909546299784339
7.957856288696145
9.732067430424667
11.579257517997132
13.128550960916854
14.441758381872777
14.362567229952921
12.634081270391443
12.487660605932279
15.113695588094245
17.411312916201556
17.58417313328381
16.205177708293093
13.952157843589696
11.605453665749954
9.876083627093035
8.8658543975182
7.982199185475167
7.040855349410903
6.654650263606845
6.733171380031669
7.086755565934831
8.100584818211308
9.42273642844319
9.86811582377201
8.295287221702727
5.4272223754108335
3.464637061733381
2.7395067362971313
2.6298660574802146
3.3729567148067305
4.606104077702574
5.728721696143444
6.22225298391653
5.427135434662146
3.8553589951958296
2.2851361256921723
0.8007277340014269
-0.3143264469940644
