AAD_Filtered_TADAS_FILE
AAD_BASELINE_CORRECTION: BASELINE REMOVED
AAD_FILTER_TYPE: BUTTERWORTH
AAD_FILTER_ORDER: 1
AAD_LOW_CUT_FREQUENCY_HZ: 0.025
AAD_HIGH_CUT_FREQUENCY_HZ: 40.0
EVENT_NAME: 202302061024
EVENT_ID: 13207
EVENT_DATE_YYYYMMDD: 2023/02/06
EVENT_TIME_HHMMSS: 10:24:47.00000
EVENT_LATITUDE_DEGREE: 38.089
EVENT_LONGITUDE_DEGREE: 37.239
EVENT_DEPTH_KM: 7.0
HYPOCENTER_REFERENCE: AFAD
MAGNITUDE_W: 7.6
MAGNITUDE_W_REFERENCE: AFAD
MAGNITUDE_L: 
MAGNITUDE_L_REFERENCE: 
FOCAL_MECHANISM: 
NETWORK: TK
STATION_CODE: 4406
STATION_NAME: 
STATION_LATITUDE_DEGREE: 38.34388
STATION_LONGITUDE_DEGREE: 37.97378
STATION_ELEVATION_M: 1050.0
LOCATION: Kahramanmaras_Elbistan_Turkiye
SENSOR_DEPTH_M: 
VS30_M/S: 815
SITE_CLASSIFICATION_EC8: A
MORPHOLOGIC_CLASSIFICATION: 
EPICENTRAL_DISTANCE_KM: 70.17
EARTHQUAKE_BACKAZIMUTH_DEGREE: 
DATE_TIME_FIRST_SAMPLE_YYYYMMDD_HHMMSS: 2023/02/06 10:24:34.1517780
DATE_TIME_FIRST_SAMPLE_PRECISION: millisecond
SAMPLING_INTERVAL_S: 0.01
NDATA: 10501
DURATION_S: 
STREAM: HNZ
UNITS: cm/s^2
INSTRUMENT: sensor = CMG-5T/GURALP | digitizer = 
INSTRUMENT_ANALOG/DIGITAL: 
INSTRUMENTAL_FREQUENCY_HZ: 
INSTRUMENTAL_DAMPING: 
FULL_SCALE_G: 
N_BIT_DIGITAL_CONVERTER: 
PGA_CM/S^2: 318.751
TIME_PGA_S: 
BASELINE_CORRECTION: BASELINE REMOVED
FILTER_TYPE: BUTTERWORTH
FILTER_ORDER: 
LOW_CUT_FREQUENCY_HZ: 
HIGH_CUT_FREQUENCY_HZ: 
LATE/NORMAL_TRIGGERED: 
DATABASE_VERSION: 
HEADER_FORMAT: DYNA 1.2
DATA_TYPE: Acceleration
PROCESSING: Automatic Paolucci et al., 2011
DATA_TIMESTAMP_YYYYMMDD_HHMMSS: 
DATA_LICENSE: U (unknown license)
DATA_CITATION: Turkish Accelerometric Archive v 1.0 - Disaster And Emergency Management Presidency, Earthquake Department
DATA_CREATOR: AFAD
ORIGINAL_DATA_MEDIATOR_CITATION: : AFAD - Disaster And Emergency Management Presidency
ORIGINAL_DATA_MEDIATOR: AFAD PROCESS SERVICE
ORIGINAL_DATA_CREATOR_CITATION: AFAD PROCESS SERVICE
ORIGINAL_DATA_CREATOR: network: TK
USER1: GuestUser
USER2: 
USER3: 
USER4: 
[...]
-47.32757301318795
-40.6359608580504
-20.46430638580826
-17.408175265375853
-35.42030801479649
-28.178342995428817
-29.422373490523032
-49.43181019004428
-27.636868285752993
-6.040454535188672
-19.936363223616766
-9.713554401491997
2.3911935428972506
-0.029493965779263512
20.285749132593768
-8.41125562217347
-57.95683388796852
-37.92194591642041
41.08670606050819
99.28292407154288
101.73073988757089
87.15623216318141
61.569863012870925
20.10484866040837
-23.800233430446248
-13.319784926484802
27.745390155506744
37.06986750343222
32.94152422689265
3.5370310231968944
-25.17370941885855
-9.823318701664242
32.33528996933229
62.15096286715355
56.67480187626899
67.31726935354683
95.37466751663615
89.04611135315609
77.41973313197441
87.72880201031818
77.26787079778909
53.975977797984356
54.07209050307441
65.78468157189316
57.559474629424045
24.367895006339943
11.593884821164488
54.94021238887246
83.44370164478607
55.75032768352349
23.1406557372627
15.61028726141986
11.909136574078422
-9.160888448069947
-15.765106391093012
0.5241227171184482
-10.241814071328367
-37.06247018348621
-4.29036266471759
4.411096470323442
-56.91092305866116
-64.07593430537501
-14.799031838529348
14.808391569507117
23.766379939292197
-0.8211756530963917
-71.6429790590805
-120.26358751892595
-59.56353775063089
46.783087986657655
56.02298915359723
43.331149391811756
61.278440055828796
23.654310702374246
-14.6474953737837
-35.42424770633026
-50.19489580732997
0.08360566740597497
34.46186570033751
17.38695357107909
-26.121670127215356
-34.42173900393189
45.641604335139604
82.55383610045715
28.551695086781496
9.149865689769392
158.0269849533788
255.4578759333791
125.61437089508732
2.67564411407185
-32.657716715699515
26.55622019741977
53.539347382005715
-35.41994870336386
24.531270058991314
163.01612838791354
107.41076199221185
-30.904752112300997
-117.45717905809629
-102.54262196291494
12.743271710790061
38.70870371555209
-19.80577786484887
-16.438452521678997
-30.291630646177364
-47.97448506331514
8.915297299137073
29.0475710427077
-8.735981296093382
-14.728678764586704
12.600394838211901
-7.574029735968752
-70.43009692069667
-122.89364216941219
-82.31454942051026
-42.479646354317445
-120.85985161067416
-116.02422124266816
3.4843140281742175
-5.398215483689731
-89.43024205790132
-107.73771935105513
-144.8519385978583
-151.91878128521498
-69.97304108913715
10.215159221306529
13.94446102373695
-79.50440384296542
-118.15535533515381
-37.03197664716431
8.211328332676
1.568996724639734
-2.8587718857959112
30.854098493774455
66.5713623064293
49.6935844187424
31.255225215312198
59.9473558962309
158.5558848509462
164.1463176003886
51.8365190357131
10.824928377386886
6.755809125127653
-2.9849113363647994
-3.3707007759802
20.509802794603466
37.12167097498588
37.03186539404361
7.970610330942684
-51.05998969450581
-14.98083058026676
101.26312077563747
103.428147672732
-35.69579486862836
-2.264794252626356
157.02315568385058
153.49231561026943
65.12281670481418
13.818992211616266
35.70674887859824
41.24654535677168
-14.761877613397965
-12.549913283794938
40.623824771273235
35.14000313053319
-1.6927433656820574
0.3036940102188221
55.20854842595692
57.577017793481424
-7.292603698850209
-31.634805569857686
4.173645312121549
86.83078836906867
135.65501917594202
71.18641350619156
12.465715481096954
36.401147561605285
-9.76049681266228
-22.079813428455218
50.45082319139148
35.2629034493735
22.412554868752185
48.94350082376733
-26.111543767922864
-150.82651937510735
-131.9262803791666
74.57583513718293
179.9459300126187
75.1411446035375
-19.177920577140835
1.277146369005237
19.206083381779703
-43.831331254572035
-108.16712255878687
-121.02530030624298
-99.5036279806226
-110.55604026113372
-142.08067135725327
-121.07758426520788
-12.153149399036803
41.11832593906508
-88.65517967560939
-179.5161565551627
-107.24155946348708
-21.9151712775771
-1.2872517009800621
-117.69043914088897
-66.94846106480215
176.51643603192636
135.32245069960362
-73.70796171214256
-156.88920522133895
-106.27141251417717
18.017394782793485
125.57086838874605
193.3521715157912
165.09014197439132
-20.90493218573966
-100.74858843464233
23.479373663821807
-6.492555062251164
-65.87441556103575
86.50835073158352
164.05320502037438
127.23272258639614
6.051011904493868
-66.62417412752919
0.3161152716256013
45.18752781637121
70.19621146149545
83.46960116656689
112.8841840870044
66.79707287637181
-28.73877972069658
-64.74742973816086
-59.91330741406539
-91.45982133136539
-24.51272712718322
152.40901579951108
65.41928508218365
-91.73754666583456
-70.81497463387466
-8.866935520353442
10.294855028974156
7.986337606780189
17.558969196328228
-9.71919050012698
-65.71177847657358
-97.81332225196277
-55.25275472359465
29.272619476089254
19.864557324560767
-85.96295015358801
-117.3961689950786
2.4893958236767566
10.572527440989868
-72.67889523393525
5.841159462791311
38.7556904678152
-14.89194878714116
-69.75548595050495
-116.2273634812247
-30.883695361832604
46.44732621893424
-67.95443330277365
-157.395741465756
-37.9919225945511
94.96815844627777
67.38856330816314
-49.60657067938722
-67.3793151944951
-30.870040408727434
-78.52089312541199
-64.3184942747278
60.91382304865819
101.9173795530742
-4.265161889877654
-52.05563001502513
25.128524873805098
79.91847848368529
9.478410776231204
-56.525943630691486
-55.20751944392588
-43.329662669741516
12.44420926929036
20.269853941559663
14.377993977064724
12.30300949071568
19.11217012625068
68.10395341445472
-0.6607165737155242
-101.83025991372408
-105.96050585938073
-100.64871846789525
-54.78994781705453
-26.85622961677905
-39.321115177908084
-24.846341190247976
-17.218497732495536
38.81913534437174
21.138960579863532
-51.82266380968927
-5.714247312277305
27.234767776490965
30.122049355518946
26.715107392947758
-69.74974713925529
-108.49791323306907
-75.36868051979886
-57.8609948154975
17.56664736561864
-0.8963443994293371
-134.45980618487906
-98.85273990042538
5.703925262758551
-38.01924370066974
-39.52806117130873
28.344295140271658
53.7712471650478
-1.6664237118065155
30.76036406573709
116.35908875992843
6.615478124170249
-40.368332097368054
36.739557757058044
25.985688123419862
3.2308310237861755
2.4744228453132973
-6.20054873926909
17.786703357724384
-22.38332687643786
-103.69070985040146
-60.963101311418654
80.85569230453515
53.56787513202197
-115.98931004658277
-62.40706514748869
58.0852305043453
109.93558945270607
134.1342548902566
-30.60333239055651
-123.7315358621801
11.10981109805811
13.47647403131964
-83.29590946335348
-16.883637682019764
-52.98888794942643
-89.8286222847254
-13.053830507287252
-32.141358970406245
-5.6571397087493045
39.065215142481634
60.99693481802543
77.39176893966108
-6.761466641148819
-20.319309869888013
118.04152054597319
80.46339025023507
-43.64912179088471
-82.62454844067803
-83.2726418500007
53.90468886172601
183.29196164712636
195.64143957729888
111.24985715616326
5.144275221747408
1.544766492248533
-82.32426721189228
-200.99204096102702
-80.37079087561247
101.2475654975562
84.16385095876885
-13.496888786324394
17.91527085503994
54.91487637855524
50.19738578482159
117.05922660848323
92.56449038414978
15.058855537338257
50.20852737189819
33.52172951777217
0.9896072485884865
113.82313326105313
183.14322650898524
105.42678941793376
7.120700364273679
-48.90463688658957
-71.98644342712812
-103.62726536154243
-54.42104159008941
51.73901928437824
38.27215552297705
-22.410214445145183
19.4869011248466
154.71626721784787
112.46492423373027
-94.9830796141543
-10.0083883203042
169.40898303464928
73.46277109765073
30.02325010471516
27.569885807145255
-43.81260640218988
49.4713380922771
142.73742204983213
39.54528542223969
-81.58753575175145
-162.80857877271737
-170.60451910708173
-102.8497295362266
-86.55126439625566
27.736593001651098
89.17718400693752
-82.72807546210434
-158.29163247275503
-32.41489044227129
84.26001592018298
-8.83158482324404
-82.63729932940358
134.95438334760263
244.23165458504747
68.55504385494031
-76.8232902379659
-125.36298044765388
-60.55449261023758
120.34586184781202
180.69410173872424
84.57526515359116
4.468401649178105
62.06684826059506
174.88124462221242
114.10627900463768
-8.075821273137866
-47.1642566010181
44.093993419597645
140.75912160704635
-14.321258751406397
-105.97106254185441
30.921889041223483
104.3008459905917
56.22416007980943
51.032788832374294
92.53929664553303
20.220121242570862
13.014258290971283
146.10818500774084
172.94643880885124
24.50037145645445
-68.02844510043703
9.446299279063174
55.40212347377082
-48.56832302231718
-215.79971556349912
-171.26703268073638
60.02181688703217
79.64077366038619
-39.97879685973176
-16.773836432191104
-62.64759783664184
-8.02616604396518
209.72403829168067
115.5215288139559
-49.500516336155805
-4.184610933846565
45.82593425675014
2.7269034082964327
-132.99766594443452
-212.4342660884122
-101.2622028465523
40.561470259801276
24.032067158738286
-118.92007419467504
-98.72817148808265
80.39121344909613
91.52351266480376
-14.968070500149667
1.883263533672205
83.36125298700166
76.93626314002516
53.290743974970496
-16.700271706973698
-78.1298186295656
10.465096120940965
81.19172236361636
103.98292946257841
158.72049316467792
68.81281954003818
-63.07783983921007
-88.72861633568408
-108.47928789030016
-39.98220589394378
62.39023049225855
124.09252072845567
73.9265433222707
-106.01007240457574
-93.83459510024913
50.840177911697126
18.791399760532546
55.61360973448337
112.21789410698929
47.738739674632654
102.39674328105559
204.78971053726136
123.62228306213623
-33.99533551230537
-76.0167702596292
-142.40916607613755
-78.68611389375653
142.16302501616786
131.09591649542904
16.432552281007705
0.8539724709993204
38.84530051514236
93.87664402799817
-23.956694374776365
-193.34672691713212
-105.27508811752693
77.8600620207114
87.70074455089919
54.912439527911594
28.262934533365176
-31.10221679132382
-11.672842037342349
-47.07425370373517
-189.8435502517961
-222.47077182447825
-148.6465291866423
-37.56729888624724
90.24039267571155
174.3952494427024
104.86773833657644
-53.85318113644976
-56.81630822510435
-12.083103194790127
-19.525070678765484
-45.26275276793697
-90.141112323812
-61.88294515908018
-73.72538752397686
-190.43359887129847
-210.03846705739033
-129.77697093592786
-64.01024993413516
-102.49128935886544
-199.8163852138539
-53.82406492472013
145.49732525332237
49.68857147969086
-80.22733985588272
-150.75770517786916
-161.39613271113436
-22.432772408946864
-6.5476379370607525
-66.24417462053461
22.228071844073177
68.98168443996364
20.527221317331716
29.303600317710973
92.73658521616173
38.34423310018631
-19.492590720624108
12.17886405775055
39.99438786386692
107.23060674791778
71.74027105968366
-28.223796051341335
23.376062367606778
66.70084039813649
46.62707715670479
-3.528265306014565
-148.01679409695052
-132.031116652329
29.521900836706877
32.0307001351483
-79.52486053855179
-147.77447465516815
-97.54799386495773
-6.9757014919422105
3.3669228103883073
-46.55175959166279
-138.73711271719978
-141.67816751924113
-59.370471369048
-10.541111523865386
29.330240872868742
93.35057173501797
94.97265786188373
32.12974628683115
42.0131501888124
121.94977711944111
112.3308349074296
-34.16257296325056
-116.28578020291789
-13.696031194551303
132.8928500891617
98.60068720125203
-9.785409851455775
-25.685137516892052
-24.79551063784024
-38.66298483101584
61.02983329106232
132.8564940065542
105.57219320921014
145.93888849952273
113.93650527139859
-41.196880706501354
-112.2044971307294
-106.98623921222895
-103.2181957533848
-86.32939549370168
-136.24485756891926
-193.70616888534104
-113.05223377163631
3.7595611829129125
38.95489076597807
42.72039071460721
-49.97871019509475
-221.81333152717067
-203.19112869305894
-37.520013471803814
-2.5670377583049033
-25.326445768098555
54.0627910116762
237.2484682174077
279.25429809553657
130.74477619798657
9.324025115773198
-72.36360672376883
-6.78458583415185
103.71456796351511
-17.785579153872213
-168.05671241901274
-65.28968440328688
57.57333697299585
-63.27912225561657
-205.3426476748211
-156.74784253436803
3.9394501334815555
27.573848861829813
-71.90550825734697
-102.08440089825433
-92.97721518943835
-24.05098044244022
129.91062946888724
219.5948671244045
193.07891099270023
187.8151110542111
185.81038375835996
110.81792804819362
22.196805054734682
-35.80651455295749
-70.17609141615412
-28.150122729478674
77.45333061387645
85.836086968993
24.261717657043306
-37.73264910594232
-187.83162946716945
-236.57907328092696
-94.28380914508001
-20.125764385211696
-37.5844301889201
10.313123200522172
68.00614286745123
-2.178092435421016
-80.4131989743246
-4.839848259718345
158.22457231693116
266.3549258522058
311.98836484757976
158.44940469621437
-87.79951672168919
-154.40463807111627
-110.89443549393528
-6.192413886216996
95.59789718277325
126.62045700154849
93.43122914172072
101.89204021014079
99.35021209852532
29.14753624437316
-9.51935113639286
-32.93011429758108
-21.51314233749768
4.987988636286865
-39.463768033857946
-53.63129170886017
-34.32107993878143
-3.068973438482054
33.91847102497711
14.924516900395824
-8.606736373673792
-32.64065516160484
-31.33679658549491
-15.005890237070739
-8.16870564647894
-5.326204430212684
42.59773346849933
66.30621429557432
-15.759965438480474
-19.23210836037757
31.9907841728554
-6.773574737725034
-57.06820135731656
-93.65720945383597
-109.56051966798806
-53.67853928869331
-38.75278068023418
-20.40782441242484
58.01247241578784
68.86373381441093
37.81643193289328
11.293962247947421
73.55974927734893
135.8481219908586
25.6317058250341
-86.67853863774718
-32.186325239646415
-3.892928572847799
-72.65407373601448
-106.09998251056632
-34.92362289304789
48.7136644127179
0.7727968097070271
-34.571511198329624
-33.2030796647789
-60.20636634272806
-54.31094401983963
-41.60188034758488
-28.155762369032924
0.954459259783268
28.927715886211708
8.3022557316469
-71.93848382426783
-69.64696198861883
-18.360109882917367
-32.18620840894613
-53.46581435140507
-42.77752731691896
30.361257851656752
111.40938937757895
77.61825331627918
-47.78186700663024
-65.6337074756728
-25.249703173104
-81.74482188849908
-78.68231763178947
-36.93911316807509
-56.06610039862528
-4.6687718000835154
102.65964884141846
155.0303975813394
141.20125608093284
117.15418606533743
110.59977020361278
82.89437185047096
56.14154387219081
13.08387877211868
-46.26183838159559
-70.23046220138843
-46.03242584572577
-112.74017887045981
-58.46714850831597
75.3425637477052
-66.56048548602953
-122.42822850225686
-24.060156463749507
25.75896395776605
73.57349583509776
75.18461871447141
9.345885321650872
51.22013471514584
93.26771201428693
-63.86749211633121
-98.9265124799042
4.753315606289082
-14.594443310246852
4.710918889198621
58.415475998243764
36.404280443058425
3.9873644417300858
-68.16443814200878
-130.1186252673287
-105.85782619269305
-74.28430058567567
-27.927783440646934
34.431214439804236
74.43158317162606
42.21535522459248
-67.35269186838333
-96.26990790988481
-68.48018830654908
-77.82497958936699
-75.6281031655124
-47.435209042541935
-11.215279762903377
11.57288383486451
29.75030358434101
71.90763757144906
29.36494815483481
-80.01316746612375
-52.3809283673673
28.578501654819327
-7.352144960809687
-20.207818771870112
-13.043736968520513
-65.59971242544334
-113.58281203912938
-72.41412087107311
-6.711877892925819
-37.8065573384523
-8.521191990450818
116.7714676999053
110.72152658700469
31.07913134862156
5.81123848871942
-78.6158976646099
-104.68928434998925
-2.2587666311503956
93.80458442877035
95.31465222917866
28.5504468155876
-1.551376397701689
-23.45985012420253
-89.10878489260627
-104.80954257762971
-8.824952197536907
38.27413838394445
17.192543312158932
43.36570937475122
58.59886701217753
37.89436356239052
-9.268522461947645
-69.71099286045715
-51.270150990513756
24.01080030215089
68.84288644967063
8.324068516986573
-39.94312366826466
27.23599868689832
22.965461337709314
-89.0333673099995
-111.48403714941207
-40.7017144030303
0.9436951062781722
-64.51345524132962
-103.64740516191543
33.12953254957939
106.36136365771462
46.87975880876899
-38.694229616993674
-0.8676384696639728
46.138134379935416
-23.8512690586157
28.35783394071717
87.02007794139554
-38.93433513440651
-155.31397311929373
-133.06071240810496
-41.8488596793737
40.75576786458776
39.056019258153384
30.78610500809802
48.43409565138748
-13.532587298856265
-78.47336695835362
-26.042470107211805
60.60931953019425
94.4807359321131
94.82578246217538
54.27974710614478
12.860465385748354
-7.735800981707324
-112.86100084333499
-149.61484221964253
2.2825492825320026
60.28133644720849
-49.16138374307304
-73.49414214685967
23.54845972008284
38.22097741769798
-47.49085929436369
-26.64100995804041
50.78580394780455
-17.999557737583288
-68.28998225285555
22.189433758897835
65.94113151275228
52.851085046433944
-7.363908325419119
-54.38467911967344
3.816424337559393
14.235430269271305
-11.883396178505523
8.54709775476177
5.401135463831821
-35.51238176988706
-38.312895625877786
-6.476618456996133
-14.868830968997893
-63.67630958820409
-47.849884963011746
2.0644610046991407
-25.447561535779506
-55.3669018815141
1.334597763901691
109.64394335703663
156.323589914195
141.6127356480876
119.4615644498912
93.26792032537321
75.78774590274625
55.620381249615264
53.63099291830782
70.84272304319215
100.05422096198923
37.09636884021002
-39.86602316351254
37.26421196878425
80.71323240272707
75.9741334019156
33.18730063235076
-38.026385767692084
18.1711935042323
115.33393529111544
102.46897829433948
12.801389877473481
-4.469096599062533
48.48734634877699
35.01207262451099
-41.22674071255014
-35.213290280707334
32.59886995045172
28.867609000600947
-0.9576680408781499
-36.4558273001013
-79.04699023423487
-62.2269780993647
-58.58764370660706
-42.649438044749324
-60.03139375904837
-103.23295345918395
-46.104052454386
-9.171001076057664
-20.647291540220216
-12.240353073188366
51.76177950984528
63.25720752859776
-52.992440102012054
-110.45420925103207
-30.603106980258772
64.42623574876859
59.27443960971045
-40.01825268103616
-98.94796806174965
-47.40245984798603
-14.072474654137178
1.119203513291529
