AAD_Filtered_TADAS_FILE
AAD_BASELINE_CORRECTION: BASELINE REMOVED
AAD_FILTER_TYPE: BUTTERWORTH
AAD_FILTER_ORDER: 1
AAD_LOW_CUT_FREQUENCY_HZ: 0.025
AAD_HIGH_CUT_FREQUENCY_HZ: 40.0
EVENT_NAME: 202302061024
EVENT_ID: 13207
EVENT_DATE_YYYYMMDD: 2023/02/06
EVENT_TIME_HHMMSS: 10:24:47.00000
EVENT_LATITUDE_DEGREE: 38.089
EVENT_LONGITUDE_DEGREE: 37.239
EVENT_DEPTH_KM: 7.0
HYPOCENTER_REFERENCE: AFAD
MAGNITUDE_W: 7.6
MAGNITUDE_W_REFERENCE: AFAD
MAGNITUDE_L: 
MAGNITUDE_L_REFERENCE: 
FOCAL_MECHANISM: 
NETWORK: TK
STATION_CODE: 6303
STATION_NAME: 
STATION_LATITUDE_DEGREE: 37.7524
STATION_LONGITUDE_DEGREE: 39.3291
STATION_ELEVATION_M: 800.0
LOCATION: Kahramanmaras_Elbistan_Turkiye
SENSOR_DEPTH_M: 
VS30_M/S: 986
SITE_CLASSIFICATION_EC8: A
MORPHOLOGIC_CLASSIFICATION: 
EPICENTRAL_DISTANCE_KM: 187.12
EARTHQUAKE_BACKAZIMUTH_DEGREE: 
DATE_TIME_FIRST_SAMPLE_YYYYMMDD_HHMMSS: 2023/02/06 10:24:59.2651230
DATE_TIME_FIRST_SAMPLE_PRECISION: millisecond
SAMPLING_INTERVAL_S: 0.01
NDATA: 13501
DURATION_S: 
STREAM: HNZ
UNITS: cm/s^2
INSTRUMENT: sensor = CMG-5T/GURALP | digitizer = 
INSTRUMENT_ANALOG/DIGITAL: 
INSTRUMENTAL_FREQUENCY_HZ: 
INSTRUMENTAL_DAMPING: 
FULL_SCALE_G: 
N_BIT_DIGITAL_CONVERTER: 
PGA_CM/S^2: 14.711
TIME_PGA_S: 
BASELINE_CORRECTION: BASELINE REMOVED
FILTER_TYPE: BUTTERWORTH
FILTER_ORDER: 
LOW_CUT_FREQUENCY_HZ: 
HIGH_CUT_FREQUENCY_HZ: 
LATE/NORMAL_TRIGGERED: 
DATABASE_VERSION: 
HEADER_FORMAT: DYNA 1.2
DATA_TYPE: Acceleration
PROCESSING: Automatic Paolucci et al., 2011
DATA_TIMESTAMP_YYYYMMDD_HHMMSS: 
DATA_LICENSE: U (unknown license)
DATA_CITATION: Turkish Accelerometric Archive v 1.0 - Disaster And Emergency Management Presidency, Earthquake Department
DATA_CREATOR: AFAD
ORIGINAL_DATA_MEDIATOR_CITATION: : AFAD - Disaster And Emergency Management Presidency
ORIGINAL_DATA_MEDIATOR: AFAD PROCESS SERVICE
ORIGINAL_DATA_CREATOR_CITATION: AFAD PROCESS SERVICE
ORIGINAL_DATA_CREATOR: network: TK
USER1: GuestUser
USER2: 
USER3: 
USER4: 
[...]
-2.7622897465995804
-2.811286494151406
-2.8727673765207817
-1.4927132559575247
0.6909431540435775
2.8012899417021297
4.203424577583211
3.859553297138263
2.540509166416231
2.996884296875506
4.955019119065545
5.154019084933022
3.8527908312787176
3.6199688687545755
3.797990439135854
2.8601694297285265
2.178014589124419
3.317790579614564
4.786730876883745
4.131152813231978
1.5991124472620069
-0.5329593419218286
-0.717444613484882
0.7695459354538132
2.246033010428987
2.8008199877154984
2.8881022032476062
2.774120702101893
2.305014264009115
1.7630474156992866
1.8554567033841851
2.4851212906365046
2.8819941726700473
2.8334224403538366
2.15591212587619
1.49081540356805
2.337484703525393
3.8602408499965404
3.795659169433641
1.899251590261308
0.3743451470652145
0.49819026424045687
0.424560497847652
-1.490987667703233
-4.269060109085107
-5.830647312432766
-5.151995550884523
-3.554697882788157
-2.5825122827966385
-1.342809662909638
0.6111225862616422
1.637639716708619
1.8223930477759345
3.0222907689134275
5.357193397395907
7.464341813556628
7.680600067526714
5.253515223481611
2.1098173494703607
1.4476957884205242
3.351949164498995
4.720710458159537
4.789233835530747
5.497501442774013
6.579227826955226
5.332012498789812
2.2556771101127486
1.4287102496667015
3.6557748116813458
4.793349207116797
2.800893090511223
1.3380860280246063
2.4714319590139713
3.1712943912464313
1.9290905806530012
0.6577579891856792
0.1918662412525068
-0.011884608646335742
0.695141808909286
2.38681604324097
2.561407075886384
0.3691666542198895
-1.2787338182013976
-1.0671118641384216
-0.97280646235292
-1.4738322973702067
-0.7336472799333087
1.3367012105172515
2.096513312629138
0.6705513164539811
-1.372716995978943
-3.0628829624644056
-3.4166051702697646
-2.6678674324211546
-2.3775877548535425
-2.6247094061236296
-2.717306492498095
-2.3564000116009893
-2.0922303644602454
-2.39992279800365
-2.2079207742244455
-1.7379114805655338
-1.9432059111619133
-1.9871738006353379
-1.0756324488445808
0.2548023471611789
0.9529931512632754
1.8280178856587799
3.9646225350892084
5.795840491814006
5.020418091778548
2.550292372538537
1.2355585847811998
1.1211858609073453
0.4622516939450779
-0.9411909961030628
-1.3600272893381888
-0.46938527844324096
-0.34220413488373874
-1.767934916060223
-4.250262268505081
-7.106772085611326
-8.445561764668911
-7.241269416935792
-5.630449244200161
-5.57500015509097
-5.8748580057307365
-5.0643308405524
-3.5070725372754774
-2.4731967981101626
-2.1188097917678883
-1.0517217309305618
0.30351291103677613
0.40548744640096135
0.02872131937915854
0.726782602237657
2.0928337666155983
3.0037041565000466
3.5904767203654724
3.71171844635097
3.1799708014092936
3.0786426315700623
3.5808592170557527
3.7538858672410997
3.2610618394445905
2.3303458624543123
1.3375118041008467
0.31065693903170943
-1.0549865654590145
-2.435972131557728
-2.5858603347655977
-1.745252738367614
-1.7785738882721114
-2.269858260328808
-1.1405897069738873
0.7771422757868656
1.004695886301462
0.24414454353629844
0.664673932248827
1.298668784583058
0.35370016335359294
-0.5438451866611983
0.6820791406305079
2.656925799183495
2.950674417077408
1.3270542319311527
-0.891711783346855
-1.9836910910501917
-1.7552026753032617
-1.8352657096127631
-2.678455441250588
-3.174194034426773
-3.5290774349764336
-5.531874125001153
-8.390979436413136
-9.068270403551024
-6.859525491967385
-4.580645776829297
-4.661396941273448
-5.224027738282707
-3.9155490611452217
-2.260453026224531
-1.966733134162313
-1.8871810598512628
-0.7348705767028788
0.4931545918424333
0.7247290127741297
0.5401284602822084
0.44967653985109113
-0.05667127544156784
-1.596154638677114
-3.21353520485682
-3.185005359389846
-1.5894988839756434
-0.16544648587754385
0.6573427822416471
0.999882762039389
0.6109072145390074
0.32868603707048333
-0.0405439120380715
-1.7745916763867924
-4.241723115130424
-5.415426768514038
-5.1348762985788845
-4.720246230380516
-4.474241869124409
-4.032480460948727
-2.8177403239748697
-1.3269127704406511
-0.8801170793203761
-0.8876159960756848
-0.5335916171747523
-0.41019437807317916
-0.5790076333979777
-0.29286872276550985
0.49035691313264157
1.3118685069235718
2.2227877723323464
3.6115516950182966
5.247761968761643
6.1399855030951125
5.837234554339839
5.091709436952314
4.556540904937826
4.4018289268100395
5.066825443669303
6.336156937807526
7.397453324284678
7.892815212235716
8.23031710193566
8.750307034924527
8.92264370611275
8.392581147578804
8.080545481374225
8.407390307841942
8.242091812352117
7.224891238070068
5.657503889338231
3.600452173728613
1.9748921018999794
1.4366590775984485
1.1852853251666373
0.752160838681087
0.3459467798117394
0.04067806894168395
0.21098057994394875
0.5747560139580217
0.12436458156737683
-0.9090609997464958
-1.1230435623040855
-0.13064470680373252
1.1843734997385456
2.1690523184196087
2.1000745149388744
1.3761885342651086
1.6531973410974459
3.044806839957291
4.546882025231013
5.9487267364180685
6.813073398533297
6.141646426207842
5.218914267646131
5.758671706644278
6.391948733607917
5.854418856089444
5.342859883154253
5.7267452941067765
6.010983973851164
5.009876206215845
3.152546909706052
1.7781379417883305
1.064817481587738
0.43804091832754544
0.2544261269004633
0.8733822732160389
1.903976724849417
2.7554740009156835
2.5892014040393403
1.5534527805560778
0.8171574833206962
0.7799827152510016
1.193927901315576
1.6469651793770286
1.3972854238386823
0.1531585270221434
-1.2849084685423027
-2.3419850047127375
-3.556440749011065
-4.505880405824959
-4.213420711370562
-3.4982375363754734
-3.4494130713729803
-3.6597706819596665
-3.299972660180621
-2.6150414672871776
-2.673697306983799
-3.3950695102332333
-3.0762989747957588
-1.6123087264222806
-1.1888413999488714
-2.187564179433924
-2.6901483854885804
-1.9754153683132887
-1.058289978109843
-0.2907814638065288
1.0388120208539815
2.7888826022558124
3.9472983446920984
3.974725357564355
2.9527507799920274
1.424202348284604
0.6965679137465999
1.067079347373586
0.6618249854241377
-0.7737697223322727
-0.970868909598668
0.5025340629454526
1.1106191795309486
-0.3175457622264534
-1.5197714493559422
-1.303571543442895
-1.2737879961916934
-2.0751850744343017
-2.5022002953826292
-1.8147387418930825
-0.4493503953401675
0.8590840481299065
1.5241679104655346
2.2418066005476738
3.8903170377807443
4.830415726299144
3.3560204942621255
1.0257739051825696
-0.21723825826898943
-1.0838194230706217
-2.432467826088731
-3.9407869876333512
-4.830572498627839
-4.558207561814102
-3.8800594103685806
-3.7357188563532593
-3.5464089902020723
-2.697231847471517
-1.8960214424222035
-1.1161266469689002
0.17810254714831747
1.420594755424105
1.7124715567686557
1.196725333585853
0.9148291429077028
0.8218171011166757
0.26947481057305844
-0.33308625963768873
-0.3462684575715193
0.05435543771582497
0.30374337043367206
0.5631429974657182
0.7481626146090891
-0.3292565868491569
-2.570609199115855
-4.160281707172555
-4.3493828909888235
-4.005390974380558
-3.818934475753846
-3.7427253661569067
-3.524198200374548
-3.2698690955346064
-3.3874269048589154
-3.3477929863730926
-2.5513195414334366
-1.970167778646393
-2.539042666018851
-3.660772719616661
-3.9810404071078165
-3.3424648839182867
-2.984146815496833
-3.2978200083202402
-3.196555065787253
-2.363345469985259
-1.4768973382715875
-0.46806889375922933
0.9395620130472125
2.323154654716607
3.176249363283638
4.249501542953672
5.695834161843531
6.202129643905691
5.654320216699332
5.006142847606822
4.5779644693536605
3.873632330483369
2.5837001844124527
1.1975022032843123
0.6535281228771951
1.563250843891321
3.2594285755035353
4.132736364730265
4.135158702399609
4.366379724613328
4.627520037219345
4.487543841075056
4.506414527006241
4.935359195099908
4.923153755718852
3.5712177230972943
1.311034411073914
-0.155834129631043
-0.5208349006767721
-1.1585392861059742
-2.1426874604141295
-2.4453481727210575
-1.8740682501711996
-0.9853486801064497
-0.36388540983043166
-0.7323385621733232
-1.7909576512111216
-2.26544379013941
-2.2330875132361765
-2.303448847831618
-2.3896071834956962
-1.852543617332146
-0.7333495332397345
-0.2038772308828772
-0.565238336885232
-0.8127744001810938
-0.7001204591523955
-0.8547326902973593
-1.1870672354624041
-1.3929518740010574
-0.8890097627352678
0.1398388505805669
0.7614940830274651
0.9631086880557355
0.9229477102543124
0.18909083428375423
-1.4086211955665195
-3.185569279315645
-4.441381401066463
-4.762181259333745
-4.642929085588248
-5.090399394769165
-5.992652672621402
-6.340385821640058
-6.16793882551754
-6.151263671355409
-6.132610972643814
-5.851681018938034
-6.102627265826593
-6.975493528133342
-7.153738540321604
-6.271545499689006
-5.368301598124109
-5.298435202594674
-5.205132658826955
-4.411658810953991
-3.614052436012886
-3.18203958831281
-2.6278874009337776
-2.1137168241270636
-2.077487326240935
-2.1108770551195066
-2.3117263921597675
-3.078865728347065
-3.72268142330961
-3.466729085897097
-3.1567383310895916
-3.149656777005883
-2.787503666885543
-2.1315075905368284
-1.1635407169800038
-0.044644098773966544
0.7322298512715637
1.6454358748759164
3.1125506115745885
4.348260345132987
4.373555718351547
3.2868342171703158
2.1508369480914835
1.5145447109857961
0.9270962211902649
-0.17185480018925767
-1.5349759437654318
-2.612996452671174
-3.0865611817768617
-3.0160224812465404
-3.1887214191706854
-3.6865361082779584
-3.6278183333894636
-2.9706296064716233
-2.313864256702925
-2.0240680517577445
-1.9026024569964874
-2.13462258999776
-3.4108537313172076
-5.342989194507858
-6.519979215420121
-6.1955940002760865
-5.584065793950267
-5.997611439299757
-6.688107518893276
-6.515764404990188
-5.946928792662462
-5.461012469547119
-4.4263688325906605
-2.940075142935667
-2.327307312974811
-2.7728828247443786
-3.4774667408102573
-4.407663165052082
-5.45251843694007
-6.189363214588808
-6.6046437003678635
-6.597557681117905
-5.742494410529687
-4.143524395183302
-2.6157220655394835
-1.8195213952896938
-1.9056264388517121
-2.603731583917323
-3.197582983839856
-3.2467674508995055
-2.7489718798665197
-2.2484802916015645
-2.1557200582451657
-1.9692632742012817
-1.5893549629027917
-1.6419094744568572
-2.507362536337064
-4.0000301256455915
-5.247396878302301
-5.318620287365359
-4.33251561668357
-2.7654016915589303
-0.7226384784823064
1.0160916244087754
1.3123205549255517
0.6809318033713376
0.10220065146878819
-0.5639801941679897
-1.2461537806082883
-1.794965081090888
-2.9329246517883436
-4.828762715917677
-6.523432101279551
-7.396870010958867
-7.289659030559465
-6.421119015111276
-5.60009057963769
-5.1426029579847325
-4.602204746810077
-3.8009560106573987
-3.120523957909521
-2.9888546278695984
-3.2807962952377605
-2.8846711288811373
-0.6993805439154296
2.28108422124656
4.045444067858368
4.666011839837272
5.777966536850661
7.369126684967331
8.085050514922942
8.30093363092256
9.111357353126015
9.641905346503885
8.421683022439954
6.33332383853565
5.648799359480707
6.491466113168647
6.811726438659375
5.573013938982178
4.154629716349529
3.610778002927322
3.488061332896237
3.8353672527530147
4.852869091513881
5.760867490964113
6.210190235418183
7.149582626363299
8.524265750437886
9.02619264773301
8.737238533741557
9.048656537131281
10.117993057845583
11.046827604090145
11.235509492467246
10.338338263760097
8.684059856656583
6.777686861483053
4.9003114924021345
3.2863861241271306
1.7613569266185738
-0.07190747271300743
-2.452599692134367
-4.890024689820825
-6.600639604420941
-7.73219257308567
-8.527055718961913
-8.81801596876164
-9.18764561004841
-9.874916214872584
-9.766518309909072
-8.126645584964354
-5.423334153477847
-2.765673124174846
-0.9734341570849148
0.1215409740689228
1.281259955411669
2.6387953216484425
3.5950885909480808
3.664330004902721
3.058731526332581
2.7063431866495082
3.0129281753971164
3.6152338555999606
4.278615612615113
4.701924473338067
4.518848984166429
4.23324487042331
4.842774272787163
6.298081331492405
7.492461800861682
7.697085075505365
7.325902165861937
7.336746108036756
7.439824178226105
6.383714670840709
4.098562436539555
1.928077773422027
0.8221472043680874
0.11214439915991081
-0.9727554213961785
-1.7015130256740187
-0.9823261391417427
0.7658658172017299
2.3259697863992006
3.4831026630706927
4.553988492735094
5.375399053319936
6.109552059989254
6.978219058173284
7.531091569610416
7.598188168566137
7.356141873425989
6.679865882100513
5.518675263816175
4.508796188942074
4.245606055725613
4.393540836314529
4.528364075135458
4.861821815074252
5.290025019831478
5.412097815147609
5.283912030673212
5.208701588979467
5.543635636694635
6.214092544871588
6.994369929308255
7.91870787663701
9.156193145888318
10.488906081365
11.761745557784264
13.23796262924568
14.386078712922767
14.462910366640294
13.390713968486287
11.784344398541865
10.381677558652136
9.038824911096018
6.708253690023005
3.0424406113240283
-0.7289630845999143
-3.1291435121271944
-3.8765777509209864
-3.623454156439935
-3.3159163535843046
-3.714753132482873
-4.92916635036036
-6.491306749522545
-7.776769767522109
-8.63439425967545
-9.016559544017582
-9.077430893555489
-9.073977395001261
-8.80155365989016
-7.6167971669230585
-5.6082133723583185
-3.676180135402108
-2.4663911491646675
-2.0778676102702756
-2.0088491469997853
-1.6422981027797239
-0.6701449261510476
0.42082437747586326
0.9926983428060658
1.0398181618612834
0.7192807334323515
0.22628823250611357
0.10538337015518869
0.743714438509958
1.8398292572019668
2.5378611786926855
2.0613116070337547
0.7358535864272489
-0.1526302927527162
-0.31945000863613804
-0.4517191545691632
-0.3208669144174652
0.40428255413397995
1.160097633242981
1.7500497311282939
2.02369634206969
1.3384039636894094
0.2347162640715102
0.11461118785922536
0.9196979371210094
1.4697702643819615
1.6187266283471586
1.7738159619999099
1.4442296438606566
0.5522621950272655
0.7679836289879886
2.6730979687948127
4.318433866158011
4.266442422193063
3.4387957609823414
3.347139689931776
4.00246000247657
4.76820704063347
5.4660372886023785
6.133050727445378
6.475759758208619
6.329467554316915
6.201548639786392
6.637895165026056
7.514908162781969
8.207426050293584
8.55853391245281
8.534224604337185
7.920374733866898
6.929098176402883
5.9320058279036045
5.150043861678072
4.332522517195728
2.851600747689235
0.8723143277127746
-1.1105141298818624
-3.3350139808162895
-5.995886726315196
-8.236255475264112
-9.03627852613398
-8.910182355102835
-8.977340821873476
-9.53807691897356
-9.926048700122065
-9.488545194085633
-8.345616030929364
-7.014269007199086
-5.926109509841311
-5.033940995407535
-4.227506476741827
-3.5981932093948403
-3.0730582107498243
-2.0277880862987328
-0.3112794486616465
1.1703991848133057
1.8811486110333797
2.369643148601828
3.0801194532495355
3.418619066481309
2.798393440500441
1.5084943705616
0.13453593717365311
-0.9923707268359889
-2.307362502263897
-3.968784101868093
-4.745125509575023
-4.559071071518955
-4.560945035463657
-3.9626134723336888
-1.5159956502846974
1.3441659021518924
2.5422589913763667
2.704155849641332
3.318492192218305
3.8836317522357713
3.1809128383034317
1.4309779011355657
0.035397707391843544
-0.034308353868280864
1.0386673955661911
2.515009796207554
3.7886465226477086
4.614616187313636
5.135128980442625
5.368811619288002
5.476188218083364
5.394396291588524
4.672058375725644
3.3280574607866944
1.6730037681910988
-0.06835460345603506
-1.9146726766439426
-3.6144364823508166
-4.801447423381266
-5.3050965601496465
-5.012717292673356
-4.350301924469467
-4.284464688595574
-5.095877578007482
-6.3003878366280865
-7.2810630149367945
-7.416310248935906
-6.410673523625841
-4.7083776523236915
-3.327689013084953
-2.4336771120515674
-1.215434062582819
0.6143654327825271
2.186135402497669
3.1041753404655443
3.794097875890572
3.5959935405163708
1.9756369412377952
0.27369718409733135
-0.30762356928370893
-0.6755096200825819
-1.7508918795161597
-3.104496896823083
-4.749365914572944
-6.582744343143666
-7.757762381042771
-8.185672381263513
-8.805660848654068
-9.7049165344892
-10.088712027645126
-10.230279766651446
-10.45206841979148
-10.064439363368498
-8.734228157839022
-7.349669682589181
-6.7085786615107725
-6.420998138777654
-5.841842964143788
-4.956960230174786
-4.319634960331982
-4.108500361154933
-3.916044240308094
-3.5835925542050244
-3.3986624335987816
-3.704641295004695
-4.414306711756105
-5.67596354795872
-7.498370774329986
-8.932310809034957
-9.265549529070347
-8.532075367939628
-7.3302219146330545
-6.235609971597708
-5.150388079316225
-3.796320322986703
-2.388236447415444
-1.22432132731471
-0.12275706745467427
1.2638905265400684
2.7689190649844946
3.6991535262772004
4.0215199906638475
4.159927023188989
4.592130357982491
5.885062344799663
7.711199175413425
9.105088673475166
9.350303836076758
8.63463491370823
7.732516356334439
6.57640651714889
4.4245334739425
1.388647683008731
-1.3929586251472097
-3.1712722125688977
-4.175884256356803
-4.362915352733183
-3.3216062162643882
-1.9803273390068767
-1.5821507837566402
-1.4114702502376246
-0.7350127541016972
-0.13762858018106489
0.3451014938562121
1.3995708488628082
2.650505279913635
2.8946786257925172
2.2646979448623012
1.8053444954707567
2.080604278420892
2.89475641093566
4.036786732864186
5.260149766623878
5.827583185432236
5.495610040440179
4.801747030861379
4.303034941210468
4.18650613522318
4.057291825876231
3.6042541223454023
3.4197405721288856
3.6731262674784566
3.775685412398208
3.7361311750955943
3.948676630407799
3.997468569671002
3.790550908161317
4.160065904813679
5.208365137759966
5.751754554105753
5.301471394740909
4.64668476637652
4.060742647035357
3.311883468525497
2.460571884425466
1.9120249208620743
1.5892268895073942
1.6989389337730163
2.360192949271503
3.0351708668481634
3.5549868496945467
4.171420473391824
4.638748963143929
4.0976470977336
2.8127401422782383
1.7156601864910739
1.1453832785037312
0.4286200937990675
-0.4182075119442612
-0.7033828054541573
-0.9391335149201337
-1.54022297595723
-2.229978526168318
-2.532956468266527
-2.309649713559338
-1.865266971293518
-1.1822325876127813
-0.41308121729822567
0.2379909130251004
1.2047382568593619
2.4304124353974905
3.5200874622005154
4.912435287912429
6.829562342594664
8.493272827837286
