AAD_Filtered_TADAS_FILE
AAD_BASELINE_CORRECTION: BASELINE REMOVED
AAD_FILTER_TYPE: BUTTERWORTH
AAD_FILTER_ORDER: 1
AAD_LOW_CUT_FREQUENCY_HZ: 0.025
AAD_HIGH_CUT_FREQUENCY_HZ: 40.0
EVENT_NAME: 202302060117
EVENT_ID: 13194
EVENT_DATE_YYYYMMDD: 2023/02/06
EVENT_TIME_HHMMSS: 01:17:32.00000
EVENT_LATITUDE_DEGREE: 37.288
EVENT_LONGITUDE_DEGREE: 37.043
EVENT_DEPTH_KM: 8.6
HYPOCENTER_REFERENCE: AFAD
MAGNITUDE_W: 7.7
MAGNITUDE_W_REFERENCE: AFAD
MAGNITUDE_L: 
MAGNITUDE_L_REFERENCE: 
FOCAL_MECHANISM: 
NETWORK: TK
STATION_CODE: 3133
STATION_NAME: 
STATION_LATITUDE_DEGREE: 36.2432
STATION_LONGITUDE_DEGREE: 36.5736
STATION_ELEVATION_M: 170.0
LOCATION: Kahramanmaras_Pazarck_Turkiye
SENSOR_DEPTH_M: 
VS30_M/S: 377
SITE_CLASSIFICATION_EC8: B
MORPHOLOGIC_CLASSIFICATION: 
EPICENTRAL_DISTANCE_KM: 123.47
EARTHQUAKE_BACKAZIMUTH_DEGREE: 
DATE_TIME_FIRST_SAMPLE_YYYYMMDD_HHMMSS: 2023/02/06 01:17:33.3250540
DATE_TIME_FIRST_SAMPLE_PRECISION: millisecond
SAMPLING_INTERVAL_S: 0.01
NDATA: 12501
DURATION_S: 
STREAM: HNE
UNITS: cm/s^2
INSTRUMENT: sensor = GMS+/GEOSIG | digitizer = 
INSTRUMENT_ANALOG/DIGITAL: 
INSTRUMENTAL_FREQUENCY_HZ: 
INSTRUMENTAL_DAMPING: 
FULL_SCALE_G: 
N_BIT_DIGITAL_CONVERTER: 
PGA_CM/S^2: 147.223
TIME_PGA_S: 
BASELINE_CORRECTION: BASELINE REMOVED
FILTER_TYPE: BUTTERWORTH
FILTER_ORDER: 
LOW_CUT_FREQUENCY_HZ: 
HIGH_CUT_FREQUENCY_HZ: 
LATE/NORMAL_TRIGGERED: 
DATABASE_VERSION: 
HEADER_FORMAT: DYNA 1.2
DATA_TYPE: Acceleration
PROCESSING: Automatic Paolucci et al., 2011
DATA_TIMESTAMP_YYYYMMDD_HHMMSS: 
DATA_LICENSE: U (unknown license)
DATA_CITATION: Turkish Accelerometric Archive v 1.0 - Disaster And Emergency Management Presidency, Earthquake Department
DATA_CREATOR: AFAD
ORIGINAL_DATA_MEDIATOR_CITATION: : AFAD - Disaster And Emergency Management Presidency
ORIGINAL_DATA_MEDIATOR: AFAD PROCESS SERVICE
ORIGINAL_DATA_CREATOR_CITATION: AFAD PROCESS SERVICE
ORIGINAL_DATA_CREATOR: network: TK
USER1: GuestUser
USER2: 
USER3: 
USER4: 
[...]
-34.497270875536046
-41.768611503181106
-52.02375478452742
-57.847181586353656
-55.66252321043867
-54.43714573623403
-57.59190154206655
-63.74121939476252
-72.17227755972658
-78.95550327472304
-80.24311185089054
-78.81309906766778
-75.92547263628164
-66.13606172444604
-50.842175589933845
-39.998072058504306
-38.69736796732688
-39.85611935894191
-35.15125401585859
-26.494105864294593
-16.03526633348649
-0.6785883016344406
13.271903531868261
19.211783695807267
24.282145043721595
30.585218890411188
32.79821945133128
32.92329335176542
35.81468512095788
35.32526624796602
25.53945264005769
12.23712087226731
2.14553648310166
-1.092295666999114
-1.4019474103354113
-5.70458500138522
-16.584044715501207
-27.97756962369965
-31.704943561535863
-31.165434948853182
-32.56449595284059
-40.81395050980673
-54.63861597920779
-67.66889262783022
-78.28822392622378
-83.56030124988676
-80.51312734431156
-69.29096348081902
-51.968263432925184
-38.33954402389217
-34.151813236279054
-29.562838049035054
-24.694640352018887
-26.48128518314875
-26.78375371588888
-19.291827878893827
-6.393966300443957
3.3779920775974612
3.5681316310290123
0.39088384919165975
3.3413532393302865
15.903633254451822
30.06692877077415
34.65064901271471
28.63836821095161
19.016383126226057
12.080499095909374
11.160846873574952
15.863024317869842
18.558243365278706
14.652487783577426
12.929772533811251
20.482389236973823
25.890516197993012
19.53070097996801
10.35234674069825
7.902659988663885
11.326074898787619
12.745726372602777
7.704327718683
2.093198618235786
4.431841647235189
13.928676984473716
18.68809864422871
12.732066208765636
6.727903489221731
13.178437555623264
29.003774039687706
38.751380024605865
37.51007838323387
38.09822990522889
47.33036441644887
55.11226651026667
50.70817640499639
36.782693687007
23.09618223767963
14.772271690537428
10.286015790699153
2.1373225388923167
-10.36382391471054
-16.892144921719222
-15.258635792973282
-13.001131883721769
-13.222564296526231
-14.32186099984928
-13.130340232423638
-5.696553575491086
3.0775549605020696
7.607744767727548
12.597015649015527
19.84759326818213
27.017878422649478
30.373052209785588
24.514650996755343
8.686139482018321
-9.609133170154996
-18.505096007597356
-17.407158605397434
-17.095475961600414
-18.567209533248825
-16.11563406904968
-13.633172035440154
-12.225450252797176
-9.207656182755631
-5.858213216907908
-0.5624125587074434
1.0549659732822592
-4.467211223612436
-4.745964046963415
1.7609690355629934
5.331321782655434
7.046275308383679
11.131025785954108
20.70330505259368
37.73063662357138
54.459733833987244
59.956027823728554
52.613026661041246
40.7357896536119
32.36931326816387
24.33969659277367
11.469088418972316
0.3658484410424842
-4.041279668846093
-6.007264140614312
-11.62548262564197
-21.532494042225515
-29.169377154158013
-30.1973036779901
-21.257779510479118
-7.985364325649182
-3.9973763144875636
-11.40516209361705
-24.049567768288515
-30.55430403094663
-26.412623524106422
-21.190995487718457
-19.133733871157688
-16.865443579862223
-9.150198090379476
3.952355997848649
15.562881255851664
22.87695378013376
28.08310238406625
39.249782335180704
61.0303862478305
81.75543718949511
87.62137142545726
76.57500005457972
55.936739735017625
39.252211109041596
32.57292359854343
27.03785702618297
17.410342103406222
7.236592341626516
3.416376784397526
6.464848748218595
4.225604096613209
-1.4203502736846723
-3.462046084460986
-7.364129300196884
-12.686597007729128
-17.88623120509331
-21.324590534510456
-21.76450008789889
-23.360614476361615
-26.926036195227017
-29.722541656430607
-28.771178340105095
-24.077045195867935
-19.588626876257443
-19.665952837197768
-24.430419889272194
-30.009617733105546
-32.625876231811446
-31.22595959671035
-26.155141952581438
-20.32780845389198
-17.22004479248006
-13.399885947725156
-7.74385674111408
-3.8444428331779235
-2.389702763293659
0.30440378042541977
9.142965658021064
18.216162778615043
15.89384887354152
0.6806868413120287
-16.54522631053954
-26.19035630728563
-27.876772137882813
-24.284110619056136
-24.739652659681298
-34.131115800115055
-42.22681405997272
-42.37621314529758
-38.71768580274987
-37.36658228670513
-38.63425704335792
-35.95890038717323
-28.54550139000914
-23.38926584271929
-21.8276577527125
-19.895782439610024
-12.421967946254892
2.7444044136780277
17.844545395778542
25.106363943493836
25.208540354165876
25.399510648023853
31.562615710939223
37.100323413982274
33.749490604034676
20.062161794536276
-0.18930868321197777
-12.46803856614431
-12.067486293052296
-11.362675726094858
-15.887794914144616
-22.87371669274084
-27.599654936262564
-25.470323963693144
-17.259609542746055
-7.731073502144257
3.3025171683964345
15.450633150292157
24.57613573551071
32.65154872536412
37.76731982608718
32.33566936105792
17.392739812918162
0.8969694011131415
-13.929858154718932
-27.60190111599875
-39.861408092319735
-49.47380768482608
-53.1006223990392
-47.02560254025275
-30.096781534951248
-14.52679934328545
-12.104930477628855
-16.74223104053217
-22.357884446600895
-28.424346961074555
-30.24227273662586
-24.683614587698106
-18.87312451318606
-18.702203964917434
-14.583377640085391
0.5186910425352689
14.492367661899342
20.997529042858083
23.63403491983637
24.136021254094906
26.369667052161564
30.297475421955234
37.86876606127419
44.04597537320304
43.69787921338823
47.9305882116392
57.030040059327014
62.76031478478888
59.64417147128104
52.99141303017032
52.54616941977064
51.534706102441575
48.51840404828938
44.26809064029792
38.44838340214262
35.58918410742551
27.158339668089027
10.910650885276521
0.7380530442856459
4.59448416065944
15.397557224806116
21.245388480511956
18.622822583059914
16.831436606315293
24.12522777009164
32.677849444712905
38.3320715272894
44.39466448240686
48.81723796116874
51.377465707759335
55.32542650336065
61.46226551557872
66.2774591901606
66.77836625860904
63.24701754771626
58.96821551012939
53.36542940479998
42.842349813110516
29.42680709898683
16.052312869112875
7.108343376832257
4.867503646173317
5.4866332043344
6.759329046970448
8.712175438474807
11.395483788047558
11.878773308618669
6.584176944390102
-2.4529293644488517
-10.157723056500107
-14.602110943903869
-18.38216720612657
-24.597398785890523
-34.16712343962412
-44.87696415055898
-52.066904710673874
-52.51075619011877
-46.78240844438153
-40.95567401443083
-42.1880446082743
-49.06384720691893
-54.40168794245779
-52.65925494052489
-43.37225753701528
-34.09286204598448
-33.493672002760604
-39.44326783313493
-45.684228849617504
-52.7395503974473
-59.259584309508206
-63.323073347451164
-66.99619263982304
-70.17648699419735
-74.56405835077211
-82.12450005281877
-90.57968690736686
-97.12734420820303
-100.17260472523179
-98.52746588568745
-92.1764737904342
-84.72365940971333
-78.37216816258392
-73.15384951057106
-70.13902132715184
-67.52594628849688
-62.909024553651044
-56.38658072281335
-49.75099855839576
-45.264411806310726
-43.219893528478806
-43.96538598091429
-44.98943447048801
-39.9161202669596
-33.14321038361021
-30.07133619905579
-26.458554541338994
-18.645441429575914
-3.0764922417945177
18.388498301378952
38.007691079388195
47.389749931761706
55.60214913776081
69.52848175505888
79.41177411677458
91.68368859258473
101.19057750581356
99.39858755393664
92.4772672779743
80.5918611367414
71.12933645879166
65.24771985406856
56.50704784764864
42.139569548040186
22.369550687277464
6.48690048040956
-6.572388673197013
-25.285351335072157
-43.41263847294774
-48.797273098021606
-38.21394252044999
-19.353331551238483
-2.563031117183784
3.300823683551823
0.6364218118106117
3.9850214091990304
19.775889393320675
35.336696566193396
39.04695542169936
42.26904205304953
57.40964853791694
81.11849058585575
94.75587063636125
86.57550849990497
74.71736853501922
75.8359631730407
76.04074728168449
59.18593985661432
30.16437473037289
3.3516106413344886
-3.1810212434482166
-7.801686899285608
-17.164657569573453
-14.830203568012099
-22.753556817077854
-29.001401419822812
-22.197467382944815
-14.303627310345057
-3.3710893162880287
2.6199737871881603
4.269088727359991
-1.208859618568676
-12.642022384033032
-21.663680007905686
-27.61538999080952
-28.87228097189841
-23.574747042355614
-13.734211831641845
-3.320983187743883
8.37927064872483
17.87154941710871
16.840730766522654
3.2427635672181614
-13.894419231525792
-24.630390749977007
-27.50018769770704
-28.616655185954084
-38.962656230292865
-57.85144139298422
-73.46718227617151
-80.48336512579512
-76.1660483895921
-65.31247399658169
-53.47173218909819
-40.01754054339566
-34.39610605226564
-34.06874082879048
-32.24512603612522
-32.433267367898374
-28.816814023072297
-24.0712556489693
-24.425864226050805
-26.469535252409678
-26.510443905426424
-19.986864834447054
-10.067274738973286
-3.704514280444571
2.914051038572262
14.629468195966695
27.29824728588934
37.05197926584026
38.81467786101308
30.917190876543536
23.620040192245536
23.888347151786146
25.86384628394451
21.78029792729427
16.217499169252676
12.24071277296438
8.236829609303634
10.686401467725506
16.995460100137247
15.177072207567575
0.9063066078565774
-17.89172277344206
-30.88643368501756
-36.35371777506235
-32.50055210638011
-22.261144121047028
-13.425014540699925
-5.002260790178242
3.5880176142183484
12.472057748333112
24.37037505576635
36.05741475435957
43.37726268228853
44.313798723067876
39.86275037098854
35.65426770632205
35.58438570654214
38.50571317600533
41.26464170804946
46.1873016315353
57.409971369525834
72.61539570039876
84.98918419064434
90.0059484589656
88.65366361519227
79.29369060575374
65.48143287735466
51.26569088274938
31.490338001450237
17.308303764550082
17.422927791796983
21.01137851858404
20.5150779657609
7.298642595490426
-14.804566608056252
-29.759595385351812
-30.66409800850386
-15.767122156478528
3.669860860177287
15.964742511608815
20.77357672235838
21.25272550189388
25.947927071114904
30.45144448828029
25.050859721118353
12.966319865208408
-2.4890844546932978
-18.236660275121974
-28.964034231860843
-31.94882365566237
-30.57098967415444
-24.832352730662787
-12.167740715834478
0.9447481654591838
10.496504366003908
15.00825616231838
12.2266211231508
3.367324063950356
-10.552893120574709
-25.63917608378846
-38.51219055744117
-49.25415698231564
-56.92270284184024
-59.29280351665744
-51.88852969657479
-37.234154922527374
-23.350090368734485
-11.157660240646212
-1.4181283437541596
7.273061453123616
14.464717209117142
14.714397381484119
15.368967268081185
20.11822250898335
25.46645945913168
32.13797651752682
37.80783618958377
44.29046310230346
46.753704344011965
43.39695474336956
39.51824133924288
33.76769398570987
37.247199102579565
50.18581896286294
57.62982772661259
55.38836768418136
43.403693680462084
29.89423549293419
25.604465774124353
29.275475478833073
27.78573645394786
11.445406923856934
-17.581406733321984
-48.01794583885617
-65.52141412510124
-67.12012873521357
-61.00949395944749
-61.728372291513395
-74.07435254645911
-90.62552635465192
-99.57961863579544
-93.60455327961002
-83.06224854969592
-78.52093736620932
-84.0470893060085
-78.09492965325379
-57.28803097181871
-36.778612952850686
-29.54475230405754
-49.897834094764995
-52.581831152869334
-65.6910358955036
-88.01376261104095
-70.86658572633893
-77.161458560571
-78.77024761725606
-63.49240043890425
-66.24486632982615
-62.65220835430573
-58.27852348787406
-52.59266630209727
-47.20452124829421
-39.6919514495436
-36.55121230493056
-43.77349452729277
-44.31108082272234
-36.792070764911635
-21.635008889650493
-3.3705102508986977
11.127122312743682
22.387187394246514
32.75177198744053
40.398112398086504
41.14922369468822
38.224611693320576
33.26139597009563
28.020562750620336
34.37709203404973
52.67934055091464
68.84966609975378
78.26546947639648
80.14230198982804
75.13070340401362
66.15164821016697
53.68709342633686
30.219469482821996
-1.4690501449241353
-21.046616418791146
-28.07915192305108
-20.820953689146883
-18.856818121224116
-25.75899050966908
-6.8439338370220515
10.75348991381729
23.307742902994598
39.39869090671824
36.14893811846901
25.956615831564775
15.222202703620399
8.624718568800372
3.958105910593801
-6.395121513592057
-13.448514619582634
-17.716145778489338
-19.51806559321479
-12.312045502871797
1.1570809696195623
16.690880049179523
33.16014080631001
41.36347270872331
41.12799112176834
41.17764807265668
44.932104226039606
50.78756921022326
53.64780541211293
52.677387223545956
50.536253176207595
54.195064771470285
63.508618027826074
69.68129844915089
67.45450728558296
61.37843246693032
65.57072360056175
76.1779894538811
76.94208552191283
65.14208440122678
54.53906586217256
58.38183711438887
68.67034140818431
77.4967874520308
88.05077159347026
104.27953659184503
127.25377159995995
144.40318617118686
143.31333584996756
132.57979135388987
122.98373780810559
112.60077035114499
98.59496789854165
71.11714116738705
26.469402257583305
-11.624407115624823
-25.341687436224742
-18.91293333587466
-6.068212776399343
2.4148773645278467
8.80395986995648
17.272415600095727
28.025797218834306
35.221108105264165
36.062201056794585
34.78343920260041
36.888552167552255
42.724829390915836
49.33767199935004
52.229219927507785
43.60635449914172
29.739937036522925
12.571248021439487
8.17643021125645
23.722545883321143
29.5190418710747
29.35156383797354
31.37035557322457
35.35461756772402
48.841231726778524
62.19795641729677
64.94159240845812
60.81251140835931
61.28234500684106
66.29279232982131
66.03563367469796
55.0288819623291
39.91691783126555
24.924402090280395
12.85098895606756
4.6629022775540605
-12.547404788019318
-34.922391329611536
-48.280408632065054
-53.35536449251607
-52.597694281550034
-43.941973161973145
-31.297534010626364
-19.63775171328268
-10.993685138946468
-11.844899746853397
-23.036819238767624
-42.83555193247178
-68.43807413131687
-90.59212749105322
-101.96375560837414
-100.83152922674337
-96.848587962135
-93.8163290733506
-83.50729819605863
-66.87116889640224
-54.074153104797645
-58.34885376822998
-76.86500840358437
-90.50144563714402
-87.15858360471077
-69.88440541410027
-55.32056172742838
-52.9257662716191
-56.46484222887582
-53.739139326686434
-43.07295251849833
-38.36436955453037
-38.83735062576388
-33.40698489481411
-23.97415661294964
-8.872203521385336
10.556075512677866
26.51969247740351
42.14908482074222
54.27171533554381
57.86137750826363
62.638477067542254
67.89234295949134
63.32439954263958
55.278059497501815
46.90515425572436
35.971160558870245
22.446013142944782
5.371271448095502
-1.982110164450917
0.6285247460275796
2.29601291878406
-1.0017377962403988
-9.317989601442758
-11.304215074469
-12.433651940347021
-20.78153485901009
-23.59876558043844
-20.563894996496487
-21.80343430490147
-27.473063802559352
-32.79185058861564
-32.166811477629736
-26.69187828375529
-23.87535462242666
-26.556823380823584
-32.91066867162317
-42.70546262618664
-53.959135738156
-61.05182760633082
-60.92153825228625
-56.57265463543783
-61.5214035593442
-74.75460436643483
-88.95653237334149
-88.5624858085618
-66.18529577839507
-47.43419162704425
-21.034491626396825
2.7469684918531514
7.079911130899907
18.4870804625302
32.24473850444831
47.768557071415394
55.67683346965988
47.822556481889954
40.31973924484082
33.35702900736843
28.32886307812743
25.060550553254686
22.68372915335551
17.549703535913025
7.763455795465805
3.48883952247478
6.671421529162144
15.077386920268118
23.78339463345041
26.870376163548926
24.32844670219004
15.709845990082563
8.747459478927158
12.639193631180774
22.696937214505517
28.492871564446947
25.859332852614703
19.258908378635233
16.693299613693966
21.11803642941413
25.52953996195799
25.524476414016345
23.643532130674643
22.078137127812226
23.358879950953035
26.992511189139606
31.40425057468863
33.40013422169977
25.427460165855656
11.873043391111617
1.238453363528905
-8.56862402370214
-14.874959870570699
-17.23295108987243
-19.169127342664773
-18.0546734089582
-16.641655078712375
-17.69055624904293
-18.513260551217716
-19.536235405170302
-20.665962344718903
-15.881255626351832
-3.872325957352875
7.082220437894192
8.613301903632555
1.1073855772358867
-3.6125799452027283
-1.9140512025288514
1.8331019815380856
9.830586482742955
20.339713687869686
29.62778698004444
37.53370070253492
42.687452215562
41.655295008961595
37.226341084574635
38.01860775675014
47.811342008297885
67.2043622472258
88.13046418250309
97.68017323651037
92.39707827469732
72.36961166373212
46.7909991376636
35.92945039991647
37.10772694240248
27.30623753153484
8.251315974232652
-1.5975697942428007
-2.1371200932849175
-4.3841007297271934
-12.81816787293689
-24.553102534129906
-32.40987069460558
-28.407396799645102
-11.290691190862136
4.011610922189482
3.5421614178946204
-7.190290088635237
-17.901418953810232
-19.464507196440316
-13.28450575111759
-9.80712461278788
-9.839831126608651
-12.287116951030919
-16.110746933955724
-16.654337418094023
-8.530670453804374
0.9203346261739782
2.5552386688846602
5.29784658782625
9.951963885475893
14.414358102132676
21.715967696299007
23.254483469737853
20.18523171515619
22.25305668788671
22.50692189357371
17.589276621595626
10.570197997725767
2.2605073758910974
3.9280512675713983
9.663302851428618
5.681787827071793
-1.9387368173519346
-6.1797777082355605
-4.456358284748185
4.559507061819958
17.53047895761914
19.77967949088023
10.463147207615732
5.524551181057328
7.058280564281527
13.781521575995816
17.875830747728607
10.013753691638222
-1.2775384230698714
-6.617527276802859
-1.6412889118745135
11.991475142368145
20.7236382816986
17.581880136280866
6.381531900704169
-10.032822354545651
-23.98678549560054
-32.50963299195615
-42.28078613220348
-54.380799762607786
-62.04744008906821
-63.98628319790676
-64.37796646331326
-59.35593865433137
-52.550063302918595
-46.75818908182711
-34.72271583201672
-17.71725516192663
2.2734636434460667
19.028344471081024
25.609264560265572
22.038471515539143
14.136413811576876
12.287978983356412
11.591356100417448
6.334151093344124
-1.010873518238679
-9.702428030606761
-10.885573324044305
-11.390452641494129
-24.364673573502323
-42.59085244707844
-61.09788108374326
-74.0382472495648
-76.86179757884052
-72.92901443540826
-62.12758826699229
-42.80296404519697
