AAD_Filtered_TADAS_FILE
AAD_BASELINE_CORRECTION: BASELINE REMOVED
AAD_FILTER_TYPE: BUTTERWORTH
AAD_FILTER_ORDER: 1
AAD_LOW_CUT_FREQUENCY_HZ: 0.025
AAD_HIGH_CUT_FREQUENCY_HZ: 40.0
EVENT_NAME: 202302061024
EVENT_ID: 13207
EVENT_DATE_YYYYMMDD: 2023/02/06
EVENT_TIME_HHMMSS: 10:24:47.00000
EVENT_LATITUDE_DEGREE: 38.089
EVENT_LONGITUDE_DEGREE: 37.239
EVENT_DEPTH_KM: 7.0
HYPOCENTER_REFERENCE: AFAD
MAGNITUDE_W: 7.6
MAGNITUDE_W_REFERENCE: AFAD
MAGNITUDE_L: 
MAGNITUDE_L_REFERENCE: 
FOCAL_MECHANISM: 
NETWORK: TK
STATION_CODE: 3134
STATION_NAME: 
STATION_LATITUDE_DEGREE: 36.82763
STATION_LONGITUDE_DEGREE: 36.20485
STATION_ELEVATION_M: 29.0
LOCATION: Kahramanmaras_Elbistan_Turkiye
SENSOR_DEPTH_M: 
VS30_M/S: 374
SITE_CLASSIFICATION_EC8: B
MORPHOLOGIC_CLASSIFICATION: 
EPICENTRAL_DISTANCE_KM: 167.34
EARTHQUAKE_BACKAZIMUTH_DEGREE: 
DATE_TIME_FIRST_SAMPLE_YYYYMMDD_HHMMSS: 2023/02/06 10:24:55.8608700
DATE_TIME_FIRST_SAMPLE_PRECISION: millisecond
SAMPLING_INTERVAL_S: 0.01
NDATA: 13501
DURATION_S: 
STREAM: HNE
UNITS: cm/s^2
INSTRUMENT: sensor = GMS+/GEOSIG | digitizer = 
INSTRUMENT_ANALOG/DIGITAL: 
INSTRUMENTAL_FREQUENCY_HZ: 
INSTRUMENTAL_DAMPING: 
FULL_SCALE_G: 
N_BIT_DIGITAL_CONVERTER: 
PGA_CM/S^2: 40.040
TIME_PGA_S: 
BASELINE_CORRECTION: BASELINE REMOVED
FILTER_TYPE: BUTTERWORTH
FILTER_ORDER: 
LOW_CUT_FREQUENCY_HZ: 
HIGH_CUT_FREQUENCY_HZ: 
LATE/NORMAL_TRIGGERED: 
DATABASE_VERSION: 
HEADER_FORMAT: DYNA 1.2
DATA_TYPE: Acceleration
PROCESSING: Automatic Paolucci et al., 2011
DATA_TIMESTAMP_YYYYMMDD_HHMMSS: 
DATA_LICENSE: U (unknown license)
DATA_CITATION: Turkish Accelerometric Archive v 1.0 - Disaster And Emergency Management Presidency, Earthquake Department
DATA_CREATOR: AFAD
ORIGINAL_DATA_MEDIATOR_CITATION: : AFAD - Disaster And Emergency Management Presidency
ORIGINAL_DATA_MEDIATOR: AFAD PROCESS SERVICE
ORIGINAL_DATA_CREATOR_CITATION: AFAD PROCESS SERVICE
ORIGINAL_DATA_CREATOR: network: TK
USER1: GuestUser
USER2: 
USER3: 
USER4: 
[...]
-1.817268826002781
-2.5728238413027005
-2.4144877395466797
-1.6428498486256862
-0.6694233809345479
0.06819459112365184
0.12398042185986635
-0.873778362397621
-2.6436223490401813
-4.473557778074246
-6.122232937337347
-7.513941736100092
-8.106845323256431
-7.6076233182266515
-6.792865765174667
-6.13599396611097
-5.203277753749839
-3.9882634538940174
-2.7304148265640484
-1.7661531089655713
-1.4468453335658744
-1.7390340544951732
-2.3708491864615207
-2.8166983215015358
-3.0752863544422544
-3.3032888526042354
-3.0517657933719127
-2.214715711556238
-0.8186295591808955
0.7722488209526245
1.4183659226691836
1.152848602371162
0.8967950935001102
0.7288212645208626
0.577977983114497
0.3396225260823207
-0.40815988372694534
-1.5540356829140716
-2.7526008643548754
-4.106885362808728
-5.709704660365442
-7.1999699550028575
-8.097944003800537
-8.384286393335335
-8.222720497612146
-7.571410283489004
-6.170058008536015
-4.031921242128084
-1.7533273909794738
0.5158395648803932
3.180798311762031
5.870544696380705
7.534010009435151
8.04783357884943
7.980830111755268
7.467547958204018
6.706506230544931
6.120484089919996
5.8201020187896075
5.841693704436166
6.546525463615347
7.877401124069849
9.084845075498329
9.44972146384081
8.946494186166968
8.395301511089684
8.137453493761162
7.975762488546022
7.727348661166291
6.817868592752902
5.260385020109404
3.649155919501947
1.8310166862397577
-0.478328028247736
-2.6916986037429984
-4.644538592570019
-6.932341727321539
-9.2095539768501
-10.780018819036936
-11.730805060010827
-12.214058763844271
-12.474458150813883
-12.59500996237735
-11.803388996008705
-9.978420656038624
-7.812931670983798
-5.411340766313889
-3.1059216650796615
-1.3076366331129619
0.4633113253176916
2.3721055465217042
3.955675306785782
5.380721976076988
7.118911467139322
8.74899043562327
9.750486384340762
10.079404306978674
9.417413166493505
8.015934985367153
6.861186899954961
6.246747076535045
5.750082939801266
4.992498517772051
3.627001135851493
2.1081489445215706
1.792609172296506
2.489796108423801
2.8004227380678994
2.1060090631039765
0.6386175793746602
-0.9249839502933488
-2.9945634253380864
-6.060613717553366
-8.944568497733636
-10.999861839881808
-12.50847342066374
-13.413730444172366
-14.28764164115556
-15.547893237875117
-16.085935643650025
-15.641745917939947
-15.445353900575116
-15.725129192570998
-15.734858519765803
-14.921616746411974
-12.707404122857595
-8.763659607071396
-3.8246849293882526
1.2751901795068026
6.426733575982078
11.470625875270514
15.794533453026169
18.68485969928122
20.099172581457026
20.697769401388587
21.007342940199997
20.811677486975885
19.458368576650166
16.613597844790753
12.789429748606432
8.941205978112105
5.048698554283699
0.6518597208974541
-3.8666254093843873
-8.064485257935017
-11.68911555675996
-14.448289457942202
-16.696047202535997
-18.69754574880439
-20.051663647287086
-20.71900254491634
-20.998669006709893
-20.855468916001826
-20.213664763520846
-19.64863948904752
-19.454629209749484
-19.285384564795436
-19.016755689293863
-18.589262951641675
-17.7707803517792
-16.0278175048284
-13.627007172072325
-11.411441971091653
-9.317162157161402
-7.268642309539143
-5.426248409912394
-3.618006265549931
-1.8286198484486804
-0.22903615021470425
1.2832128591681438
2.7794691075980973
4.0528328015094415
5.190236898267547
6.590803974803519
8.257261389788779
9.711469924529846
10.604186064043843
10.9897288289772
11.161443119091151
11.551801735175534
12.507196861500951
13.978668752402957
15.740271458839594
17.322530088316626
18.092705631439316
18.07020689799743
17.2781961450871
15.567604199747166
13.480781429716568
11.240292991934892
8.345368738489153
4.072938910649931
-1.9243205829312033
-8.452320032775082
-13.878290035841577
-17.57133824997179
-19.671832919025668
-20.89218232017298
-21.532682315868882
-21.191003276960636
-20.41598003759346
-20.055572933713268
-19.333518683797962
-17.557800493458036
-15.212539339477077
-13.000235550882252
-11.427792259346024
-10.418133240947444
-9.9470081722362
-10.171248711361068
-10.935389711010568
-11.308734157661474
-10.596555652476972
-9.45077871377567
-7.672374841141677
-4.1955028661967875
0.6959525707662981
5.467567068609806
9.521731291407658
13.623910442066425
17.46780030178375
20.401940537073408
22.70021502054839
24.303028572316947
24.348285884106406
23.464223983360842
23.18475487905708
22.416076137556722
21.626434305514007
22.02042639398985
21.13558905929943
17.462762240630806
12.785670048313227
9.917463875379436
7.8296348146655115
4.272263632095201
1.3005683761576647
-0.308819846470956
-2.3532444415937888
-4.4033825989890305
-6.357781869163123
-9.002623075567215
-10.321183684918594
-9.924792847292979
-10.325238217084506
-11.985742515271564
-13.276029685119346
-13.176996300550348
-12.502717557899112
-12.036162822729752
-11.269731489034488
-9.69733943945205
-8.466039028506517
-8.169075045112798
-7.788168220939308
-6.584821766512665
-4.15652015863284
-1.606674152559305
-0.8545898352238893
-1.7217326410695781
-2.0480764999104673
-1.8298526332116216
-2.4702211804836547
-2.7427855924857556
-1.6272145705608148
-0.13531558495989426
1.11856508449688
2.5757463634250257
4.389473492206785
6.475680894212787
8.892931285823982
10.669192400940505
10.747710881979685
10.198735726255046
10.265830818532752
10.25224284820992
10.223680513460097
10.910909447748717
11.899072229299891
12.812777913088931
13.596814035948483
14.467858011536668
15.721099610945666
17.237847606366543
18.681656095108433
19.560946563738725
19.08800117229737
17.237510370717413
14.93984128548179
13.07448637063759
12.92699281549374
14.315662490955681
15.489819717699536
15.848800864852773
14.738545287533757
12.352900916535312
9.994502046538956
7.339029170740587
4.945356273179698
3.719155070377086
1.410166349125111
-2.881438523478258
-6.4716613583981495
-8.32687568005722
-10.25314836672594
-13.679354044100666
-17.799671358459022
-20.81523690534952
-22.29131265922832
-22.64131168575199
-21.625729388683077
-19.035334776339624
-16.156066761885306
-13.757149707149273
-11.898874863163375
-11.706294467218498
-12.471466855680054
-11.832563072759175
-9.402212834753305
-7.290841447006211
-6.914207490992047
-7.889553514959252
-9.72372468371345
-11.723025765762783
-13.459035840252008
-14.418822153208854
-14.069770609722658
-12.609030776694746
-10.507582702504621
-8.39248585803219
-7.330148121099278
-7.475841706351307
-7.149110858669917
-5.788844540046948
-4.2089211773698585
-2.601218199129442
-0.8210045533869099
1.5036573836682083
4.9221829618021
8.785987720572685
12.035451478481901
14.723401599278317
16.4837695657942
17.390682247703797
18.27195034566499
18.110630054909848
15.339641321456865
11.640266545209524
9.680266602486554
8.508759937351906
6.921614408825963
5.963217141328072
5.454826267699175
4.603781088634733
4.221732288098469
4.45420747098255
4.4952985183604515
4.540941051863285
5.0269736024064615
5.806343012678162
7.2282273619623645
9.10589395827512
9.919308289548262
9.686110017277676
8.692927875716267
6.006969383341313
1.8636469777123816
-2.3820289908978514
-5.309453281085342
-5.859999237963984
-4.150905523724761
-1.7241868768685662
0.6322091605342549
3.4962742066964974
6.652424777131501
9.918637890995655
13.966988585191258
18.41799266220668
21.857992542231294
23.79642386953927
25.16307448835689
25.861096243504747
24.837036778603405
22.888350323731913
20.93797576718122
18.605719695253534
15.323251445957712
11.618138050549964
8.71787887679203
6.108020959296808
3.7471675566574745
3.178779870888045
4.09629058599883
5.501550106657226
7.742683036418989
10.134378308118583
11.343860221292031
11.561467651696553
11.181615136190514
10.469313726079264
10.053748457034237
10.231643627309673
11.886604227668196
15.6428359750489
19.991542959075236
23.991028154957494
27.34138213364277
29.041623234484575
29.771243022346926
30.83461034300092
32.156202885559736
33.13232437700146
33.738881782247425
33.75623302830129
32.32524225699849
29.828836209973883
27.348579201289276
24.715509756926757
21.342486605268427
17.69482371271109
13.858659175999938
9.145814484336801
3.8603268250760827
-0.382357256089529
-2.320302415877013
-3.2764907224359385
-4.2786300375626185
-4.498914605749875
-3.896781597412375
-2.696816124015734
-1.1434137028599738
0.2700683645276896
1.1082965893185375
0.5508621480641062
-2.1610507103147447
-5.628757275043172
-8.247564383774021
-10.836509016364946
-12.920370082326048
-13.283670526844926
-12.188867509976195
-10.905117138180385
-11.256623840173937
-12.775224073685324
-13.611679748386747
-13.139162739753079
-11.52769130665578
-9.885571962688685
-9.980495019673395
-11.157852101260188
-11.531947812612064
-11.671370839555504
-11.724072602107318
-10.481340399346866
-8.346958243076259
-7.3401890276051684
-8.099679083683883
-9.010351355467327
-9.475389474534156
-9.59773520309248
-9.291955083771525
-9.036114592749781
-8.566015202061456
-8.503025409401074
-9.590591055844332
-10.438851084841225
-10.979461754928463
-11.570612932923822
-11.530203496743914
-11.907069287128403
-13.018774059963281
-13.51648296279451
-13.85050150614873
-14.413725850128278
-13.746538673080144
-12.036494523166331
-10.489538321099037
-8.343498011256242
-4.686967048816807
0.10253305615195883
5.20504119266156
9.62430235363886
12.43099382479173
13.81213766176885
14.196211919613447
13.2362103807712
12.138286677311319
11.797895607232693
11.159485768061522
10.434710621569414
10.381780351332225
11.48837281881648
13.693991310098365
16.18917549729214
18.999865984895994
21.64481932056288
23.193746518959443
24.509890215361477
25.50239966769231
25.391789624618067
26.9194711772385
30.385032309833434
31.65601340947078
29.572302456775887
25.540629347637225
20.74962841965821
16.933940088130328
15.972588574923362
17.31393548317102
18.912399306845177
20.319695149231453
21.48641140699037
22.557178176978738
24.15384831440403
26.008316325657763
27.007621492303937
25.489838875652968
20.23799284892982
12.256984615619542
5.094772117525183
1.6803020222256855
1.1514146213489
0.7610615323970402
-0.8663909544776209
-3.748314475118868
-6.839345848086217
-8.333094820202632
-7.419704193969334
-3.894235083152211
1.3468115763872441
5.725533478931047
7.2359955136728145
5.891712856986929
4.747592427317542
6.71321640652594
10.839425977965135
14.558957165146879
16.23244297139348
15.803577272395641
14.574653773902126
13.534879744932088
13.189430461689378
14.264918981728455
15.39174858016974
14.759891044128278
12.809237749503676
10.584755909924269
9.414131382122969
9.342101277764161
8.325183509951657
4.989123069114719
0.8271090725876916
-2.1300901168778537
-4.050255390048786
-5.784543735314923
-7.488159457893267
-8.974287516565173
-10.27182795004118
-10.49168316335172
-8.859054888564046
-6.749473771779218
-5.2367929302535465
-3.9633639156302807
-2.671211869676764
-0.6941161563384791
1.7297802478735658
2.6698694496286253
2.6098608770646217
3.500413051626215
4.936664206590175
5.72051181301162
5.861848048735091
5.796254998150528
6.156402092128095
7.458341566050485
8.337039451088144
7.973484824953025
8.236644682540552
9.996200958357967
12.294168032012927
14.01428262343883
13.24700046478529
9.51917781738791
5.330124286009737
3.093123036972303
2.7258547185913713
3.1502928943910975
4.289507672057797
5.3858252036884
5.950782430137373
6.6692106568935605
7.525770638468784
9.114563163881014
11.368027890829136
11.857614312485545
9.697598872529642
6.997785588552468
5.19176130049284
4.6054447594596
5.671135728624851
6.958315516801257
6.553906750238536
4.392611607356266
1.5786648027741053
-0.6531679516130083
-2.191557265958872
-3.307546923187099
-4.6954570386577155
-7.447946070631514
-10.919716214384135
-13.587203719566824
-14.678435361283034
-14.252128398481515
-13.003647155755477
-11.07801614131172
-8.907427034053327
-7.460235117060568
-5.622735584546927
-2.1049489574078075
1.6041407613011385
3.0546154523622584
2.36147695517302
2.1503387727464665
3.2650029672704606
4.037854440355848
3.815514963470022
3.5833097498626785
3.2959322794951147
2.551570690709826
2.03607607753674
2.54144591391682
4.155080299751196
5.49206365392609
5.473347123542113
4.089918393520605
1.6642668806053298
0.04280353911707175
0.4673669144462884
1.4057744647156105
1.9211584673295716
2.233886355563753
1.7096204047952985
1.6431964576362943
4.2245364381711665
7.733366026333519
9.42809779551432
9.903504045133495
10.344803561013421
10.674260493201032
11.711492071198416
13.776884538567856
15.916043345808713
18.54223074637042
21.676316053181786
23.2074332298491
22.632621770628923
21.959600167318
22.47434240926868
24.152938781167073
26.60449346317635
28.751600317878736
29.805627810562413
30.600485551007537
32.07896795476109
34.07703275445302
35.68504711707319
36.549665662116794
37.35197276974968
37.612132158024906
36.35026404087232
34.18407739603163
31.642148392295432
28.41640102500735
24.81070305000464
21.14558886923546
17.12633165781802
13.05550021280428
9.804872239418057
7.2789149915780005
5.1226306735690255
3.4486639966739863
1.4847973494514568
-1.2226079446259308
-4.414450154618241
-7.783036961159679
-11.089810945227196
-14.512466744246389
-17.006358669272032
-17.972230352506845
-18.84801078656456
-20.070445781126473
-20.41989222154581
-20.252964386682663
-20.59845260298137
-20.388833624591438
-19.36065444209309
-18.26780948137061
-17.227877635105685
-16.24442331347905
-14.831934105072172
-12.720471257152578
-10.251953127156492
-7.872698074345964
-6.191971130948818
-6.078593776909433
-6.786067534899841
-6.927872042583532
-6.632437237500178
-5.89916725041993
-5.35619828933967
-5.798124958473331
-6.3026363387845885
-6.331509376505697
-6.8949196989182155
-7.7286855811789765
-6.8811792502754585
-4.5235831210663475
-2.5292235958282303
-1.65724971362641
-1.8416515399838846
-2.8707294471378133
-4.3777401544674746
-6.077223126834243
-7.443007626877563
-8.433492829125047
-10.13347498464596
-12.638744717954113
-14.241660007603436
-13.459386678361275
-10.964854563769576
-8.24915955119402
-5.642182067426574
-3.352494714197953
-2.245702433645787
-2.6302193664271414
-3.846233708525003
-5.107742095844477
-5.789217598338681
-6.136467428156022
-6.890920819534569
-7.6539945782698835
-7.853050035486406
-8.296528592799676
-9.223034887206152
-9.607413555083031
-9.312958290708384
-8.431959975396824
-6.933570961622374
-5.073980680014303
-2.8810994012185835
-0.8695688170269433
0.5007362412188066
1.7781069626083663
3.2870240253224896
4.0327333134306835
3.1208025640828
1.1079803576893406
-0.7383665045426228
-2.0509370872199932
-3.3442086890548346
-4.835461105704878
-6.188797760405844
-6.307076475029499
-5.421794406667547
-4.740948758407624
-3.6585616455305625
-1.7352749842257438
0.49822177501805254
2.066882468380421
1.5166202535036162
-1.1406866885417062
-4.947571903985945
-9.96636942055235
-15.138160771817537
-18.98902921290764
-22.497167823791994
-25.795086988266142
-28.55961634110884
-30.631700604736366
-30.336723072653967
-27.87179481136036
-24.50631103839497
-20.37100885359799
-15.42963856322229
-10.138109293348453
-5.3073846757881755
-1.775403016856926
0.10133834970904565
1.8374720527617538
4.675921104252119
7.710240416729711
9.303837883151113
8.6020656812274
6.102196724382579
2.4545604238644314
-1.622548266866136
-4.665123548135562
-5.889672155971651
-6.062397403321548
-5.424707342522425
-3.575768347824813
-0.7795026364359967
2.3538577874530575
5.104202680568676
7.441678395677304
9.675759001260825
12.278457926148764
15.854715407181924
19.74406161209324
23.270604800753496
26.453278038273144
28.680571658271873
29.994748211969156
31.54738562671497
33.63145774459682
35.40977099117995
36.23330736780415
36.324458996149914
35.97804147894988
35.022242962966246
33.14911116686601
30.31522186716724
26.759092192305776
22.600179010370457
17.952564611523975
13.100906877433966
8.16152415182689
3.1622704083673643
-1.179648061628327
-4.652311688524122
-7.6819847849416005
-10.010428247801741
-11.709888443669298
-12.351091056831951
-11.336231911778757
-9.655681549968847
-8.529839543444009
-7.795848914336596
-6.621563748483022
-5.301887965684132
-4.365326921844534
-3.9056667655138173
-4.482264297110657
-6.549823154059764
-8.361940950859541
-8.795865781960062
-9.525997312497323
-10.555004327989963
-10.918390025891785
-10.367775929922775
-9.31300037360337
-8.16011647622645
-6.89644763115662
-6.30205646210638
-5.875996801011583
-4.983663405456833
-4.138154462135885
-3.3133557129662585
-2.2499530902912257
-1.0261079330667806
-0.15283388780146837
-0.4543213691280534
-2.019848254309479
-4.406601511679305
-7.21435669507189
-9.727494296179618
-12.112149367851872
-14.134055639682192
-15.135540941919215
-15.875125267984535
-17.258707359036613
-19.708528640613135
-22.502020712422453
-24.38015080436765
-25.198675018820765
-25.34107589162575
-24.780093570498682
-23.359814936202618
-21.256200751145105
-18.51266405247074
-15.244623958524649
-12.684662135564029
-11.461600633933047
-10.21991656520254
-8.826060698659594
-8.453771500324551
-9.246723912986981
-10.611431762012568
-11.906295357581424
-13.320016434010387
-14.72480503003684
-15.419954643703768
-15.442150270269185
-14.93343060583394
-14.066563955085927
-13.44364196098897
-13.28594593502495
-13.353074446571656
-13.758713061739762
-14.476575622541123
-15.315517956992387
-16.0248681838009
-16.159104292985294
-15.901676711574723
-15.862256204071162
-16.564380930572163
-17.350340410166897
-16.58780887419934
-14.064067744172522
-10.74045062801957
-7.537379102588163
-4.8207895431415
-2.1896727118440262
0.31252134676493826
2.059650899200255
2.7378753531256956
2.2524578159705815
0.7658204192826129
-0.40054425412675887
-0.4252239303809743
-0.9260006902914729
-1.7855852135810573
-1.8095743243828597
-2.6228764306700096
-4.170060581514367
-5.21536535787535
-6.520079001966772
-8.45882495020087
-10.571747779214325
-12.021896784919502
-12.723898385978114
-13.880915205473656
-15.529734991960371
-16.071251553646125
-15.09199900608088
-13.811185200135798
-12.717524192085966
-11.573602594388083
-10.754400985269594
-10.332186775779046
-9.69459140655081
-8.469332874696004
-6.610826658065946
-4.329892651410547
-1.9098409429957992
0.3065669640396635
2.4135918007285495
4.526965496945513
5.993549973710891
6.591940977325669
