AAD_Filtered_TADAS_FILE
AAD_BASELINE_CORRECTION: BASELINE REMOVED
AAD_FILTER_TYPE: BUTTERWORTH
AAD_FILTER_ORDER: 1
AAD_LOW_CUT_FREQUENCY_HZ: 0.025
AAD_HIGH_CUT_FREQUENCY_HZ: 40.0
EVENT_NAME: 202302060117
EVENT_ID: 13194
EVENT_DATE_YYYYMMDD: 2023/02/06
EVENT_TIME_HHMMSS: 01:17:32.00000
EVENT_LATITUDE_DEGREE: 37.288
EVENT_LONGITUDE_DEGREE: 37.043
EVENT_DEPTH_KM: 8.6
HYPOCENTER_REFERENCE: AFAD
MAGNITUDE_W: 7.7
MAGNITUDE_W_REFERENCE: AFAD
MAGNITUDE_L: 
MAGNITUDE_L_REFERENCE: 
FOCAL_MECHANISM: 
NETWORK: TK
STATION_CODE: 4414
STATION_NAME: 
STATION_LATITUDE_DEGREE: 38.406947
STATION_LONGITUDE_DEGREE: 38.754133
STATION_ELEVATION_M: 725.0
LOCATION: Kahramanmaras_Pazarck_Turkiye
SENSOR_DEPTH_M: 
VS30_M/S: None
SITE_CLASSIFICATION_EC8: unknown
MORPHOLOGIC_CLASSIFICATION: 
EPICENTRAL_DISTANCE_KM: 195.07
EARTHQUAKE_BACKAZIMUTH_DEGREE: 
DATE_TIME_FIRST_SAMPLE_YYYYMMDD_HHMMSS: 2023/02/06 01:17:45.6412470
DATE_TIME_FIRST_SAMPLE_PRECISION: millisecond
SAMPLING_INTERVAL_S: 0.005
NDATA: 10657
DURATION_S: 
STREAM: HNN
UNITS: cm/s^2
INSTRUMENT: sensor = GEO-A200,/GEObit | digitizer = 
INSTRUMENT_ANALOG/DIGITAL: 
INSTRUMENTAL_FREQUENCY_HZ: 
INSTRUMENTAL_DAMPING: 
FULL_SCALE_G: 
N_BIT_DIGITAL_CONVERTER: 
PGA_CM/S^2: 106.618
TIME_PGA_S: 
BASELINE_CORRECTION: BASELINE REMOVED
FILTER_TYPE: BUTTERWORTH
FILTER_ORDER: 
LOW_CUT_FREQUENCY_HZ: 
HIGH_CUT_FREQUENCY_HZ: 
LATE/NORMAL_TRIGGERED: 
DATABASE_VERSION: 
HEADER_FORMAT: DYNA 1.2
DATA_TYPE: Acceleration
PROCESSING: Automatic Paolucci et al., 2011
DATA_TIMESTAMP_YYYYMMDD_HHMMSS: 
DATA_LICENSE: U (unknown license)
DATA_CITATION: Turkish Accelerometric Archive v 1.0 - Disaster And Emergency Management Presidency, Earthquake Department
DATA_CREATOR: AFAD
ORIGINAL_DATA_MEDIATOR_CITATION: : AFAD - Disaster And Emergency Management Presidency
ORIGINAL_DATA_MEDIATOR: AFAD PROCESS SERVICE
ORIGINAL_DATA_CREATOR_CITATION: AFAD PROCESS SERVICE
ORIGINAL_DATA_CREATOR: network: TK
USER1: GuestUser
USER2: 
USER3: 
USER4: 
[...]
-19.996219923240968
-16.491385238688906
-12.198433782695247
-8.055598322807304
-5.160769659329014
-3.747994501357617
-3.334277731522775
-4.12274195160917
-5.314199667134596
-5.28931703680484
-2.641210366095539
2.720997038998963
9.010541006942287
14.23685580257329
17.792664145900957
19.79364882526767
20.09854608371364
19.191262361401467
17.946370766464057
17.231249201445188
17.478775142957655
18.120810264939998
17.811902017190913
15.335887985022135
11.741106718300776
8.52614854485494
5.780167380615425
3.814865848543742
2.5167591729890972
1.3068206287640538
1.200929327658494
4.127259719154936
9.591358522176483
14.465599206330804
16.823939014992018
16.776221769132928
14.162909007614147
9.472337258696585
4.07588566869611
-0.6508526242269589
-2.6874377419876043
-1.2647007406133777
2.838015733367377
8.226671119101098
13.22632116589318
16.524231739253064
16.851914690208844
14.80874497607829
12.147144627220134
9.43256880538533
7.621622731963819
7.6819201703307884
8.756142625943792
9.305631144590679
8.404125351019589
5.730068794921554
1.7558915236182107
-2.8261876203192933
-7.801907285176792
-11.956067026766197
-14.119601637905589
-14.906656598127457
-13.97479738080528
-11.451809774638798
-8.480206010634344
-4.499217451334919
-0.38752794007323055
3.261563602710136
6.846754168046326
8.82552486040573
9.413990432757505
9.800182834369279
10.826882589786049
12.429064778869101
12.905202890115266
12.622338702531007
11.907365446883967
10.416970070605158
8.922070098249135
7.1904478168743164
4.591423914654925
1.1863989455962682
-2.7620212010390484
-7.515007509914849
-12.939080280769454
-18.884961348819076
-24.934935713371146
-28.647088705732905
-29.943582829020663
-30.52038871819102
-29.531486785780427
-27.161338190629557
-25.101649408453333
-23.611304921447672
-22.856147151155856
-23.56353044931992
-25.533407222925256
-28.007934109567543
-28.978239080181343
-26.519553218935673
-22.13305374776977
-16.373191661563034
-9.285854577637718
-3.6317265846475673
-0.2271715376613826
1.2690989782717224
0.3419717163997291
-3.9055158128849663
-10.47256988068613
-15.81251314471363
-18.826520544919603
-18.85936888407173
-15.535912405064762
-10.513237409823015
-4.318704539307567
1.6262067845341541
6.202884704484167
10.227758104261966
13.291035315009903
15.559531122808032
18.429251299645337
21.570797234083315
23.889246880480254
25.959871464000948
28.480114295774516
30.52371329638925
30.76692432647589
28.544071999743924
24.54897415327505
19.567827948866494
14.219375622675567
9.958045473824072
6.2809903472113175
1.988802588926716
-1.9129192366810908
-3.8378225248262736
-2.6144219481853614
1.2565325309415778
5.912502022511856
10.048136133358117
12.486230038003647
12.553286046540615
11.205056197133558
8.970281882676774
5.021067087418054
-0.519549922607907
-6.567723377564683
-12.470410544295202
-18.040314746518423
-22.99525468858407
-27.12150273116071
-30.751491879691592
-33.898461954154904
-36.15215089904512
-38.047189758871205
-39.8915956580224
-40.86013449515519
-41.19750889633028
-41.43315483084516
-41.42983070546564
-41.39817410810597
-41.504231686335
-41.82269157020182
-41.66819387675122
-40.664495198317375
-39.392748873512964
-37.25441353046582
-33.95805559839859
-29.88333066248595
-24.282342262637915
-17.5122279153953
-11.160754420467665
-5.971780699475617
-3.446834280610551
-4.551914117139416
-7.613985418619986
-11.555627325006292
-15.512961195595846
-18.30301366667734
-20.713029333989425
-22.735456203974273
-22.499949271036154
-19.628405866971665
-15.144150609378537
-9.493908898713965
-4.223786227333728
-0.6016110145265057
2.3346650589501974
4.735961320829511
6.937331681180222
9.467233807695086
11.72587526378496
13.420868876607958
13.832518317930367
13.31565288562243
12.543817306205883
10.545796470545486
8.282377163450807
6.828359413713166
5.819740679839708
6.68656094101487
9.942778483479815
14.264840185100844
18.961890454061887
23.44006567521543
26.530745300980445
27.148170550044814
25.569974214854742
21.804180363576865
15.11499001941813
7.040362069701373
-0.4956061448044844
-6.1206160888650825
-7.941921144901247
-6.431395908111145
-2.687124889088723
2.702083085560063
7.701016708650126
11.443129450798073
14.240849258247257
15.375179749653585
14.26429636704271
11.18276431144816
6.282221274767594
0.010313510342075505
-6.303465360821922
-11.906055153675663
-16.697343254859813
-20.38781399515948
-22.82277907612434
-23.552776042748267
-22.536429176821795
-20.65567849679061
-18.488634398475583
-16.291021595002697
-14.296524049268053
-12.61381994263203
-11.063849089601327
-9.572396307222096
-8.150961066043939
-6.719306493762801
-5.716720511468173
-5.747852181113974
-7.484176113782787
-11.135432840428303
-15.967341436326812
-20.815092019591376
-24.56333508244382
-26.631416693011595
-26.512627304063937
-24.80330238801941
-22.76050371177107
-20.78257096339139
-19.893057397417873
-19.775202100412457
-18.544644615671817
-16.515943884833156
-14.167071220274948
-11.23068394419342
-8.910238794791248
-7.625534921369526
-6.0890188577493625
-3.9387753319350844
-2.423752756808596
-2.008757768131639
-1.9244195121322978
-2.5549922883222593
-3.5247424079222465
-3.249869605647026
-1.786749304685085
1.2503988313271663
6.4269728965746
11.902172143691121
16.01750857359954
18.24879013828946
18.336127588877964
17.25559272728268
15.412783377224526
12.226625247474509
8.116546149859195
4.013550846684293
0.9874062424592484
-0.6802848659384315
-1.332336440633345
-0.6654220103246707
0.7008723038480753
1.7375665784421201
2.8454843332942654
3.932489627767525
4.064786159627843
3.563070339300123
2.958801118008828
2.100925250330016
0.6525969406218897
-1.6882993043853132
-3.999277833188666
-5.806648134809913
-7.441098204255044
-8.37387741879323
-9.45298532385017
-11.14035308626515
-12.390635162359109
-13.404235927128177
-14.013216613239017
-13.626699121708333
-11.61281498120092
-7.623415821751597
-2.9299577739996616
1.1697133191430327
3.998154314600336
5.687849301165434
6.846924854694538
8.120029420111136
9.932658634329105
11.89615799571943
14.165020763174674
17.111687453330045
20.09874955275753
22.058487811122646
22.33436158464124
20.765629361658146
17.371108853063937
12.782489347891675
7.8076705940579
2.991143827851875
-1.2039067330746778
-4.653330170656009
-7.226171984970333
-8.996964916800682
-9.659273529312292
-8.537349385026914
-6.429373736686568
-4.034469074329458
-1.7755295080561255
-1.3802883981520881
-3.307763516752893
-6.432075904774378
-9.78787298070991
-12.393318193125253
-13.639519924549656
-13.905042534758467
-14.026387742416002
-14.557964420839154
-16.345123189833735
-19.230401594115435
-21.756917125820184
-23.63118453177041
-24.431876971383716
-23.646177335126175
-22.17822805745543
-21.05964217853845
-20.950058613290263
-21.59615711480405
-22.585877787810823
-24.052131627518367
-25.657540762118995
-27.058578119567294
-27.47564725816667
-25.5313329595002
-20.859549570129094
-13.399720327578159
-3.7366970873442327
5.963482444092124
14.978273273269513
22.512789101742513
26.845386428416774
28.890248205334874
28.58582769955777
25.574616009388112
21.483659945529322
16.729296645741012
12.567190664169233
10.081560460319128
9.822775986899055
13.0041625943242
18.265418870251615
24.18264203244501
30.500168100933386
35.90699566306629
39.44830507655848
41.238170240862985
41.21988961538603
39.07020777002968
35.468179849039096
31.409534916703645
27.666584563755137
25.273112592548
24.498544536174393
24.74674891521829
26.28915814552107
29.31831894141133
32.019626102902734
33.71996943509269
34.43108402320139
32.770364154358965
28.96124617741274
23.69335885632702
17.668346072924336
11.866316560817754
6.682368454236137
3.16241006513967
1.0708799389978578
-0.27397890406036973
-1.1936452247898455
-3.020579453692475
-6.401804609187526
-11.487405950819527
-17.652955646850746
-23.517675087815785
-28.60540943199307
-32.565472048618076
-34.63492860803474
-34.48584991671533
-32.72316684950933
-30.377844257843677
-28.163199114887803
-26.822061714642313
-26.981941147649913
-28.472164756472566
-31.19738552409443
-35.072119384873645
-39.020041458210684
-41.303931553575865
-39.89925544086221
-34.12776734591709
-25.431793790814773
-15.363506023463916
-5.425835043151774
2.485697132947942
7.3297780326805455
8.585990656766077
5.994790360999712
1.1224341791993353
-3.488885035218359
-5.623685722087209
-3.780643602768703
1.077870849537899
7.146162540348058
13.37041104567489
18.546708450155215
22.349374505821668
24.62145122589128
25.156596937552184
24.49854410851065
23.437947420626493
22.861576142547943
22.864767594093824
23.776948625757935
26.076024472154664
28.596589176280215
29.75273516731311
28.914477285731117
25.786672327314513
20.66191957255508
14.55477797427488
8.022896522897694
2.9175174668527677
0.791311139892741
1.3275909572919433
5.027170866338413
11.461845229544139
18.527773932060207
23.946384262107614
26.677955918990396
26.679613577739367
23.745777285277242
18.22766369447614
10.50271650865317
1.5275755030376752
-6.987445598457263
-13.390502686058715
-17.74976906193616
-21.41990915215898
-24.093830783731192
-26.43310919692023
-30.529441014616705
-35.70631409839511
-41.07856668994094
-47.88071910930211
-54.498928071590655
-59.32983054243657
-63.836534731661466
-66.94300452953675
-67.31418003793975
-65.30022462175893
-61.452306065446244
-56.728217023628886
-50.4643282813187
-42.8978928757121
-35.40752488828456
-27.24562312202918
-18.524237710562833
-11.099930312107348
-4.868761515660671
0.3046199623483997
3.0537451811779484
4.315067927079431
4.513494747988363
2.879680336600442
1.2528251207756576
0.3828984668679877
0.2660032664897023
1.7768524829282542
4.843382730368329
8.749044745247845
12.429492123346451
16.193372636024897
20.100871506532815
23.528856117719354
26.69715431163357
28.782549036412234
29.310950652031707
28.592129973662303
26.47080438661884
23.326867586028015
19.782275347793593
16.415916589431664
13.673614546709937
11.39269444316014
9.13718197945953
6.965896626147625
5.582077047452567
5.124309998229522
5.76993839814176
7.468777771138033
8.821187062350003
9.483410082395077
9.406031176157516
7.983084592584909
6.059503570210553
4.574770922745193
3.698024972145296
3.7921218719388596
5.2794664419189266
7.923658609276875
10.975116701122275
13.929248061081585
15.640110360872137
14.496370582070934
10.525519517493011
4.279081359928162
-3.965076970231564
-12.203314610173663
-18.250375969145082
-21.84197719240895
-23.159532856531122
-22.142456443715947
-19.555116240489657
-16.69017517273224
-14.207227853225591
-12.771240340155952
-12.805286306564737
-13.685703802259093
-14.862357903553933
-15.675691954454338
-15.32608093192601
-13.62221150184575
-11.211666962127936
-8.729747394601786
-5.872547927993705
-3.2855890887378454
-1.5604655545188286
0.24885937120908475
2.4232083144108487
4.667443666452282
6.81435368373711
8.345651943781215
8.80846317970883
8.065219752124744
5.891668367049405
2.694319498108622
-0.6032215600115366
-3.625542450136856
-5.919993415807365
-7.323933887808563
-7.737692987158591
-6.591577032315953
-4.597517162964907
-2.549310002910186
0.21512821844735308
3.4442359457118057
6.457266139474915
10.080346712326481
14.583004736501085
19.34044638515603
24.364382969974933
29.003837724733707
31.955732550408232
33.09087454295384
32.74313401479928
30.8506492836987
28.251321187293534
26.278455100406067
25.107337867632342
25.01591443210136
26.215945931188976
27.332052747567953
27.87931569331606
28.0689259284475
27.50614267458468
26.962412811435364
26.7112585756056
26.38365097242842
26.005849050244912
25.073114260027086
23.789815957846606
22.128320306952094
19.43042000477878
16.189909524183353
12.912153926395789
9.628790215636297
7.151026815460865
5.996828211954627
5.84620671432089
6.761491907719936
8.49395942452653
10.556618206607256
12.513416345188723
14.029858477395285
14.974162231526101
14.842579819792084
14.061281524660185
13.206676629218254
11.906973809049633
10.215394051986587
8.597127952310116
7.0246090011438875
4.428590952540485
-0.03421046217101753
-6.210020044967381
-14.24364908211861
-23.485642815469383
-32.22902567899808
-39.85183321837294
-45.95173575348086
-49.693915174949794
-50.483580482314046
-48.38658009353517
-44.55779925214011
-40.10447716974523
-36.43743557754445
-35.11340769452665
-36.3110905890423
-39.5472480532288
-44.07605271393759
-48.83063628703689
-52.680148989537
-54.8569232152075
-55.11145300746093
-53.33581713660587
-50.258425556709696
-46.97455957481992
-44.14866714485505
-42.794647925588464
-43.14575916308629
-44.39322012810052
-46.34815661416275
-48.337143610379506
-49.389098479565455
-50.09968789493113
-50.826641856677405
-50.46021586494402
-48.52059093204621
-45.14842845153239
-39.91442157525902
-32.988386548413196
-25.116325549819873
-16.6841156958581
-7.934909179740243
1.1210193116740492
10.430991284829778
19.509445147902415
27.79770333734262
34.91498339256369
40.230773375430076
43.0795134202427
43.958930632048585
43.500425183846204
41.584774306345956
39.43841241827354
38.90620086912097
40.64139592540663
45.348379951784885
53.01401931666992
62.41152728667722
73.14924314906
84.6230491557934
95.13386491394293
103.11712765366678
107.23638351624444
107.36788057697629
103.93594159272013
96.8172175494373
87.26363816806021
77.87444022169855
70.28160638825807
63.89741851503515
58.453225440289906
54.40517010172783
49.9117086599845
43.9603499806842
37.00409380485895
27.611584110703323
14.971129235024682
1.0965088537103909
-11.131223945610966
-21.162869134624483
-29.067887351524412
-32.86098455622694
-32.52255873726941
-30.110304869790728
-26.870495609553537
-24.764147619739916
-25.922716465279695
-30.134029436416615
-35.62772718563939
-41.01844091111135
-44.59210996639583
-45.91266299722826
-46.87845718982588
-47.381886399349575
-46.331332295280184
-45.3508288672767
-46.04930278564658
-47.28389181472248
-48.10708225139248
-49.47260081739101
-51.26882336036353
-52.02814888883214
-50.46942121225598
-46.391645047264454
-40.43623748444461
-33.41061277235881
-25.845148870694178
-18.849859649033093
-15.06754188768969
-13.62516467213135
-12.121680668145972
-11.605481582077621
-11.931905197460107
-11.529673512845461
-10.30942296610151
-8.565888035929326
-5.911598782095529
-2.046260446363175
3.320948790314022
10.349850104715843
18.4974623529648
27.675911655598917
37.820190878197145
47.56752548445135
55.356424005754114
61.612357937871444
66.10075233082011
67.94733822376519
67.9879399209758
65.46246056832628
60.42916126820668
54.979534592184926
50.219766525483855
46.82314980190754
44.555749290351905
43.29040771086331
41.81697181954512
37.77549946971807
31.799007707080957
24.620657401998024
15.633938441102218
6.525403630336359
-0.9663050747146227
-6.139782724836087
-8.440613680085297
-8.671247768512401
-7.288295816132615
-4.87947621855893
-3.3666864253774427
-4.070647499813706
-7.110324452191698
-12.012345791766787
-18.48351945123086
-24.867809194598248
-28.356803567500638
-28.05107401964454
-23.669271572213685
-14.77834246774555
-2.9201735222036627
8.929256969018903
18.749783274714723
25.908498982744312
29.88550991130528
29.842417420605916
26.556389354364768
22.525709976818085
19.50865657717765
18.944746795600278
21.394666345580625
26.94134057577712
34.552248274312696
41.12272341355306
45.891251329295976
48.95389078461076
49.4335798598022
46.654909119079434
40.246553079019336
31.529589927356078
21.59061408449312
12.158664355903033
6.334840384128051
5.188367960879104
8.44888286911002
15.47332256067509
25.223708746038604
35.64298302271616
43.846805467281946
49.657091637406346
53.14734879545869
52.73748974410259
49.69628203325597
45.552660431877094
39.194520038429616
31.302747197880247
23.64510288083938
15.659792259404147
7.565277327353194
0.6474629327746604
-5.356527626224866
-9.78265544191247
-11.930918158531401
-13.40139844763328
-14.384899250816233
-13.557136445747151
-12.669774881076375
-13.26980839713744
-13.481896443881002
-13.591920834650237
-14.60573137915804
-14.902367219874915
-14.034869743958602
-12.841992000756969
-11.840493213827624
-11.692252437929977
-13.404257852520729
-16.75441598797556
-20.04078407798889
-22.569975589411182
-23.575063145068327
-21.84801807109106
-18.379513353404935
-14.46543994001312
-10.354679378310719
-6.5768857891122785
-4.30802650018488
-3.6954789864027298
-2.3873379158592507
-0.1431690228336231
1.7235524805065165
3.4029523823075185
4.665612893557226
5.36248285940496
4.789763591010696
3.3101471811798504
1.9150570863953338
0.05572619773257492
-1.15133680451141
-0.9664406168096654
-0.41627610347988153
0.43105630034979114
1.1098104906471646
0.8859455907040577
-0.0425019589732728
-1.0435288279551185
-0.9677508590553116
0.5484684003533823
3.997938112898634
10.432889088925343
17.987920131868975
23.883294474052793
27.499495782356707
28.0326206056703
24.250971793318342
16.84831431745895
7.632003284272689
-2.177349223416222
-11.257016470020028
-18.365259337717426
-23.138518346484354
-25.65019550665117
-26.348819678347105
-26.78288845922156
-27.729214473177247
-28.256360182992818
-29.2761577712744
-30.93439213878706
-31.767373936002134
-33.00970670812837
-34.72633326989773
-36.16946253084385
-38.01282953171904
-39.86847503079244
-42.080153098827886
-44.285586546593564
-45.16112443991526
-45.08455342701658
-43.91235639370713
-41.122957445957056
-36.57471819642798
-29.982130935934915
-21.358151584663588
-10.602812746785803
1.302697378747092
12.774604240944807
22.93885119959913
30.501630162836477
34.56730750678369
35.858528054965994
35.869239141609455
35.70471456405012
35.837802130202824
36.33097503663774
37.02624749836634
37.78223403862122
38.33224799755655
38.72751967708771
39.050858070604264
39.351413746373304
40.80441941663606
44.02085638510681
48.16982861940144
52.22183345973482
55.13361418658388
56.619469811356666
57.17982851113557
56.924101961127676
55.757744008795804
54.87541127653116
54.75241642167712
54.53068762092056
54.27126583039436
53.52200939598698
51.76041818896621
48.67324753069385
43.84175840736447
37.91984492281901
31.953705414485277
26.726295802527627
22.453328911304528
20.109374892517472
20.331394909413675
22.116943787887468
25.06828010870412
29.246405756043668
5.585384490221391
