AAD_Filtered_TADAS_FILE
AAD_BASELINE_CORRECTION: BASELINE REMOVED
AAD_FILTER_TYPE: BUTTERWORTH
AAD_FILTER_ORDER: 1
AAD_LOW_CUT_FREQUENCY_HZ: 0.025
AAD_HIGH_CUT_FREQUENCY_HZ: 40.0
EVENT_NAME: 202302061024
EVENT_ID: 13207
EVENT_DATE_YYYYMMDD: 2023/02/06
EVENT_TIME_HHMMSS: 10:24:47.00000
EVENT_LATITUDE_DEGREE: 38.089
EVENT_LONGITUDE_DEGREE: 37.239
EVENT_DEPTH_KM: 7.0
HYPOCENTER_REFERENCE: AFAD
MAGNITUDE_W: 7.6
MAGNITUDE_W_REFERENCE: AFAD
MAGNITUDE_L: 
MAGNITUDE_L_REFERENCE: 
FOCAL_MECHANISM: 
NETWORK: TK
STATION_CODE: 4412
STATION_NAME: 
STATION_LATITUDE_DEGREE: 38.59685
STATION_LONGITUDE_DEGREE: 38.18385
STATION_ELEVATION_M: 820.0
LOCATION: Kahramanmaras_Elbistan_Turkiye
SENSOR_DEPTH_M: 
VS30_M/S: None
SITE_CLASSIFICATION_EC8: unknown
MORPHOLOGIC_CLASSIFICATION: 
EPICENTRAL_DISTANCE_KM: 99.89
EARTHQUAKE_BACKAZIMUTH_DEGREE: 
DATE_TIME_FIRST_SAMPLE_YYYYMMDD_HHMMSS: 2023/02/06 10:24:41.7557220
DATE_TIME_FIRST_SAMPLE_PRECISION: millisecond
SAMPLING_INTERVAL_S: 0.01
NDATA: 11251
DURATION_S: 
STREAM: HNE
UNITS: cm/s^2
INSTRUMENT: sensor = ACEBOX/SARA | digitizer = 
INSTRUMENT_ANALOG/DIGITAL: 
INSTRUMENTAL_FREQUENCY_HZ: 
INSTRUMENTAL_DAMPING: 
FULL_SCALE_G: 
N_BIT_DIGITAL_CONVERTER: 
PGA_CM/S^2: 126.376
TIME_PGA_S: 
BASELINE_CORRECTION: BASELINE REMOVED
FILTER_TYPE: BUTTERWORTH
FILTER_ORDER: 
LOW_CUT_FREQUENCY_HZ: 
HIGH_CUT_FREQUENCY_HZ: 
LATE/NORMAL_TRIGGERED: 
DATABASE_VERSION: 
HEADER_FORMAT: DYNA 1.2
DATA_TYPE: Acceleration
PROCESSING: Automatic Paolucci et al., 2011
DATA_TIMESTAMP_YYYYMMDD_HHMMSS: 
DATA_LICENSE: U (unknown license)
DATA_CITATION: Turkish Accelerometric Archive v 1.0 - Disaster And Emergency Management Presidency, Earthquake Department
DATA_CREATOR: AFAD
ORIGINAL_DATA_MEDIATOR_CITATION: : AFAD - Disaster And Emergency Management Presidency
ORIGINAL_DATA_MEDIATOR: AFAD PROCESS SERVICE
ORIGINAL_DATA_CREATOR_CITATION: AFAD PROCESS SERVICE
ORIGINAL_DATA_CREATOR: network: TK
USER1: GuestUser
USER2: 
USER3: 
USER4: 
[...]
0.45776880235213463
-0.7488666044543961
-2.8490735723507155
-7.328704963739819
-12.564884272021164
-17.54199912272754
-22.06752396986035
-23.467749054070357
-24.00013181408177
-27.9577656666178
-32.487333997822866
-33.41041866340894
-31.01339999794725
-26.260144668571524
-19.852002977570727
-12.927415169667277
-4.388622270092407
4.515608046591817
8.798253476127348
9.086296477603142
7.842518501947098
2.355524502906711
-6.562083415810358
-11.002997598082336
-9.119612573846583
-10.325451171727835
-17.084466907492484
-20.84334677860314
-20.543292646223378
-19.469249896693217
-15.337268061575012
-7.568657085744918
1.4603812419550926
8.178211998000034
8.562870854421599
6.515206285676103
9.356505460734935
14.898768106376217
18.595151209181722
21.74774699093543
24.364564194394937
23.023982497424047
16.20206802069739
7.987984880342241
1.3969998288104566
-8.045148251809737
-17.353284295432307
-17.993730415948207
-18.333471686353526
-28.308502268619247
-40.84428805847204
-48.531434009795504
-50.03623366300975
-45.8836969307256
-40.603451227627374
-36.45287637461111
-32.76787316755093
-32.51560814947598
-36.74556897398259
-42.89903037387138
-51.24031079473176
-58.5885480946206
-55.82703910749497
-43.194580167561895
-31.308080354282755
-25.362426527520483
-24.708388052814158
-28.683450064190115
-33.27756102194857
-34.15660615639491
-31.422058221148138
-26.200228474647094
-20.532573954619078
-17.288057068764726
-15.973803725660414
-14.530513600402237
-13.026297868931504
-12.037525424164803
-11.840348651985666
-13.168544094777255
-14.226818173553733
-12.625119698080281
-10.56901532587023
-9.402756638794946
-8.788916836596691
-11.028391435685117
-14.841517491848702
-17.376795703715494
-20.22789377276411
-23.426205137998537
-24.40762655652878
-22.870786310508592
-21.088592438371155
-20.359270109346717
-19.38510738029079
-18.277124279900857
-19.321230753323654
-21.806239239757137
-21.321655124493816
-18.03071413110653
-16.489662186988355
-15.785632190937822
-14.276178193978485
-13.617050557780665
-13.353596402097526
-14.225372720283294
-17.37193377322184
-21.25558665190779
-23.4646976572056
-18.63201210006602
-3.157506609188697
17.22147952251781
31.48422987086697
36.09098027254451
40.434010965487474
51.86246385144308
64.14352064175344
68.54231290221497
64.48149825766866
55.58297599188712
44.79549219861747
35.42358559704758
30.0792071170239
29.136855378026386
33.310534089499306
43.7839177394206
58.24315532603123
70.60113855003692
75.04478746842118
69.78292452039223
61.058325389889994
56.169761645392036
52.95904999262131
49.537192747277246
46.05835477867333
38.298910794308554
31.038255474688125
31.699797952149016
34.90257444355881
36.35012393099182
35.62970794359121
30.533365066985162
25.324082645811654
22.832237792209053
15.640968919209078
3.2412541642793586
-3.0322957468061955
-1.3505272720167663
0.45191198925418585
2.8986821434958614
7.085814529550439
6.143920880398043
-0.22564014122113504
-3.100446321817968
1.7648591098616166
9.017904783930593
12.331891852821983
12.837870715635153
15.055247439318862
20.225881259071
25.694021940424435
27.902333772790346
29.79777779350617
35.89673542545172
41.14432427136507
42.449982529897156
44.3906577757643
46.461775168149806
45.873949861174175
42.11429868973176
33.848882371035195
24.601144800508287
21.879272624807488
26.01489977627595
29.116104896061753
26.533035889357123
21.44174993394862
18.168676050953287
19.134909121055163
23.733325611480293
29.692762714192128
36.94076981293728
44.04975908396301
47.961657947443165
48.4325232513384
46.48440617799715
43.32512968525145
40.30413288141332
37.445521987956575
36.043200494544934
37.995203654840346
38.92506079872934
34.97174430349644
33.18218510868459
39.0489156394182
46.96449505726287
50.27713955731626
46.48184135364144
36.12374459001117
24.220621445384126
18.139459945017666
19.132532540682988
18.855449391423473
11.820534058343949
4.279580457588992
0.8685839887024068
-4.585538201916824
-16.150369049859624
-27.426668216560085
-29.35584181453699
-20.126343334695612
-7.54677046541892
1.3036445458180184
6.3441046106711765
7.709904135469155
6.429533282570937
7.33604229656061
11.979922094697304
16.244651364018456
18.096977445012143
21.47449418800997
28.398563733454502
34.18689168688751
34.138240008463356
29.311148115243498
23.86925909872565
16.512264064977217
5.809557902412986
1.2939521364452784
6.390724551804883
10.046899933098919
8.387688931867379
6.725395914397578
8.752651761905083
14.220244568500467
16.90994121496752
13.746647420246568
8.146792027131099
0.3018227389243644
-9.400284651530999
-15.834012472311873
-16.079181590171512
-13.410224469609718
-11.942441957924496
-10.523479716927751
-6.98841767365797
-4.100158016389198
-7.182547457155074
-16.65495972972131
-26.062386054525064
-33.13322238662732
-40.87877442883893
-46.39429022532546
-46.56841737961523
-44.858264679972
-43.113860408398594
-39.5109862280811
-33.61169702062048
-28.767937603027445
-28.29671318082035
-27.456230895943964
-20.335921541837575
-12.501785649068102
-11.43329831449762
-16.841633273038518
-26.843566185523816
-38.042499632471916
-45.200403641911706
-46.54349565446404
-44.04760668608659
-42.230858806372034
-44.59755435448591
-49.370878718081336
-51.44165677314719
-48.67237932150385
-43.42838883873621
-36.60450228481666
-29.45662199219382
-25.202116979267753
-22.980955340788093
-22.19810770606941
-23.362257163181955
-23.480448080492128
-20.69769470792494
-14.8313548556831
-7.287459528302252
-1.5918522791565093
0.7865907262810875
-0.5555309574951934
-5.739487970950255
-13.52938711705803
-19.760464350761318
-18.3341622716733
-13.453615690765146
-16.473321713605152
-24.572334142976437
-27.297861406551164
-25.460463339152536
-21.859785045489197
-15.340625633050628
-10.526515394252005
-10.368954754169318
-10.264794518350948
-9.706085954200976
-12.836587655077146
-18.535423206922232
-19.463394379836092
-11.833562863174139
-1.7112724040615757
3.5948948840347335
2.9266682171119496
-2.2216928769225066
-8.371387725618547
-10.838055672040628
-11.197348506164163
-14.215990710042304
-19.06272851655333
-22.885795381245476
-22.454452371800503
-16.91955953489212
-12.67247282666245
-12.149349644435446
-10.626533529759289
-5.562750002969934
-0.5873699976781872
-2.7954275299743543
-8.379295939744603
-9.280470732979271
-8.959670835322681
-7.330945495349653
-2.6631841809376673
-1.682028832223951
-1.6972197065972148
6.8302086390566785
23.145184611466544
39.87852499065299
51.141199815611905
56.048128285981754
58.47552836009331
61.5377208595936
63.15886105693186
60.64607265892801
54.575149221943356
44.454505658383944
31.605330547420547
22.302134426530035
19.44073670351534
18.761610814193308
15.104180990184602
9.436907264670433
6.994479764821384
9.65042060841615
14.11847514494685
13.67217183016295
3.2104381764602548
-14.077191898670051
-27.825824497070283
-29.10359150696575
-20.409815888942237
-11.508699237715687
-4.148943856194965
4.843769601329873
12.110074424193439
14.03889362692263
11.997290243981126
5.666625644565008
-3.003858372657233
-5.553204317393865
-2.077964665078052
-3.101499381916334
-11.629947650229033
-21.218783411806495
-25.206209830940736
-24.426556728224153
-26.339092348549315
-30.920041895330574
-33.172768048144675
-33.61878235627406
-31.519791330415654
-26.1367746617076
-21.553423667075798
-20.171556613067825
-21.72502053741624
-23.81323106924998
-23.80219578974908
-23.941907774083113
-25.9340282901431
-27.822695167973976
-28.594203062611907
-27.00412821763016
-23.949954210413114
-23.625462258460583
-25.217436224756533
-25.87953963497424
-27.558031703691622
-32.3713240830518
-39.11495831938277
-41.05030179186837
-32.36678094747152
-18.55685268892108
-5.435179518641801
6.085517874143098
10.093698808876928
3.581141220537706
-7.227261783686157
-16.88511470632446
-25.04986164513752
-32.98853311644401
-39.73356172670482
-42.042346830128764
-35.99656502533911
-20.90506905236797
-4.404459970906156
6.0682413958736
12.29104149041671
17.3995104594182
21.516172681445948
24.40243218682573
23.352542093047692
17.987462472834363
13.914119097255208
11.923898928497454
9.529591477909465
10.083868213145095
13.374959136143502
14.935126353201792
16.236695276576764
19.059112609406686
21.64334402400522
22.261695137203784
19.45166877490231
15.152989590893101
12.974635723787618
12.099971905993337
11.298358460646812
12.59245943882989
15.674019376405495
17.942802160460197
20.22328550504107
23.487180143221384
24.622619507640234
21.70222150847484
18.03169260756165
17.221584545982324
17.977104535815872
19.361117024271316
23.701741064315954
28.444352909399832
28.654704651930796
23.943429548642193
14.441373787750926
2.3119594115029987
-9.268903207275166
-23.107914127190973
-40.087304590269454
-54.62637413873172
-63.860756853698255
-68.46927881608579
-67.60840994988015
-59.86545020026484
-47.99622071505073
-37.48055918179104
-28.451139506831854
-17.52025575293506
-5.98666688869741
0.6758846145890581
-1.9526492913911302
-11.158450835231932
-19.559780417661823
-26.079671675363365
-30.591504550819305
-29.083786844735883
-25.7325701420183
-24.280461867240078
-19.57670751452994
-15.142963211490782
-16.14754042050561
-17.218029293140898
-18.898946516932753
-23.92180919609751
-27.92224861514319
-33.60108494503659
-44.30676627373612
-51.60279485716634
-51.13846043235573
-45.93538672670253
-34.865154250596326
-22.393709738795724
-17.444185127885955
-16.10150162383366
-14.26890094098062
-16.966877296504855
-21.131647168569426
-21.41207591396185
-22.07494229741356
-23.446231848370722
-19.843625748164765
-11.579117381202192
-0.754211994838662
14.25396481396584
30.167464574062237
40.21488803140427
47.615752059721444
57.791336013177364
62.38956727185904
53.212517355283595
38.2916621512455
27.476352733651535
20.403634727343743
16.260794183037916
15.990801813513047
14.937890719557195
12.157299965318282
15.754002672152964
24.989217787020284
29.02855019417923
23.80537094574908
12.406899749777917
0.030797274868488628
-8.008681196842133
-10.545580854033973
-10.882026140370927
-12.463477973045535
-15.403050498225149
-19.192789561833127
-20.936105198657593
-17.22855831518223
-16.12665099549146
-21.47861511959718
-21.57542774899315
-17.55671946093091
-20.053131633926895
-23.493787706293674
-23.464979280750796
-26.931775391232833
-30.719163643031894
-26.363180160544374
-19.55386543912837
-18.244832142857696
-18.914431647064212
-19.19732714600087
-22.727164620833946
-26.840566946002244
-26.6285332482226
-26.030179332907437
-27.387517797381147
-26.687788626046654
-25.905081704118047
-28.057088710908122
-29.580441716772448
-30.07065536068353
-32.5750430988356
-35.266352387360016
-33.367871487785145
-26.320850680646352
-18.58516314637231
-13.197858079623138
-10.997522761765369
-13.778281480259748
-21.139521785020488
-28.88521680129559
-33.60644397081227
-36.62652230608232
-40.25994620065488
-42.357826670277845
-40.847304408975184
-38.216107155771695
-37.160226019984115
-37.13339035466921
-36.13433441955637
-34.47804895081513
-34.98844482739223
-38.69210868909
-43.772618996823226
-48.28251630273918
-50.712041519318824
-49.890385260945756
-45.958450846314925
-40.40750211276034
-35.92246404869145
-33.8506253252058
-31.56237435333281
-26.811071890779385
-20.988586901962954
-16.742153355073608
-15.623944576753814
-15.705597064851911
-15.128211326413966
-16.509368951333432
-21.159889518746162
-26.546915569299443
-30.809155814844786
-33.964350652678846
-37.76850298868898
-43.540577536442335
-48.61933592315473
-48.86411679402888
-44.16551268891872
-38.11814735543626
-33.12440726289836
-29.3364727228845
-26.613433694300625
-25.116477220406356
-25.984920218707586
-29.083981818648144
-30.24126593237701
-25.973276844897963
-17.454730182384417
-6.965169358032086
4.392208544049318
15.172544894740984
24.16211492419324
32.95722622122382
43.562802830210494
53.48478008962073
58.12554582679759
54.979988715186906
45.22570273180727
33.48470319531796
20.668872481523348
6.340134380958278
-1.4720196506559313
1.2431155371937623
6.823603250617101
11.402278232703768
16.45928064786216
21.93839412022269
26.424343833584498
28.821960049547524
32.37728582910251
35.434376916069134
28.59752973024732
14.329025575016962
4.605268962444959
4.903564319700307
14.536717928926151
28.988552489401837
45.31792534746544
63.38274896840673
79.40682798403571
89.75814507640563
93.1703704619345
90.30233998482584
87.16048134563287
87.19141605523056
87.51244923437172
87.52577892958799
87.50545496901545
86.44245507246866
84.90369119147307
81.31079083922018
75.1180056299809
71.61019982438158
73.74869708190975
79.27210972489175
85.60715909918551
91.38465615205097
95.84911478498272
98.0398511834353
101.08663914015204
110.27527427040027
121.3881910726827
126.16032632503529
125.36541002152858
123.49260480659409
120.63482436782674
114.41268846804222
101.32533279421808
80.03444644014652
60.158745562742205
53.44022780855111
54.92537957057292
54.069142699626276
51.57209051067931
51.11540541008884
53.98570378402732
59.17869658302132
59.11361028709719
46.73796766458195
26.590383269925322
10.835414589302532
5.235069971522217
6.778835690629245
14.055862115697684
26.07640238093713
37.891915045887934
49.30208617913979
63.742855729386584
77.62627174147337
84.7578742382059
84.31060102449285
78.82363807531138
70.51230723530229
57.729809474859806
38.201290886081175
17.617921257161658
1.9383031183184953
-11.212061499548385
-20.628474502199833
-22.094193970655912
-20.735042470825476
-20.122269809820033
-16.8323684109342
-12.001975824619144
-5.55983589023281
4.448112717075605
10.31521363596509
6.90692709052426
-0.9377508341765068
-11.456562987583808
-24.01994602139413
-37.615325831488356
-54.21198029310763
-69.27936647476177
-79.78653797097566
-91.07109060070226
-96.20938337813027
-84.68126123435984
-65.95798850093765
-51.36026313900955
-38.59303847228392
-25.37734897184576
-15.417337206048295
-11.29919211683527
-10.652749003347711
-11.306536240675129
-15.582235231163404
-24.83527179346526
-36.83776162087706
-50.23355219307324
-63.18213515898653
-70.9354971081865
-69.1715586101129
-55.14720580993908
-31.84836708471046
-8.885363099829247
9.59048901896151
24.812138259343104
35.60198801469099
42.87059166343325
48.85463548094783
52.67613489730359
52.172198561318524
46.78775443868978
40.66715714429992
36.638223023767864
30.90549307177806
21.28687002314872
9.44650250299238
-3.302559658606168
-16.687914110724744
-33.8328186148575
-54.84251386480067
-70.55152538095871
-76.8504899358859
-80.48090282110833
-83.94619038199933
-84.15183155611878
-83.35974837337494
-85.52089896223389
-86.60979150078164
-81.80970003817555
-74.40654062187184
-66.20419681640988
-53.96139745508771
-38.74491310805543
-25.90025676627691
-18.869880931666415
-14.074088157928111
-5.308307007476206
5.007685917501218
12.357528674347359
19.778938812746627
30.456376026268146
42.48020206478933
51.53132194425321
54.91254780901142
53.70244696162733
48.213928346221756
35.424450871253796
13.583493847372951
-13.795478163230865
-39.1245682166987
-56.32444866954728
-64.54839336327804
-66.14416312413294
-62.57996933118898
-54.126573368128824
-44.97323122371053
-41.63797919517328
-43.084509617123324
-42.58649455377976
-34.82660515052424
-16.835251287425294
6.391678745955247
26.69422070415215
43.19656314552416
52.14178111939453
46.501714858503576
28.940853046447344
5.920952556949612
-16.93020552742329
-33.23055180360317
-42.65143161952687
-49.221152591471295
-51.880178291526875
-44.63786185362364
-26.718912447170013
-5.267143968028789
16.562520331797522
38.56144749692424
53.348924036004945
57.3973316080433
56.416412543157875
53.32383692613205
49.33842999290946
45.867118028134854
42.50181493428824
42.85573902803707
48.08420408733339
51.13881682732365
47.8736842096569
39.357046978938904
27.74509399843913
17.512724542748682
12.318937790957024
12.106537187383728
16.269066230797506
23.521681228719405
30.07499681004532
34.12358714717737
37.215425832919394
40.664801557683305
45.13708723321547
48.60386190420556
46.87073398358237
39.92861251179354
31.59207422346878
23.65322907160843
16.11572218794404
11.95875730034214
15.18349738449977
23.370909509652716
28.649474717555865
26.556329030406634
17.461418587120143
2.469423030827656
-13.793462590486048
-26.492838376783826
-36.755743487552905
-42.35204671772936
-40.391590426090595
-37.110148479225536
-33.41261647919306
-23.451560762698858
-10.460405751238508
0.39931912938332137
9.776776128116014
16.14302954830429
16.864976995590716
14.225602421082463
11.491824968274523
9.825112422329843
12.133809809084921
20.40544815821316
30.1270414767184
37.01599777183578
41.56220084557289
41.976408262045
36.03741360300048
27.930042648598786
22.435766491828637
19.58656274982794
18.344324797053815
17.90245321391511
17.250533807421657
16.749299294876106
15.492105821374906
10.730195001388122
4.082743564758705
-1.254145970504858
-7.108891725597621
-17.182879454906963
-33.13207244847753
-49.27666229799932
-55.24425090165038
-49.74048374321812
-35.39251989123458
-12.377731114039756
10.47512686008133
22.988793580541206
26.04951207504823
24.20847782994504
20.71934145551692
17.3701543176897
13.458324536582666
6.477211037034615
-3.924329883421327
-12.433600935684591
-17.67579303058383
-21.416570442843465
-18.980554828784715
-12.56477354726015
-8.08154208278876
-1.605827480221746
2.9532100752668904
-1.7945932477226934
-7.535864382134548
-9.61618132504855
-14.561112816295552
-21.80783821538485
-29.22840693598117
-40.8631022659562
-54.0189850935223
-60.63763125266916
-59.69470141970617
-53.52617355012047
-44.16546897175014
-34.13134174443157
-22.712167310014333
-11.754773054495919
-8.567991495943279
-12.877206964615244
-16.267226149642628
-15.1738575367486
-12.237082646786646
-10.432340548287984
-10.296141262727096
-10.831145578783453
-11.299884019310792
-11.099353670854876
-11.625314218822007
-14.386443614113054
-17.397672789280083
-19.00824038269398
-17.794541337202233
-12.73152600831331
-6.829898146558382
0.9849653352674089
16.81045927467443
36.07940109713888
43.871222834919095
34.54310033890752
18.746247521877788
9.661028426624085
9.889951339523176
12.143908403071537
9.057763974852776
0.05291873164380619
-10.566010474789874
