AAD_Filtered_TADAS_FILE
AAD_BASELINE_CORRECTION: BASELINE REMOVED
AAD_FILTER_TYPE: BUTTERWORTH
AAD_FILTER_ORDER: 1
AAD_LOW_CUT_FREQUENCY_HZ: 0.025
AAD_HIGH_CUT_FREQUENCY_HZ: 40.0
EVENT_NAME: 202302061024
EVENT_ID: 13207
EVENT_DATE_YYYYMMDD: 2023/02/06
EVENT_TIME_HHMMSS: 10:24:47.00000
EVENT_LATITUDE_DEGREE: 38.089
EVENT_LONGITUDE_DEGREE: 37.239
EVENT_DEPTH_KM: 7.0
HYPOCENTER_REFERENCE: AFAD
MAGNITUDE_W: 7.6
MAGNITUDE_W_REFERENCE: AFAD
MAGNITUDE_L: 
MAGNITUDE_L_REFERENCE: 
FOCAL_MECHANISM: 
NETWORK: TK
STATION_CODE: 0138
STATION_NAME: 
STATION_LATITUDE_DEGREE: 37.704858
STATION_LONGITUDE_DEGREE: 35.723358
STATION_ELEVATION_M: 477.0
LOCATION: Kahramanmaras_Elbistan_Turkiye
SENSOR_DEPTH_M: 
VS30_M/S: None
SITE_CLASSIFICATION_EC8: unknown
MORPHOLOGIC_CLASSIFICATION: 
EPICENTRAL_DISTANCE_KM: 139.68
EARTHQUAKE_BACKAZIMUTH_DEGREE: 
DATE_TIME_FIRST_SAMPLE_YYYYMMDD_HHMMSS: 2023/02/06 10:24:51.0994140
DATE_TIME_FIRST_SAMPLE_PRECISION: millisecond
SAMPLING_INTERVAL_S: 0.01
NDATA: 12501
DURATION_S: 
STREAM: HNE
UNITS: cm/s^2
INSTRUMENT: sensor = ACEBOX/SARA | digitizer = 
INSTRUMENT_ANALOG/DIGITAL: 
INSTRUMENTAL_FREQUENCY_HZ: 
INSTRUMENTAL_DAMPING: 
FULL_SCALE_G: 
N_BIT_DIGITAL_CONVERTER: 
PGA_CM/S^2: 22.888
TIME_PGA_S: 
BASELINE_CORRECTION: BASELINE REMOVED
FILTER_TYPE: BUTTERWORTH
FILTER_ORDER: 
LOW_CUT_FREQUENCY_HZ: 
HIGH_CUT_FREQUENCY_HZ: 
LATE/NORMAL_TRIGGERED: 
DATABASE_VERSION: 
HEADER_FORMAT: DYNA 1.2
DATA_TYPE: Acceleration
PROCESSING: Automatic Paolucci et al., 2011
DATA_TIMESTAMP_YYYYMMDD_HHMMSS: 
DATA_LICENSE: U (unknown license)
DATA_CITATION: Turkish Accelerometric Archive v 1.0 - Disaster And Emergency Management Presidency, Earthquake Department
DATA_CREATOR: AFAD
ORIGINAL_DATA_MEDIATOR_CITATION: : AFAD - Disaster And Emergency Management Presidency
ORIGINAL_DATA_MEDIATOR: AFAD PROCESS SERVICE
ORIGINAL_DATA_CREATOR_CITATION: AFAD PROCESS SERVICE
ORIGINAL_DATA_CREATOR: network: TK
USER1: GuestUser
USER2: 
USER3: 
USER4: 
[...]
-3.046264916975429
-2.7336923859595728
-2.2641942446659695
-1.4285753692852075
-0.42137686655684115
0.30625585974637515
0.5338441941907911
0.514891377850484
0.5430610984394693
0.6937435322017925
1.009606181598085
1.6011704727602731
2.7531612064501605
4.5672229019273525
6.58379542398921
8.217152109103312
9.077257080724248
8.882338068823858
7.633759908571382
5.885816873584965
4.183289391204795
2.587965543235772
1.401815781712648
0.9732458095740377
0.8802780998972812
0.4740251761689105
-0.3540657140698031
-0.9259963035599891
-0.6440628161069627
0.04203540511084618
0.5576549611030832
0.8582533331537424
1.0135473655512413
0.9572140129252769
0.3085422439270345
-0.9242092932456958
-2.035122935092006
-2.658161233243275
-2.9786847497639757
-3.2660670844780135
-3.5927227373506447
-3.891931309093413
-4.4459821718639665
-5.360951367733366
-5.906283412974033
-5.456779403438954
-4.351250330849234
-3.32995629724672
-2.6075358260760138
-2.0118792309141753
-1.6309146067059888
-1.496658527181052
-1.266533501284345
-0.6335561389316777
0.49932017837661896
1.9270809200505996
3.1013342566804027
3.7160892727415766
3.8699091003164328
3.473557027247272
2.564370312766616
1.7506054563510995
1.413814688512891
1.405742171868118
1.4608310672359015
1.330248322607954
0.9917872432110157
0.48015718131261154
-0.10637601004920795
-0.3201334587276762
0.0665457997657232
0.8477627358398206
1.491033935324347
1.4088455577514012
0.9048633132856275
0.47479113990116617
0.0051548952763885904
-0.44430667348263125
-0.8366562669419529
-1.1186885783048812
-1.0020621620086139
-0.642994228068131
-0.20756285772181635
0.18024294129160304
0.26105407435367367
0.4170253846014712
0.9449376965727605
1.4233534866082773
1.5701165886355553
1.4536717126693053
1.1902582933171086
0.6941309916599822
-0.19564328798211336
-1.2500996372883013
-1.9365091911389574
-2.016311692225585
-1.9899945602323377
-2.3109687904248655
-2.620688920374539
-2.573536355807518
-2.1362656351377387
-1.4647858105794112
-1.0877018603426378
-0.9525832356316337
-0.5399049922430165
-0.06920221539765384
0.22909523386959518
0.42531781042357053
0.045193043702172114
-1.0774977752388877
-2.1390923276062694
-2.462664693400609
-2.0616171473270253
-1.439610873166462
-1.2273522101073526
-1.533064154890204
-1.8908337729317037
-1.858185721423872
-1.56759660939439
-1.3801250525413162
-1.0699438817937792
-0.35135055901009404
0.5324053549151859
1.0288756848810445
0.47981960960669845
-0.937490091874588
-2.2759956834460646
-3.041600234483907
-3.0241957149961216
-2.199873201160521
-1.1076858503983655
-0.3264197284724523
-0.018973842247168263
-0.1722772070167487
-0.8839372326554693
-1.9779630363069278
-2.8193999552489206
-3.0126053463344116
-2.83420402498945
-2.8457306398440756
-3.1401403858288197
-3.4566431848232972
-3.7597501974136662
-3.9649065080944546
-4.081485196598501
-4.295208159631668
-4.3107158939572585
-4.04696055638078
-4.061280752101827
-4.276265876201014
-4.064924824712717
-3.4372768942022396
-2.9554586722497342
-2.8896299283208373
-2.787523788997068
-2.2597165579846834
-1.6884757399409382
-1.3745109246655949
-1.1050389543381016
-0.5767475085743358
0.3806869573727076
1.396420395525248
1.935707693571205
1.9824087393237968
1.7665065320816717
1.4841537849188724
1.1276345948057012
0.7058087574470829
0.4846635791293026
0.5562986932869061
0.941606057863783
1.5297593112932577
1.9502324731176055
2.2206165073957127
2.4107948254394373
2.337466524329131
2.1203940696411947
2.0169650508278636
2.129326358725625
2.2251469719710384
1.843495273456481
0.8739138993434243
-0.5010037649009106
-2.054848168873682
-3.6386956228288163
-5.189247045259922
-6.250293540885506
-6.236043685906651
-5.259840224933778
-3.832570801605721
-2.310593207302798
-1.13364885757572
-0.5504312648259447
-0.3124431137198053
-0.33926354170234074
-0.5508937686334703
-0.5347229318387633
-0.2840364897631198
-0.20011117004439893
-0.6318620313110449
-1.4840430203319486
-2.0980043421490064
-2.247596020421427
-2.2852274343575036
-2.3456706905936535
-2.3278880663102997
-2.0954615746576333
-1.718096999368133
-1.3670139873497242
-1.1416530894885772
-1.3052191926854162
-1.8513206319367106
-2.3112816971792927
-2.4094206278164867
-2.4939965678424523
-3.249210949192345
-4.621617779708636
-5.88975678237384
-6.798261879394467
-7.335538403393843
-7.391268440621916
-7.0082339705364
-6.214037936509872
-5.2029993078218375
-4.406027980406881
-3.931663757206562
-3.6802107983576424
-3.765677230742192
-4.2121699551735885
-4.844511942829903
-5.552605220252167
-6.100229791307009
-6.4170860104126195
-6.915969827973028
-7.528486542954331
-7.703678959404754
-7.338684549087346
-6.463463305945418
-5.301526758096679
-4.414765448821119
-3.890814847846881
-3.581968892714575
-3.3596815802255127
-2.782828333333088
-1.8199950603494328
-1.0204600200330054
-0.7072574469036657
-0.9479134110191025
-1.8437960518984167
-3.3049471313529737
-4.841622225662234
-6.033461688293373
-6.941807163350746
-7.7421094401138335
-8.353865109667423
-8.563991750965291
-8.378463736511623
-8.00803064464558
-7.5856105348504865
-7.249528246223212
-7.002066540194928
-6.554940654519413
-5.907449423478657
-5.427575718823954
-5.224755492439163
-5.069332445928416
-4.673093158459289
-3.773699820866309
-2.290788427356509
-0.6670910735478821
0.42354539653307505
0.9915898941984455
1.5194964882352828
2.0831399800649044
2.516881561052844
2.696468987213197
2.61391831212433
2.579166373314295
2.802342305774932
3.1832068379323366
3.5970748810388247
3.8000797691857775
3.62029841298621
3.2647483652802034
2.951636921467146
2.6977470898423994
2.5000464107033427
2.3116253950642727
2.147499841525697
2.173676522877191
2.231219253660881
1.8714885729830577
1.0067285667198107
-0.29836712134790566
-2.087116500634856
-4.029502806881417
-5.61176329485029
-6.709116004712367
-7.370823885026448
-7.68167295654325
-7.8642499015403855
-7.989064865609984
-8.051257903004034
-8.115522916809253
-8.07436166699655
-7.9149741224421595
-7.768649308817599
-7.515158632819376
-7.007103207271941
-6.36818680565071
-5.849707236251212
-5.396414801041785
-4.699255733344821
-3.8644800420228345
-3.1110121619033557
-2.34760831186164
-1.649260750227258
-1.0656756840614043
-0.375031006699805
0.4207133171669236
1.057786027025078
1.2645753416846686
0.9107700875571251
0.09429837494166372
-1.1815220743251424
-3.045844912071969
-5.227211084748488
-7.154359384515331
-8.636269019153268
-9.882586276677007
-10.982472704245424
-11.781952262804436
-12.089171125928953
-11.811349004914396
-11.14712546062664
-10.432504453260297
-9.63340327346226
-8.519234894871742
-7.200601862094488
-6.05643646554975
-5.321967934810265
-4.895119074851918
-4.5500317817098885
-4.213736079208018
-3.966348525401016
-3.8877130098727233
-3.9184852319784764
-3.9855998452760972
-4.195253533886884
-4.738048405718547
-5.643236458785931
-6.598820789207422
-7.249119871515671
-7.586692092453006
-7.615532761741411
-7.208078876421398
-6.584537917833895
-6.047850842832653
-5.540392847413218
-5.1617608870613
-5.1334554480839065
-5.2065716975091965
-5.08280547941263
-4.7705999631798415
-4.3638039728601195
-4.009248845705623
-3.7629906103971034
-3.651814882714784
-3.7443097959441367
-3.9806008254662717
-4.347944039210558
-4.684804809338754
-4.7118914239146585
-4.587487978582568
-4.422266025683959
-4.166036709007419
-4.037462324191873
-4.052716015999107
-4.196354828563041
-4.552991359122373
-4.7419184033263075
-4.395123407274792
-3.575994205137005
-2.54932379201304
-1.6131707971463187
-0.8837927943735198
-0.47192843962512615
-0.42931521256036115
-0.5425477264525262
-0.6908839939729995
-0.8874990896458413
-1.0615653359400297
-1.1796744645687611
-1.4608637846343566
-2.1222441432643313
-3.059383780574938
-4.094075183932786
-4.8642085289446975
-5.008590423217697
-4.8326521442804955
-4.693585134534113
-4.540506050774462
-4.3986189032514655
-4.2487305741325585
-3.881776278895279
-3.2418202705650048
-2.4697579149707316
-1.639738170703553
-0.7916060320919046
0.12818856713606525
1.2116284341820498
2.0537438191533437
2.385267516663693
2.5868165715108558
2.8301785555582564
3.1061909232066567
3.30128417624194
3.1840217847064
3.040189040179455
3.220754277237981
3.7587888651997243
4.413901911753492
4.759275977700493
4.932460678937777
5.084522763884958
4.829379002138267
4.058019871894133
2.979995170119597
1.9007064047376374
0.967458912310025
0.07201978874208002
-0.7089696999119711
-1.3461572712658778
-1.8514600145198643
-1.9905862081109924
-1.650420431920621
-1.061911237515495
-0.38629943002799894
0.5416168922368949
1.6107763222512523
2.78209649912866
4.195478165347963
5.472008333751924
6.764143204448297
7.725917419746155
7.3840994113831835
6.6304821128324845
5.527814419050178
3.6032687897844484
2.314088930158519
1.2338957172963887
-0.16180554523433693
-0.8513125120106871
-1.6551294372730077
-2.386918243723689
-2.5201677454233136
-3.0685782081850994
-3.115886221926733
-2.4386626160779765
-2.348752900677063
-2.4388120424626956
-2.403807375926278
-2.643218696709025
-3.147402456841546
-3.721011300162725
-4.418782720447054
-5.465113165275159
-6.553199462341053
-8.041231617991341
-10.055771545169993
-11.445449825607069
-12.476134237854756
-13.399140872636776
-13.202194265304293
-12.358641025770527
-11.614368027008561
-10.556853366307529
-9.270886942460516
-8.259680747903417
-7.290313080507759
-6.046265124986693
-4.791430356263472
-3.5284787409966443
-2.1783029119642494
-1.090473938883624
-0.3165548633936236
0.5342224820905779
1.350951987376964
1.7885741683481882
2.6091085123571323
3.9508774369466932
5.233720772100137
7.19843780727785
9.407437304107784
11.039937750927178
12.35704958199398
12.944053735874766
13.342995118601126
12.633419726964561
9.978611217712546
8.561263923798553
7.820824851852626
5.826200011599321
4.668435597403848
3.521475329096248
1.6284418550617115
0.622768041741421
-0.49054822456143216
-1.828990722680752
-2.269798407694685
-2.3911778230235385
-2.381623713362347
-2.2937206983684315
-2.5024517666850232
-2.499352543540277
-1.917646745348087
-0.901665941860818
0.5377226555149687
2.3621888583246067
4.724335920274545
7.310392377131713
9.487950897441907
11.561242667159
13.273697602384733
14.144196982513215
14.739647830287277
15.043804659546677
15.316912093298443
15.929108868738656
16.204119225875832
16.38666524031614
16.21108612642985
14.57185464751037
12.260539034412739
9.789663324837989
6.892443331483133
4.758697112341755
3.9611258797368207
3.7909100326720107
4.218710886539123
5.237221302699242
6.333651480209083
7.39261878627156
8.546777175366186
9.757892045761979
10.844943717679026
11.417974328026132
11.179567175610835
10.37917891542881
9.297230918960457
8.194736502647679
7.865707326519615
8.223183395755651
8.432615276624189
8.925276416571691
9.971596390797611
11.06735091970302
12.31629986194144
13.609060352702857
14.963767672400856
16.82108821452534
18.518749637655493
19.466341299341583
20.17609117183903
20.52791768444371
20.13087917505383
19.55782557538801
19.15146919270347
18.79497424963277
18.505315079640898
18.173360136540765
18.004072532758755
18.270391251861223
18.859289554039922
19.531925589063675
19.957232795730555
20.05797800717463
19.671409297655693
18.581482810011906
16.8050342184984
14.299683085181638
11.792328975079263
9.867529085697731
8.27548186617824
7.44363077284655
7.5650999781432535
8.309288193090614
9.547814771545523
10.620542111977068
11.427816701752525
12.552099381248864
13.566468940044745
13.835306291372326
13.65363488982056
13.490936494577037
13.192712263308476
12.469464840983502
11.565528960784937
10.69972119923902
9.898224075387757
9.412794498702018
9.258907278455283
9.387875803907725
9.93382876688642
10.765494469608587
11.844203162455482
12.929982353147615
13.454102495359617
13.211759468697027
12.300102934707336
11.061921274895013
9.384331537272711
7.657134140599626
6.925280173849125
6.139203010836058
4.8184334304921865
4.192055518054235
3.8929699178456625
3.6926719795866054
3.504509172374742
2.9182515938055014
2.6760243993866744
2.243019258247287
0.8231780939276583
-0.6603473255505117
-2.094039371541112
-4.053319893645529
-5.774180912601673
-6.407060187648292
-6.60647305289508
-6.45730801464969
-5.57423018485992
-4.587863323101447
-3.2856814939644927
-1.8685636125700253
-0.9929148457191653
0.46991081524036143
2.469898925973369
3.7278379142859075
4.7685139329831845
6.269547815006702
7.525155980207669
8.304431129028439
9.301872746533283
10.511715741324984
11.606267842625426
12.447897171545147
13.064695556521484
13.814117268626497
14.610530509474783
15.42242443984687
16.188193694855208
16.94333263379045
17.93662811549481
18.331382858928475
18.448345678544204
19.128117116241377
19.76166299609608
20.702012750202382
21.50174749102667
21.509645528836938
21.840140943973257
21.742692832263867
20.46555992893089
18.819700436555323
16.600793731821884
13.946198183733019
11.04685113172332
7.540656968701028
3.8754195428471623
0.34260105257580636
-2.971262326357427
-5.497718385804781
-6.975926458559207
-7.5824591305062015
-7.2708533504471475
-6.018595032398546
-4.366461463358929
-2.4613321757981748
-0.26473428593621423
1.493459398126902
2.901890842024477
4.526116155163114
5.890561880271333
6.949717394038535
7.887219972930765
8.490937600620553
9.261026161251433
10.040969115799951
10.136001907466833
10.179511284697314
10.339584504926322
10.101770104795504
10.048343994729434
10.361891373939656
10.515585824598768
10.700830381439296
10.970990791016755
11.053959001304573
11.084499130758934
11.155206808348403
11.323648327967286
11.586769664102214
11.700425142934732
11.667271724965639
11.570070725174574
11.414676480025323
11.12753486229282
10.451688590913673
9.641467941120155
9.059331849555495
8.578434408387793
8.31929401403317
8.321672846751369
8.316788971586156
8.23025853753894
7.97331022827265
7.538762796138592
6.920284738494653
5.856308457220185
4.190463492217206
2.15782442459722
0.25251810436641825
-1.1732319972728693
-1.8972577929947352
-1.923106179452474
-1.4082816394166484
-0.2841967730437548
0.9932981158396339
1.8114894611566594
2.322048551255336
2.6300329898572197
2.789716525346322
2.83451476599515
2.5729467686182432
2.294095977581499
2.257471295562702
2.4322811338282375
2.9938050995275565
3.9327552973632804
5.079260696281213
6.224894968768134
7.039018749415162
7.447202872427911
7.608704025253859
7.4533469302947655
6.793610457046745
5.751091635944798
4.544370401145278
3.3850399907363213
2.4898608353893437
1.9169164943417396
1.8314722688772882
2.1201143232760935
2.3284053881564155
2.397543801927065
2.3986744446319466
2.400881495574201
2.4221106947319724
2.3514385925530523
2.4082589639435135
2.7386943183543613
3.25650137885551
3.9123354898003266
4.571546196741226
5.185331067917032
5.684623205581741
6.006591682941845
6.090145726382767
5.806971714641185
5.366735830383957
5.006886359202198
4.909267550362112
5.22255279686604
5.62098602151282
5.763735274725626
5.486147843885287
4.844737777355589
4.088489664003604
3.1173336210101095
1.9163627565109642
0.5891045928459719
-0.8545385564034201
-2.2264035554578614
-3.468045441173259
-4.4294466612012195
-5.046131025537473
-5.440757521913522
-5.334923966537548
-4.7745808891055015
-4.100710242465946
-3.4914601634411144
-3.275432426954801
-3.480510186390936
-3.9802415500764843
-4.689749037622818
-5.562998296081908
-6.765145687273942
-7.968418736168383
-8.865304924892998
-9.725420725978783
-10.518080204611786
-10.985711149210019
-11.054274272404623
-10.729920019176115
-9.899176270099789
-8.755852645522301
-7.859372969310175
-6.851832566866307
-5.27589636374587
-3.625770596415199
-2.1089834855253766
-0.6586563479494437
0.9393003981363092
2.9410538884159987
4.783681049919819
5.993775506845267
6.669330146517551
7.130341607242659
7.8409697489498384
8.753975931195223
9.76787252481067
10.937558279420887
11.991389560567631
12.763231536772693
13.053968079759011
12.645048645257107
11.581026309526193
10.128946272665301
8.830212807689616
7.746664593515698
6.646367483757141
5.757877106539181
5.0215991221187934
3.9745914925800547
2.5759746914183563
1.2684840953780605
0.1951434846028147
-1.0164166453918126
-2.4600700784620035
-3.9483923584135288
-5.380845111126685
-6.691241838025557
-7.966433713057427
-9.20025123214915
-10.181494426686916
-10.992065662147859
-11.864230373196586
-12.500030989855421
-12.585997577399647
-12.46888831562755
-12.240362412552022
-11.583558101672867
-10.65304286703268
-9.703273553979171
-8.666263968948869
-7.548579440323145
-6.567857358255923
-5.8663292766124675
-5.429196810046763
-5.203225521694211
-5.101419415313614
-5.238087506870485
-5.707073694723108
-6.178770335289577
-6.5633243415304925
-7.133946650303978
-7.710521974157947
-7.982033176073271
-8.213880141829376
-8.562162397422586
-8.77105173851183
-8.92777205989223
-9.02353655815465
-8.800377725389081
-8.479821824401734
-8.103219687562529
-7.478090274532252
-6.775032439371722
-5.963552720186999
-5.126955337438085
-4.8766518452651635
-5.574496238627928
-6.977795402019746
-8.534478314400431
-10.113336831524256
-11.915772190517055
-13.525645043419606
-14.366943453782811
-14.664931293146923
-14.909091517790847
-14.671288617694069
-13.55511729254247
-12.466454717085055
-11.544668175850916
-10.085761034641036
-8.774372542349944
-8.001935197324716
-7.052126460007851
-5.816860031074543
-4.49109093375841
-3.0795834466050254
-1.3510444406364737
0.749501087439465
2.4169398026764632
3.346646793691861
4.318135650053603
5.561806267151981
6.6207337694797825
7.327413776726065
7.43774420163429
6.499211196640803
4.558552319585714
1.8821706470042845
-1.1765977217381098
-3.941781894799466
-6.158258237392432
-8.130414436388195
-10.038213614313191
-11.773008691581351
-13.215524048376292
-14.290794081043112
-14.782817266237112
-14.766492112170036
-14.541930632161254
-14.018025749685416
-13.252222625623332
-12.594495656285616
-12.265156440904613
-12.632284429238798
-13.744231934991737
-15.009632858593829
-16.354472190814505
-18.013356149727908
-19.261192219554978
-19.458463169966063
-18.96109185578389
-18.2141655458352
-17.56470431088108
-17.016935606673332
-16.273970572107046
-15.468382678062808
-14.651758739089308
-13.777786111691379
-13.039622145660646
-12.406434826047557
-11.834048492384497
