AAD_Filtered_TADAS_FILE
AAD_BASELINE_CORRECTION: BASELINE REMOVED
AAD_FILTER_TYPE: BUTTERWORTH
AAD_FILTER_ORDER: 1
AAD_LOW_CUT_FREQUENCY_HZ: 0.025
AAD_HIGH_CUT_FREQUENCY_HZ: 40.0
EVENT_NAME: 202302060117
EVENT_ID: 13194
EVENT_DATE_YYYYMMDD: 2023/02/06
EVENT_TIME_HHMMSS: 01:17:32.00000
EVENT_LATITUDE_DEGREE: 37.288
EVENT_LONGITUDE_DEGREE: 37.043
EVENT_DEPTH_KM: 8.6
HYPOCENTER_REFERENCE: AFAD
MAGNITUDE_W: 7.7
MAGNITUDE_W_REFERENCE: AFAD
MAGNITUDE_L: 
MAGNITUDE_L_REFERENCE: 
FOCAL_MECHANISM: 
NETWORK: TK
STATION_CODE: 3147
STATION_NAME: 
STATION_LATITUDE_DEGREE: 35.902362
STATION_LONGITUDE_DEGREE: 36.064358
STATION_ELEVATION_M: 419.0
LOCATION: Kahramanmaras_Pazarck_Turkiye
SENSOR_DEPTH_M: 
VS30_M/S: None
SITE_CLASSIFICATION_EC8: unknown
MORPHOLOGIC_CLASSIFICATION: 
EPICENTRAL_DISTANCE_KM: 177.12
EARTHQUAKE_BACKAZIMUTH_DEGREE: 
DATE_TIME_FIRST_SAMPLE_YYYYMMDD_HHMMSS: 2023/02/06 01:17:42.5523440
DATE_TIME_FIRST_SAMPLE_PRECISION: millisecond
SAMPLING_INTERVAL_S: 0.01
NDATA: 13501
DURATION_S: 
STREAM: HNN
UNITS: cm/s^2
INSTRUMENT: sensor = ACEBOX/SARA | digitizer = 
INSTRUMENT_ANALOG/DIGITAL: 
INSTRUMENTAL_FREQUENCY_HZ: 
INSTRUMENTAL_DAMPING: 
FULL_SCALE_G: 
N_BIT_DIGITAL_CONVERTER: 
PGA_CM/S^2: 56.449
TIME_PGA_S: 
BASELINE_CORRECTION: BASELINE REMOVED
FILTER_TYPE: BUTTERWORTH
FILTER_ORDER: 
LOW_CUT_FREQUENCY_HZ: 
HIGH_CUT_FREQUENCY_HZ: 
LATE/NORMAL_TRIGGERED: 
DATABASE_VERSION: 
HEADER_FORMAT: DYNA 1.2
DATA_TYPE: Acceleration
PROCESSING: Automatic Paolucci et al., 2011
DATA_TIMESTAMP_YYYYMMDD_HHMMSS: 
DATA_LICENSE: U (unknown license)
DATA_CITATION: Turkish Accelerometric Archive v 1.0 - Disaster And Emergency Management Presidency, Earthquake Department
DATA_CREATOR: AFAD
ORIGINAL_DATA_MEDIATOR_CITATION: : AFAD - Disaster And Emergency Management Presidency
ORIGINAL_DATA_MEDIATOR: AFAD PROCESS SERVICE
ORIGINAL_DATA_CREATOR_CITATION: AFAD PROCESS SERVICE
ORIGINAL_DATA_CREATOR: network: TK
USER1: GuestUser
USER2: 
USER3: 
USER4: 
[...]
0.09752556225420737
0.39137191798529997
0.0042062889980074136
-0.1485833481553548
0.5812687939461105
-0.8126344848294421
-2.7688854148525817
-1.6782396927872814
-0.10866288701103322
-0.030832759029082814
0.17339734559405884
0.9674606289092677
1.1724225007282012
-0.5546496378478626
-1.1471640988737457
1.4576810815124972
2.29582560960423
1.5146659770808277
2.400532486456013
2.568109038993417
3.0263232294027627
4.532687321145979
3.2923159335185157
1.5522788721702008
2.8327463473444863
4.4047879709895845
3.9391605160516425
3.311714357366789
3.997529793401634
4.047912291009478
3.1315227849020726
2.6754388652007317
1.4608429818817574
0.11587140728158647
1.2413368053034823
3.596596401716049
4.433858768121195
3.854228634851996
4.09773677272985
5.185942635363706
4.840717682741125
3.7467787136852007
3.1656187713040023
2.0457382468945617
1.020658589365023
0.6006909222097054
0.21628480998505173
1.0219699272460552
2.4186338295562857
2.504694223094953
2.1474725731125544
3.257644783023304
5.576400810542407
6.37692276551456
5.353224827435717
5.320298537162708
6.677208518800645
7.402417385214466
6.046907409641147
3.685781091601014
1.917120413859486
0.6226987736617744
1.0282175914490348
2.9422615272304435
3.3543800366314658
2.249682977337846
1.0603323613604072
-0.03959232535958873
-1.212893440005029
-2.245406430793829
-1.762247826954908
-1.3010089292224274
-3.0848275649869583
-3.6458380321584802
-2.896903043230968
-5.457911505712887
-7.4751653042238635
-4.563189030685498
-1.7698549977926978
-1.320758661859662
-0.36411338539787896
0.3513790382354071
-0.82023931179532
-2.013954713954336
-1.3454992445899752
-1.0366148155672827
-2.4968746142759173
-2.2438656389518803
1.1260513663237448
4.277358292251674
4.660574461452789
3.358509535506826
2.675493669150947
2.623090698321039
2.7535887679329667
3.3418468973726236
3.724668185086065
4.094665381990591
3.8918919850384537
1.8100567147145394
1.0800395868535257
3.6662966614488615
5.90285073707712
7.041015784368973
8.501396132531564
8.326377723354083
6.1169319003932925
5.2365104426432785
6.444600338871554
6.639235610818238
5.61301559331301
4.507162799288705
2.3865283273901423
1.9002458410364644
3.150173335583345
1.4178116105594336
1.0670221573610796
5.682064263028733
7.3295190512524915
5.099414417738885
5.5934771747713485
6.715781863398212
4.423541374770355
1.9132469628131898
1.4409031089069244
0.6282854965501716
-1.2051662262089744
-3.130764029743197
-3.8976624768190855
-2.185505757478434
-0.7842429021125027
-0.7384265386297458
0.7781405556056145
2.485222169751713
3.3632419338000434
2.8458376224226214
-0.12929838965280369
-0.2738264630116686
3.1265833944130175
3.5939378884898345
0.6729660642930944
-2.763759067727177
-3.9553379276886247
-2.555763614034042
-1.842886422898432
-0.30229925340942465
2.7769741251422637
3.363323257655743
2.6941025885695318
1.324742881070805
-2.742279886436614
-4.59562681210708
-3.129926585908954
-4.3508533452878355
-6.509595659421228
-5.681843738192145
-4.746064510684925
-4.414640366691193
-2.5812162767494398
-0.9937993255888125
-1.440517469105088
-1.9496742474661082
-0.8715587956739294
-0.2981064962388839
-2.560540105047614
-5.286871992422811
-5.399863517125795
-3.3231137399832296
-0.20302487178372652
1.0714871743870673
-1.1234216755489657
-2.33882969497584
-0.7031298046223251
0.9500543964998317
1.7880548085764034
1.0557864832427808
-0.20444417791860117
2.4913706612559965
7.761930232020172
9.234750284154195
7.225430138272159
5.889858606989669
4.141467497246956
0.3730290155444381
-1.8806074846254193
0.8778562449758613
4.710848952638372
2.361122094267896
-2.2825163097261556
-1.4836857464189308
-0.05273149316056573
0.03391844469186023
3.3306734393049293
4.936018566705668
3.5253245687498107
3.538348922292544
2.3464345513727842
1.1304947323935732
2.417718036969768
2.254710498887802
0.7326563113891211
0.15733337304641667
-0.26481536329722893
-1.230999159183899
-2.1882162280349577
-1.6463156828327081
-0.8963906561712255
-2.3996309759089707
-3.368056339281814
-1.187165284095657
-0.3368286526911724
-2.9457719572879757
-3.8501997711183336
-2.6748462057450175
-1.924725327807381
0.1906970903308503
2.1277253724860925
1.8190613201991126
-0.9109810244310813
-6.272926634692595
-7.467324685242874
-3.209653922970402
-1.752637993534692
-1.1266002231064234
1.6464327726952606
1.9279355848299284
0.7040014315037703
-0.518390686296607
-3.7259116074975545
-6.598071649187746
-5.417361791745848
-1.2247205576356766
0.7410269484454192
-1.7517122346191538
-4.66668599043423
-5.821587911188146
-8.548980008810544
-12.2259378311838
-10.802492223305553
-5.954303613454706
-4.046373370744598
-4.555913422976593
-5.913991624369754
-7.085810038338528
-7.223602238217554
-9.534154431711428
-11.917054503776837
-10.326589384418396
-9.106723742251967
-9.10782063419847
-6.708151938893927
-3.9020850864343672
-2.697179812441627
-2.6284449033332624
-3.129747148772715
-2.7649132877423424
-2.0774755648553396
-2.002053765505853
-0.86945910218835
1.667405504101222
2.859517535537555
1.6889301640142569
1.0001468867461916
0.05457935008142763
-3.496990100802413
-4.545721225695595
-1.9771495497957445
-1.6077703975503705
-2.3888805986326123
-3.26288645910953
-5.885603096272455
-6.608530654328401
-5.546447963965901
-6.461694172254166
-7.283580457656982
-6.101680408254638
-4.527463037447977
-3.9676759680021383
-4.904035994974785
-5.41820687583755
-5.280352925422876
-7.517723702539577
-8.71807201944533
-5.174606748114588
-2.596913285278938
-2.6112577646119033
-3.428157588157796
-7.20901848222259
-8.23427609784754
-3.301102778740047
-0.5822870364635625
-0.5798852420003203
-0.2788575420594587
-0.6753145636435729
0.6613025100433815
1.9701088704900775
-0.24260453355665562
-2.9221222811338547
-3.4852853753543775
-1.167037708369328
0.8021482691936931
-2.23809809415785
-5.015096610945584
-3.4474301962945146
-3.2400922206149367
-3.8342360048568933
-0.8950692927770773
1.6031140772452679
2.268554442134645
2.9590741022518996
1.6638327145068725
1.2605208273318649
2.829164903222609
2.088612738624901
2.8482506851416196
6.0577942967920135
6.064713412479063
4.413180932156155
3.0220673870550376
1.6906850471952177
0.33702030943055694
-2.4100496032221708
-1.5562868662237286
3.7820634238723225
4.907306555831914
2.969670243851276
3.154639279021132
2.6829780054135797
1.1750894309733972
0.15770380134820997
-1.0382863840993841
-1.4195366652279158
-1.1178665545651154
-1.5034909131267482
-2.3236018449981013
-4.201440460035281
-6.6103522963295305
-6.563320944894928
-5.361743652079967
-4.463580787806518
0.2275869331448777
5.119769412257405
2.308030992403479
-1.4245967840740623
1.4209661539260154
4.393661417884164
3.9075844822731676
4.553957161322214
7.083988131161174
7.869429826769793
6.798901256000095
7.498451020195747
8.75739487815189
6.229122162621971
2.610917327704943
2.4148305868831024
4.22787308669349
6.491974906874352
7.743116165307243
5.348184454482825
3.185065883090345
5.2085007146478555
7.0395156842564255
6.2044072573946245
4.930840434669178
5.478135957255723
7.6731617270160895
7.427712714461112
5.57804681200225
5.457807404293248
5.987118306570501
7.682384077263457
8.247430376228198
5.914527194891906
4.674493537422134
4.0746142974360575
5.842887338258988
10.934942529881207
11.242490574194576
7.360266624632702
4.428796378692546
3.5670386602655104
7.043400191221559
7.116153194208611
1.432124308422709
3.982652266003187
11.672842014540219
11.262965857968009
7.251937473480513
5.09689965631349
3.3514712307089503
3.591212306461572
3.5586851732105966
-0.16359890926530593
-2.9593002833834703
-2.136817300914206
-1.4839753053828733
-4.089046919107358
-7.810033651234621
-5.762214524360475
-0.9320617862684485
-2.301604515725502
-3.527469478705519
0.14328612050219128
1.1695694964687755
1.15632811870938
4.6415945166723365
8.195168065551771
10.856477543093957
12.564512653330292
10.686562161465435
6.484252499474948
3.712696697811623
3.07850882256517
3.6503327625266566
6.343330120175395
10.424501263857227
10.633118242756215
7.4029296520849925
6.926568278525132
7.302498533704388
5.906003678151067
6.488108534514975
9.565753415467368
13.379665492349403
14.514625737328695
11.25066578575281
8.69830320600768
7.020129424039307
4.077311835282226
3.0488107109673295
4.443376258997477
8.178536326525482
11.94299088761736
10.902536242898615
8.143435221345031
7.301077571392747
7.560515109964665
8.336683343297254
7.0465103140041725
4.223564470081408
3.9676969920167635
5.356014876535434
4.702764067035874
2.90258530765394
2.5416787914329446
0.45176374762256283
-3.0298537637983065
-2.1158546416558046
0.1374702962472285
0.7007734072611356
0.7673135426222571
-1.468933120826746
-3.3169178236585366
-4.148235389713982
-5.884495070737578
-5.080323660310322
-3.7190342781452177
-4.598550868379084
-4.990518589161825
-3.867974796087301
-2.345046509057828
-3.620564064771092
-6.137177785881412
-5.053896948986634
-2.089665156808815
-0.561950899549539
-3.189471625183095
-7.638829277709323
-6.746932294504058
-4.228739694674907
-6.8820070736559265
-9.66527048009711
-7.668805255146662
-4.783619635638452
-2.5515527485527962
1.4320565430981078
3.3570847614417056
2.5906434699911762
4.260387540990738
4.942280920271603
4.045445393195446
6.83718448686091
9.475602601646267
8.1636401025868
4.93206998686172
2.6802935460034396
2.780051445401647
1.804881573313035
0.0648869408434933
-0.09964295059799981
-2.272757450044049
-4.316882892812564
-2.414475705938262
-2.7568394172187465
-5.599796443976404
-3.6256394060331645
-0.839737764523336
-2.0819833217999415
-2.431946198381049
-2.164242369641118
-3.2698825908031885
-2.9454927052032307
-3.0306142800448184
-4.335683368246839
-3.8793112514109
-2.917123420325781
-3.188929397111427
-4.921200683024566
-7.388676571728008
-7.8857862096222755
-8.170284959007816
-10.786302926626862
-10.317032336133172
-5.5032168299265365
-4.528143498601185
-7.111579582673795
-5.7211403685813025
-2.4445641739160475
-1.8558825800151255
-1.5496561183787376
-0.8046082176588661
-1.427909165423834
-1.9132472323064245
-1.0139750788364084
-0.9209473423638125
-2.5492750902528423
-3.164347515850163
-2.5886806430393468
-2.32118320348
-0.9388117215979965
-0.10921264068517497
-0.7085614210484839
0.47808156228021603
1.8812255218882252
3.6802323043224643
5.940780705706198
2.960267870088786
-0.17367511119566398
1.0159543799372743
-1.4567798392641296
-4.864753142032585
-3.966220123914162
-3.4912598585993306
-2.2636392456281302
-0.6960209862265262
-3.1609973346290294
-5.506745232026794
-7.572332207714072
-12.177149661474578
-14.013092611843627
-13.949623246545416
-16.60404462666742
-18.48335867911606
-19.20142688611815
-21.242104620692697
-23.088890504878528
-24.312172457946872
-23.77509683562152
-19.710864010171797
-15.046534823360526
-13.839681022994027
-14.833049504153044
-14.525826173600477
-14.182928751916863
-14.04291395775784
-12.335505644468093
-12.2566360686433
-13.277770861699825
-12.663499897168988
-12.806343871475397
-11.514041087950432
-8.218796064196287
-8.03433908032521
-8.044701840596444
-6.118972338815004
-6.478698765969442
-7.201079117786924
-6.086727555330203
-4.50693664662214
-1.1161513876027362
2.2451805420642823
2.873813726034258
4.344843319657126
8.19865381621383
11.25042060668398
12.294290150893618
12.798053612291405
14.741285924183995
18.059984335760728
19.41293737718844
17.122677481132232
14.294542050286601
13.70213859491879
15.411521122490532
17.127121279925177
15.833911294895783
13.764959767130257
13.47954311470842
13.30426826270789
12.285661062236299
10.769519253049673
12.271561582304471
14.819536213998859
12.542432119407664
11.794405879102326
11.485407764460236
4.513553015595166
0.8902742828887056
1.467070866459221
-2.2906609234187463
-4.816761384078228
-3.442048310759648
-1.8244067475126529
-0.7917549174070435
-1.4444258047538003
-2.2828213995312994
-1.749096380064918
-2.1394269507189647
-4.281579725044031
-4.928037639533157
-2.7228965814735524
-2.0794611899940576
-5.088163794585434
-6.167771018653437
-2.445217837195917
-0.5397744439830965
-3.1642202855583053
-5.253399886906647
-7.4592306659243475
-11.228712976032805
-14.561944260750082
-19.5017279199898
-25.143142275623717
-28.80469576738062
-30.57479894656976
-28.628530841977618
-27.0670897937077
-29.275436861024797
-29.511391994006445
-28.661181487488754
-28.371161004647366
-25.186855248674938
-22.999287502455164
-21.72696675149887
-15.777030061256257
-9.491687429704806
-6.148975872356946
-0.3318024777268475
7.3146229837639
11.62302112055848
15.827747815657958
21.194143897801045
24.04583256754589
29.085170165243404
35.784564562771386
37.3802939899768
39.12560430186287
43.554931770732445
46.55769986172015
49.39020188121803
50.5137240013582
50.40320652071824
53.981693210661426
56.3151341322669
52.756865592957794
50.3325038922697
52.34618352742309
53.905376207007016
53.591716892931345
52.319801604191724
50.597404360902615
49.889389101924095
48.33725834425064
44.105388929568676
37.31343008033188
26.592120812122854
13.949936817937202
3.8755664521373143
-1.5163822823978022
-5.746289565391797
-14.212585307469986
-20.85750011754685
-20.77360162144121
-21.46850151499715
-24.444575901829793
-27.82636463095756
-32.537372948019275
-34.88367982151924
-35.510554858926426
-36.72218940561527
-35.758671000952404
-35.4833488232558
-37.90208371828333
-36.787114289109276
-31.407624207790168
-28.757632237654352
-31.644095776826433
-34.819674212271224
-33.18270080858408
-30.594902165506628
-31.88384138472873
-33.20719435626882
-32.284071916518066
-31.61782757603875
-29.285147683956648
-25.47344248284171
-24.125706307292813
-23.219831194751034
-21.28285451745362
-19.016370875243727
-14.391733590564254
-8.977855149108759
-4.5322453781661265
-2.356826762779246
-4.588923826269574
-3.9865862619723766
1.2171649352069729
0.3683300185502353
-3.9836992391411923
-4.590528071311351
-6.491038841072306
-9.696474639516877
-8.95543886976708
-5.216625841683436
0.25917988477847587
4.979583634942671
5.444222156705541
4.069801459677417
2.6994110818023924
0.046597970619744425
-2.591607456678864
-4.289124475538895
-5.693888039069442
-7.073495617631062
-10.433467113035787
-15.99687570517075
-18.972245293022453
-19.20583428760752
-20.89876622309259
-20.658924890883668
-16.909950848736365
-16.564951287870556
-20.314780244147382
-23.150284426714435
-24.432104760487377
-26.846277078424407
-31.002771145728854
-32.2824858836715
-27.573441852900803
-21.79633229982397
-21.067948574457247
-23.514239651741793
-23.24183535706502
-18.44681014201323
-10.071000465101113
-1.9996784151006062
3.201188129789929
7.811783717946205
8.29945187167873
3.1357497251344917
-0.3855522955867823
-2.714216002539835
-7.152498819783271
-11.329921064175364
-14.70481253595617
-16.521676479520448
-16.147008057308668
-14.035660511970283
-9.07447938964808
-4.92711248431369
-4.905517250359262
-3.1114014123661797
0.21611009988908056
-1.986698819461616
-2.5206339601340746
4.5795433883767975
8.237050248104602
6.284224188398945
6.400466902844201
7.4990914062289304
10.269703397300258
18.343242990239307
27.834814153352763
34.9383419254445
38.82673697852628
38.338468091586286
35.33757973531509
32.60827970040209
29.7545650058883
23.550126906356176
12.746065056120433
4.066856957202503
4.007278167725402
8.288274727969478
8.51214329800604
3.4020280044118696
-0.6795439175311423
-0.45072920525267146
0.4529380762608833
0.04542973498858627
-0.8314102745587663
-3.1309697131297356
-8.921707131125768
-17.29899709469661
-22.888513839619662
-22.363784906044543
-18.060313185627827
-12.467361058054928
-6.948598093185003
-4.601103972363049
-7.313752041291038
-11.929767711899567
-14.725740685790896
-16.732206078930567
-18.75203347247424
-18.580467208476914
-17.255021724721686
-17.77050524434731
-20.905483381129812
-27.3118373276645
-33.748360215605736
-34.48899806130403
-31.876336671129014
-29.08277520430367
-24.899470239424264
-23.483894626061144
-24.457910737432954
-21.325349735817092
-17.35769031743782
-15.559708567645625
-12.987280921266047
-7.739136443060303
1.3701672809720555
9.421741735167055
12.742133982285504
13.43213310109934
12.746477198641223
15.251844802515132
19.336959086001233
17.509638307528263
14.289981642995967
16.086909465886222
18.366195666768398
17.29232938741899
19.141760574499123
25.006252149499204
23.93501954916061
15.802592205864466
9.639418196072647
6.1173774251740705
5.745752718669235
10.499443693950765
17.293632408897565
23.39714626404407
26.151093111602314
22.986570257560267
18.308628562006646
14.712072798600575
8.97113361177845
3.6506060972004306
-0.6516737959018597
-4.246373154465112
-0.1450162340235584
3.592258576719377
-3.154106605654751
-5.403859090776716
2.5746511988827763
7.890878287061573
9.658126060909847
11.114581541671916
11.288944690933326
11.815449922833155
11.8415624103622
11.130841258790749
9.166370321903765
3.4162646493146243
0.02850503058010292
3.709238667815567
9.169971028742685
13.270290913247981
14.490348611016326
11.251068771229399
6.356630139248887
4.975148320446957
9.316988042582883
14.56190298833409
17.186189359552426
18.83756702651456
18.882332324559943
17.933822329998893
18.41514211326519
18.034001724728487
14.444290470046749
11.111329522476796
12.068227446855648
16.935997107924265
22.56251525196814
22.93328084428552
17.02547595369659
13.081494322560433
12.246815299233685
9.274962002569632
5.368301639999711
3.785571396236396
6.857075810604578
11.21874279729246
9.266323830896011
2.5029180789285186
-3.8207574110426354
-7.22045599023995
-6.185111006942045
-1.8444191502044451
6.676353618208891
16.129500506956962
18.57487731209429
17.189096808817347
18.23807167582537
21.31549869681633
23.413165330825585
20.75393448437092
18.453289277507636
22.91213149655441
26.837603168223392
24.356137847785746
21.75040687988466
24.45945276275446
27.041903786884237
24.00480476343906
20.27575552278666
17.483901307193957
12.191091274276191
6.169489098622372
-0.761601837624291
-8.550457769342778
-12.920626752850618
-13.886065834130306
-14.120973587511962
-15.313529479548684
-17.847963975647687
-22.214155904060814
-27.88283734791896
-28.61731901244558
-23.71051551195312
-20.116250395347706
-18.677333845265903
-16.95200825727321
-14.670156374762561
-15.546049403520906
