AAD_Filtered_TADAS_FILE
AAD_BASELINE_CORRECTION: BASELINE REMOVED
AAD_FILTER_TYPE: BUTTERWORTH
AAD_FILTER_ORDER: 1
AAD_LOW_CUT_FREQUENCY_HZ: 0.025
AAD_HIGH_CUT_FREQUENCY_HZ: 40.0
EVENT_NAME: 202302061024
EVENT_ID: 13207
EVENT_DATE_YYYYMMDD: 2023/02/06
EVENT_TIME_HHMMSS: 10:24:47.00000
EVENT_LATITUDE_DEGREE: 38.089
EVENT_LONGITUDE_DEGREE: 37.239
EVENT_DEPTH_KM: 7.0
HYPOCENTER_REFERENCE: AFAD
MAGNITUDE_W: 7.6
MAGNITUDE_W_REFERENCE: AFAD
MAGNITUDE_L: 
MAGNITUDE_L_REFERENCE: 
FOCAL_MECHANISM: 
NETWORK: TK
STATION_CODE: 3137
STATION_NAME: 
STATION_LATITUDE_DEGREE: 36.69293
STATION_LONGITUDE_DEGREE: 36.48852
STATION_ELEVATION_M: 260.0
LOCATION: Kahramanmaras_Elbistan_Turkiye
SENSOR_DEPTH_M: 
VS30_M/S: 688
SITE_CLASSIFICATION_EC8: B
MORPHOLOGIC_CLASSIFICATION: 
EPICENTRAL_DISTANCE_KM: 168.80
EARTHQUAKE_BACKAZIMUTH_DEGREE: 
DATE_TIME_FIRST_SAMPLE_YYYYMMDD_HHMMSS: 2023/02/06 10:24:56.1118600
DATE_TIME_FIRST_SAMPLE_PRECISION: millisecond
SAMPLING_INTERVAL_S: 0.01
NDATA: 13501
DURATION_S: 
STREAM: HNE
UNITS: cm/s^2
INSTRUMENT: sensor = GMS+/GEOSIG | digitizer = 
INSTRUMENT_ANALOG/DIGITAL: 
INSTRUMENTAL_FREQUENCY_HZ: 
INSTRUMENTAL_DAMPING: 
FULL_SCALE_G: 
N_BIT_DIGITAL_CONVERTER: 
PGA_CM/S^2: 25.600
TIME_PGA_S: 
BASELINE_CORRECTION: BASELINE REMOVED
FILTER_TYPE: BUTTERWORTH
FILTER_ORDER: 
LOW_CUT_FREQUENCY_HZ: 
HIGH_CUT_FREQUENCY_HZ: 
LATE/NORMAL_TRIGGERED: 
DATABASE_VERSION: 
HEADER_FORMAT: DYNA 1.2
DATA_TYPE: Acceleration
PROCESSING: Automatic Paolucci et al., 2011
DATA_TIMESTAMP_YYYYMMDD_HHMMSS: 
DATA_LICENSE: U (unknown license)
DATA_CITATION: Turkish Accelerometric Archive v 1.0 - Disaster And Emergency Management Presidency, Earthquake Department
DATA_CREATOR: AFAD
ORIGINAL_DATA_MEDIATOR_CITATION: : AFAD - Disaster And Emergency Management Presidency
ORIGINAL_DATA_MEDIATOR: AFAD PROCESS SERVICE
ORIGINAL_DATA_CREATOR_CITATION: AFAD PROCESS SERVICE
ORIGINAL_DATA_CREATOR: network: TK
USER1: GuestUser
USER2: 
USER3: 
USER4: 
[...]
-1.2868994895220744
-1.0133110059496044
-0.36453726261283065
0.6187717912930324
1.6925707192134174
2.491894711606097
3.0374273717873974
3.4973564829874277
3.8900038382683584
4.310841440057945
4.849189788191956
5.46424583743611
5.951840365313018
6.312061490531051
6.745020241620439
6.91130737556799
6.461206930669226
5.6717944916813945
4.845587928964945
4.125087009101185
3.6074496404647727
3.0987749600345227
2.316357999168346
1.4651569979232089
0.8204367990332884
0.22565834507503174
-0.40780297175788016
-0.8488443986465508
-0.8357241757171652
-0.38878607218603256
0.23873398006527466
0.7433479844331308
1.0267298290192526
1.3672790435314437
1.9285504953809216
2.5635597659112848
3.0896169784747713
3.430792989553906
3.7542798787923104
4.196894155983261
4.67467094392736
5.224543451495693
5.713720971325218
5.871497212631264
5.767743636152616
5.320329228606716
4.5279450432035375
3.8111782633753166
3.3750703469667087
3.1501491849312924
3.0860117663030087
3.1297303751514565
3.1106590276286292
2.9166575228079097
2.59047246328444
2.059147333754641
1.195488195143731
0.22367336480926422
-0.5464322797054273
-1.096544820372973
-1.3651623822956003
-1.309576678910701
-1.23501006330382
-1.4387031759605968
-1.882089118909044
-2.4100262578641223
-2.7886934061702138
-2.7742847046151673
-2.3304617546757815
-1.6348397737107483
-1.0001421456063118
-0.5460099732228311
-0.1467091134580593
0.4037525039679004
1.08157372909148
1.4179284074655265
1.2817255678505215
1.0520898889656283
0.8622826858036917
0.5200240020714565
-0.03799455945867363
-0.7428190988317176
-1.7796445078412941
-3.0427292738417013
-4.151902709151857
-5.08807594421834
-5.770060730530592
-6.122577197244206
-6.275994501459961
-6.292041376651522
-6.076168359197351
-5.5800194194520865
-4.90918377478707
-4.099920942855338
-3.2812661611204414
-2.5218385615768786
-1.6565017099000017
-0.7197164157349688
0.024509369128292505
0.5339602796501833
1.128482156046497
1.9932009770996408
3.0278464465625348
4.014575657175988
4.715715525935795
5.195399540945306
5.513040923347487
5.43170598869293
4.766191870821881
3.610107541704119
2.3784365420130977
1.2059535910328107
-0.13864498875991654
-1.4536614376112555
-2.353270911451477
-2.8128661793572287
-2.9106619822682678
-2.638110664145777
-2.1605159302591144
-1.5396845022079082
-0.4276975335002686
1.100216230698198
2.4043732571462537
3.2216269181148833
3.5887874631434387
3.3050034090711966
2.4300685876794414
1.4442119741172306
0.5776434364380553
-0.2335002051021494
-0.8914302259385883
-1.2305151715064904
-1.4924886799170456
-1.7146814877584466
-1.4783006072689633
-0.8821952941848994
-0.3064383628828893
0.10842625291292285
0.3511750120074844
0.7206511909903046
1.4149121509481095
2.0722672435240908
2.3016683939645715
2.1084286784768107
1.8987848947381916
2.086714860036933
2.6078998185873354
3.0824037109217968
3.1421957041408657
2.8502133811920056
2.5091575391934158
2.1672189581507255
1.901778761552094
1.6131523626113053
1.0137081404447297
0.3217753339474107
-0.0943953199961058
-0.3484671727228498
-0.7423664290386918
-1.3250137275140448
-1.986243668052289
-2.640429356532025
-3.020379400099478
-3.13937671790267
-3.4409548257845626
-3.6910950103637306
-3.747353564004891
-3.8867916850404804
-3.6424771079482476
-3.192031812351934
-2.8296490228895173
-2.1292439041208273
-1.609841736631413
-1.2298470883398351
-0.6922766749016979
-0.49749079051669054
-0.09788918909939211
0.7716767026840029
1.6106208295106361
2.2370410147088355
2.558001920074911
2.9249910311718534
3.406425279288654
3.7773795032328676
3.735941506339377
2.9458061880102675
2.304533603084557
2.456089841035329
2.7299923356704965
2.508404690344891
1.5674816498098882
0.46243748051220845
-0.3737184367858286
-1.3585429631164825
-2.2090015116966937
-2.4423536989526213
-2.2550022630196485
-1.6025366271349277
-0.4555453868520799
1.0949957598539553
2.6462922987882993
3.651964684130331
4.773231701851035
6.284882538348438
7.288376375705609
7.865075093667222
8.40390884670593
8.769488516422271
8.955248476254635
8.537229379780438
7.407012473619622
5.924923181117753
4.198541339054051
2.6384951747476326
1.596139386665135
1.2513056660174606
1.3678578603298948
1.6817341265675554
2.093785547021035
2.1808222605994
2.531294133846371
3.3028359632255206
3.807476336521154
4.093770618608525
3.946900589221735
3.1442433231253477
1.9631898314644627
0.9029086618706654
-0.1451520790653059
-1.205956738377427
-1.8997936166701836
-2.712963797049847
-3.5638396844823155
-4.296340393645514
-5.337904136034614
-6.400873304933739
-6.647888589547645
-6.2592461670996435
-6.105041769966941
-5.735975530035156
-5.409647741517451
-5.517318891160057
-5.325656764801702
-4.876971914034155
-4.192286093713425
-3.405284676381296
-2.7640738502069517
-2.1499738446946344
-1.4175414507836768
-0.5254189097340327
0.152887901071016
0.562321132231785
1.1071244960413342
2.137074626830833
3.3354052151904
3.8784292516752603
3.914029860809056
4.207001115334539
4.390144158416905
4.096545878188726
3.862101246062137
3.4987918639215274
2.896413978285995
2.4350651813552826
2.039853091395408
1.7338164536607885
1.4660367157099425
1.1357433866279616
0.9771368352616726
0.993953591801235
0.5006539603697338
-0.5967235830863438
-1.4101675239931413
-2.0192697922023255
-2.8423312089587776
-3.370848482909155
-3.102514000566909
-2.076976421914907
-0.7131924283349652
0.7543598246809186
2.2414903084748063
3.449843973026383
4.381131885292329
5.324145285919712
6.129448319409059
6.302014833688647
5.741421373683172
4.761851263061685
3.491960415449915
1.7216270169232137
-0.2867117052825177
-2.1706263464273614
-4.3819765204242955
-6.366123875255922
-7.3728872652073285
-7.545274659331584
-6.7527797579839435
-5.802925133647062
-5.274116331675554
-5.01189586623388
-4.228735499002877
-2.564954713955379
-1.3043536319824154
-0.18439854715155532
0.9946292021889838
1.7234806389453643
1.805079255052919
1.3309911256250593
1.204292045379157
1.0895265094165134
1.0101111902157365
0.9636536389645899
0.5539378264722435
0.14946755906672715
-0.18558785486011428
-0.02690939185543994
0.1412971227089487
-0.05841522412215161
0.04602643307464063
0.26926805343687377
0.4854483290527271
0.6894241793916008
0.6110988314008956
0.1921692518345245
-0.291205897546781
-0.6387766163909825
-1.050079038164461
-1.1791590595221877
-1.249444656603943
-1.8308752555946106
-2.6508205236113707
-3.692569700739323
-4.643154701826521
-5.324351166050435
-5.849768101817253
-6.196484797721875
-6.472588621384973
-6.098960025269146
-5.029540318448592
-4.261236645855837
-3.3128222643661442
-1.6388501182830337
-0.8270676021537657
-0.4871074580018576
0.7099638571130816
1.636829040717737
2.0832800761357575
2.854882545403105
3.3286164756620242
2.6965665785517205
2.5627083240956696
3.6615921667167157
4.048487976247712
4.138393617133209
4.59405732860746
4.328129727007192
3.5761003624304344
2.508761743460893
1.0980041827427756
-0.03307805812330954
-1.1416665750371118
-2.156984473366839
-2.7756912333572243
-3.776841179944552
-4.784511998883468
-5.456329069465686
-6.1020005132854775
-5.88537265773203
-5.399857264075008
-5.27540090900226
-4.448009396591703
-3.5826918777743444
-3.2624450669078384
-2.749825344935573
-2.347809210878307
-2.201840042672715
-1.9389387888112615
-0.8154280932157074
0.6009555227801889
1.0072432770637483
1.4601099617922577
1.7036459679888234
1.0447776148149723
0.5009435163259257
-0.27507133327974886
-1.354588998378686
-2.4380677490077005
-3.8551477953693993
-5.25048233014892
-6.358489973621702
-6.982800741834352
-7.21697702850163
-7.5637635958582194
-7.826990124924356
-7.43377546841499
-6.207350828795277
-4.820334091998508
-3.431080676464364
-1.8091766666189162
-0.26534276662135425
1.4136767118386209
2.8459796757986484
3.6260173197194367
4.243718906902912
4.392130475764503
3.9271133715067075
3.3752461193823904
2.7195512564937614
1.7277123994947368
0.9283673196531232
1.0740285810380497
1.511148816525208
2.4105278871796676
4.331384154953357
5.342432953487212
5.669497543892412
6.677882432459325
7.420672938331885
8.101813112354813
8.616363307496334
8.099149934857827
7.4342292818725415
6.868336079451437
5.324106230627329
3.49477025985174
2.2062343805311038
0.81090942729215
-0.1684372439578846
-0.37027585256695356
-0.5197085272318109
-0.44287740616623084
0.5497159922302806
1.30075887953703
0.6827762823243758
0.032600787669419505
-0.27695851644594477
-0.7756541253668513
-1.386634620067644
-1.9553287746345884
-2.1205685168544885
-2.1036173714110915
-1.8341194896992543
-1.1964073363422991
-0.6882847625162569
-0.18717756533789232
0.5518222028579873
1.4733600210214677
2.411961545818424
2.8100491391815683
2.792569537648798
2.8158032401070776
2.0319922179079306
0.6351248363543139
-0.2462293565197798
-0.885667460490981
-1.335664531621006
-1.967144059885453
-2.3674863993574404
-1.0124612055310847
0.7809994134199032
1.8178330981673192
3.147243402789595
4.01082958978888
3.079373725720796
0.8300984073766168
-2.1166008911791168
-4.497682598640576
-4.83481626400483
-3.8816936560281285
-4.328977240506049
-7.194862865815999
-10.267264353444348
-12.462237535377506
-13.940629471619891
-14.05726759399633
-14.201912393811735
-15.605351016984947
-16.22228788995462
-15.016612475838789
-13.136738409866036
-11.850855867904357
-11.820892360408196
-12.289328031987555
-12.834721242857615
-13.052250238687153
-12.174762992123604
-10.08809564316522
-7.369067566559489
-6.484409599257334
-7.524360683392866
-7.166947573477673
-5.405093364511174
-4.2054640570591815
-3.192421913511959
-1.854907979707621
-0.6859622170431304
0.6541069181651202
2.6700823242631384
4.636159901745524
5.117586731860149
3.912505283166
2.3370687354856696
0.7399404948474686
-0.903306271347248
-2.2929006262778455
-3.7905595902464677
-5.451315743143244
-6.623136499896403
-7.178708518767054
-7.811226706286643
-7.757511896259052
-5.727741801821341
-2.7209001799939174
0.077015310062116
3.1269825914085674
5.987857466259851
7.518173182813294
8.817064898831502
10.34009282648988
10.775652791710568
10.112839751295079
8.67760834852059
6.9524185810328465
5.3936630620667385
3.688521642711596
2.71197646486409
2.8980660818271162
3.4343301539446824
4.382773255340959
5.315098898838322
5.904255742181979
6.984727911814134
8.051044090526451
8.344367549103278
9.025387953182664
10.730464150669885
12.419179899261513
13.40136184166189
13.879576421444273
13.773951142670468
13.075741495842081
11.448695277588655
7.943109507502357
4.369934817615284
1.8580695705841352
-1.5617921520318017
-5.181308336264453
-8.1975454171158
-11.41643527160711
-13.921552832816134
-14.975233926849
-15.149044837367502
-15.259088135564722
-14.90323280203711
-13.287422538014582
-10.756338617143932
-7.661581671711156
-4.551427800241231
-2.0591698357412733
0.26332272892442193
2.970144877133728
5.477653569888186
7.200438064798363
8.441000461904016
8.897935805958943
8.207346036444351
6.528988440827836
3.713424156035721
0.9990809732080032
-1.2616489818110934
-4.053945179987758
-6.337315671703526
-8.212996957908281
-9.861872587312979
-10.132683960604052
-9.811264358906136
-9.220432289768247
-8.13827264738837
-6.893545870441224
-5.3037761304961855
-3.816827269872956
-2.6610312469494053
-2.0386664400595422
-2.465932396320098
-3.830859375894011
-5.382089687841128
-5.836614326687361
-6.268985785862352
-8.414661977502305
-11.296908462350835
-13.971545233661194
-16.06062781659847
-17.343536252544066
-17.999426521344237
-17.585406073271738
-16.751280382167074
-16.6028185320599
-16.276682678716107
-15.52734481364627
-14.932493531030607
-14.65843298768634
-14.817530095294163
-14.198539945538208
-12.517185334143672
-11.090278676473327
-9.773655167939719
-8.386239928235737
-7.86789668498817
-7.811497709264746
-7.183113696313698
-6.163282307207637
-4.938956828082158
-3.5397720790880087
-2.266525972419881
-0.6185622008114883
1.1995723270435787
1.8574480846009742
1.778691726363972
1.487509680375118
0.1833181200762846
-2.2645476286064
-4.78139290348564
-6.521458973398334
-7.811469537630048
-8.854501741487308
-9.534153211238454
-9.148686489165213
-7.650921094449672
-6.218014041032136
-4.399506570695775
-1.7711622316785136
0.8074782084824643
3.549882996101002
6.410002230935774
8.154641591211284
8.727210139801018
8.725124089768276
7.679393572741962
5.74066408875065
3.8156846623064733
1.9501910513946392
0.6574488507435983
0.29776634582797734
0.14570631802193318
0.10924191132720032
0.46355307757962455
1.3706901818242707
2.376421963285523
2.677756106885688
2.098672317125488
0.9999850617283111
-0.269579197499659
-2.4751513432954146
-5.766195252222274
-9.25276541388984
-12.861861719244216
-16.214936915725147
-18.56383270489822
-20.074689991883655
-21.386438338675713
-22.58570232610132
-23.483705319107955
-24.38308698506588
-24.95849856422719
-24.446842323026633
-23.107677412452784
-20.876607820794742
-17.819255842540358
-14.77063279790592
-11.583919698253336
-8.517893182855842
-5.714390760254705
-2.4544676939780814
0.4431621155781497
2.611181344433761
4.457169705145134
5.027521592688892
4.578411911613429
4.371356924137243
4.209028178112567
3.8068512794226717
3.5395505546843467
3.538950688261275
3.044948514445953
1.6411373834244265
0.5064101256769331
0.09749127582005924
0.13650928296855627
0.7993705769152796
1.50530552347683
2.26054993519936
3.4303701343781867
4.776696717658527
6.216209093600515
7.1656360547786795
7.748372385859291
8.273439588837242
8.397099725461523
8.503386632939387
8.754627488570835
9.099474427020144
9.334573846565679
9.092964624243121
8.52790465530144
7.463863745307787
5.980120405926038
4.098679935392367
1.2142416608472832
-2.3434052093617694
-5.798322484651224
-8.653059284092096
-10.677267539498477
-12.275729261825914
-13.33550037199032
-13.486393549063887
-13.267971359455546
-12.7656743740446
-11.74686514454246
-10.26994062212374
-8.23320709055626
-6.072758510339737
-4.093201659408885
-2.3028109306148843
-0.5376354588445091
1.5359599646327002
3.6004306893425406
5.6231101207350465
7.480420096976489
8.495943019318895
8.81129873887489
8.987232488961839
8.891939723894035
8.685963787832192
8.730738420050043
8.149825130157183
6.62547883077109
4.64540117753415
2.2283439532295044
-0.39123270575775637
-3.124780258776054
-5.8158358044534575
-8.160034487162793
-10.062377974308108
-11.101002118376174
-10.942497654499078
-9.684405274038323
-7.647302764130739
-5.368322393466538
-3.2075587593168
-0.6516557452524615
2.317379402702913
4.491668902001889
5.547644349917063
5.851962952503041
5.950980743160197
6.1224256880966434
5.7767880615424
4.832812256002906
3.124764187555616
0.874714681164267
-1.1952809638077362
-3.332536738822308
-5.312766175090708
-6.764480845952365
-7.732660537304387
-7.920289909023416
-7.574703359443621
-7.245401023889318
-7.006369357267012
-6.717099340113952
-6.418991025390383
-6.278325396052661
-6.48428172770529
-7.0666037472333265
-7.591931702198625
-8.010391369851755
-8.395602810941375
-8.052648836346084
-6.7694160304810005
-5.028471723906174
-2.788290233346607
-0.31609063349560473
1.57338168778303
2.9633331463808394
4.226056190687364
5.158421738048859
5.4732286661680805
5.405772463177815
5.023048922814482
4.05406630673442
3.2542386785331567
2.8708984472139187
2.113454655248264
0.97043586861469
-0.21871395500998106
-1.3629720953900144
-2.3202439563766357
-3.005113508745551
-3.8249267179432125
-4.816740414991414
-5.415624525505256
-5.423683375272226
-4.949223249652851
-4.4728208180297955
-4.2460016632437085
-3.9617666832758425
-3.567701647864257
-3.146563680298027
-2.753710978589831
-2.4312656302832876
-2.3696408091623122
-2.790956148770391
-3.289168477110964
-3.90854537955053
-4.922932646129993
-5.761077407128482
-6.415099995654789
-7.051481862738093
-7.420234125583159
-7.441624174587193
-7.146638265287054
-6.788307667585895
-5.897768206847164
-4.001512251816401
-1.4242294963757722
1.751291993957559
4.904064497197555
7.175896443930771
8.925747965263646
10.823646975482344
12.524982686475038
13.765595511269302
14.998325700228113
15.95783415445274
16.332776515669227
16.421589561212393
16.294983335154498
15.992748799138626
15.755072395533544
15.561347218779998
15.087880779186747
14.360832113478587
13.315379500758203
11.794206050746757
9.959558490432961
7.7733639272448425
5.384350406056692
3.1147210727167964
1.0801344400771544
-0.6355536619083514
-2.1415768867865164
-3.3979712619087366
-4.064934867408689
-4.392296197054049
-4.924303447051663
-5.758524524800213
-6.963557786506662
-8.38980161973692
-9.647268430146745
-10.765590091258577
-11.982392102696908
-13.148580237131311
-13.77756557130025
-13.622159368300865
-12.909852275460294
-11.682436888294959
-9.85424161686495
-7.851351614027166
-5.809204298512041
-3.9243128495075377
-2.703768313255777
-1.9124174554902156
-1.3371088757582343
-0.8208229968034184
-0.31767615146663597
-0.22206995480271155
-0.4653148066534191
-1.0162930170402145
-1.9819929340228377
-3.191226567637953
-4.620748635417357
-6.279507029154217
-7.873992487405568
-9.167037698367556
-10.449840175485095
-11.743040014910893
-12.582332697233658
-12.821857013987422
-12.663978656532697
-12.350203363072703
-12.073542259303672
-12.363332522162649
-13.128519362871288
-13.312344515584815
-12.68003649396372
-11.318825904507808
-9.112997131701915
-6.550339958031222
-3.8617220869812425
-0.9210239016412896
1.8649192887238022
3.902383293227722
5.212338922006074
6.136177311775069
6.630127830731328
6.784479070695527
6.846651785575716
6.891482721682938
7.042405377434842
7.113154938384702
6.858306738149798
6.357198752618462
5.813417981546249
5.064754766733514
3.7707697326507184
2.204631580488318
0.8421287086149073
-0.08070423363643095
-0.8889100728700968
-1.794835319762722
-2.3269985011180787
-2.5467705533347056
-2.604530431333425
-2.3658010367174667
-2.219632985423145
-2.351600131790451
-2.588886726450904
-2.9440826054120093
-3.2815803400589827
-3.3474839815489834
-3.0470114941267976
-2.6149767452570507
-2.1640712978839276
-1.3925051159632522
-0.40180273630104063
0.6839786417002373
2.1636062253581483
3.9410345195741643
5.852399643856018
8.17782482207716
10.76270654440524
13.213044625536638
15.423472577769424
16.97848604828131
17.720620594759108
17.805550978542307
17.16135050850987
15.738350648209328
13.453343846045016
