AAD_Filtered_TADAS_FILE
AAD_BASELINE_CORRECTION: BASELINE REMOVED
AAD_FILTER_TYPE: BUTTERWORTH
AAD_FILTER_ORDER: 1
AAD_LOW_CUT_FREQUENCY_HZ: 0.025
AAD_HIGH_CUT_FREQUENCY_HZ: 40.0
EVENT_NAME: 202302060117
EVENT_ID: 13194
EVENT_DATE_YYYYMMDD: 2023/02/06
EVENT_TIME_HHMMSS: 01:17:32.00000
EVENT_LATITUDE_DEGREE: 37.288
EVENT_LONGITUDE_DEGREE: 37.043
EVENT_DEPTH_KM: 8.6
HYPOCENTER_REFERENCE: AFAD
MAGNITUDE_W: 7.7
MAGNITUDE_W_REFERENCE: AFAD
MAGNITUDE_L: 
MAGNITUDE_L_REFERENCE: 
FOCAL_MECHANISM: 
NETWORK: TK
STATION_CODE: 2108
STATION_NAME: 
STATION_LATITUDE_DEGREE: 38.48776
STATION_LONGITUDE_DEGREE: 41.002003
STATION_ELEVATION_M: 920.0
LOCATION: Kahramanmaras_Pazarck_Turkiye
SENSOR_DEPTH_M: 
VS30_M/S: None
SITE_CLASSIFICATION_EC8: unknown
MORPHOLOGIC_CLASSIFICATION: 
EPICENTRAL_DISTANCE_KM: 372.12
EARTHQUAKE_BACKAZIMUTH_DEGREE: 
DATE_TIME_FIRST_SAMPLE_YYYYMMDD_HHMMSS: 2023/02/06 01:17:59.5119070
DATE_TIME_FIRST_SAMPLE_PRECISION: millisecond
SAMPLING_INTERVAL_S: 0.005
NDATA: 42001
DURATION_S: 
STREAM: HNN
UNITS: cm/s^2
INSTRUMENT: sensor = GEO-A200,/GEObit | digitizer = 
INSTRUMENT_ANALOG/DIGITAL: 
INSTRUMENTAL_FREQUENCY_HZ: 
INSTRUMENTAL_DAMPING: 
FULL_SCALE_G: 
N_BIT_DIGITAL_CONVERTER: 
PGA_CM/S^2: 20.655
TIME_PGA_S: 
BASELINE_CORRECTION: BASELINE REMOVED
FILTER_TYPE: BUTTERWORTH
FILTER_ORDER: 
LOW_CUT_FREQUENCY_HZ: 
HIGH_CUT_FREQUENCY_HZ: 
LATE/NORMAL_TRIGGERED: 
DATABASE_VERSION: 
HEADER_FORMAT: DYNA 1.2
DATA_TYPE: Acceleration
PROCESSING: Automatic Paolucci et al., 2011
DATA_TIMESTAMP_YYYYMMDD_HHMMSS: 
DATA_LICENSE: U (unknown license)
DATA_CITATION: Turkish Accelerometric Archive v 1.0 - Disaster And Emergency Management Presidency, Earthquake Department
DATA_CREATOR: AFAD
ORIGINAL_DATA_MEDIATOR_CITATION: : AFAD - Disaster And Emergency Management Presidency
ORIGINAL_DATA_MEDIATOR: AFAD PROCESS SERVICE
ORIGINAL_DATA_CREATOR_CITATION: AFAD PROCESS SERVICE
ORIGINAL_DATA_CREATOR: network: TK
USER1: GuestUser
USER2: 
USER3: 
USER4: 
[...]
-2.794304864639498
-2.8415330057986905
-2.6378316645140973
-2.2472164000311614
-1.7355923938322686
-1.1459085928226853
-0.5696182218298388
-0.2412701058575428
-0.31125725995959413
-0.7868542491664983
-1.606757026775846
-2.5868237900894657
-3.646656534581888
-4.673002350166422
-5.450080677703868
-5.926095982090408
-6.16823185723742
-6.3161825374358065
-6.435148081342148
-6.466292875491437
-6.348654416545555
-5.988934375219575
-5.399638178132689
-4.769741792196182
-4.286814208503308
-4.042455233107973
-3.974246644228463
-3.9258237756388485
-3.7829321235911815
-3.551161260340631
-3.3530629887975745
-3.33381156457172
-3.609686343057808
-4.208395133274613
-4.99717811840935
-5.706609119618731
-6.081466875944125
-5.999656125661938
-5.5245264241566545
-4.883864487596589
-4.246509258520802
-3.640056703092616
-2.9942892471817557
-2.1921241331828085
-1.217473600382899
-0.08088124434724824
1.1679404187194913
2.368981743102806
3.300797506997113
3.7277203505444225
3.6543077740159484
3.3017425606331767
2.9252375448328283
2.673132957240573
2.5556403499980567
2.5324450247771626
2.48301440227041
2.301082586052276
1.7982696336301058
0.8635588025950663
-0.4049067913785348
-1.8234556237757082
-3.0639477194906335
-3.8653846518480015
-4.023269882131882
-3.4865087243285964
-2.4187468396717966
-1.012541966544973
0.416738916988922
1.5622388210394418
2.2138248995793792
2.3159891247887523
2.0239785120026808
1.5955576725641485
1.2922131034345339
1.2104441433200388
1.278278311671645
1.3794312615364148
1.4584285031657842
1.4686005740386467
1.3152290114319425
0.9209743303544733
0.23535572434046215
-0.7085171943473432
-1.793338627494837
-2.829125770774073
-3.659220669691283
-4.290619918741543
-4.796944773188583
-5.18508827699297
-5.360556456132842
-5.277618974972076
-5.001694986400795
-4.703464898940007
-4.645636093826183
-4.985785136640761
-5.670179782181684
-6.501239574351847
-7.166784331480319
-7.3532788115932055
-6.988511267150294
-6.194322644579288
-5.155346360340386
-3.986554167702004
-2.6494962035695244
-1.1769100550015492
0.3534212549390951
1.8445446642934036
3.107030298954188
4.093568431747138
4.841478681024009
5.412430425991067
5.955534095840207
6.545782439211633
7.245431144589492
7.980299966232419
8.491313983701062
8.597525596268554
8.271167210053552
7.6717466100721134
6.990650352256994
6.359983688997458
5.748493223752911
4.970310018055692
3.9243175008341553
2.6531609025702836
1.3558694737726653
0.21664251355733638
-0.6588055354989657
-1.2197394355911193
-1.5353207766428831
-1.690640400576937
-1.7292817073075553
-1.685468268282264
-1.6066255842377053
-1.5949700134965712
-1.7679369021434386
-2.1884220799911938
-2.9048255022963314
-3.9548690972850533
-5.308812069112394
-6.814145614029392
-8.224717676346527
-9.2765271125604
-9.70710670511049
-9.351135659681141
-8.26596316367943
-6.775558710499863
-5.3519979595889255
-4.3612684601415985
-3.9276779686915595
-3.908916802241456
-4.003126274084752
-3.9959808133924475
-3.823941855850277
-3.5605510168079766
-3.321689126598664
-3.1668058763579974
-3.148038117880638
-3.2440543843857963
-3.3253296381675144
-3.2086420287610395
-2.8443391356357197
-2.3173865275545005
-1.7076607042473184
-1.1567449332858006
-0.7986531440010817
-0.7395035679793607
-1.0135840679831185
-1.5620048309937717
-2.3254570785215507
-3.224744122172747
-4.17268046390622
-5.05225692927639
-5.732965327240266
-6.175991827235113
-6.39435859322412
-6.341136013855944
-5.987029770641816
-5.356173483736471
-4.582200476263216
-3.8865711316258653
-3.3967263281032194
-3.1959940068830943
-3.268303589250469
-3.489602810888571
-3.746301368116737
-4.002323877139541
-4.344735202316706
-4.8490906802093825
-5.4897239271059535
-6.131274214771516
-6.670867582990525
-7.171180876659883
-7.7994873915140355
-8.746181161943014
-10.07669013555538
-11.67834821114176
-13.374662461216502
-14.984904295313413
-16.409058355912624
-17.609110496794678
-18.49412145970491
-19.037927414520276
-19.19444721844681
-18.936359354939082
-18.37655843671386
-17.577495783875197
-16.603155551613973
-15.432602210241614
-14.028292478588746
-12.461545195180395
-10.829652249953623
-9.314128586550456
-7.99108048523121
-6.814778482963343
-5.671047639584934
-4.419531253572558
-3.0817877034220444
-1.8505491623598036
-1.0134045609698894
-0.7687157141169644
-1.1392105352055983
-2.0119037275246425
-3.2028141067856937
-4.5233046956901815
-5.75470412936179
-6.64547884853575
-7.072206625595485
-7.157880660375791
-7.169616963002175
-7.360269327202246
-7.826336400923134
-8.526261784393517
-9.312646325427291
-10.001526673071712
-10.463840475499854
-10.661881347301085
-10.725896740099978
-10.779255373307842
-10.86578464257496
-10.986734233818392
-11.13393035658169
-11.392082156673274
-11.789763149520578
-12.290449360182787
-12.770239561193998
-12.981626901294188
-12.722614912320212
-11.86034495268664
-10.445342840025921
-8.745677631869
-7.0948326100804575
-5.758852702623578
-4.82294604874745
-4.262542722726699
-4.072556205725633
-4.2479475292358355
-4.5622402302286105
-4.603967851890114
-4.081929313784225
-2.811721690292239
-0.8157359368872261
1.5357007524815491
3.8474747371269684
5.861777047461862
7.436431594727272
8.587606375088678
9.323531275684836
9.679892382203263
9.786645411764146
9.748935884656783
9.751041806482707
10.007768586780413
10.62306687352435
11.593830195149986
12.80395736134659
14.081796232300713
15.228238927978564
16.04600641153521
16.444429357687717
16.41574187482686
16.006455919946436
15.360378080982562
14.671645697158924
14.104964076216888
13.690460361160136
13.355632567841567
13.00966854436768
12.600758821882737
12.078513266782238
11.339735735364808
10.33318537719429
9.05891999363486
7.539208070196642
5.767213383182956
3.7542913166840775
1.5566757047465036
-0.7252344113756359
-2.951766897753486
-5.074045633930268
-7.004772712819475
-8.595071573376238
-9.669846446205357
-10.073609157043135
-9.797350380292576
-8.924504322753728
-7.657145027899053
-6.213954492882037
-4.733799959804602
-3.3819583721203434
-2.344688080733264
-1.7815107313455978
-1.778335852450447
-2.293165813721091
-3.146722753525155
-4.006942199410568
-4.582600295347204
-4.793407261609367
-4.617311930021648
-4.023119240933286
-3.0463280034736155
-1.7921364367486703
-0.39610301066114
0.867135950069429
1.934065275055347
2.97453226881647
3.852330490738177
4.566438778178801
5.231052486457907
5.95069032813106
6.800983798524247
7.585482054834103
8.276572259163526
8.826370765258964
9.285488002784746
9.662671076956498
9.789772521830312
9.68399784194628
9.288318800875977
8.806971712845112
8.404245769095297
8.111649195687608
8.066669797008085
8.084806005987964
7.995869853675586
7.737681873551569
7.293256686421189
6.787269537792215
6.1953507245918695
5.562947453491549
5.001639517534709
4.430188588904818
3.8851379922760576
3.302739311662368
2.5706052881712727
1.6835626522045257
0.561507105017928
-0.7079231006337658
-2.052105983519607
-3.4096016348082285
-4.657672259399742
-5.69598744682955
-6.435610729523488
-6.862282379904084
-6.91598866109699
-6.678737370033411
-6.297203275104542
-5.838127456530337
-5.3732272842106745
-4.937428100353772
-4.546637782238375
-4.1818278658392485
-3.895406851956804
-3.7779097447293
-3.8420259079504993
-4.02333855397795
-4.257554819650066
-4.400744298540691
-4.3020492750344665
-3.904874091988756
-3.103401247119454
-1.9751294432287838
-0.6334194647843705
0.8630967511114495
2.260472071650746
3.307380299559987
3.7657852187432277
3.4196886290154294
2.3128325009910315
0.6657348997497616
-1.1533909369013797
-2.6246717246273157
-3.430708170506731
-3.5315284299448573
-3.0869231472446432
-2.4304781839894347
-1.878878483039152
-1.651888266598188
-1.8980028367272346
-2.5510608261386025
-3.3665623994484
-4.128597663381678
-4.594442335839454
-4.712264093040421
-4.609749683101363
-4.414437932387986
-4.263938621930158
-4.103792110102786
-3.8122049238176587
-3.285577283461698
-2.4642184951857686
-1.4546473275394711
-0.4536879972644566
0.3702911773159307
1.018985823721291
1.6425267066508236
2.3581747212040387
3.2745904242624873
4.395169442968527
5.427024177354733
6.171989550692244
6.550223057925712
6.622906546102089
6.645711795443634
6.663819335474536
6.779270739692427
7.023755441205687
7.397544326179519
8.090898579810592
9.070052228428638
10.23768001701048
11.341853002627985
12.10758221412538
12.53665400335746
12.690751321795041
12.6982579508935
12.54306407028293
12.134487550454239
11.418209148680518
10.33539714167634
8.958210740987493
7.372284626677396
5.673244955744427
3.8839356232065776
2.0520829842648243
0.343868192241175
-1.0660849432417512
-1.9988056704099775
-2.431907185988865
-2.4814792571020137
-2.360362899419917
-2.1993749726126066
-1.9446916667198018
-1.5163002591728523
-0.9307987088565216
-0.33424666403437
0.16098378768075627
0.49845752196617443
0.7022763961592502
0.8038272030628437
0.8566418868324119
0.9630582704530369
1.1248875012409696
1.328293111619543
1.494447323843494
1.4728190643208663
1.0838192507070425
0.17300579659099244
-1.1942266787918454
-2.772159878154011
-4.245241945519617
-5.323703570570107
-5.831423060521576
-5.728629972686636
-5.096657184795613
-4.136534018065023
-3.0918203686150947
-2.162028392464683
-1.5300662052533407
-1.2474626224742449
-1.193430513437395
-1.0932509237580212
-0.6195591779054129
0.3362210089620609
1.6635740072444796
3.1514708729860943
4.533423123110348
5.661271795132226
6.471040615827973
6.915757595531109
7.1395009516919545
7.227558933265539
7.199916659574539
7.07225564958104
6.7807275720727604
6.381627414022917
5.905712946795749
5.454363958051033
5.099019730037333
4.852665074316323
4.798997368936185
4.831427754381288
4.89350974165402
4.95101969772449
4.869197294860912
4.598111358290887
4.110688127129602
3.4222733895969344
2.579519606635614
1.6150016307552504
0.595898578599654
-0.4072356147332256
-1.2969649311294953
-1.9858499709706519
-2.4263203951849213
-2.60604399239136
-2.6013390531709684
-2.4052616765478954
-2.0358245639367603
-1.619762427098323
-1.2356771706943854
-0.9724338065276126
-0.8467042508420206
-0.816656389376536
-0.857879863661138
-0.9574048710094201
-1.0980719493703435
-1.1171589021967692
-0.7866061344406032
-0.02878297426308018
1.0593530388996362
2.251807246100975
3.2992468033567515
4.1034779221791835
4.761358201315009
5.443627849307194
6.229780935142557
7.08269895201807
7.94154860413715
8.723075935139788
9.369122165396174
9.696504245590146
9.419317191417758
8.483380630496672
6.979070305292556
5.294149248546813
3.896662910790679
2.9625308019762135
2.4967250240238545
2.156276085460485
1.6754659439299526
0.996917639179785
0.08955048595593021
-0.8314133589153699
-1.600338532216342
-2.112886407275761
-2.3403336703724484
-2.353185167286743
-2.167945153753377
-1.8645857669196935
-1.4332600509694478
-0.8494475395628047
-0.14906359198179797
0.643087109653679
1.3740866604987356
1.912314652603049
2.2427715504045165
2.3499614872018784
2.2509943513901423
2.0010479889423594
1.700091520168424
1.4966380573194655
1.4969385955977241
1.6928221869142164
1.9043757471286111
2.0103304952521284
1.942094535974665
1.6639350427149988
1.3221914911486232
1.0150138018435197
0.8426280484030156
0.7775402715191039
0.6445472102239064
0.38730086509511324
-0.032368557169958866
-0.5136938918191029
-0.8394705115343049
-0.8357066104353734
-0.3489303704047083
0.5960033180593468
1.8327260662099827
3.200107773570898
4.488214632158704
5.596951438118018
6.514786195797314
7.2329429160435295
7.830758811129892
8.315582020154388
8.626590511235227
8.632476077263348
8.21304784546028
7.4210235900762545
6.3652516902445395
5.212785175851118
4.102634734758307
3.0623797222190765
2.032904388858848
0.9174630124123931
-0.24732600725511275
-1.3633055810351526
-2.227831010278394
-2.6501445366531593
-2.7401994138383174
-2.7010494205941673
-2.836190059283778
-3.3932378518007145
-4.346127721574515
-5.550384475539045
-6.733161357405234
-7.667118886727777
-8.298526643633384
-8.6637700862881
-8.839086796917517
-8.89873641018909
-8.86204988076361
-8.789562946657137
-8.733145575043377
-8.648270414058667
-8.509171878410323
-8.19874744441989
-7.693498090053582
-6.992695594990241
-6.050296014561896
-5.012452827893673
-3.9314960560112455
-2.8451949012149136
-1.8270447763618318
-0.8817706972567698
-0.013188758568498476
0.8557569754920262
1.8089327178070986
2.935244619082364
4.286732185385229
5.820772291186878
7.407320307062552
8.866276293011907
10.045021186960831
10.860955901245731
11.342383877467439
11.50660172335433
11.365986395290642
11.046364335637561
10.75567210243821
10.699906256856476
11.080588019473144
12.042973266084545
13.507908961281947
15.169088038695564
16.7833541346069
18.289625322657574
19.549465856281497
20.452741549229167
21.004101131835885
21.21817185023691
21.067894355388244
20.528830097014854
19.780707235252464
18.983879512151308
18.201456305256585
17.36934793001047
16.44231348850937
15.366342274302477
13.912846251655203
12.005951369309509
9.54894605581184
6.757985302403958
4.052731290084427
1.7572399157532606
0.2934926475486612
-0.3100342774856488
-0.1865221337055845
0.4176946691730888
1.1835395276259215
1.9179350766754433
2.3704007839327206
2.4914173211811668
2.3438876890636053
2.002466295064754
1.524823287896789
0.994710481399321
0.5859372492871496
0.4772420750006325
0.8060816374096351
1.5167873043834543
2.520633346987196
3.607238329107786
4.536072569175603
5.247466446988175
5.652243762731853
5.76895812328352
5.663435386352932
5.41725780335811
5.193118234190988
5.1110104330131545
5.296553616291605
5.8265752730512625
6.653021360375649
7.616021790222359
8.562698593005482
9.36609893077491
9.967003186428972
10.444305472025075
10.846073092698155
11.223862409666687
11.622183128508135
11.955138812519895
12.119895384986473
12.057279363001353
11.757258943111756
11.229403963140435
10.397651633770435
9.219189230148583
7.7730771484623915
6.171208531194202
4.658736991270704
3.4831384229018303
2.737236286867115
2.4303405575368333
2.447471766758874
2.673561228214134
3.006997716423842
3.3054735549330627
3.4846497618192456
3.558755020185514
3.540511594755984
3.4135478629890423
3.2036715533625175
2.9047026969110554
2.635590585742431
2.5866756977825447
2.892544582300451
3.6339577192167014
4.6372355476963385
5.71343078904378
6.756208469714066
7.604690937374994
8.078883502478714
7.968988484980149
7.195570497863357
5.8897359423904465
4.374590405238274
3.012981539852008
2.040503056999683
1.5617577454632967
1.4856232579311246
1.6328625204688951
1.7932977857256456
1.7907386555572504
1.467286483468925
0.6630412971235213
-0.5251584481461894
-1.8372154741204993
-2.927627722784639
-3.5706103032978924
-3.7023467125289304
-3.221017050600201
-2.150377502493795
-0.5104630515117996
1.5058492961347114
3.554853183390754
5.349585843546397
6.560524586298303
7.195573831279126
7.399992387468845
7.353963641321598
7.372013875897781
7.502151751886153
7.776696738799321
8.12648850726527
8.391727971737161
8.627067239393874
8.797859649191889
8.967333261406838
9.139384657564158
9.1564771991966
8.961299318175254
8.457072490123108
7.675986149829827
6.676196271515546
5.527728978885641
4.404320741212875
3.4340162027136456
2.773472872234177
2.5211003364318567
2.6363623060744845
2.934088779180311
3.1512825645850735
3.07207122778621
2.641798345810407
1.9865761992498538
1.281099728211109
0.6802703940134412
0.20237450270131074
-0.14886197222266573
-0.29270977987178687
-0.17305234740133188
0.18609706986227448
0.5746019265464076
0.7450088913702594
0.49268973205706396
-0.22751424558381575
-1.1582061258518834
-1.9927913888159312
-2.482915618748327
-2.549358699495221
-2.3298300356085915
-2.03961841014452
-1.9053640024939587
-2.0275409620254936
-2.426540431785768
-2.977692551072688
-3.503255331519552
-3.885569825604359
-3.90265577807751
-3.497800053641828
-2.7555331737557385
-1.846215533350607
-1.0272011714288773
-0.33040854144764314
0.2566001392525422
0.7217236055746207
1.0186662488856926
0.9739150905877549
0.5058773329511626
-0.40137116737800943
-1.669085241319593
-3.007956388332997
-4.1153409445946245
-4.751671496262457
-4.760937009603192
-4.221119743281359
-3.3051680407731014
-2.231438912342091
-1.2351629367036707
-0.406594639025375
0.04184492708545897
-0.0014561140093953175
-0.4151817940129756
-1.1005166580903156
-1.7149995576888395
-1.9517466263650503
-1.7546348053982053
-1.131924978706446
-0.35547640936416347
0.17794437485729078
0.1640846744485167
-0.6687930847403704
-2.322612023957278
-4.552602801799709
-6.901407920004256
-8.74013014308375
-9.773461222120488
-9.893526578930839
-9.173685705928376
-7.917599077922606
-6.425265307741102
-5.054300170845064
-3.9412879597931125
-3.0239726330597434
-2.1684118333548716
-1.262876899904279
-0.2936332231722638
0.6948956366123868
1.5349033065295377
2.0961553703861733
2.239387155848011
1.9524213529570407
1.4099155207104594
0.7976412779564394
0.2329520787671236
-0.315532360393488
-0.8231919427074248
-1.2964292342901442
-1.7853400810530682
-2.309867742442205
-2.9508781479012196
-3.7102986067330823
-4.562363687515387
-5.470948639870641
-6.353431765048539
-7.088174137445601
-7.4582502043611925
-7.283627960525101
-6.488995494312406
-5.170588758801262
-3.5887875682068353
-2.0677941926568093
-0.9534556694034423
-0.42868355369418315
-0.5807144219205259
-1.4305224315910536
-2.914648944850226
-4.900677852771295
-7.075830186135929
-9.137753707195422
-10.89510582628958
-12.29391752407271
-13.39657600654903
-14.340745372336569
-15.236314423154026
-16.026272091986947
-16.607041056564096
-16.813206063155835
-16.589141383637134
-16.04388137852831
-15.320550016697922
-14.547435287428812
-13.693864243167072
-12.721290673424262
-11.629000483504008
-10.471621287517994
-9.360384239490925
-8.394163086353705
-7.662078742122756
-7.142049158862847
-6.845511017272719
-6.796661210991938
-6.9666254717870535
-7.338139180543685
-7.8127874204446
-8.235638514331434
-8.504663744718721
-8.677084424696918
-8.89769010835758
-9.276340544746112
-9.820894926704172
-10.379050577947687
-10.633140262036232
-10.242027661338598
-9.04334642310163
-7.090149518893354
-4.635315983527767
-1.9907374972608667
0.5354551218788676
2.7042632513101172
4.428900577674719
5.684237985115628
6.569397692523909
7.217033523421352
