AAD_Filtered_TADAS_FILE
AAD_BASELINE_CORRECTION: BASELINE REMOVED
AAD_FILTER_TYPE: BUTTERWORTH
AAD_FILTER_ORDER: 1
AAD_LOW_CUT_FREQUENCY_HZ: 0.025
AAD_HIGH_CUT_FREQUENCY_HZ: 40.0
EVENT_NAME: 202302061024
EVENT_ID: 13207
EVENT_DATE_YYYYMMDD: 2023/02/06
EVENT_TIME_HHMMSS: 10:24:47.00000
EVENT_LATITUDE_DEGREE: 38.089
EVENT_LONGITUDE_DEGREE: 37.239
EVENT_DEPTH_KM: 7.0
HYPOCENTER_REFERENCE: AFAD
MAGNITUDE_W: 7.6
MAGNITUDE_W_REFERENCE: AFAD
MAGNITUDE_L: 
MAGNITUDE_L_REFERENCE: 
FOCAL_MECHANISM: 
NETWORK: TK
STATION_CODE: 4611
STATION_NAME: 
STATION_LATITUDE_DEGREE: 37.7472
STATION_LONGITUDE_DEGREE: 37.28426
STATION_ELEVATION_M: 1097.0
LOCATION: Kahramanmaras_Elbistan_Turkiye
SENSOR_DEPTH_M: 
VS30_M/S: 731
SITE_CLASSIFICATION_EC8: B
MORPHOLOGIC_CLASSIFICATION: 
EPICENTRAL_DISTANCE_KM: 38.21
EARTHQUAKE_BACKAZIMUTH_DEGREE: 
DATE_TIME_FIRST_SAMPLE_YYYYMMDD_HHMMSS: 2023/02/06 10:24:23.6947120
DATE_TIME_FIRST_SAMPLE_PRECISION: millisecond
SAMPLING_INTERVAL_S: 0.01
NDATA: 10501
DURATION_S: 
STREAM: HNN
UNITS: cm/s^2
INSTRUMENT: sensor = CMG-5T/GURALP | digitizer = 
INSTRUMENT_ANALOG/DIGITAL: 
INSTRUMENTAL_FREQUENCY_HZ: 
INSTRUMENTAL_DAMPING: 
FULL_SCALE_G: 
N_BIT_DIGITAL_CONVERTER: 
PGA_CM/S^2: 194.401
TIME_PGA_S: 
BASELINE_CORRECTION: BASELINE REMOVED
FILTER_TYPE: BUTTERWORTH
FILTER_ORDER: 
LOW_CUT_FREQUENCY_HZ: 
HIGH_CUT_FREQUENCY_HZ: 
LATE/NORMAL_TRIGGERED: 
DATABASE_VERSION: 
HEADER_FORMAT: DYNA 1.2
DATA_TYPE: Acceleration
PROCESSING: Automatic Paolucci et al., 2011
DATA_TIMESTAMP_YYYYMMDD_HHMMSS: 
DATA_LICENSE: U (unknown license)
DATA_CITATION: Turkish Accelerometric Archive v 1.0 - Disaster And Emergency Management Presidency, Earthquake Department
DATA_CREATOR: AFAD
ORIGINAL_DATA_MEDIATOR_CITATION: : AFAD - Disaster And Emergency Management Presidency
ORIGINAL_DATA_MEDIATOR: AFAD PROCESS SERVICE
ORIGINAL_DATA_CREATOR_CITATION: AFAD PROCESS SERVICE
ORIGINAL_DATA_CREATOR: network: TK
USER1: GuestUser
USER2: 
USER3: 
USER4: 
[...]
-9.442299834127782
7.297818900999401
19.371237243133905
27.320984093673413
35.36493346262498
41.57665075975417
37.70966172766056
19.959472846992725
-5.194412153018621
-27.120047438043528
-40.63029496878875
-43.82465739609013
-29.89983196613805
-3.1411607001052193
18.266640773532053
23.829735770214597
16.93048762152608
10.507439620361433
13.660349295399485
20.05295204679562
20.19698351139859
11.656233322859816
-4.259318033796075
-21.76476532872685
-33.176953250190984
-34.770670087327744
-30.560349634905094
-25.284262998681815
-17.19607918917396
-7.6148690652344975
0.14844902651188324
8.436067124970426
22.16069892534685
42.12091266518982
61.173755548307426
71.74252746086917
71.90598316905027
65.38004323817687
52.08150233940567
32.22971918585898
15.007158479895072
6.229445974823055
5.022883037873741
8.141566938710273
6.0044126261700415
-12.109223999133503
-38.68194190983764
-55.93990591791916
-56.22028625942895
-43.43411272403583
-24.5007022456159
-5.705438827464517
6.779296581104513
12.107655501304587
12.84750214876324
11.857292764423164
12.683483388338361
16.514181382253952
19.760722134934507
16.321410641668447
7.606829765575246
0.3051384421324543
-2.356234104333548
0.9004731455834193
8.736452517797916
16.77633557030419
23.512402738717885
28.31829861965393
25.049786710291745
9.577818846116054
-11.339063360757054
-31.062981725071474
-47.63696182911004
-58.28067241236268
-60.84354475922824
-55.008686572586406
-44.05768038262279
-27.008840302224925
-1.7653140963993954
22.401876598038235
34.07193661025962
31.913782635357812
19.130785042107053
1.314184781915191
-10.51730281479961
-13.178758187121085
-13.464691111926717
-15.293784270369214
-16.20449658563393
-15.529969578121708
-16.693683838267287
-16.986170923166156
-10.035250462357178
3.794537699116418
19.69190929315507
33.844413303494576
43.05541432891629
44.84706367493339
39.17602205365196
28.14277015506057
16.29806445474343
11.193185839824066
17.237485837055413
30.03082220255131
35.812163567190495
28.373875815794026
15.605045610826933
6.300930989889076
4.644558995402705
13.078988507910791
30.92233662269386
49.526489879375
59.407954926437604
53.81523115961658
34.953080317779694
13.124427209786907
-5.866839134480615
-18.596282279484434
-18.8122171291193
-6.406745640580697
8.754637643117896
20.40313168071321
26.121966880693435
25.484281578829485
23.94870836583087
24.901530271180757
27.739033695513534
28.65969100686371
23.087278266172355
12.215676050678882
2.7851092259732892
-2.1794732149476945
-4.315941514084086
-4.178861358445132
-0.7414372989243869
4.6326237660554925
7.0457090202842405
1.0914073382695768
-11.607288571367109
-24.42599741448419
-34.47302184855447
-40.081011204658765
-40.10719447384857
-33.47283972710534
-21.986776416467833
-9.309356749081623
3.276961684504807
15.48555865630708
27.15446009372202
37.93120907638679
47.55448264736391
56.51359325647503
62.53539872751279
61.83757357405523
52.03669121518258
34.84415743494892
15.232583551297328
0.6290286313515834
-3.08147530123502
1.0714038083695092
8.3950869164066
13.628831970058108
9.410182318453879
-6.219472672415732
-24.125606896089142
-33.34308410469945
-35.21130529472544
-34.16217083184866
-30.128213762851356
-24.458687657506648
-18.81692902464695
-12.563282689930807
-6.73050094699046
-4.350991708698414
-6.870168584837659
-13.020808477391432
-22.735437738939616
-36.74819930405661
-50.91612440951928
-58.56083330014958
-57.5341885963409
-51.31445266625395
-41.113627764451174
-26.938432138186066
-13.010344288519638
-1.3268317928768583
9.79416469470382
16.11004185585886
12.102131509589265
-2.0356738050446244
-22.119921282844906
-43.3591519220159
-60.92016746814902
-70.25605514206627
-69.49420042187636
-57.86142013147223
-38.853651121749635
-15.582008173314787
7.508552545935366
22.319867280303914
27.06972075401476
27.599354732443956
28.436829969096127
28.28839142946428
25.094628769196394
19.491372265288096
15.573914961171589
16.301001470600784
19.323951703225
21.851954377663603
24.9761793282595
28.078498344266947
29.928816144132202
28.082292048589647
22.894989930570734
19.02988192879609
17.180008934100904
17.285236162863853
20.84105122912051
26.398564777888936
30.847076492922273
32.84675752618377
24.83835430897047
2.4831868057048117
-24.8009367491563
-47.80359926718783
-62.33383628017226
-66.17353960330955
-59.02959268178248
-43.42473143774264
-26.748507271253274
-17.755943684675557
-19.634039876259667
-26.262717187131706
-25.069184018849313
-11.797384734227524
10.042088732011186
38.6868435870516
62.660849536732655
66.71906254197467
47.06805579312699
13.790539635245691
-14.092074899994538
-23.741383819980346
-15.514081567322908
-0.20484517388357737
8.006582704257667
-0.8995727338155843
-25.374897318116385
-53.946687451423976
-78.47254928819642
-93.06733227598198
-93.249335850299
-77.51057250288439
-49.066460170499695
-20.98041515813052
-3.352974253883359
5.545120478802785
12.694000388767188
13.163532740850039
7.558146382179345
9.24525272467393
19.231600058333076
32.51805513226783
46.232759767891
54.59024086960539
57.76179845892919
62.10190719621067
59.923086995079956
47.38921358684624
35.0675838020607
25.71771087695064
13.704024556493627
0.4276079764121987
-8.714869860545821
-11.368637122465975
-11.014044484065574
-14.719167256806868
-20.945516317526096
-21.75776763943076
-15.16115247665655
-7.702156106581387
-7.911688107928472
-20.01210367456902
-40.04960439283818
-58.769175216887774
-68.6979843256388
-71.9194407630319
-74.15708549245493
-71.62836861847916
-62.44100636852423
-51.87980359119506
-40.30056939874104
-24.689853728697077
-5.117176733272285
10.771019650580024
19.23895722499037
27.540087760990556
36.278171058002336
37.235658665144754
26.73621200122733
14.397627204533869
9.545010398401931
7.806111924990474
5.718777533970019
4.969968236837869
5.227800608699551
1.157511238599629
-11.908444743030655
-27.072537710272734
-35.91718010204341
-39.4803316477169
-36.486312649898444
-25.552905745232692
-11.336991084218637
-0.48424278173842544
1.1820985254340075
-6.246846515921872
-17.68575190528932
-29.58236462498998
-40.74726808949715
-47.61913334354718
-45.76108763238887
-34.2298254429702
-15.970948983148466
4.579300719156466
26.214100841179867
46.77284694622417
55.951480408130934
45.6930549146447
17.985717491146126
-11.982972674341141
-29.369676006467007
-35.492895518329625
-34.44101345432233
-30.785708335079775
-30.017001379302997
-32.01169060388145
-30.494627195694626
-19.38203750592144
-0.7980365691493466
18.699303548406526
34.297190307327135
42.55878824574201
39.907948885709914
24.641863763138936
4.891540020720839
-7.172391953113226
-10.688621075521
-8.710546243255838
-0.8801719789132892
10.201194875629199
21.99348484520994
33.54279576007307
40.2536747077172
36.802365502475645
21.062870754161466
-1.2706559723515796
-19.114692925467033
-26.707505860242573
-28.650733464240673
-31.917886324858735
-40.46370825223692
-53.655524693826436
-67.73146493826415
-78.90138992578248
-81.72541595584381
-76.61081449310012
-70.60400355459748
-68.1840187694412
-66.56419130169542
-60.016965798353276
-48.14743307305752
-34.77699392523364
-21.423039296718493
-8.542046591548928
1.648798778200954
8.901708371590573
13.025405063240541
11.619338441963796
6.649436377521712
2.1548026599959416
-1.6474818766609012
-3.239824254439991
1.0929619513471351
10.009753433055565
15.749385635375242
11.495332045211487
-3.3996249567339514
-21.950763052918163
-35.50399035685653
-39.892811142773006
-34.88113614753023
-21.662176468462953
-2.7128907088623935
14.931030905059595
24.22438261721829
25.78397591598834
25.24539103689343
23.424724222925654
16.04843559694861
4.661237791679893
-5.468994388526503
-13.968227652178081
-22.170394406952564
-26.57016905858661
-21.5808791398836
-7.7405800130150775
10.490425412661855
28.16762302437102
40.28745346403859
44.03458856174596
41.53103440285776
36.38377175903685
30.927727596835705
26.343579220940892
22.082055371413322
17.819633289230072
17.057079958478997
23.19564274487533
31.831226117876255
34.52900895154948
25.587603015122905
9.323795728296838
-4.129671743261549
-11.4241662131689
-13.326855317973216
-10.278255665811953
-4.5491329419954445
-0.4838493716179043
3.3312775070703466
9.512587660323463
14.156460927325412
14.137946417598483
8.964565576253959
2.2252599445714423
-2.2068412637706696
-4.952321652578054
-2.1011384184148696
8.812988589620499
21.030319895690685
29.9784968565422
31.28154005073492
20.52288580359526
1.7104395165796162
-16.441569095701418
-25.3805890695021
-22.024749146058657
-10.356343062138734
4.207417826413252
16.151807617932892
23.731672185849284
26.47492068354208
20.000756772102882
4.459802691635376
-11.185640598766026
-17.4635124276872
-13.77718989157138
-6.165203443502043
-2.2844061525406647
-4.638138754880278
-10.435757883480335
-19.00530142961076
-25.7343881928007
-24.375792807669427
-13.372830426590943
-0.06031321127831922
8.956273401120393
15.376536078475812
20.620670606403973
24.81134148379843
28.059170110768477
35.37495562433377
47.49704454677316
55.17604024448498
51.2296448512676
35.42740173538605
14.429494712671628
-2.560664822139252
-11.510478237484916
-14.38149212878133
-15.512417650200774
-20.520117846960602
-30.733893612559307
-41.96726726257318
-51.19185887753569
-55.82032369839865
-51.085137233538596
-35.50640507283492
-13.43708252859288
1.963365807552746
2.9764102101828738
-9.512953176045547
-30.582161361786756
-44.26974942656196
-44.248699710494115
-37.57511248842728
-26.732607681849522
-9.829064568062599
9.129284106316687
25.782721903770874
38.27417174771562
46.20654520540842
48.91267020192249
49.03592907746983
44.923672458510474
32.57394622433634
19.44293809727648
11.962779834703376
12.768476629320483
20.62674106920165
28.410864804593185
31.145345544227826
28.212072632328358
20.13648654433001
10.30073905798773
4.6342881372277205
8.593349873825812
19.80022911292232
29.42978910595333
31.10654454714224
25.335614619474995
18.509506861880308
16.070791816686366
18.997597772480518
24.498722410868723
27.226926328650354
19.622396871488633
-2.2109495819233653
-28.856266751339025
-45.38847531297004
-44.0012814303141
-29.176788548616894
-15.566116611308171
-11.162915708867104
-11.473175170495969
-12.367383552590072
-12.719098672601788
-11.122979427705337
-10.115197349841914
-8.27351664652876
-2.586374569676728
1.5259469509667922
1.0328338748619474
-4.119926269444552
-13.47119864636032
-19.033091532685066
-14.645639501600904
-9.149781594900553
-9.877817703249411
-8.48652262195562
0.41317064925505764
15.140742036023955
32.28958105923164
46.07084714961812
50.86162471607526
45.791162724337276
37.38880069530947
31.284713512968327
28.438128845050276
30.324610443163866
37.26422480078624
43.85845399575889
44.34710785156195
32.94182086523779
13.523728401659909
-0.6513404160395964
-6.84102803785356
-11.424266440625974
-17.931697986297007
-22.13052209492667
-16.768930185286443
3.736943651647025
34.30751864001538
62.00466656902428
76.8953989373198
73.27913984336165
53.37978716177907
22.978783666900316
-9.572049955913505
-34.78582845531335
-50.54884669042936
-56.3407741281204
-50.19527341594
-34.24806942145545
-13.201020129031841
4.861679351467093
11.594288540331673
8.335715125784247
-1.4318483282870158
-18.6805701898968
-34.609584061194205
-37.31978880497013
-23.20237408921858
0.4716999262240984
19.6491022189998
30.33695639542692
36.09462106752334
36.401922772806444
30.467098762052274
20.161048871799508
11.992082061391637
10.499649509168677
9.787267511461604
2.006726775580778
-13.37656108785797
-28.60908283768317
-42.685480048844596
-56.38241407265741
-64.39611042669569
-66.24248059729176
-71.03964016914902
-83.83179791302645
-95.99659086842978
-102.4939494089048
-102.94520866199814
-94.80974383549199
-79.32971334536367
-61.28330917588935
-45.4929910083668
-35.312604737882744
-32.06699242125322
-31.04909319475235
-25.090570293647133
-12.478670840669077
0.17746015512374305
6.590462125459846
7.566197448141286
3.6238856529702175
-4.538977605721515
-13.761932188781323
-19.68592159894085
-21.002040597273542
-16.738642352095397
-1.8102108986421204
24.797879260693314
56.6633561959566
85.31305639463814
99.48729158721044
92.69389897622906
73.71639680093772
55.88840161894739
49.20354762071518
55.9143559896073
67.00203816200754
72.8501024718126
66.44285593003951
50.08506540802433
33.58776880294843
25.040255881744606
30.027292827843574
47.01880271668886
65.3796821575421
79.37685850623242
87.66497400672276
86.20930447630946
80.15810449664751
75.13384451129465
73.26291782012406
73.83826625169007
73.47096983182043
71.16471853133673
66.0146664160642
52.79430694014907
29.266394654301614
-9.385843006741794
-64.56805183406397
-124.97633180580394
-171.2540569275678
-193.50129003767634
-193.44559996956417
-175.5287951635752
-145.1200710817678
-111.09219676447232
-82.30085535569876
-57.78290809348606
-42.259305607802325
-22.70348617192416
8.783789866386053
28.04486453300559
21.003175893995788
-8.961898211622305
-43.83358674959888
-61.67475846209306
-63.67175563647683
-59.169286892679125
-49.35272131150159
-35.070598035100836
-27.012981374539763
-28.545392971944228
-34.25025046075023
-38.54070330977133
-45.50840647024887
-53.620561684418945
-47.917630010541316
-30.100983199915884
-13.220488339963055
-3.2774517432430237
5.801425756443533
18.16780777313734
38.804879958940575
72.06325629231046
107.25581275722772
129.08657622084098
123.55204564917356
88.17223957018128
48.58874500179826
27.030399268621437
25.250497586205753
41.531621669431075
65.63975757304179
82.50574459543061
89.80395956067841
85.85500774147603
74.42612858513466
73.06249268952101
75.96256459518243
68.83667849368256
63.62382732929471
56.77639699191029
46.74210991787711
41.16632975650306
35.978454285746366
30.284305232511777
14.543532742452959
-10.309021130027462
-37.49810896473466
-63.50428122843056
-87.28450820607115
-105.00797954135874
-110.19058287986347
-106.71896322577489
-95.31627015061781
-77.38545442019652
-55.194336755639746
-30.991236354969182
-5.324711553052646
16.753024176443592
27.62146358973796
23.593176685102787
2.369076907538558
-28.883043773545264
-56.18397898491512
-63.361964752448415
-47.50495141526659
-23.616340515843707
-5.038909692641308
7.899420295332048
16.76272451405558
24.17895322050534
31.703714803248488
39.284741085490715
42.00004315217814
37.36750202999612
37.041647652801416
43.606814669083576
51.131579079479074
52.355682164418084
40.880753686032705
19.60440563483809
-0.630932197848199
-8.956687722128352
-3.73578562143782
-1.2881560754533865
-7.701742177955381
-6.612903964175904
6.121557053175003
19.585830216223318
22.067947519907932
15.643505843502298
10.54193455733473
6.139448796551205
1.9380401382372263
1.496160949078114
9.383609379305538
27.55100786654555
46.31355083798707
54.61608488663285
49.421025348445
31.054053268685216
-0.029831566939655545
-32.69942661046882
-55.55383176846048
-57.32982835695543
-36.70220417827655
-10.288942513104537
3.3741201630333495
-7.936783391716576
-38.26753351584917
-70.64552721154753
-89.9462467833229
-90.60958538186802
-75.0342205650945
-54.7520496672523
-37.70630864703248
-19.48240311551963
1.0824033427056583
16.69546219662078
22.33207641407189
21.7517489633963
20.452397813039802
24.32982311703849
37.58106595938132
55.78841423510142
69.17268659730279
69.61819112349826
53.32048291028909
26.967118908770242
4.252642338147042
-7.141552638135041
-1.1457275287294715
25.423766054052454
59.372894275568754
82.51012302563542
92.31845275824391
87.98304472837351
67.17393488948282
45.036051036502286
31.14593313777296
16.345098432976712
-6.568034058290754
-38.244283444397816
-69.0479939240723
-83.31363830561804
-77.68299015480471
-58.58068470483062
-37.63332431592613
-22.456351272635963
-10.700148524445254
-6.558937979043685
-12.896306615686639
-20.861513732887847
-21.0942448585504
-18.18902610559364
-22.910892005833798
-28.54733897242559
-19.798584154097444
1.993322808551337
23.96968498642287
33.265812960222036
24.402110120204007
5.515522179740818
-14.272301552606951
-28.235809802061784
-30.993564785283
-25.782479062125454
-15.182223069454686
-0.13946137099480127
13.693982058417978
23.796099908942555
32.6051445533036
39.554024600042816
39.02114471927186
32.46850639787881
23.839537948442437
13.5590921980189
6.593970522296166
10.711110923595976
23.36371085916448
36.756514429259475
45.58704075287461
44.50074123705688
32.215208403046795
8.08043846511966
-20.51989451480091
-45.42226912480715
-63.97221591860487
-71.36850234097125
-67.70503380691126
-57.39945925903215
-46.54392902848449
-36.62848932997685
-22.889632937622725
-2.192020748094057
16.409483588288463
22.03349100789159
13.642281464124606
-0.2486678824776875
-9.28036898910986
-9.449024298803383
-7.800682635014652
-16.660800875925943
-33.52834852976209
-49.58182075122777
-56.85615176210294
-47.92471101086855
-26.73168771075571
-5.669950157971831
9.610171806689372
18.001529261693914
20.430368964216147
21.062845045977156
26.03936103692712
36.95308011560183
51.113498390142475
63.19371232240418
64.08377823626792
53.3654567065359
36.89218864512949
22.622624848402207
19.524767730369867
26.931336762776084
37.44383463597199
43.153366210683075
40.06016675640227
31.674855081785502
22.791210645555434
14.658228119310486
5.980052902463693
-0.5895302272015415
-0.5771703237338913
3.3820398992291087
2.5969273247279037
-1.9903396891826164
-4.663767675205484
-2.590796491444102
5.70598142289831
18.349173313106565
29.02108932805642
30.271309115172546
23.877619432622982
10.579395097929938
-8.049498981546352
-27.54471798525864
-40.37747844902561
-37.1000237795696
-16.171511617159172
11.072149123291595
25.856823256604518
28.733134857240657
23.12722502255515
3.4394663254396804
-23.359343630289725
-41.91784822693819
-43.819466177653524
-32.94091741065882
-19.94580248481535
-12.025599552028057
-14.967383227693977
-30.25682934876944
-48.33266707873607
-58.1158822336337
-54.798624348579
-40.99616721732752
-24.430999258357662
-13.69284218109169
-12.273400513797808
-17.63132618653639
-22.39142748245264
-20.829971024585138
-13.735607821674588
-7.115045877134209
-7.70161913542571
-15.071977448814575
-27.729131604990183
-42.03675316165122
-48.88017154313651
