AAD_Filtered_TADAS_FILE
AAD_BASELINE_CORRECTION: BASELINE REMOVED
AAD_FILTER_TYPE: BUTTERWORTH
AAD_FILTER_ORDER: 1
AAD_LOW_CUT_FREQUENCY_HZ: 0.025
AAD_HIGH_CUT_FREQUENCY_HZ: 40.0
EVENT_NAME: 202302061024
EVENT_ID: 13207
EVENT_DATE_YYYYMMDD: 2023/02/06
EVENT_TIME_HHMMSS: 10:24:47.00000
EVENT_LATITUDE_DEGREE: 38.089
EVENT_LONGITUDE_DEGREE: 37.239
EVENT_DEPTH_KM: 7.0
HYPOCENTER_REFERENCE: AFAD
MAGNITUDE_W: 7.6
MAGNITUDE_W_REFERENCE: AFAD
MAGNITUDE_L: 
MAGNITUDE_L_REFERENCE: 
FOCAL_MECHANISM: 
NETWORK: TK
STATION_CODE: 0119
STATION_NAME: 
STATION_LATITUDE_DEGREE: 36.568
STATION_LONGITUDE_DEGREE: 35.39
STATION_ELEVATION_M: 22.0
LOCATION: Kahramanmaras_Elbistan_Turkiye
SENSOR_DEPTH_M: 
VS30_M/S: 485
SITE_CLASSIFICATION_EC8: B
MORPHOLOGIC_CLASSIFICATION: 
EPICENTRAL_DISTANCE_KM: 235.22
EARTHQUAKE_BACKAZIMUTH_DEGREE: 
DATE_TIME_FIRST_SAMPLE_YYYYMMDD_HHMMSS: 2023/02/06 10:25:07.5480280
DATE_TIME_FIRST_SAMPLE_PRECISION: millisecond
SAMPLING_INTERVAL_S: 0.01
NDATA: 14501
DURATION_S: 
STREAM: HNZ
UNITS: cm/s^2
INSTRUMENT: sensor = CMG-5T/GURALP | digitizer = 
INSTRUMENT_ANALOG/DIGITAL: 
INSTRUMENTAL_FREQUENCY_HZ: 
INSTRUMENTAL_DAMPING: 
FULL_SCALE_G: 
N_BIT_DIGITAL_CONVERTER: 
PGA_CM/S^2: 7.945
TIME_PGA_S: 
BASELINE_CORRECTION: BASELINE REMOVED
FILTER_TYPE: BUTTERWORTH
FILTER_ORDER: 
LOW_CUT_FREQUENCY_HZ: 
HIGH_CUT_FREQUENCY_HZ: 
LATE/NORMAL_TRIGGERED: 
DATABASE_VERSION: 
HEADER_FORMAT: DYNA 1.2
DATA_TYPE: Acceleration
PROCESSING: Automatic Paolucci et al., 2011
DATA_TIMESTAMP_YYYYMMDD_HHMMSS: 
DATA_LICENSE: U (unknown license)
DATA_CITATION: Turkish Accelerometric Archive v 1.0 - Disaster And Emergency Management Presidency, Earthquake Department
DATA_CREATOR: AFAD
ORIGINAL_DATA_MEDIATOR_CITATION: : AFAD - Disaster And Emergency Management Presidency
ORIGINAL_DATA_MEDIATOR: AFAD PROCESS SERVICE
ORIGINAL_DATA_CREATOR_CITATION: AFAD PROCESS SERVICE
ORIGINAL_DATA_CREATOR: network: TK
USER1: GuestUser
USER2: 
USER3: 
USER4: 
[...]
1.3334698361125854
1.3211853062434407
1.3351935642720394
1.3679650574984161
1.380946533449462
1.4297420793411628
1.4455447246506288
1.4310201635132864
1.3553196213887753
1.262658188176191
1.1939782727630235
1.1354992329635638
1.085689916205621
1.0190530961782946
0.9876222779017537
0.9752604705595819
0.9865806482100956
0.9645438828626832
0.9339770181372531
0.9080573129666505
0.8902431882688749
0.8886904118474641
0.9108022669346851
0.9539405159838256
0.9801342816015162
1.0215053292039373
1.0872273974444586
1.179199309120366
1.2727423898825125
1.3534385870454693
1.4461524980964697
1.5599724759748803
1.6963755302459191
1.84320452918973
1.9820181557300756
2.1063663152391645
2.2025342879469574
2.2716498397351264
2.309183330438734
2.317039423227011
2.2988137992756816
2.273317689430946
2.2331299187225406
2.1948320270598414
2.153063122036467
2.1074817343660697
2.0736440459683885
2.0343873881148298
1.9736181662816228
1.8998076366633818
1.860713471837869
1.8456854963027998
1.818927531864122
1.7669766930167066
1.7343468774778563
1.7291030927678817
1.7359626714131262
1.7449290853265278
1.754221625052309
1.7656924343881866
1.7656209343795124
1.7496586524899145
1.7335371557616188
1.7456811139615451
1.7800834832307295
1.8236630454389038
1.8567957561647672
1.8880663874860466
1.9218654573544907
1.9479122256929438
1.9539511581203834
1.9323073471908199
1.9013762669522483
1.8724031063693587
1.850072028844222
1.8246522268357623
1.8022821851626851
1.7892945726045457
1.7938000033789825
1.8047731559175453
1.8043892207869474
1.7894405852097928
1.760646352207268
1.754808538428283
1.7739723492181922
1.7891275206897375
1.7814502758834339
1.7839835694095247
1.81253910114224
1.860669984574734
1.9112679469192226
1.9403871173942313
1.9463002840391261
1.9394023415447514
1.938089815573631
1.9412722562141334
1.9577716373757963
1.9710078407838505
1.9759384058105043
1.9751465397913075
1.994532573190145
2.0208781698732063
2.012164619346018
1.978962749137329
1.9372419087595327
1.8978236202784429
1.8748313813180015
1.8735783741762835
1.8596167721563672
1.8015351224871325
1.715176538861131
1.6386717290099326
1.5641958110751923
1.4815331655340735
1.3949508515470352
1.3278330076069136
1.2817243552284396
1.2333191447917824
1.1864333909530178
1.1258772042427816
1.040722112438666
0.9434440175284126
0.8624951974892876
0.7907001672687969
0.7049594848835593
0.5997864055651393
0.4976492929764429
0.4318174306493524
0.3893071252177476
0.3612922863524809
0.3484412737889925
0.3659893511728539
0.3855395852346418
0.3770617313095215
0.3426487478219874
0.2860277769403521
0.25147881882495315
0.2634986543731457
0.31968919661132844
0.3755177050191095
0.40987419840021666
0.4325989144027106
0.4283086629623488
0.40015961891700913
0.36174071230374827
0.3139709853976028
0.24883615290048822
0.16927099231372844
0.08469758475000777
-0.0035148768158096413
-0.08777595744018585
-0.1797594500959836
-0.2827352016810005
-0.3838979158021104
-0.4918923959845698
-0.6259585954855915
-0.7847646797885998
-0.9275388252713005
-1.0355534724004414
-1.1158131855980853
-1.2040835992527403
-1.3190548895448448
-1.4573101899610885
-1.5938044177892559
-1.7069815086201163
-1.8149541770942788
-1.930521261356503
-2.0663144982454513
-2.2000150713422366
-2.3119932881211853
-2.4051868952125717
-2.517882825673061
-2.670536997368418
-2.8365681024827007
-2.994694005304511
-3.1280828379300676
-3.2519745734955623
-3.3669197331141167
-3.470531771139492
-3.573985662531245
-3.690283632619677
-3.820824385561687
-3.9435759116223355
-4.057462410821381
-4.167309068859591
-4.285336161492561
-4.408384240049638
-4.537101492173326
-4.658609669214312
-4.74943693857847
-4.812367604105523
-4.85906073121689
-4.907041249675737
-4.949523340198956
-4.999904585449266
-5.042600573350192
-5.087684816239197
-5.164797654579175
-5.269669543140224
-5.371766455999089
-5.446176510899092
-5.530941897351223
-5.625614555594667
-5.723065861942966
-5.819582908470302
-5.925334907493281
-6.014549852873744
-6.0935136321699215
-6.2132186981572834
-6.331316857116267
-6.415419603193231
-6.489647333593364
-6.572269010868988
-6.632686591066418
-6.683438528607926
-6.747500438301728
-6.809372669040233
-6.86700883669252
-6.91720104406278
-6.97058612858262
-7.016545113636133
-7.053635668371217
-7.080483745704566
-7.093555285475099
-7.11052656183444
-7.14061261618347
-7.170817329885299
-7.160207893750613
-7.121181940671747
-7.073519904126495
-7.033437750167949
-6.989595949796427
-6.942566282245546
-6.901763914237439
-6.8479577316344225
-6.7935589975343245
-6.741246150557898
-6.709283503120727
-6.6944842998925544
-6.686603023493427
-6.652042988286054
-6.590922701881212
-6.538487282934098
-6.5004450601176895
-6.484029578193964
-6.458310632967804
-6.410893139910122
-6.349787501431206
-6.290110993051376
-6.251372962812972
-6.229042348482394
-6.2166326970225665
-6.185252567348726
-6.129771850787642
-6.061606784734625
-6.0043108273334225
-5.957944189051147
-5.894303316773229
-5.809322289553653
-5.716946283920364
-5.654804413329898
-5.608182413320857
-5.57719399788861
-5.558669886969581
-5.556793703561455
-5.571054082270434
-5.600254045441749
-5.6189499144987
-5.609829298276
-5.6094354598889105
-5.6303863111574675
-5.67378291927174
-5.707080957148591
-5.741887483583932
-5.7737158424579516
-5.808165958966901
-5.844749237689047
-5.882525644292277
-5.901393199886119
-5.888204563308018
-5.870534896589967
-5.852347564555847
-5.838014667789744
-5.820336086707936
-5.80061664418277
-5.777251774953764
-5.772589144670441
-5.759608730010168
-5.709024824855444
-5.637475027996914
-5.587163378396487
-5.563067897051041
-5.542017747825503
-5.522543978731079
-5.494035868881843
-5.459073213649975
-5.419434543178799
-5.3900729151626425
-5.36335979456893
-5.326611349881432
-5.283936927735757
-5.2431952884133635
-5.208662724036381
-5.17696717432801
-5.157858739172825
-5.147531995022954
-5.152395254744729
-5.168917567601884
-5.18349266649265
-5.202807610543052
-5.218247608843623
-5.223795388206374
-5.212836771395629
-5.203911842817101
-5.208874430924343
-5.2221371949109265
-5.235168582577386
-5.244029654121648
-5.258775397221946
-5.275932645606283
-5.299155128842286
-5.317583309580131
-5.3386419734796275
-5.3734496806218175
-5.417030169486463
-5.443510896764766
-5.449769423635106
-5.468662227519778
-5.4945662945694735
-5.50714585064858
-5.495487002764071
-5.48128133107287
-5.471242792085811
-5.4676238395995655
-5.48227266767535
-5.508647057710121
-5.530414834589308
-5.532713760839879
-5.518181116025672
-5.483860022593075
-5.44998579723956
-5.421640478686231
-5.400248318285069
-5.3827031664342995
-5.363953020074058
-5.339947388041892
-5.315596106958512
-5.314657734759406
-5.324521756788449
-5.354413033905596
-5.391314824172957
-5.4236174384733875
-5.439024675836203
-5.446431120663229
-5.461199187312585
-5.481886221815202
-5.511340382309627
-5.527515303636796
-5.53100960887219
-5.529590940336148
-5.548413694351202
-5.567541808816342
-5.58031974728448
-5.5991350052424
-5.6358863405328625
-5.686371238262015
-5.7413417876521775
-5.803126380599131
-5.851364871370423
-5.898099618347915
-5.939338751460715
-5.986349254978569
-6.029840452611485
-6.067213092393314
-6.101223024087556
-6.141119493022029
-6.199687762873154
-6.2542985413836
-6.304406018250225
-6.337290321099061
-6.3672659604823485
-6.402669960701035
-6.446819610255281
-6.490911061789585
-6.504179100601
-6.487678291121219
-6.461284013960257
-6.439747398459385
-6.395450421797418
-6.3398895791471555
-6.290188512602578
-6.240937327468909
-6.192756787255982
-6.135630291934655
-6.074910446963516
-6.014507003546636
-5.981758419345217
-5.967190472130761
-5.958076771505983
-5.942189982186455
-5.9205605078343275
-5.908052966359838
-5.890935477682361
-5.868397717375517
-5.842520985326083
-5.84773178673405
-5.863138063928034
-5.876398202548108
-5.877710188942707
-5.856239094212914
-5.823224745077966
-5.80159934841565
-5.8123142499978036
-5.811997312082643
-5.79056372049014
-5.750827391627086
-5.713870379314081
-5.667545568294259
-5.617343402054388
-5.5562231351789055
-5.471943945791627
-5.400351438383068
-5.3364324481432295
-5.2614296970234244
-5.161020541035336
-5.071640913821119
-4.992947476728623
-4.921305337583009
-4.851686943172482
-4.787827638257528
-4.731361536959318
-4.680730342646741
-4.631981905550778
-4.5741134651056
-4.543016763384109
-4.514225779776517
-4.468956996771958
-4.408759566972742
-4.357005590104584
-4.297060224512266
-4.215878510976544
-4.1359902904354495
-4.079049135269627
-4.047708408863755
-3.999402206588189
-3.9342932588119255
-3.85352208413351
-3.7719193058448415
-3.699683862324518
-3.6469812683439433
-3.6097783838604114
-3.563598814429989
-3.49536617415046
-3.4167501643561087
-3.338161028817427
-3.2500468700416203
-3.1575253477775815
-3.069829055098183
-2.9971527682095087
-2.9300201344306123
-2.8599898721264676
-2.789706684888976
-2.723030694856003
-2.6563347201838576
-2.5973753174814904
-2.554015829201828
-2.5103943110427314
-2.447378094247998
-2.3851502031915364
-2.3515249518982144
-2.317861553200921
-2.2686862505149077
-2.2185287649715173
-2.1770316451543583
-2.1371414765138845
-2.107408225877702
-2.084170369351252
-2.0449124192727757
-1.9982832291348747
-1.949836479661317
-1.8884741349519
-1.8049699947762767
-1.7192050554946865
-1.6276976921773536
-1.5301035040168054
-1.4306315540803722
-1.3314044293328025
-1.2374916856710039
-1.1418079878263887
-1.0465426608946025
-0.9302402546595652
-0.8005495199319252
-0.6644920861002883
-0.5308121411420916
-0.41161500788637584
-0.31986726557963185
-0.26073604626328484
-0.21377823952394628
-0.1723304372414887
-0.12297513727903145
-0.06664166324793966
0.0028026631571329355
0.06896312457676665
0.12954133778436935
0.19399668576088466
0.2738303938276736
0.365286518004283
0.44328245477142547
0.5175318849046624
0.598714262914457
0.6839829803714916
0.7586942023764502
0.8362318323214317
0.9171144546497009
1.0072214796506167
1.0999930706145422
1.18149211936625
1.2389646924594704
1.2784814069720078
1.312608027573623
1.351049687469649
1.394065949555888
1.4315787521668213
1.4805523745521874
1.5377739875362113
1.601308296215444
1.6520209941008457
1.6932865757363929
1.7118220469609156
1.728627728387244
1.7616467362860109
1.7976956614417867
1.8183996903139406
1.8307748266690869
1.8684070529962065
1.9151026576382688
1.9672483261566251
2.0001787414740857
2.018441408827529
2.0081684349710516
1.986413499000799
1.9766986755361335
1.9864288467970412
2.018413992026486
2.0498861802342287
2.088640788270893
2.1150852308366175
2.140867850086373
2.1647966233438773
2.1957609802625435
2.2363198011041785
2.2889332247797043
2.348300604659279
2.395340865318732
2.4423888743140076
2.4907409644660428
2.5487219186818804
2.5940997367377103
2.6289861285749163
2.6535155263086168
2.6754485283506866
2.701250625885662
2.7340118535318316
2.762447448258307
2.783790688324382
2.82004331021492
2.853831739302488
2.8840624464350797
2.908225566215621
2.937308711281171
2.9723358472774137
3.015847313498624
3.0655845382597056
3.0992658272043037
3.1057906402815454
3.1052952635441025
3.111209397728996
3.1230747468076667
3.134014109529112
3.1406684274356698
3.1506687699482985
3.176682717192034
3.2242926443611855
3.275472621254358
3.3081596037695227
3.3094905091546534
3.298617698479831
3.2887737538893322
3.2964056491639027
3.30577583381573
3.3083271187051526
3.3051153174639474
3.303423092345559
3.312551452363464
3.325143376210996
3.332869710501062
3.3449437688878527
3.384106448073189
3.435418481882237
3.4749914783072233
3.5107420287183877
3.5438577681692762
3.5683019573736967
3.5876364699268244
3.598643295318821
3.614805574365778
3.6467564587141177
3.6989848930182645
3.746454285038361
3.7922103096321633
3.8600161542135862
3.9706121523371563
4.1022332590332296
4.225214993357955
4.322969706533993
4.413690998916069
4.496420016272758
4.556290572724403
4.600916846402448
4.632848516798938
4.658861075897998
4.682854455555355
4.729578434278128
4.784973436060584
4.86089873330519
4.942286930775507
5.034895696541627
5.135770450885069
5.249705351162429
5.343719777725848
5.4076692144208
5.458846791231356
5.510247722686193
5.577260417789038
5.633100731171084
5.697092483471295
5.778547144946377
5.878363970690194
5.965531982838819
6.0537228321930705
6.1463874454411
6.234664894854661
6.315504110922624
6.411523668837566
6.52064600288058
6.630415537993388
6.730607912430358
6.833540689297277
6.946898913861411
7.054922822754733
7.135601495350307
7.193334541695968
7.235871944108768
7.265931799911023
7.308652087670252
7.340811825130223
7.375190613499274
7.427281024548534
7.501699232067437
7.5555986938718736
7.592131588284349
7.6187239405605105
7.656221103537219
7.69683567260456
7.723706405714978
7.739999899355258
7.746259438822226
7.735137124618319
7.715377687365396
7.7170872480698645
7.718518468503247
7.704949680812537
7.683903698523949
7.687524815757522
7.696096026081036
7.686282443399949
7.650362945538247
7.620945082824125
7.6015363348460365
7.581340681357072
7.557572064032096
7.532365530460759
7.507949976796715
7.482007360452457
7.445786397106372
7.384130456154853
7.301259446415452
7.20666700619126
7.106906301738336
6.991798496996883
6.863008199968766
6.738169974693301
6.612562969530054
6.467067441345176
6.3254090897816075
6.203421360688203
6.091823806351394
5.974497967991259
5.8473543954555565
5.704454739624765
5.5618643238782175
5.423711709659661
5.286704161429249
5.162684749148888
5.051039837124106
4.962221950495491
4.907419190538126
4.8747110724340175
4.840778261921755
4.799743514220276
4.7382923535490935
4.659459150392395
4.588469511774585
4.527378782029568
4.463290600188983
4.396857632700733
4.337451159634772
4.289276749077539
4.233848991019874
4.173489428039806
4.125715402484927
4.077803957058758
4.010916788606221
3.9211985565889442
3.838809477540325
3.7692078862383664
3.693742043089576
3.603461536860947
3.5173814903859557
3.435991861949217
3.337744659134635
3.21093279599168
3.074113396461687
2.95193143437892
2.8438823585975217
2.7385999219140844
2.6243549236348196
2.5142287357364075
2.4069990228517226
2.3039910426463734
2.2040471663022405
2.111060065527895
2.0104985010715573
1.9071678666561798
1.812349638574434
1.736369860042423
1.6625794636227038
1.5897430463408175
1.5258188365028498
1.4634266684048856
1.40466113016523
1.3446635331177883
1.3005713477296013
1.2631604271626173
1.226224677086872
1.1853499149027094
1.1546171765706135
1.1294439275395993
1.1038685283871763
1.070752336153132
1.0467523498126892
1.0373317409229157
1.0191005381855414
0.9793760828369088
0.9303347825942184
0.8908776951248564
0.8537363648527608
0.8084092664205801
0.7555261948938341
0.708503417039822
0.6659441635723435
0.6297308558834894
0.5901393979202105
0.5556709327661354
0.5281404794201389
0.5132303110170893
0.5049457195507921
0.5023000334920271
0.49655619074703305
0.47868285886268236
0.46796678788420587
0.46475279549575566
0.4574952560415519
0.43504525709756814
0.40381669527824077
0.3747609886028209
0.35626001651453143
0.3511201631773386
0.3524428282605919
0.35260523309066916
0.3531204496847776
0.3442303286557579
0.34014423916390973
0.3317331063267572
0.31608056748539154
0.30083641250033233
0.2823455616816757
0.27903139482096906
0.29165953148757007
0.29969781875888624
0.2918393545196265
0.2882994338418574
0.28919424392105064
0.2909068643984023
0.29267246753463183
0.2922776450658905
0.28044647728886163
0.2553014937245469
0.22137633693447603
0.17591261436567948
0.12057801275457816
0.055492946642165614
-0.008500388698061967
-0.05681321261783798
-0.09098966459115429
-0.12801612638330967
-0.16208671276118422
-0.18551745499143715
-0.21146434307333592
-0.2436385051402801
-0.2659471336962529
-0.2821042167390377
-0.30679107040426323
-0.33157488489026765
-0.3385117650101801
-0.33676913818707055
-0.3496150394153332
-0.35903269548932387
-0.3443905259502447
-0.3197847939387252
-0.30266884712765313
-0.2780004730834411
-0.2380735914461845
-0.1970129906648828
-0.1578089401620634
-0.09386450087092037
0.0032328974489728053
0.10854787467678696
0.20848768972542395
0.2766290253119211
0.32009808348941554
0.3637110150962077
0.40691057200024744
0.4492721028495912
0.49077745870314154
0.5349852219594665
0.5904852032368545
0.6715686471865411
0.7742192874632056
0.8602183819125818
0.8955875413318525
0.9041124113543324
0.9399862570952209
1.0008937175851405
1.052237546625968
1.0841971133873771
1.1034696396870363
1.1270197669213815
1.1672603351087887
1.2114530121793592
1.2514026087026142
1.2882123375049046
1.3241661739308581
1.3732420716528788
1.4275908619349038
1.4791301321241335
1.5329218417197668
1.5826022966534072
1.616989768937146
1.6328182084498548
1.6466938338113772
1.6823444378415635
1.7255226601806606
1.7600389494248938
1.8109413520519415
1.8846115966575503
1.942035019521413
1.987243334888332
2.0454148892553854
2.1219281636790477
2.2031242104471986
2.2651895040931547
2.313184789090314
2.352847180812609
2.382934515987306
2.3884908387529387
2.3873504962389673
2.385125181694101
2.386295203241376
2.3982709857220375
2.413238195488089
2.4332711573694095
2.459431539557642
2.494713753933714
2.5297674896261557
2.549480082397318
2.5518763631064485
2.5649646486559745
2.600967000051512
2.6427349302009535
2.6568736594232103
2.6476583616476
2.641353423711167
2.6622026087130046
2.6838579988794953
2.68849513580368
2.688057056302816
2.68996486439229
2.7029750359209013
2.7119640341340334
2.715643646177003
2.7106613098269383
2.6987432103892424
2.6861233603996157
2.678383466186506
2.6646329598007004
2.632448617977282
2.5829865904455827
2.532257581658939
2.4941200462015036
2.4532177604815306
2.3913479943650926
2.3379222194519604
2.311314339505775
2.3094484765836807
2.3068302364674076
2.309330831957096
2.318920014913358
2.31281940770665
2.284910200376179
2.257987062663792
2.2649228665190515
2.2763836094994683
2.2791289496796137
2.2702166234786945
2.2722213837721545
2.282387534184467
2.30469932836834
2.3231471227157545
2.3316900070125843
2.340991809418786
2.358163723500317
2.3743686053674775
2.3780179867993825
2.3835489668035796
2.372262801384189
2.3525264069715814
2.3335859664351037
2.3218547313756575
2.307904692434613
2.305285862172518
2.318907633198224
2.327785504395096
2.3182407488274404
