AAD_Filtered_TADAS_FILE
AAD_BASELINE_CORRECTION: BASELINE REMOVED
AAD_FILTER_TYPE: BUTTERWORTH
AAD_FILTER_ORDER: 1
AAD_LOW_CUT_FREQUENCY_HZ: 0.025
AAD_HIGH_CUT_FREQUENCY_HZ: 40.0
EVENT_NAME: 202302060117
EVENT_ID: 13194
EVENT_DATE_YYYYMMDD: 2023/02/06
EVENT_TIME_HHMMSS: 01:17:32.00000
EVENT_LATITUDE_DEGREE: 37.288
EVENT_LONGITUDE_DEGREE: 37.043
EVENT_DEPTH_KM: 8.6
HYPOCENTER_REFERENCE: AFAD
MAGNITUDE_W: 7.7
MAGNITUDE_W_REFERENCE: AFAD
MAGNITUDE_L: 
MAGNITUDE_L_REFERENCE: 
FOCAL_MECHANISM: 
NETWORK: TK
STATION_CODE: 3138
STATION_NAME: 
STATION_LATITUDE_DEGREE: 36.80262
STATION_LONGITUDE_DEGREE: 36.51119
STATION_ELEVATION_M: 459.0
LOCATION: Kahramanmaras_Pazarck_Turkiye
SENSOR_DEPTH_M: 
VS30_M/S: 618
SITE_CLASSIFICATION_EC8: B
MORPHOLOGIC_CLASSIFICATION: 
EPICENTRAL_DISTANCE_KM: 71.70
EARTHQUAKE_BACKAZIMUTH_DEGREE: 
DATE_TIME_FIRST_SAMPLE_YYYYMMDD_HHMMSS: 2023/02/06 01:17:19.4420340
DATE_TIME_FIRST_SAMPLE_PRECISION: millisecond
SAMPLING_INTERVAL_S: 0.01
NDATA: 10501
DURATION_S: 
STREAM: HNZ
UNITS: cm/s^2
INSTRUMENT: sensor = GMS+/GEOSIG | digitizer = 
INSTRUMENT_ANALOG/DIGITAL: 
INSTRUMENTAL_FREQUENCY_HZ: 
INSTRUMENTAL_DAMPING: 
FULL_SCALE_G: 
N_BIT_DIGITAL_CONVERTER: 
PGA_CM/S^2: 1296.273
TIME_PGA_S: 
BASELINE_CORRECTION: BASELINE REMOVED
FILTER_TYPE: BUTTERWORTH
FILTER_ORDER: 
LOW_CUT_FREQUENCY_HZ: 
HIGH_CUT_FREQUENCY_HZ: 
LATE/NORMAL_TRIGGERED: 
DATABASE_VERSION: 
HEADER_FORMAT: DYNA 1.2
DATA_TYPE: Acceleration
PROCESSING: Automatic Paolucci et al., 2011
DATA_TIMESTAMP_YYYYMMDD_HHMMSS: 
DATA_LICENSE: U (unknown license)
DATA_CITATION: Turkish Accelerometric Archive v 1.0 - Disaster And Emergency Management Presidency, Earthquake Department
DATA_CREATOR: AFAD
ORIGINAL_DATA_MEDIATOR_CITATION: : AFAD - Disaster And Emergency Management Presidency
ORIGINAL_DATA_MEDIATOR: AFAD PROCESS SERVICE
ORIGINAL_DATA_CREATOR_CITATION: AFAD PROCESS SERVICE
ORIGINAL_DATA_CREATOR: network: TK
USER1: GuestUser
USER2: 
USER3: 
USER4: 
[...]
3.4298858955110436
-4.432673656375016
-2.9262724050930924
-6.2370801340891715
-13.011263608278979
-12.503744055666322
-10.875155077000764
-11.19344529022094
-7.85425063591825
-3.911610483541981
-6.323504814528617
-4.279063475077957
7.84056078132162
20.508188708299855
26.889143798630357
22.70911789111311
17.511005032125077
11.811155990508334
2.4463830060855716
0.8673436364220375
-1.2658565630314418
-4.113219492712727
2.051241264749582
9.547820951050324
12.296487681594105
4.168950422787852
-7.577335962276656
-11.529665660920523
-9.137223541244675
-3.5325116022346372
-0.13520874493399881
1.9814845075058538
5.187797419808022
6.422648760559616
7.930608230848769
11.69611302545958
14.30053346063525
18.681889990445754
22.78287834120434
15.571001874677972
0.041715255160025166
-6.076790676626103
1.9883992227003244
6.080527536414774
1.2194855232988486
-3.240437039096215
-6.860216580565318
-11.678283411008607
-12.811530988313185
-9.725719429074953
-12.45811670472475
-13.91696633862567
-11.9004767688724
-11.767589561425105
-4.61060649356969
2.0457266291202023
11.660455748260077
27.369999615068355
27.40795011927172
21.216980309604374
13.71651569100144
-6.751995403295911
-20.77182954102489
-22.940660683810485
-23.986064297159974
-21.043440089977064
-16.601186361409734
-15.5916956699484
-15.256353849167402
-8.97093382243303
0.8465814619626408
6.140140956236097
10.008396743540327
18.29311750058905
24.97962134764468
23.026030675247227
16.848572142402155
9.236776528381213
4.034745516563133
6.3784614677845255
2.4017397184119624
-8.147138530726718
-7.585883221820503
-6.990625589183566
-12.853856381380059
-13.150085110728496
-9.560189505026232
-5.826207751244171
-7.024124407110027
-10.53898226732516
-6.135923690313225
-0.5715063651629528
-4.16498823184002
-9.295727759088914
-3.888133928250075
0.7596230130836118
-0.4287525286158823
3.836851461244056
4.5738534243218565
-0.1985626454430477
-3.8952792972608483
-3.9666532544817663
6.3630697236499
10.872088097932389
0.17319186329089026
-6.894321644800366
-8.028253072606613
-10.151954375260274
-6.325202087510048
-6.849048567794394
-20.99916370103882
-22.884291211610744
-14.560479732721097
-14.079418625253297
-1.154042627504051
24.22243209300666
34.6110691286951
32.71858696052075
30.792166757451994
23.081634531006284
19.86556689963357
20.58990200722202
7.657621189308152
1.0057052379351359
3.130323962950797
-0.1708144735337211
3.9065875747678307
5.198214949317002
-0.7984033799646895
0.21429537060360965
1.8975800935009661
6.277744119963209
8.6623974334773
-2.4416082482801036
-10.906506831466341
-11.872443593292065
-4.326077922888102
13.737387591354581
16.406066694136136
12.54423184787916
18.86380438732715
6.7397165388990175
-8.531266879730106
0.45570209223384156
5.884350743520961
1.121990870675945
4.451686094981968
8.039680006967018
7.442351235939313
16.777143495758843
26.365057528330283
21.524547116827534
16.435130199145533
11.497874083016365
1.2178322401679156
-3.3016838141848974
-5.700876192344736
-9.348397357355278
-10.653110539367951
-13.914982018480496
-16.215373709850965
-13.53581767297761
-9.382550590069041
-1.4603159704681783
10.78561692012288
12.851560177343233
6.079781410645703
3.16334847263691
-7.065178774929212
-21.277875909336643
-20.195203863838007
-10.80907203066379
-1.5282880073453728
15.73823757292291
34.113484089945544
32.020431093070655
22.472756894367723
29.687592494009326
37.67571533754075
36.501411972162245
36.680962858436466
33.579584533104274
17.20029320499845
-13.177327417578123
-39.7310310380331
-50.02421566889553
-56.61456055814221
-58.20421489689853
-51.7183727203056
-51.064314472517594
-49.24579093110673
-34.916111225562794
-22.187273814820443
-10.392474698502015
15.308116139765525
35.33688074581827
35.96117235740229
24.83223746446359
2.6236669498311915
-15.489246334194235
-33.76045791668232
-61.5021968424776
-69.73750692349176
-56.95198547832258
-45.60461511759095
-32.46809340651344
-20.44576222321778
-22.767148033195483
-26.910271359174985
-21.6829490605353
-17.72521539476275
-10.734556803274023
-3.982808719785231
-7.138027460686801
-2.4591701092426526
7.952253765380806
18.943748206554908
39.04551985827243
44.29576773448717
29.07293835305046
23.4318579810039
24.89662353830167
21.002867809050638
26.667358906782724
35.34936870996176
34.98040847031628
44.40205124603241
52.97159644575484
36.77125341993712
19.261225619540703
15.604374520611536
7.038215912906134
-10.794590416574223
-27.855660370044937
-36.41543807755033
-37.49032186615121
-30.515145898086285
-12.53134184756393
2.9137811501028796
6.710615746186492
9.095249919856359
16.93675106909796
17.59296995371369
12.54514145489368
12.109335699809531
9.356613028227072
17.256804438950837
29.526035074746428
16.5488845376419
2.3186182959969406
9.735126484201112
10.046533676104419
-8.54915296395143
-21.66647412687218
-23.444482335863345
-24.00416526062132
-22.887884564268006
-26.20391417082925
-26.258825391096664
-8.665577631255676
16.980871756909185
44.5978687033513
57.682092581938505
54.886914815831574
55.1890396505587
45.33851146290228
23.20341635667496
-3.217630100207457
-23.336527132497338
-29.21811680104044
-33.11016741433833
-22.854682547240373
-4.160118659076064
8.685939751727656
20.506679940150914
20.244353554510194
32.89785408633103
65.48373212806551
75.8505256329535
63.0035371746942
44.71825683672299
28.04335457275364
12.210202600313185
5.690772162299927
23.27144197065908
33.151875807740396
8.676133408922215
-11.959202230095483
-2.2156294599140827
7.689888983679525
1.9286366177868082
7.4961020188875755
36.289991203181856
54.5905819022507
47.81571167659075
47.902236250000236
60.75422435581664
68.05157166490747
48.85099513922705
-12.019208126683194
-82.7636759362856
-122.18997185501168
-118.97783130763479
-104.24733846573741
-102.0159853264251
-72.09812561920323
-21.37720219180765
29.68315010944544
96.9191578176071
146.9918196654428
154.32596822797427
109.79198417626728
45.40889279544353
-6.735532719775127
-57.500758183990456
-78.60039689226367
-94.67626414498406
-127.56537064923508
-139.54910857754413
-128.11622782854198
-104.83139480843718
-85.92544549116722
-69.00991412636132
-56.86277078716877
-54.17337201940598
-52.37146651709377
-63.74976741367676
-74.78614891520027
-76.3283037929799
-76.55378376514923
-65.28703081528526
-43.36920498797342
-39.80582611347256
-82.60691824528294
-93.67444299762623
-1.3994708545996875
71.84370201132992
39.37654712661539
-1.4816191381374024
23.181488135032232
52.18870132060828
4.7884811080432925
-32.898820448895286
29.301510425868166
95.45116368954483
89.36920842191844
22.644933872824296
-6.549891104604046
56.13803524001794
85.86085000545496
75.47531712136558
64.30298870243996
2.216093914769424
-35.79087553027628
-29.133785680045964
-71.52275053955552
-111.54172571109581
-46.63121184895426
46.840058321179725
72.14419284855838
53.168953182344715
17.354879622956545
26.89526296784476
56.10609405717913
26.103144231197046
-23.344817265308716
-75.17837991520295
-87.70259966993143
-71.57577552922405
-76.79292529087164
-62.09172731197926
-56.64740366016449
-43.74369058156197
-1.073476584585328
3.204448016876693
-14.324554453891569
-42.36259480796677
-68.47836968425301
-41.406533087984755
1.9046303352091902
15.018707459322961
13.518024946863276
11.55902640647692
35.07981378792784
73.08668859091922
31.444633607441883
-37.19963882934307
-36.657997372559485
-35.61718492187649
-24.362915746025518
-4.6520152629787646
-38.07039869020602
-69.01293761863518
-69.93016590619918
-61.660165349615745
-67.31699458383002
-71.86705365264243
-34.797938866443594
-22.01521342492974
-46.39538197388326
-33.02795655892486
-7.033182245815795
-9.304333661245506
-25.521145180101055
-23.65038545438434
4.9504111114855505
18.420902900760474
-1.7012520373037092
-44.12017236075329
-52.87280206507536
-16.428766276320896
-17.06675211554232
-39.4627305253111
-51.66589937112932
-67.3199078830019
-66.75310706629583
-54.00660793019026
-35.77488898253675
2.0587065635567905
56.57317528932572
48.76539103969551
-45.464086628994174
-81.5458041000107
-17.156413968720084
40.785247670351
96.76536238239987
159.76540417627692
147.65409284821285
82.33425148511468
43.74512720173689
53.51305424493182
89.17121834113173
103.01521147495814
67.26046661438932
28.350000332483283
41.463955607741035
58.303836187374955
47.10602494303533
43.490214952158645
65.35005510505195
79.73069023359997
64.24124786816442
82.23593662072355
95.56234492301158
46.11970548533632
3.932592998022975
-31.291184734745883
-59.764190418025905
-65.02418057922736
-79.5182464377477
-81.84970252063755
-56.92352712389905
17.361726849896055
111.88055090960965
87.39306816965654
-48.568755822627956
-129.80688719911976
-103.96166119143133
-73.44886937698686
-57.578570393706705
-26.401321132430446
-26.597018814410923
-27.944237274501013
-20.61135252404221
-40.2597309290874
-43.00503698072532
-2.369945263071609
28.001159739685118
14.28110930899236
17.833265265239483
22.05102546807691
-9.640275487991609
-27.13235589801488
-30.313877254489526
-23.149202819719665
-35.59613919492893
-71.07533586902044
-43.22549489184075
-6.936264065106853
-58.43849782848437
-100.08533397193469
-55.770185169081536
-8.014256951021716
-7.9929261999778145
-12.301757862520008
3.1650595562509194
-2.440427882240157
-27.45957767211528
-33.17570427441972
-52.29330801925575
-73.42512484568168
-41.372348328824685
15.049787782611393
47.58989091614813
49.15129108373258
42.0953737654175
54.0968647487404
128.04810453190314
173.6042195499548
107.69596713779141
126.83459058138754
223.48782625309138
245.48903036457187
250.9299585037747
200.364983564947
122.73625006577304
104.60591007399037
71.9971477292104
52.44064007633847
93.93155531662994
116.98878426639843
73.11169884398767
50.95391605665944
96.11261959131855
102.13314927749929
101.89687868355568
169.41208599889666
200.18511869397574
162.76774362742196
136.14395496193245
128.7456656771953
124.23895944353048
153.01893262337396
164.1015563547602
94.06629660797627
31.07640213226486
35.46613443382646
50.60547099531316
51.86516927060686
65.39439968339904
73.6579869007601
57.37324679109306
58.97591056123874
102.00307909076255
145.74574908488984
158.29694906019697
109.27404742610155
-3.6000857763248764
-44.11329981640587
66.92442294563165
196.0964098643543
187.71127126112054
98.52982228038294
98.92789886032561
127.62658882384859
61.611681455075086
-2.500713101529442
25.089958702209774
91.28672977694792
126.1281588376702
156.27585439490596
226.79346680798778
217.62586613761002
86.55886245965561
28.76535613831591
131.47474761570135
251.74382088797407
221.41454915229994
151.08789135519515
217.39110802634093
306.4577137388307
339.8493918510956
290.2711359622278
195.12045541118192
261.7280723222867
377.0578861212214
369.0637293861487
371.38289562713345
412.88926658960867
403.0107640650788
313.0235348949302
236.49425209350372
224.7892795864232
261.3790879588918
370.5078854109253
395.9189504827218
281.375398087664
142.52776847337364
-2.937677214977286
-79.5207452593926
-85.51335644501256
-90.54857578773577
-83.65312267778441
-94.54045724467504
-117.64121718460827
-110.26695014584989
-94.89017529383014
-98.18049740181256
-111.51852502078819
-97.91424609278327
-47.497692016661155
-1.8152917934135977
8.626800501530193
-8.125717669373854
-31.803821703970353
-51.06959981476559
-66.60514571083468
-82.69374771679627
-86.54406337671654
-102.08877088574256
-174.87714866022668
-258.41039606519814
-293.7101724107537
-303.1214896602292
-322.7102560646939
-362.1866081144567
-413.9693132368837
-461.84178820866543
-492.8089491599394
-505.75346805445224
-507.12041640645475
-504.73586929342787
-504.090168682005
-503.64740540386003
-501.89984268382943
-500.9865046892872
-503.9747887402104
-512.0349263679867
-522.0500626070132
-531.4712752385927
-537.7623384759895
-536.1960293671906
-522.2355323472733
-489.61308540266884
-426.4231749051471
-314.43149090428517
-132.2506628506811
100.24630218880374
319.8915272507
498.1128000747129
594.7095188375861
579.3297550790128
532.8759553753124
515.805054283577
500.9936700539819
441.1999373559496
317.88794708398706
162.23800200066023
12.44828289632184
-92.78605318192196
-148.40673674529512
-171.97531641569265
-184.74165695225793
-204.61966680981962
-235.94528539924258
-276.3576663912446
-301.64388797345583
-325.59386222887184
-332.1948810572353
-349.1516951773625
-341.83965277754356
-311.96686301520083
-321.92591502172434
-291.40572251827933
-332.6655434217679
-288.0219561766838
-330.0691082242923
-316.1241653044198
87.27670784331939
-109.65008054213416
-167.97482291631874
121.39663907365598
-112.60929759110023
81.24126288546148
106.82655354774182
-4.291069082668476
38.310554324721345
31.357302625873785
1025.6575710400068
1369.701837959714
667.3076108232116
394.93244531430287
93.77363267797465
-19.36931606535502
-14.939882960533488
-105.9564184274423
-90.347208624937
-164.38996445762322
-166.48434365417796
-266.8592326669706
-283.1723964783601
-156.50450814638296
-133.58029744895876
134.68630622222102
163.4291264018711
-29.02096518796203
235.7607427339169
261.73797337476003
-104.68123068607284
-17.982328832823587
129.71121547884886
112.51875055474234
226.24917528380078
149.78810704016993
157.78181975167456
47.77504921631452
88.09071289418993
390.60690374826845
135.31032745947073
208.87452448568985
321.4793112353269
162.4837945239233
264.71907171940524
202.55645559470523
282.16507061301303
210.10659154662875
190.42054900826656
355.017694861839
116.21862195777167
126.56207702057199
154.85700615201648
-40.727413009568274
53.477971644633065
147.33805686968486
130.98208679149573
188.17351761422856
219.60313519143008
178.89332059646486
132.91951503141962
146.3030516968347
138.02693722163812
71.68134434035007
147.74390713788426
167.62987798244063
69.73584593638628
93.61954501850926
48.57467413433541
18.828541456382364
76.59897458439632
69.4655003364574
83.4170334298395
64.22863749574623
20.642802198996986
34.41240729865965
42.17522049900672
46.04370535007401
51.406916874697664
42.26951976557509
29.752440849427394
15.673209885965717
27.291752744949076
43.417862230747374
43.631685575477356
52.92703920295718
34.47686379644746
18.830908668077214
45.62912932446776
-7.759404867755233
-82.63479298534487
-79.75318447104212
-30.364983456293494
102.73035074406012
120.99545022079182
44.06957483855982
50.70630883005707
59.10215828043059
95.86636626105305
117.4565932389321
141.9691797378234
197.89728336115056
192.14365143706837
153.98315959226247
103.49654310025632
28.210361597260892
-75.98412608749354
-195.17052402422814
-289.129862627838
-302.58603276119027
-231.51132330344407
-121.25643595112828
-17.42850114400141
58.80825422796737
97.94300823541185
105.51534029880771
108.46571729438834
103.82094284615152
126.94029891670186
139.35676597756273
117.25668940568744
75.29156202896556
-1.6615901931200008
-9.176624520118953
17.077788092071273
47.37391640018934
125.6713989788323
56.794343172580604
-18.80704982981439
54.29094004882503
-16.250883278482586
-55.16126360553071
-6.483890341857284
-71.11212772888554
-40.89981994709811
-2.354274993847247
-21.46578540734908
32.22097999180355
7.814066252764009
-98.69661592628805
-75.84870557069684
-24.620184355738214
-54.88793006412979
-11.370441999657885
2.9967642259534597
-36.330568614156306
-20.542519811239362
-58.22379516988913
-97.1217887245849
-94.30244947578858
-109.50202697968297
-88.96039789131395
-64.52253089268532
-81.44120272603134
-79.76252921149859
-67.19254752176333
-59.78657805177431
-47.373048172323045
-78.27910930920592
-120.49722180912703
-122.09621947437304
-114.73807862915628
-107.71610612005641
-115.01743755046765
-162.4999635364253
-236.21300789919675
-315.48463907649796
-352.9641978826788
-276.65925987148756
-137.62519186619033
-60.31770748430236
-52.957463544102346
-59.89540795549457
-49.784485600330655
-34.98927348625562
-70.9109290175131
-145.38722954477538
-186.03987895270646
-183.70258243190963
-149.34682235062073
-101.83219749757488
-72.50654525437963
-66.87260960602391
-93.2210460617442
-108.47820052150065
-79.57543104501526
-48.781894998755725
-24.911687246616815
-4.915242098674505
4.24997623574305
17.97614633221524
20.47590131700031
7.834456369711642
24.40981163393245
68.72052207508013
112.02521721869921
140.18654989207468
135.32034661829567
107.57598830123659
91.39108649717194
109.00784546276631
136.30255432249265
129.47568328430566
83.13153795730268
30.071200342408858
11.22132307184492
22.30436510373673
40.75374241281249
41.81860668914373
-5.754466094527814
-68.23615495643355
-98.57666859994778
-96.03178123621134
-69.64532989233523
-51.285053491054306
-70.6184321303746
-94.97842557857913
-93.09081925083167
-66.27911924558109
-30.141181580809423
-11.785265904440449
-0.5229504693020458
10.162292000532348
25.080606038726142
25.81439491018602
-5.49180471482097
-23.751782002233515
-36.51320106320459
-49.24656126197817
-38.697547840021016
-20.879471625015526
-39.037348114065
-84.41995166664745
-92.88079460267664
-82.09395713622482
-64.11115580035641
-47.43645721921761
-62.288948154614694
-64.61052088988514
-41.35500197518858
-18.3209081998212
-10.920433679446532
-27.957996850199486
-47.31688951023789
-54.76411716823036
-57.72069947261091
-70.86557845092624
-74.36241414681255
-32.548096836737926
25.91358703613799
59.8216295432945
49.77804859744345
18.938791272296477
17.330634538968802
40.77565296665043
76.25564797597926
111.65800490826729
134.89658715465845
139.60625593745405
102.702664444477
42.03632603736718
12.82938854321477
38.344733238652566
75.50232297068285
79.53024915964642
52.346814466948956
17.88773985928892
-5.401621476864069
-19.20863994083499
-7.846437950214734
19.455714850637573
29.659343430812555
15.626386211656081
-8.525160752016228
-9.200724485038938
2.01081388798166
-1.6968734226825826
-26.8102720071401
-62.3270183246195
-59.90122509530054
-25.23082684721128
-9.97213119086106
-27.34963121497339
-54.848243485900355
-53.82123613889298
-30.141026774366892
-31.207460032837886
-48.12103337432508
-39.73632380488728
-19.26138002560309
-18.611726242539767
-41.09814620083795
-75.09116721103777
-77.8337994698763
-10.655231904625621
53.07883159821978
55.596626857536755
59.07325384683729
