AAD_Filtered_TADAS_FILE
AAD_BASELINE_CORRECTION: BASELINE REMOVED
AAD_FILTER_TYPE: BUTTERWORTH
AAD_FILTER_ORDER: 1
AAD_LOW_CUT_FREQUENCY_HZ: 0.025
AAD_HIGH_CUT_FREQUENCY_HZ: 40.0
EVENT_NAME: 202302060117
EVENT_ID: 13194
EVENT_DATE_YYYYMMDD: 2023/02/06
EVENT_TIME_HHMMSS: 01:17:32.00000
EVENT_LATITUDE_DEGREE: 37.288
EVENT_LONGITUDE_DEGREE: 37.043
EVENT_DEPTH_KM: 8.6
HYPOCENTER_REFERENCE: AFAD
MAGNITUDE_W: 7.7
MAGNITUDE_W_REFERENCE: AFAD
MAGNITUDE_L: 
MAGNITUDE_L_REFERENCE: 
FOCAL_MECHANISM: 
NETWORK: TK
STATION_CODE: 0125
STATION_NAME: 
STATION_LATITUDE_DEGREE: 37.01519
STATION_LONGITUDE_DEGREE: 35.79577
STATION_ELEVATION_M: 25.0
LOCATION: Kahramanmaras_Pazarck_Turkiye
SENSOR_DEPTH_M: 
VS30_M/S: 208
SITE_CLASSIFICATION_EC8: C
MORPHOLOGIC_CLASSIFICATION: 
EPICENTRAL_DISTANCE_KM: 114.62
EARTHQUAKE_BACKAZIMUTH_DEGREE: 
DATE_TIME_FIRST_SAMPLE_YYYYMMDD_HHMMSS: 2023/02/06 01:17:31.8047210
DATE_TIME_FIRST_SAMPLE_PRECISION: millisecond
SAMPLING_INTERVAL_S: 0.01
NDATA: 12501
DURATION_S: 
STREAM: HNN
UNITS: cm/s^2
INSTRUMENT: sensor = CMG-5T/GURALP | digitizer = 
INSTRUMENT_ANALOG/DIGITAL: 
INSTRUMENTAL_FREQUENCY_HZ: 
INSTRUMENTAL_DAMPING: 
FULL_SCALE_G: 
N_BIT_DIGITAL_CONVERTER: 
PGA_CM/S^2: 128.551
TIME_PGA_S: 
BASELINE_CORRECTION: BASELINE REMOVED
FILTER_TYPE: BUTTERWORTH
FILTER_ORDER: 
LOW_CUT_FREQUENCY_HZ: 
HIGH_CUT_FREQUENCY_HZ: 
LATE/NORMAL_TRIGGERED: 
DATABASE_VERSION: 
HEADER_FORMAT: DYNA 1.2
DATA_TYPE: Acceleration
PROCESSING: Automatic Paolucci et al., 2011
DATA_TIMESTAMP_YYYYMMDD_HHMMSS: 
DATA_LICENSE: U (unknown license)
DATA_CITATION: Turkish Accelerometric Archive v 1.0 - Disaster And Emergency Management Presidency, Earthquake Department
DATA_CREATOR: AFAD
ORIGINAL_DATA_MEDIATOR_CITATION: : AFAD - Disaster And Emergency Management Presidency
ORIGINAL_DATA_MEDIATOR: AFAD PROCESS SERVICE
ORIGINAL_DATA_CREATOR_CITATION: AFAD PROCESS SERVICE
ORIGINAL_DATA_CREATOR: network: TK
USER1: GuestUser
USER2: 
USER3: 
USER4: 
[...]
24.796688381274933
22.78279613505781
20.481971039006957
17.755242035513472
14.433520492086075
10.65805388910465
6.785298952634465
3.3043506852753675
0.23863830584936668
-2.517358876517879
-4.739830575581782
-6.316489685605182
-7.316737702305328
-7.940238493427257
-8.1366093215465
-7.451661395819197
-5.791525184286399
-3.656196352593658
-1.655333563925897
-0.2686261035971785
0.11269316958775225
-0.6333777895550876
-2.1731130441393915
-3.965673540497916
-5.549545586205035
-6.755925257112413
-7.538001021607084
-7.938294916477095
-8.14191482385947
-8.196639200000865
-7.802571802845793
-6.783243164818052
-5.33015718012914
-3.6568931000194875
-2.0160359406234267
-0.8295281816623153
-0.4343426960780107
-0.8508615297194159
-1.8367959799555
-2.8812096711677215
-3.4640440969555986
-3.343713185739265
-2.6988275102594743
-1.8526528816560428
-0.8143121110788367
0.496966256523376
1.679022411609147
2.2536170387615035
2.2002094956762632
1.8141049932761457
1.4102265387811113
1.1752623599508822
1.3254866682610482
2.0015425638830697
2.8480093302486766
3.0783181601825174
2.1301289873600453
-0.0787616661126742
-3.340095673081706
-7.453811585986037
-12.091219099755733
-16.836167459031017
-21.2799155193068
-25.13322220060942
-28.0663878953066
-29.77417894069592
-30.247189414207398
-29.633617759119307
-28.31421206447441
-26.809519390840574
-25.61562597207504
-24.89356444088007
-24.71397822247047
-25.204078960033897
-26.116172489690456
-26.89814443145669
-27.243986567195154
-27.079392786891066
-26.38065420996868
-25.204173735823154
-23.18637652447973
-19.546997832816647
-14.247497057143999
-8.19694493612906
-2.2087993691962176
3.665494771521397
9.311400720720302
14.26141147862218
18.38730332320638
21.813914931891755
24.534944174193498
26.688817523227637
28.74905515011107
30.676355430659754
32.15786625883343
33.00311786288456
33.230541043992574
32.838689264990705
31.826894454667258
30.283604771313787
28.30080351574659
26.073524018972495
23.711146102681827
21.360844379619916
19.029836590795938
16.661274354834955
14.302346096724516
12.058032183149347
9.977828330145595
7.992377086381052
6.001021999332243
3.707451280046004
0.9019116532242913
-2.3103478439397556
-5.688702858850548
-8.843429637015658
-11.39525498983343
-12.950918526384196
-13.159906589015469
-11.718529816991175
-8.902171586057545
-5.694848793016722
-2.947881253742285
-0.8150548741381085
0.8395352641985782
2.107306560422073
2.736859778759735
2.4518822061558496
2.1535057655397507
2.7017549541092625
4.142399473369153
5.497738889742957
5.881342194511259
5.17979217625991
3.5093413369396393
1.4912011521758706
-0.9044268846135196
-3.837644722543183
-6.842826010193278
-9.381146103723413
-11.294527704556955
-12.727068017508028
-13.855775675211088
-14.948919357726643
-16.15664133535507
-17.495419552158186
-19.093701026664764
-20.920253807868907
-22.93872414892975
-24.95365854491255
-26.70569820292584
-27.91044013808193
-28.007296832102227
-26.449176473933445
-23.084067100924585
-18.58279419297526
-13.576692997949742
-8.423936642683312
-3.4606469154402983
0.8278231385647847
4.226063012190755
7.21525796405661
10.356557655039598
13.853436000232003
17.61449991474722
21.130823564535103
23.953605905280167
25.948694536519035
26.705450776476543
25.897372829313344
23.752125772072816
20.907415852950955
17.79929229754553
14.497902229289744
11.521850570637955
9.504856264098814
8.081930020064666
6.590271625871422
4.991107684278547
3.4652425648204255
1.7731283823474513
-0.5697342430915626
-3.800068568127556
-7.992838757887982
-12.776882160693061
-17.538735957475584
-21.777164427699578
-24.88718017595831
-26.311530963921374
-26.009708091295245
-24.37569435962235
-21.492074171620402
-17.197273745422507
-11.819728211318239
-6.019009408738461
-0.16290962167133075
5.455132021692438
10.857100318923635
16.06870644906489
21.356388448703058
26.78742876753118
31.87995700427392
36.39589096852847
39.63148983996198
40.946052247119084
40.52036804290731
39.521931294627606
39.22160226098954
40.09703364186648
42.08730034173443
45.18986965078992
49.358398035340386
53.77793233610146
57.74462126897768
60.942072553171435
63.10723109141406
63.68607681623611
62.10513931158921
58.90026312445593
54.55191666028825
49.326581227399465
43.82270233350146
38.52808585461787
34.004793615270074
30.24686425501888
26.67680671285898
22.765976910207712
18.147149457359696
12.896742657649774
7.554186213977856
2.5911442291503928
-2.146742090767791
-6.972103377554832
-11.510106668238128
-15.24386080609369
-18.023842944090916
-19.584427849046854
-20.501808209139973
-21.263524414574146
-21.9781418355296
-22.825589624339624
-24.097704164174875
-26.587805971486667
-30.40845191747951
-35.084722820541465
-40.1067502157632
-44.77087860094726
-48.728078991812275
-51.66808305561351
-52.9454875635389
-52.782828806788125
-51.598082784861624
-50.22150159804268
-48.78562457793669
-47.1224307386132
-45.451452157588434
-43.73645707025011
-41.93159441291523
-39.71575387298452
-37.05766937586799
-34.23109479242076
-31.02948384942979
-26.983881140399614
-22.25578787922714
-17.294339622748634
-12.367347479381236
-7.702804364674791
-3.603459062325532
-0.6279461372484049
0.7522741412359779
0.5330269746217781
-0.960263224345779
-3.6820842261454723
-7.699100788529463
-12.389887739660589
-17.02034285607226
-21.423032869983007
-25.53214501391924
-28.807440883079
-30.692266924609857
-30.81842012793431
-29.35409722461229
-26.560978534536815
-22.64612174898584
-17.697398527702532
-12.218973633469762
-7.288567233742355
-3.4141973317419265
-0.43840801217312814
1.6819607583758205
3.0815987158752414
4.177174527648002
5.289317502653054
6.687412960194012
8.626297731482374
11.030144198241024
13.732259659926273
16.34378178840016
18.43322782620953
19.851967190181874
20.971076573678534
22.31003130885529
23.391130502829327
23.78682159571199
23.072585651546753
21.151973248439333
18.37079394737276
15.100673739498854
11.463244289189035
7.675866653270873
4.347800134391784
1.8157620610129295
0.09379146178928283
-1.4506356287620739
-3.100118499181759
-4.629560950033119
-5.892603800901001
-6.8558904534863006
-7.247020966750003
-6.760236243106364
-5.570100464360478
-3.8846076182829936
-1.661384884714238
1.0379726702913523
3.7568543524855653
6.154930508699023
8.142045228336556
10.269776479051822
12.834327501511664
15.915707777396188
19.183128116612124
21.97674962083286
24.467389172578393
26.727575954441377
28.661379220074856
30.218314484606328
31.69754981433298
33.06392690450028
33.987600308318704
34.273570430761254
33.76905867741211
32.32363162121772
29.918132895464428
26.573435646996902
22.099974467071878
16.239261054230678
8.97932302077759
0.6806680477652379
-8.426876407538801
-17.860890560081508
-26.97105954082721
-35.13032738953361
-42.33481235066262
-48.84627525586203
-54.69503355352353
-59.99169397230242
-64.94697911843217
-69.64241413493671
-74.09699024563112
-78.3099975085564
-82.18136998505527
-85.64624979434346
-88.59665687639166
-90.95206336586493
-92.63707906384732
-93.73303641044448
-94.06522482347344
-93.3186309429944
-91.58085674909239
-89.12179405826969
-86.19625681939533
-82.86891017469306
-79.18991345013538
-75.27938991411015
-71.04903890939399
-66.31500027830754
-60.92018895444391
-54.679675712484496
-47.500194518319304
-39.70328440471588
-32.10265888898491
-25.6841533672816
-21.046243876421535
-17.970592437834856
-15.890086462040465
-14.041523248842683
-11.571523211219068
-8.0783444817194
-3.1964643759655664
2.83635926834423
9.36693270120175
15.745219821279282
21.531493941312842
26.728911859326743
31.31668071354982
35.11678832695002
38.53060803664393
41.94514074491937
44.87709674772202
46.99037263364489
47.961930757640374
47.82328935836512
46.9813231575101
45.73674035982229
44.22477385236037
42.8451855340318
42.46849967899029
43.2166269898022
44.60200224174593
46.04751194553634
47.1945511226489
48.028022044132385
48.471142780887625
48.52846376902523
48.328543532056685
47.90019487985198
47.16348941927201
46.256974648007535
45.43944095671389
44.96057215723494
44.664111784330046
44.28444784727847
43.427205287593765
41.71057354037634
38.92604020748066
34.69488891000592
28.63227604855588
20.83557558983775
12.117630405473697
3.585120016183188
-3.732413377070674
-9.142960618733786
-12.30409840999415
-13.397925478898284
-13.072451198865613
-12.261117601059073
-11.776088448860166
-12.114481788753183
-13.633759418004681
-16.363543144898827
-19.89961512606467
-23.611784785705947
-27.183959812556484
-30.47685180352925
-33.09501562724411
-34.69905773241322
-34.94509959341858
-33.80588521475772
-31.532867526235915
-28.672910888202125
-25.698181210607885
-23.271126558642678
-22.20739959925758
-22.773952663815674
-24.501364338134216
-26.598859437046425
-28.44239107819092
-29.303782490060485
-28.75844597048612
-26.883229780413163
-24.352547814538468
-21.93334680204673
-20.10436396316862
-18.788756734772097
-17.77284538901581
-16.70865250042888
-15.352981759545694
-13.846711436007167
-12.455060700990192
-11.72953387150335
-12.014428825570834
-13.05160718420552
-14.51869541254828
-16.508728039661406
-18.919304645293355
-21.272574445004757
-22.93427830395637
-23.759266454162276
-24.121785672511653
-24.317024639721417
-24.234517734091046
-23.839673465402754
-23.695785773550703
-24.076564277944055
-24.676673673391022
-25.284925203102908
-26.057761166047573
-27.032030261449705
-27.851292601399273
-28.507148699049406
-29.12416408889787
-29.61515026420653
-29.850030305508852
-30.023843790017995
-30.55666679280083
-31.52409631708701
-32.76172594473514
-33.87361511692519
-34.341734579118565
-33.59672899740772
-31.501406917396626
-28.2996197423276
-24.370429868935336
-20.20537541940257
-16.15625797273546
-12.5211303446564
-9.241498551530903
-5.908764324877726
-2.3553252037394796
1.4094122618292368
5.392601570097116
9.573812282732616
13.753069160099335
17.830552941999702
21.58921171790854
24.68735956662238
27.150021039028307
29.150502924980493
30.72502509179328
32.21039145878982
34.13104098227533
36.56699869958044
39.202309834947165
41.57562543055606
43.5988387982698
45.48081189552094
47.635259846441755
50.24317624069801
53.338052109445385
56.77389711907413
60.1725218675751
63.3757130830251
66.33227886367378
68.94175005496957
71.22516787142293
73.26235528288693
75.17245964922309
77.09360015762185
78.88012137353367
80.21940974769167
80.94552785605575
81.32740611929633
81.39208481624998
80.84726228202055
79.41821177277725
77.08757953454293
73.75958573943458
69.27612368261993
63.569314754997365
56.799116475479295
49.29117990764096
41.17459315317782
33.049304139318565
25.537178691459633
18.6709067518074
12.272219676240386
6.15279891382371
0.04707189920813158
-6.157172261397415
-12.226965378103259
-17.705979214102943
-22.15586271401628
-25.083971117622042
-26.261702994191022
-25.925535890896214
-24.368300377742553
-22.157909372324145
-20.079562859922575
-19.190710257889343
-20.18191381215767
-23.22575155799736
-28.340886860650524
-35.02204528838162
-42.45766804969133
-49.604241328531614
-55.99724720031886
-61.43815053246132
-65.97727731472116
-69.96261929447738
-73.59499442528346
-76.82433387688032
-79.57988463927893
-82.08949934814298
-84.42840034869646
-86.53671960290089
-88.1797878946752
-89.11713073281953
-89.26640419742907
-88.74363033588372
-87.50049555654348
-85.50368100183321
-82.76497763894703
-79.31245759742039
-75.19935376339686
-70.25703934012371
-64.47462637307034
-58.22558605199027
-51.74759257623143
-44.839188221243326
-37.54831781559787
-30.195428381939042
-22.788591145093665
-15.14409034760598
-7.281483530920555
0.5149957890967661
8.17105699964093
15.72959899898298
23.10058742481345
30.320201202825313
37.28471971230313
44.10014575945564
50.48484097807718
55.90094829925841
60.487863477355845
64.15703797532882
66.46264974122485
67.71314873432479
68.93768346820835
71.01689047519885
74.05616273273401
77.72822316953388
81.59631846133783
85.45152777027637
89.22421582762763
92.75349587731488
96.00448725696823
98.8953084478749
101.28751598301349
102.97051895701722
104.29984659827866
105.53734796362895
106.49168241919378
106.95902550487448
107.4170652503644
108.31409900014198
109.10782307431764
109.20978841406996
108.31608529168177
106.75809792633925
104.34422807476764
100.42937068355474
95.02635066218178
88.5021841585986
81.03021218909461
72.17031606875416
61.65609624089068
49.54437720650162
36.04387723578819
21.564879638924726
6.313431644204233
-9.434073528518018
-25.440544284424817
-41.34080704821426
-56.55781948987831
-70.5384493592919
-82.79961081390846
-92.98098266572167
-100.79230234890667
-106.75178164190457
-111.57939505633902
-115.54042287864219
-119.06277361610316
-122.49997321976302
-125.52238022290697
-127.80127666657279
-128.73302083775792
-127.85161797666542
-125.15398069355399
-120.72281139754357
-114.67261744473598
-106.89347887358987
-97.29509043155532
-86.56958125600573
-75.64114664421274
-64.87292326872901
-54.748322069078974
-45.50128699897222
-37.0457119796242
-29.119075938589088
-21.87109785504681
-15.393002019545323
-9.198351949685614
-3.027893950413671
3.009565106071748
8.413939176822588
13.137803868939885
16.76555775138762
18.552854791428146
17.964019920039817
14.906845485538463
10.073095043702255
3.6139643659313796
-3.885414171726113
-11.499532478159486
-18.35371608926466
-23.883863476445345
-27.775421035932638
-29.477104524898365
-29.747376530625242
-29.8060258694604
-29.87163422851933
-29.000144945924486
-27.503461409499884
-26.416573702203895
-25.379474681600133
-23.316226751731875
-20.73165891670132
-19.716953968316208
-19.640057590363035
-19.214236754606315
-18.93024782102689
-19.73150736580892
-21.203890551420546
-22.28937011348524
-22.99534786429628
-23.630093364243482
-23.996322372394005
-23.725903051212512
-22.751944188038024
-21.207299309253663
-19.267009122308348
-16.878417985050934
-13.930551758439995
-10.853574566421957
-8.231526140467018
-5.876414900022549
-3.7822099525128388
-1.770663546087924
0.4528641450952236
2.924716205243091
5.729453447979483
8.208435276933756
9.856835890535809
10.182076252702872
9.285092901764797
7.9991592675580385
6.881758412280092
6.092955689995124
5.378491391613671
5.282494865361794
5.886271041970245
6.568344573445745
7.06418675154264
7.2409472346436266
7.288523578121328
7.238695956366926
7.382359630513639
8.677804872186583
11.823748902360014
16.63615299997242
22.367707315529252
28.67371861091926
35.29085076275163
41.61848420612617
47.36321046690808
52.74119768074064
57.50169942112507
61.27204951631578
63.72666909684547
65.4212484546429
66.54888208755114
66.64533973631889
65.790704979354
63.60760941778766
59.84379162118836
54.10355180265541
46.09044001748263
35.39074411818977
22.472042479428957
8.367412720073
-5.768440713206179
-18.641966747095697
-29.512194924113178
-38.26789568191638
-45.128128108079025
-50.013507047937026
-53.196211848530304
-55.40681993729917
-57.61637841041272
-60.727590950075495
-65.09036653143478
-70.72005024907679
-77.32318274068321
-83.92062482451584
-90.04939233364263
-95.57100397717511
-100.06525059451906
-102.84429484505466
-104.03558232559867
-104.0059944325613
-102.95287242440828
-101.12388598319122
-98.85755693882852
-96.27787032759777
-93.41346460168432
-90.82389467348978
-88.0968698502759
-84.95318126843893
-81.50875937577052
-77.64600797909331
-72.79842657137173
-65.81253307377673
-55.770503389331445
-42.62960625479816
-26.92247634682169
-9.038431912624816
10.36547506864526
30.193346476312563
48.95326165050585
65.75743658034189
79.85764855587003
90.28689282287444
96.91163117357065
100.01868716150985
100.31251502014165
98.17150997773963
94.34122224149485
89.4383156577963
83.9042020269818
78.39162697659644
73.4850047554828
69.88420421921943
67.65671410553763
66.58282648673783
66.5657096052352
67.67699127965865
69.62555247394377
72.25062755589941
75.43228576351746
79.07965491210322
82.74768703927273
86.0817935716652
89.24058967089279
92.3305091419668
95.44765293877192
97.74993186801392
99.15485694180803
99.9941846773932
100.17282310288795
99.36805270995978
97.03286573911222
93.40646045293192
89.18638508121342
85.01446936740382
80.82053128705122
76.76524563301884
73.42905160679811
70.78479961622834
68.16423001105626
64.93183488826413
60.92424012010494
56.05045586824211
50.45525814185571
44.316118177622904
38.20535519407466
32.77004649613138
27.424398170232216
21.377603228740476
14.225247655630959
6.000179680911403
-2.8749787342276303
-12.07917168413265
-21.32039304184367
-30.349039301447707
-38.73322294876789
-45.93421601660224
-51.733364269195825
-56.20784927036519
-59.6381991525067
-62.394249538811046
-64.74545627267375
-66.95735337354661
-68.67792127829759
-69.62422843838388
-69.84745407751672
-69.17322387164549
-67.23066439944127
-63.86722174738702
-59.40964011893643
-54.349887547967846
-49.37213108250441
-45.148532263339284
-42.057317345606826
-39.90872601665703
-39.00979112665395
-39.118843556109674
-39.52877465286163
-40.092988225332014
-41.07593907267873
-42.42687370818837
-43.82752504963979
-45.151468066649706
-46.37653729699739
-47.7911482707613
-48.9241226023198
-48.8803399814138
-47.01853018302198
-43.345052361105
-38.06966668217404
-31.069873986168528
-22.59131768388481
-13.171948832592223
-3.5145195376363842
5.630861460732197
13.766595235147717
20.253730393337353
24.779689938427907
27.660535567053184
29.67690785016326
31.5168581940501
33.471841918183046
35.88232962147431
38.96684816602013
42.68638494644717
46.62919040343198
50.73607242885236
54.863704529916006
58.73429966053192
62.46819227759556
66.03753907055007
69.05959592402125
70.90100707914675
71.61525012684929
71.07488751019595
69.22994772463598
66.72761472620296
64.00595828821169
61.402285978982675
59.01810534867171
57.167935469997374
56.09839074128794
56.03929567781386
57.200943574030745
59.09941983892851
61.18184545592143
62.68999412773886
62.98167633873595
61.65016148135203
58.05147287027742
51.50584735577683
41.984934071350246
30.679109412465795
18.53526753061989
6.466548376922152
-3.730363498611539
-10.931347260235116
-15.089302539128663
-16.299055958357236
-14.82572089091556
-11.226290339454518
-6.531229623987437
-2.207971484040612
0.8198175410651252
2.1941977271729645
1.9704372054489911
