AAD_Filtered_TADAS_FILE
AAD_BASELINE_CORRECTION: BASELINE REMOVED
AAD_FILTER_TYPE: BUTTERWORTH
AAD_FILTER_ORDER: 1
AAD_LOW_CUT_FREQUENCY_HZ: 0.025
AAD_HIGH_CUT_FREQUENCY_HZ: 40.0
EVENT_NAME: 202302061024
EVENT_ID: 13207
EVENT_DATE_YYYYMMDD: 2023/02/06
EVENT_TIME_HHMMSS: 10:24:47.00000
EVENT_LATITUDE_DEGREE: 38.089
EVENT_LONGITUDE_DEGREE: 37.239
EVENT_DEPTH_KM: 7.0
HYPOCENTER_REFERENCE: AFAD
MAGNITUDE_W: 7.6
MAGNITUDE_W_REFERENCE: AFAD
MAGNITUDE_L: 
MAGNITUDE_L_REFERENCE: 
FOCAL_MECHANISM: 
NETWORK: TK
STATION_CODE: 3143
STATION_NAME: 
STATION_LATITUDE_DEGREE: 36.848907
STATION_LONGITUDE_DEGREE: 36.557138
STATION_ELEVATION_M: 430.0
LOCATION: Kahramanmaras_Elbistan_Turkiye
SENSOR_DEPTH_M: 
VS30_M/S: 444
SITE_CLASSIFICATION_EC8: B
MORPHOLOGIC_CLASSIFICATION: 
EPICENTRAL_DISTANCE_KM: 150.45
EARTHQUAKE_BACKAZIMUTH_DEGREE: 
DATE_TIME_FIRST_SAMPLE_YYYYMMDD_HHMMSS: 2023/02/06 10:24:52.9529440
DATE_TIME_FIRST_SAMPLE_PRECISION: millisecond
SAMPLING_INTERVAL_S: 0.01
NDATA: 13501
DURATION_S: 
STREAM: HNZ
UNITS: cm/s^2
INSTRUMENT: sensor = ACEBOX/SARA | digitizer = 
INSTRUMENT_ANALOG/DIGITAL: 
INSTRUMENTAL_FREQUENCY_HZ: 
INSTRUMENTAL_DAMPING: 
FULL_SCALE_G: 
N_BIT_DIGITAL_CONVERTER: 
PGA_CM/S^2: 23.092
TIME_PGA_S: 
BASELINE_CORRECTION: BASELINE REMOVED
FILTER_TYPE: BUTTERWORTH
FILTER_ORDER: 
LOW_CUT_FREQUENCY_HZ: 
HIGH_CUT_FREQUENCY_HZ: 
LATE/NORMAL_TRIGGERED: 
DATABASE_VERSION: 
HEADER_FORMAT: DYNA 1.2
DATA_TYPE: Acceleration
PROCESSING: Automatic Paolucci et al., 2011
DATA_TIMESTAMP_YYYYMMDD_HHMMSS: 
DATA_LICENSE: U (unknown license)
DATA_CITATION: Turkish Accelerometric Archive v 1.0 - Disaster And Emergency Management Presidency, Earthquake Department
DATA_CREATOR: AFAD
ORIGINAL_DATA_MEDIATOR_CITATION: : AFAD - Disaster And Emergency Management Presidency
ORIGINAL_DATA_MEDIATOR: AFAD PROCESS SERVICE
ORIGINAL_DATA_CREATOR_CITATION: AFAD PROCESS SERVICE
ORIGINAL_DATA_CREATOR: network: TK
USER1: GuestUser
USER2: 
USER3: 
USER4: 
[...]
-0.9699663570591514
-1.4715955886851355
-1.8452106194593685
-2.223963449654014
-2.8674281206327557
-4.079783148730323
-5.363764041036366
-5.245476659865534
-3.499054052725787
-1.7649048063902806
-1.6783403577791283
-2.811904374015179
-2.906125122021623
-1.0428947828982649
1.5872932140817393
3.6036101966088645
4.349556873280058
4.5161014773161945
5.188161464666791
6.294594520214495
7.33163618951526
7.742150722321024
7.011042488356436
5.736784867706207
4.684446496303764
3.4517386664001566
1.6652537589981775
-0.3293255703237424
-1.9015746578837525
-2.2009171318598835
-1.2532678204934167
-0.4062668781653272
-0.39076094320529803
-0.5862329005786836
-0.4612788519909504
-0.08021877278869957
0.5599519630871591
1.554787090783692
2.4201610671857554
2.2050109603089254
0.8487005808204022
-0.5225912654375774
-1.113970606122608
-1.0867495254410338
-0.8401987127207423
-0.6429902038559463
-0.6160181921377244
-0.6268631601154602
-0.640671095744761
-1.195731340053995
-2.42826034076295
-3.2264126538470905
-2.950777916334315
-2.658960366366566
-3.299587091809995
-4.052450440600667
-3.558235254695297
-2.0882798062446315
-1.2236395410226066
-1.6803674838919165
-2.664787382314125
-3.116473209677326
-2.714327506246175
-1.6975526981541422
-0.4025217490993201
0.767158062450877
1.5594153178008554
1.9798900786738165
1.8569506298362413
1.2089798047016604
0.5200556162987429
-0.12665812659707718
-0.6659833378626241
-0.524689925913387
0.09879883231225503
0.37190431469968416
0.3908502948655732
0.8056361073688998
1.7529728123517265
3.075665855177864
4.237671030702021
4.233283422159262
3.093870298599353
1.920322798305426
1.0726995581966805
0.3413781470354206
-0.20452523607358622
-0.4235465293080552
-0.5592811424015469
-1.2024250919381687
-2.089298495152901
-2.118288908738026
-0.7533589000867935
1.6636405607319575
4.050416664217862
5.4438499264532645
5.986735373266185
6.357765610574031
6.83806056883674
6.800859731260991
5.609797132923572
3.860680076825837
2.404789563235466
1.5676933473345307
1.3280229276804008
1.0489205981282284
0.3412026888415583
-0.44207359414122754
-1.0267105301881865
-1.1748862265707292
-1.0874018713302622
-1.6617009502822646
-2.871879972447526
-3.6184490558979925
-3.2222785207909337
-1.5732935939908146
0.9429671199453132
3.1852182921371797
4.317025469583777
4.92826370555117
5.89024947626817
6.897662521333761
7.361834742190807
7.368624523683987
7.02993174494874
6.103625298966497
4.181666533208152
1.1854155839560456
-2.00935512656261
-4.165727277244637
-4.606165020341489
-3.3442299374077082
-1.4014533082781109
-0.3544233180150257
-0.6358009976836616
-1.1717213778503774
-0.7865453659246499
0.7044283613909427
2.560106592810853
4.085725821416392
5.216030457881915
5.800508019011712
5.558307084416798
4.799798551019892
3.721590538570521
2.2763052802657864
1.1581389733655543
0.9380491805644319
1.1288687943375284
0.9665523825600468
0.11023337627652333
-1.2439391897177603
-2.5678006750235665
-3.2951928377324538
-3.2551787941847046
-2.9378686055897463
-2.744690939385302
-2.3560570451500196
-1.6586182753468381
-1.4157788854922133
-1.8009635080130708
-2.0293345634924695
-2.133230173839137
-2.7424548493063012
-3.8601859031938153
-4.98771691043948
-5.4108493046943895
-4.671971976854012
-3.1298158889918595
-1.7030221583302974
-0.6524626393108026
0.4460353500937325
1.5395946961925515
2.6967345554952624
4.0573949114053915
4.916846530294268
5.0502478765836285
5.057730499316292
5.079147000607728
4.770184431808074
3.7298949162837918
1.8923357166372028
-0.12107137027475379
-1.5244695462624998
-2.0862130607395866
-2.06787845648445
-1.9225824806932619
-2.0389983069464157
-2.276162676968147
-2.07874002968351
-1.3286303684338956
-0.4608791659052419
0.20091597108853462
0.47457927394874566
0.3759049019276561
0.3222079362534776
0.3785537642358488
0.06826018881218031
-0.8387050984221328
-1.8971801531849182
-2.409839671537142
-2.376021476485869
-2.324808327297841
-2.6860409976443482
-3.6312885352816915
-4.929430261369298
-6.3897911906865215
-7.70318058828282
-8.362358226125787
-8.401277582807051
-7.812078626167063
-6.68806745070971
-5.850330333624071
-5.253431952274491
-4.070097064579878
-2.71201021001381
-2.037473303358682
-1.7272466468698666
-0.9201816666615834
0.8351657073266898
3.0856569063852417
4.404315483236477
4.119187592311666
3.382921810970599
3.1850150941616793
3.431529945395672
4.154194069182746
5.068404365606995
5.637037229868012
6.435609910247282
7.8002838888010695
8.78778337697388
8.619406990332765
7.1754356509657935
5.113354025661009
3.5671173045879256
2.8508028558662213
2.1662903048587254
0.4849819071099492
-1.8380309149897007
-3.434545737767753
-4.215209767601764
-4.644982954510158
-4.502708687997904
-3.804337470429932
-2.5917458689930064
-0.8721916108795126
0.6091083775374952
1.3933407842762717
1.8221693716359746
1.7718896854663864
0.9945892419580594
-0.15938784750622317
-1.463655847246291
-2.7388389409465526
-3.9989858898637602
-5.452482469719406
-6.5181749910209295
-6.860498014736848
-6.978934990812463
-7.144109771622995
-7.473815185421673
-7.721714507342389
-7.208959643837974
-5.565373564361063
-2.949790254063691
0.009994205462283221
2.6619902362103183
4.666256096041598
6.161931763939501
7.323881048863795
7.627865976604467
6.82917135216261
5.402259765705769
3.873737071251881
2.908033241096457
2.6328910706285806
2.25481527353267
1.0427851191655217
-0.987983242362278
-2.9070667910322237
-3.7661844495930157
-3.645193686909606
-2.8759574897622127
-1.6287731250865836
-0.5664066809735618
0.045341072224458934
0.6571326266459656
1.2551074785006033
1.867331446574261
2.964098279815966
4.698172039832448
6.586699596486281
7.556679955014737
7.2463572535027
6.12118235492051
4.110918656721906
1.1946583271816982
-2.3677575089271112
-6.247732231676824
-9.755279940576862
-12.704665034884545
-15.104020106855868
-16.459918935432547
-16.30767925207719
-14.321818020627918
-10.970404304558565
-7.429762796208843
-4.029187170221402
-0.31732494225686236
3.6434388555037116
6.835863014518369
8.337798318130726
8.755515826090468
9.541618533715038
11.000675712124721
11.965568935478348
11.371754010193708
9.694100363603194
8.254172217185149
7.3208525000453655
6.144812643701667
4.310429605626876
2.1482461599463716
0.520452981019466
-0.20148062389170704
-0.6736319416924986
-1.3983035808839273
-2.4599819996186683
-3.8750380078982474
-5.239470550734981
-6.065456882519108
-6.075779914776944
-5.543843914145846
-5.4936650732197165
-6.252104312251408
-7.134506681310957
-7.639822238169918
-7.275334830247176
-5.779093341367771
-3.841599407320642
-2.0383931050093556
-0.4986444773238583
0.3200348195652608
0.5152214913112296
0.7878893993698595
1.024740432659135
1.0648080625537923
1.7457056207815445
3.521156771232786
5.395312161500794
6.314056374509013
6.460372854787185
6.097669945429257
4.927437330422484
2.990706257279992
0.5578116726370013
-1.8109796166908858
-3.3278479104529155
-4.140803566658808
-4.858528746342638
-5.768113474108475
-7.132934373767567
-8.617648183189756
-9.530878742283626
-9.657736354430535
-8.930198283350817
-7.642698110852001
-6.039731170878626
-3.703389613494881
-0.9255246810550222
1.296748954360759
2.3779436196498804
2.2085013955234607
1.7016738885971732
1.9807756535149192
2.762961676300053
2.9585719214974677
2.0456556643419
0.7881552326591141
0.393090626430692
1.0362220409163254
1.798291796960592
1.7466604455870745
1.1561520140224966
0.7597868652466373
0.5537808133415985
0.37401877911217074
-0.02357679333836705
-0.7169893391451817
-1.3424413624188645
-2.001147841405272
-3.0540307998039706
-4.539868275510885
-6.274970960074358
-8.188863196649294
-10.512000107797858
-12.817611754038339
-14.084819702407943
-13.843998670781149
-12.09559798761324
-9.133052500861128
-5.349987740225777
-1.1884867000626234
2.321372357030211
4.43651042851664
5.635812721080718
6.733349573969887
8.331128883662878
10.566918679983155
12.739416383185603
14.31839051117927
15.26381535809817
14.991622279590901
13.139186386918054
10.683280351866296
8.741822312344006
7.308338261471381
5.818669923555831
4.144199247419443
2.6138788626919407
1.8802672003714493
2.6278467674727173
4.304164592514633
5.4678847810567905
5.816104059929298
6.061869621549739
6.664937501852867
7.47248260442822
7.950170672602428
7.92805977309186
7.506453569576903
6.6640345261918785
5.633778683990897
4.852263359592909
4.705804242159337
4.857127120070509
4.45846952371976
3.9896906590686187
4.234321107960078
4.701397580775946
5.137304320562184
5.303053443087202
4.6947917705395765
3.764915827715471
2.8096370071933925
1.82704144333564
1.216003690622921
1.1164982153256982
1.0833356167683952
0.06160040520475973
-2.044039444905115
-4.492670712457195
-6.943769631046264
-8.68277289370143
-9.542891175672358
-9.668691402935236
-9.745273029813294
-10.76105601511606
-10.94076988163733
-9.302462562985884
-7.771503070281091
-7.682173292218572
-8.244777940892632
-7.827150787650521
-8.047605300414522
-8.959683146360256
-7.154319692310407
-2.93930901492438
2.247462631980358
4.901197340549697
3.882699446943057
5.985607259421309
7.399778664972181
0.9346632917491664
-3.1794530808523254
-0.8009352787345937
-1.0178882441854171
-1.6616697942365728
0.8191350473962081
0.4572705336931426
-3.0120900692293837
-7.989409800325724
-14.458533015747932
-17.791180207026738
-17.788246087052162
-15.900529353879735
-12.475712364696529
-11.724587236591132
-11.943690826233071
-10.245590698323758
-8.39240351550558
-5.811637815504553
-4.2030377684209395
-4.03609053316143
-2.5786244702323535
-0.7656656708870341
1.6150358212426268
3.9636025367942525
3.7368330145673463
2.991018001319014
3.074348394866501
3.1606480058587527
4.239118839219315
4.962311595349286
3.6488526225665168
3.3393028229997763
4.895340821855058
5.686602888206394
6.543427819778133
7.563798676189612
6.876905175574463
5.783630945167824
5.117923618774806
3.614388881979457
0.8934137122231031
-0.9865040263588197
-0.5489078876804926
-1.7077712539599401
-6.1233256224191175
-9.57165552697279
-11.696313326655197
-13.742246482762559
-13.199337797638067
-10.743932628246132
-9.654001553627333
-7.909116929804801
-3.7121721557115173
-1.0923814200380817
-0.584174975645368
1.2955514040029628
3.329337288084825
3.778372578426896
3.3038821372238427
0.7154612974447858
-3.438059727445852
-5.077563140926806
-3.4204128329675543
-1.9720531484827868
-1.4629763690288642
-0.8629387074044982
-1.9384291557525544
-2.560841676998544
0.6649300517726167
4.916233772598626
10.169973594797327
15.24976893931162
14.416569948957843
11.971705274251626
12.427641500523531
12.771015381566208
13.89947832576409
14.713664562465434
13.41546560021186
12.919293225648746
12.577040158979738
12.614060549279648
14.690128332698675
15.042768109762747
12.584488617101988
11.620390234968754
12.403547586615174
11.046366613603674
8.909636621493382
9.286846253780658
8.858926536369873
6.008110352292938
3.2737401405338535
1.132059777771608
0.9780833866893391
1.4339173920756059
-0.1088934006644792
0.010940645444781622
1.8821967226561547
2.7086384518471607
2.7702447020145775
-0.1408534458820574
-2.4841790883909525
0.1860408615250007
1.8802434603594051
1.6092148058108242
2.279849144428071
3.1191532043162913
6.861167040212303
12.85723846426359
16.940888196551526
17.162043824910786
12.862833504947124
9.589844943891606
11.816842019725051
15.791868534025518
17.157453333141323
15.26374544169912
12.323851815521762
8.351708147457
2.4061023799997394
-1.6457470917194579
-1.3063479539319078
-1.2090365059751564
-3.9555113640222217
-3.2077519352299015
0.7933184406645464
-0.745074639346885
-5.142901994784293
-7.128495730681273
-8.399991086497174
-6.806958068617907
-3.520119608293519
-4.1921894978464005
-6.955276962596846
-8.12012398812157
-7.067821376580739
-2.7511521281626354
0.8559678456121623
-2.1390054173034607
-6.625685736584042
-5.498746784744567
-0.9722826052179752
3.448513982420391
7.1308272049142545
9.793351538936822
8.909212146448272
5.615757158513842
6.392739008674259
6.944077736051768
1.3542220606831177
-3.582135533315107
-5.524699856121661
-7.097860045248975
-6.691030660913847
-5.291242310782014
-6.413774059526112
-9.463621654555604
-8.05317483556207
-1.8842660813063685
0.8631617257832828
1.1351785233362617
3.3245689889528363
4.629823670686185
5.716070618617784
7.737826076649351
7.209982800870305
4.711913228905456
3.278304511264776
3.6008593152593193
5.1686509177083995
5.68647700671041
4.605881826806812
4.884554319616524
6.998364567764381
8.68603821159523
7.469505189146125
1.6728018855110693
-3.5056403627836588
-1.6089648802662375
2.3149244529484343
1.5387193906471581
-1.9972445967527233
-6.463086094744195
-11.734024647076932
-15.423574687891687
-16.364903563663468
-16.110874885006204
-17.603820066593773
-21.515544629957947
-23.502856498389328
-21.170365178084513
-18.215295357639274
-16.2177968264878
-12.607872684171545
-8.19951569621017
-5.322851001769839
-3.0732107659880707
-0.873662987134118
1.0117939635633555
2.6127023651182206
3.4747290343054096
4.7534896257967585
7.484997848727249
10.288442880276094
11.89729880979604
12.07109928773936
11.382391825837402
9.94112993519661
7.3535402252941235
4.645064644371002
1.4646892482390688
-3.2279250900147036
-7.217451774001055
-9.45161463558375
-11.366060767121516
-12.492285115303355
-12.713836596973028
-13.595956537048908
-14.342155073464065
-12.417054413278137
-8.102682870325165
-4.080170158469255
-0.9502175377246636
1.8245471127956538
3.2432079354201155
3.9454799632395816
5.276503188869021
6.520579605184973
8.174133318984897
10.268895103846347
11.409892018277812
12.249704358751183
12.13359040080085
10.0260389725371
7.989753326813115
6.482303710970246
4.037265089260477
0.4517327266281999
-3.0110489156525233
-5.782808095897142
-9.847443068396064
-13.71881130635044
-14.007060049838685
-13.89728409165984
-14.639307740990365
-13.187526996507316
-12.072547254109274
-12.118759374443298
-10.792787468878268
-11.270984045730545
-14.662557435229054
-18.046543946779078
-20.51871616469857
-20.39388040579353
-19.15644057984403
-19.34565640800279
-18.57949143738006
-17.80863082186541
-18.245016708882815
-16.965159353803493
-15.065341907488422
-13.544023344296964
-10.854934711417116
-7.919259564288156
-5.365999623436582
-3.7628088475463475
-3.9782358479581346
-4.757559494585915
-5.089385808726972
-5.109610501785237
-4.91333676187669
-4.716351415299987
-5.051877793751707
-5.702509527301731
-5.796871215236696
-5.434651152989069
-4.721244557543946
-4.565147100756633
-5.623359818308156
-6.1331399027754845
-7.088667497325144
-9.12797008857261
-9.133874672576695
-8.402427945807425
-8.438643353278499
-6.994924334611673
-4.684845944513845
-1.8699613403935567
1.854238342145905
4.679904757400057
6.605707507701962
8.445470151182885
10.299585759290688
12.486763381268608
13.792059360373887
13.32571058034247
12.262826257146225
11.583766645270998
10.94989957303607
10.018747858424828
9.307641731777492
8.819084157706337
8.857588425950109
9.833295693833719
10.046347717999518
9.132097269158285
7.936423692805171
5.875179048597142
4.233248312277291
3.947218300017917
4.2279232896175065
5.867533466833237
8.161956236210482
9.145220636263916
8.434476635875953
6.702450253998118
6.154127477304112
7.505556173324505
8.849478753511592
8.527917081400982
6.502529422005601
5.059545557946339
4.989747764521998
5.469094327204182
7.288486813744958
9.156232437183991
9.47997397498152
9.609411781597858
9.862923036443838
9.568315524789199
8.309378211117636
6.492975985086296
5.754752175713996
5.673722474926688
4.724525939582339
3.218134872797647
2.265479137176592
3.0522940710975695
5.695895678764819
8.537527656970346
10.288767594858497
11.479558341272389
12.605662667343092
12.720318644936983
11.718391386361722
10.738227036776816
10.227744978409875
10.191529317726657
10.06711014251335
8.986372947239925
7.094497889039269
5.3358595779521245
4.526917095439201
4.557944290609133
5.437957041789088
7.498943165487002
10.041824819189003
12.670967326368011
14.704750131887161
14.577683745010402
12.329361727337767
8.295957961954345
3.267246425262714
-0.3637830647614823
-2.903894403803801
-6.143355606671885
-9.061287650683624
-10.513960382860427
-10.698513696945348
-10.26311513201627
-10.449800113527822
-11.353429393396713
-11.821726824054037
-11.142028909023594
-9.378802633497232
-7.325719602191461
-5.7132306407639
-5.042977656161735
-5.55826967590616
-6.4996601795443745
-6.843694473793349
-6.685142842073995
-7.568170508166799
-9.657136738948939
-10.869188919811576
-11.126240185121455
-11.72073380103338
-12.723100445777384
-13.993569765627164
-14.756300912204292
-14.495686309833744
-13.680035629767666
-12.246917522689719
-10.705326004597673
-10.23019163581595
-10.224489024597247
-9.50552959608593
-9.145525226579814
-9.722217623625665
-9.439056878361308
-8.224861251095755
-7.031507681699431
-5.240859647819035
-3.0307742509523985
-1.2882269959966188
-0.2738405670886689
0.34838745188294024
1.3646637175495877
1.96829225234604
0.6906385271098362
-1.5445191479548757
-3.1830565184913993
-4.034117068262039
-4.36627028945747
-4.813389585935253
-5.807789718983446
-6.818663841505133
-7.537669689424487
-8.074687667910482
-8.092294519444131
-7.637226158713772
-7.555338960711602
-7.697577443511429
-7.14550131523422
-6.132394486076485
-4.935555376867318
-3.756690032720368
-3.2883245354243886
-3.1282808512318554
-3.2539228566459393
-4.013434214805081
-4.39113432348959
-4.546633601779249
-5.07134476602581
-5.267035927261601
-5.274421161801454
-5.6247864081624055
-6.542672043476579
-8.087128118313327
-9.757560982482858
-11.150472003178074
-11.433387816215536
-10.135211603152833
-8.329144497571017
-6.391153149965063
-3.370131229480511
1.2867121181870358
6.882793929627972
11.989913998530835
15.793909039002179
18.235060163438654
19.770372311163673
20.75223539238732
20.53314986905104
18.779533555001475
16.139032217558732
13.079540751713488
9.697580144326267
5.598662613227586
0.23316136644866484
-5.573623649836187
-10.085396475401215
-12.610781693266034
-13.749434238343845
-14.582070633253675
-15.241761019112815
-14.806672662802022
-13.600409057539496
-12.539468799593985
-11.312443331195583
-9.847252678909355
-8.531338488878278
-7.330086030489938
-6.25148024881652
-4.887161848746994
