AAD_Filtered_TADAS_FILE
AAD_BASELINE_CORRECTION: BASELINE REMOVED
AAD_FILTER_TYPE: BUTTERWORTH
AAD_FILTER_ORDER: 1
AAD_LOW_CUT_FREQUENCY_HZ: 0.025
AAD_HIGH_CUT_FREQUENCY_HZ: 40.0
EVENT_NAME: 202302060117
EVENT_ID: 13194
EVENT_DATE_YYYYMMDD: 2023/02/06
EVENT_TIME_HHMMSS: 01:17:32.00000
EVENT_LATITUDE_DEGREE: 37.288
EVENT_LONGITUDE_DEGREE: 37.043
EVENT_DEPTH_KM: 8.6
HYPOCENTER_REFERENCE: AFAD
MAGNITUDE_W: 7.7
MAGNITUDE_W_REFERENCE: AFAD
MAGNITUDE_L: 
MAGNITUDE_L_REFERENCE: 
FOCAL_MECHANISM: 
NETWORK: TK
STATION_CODE: 8003
STATION_NAME: 
STATION_LATITUDE_DEGREE: 37.08417
STATION_LONGITUDE_DEGREE: 36.26936
STATION_ELEVATION_M: 122.0
LOCATION: Kahramanmaras_Pazarck_Turkiye
SENSOR_DEPTH_M: 
VS30_M/S: 350
SITE_CLASSIFICATION_EC8: unknown
MORPHOLOGIC_CLASSIFICATION: 
EPICENTRAL_DISTANCE_KM: 72.18
EARTHQUAKE_BACKAZIMUTH_DEGREE: 
DATE_TIME_FIRST_SAMPLE_YYYYMMDD_HHMMSS: 2023/02/06 01:17:19.5251700
DATE_TIME_FIRST_SAMPLE_PRECISION: millisecond
SAMPLING_INTERVAL_S: 0.01
NDATA: 10501
DURATION_S: 
STREAM: HNE
UNITS: cm/s^2
INSTRUMENT: sensor = GMS+/GEOSIG | digitizer = 
INSTRUMENT_ANALOG/DIGITAL: 
INSTRUMENTAL_FREQUENCY_HZ: 
INSTRUMENTAL_DAMPING: 
FULL_SCALE_G: 
N_BIT_DIGITAL_CONVERTER: 
PGA_CM/S^2: 185.738
TIME_PGA_S: 
BASELINE_CORRECTION: BASELINE REMOVED
FILTER_TYPE: BUTTERWORTH
FILTER_ORDER: 
LOW_CUT_FREQUENCY_HZ: 
HIGH_CUT_FREQUENCY_HZ: 
LATE/NORMAL_TRIGGERED: 
DATABASE_VERSION: 
HEADER_FORMAT: DYNA 1.2
DATA_TYPE: Acceleration
PROCESSING: Automatic Paolucci et al., 2011
DATA_TIMESTAMP_YYYYMMDD_HHMMSS: 
DATA_LICENSE: U (unknown license)
DATA_CITATION: Turkish Accelerometric Archive v 1.0 - Disaster And Emergency Management Presidency, Earthquake Department
DATA_CREATOR: AFAD
ORIGINAL_DATA_MEDIATOR_CITATION: : AFAD - Disaster And Emergency Management Presidency
ORIGINAL_DATA_MEDIATOR: AFAD PROCESS SERVICE
ORIGINAL_DATA_CREATOR_CITATION: AFAD PROCESS SERVICE
ORIGINAL_DATA_CREATOR: network: TK
USER1: GuestUser
USER2: 
USER3: 
USER4: 
[...]
-19.799340784206485
-9.098074532195273
7.791735473585641
21.03905991660813
29.868762015995127
37.97602485790699
43.81279070760105
48.287091111817496
54.14999502761634
59.02480795300711
58.70726446367561
52.17394444671389
41.343522578860224
29.360001834751998
21.71423174104908
21.532618618186028
25.017225407974635
25.088726299831972
19.416919658900536
14.160889493714697
10.986559138114792
2.552259389840138
-13.450810097294687
-32.100591437215705
-48.84687025947096
-61.26766521609627
-67.65607603481068
-68.4318201109283
-68.9836017887709
-73.81608761447838
-77.81628843322947
-73.86678236408987
-61.62390042256506
-47.48790739253228
-36.687792264352076
-26.499107449500492
-15.06571282574763
0.45490372500796794
13.130963388755694
10.240702601658782
-1.246116049479696
-16.494920441213804
-28.389231487890136
-21.245840212193784
0.05175550727110448
24.70825743607054
45.66235692815287
54.91795555321178
55.302567444045664
53.468502997873586
51.97646680195729
51.43282043602124
49.48473163741919
47.43470066055218
49.25406335964343
54.6941453838675
61.639169501277784
68.79658674065186
75.58371981008588
78.04401637039358
75.92184643703784
73.76601238634929
69.3834684285352
61.86642062612753
57.42189284639701
60.13255324365812
67.91975586870748
80.4591473046537
94.79962852385067
99.95094958747018
95.20866300389379
84.58238303993694
65.59284399842912
41.673008745600825
24.292423172238294
21.858722082808253
31.51394050012647
45.403728621753395
55.239708742149716
57.780143269072575
54.56742718483997
39.49200470022808
10.392418040698693
-20.436121290580367
-41.55035078629333
-51.82791732397298
-54.41790207371839
-54.37419499583982
-59.271198827139465
-71.73332958933729
-85.86569125888957
-89.64624602830476
-74.91033387975598
-50.45598577005561
-32.331980561598556
-22.168062696721766
-11.703391304402249
3.1464595122172927
25.696327615333438
51.88769969445867
69.7859128667283
74.55099019918656
61.390513160381516
25.575649723127437
-25.145666485091386
-71.22129938394963
-99.39187332540953
-108.42662377123884
-93.08466113348464
-65.44247794638633
-51.5231410361569
-61.4262456406781
-91.92316793289841
-122.50808197201364
-138.93938574877959
-144.46536717757985
-137.68238798809378
-119.47684921204656
-92.65425560372326
-55.4170484980428
-15.74005281288003
14.345881739942275
34.50362164203556
47.318155665696125
58.41842229572161
69.85197277414433
73.49039323879582
68.0473912752661
56.6099862117419
43.51290955710761
35.60457807070567
39.15736734052098
53.62771333261773
67.4673660097062
75.59738449665333
77.90258873174821
70.52882821658346
56.501587452447765
44.18160108565664
38.533967831439355
39.96362027074853
44.22238226215172
47.90053140438621
52.61565520294718
53.957872072239816
45.76922425228479
31.77010102107094
15.90706673243222
-2.638008504087993
-26.324132912647027
-53.70562350947037
-77.07313157040315
-90.70883152881525
-94.63819311323877
-93.53882697567467
-92.34973313432202
-89.59615270876691
-80.01676431984029
-58.75513187191566
-27.44454757248539
-0.4896308613364719
13.101912092615398
12.129315235494198
-6.452109878072967
-29.262899443609676
-41.64937580881855
-44.9483672636501
-40.06867287231109
-32.46456690028426
-30.437747925047923
-36.65762724805747
-51.90812878589956
-67.61595837971645
-72.90809804440272
-66.14540808740425
-53.245530642486976
-47.36907844964979
-51.94147386364588
-60.51198421447586
-69.99720773156487
-72.68098479005315
-67.21667457124802
-61.569745718123094
-56.02103732789366
-50.79781445014066
-45.75140434068104
-34.02874293053281
-13.744833745970453
9.483274846850666
25.988965348071844
34.461716819227476
44.072360623187045
57.30062677422994
71.73460960400905
83.74488584856326
91.60218696650298
97.23381584436376
97.86685124796188
88.88476003378779
70.98786105618119
47.23806687112598
21.5244447571226
3.4209371329092964
-1.6479340469644483
2.371374021786697
8.042326207415185
6.80533709147481
-5.059521731922389
-25.317338685405748
-45.07503867982292
-57.33216543282604
-63.774735391481
-64.01232534954337
-54.32323114771618
-34.11622737160905
-7.744143844888824
19.842125415663393
44.20173058082331
55.66725190940703
49.861542733699096
33.911638568995166
13.258436145117377
-7.931046845347633
-19.522039622311596
-12.105226486663696
10.147308162586016
35.17949088294457
58.782286600464545
77.10138268864148
81.08666292007075
72.8131580576549
65.78658443353906
65.21031133693387
66.84665204129654
65.5262405192215
56.83144342135207
44.915665102980554
38.97491606073967
37.72465676693956
34.10167571070278
25.65205485621549
12.443859089539721
-1.8356355564194875
-11.087596437151632
-10.21889057718531
-1.594713443109564
2.394397220811782
0.4736816908231199
6.010402984963008
21.94825955279352
37.74596262416999
50.24523280782428
62.27929038421512
70.08955578060932
75.00784757555626
79.91309837078501
80.30176294800866
74.28567858322644
60.80524753223054
42.13045690164407
29.259360038383786
28.09331684646562
32.736218882843566
37.66911890715063
43.6893892725918
55.665285005993034
73.40610238359722
86.07787063159681
88.84300761955699
82.46575406262241
64.43933248587254
44.00071366405562
33.79869419394716
33.51879704555474
38.96217659829087
44.3657302072189
44.868565255397854
34.836859674453294
8.364685969015895
-24.474882401823937
-51.62559632010039
-71.29839076787883
-81.51038064388509
-82.39184320565427
-76.5561058748218
-68.20724729645319
-58.82848619212271
-43.49693594050832
-19.090585203001613
8.609754876625004
29.918032030657248
39.70034098858301
36.98546592855752
29.006319308746765
24.25845302237853
22.19270695765758
22.905649272657797
28.20218199852168
34.4153955038825
37.918959556183886
40.91002618265963
45.49677951802278
51.32497684278338
54.745803529020286
49.56956417270161
35.744919394708475
20.467937227999418
10.349770084310515
5.645868423931945
6.252092336175528
13.537643775756743
24.88101874228942
35.86739042150673
43.01964923263032
46.82665340856564
48.03171331715431
41.96536357491393
28.514408238605625
13.18444028680536
-3.6923718252684425
-19.430039622136437
-29.022646504766033
-37.159867590051306
-50.84575074870234
-71.38527846300217
-96.27932129206678
-119.9466137311594
-135.6479164620275
-138.26182012687607
-124.24535937865438
-99.33290107639272
-78.42735839048535
-68.07900990130308
-66.16832195832887
-67.57748934368914
-64.52707900623278
-52.98651667528099
-33.79358246294405
-11.3668316267899
7.630577447547841
18.830340894093695
21.251609121061307
13.48990732930295
-3.1054770852045723
-20.665636989732302
-33.42609451885406
-42.85879166249987
-50.70596407405685
-54.53004943925913
-52.64193586252193
-45.96370959578008
-38.81881225932856
-38.4680770777025
-47.792874366072574
-61.163320758851135
-69.44554320198543
-70.8557454310662
-68.16324078274974
-64.26689243345623
-63.6604137380564
-65.96173953722396
-67.12862876131905
-62.400086026094215
-49.227235102426576
-31.115857369863793
-12.789095324790154
3.578766707163035
17.966553183825624
28.989771488059123
31.610758124760462
20.908728840110996
1.595081483056739
-14.819601140345503
-25.30814407594004
-31.710871583329258
-32.19265421735749
-26.540627526436314
-17.29482504497261
-2.491582916818075
20.095542702201197
44.6377380657374
63.146879940415204
71.54236559768553
74.33427842256165
75.96507325474025
78.28004959469784
82.32772436223453
78.89224545873527
72.51238371167126
70.17977661219896
64.41710003317824
61.86231494631048
66.11234582426016
71.8900993483089
76.24908889273246
75.59108993734668
72.38500784089456
65.06687868442464
50.228794377190646
30.355007928273782
11.33692141929353
2.532938505178178
6.094084752181405
14.437798615990634
22.53643817442331
29.949327065663148
34.542940612419514
35.65277428977718
39.04769901793343
47.327102540761494
50.43960603609596
39.938903824990426
21.25523775974725
2.9578369747474214
-12.712508477128
-26.574925090124804
-37.347387234476855
-44.37151572495262
-46.88691215450693
-43.9280322556024
-37.71603818177874
-31.358347699773905
-28.542579307578517
-28.708392458741656
-29.843588635165524
-29.320254736197384
-23.333075416255124
-16.950990629974935
-18.07088369935105
-24.801666910599888
-37.76099015274174
-59.02509122468377
-71.25625488741748
-66.0338449978522
-49.54437822316099
-38.29291748978758
-37.00418528192345
-42.90369678050315
-70.17752600790004
-87.57905562347548
-87.14806771448777
-80.4327522731524
-62.38982895148375
-66.25522312759523
-73.105004908795
-69.41474221235487
-81.88942257692813
-83.11097984685514
-66.7550416987892
-57.534491279562474
-65.13730202007028
-77.95766240833102
-68.66837492085372
-58.60820443831577
-56.26599462512912
-46.68435811129006
-35.96775072822001
-22.22970949176258
0.7887530537354766
26.709553641071736
31.491663158824714
39.93957981058705
39.90831046639707
8.173353654012868
-0.9850504593542476
13.411565784553149
4.512178179669944
-22.110480851442222
-4.877129849907053
25.46032068109434
27.358656696736116
49.05600258346474
60.90535784605354
44.37014588912025
45.85141181424845
58.94600442733561
79.05954912959422
102.56128062606668
107.37120709759468
105.457879739997
96.84122260201897
80.18562304752838
77.45883849569238
78.90616750235863
60.54975641995624
33.37558845100456
19.386389977241567
20.24011626313742
28.784038804299776
34.89860790312277
41.17781510897847
41.56364618930385
27.791280315026736
14.155547260439457
5.922778427476472
4.576630181224674
4.642480796238823
-2.2923274913256853
-12.802224457518154
-28.99402048359719
-47.231395678640354
-51.53687427915408
-47.14369453624343
-28.321096440146803
26.29732795330676
93.2207273025843
118.56984327076124
57.225664606075895
-46.64296298450973
-128.44932347444035
-170.74166165856522
-147.41363057235534
-97.14552860778198
-60.2463256989171
-42.389861453025915
-41.57731420853008
-40.226021772474226
-56.82834973466366
-70.00449236955974
-55.23702814141949
-41.47050943201783
-41.875288331669566
-43.8041194073676
-40.20623674491757
-50.06647656505959
-82.93806914216073
-114.56955015381828
-103.4374967052422
-57.063021900331286
-10.768594665452591
23.875700211146587
32.106257288166255
18.263334514485575
-6.829997532050985
-22.62048606475347
-9.600529291474539
7.132144767983897
1.1229626031394062
-22.69104248627108
-43.079245467956994
-51.902173318609584
-41.50630370886953
-14.378976463766799
7.970555003720235
19.59092128995105
13.000786994394407
-12.22784010334013
-38.711573780860185
-56.08435846704211
-67.76009747956383
-82.67818195674927
-101.03359445058261
-112.869588742952
-106.61014570175429
-85.59276842193609
-64.129161391134
-42.52346417516951
-10.527379471845805
27.05819980117826
56.4274806454323
74.48086996787549
83.58970586144211
79.34732700637696
64.36783995653124
61.74472229631542
77.05267358185934
90.75823673372192
92.94912959245693
86.47248326221246
79.64245174373418
81.59750731673964
94.9172054149495
108.2095978745125
106.73440626509758
90.8627567901154
67.57637434128783
45.124316855120156
36.71787091438534
44.12182082394474
57.983292158497456
72.32758858712175
82.07963289224668
85.63268389375366
83.2199398426964
73.27331839566935
55.138790507513356
31.013477591707254
4.2866526799115725
-30.962670390025245
-75.91976793922315
-119.4957650311881
-151.74446834240786
-160.91758640131522
-143.5837378416258
-114.26395594878237
-91.15872133438783
-78.93629253905708
-74.91651233359907
-79.9853891685094
-81.54147579848858
-63.564716469139725
-28.84803536607935
16.702971198139682
65.32802526097579
105.29242910244342
130.7728971204377
132.58052133481877
105.38658747079455
63.20771127702803
19.258317126589862
-20.226327496400625
-35.718834551309335
-23.6499345976891
-9.15123724184553
-4.087537381443902
-11.389530189715575
-30.595196884339693
-48.80500862378335
-56.95619791847589
-53.34894100081301
-41.62233931355909
-24.489726771198377
-4.6795143519278986
8.801186556731059
14.128022993779947
16.82177476147355
7.480516119225882
-25.049000417180274
-60.55531143254923
-77.220814324845
-77.51490698733048
-65.58922630078582
-47.8313420967594
-35.60860171683843
-32.53909358055203
-29.347415663080202
-7.86752507249502
31.74538170803981
70.85839544391676
105.1352101288941
124.38548172401114
117.17077577590193
105.06074029807228
103.13441511084662
103.38376992534974
102.62996630432394
103.59211089758428
102.25000896027058
92.38548526716866
79.54251022135925
67.24418447584604
56.299996720529876
51.92017117655371
50.933265229557456
50.61622562305065
52.7503749729251
55.6863425736769
53.6409480488546
40.57786362615941
23.932458624311764
13.022660501893613
4.136193226493762
-4.629565248764587
-10.434800265609635
-17.5450833937191
-34.40562873252323
-59.65234294204545
-86.62265604585426
-107.95166472880173
-118.4671641521166
-128.562500961818
-145.92806903507122
-164.43289753980295
-178.42011297111483
-185.88074049709516
-181.02610948433775
-156.2277212913288
-120.91092862994796
-84.98558282515144
-47.58211509490024
-13.03064182272446
17.9995344092647
46.38869519853053
65.32070892406747
68.03411509096823
52.93697507397875
24.214499897720547
-6.334248356008792
-28.475139500507805
-39.256371660396205
-42.44099610786811
-51.73956830316073
-68.86497547731739
-84.10505288485207
-96.4877947699124
-100.07527137203398
-92.24566753436136
-83.30198887253066
-76.35208409016181
-66.11289725271135
-48.51361737801512
-28.742904175180694
-15.410015734649868
-7.931716151155224
-2.555253817635411
4.731992873801837
15.197206580050409
25.16850534754651
32.231016405414955
36.81204343961592
41.592752674200526
47.18088951060281
50.97539574655764
49.090411989852086
40.324509814127396
30.484502522119328
22.26228940526761
13.401050820346878
7.062030264777451
5.451192127851736
6.074749781529979
6.325878863061744
2.5692763108426595
-7.103522560075845
-20.314679195688978
-31.68847671434293
-37.665872581021986
-37.04315418387125
-32.135290307789745
-31.34934412376066
-39.944422792303754
-54.724993486653986
-67.36892288813756
-71.23312924413094
-65.80307279931169
-56.30587869522315
-51.33220793843697
-54.59634493873716
-62.387315665029234
-69.95974707407203
-73.8765473249561
-69.64865274166648
-56.76048355106019
-39.302748827760134
-20.578925762375068
-3.8069169202020916
10.713591185037762
21.641631967017368
27.126574581982467
32.021533801441684
39.54986518771191
46.824103570488255
49.086623721313956
43.808251519498825
34.314300395788734
28.14636509552932
28.389441640204925
30.726211916737764
32.905975198589665
33.30706925149754
28.50836478410104
22.51050331311889
20.041012571234177
18.35941465124588
13.343481521191034
4.559281470909152
-2.6089332699864567
-2.8873938206475924
6.897239669592132
26.015514892419056
45.74350643184107
57.04099013935301
55.392715867232845
47.8426656308883
47.02454573032056
54.822572741675394
66.27634638159786
75.16458533573748
78.788484531948
77.57523268613312
68.58713558583574
48.6280407444335
20.03018475139097
-6.541643931258393
-22.143674909035454
-27.356993956262254
-25.580185748868022
-21.879090966183956
-23.364415706440706
-32.301528919080845
-40.38421503091528
-36.07282359613734
-20.71252284324548
-8.507276364567222
-6.336217609084391
-9.816727273103428
-15.648961650280816
-21.073787342612835
-24.94696312111998
-27.62206868020092
-26.827593603866063
-21.345712062306163
-9.268117925746088
8.822932330441022
27.235824237780115
43.288475683151425
53.49985722599458
55.10522460321666
50.87094692403641
41.755478061831184
32.08298729933763
26.63087604382327
19.616423378812858
5.5006730548367315
-16.222880732555694
-44.89714443176062
-75.41515034996522
-100.81759622075131
-116.87431596583679
-119.70446786364765
-105.98470386186482
-79.36621848713924
-44.86407327149692
-6.5304108905213285
24.826175313585974
44.67870184283285
60.236717408364214
77.17194565922712
98.0312891442282
122.22110344156026
144.49807409999002
159.67107736619565
164.73686075299145
159.57414549937508
147.05425785370713
130.44002900736385
114.98232307433246
102.30381501995464
85.83713105271197
65.3422597159329
49.89169570105247
41.15164335364416
30.08153694956862
10.789506231557844
-15.712945786606001
-47.1473083412536
-78.67988696695284
-102.87659928014638
-111.95951383420972
-101.76462130072001
-81.27506339157988
-65.01045235084956
-54.313357884952694
-45.068776936673636
-35.812032990917885
-23.310521072610225
-9.630623721506533
3.521245871379601
20.51527140581723
41.78191691721087
63.329809539828474
79.89750776777672
89.36911147748249
89.4609094169472
76.53120163388485
55.65319326794806
32.89497340001624
9.60974404305
-12.361644740229135
-30.73394969246643
-43.67826684450528
-50.27908457079859
-49.15171226891227
-42.73012215641831
-35.8356429011802
-31.109526248211527
-32.01659487988366
-39.388418314486124
-51.756958353600105
-64.58902268095746
-68.62689526791122
-60.52209482545668
-43.39638428811638
-23.009025784361953
-4.939972361402671
11.800534376908164
28.78295192129152
46.91035277681367
67.84471043651088
86.75907403871882
97.09482200692509
96.62246724571494
86.67108156371921
72.26602786831089
59.66268780576587
55.24064461584845
59.53445051806086
64.9630327667811
66.03384867477548
59.24363946387406
42.699203641866106
22.333577996434265
5.0090594208034345
-9.563053301015124
-23.948131700884993
-38.82156196778212
-52.44798256100203
-59.19272646024379
-55.374313379119094
-40.92197857982452
-20.357955142118062
-3.5669043263140616
5.63959237361558
13.729237376625498
28.644044536180306
47.48955268869419
63.08355067574412
74.33925241979962
76.52996081997445
65.52371025200827
49.329508973935035
36.75753397423689
25.080944440351587
7.370807633123626
-18.49296784216892
-48.90044157276354
-75.6812161135908
-91.41987764929081
-95.0465886073251
-90.90859425109426
-84.68445898093762
-81.88697538235678
-81.6519605518926
-74.2990517524261
-56.56062509843771
-32.868636410455366
-6.578887594819819
14.928418528114126
26.493089010361185
29.934620689160305
27.779959310046248
23.59240614283362
17.88477272615513
7.299015316491246
-1.7423995199178508
1.363182685918727
14.738808278072117
31.280528028249247
41.39725367592805
37.98553058855484
23.735979593991974
3.0647264129747587
-18.62221355744984
-35.937752607302365
-47.286931335248845
-57.00887941202183
-67.67773502511716
-73.0017461384345
-70.16131755940386
-64.61907972454328
-62.47090543788745
-65.01809176405004
