AAD_Filtered_TADAS_FILE
AAD_BASELINE_CORRECTION: BASELINE REMOVED
AAD_FILTER_TYPE: BUTTERWORTH
AAD_FILTER_ORDER: 1
AAD_LOW_CUT_FREQUENCY_HZ: 0.025
AAD_HIGH_CUT_FREQUENCY_HZ: 40.0
EVENT_NAME: 202302061024
EVENT_ID: 13207
EVENT_DATE_YYYYMMDD: 2023/02/06
EVENT_TIME_HHMMSS: 10:24:47.00000
EVENT_LATITUDE_DEGREE: 38.089
EVENT_LONGITUDE_DEGREE: 37.239
EVENT_DEPTH_KM: 7.0
HYPOCENTER_REFERENCE: AFAD
MAGNITUDE_W: 7.6
MAGNITUDE_W_REFERENCE: AFAD
MAGNITUDE_L: 
MAGNITUDE_L_REFERENCE: 
FOCAL_MECHANISM: 
NETWORK: TK
STATION_CODE: 0139
STATION_NAME: 
STATION_LATITUDE_DEGREE: 37.400943
STATION_LONGITUDE_DEGREE: 35.445322
STATION_ELEVATION_M: 238.0
LOCATION: Kahramanmaras_Elbistan_Turkiye
SENSOR_DEPTH_M: 
VS30_M/S: None
SITE_CLASSIFICATION_EC8: unknown
MORPHOLOGIC_CLASSIFICATION: 
EPICENTRAL_DISTANCE_KM: 175.29
EARTHQUAKE_BACKAZIMUTH_DEGREE: 
DATE_TIME_FIRST_SAMPLE_YYYYMMDD_HHMMSS: 2023/02/06 10:24:57.2284120
DATE_TIME_FIRST_SAMPLE_PRECISION: millisecond
SAMPLING_INTERVAL_S: 0.01
NDATA: 13501
DURATION_S: 
STREAM: HNZ
UNITS: cm/s^2
INSTRUMENT: sensor = GMS+/GEOSIG | digitizer = 
INSTRUMENT_ANALOG/DIGITAL: 
INSTRUMENTAL_FREQUENCY_HZ: 
INSTRUMENTAL_DAMPING: 
FULL_SCALE_G: 
N_BIT_DIGITAL_CONVERTER: 
PGA_CM/S^2: 18.508
TIME_PGA_S: 
BASELINE_CORRECTION: BASELINE REMOVED
FILTER_TYPE: BUTTERWORTH
FILTER_ORDER: 
LOW_CUT_FREQUENCY_HZ: 
HIGH_CUT_FREQUENCY_HZ: 
LATE/NORMAL_TRIGGERED: 
DATABASE_VERSION: 
HEADER_FORMAT: DYNA 1.2
DATA_TYPE: Acceleration
PROCESSING: Automatic Paolucci et al., 2011
DATA_TIMESTAMP_YYYYMMDD_HHMMSS: 
DATA_LICENSE: U (unknown license)
DATA_CITATION: Turkish Accelerometric Archive v 1.0 - Disaster And Emergency Management Presidency, Earthquake Department
DATA_CREATOR: AFAD
ORIGINAL_DATA_MEDIATOR_CITATION: : AFAD - Disaster And Emergency Management Presidency
ORIGINAL_DATA_MEDIATOR: AFAD PROCESS SERVICE
ORIGINAL_DATA_CREATOR_CITATION: AFAD PROCESS SERVICE
ORIGINAL_DATA_CREATOR: network: TK
USER1: GuestUser
USER2: 
USER3: 
USER4: 
[...]
-7.106522314829822
-4.880802987952697
-5.923505789720358
-6.716470184510019
-5.964996197631422
-4.703227261295819
-4.820584940252955
-4.520040905478226
-3.766941702302377
-3.643908098111564
-1.5850766379791001
-3.4518263740705155
-4.900022765927616
-3.083125905219725
-4.435145917669695
-5.502847805471041
-6.043292400785726
-5.513527454003099
-5.531805989055102
-8.46292090581742
-8.524464959572484
-7.697063914726843
-7.47964887575566
-6.343779813170891
-6.4919754446832565
-5.013813894694539
-4.254926430370079
-5.000690783334436
-1.932144283757279
-1.3803653682517698
-3.8474619336340172
-1.5241207764462166
-0.3504061601666036
-1.406509596378219
-0.939782906510611
-1.3473275393169901
-0.8026200353392859
-3.316082142044407
-3.86300678681687
-1.3479439637658897
-4.679891328633478
-4.284012301775067
-2.5691265683491418
-3.959442397994845
-5.4766892434488845
-9.35440192394548
-7.025225795705103
-4.925640380527648
-9.156805805061945
-8.521293775002833
-8.53958618892826
-9.721706152507295
-7.538266817677724
-10.210777892810206
-12.209538086260297
-10.093767780366397
-10.676136874395919
-10.682084828460903
-11.450414135312052
-12.380583865278902
-9.454699853256598
-8.30174007975405
-9.97247988401722
-11.947124478764014
-6.441245373422056
-6.23615381338845
-14.1203459538752
-4.949085388846503
-2.3538498766778577
-7.807753375857871
-3.7472591442557563
-6.392073019805315
-5.6017186209197405
-4.741872339922378
-7.972899766218816
-5.952935984804879
-5.1650223506725625
-4.475824505237511
-5.676833802571579
-6.848169475706689
-5.116310358381238
-3.99870942908461
-4.004255327024001
-7.948652572299518
-9.29029871857306
-4.937112631997817
-6.531573492618533
-11.820570853042906
-9.91427347231378
-8.307953655149726
-8.408196948362807
-6.770598650297584
-11.933163462313653
-12.747181756241389
-9.081062434263167
-11.74290310496393
-11.556434710592972
-10.786838835177317
-11.961264427010272
-11.073517804441558
-8.955296710851309
-9.106439292831803
-10.392079316432088
-10.748386523993789
-9.104144571334931
-5.820163102542598
-9.03995428184622
-8.163908155112885
-5.5957875693000805
-11.749061755219072
-10.56922892102513
-6.902770113808593
-7.02632228362112
-6.4086073177759975
-8.087910877476121
-7.357984310251244
-4.967479587006928
-5.639208442819638
-8.761890754991308
-8.126335335698936
-5.582565114942863
-8.77035987417515
-8.180829765022436
-7.315217414408761
-10.446873905387756
-5.252765152991703
-4.341367395182898
-8.679160762755128
-6.549065616357766
-8.710875470982533
-6.274190662156184
-1.1264727719288388
-7.197112535887538
-9.23561281288895
-6.283951977685646
-2.6949869707831096
-3.268360098451648
-7.591525813396017
-4.073649405826353
-2.8151937344322033
-1.4203735399514363
-0.8786138993939085
-2.6813093416482876
1.5569946645816646
0.026724058731745392
-0.2488796594686512
1.1454529058532317
-0.7907300131157627
0.7038197196723489
-1.1429701985467722
-1.4640987764564932
-0.5659011885610387
-2.8713438482197864
-1.7726677727663143
0.01678122785613471
0.5866331975620707
1.0217796175547644
0.5441359650084014
0.5933349360494746
-0.8510727275571388
-1.3841802029043253
-0.13443438127728286
-0.1628503557897167
0.6678558033720777
-0.7760137095585612
-1.0638706317174882
-1.57781323326395
-4.4849007481774255
-1.3255694510744016
0.8853910689542858
-0.38252902088261337
-1.315878674417906
-3.1993290622165373
-2.382855322146922
-0.07264702595560014
-1.8321678691394783
-3.612650293339758
-0.40229529885386356
-0.7634861997983505
-6.505416310018238
-7.444822952147754
-3.980654418295943
-1.734242951092846
-1.7746951741520094
-1.9619215731756896
-0.9830995977023348
1.023155404890758
3.04333956651145
-0.2971690624040415
-2.7713015031903723
2.464852228028915
9.014763485202979
7.002718229950978
1.4739148568801412
6.33462924118893
5.527117563838355
-0.27059587244801875
5.530417448159447
7.573607296232468
4.328221990226112
5.7404854157668845
5.836513389618812
4.565905814104664
6.147204315329133
6.161402090497811
5.168327486776228
6.039831599371222
7.815977529339103
9.275800307311432
7.5923092080309384
3.4001968060868877
1.325880597915408
4.000723455211417
4.614037726535043
2.680819027404311
2.567198186589744
2.690799056118846
5.680495605491554
6.707330229815542
-0.4609871659531075
-3.757296587957968
1.4868582102931396
3.1548734977712662
4.554354778489594
5.87331419653467
2.945394839636316
4.607820433927201
4.216641603529864
1.7038302034723871
6.078311707215624
8.128132911258392
6.591902509360528
5.349370317740275
2.261280741184823
4.642196939246819
9.834722924078848
8.392277987365738
5.858694387340458
5.957224995843047
8.027116444127085
8.043693474059866
5.566032533646187
5.081735474312292
4.097257075704358
3.9341562816215663
2.6091897515353977
-1.0653125529506637
0.029730719921011232
3.0243007232667654
0.9621231770472308
-0.702027849621319
2.0641155774988373
0.47247182047483216
-0.6989653334476897
-0.9797724072388256
-4.991798956756905
0.18192388031539014
3.710257841782199
-0.3057117529838766
0.9306144721522495
1.2879830744338994
0.4107597693330043
1.4321277395033547
-0.5251105446694163
-5.993014472130372
-6.657998715946697
-2.0344387562569293
-0.8959736803121661
-0.3408895018014416
-2.660869330856336
-5.489472412617444
0.652465255340164
5.70563513045101
4.548399907033421
2.5583881599557485
1.7258600101326471
3.8411488434514434
5.115001657767545
2.941087496764217
2.508987226630288
5.208207859409241
7.145084707442483
6.581088337597306
3.3967960073938084
1.5245478103033323
1.8672082052655967
0.4702029772421443
-0.5374618104466533
-0.8699987379403333
-0.9366969710671469
1.980462938572845
5.168656976131937
4.421890786648665
1.058021206715912
0.5903068436723187
3.3012146091488135
3.3327712538610825
0.8527796520440565
1.8364373565118668
3.460295219892501
2.0962963598139708
2.6674069834190677
3.1195142565240057
2.6239624606432366
3.203619418120201
1.250301030473286
1.4600648068030218
3.3280861650252387
1.88059699991091
2.2722912950785776
3.1817968001733554
3.000739421474901
4.756237381817691
6.581205058479184
5.525270659641485
3.547654555309695
5.900409590394526
7.527094320808761
3.708320745037224
0.9925718641365885
1.8730124856695285
3.314738844949063
3.4812781999214066
3.8170374525634654
5.030925530480327
4.413839969604294
3.8607548992623166
6.963142102541113
10.496569223055142
11.615595211271016
11.814882481239561
12.590944688696883
13.453537950811926
10.972110081851705
6.017441089194511
4.5541485318568995
6.675686528559054
8.055440406979187
8.01223162368866
8.517783894163873
9.26269127833546
7.411417202980132
5.270674215368784
6.820202633064481
9.185873731220955
10.994529873320436
13.018874702610548
13.397897081258307
11.991905666260003
12.647715989251967
14.007477491234475
10.359832143803146
7.92218921001174
9.542158220947595
7.852226604213147
4.017415023027522
3.220040117365227
5.241805572062372
5.524776146195984
3.081612071823548
-0.1905385095201269
-1.348912715008092
-0.16041350228913331
-1.6118490270795731
-1.9113162295189239
0.17624140770604285
0.8927209773964335
3.523851348614603
4.849236118278668
3.842400131581404
4.905479598868822
5.504939041100378
5.825201055785569
6.4120839307467
5.661693554030535
4.170452118023286
1.826673751810764
1.2376986403128842
3.312580922988129
5.049871505860339
6.184698633956242
7.091052526785576
8.084993725563612
8.641540221357598
7.58897284628946
7.359544536682084
7.7893126861106445
7.682982765568056
8.49454736659859
9.396799492933162
9.887336672738906
7.338268957893984
2.652914793822715
2.308548542913665
3.6373461849775355
2.845411930012832
3.2995854072310067
4.7236960715872724
5.1552717648607675
4.208611944156217
2.445409485295829
4.0165489841050634
7.967885557450675
8.497917410963016
5.796276540082369
5.250561727823891
7.019624687584028
6.5536085936239905
5.6680270041930765
6.063401752534701
4.721144347745781
1.1672063883791977
0.22611175090695068
2.5163541171780937
1.91803993654263
0.44964106222333894
0.8900407151908052
2.7299041845588423
6.2923319296915015
6.5981478306532715
4.846773976491048
5.360502476043931
3.7853423192126945
1.2892176496110253
3.4774021069655543
4.772456389357329
1.1758827783443206
-0.08016701244687208
3.8869139579512817
7.448742154842239
7.897113479181552
5.448857267732646
2.1527203646607105
2.373120859123535
2.5973179778208886
1.6246344731505107
1.8607107947614359
0.6731020219592866
-0.6055271865108619
-3.0653080721684343
-5.916887607052171
-4.181951817232557
-1.8413834517730745
-3.4154331776513684
-4.697894205119214
-1.9470953702086538
2.4878884548566806
3.474842874652295
-2.9233326693506494
-7.430728030594454
-3.501542428304834
-3.3357068782970907
-8.591474911319743
-8.017202038366264
-3.2129857362376026
-3.798281276949005
-9.882635632468281
-12.693886111226377
-9.364764615502967
-7.803216099208856
-8.30099307310799
-4.745101780559818
0.19525204648137726
2.6454619756605444
2.1040182502218716
2.6917861801939473
4.59429440580299
2.97598482896579
0.11479060388056544
-0.35767638902669163
0.7700402786837054
-1.2216849706997
-4.278038591179317
-5.6840040198847746
-8.927145991302408
-7.219898366369219
-1.9539049956167918
-1.8645476228985782
-2.1875229898712103
-1.1320795008216038
1.39534881680892
1.877802978139748
-2.5134679877068784
-2.6761594579409196
-1.1066020456638461
-4.0176665037115935
-4.633474731259861
-0.07107109860598976
2.1148562856270723
-0.1346771773952861
-0.37133878753271393
1.4517778728663178
2.2534706972281477
0.6354382678957803
-1.5868914734475537
-2.365124225977124
-4.980176471491168
-6.362605888325128
-3.689084144443161
-2.203968078099111
-2.5903279157678125
-1.5324577307823373
0.881042887143813
1.1604914036527414
-0.8142059736607423
-3.0615690958176422
-4.934329741898405
-2.439628518097541
2.4663125979430927
1.383593142562482
-0.10935490714971595
3.978266543365748
3.3402414745817532
-2.71148874444105
-4.463207468080693
-1.2705586984574304
2.257839535514907
2.3128837684160777
0.544796845141052
1.5929209966669966
2.6829784910071277
0.6643318618092657
-0.2559294839160193
-1.1410520806299735
-1.6371453948591599
0.8052530519560096
0.8595561549106667
-0.6613581186172971
-2.265588561761146
-3.850490227200781
-2.1832664105755804
0.38352086891736226
0.49058113244120943
-2.5132585405826786
-3.5022058449808338
-0.6321337449527802
-0.2973724217607043
-4.342693415813053
-9.761678710337389
-8.50422578707241
-1.065718324415509
-0.19700550882020387
-3.448017734497794
-2.324626175818292
0.10210577272117426
1.029330386039899
-0.8806456368681769
-7.391582730713234
-13.366388177066572
-11.645117674530036
-9.090637845457561
-13.529155457022904
-17.381517061956984
-14.055756906982971
-8.023081801328388
-8.147579282502019
-10.248063958765247
-8.217467792987291
-7.704882725961955
-5.845892438090208
-5.269686900530728
-8.544103934109703
-5.587078152416741
-4.060003376915052
-6.667567711665199
-3.978282849681424
-1.9158280003380475
-2.349003899253079
-3.7478439544259414
-5.303971690463025
-4.3017699079213525
-6.256440184032561
-9.952377023252055
-11.499682257484007
-10.33817514731683
-6.344550634829328
-6.546456214462324
-7.717321048417887
-2.9821189443692537
-0.73001981522147
-4.879401354139738
-7.991730704931427
-6.966302424157616
-5.061460837702754
-5.661743737526196
-6.512007939759201
-5.300236040021332
-4.525702047449888
-1.2086307442583337
0.5240878909110773
-2.7038421759240436
-0.18302672810260673
1.645352892054936
-2.1013826735313414
-1.8216222644616438
0.454535343120689
-0.6721167588595592
-5.47148456880584
-6.273712017712718
-1.3018666112577006
0.7900517649777694
0.10074923986982617
2.6459036296078047
5.714081370820707
4.214709199663457
4.492256190393961
4.271493604962765
-1.572006393383997
-2.486933977744401
1.746765025599131
3.4955893668622102
5.713322107133069
8.651927473411497
7.9413406471943135
7.721933515490956
9.877025760091763
12.274500926826425
13.995591123140704
8.605759373239867
1.7505640597958962
3.3729127534457017
8.52021052692748
11.814542696332047
11.15597216888261
7.4456178796816825
5.766636213593201
7.829028601825988
7.6316172053478635
4.045431310157079
4.735860423104078
5.991160468296776
3.872020184949044
4.197711188156006
2.312406195917589
-3.2944208229909595
-4.67810898208523
-2.6988051722844055
-0.20015410320030635
0.7523444705906558
-1.0479562581715065
-1.6476671060360257
-0.4968587957368049
-0.6896307550711871
-1.1791428714712857
-1.0745631678716494
-1.782562956053924
0.26870029448170735
5.4822879682861805
8.024955502247128
8.279194005310776
8.616587463459938
8.079935394574626
7.469224854403318
9.10815804365193
10.469717786080068
7.886414397849858
8.819531494252537
14.379657304630209
13.690372665861632
11.785175941733032
14.253999872525478
15.176043430240517
15.894201561998209
16.64968255833251
17.127326169199215
18.3454713649236
16.423633360970594
11.948351962584956
7.005853175608652
3.0934659176310646
1.802633041022281
1.601888654579205
0.11839365321918746
-1.9181766412830539
-3.3408618843918525
-4.488864411969713
-0.6716930201744243
2.230075206131335
-1.1516313427692624
-1.0769945825177145
0.7795444989741661
1.1722016073838395
2.081864787415009
2.2711028824825346
1.4133701576184512
-0.5922017035343949
-2.51559758276719
-5.363220209181283
-5.774351228590779
-2.4699321321963814
0.6314089798504768
3.3129718340034375
3.574559150913872
4.203079857716886
5.963328913831265
5.8009436402975245
4.819363409799527
4.969315616637095
8.531345403098479
9.907541064775867
9.279825091968396
12.551919967939737
14.169874667912339
12.759589725730349
13.564477914593116
14.526293073373742
11.294923169093511
8.046163572421703
8.03276322347659
6.165229531552295
0.9740315876234598
-2.4025821848359876
-1.4215681636590145
0.578732569866165
0.46828909593643614
-0.6132765609949936
0.6997873533971021
3.2819207584493597
4.469777442985041
5.907134799057638
7.888809072867447
7.813224872824144
4.210111539970394
1.7794856494015985
2.4004022709874686
0.20013301686239332
-2.7190535938856395
-2.635302270325747
-2.3849981582934205
-0.7322524288107384
0.7712015672953347
-1.2427072321692787
-3.1587535841614414
-5.516401412315785
-9.172377575572892
-8.120442923086332
-4.071651431324595
-5.707344733763008
-8.384916697346892
-4.523848759475748
0.3524846641509936
2.453981040144287
1.5528757592267612
0.9987648055398373
4.476225744280735
5.780229643050979
4.098639547463239
4.20245813381597
5.461278083553786
6.439918881950579
6.823573861480204
8.107472042123396
9.952907808196962
12.553915721381776
16.861611712333673
17.36215544116315
13.974997555197191
12.366586760096379
13.872720157329622
15.365172476774681
11.11388779181337
5.365063258028595
4.39789080647516
5.038012855836596
4.051215665312716
2.7966751121957447
5.05761151851287
6.595440216598802
3.562931366544079
2.3184657612671797
3.932746154042173
4.959962277697164
6.466094039250296
9.10017937676658
11.64052959906216
13.251669983696711
12.307080462870154
11.326178542055553
13.901709322826488
15.945735828365764
15.553463214423509
15.126120299868601
14.652574446735013
14.126252918611847
12.043493447077525
8.685557947863897
8.859005157613096
11.307335419571306
11.441689384508269
9.720964170164626
6.803383717290604
5.054683056627357
5.384144298445645
5.335112583758151
6.075295506914776
8.216546269605553
10.18100704713571
8.700561532358895
3.6576213589056388
-0.709689248730604
-2.7666788454589413
-1.4252627623509107
-0.5998569614004176
-3.592965628579565
-6.8719563657569935
-8.333524924484829
-6.362185954985265
-5.418279078460106
-9.264933142060668
-11.649298422262756
-10.619979526457431
-7.6178844619244455
-2.5101836507212947
1.3571014236516967
1.406332054208979
0.25780090710504794
0.5692994792517682
0.7304798741302474
0.03820555998073371
1.6686322086171765
4.245394177969215
2.89516804616338
-0.19131536540389493
-2.8289736760484367
-5.291660303652699
-6.874469786380092
-10.412417842042236
-12.327000259207429
-9.49020232729178
-8.639052493724822
-7.440053998787065
-4.017650938121036
-3.366765963809022
-1.603475757557787
1.227362274997546
2.2140634691126926
4.103712147457416
5.154877110024939
4.393355453137432
4.388323123903902
5.348198894968638
5.577047883381585
4.168973852609066
2.9230490091229706
4.040531999877358
6.567648147843383
6.94453970430375
4.609933652413899
2.3446432307418275
0.34984021676159793
-1.3874860329209546
0.43566470935246226
3.217709505649793
2.1058640012992624
0.3428900119520631
-0.4037139327087645
-0.5278131225695941
0.04910834298312927
-1.146480486657097
-2.6114982357733334
-1.0399188038570821
1.9678009374368313
2.1923076057298343
-0.5713963528119995
-2.5336982556531678
-3.2109143599344296
-5.796762495809362
-8.45059665553324
-6.0215803239078065
-1.3292459278870414
-0.14905376334541304
-2.791297856891134
-5.189434732296659
-5.260172060496013
-6.130277532471012
-7.4725386341249145
-8.41045175545273
-10.560047734366847
-11.723533197093007
-10.873851889093615
-10.07459021880577
-11.118644113038826
-11.743624388831062
-9.987433607387237
-9.200419623433339
-9.568849376014036
-10.199568744737327
-9.679095430300901
-7.281596999610822
-7.646132669971382
-8.863552358096845
-6.508428607531367
-2.754096900841835
-1.1287870051125495
-2.7546055352291146
-3.4578121631849936
-0.8840256466593276
1.3142776797700457
1.09454117514961
-0.88360556254866
-3.9145531759616308
-5.452253132646071
-5.044524058025654
-4.70952107224549
-3.809304085826549
-3.7619652149369243
-3.6005887487356323
-2.5565129405904887
-4.260346710690568
-5.090577848847736
-4.361627296554899
-5.414032346016326
-6.68468267336035
-8.274155095751977
-7.832038090968943
-5.0554010496178705
-4.8015591946011416
-5.5470447132364775
-5.111100314356919
-5.501922843058538
-5.9525934605728965
-6.298481530250819
-7.616357191692806
-8.115093167719024
-7.010101975259618
-5.388576592948907
-4.094114684055252
-2.574873793049697
-1.098499998459554
-1.4722586686208217
-2.573635371704966
-2.3477875943057818
-0.4516859424369482
0.9698654733506995
0.25346856923748157
-0.3076334621112713
-0.03861304670602915
0.8954512165403955
2.9243241189696345
4.0877432775546865
3.894345576448474
4.365534119782802
7.103375358145336
9.843355474997656
9.501930086798367
8.116316627370393
6.930534499397195
6.009203774979782
7.041886422292586
8.68803815355115
9.193235470760058
8.148426090877077
