AAD_Filtered_TADAS_FILE
AAD_BASELINE_CORRECTION: BASELINE REMOVED
AAD_FILTER_TYPE: BUTTERWORTH
AAD_FILTER_ORDER: 1
AAD_LOW_CUT_FREQUENCY_HZ: 0.025
AAD_HIGH_CUT_FREQUENCY_HZ: 40.0
EVENT_NAME: 202302061024
EVENT_ID: 13207
EVENT_DATE_YYYYMMDD: 2023/02/06
EVENT_TIME_HHMMSS: 10:24:47.00000
EVENT_LATITUDE_DEGREE: 38.089
EVENT_LONGITUDE_DEGREE: 37.239
EVENT_DEPTH_KM: 7.0
HYPOCENTER_REFERENCE: AFAD
MAGNITUDE_W: 7.6
MAGNITUDE_W_REFERENCE: AFAD
MAGNITUDE_L: 
MAGNITUDE_L_REFERENCE: 
FOCAL_MECHANISM: 
NETWORK: TK
STATION_CODE: 4404
STATION_NAME: 
STATION_LATITUDE_DEGREE: 38.19588
STATION_LONGITUDE_DEGREE: 38.87385
STATION_ELEVATION_M: 1255.0
LOCATION: Kahramanmaras_Elbistan_Turkiye
SENSOR_DEPTH_M: 
VS30_M/S: 1380
SITE_CLASSIFICATION_EC8: unknown
MORPHOLOGIC_CLASSIFICATION: 
EPICENTRAL_DISTANCE_KM: 143.46
EARTHQUAKE_BACKAZIMUTH_DEGREE: 
DATE_TIME_FIRST_SAMPLE_YYYYMMDD_HHMMSS: 2023/02/06 10:24:51.7503440
DATE_TIME_FIRST_SAMPLE_PRECISION: millisecond
SAMPLING_INTERVAL_S: 0.01
NDATA: 12501
DURATION_S: 
STREAM: HNZ
UNITS: cm/s^2
INSTRUMENT: sensor = CMG-5T/GURALP | digitizer = 
INSTRUMENT_ANALOG/DIGITAL: 
INSTRUMENTAL_FREQUENCY_HZ: 
INSTRUMENTAL_DAMPING: 
FULL_SCALE_G: 
N_BIT_DIGITAL_CONVERTER: 
PGA_CM/S^2: 39.330
TIME_PGA_S: 
BASELINE_CORRECTION: BASELINE REMOVED
FILTER_TYPE: BUTTERWORTH
FILTER_ORDER: 
LOW_CUT_FREQUENCY_HZ: 
HIGH_CUT_FREQUENCY_HZ: 
LATE/NORMAL_TRIGGERED: 
DATABASE_VERSION: 
HEADER_FORMAT: DYNA 1.2
DATA_TYPE: Acceleration
PROCESSING: Automatic Paolucci et al., 2011
DATA_TIMESTAMP_YYYYMMDD_HHMMSS: 
DATA_LICENSE: U (unknown license)
DATA_CITATION: Turkish Accelerometric Archive v 1.0 - Disaster And Emergency Management Presidency, Earthquake Department
DATA_CREATOR: AFAD
ORIGINAL_DATA_MEDIATOR_CITATION: : AFAD - Disaster And Emergency Management Presidency
ORIGINAL_DATA_MEDIATOR: AFAD PROCESS SERVICE
ORIGINAL_DATA_CREATOR_CITATION: AFAD PROCESS SERVICE
ORIGINAL_DATA_CREATOR: network: TK
USER1: GuestUser
USER2: 
USER3: 
USER4: 
[...]
0.22335267439099188
0.9360901832261438
2.156019048642524
3.8392995323953176
5.285906741006543
6.277408159082567
6.568414592879005
5.445576457220141
3.1469080404727623
0.7877819585549524
-1.1291652263789766
-2.516418018643962
-3.129979295733149
-2.9096199634558824
-2.3336921872732437
-1.741109578465552
-0.9708975534687938
0.2209231686478937
1.5351535503345217
2.8908076957713336
4.681306259287971
6.85859157526203
9.218097494707274
11.392508414521373
12.777550713453307
12.911062267397652
11.920166656435295
10.26480921948968
8.407359003685679
6.916232883124622
6.070814480764159
5.791433610709714
5.666983036310766
5.296488075082216
4.540949920513793
3.6522154215668703
2.936029822028141
2.1122554281771495
1.0630975725857057
-0.07981503477572797
-0.8392779855183169
-1.063689977712882
-1.3293079913760484
-1.6624456388431224
-1.7985734034538068
-1.96178589429685
-2.0951944383312737
-1.715393529659695
-0.9134417433118215
-0.21130539709016752
0.21842723187978672
0.15831270473844358
-0.3959941532133799
-1.0123696428012177
-1.8691535869190723
-3.1775386387655833
-4.39804521682457
-5.097610668336356
-5.5330678198627625
-5.756041974084063
-5.52153723125471
-5.249747166913717
-5.3442284719794975
-5.687087024884553
-6.234980386756496
-6.958449616016063
-7.4650835033972385
-7.625969784790408
-7.699295727596347
-7.792942252646656
-7.761082570435432
-7.702431939024483
-8.164960374394488
-9.039949470533209
-9.82804052946799
-10.474351919241984
-10.66771733143272
-9.904045191323236
-8.663465617576215
-7.603733924541862
-6.537301556467017
-5.659092931101363
-5.287169545752682
-5.088765019254662
-5.008684824200913
-4.919183052344393
-4.174681037425027
-2.811418355123811
-1.2758639267264829
0.6490962516997363
2.682990175813298
4.072389988570378
4.78637686228847
4.7168945142142285
3.8919563075302035
2.9822372261505445
2.1617736985473477
1.3949040081434403
1.1195368054478827
1.1263244335278642
0.5434097137022502
-0.6027495487369844
-1.8046147012416542
-3.200443481608697
-4.767078719388433
-6.26105098517122
-7.65035764917315
-9.332195968990126
-11.748923683543447
-14.622149344939197
-17.339627583376508
-19.406834815750052
-19.997344207461385
-18.69331154968505
-16.313678250495222
-13.607417640455287
-11.024927260116662
-8.839298040841486
-6.9782769548498
-5.124370457502784
-2.945659421631221
-0.45163664945988385
1.6623223440955184
2.947900610713277
3.498557768226327
3.2043440087404984
1.8497410312844664
-0.2581529968526241
-2.2153581561001516
-3.1859644952891166
-3.2536819206930683
-2.69141753842952
-1.4183375261794924
0.2001334081035959
1.5688385892390813
2.269128575448692
2.225955034812604
1.501464185454269
0.14932995126530665
-1.27424593493614
-2.0314414586820244
-2.1721049388768914
-1.8081585215190183
-0.8362677971576449
0.21957127555203432
0.8481801080300072
1.067019366461589
0.8548054642561038
0.22270246483329895
-0.5573649717337835
-1.2131790445951216
-1.2833183237701498
-0.5036600693222325
0.7579767512709111
2.0571963616091624
3.1068162171254308
3.910405660047559
4.709785083936006
5.686031729275712
6.702883115745083
7.31010532688463
7.63764235895539
7.921623257497815
7.960222343396374
7.91855447357953
7.9223387085256185
7.60167804189084
6.96928147800634
6.222119415794679
5.362097044763025
4.323216004601371
3.0787004623647345
1.5830241175611275
-0.11920740385854271
-1.4917573014334138
-1.9406424414483538
-1.6540308372586874
-1.1927655512754778
-0.9132359577561747
-1.1244122185046717
-1.7786522524348298
-2.7372510799444822
-3.943735212768199
-5.164139032883571
-6.202486017084368
-6.886114935040431
-6.977863399401061
-6.507915412085584
-5.8742166252521555
-5.465183465897328
-5.51694345305062
-6.021916231273938
-6.648458029748046
-6.755290049917661
-5.866462106944784
-4.015514227180718
-1.204449958840739
2.14625536459247
4.91327125119349
6.440597625285345
6.963879635065923
6.821385762105561
6.250781820909071
5.8096826581795815
5.770602801263126
5.755942123566618
5.740914399589049
5.852850159281452
5.816293110317952
5.444505659802245
4.781552242345884
3.8367761285463255
2.7589079002696324
1.7780305466622799
1.1689206486345867
1.1235727866470824
1.5049239185211951
2.1964272706699917
3.5037489934318615
5.32689660175653
7.1078670900444925
8.477776304527552
9.223202343552098
9.421508942776992
9.61416547624079
10.10126340754794
10.90974712488101
12.097250912040728
13.291889025179891
14.141336965738354
14.689998542143565
14.96588623675368
15.173513720288158
15.284086784273738
15.30023509265938
15.374112484583845
15.583514705316741
15.920528213914539
15.900276476764974
15.081385183605267
13.50859254625209
11.364310069895966
8.896314024930156
6.583143549894925
4.8254371068525295
3.600427369742048
2.7012246274963774
1.8917230459565386
0.8639439187998673
-0.3000236394158095
-1.4638482701807387
-2.956917159491807
-4.895259145041035
-6.652903041431025
-7.841669934895413
-8.558962581442213
-8.915529794889236
-9.025952761458868
-8.991481058672141
-8.692271006883455
-8.225491164653876
-7.684282639943772
-6.624910202609394
-5.037101314225732
-3.629960490221545
-2.676156964013253
-2.0146421115843482
-1.7186866019947407
-1.45881875315441
-0.7855755951012595
0.06922816436735531
0.7811558462208203
1.400582765402374
2.3428694072287843
3.5857961751605623
4.649990873193481
5.066370308099545
4.703182744975668
3.902483774867102
2.9958308202619803
2.581658845275989
3.0081301913935556
3.697385014924933
3.9851936588728036
3.473426894490938
2.43264828832389
1.8758018314508837
2.0790345937079717
2.407662202173603
2.6431751239068726
2.9876058515998185
3.32117737806673
3.3109995799292258
2.6641965997917123
1.543686520584368
0.6132218666496271
0.21136503330491693
0.21502558917408338
0.61691181268955
1.5633078367452913
2.711447345088023
3.6767305492131706
4.361108087263564
4.905572121863799
5.5622949684074925
6.179191777352732
6.6681870530855125
7.338737043984944
8.269519050607771
9.121985858144313
9.564698119159234
9.35725312585526
8.484460205982028
7.145846334929531
5.5226451010660105
3.8693522524461574
2.23754807167877
0.767596182462677
-0.2919014279589271
-1.066753082923027
-1.9997120091707936
-3.557446799561774
-5.799531259864919
-8.345568396452158
-10.860007629583988
-13.17120498782052
-15.013234933689604
-16.290272537626688
-17.205202180143353
-17.710802782622384
-17.69987644120675
-17.23292242568352
-16.56683824889417
-15.97094929079602
-15.326493054065189
-14.578347380111609
-13.498813643040975
-11.63719878345122
-8.991474703669436
-5.865625357068663
-2.325447213102364
1.1992397790507778
3.7047635244191817
4.8242405060969515
4.922335818375141
4.07971022184448
2.475459198764405
0.8190716578257792
-0.3747336504612397
-1.1212193857185906
-1.5993752118156213
-2.048929656404152
-2.617164221723443
-3.4395305084249035
-5.036262696858761
-7.477429767844834
-10.07401000823623
-12.120158548101305
-12.877858270736374
-11.969562183503406
-9.556752970445205
-6.0404051129186085
-2.2884717367360623
0.8087570930671023
2.7045751955145443
3.1252752444136314
2.5649716750158613
1.6757293594313287
0.6828918619197649
0.012854771391536148
-0.06950875869578088
-0.0986493154287115
-0.532967688457234
-1.2848560439109045
-2.3602507009524345
-3.4821595187779812
-4.237890038989394
-4.7381935753534625
-4.86160262466404
-4.446774052868346
-3.978340909870419
-3.6611633196624687
-3.0635370351244426
-2.0231754778168907
-0.39080652036565144
1.9789027412507043
4.519432594430309
6.588210184672395
8.232210292884277
9.502011787558565
10.2746063447982
10.786719613791227
11.100195043485797
11.11036706289633
10.921513908411134
10.459539132473404
9.739191661369109
9.203638054343797
9.438530813319462
10.609236577827291
12.321319935345242
13.979856141258718
15.113691164456927
14.948608154804893
12.862036964926348
9.384853625387805
5.581728911844941
2.22431145278427
-0.12158227548839809
-1.0382450912482413
-0.526319861487451
0.8629072116682192
2.443660555592793
3.8026495127083955
4.905254146779833
6.08869485104753
7.505736613815682
8.610626349031588
8.815088400703742
8.04971641228774
6.464333846691567
4.4612757393244795
2.488545377358079
0.8655645204818667
-0.5269482944312163
-1.905260830601834
-2.9082123566002513
-3.3253962286703613
-3.5102937471685216
-3.9291903021996037
-4.616253934022188
-5.298633237894698
-5.583190275714717
-5.151359343870043
-4.154371170704848
-3.056044483486473
-1.8955442111615635
-0.3622090642770239
1.4202367549286379
3.152490928550386
4.937905457484778
6.997230388181601
9.044562584507279
10.875255445500457
12.620420342162065
14.091151489807777
14.926855766603504
15.11379993199327
14.885646320097548
14.204360580730715
13.300081373373247
12.624028980776753
12.01693950408437
11.476886456100695
11.262252885400743
11.300272654845157
11.504691302444721
11.891316693799034
12.516976596368181
13.078998923870037
13.324024251994146
13.431072901735561
13.313741157277128
12.741480505204459
11.713352701446095
10.280568103933104
8.515764229930022
6.7716258109092955
5.22335342504423
3.8913494408565388
2.861311467855854
2.251961910421975
1.7083164659105554
0.643948241235741
-0.6500780075198843
-1.6186054502763647
-2.4306792691734302
-3.3008920975501272
-3.9261257116220523
-4.227351422950211
-4.367053123922916
-4.179774541442033
-3.6833194747517264
-2.872314534596484
-1.5847272391769194
0.2496340014598004
2.5912853735151407
5.353901888301996
8.11763405412522
10.318311802536272
11.775298018375016
12.527802312976904
12.826000522148707
13.06884634286534
13.427008556489298
13.720010926762358
13.941614116474248
14.111711196293788
14.149114773616585
14.371807359069917
14.830994866712057
15.091287408485497
15.249413850438646
15.645036512222491
15.97358817132923
15.947765454820045
15.68367581883365
15.241192110089276
14.758522378971184
14.307635725913388
13.682718520504205
12.910400086605103
12.03394252897296
11.023202591829435
9.894735638622327
8.809313290848856
7.91747061350379
7.27732637855883
6.792297819057626
6.321814825725098
5.916015355896515
5.597769681942274
5.131913146612603
4.1647509760555055
3.055999350487417
2.172425779560758
1.3764090620109244
0.28789958475782523
-1.5342047350344552
-4.034120132039391
-6.914841496757772
-10.17074326776609
-13.55144824517331
-16.503803287009326
-18.81517745350853
-20.520853526423036
-21.55761799867553
-22.11156339152822
-22.46534075848947
-22.65774916227009
-22.798674402735642
-23.0813045583309
-23.55057895641225
-24.160982686087475
-24.927392334639727
-25.494298484536273
-25.293855208454953
-24.324401397413443
-23.190565644687723
-22.204000920536313
-21.32989179785953
-20.711509717728077
-20.510960594022695
-20.510821535379478
-20.593549866454016
-20.809654598490965
-20.64521588050894
-19.550571743029938
-17.497287509788777
-14.775074923463698
-11.7385780815091
-8.730572979688453
-5.902711935378914
-3.3842223282186454
-1.2793803987589045
0.2814922203127921
1.4759214256508073
2.640292358162991
3.4936488620647808
3.7533570187702745
3.468194295003331
2.612379693814412
1.194934312948277
-0.750214305846907
-2.6835856584456423
-4.402973328677664
-6.038693276644177
-7.2294746562164445
-7.555181914988697
-7.480465984904477
-7.658530854737446
-7.897623312015568
-8.158848381438633
-8.824470657030087
-10.092735929632395
-11.629457806250716
-13.143235150113389
-14.427482311222635
-15.060884455544452
-14.987165348965677
-13.964546675489945
-11.933219941645993
-9.297597659282095
-6.206923317124097
-2.6296830113599583
0.9074870954613944
3.8762267656754767
6.328463540099267
8.174623458215809
9.35082478787436
9.787300798970197
9.530578574906274
8.530074015870003
6.610125322450367
3.917563266112095
0.9649620316092623
-1.6955874959293227
-3.478755723440197
-3.7256796438069277
-2.5662409943839686
-0.598633009705394
1.7389388296616477
3.828414820889989
5.139449134283231
5.765832442683335
5.972335287910764
6.140659666499517
6.611182708856927
7.236847826785719
7.938803637440891
8.388081913079727
8.561215303179637
8.27059294078978
7.2909946628405
6.0367318239748
4.701792051837295
3.2784084782632066
1.861204389365962
0.44308245912616817
-1.2299073828411398
-3.1055591961793008
-5.009287795288836
-6.747079660150894
-8.15657374570094
-9.249469785037025
-10.206258728763697
-11.154040497782143
-12.295060846866102
-13.902153922012634
-15.775159117016742
-17.862194115190736
-20.40588673159718
-23.1316761294323
-25.313336166994446
-26.6936599150512
-27.50147807676826
-27.912670691113465
-27.691816270778013
-27.167363257026174
-27.137955955563005
-27.153655225961405
-26.722171678766895
-26.506650077605002
-26.651594163373307
-26.75300212427747
-27.098049222322402
-27.808790733504722
-28.639094393571686
-29.84285260324071
-31.505911058866342
-33.05048858656552
-34.35804452051968
-35.60573409673498
-36.62357540153353
-37.507170490625164
-38.13612066662353
-38.13535276612213
-37.34113518308122
-35.7148192926238
-33.4113469884189
-30.732618102739906
-27.845681022037812
-25.276203622461587
-23.519049964689415
-22.04629726461167
-20.11453498155466
-17.44244558159829
-14.07326899599439
-10.15127310118696
-6.312699836801599
-3.0445764932347146
-0.4157525960398446
1.5354799866446056
2.9957106977211656
4.045796435184141
4.728345938589913
4.984472450951235
4.936050740833124
4.91111555541684
5.430684725715579
6.812108782638163
9.086492429089555
11.911906858193541
14.51729066963363
16.769269691571616
18.473729192850406
19.18880294866354
18.789432864052486
17.291523939269634
15.273641955656187
13.246319505245086
11.880444715240554
11.742683348415182
12.143140201065563
12.640097798694189
13.180895299463964
13.69993006721376
13.822506105019395
13.194829565466796
12.612347669296945
12.789113446056186
13.621621820278126
14.995669589062777
16.72341183013367
18.002147807118703
18.836888302950413
19.468057747825576
19.020683615630713
17.652519594299225
16.277913136118183
15.495704548637175
15.334154204726369
15.642971262697483
16.49452080416728
16.957409082487928
16.681597503709906
16.405727731383625
16.345479219089654
16.167333248103905
15.969303001748864
16.16003582601668
16.95432507663429
17.798031108586997
18.248442330983274
18.01876727982543
16.715263796702086
14.347537480311285
11.130430334823252
8.207330908534226
5.609612309833025
2.564638631585673
-0.15430096354958003
-2.2567348831489085
-4.667928293738928
-6.740449813751572
-7.327442150676624
-7.514899859179081
-8.026163337179737
-8.28856485785376
-8.943532155717007
-10.154356223597917
-10.618472754759953
-10.242104052486205
-9.678251962698413
-8.588937635960741
-6.732143935070945
-5.095008543684016
-4.072629933575532
-3.5954918386410752
-3.7844901300682796
-3.968028348756557
-4.200159918465766
-4.906737801322042
-5.706831647060344
-6.30397846878214
-6.918119556350169
-7.052382640088743
-6.105367826024902
-4.299994340922819
-1.82806923968794
0.9955381910043419
3.27742090672916
4.7864347948076365
5.814270285405297
6.25023544143087
6.035486549349183
5.866254652612015
6.657821525021325
7.753591392119218
8.238609437923683
8.377371543592115
8.19014100375775
7.430228078811073
6.596954382278729
6.131716968840228
5.803282375964496
5.809179459584342
6.593217497928064
7.7961297149650814
9.002649655146294
10.014478073119724
10.272461176997368
9.935993914452531
9.465493743942927
8.916443369474885
8.821510623168587
9.336119318162718
10.199991851107356
11.30410304095532
12.66931755860923
14.08261895885097
15.558353489058831
17.157550052361483
18.442584934260434
19.588230600135308
20.91155455205641
22.13231672827684
22.94208509344066
23.16970110065591
23.459067326476912
24.144406274495438
24.182595058863388
23.956447701563558
24.607113213308345
25.523856513267695
25.96483941108534
25.896702932472394
25.125628693521527
23.89967331081612
22.961001861778964
22.863365536680444
23.127048633207668
23.770914316922727
25.287350837825326
26.68113295420858
27.869167454210636
29.727195977942767
32.03342389983169
34.371983994993364
36.341439585464215
37.58996766952447
38.07758497394312
37.97584248253814
37.44172251291359
36.472371196900454
35.5046824260138
34.69125581456185
32.974433605833696
30.36934124040259
27.6442126794616
24.619286804730834
21.364470815982248
18.36373879970727
15.504365018394507
12.352701646180197
9.609723343507225
7.594317678538127
5.549701594444519
3.0813074262819478
-0.025253634134140633
-3.1039613221191007
-5.031638694959066
-5.940525652739861
-6.271389982427959
-6.272594536278204
-6.528730235045931
-6.984052752236958
-6.684706553880029
-5.914176651486216
-5.515002364031233
-5.072805395222569
-4.434743023036842
-4.192769398769158
-4.469804513854083
-4.963137855970166
-5.321952685657308
-5.8798260201107855
-6.497032625602798
-6.577227601625687
-6.86570512670226
-7.955623572049204
-8.881168966814743
-9.048538838324868
-8.647228835509768
-7.566350072981733
-6.381523940372973
-5.256448473351056
-3.8395170649695802
-2.806531789997116
-2.4817599543304407
-1.9823891368094144
-1.2419691937928927
-0.9383164748907337
-1.0335982004607145
-0.7874779577120283
-0.17889230809073967
0.4554607625504141
1.7012017577925194
3.481718550200591
4.95363988987821
5.877962712418302
6.273005516016601
5.7996844795294455
5.086176881911681
4.743637074738141
4.386931768939385
3.9988251115727103
3.882222408597674
4.0202917906668105
4.498302504579531
5.832785187299736
7.60032575731392
9.781008452611767
12.553121313013332
15.208804381398084
17.226109580494754
18.62756733433753
19.944377831298024
21.075066024903933
21.909567233522615
22.806329079681927
23.456632386092274
23.69905135148538
24.052187583162617
24.12984499733496
23.690579006818655
23.164707323938067
22.91425374115291
22.766704905511784
22.442020743020382
21.768562184931135
20.973649899320797
20.3217396850783
19.218431500816745
17.377803343678995
15.688630585403176
14.607530081024018
13.585023232094542
12.213417336139477
10.72965990614963
9.015560590824117
6.64702613363634
4.080472682151083
1.4259435396194284
-0.9998010799027497
-2.800183810666731
-4.287643133021862
-5.948621461426554
-7.478879057495616
-8.479545876199
-9.829686184735815
-11.437624213341513
-12.407316242437442
-13.01955284739686
-13.695805528975484
-13.97128195170035
-14.16627901419097
-14.886937229688419
-15.002785785112135
-14.687930370785093
-14.925458861985687
-14.984224158387502
-14.408683465231597
-13.801565433225528
