AAD_Filtered_TADAS_FILE
AAD_BASELINE_CORRECTION: BASELINE REMOVED
AAD_FILTER_TYPE: BUTTERWORTH
AAD_FILTER_ORDER: 1
AAD_LOW_CUT_FREQUENCY_HZ: 0.025
AAD_HIGH_CUT_FREQUENCY_HZ: 40.0
EVENT_NAME: 202302061024
EVENT_ID: 13207
EVENT_DATE_YYYYMMDD: 2023/02/06
EVENT_TIME_HHMMSS: 10:24:47.00000
EVENT_LATITUDE_DEGREE: 38.089
EVENT_LONGITUDE_DEGREE: 37.239
EVENT_DEPTH_KM: 7.0
HYPOCENTER_REFERENCE: AFAD
MAGNITUDE_W: 7.6
MAGNITUDE_W_REFERENCE: AFAD
MAGNITUDE_L: 
MAGNITUDE_L_REFERENCE: 
FOCAL_MECHANISM: 
NETWORK: TK
STATION_CODE: 0118
STATION_NAME: 
STATION_LATITUDE_DEGREE: 37.03616
STATION_LONGITUDE_DEGREE: 35.31843
STATION_ELEVATION_M: 76.0
LOCATION: Kahramanmaras_Elbistan_Turkiye
SENSOR_DEPTH_M: 
VS30_M/S: 946
SITE_CLASSIFICATION_EC8: A
MORPHOLOGIC_CLASSIFICATION: 
EPICENTRAL_DISTANCE_KM: 205.81
EARTHQUAKE_BACKAZIMUTH_DEGREE: 
DATE_TIME_FIRST_SAMPLE_YYYYMMDD_HHMMSS: 2023/02/06 10:25:02.4848320
DATE_TIME_FIRST_SAMPLE_PRECISION: millisecond
SAMPLING_INTERVAL_S: 0.01
NDATA: 14501
DURATION_S: 
STREAM: HNE
UNITS: cm/s^2
INSTRUMENT: sensor = CMG-5T/GURALP | digitizer = 
INSTRUMENT_ANALOG/DIGITAL: 
INSTRUMENTAL_FREQUENCY_HZ: 
INSTRUMENTAL_DAMPING: 
FULL_SCALE_G: 
N_BIT_DIGITAL_CONVERTER: 
PGA_CM/S^2: 24.472
TIME_PGA_S: 
BASELINE_CORRECTION: BASELINE REMOVED
FILTER_TYPE: BUTTERWORTH
FILTER_ORDER: 
LOW_CUT_FREQUENCY_HZ: 
HIGH_CUT_FREQUENCY_HZ: 
LATE/NORMAL_TRIGGERED: 
DATABASE_VERSION: 
HEADER_FORMAT: DYNA 1.2
DATA_TYPE: Acceleration
PROCESSING: Automatic Paolucci et al., 2011
DATA_TIMESTAMP_YYYYMMDD_HHMMSS: 
DATA_LICENSE: U (unknown license)
DATA_CITATION: Turkish Accelerometric Archive v 1.0 - Disaster And Emergency Management Presidency, Earthquake Department
DATA_CREATOR: AFAD
ORIGINAL_DATA_MEDIATOR_CITATION: : AFAD - Disaster And Emergency Management Presidency
ORIGINAL_DATA_MEDIATOR: AFAD PROCESS SERVICE
ORIGINAL_DATA_CREATOR_CITATION: AFAD PROCESS SERVICE
ORIGINAL_DATA_CREATOR: network: TK
USER1: GuestUser
USER2: 
USER3: 
USER4: 
[...]
-3.1819779403853183
-4.158720879715291
-5.007238139660133
-5.632800401388203
-6.033973223267661
-6.764692912394678
-7.790322004186728
-8.224151213924692
-8.524419261626617
-8.771522670762163
-8.866527679064392
-9.329301066809093
-9.598277302113775
-9.526245149938537
-9.504351640528514
-9.792354332117078
-10.079346544090585
-10.320766195816493
-10.590227974543588
-10.630057992889304
-10.77971194182978
-11.293876701337764
-11.718652234069259
-12.01949806340484
-12.437282997769378
-12.937686281615573
-13.539383474980147
-14.068750629395021
-14.374926999259007
-14.503705300197632
-14.684080223508293
-14.92576368790249
-15.118432987301116
-15.233170900571068
-15.26878660553829
-15.20904636298637
-15.1433110686721
-15.072739030797907
-14.974759717119325
-14.99074898108608
-15.179319955459508
-15.29221354758479
-15.096867736961388
-14.816571321509919
-14.695309732181466
-14.758328630648776
-14.688701079516605
-14.279932334649867
-13.82844673611056
-13.43617342443555
-12.995562874876493
-12.69314642305466
-12.418603372008226
-11.981548808875182
-11.459320442182955
-11.053063258743192
-10.702780690237889
-10.37239796934775
-10.326161293723375
-10.129386766847432
-9.74121797497658
-9.609747831128804
-9.772310228803711
-10.135674655245712
-10.49586065273972
-10.577042883426424
-10.389844030625918
-10.492106141040372
-10.904767496139629
-11.203533914630544
-11.381199142057843
-11.454958299623753
-11.516821829009222
-11.750603292772318
-12.252792836098502
-12.853549431614566
-13.128902717017727
-13.146949806707804
-13.175666892587385
-13.306492988644377
-13.591065205719064
-13.75562754733114
-13.614270709652827
-13.346452130388796
-13.10290257605086
-12.881170132198946
-12.562786822939499
-12.220759947768098
-12.033224227722917
-11.964091699334315
-11.872748548590705
-11.673726587879777
-11.314493315332696
-10.877480808306336
-10.4969033644822
-10.078595719014514
-9.708135560706895
-9.446655699069769
-9.223552159526887
-9.096632392008502
-9.016405302262502
-8.931541992470295
-8.884710751829726
-8.989395786803469
-9.045632649967173
-8.90667515032726
-8.743626319985019
-8.490342885852886
-8.347636047795321
-8.241265631676391
-8.02822193225153
-7.756416097109939
-7.54659018022449
-7.405540531726106
-7.251370738030069
-7.3497142884534155
-7.243972831970832
-7.027770896062233
-6.985080191307984
-6.937261095046096
-6.885778434805025
-6.854017475018333
-6.97477046847218
-6.986225347516789
-7.037154163186902
-7.212383501717836
-7.312397575139672
-7.509310030560509
-7.644655485686125
-7.804604333668818
-8.103724338505634
-8.402781148275839
-8.79954123413592
-9.23908833888845
-9.567624697660483
-9.821057328846615
-10.140224012294647
-10.476050507352412
-10.74845319390017
-10.916719402333522
-11.06257651278581
-11.301781214789619
-11.475448512990067
-11.451692395916108
-11.290954253266644
-11.19931160837854
-11.23616232096812
-11.438158916621099
-11.620255615335683
-11.616700889924747
-11.558103849664649
-11.585103671850028
-11.691484757931812
-11.889206168930597
-12.250247750924478
-12.54014983077187
-12.826048333171855
-13.049689422642208
-13.33023847932066
-13.501485302080955
-13.868385338701984
-13.83174005103481
-13.831544899636034
-14.189541571227675
-13.791286918143266
-14.011971999707354
-14.185322274082392
-14.068040123216347
-14.059575765320803
-13.979002126189467
-13.988500278891445
-13.951698196173538
-14.08042240669509
-14.171016639768471
-13.931255699253597
-13.523064217656147
-13.108788471225935
-12.537539618396108
-12.194804791545312
-11.84049357940555
-11.353380104427012
-10.841069206337407
-10.334982744289837
-9.897640848663825
-9.508911473091914
-9.036786735131393
-8.402681180080904
-7.717889539907002
-6.9377584222152455
-6.090188539949356
-5.281288038273209
-4.428626049407529
-3.641624555924868
-2.9474908294312336
-2.229769401352381
-1.4919267145344508
-0.6622462721420955
0.14170435906294518
0.9445364174101993
1.7938052567250833
2.8790032045970837
3.9057390982087945
4.617808142110948
5.095637279937796
5.473173455976404
5.844059494198922
5.940757044467454
5.712904453284304
5.291882645510097
4.913335173225192
4.748446896549981
4.619554261963796
4.403606506066431
4.159129441883248
3.727068903579634
3.1655787121865826
2.486067724945571
1.9426790046920432
1.6354805737983085
1.299947349960639
1.1082689458421415
0.9689923610951285
0.7747822198852065
0.7104217253489509
0.6809250828490803
0.6217080598322114
0.525717375065054
0.328282038649599
-0.02497109638013851
-0.4007842048170322
-0.6388949662793201
-1.0060635228771795
-1.2816631032011212
-1.344456329608201
-1.7943779190788685
-2.1426148471017004
-2.0214605965475902
-2.8551494654799594
-3.368486837343669
-3.642668852028947
-4.696206682116342
-4.831585441300006
-5.214335710915152
-6.0455237106579895
-6.505037032776414
-7.001591315953615
-7.641782550528627
-8.124166942417519
-8.468562018962032
-8.718899688282653
-8.784479308395435
-9.012677640902242
-9.173246366371417
-9.30326504551035
-9.44283550065545
-9.454243328085006
-9.555393923203797
-9.759656397776338
-9.864882607709074
-10.065629166286785
-10.302460849412274
-10.486088535853213
-10.93826569543549
-11.548652787946985
-12.015177482521784
-12.531289069270475
-13.083393665781605
-13.804603821133707
-14.744598326351204
-15.462320670399679
-16.392592902802278
-17.39372115913329
-18.19208331943013
-18.99612551209028
-19.45955888789857
-19.99814542964132
-20.440480099611825
-20.780542897767663
-21.121436363499267
-21.04889859439472
-21.192926442790316
-21.387294398182046
-21.437120663518666
-21.481818761481122
-21.322327396906385
-21.11498987290714
-21.031563526911405
-20.899746938375063
-20.65781660464146
-20.565396743333835
-20.498854092768536
-20.30674115054042
-20.212049245402618
-20.102330921943462
-19.9596011182616
-19.939943943679083
-19.970789372596652
-20.033109378278166
-20.079274946932525
-20.126451568955254
-20.229760149362885
-20.334549764445537
-20.36053205780774
-20.321528240060566
-20.227217676955213
-20.25703389147786
-20.376901873096408
-20.542448618855353
-20.778496539443836
-20.827016414631103
-20.804298025800154
-20.847894200206625
-20.86806879572357
-20.825376419874914
-20.636915522747064
-20.28748628831012
-19.775267702481536
-19.2008967254402
-18.61125013816587
-18.115196854322015
-17.529918982035145
-16.75751427423238
-16.104567797354964
-15.531711541424652
-15.006039572846916
-14.730527969760281
-14.394197231200687
-13.849318754285624
-13.624153904163544
-13.268389666859798
-12.809374096071979
-12.68892366169066
-12.497330572625282
-12.173989653897122
-12.141895854432708
-12.164202611752856
-12.06254116170606
-12.012102285903278
-11.811813413776141
-11.5020870182201
-11.269322650122806
-11.24084636361136
-11.217806885688002
-11.325910403372825
-11.417438986497563
-11.379542977355634
-11.416068106093734
-11.565776935360066
-11.758553558653688
-11.908396785153668
-12.011373051916342
-11.94047061838829
-11.872550464185228
-11.827160111498225
-11.746297863592936
-11.54390087573703
-11.289565098869376
-11.022514597471895
-10.656378586003516
-10.25281590540736
-9.841573005604959
-9.302067075319158
-8.677477260347116
-8.15013620854479
-7.573408578059143
-6.911066460306752
-6.163763290577969
-5.341774033684666
-4.526604308954173
-3.6940545673910767
-2.835424502158288
-1.9883082046000673
-1.2832585308497735
-0.7003720750270626
-0.0801552095580265
0.5721078224081556
1.291427889152745
2.0335909468176627
2.8274136992974164
3.5360900628374083
4.140235972712889
4.820466578903958
5.443838366570097
6.1691412161142285
6.878727897253296
7.429555605821608
7.938729789995438
8.425548419125807
9.103968990293115
9.868515570204773
10.406301442649182
10.812416060427847
11.259459639348337
11.834091033122473
12.475147871907978
13.044486415246613
13.425227893544186
13.712020671587045
14.118276043613506
14.498526732345042
14.909782948902967
15.328656050942389
15.624181655864765
15.801292176132248
16.120499515456082
16.5941912364039
16.950834312437895
17.299938370467842
17.45481674187291
17.61846917874822
17.91892940671153
18.090929760977275
18.395957139765198
18.622206550215314
18.676559780150026
18.964823388083648
19.221425854352855
19.367000005523213
19.455412043845882
19.422039581423636
19.43223245613293
19.467543750673713
19.46256573163919
19.516635733000737
19.51429870100832
19.439908403115062
19.61139215491262
19.657669599465663
19.697745557428465
20.097033618295104
20.399967113654725
20.697498874185392
20.885685833500478
20.829401013921363
20.947707891468752
21.127355225048714
21.196868844858596
21.116479191927212
20.913386809344168
20.696315436444234
20.590214215917523
20.536243513779613
20.309030654612908
19.992380353464917
19.617906952450205
19.087372999163076
18.51874171460013
17.85613428420433
16.975891037875734
16.014489052383265
15.11224680176359
14.228410213637476
13.329740221903066
12.601082924773127
11.804249708293227
10.955055920252267
10.234773077521576
9.606250843699035
9.17637570513158
8.819610000231984
8.269246149839315
7.60650734439633
7.214616547534958
7.079200767767778
6.875875993228026
6.417158220759528
5.895719598494749
5.737551435013523
5.983406926328066
6.218087119368171
6.269884453830087
6.406994060013431
6.88681798292847
7.602949009156324
8.064542101181454
8.126402395808766
8.225378847750646
8.63609424488437
9.22832302193367
9.53670520437448
9.522818463664303
9.511564221954503
9.734778422617582
10.183738470837763
10.41419732022658
10.208935667157808
10.024015800884495
9.940339417064376
9.911795062369416
9.765179840218494
9.2506736545503
8.862039152350137
8.710893612308203
8.458489898393527
7.951923876607367
7.427767600474584
6.89937358953042
6.808107875183232
6.862030317802097
6.635773013867007
6.375166687546799
6.167882935534696
6.347830451752681
6.449147502834222
6.278990734778103
5.970835714880817
5.537538830408584
5.327592628022014
5.33209928262093
5.042130701091396
4.5379347419617755
4.014989182262388
3.5645412499995497
3.2833297951515696
3.0456090351352922
2.747314553593043
2.418097240192271
2.254373978547193
2.2029291644211884
2.2319083616091655
2.356611081143133
2.445345920751542
2.5006071840100814
2.7399578958611994
3.200128633247118
3.7150581161589846
4.27162991759299
4.895098744126513
5.450671396661489
5.972528686614927
6.47860473131995
6.967148269171375
7.417570654052567
7.817019832846618
8.144957218830042
8.36966437930561
8.57846244735547
8.821815784900625
9.113709843463756
9.309753018592271
9.37055947282319
9.428575216718341
9.618651432579647
9.84399269190382
10.034784526958653
10.247186965232379
10.476001845919383
10.769712844773016
11.14442344311428
11.520331537767719
11.819063189798019
12.125590605135955
12.44634561150844
12.788430306456357
13.155513191354911
13.502627883559128
13.738465390622636
13.735666212916144
13.586286654038632
13.504235816007418
13.552972847722423
13.634172927120888
13.704111680841521
13.623291622902325
13.568011338925805
13.549300616796089
13.491698439200787
13.447152708861204
13.282085595312434
13.042244578758382
12.76697567117267
12.620107287066068
12.460554654832926
12.214889661680381
12.021639481249165
11.860605293001907
11.701543237552439
11.574254128996918
11.397764324619235
11.208165554295052
11.119094913931058
10.98076877939819
10.850791872354725
10.792553639289494
10.743613986118827
10.617459568707961
10.49681623362061
10.469433999990835
10.450974995505424
10.434170748361494
10.406631866139083
10.27630504021155
10.103726653559061
9.927739583257654
9.740659635777538
9.52986611674072
9.531228171995828
9.769500561691983
9.943014884679389
10.125636543307328
10.220895725038536
10.409073566994401
10.804015059701062
11.261490257080474
11.73337836787975
12.119249561707674
12.466833386160243
12.73823200255263
13.064048148579868
13.42196008143388
13.506820066399742
13.47327212994469
13.507586036727089
13.545383092021229
13.608515901986788
13.699291095054646
13.847213368661652
13.946331418201241
13.89172047659326
13.829807088478745
13.909626705264538
14.045594138191362
14.124781173263916
14.065693616948465
13.970643327411405
13.993432507274928
14.090568122308046
14.146827313667204
14.159651646477593
14.283454481265416
14.578266488878642
14.994234486555964
15.335543553698095
15.652760085330991
15.976509824476409
16.203702577053058
16.35246494996324
16.540286511836527
16.76763220186587
17.00957596694138
17.280178548386598
17.4984368327962
17.818000350043047
18.207554399108915
18.460793635585496
18.50795265359894
18.61108253675685
18.962907271388097
19.421314963437833
19.861327573090374
20.13275781902359
20.289204596584106
20.57470108507156
20.99987676015323
21.30713358595662
21.51636250278256
21.767378702696696
22.013340346010263
22.256560172306212
22.45353676941566
22.636433251637655
22.835279675183756
22.99361774873295
23.04778657961668
22.835540998666346
22.44427639732028
22.17359156319473
21.984595717188917
21.59795007125851
20.945938374736887
20.214742682874345
19.527439736651456
18.85822849595556
18.13339546415434
17.34042377987049
16.512090271804333
15.659242522451354
14.836726746211855
14.128203152967556
13.559676720523035
13.042859752893989
12.515633816677266
11.930862189278672
11.327550318971149
10.712867019241132
10.142316203375973
9.65047271952883
9.11433042315443
8.597020357639533
8.111089119005205
7.65836002457341
7.3284027060544386
7.133788781201691
7.073953125786183
7.101802613142789
7.14884681699368
7.174430476779388
7.186745468324958
7.165101938609078
7.085339206654245
6.997956324463619
6.9685745490951705
7.026593080928215
7.090400143315488
7.086313856091587
7.020039156272807
6.839632669051937
6.607254006088036
6.486991647047724
6.368175053507083
6.185999634688954
6.108605452934752
6.03368410842543
5.8401474517742376
5.709282196345352
5.566485497413204
5.332423877499385
5.074145264986811
4.884606132129245
4.810257069178463
4.85179840874923
4.993937100690358
5.079378520494355
5.201963485941606
5.456485941946899
5.777873058093013
6.136860547490406
6.544693925051302
6.987025988791427
7.445057087691892
7.916957829562785
8.427984747091799
8.853341739865455
9.204668078593999
9.564903329016651
9.853773112572323
10.086965597708254
10.246465699433912
10.310628598155064
10.371093951112236
10.455762959257514
10.505456959286613
10.550589448210367
10.480162455282224
10.374072806355528
10.340999762898589
10.243203918708044
10.11706658406891
10.006350670151571
9.865824270092322
9.682850795784757
9.432977716036334
9.162379380373983
8.986442117744454
8.982008303295753
8.958005216013643
8.791002865594358
8.633500955275636
8.490696432270171
8.30599275566684
7.988606737431629
7.63089779888258
7.403800404719376
7.3570061555845605
7.392451693853334
7.39001077588449
7.225928027547136
6.999467621449723
6.826549233310521
6.570291530890295
6.215365437084189
5.792739773476422
5.44550993808752
5.277622000076664
5.2821433092200065
5.207017997664779
5.165951489466305
5.248610019358303
5.264370517032494
5.377729492356618
5.588283279365088
5.810634176255624
6.076595004419444
6.2641729642894655
6.4627882875255755
6.574677354764038
6.769425251435052
6.999143759998855
7.100802249810252
7.18670039367637
6.997804940971529
6.780483122611225
6.595159853206861
6.426874417275212
6.509515714355222
6.5788174381627575
6.637001943279562
7.661320773297222
7.096478608884706
6.669492546554169
8.261141500550469
8.769966638891184
8.96765658774743
7.564095173125196
6.802444007279847
8.520925703253278
9.519676384919038
8.885154649308314
7.7609773376301625
7.432397039743796
7.117882079401022
7.076253318874424
7.54818751549152
7.135398824184396
5.894805022314724
5.098931852444694
5.44664181723837
6.195768944319045
5.751879577400426
4.783424258006533
4.848358564150046
5.329322738369422
5.3409897818866146
5.245063461150588
5.23411387068639
5.134570263313457
5.038457017102294
5.073025451462333
5.155043578303723
5.01455869248535
4.5628231989437635
4.078884487095529
3.7817950077842206
3.6467446946008764
3.328867798223254
2.677618450611333
2.200755256800733
1.9771220176591702
1.6552763569919136
1.3775156666791808
1.288233965928853
1.0219630673675348
0.6372719946938653
0.2933763698178168
-0.08818674623855922
-0.39766302071559556
-0.4474532534961369
-0.6658412460923114
-1.3269991562816952
-1.4017253218513148
-1.369390924340928
-1.8957717741646702
-2.3205304448665633
-2.345922251447188
-2.405019327513976
-2.5787967138616312
-2.4528611593166305
-2.6496752881283347
-2.8289888086541612
-2.790220474817469
-2.8402168294068786
-3.0048210014969627
-3.3060924078909286
-3.6468804044289254
-3.802169365036086
-3.5696947808094466
-3.4808066824614627
-3.475429375654509
-3.2705676771760896
-3.1106433832873877
-3.1018286067346583
-3.086900400141903
-3.036332760006213
-2.937790965433317
-3.0764834368467793
-3.4449185125330724
-3.6921004874266163
-3.822282272797308
-3.8839492122446755
-4.050549753891575
-4.347145420851525
-4.669398079469293
-5.113821162194297
-5.544488436523896
-6.001705201803638
-6.596872555317257
-7.106996040947854
-7.518683420172099
-7.964554311708343
-8.378033131762987
-8.792341498684804
-9.206900879071823
-9.696973869745314
-10.408094857875527
-11.256033486197571
-12.139515030928031
-13.00613890675307
-13.932019128093966
-14.736177945213486
-15.40853744788741
-15.93254130512737
-16.32500190422781
-16.642242909635424
-16.87755683411816
-17.063874060524945
-17.209631015654733
-17.404993319638244
-17.629532671018495
-17.824512928791112
-17.999298698452474
-18.12812849916475
-18.099817987149816
-17.998240730672773
-17.941495293673356
-17.913403888291263
-17.87104353034373
-17.751849944301537
-17.591840957102768
-17.453913201335197
-17.324949168994628
-17.231462755601676
-17.0633983267574
-16.943117171631886
-16.827909924189115
-16.671611755418315
-16.68746033619482
-16.84866986533907
-17.02757027081354
-17.222591221248376
-17.488411945924017
-17.8322961533974
-18.309013839435
-18.822524786032304
-19.274249770181413
-19.60024149634872
-19.872574916127885
-20.014284370645825
-20.001913342314804
-20.095832856744977
-20.226762455799168
-20.23710713673038
-20.280133707700323
-20.482622608334186
-20.781379011725292
-21.207365770281857
-21.60618920150287
-21.83507491662474
-22.041288655049033
-22.2254353021542
-22.339251888236966
-22.427785175256243
-22.488290677498664
-22.45364790101811
