AAD_Filtered_TADAS_FILE
AAD_BASELINE_CORRECTION: BASELINE REMOVED
AAD_FILTER_TYPE: BUTTERWORTH
AAD_FILTER_ORDER: 1
AAD_LOW_CUT_FREQUENCY_HZ: 0.025
AAD_HIGH_CUT_FREQUENCY_HZ: 40.0
EVENT_NAME: 202302061024
EVENT_ID: 13207
EVENT_DATE_YYYYMMDD: 2023/02/06
EVENT_TIME_HHMMSS: 10:24:47.00000
EVENT_LATITUDE_DEGREE: 38.089
EVENT_LONGITUDE_DEGREE: 37.239
EVENT_DEPTH_KM: 7.0
HYPOCENTER_REFERENCE: AFAD
MAGNITUDE_W: 7.6
MAGNITUDE_W_REFERENCE: AFAD
MAGNITUDE_L: 
MAGNITUDE_L_REFERENCE: 
FOCAL_MECHANISM: 
NETWORK: TK
STATION_CODE: 0138
STATION_NAME: 
STATION_LATITUDE_DEGREE: 37.704858
STATION_LONGITUDE_DEGREE: 35.723358
STATION_ELEVATION_M: 477.0
LOCATION: Kahramanmaras_Elbistan_Turkiye
SENSOR_DEPTH_M: 
VS30_M/S: None
SITE_CLASSIFICATION_EC8: unknown
MORPHOLOGIC_CLASSIFICATION: 
EPICENTRAL_DISTANCE_KM: 139.68
EARTHQUAKE_BACKAZIMUTH_DEGREE: 
DATE_TIME_FIRST_SAMPLE_YYYYMMDD_HHMMSS: 2023/02/06 10:24:51.0994140
DATE_TIME_FIRST_SAMPLE_PRECISION: millisecond
SAMPLING_INTERVAL_S: 0.01
NDATA: 12501
DURATION_S: 
STREAM: HNN
UNITS: cm/s^2
INSTRUMENT: sensor = ACEBOX/SARA | digitizer = 
INSTRUMENT_ANALOG/DIGITAL: 
INSTRUMENTAL_FREQUENCY_HZ: 
INSTRUMENTAL_DAMPING: 
FULL_SCALE_G: 
N_BIT_DIGITAL_CONVERTER: 
PGA_CM/S^2: 24.988
TIME_PGA_S: 
BASELINE_CORRECTION: BASELINE REMOVED
FILTER_TYPE: BUTTERWORTH
FILTER_ORDER: 
LOW_CUT_FREQUENCY_HZ: 
HIGH_CUT_FREQUENCY_HZ: 
LATE/NORMAL_TRIGGERED: 
DATABASE_VERSION: 
HEADER_FORMAT: DYNA 1.2
DATA_TYPE: Acceleration
PROCESSING: Automatic Paolucci et al., 2011
DATA_TIMESTAMP_YYYYMMDD_HHMMSS: 
DATA_LICENSE: U (unknown license)
DATA_CITATION: Turkish Accelerometric Archive v 1.0 - Disaster And Emergency Management Presidency, Earthquake Department
DATA_CREATOR: AFAD
ORIGINAL_DATA_MEDIATOR_CITATION: : AFAD - Disaster And Emergency Management Presidency
ORIGINAL_DATA_MEDIATOR: AFAD PROCESS SERVICE
ORIGINAL_DATA_CREATOR_CITATION: AFAD PROCESS SERVICE
ORIGINAL_DATA_CREATOR: network: TK
USER1: GuestUser
USER2: 
USER3: 
USER4: 
[...]
1.1985994801291338
0.585937564086774
-0.3742870173029422
-1.3928487847831874
-2.394848071445093
-3.418236852870204
-4.370658084601436
-5.104560460246699
-5.43944267919578
-5.367349458801241
-5.084801190763807
-4.675759981257631
-4.281932662624296
-4.050240721467203
-3.907172652614309
-3.801728479033055
-3.5825269774406414
-3.2180159538857134
-3.034071343650849
-3.030663125944504
-3.001936346294921
-2.9069737563009865
-2.693733130179532
-2.5180456574183747
-2.4501177022073097
-2.2374379120212797
-1.7511191817489369
-0.9571900864714883
0.031117438244782993
0.8937217232891917
1.4953167231379723
1.9471239124721467
2.4518128118424336
3.1160449873054685
3.8300051400489257
4.463375702000312
5.052287543089288
5.665938629425779
6.207536863817575
6.6111447093302775
6.9381305516622795
7.14600682775397
7.090367296135273
6.714070446520773
6.15944452256261
5.490142980879895
4.59700392837062
3.602023936398844
2.722737369324845
1.9796227746746362
1.3026910082049015
0.7538294286796977
0.5380944399776982
0.5714037934792242
0.684487353309519
0.9653518104648184
1.4118736127284366
1.992997395500237
2.698802961837868
3.466146376796584
4.111851333442427
4.1687548815166435
3.4173219641868036
1.9991492758451586
0.2977249103693281
-1.0071518393286878
-1.6362725756022996
-1.56463864515811
-0.8962081545021809
-0.16058950905987132
0.5832049158094665
1.4690329579838328
2.1814257931123837
2.592015103930333
2.7680294370177445
2.8588846984605585
2.8968987504343664
2.7111068571116275
2.2375008499854254
1.3604766603928828
0.22178039688776383
-0.9456779062717914
-2.1052651769860526
-2.9056562139374273
-3.2477366371600516
-3.328129306827636
-3.0957837474685808
-2.575990256250824
-1.8006560850346678
-0.781847840501604
0.4748840859917462
1.7578916317236046
2.743400649846045
3.512826252482111
3.7027423696437087
3.0498325751863633
2.1793592635920076
1.0660743654523186
-0.4400788474518444
-1.9467295978759889
-3.368436964286324
-4.276069969724672
-4.614327609791575
-5.149984520953667
-5.489818938077272
-5.04828794568503
-4.440144535576933
-3.6577078891953665
-2.3628336540798633
-1.1655039998984063
-0.2938498697097937
0.5941071582288027
1.3411729702532684
1.546548909550805
1.256452292582026
0.8202908908814975
0.04273800643371094
-1.1756910684515838
-2.096845139255521
-2.5996863062366593
-3.127312996545096
-3.5619046898314877
-3.8838906391225323
-4.02783783015864
-3.5640058190691652
-2.7053207274626514
-1.9191486642995483
-1.0468235699686823
-0.27857284658489656
-0.049447424567690745
0.06639793088348035
0.04841702932312105
-0.5594124159432953
-1.4384368533917558
-2.643194232917614
-4.050304586928924
-5.05297519613934
-5.857401661219053
-6.400285382314718
-6.288383716648878
-5.717584216321183
-4.982609926843066
-4.1265409988273385
-3.0866693653328965
-1.9281201309742793
-0.8296705802206423
-0.10956263413556083
0.710950109651405
1.4446002102896685
0.745374717342216
0.21111058445285666
0.6323723408240803
0.4261684527257044
0.9759983499729734
1.9517743598662798
1.8498238381358678
2.36354274168239
3.1597080517941802
3.616195014697373
4.677796472954434
5.61114797462745
6.0943413640293045
6.159708230866121
5.526926761336938
4.502796422604138
3.0080549045360736
1.2648797926495723
-0.41413303710082694
-2.0330924167486706
-3.270689482134307
-4.446234359633641
-5.720028930549164
-6.560461783244496
-7.1214590561242295
-7.481824649132061
-7.675494560701686
-8.115009617990248
-8.462496538097016
-8.69566090976452
-9.009510800360994
-8.810389349801515
-8.612494363172065
-9.101488084713436
-9.74383505865105
-10.608577974945332
-11.525880320978095
-11.71612634699718
-11.44982819188691
-10.800178672315214
-9.493326499094232
-7.988220497513324
-6.290888246622863
-4.210558092549718
-1.8809505045554116
0.6946305098052539
2.965319942971314
4.636734249900801
5.833900192242584
6.3091988592488555
6.504512265790922
6.564176260912802
6.1236132659483555
5.4695752636173545
4.141084608338366
2.2572455023398694
0.9459670886828706
-0.2096843590903283
-1.323411326199808
-1.7915240299719013
-2.154444773559614
-2.5624166152305974
-2.817602374315769
-3.196436295993008
-3.66103391947633
-3.975461370539145
-3.783216984753994
-3.0569432861674164
-1.932262886972018
-0.27043688064410815
1.213398405926603
2.0488689411478216
2.605799341918206
2.382709199236011
1.3513158103788239
0.2535819676043768
-1.019604458588122
-2.3031823991923024
-3.280232810274113
-4.43800528663485
-6.083776419972756
-8.28602775147862
-10.87988246584834
-13.305476879597284
-15.459254049877089
-17.170915638115257
-17.972799057678223
-18.37451623958748
-18.617977703157642
-17.84252969662725
-16.450522829112202
-15.529307946446885
-14.785451195440213
-13.945405290291008
-13.596072455628114
-13.854886679591802
-14.030955259765722
-13.917684877609556
-13.566683219806517
-12.230838161338593
-10.418329316783261
-9.15741984025247
-7.487259854094411
-5.394684601824327
-3.6627831195887555
-1.7953040408060892
-0.19412040669813443
0.7520098737359853
1.3366831559755938
1.473524199950979
1.8654661332833467
2.51506485893051
2.4587955487093085
2.1324170056036325
2.515885941496923
3.3617028239852154
3.3889815049451557
2.839449641886383
2.8707588849524313
2.811528560415232
2.6168444527215247
2.4073882348443303
1.2314539307736936
0.023755994287380285
-0.9533112331626789
-2.1412791145279257
-2.4697102010357983
-2.9780619972861686
-4.168576958372702
-4.2634218369375585
-3.6806325681020526
-3.360943589551029
-3.0066173117585135
-2.2940704060267465
-1.7191787161069039
-2.013454319088369
-2.1272549849822355
-2.215999400693828
-3.4799234633336003
-4.204950982144923
-3.8349228222985197
-4.338483044749322
-5.751640302881243
-6.9656958356758905
-7.842725962477376
-8.293194389650951
-8.540872033870075
-9.474265245087194
-10.411013746500323
-10.063388341805657
-9.08488192367114
-8.177346308572087
-6.9768185650563534
-5.335963540405134
-3.8368634683069147
-2.8139623025863365
-2.0613127829742584
-1.9200152583575316
-2.048512180313006
-1.9412788610698621
-2.1881888801485734
-2.362872058127731
-2.144997265136143
-2.308552053591855
-2.984719426760266
-3.901716948478664
-4.356014564848579
-4.159279202009354
-4.317009433833354
-4.9700400890505545
-5.398036724557579
-5.612335316368373
-6.040958727564485
-6.484428234775468
-6.852990627973799
-7.503540052352856
-7.897167405193549
-7.7456405379661835
-7.943652559842284
-8.491244946924757
-8.490673660007928
-7.995411901081149
-7.844591609432236
-8.076573361742836
-7.725023292844405
-6.575945952693709
-5.8293439939857405
-5.960838137019837
-5.75974980474819
-5.100476621559696
-5.013648037601162
-4.963215133197857
-4.630050109712189
-4.664002733282807
-4.631450217374856
-4.467206865462999
-4.563949860353391
-4.832115351186976
-5.503770056680883
-6.049586579241451
-6.1512849733081785
-6.45390390944668
-6.511142825480455
-6.202260094392988
-6.013284260282678
-5.749495720105335
-5.703544784909557
-5.736143135026229
-5.553607360771892
-5.887032235045799
-6.68788357311001
-7.517531354128167
-8.399520086090552
-9.414863114147574
-10.770164170861984
-12.037015509051992
-13.106013146871556
-14.502519407774175
-15.872358858359005
-16.873721286194755
-17.49561124580007
-17.472417472823597
-16.790496270918695
-15.56750498435056
-14.100053795872359
-12.835344678964608
-11.887060247303271
-11.112698491456978
-10.515185970670153
-10.132470788480044
-9.607572075450395
-9.101908144351746
-9.118991105376114
-9.133129562570613
-8.998485427019038
-9.339068830060212
-10.001128726832508
-10.777821040929641
-11.786406196036335
-12.845024789247233
-13.943407853691674
-14.99956756153573
-15.540014901743712
-15.734458300834127
-16.153596641338684
-16.718114856365933
-17.39358535900361
-18.23622514260066
-18.837730334081527
-19.108989428981815
-19.12784426213162
-18.776658605361376
-18.234459196758237
-17.61098626756379
-16.774795928490953
-15.764139732677036
-14.831904668493232
-14.102711080581447
-13.29050835397467
-12.188797098280142
-10.822510457641958
-9.10694122470815
-7.024801706368055
-4.667400960754707
-2.227552841379579
0.10833074433327702
2.390501260011614
4.643260972641158
6.784312082849554
8.624404289229568
9.841141844528524
10.253608852136763
10.090794342678164
9.945817672158894
9.937951205068265
9.860554333748043
9.970533864879082
10.184941104174941
10.12089351068578
9.726524527869953
9.000425215096847
7.963848100827158
6.447658284594919
4.4767540661125835
2.264038350012557
0.04004812263587748
-1.3134274652231284
-1.7529290767145382
-1.9486782764030546
-1.678396504514425
-1.2211089212389434
-0.7795904443035463
0.24467064081062634
1.5342874107564852
2.398637614359513
2.4871977030726424
1.798246391604747
0.7529714270169828
-0.3170629456576224
-0.9328690023356784
-1.0442558651729348
-1.0851249300513093
-1.1185535164504485
-1.472580370754573
-2.1833047503532126
-2.801416264699205
-3.4083761727832957
-3.9566134560566133
-4.469752905715645
-5.077293467959307
-5.344240816663274
-5.225976643445311
-5.027376693426783
-4.918773321574578
-4.726746009328888
-3.999535810672244
-3.246598109706235
-2.7185566659144125
-1.837392168477227
-1.2332950598916865
-1.312912887286086
-1.3461999013850705
-1.4271288961161779
-1.7643800511253387
-1.903824205162924
-2.1241316638600916
-2.9831374403702906
-3.862178650123867
-4.209431748115553
-4.387017926780276
-4.212246464835383
-3.446443861373445
-2.6292677468324954
-1.930090503361726
-0.9419024451313549
0.446640072815382
1.6695610907190803
2.5041999358545786
3.3189982413089947
3.783972434413794
3.623368893534896
3.1185675100757724
2.282300311238203
1.3531163399104145
0.5578560537253253
-0.22391557832143474
-1.033618196445339
-1.8363681157026481
-2.2161108355991117
-2.0803482473315804
-1.7822432642363328
-0.936965613089117
0.36041482376804657
1.4364485239333247
2.7727419277283056
4.283355542562557
4.975724844803581
5.253558296448164
5.474728013225133
5.106978907803256
4.434898857261908
3.8366454135853765
3.3093076565810158
2.976406618845025
2.6057269864731842
2.2226891181408006
2.2224610478631472
2.2328273147249034
1.8921432487473995
1.6988702289707895
1.5989726642069824
0.9908590096189897
0.24479662928078477
-0.2753955322628697
-1.0529392830617368
-2.122055375246155
-3.0421264803510497
-3.9532818748913483
-5.284398656605727
-6.686590284565154
-7.795376276903967
-8.985141481739873
-10.168291111437227
-11.316908358643385
-12.882785100479076
-14.735167729568406
-16.366217454365604
-17.311166538816863
-18.276719004516824
-19.49807990238014
-19.408997690376275
-19.033561371798058
-19.350955969547954
-18.05051592097046
-15.843288258014436
-14.737271802122269
-13.61331204753074
-12.101013130182782
-10.89717831188479
-9.897136823111788
-8.716296975657194
-6.9126480442460085
-4.499947085994684
-1.9029253652237414
0.7090081680927949
3.6238849199036345
6.442690087262899
8.453859329571689
10.574889070878145
13.265812727075712
15.596533210596176
17.57181244460694
19.112831953306852
19.678408746336068
19.60443595935226
19.176412138500947
18.50745571797253
17.944797359960774
17.526041087411215
17.117979901196417
16.535450834996418
15.853806268077745
15.480411408464844
15.3398122306391
15.118898741727762
14.672011043482252
13.789136499326917
12.328578297099176
10.30274714317884
8.020214841556163
5.5195327339505535
2.490288308692717
-0.6133820157673794
-3.5916101520322954
-6.769588008296367
-9.554712720746336
-11.693081239248498
-13.391525832230935
-14.281918828745154
-14.627270728023193
-14.599318580848633
-13.590159064782167
-11.813563057815989
-9.682858822902315
-6.86119540642058
-3.4144703185026266
-0.1467088835489757
2.4264550485127305
4.39430429530079
5.700526403275773
6.202507052485396
6.140970582801535
5.599221105836992
4.744650669016567
4.1786843711631105
3.6715021102783454
2.681537527744173
1.728169576703638
1.0078041315401514
0.09570870208910716
-0.9704854121090648
-2.0691775134419492
-2.959696058459218
-3.4519117010418956
-3.7303939384011207
-3.7649205291243963
-3.3499494436538186
-2.597243141956464
-1.9057391909597334
-0.9486239162197339
0.5684209674964401
1.7846053709653398
2.9634504365617116
4.5877152233896235
5.672307624957472
6.636402845864994
8.257655091179089
9.850892596417623
11.423387186174196
13.27445169403656
15.127948798722137
16.770020354713417
17.963755269140893
18.769148868187557
19.289399961143456
19.39705318452513
19.39632035843943
19.46516761438598
19.40782650181207
19.34425352867684
18.99690926816748
17.962520469092578
16.63207607215028
15.159961200085805
13.645052064763231
12.577844021943307
11.810298652325379
11.055479170054314
10.628917993720018
10.904411481487385
11.794073021080422
13.096549361691212
15.013951592505578
17.4469780215233
19.908813401970722
22.10592445931962
23.76409957001584
24.87787123419151
25.565935620378692
25.716742022853698
25.404690766565416
24.720365629641968
23.487206878295265
21.68749697877413
19.533151899541952
16.895378194221955
13.762696036133786
10.822283067656906
8.25890903976974
5.874026598422839
3.782466353467251
1.5766776348656553
-0.6485005738150768
-2.511495742223489
-4.721081555997293
-6.961320165146997
-8.699237079836605
-10.681253290486167
-12.253695118379063
-12.75994603322503
-12.87696934042306
-12.173430302475605
-10.556023284162151
-9.004939887211355
-7.636654122514889
-6.297157554909641
-5.001920854351915
-3.6764882463270427
-2.380663283780158
-1.1516801951813884
-0.08859567614956652
0.7930497135015306
1.5735378612582276
2.1743697168108342
2.7543938272118003
3.622779346611338
4.8074887895491205
6.289496741183838
8.06772077310441
9.871318202363746
11.266426821490821
12.12372027436804
12.647613845552819
12.926281106863165
12.934684830738643
12.787067748049097
12.614217326411417
12.622489933062258
13.089539977447107
13.826350447771432
14.552610966318888
15.4720876403053
16.394113014350875
16.841107976431477
16.86343742546421
16.36948330540624
15.185571076231405
13.64801126515733
12.161325327654021
10.873253305458501
9.814882970321023
9.010066883462773
8.206244012288217
7.3710211736890345
6.8415423588680975
6.504355652281048
6.486709399079415
6.848517802748746
7.291602581350646
8.060691283243981
8.760396007864303
9.28775552082477
10.127231244095368
10.526486296776945
10.570426188250726
10.529551318387375
9.712425446962405
8.457167230980444
6.530443182810847
3.8290725662157694
1.2465924354331726
-1.5498186860296002
-4.227636040017234
-6.0776873745986215
-7.527821143277141
-8.233910922605043
-8.049127203281401
-7.386011480220274
-6.187562024027253
-4.717518139504401
-2.984361056164743
-0.8346821571322361
1.3546681991204383
3.2888754203527175
4.514660651526781
4.762155816120843
4.514439124423007
4.211419547630565
4.054688088029449
4.1882656942904415
4.738905728457886
5.876759660589692
7.4798725830852915
9.32224490835792
11.150381200295925
12.648306668636195
13.930933763820757
14.905595519401304
15.179809878986461
14.992213825075838
14.649304518438637
14.270684063932158
13.981130361955667
13.650849221108476
13.175415029733957
12.36421371439894
11.194179271833518
9.910314605414388
8.547008207956996
7.430307256587275
6.554999172820365
5.530616491950867
4.689044955418655
4.029661735947949
3.342676473877119
2.8462913363789792
2.3292792189427587
1.818338667108595
1.5748013465029957
1.4379800784162875
1.3972848176533854
1.458048894986062
1.4346253016439663
1.278076319205733
1.0762076132445189
0.7606672417116529
0.24903697795722915
-0.37468746331526986
-1.017874135374102
-1.436789083199285
-1.748506095088198
-2.104475702587677
-2.209963965580764
-2.551563075756075
-3.317366318906254
-3.754356962156334
-4.096004419080624
-4.472277998357016
-4.102447700623569
-3.220958136283969
-2.287330294770764
-1.0895192866736199
-0.19836237598733128
0.3251728037350732
1.092785985973163
1.4443686209131468
1.4956339728865384
1.6100929399452244
0.9596042873176993
-0.08067000913270296
-1.2323904433758082
-2.7020866523519436
-3.9420543353241113
-5.085174881560135
-6.045763517675107
-6.495559878008445
-6.641680080793816
-6.4036769996223875
-5.88720737736214
-5.3613858612509055
-4.982644014289528
-4.52224531925716
-3.7925070495603457
-3.1593204253035556
-2.433037836666945
-1.7591698483587963
-1.4504974516078315
-1.0852215990197223
-1.0098823639832173
-1.140322648164822
-0.9720041565399853
-0.9191578047021167
-0.7847896759737876
-0.6495210850247698
-0.8902953310750064
-0.9743604515267273
-1.206339819936859
-1.6358858094055837
-1.4564208534187624
-0.9957980952657419
-0.30821477404099384
0.6628028476867542
1.0831977965267046
1.0899220346617684
0.8961108769307911
0.3104410263823438
-0.17931595818425242
-0.5295842794885661
-0.7309353154510522
-0.912665616352499
-1.9532242222070164
-3.6900622038779654
-5.647467401180431
-7.80584138008702
-9.576862409314739
-10.624198985226128
-10.938791410544582
-10.514640028928207
-9.512258758530447
-8.018919949158574
-6.231765746858415
-4.114193571093031
-1.8254431775951383
0.16627069383004467
2.007527480549287
3.5192172915787734
4.3239485029844955
4.781079725101567
5.087654864614248
5.287548037123352
5.514767666812694
5.642906743239338
5.629616454981741
5.395545135274774
4.800991445190234
4.042530567845248
3.0353968991818747
1.7693243923512105
0.8084598388144957
-0.011544644274764764
-0.5425502866168745
-0.12997521171983142
0.4281565212777137
1.013754268964038
1.9187008393873934
2.1489337485880142
2.0766646580059893
2.1867908407403425
1.871313533957432
1.3679527044093445
0.618866388597576
-0.6221047116866782
-2.0720193374159246
-3.490010773246575
-4.426929980022275
-5.059423031854381
-5.744359716670732
-6.212312685445818
-6.525687030958425
-6.656641579304504
-6.408503957494947
-5.957487138124148
-5.275124785406642
-4.4709632914764175
-3.8539126800109207
-3.329392424373557
-2.9779059823563108
-2.938682135944048
-2.9747645388519866
-2.873006869495173
-2.5102332768300335
-2.0394620320609405
-1.6444778801651034
-1.3697185434455865
-1.3476627741475335
-1.3965969153280815
-1.3557052444529274
-1.1352201226350913
-0.6900459256458822
-0.31874923640404157
0.15307431077377703
0.8347081034684546
1.3884553350161744
1.8313428806894232
2.34613344667774
2.9379396784447667
2.842870334347507
1.9103439741303359
1.2348501729952104
0.7869940038519386
0.24454080579193632
-0.11643768339509261
-0.2831672361635174
-0.17495920564634906
