AAD_Filtered_TADAS_FILE
AAD_BASELINE_CORRECTION: BASELINE REMOVED
AAD_FILTER_TYPE: BUTTERWORTH
AAD_FILTER_ORDER: 1
AAD_LOW_CUT_FREQUENCY_HZ: 0.025
AAD_HIGH_CUT_FREQUENCY_HZ: 40.0
EVENT_NAME: 202302061024
EVENT_ID: 13207
EVENT_DATE_YYYYMMDD: 2023/02/06
EVENT_TIME_HHMMSS: 10:24:47.00000
EVENT_LATITUDE_DEGREE: 38.089
EVENT_LONGITUDE_DEGREE: 37.239
EVENT_DEPTH_KM: 7.0
HYPOCENTER_REFERENCE: AFAD
MAGNITUDE_W: 7.6
MAGNITUDE_W_REFERENCE: AFAD
MAGNITUDE_L: 
MAGNITUDE_L_REFERENCE: 
FOCAL_MECHANISM: 
NETWORK: TK
STATION_CODE: 3129
STATION_NAME: 
STATION_LATITUDE_DEGREE: 36.19117
STATION_LONGITUDE_DEGREE: 36.1343
STATION_ELEVATION_M: 106.0
LOCATION: Kahramanmaras_Elbistan_Turkiye
SENSOR_DEPTH_M: 
VS30_M/S: 447
SITE_CLASSIFICATION_EC8: B
MORPHOLOGIC_CLASSIFICATION: 
EPICENTRAL_DISTANCE_KM: 232.64
EARTHQUAKE_BACKAZIMUTH_DEGREE: 
DATE_TIME_FIRST_SAMPLE_YYYYMMDD_HHMMSS: 2023/02/06 10:25:07.1035180
DATE_TIME_FIRST_SAMPLE_PRECISION: millisecond
SAMPLING_INTERVAL_S: 0.01
NDATA: 14501
DURATION_S: 
STREAM: HNE
UNITS: cm/s^2
INSTRUMENT: sensor = GMS+/GEOSIG | digitizer = 
INSTRUMENT_ANALOG/DIGITAL: 
INSTRUMENTAL_FREQUENCY_HZ: 
INSTRUMENTAL_DAMPING: 
FULL_SCALE_G: 
N_BIT_DIGITAL_CONVERTER: 
PGA_CM/S^2: 26.621
TIME_PGA_S: 
BASELINE_CORRECTION: BASELINE REMOVED
FILTER_TYPE: BUTTERWORTH
FILTER_ORDER: 
LOW_CUT_FREQUENCY_HZ: 
HIGH_CUT_FREQUENCY_HZ: 
LATE/NORMAL_TRIGGERED: 
DATABASE_VERSION: 
HEADER_FORMAT: DYNA 1.2
DATA_TYPE: Acceleration
PROCESSING: Automatic Paolucci et al., 2011
DATA_TIMESTAMP_YYYYMMDD_HHMMSS: 
DATA_LICENSE: U (unknown license)
DATA_CITATION: Turkish Accelerometric Archive v 1.0 - Disaster And Emergency Management Presidency, Earthquake Department
DATA_CREATOR: AFAD
ORIGINAL_DATA_MEDIATOR_CITATION: : AFAD - Disaster And Emergency Management Presidency
ORIGINAL_DATA_MEDIATOR: AFAD PROCESS SERVICE
ORIGINAL_DATA_CREATOR_CITATION: AFAD PROCESS SERVICE
ORIGINAL_DATA_CREATOR: network: TK
USER1: GuestUser
USER2: 
USER3: 
USER4: 
[...]
-2.8409450607423348
-3.119217640252821
-3.422919712807659
-3.53506161699118
-3.404994193673993
-2.674820448665825
-1.4770239353441172
0.06303559366285962
1.637393792929952
2.591410220715569
2.997498137045483
3.2574584651028764
3.429468128080117
3.0817000994355475
1.9792422094142286
0.7468971695861085
-0.22249941962727712
-0.6653690175229798
-0.5506495816219478
-0.756004324477192
-1.4730975923840894
-2.0518885862893668
-2.5180086667463732
-3.3455864133008895
-4.241124040541202
-4.245116203127766
-3.1275588854746723
-1.899970920088909
-1.5994333627084412
-1.8866089053057267
-1.7061188787877677
-0.817712476420484
0.11828653948392656
0.4345743852593294
0.10439448053094501
-0.40979541313653484
-0.6632343958934773
-0.6601353687871363
-0.6291870083560689
-0.4347620110475656
-0.11721993871846025
-0.24197838399900753
-0.8306176581252829
-1.16315068248642
-0.6791625778797651
0.5928578388835288
1.9460580025305474
2.514135321717203
2.1865688028567374
1.388083154856681
0.5027792505837265
0.16316118701299684
0.9277951937513428
2.30917888913894
3.0764156725260614
2.6048943768362
1.3876114323683115
0.3622086529025312
-0.07629318861943817
-0.03357230277638093
0.5237705366460097
1.281278400147219
1.5321616117886332
0.9922284285823458
0.039666303426060784
-0.8914454755884041
-1.8684862735285617
-2.9360436878823504
-3.9626812512340996
-4.833509272365626
-5.465856627500761
-6.01048664368538
-6.581583645118527
-6.815162967626808
-6.118087168203776
-4.609037138617091
-3.1191271268467347
-2.009789552354446
-0.8841240006148141
0.40024955296460263
1.466262585043925
2.1785829324212216
2.8331756439299953
3.6729092837064523
4.222525726716816
3.858367516752896
3.0602244278639597
2.6870713795309955
2.837157482545242
3.0732877789049295
2.9188851019254627
2.489679203043009
2.496120029487577
3.1103944402142782
3.6649037661284467
3.800584391888601
3.935951904016817
4.430894736381331
5.068038094452104
5.344900368139377
5.119727515952255
4.75087981277375
4.512987670868685
4.283519025427158
3.6517786413438835
2.2903218089415978
0.4357769172966791
-1.17126050796967
-2.160898048505151
-2.872005008095301
-3.632743585080883
-4.28493106778337
-4.232703633920942
-3.3024724375075554
-2.194343765791623
-1.52532952670232
-1.1379516595133767
-0.3592365859113741
1.044487671804117
2.461701564169107
3.1492247783317358
3.0180445228206083
2.574050912396665
1.9706167934272065
0.9057793465527553
-0.5710253297474541
-2.0701466474589654
-3.135065155593835
-3.3911782101698615
-2.9123611817099393
-2.122450081668543
-1.389552985051397
-0.7330485853033171
-0.08392405147202613
0.5215651488950058
1.0525852697435771
1.1850464574736803
0.878776853486175
0.705038131790094
0.8620619453456829
0.8499211691482523
0.2809734521193883
-0.2664130146890806
-0.10183943063009519
0.5257590824985423
1.0286755292497973
1.0822198746285574
0.5410377941462977
-0.4535129472169265
-1.2188749300120578
-1.4725704966929685
-1.4280391783478175
-0.8191319114020601
0.23216325301629304
1.0634415987564318
1.6061042623354502
2.085974718479936
2.6577718498094764
3.3719130888698596
3.71121529078779
3.438959545408989
2.965783402510334
2.4612974361218374
2.0031233511665
1.4723243573174207
0.6695509704750446
-0.16033838407369208
-0.5927904002156613
-0.48549934963875047
-0.11353350759915408
0.046930441576123375
-0.09610820829584635
0.20042372698590433
1.203600582605832
2.1953761476729143
2.5395078104312514
2.0418562770308477
0.9636150045096215
-0.31116316403474514
-1.4247810950568585
-2.4437253083960613
-3.6122448478820233
-4.53558164337294
-4.875266102412952
-4.688027683355224
-4.318150729835386
-4.312615029991115
-4.618701671404952
-4.937818073733551
-5.112006647501895
-5.1171114127691135
-5.401184750245321
-5.606594268056206
-4.9649164615971415
-4.1203138229372405
-3.817058109402622
-3.746305199039834
-3.4818533346966283
-2.9926514929249013
-2.4123871015071985
-2.0655527957817124
-2.114573246590817
-2.119311377774616
-1.837959905475083
-1.2679832231972599
-0.2824300685835377
0.9352034807822672
2.1328356328737588
3.4275381483961387
5.089696447128564
6.636289404683682
7.217753497829227
6.901229570304716
6.3577159491984006
6.035943667670397
5.816718319089939
5.645790688021378
5.504198235433208
5.181870145442198
5.091134077340869
5.5607748820784035
6.100931113585987
5.958734243255742
5.09309327746793
4.297621670140035
4.046946481138267
4.176981841393551
4.383297745231569
4.474701960558489
4.271447946040705
4.017099611702817
3.9999676355857754
3.9251377398610874
3.448574578146305
2.066879568438614
0.0811034514232166
-1.3417768218949544
-2.210504302033806
-3.042349155164655
-3.6151026410865956
-3.9508775785274755
-4.2153331219545045
-4.289517968564155
-4.599987626808285
-5.327794960685172
-5.882399647198077
-6.0639111702407025
-6.324609109142256
-6.8675160461717475
-7.141987460556685
-6.810116857888949
-6.254633461707273
-5.821823445215076
-5.518496567904883
-5.181586736858326
-4.58138728937581
-3.6586031562696135
-2.4433689555403277
-1.2529675451875537
-0.4526617305209451
0.04703813168289201
0.0925929295690473
-0.16336513348784035
0.01107724580774593
0.6106612714513023
0.9518702260414307
0.8242994140061892
0.5598151183452648
0.40849278470407036
0.8075761431811452
1.8968639453934564
2.8825885047810096
3.15900447769716
3.1218504545369274
3.400406229621232
3.5012929126821204
2.856042764049445
2.547086793807644
2.8519757431583757
2.7340607077706034
2.228349169011188
1.8767633857807946
1.9558869806083892
2.001733792874797
2.1649089441999148
2.843883736180587
2.6640880516055288
1.8336048535773366
1.3420633321163982
0.6144683901561532
-0.15653364518945642
-0.7960656888322667
-1.5077970090092208
-1.9295460114185718
-2.237952015927746
-2.8448529367339934
-3.2048638179790716
-3.4644452904732757
-4.463781390049957
-5.878287424977801
-7.188427324309131
-7.6088338008342395
-7.093291902643117
-6.61251456272161
-5.660238179380962
-4.184476708059892
-3.2774201109707937
-3.3586448832851254
-4.113296080207425
-4.237828218102628
-3.4857349509586886
-2.9366941240672877
-3.2038439452075993
-4.1830978154061045
-4.733633795693138
-4.171466916948436
-2.7447878469299334
-1.1635248735218555
-0.0012369855281104845
1.0521817558958875
1.4836690484568953
1.0181605982625095
1.0706495785896828
1.6631223058449403
1.3672939087534122
0.2277913184522367
-0.2999070502213127
0.3085191866806664
0.7719332058372738
0.6251605718027026
0.27451317690945226
-0.2978569301670103
-0.8342939408204633
-1.3420791793019378
-1.799748343400852
-1.8035431125362307
-1.069635249937416
-0.11129186221362072
0.35856660171165955
0.19480185589378654
-0.8781964544361263
-2.1877191488981786
-2.128887141198156
-0.5886305456062235
0.4150426313308087
-0.6110639215299697
-2.2042868273982372
-2.0426826813055854
-0.6610909913090098
-0.3546155437078384
-1.4393374214731294
-2.457853979636779
-2.738972849761083
-3.2129843731937417
-4.515725510300786
-5.803050922617767
-6.787939027114711
-8.188609131069171
-9.496390661803082
-9.749312174659858
-9.689671896637808
-10.346751849910282
-11.493050943623084
-12.436047261670279
-12.323004530292897
-10.928206703349128
-9.476116447734249
-8.811342931996878
-8.684333103718641
-8.486357573431308
-8.324351608862582
-8.530233191079843
-7.879817328600503
-6.232551221188525
-5.155297356902476
-5.360945355617417
-6.385368338126554
-6.9253482879192685
-6.027326608429198
-4.0401246154380175
-2.108556512010462
-0.5488673507761409
1.0616323389245752
2.225722967006882
2.0977310842660266
1.1084232417169966
0.10411839870277141
-0.7931911677402471
-1.2306111278316016
-1.3849696195467123
-1.5729905880859332
-1.288486261584901
-0.9300848675805212
-1.0190283019786561
-0.9958718996680849
-0.22037120781246516
0.9712862166713305
2.0409698455497316
2.999487003764995
3.806533293272705
5.052349795820202
6.547811833779645
7.036751671993381
6.695017121777335
6.489868724282324
6.478691476411934
5.640609539488827
3.9428288107978027
2.6004412962279506
2.1802870588771164
3.031255707571664
4.508937502542412
4.305995061333621
2.299750571223798
1.8622821678100399
4.21465554377334
6.273848431763699
5.66127974174713
3.546049524696757
1.939789713159963
0.9664829234956165
0.08310689201237419
-0.6479736687834116
-1.405589427090431
-2.4657217696972373
-3.5638672740867254
-4.334224584927314
-4.429869230911456
-4.203400339932718
-4.4606477575317545
-4.668604798018587
-4.174021033287962
-3.419507712846495
-3.199456476765117
-3.6993670235519476
-4.353348462518101
-4.936441899898827
-4.778496336807854
-2.9288964018512393
0.0731987102916379
2.3561068860342638
2.745304256082904
1.6362480949573137
-0.5353538858689056
-2.8211777824718083
-3.6037693573391456
-2.853187501248866
-2.421849835692652
-3.589856008925502
-5.2037842463627095
-5.613324433458296
-4.825304328669664
-4.033115767404423
-4.3319700697762595
-5.099040130484989
-4.648276925851641
-2.930260048231937
-1.491031302315965
-1.265977146958969
-1.3572415413459284
-0.3984736271270681
1.5609533688508717
3.5208009297028595
4.347989347590876
4.403536259317129
5.408206268976856
7.1581053777815935
8.179839100365248
8.005890904607616
7.068468165847516
6.190979791611813
5.605249900057674
4.896834950974378
3.7266002678750545
2.328841797824937
1.5266139759744723
1.5193013010284682
1.7351448042932192
1.8897004011768026
1.797025982565635
1.3555474476506688
0.6700594619248766
-0.4487185974480857
-1.9458248669950386
-3.3825754700417865
-4.5260640499841065
-5.626899824178984
-6.914537498240682
-7.617816910570312
-7.235845502574773
-6.323150706150806
-5.413884058698287
-5.014655861021127
-5.196972730188751
-5.364482980870331
-4.946031937392766
-4.025181606404968
-3.313410808986698
-3.0748142079018788
-2.882808872670086
-2.2735408019238914
-1.3868973666273778
-0.6773077859359471
-0.06667595258312002
0.6745375442619935
1.3963762439424032
1.9551100229935319
2.5972277795180023
3.5588782824209395
4.837363229768828
5.967762676711721
5.986952100370028
5.239026233396328
5.322265109562923
6.608495792783707
8.261349826932129
9.451103736257812
9.721835971150918
9.536626220876876
10.058860866474598
11.513852770837593
12.813955626968175
13.428929143592482
13.430385957300777
12.391493821233587
10.595653584515214
8.97524072923307
7.938181802810963
7.485887281657211
6.697124430148823
4.645920530720124
1.8565129944757737
-0.3704238676692148
-1.353159333688863
-1.9384143348928955
-3.021256270374467
-4.251919939252779
-5.072972652196271
-5.349364061389079
-5.542540466877353
-6.282696003982664
-7.438702546904102
-8.373439760861714
-8.656886739494409
-8.617816778311772
-8.953285129585941
-9.68843095082189
-10.05360639401136
-9.391852263415435
-8.32320773153347
-7.261222934565641
-5.805519227980392
-4.743543043974312
-4.826012391104228
-5.439789971031981
-5.561105044680408
-5.179394681454245
-5.459980249033393
-6.396292392011901
-7.161901679099365
-7.672362394051593
-7.836811664664582
-7.633699384403041
-7.485143765794816
-7.488672070138639
-7.366063442990823
-7.232652401742878
-6.746686823335922
-5.418184359615694
-4.237578034555106
-4.028695232869543
-3.9854708306965443
-3.158227540699519
-1.9379156567456717
-1.53189759815819
-2.626437727635719
-5.051992486144539
-7.54457470750961
-8.562921198130397
-8.186206301244175
-7.789183929369664
-8.011807378498526
-8.41979446063407
-8.526035463699253
-7.856939900741547
-6.424175316105305
-5.1478421631722835
-4.499760045190457
-4.085086461295204
-3.3344273084983787
-2.152928828795252
-1.3014850791686055
-1.3348167100313266
-1.9456103105662446
-2.5258070098614898
-2.753594171479022
-2.971565178777505
-3.6871791712699884
-4.8649533222544985
-5.780614081293336
-5.7587703386995575
-5.6664886550772025
-7.039393510492469
-9.41089735038359
-11.11534338417923
-11.878262112473418
-12.561915085586444
-13.580902604794957
-14.65089860197146
-15.564864500998631
-16.194707561805945
-16.132667685381815
-15.325387803296346
-14.360182527861573
-13.500304189073324
-12.3778797093519
-10.679995149452763
-8.622788031050568
-7.193647320626536
-7.300277640500991
-8.537002485487193
-9.345991367329525
-8.73041296301779
-7.372795551757649
-6.29386412493065
-5.466657708853422
-4.264366837932823
-2.473498880425687
-0.43188968010381346
1.5302722638452484
3.5789324778092455
5.813478449467549
7.716604078806289
9.154416424193208
10.644404914169606
12.335727291243987
13.72766061994524
14.45463225894933
14.576374937037134
14.010654073051885
12.628691788791361
10.418556702115028
7.62438110840134
5.318992767406075
4.141653603884987
3.028866708406999
0.9695032408908795
-1.3273933357763137
-2.989208566185579
-4.777246997699393
-7.382091673611636
-10.538986177127043
-14.10107306730168
-17.337371154386688
-19.44497157499695
-20.832897734438788
-22.16107863672789
-23.595848420140413
-24.863094395587737
-25.601799198746626
-25.647651551094153
-25.258470767348577
-25.137683086428538
-25.259827696476318
-25.30144463633882
-24.38053298820937
-22.13438252019213
-20.491073348749985
-19.53671751587232
-18.662187035939372
-18.511517201744393
-17.900614060660317
-16.584522437497228
-16.076111124304045
-16.294591206422037
-15.937171408250729
-15.03466804878173
-14.28649233115748
-13.15124842471599
-11.99687047519928
-11.864022113423207
-12.122120193139892
-11.920987511898826
-11.265744464029298
-10.235979751190909
-9.272148524067331
-8.816088137164366
-7.74393617926038
-5.243616703506886
-2.384142083620758
0.16521572289075467
2.489650215201808
4.256583647686934
5.3425624568713035
6.58063346450045
8.506097164898302
10.236532125538403
11.043968218671456
11.26336878340286
11.091792904113294
10.800467191567753
10.758239487856187
10.913512322058512
11.661001067499416
12.896543745392586
13.63252001482815
13.508281849385904
12.863667290865203
12.226969926593313
11.842666483656986
11.955366006184462
12.635628725478723
13.419481564364586
14.226779436158479
14.691657792509051
14.334218876669421
13.818386035226798
13.51560154785589
13.107151439434967
12.517302465391138
11.972115820218788
11.551872451703371
10.762645076007033
9.245564223812046
7.051029514518273
4.763785021166574
2.997587885208744
1.5243174942292124
-0.014091549103778465
-1.5029930351724938
-2.584053263073398
-3.257853318150596
-3.7012087671904315
-4.027540448122939
-4.269576869382332
-4.332500432377025
-4.524371635720812
-5.155333360610381
-6.004122686879739
-6.483648541690524
-6.5118579124476375
-6.746195404360333
-7.092641005808361
-6.817550484879568
-5.850318060403615
-4.439315398171335
-2.736340045322219
-1.0865412419306597
0.34734897543110305
1.676224881125594
2.573746855092144
2.7928833613525024
2.696967933640089
2.459756280558031
2.348451607300988
2.9089199785986914
4.0475285672664025
5.156492229964008
5.746723092528725
5.75683115721431
5.343436334207362
4.795860716974017
4.632881944445398
4.62503912957819
3.9542413876921008
2.7332139366467123
1.6410836147451944
0.8243728029568023
0.17225641874231848
-0.4750215537889875
-1.3395386765857717
-2.1820546631034228
-2.865061695080487
-3.6109109912084465
-4.402389181559513
-5.3210289497514776
-6.4655505213228395
-7.7585696315329775
-8.932645940154458
-9.573487181876857
-9.285249864228945
-7.884858650284199
-6.011964241752615
-4.320311135938697
-2.5326629270329217
-0.5196457873551076
1.4057336166271097
3.0280345208470743
3.8262333619764752
3.9032461776737395
4.169896444816806
4.682166843356938
4.789109510219361
4.126951725857004
2.917383997354975
1.5830845594029586
0.3723957253754859
-0.6988230664217642
-1.6311291372107635
-2.1388960012096203
-1.8977466714701228
-1.083229675621701
-0.25166528147005857
0.5287003940027069
1.4680556861726035
2.699351648909815
4.1431181562043085
5.393316023990637
6.196248374676978
6.615763945991585
7.066835705038278
7.757269976916232
8.46953153683354
8.798491746353303
8.622891405505722
8.585754706981987
9.017896485602423
9.8185495830171
11.098824802622682
12.631009779904483
14.069273081932629
15.482921222563089
16.815215188169617
17.61809983114624
17.718624201887266
17.318676243177578
16.371831840456416
14.949432137605548
13.472461670587293
12.084739603175862
10.861827002531127
9.609729043002664
7.804291356184892
5.653811804591894
3.4799272660840725
1.143425598417206
-0.8793196298141739
-2.262116514763937
-3.731168055232932
-5.582950216943389
-7.355622820277577
-8.844754029018361
-10.130485864364255
-11.328116881312356
-12.471311736083257
-13.531128365026655
-14.624759758212868
-15.88278170702672
-17.228408709366928
-18.43342286954567
-19.366749749103615
-20.21462095838048
-21.154098705779408
-22.001267278136652
-22.409216227232744
-22.31126771580223
-21.851468664390836
-20.971139979678806
-19.958968494151424
-19.303874856393772
-18.84670534265737
-18.336208181185857
-17.649484014155785
-16.627455376060976
-15.2438537868774
-13.593620293992313
-11.922419690171703
-10.346567529497493
-8.945409864106699
-7.7234421320214075
-6.590370906410893
-5.887177146136423
-5.792709761157515
-5.7611825689509075
-5.302326987963948
-4.519915761072133
-3.601375453992746
-2.5361640930111955
-1.2218335076848852
0.47212613954394683
2.593850580813282
5.098058917126257
7.513899933230463
9.249675901229587
10.251101834763386
10.70760406028344
10.74633328193382
10.730755772078384
10.804355543263439
10.64590117305058
10.296057685802058
9.858430302096384
9.676327237794933
10.356533636075913
11.651133281819138
13.006221246104563
14.122192473301844
14.765787730112617
15.234068419017525
15.989070330765596
16.706786246348678
16.93292011905574
16.39591386323634
14.714096980722159
12.101125907297948
9.249576839190599
6.633485274411493
4.258105286362082
1.9787299269367051
-0.24002319460257304
-2.444571200778942
-4.549819557402953
-6.4517386603737625
-7.998569676023887
-9.111385533740867
-10.092140495122699
-11.123229353872585
-12.084544025443902
-12.900369960927188
-13.741812030083459
-14.854102148021386
-15.96826798145808
-16.54021465595375
-16.27010849031965
-15.259322732186694
-14.004719139136522
-12.755012490975416
-11.601393203840647
-10.581903856991211
-9.464096133101924
-8.443609380554692
-7.844529918412621
-7.698159851229465
-7.88111458786198
-7.973556697532054
-7.788516473234145
-7.348256999658406
-6.640885703366921
-5.785157963203399
-4.768059574625405
-3.6443982500496896
-2.758438515960907
-2.2656764371112526
-2.0923748535268114
-1.9560961926678644
