AAD_Filtered_TADAS_FILE
AAD_BASELINE_CORRECTION: BASELINE REMOVED
AAD_FILTER_TYPE: BUTTERWORTH
AAD_FILTER_ORDER: 1
AAD_LOW_CUT_FREQUENCY_HZ: 0.025
AAD_HIGH_CUT_FREQUENCY_HZ: 40.0
EVENT_NAME: 202302060117
EVENT_ID: 13194
EVENT_DATE_YYYYMMDD: 2023/02/06
EVENT_TIME_HHMMSS: 01:17:32.00000
EVENT_LATITUDE_DEGREE: 37.288
EVENT_LONGITUDE_DEGREE: 37.043
EVENT_DEPTH_KM: 8.6
HYPOCENTER_REFERENCE: AFAD
MAGNITUDE_W: 7.7
MAGNITUDE_W_REFERENCE: AFAD
MAGNITUDE_L: 
MAGNITUDE_L_REFERENCE: 
FOCAL_MECHANISM: 
NETWORK: TK
STATION_CODE: 3120
STATION_NAME: 
STATION_LATITUDE_DEGREE: 36.58924
STATION_LONGITUDE_DEGREE: 36.20568
STATION_ELEVATION_M: 102.0
LOCATION: Kahramanmaras_Pazarck_Turkiye
SENSOR_DEPTH_M: 
VS30_M/S: 455
SITE_CLASSIFICATION_EC8: B
MORPHOLOGIC_CLASSIFICATION: 
EPICENTRAL_DISTANCE_KM: 107.59
EARTHQUAKE_BACKAZIMUTH_DEGREE: 
DATE_TIME_FIRST_SAMPLE_YYYYMMDD_HHMMSS: 2023/02/06 01:17:30.5958360
DATE_TIME_FIRST_SAMPLE_PRECISION: millisecond
SAMPLING_INTERVAL_S: 0.01
NDATA: 12501
DURATION_S: 
STREAM: HNN
UNITS: cm/s^2
INSTRUMENT: sensor = CMG-5T/GURALP | digitizer = 
INSTRUMENT_ANALOG/DIGITAL: 
INSTRUMENTAL_FREQUENCY_HZ: 
INSTRUMENTAL_DAMPING: 
FULL_SCALE_G: 
N_BIT_DIGITAL_CONVERTER: 
PGA_CM/S^2: 0.034
TIME_PGA_S: 
BASELINE_CORRECTION: BASELINE REMOVED
FILTER_TYPE: BUTTERWORTH
FILTER_ORDER: 
LOW_CUT_FREQUENCY_HZ: 
HIGH_CUT_FREQUENCY_HZ: 
LATE/NORMAL_TRIGGERED: 
DATABASE_VERSION: 
HEADER_FORMAT: DYNA 1.2
DATA_TYPE: Acceleration
PROCESSING: Automatic Paolucci et al., 2011
DATA_TIMESTAMP_YYYYMMDD_HHMMSS: 
DATA_LICENSE: U (unknown license)
DATA_CITATION: Turkish Accelerometric Archive v 1.0 - Disaster And Emergency Management Presidency, Earthquake Department
DATA_CREATOR: AFAD
ORIGINAL_DATA_MEDIATOR_CITATION: : AFAD - Disaster And Emergency Management Presidency
ORIGINAL_DATA_MEDIATOR: AFAD PROCESS SERVICE
ORIGINAL_DATA_CREATOR_CITATION: AFAD PROCESS SERVICE
ORIGINAL_DATA_CREATOR: network: TK
USER1: GuestUser
USER2: 
USER3: 
USER4: 
[...]
0.0007493462143755584
-0.001734372708151508
-0.004774745476716956
-0.0014031917838922593
0.0007399673908679556
0.0016887151593759045
0.0005219704086218313
-0.005687844935522888
-0.0025163647240289983
-0.004576448422584
0.0012438029980211167
-0.0001318943253705601
-0.001245923667842782
0.004538645791817907
-0.00725598275839754
-0.004188384388623707
-0.0018840510933150617
0.0053376295080249
-0.004242790114080043
-0.007522596284756515
0.0018718379157120623
0.0027583952807349477
0.005248771970583275
-0.007820002544934533
-0.006370447788804869
0.001976902778436432
-0.00023158461031651248
-0.004776184052807493
3.992350308662915e-05
0.0039386651758135756
-0.005081513430058798
0.0015587524810838844
0.001579316944843908
-0.0038768484372531187
-0.005174264310845101
0.005247536187761043
-0.0009713170929038701
-0.00800940625259211
0.0012571107212929306
0.0035708760293692307
0.006693485632386832
-0.00828796104774014
-0.006998298288361237
-0.004916070077846773
-0.0027892646958153147
-0.0009172041376463619
0.0028947357818261696
-0.00018421973762182617
-0.007460227055632873
0.0014726633172495532
0.00010051412133546512
0.0010251803020147512
-0.003301705326816709
0.0023068229437570305
-0.0037246654674276173
-0.0060898145324071035
0.0014753878748181143
-0.0016948592337205318
0.002869106656559648
-0.007394211843578314
-0.0028376816288077076
0.003014655242919775
0.004339090692990156
-0.0029203465838695654
-0.004209629766022312
0.002577718791544781
0.000480776200744715
0.004040455759292381
-0.010702898685633637
-0.00567427920506127
0.0031186674236184375
-0.0015864575860409244
-0.0019105329103111656
-0.005822463921129164
0.0018483503371428023
0.0029311382107446663
-0.0017069555933992497
-0.0029714634923608016
0.005160297172948757
-0.0003478490208771685
-0.001400159539883699
0.004579671067941657
-0.0034600399059977636
0.0022237107016865655
-0.0036195529363175164
-0.001999324088340354
-0.003725078950397038
-0.00011791227575689183
0.0030360496150178148
-0.001975964553636488
-0.0012364214857230168
-0.0013824583684309937
0.003910176760568146
-0.004458833117225023
0.0009414303561950231
0.0020473610608549887
0.00624112611062225
0.0013730874782121984
-0.0013687654394074116
-0.001104771355683646
-0.005770981661413355
0.0025103244545125187
-0.0028405548626579662
0.0026080238927979524
-0.0013025415678586776
-0.004751997392621266
0.003362198998895159
-0.0023590331679379686
-0.00012425330034266426
-0.005114654068511728
0.004237344024803953
0.004912842023700842
-0.0072322023326502165
0.0005482017473973008
0.0033916025295567514
0.0039779691411278495
-0.003584871868970711
-0.003130552318047054
-0.002900017838045265
0.002430994951070528
0.00334157733460811
-7.700465776870345e-05
-0.002872926027681666
-0.0005375748238513901
0.005531477553420396
-0.0007418458682063325
0.0008632294064761094
0.0004983423627702223
0.0009098375468534202
-0.0006614417591552727
-0.0014484725145834903
-0.005126067779159796
-0.003243643044204227
0.00600983353203809
-0.0039243152677304076
-0.0022640483999865004
0.004605716610128204
0.007903348212665303
-0.005128919274713723
-0.009598912334109285
0.003127099046147774
0.005263380994392141
0.00030954659622249375
-0.004880519493535062
0.001398500560624283
0.00024245389210656102
-0.0007571256644953048
-0.006821881318274816
-0.00032048289143694783
0.0013621377500869492
-0.006751987743281938
0.0005643897889615945
-0.0031575095858678705
0.004184825523056569
0.0031617902813839624
-0.0013133453426433547
-0.003342759025567162
-0.0023027211672408798
0.006696560261980576
-0.0015237220204800622
-0.002553969239698205
-0.0061052591803638515
0.005918243096057283
-0.0020233516882568548
-0.007049202517611019
0.00277872485325341
-0.0029059875346453177
-0.0013688317039997067
-0.0023742379311710885
0.0008634050170705457
-0.0012383323622868435
0.0005138470719579713
-0.008086955771005266
-0.007548192185900689
-0.0007759264610168022
-0.0033113173400770015
0.0018402651453718443
-0.003731460831394705
0.0020585744183105343
0.00024300010249551286
-0.003595147041819959
-0.0016347034218488407
-0.003308051736469092
0.002085492984612264
0.0009248001222632116
0.0017399820040795455
-0.0020796031509339435
0.000548158966150098
-0.0016959993919860752
-0.005765669372536572
-0.004589727887855193
-0.0024561283497218666
0.001452740440979238
-0.003486101369823169
0.0017544731725942216
0.0013527060262118703
-0.002073378429691509
-0.0028197012408166617
-0.00016607048304671305
0.0009785504767141156
-0.0009664657774602669
-0.0017889937146752524
-0.00045899847205148797
0.004534149058956701
-0.007085032775261619
-0.0002519916844843448
0.00375618053137106
-0.00010495483862501096
-0.005623434068038037
-0.007111298249768096
0.008172888216060114
-0.0014329809192728748
-0.004706501022219768
-0.002350206118198785
0.0018984785584958128
0.0033607284331682585
-0.006006766180835194
-0.0010016957856868534
-0.0030911825011529282
0.0009257357922185833
0.00046861163868434165
0.0007000503589348311
-0.003047249233709087
-0.002494248393544779
0.0008578036326421813
-0.0015291353073955537
0.00422308078884703
-0.0005260708775914747
0.003024043644384114
-0.0024156778140278666
0.0014900954876440244
-0.0011799294993614668
-0.0023128531347653297
0.002123158085970719
0.0007689677546842328
0.002136235766909356
-0.0076333696234555945
-0.0008329749645623299
0.00115288117578061
0.0010469841032729364
0.0017780362505765814
-0.002905485409821716
0.0006168938479627216
-0.0007224261306722041
-3.9535121040963826e-05
-0.0026539613012921673
-0.00041066927552657146
-0.006085067117959945
0.0006693909425927767
0.0013143468593355269
-0.003551327249028558
0.005279470714140307
-0.007612712228603455
-0.005346062708565788
0.0023563071757800964
0.0022881823159356775
-0.009925793974516076
-0.0018769134553966696
0.0037833885908188053
-0.0018246090773661105
0.002619407975616268
-0.0010073597117889004
-0.0002942074459254198
-0.003603768572636479
0.0023955179539725748
-0.001567560850914424
-0.004989680320533424
0.001750481179624662
-0.002814865441905891
0.0001938880148909947
-0.0026972465115377214
0.002180475828617005
-0.000531386782361901
0.00311637052404492
0.00034666760589943863
-0.005274598767085602
0.0077995956340710555
-0.0029488560859958772
-0.0029170912575888146
-0.0006589140300765759
0.004769324900544961
-0.0027632923005975417
-0.002100760432745391
0.005276005227086461
0.0006056009698556115
0.002979323194638309
-0.007757413459463059
-0.0006919369403839961
0.004559023478200027
0.0011976488524907548
-0.005257658480492553
-0.0037756114681576124
0.003415405470339153
-0.0007028133502858667
-0.00110116137928544
-0.0031632207094778957
0.0012939915558181291
0.002424597196620871
-0.003824343314388148
-0.007438614553077185
0.000765768259211407
0.0067940440981154844
-0.005583927504879613
-0.005170561322664552
-0.004234765842904328
0.005955774175303073
-0.003548143562668308
-0.011630189985698747
0.014953748322557248
0.0011724527955741455
-0.010186870762386663
-0.0007579772993098814
-0.0007900893754352377
0.004669491729839817
-0.001972196357575186
-0.0013105393995909984
-0.005725168504936276
0.0015214646859055196
0.007355404679277318
-0.005378385474811144
-0.014760511561237154
0.016120014935999308
0.005365994099085409
-0.01774573549761595
-0.003002747704625251
0.004471036808130091
0.00428711029510474
-0.010140043493709524
0.009237814833272708
-0.009027314293434365
0.007764242268553386
-0.0012465086855676952
-0.011625098968847834
0.004109702141032504
-0.004808303194015272
-0.006156294048686578
0.002025474671687986
0.006475285116727253
-0.0044181186468327084
-0.004082121966572033
-0.006737590760032558
-0.01081317640990749
0.0042087574341789545
0.0008680473906245236
-0.011265312390409352
0.013069622353470303
0.0056515046828025045
-0.0064599777216690375
0.0024351985019610955
-0.01411101005180419
0.0009118319429559862
0.012995718123349667
-0.005423377034080507
-0.0012586625684242283
0.007509081629160434
-0.0035423035394338436
-0.006075723471592839
0.0063367191009054726
-0.008379364776426042
-0.0033701147840789545
0.0036132112438316552
0.0018674737994870268
0.005018237147120008
3.156885871036095e-06
0.0007395737725265681
-0.0016768817512806658
-0.00044396323162900397
-0.0033371374599227167
-0.004351465772596461
0.0032030309656262065
-0.004047206098946424
0.004184146102419791
0.00520263009904492
-0.004396871103578679
-0.0004112947120197958
0.004591983124042551
0.0006761377960013612
-0.0016416522037776156
0.0038493884039283595
-0.00462036805710035
0.004458793501448772
-0.0040230827721959754
-0.009222751770995114
0.004553035528986307
0.0007108018780439254
-0.002324854331023077
0.00784049307533603
0.012175184200908825
-0.0100098382588325
-0.013668812225631008
0.0038686744336632693
0.01103948825561681
-0.009184872951297862
-0.004546513619298842
0.0033085628425525812
0.005427857314866461
-0.0017842992063820471
-0.0078620079331456
0.0002354284129520902
0.00609306895072095
-0.0014347693266554588
0.004210916162077402
-0.0009373436643263802
-0.006478891912260748
-0.0050053126969701964
0.0008322273919520859
0.001716052068127095
-0.0025916945087297865
0.006407175053829202
0.006803799645321508
-0.014046944567906922
-0.0022765308164525355
0.010335227088848636
-0.013107698584341333
0.008367679747098676
0.0008279165482609995
-0.003954963842783991
-0.009221852981517203
-0.005387835378479348
0.010359859853938261
0.004820726313939034
-0.003256341490808039
-0.008210371687755147
-0.0024975559343068795
-0.006983703046867992
0.01095858698632282
0.009744048387114172
-0.008026244429863548
-0.008265890164890766
0.001851611795429404
0.0003294690299723375
-0.012727420371960625
0.012081384460024736
-0.000790380217027651
-0.007846637288279135
-0.00015823949646234483
0.005001715452953123
0.0016855741486316584
0.00812898883177235
-0.007637218267924215
-0.024087899666285394
0.02083862320963456
0.009052159538984823
-0.012862919725249082
-0.005088719278420927
0.002306618761341794
0.008743428490480223
-0.009061925882787633
-0.009735355849943495
0.008088565851605943
0.00784765537253561
-0.012000248037504187
-0.0030119961809670767
0.013283667182382632
0.006553066279020049
-0.00817826293156301
-0.012231056533100226
0.0023293344830199307
-0.009388213694894405
0.0020342210083864765
0.0012087400015205732
-0.006763219497438898
0.005015555183308619
0.008536456804613134
-0.0007557805265587067
-0.008725054717419608
-0.0010243411956739293
-0.006071582698003959
-0.002129694984928424
0.004032785950859844
0.0015690664719579196
0.003045363733489245
-0.007008117556487125
-0.003692869233639265
0.002791985883085615
0.0008476183901924008
-0.003379775046189731
-0.0016752051960405717
-0.004351995589503674
0.0033683316335833143
0.005556011069198164
-0.008039899789419078
-0.0017870856389584884
-0.002014863589191538
-0.003934459808147573
0.002266151766311141
0.000241298579333081
0.0005901789717921017
0.0033591325824662444
-0.0016848832567635428
-0.0009297480202835476
0.001182897529191348
-0.004882149178933499
-0.006320849841757158
-0.008521826050903717
0.0025936920855276846
0.005777274904248494
-0.006738632893249849
0.0007758914756625104
-0.0019136018932276201
-0.0014479003339607816
-0.006442145363407402
-0.009102040095115064
-0.0006994501373902399
1.725052847745487e-05
0.004867842818296246
0.003297077144103768
-0.002713846287222163
-0.003958929160806883
-0.0026359346442059246
-0.004662332760545207
-0.008835704453140622
0.0005629475093980317
-0.004217853805053427
0.0029843879109363396
-0.002952528232095825
-0.0024199111654141605
0.001169371223276295
-0.004286621000923646
-0.0008214482927412117
-0.0039422770832998645
0.0030955048894894966
0.0006429549470761527
0.007330779053848516
-0.00583642560330981
-0.0025274917083130174
0.0012371677283922653
-0.00498852062578589
-0.002036895940086294
0.0037223207284922686
-0.0026161784085608725
-0.013670105996130133
0.00377367988689012
0.003736311220274659
0.002612884908351905
-0.007704496046564222
-0.004706708497563708
0.0030756565200821136
-0.004063874115498861
0.003657907486654205
-0.005491735692821991
-0.005813675739513614
0.005473531119059536
0.009696644289826254
-0.0051712066522577585
-0.008481349538081552
0.001384864552390019
-0.0027282718883489543
0.008665568759070406
-0.0048584391068647054
-0.004771370908977991
0.004718389566328353
-0.0026122031440187197
-0.009080278249959843
-0.0019151008438181025
0.014850995188886091
0.0010747036962235803
0.0010497242089994889
-0.005741960263348064
-0.009529745462735186
0.002168832844669154
-0.0028787399181751322
-0.00143861473137808
0.007808482963069723
-8.63807618617876e-05
-0.000378883371704615
0.0006774854442925686
0.010114721758623364
0.007331955976749545
-0.021652118094025848
-0.01434283202661169
0.015530103457973168
0.019347180525046265
-0.001457946452918617
-0.027604833273940938
0.002988594349419027
0.01395134217445505
-0.007073834535369306
-0.003620211568088153
0.010276446152582523
0.0018245228982872288
-0.015874551684285657
0.008127721187632945
0.004744803229832992
-0.0030686500584204543
-0.01677243165619873
-0.006135680896134574
0.01250302791110126
0.008663347109796965
0.0028869019477973496
-0.0057460014958179
-0.01607979059911256
-0.0030771001392107585
0.010950196873076338
-0.0025577339680217135
0.00046338663991094095
0.006861687233973045
-0.00525054035397683
-0.0029328032814582034
-0.007505408848267886
0.0025464320583948557
0.006724362987358732
-0.011740741157035139
0.005159701176446178
0.005395358833978813
0.0141051099726358
-0.011215990780457933
-0.01055589116753413
0.0031900801497267693
-0.0035814363626774787
0.0003247784415497781
-0.0039296817963624065
0.00413788041061148
2.5515561375933324e-05
0.0016635206858291035
-0.0062015863922276065
0.004841171866186139
-0.00917482749574543
0.005683281497023352
0.006275949621206656
-0.0062835085456361345
0.00533343214221634
-0.005801011468770942
0.006450059357145147
-0.012038535233188204
0.004194209147026705
0.0013707088363664136
-0.009893191482725449
0.0012997470196610972
-0.0030353129046413493
0.003938206765306677
0.0012900608909636418
-0.0030345505516913775
-0.011711378568945635
0.012680861752811776
-0.00428810756075053
-0.0010898006771866379
0.006128706889964016
-0.004585626847147753
-0.0020729603083203497
-0.006292662312489882
0.007431151472460568
-0.007954400891760681
0.0012493619106500773
-0.003207674963630762
-0.0029744622688992
0.004849740812133523
-0.002088234008302048
0.010740625183055507
-0.0069182997260484515
-0.0072172016920951905
0.008369998682253854
-0.0009371071598461363
0.0006234960775815397
-0.002211807364103654
-0.004164857025148097
-0.006109374855911339
0.002149364420408727
0.011321440962580429
-0.0037996570725788528
-0.009477874003408507
0.006355897907376093
0.004863831963607958
-0.0005104735628803544
0.0031312458921095732
-0.008477700881528688
0.0028873521110174133
0.0002757729530236818
-0.002023979255126284
-0.009012271071265232
-0.003396718501919845
0.003731665073298888
-0.00942476605257887
0.0031835536692393605
0.004019617379829959
-0.007524602035076516
-0.005943641532268773
0.003015481663133599
0.005253624113072993
0.0038768085498021567
-0.009035353205984017
-0.011970173970073756
0.007009049282394659
0.007316854340312181
0.004195395771902897
-0.003522680171881348
-0.004804323370878391
0.005834872949804838
-0.00435022387475773
0.006961316847105462
-0.0060627267200682065
0.0012545356138270922
-0.001562808142726691
-0.0033002479751305996
0.008020487990572898
-0.001609746409964697
-0.003963816682105538
-0.00411789611192684
0.0029993399312274994
-0.00493467512327595
0.0034194785517014294
-0.005144550097461362
-0.003951100991869087
0.00270675278921145
0.009290622270978599
-0.0011084678550710866
-0.009421410874999427
0.012060463008536616
-0.0061476523229520635
-0.0050361853486596995
0.004386577018738662
0.0011714363225076836
0.0014438256190634807
0.0035693089857976234
-0.006589263656861077
-0.004354471372835296
0.01379102552838296
-0.0006842261167813628
-0.003977616932625541
-0.0007063039766718544
0.004660909115667771
-0.001933777904634745
0.0021048900879288386
0.003673462135864235
-0.006202147411882887
0.002462786983453888
-0.001496075620517967
0.0009741072357067204
0.0024363611246311454
0.0005534070288793343
-7.723877349700155e-05
-0.008372260356327352
0.0067485833030297565
0.012874198895900807
-0.0036482674016408267
-0.0020392381393056773
0.0055364123096687005
0.0025775207193663775
-0.0034053755069392644
0.000325662846107383
0.0054558889317788415
0.0030611802222826594
-0.004797504623635305
0.0037450513824449257
-0.0033285770998828924
-0.002898108581464266
0.00958729935226896
-0.0033595715861452166
0.0009651136132818129
0.0028450069922882908
0.0018823650144144726
-0.0028474730070998226
-0.0020230673221963507
0.002550559264461074
0.005660799077303718
-0.006137179860497163
-0.005110810214326452
0.0054890702928164425
-0.0033152662712764348
0.00547839481865369
0.0032609382466644017
-0.00015369801996434367
-0.011794472464946975
0.006169585991707236
0.012663956852603507
-0.008580196885215533
-0.002517276731946231
7.389545096976344e-05
0.0075983976419064896
0.0012603887476928192
0.007428287085917047
0.00019282935215792364
-0.006331023727607428
0.0004026916970951306
-0.0023421569091424416
0.01379624009598847
0.0023827108733099154
0.000246454151526983
0.000198665734336737
-0.004312067489901633
-0.0004208974828812599
0.006216646581398414
0.006907165871689956
-0.0029829003551893763
-0.0020268650516848405
-0.004548439051398619
0.006040352911535111
0.0038153057381570175
-0.003224059974113742
-0.0021301579158128406
0.009788261484039747
0.011185793025759965
-0.003154547181231811
-0.004243358275927928
-0.00027850810274397426
0.004281688285820416
0.0001385947748131392
0.0051922035907869535
-0.0026049618826636703
0.0011401722846134034
0.004901355091844752
-0.0069995706960802335
0.006097444008039816
0.0014638279682372202
0.002003557410677584
-0.004170927525064063
-0.007596704221626054
0.010034844104715144
0.00580656530269
-0.0006728726962280695
-0.005538841101174561
0.003297582916403534
0.0024242498258641105
-0.002125253407574353
-0.002754210807907306
0.00278727298464457
0.009485353582153697
0.001975404045014272
-0.001691684140864828
-0.0025433746394340592
0.0008427927533363513
-0.003601743166347412
0.007283106353173205
