AAD_Filtered_TADAS_FILE
AAD_BASELINE_CORRECTION: BASELINE REMOVED
AAD_FILTER_TYPE: BUTTERWORTH
AAD_FILTER_ORDER: 1
AAD_LOW_CUT_FREQUENCY_HZ: 0.025
AAD_HIGH_CUT_FREQUENCY_HZ: 40.0
EVENT_NAME: 202302061024
EVENT_ID: 13207
EVENT_DATE_YYYYMMDD: 2023/02/06
EVENT_TIME_HHMMSS: 10:24:47.00000
EVENT_LATITUDE_DEGREE: 38.089
EVENT_LONGITUDE_DEGREE: 37.239
EVENT_DEPTH_KM: 7.0
HYPOCENTER_REFERENCE: AFAD
MAGNITUDE_W: 7.6
MAGNITUDE_W_REFERENCE: AFAD
MAGNITUDE_L: 
MAGNITUDE_L_REFERENCE: 
FOCAL_MECHANISM: 
NETWORK: TK
STATION_CODE: 3116
STATION_NAME: 
STATION_LATITUDE_DEGREE: 36.61618
STATION_LONGITUDE_DEGREE: 36.20661
STATION_ELEVATION_M: 33.0
LOCATION: Kahramanmaras_Elbistan_Turkiye
SENSOR_DEPTH_M: 
VS30_M/S: 870
SITE_CLASSIFICATION_EC8: A
MORPHOLOGIC_CLASSIFICATION: 
EPICENTRAL_DISTANCE_KM: 187.47
EARTHQUAKE_BACKAZIMUTH_DEGREE: 
DATE_TIME_FIRST_SAMPLE_YYYYMMDD_HHMMSS: 2023/02/06 10:24:59.3269140
DATE_TIME_FIRST_SAMPLE_PRECISION: millisecond
SAMPLING_INTERVAL_S: 0.01
NDATA: 13501
DURATION_S: 
STREAM: HNN
UNITS: cm/s^2
INSTRUMENT: sensor = CMG-5T/GURALP | digitizer = 
INSTRUMENT_ANALOG/DIGITAL: 
INSTRUMENTAL_FREQUENCY_HZ: 
INSTRUMENTAL_DAMPING: 
FULL_SCALE_G: 
N_BIT_DIGITAL_CONVERTER: 
PGA_CM/S^2: 17.080
TIME_PGA_S: 
BASELINE_CORRECTION: BASELINE REMOVED
FILTER_TYPE: BUTTERWORTH
FILTER_ORDER: 
LOW_CUT_FREQUENCY_HZ: 
HIGH_CUT_FREQUENCY_HZ: 
LATE/NORMAL_TRIGGERED: 
DATABASE_VERSION: 
HEADER_FORMAT: DYNA 1.2
DATA_TYPE: Acceleration
PROCESSING: Automatic Paolucci et al., 2011
DATA_TIMESTAMP_YYYYMMDD_HHMMSS: 
DATA_LICENSE: U (unknown license)
DATA_CITATION: Turkish Accelerometric Archive v 1.0 - Disaster And Emergency Management Presidency, Earthquake Department
DATA_CREATOR: AFAD
ORIGINAL_DATA_MEDIATOR_CITATION: : AFAD - Disaster And Emergency Management Presidency
ORIGINAL_DATA_MEDIATOR: AFAD PROCESS SERVICE
ORIGINAL_DATA_CREATOR_CITATION: AFAD PROCESS SERVICE
ORIGINAL_DATA_CREATOR: network: TK
USER1: GuestUser
USER2: 
USER3: 
USER4: 
[...]
-6.800220894818222
-5.776274252681383
-4.437361778537175
-2.821715112595001
-0.868302929114645
1.0056298326372124
2.393001722519205
3.1967731633179297
3.2376954137837757
3.321713011443676
2.7420217396233433
2.0076043594724298
2.2358029977335434
1.8871846748219798
1.6208187614360308
1.0681390095855898
0.5010684938872065
-0.3047148212608899
-1.8504088628939555
-2.278786684162426
-2.6406581175014714
-3.4001166131914253
-4.730019610619183
-6.979380554601772
-9.438090358145429
-11.405429304915044
-12.80763339704226
-13.560657109893187
-13.189631590827604
-12.263798108146764
-10.681595392733575
-8.950764694317623
-8.17525978645595
-7.3773161940454015
-6.770919694551694
-6.050930571251091
-4.547080196467375
-2.8349983569131987
-0.76545229789864
1.2857100429263926
2.1557659240047573
1.7337269243798785
1.0464568661870275
0.19907117077694567
-0.7467407527847658
-2.06226388234103
-2.808252965813504
-3.5884016266098837
-4.039376810811511
-3.8632725808678696
-4.6295471415535925
-5.660059373570203
-6.822365337188239
-7.853672018638628
-8.744701008304348
-9.763014207917282
-10.166796797091212
-10.241895617386861
-10.245625179272398
-10.020643461445054
-9.26164721373075
-7.618886860752423
-5.612769356065398
-3.1963877514511854
-1.0187660818440305
-0.1544674223138943
0.18893195180021144
0.2670991699218262
0.31459256453736506
-0.2719290154516486
-1.589429751463798
-2.9909078100184976
-4.80925523870784
-6.426662432921158
-7.37024915013038
-7.664760544473876
-8.140453779023215
-8.914163882294233
-9.192003103822907
-8.932236788534405
-8.477029961997387
-7.571966023712215
-7.274187630285425
-7.8556889368030545
-8.034074563628492
-7.701117425438717
-7.018567951281334
-6.025410130758655
-5.275246395574491
-5.080577741378496
-4.717063425252024
-4.332739632151105
-4.31436771733629
-4.2012089240129455
-3.7264878788585794
-3.2731980756677492
-3.2512933221762137
-2.9303181508996956
-2.4967431178642934
-2.3073840239915397
-2.417642752865397
-3.170939821621058
-3.178633523675386
-2.828320118028914
-2.616842935141111
-1.7580553852265353
-1.3795873184995682
-1.2226857463097909
-0.8294548111554543
-0.2284084299280298
0.2634980876645479
-0.013713992725388067
0.11508893218476278
0.4586676006838864
0.17916033764156458
-0.3333726874673512
-1.0008993271721935
-2.002123943876375
-3.370532130535047
-4.341582317438383
-4.643539236122907
-5.0455707262950185
-5.431000173686117
-4.974072713105954
-4.36193403083082
-3.326615258548568
-2.60858122989664
-2.5317614015747516
-2.5456266756994825
-2.9025908384104557
-3.267897941449909
-3.626290029667636
-3.350725651984427
-3.4354788816006807
-3.6029227709740494
-3.931466907383428
-4.842395836199742
-5.725646003614068
-6.43675919904116
-6.969405865493279
-7.907825065394916
-8.125299189350264
-8.302918733100116
-8.778709786358762
-8.66301734185113
-8.45326816284059
-7.790545642726547
-6.756558321488481
-5.865253136272317
-5.669346988213146
-5.746726870626034
-5.358051316877237
-4.5343073624937285
-4.020062886701585
-3.320954627719066
-2.114776107906293
-1.5761898979224427
-1.0800500311598282
-0.3899985368877521
-0.08439299367694143
0.4015344456969063
0.8596730407035593
1.2825118132714977
1.7071637159597144
1.565103045953058
1.5712815052497722
1.3676421549386364
1.261922325805951
0.95665080666219
0.5154694817358211
-0.700692809715962
-3.2277711358308365
-6.057704697431077
-9.534558821531327
-11.804196692625762
-13.443459611913385
-14.17382624648664
-13.465866245998482
-12.124702130241515
-10.197615734450922
-8.81681972458864
-7.887121852449222
-7.256832134851248
-6.227723159480365
-4.861676140227271
-3.8638193371897716
-3.0990287803456167
-2.393290090984546
-1.6926285688039089
-0.9930785907380949
-0.7938904596592712
-0.962436083668513
-0.6056096746803021
-0.3819291893903325
-0.3140460942213806
0.22870478149466913
0.486435790249227
0.8297618058863221
1.4246920840263269
0.9206421277112647
0.8463065958774157
0.9702063938416732
0.26307683935027376
0.6568416886331239
1.7901859420642008
2.988660842135507
4.557817164095348
5.5818723376169705
6.329702114801958
6.33697578935089
5.192979462524826
3.3103679423828103
2.104681242724552
2.0922409627324448
2.0868276817089444
2.562212394589907
2.66251871867632
2.451799547798991
1.9982996800661519
0.9385089250374292
-0.6644019549022057
-2.069097954396843
-2.9192775655468486
-3.582245435365001
-3.9577300283645527
-4.342520549212776
-4.606676926969604
-4.78651733357456
-5.273805553266246
-5.129850289124744
-4.364284553598117
-3.38461886911625
-1.4179872700989102
0.4493962240520317
1.9762865624070662
3.252964540330608
4.126576856349898
4.906694131104288
5.4363355198065015
6.309425759034805
7.48788991575061
8.23694470143932
8.354063739712242
7.303724445285854
5.913836748849773
4.862800379398887
3.865364739982225
3.883592128859147
4.632768647211387
5.234141986571827
6.103086630632743
6.963802741708436
7.297574261157242
7.280200259216797
6.292668329967077
4.762991826964352
3.5300362382760295
2.137361853228877
0.9435243684909881
0.6311868848200141
0.2797653401629837
0.17496631676076452
0.3862075938659678
0.23832975693090694
-0.21093028385375798
-1.184279168148047
-2.3128417474164658
-3.2597189860854763
-3.961941718584063
-4.232975896471571
-3.632836784441439
-2.9480545618812783
-2.180298484811291
-1.0743115770357718
-0.19897587657964275
0.45677656919749154
1.3222683770847017
1.9889090718921694
2.8793456202859384
3.826460976141228
4.211159413714746
4.420769728614321
3.9404250524286817
3.1431573673047972
2.2943283175446307
1.2751535354574148
0.46633719349617125
0.01626327404449624
0.005406516514021981
0.10534327121193435
-0.6302488357118382
-1.8089668330340638
-3.363638020149042
-5.037005800669892
-6.522922814795109
-7.720657437479239
-8.409892454510496
-8.968643262767984
-9.344372515761519
-9.680351528290526
-10.12204750232117
-10.635446028428339
-10.942859167065572
-10.563824639060472
-9.366799877094493
-7.8914215875401865
-6.500548081747899
-5.265186257302003
-3.8874775608853813
-2.602140512379307
-1.6750009314506997
-0.5577363367417412
0.3108660638167401
0.6146018449102606
0.5978439542479054
0.17864717884001155
-0.0055329451264245115
-0.3268641035969193
-1.0952541490109409
-1.5357532582879119
-1.9747767983714868
-2.8271576526869087
-3.5185935876439003
-4.133452584132024
-4.9240560470482375
-5.463014213249515
-5.853277141450476
-5.936890584806645
-5.806880128171032
-5.520139734621353
-5.315588350756635
-5.33585189508913
-5.392199223612332
-5.4311922157831365
-5.297284268444002
-4.7223048563853975
-3.4851490940897043
-1.6431235207793387
0.19621329806055582
1.5486517421536312
2.7564665727227697
4.346725971254857
6.380775057569178
8.421528820770297
10.111776961789143
11.528277451183612
12.278638886808453
12.62046362500359
12.970882569604063
12.771422993368878
12.413345587154197
11.809431201629799
11.103341312296209
10.48409465708867
9.654750485359317
9.363901319662604
9.096521430667817
8.248087167629574
7.5401412607938525
6.923506120926667
6.383665232720042
5.471699155136744
4.428529572431115
3.7787395526462375
3.353351708756091
2.990842795718801
2.549774902614144
2.3028710467711857
2.4423970713252463
2.518593961633773
2.332224638766941
1.8083397799995806
1.2323260806795637
1.3413697044674906
1.6342553815072636
2.2262711529816954
2.7675560626433593
2.73310529240911
2.515970765837051
1.734166766951365
1.2607993095825656
1.118093980980767
0.9476392250995291
1.2403637378346304
1.4292369955836777
1.717012338832807
2.14493279661934
2.624597428344149
3.290073160623108
3.8886225025826495
4.309914032606184
4.584269151831179
4.689614717321619
4.703993409611474
4.660677933360842
4.284666186366661
3.6632783858211484
3.204292136910802
2.941228034603518
2.777280539977667
3.278785174250102
3.660507794991963
3.7794085907769
4.148253474890542
4.432042313387779
5.53148781615149
7.008073326495801
8.182738636610782
8.98132720905036
8.952435876059317
7.939009839189536
6.40233316715665
4.683563747746598
3.243103574162354
2.6664533935676005
3.163476340457854
4.075484188181094
4.933113370320157
5.862449874540123
6.41085882718671
6.817557001388317
6.7730451559598235
6.330959994526344
5.990442193801272
4.972397734978519
3.918389418634708
3.028623293208138
1.910147170224814
0.7881845651475627
-1.0167994327159107
-2.7907354625175684
-3.7322440557733767
-4.124542602884186
-4.196082624423217
-3.930624156276166
-3.473223665659904
-3.4262777954003103
-4.056518649116109
-4.99332903543132
-6.013518791864243
-6.917726081789329
-7.482971523015082
-7.617192505851882
-7.434871977265676
-6.567685615675472
-5.341917589316358
-3.7883572645843495
-1.8532671754134182
-0.22138363694566054
1.6249824197069596
3.1631630196920644
4.118170309354164
4.724529381043618
4.717184339914142
4.149696005367632
3.281030966777231
2.1842092525235772
1.481401866695402
1.5951444942959132
2.0641881677156424
2.783608879235253
2.8049227369797554
2.3773993605088184
2.342474723984735
2.1651382443981984
2.0520586325403802
1.9684706098890352
1.6084757649963792
0.9096047608018152
0.28441552425966127
0.08636047120455338
-0.06502312216459676
-0.22577528773280583
-0.40171423321005084
-0.38019783373185817
0.06519898150509162
0.26438695930215145
-0.04176295767607416
-0.5004637862431393
-0.9909713261266829
-1.5953968894293724
-2.007395632984685
-2.550611988472721
-2.960974957903162
-3.5422987116231086
-4.174692824403394
-4.490899588176594
-5.218140010049428
-5.306298727772221
-4.798873925963126
-3.8746381755352006
-2.872676710938121
-1.6679529644257842
0.05997241090496394
1.8184264010678037
3.80682170548393
5.686447402004673
6.900560494102831
7.722791395838041
7.641032381842035
6.741187629884381
5.829137079680268
4.602851061001844
3.5365602195162498
2.342410401573402
1.088697160554336
0.21524828464722828
-0.06558935068055981
0.25901286377698546
0.7848442726035407
1.5258605273499837
2.234986527942493
2.837785915735451
3.555352815613563
3.875792576027638
3.8721789546130148
4.060024232718598
4.171521624251543
4.869646844266996
5.711941263019238
6.827056480961783
7.858849094544997
8.388602841078848
8.678559477791472
8.759488668895509
8.742750263194806
8.601313390021607
8.122629310399834
7.03808546143631
6.485383599783941
6.028380791648302
5.845494651531615
6.044148339789364
5.8438530256904135
5.569715991452751
4.852358400234106
4.248913219529199
3.8031358834466054
2.7807734705413725
1.9431246503832658
1.0555479043020977
-0.10635462129925007
-1.134131787709526
-2.276026135266954
-3.7744424077688397
-4.682488460379146
-4.963492526049546
-4.489389620354729
-3.1770886181191376
-2.5799325894512317
-2.4507467320679908
-2.916603838456613
-3.6272731397757796
-4.0773439116831405
-4.372188005934056
-3.685060146323472
-2.623967039776715
-1.4268598631793552
-0.07087442696120694
1.1376201566368325
2.298972594740855
2.9531341972469614
2.8490935602346537
1.9226884105715323
0.970276060571422
0.08779208348287955
-0.9128785067533669
-1.8869956065132414
-3.086473446368954
-4.356689511222018
-5.337609704770541
-5.260560215871415
-4.392887275690653
-3.329079850749652
-2.1461403407505637
-1.264247792612655
-0.8582622088580696
-0.41318945836337195
0.313675184634411
1.4327370720873231
3.0263109893526003
4.63098680351921
6.134718474154569
7.494419154299929
8.224262584156781
8.277307663382313
7.880543893495602
7.276999894185339
6.633650318396688
5.878552914266733
5.412052514720621
5.4331318157530655
5.7084144488583535
6.601319906316398
7.849665658169862
9.17748727965275
10.638183734586368
11.538969605057886
11.936628123334277
11.837363222600628
11.06637456202514
10.000152335001735
8.974767273571334
8.0577820767728
6.918636259118402
5.597413813061479
4.376207344387812
3.0681767244779037
1.919453002753965
0.9594676857192974
0.2161821328224993
-0.06714296155901328
-0.0880486478448153
0.2725013357660436
0.7011754008824385
1.091253465532978
1.3037157553012513
1.2675802755265724
1.1437853142374144
0.8418850341175166
0.18532056317994217
-0.686708971933322
-1.4181833746938663
-1.795361636266727
-1.6320586992582915
-1.1390017033031088
-0.5895687727443378
-0.0908919544985166
0.457038827807719
1.2479123156238379
2.068568033077282
3.0759078958835446
3.856927972021001
4.125634093227829
4.065503168140516
3.7920763075979758
4.0348629910245615
4.459836251511475
4.899817360880299
5.342193222686167
5.568589122152108
5.697571126494318
5.730523676468174
5.991381881459433
6.022766488047708
5.7397299715921815
5.864407762447033
6.498727598828677
7.416146229132531
8.413111927970704
9.60311567105583
10.748383773808879
11.649594353344822
12.260263427985471
12.74455827441955
13.068091506476536
13.117926955799737
12.955308159043685
12.7761853409022
12.69285691465833
12.666512809274781
13.11187622538812
13.924914294106845
14.88972662682291
15.944052637605372
16.64831196721822
16.987861476677363
16.98140448404466
16.557219348121823
15.859173872705771
14.516776167301629
12.69420841134271
11.030456760927763
9.548555024037478
8.507229204423252
7.8362165123555805
7.291818397376075
7.063630415594098
6.912387951249804
6.724407860919175
6.370532230394499
5.68030479866247
4.693991096759001
3.542274080637759
2.581771620471859
1.9004186978633721
1.730709458441092
2.063444789465655
2.4726503797019777
3.1381698779461433
3.9067170060370624
4.660133119047584
5.256573917179812
5.47847250826817
5.590526609304636
5.105736769930195
4.2643647994091
3.3311597536466375
2.0230535349733576
0.7394899737406526
-0.5155588427867561
-1.7972703786677766
-2.9004051593058153
-4.0198970520941995
-4.997839158694448
-5.659587067640495
-6.1986233563400805
-6.51436060163051
-6.861123672139474
-7.2999514905952445
-7.842057413591176
-8.475168200815482
-8.903940900436314
-8.732794089643145
-7.871307471494346
-6.389691164300368
-4.52028861250105
-2.750633101840222
-1.3232436631082185
-0.2924512057549487
0.5573690554057703
1.4725814420704209
2.5812213245984323
3.582768779032473
4.272456258376237
4.624351021524687
4.428109247603517
3.8243037190314997
3.1474764775482886
2.7007357209629075
2.611786507643049
2.496075284580752
2.3556164212355593
2.38508479016029
2.684561179789543
3.0502444773761277
3.016090465168438
2.458586161609981
1.749250536908483
0.7496652955622792
-0.6389777085071939
-1.7336288256323509
-2.33834118923216
-2.4963142054751213
-2.5548765594301486
-2.7085851906330363
-3.1774906528208695
-3.911971789262803
-4.642495074850813
-4.9431599965170925
-4.731332635136846
-4.496881732799077
-4.078850077150209
-3.634302819832497
-3.2876558705426397
-2.9580114590878446
-2.6611660749693415
-2.2539134037137787
-1.6692739141067423
-0.838260576287733
0.08462827718506513
0.9766806540526726
1.7365860832116793
2.335300687698207
2.6680168159851676
2.827519591084942
2.9775874186855615
3.127127694199291
3.3237967366428323
3.4289369959596203
3.5871516347780883
3.8194365141492495
4.242579203616011
4.484072019035552
4.242645036290183
3.618429822003632
2.5620911905515187
1.5048045371043415
0.5797279706069388
0.12389554267504889
0.2397369797047161
0.4859157714384644
0.5775754878353552
0.5033840906714377
0.30157722120718655
0.44121176466240025
1.0254304261042237
1.8504954759730796
3.2607202282667367
5.056126372475463
6.917072617830503
8.748636539851395
10.312249982831679
11.429178869951862
12.057180615685544
12.20240541079462
12.146164806957554
12.015167973387598
11.843428713810738
11.762396016657434
11.305142754899535
10.387632126793754
9.541662419312122
8.931282853860608
9.000244364870934
9.480608339689686
10.044308490785326
10.369781605286184
10.141278392220876
9.339273636796797
7.952917414739355
6.387623197466738
4.9667365618146455
3.9951559912162575
3.5214419992403636
3.611892833677519
4.160970608329876
4.874707332926922
5.688491825093572
6.412645398640904
6.9552018262265864
7.601020599945179
8.470443629160316
9.497450125531579
10.302497425554508
10.552065909986307
10.020601748465815
8.919994255452217
7.496263267337339
5.8003738714656485
4.072500901023283
2.458516676745777
1.2260018518708744
0.1751743299078772
-0.8282011226329735
-1.5051977121338238
-1.9649975343455492
-2.2309834068260868
-2.5339041487976552
-3.1378957347609826
-3.711602330658358
-4.233835160274453
-4.313365433102597
-3.8483768891473766
-3.4076977885891315
-2.904192725124659
-2.320421613556998
-1.6274903509328666
-0.745016392884999
0.301713812489107
1.4503926242409386
2.4740193716486414
3.4325285784727044
4.411036450357697
5.230662842467156
5.887641970095072
6.159942927892367
6.111009226515958
6.026747072866512
5.7085317496012715
5.251598899829525
4.733002996901177
4.020177422261274
3.185290051720424
2.563557418578643
1.8667541952792588
1.290655847641794
1.1599089248886285
1.1752997336334572
1.269280661573801
1.1970127833792392
0.6995736802749682
-0.16061672616402883
-0.9246611194354933
-1.4518153777224636
-1.380008664536113
-0.8243020332059665
-0.23405389098697876
0.1630502164410913
0.0361725428012671
-0.5003253150733411
-1.4189123734922109
-2.555340710573567
-3.3831056822033685
-3.8641216952417166
-4.041169622161984
-3.6325105166542437
-2.7215854842272638
-1.458951256262466
-0.24916949356385346
0.387758443677219
0.5741749967623256
0.6770399554981311
0.6985753518198358
0.6945483495283694
0.9956365321359939
1.4691003670044809
1.8524272530090755
1.884431684953579
1.5401778064282716
1.0478546996846383
0.7201031902855264
0.8136767469097602
1.16538024206677
1.657433877202954
1.8187280934959267
1.4185948193429658
0.8731965620959079
0.37720907320724584
-0.08489648522305487
-0.6284256660578671
-1.418202510440109
-2.0684564233215004
-2.534873020420853
-2.667147731054034
-2.613670102800182
-2.697704981077998
-2.7782546735935743
-2.926578113533514
-3.049799545850497
-3.070504501104056
-2.832436420870082
-2.783006258722415
-2.8571263163591194
-2.7082945355116044
-2.6463102925817457
-2.652361160610197
-2.550829927281966
-2.3488197304082403
-1.6532562753571332
-0.35886351399501626
1.0070163345849519
2.326527863761064
3.4335753238581663
4.122829056432545
4.459936457278049
4.743310445142388
5.104169072825853
5.561221027560953
6.281839272814044
6.958888746737337
7.522297914064926
7.946972387318914
8.120168588206864
8.063897038879604
7.779482479806246
7.445488692149256
7.119425610905656
6.6586212831809695
5.98232791108444
5.012158365982317
3.809003970929435
2.451342933362669
0.9524960760054665
