AAD_Filtered_TADAS_FILE
AAD_BASELINE_CORRECTION: BASELINE REMOVED
AAD_FILTER_TYPE: BUTTERWORTH
AAD_FILTER_ORDER: 1
AAD_LOW_CUT_FREQUENCY_HZ: 0.025
AAD_HIGH_CUT_FREQUENCY_HZ: 40.0
EVENT_NAME: 202302061024
EVENT_ID: 13207
EVENT_DATE_YYYYMMDD: 2023/02/06
EVENT_TIME_HHMMSS: 10:24:47.00000
EVENT_LATITUDE_DEGREE: 38.089
EVENT_LONGITUDE_DEGREE: 37.239
EVENT_DEPTH_KM: 7.0
HYPOCENTER_REFERENCE: AFAD
MAGNITUDE_W: 7.6
MAGNITUDE_W_REFERENCE: AFAD
MAGNITUDE_L: 
MAGNITUDE_L_REFERENCE: 
FOCAL_MECHANISM: 
NETWORK: TK
STATION_CODE: 2101
STATION_NAME: 
STATION_LATITUDE_DEGREE: 37.93088
STATION_LONGITUDE_DEGREE: 40.20278
STATION_ELEVATION_M: 692.0
LOCATION: Kahramanmaras_Elbistan_Turkiye
SENSOR_DEPTH_M: 
VS30_M/S: 519
SITE_CLASSIFICATION_EC8: B
MORPHOLOGIC_CLASSIFICATION: 
EPICENTRAL_DISTANCE_KM: 260.24
EARTHQUAKE_BACKAZIMUTH_DEGREE: 
DATE_TIME_FIRST_SAMPLE_YYYYMMDD_HHMMSS: 2023/02/06 10:25:09.3579380
DATE_TIME_FIRST_SAMPLE_PRECISION: millisecond
SAMPLING_INTERVAL_S: 0.01
NDATA: 18251
DURATION_S: 
STREAM: HNE
UNITS: cm/s^2
INSTRUMENT: sensor = CMG-5T/GURALP | digitizer = 
INSTRUMENT_ANALOG/DIGITAL: 
INSTRUMENTAL_FREQUENCY_HZ: 
INSTRUMENTAL_DAMPING: 
FULL_SCALE_G: 
N_BIT_DIGITAL_CONVERTER: 
PGA_CM/S^2: 21.591
TIME_PGA_S: 
BASELINE_CORRECTION: BASELINE REMOVED
FILTER_TYPE: BUTTERWORTH
FILTER_ORDER: 
LOW_CUT_FREQUENCY_HZ: 
HIGH_CUT_FREQUENCY_HZ: 
LATE/NORMAL_TRIGGERED: 
DATABASE_VERSION: 
HEADER_FORMAT: DYNA 1.2
DATA_TYPE: Acceleration
PROCESSING: Automatic Paolucci et al., 2011
DATA_TIMESTAMP_YYYYMMDD_HHMMSS: 
DATA_LICENSE: U (unknown license)
DATA_CITATION: Turkish Accelerometric Archive v 1.0 - Disaster And Emergency Management Presidency, Earthquake Department
DATA_CREATOR: AFAD
ORIGINAL_DATA_MEDIATOR_CITATION: : AFAD - Disaster And Emergency Management Presidency
ORIGINAL_DATA_MEDIATOR: AFAD PROCESS SERVICE
ORIGINAL_DATA_CREATOR_CITATION: AFAD PROCESS SERVICE
ORIGINAL_DATA_CREATOR: network: TK
USER1: GuestUser
USER2: 
USER3: 
USER4: 
[...]
1.807787778375452
1.1771805449269934
0.13069390349812987
-1.0666341206354604
-2.1678973928846546
-3.28047949924733
-4.402130573984477
-5.232401720024948
-5.58969290403309
-5.660448810922778
-5.78094652894678
-5.936743119287856
-5.7773683392842985
-5.231194275050791
-4.64751642274403
-4.164051887925096
-3.509010354460538
-2.6364843339359125
-1.8270705173335928
-1.1625708719310832
-0.4335038081247221
0.476206640920796
1.4429189828789395
2.222138987523384
2.5054026574966697
2.2346000695592974
1.7011084433908592
1.1415368503491046
0.7022686483759403
0.6073174238022905
0.9236474337262978
1.5020187819255697
2.214768438141715
2.998603222931738
3.999751337736377
5.486910552454274
7.412899548336667
9.534022712240981
11.698602925820222
13.76280193760765
15.589519329615218
17.128219863898156
18.324583036364903
19.029122893873605
19.11042455143565
18.565530464748672
17.5206069109954
16.221330004529175
14.829836160677594
13.357335693882758
11.686469310085835
9.760348105774128
7.844477740866506
6.149276244984959
4.6847288173450075
3.4433237416707994
2.2995125255089075
1.0540367948846228
-0.2599640623132367
-1.394892157060795
-2.2472484018599364
-2.9567008451263246
-3.709770389938612
-4.342125626176081
-4.534111056068212
-4.382310968723102
-4.181996536424162
-3.9667132012751156
-3.5098948449969662
-2.7305304464686926
-1.9320388631350007
-1.433051329337542
-1.256768316757414
-1.4467879675514908
-2.1985793207159885
-3.480312379684696
-5.033191569469927
-6.579477189842596
-7.812552470321682
-8.4756651436654
-8.45390654750285
-7.860193590276347
-7.000439681234094
-6.0651681477952275
-5.247443938506148
-4.788606470768845
-4.591031074337307
-4.435209625651569
-4.2689073516082425
-4.043201079699886
-3.6240658230069824
-2.9673218664249132
-2.1337557988150957
-1.2387055057219334
-0.4601051716967281
-0.01584309899132756
-0.2143527987869926
-1.0827341152098071
-2.246940859850841
-3.5080805910645756
-4.783008825838035
-5.751051168699431
-6.1470142926274915
-5.966474535362929
-5.412208689133374
-4.631640671882893
-3.62065609397169
-2.3748138462939723
-0.9007049238654444
0.658178995693554
2.02914683696094
2.969514320804813
3.1912382459500708
2.3889662098461906
0.6986980489974248
-1.3722674629441296
-3.4556841107931255
-5.226259978223784
-6.293265776768538
-6.550306821928826
-6.258704468811024
-5.777687370951976
-5.32995024185671
-5.014540592742938
-4.91386312029192
-4.9435001273542545
-4.805329270544435
-4.292677958699437
-3.522861955095477
-2.59823429143217
-1.5685803402234268
-0.6348923440543501
0.2151294728596735
1.1146506148218651
1.9788443398062643
2.7093489363274497
3.3810434272397267
3.899827178199121
3.887750885825346
3.247086302859503
2.3466395440165715
1.5686367472052694
0.9454163144023983
0.43892969663979275
0.03238081457868925
-0.4910424307240465
-1.2331801845147425
-1.9737136172387812
-2.3999371241087872
-2.348809949259373
-1.6943610097996384
-0.41713098520083036
1.2086351748874105
2.8213163199195503
4.2763685159342
5.727902011100438
7.290107074004056
8.922584947707108
10.581528856588026
12.086218292504846
13.101814427264875
13.39010667061959
12.7634201476782
11.113125016590942
8.755041021437826
6.375017336339296
4.4252139251980855
2.9668038378173303
2.1803590931845753
2.29526899478493
3.188968432938241
4.443862491965623
5.558823922637124
6.063649888131614
5.739701830242007
4.712871667498742
3.085513544506091
1.1090429733423428
-0.6620813968910406
-2.0874486235783736
-3.4266425578881976
-4.604493052741385
-5.345295898083341
-5.566118844121703
-5.243353204193017
-4.462500887056214
-3.5516415102478125
-2.935114633368247
-2.959930702895252
-3.6906800648218847
-4.689803478307413
-5.316469529049473
-5.2744827147991025
-4.8208250000060975
-4.430346253358237
-4.290414330049725
-4.377831007980493
-4.615128481741558
-4.966308333536629
-5.516423131065871
-6.2321322750627015
-7.048823833992547
-7.955224361801935
-8.767606016439494
-9.468717111759581
-10.218144933742446
-10.972373893016714
-11.758240579659239
-12.713988819033093
-13.763250872873362
-14.561423569830247
-14.91481348396141
-15.004149380478523
-14.967042453533393
-14.622433807670943
-13.759667877178552
-12.558833540695032
-11.417611431033846
-10.62491775904135
-10.227913960683052
-10.078974492009296
-10.154891546114051
-10.459854621973143
-10.67310181201035
-10.50396049570352
-10.191295756538981
-9.996249871004927
-9.676252575892361
-8.87357432155335
-7.567398997865008
-6.0970331712938375
-4.944428978558703
-4.386184639880691
-4.309018497856876
-4.49189607342712
-4.826208683965084
-5.350309651550497
-6.113621159376692
-6.866742357961658
-7.341038346393411
-7.488780529578373
-7.130662248619967
-5.924879498998074
-3.882553950288613
-1.4464692786604139
1.0426976484787511
3.42959437925845
5.380515903673755
6.605109554864839
7.3877273767530705
7.999179110901584
8.335189248236679
8.564592687150018
9.037858313738147
9.715877651179712
10.25796128120783
10.572924187570287
10.942703337828108
11.500823468583848
11.882083880063245
11.844569898590628
11.421211122715649
10.416366921789162
8.762894198995134
6.85892660796829
5.269971324823859
4.280166875587222
3.665256249174622
3.025863937729288
2.2333695494328154
1.340329357719827
0.4387127236395105
-0.27046022114235235
-0.5831092766625293
-0.40951521776055483
0.11953807841925712
0.7082085197893673
1.219387391373198
1.7517713137153876
2.380185164533426
3.1720653720328342
4.104055936699726
4.963058427428487
5.740100692761982
6.518280982310331
7.264305597473652
7.903153544455251
8.432170423655636
8.932724252521608
9.380022359147803
9.587167521046695
9.446364968019537
9.255363527468694
9.345192673617682
9.636514360724515
9.804857067243885
9.771524187685966
9.652052968531988
9.443581044349116
9.083119106527368
8.42372268127568
7.469562920142769
6.433006335705984
5.385119271238292
4.296868311691059
3.338382067182134
2.7980305108570347
2.7353590696759693
3.047692004134864
3.7202824491608504
4.793755624639532
6.252636409619502
7.9929748738153235
9.894707962565926
11.678710222601776
12.899165826441964
13.233367250952059
12.57757181214209
11.03360459515596
8.878846487095919
6.501790820106695
4.287777996324338
2.475121053722584
0.9572526916228106
-0.6413285477206664
-2.4050900506438344
-3.9400322669117944
-5.089799285960079
-6.121706323488657
-7.120019701916847
-8.0584827531531
-9.092644925333012
-10.339978227467622
-11.813388281177406
-13.352867221560397
-14.429407163495666
-14.622671806024616
-14.056010622505363
-12.962518396255264
-11.516566312541734
-10.124911234816826
-9.05534941051355
-8.240307811544957
-7.6701270729044335
-7.224075249570991
-6.500279590763506
-5.268161129145268
-3.7528413409486863
-2.249684427236739
-0.7075651488419464
0.7662507413345956
1.7918137774245235
2.3883147983412347
2.7678808889581057
3.0020175251819268
3.185905943669527
3.4760851638864665
3.9625978792265752
4.696408638522851
5.585885155636771
6.36766365262473
7.061718200157119
7.9252187605047
9.08938426791127
10.31828929336901
11.190437610793248
11.610482760711664
11.585509880495673
11.124296042720617
10.542917544855255
10.177878539468228
9.912759315107024
9.424252244339709
8.594606832463583
7.5147175056078765
6.348023845028718
5.024831375337608
3.6135179975193434
2.4523532135463535
1.510776830307905
0.5083745384058337
-0.5961673746662361
-1.6404865128427166
-2.405721287917023
-2.6409085820686067
-2.264441777055
-1.372128180597942
-0.1991626545224201
1.0048080116900815
2.0721721121856405
2.8001325960331434
3.1921007911180035
3.4788615660662323
3.6815809928811483
3.6348975769921754
3.181387525475684
2.1264574561344696
0.563411144329742
-1.0848850841792772
-2.4697719000045595
-3.3996485371731717
-3.8300315059944725
-3.9588724040073546
-4.035457097370949
-4.1002073849690515
-4.082570020247891
-3.87042809591172
-3.487277633129164
-3.1542437521749567
-3.1627412855347705
-3.6950689277911595
-4.65633595422934
-5.722361290369857
-6.598554527854989
-7.388453957233513
-8.153347975400159
-8.752638878391853
-9.280871944076393
-9.870417296573317
-10.420306199393194
-10.659642392787939
-10.653299981984555
-10.687431102542178
-10.814636673269284
-11.076379096311618
-11.588118585315172
-12.376439156392845
-13.222342498697545
-13.853372045854504
-14.241524563544564
-14.684309349194379
-15.406911728233794
-16.089803375450895
-16.42409977501983
-16.474260692956044
-16.373831841033564
-16.30633130774481
-16.396392475233284
-16.67559322676356
-17.19255480259098
-17.918685041580275
-18.63252918056949
-19.127228402887525
-19.255063256154536
-18.91787856678369
-18.290812899482248
-17.707876941936327
-17.499368836918233
-17.67341168051233
-18.099430461613917
-18.59687553204917
-18.83123060838898
-18.716023771630788
-18.435752697138547
-18.29152896776523
-18.365403027470805
-18.54575695675058
-18.70693004829953
-18.76373690380295
-18.762577058542316
-18.65261889648827
-18.373132629108625
-17.85676697402225
-17.013269505339263
-15.858164742343591
-14.279051913470694
-12.308611444341723
-10.279918533268681
-8.436678642516464
-6.766369518051949
-5.191416353251083
-3.791157762482178
-2.6225251706452735
-1.708874723327216
-1.0396132937299436
-0.5157213304024914
-0.04987292511863632
0.3264029357709618
0.6100029557056779
1.0188740857932113
1.5240033589393176
1.9044176287222525
2.2326704123407892
2.622066740897471
2.9360276963356204
3.1191229793584663
3.358894601223923
3.710386699388222
4.394057200443968
5.627366803440734
7.188463527677078
8.788710914297647
10.22697659294108
11.49077427190191
12.578371134625419
13.342876435475592
13.66720265958
13.503389656522371
12.901524779987069
12.114677894787452
11.453970789144542
11.237549029502402
11.59470354714001
12.21338837549577
12.822673542383367
13.380076933506615
13.908742497221317
14.616420895704206
15.701442090964171
17.05969431694016
18.446622512677727
19.649084636017648
20.454515471176204
20.794031165696055
20.858090789230037
20.68594031231681
20.207683331172326
19.530380598033332
18.754858065452634
17.84612115657379
16.684945225742755
15.400518266901404
14.197388209369334
12.984555536873659
11.67334427314593
10.395449304849578
9.20888371647982
8.039566222066348
7.0365080056662554
6.444930321965244
6.274129459607523
6.392372529487792
6.671052698260699
6.877395297437495
6.735873469014333
6.248203608770844
5.5379835248778555
4.617453666977951
3.5214742186933066
2.427646081968248
1.564680459893435
1.1125742391711138
1.131728392100074
1.5143263541180247
2.1685058771320294
3.0011149743348127
3.8221870097624566
4.456515265701781
4.92237736214726
5.349157763767093
5.820757714222578
6.496395668071292
7.527759407239837
8.900579293460305
10.550040124729694
12.437183082420582
14.418907336011033
16.20955719887445
17.604199381707783
18.68439053516654
19.633573738481406
20.404079384783866
20.830851615841578
20.89434187082798
20.683223772244016
20.234228018888956
19.484877239426552
18.428012532731653
17.13501856139317
15.64849687410592
14.166222401008161
13.111464450508633
12.66014736705324
12.645867114644043
12.893584590109327
13.324624425274205
13.827068888016361
14.333069186663094
14.974341137928148
15.732664312685376
16.38011061051481
16.646804522796213
16.42972712193995
15.87538655234705
15.130474641874487
14.292631790986324
13.521495650366411
12.939605245900317
12.498826994492974
12.204427044830576
11.927843026501895
11.409714724032257
10.721155860149151
10.171868875501684
9.945243784343903
9.942535829770593
9.923184150569313
9.603691181911183
8.814624553132509
7.558309585858815
6.085744525118586
4.808758771255016
3.857729243059771
3.260914649564029
3.061624745001825
2.9518404087646517
2.4952286489712514
1.6813614852511225
0.7735987031844668
-0.3004122848399584
-1.7706038382442202
-3.4176407336108534
-4.8537994140167005
-5.93459258647186
-6.674876116725291
-6.961714182967324
-6.609147648561154
-5.619814265138151
-4.260057149301658
-2.96730389323436
-1.9597429001152176
-1.3366997040405806
-1.285082170915802
-1.766064245006772
-2.491837779176158
-3.1466226347446518
-3.4640653840383635
-3.502545393717279
-3.612948682885098
-3.9706241495579553
-4.442867857369096
-5.048282729570745
-5.865818187506099
-6.670292570803414
-7.2874217622482504
-7.821382365500779
-8.458667404403576
-9.218404008013547
-10.007041393775182
-10.79704667343844
-11.584483847954965
-12.156155042951566
-12.366612850153432
-12.490310172626343
-12.696063759091455
-12.706691264314838
-12.345522514179759
-11.892532418587187
-11.635973015626421
-11.469850621428577
-11.285976012133332
-11.21633575085192
-11.320020071333321
-11.484450673706691
-11.663378637660873
-12.073312906875215
-12.849484889302365
-13.843915092223446
-14.818440790649532
-15.742729583438408
-16.81072068320621
-18.039546035122264
-19.289855357426333
-20.433775353910704
-21.347808924791384
-21.789012740111122
-21.242570848645702
-19.422342187107795
-16.814769761518686
-14.09369010505943
-11.681720609334656
-9.895563463194302
-8.852543669245808
-8.436961657390617
-8.292274328104229
-8.03140726615149
-7.680634055248661
-7.679872283189845
-8.238292996003105
-9.058950766690351
-9.797164642392021
-10.24330689562468
-10.1941341212459
-9.673003421191916
-8.940050944505684
-8.10229285823728
-6.985682348030581
-5.553381460431011
-3.979196690250719
-2.2779603242349125
-0.5311560725179952
1.0089963605710712
2.0342304543171768
2.301381426134896
2.0019759076770516
1.6010978545297274
1.1815084411715295
0.6190477489086575
0.01683785471666581
-0.5769455310062296
-1.3420898768329603
-2.3377823797111463
-3.2157606500619953
-3.4705069304985137
-2.845210570704347
-1.451790050911504
0.2523188346094394
1.8481941972335603
3.239062798589883
4.304723593194577
4.826740406947613
4.70935781400511
4.1018942919240535
3.201416571926538
2.0712236449352455
0.7169543688430488
-0.593777361992379
-1.4487686499677916
-1.8562554714690462
-2.042003477653923
-2.201795015908637
-2.61462622898256
-3.4999977578523205
-4.857959517385175
-6.45045107633376
-7.933588072191188
-9.08465885788252
-9.75436379513092
-9.893760086207962
-9.505395837522729
-8.606687457137346
-7.255588661786267
-5.581329374810211
-3.8172245067860273
-2.154432544328787
-0.7494078355814956
0.35154386008819793
1.2260204598110203
2.0092435932377937
2.736492454600791
3.313975477861117
3.684973198172474
3.740540455693337
3.318317471728839
2.2745258386849527
0.6818681995688575
-0.9379621922572109
-2.0455393262530746
-2.4798480955297824
-2.28330700527064
-1.6430223504958992
-0.8311236786683267
-0.0598117990948279
0.5556933957519051
1.0130017907440083
1.30001685417933
1.382707323812643
1.138225032887475
0.4306582197677459
-0.747178649553517
-2.336714874246638
-4.009970724530049
-5.281785545784487
-6.030773820048833
-6.413347006600313
-6.34469817885388
-5.586802706302683
-4.195794660930815
-2.542947694014491
-0.6802948038557307
1.5181788303567942
3.7752200641214415
5.738031445742492
7.1581968164298075
7.877332892058964
8.013042002396757
7.788179107384897
7.320105049074543
6.805507502326325
6.405456723349951
6.040131960495282
5.684914626844743
5.554763169289003
5.839514270257409
6.535561084543402
7.467256649517833
8.59263856796944
10.041604585730292
11.770927272913477
13.592855265171261
15.457760106236437
17.295916512122144
18.774259723346407
19.684048903458617
20.072845305536305
19.929024756963578
19.15310217421777
17.94063769422804
16.702443412136592
15.557666941926936
14.608788240483754
14.15246571011009
14.094247319414658
14.104139696384431
14.019435395650476
13.79992402443021
13.541411936946266
13.336381311906795
13.140979268753874
12.942088230875404
12.70155202035667
12.135414435952965
11.108042791296684
9.739530574097005
8.205586506271057
6.704660806207755
5.273091683602793
3.838905657337335
2.50289453406461
1.376861594205752
0.5672168018867929
0.0875286388637318
-0.3086878734460326
-0.6911966880237939
-1.0377668012420296
-1.4437937934081415
-1.966812750686807
-2.6457194270273847
-3.4259124660234135
-4.146613245945059
-4.84488936600408
-5.664764623393572
-6.52043900229487
-7.248276931565114
-7.760481388358385
-7.984225803473314
-7.973274408328578
-7.87026991525571
-7.7675995313742545
-7.823103251589808
-8.004749091927644
-8.106242380971604
-8.156227335805433
-8.227096054158995
-8.352304686665248
-8.525093263894746
-8.65581408713829
-8.715589789574723
-8.721160901531944
-8.59571098448609
-8.252133568097152
-7.826800092097975
-7.465760789610909
-7.0176635679865775
-6.203837928722253
-5.092770821849986
-3.9566288978228332
-2.854336979399696
-1.847406263468886
-1.0100452565036337
-0.31166603931935616
0.07204571404274634
-0.0161189959746446
-0.506894220667272
-1.512892783573456
-3.160626649221748
-5.289379018490926
-7.524787394576387
-9.621843904607617
-11.671020725198932
-13.650020216028018
-15.163061112344712
-16.04251454059414
-16.483201464539373
-16.42861979235033
-15.761430803335085
-14.691418529076856
-13.466341215702798
-12.211173385229918
-11.05168117347658
-10.019486026223364
-9.126521547256766
-8.259730243561313
-7.251899472266111
-6.218601184739002
-5.153036451608641
-3.8973356503404206
-2.5256245254611964
-1.2742086145406846
-0.3463866074804944
0.269021432704887
0.8488207106276634
1.6350744477709982
2.4305726921090978
2.862224351585187
2.948362485450037
2.8791700878773994
2.7942723967074636
2.794961888801315
2.8337720630915486
2.892747324486885
2.963981060967927
2.9896406653286833
3.0577655644830535
3.4415731024053713
4.258581784871386
5.380987906552001
6.763569375448145
8.378208347184893
9.990884163604523
11.249138311409922
12.024870702100175
12.306497933042133
11.982151716169652
11.218704949241193
10.369356691175337
9.615259533935392
9.0141425117338
8.436234282555176
7.589740458895114
6.3919617185197435
5.170368709790817
4.249306798481351
3.5896031752404545
3.1605330825182683
3.0814732408578727
3.239445531638163
3.327945747359583
3.1886937474114943
2.8342880904128536
2.312633109631947
1.7168069417025311
1.1780452514820512
0.6667581333756577
0.00915201484632204
-0.7589042808690912
-1.5723280405075282
-2.517437701489253
-3.47923396634946
-4.181078721064806
-4.557557704318173
-4.912187331906399
-5.641427843276531
-6.98876281892861
-8.81805151807796
-10.558373351095407
-11.887219759879656
-12.72180383019126
-12.9435214616545
-12.708999590236377
-12.2856029071887
-11.714321441694059
