AAD_Filtered_TADAS_FILE
AAD_BASELINE_CORRECTION: BASELINE REMOVED
AAD_FILTER_TYPE: BUTTERWORTH
AAD_FILTER_ORDER: 1
AAD_LOW_CUT_FREQUENCY_HZ: 0.025
AAD_HIGH_CUT_FREQUENCY_HZ: 40.0
EVENT_NAME: 202302060117
EVENT_ID: 13194
EVENT_DATE_YYYYMMDD: 2023/02/06
EVENT_TIME_HHMMSS: 01:17:32.00000
EVENT_LATITUDE_DEGREE: 37.288
EVENT_LONGITUDE_DEGREE: 37.043
EVENT_DEPTH_KM: 8.6
HYPOCENTER_REFERENCE: AFAD
MAGNITUDE_W: 7.7
MAGNITUDE_W_REFERENCE: AFAD
MAGNITUDE_L: 
MAGNITUDE_L_REFERENCE: 
FOCAL_MECHANISM: 
NETWORK: TK
STATION_CODE: 2718
STATION_NAME: 
STATION_LATITUDE_DEGREE: 37.00777
STATION_LONGITUDE_DEGREE: 36.6266
STATION_ELEVATION_M: 527.0
LOCATION: Kahramanmaras_Pazarck_Turkiye
SENSOR_DEPTH_M: 
VS30_M/S: None
SITE_CLASSIFICATION_EC8: unknown
MORPHOLOGIC_CLASSIFICATION: 
EPICENTRAL_DISTANCE_KM: 48.30
EARTHQUAKE_BACKAZIMUTH_DEGREE: 
DATE_TIME_FIRST_SAMPLE_YYYYMMDD_HHMMSS: 2023/02/06 01:17:10.4534030
DATE_TIME_FIRST_SAMPLE_PRECISION: millisecond
SAMPLING_INTERVAL_S: 0.01
NDATA: 10501
DURATION_S: 
STREAM: HNN
UNITS: cm/s^2
INSTRUMENT: sensor = GMS+/GEOSIG | digitizer = 
INSTRUMENT_ANALOG/DIGITAL: 
INSTRUMENTAL_FREQUENCY_HZ: 
INSTRUMENTAL_DAMPING: 
FULL_SCALE_G: 
N_BIT_DIGITAL_CONVERTER: 
PGA_CM/S^2: 702.422
TIME_PGA_S: 
BASELINE_CORRECTION: BASELINE REMOVED
FILTER_TYPE: BUTTERWORTH
FILTER_ORDER: 
LOW_CUT_FREQUENCY_HZ: 
HIGH_CUT_FREQUENCY_HZ: 
LATE/NORMAL_TRIGGERED: 
DATABASE_VERSION: 
HEADER_FORMAT: DYNA 1.2
DATA_TYPE: Acceleration
PROCESSING: Automatic Paolucci et al., 2011
DATA_TIMESTAMP_YYYYMMDD_HHMMSS: 
DATA_LICENSE: U (unknown license)
DATA_CITATION: Turkish Accelerometric Archive v 1.0 - Disaster And Emergency Management Presidency, Earthquake Department
DATA_CREATOR: AFAD
ORIGINAL_DATA_MEDIATOR_CITATION: : AFAD - Disaster And Emergency Management Presidency
ORIGINAL_DATA_MEDIATOR: AFAD PROCESS SERVICE
ORIGINAL_DATA_CREATOR_CITATION: AFAD PROCESS SERVICE
ORIGINAL_DATA_CREATOR: network: TK
USER1: GuestUser
USER2: 
USER3: 
USER4: 
[...]
11.161811286883422
10.709673540384083
-0.579720700142379
-10.290468002409163
-6.056505923446799
10.001555676251908
16.596563108156797
10.07452494365958
4.033581905240671
6.88227952574077
22.15128264076724
39.211745001302575
43.60208912057065
40.49546411918408
38.0800000169854
38.54131848229209
45.15222512413131
54.404164523175965
60.30002445431193
56.37978662153972
40.756859691105355
23.663364611418597
18.17420982586025
22.34797627091616
20.49008646924233
7.30232524349929
-4.883911226248174
-2.673057974715397
7.158182920622977
13.329524294953869
13.435588179592969
8.979856488359452
9.617204297787634
8.862927911135824
-0.3633692201092627
-0.5705519881654985
10.54081491125004
18.2468327350685
18.985835192914468
16.912101454297453
18.696981897313908
27.449616940961803
38.102375625819384
44.54772560673296
46.509913580901966
46.0101899425223
42.934079018197856
42.41101000658948
41.35324755956889
23.18755567221474
-4.102161932293579
-18.02463122007777
-24.38626576198768
-37.86164803953845
-50.4897484319843
-43.35769832682782
-23.021518176330275
-17.880176628923866
-26.9174382175327
-26.718920392938365
-16.754097027615387
-15.702813013058917
-26.38589509256076
-35.35786746793934
-38.83476231141227
-30.16254510983817
-13.384742231792956
-17.056548206597242
-40.62412653308265
-57.60000023567831
-60.97330561026084
-57.94695803603102
-52.16900386964589
-42.658204092019396
-36.909239016745964
-43.02763326977196
-43.16923163295979
-17.765000018246525
10.975225632466454
8.270666511596
-17.030898383711147
-29.4501052737209
-23.29923586113
-19.015213215745067
-22.351784748727955
-31.99135079764684
-46.5311169667639
-59.05529184279677
-79.94251614111234
-108.68878802597801
-116.65140022134646
-98.94821161314678
-84.60905978926795
-81.40395772214508
-64.63234166542482
-41.374296392225666
-27.9183707990005
-16.221541721035546
-11.744684360318296
-14.06777211642302
-12.802719700445149
-12.515989194000902
-21.544639248052867
-30.07194775749302
-27.655920529305067
-25.104303692919377
-16.967329057063047
6.495092659030964
24.37139901350487
27.484646472494486
33.90056083408818
44.670441820683585
45.91814385275592
50.92331268679697
66.68591927753344
66.3419192596384
51.463654349926465
44.27676238831085
48.057991497798184
60.00248173080431
62.1183509609984
39.72063181314958
11.959094632397896
6.098607845741231
16.49679381555905
15.411995265952024
-5.605728655109176
-24.269700520946415
-21.518449741394683
-7.010172508898963
10.21862866095991
15.289412729418094
5.18036206350747
0.04327646275641625
-4.942800597779656
-6.781699752101507
-5.27012708510991
-8.404016180475711
5.964730718998861
31.535292623357666
38.24989115825782
23.07432663891859
7.376431402039015
8.961264947293458
10.961589930474178
10.031793053460074
21.92223922093118
26.378727981750917
19.657626553961553
22.926266931146106
30.000682608456152
33.830765557170864
32.57852523577575
31.779287224211327
46.31172924596307
71.91286822607393
79.71455017262149
56.59676125223623
38.33271601821851
34.538907590725174
23.86431902753521
12.94927475893977
-5.803721565784444
-26.46242210502451
-21.94820654478957
-17.624120708437598
-24.444376764538493
-17.051733009320003
-2.5958669332762527
7.935027889840793
8.829781610519529
11.13040540119883
33.71817057991994
51.608934359735294
49.451729216224166
47.20074460898605
46.669993738621876
41.916195088385585
39.30203736637325
40.12816253217548
36.10979435248002
6.585469417705729
-23.94021814010461
-8.85402313478809
9.72189602098774
-10.008805563984396
-44.80959484166603
-62.653709837514135
-48.800322297248925
-35.01874793844632
-38.44696647866482
-36.27293462934927
-20.783493346827708
-0.5396394674064237
-1.9770725759468686
-16.308215128276544
-4.790633248938742
8.750736372740247
4.9331874817943095
11.907563698043546
24.909253781901654
15.016795551749668
3.0664409071764838
16.042842165219465
15.857947563153596
-0.3327404056902315
-7.965408750259453
-24.068233526678373
-31.49868119600498
-28.777112638437405
-40.08836066280665
-32.14801496498938
13.062169905810942
49.00239057987602
34.6428153777003
-13.302955739714724
-42.86399436405908
-16.60928082470267
21.761255560507838
7.519984837968371
-11.584775960907503
4.648462725758067
15.74174827660796
7.350353684179507
0.16333141469273887
21.969368114324094
48.97188798351981
45.26912722485263
37.74710341912817
36.7251465099264
28.35991636192535
21.740308910880696
30.308271016393334
50.4259855885964
68.8694298437954
65.7221153440182
35.85882354351184
6.192043123325452
-17.1560702572717
-35.5343535317422
-36.21475018001578
-16.26842536151649
-1.5693658659058218
-20.995049794965926
-33.556616619069054
-13.5116006145205
-1.971105894127163
0.9383395809443031
23.845108627707095
60.1181653827068
78.3189544893957
49.54856971228737
8.741101943374094
19.615949969754716
64.673596794608
97.34847858715084
85.3881508610721
34.05134339368949
19.275415158787663
42.84649853210039
40.18673273177472
7.4493709351832464
-42.26130803301769
-66.05951330783354
-42.62185007943722
-30.179716504672236
-36.919450777917824
-33.3771403525723
-18.903881288220575
-3.6979614391335085
0.07722142577872798
-1.706829535164717
8.721187462950331
23.66337869133337
4.38694164722705
-38.13488577788091
-62.203508950501146
-59.82349594333834
-46.38739954084993
-51.362880867890794
-73.39970669089135
-88.91126900061919
-78.85242864827725
-49.655097623461074
-35.25259561967831
-36.82820691064307
-22.453111585948612
17.069815642060657
57.38593146199788
87.84822147307204
104.07654196348274
99.34907523332716
92.6618014322376
83.33909844068171
61.90721340351227
50.7607058379832
57.17950363464506
64.67979766289984
64.07021926841503
51.175936803182964
20.4318420554254
7.9625787784730155
41.94074002262356
73.33227246413449
68.83693330773033
39.72192036244158
11.388306412085225
0.8131710605151462
3.943449221988601
14.030696891556362
18.64521090778258
16.800604951484168
10.197248142713033
16.095294432721207
45.744746185985136
74.35319880811599
85.91803111824959
61.94477084994852
24.33620899151388
18.426265092165238
31.625375313976186
44.405567937589645
46.53213885422464
46.69134846869787
53.450861637159214
45.80438223061961
33.02566230848378
34.492375564630386
43.97303404403055
58.635108852467205
76.92424636422338
89.1176463312418
93.05467376212518
82.2829387000545
59.12127223982466
46.30583925519431
28.868700403821947
0.6028953766389314
-3.214359249773407
10.950186917761823
14.556984873022172
7.1817137470185415
4.395136359773784
10.455996947180806
21.290747796605082
37.18523648336864
46.74662203942589
44.36765267202421
34.416834082223964
26.240722897169334
23.138097609218196
19.490501220885207
25.605071023021726
30.59868369874236
17.930343361672772
-5.107690438273607
-37.90178389620074
-63.4960682653351
-59.00792068704127
-36.95391437522061
-32.68625246648144
-56.16417023041833
-78.6918109363882
-78.13949440538858
-55.664298432871675
-29.321424665741322
-10.819464249488146
9.167640981152877
21.97131275531605
11.89300071456747
6.807242961609311
28.79880922319824
57.050769923724935
84.10180091399809
104.3211185745384
91.98308389606886
60.243177649336765
46.077895170548075
38.61093259974887
24.608224881865226
7.856459178716258
-19.43450637382422
-41.021227982314855
-64.69110387236906
-98.87580895989775
-110.29777590917045
-103.04385876126209
-76.75818991650148
-24.238770326800218
9.740050044485544
-0.7636067337586827
-19.505806153672626
-4.761714449986916
31.249329222475396
42.7746681285513
29.34825748319052
22.530363170337136
18.919817424541023
9.91777606806161
4.454940734929935
10.416331088473367
33.03178048747006
55.64621666794212
49.06012559512506
12.276549071192925
-33.90352772580112
-65.19987908235244
-64.27814043079421
-24.775141355032364
50.919314962255264
114.74122791113231
127.94329553436496
114.55506696463243
96.06694069021688
86.20310048511621
88.7588786397324
84.12908829668812
64.16206001102576
42.49518222497388
29.363016161793915
20.988248883649284
30.50345071462765
59.08869790162789
70.0300389230204
57.797265741473524
49.326237849726105
52.34464390013877
54.55018812691571
54.95686607858648
64.69276456882935
75.5139069944011
84.8493577056971
96.05678619127777
98.74082354448528
98.96440629175004
108.96478859540076
118.3146556112544
117.69914003982845
124.59810988530622
142.29624720571368
157.7037755827065
161.7633060506012
140.47377009395436
110.63550231904459
98.09036522011513
101.2737879428382
108.35767767314815
114.26162542553418
115.48235102219604
98.51235205715196
63.169203100682154
27.123222449776197
13.274724270192378
20.80903355088894
27.310392620079234
20.61757008997413
-6.7374188330669424
-47.41277273953772
-90.59153791599006
-132.36725773432954
-160.94229991630021
-172.13144497491794
-170.69331908385126
-171.9396376516475
-176.30947133630008
-170.6639541479214
-182.98536057530612
-220.15028815388706
-247.84286500565432
-250.1881353949577
-240.81141953894027
-242.37631117515346
-241.56035955390809
-236.44426917653695
-245.3827001170592
-269.6626651081877
-300.47632214161155
-299.04862069124937
-244.17282209602237
-161.82503772625117
-91.8814903263701
-86.47073532341652
-134.15525454379005
-136.96634244874573
-69.07110958187285
19.508703323881665
100.70077673143504
161.67028286140126
194.34758093827656
192.41936260249307
187.8796929253095
204.54442445414705
222.8618022433827
234.77800838226378
225.50362198386512
194.09999375099903
177.34600738061584
182.7335085687553
197.367551195335
216.84767391022683
175.44807200868425
62.855284734337026
-75.7075525447406
-243.02011139123326
-362.62313628644864
-327.5116814224247
-112.53642465913069
30.122850858389597
-131.71588571541037
-350.78857345322956
-435.8706631056918
-469.1662653817347
-491.1611151327997
-450.3483791327514
-260.9748089557899
-91.21967220628049
-177.62644479143898
-285.1987041232169
-212.86802586802327
-139.53515293385706
-69.99170371349148
-89.83974859210113
-237.428155958978
-144.06377189020688
60.67642860749357
121.0251260469563
201.68525426295136
148.9914762492317
-53.221769271547366
-147.49697783440536
-200.36631182955085
-176.60398934676394
13.669476716769728
81.79544228355664
-57.703101686468244
-133.97660647801527
-92.29978091458757
11.723459542639734
125.8358340884547
162.01143065426194
60.72678903909379
-72.35259290263102
-18.737521783453957
112.9080322816118
173.18870931787922
229.233858555189
263.34707276700163
219.88157340017085
181.412527560546
197.34404082866047
192.25077158555627
176.9215107386125
155.20817416835658
138.27626018669716
150.94614712889597
130.59321317834537
77.90496382804696
5.5389333888533905
-76.9140336327682
-172.45632931014194
-231.5621528561245
-162.36535587992842
-110.65880332413565
-130.80789899027383
-91.07568860814536
-55.94968936716971
-128.49897455726318
-233.7117030223343
-243.84893405871026
-230.87371075121763
-199.97319033329563
-124.0858291992733
-179.94116133626486
-242.79767455532775
-206.9208279729593
-210.66617139398502
-231.6942726482728
-252.01882772111512
-257.0646187255239
-255.91398628234668
-266.25244766354416
-270.8325250610485
-297.7033349823571
-328.5137470635632
-375.9720044656877
-403.1042768507449
-367.6529737204475
-290.9444256222487
-196.56385966022657
-198.2378040073416
-218.5837655840453
-130.12205324413753
-6.122445024813946
122.89006452016247
202.5826081872932
198.35120878912622
192.07555428055528
203.8479656607228
207.2941196902869
240.81303832813478
309.4288588185549
380.8542054529749
455.13020922681113
471.18358567227733
427.01644599703394
405.2851926902324
435.66275572512257
512.8048916764367
489.3416562975661
337.862508648336
243.3832949592535
172.88963717192738
72.58230238068256
-15.031405576251153
-102.74282124712524
-137.981035812962
-137.48285935970333
-166.46808371701994
-171.05689095978244
-101.55434269102913
31.913959413415597
73.6329450613749
-72.66836818210605
-195.51042097665533
-213.2254849188289
-154.80509958756758
28.54215196694783
204.44075254623456
241.83559793985097
154.32651162312857
30.77976467546308
-41.36996288744401
-72.5450473720959
-61.769740018184535
-38.892923191758754
-9.560540802935341
68.72086461294316
122.61228626036436
147.34113790996264
111.52470107651614
34.51923618963802
77.69798925158386
145.79020772108282
146.10154307324635
93.86679098629249
1.4481897508105623
-41.517921991571896
31.573350319792663
183.11550091794166
252.47859006517842
245.460189663878
242.20831807198977
210.34479607310095
180.36111886571342
187.30734932732202
171.0113451699012
106.74835660470825
114.25855444308382
208.5484733896584
267.7856582665
219.65721763139453
84.40506409463724
-34.81543629564471
-117.98806079519224
-187.89843898621749
-221.86295924874366
-248.85130468360407
-306.1595188334449
-392.67520576950227
-488.42161480083365
-581.3363729210496
-685.2582316975677
-651.5378443363634
-398.5463336159437
-158.15366297006955
46.105024575704114
270.57959604321286
301.2867879856946
119.19379145859477
-85.67080541893513
-256.1013416735975
-334.92453056257284
-254.02052565544815
-80.92627575167647
25.303090014118993
-63.6556048703419
-237.42643611332295
-329.00014929990823
-362.2107607425271
-395.5262208668127
-408.12332053163544
-353.7005346758779
-279.7774191637936
-228.15522975876877
-117.56331390571773
-40.20018900267305
-144.70925131509225
-216.41798445730834
-124.81745382767433
-29.421922276185892
85.2348355948094
300.85001905932927
317.7169347712246
91.30327915481816
76.95362520019967
159.63170443773788
148.62229224593113
171.37680547525247
158.69251831071583
148.2729776199138
161.84643124609894
175.39587477309988
221.45527581826607
267.8728873117545
326.01558006610213
388.9365162172913
403.8415386293557
371.69559850673926
347.65445183489567
352.793532181628
336.94748397748526
313.38382397675207
323.858065236816
308.13858041322663
287.5907499212284
295.4094125695964
260.16670656770214
187.28934832282806
86.9307828259707
-61.072278909624956
-220.02676605448144
-330.88680413203656
-387.1079302726929
-409.1805480393426
-423.04063201762074
-429.6171305415478
-304.9190532602979
-121.36701149255023
-109.2071429759698
-149.35188348592035
-84.69016394804771
-13.420932427330595
21.476640121017432
71.98124698626108
107.42943671023792
61.3895969072119
14.269205728728602
45.1826541340734
97.16103817601912
148.94612727613142
194.11768389112027
224.33071921104096
214.56963576777977
147.9264464557344
124.91756378614411
150.79598932437415
156.72922822245903
164.3313874188197
133.7195110025944
78.51577281403503
98.57946347439052
161.4277062094176
187.78390192694056
132.32737564146757
36.63855242036989
-39.26654561371803
-125.831712281384
-211.04674581574457
-255.21137155357513
-210.03282337193875
-111.29694894226098
-96.94685271415521
-156.88862501012719
-220.396973959311
-282.881154650879
-315.40697875233434
-284.18850772021625
-218.69558457035836
-181.59487497103942
-124.00498946256066
-15.805575521797932
-16.89262481466399
-130.92025986918216
-166.20766088711957
-115.06603068443219
-98.48197687210528
-135.7177641857067
-174.92748688369227
-211.11089078212055
-256.3276523075172
-269.4976262436541
-201.5046193605859
-126.46894752287737
-105.24860576884141
-39.75707305072323
15.384519998007901
-29.99415203876963
-56.71746071914095
-72.2332226140241
-135.7067086340189
-171.02551977826437
-147.81814281633316
-69.84914805720736
11.692986308802055
29.916612218997038
4.536511697415281
-35.855747482146484
-53.25276530509091
-27.083367687728373
-5.1878023793240216
-33.80624064931154
-84.55115301826174
-94.3992484065126
-90.6635942480556
-75.67697414542755
-19.287291269627428
-4.604124161047551
-42.18260258116322
-55.73096520459175
-35.53365162603598
-1.0970111692697435
44.163673669514566
79.76876209670165
57.03523227733327
-0.266209886168736
-46.950326718756735
-62.37676212952179
-20.05277452800042
36.683840237727935
53.14579618161226
49.34325930048879
47.14841547511899
41.952613076135464
35.70320258735966
-2.5348656015539115
-62.78792741708692
-113.93189749859575
-141.05513569652928
-100.20396927097022
-75.5388878402392
-122.31696239103383
-168.43939785723194
-205.5344811547504
-162.1131775590466
7.074766155044104
143.45201730535055
194.08381496516017
196.47249063306552
117.59728266137131
55.51399066664113
54.04380930762923
58.3182689223196
83.10776305478936
80.78079678694886
31.721496813237863
-1.1076734848782641
-12.640147928412365
-23.043012412410846
17.667610799089637
91.03968562202247
129.93952198038423
146.66817505766338
119.36532145319298
83.34422802424898
105.40335315749783
151.98302000244473
199.5680212080066
227.64754216503
217.56262822593092
211.56539411919144
221.65601043398163
223.63608574840387
216.50548353948494
176.79063988078843
109.18426317375138
49.76807432125616
55.97543748601609
160.5653362252502
244.52897781883573
260.76200641348095
277.7584552925775
247.82599274430592
182.2959581589405
159.21557560869013
132.31637180422038
87.74501695918478
80.37856008658801
97.04135273255542
79.64853544480583
57.22600690232783
56.03742146294817
23.939152761567065
-1.9061568642909195
-7.336153650199721
-26.32855622486722
-37.09323970986653
-71.12229409978151
-158.57120163169893
-253.10298575655204
-317.643492294503
-393.48233605079537
-467.5611842001471
-446.0665787093728
-410.74938309525294
-444.8698625706948
-423.467738379845
-315.38575202960493
-204.92996682315487
-146.5873707310476
-148.24804684594812
-146.83217307875174
-135.36722492185015
-124.26504032188905
-94.31448059552417
-51.72987741261549
22.30968478439382
101.92279085149667
130.25824406841653
103.5899745964449
41.861816532726856
-28.56769975612168
-96.3683946854976
-162.95895123068215
-223.5776722624171
-252.80280107761854
-199.60204402833114
-99.69768647856878
-48.508745501107775
-19.518294535621358
21.57330446407359
50.641200052279146
77.9372881311363
103.89639973391303
131.23391505466472
147.35627250205147
137.04708259064938
138.15053564150585
165.43240046216934
210.05007858554814
260.93849364846363
297.5144840504779
312.5056350039289
287.5903317320936
214.95516284874148
128.99577876245868
64.30178177135552
5.999877144387418
-48.13273517368461
-66.79182019360655
-63.66035154691657
-53.800864263442485
-55.79531443745908
-58.91495983277363
-32.57834743904943
-6.507130156560481
26.842166795104525
47.85262540531708
