AAD_Filtered_TADAS_FILE
AAD_BASELINE_CORRECTION: BASELINE REMOVED
AAD_FILTER_TYPE: BUTTERWORTH
AAD_FILTER_ORDER: 1
AAD_LOW_CUT_FREQUENCY_HZ: 0.025
AAD_HIGH_CUT_FREQUENCY_HZ: 40.0
EVENT_NAME: 202302061024
EVENT_ID: 13207
EVENT_DATE_YYYYMMDD: 2023/02/06
EVENT_TIME_HHMMSS: 10:24:47.00000
EVENT_LATITUDE_DEGREE: 38.089
EVENT_LONGITUDE_DEGREE: 37.239
EVENT_DEPTH_KM: 7.0
HYPOCENTER_REFERENCE: AFAD
MAGNITUDE_W: 7.6
MAGNITUDE_W_REFERENCE: AFAD
MAGNITUDE_L: 
MAGNITUDE_L_REFERENCE: 
FOCAL_MECHANISM: 
NETWORK: TK
STATION_CODE: 2108
STATION_NAME: 
STATION_LATITUDE_DEGREE: 38.48776
STATION_LONGITUDE_DEGREE: 41.002003
STATION_ELEVATION_M: 920.0
LOCATION: Kahramanmaras_Elbistan_Turkiye
SENSOR_DEPTH_M: 
VS30_M/S: None
SITE_CLASSIFICATION_EC8: unknown
MORPHOLOGIC_CLASSIFICATION: 
EPICENTRAL_DISTANCE_KM: 331.38
EARTHQUAKE_BACKAZIMUTH_DEGREE: 
DATE_TIME_FIRST_SAMPLE_YYYYMMDD_HHMMSS: 2023/02/06 10:25:12.1658630
DATE_TIME_FIRST_SAMPLE_PRECISION: millisecond
SAMPLING_INTERVAL_S: 0.005
NDATA: 36501
DURATION_S: 
STREAM: HNE
UNITS: cm/s^2
INSTRUMENT: sensor = GEO-A200,/GEObit | digitizer = 
INSTRUMENT_ANALOG/DIGITAL: 
INSTRUMENTAL_FREQUENCY_HZ: 
INSTRUMENTAL_DAMPING: 
FULL_SCALE_G: 
N_BIT_DIGITAL_CONVERTER: 
PGA_CM/S^2: 5.894
TIME_PGA_S: 
BASELINE_CORRECTION: BASELINE REMOVED
FILTER_TYPE: BUTTERWORTH
FILTER_ORDER: 
LOW_CUT_FREQUENCY_HZ: 
HIGH_CUT_FREQUENCY_HZ: 
LATE/NORMAL_TRIGGERED: 
DATABASE_VERSION: 
HEADER_FORMAT: DYNA 1.2
DATA_TYPE: Acceleration
PROCESSING: Automatic Paolucci et al., 2011
DATA_TIMESTAMP_YYYYMMDD_HHMMSS: 
DATA_LICENSE: U (unknown license)
DATA_CITATION: Turkish Accelerometric Archive v 1.0 - Disaster And Emergency Management Presidency, Earthquake Department
DATA_CREATOR: AFAD
ORIGINAL_DATA_MEDIATOR_CITATION: : AFAD - Disaster And Emergency Management Presidency
ORIGINAL_DATA_MEDIATOR: AFAD PROCESS SERVICE
ORIGINAL_DATA_CREATOR_CITATION: AFAD PROCESS SERVICE
ORIGINAL_DATA_CREATOR: network: TK
USER1: GuestUser
USER2: 
USER3: 
USER4: 
[...]
-0.8566448203788735
-0.7871387404125654
-0.7336110391831935
-0.6930374384885264
-0.6564484040866558
-0.631059903212562
-0.605541101762561
-0.584943176820104
-0.5693483237397675
-0.5489381277994918
-0.5574833084390882
-0.5914127028222346
-0.6292220868823668
-0.6846792766204112
-0.7443470733248048
-0.8100774213981097
-0.8738127341342148
-0.9098232530451761
-0.939959698688995
-0.9568532062519444
-0.9479465590730023
-0.9518268378394712
-0.9580730378320248
-0.9423257101950938
-0.9326515842075945
-0.9247060719478399
-0.9025822139451805
-0.8767124554998712
-0.8435751887370881
-0.800716889732247
-0.7488765468106687
-0.7049226084560629
-0.6828092725414715
-0.6533707075629899
-0.6371380699195359
-0.642461980205123
-0.6362777115109617
-0.631520807220541
-0.6203681620682556
-0.6100083506199117
-0.6024657437181994
-0.6045169082112913
-0.6251233140943785
-0.6360683612390722
-0.661488878474458
-0.693692972471252
-0.7207727447480465
-0.7413384921586439
-0.7278793534356208
-0.7093811538221957
-0.6688081788834268
-0.5981840769393272
-0.5350179926966904
-0.4596864733836408
-0.3919631078162269
-0.3375769451202082
-0.290210609043947
-0.26105004163183165
-0.2258961267080958
-0.21322789388565316
-0.19679035393157449
-0.15478610968672415
-0.14079868269886334
-0.14136236236732386
-0.1579638229304318
-0.1951356658547249
-0.24768356723207305
-0.32318472257465325
-0.39837541464192006
-0.4811812285668267
-0.5618717623440024
-0.6097090742632199
-0.6494581448766533
-0.6852362042329525
-0.7190425109424629
-0.7669107510931141
-0.8249162496474478
-0.909945720685651
-0.9897314609047081
-1.0377252961786088
-1.0797541219877265
-1.1000348351910443
-1.0940384281935742
-1.071765052589213
-1.0310099285069831
-0.9892732606665235
-0.9696199999332014
-0.9936515930656752
-1.047793304506797
-1.099101433023073
-1.165224298821169
-1.2433663883942965
-1.3130794880858665
-1.3977466033497143
-1.487393223532
-1.5840606134548234
-1.7136848105263207
-1.8599796957500117
-2.0082822238970977
-2.148464600166293
-2.272733570259934
-2.3655589842444664
-2.4132489253873652
-2.43210696641037
-2.4343307873417426
-2.4180177101744724
-2.3850685348241023
-2.354442349100749
-2.3278568180862753
-2.300167253379607
-2.2755900740358084
-2.223742192705841
-2.1237366615514257
-1.9568333507359281
-1.7204692833068547
-1.4596156400977816
-1.1722372971685735
-0.8835807115072376
-0.6344348696373051
-0.40485120632222943
-0.21913381819151098
-0.07280992975804704
0.06549967252616658
0.21093085164450562
0.36429281998545393
0.5070437760921175
0.6713656655122872
0.8156272311539369
0.9132829974646514
0.9859319838883788
0.9773700923408254
0.9176154358007061
0.8327191603305303
0.727249126415895
0.6566402396970344
0.5901338826360334
0.5360820151003407
0.5005058652564846
0.43697445765826204
0.3659693109958228
0.27567149742079694
0.16272685035083534
0.036706720296347806
-0.09692574937311298
-0.2157155355282571
-0.32827719826111157
-0.4162167995717515
-0.47562857368186817
-0.5057250335560146
-0.517452914855723
-0.5395606273142007
-0.5598885112973647
-0.6016701253547884
-0.6517979804977677
-0.7009364953961962
-0.7790499333444499
-0.8445522339173157
-0.8932288782361859
-0.9267297158229831
-0.9250744369105174
-0.9066765661940402
-0.8890238111683486
-0.8880796868611367
-0.8972856082879014
-0.9290085427439733
-0.9795693866541325
-1.0159917564991174
-1.0415827373542004
-1.0314261032734302
-0.9767920632883588
-0.8955413079638598
-0.7687113462441473
-0.6227452869251204
-0.4763805704638356
-0.3190229331955568
-0.18272147638205904
-0.06497953580964458
0.03368850844238268
0.10187038041489768
0.16373064089334377
0.22226662661288113
0.2819998790531425
0.3530570239531248
0.42795264687538
0.5060461421043118
0.581262523554521
0.6307737624982568
0.6623433169667542
0.6752615450494552
0.6500464958633784
0.6085921564259186
0.5524099646443575
0.48627161131616925
0.4239335589419932
0.3472030748211471
0.25701996301889124
0.1383785439003205
0.002351048058028965
-0.13090500228277505
-0.28780494766248965
-0.4509539799856754
-0.6112489465035961
-0.7589427561079676
-0.8778919568254814
-0.9827658840148871
-1.0583252951330322
-1.118604554022686
-1.1774549550119575
-1.2326308788417981
-1.3016197107618364
-1.3756729898645803
-1.4526571935130113
-1.5290334729380974
-1.5963048782498241
-1.6600562792858224
-1.7451564110853601
-1.8522253727216555
-1.9375698266014623
-2.0120971174870053
-2.0745469623679615
-2.11600062900446
-2.1593321268053187
-2.18669031891157
-2.21997662234056
-2.260822653973923
-2.281213524229164
-2.304323557367759
-2.3084170447141994
-2.2864802176200363
-2.2632723566966972
-2.2119995869039646
-2.1222054395671703
-2.0229156087299387
-1.9315313460744783
-1.8354556390075818
-1.7391513393981477
-1.6529578142303307
-1.553836923493498
-1.4290303762318193
-1.2914795336284743
-1.150614129113327
-0.9920583965554132
-0.8339961605582358
-0.7000290038962308
-0.5628266333965867
-0.4320343085798226
-0.3368247952600614
-0.26369711582815697
-0.18484074145110882
-0.09079578096615631
-0.009491052534836628
0.05466095385001716
0.10412130491533833
0.13785279643390916
0.17417639474475968
0.18867465842647382
0.19577078847072168
0.20537207495261028
0.19947075226703032
0.205728676119524
0.20720938771748582
0.20401227827323992
0.20302433668208006
0.18262655146081613
0.1622034552947087
0.14486021943119243
0.10876815327415262
0.05015672727650751
-0.01408757581763614
-0.08277328717793415
-0.15099113532876726
-0.21040672649750267
-0.2720269516498779
-0.32705334437177896
-0.37553625208261815
-0.4128479503431876
-0.4397714983186609
-0.47013919253651454
-0.49229025673576454
-0.5128853718971408
-0.5390170582884743
-0.5615607374759269
-0.576288112078098
-0.5756001779836791
-0.5380061568688641
-0.46972824088791
-0.3920008512387215
-0.31358119141248536
-0.2562977593756014
-0.20402773246505915
-0.16406974436736102
-0.1490189332641348
-0.13802954273823242
-0.12979494758722254
-0.0869738037409887
-0.02135808354326827
0.03801564283532617
0.1213757415106951
0.21471341806473568
0.298316278915429
0.3758402007921702
0.4497020608697552
0.5264941793978727
0.6033896886899086
0.6834234494150205
0.775700233586922
0.8771584535811049
0.9761924148261317
1.073915653999865
1.1763361888820254
1.2629851117165092
1.3340102131549436
1.41565358311906
1.4766100013751249
1.510120737270228
1.5321167369339035
1.5363001261791671
1.546158121420597
1.5422749600961845
1.538464700346111
1.5403083016187877
1.5293280654481107
1.5335964836364542
1.5391560317889903
1.541915008139552
1.528689915064195
1.5163444544255271
1.498254287458684
1.467857475762097
1.4650991682760097
1.44189978564165
1.426841609068478
1.4318284301271071
1.4230587226445444
1.42858494192078
1.4239874875194407
1.4163812170862915
1.3835103395949317
1.2960907722181558
1.2151323238868106
1.13622868420098
1.0545143169161493
1.0181049260511132
1.0098819858798112
1.036352522409824
1.1042467702746865
1.1583728283539165
1.2001957075965037
1.2165692163725599
1.2234712375320054
1.2751263332954652
1.3122464003212242
1.3499223944871743
1.409067725898682
1.4401084651044034
1.4851898363008766
1.5043794234501102
1.4629999441178505
1.441866087372052
1.4213187301159738
1.2932716581762391
1.1287488870837643
1.032883642934213
0.9232835763926397
0.8690487514105234
0.8443190382613779
0.766288970553929
0.7400529420540881
0.6649888240071545
0.5863452156252683
0.5157462283294809
0.3810284579606127
0.29468490988142576
0.16334764207598113
0.0800617956639285
0.059546066999290666
-0.011841951548211611
0.0092199573926696
0.06330070393059542
0.12460988108154264
0.193817642086364
0.21019208144594512
0.21628312312410278
0.18515030706917188
0.16307821005356518
0.18812262416587106
0.2443702074353228
0.357774508752317
0.500795083760431
0.6889661068535826
0.8743287848081877
1.0036809616599427
1.0949776366503492
1.0981603730754288
1.130341294902438
1.2080716911295248
1.2452298076037807
1.3643705065249443
1.506172434805288
1.6156946490580248
1.7074570142717476
1.7045116040468298
1.6641487192070927
1.5580326018010748
1.4046352245583815
1.2864769721929654
1.1615104435643855
1.0942830865946416
1.0898318382642687
1.148465021172817
1.2382702153054175
1.253768866683916
1.2381220031193136
1.1600442350724804
1.0805175190383025
1.070811759344425
1.046575314906529
1.0839429164766727
1.191995565141273
1.323153536946531
1.4848668932692637
1.6228457148348674
1.7136145222796775
1.7258981828009066
1.6720574139672537
1.5947943958482174
1.5140001555521216
1.4476227570073137
1.3968003161293308
1.3715704759614724
1.3784871345281258
1.4143192085644603
1.4380251290212789
1.4248707903859361
1.3978197804555619
1.3844695290592073
1.3645395988971156
1.3366383540097178
1.3252865327425054
1.3280967438958236
1.380874935477267
1.4537522267424576
1.516412910062342
1.5693821910571137
1.596967785637495
1.589809743600432
1.5451133251040756
1.491733973236693
1.4222999269402838
1.390492895312744
1.399289161443581
1.4263033730171404
1.4983242879026
1.5529696020658272
1.610816119377511
1.6713372227453633
1.690224664662023
1.6957913915961202
1.705988941123593
1.7099002682846414
1.6985323486012802
1.7347362575987015
1.8171562552458023
1.908550969121223
2.0407998263874094
2.183566259116456
2.3048415510931712
2.4213102573848873
2.496799316583414
2.5444730316043502
2.596234596203095
2.6069075992530717
2.5938813823575093
2.575536990829314
2.557454497399154
2.5494024503124884
2.5224180115775945
2.47209819992201
2.401980436052827
2.3317980692900755
2.2502730893627825
2.171157624819695
2.1187048562685002
2.0565465589154424
1.9888171665828824
1.9020635674476858
1.8022837238345586
1.7011967296717243
1.590892540819306
1.492639266471429
1.3979023021281816
1.3406660202762308
1.3127929932894673
1.2917178364786
1.3018603519569456
1.304803985002902
1.3110470298633445
1.3241206375262464
1.320372306712028
1.3234111290431945
1.3292064040148355
1.3453060066178943
1.3866683993748938
1.4566360790503268
1.5296473164588384
1.5938355517179676
1.6769196155996164
1.7427393289380173
1.7660432002333744
1.7858755149902366
1.820566344086121
1.8740763194440613
1.9901587017413116
2.14481826335437
2.3018664496295953
2.4917751280764833
2.6400190088780593
2.7414462546372844
2.8508148907786
2.9567743413220313
3.0707860180679654
3.168712791732812
3.2818681712758178
3.4155993224935877
3.5204377272026517
3.6090015766592987
3.66958599103829
3.6904526629234593
3.6952440663174566
3.6412561569968536
3.543064623951043
3.5027436905486873
3.4565278980922964
3.4258482307009492
3.432620826231601
3.375584559783822
3.3218338227628244
3.2386619192220945
3.1124065557819125
3.0005472471404877
2.859259043107643
2.7336266509139424
2.6374419889572414
2.562911044721354
2.5230017794429536
2.484048222983487
2.417355739915851
2.3368710730671074
2.2641242689840197
2.1652417986699892
2.0550247140183533
1.9192260749483654
1.766217385842183
1.6731074273320397
1.5966344843801192
1.5204062537546394
1.442635960467379
1.3315632611525605
1.2023541122172776
1.0595906373165698
0.9212170833308979
0.817872568730958
0.7420616813195082
0.67444722545753
0.6296375736847637
0.5841683463971691
0.5272452356040082
0.49013239123873537
0.45759366249066413
0.40487096152757585
0.3291551068054359
0.23885485965764827
0.13114815859667384
0.025267611354935157
-0.05998256398876024
-0.1512596065049659
-0.2541710761021003
-0.3670807817286561
-0.4971895120280581
-0.6136266486371172
-0.7154322310885445
-0.8294093293498302
-0.9317772278461294
-1.0170778293819722
-1.094518898247576
-1.1885581222696222
-1.3243633074972818
-1.4393168547649358
-1.5347704477180546
-1.6438205903493261
-1.749249013852728
-1.8937368485221155
-2.0464293474468267
-2.1848212959030793
-2.3427651730840013
-2.4749428971020757
-2.6110326250945146
-2.749427270969302
-2.8227520275047673
-2.866134950590289
-2.893035460060393
-2.8898988233213063
-2.878605720921303
-2.872553027338635
-2.870242163990578
-2.8805943150537545
-2.8977996842477824
-2.9041997180253536
-2.9267327752730514
-2.9850446368707426
-3.0775838877920076
-3.175403541809881
-3.2411852752665853
-3.300552432753028
-3.383815734865384
-3.473019873934943
-3.5646733506176074
-3.6507796488929056
-3.7167744342033964
-3.8038495369673777
-3.8968673515201266
-3.9830907588669486
-4.061555703248007
-4.101341981052965
-4.130694909174901
-4.139359049400553
-4.128692348212922
-4.099293092446881
-4.060312436686919
-4.063052912328212
-4.089849650992502
-4.124946944760155
-4.187169519506828
-4.283749231505867
-4.373991975196653
-4.459785199884437
-4.567347603814543
-4.680453848953718
-4.802725096485798
-4.911167304991783
-5.022656706322535
-5.169265745656245
-5.309208730266315
-5.425753239138163
-5.514322917276838
-5.5764235408784035
-5.641006162039652
-5.682332930202249
-5.696323888191626
-5.717434504778324
-5.732033149496591
-5.73996524928488
-5.728363111037528
-5.684284195990911
-5.644039783430399
-5.597501904981169
-5.528527840820661
-5.440940309309155
-5.314905199555186
-5.191852362175331
-5.073434501328997
-4.927369811779479
-4.7841689355823
-4.6167674953066715
-4.421229846932719
-4.205127993549403
-3.9559595518105386
-3.6934781758876976
-3.4220523525959985
-3.17837031054247
-2.944773258688836
-2.7097971291417253
-2.4812286429047967
-2.2249069640683534
-2.001595830795036
-1.7936330260875755
-1.5811992791684149
-1.4265884262557575
-1.285910396268482
-1.148423971490828
-1.0194066358514193
-0.886920770205942
-0.7462140188965547
-0.5784152892394355
-0.4192861344536431
-0.2607414750715324
-0.09250985094389978
0.04908877492595226
0.1595039305947013
0.22531942557200915
0.2481377052602405
0.24819935260542297
0.21881481595642724
0.1716244957967409
0.13200337811143428
0.09999076060444757
0.08531489081254087
0.07517479686538445
0.056360460073423865
0.04839431041509212
0.05037775694243936
0.053156679358379644
0.048422296664162916
0.05497813047414519
0.07264539367017112
0.09829283495539733
0.14361542130250954
0.1987120907586702
0.2879500066773222
0.38767010136245783
0.46868316016521433
0.5455220446770307
0.6058347751603606
0.6545216679945172
0.6944449314243508
0.7262998531931465
0.7744346526762981
0.8486246362597817
0.9626589576471176
1.1106731686945583
1.2485139899842124
1.36367989960021
1.4481982266275981
1.504064444624764
1.5342388035010226
1.5584068744546038
1.6138050947695735
1.7020216655586187
1.847562829287522
2.0291291560299367
2.2212438176072227
2.4217448023047523
2.6088045673183897
2.7855651105375596
2.9314530047384104
3.054162435564602
3.1734532143818712
3.297041087312788
3.4456732968818744
3.607319464592493
3.7719086968257876
3.929639025992716
4.073969554752803
4.204174720340292
4.285676278331184
4.300127486661473
4.262521907343296
4.211704165621269
4.1881452907863865
4.1761718126785565
4.168634649983854
4.176970813314579
4.174906991040519
4.150968844428028
4.116547990623043
4.05238160854811
3.961765618875133
3.8746942285466783
3.788867231751911
3.7240961751588095
3.658359937106438
3.554738543156142
3.436357806751372
3.281016357319152
3.096186406640828
2.9108090860852944
2.7018228459189952
2.488291482400126
2.293913536540944
2.116891569834935
1.9422950793082945
1.7555144157497713
1.583717782952585
1.4288570699900531
1.2840403723272862
1.1522169097359323
1.0318545909641308
0.9324058596191941
0.8420908046435669
0.7608403750618993
0.6790784339465954
0.6125080559324282
0.569444343034133
0.5074265119550274
0.4429429584480442
0.37240794985638126
0.3147057684454075
0.28914694076336434
0.2677221736013711
0.28881482483984977
0.3086568803758344
0.2900228174760798
0.25335541271719164
0.17711495717429585
0.11088001682847269
0.06386330441453078
0.03062374690057889
0.03396071861189086
0.044791487174118565
0.0897842421495331
0.167727358911687
0.2470187682622822
0.33271678184061937
0.4117578462967861
0.4925758275198022
0.5678597574692221
0.6395643456481156
0.6928541606100668
0.7246631689171078
0.7769088168300542
0.8218351968815414
0.8622092362187823
0.8976989138019552
0.9325697683849777
0.9690937074194255
0.9686439426210747
0.9610727687936396
0.9216278240325814
0.8583552603399557
0.8039767932652218
0.7382793044804874
0.701044027335678
0.6899075261977565
0.6843480043884426
0.6775638566083773
0.6586329543804446
0.6405973484747333
0.618953365285708
0.5942235382544524
0.5974018057236679
0.6169220851010713
0.6438882617702084
0.7121054835603835
0.796295614258283
0.8824621679646474
0.954456551201603
1.0045445772867712
1.0763081069334721
1.161205416778814
1.2511195686433876
1.363661044920569
1.5180536559578277
1.691283596689817
1.8474205315081655
1.9818704899686026
2.0945365169051775
2.19546231440044
2.269269340706651
2.3328981683423216
2.398355579532843
2.4680553383523667
2.5483946057613145
2.5874416531265885
2.5887986688564566
2.5812634641059145
2.5764918367922327
2.580270412144389
2.566907093874632
2.544891005632979
2.514720510091077
2.4576939948860965
2.3929738260095323
2.312787784731005
2.2088726518423045
2.104307321127976
2.0028065498134096
1.9268013990377841
1.8591410130913506
1.786509604900701
1.7204846503164153
1.6319020418437051
1.5450572655291057
1.4479455659070113
1.32094918711883
1.194358359775842
1.0847297971948346
1.0059774612439292
0.9401211183282158
0.8968063215160992
0.844439050898769
0.7694541735907441
0.714850144592241
0.6567580622019409
0.6252593936156864
0.6154696135297503
0.6051400605526063
0.6142867559712626
0.5886474598848901
0.5715258844233672
0.5893556339956721
0.6106771760910046
0.668882279707625
0.7305658917530005
0.8088011023307157
0.9025824395177481
0.9669283975263898
1.0171480261689505
1.0412264722273166
1.0471119894911596
1.0331145366666439
1.016122124464244
1.0289260499577546
1.0718265796421265
1.1778048339448848
1.3080978540855115
1.4186149156061505
1.519394295206218
1.5936344222622016
1.6652140827327526
1.745968501407769
1.8286127452217413
1.936202267722273
2.0642343543328154
2.193640759584969
2.3044625771293497
2.3854083578566994
2.4421130214220463
2.4710579410554825
2.459537868721759
2.411624483888376
2.346641527199739
2.285876218826952
2.231455332929046
2.1716290044369964
2.1255246344686842
2.10327050817733
2.1056966556162973
2.134985800032903
2.1679471851000383
2.192747805788289
2.189854825872824
2.1564829530701926
2.112055088353708
2.055420666306245
1.993940653278318
1.939864650094627
1.905057982050918
1.8807777039968816
