AAD_Filtered_TADAS_FILE
AAD_BASELINE_CORRECTION: BASELINE REMOVED
AAD_FILTER_TYPE: BUTTERWORTH
AAD_FILTER_ORDER: 1
AAD_LOW_CUT_FREQUENCY_HZ: 0.025
AAD_HIGH_CUT_FREQUENCY_HZ: 40.0
EVENT_NAME: 202302061024
EVENT_ID: 13207
EVENT_DATE_YYYYMMDD: 2023/02/06
EVENT_TIME_HHMMSS: 10:24:47.00000
EVENT_LATITUDE_DEGREE: 38.089
EVENT_LONGITUDE_DEGREE: 37.239
EVENT_DEPTH_KM: 7.0
HYPOCENTER_REFERENCE: AFAD
MAGNITUDE_W: 7.6
MAGNITUDE_W_REFERENCE: AFAD
MAGNITUDE_L: 
MAGNITUDE_L_REFERENCE: 
FOCAL_MECHANISM: 
NETWORK: TK
STATION_CODE: 3147
STATION_NAME: 
STATION_LATITUDE_DEGREE: 35.902362
STATION_LONGITUDE_DEGREE: 36.064358
STATION_ELEVATION_M: 419.0
LOCATION: Kahramanmaras_Elbistan_Turkiye
SENSOR_DEPTH_M: 
VS30_M/S: None
SITE_CLASSIFICATION_EC8: unknown
MORPHOLOGIC_CLASSIFICATION: 
EPICENTRAL_DISTANCE_KM: 264.57
EARTHQUAKE_BACKAZIMUTH_DEGREE: 
DATE_TIME_FIRST_SAMPLE_YYYYMMDD_HHMMSS: 2023/02/06 10:25:10.1031620
DATE_TIME_FIRST_SAMPLE_PRECISION: millisecond
SAMPLING_INTERVAL_S: 0.01
NDATA: 18251
DURATION_S: 
STREAM: HNE
UNITS: cm/s^2
INSTRUMENT: sensor = ACEBOX/SARA | digitizer = 
INSTRUMENT_ANALOG/DIGITAL: 
INSTRUMENTAL_FREQUENCY_HZ: 
INSTRUMENTAL_DAMPING: 
FULL_SCALE_G: 
N_BIT_DIGITAL_CONVERTER: 
PGA_CM/S^2: 7.259
TIME_PGA_S: 
BASELINE_CORRECTION: BASELINE REMOVED
FILTER_TYPE: BUTTERWORTH
FILTER_ORDER: 
LOW_CUT_FREQUENCY_HZ: 
HIGH_CUT_FREQUENCY_HZ: 
LATE/NORMAL_TRIGGERED: 
DATABASE_VERSION: 
HEADER_FORMAT: DYNA 1.2
DATA_TYPE: Acceleration
PROCESSING: Automatic Paolucci et al., 2011
DATA_TIMESTAMP_YYYYMMDD_HHMMSS: 
DATA_LICENSE: U (unknown license)
DATA_CITATION: Turkish Accelerometric Archive v 1.0 - Disaster And Emergency Management Presidency, Earthquake Department
DATA_CREATOR: AFAD
ORIGINAL_DATA_MEDIATOR_CITATION: : AFAD - Disaster And Emergency Management Presidency
ORIGINAL_DATA_MEDIATOR: AFAD PROCESS SERVICE
ORIGINAL_DATA_CREATOR_CITATION: AFAD PROCESS SERVICE
ORIGINAL_DATA_CREATOR: network: TK
USER1: GuestUser
USER2: 
USER3: 
USER4: 
[...]
-1.3283010883773407
-1.3659603580281323
-1.3913620900741404
-1.338114274316909
-1.2759644165675725
-1.2267782898594084
-1.152775427147487
-1.1522309648421685
-1.2116751132267778
-1.2538738053107343
-1.307564140940772
-1.3321823250706442
-1.3078654148723807
-1.308314926745363
-1.353304565006904
-1.4205052532066256
-1.4686688730942414
-1.4826661522753544
-1.4903746180230832
-1.4737524787495895
-1.419107837827065
-1.3583588542020317
-1.3010338851174235
-1.2558583887812136
-1.2495802379514358
-1.2734424071075499
-1.2979683764128933
-1.3203344148200076
-1.333870211245508
-1.3208277957774253
-1.2911773952395684
-1.257522187268324
-1.2136389864614512
-1.1602487867144837
-1.1135832694116892
-1.081419149978058
-1.0523611529110015
-1.0276116332544694
-1.0116636306919522
-0.978404439430421
-0.9247535464694718
-0.8731353452087325
-0.817431077599796
-0.7706384293090611
-0.7478169724863595
-0.7006907712624488
-0.6126030019387828
-0.5353265964751123
-0.47001792844589896
-0.3735605735135445
-0.2663669033194416
-0.18375664346416778
-0.09377806564766344
0.015870654983595637
0.1180774612070952
0.23617160929315195
0.36248310855280225
0.43247026064761984
0.46621528171576354
0.4855106571272362
0.4468604935395442
0.3732266261389854
0.3032741990823152
0.23849284415512734
0.19486582523263127
0.16333243445274442
0.12413675118633563
0.06865126795749588
-0.01562830780341279
-0.10393405102884243
-0.159122152428563
-0.18023383295229733
-0.18123927368915016
-0.16513316200653427
-0.13219738138270157
-0.1013729932102586
-0.09529413916697728
-0.12055616749763982
-0.15062908950544737
-0.15667022411969778
-0.17015638740356923
-0.19305061156128484
-0.16419828589090893
-0.10230056163375191
-0.0709334333454012
-0.06467399663278237
-0.05095165593295353
-0.024833444084050596
0.017491340081161353
0.10102733316608274
0.21349058081721814
0.32473153629510726
0.44091560362613086
0.5521948140092388
0.6498325002558984
0.7402446424394447
0.8288272578683916
0.9359408310162434
1.0324951128890636
1.1012137166659552
1.1863936217070512
1.2744630733392648
1.3407508287616665
1.399971220488919
1.4585895588253277
1.4845742603390386
1.42904392742901
1.3491461226001342
1.2947025379493284
1.2082218212411187
1.107730244635974
1.0541029168792986
1.0429009837979664
1.0477125428181047
1.0369623361608085
0.9999399893589528
0.9546752430225091
0.9269354382335734
0.9227971752691797
0.9354108830158564
0.9534062841592182
0.9407595737946609
0.9178035336722917
0.9077272331409895
0.8865397995519823
0.9135522467324414
0.9916416204958405
1.0523888175646874
1.1510850667167192
1.2641072528864403
1.297978882221195
1.3265244705850676
1.3764039161072577
1.399444777025583
1.453361221127995
1.532007776511012
1.5707343277307841
1.5848784019287432
1.5753394689837452
1.525844936280528
1.4452934570238984
1.3512760883067618
1.2810825090022633
1.2419687768367367
1.1922564523029824
1.1053759824286946
0.994927052152013
0.870978383967027
0.7171562998348874
0.5575530338626428
0.45064466624416327
0.369919534947815
0.2443287339481362
0.07096078329895125
-0.13942159609796181
-0.36486922701848046
-0.5657212148290608
-0.7500370148946237
-0.893477282812175
-0.9896475731391673
-1.0900536615475134
-1.1334006077400407
-1.1206629809237736
-1.132950396644605
-1.0975659539896678
-1.0290186894465312
-0.9905479993852414
-0.9143012242126645
-0.8458065768189772
-0.8163842800383221
-0.7638122975736664
-0.7351287407593687
-0.7201104723693222
-0.6606174513251776
-0.5977832883577987
-0.5244527946113218
-0.4345911421551345
-0.38914675203527066
-0.367248478649022
-0.35758801583231875
-0.4048585774586761
-0.458158678052355
-0.4989200680896856
-0.5644770161050872
-0.6130369346935628
-0.6826454666942415
-0.8124529345801399
-0.9330298663889769
-1.0987508380771076
-1.3367017444756182
-1.5452919991883243
-1.7464518251751593
-1.9246385705107223
-2.008101130214411
-2.113260887638336
-2.251577555469306
-2.300755233628487
-2.3357179879424845
-2.3668943180364934
-2.2967595095483584
-2.205126964811491
-2.129758686924089
-2.019493642843006
-1.9078379603363327
-1.8280150028578097
-1.7597028118043774
-1.6574832229005267
-1.54277067514503
-1.4369753684105844
-1.2928612293704005
-1.1338358646187947
-0.9633720558901728
-0.7859030555364673
-0.6639102313374714
-0.5587863606757669
-0.4895959021407392
-0.4887057146608797
-0.47830190531015626
-0.47946169978732706
-0.47068253057109416
-0.4283584528916173
-0.4689702238288769
-0.5218011844553772
-0.5032215429290052
-0.5123599434868382
-0.5246628423311538
-0.5318003601660631
-0.586163469082131
-0.6066818980690682
-0.6127975786486745
-0.6577892157960987
-0.6730287351394315
-0.6927820526668285
-0.719715002940008
-0.69038163268657
-0.6890267832125885
-0.7244106899890472
-0.7376772705799207
-0.8051886182745099
-0.9207826023878143
-1.0088291101013513
-1.1120870644916083
-1.235932611129604
-1.3246786099998262
-1.3838034788048161
-1.3987765919856514
-1.3619251261252832
-1.3338809069922135
-1.2906669784977638
-1.195664532570743
-1.1353357721801913
-1.1017806475188838
-1.0091922220185807
-0.918099432580663
-0.887830742574723
-0.8870123017480518
-0.8937915060546008
-0.8723552513833975
-0.838866209720062
-0.8480893949465727
-0.857084740113808
-0.8430729016810318
-0.8399125291754785
-0.8271855808226423
-0.801366716831063
-0.7732728725056774
-0.7305312150124152
-0.6583075040066415
-0.5462275816865338
-0.4497442129857342
-0.3697173262097232
-0.23848265618725945
-0.119492236052183
-0.023654607594252662
0.13469354979773143
0.28997490680902643
0.4035955503601082
0.4970441194776893
0.4853760492115667
0.3808240196094564
0.2592119509495718
0.11023671219296108
-0.00983367720797766
-0.06496283713752198
-0.12459490674298461
-0.19854879524862568
-0.26715995268559467
-0.36230817622434763
-0.5024593679283117
-0.6509588461774789
-0.7654112913021621
-0.8454134810064127
-0.9081809199747856
-0.9592848317104751
-0.974581441034086
-0.9535597598710732
-0.9367735050672159
-0.9111722496759045
-0.8770640758014111
-0.8771654732376966
-0.8960211380739096
-0.9250453963110944
-0.971754236137982
-1.0319313434525734
-1.1276167132078807
-1.231822472039431
-1.316282240967136
-1.432803370004134
-1.5858240683521343
-1.7260928889703016
-1.8626384054148295
-2.0305563655635686
-2.217567620750899
-2.374851212582361
-2.5003246672252257
-2.649436499427748
-2.8096286536707806
-2.9202488870454135
-3.0159612803571165
-3.1206149781117225
-3.161750089213017
-3.141979332371148
-3.1176064691948335
-3.047841277211974
-2.8916386558253495
-2.7090479465453674
-2.5366058661313535
-2.329256670468156
-2.1163442651989777
-1.9575527487054838
-1.7779630741946237
-1.5427179847579653
-1.3218724573369185
-1.1150364304577607
-0.9135584173541712
-0.7361081396072239
-0.5955308985693235
-0.5337019165756318
-0.5176776022470809
-0.484041357575491
-0.4640255914960307
-0.49109261748636707
-0.572449741752505
-0.6949569686559441
-0.8249919073049676
-0.973814995951364
-1.1194318021203546
-1.2229529933163603
-1.3144836237637945
-1.3870304931187258
-1.4265593483257337
-1.4663853245666867
-1.508611027745924
-1.540169406804544
-1.5451593404749242
-1.542134479342873
-1.5738769923079667
-1.60020814403263
-1.6110652270031407
-1.6699719770346624
-1.7501538004637374
-1.8013401435718641
-1.8576270354168638
-1.9337589333509528
-1.999971470396913
-2.0615487913633523
-2.145793848692707
-2.2567546472378943
-2.3647996342763653
-2.4440929372344096
-2.531823902972128
-2.645563957820741
-2.741222656727832
-2.83297580482614
-2.94342714637272
-3.0449904752418964
-3.1582391181164664
-3.2874961644953338
-3.3769171131956344
-3.422193735142192
-3.420508368925401
-3.34395555764279
-3.2481674517991337
-3.188487425681013
-3.1425057012454904
-3.14027827807663
-3.2175570182934297
-3.3259932004846355
-3.4662938515189228
-3.639963874940952
-3.7625701156995506
-3.8374934223669586
-3.9019240712706806
-3.8921828504911096
-3.8505271507131638
-3.875634765729481
-3.8818966038094667
-3.848174204518522
-3.8946469759132127
-3.9550710233697512
-3.9551769992459747
-3.9907176098812847
-4.022967250614909
-3.95347475339297
-3.82108542451301
-3.6707375751032383
-3.5339343468995223
-3.407849231626642
-3.2586253777198846
-3.1402143869567025
-3.0850651587666995
-3.0391409914307306
-2.9694118673741774
-2.869630960221337
-2.765266227516769
-2.671061809422474
-2.55339725328209
-2.420961749069843
-2.305697850640266
-2.2056052342722303
-2.0960954841356902
-1.9479002695923093
-1.7948640741152797
-1.6668716577915308
-1.5243312117211778
-1.37012855055003
-1.2336846603215958
-1.1098714369405176
-0.9913903826656939
-0.8884655867898325
-0.812085165225833
-0.7308521505484588
-0.6208897685038718
-0.5155693223593607
-0.46580323250109545
-0.4889499825617545
-0.532098848836103
-0.5741440307654634
-0.6376360734224615
-0.7137015858214574
-0.8457947429018667
-1.0155654217165087
-1.1469045376161888
-1.3124650265838018
-1.4949711270280257
-1.5643826682951827
-1.5908013444142617
-1.6381398613988736
-1.6364606269795303
-1.6286753063870067
-1.6691580721343062
-1.678121382205386
-1.6258529094418954
-1.558997218582031
-1.4817310885784813
-1.4254605005390564
-1.4184265722834435
-1.3911323715665187
-1.338584880230423
-1.3044703416564283
-1.2395488385260753
-1.150064157832768
-1.0858029479348208
-1.026679040000676
-0.9751341421920018
-0.9385494901673809
-0.896736696160918
-0.8340512386672485
-0.7253452935277366
-0.5829877844645042
-0.4344502726889012
-0.2652483712215538
-0.07785870471361292
0.10354112224645226
0.29108324928509616
0.4911050890908122
0.6901256241424714
0.9182802909665694
1.1739314095664841
1.3783135640168682
1.5082946117669278
1.6107317799704766
1.6907826493520064
1.7365313236742295
1.808079881485046
1.9134223581235268
1.9731140399269047
2.009324390233456
2.046809907672595
2.05886939752231
2.0727207497959883
2.072401948888833
2.0632421316821277
2.064772181412542
2.014130970625565
1.9056710321975456
1.7524527310134062
1.5645177890061284
1.3629411000564036
1.1329811894707735
0.9381037487630379
0.7810433330449628
0.6058290840524132
0.5044525089864538
0.4701638241649427
0.39831280745029135
0.31116956665681345
0.22001817045970962
0.1305923726653333
0.09798906687165942
0.11592253375045064
0.1551988948103985
0.21174343338974655
0.2780647256917664
0.36024223708798336
0.4493275749893008
0.5142331233513389
0.5613019909708732
0.5961681479828205
0.6154666955969454
0.653040575564403
0.6963970401994043
0.72225000737586
0.7878037512025509
0.8894434030725811
0.9954163737047473
1.154659854362673
1.336341298656713
1.4869598219028952
1.6576031742387694
1.8166004694837257
1.9017875419715895
1.9853356106792093
2.0903286527896903
2.1922786868713007
2.3429712438733183
2.5066105749545957
2.599264143954198
2.6315123501336695
2.6072874865325937
2.537949785570664
2.4486899671237037
2.3433206486816966
2.2573264647230196
2.176848457994903
2.083881142133124
1.9999549217797365
1.8560810545512605
1.6268213912376077
1.3877408018236985
1.1581011382966642
0.9291429064192301
0.6820407865668126
0.3936102821809217
0.059163714389293326
-0.3325608293187234
-0.7332012482845267
-1.0955579081282387
-1.4440772858951418
-1.7589525831636479
-2.027235049890448
-2.284893939348607
-2.4970861980358827
-2.637375078110828
-2.7283697071603195
-2.7341771449219614
-2.6536766501938898
-2.5446035600683987
-2.398120824278439
-2.202939761524332
-1.983080792538586
-1.7561890410637089
-1.5187741681736868
-1.2352515281101932
-0.9458699889807657
-0.679552081197392
-0.35716873815762135
-0.006924258745319648
0.31915202173598406
0.6477519498797498
0.9330251509065095
1.177581402015846
1.4355623862226663
1.7120283795481834
2.0100041600512775
2.2585976117216857
2.4241438389974137
2.568926722423218
2.671374733589628
2.7138129616544355
2.717364091698169
2.6727891186525916
2.6037692582577656
2.500965659476469
2.34998501694651
2.1952941057461444
2.0257513547667814
1.8281883326774269
1.6393472287011746
1.4555114432225418
1.2685077603194168
1.0539329110069318
0.78123345666787
0.5256892465602337
0.3191617274818803
0.08625696420108074
-0.1540187152721524
-0.36599379782259706
-0.5816304660226225
-0.7753192108279661
-0.9259248328847566
-1.0617557628844594
-1.1816772425593738
-1.2827763339705966
-1.3727519170482816
-1.4374865629916342
-1.4591783741856328
-1.4591508966874136
-1.4795139211371295
-1.525434191706227
-1.5797628228325684
-1.6314502052423436
-1.6961738626347154
-1.802609614398791
-1.941014086420875
-2.11132741931101
-2.3284947507327085
-2.561528159361564
-2.8046330272490048
-3.081012268961483
-3.3675021253840587
-3.6421756462992674
-3.9072168452450886
-4.156424717520852
-4.416268456347499
-4.724754686854264
-5.045511561241032
-5.338988093812418
-5.6237750858439295
-5.893261503392535
-6.124392621795363
-6.3099374930028755
-6.438340304893209
-6.524959941290351
-6.569490289239873
-6.543971865510977
-6.470372532540362
-6.3707871446488005
-6.218346439131685
-5.997037048176961
-5.726452458129
-5.429369068980222
-5.115428053050049
-4.8108038631191095
-4.525618476782019
-4.227167997799816
-3.91201072707677
-3.5911068866233182
-3.2735329994052997
-2.986055811802117
-2.7035295046904673
-2.3946429309001878
-2.0797901304204154
-1.762897708099306
-1.4560822642398539
-1.1840183123410568
-0.9331938526539572
-0.6894446369337613
-0.4629543953500072
-0.26031978832857594
-0.05590964109284508
0.16756959320203385
0.37941132478937134
0.5527585599687882
0.6897219420792722
0.8125918423406401
0.9047757592256227
0.9284058707914431
0.9346437069219118
0.9285496141840291
0.8384515177711203
0.7080518194297767
0.5954578157410008
0.4786602785987214
0.3662179577756877
0.27933703362774637
0.19782666445253885
0.10707744818852624
0.005723301575858796
-0.12562020275563215
-0.2503956069538085
-0.3216075533678905
-0.4094853126830353
-0.5380562732471211
-0.6456285147012191
-0.754454765032021
-0.8847818537736132
-1.0140939566722438
-1.1635419803721754
-1.3292011161926753
-1.4798749871420382
-1.6482166617937082
-1.8500268519011922
-2.030105793822886
-2.191535894127699
-2.3710608846136
-2.563354939129734
-2.7770910937834605
-2.996874097624315
-3.2044202295872624
-3.3912458972365336
-3.504754352061405
-3.587032057819983
-3.684467984280402
-3.7305834735292773
-3.7674183937283385
-3.845389084195592
-3.9075471181798074
-3.948854729629699
-3.94300156390898
-3.870327579647152
-3.774317857811683
-3.6350296786567546
-3.465177451557172
-3.305451566249962
-3.1212033817259566
-2.933814578357727
-2.804545383489484
-2.709511137321386
-2.591120243281978
-2.4533215431112634
-2.3341834327844064
-2.195786734697407
-1.988685447943184
-1.7552928110932478
-1.5485200746369703
-1.3796646401421238
-1.2391872826338879
-1.1184699459833303
-1.0430101419480458
-1.0267151145584303
-1.0225182621242084
-0.9973651650460187
-0.9748165479371602
-0.9511741564617019
-0.906453534821929
-0.8565093956073297
-0.7839467892606222
-0.6890243964924871
-0.6296797187832561
-0.582714523012457
-0.5075232447747424
-0.4477451662735501
-0.39437767937148166
-0.3093095088155058
-0.21516997470841123
-0.09341882493822896
0.07942595404717781
0.2468633280944594
0.3822666121559327
0.5288785253369107
0.7048882681424994
0.8734658616955497
1.0159745135613754
1.1687571799390613
1.349634102160697
1.5205570471816279
1.661397495550892
1.7963926632610634
1.922754285980006
2.0260502026037557
2.12055102885783
2.1852656451160737
2.2078376737207885
2.2390906490861364
2.2871932182240826
2.3262601415709927
2.3458459550788393
2.3237998150828036
2.2787145729065883
2.225348150164285
2.1401689292917183
2.0653738920212343
2.0143963052422214
1.9239178286903769
1.804364031957216
1.6769549890721867
1.5032312100083869
1.2970413468219693
1.1080268848263954
0.9488159000233378
0.8238505409503508
0.7392557962692221
0.694464908909863
0.6969021677524727
0.7310425048300101
0.7391041129190681
0.727784987828127
0.7845425616380186
0.8883698944545098
0.9371543091865746
0.9496246906213215
0.9770055683258939
0.9926833139739989
0.9968170760959167
1.0059290830558838
0.9985565373360272
0.9844191447693064
0.9979153987539084
1.044587130903462
1.1277096617731908
1.2397125497001182
1.3452276480371657
1.474071941780433
1.6739821106903559
1.886832017900281
2.0954188132456997
2.3201392386191078
2.488509303553037
2.619888536035949
2.7743527583316268
2.885145179081873
2.9543992071198963
3.0271545850115302
3.051049008335499
3.025493259479163
3.008744492575408
2.9875567506790075
2.9427539162801484
2.9100664106105416
2.8838161461734826
2.851532809429603
2.86665675281715
2.8992540201609107
2.858698461961102
2.7755553604263286
2.6883432004059484
2.558086052061807
2.4048838787470035
2.254719314543502
2.0911980798318877
1.966246407219339
1.9002736814602237
1.8718288277789716
1.930351596806911
2.053138401702819
2.1842180732006358
2.368963891873841
2.5940503208986847
2.79279813487768
2.9780175883445406
3.176908113466592
3.38054208753476
3.5592376982264837
3.6983464472463328
3.838916811368152
3.9953402601283154
4.118642369744228
4.213879915477494
4.294596427222678
4.307205989347265
4.273477744996306
4.248227838580643
4.19456702137792
4.129382186273509
4.0927844685194446
4.017400942951746
3.8917339206062755
3.7704210019802025
3.6381882579550653
3.4994777080044566
3.40107019728004
3.3353039860702247
3.266143955336011
3.1852953912459103
3.122750356388888
3.0856091412388595
3.0416328654318523
3.005293154590193
2.96938754820648
2.8906705421507666
2.8072840936680947
2.723118655781787
2.5871739709569352
2.4168681185211405
2.21559115897894
1.9995045759244066
1.798339569483494
1.5851250038609004
1.4129305321548138
1.3001692866084318
1.176673113059895
1.1065419382455959
1.1268852944323753
1.1736484646219587
1.2421349389159384
1.3251589385205667
1.4221065297688673
1.5128019172651106
1.5461520284074681
1.5674964964758344
1.5899582409308943
1.5749420047226468
1.5783150411918094
1.6185311677979872
1.659313432283458
1.7111737465143053
1.755690566476938
1.794843165963394
1.8794823559451705
1.984346823087295
2.093314776155742
2.2362639932140254
2.3802867058695076
2.52148216395711
2.680886016550154
2.810197412490167
2.9100654483537576
3.0232585638633176
3.136285269546029
3.257769600221187
3.409581562217887
3.54702147006155
3.651061561423762
3.77713052005851
3.9223818172859426
4.042015602056441
4.16980807329724
4.318719107247878
4.448426228113089
