AAD_Filtered_TADAS_FILE
AAD_BASELINE_CORRECTION: BASELINE REMOVED
AAD_FILTER_TYPE: BUTTERWORTH
AAD_FILTER_ORDER: 1
AAD_LOW_CUT_FREQUENCY_HZ: 0.025
AAD_HIGH_CUT_FREQUENCY_HZ: 40.0
EVENT_NAME: 202302060117
EVENT_ID: 13194
EVENT_DATE_YYYYMMDD: 2023/02/06
EVENT_TIME_HHMMSS: 01:17:32.00000
EVENT_LATITUDE_DEGREE: 37.288
EVENT_LONGITUDE_DEGREE: 37.043
EVENT_DEPTH_KM: 8.6
HYPOCENTER_REFERENCE: AFAD
MAGNITUDE_W: 7.7
MAGNITUDE_W_REFERENCE: AFAD
MAGNITUDE_L: 
MAGNITUDE_L_REFERENCE: 
FOCAL_MECHANISM: 
NETWORK: TK
STATION_CODE: 0120
STATION_NAME: 
STATION_LATITUDE_DEGREE: 36.77006
STATION_LONGITUDE_DEGREE: 35.79005
STATION_ELEVATION_M: 35.0
LOCATION: Kahramanmaras_Pazarck_Turkiye
SENSOR_DEPTH_M: 
VS30_M/S: 439
SITE_CLASSIFICATION_EC8: B
MORPHOLOGIC_CLASSIFICATION: 
EPICENTRAL_DISTANCE_KM: 125.25
EARTHQUAKE_BACKAZIMUTH_DEGREE: 
DATE_TIME_FIRST_SAMPLE_YYYYMMDD_HHMMSS: 2023/02/06 01:17:33.6307180
DATE_TIME_FIRST_SAMPLE_PRECISION: millisecond
SAMPLING_INTERVAL_S: 0.01
NDATA: 12501
DURATION_S: 
STREAM: HNN
UNITS: cm/s^2
INSTRUMENT: sensor = CMG-5T/GURALP | digitizer = 
INSTRUMENT_ANALOG/DIGITAL: 
INSTRUMENTAL_FREQUENCY_HZ: 
INSTRUMENTAL_DAMPING: 
FULL_SCALE_G: 
N_BIT_DIGITAL_CONVERTER: 
PGA_CM/S^2: 112.462
TIME_PGA_S: 
BASELINE_CORRECTION: BASELINE REMOVED
FILTER_TYPE: BUTTERWORTH
FILTER_ORDER: 
LOW_CUT_FREQUENCY_HZ: 
HIGH_CUT_FREQUENCY_HZ: 
LATE/NORMAL_TRIGGERED: 
DATABASE_VERSION: 
HEADER_FORMAT: DYNA 1.2
DATA_TYPE: Acceleration
PROCESSING: Automatic Paolucci et al., 2011
DATA_TIMESTAMP_YYYYMMDD_HHMMSS: 
DATA_LICENSE: U (unknown license)
DATA_CITATION: Turkish Accelerometric Archive v 1.0 - Disaster And Emergency Management Presidency, Earthquake Department
DATA_CREATOR: AFAD
ORIGINAL_DATA_MEDIATOR_CITATION: : AFAD - Disaster And Emergency Management Presidency
ORIGINAL_DATA_MEDIATOR: AFAD PROCESS SERVICE
ORIGINAL_DATA_CREATOR_CITATION: AFAD PROCESS SERVICE
ORIGINAL_DATA_CREATOR: network: TK
USER1: GuestUser
USER2: 
USER3: 
USER4: 
[...]
-1.2597177635076735
-1.9868294787682397
-2.165401111511347
-1.5518447611197423
-0.545074066265944
-0.21567732332765677
-0.9894262975061081
-2.2737875550943074
-3.099595357326156
-3.3031206160326536
-3.072346999613975
-2.7430528219812818
-3.0574953122608504
-4.650625472427315
-7.407637954770428
-10.608191276254082
-13.423742801519195
-15.055651426639159
-15.740398888251942
-16.156539696671725
-16.357346034469387
-15.596756018014512
-13.127686374735852
-9.601017109557539
-6.223985847595831
-3.6851595432604616
-2.090052849788504
-0.9971022155746729
-0.02917529174583593
0.47408378979573107
-0.03691934926695193
-2.3655345681564306
-6.348238327973693
-10.242645797981954
-12.607133696999899
-13.249232366717072
-13.36910688373671
-14.194567675978846
-15.813945238388888
-17.315578696823284
-17.642216615679857
-16.637035804177327
-14.457484590938211
-10.997341502243367
-6.685669701543189
-2.620945076595992
0.33026515132794027
2.3015433413640323
4.084732797956054
5.822995883595469
7.055420698617117
7.7009141791175875
8.154440056959084
8.510984876261988
8.28240484687685
7.635683635862399
7.658251781383369
9.114805588958506
11.773495514685743
13.902057808531554
13.864251122411053
11.782910124899656
9.452822968744156
8.349256456116013
8.130209173089133
7.894300264336877
7.409409375207644
7.450684940995866
8.588479271341894
10.577140816640082
12.96547188116081
15.081929980411747
16.015356912378152
15.247603662011697
13.071433382489907
10.181624030971761
7.243266788600073
4.303690674132728
1.0189056446099707
-2.1522224702171555
-4.046017553132881
-4.017631533936116
-2.6412288158947863
-0.8070168808647329
1.0537059356599274
3.1208538155443772
5.605701127829201
8.259300692115627
10.430727159664917
11.931051193397236
13.06512785330667
13.911214000265137
14.414686494129262
14.119155850034184
12.318974640984653
9.13210062339086
5.496329139366324
2.174311367564455
-0.3037340299735967
-1.4987578674697843
-1.6771223583040107
-1.7280579071748485
-2.0554916393206835
-2.6843866006700106
-3.6406883453585195
-5.143076865705781
-7.066781372220352
-9.302487267536119
-12.284230502422256
-15.765907301468593
-18.869351077710444
-20.71141309977507
-20.458018252358308
-17.56787044368823
-12.395177761283689
-6.717406876656963
-1.951875550771517
2.0002298323931593
5.540841338525029
8.40959064989338
9.879552201809627
9.438478510345021
6.941420717225069
3.4075211763593
0.7636867162931495
-0.15834364275426582
0.027795279303819333
1.011592739241875
2.8025287114698876
5.015609691123562
7.076597367498805
8.939891821211948
10.93379603584614
12.957717655186324
14.093244714119342
13.343944202848286
10.51657163467057
6.542144346973608
3.096333159487
1.01749963499644
0.5298033925519229
1.2103714414822042
2.370739984052999
3.639704692975092
4.635611157642163
4.995522796974469
4.577950695489124
3.935650289330283
3.3239654994751398
2.1691990614097207
0.6173848731947382
-0.09500817233149142
0.4922693935471116
1.4105623554382787
1.9071747608865075
2.443662641209865
4.090372038701293
7.344628493202195
11.172822529838152
13.891235879911433
14.940139664524665
14.721797263424616
13.898117164308246
12.732108730575641
10.810493835947
7.696818455795379
3.21954415736424
-1.6757276688178067
-5.419929748414048
-7.323825865909841
-7.930716314346096
-8.837391743408732
-11.251588706920971
-14.043262158925863
-15.003635131658024
-13.710441916539018
-11.343997790412393
-9.496077425593958
-8.78429105459057
-8.33258152179849
-6.893389692053344
-4.476831893422759
-2.128746886804665
-0.8463708819729212
-1.1488031715999918
-2.380786812049257
-3.4762774375887946
-3.7788161901730586
-3.5650853074094875
-4.407500240834367
-7.199847149389748
-10.514413404813519
-12.507585294971882
-13.428104959697535
-15.065545394645905
-18.334164963088938
-22.046608462208525
-23.996926443862687
-23.191546483008132
-20.343436675890654
-17.015801863974044
-13.890833015724883
-11.2223202589709
-9.739424043333806
-9.805140326297456
-10.695990444652734
-11.260725631249342
-10.78226171778697
-8.936263896332864
-6.148793932988996
-2.989483238406969
0.6487423987460761
5.308475942330567
10.822948268106478
15.904962689041229
19.189655761278257
20.210726686293896
19.294935552926223
16.825407566648863
12.873968627770363
7.642339400325469
1.7113324148236653
-3.9538981306415972
-8.20790874043482
-10.404997571164778
-10.734183076741688
-9.175533133238913
-5.6045307187579665
-0.8918544375312868
3.5369552031024125
6.793306220598637
8.679973677843412
9.57111571571824
10.02770089203275
10.053695109203879
9.632823693363783
9.343896130073702
9.178842664651368
8.474772711712843
7.260560743696049
6.53227500586101
6.970251221192447
8.38779576861068
10.406206271521162
13.098579954517337
16.783341828387925
20.847343922037936
24.330595707584823
26.474450277587547
26.95742988623463
26.51226030412609
25.78755814561863
24.838652343552578
23.82359386992573
22.757540539703058
21.76508817043685
20.744273080238838
19.202078554408907
16.78926861555528
13.818383994444249
10.826983431711104
8.298499367656989
6.250358034460409
4.362820286029842
1.947828435173452
-1.7405126143732712
-6.721279350113985
-12.300189773015969
-17.236218755844966
-20.769795468654713
-22.613395599680597
-22.707507268060848
-21.08098590754966
-18.136682609107435
-15.092605653135319
-12.804667760108149
-10.885815022937871
-9.00767108259324
-7.183882373486872
-5.935647975962115
-5.940818096873612
-7.273490332969827
-8.927277710213001
-9.553617097509493
-9.027963551249115
-8.550469285863459
-9.362183873519937
-10.892593554892866
-11.557107908940626
-10.297533423336665
-6.923882565894154
-2.3139796107932207
2.021614186502205
5.773196394881709
9.850842385828631
14.71949357233492
19.682710206582748
23.4399487732788
25.611405329251212
27.037535698298832
29.252064386977715
32.64035718630684
36.128614716925405
38.55100376862191
39.38526887553991
39.133179684653
38.312089372855816
37.02717116716311
34.93181277665458
31.53911804743186
26.91086823367693
21.83319940746825
17.83944246688064
16.161498665533305
16.877865063674314
19.07994066401977
21.8224838582821
24.299652264391415
25.89867406030376
26.37974658716222
25.613982604193886
23.919662464898177
21.840870445293838
19.803719198511786
17.978241145863237
16.007314381817146
13.018208916054924
8.97009119023552
4.4726093219983225
-0.11418360236209806
-4.57940577220822
-8.58565641165259
-12.106518664773587
-15.714245187328082
-19.960949465999537
-25.041918850185194
-30.397044567481974
-34.97271070271554
-37.78773915394847
-38.38480231516996
-37.0593662096651
-34.79379932622246
-32.488749172532074
-30.35438802002951
-28.242224589389973
-26.381662646816185
-24.8955051000866
-23.638465026858015
-22.88620875597918
-23.195074976229787
-24.484039015620375
-25.892166948896477
-26.523588947473865
-26.61974605697258
-26.957551659365432
-27.5751623014826
-27.735344218066185
-26.387397256593903
-23.466175676309092
-20.027571995244
-17.122044819098914
-14.464842269337097
-10.898494978818539
-5.688703444514544
0.7737921655937058
7.708751201842202
14.319642805509465
19.675194437283928
23.50794835956591
26.33184968757607
28.5011558793175
29.46409891333235
28.651078291838875
26.42471990477916
23.25052692110366
19.15769084803229
14.281005069261465
8.985284921164117
3.202674905577384
-2.9330117701493554
-8.669963434530281
-13.710857535084868
-18.82362112546218
-24.67479632746287
-31.05076160194285
-37.038021179099516
-41.50983030527665
-43.99179022754852
-44.51017973860755
-43.23824433671562
-40.18125013808704
-35.14675757283412
-28.996847081483736
-23.864414579520265
-21.549347936367663
-22.19499443576768
-24.575777386096192
-27.467915177865176
-30.485305487315863
-34.018915834148444
-38.47729783833439
-43.209732715181545
-45.80351921924964
-44.0930422996773
-37.54943608215546
-28.326812458122028
-18.978162819879522
-10.419731674218108
-2.8228563339477364
3.7891368668796392
9.11445521940714
13.261239249291478
16.2476636582814
17.534800530492117
17.16924884303719
16.30999295237106
15.545729833888693
14.481948569547187
12.336366690187145
8.819516768428711
4.7483229441731245
1.3626846665776782
-0.31507271762621114
-0.4241453566041629
-0.25702605114546273
-0.4622497842345988
-0.22114284996652478
1.6818667161067147
5.891641873037297
12.363681573947993
20.674490734268215
30.0218275293827
39.46321693179275
47.92532402917113
54.540717921539475
59.2861213036716
61.8104231111226
61.3096584395548
58.207945213154865
53.8118193251882
49.77903020216867
47.200974679675554
45.4608529425369
43.30845897395165
40.4337373218541
37.3569715852128
35.07037269565505
34.65276052987079
36.16824626905908
38.462458474117746
39.66051079684947
38.89613216468578
36.651080424316746
34.00778413811556
31.692263000686278
29.739414726875903
28.125307054595385
26.83491869791355
25.998739028669878
25.382887729116362
24.451810569042685
23.466798544672592
23.58382663174433
25.38123758839382
28.072490325971195
29.682873135713873
28.935940378079227
26.091008947613822
21.973311873332246
17.60910333379649
13.73015403653975
10.870172672199983
9.048636952208357
7.61194301483611
6.088971947667866
4.617653041936174
3.015215130522703
0.5507990334642938
-2.989183254947498
-6.437955350361542
-8.595469632697577
-9.432891835551985
-10.257664286220184
-12.72056475926685
-16.90536044399457
-21.16019499892085
-24.186627946065638
-25.995757568011015
-27.61867436737094
-30.27230406760281
-33.89394619539372
-37.65203696601379
-40.80448902162651
-42.8946556671481
-43.74359783953951
-43.24894869249989
-41.34140683199464
-37.98779930002275
-33.4815860163649
-28.004985231049783
-21.523884899493716
-14.54993632435926
-7.9924614962431315
-2.704091069647586
0.5232405226908906
1.2531212854336906
-0.006258963948979874
-2.296286732081251
-5.179045019784922
-8.668871109468371
-12.135706602114404
-14.965242253101795
-17.171140251367035
-18.72431941213685
-19.66102306321576
-20.000163373970693
-19.944430311306437
-20.16811322645539
-20.927217672279603
-22.054866724740176
-23.890156222732685
-26.04344619368793
-27.136815651898566
-26.061832095330868
-22.709037664600647
-18.227050608823962
-13.388206512697899
-8.542296266650798
-3.864714450688313
0.7660794951198291
5.096017808408675
9.393679492585958
14.461265287584723
20.79252178089144
28.204896656842948
35.812222462193844
42.65836302314915
48.294267140550076
53.13265279613986
57.71070517586011
62.06930524035374
65.99095232725753
69.10902271562192
71.0368326161765
71.80485750662162
71.7318455600815
71.1111898625823
69.73294877263658
67.14546702031983
63.474805620182444
59.050418363045374
54.227875520493704
49.6268790031955
45.71837845312867
42.28808935690789
38.64866997598573
34.20589272386102
28.736273718592333
22.435530646555087
16.086011342312776
10.10645625354553
4.056410942306263
-2.1573475691498145
-7.8483337188420474
-12.36521754518722
-15.811670067784236
-18.480581574270982
-20.13109479249778
-20.65244770227363
-20.704138030010107
-21.076032295818703
-21.840487824953975
-22.576657057521544
-22.780762150525057
-22.21879205548305
-21.270145458424793
-20.751879718105194
-20.939636810010366
-21.349422646534812
-22.121971473443583
-24.0462436577283
-27.0497928382174
-29.628627445076056
-30.466306042450302
-29.654438816667284
-27.9332592642457
-25.408373455202987
-21.439293511224715
-16.05953661995118
-10.090166956759596
-4.749385609640935
-1.0290178084763275
0.5619744853902112
-0.4961414426318882
-4.2719214454553205
-10.759248303820465
-19.332319623306773
-28.822182582681677
-38.390720545495796
-47.296307432214746
-54.8342698320184
-59.96196062863465
-61.92659291796578
-60.637440573281026
-57.14655268119727
-52.986286219291536
-48.62787583185884
-44.09420202388845
-39.65044775032449
-36.264147596849874
-35.4443448698093
-37.6935453842726
-41.887776760899605
-46.340419978547246
-50.64322609666705
-55.25255313080534
-59.96337953438332
-64.19843965295864
-67.48455787539692
-69.4217536682773
-69.7578083423127
-68.7842784348055
-67.60120416929689
-66.91362605301107
-66.36970158245077
-65.63224790336255
-64.84911803509891
-63.94013800253246
-62.09378808864111
-58.59760438140327
-52.83141618035131
-44.96296643989732
-36.20135388568587
-27.9556889893388
-21.378400011664567
-16.999908472390356
-14.687865240406529
-14.21993898979608
-15.613150879137786
-18.495388466386103
-22.03401461333578
-25.43231771118454
-28.39413077176416
-30.870626911758773
-32.55837208856253
-32.90470969194013
-31.803798401234513
-29.469151419233388
-26.354169791789584
-22.993829453914884
-19.445377816362406
-15.585698114428439
-10.827872914682207
-4.3437382579751045
4.231781027635999
15.02290618810216
28.068858619174257
42.83089535479905
57.81169976576191
71.50425065936902
83.468885529591
94.13862031057367
103.55952846124848
110.54441136099851
113.30126353938053
110.8001485044669
103.79859667346942
94.27818411156537
84.10839064505628
73.87972031884131
62.47415237784645
48.66455798409877
33.11447380331699
18.141423103986153
5.818903150898731
-2.898897673126591
-8.277510830137302
-11.593594665016756
-13.782059575084391
-14.56598564385107
-13.048730641340356
-8.975483860296464
-3.3062314296859316
2.67921944297438
7.8185846890038055
11.181013032053922
12.488724605840842
11.862155074736647
9.686332847437688
5.931868373949292
0.3026182039201636
-6.318789737975042
-12.551443648773525
-18.32856182675021
-24.49471692283206
-31.42601475879024
-38.61385272762108
-44.592795973406496
-47.986058440925284
-49.28879280524285
-50.420930502077155
-52.464033941312586
-54.55711741675436
-55.262114640523386
-54.33232341452751
-51.986894632632
-47.85684431489736
-41.79189757749058
-34.704121879006074
-28.20861793214725
-23.112590776133047
-19.30386575035612
-16.865604902392523
-16.576154730773887
-18.405224741461883
-20.92863196669599
-22.97605830584038
-24.387492499187207
-25.845612210008902
-28.23237124730822
-30.771583216990592
-31.970470450733888
-31.62647729623465
-29.493239931824853
-26.55032875023859
-24.226151684691565
-22.081054249318974
-19.832147743015863
-17.477927476148707
-14.030469019630338
-8.275919890451918
-0.2610804875767457
8.154616223415198
15.53489933642586
21.47899551340931
26.248054430312415
30.466494999911433
34.68710813079818
38.80077461466377
42.83430229457614
46.39112607635006
48.38833006180607
48.38465870018907
46.578922947261894
42.49232847408775
35.92212127876758
27.80465348437615
18.94133247891601
10.894769411672359
4.431428016675971
-0.8500898807780907
-6.079547953836157
-11.954831133974212
-18.34359349576767
-24.935976070735027
-31.339506456739826
-37.80144281451744
-45.0575248947044
-53.07409881804277
-60.993283290754896
-67.54430877438426
-72.35368053171449
-75.80274114714848
-78.06191827414752
-79.25755920605548
-79.82749572077333
-80.13276351164632
-79.16835605803257
-75.67813462296547
-69.25497281681622
-59.98947474767552
-49.16227735732479
-38.31275090889484
-27.834802670868253
-17.42445305499733
-7.211821027104615
1.7689825938358237
8.811742137445586
13.679925119340169
15.414655449659579
13.896831218682884
10.509613534178985
6.074493228063509
0.7470593556809131
-5.436032130888523
-12.176100846396091
-18.60236714173398
-23.306449967457354
-25.987295103201756
-26.947246543567502
-25.774811610297757
-22.978300748270044
-19.517252271050022
-15.884034568728712
-11.910848189574036
-7.214826317763523
-1.2057696791370003
6.545286636501306
14.385208148722585
20.11749962699512
22.63880909822216
22.989856357421843
23.09875196258981
23.024035511391165
21.52404030089489
18.512244286266107
15.48237082934553
13.855749439900846
13.864406877098062
15.213548049260083
17.524187838319904
21.0860865604186
25.553081266250413
30.039516157712033
34.11883704308959
37.06674964392624
39.30287833426577
41.7375645892062
44.819018088338304
48.254113859853156
50.82943339645831
50.88201940789597
47.47547031043514
41.8310240785042
36.04141337905001
31.28870118095035
27.654760960948423
24.36633070050062
20.711368797891634
17.306792490362653
14.288073887544034
10.519841313578217
6.8032522886749085
5.079267536625206
5.737204806387347
8.140312671989177
10.78108739941656
12.094446394558773
12.034023554434164
11.733656471180725
11.400689987833639
10.27416857033424
8.08620014311356
5.369535305496763
2.8978456172534397
0.6539818251069733
-0.7475949608421614
-1.2048991541038832
-2.2621556235837423
-5.058906188772786
-9.599522074384657
-15.046585193870223
-20.069546486878426
-23.721654850847262
-26.571186935722533
-29.592693710828584
-32.35082499785963
-34.1821338485963
-34.750937076812704
-34.641836224861656
-35.72013748738072
-38.40628005201035
-41.402959811072776
-43.657504021622785
-45.190532442311095
-45.86965153411179
-45.066027538494176
-42.794611926463986
-39.39250070820343
-34.33166988495517
-27.227129123031485
-19.39368278880588
-12.585623065914405
-7.994153313760479
-6.103445333275267
-5.739997845956424
-4.9734483535764875
-4.203279823114595
-4.910465012226681
-6.230728872479903
-5.892502647213055
-2.463554599814429
3.5718495751319645
10.120343971459162
16.072005172317677
21.905411051788107
28.046483907839654
33.7241649763217
38.45731335394178
42.333346435693535
44.84500188159045
46.10647640013645
46.733991177826255
47.92246976101913
50.47271478767806
53.99949296238912
57.49679684057027
59.9514409904531
61.73576013113456
64.0414664365276
67.24190099727211
69.29545303492857
67.66233380524224
61.652474908260885
52.38740061476335
41.602989442685164
30.657468587894748
20.368460718590885
11.146207937770889
3.4224162800139633
-2.459308886042098
-6.292169287867867
-8.031547823762248
-7.708569315433197
-6.256554778366143
-4.655711182301348
-2.4826930942877885
1.408427991800637
7.268608111046252
13.996758841242722
20.312709116073727
25.77209663706752
30.62954724928634
34.971595724924974
38.060514016477114
39.97140971530684
41.60596557963022
43.20911155763922
44.860775232383574
45.84516085667707
43.93420503416381
38.224196973397575
30.521512318511345
22.267018483251206
13.49044060499678
4.377214450105549
-5.080973597060161
-14.771200416221848
-23.07224626224517
-28.349689316196493
-30.604315357906085
-31.05637816813693
-31.627469630873716
-32.796433266856674
-33.19606227643196
-32.35279269320201
-31.217375961413424
-30.877232526296527
-31.33306859192433
-30.991352581512928
-28.95870046398147
