AAD_Filtered_TADAS_FILE
AAD_BASELINE_CORRECTION: BASELINE REMOVED
AAD_FILTER_TYPE: BUTTERWORTH
AAD_FILTER_ORDER: 1
AAD_LOW_CUT_FREQUENCY_HZ: 0.025
AAD_HIGH_CUT_FREQUENCY_HZ: 40.0
EVENT_NAME: 202302061024
EVENT_ID: 13207
EVENT_DATE_YYYYMMDD: 2023/02/06
EVENT_TIME_HHMMSS: 10:24:47.00000
EVENT_LATITUDE_DEGREE: 38.089
EVENT_LONGITUDE_DEGREE: 37.239
EVENT_DEPTH_KM: 7.0
HYPOCENTER_REFERENCE: AFAD
MAGNITUDE_W: 7.6
MAGNITUDE_W_REFERENCE: AFAD
MAGNITUDE_L: 
MAGNITUDE_L_REFERENCE: 
FOCAL_MECHANISM: 
NETWORK: TK
STATION_CODE: 0125
STATION_NAME: 
STATION_LATITUDE_DEGREE: 37.01519
STATION_LONGITUDE_DEGREE: 35.79577
STATION_ELEVATION_M: 25.0
LOCATION: Kahramanmaras_Elbistan_Turkiye
SENSOR_DEPTH_M: 
VS30_M/S: 208
SITE_CLASSIFICATION_EC8: C
MORPHOLOGIC_CLASSIFICATION: 
EPICENTRAL_DISTANCE_KM: 174.48
EARTHQUAKE_BACKAZIMUTH_DEGREE: 
DATE_TIME_FIRST_SAMPLE_YYYYMMDD_HHMMSS: 2023/02/06 10:24:57.0892420
DATE_TIME_FIRST_SAMPLE_PRECISION: millisecond
SAMPLING_INTERVAL_S: 0.01
NDATA: 13501
DURATION_S: 
STREAM: HNZ
UNITS: cm/s^2
INSTRUMENT: sensor = CMG-5T/GURALP | digitizer = 
INSTRUMENT_ANALOG/DIGITAL: 
INSTRUMENTAL_FREQUENCY_HZ: 
INSTRUMENTAL_DAMPING: 
FULL_SCALE_G: 
N_BIT_DIGITAL_CONVERTER: 
PGA_CM/S^2: 23.060
TIME_PGA_S: 
BASELINE_CORRECTION: BASELINE REMOVED
FILTER_TYPE: BUTTERWORTH
FILTER_ORDER: 
LOW_CUT_FREQUENCY_HZ: 
HIGH_CUT_FREQUENCY_HZ: 
LATE/NORMAL_TRIGGERED: 
DATABASE_VERSION: 
HEADER_FORMAT: DYNA 1.2
DATA_TYPE: Acceleration
PROCESSING: Automatic Paolucci et al., 2011
DATA_TIMESTAMP_YYYYMMDD_HHMMSS: 
DATA_LICENSE: U (unknown license)
DATA_CITATION: Turkish Accelerometric Archive v 1.0 - Disaster And Emergency Management Presidency, Earthquake Department
DATA_CREATOR: AFAD
ORIGINAL_DATA_MEDIATOR_CITATION: : AFAD - Disaster And Emergency Management Presidency
ORIGINAL_DATA_MEDIATOR: AFAD PROCESS SERVICE
ORIGINAL_DATA_CREATOR_CITATION: AFAD PROCESS SERVICE
ORIGINAL_DATA_CREATOR: network: TK
USER1: GuestUser
USER2: 
USER3: 
USER4: 
[...]
6.068716440155694
5.409664839091345
5.196623037000297
5.505644556671062
5.938773151261726
6.11283887216358
6.106454399361833
6.034032010904288
5.868387435551338
5.732712969364489
5.689579786527998
5.590090786960924
5.3681843413495
5.065456241890426
4.907669241328136
5.014351201941134
4.9356903495423765
4.420911952356475
4.052997296196562
4.183027829547729
4.392992613257318
4.401582549991086
4.392568846130292
4.3701208008614945
4.1543342872346525
3.6851197880800886
3.1986774918366327
2.8361160503000176
2.531647131730059
2.420025075693241
2.596589420135909
2.8008652073342657
2.866961088039827
2.93257334818065
2.864311200192831
2.617806566548131
2.5449313199233177
2.781488619759147
3.0020430482822102
3.082272846955705
3.3375195896287986
3.9431220084464655
4.566693390734716
4.99797735786848
5.492052028082347
6.170355361042577
6.740111473684621
7.03434727727754
7.297169641136383
7.83194902800858
8.57845520637054
9.236483069140533
9.818920684825041
10.383723950965708
10.737619818640312
10.92156936813013
11.230781582637222
11.746138915568187
12.168452792590198
12.257355894560572
12.227431649172972
12.178253824874433
12.089108477050857
12.07688016924701
12.125797414469329
12.097001821303657
12.124661246642125
12.33412983378819
12.585332757744315
12.868688510560599
13.113336551196431
13.260472349227296
13.32866608634862
13.261436519173877
13.120595082153944
12.89873661161593
12.464168308029318
11.9272526333724
11.531360238680467
11.301538481897458
11.143457755976392
11.171658745933945
11.436359088287332
11.524264651826746
11.326719566160298
11.101808083842032
10.78942751127326
10.407579068495119
10.087984893926276
9.716768397418154
9.406415231739452
9.323656091241022
9.281243887526912
9.225883083710556
9.218680850387104
9.263625375970433
9.360974055048922
9.412407857640417
9.37213902604564
9.428957749176679
9.56710083512674
9.526945506084022
9.42552177637514
9.414766819499587
9.273598761237766
8.911399668481643
8.444889723108206
8.002412699501383
7.744168085684385
7.687279045437678
7.6661886882619426
7.603331768547082
7.5592131590644165
7.560363506837171
7.734136086274406
8.01728586217578
8.099094916542729
8.033241029064142
8.132024320035672
8.375023148672835
8.58386312167147
8.739945835568614
8.796233647526716
8.720743265170613
8.620887477135572
8.622326321401152
8.694166640968447
8.661366378948362
8.65631714374135
8.907264900688833
9.211033491894234
9.561430957520745
10.127024313238282
10.61509252984332
10.881449365321549
10.893449157926655
10.426147521405976
9.817222295671101
9.430905604788196
9.090599028149263
8.877808909360935
8.936311420371187
8.959595245474498
9.106025952876916
9.652096488541558
10.22301877422535
10.470819770153238
10.420946144204278
10.167418166957937
9.942400660855998
9.854730882147482
9.731395559173746
9.617333738286211
9.58098804319137
9.483040570418353
9.420988298601747
9.5518952200688
9.648456748477367
9.698886954530714
9.937944427375252
10.366751710803962
10.77322206716816
11.06503952070148
11.253760820441816
11.346764424295591
11.458105605897295
11.704905610288929
11.95403594654045
12.121156201207254
12.376088372769098
12.738518916361784
13.050964429363445
13.373872903316672
13.749967883838002
14.011384817082412
14.181596245990125
14.355379855237535
14.531272775098701
14.766393219339378
15.021193478284895
15.176715405666787
15.235139556182705
15.061621592245881
14.60457219862049
14.128950802819826
13.921228944801843
13.94303222348311
13.996724410527053
14.004918684827455
14.047555473671345
14.13329377023652
14.068245568367386
13.679102199094057
12.968267650460477
12.232846749630829
11.737435063826322
11.312694350953452
10.732550617255765
10.04270504111803
9.32378320938299
8.61990653469887
7.869327257215636
7.09729286630377
6.511960486285636
6.049919783564614
5.6746970311079545
5.4966750155564394
5.366730331390534
5.052898841659601
4.536482081788415
3.8758991310111677
3.1629777741005345
2.38318936718657
1.5313109836559835
0.5959538467444757
-0.4101463968412845
-1.4058359268622198
-2.2770004216502038
-2.862949456162112
-3.0829564390587754
-3.234101056652446
-3.4264120215764793
-3.4626443989181
-3.679600330708864
-3.707519503798156
-3.8387327540728773
-4.393210125932338
-5.045559055547883
-5.367096408200243
-5.359035616364552
-5.532340347060043
-5.842621430470948
-6.278155476067866
-6.533068939043456
-6.577328459162273
-6.637049184663204
-6.866822864088393
-7.134864537205311
-7.171261352652559
-7.007808237494963
-6.946615652183256
-7.0699299365903405
-7.2803122687083395
-7.49651724359753
-7.689009458815569
-7.874069516497172
-7.99982546827887
-7.990395689481982
-7.902277205346028
-7.818242142719646
-7.797385328681949
-7.750713697909048
-7.455615749946483
-7.060823342470663
-6.75115596981958
-6.3288188651795085
-5.766242476331298
-5.245235177939776
-4.741909314888109
-4.208376979957147
-3.6620764869343287
-3.0982642473650466
-2.6104711954550037
-2.270461779611937
-1.933206178788242
-1.5129464726588775
-1.195647376091394
-1.3083874128517847
-1.4850368117210901
-1.2155496908229055
-0.8991435567270913
-0.8962381851287385
-0.8526990426934683
-0.5244104893121887
-0.07883549287621794
0.3674793873546186
0.799349023891221
1.2845243456323339
1.9332326236818487
2.5032651851605903
2.8011395220095947
2.9661300732217755
2.9744691725362054
2.9055983917118593
2.8956708334848495
2.7810998544472367
2.6621894606298104
2.8274295371515787
2.992101771583731
2.9725925422125417
3.0884756880502136
3.3559356195471595
3.543270148895647
3.640316361306858
3.608845435292892
3.524019580365157
3.5655555946259234
3.615016570083594
3.581541580879765
3.561890516547794
3.5603143604037872
3.569789470777654
3.627593063734595
3.7838050792258917
4.123077254420493
4.562411081757352
4.970539848734347
5.404172175146453
5.84621425938808
6.173302821761726
6.397124648898312
6.47873018393049
6.399953742442087
6.250889276680454
6.020582903033126
5.700581937796456
5.485982964460441
5.46790941433807
5.428486333475153
5.293756923046246
5.176732469815878
5.055800792734063
4.94196098234632
4.964772944235891
5.066700169276372
5.128152804429239
5.067404429132207
4.766800445288305
4.276381148895415
3.7296895251332844
3.2890483134331254
3.0612813965134995
2.9130123802333747
2.684911988470883
2.462289874553949
2.2222306238785117
1.8583662962632352
1.493508783796929
1.1823062545624476
0.9194893578743197
0.8071321717021428
0.7293614784815642
0.5149194619027234
0.22086237604680456
-0.233198044142255
-0.7734751217877308
-1.1028587519503024
-1.255840747346706
-1.3193871367804755
-1.2253901518347972
-1.0813813868500015
-0.930619704075852
-0.5819799997184846
-0.1311982305178174
0.06972167817531497
0.10111031808329332
0.09334665905971598
-0.05808901043030086
-0.1999528399703579
-0.2531031448581988
-0.3541334047716222
-0.40503521548519167
-0.35408986695410954
-0.4603503499891091
-0.680133536229451
-0.7908261555396949
-0.9111940017343375
-1.0967122246676673
-1.259501988072389
-1.3356408414362027
-1.2544761435956049
-1.0626715701203617
-0.9162622025685199
-0.8497563139214673
-0.8408381441798262
-0.9751711362615546
-1.2816177782023086
-1.669917593102335
-1.913994099099847
-2.007721605206519
-2.1427472105717333
-2.343191279882216
-2.5513350896896996
-2.7355532626853516
-2.945958164990533
-3.2909685926569088
-3.7758484241806447
-4.289405321216546
-4.804269202442521
-5.298695361236753
-5.722831764007478
-6.122194507787337
-6.486706840307379
-6.707368984911162
-6.796581840751187
-6.81075504522513
-6.698731682480019
-6.5265827523561635
-6.485650345877192
-6.562166484846737
-6.547933864456694
-6.467363050770328
-6.515409439773293
-6.688040420539696
-6.846540279864831
-6.9966710025829855
-7.248043232046264
-7.536965856600062
-7.70009250171065
-7.710195854147968
-7.64099872438966
-7.519770480371755
-7.341441061693604
-7.218353243123318
-7.219981610479091
-7.329976274480047
-7.535432276729968
-7.661979158425976
-7.655356805159368
-7.644188532291999
-7.650538144291721
-7.656878916950404
-7.697905494808301
-7.798056521295403
-7.886214595445111
-7.838828971548947
-7.620263715926147
-7.378915891539312
-7.180325788780929
-6.979255868825229
-6.874614441688394
-6.924780240239428
-7.106445549591503
-7.427537813922169
-7.790208894650036
-8.103408586578183
-8.493308305505224
-8.982303577551669
-9.326983187696852
-9.509556362753505
-9.764013828701627
-10.058896421353229
-10.335654901003641
-10.741445905980479
-11.229560462091042
-11.735130024745267
-12.325315610565267
-12.894924971482446
-13.343297619945213
-13.8255167387347
-14.278779488280726
-14.55366110429466
-14.913785497234294
-15.365839851952002
-15.70911454349947
-16.039189406163988
-16.519519224598874
-17.01699126234006
-17.49083302419392
-17.92954836928166
-18.20606588357363
-18.479840694999954
-18.855075037110165
-19.259985803373763
-19.6329438150699
-19.95500752957215
-20.267493153769184
-20.633984164416013
-21.036957073287315
-21.39897787091456
-21.677360711609712
-21.860761493305667
-21.90264774558175
-21.785093855794113
-21.618308739129223
-21.53116709237004
-21.491193059085486
-21.44828918548778
-21.372280591874592
-21.224380003141164
-21.07459765776027
-20.890948950408358
-20.558465911504772
-20.117414741107453
-19.616243763380904
-19.08105630997952
-18.55841315004904
-17.99761973380967
-17.4047892134003
-16.803634360858215
-16.079473760386755
-15.277426301402333
-14.48315578926205
-13.669464830799244
-12.861314297141975
-12.079729172576814
-11.310582185222515
-10.615480223244964
-9.94412432787134
-9.161810882629538
-8.283332925564332
-7.353921320166742
-6.372380455622472
-5.3979904670718035
-4.5280475600876215
-3.773302727133569
-3.142231346266228
-2.5690296727287265
-1.8961972963692966
-1.1091336266638068
-0.26589156217982773
0.6446056378808847
1.5862070936013557
2.5078319524349086
3.410686354383968
4.310103661072094
5.261662784762202
6.277696157397993
7.2527508334530255
8.10441726268412
8.852730487243093
9.5072636162642
10.087704855336618
10.576266903822438
11.020523066837725
11.509387804148863
12.098012945720601
12.738115894252212
13.246436561641062
13.611188917685785
13.92785535201772
14.306294098942628
14.701574282004081
14.948810596438076
15.064499511660646
15.15115608757959
15.224903842913404
15.275164842903852
15.32520341588594
15.397884914171716
15.5270659947131
15.684071564773202
15.799811140424556
15.874579860296006
15.920612529526041
15.98115017938384
16.007423186727774
15.934442082641151
15.799106093645145
15.643274130233221
15.481851013514095
15.354976309154866
15.314679342822725
15.32827401579357
15.329609494719904
15.29693810843838
15.285975692240077
15.345919778921534
15.460980236047709
15.578339952568122
15.621245865752332
15.640230767840723
15.650374266286445
15.62306540749824
15.56956958915898
15.484220013422698
15.35961407942736
15.195272283445497
15.03923861263647
14.89814313874794
14.747375585947362
14.619473526964217
14.562649739366066
14.510533157400673
14.426751729198125
14.315179353091263
14.116566372348272
13.778606795307187
13.340759561070316
12.801747848406308
12.218359570197832
11.66036632896552
11.113911736324807
10.594689762540119
10.185248556861637
9.898525397987493
9.577302044752676
9.186199394073263
8.771564663742275
8.244107656746934
7.628058512483982
7.045751358216423
6.442124505377835
5.788365836176169
5.25031782633443
4.805772889069757
4.36292057965311
3.9749514163906565
3.6684162927439976
3.3992615497010474
3.2035344459220676
3.162480818942922
3.166470834013938
3.027073326857438
2.765278895983292
2.4388890130679157
2.043238190994486
1.6435096689952462
1.172592055556605
0.6390017893104439
0.16360587987959962
-0.2727939347036686
-0.7446151553391401
-1.1585129628700634
-1.5565530449713005
-1.9968914839684042
-2.3597403459787127
-2.603076281298178
-2.796501803677611
-2.9690713303282554
-3.2496596721514757
-3.6601780571095786
-4.073041177782856
-4.511442140521826
-4.947623635149711
-5.354985847657995
-5.781579792228175
-6.213044206320729
-6.656911384314547
-7.145704366496445
-7.6892809933424955
-8.332132213426627
-8.991884176722664
-9.523415901575637
-9.978422817501226
-10.364287554746003
-10.610197006206752
-10.836101568897018
-11.06899416162882
-11.276095867253353
-11.545696786639619
-11.94213930549368
-12.353132504115605
-12.779604988886316
-13.242009709940108
-13.658060122388726
-14.048509329715396
-14.48526584654255
-14.907316850028382
-15.27055029806073
-15.632956361285807
-15.94553094248609
-16.182473336872782
-16.437077331431947
-16.777750330180652
-17.169018689286656
-17.54109958806385
-17.847123319098394
-18.113489789341795
-18.39842812540219
-18.734205831583232
-19.117062210387623
-19.567832841754953
-20.078411599589998
-20.59615833108478
-21.08397441600675
-21.49477796131559
-21.861610571283496
-22.187288785958167
-22.45264844289098
-22.61866690623445
-22.610251255440293
-22.486965053997643
-22.375402813087124
-22.24368587414504
-22.034585867385484
-21.77907622241331
-21.446577535764543
-21.167270419514303
-21.019875251446216
-20.852730763572627
-20.617959680498327
-20.451146198458325
-20.298357865497927
-20.03446973729518
-19.685789808156727
-19.317929831045795
-18.995150487471605
-18.616478661608433
-18.09316631816593
-17.54995848298139
-17.04562318043332
-16.524401696882382
-15.949635269725501
-15.300096548460512
-14.651811772489632
-14.063456431958796
-13.463126111441019
-12.818264656173318
-12.170832520831814
-11.505521714518226
-10.77546427671409
-9.978625485774476
-9.096201197341262
-8.123499801554177
-7.1115511863281835
-6.103165642145563
-5.106923424543725
-4.10228952823034
-3.098762689024447
-2.1442761742080716
-1.2239752155547348
-0.2831707132575728
0.6346164570061221
1.5575963932907706
2.5155031822621927
3.434343992596731
4.320998202219662
5.209630381571549
6.051299553986053
6.784987798725553
7.513540589547024
8.295985082586144
9.081455573503607
9.867140714014859
10.57543894765312
11.180460063306352
11.77054925789061
12.309729104434057
12.77256521058248
13.240360205325018
13.614652080395542
13.863573052832008
14.109159655447323
14.344776598900827
14.51792222454786
14.669900674528748
14.753013363609815
14.78228256335836
14.846333291214911
14.915674919676512
15.022158162856122
15.162026885532542
15.24169790697876
15.272522245587153
15.30546618974106
15.259911485832285
15.166920748521768
15.05683086076325
14.93714547101073
14.829128989428623
14.682425422339241
14.506350113842648
14.358157142025116
14.208665383144005
13.958028829814614
13.624252763273526
13.278611676975434
12.929704366804657
12.60159716070577
12.308264263534252
12.067816525449139
11.816223558902244
11.450663560857961
11.054778696951612
10.650195166379442
10.256294417878957
9.921021687421378
9.604917826575283
9.310655649851958
9.086940765129652
8.914620353883379
8.70211535159051
8.439230282927326
8.123799812273049
7.748616916222291
7.308814170160211
6.765818849821633
6.141177726953807
5.523154125532238
4.883472816101618
4.163317127514537
3.4195330719935986
2.7083219322662444
2.0995712473715233
1.5936393155295716
1.152994753674584
0.7363337869944113
0.3296670961765011
-0.056301982169810944
-0.4234495814312479
-0.7867692223122342
-1.1716550213340613
-1.5130975151252142
-1.8119736621492528
-2.1144397813792657
-2.3900276475843207
-2.650440862954841
-2.8459120363447394
-2.915163534046347
-2.9017028577692185
-2.839741839843936
-2.7589815941685583
-2.6824312509799304
-2.6248833268953837
-2.5823839462136586
-2.5636558149941595
-2.597938407016455
-2.727340122917724
-2.920343198363338
-3.1301790684484434
-3.3367404657809088
-3.4943608558947763
-3.571444474041009
-3.546663867955749
-3.4325506897659808
-3.270650587226395
-3.1083773171152593
-2.928607677145471
-2.735753868931079
-2.5112189235087623
-2.228394405863645
-1.9129962546481525
-1.556601835738718
-1.1493765962519744
-0.7494499567788641
-0.35326443027484555
0.08749558513283404
0.544298369944559
0.9817400862511685
1.3759470301180308
1.7471138240301864
2.082134264128532
2.346075126646592
2.5819272522294234
2.829094622580642
3.111846434013443
3.418961891426295
3.702357623336066
3.9429309648041584
4.1309826340586255
4.246752622980923
4.2647998908639035
4.1807057323426395
4.0145488532170805
3.7970314220324255
3.553863149433552
3.3093765908280246
3.075537342985128
2.8664745068687654
2.6937360327579567
2.5995527152435107
2.6039470958945783
2.609039890524836
2.5412410437105857
2.391162431437441
2.127391902244207
1.8076149183953893
1.4688885118864417
1.0714508722401637
0.6901143804541731
0.3713676194766786
0.017692125860545478
-0.3923160801918058
-0.8098107100495798
-1.2282916436221256
-1.6279309466655407
-2.008495877963375
-2.3369003511935906
-2.5985296171677064
-2.836633622252899
-3.0663794213386395
-3.2723636931514384
-3.4352490874273274
-3.567863371359142
-3.7606135113312145
-4.06833676340446
-4.438298299698505
-4.874760387795699
-5.37732504409581
-5.867008768392536
-6.290522569260157
-6.618018540455778
-6.855505587008476
-7.049294701588013
-7.179553078789428
-7.272659855638762
-7.378896531675458
-7.460615587672886
-7.498951600886337
-7.493480383414242
-7.4331984072939505
-7.2992542041822075
-7.151284264772498
-7.053445479676526
-6.9419102628671645
-6.743394926631412
-6.470316273362119
-6.15364135504273
-5.809288736441968
-5.445373205671166
-5.12455513842787
-4.852453990313185
-4.609231154940765
-4.389004603031923
-4.163387802618108
-3.933095401897048
-3.6765725771564104
-3.4118304568332785
-3.1682798567550554
-2.9200714675134227
-2.6548221238306646
-2.415492250112406
-2.166439749303536
-1.8540119152936922
-1.5246780367749122
-1.1437636351010827
-0.6377064552534659
-0.10685795813054433
0.4378338270320843
1.004072082991331
1.4580192332918662
1.789455494935386
2.1055467576604205
2.3643607713069996
2.602054293826265
2.924135168618515
3.2569922370309117
3.603578192560504
4.079940314773986
4.62049177217799
5.132178265723693
5.687930755364867
6.213933241130994
6.648043899836796
7.10062991171922
7.505642336001531
7.793657919689094
8.081939450708019
8.397593228491795
8.69303669129211
8.986251015321265
9.335080192811935
9.71118194168968
10.176851277729321
10.672729181541351
11.064124928415099
11.443635052774798
11.798172755879296
12.07373374707267
12.312666044599021
12.536408645209786
12.71240982549817
12.839267232823492
12.96358854575389
