AAD_Filtered_TADAS_FILE
AAD_BASELINE_CORRECTION: BASELINE REMOVED
AAD_FILTER_TYPE: BUTTERWORTH
AAD_FILTER_ORDER: 1
AAD_LOW_CUT_FREQUENCY_HZ: 0.025
AAD_HIGH_CUT_FREQUENCY_HZ: 40.0
EVENT_NAME: 202302060117
EVENT_ID: 13194
EVENT_DATE_YYYYMMDD: 2023/02/06
EVENT_TIME_HHMMSS: 01:17:32.00000
EVENT_LATITUDE_DEGREE: 37.288
EVENT_LONGITUDE_DEGREE: 37.043
EVENT_DEPTH_KM: 8.6
HYPOCENTER_REFERENCE: AFAD
MAGNITUDE_W: 7.7
MAGNITUDE_W_REFERENCE: AFAD
MAGNITUDE_L: 
MAGNITUDE_L_REFERENCE: 
FOCAL_MECHANISM: 
NETWORK: TK
STATION_CODE: 3117
STATION_NAME: 
STATION_LATITUDE_DEGREE: 36.55712
STATION_LONGITUDE_DEGREE: 36.17471
STATION_ELEVATION_M: 193.0
LOCATION: Kahramanmaras_Pazarck_Turkiye
SENSOR_DEPTH_M: 
VS30_M/S: 597
SITE_CLASSIFICATION_EC8: B
MORPHOLOGIC_CLASSIFICATION: 
EPICENTRAL_DISTANCE_KM: 112.08
EARTHQUAKE_BACKAZIMUTH_DEGREE: 
DATE_TIME_FIRST_SAMPLE_YYYYMMDD_HHMMSS: 2023/02/06 01:17:31.3679700
DATE_TIME_FIRST_SAMPLE_PRECISION: millisecond
SAMPLING_INTERVAL_S: 0.01
NDATA: 12501
DURATION_S: 
STREAM: HNE
UNITS: cm/s^2
INSTRUMENT: sensor = CMG-5T/GURALP | digitizer = 
INSTRUMENT_ANALOG/DIGITAL: 
INSTRUMENTAL_FREQUENCY_HZ: 
INSTRUMENTAL_DAMPING: 
FULL_SCALE_G: 
N_BIT_DIGITAL_CONVERTER: 
PGA_CM/S^2: 1093.245
TIME_PGA_S: 
BASELINE_CORRECTION: BASELINE REMOVED
FILTER_TYPE: BUTTERWORTH
FILTER_ORDER: 
LOW_CUT_FREQUENCY_HZ: 
HIGH_CUT_FREQUENCY_HZ: 
LATE/NORMAL_TRIGGERED: 
DATABASE_VERSION: 
HEADER_FORMAT: DYNA 1.2
DATA_TYPE: Acceleration
PROCESSING: Automatic Paolucci et al., 2011
DATA_TIMESTAMP_YYYYMMDD_HHMMSS: 
DATA_LICENSE: U (unknown license)
DATA_CITATION: Turkish Accelerometric Archive v 1.0 - Disaster And Emergency Management Presidency, Earthquake Department
DATA_CREATOR: AFAD
ORIGINAL_DATA_MEDIATOR_CITATION: : AFAD - Disaster And Emergency Management Presidency
ORIGINAL_DATA_MEDIATOR: AFAD PROCESS SERVICE
ORIGINAL_DATA_CREATOR_CITATION: AFAD PROCESS SERVICE
ORIGINAL_DATA_CREATOR: network: TK
USER1: GuestUser
USER2: 
USER3: 
USER4: 
[...]
-84.42459884403794
-175.42428085168896
111.10880658166111
-175.9586471318293
159.84093577903175
484.6219962102026
-161.9113335407118
161.67331837444726
185.17397518950003
203.3978241510592
-3.624559427536753
-46.490297777274044
59.48555962167779
-67.86703669116925
-10.32313281369037
-24.74269298172276
323.1965627395246
175.19918096980587
187.30105389487835
231.4675783525163
-273.2266036015779
-493.12219710450324
-269.3627176064283
285.09202953151316
74.60902676747233
-107.01620905719292
165.38036362977573
-128.14304690347382
91.62646262943834
136.4514489034492
-289.1096153196641
199.2172471084429
371.17502844582924
-145.24125664805294
44.288947718789146
135.52389970372337
121.85001177049004
144.0812283650651
388.08920646754865
13.428660865177902
-723.8915855629417
-178.7169854284285
232.15491504342316
105.28942521991688
161.89859190025877
-31.67594990290531
-152.7923950790103
-154.10005223964058
-278.87341339645883
-332.1810658473858
-374.2693730295135
129.17014883592924
217.50452802255936
-240.21180798551543
205.83426577451507
228.86629893056104
-222.9138508289392
35.93769326243776
-46.84336557118536
-430.6708829540721
-90.43603298450772
-282.34291805932776
-179.2841901673902
11.68783540196584
-320.24200462783926
38.48261116908862
-97.27703030495134
377.44483894100983
-12.83942280955691
-149.3817926432162
136.70647703718691
-279.4426013096027
117.22437454718889
51.16106330113411
-243.47945877764488
84.36088274836415
158.2665146313622
-68.3927382227181
-14.083103475770685
-221.97184169325195
-230.71720816658993
58.92551705498969
380.3657846287605
15.524813606292982
-16.309156646975786
201.8908515471041
157.05689136872044
360.6329754554644
-54.32346705957825
-385.5753154871397
25.16237671552176
178.98259516564497
-102.12868498264118
-309.88084069456414
-227.7702567158717
46.1174005703962
194.5068563824639
-224.3428731340622
10.925665517937293
-89.48893750529994
-35.86819807334858
423.3328886919827
-66.40544922767717
-284.1591520321282
-298.34957450956216
-80.07257700178072
119.35385447184846
-75.91587612511668
-215.9864378627992
41.40171951000836
-255.6682095936054
46.20023068481071
320.4315827372291
-109.74078145797404
72.63379862988175
95.89747659676019
-82.94156784503497
-100.4064702970559
1.303640461720303
-153.75902604933833
-17.72566644925949
-37.78980539319943
-124.34145120010277
-0.5339906082777676
-79.49298786245821
65.94896582041271
35.19450970772737
2.0427872123512305
-13.017349159166038
158.33442965715903
-129.90922588850992
-543.809961089714
-0.26188970007893453
-22.58368579537542
-146.6009182112273
35.7144143202287
150.25915080241796
-241.41022208372624
-120.44990775754113
179.38603217867959
-494.4190548860964
-559.4424457853111
-22.05018824050169
118.05823492966223
-45.007191290967064
222.03468437406067
41.18378543457931
-190.66467654670802
-183.46716971822798
319.1129089411163
-224.19774364552248
-320.63149224018696
545.8007728544098
86.1613241224882
339.3429321733371
158.26957950235536
-437.9496847747784
-11.106786077056759
165.6786806594002
20.46321455371811
-165.8887365083432
-97.2216654668409
134.87663161184128
-53.001494000264906
5.323003309625172
-26.307539819162763
-543.9008118272876
-211.79832563235655
-185.50115724598072
255.904879909044
446.26623064690483
83.05479520965551
522.2466598097087
-49.1883472227472
-11.53816134175421
127.47348910536448
119.9483187518066
329.42335008491136
-299.31656740273684
-660.9749885067831
-484.62309745760535
-99.5257555877907
-271.5517302475706
-325.1211766278782
-135.02147730468124
-128.54558732985296
2.1613774626428426
474.6465262150029
-131.80021622368375
-127.92896732235033
143.7317171342371
-536.5240813608557
-394.92090449906146
97.00571409384467
495.92825819442874
393.81167748279483
386.7665819653763
-106.02271582648878
-372.81876353334667
137.71369381910065
-25.984080768211324
-89.31599987231125
380.86534246378153
203.81408453803166
102.88732118956723
322.8219798921884
363.69025898852686
203.17649421332004
-104.10079194914375
-354.5961563213843
196.7919937286044
111.74135225873944
-265.0407221920531
-251.77890254510876
-374.8152235036261
192.092932528605
181.4629203097918
-175.41442911346175
125.30943565460046
142.39059370631426
204.2401033506661
87.44320538517805
-240.49844021035932
-46.20347556729039
218.33163849974466
-9.182286614354812
222.99452448640488
574.9589616641973
266.0863468236617
-50.56949186619517
-1.1597140198752278
244.19469079299827
-129.25171312280068
-171.68034435918474
149.7626398524047
168.03719958724898
-17.576903291537707
137.45511901644568
-1.578977413808686
-467.690464955013
72.4301147446392
157.73224189247185
-117.75681128731478
-186.03844560324995
94.33286733137622
244.1764173368738
3.1696451617152714
138.97133492049457
166.26540030540582
-20.241625278030277
20.629952017191087
-125.48322372851214
180.43522534699534
190.34981083319397
-347.1489458837249
69.98824819451846
-165.04409566321087
-64.3433872442822
130.68224276089975
73.51007571945378
-45.96440780267902
-91.64728382331637
92.89199778582639
-205.59702799153615
-369.52606393401834
206.9885961105862
-43.90558893977815
-200.195073849577
285.71907838104767
-128.05117655678205
-52.74488854848041
234.058016067122
254.62467725410102
435.31823297697116
-158.60001778448571
-77.42928714536369
414.2742683145628
-167.04885188828595
32.38439488429089
310.04719557715777
272.9772639181145
-394.95960428733923
-411.7743036143658
42.64452578559517
-119.29788668297131
42.2405784448775
18.883412626650767
-183.73692781288747
95.38452357361221
-159.94746420449607
-694.845558512414
78.80802446131815
-342.15524817838207
-507.0656371475634
-198.75401157861037
-193.0492237282219
162.17032188809213
-103.36380887453933
115.67944707830942
-160.52639361301678
-277.89699330362953
131.08938390223452
209.1779469029014
-12.936619243045856
-288.3161098543382
85.55276715029643
391.16747749767524
-303.0179800911709
-11.578531254284073
452.79507743490984
-8.201104825257262
-181.64530277765107
262.06171574365385
64.67686683451832
-502.2905525376834
-324.40592232165636
-111.42379052919628
-21.81563246036995
71.23513164218919
-68.95429157769641
-220.33928300995782
88.0871940474367
20.575858237622715
58.813510786403086
125.64713433026935
-198.898679607468
-351.7646643768237
-211.6679084311621
-227.41090304039076
332.27631764330346
196.28700352305185
98.75032741704234
98.54583343150794
207.40439302351268
413.2175394006491
-8.970895382592888
87.96824887166976
-51.43659285498774
-112.12606064331273
-162.71639602123733
-123.09764451025654
-66.41184807930362
10.708700009029187
-175.7059158255091
-629.0479543666852
-289.24972127305267
-154.90520521394788
-153.06347248521925
78.71907481273442
-104.7576709189455
-84.02508935276063
59.29351807058411
-241.73760941645546
-392.8368120305264
461.4185369299721
523.8714723128946
-250.3909317868066
191.31669388206117
97.70057716681578
-562.87775734976
-812.4756136961372
-255.84092013056258
301.47320141483755
-202.847894980144
-77.34039677307827
-346.53948965223043
-270.3569704359111
84.73029706961847
160.0984106869961
435.14258797848225
397.88797803937496
93.51895169278257
81.74149904074598
239.1688657447592
-393.4422678814435
-228.5569014552567
85.38373001148585
-145.83379972329243
-367.9832168080691
-111.25905572154929
-290.3401120942264
-260.09534454113003
-66.29665341440618
25.442919545282024
99.50652508700625
-157.45036496674936
100.15959089503649
-32.249462274158454
-178.66495531563086
87.57236626374444
87.5363506062257
49.71297240197527
57.60348948969657
154.76760608084157
207.76865281083883
190.75126403172993
184.57870560885144
-288.8115639577742
-193.23470572898938
26.211928979551043
109.5096022749197
218.30014599484943
94.32220266587154
63.66030452473205
226.80642992723222
153.71074696294886
308.02512248310404
-36.45637583686971
-210.35329292687928
145.68337849319812
-471.6937752129979
-260.03286925098695
76.7298587441596
-9.577642111167567
144.53382436360647
138.53950268007947
15.30397363126552
7.186935244341156
179.7451985099211
197.22879934117364
505.38704128135595
3.2266397390800363
-236.0481400277675
112.30064252394868
-299.4685235440218
-207.2274727565824
-30.906284253393256
228.30418865185052
547.902077385466
-108.88865922863401
-328.40474585000527
-118.38140628878784
266.5077936913823
362.6105462939503
-168.51485203322991
3.534738492202896
226.02844271620532
-219.22708723828993
-167.85882718502774
70.75998721930296
-115.5032359417127
388.1943319853662
285.15978609280495
-89.44814852814476
304.7935974920497
97.60693781630839
-132.09309596308526
-149.66407472246746
-199.2662022304824
-87.40035955011446
266.3291668034315
94.01827188616512
-148.6354310209143
162.88721600010615
43.793064433347645
-229.69103669913733
184.498874651854
221.59601270410096
245.40922017906402
350.2444582563231
-276.953828407711
148.1012784422894
30.36591532122828
-306.0358372453127
47.796934340104734
-492.65258006453246
-283.3819690448358
-79.66523261107223
-119.84111559623136
-7.366993567376434
-457.36475149647237
-265.0205118373153
-173.97938045419087
-197.30939510279418
346.0743993824516
220.47125286863903
169.53706999534538
65.63058516022694
-377.9001098549142
-159.35409999615325
-381.3027382288517
-78.52923597625501
63.556159152614654
-314.0920055191853
-357.09056588666004
-380.28791688783804
-186.14990337547576
19.72376902197431
212.70204956623192
-317.6572831770306
-316.29396477000506
173.07814689680836
-82.70371696521617
173.4474763788634
323.9392439123594
22.407997084125
-130.2067427905944
376.38502921328944
-16.211275159203986
-107.38311766907819
404.251417963909
222.02630955753423
206.2463645126384
-160.19880773124967
56.068108460744156
232.0446557487511
-338.1744800357783
-232.55200876621583
-284.2360639522522
-483.1666863279611
-15.467304800836247
18.532138853162163
26.49208664241754
-320.58707974765395
-388.8979615249176
-194.70073427635788
30.65563773975151
89.48420585817888
-35.28240484128135
-130.4896938125753
-199.39952101224873
-204.27068606956288
-145.25286837861526
171.51647043259848
-118.39643007179195
151.55211192124287
475.5590892828204
-127.69697787216897
1.4042203779028422
53.97784843198417
-291.9474102067948
-423.74957860323786
-39.72198440264328
276.97905414063223
134.06904646958435
-4.143708509167742
-209.7350724858197
142.61322461850747
-60.634730503908855
-237.209525836446
-250.75902330451046
110.83567673674979
507.8214965993457
289.6216898668786
204.42431370868775
-250.67468833946614
-287.62777237037676
221.87041002461933
324.1592400998354
-78.23171829972014
-381.9701384151882
-85.52477486070467
450.02194081943253
26.68075341607849
-154.92188711722056
165.0617716406077
30.374680297288744
-87.13947093689713
-75.49528048558369
174.10396999578842
-74.54265742771044
41.39536806816778
-169.3089882784794
-228.04174704412154
247.89339104711289
-141.07239048384548
-205.80068906187847
-174.68831687360858
106.4520947749505
709.0495127617618
275.4774268638761
-205.74898148523337
213.81508925343135
504.6626307631158
-109.77447162848772
-80.87792502335252
65.98290381644438
-107.8865079736427
33.74716760636845
65.86889440054368
276.0022157085428
62.2901251210841
-88.26314954158731
-367.40729700837954
-375.56281304872084
-5.6821477911670195
116.86377581610148
346.5605519962678
520.5885200691806
285.4289507039858
-247.13044560241144
-121.9751433716767
339.9570462468194
-326.4932770802382
-161.89620766035873
206.56638645416496
-80.9911553601921
-133.60383661322493
-198.9349078567813
-8.136798144935819
99.75476280277762
-250.14897200939967
-268.6242907184071
-28.093822436821174
490.26817784278046
447.84964849029046
-521.0248961706606
46.968247648225294
188.1376213157967
43.55555273171119
288.74708899819547
-59.181957723959144
-136.89478965935086
153.96877892918718
151.27129987026746
-121.28386981443609
153.65114670323374
175.65572600528708
21.42751014509185
-35.69743157450777
62.21643227990118
344.55100358955536
-348.48173776019576
-613.7097180621918
-353.0841337497976
114.38912318043492
376.14903400495626
162.59983521682062
209.97072312101258
-157.63865138328512
292.7062378681385
159.63551517499124
80.20965875392669
247.3757143825141
352.5320798010672
72.37202938018598
-324.71823278864275
43.015813358162575
-201.58716461363582
-68.33804761384609
-122.458108354368
127.76323250062278
541.2115926455533
413.26762371107424
-208.94744928130788
58.04939926288529
174.0790144216508
-152.55795484567628
141.24940940003617
11.876788012424898
-201.04087809154444
-196.28813839400104
299.1421347939973
207.90507502540595
-537.8386158433525
-258.1629705273789
332.6871004408169
-55.09454792748238
144.28613451849446
39.361923817766325
-249.2939937225124
40.56510392128559
-151.7340984336421
-143.79558337419581
34.39431582701053
338.6256884654483
970.4932819240987
181.63299111780617
-117.16468104405995
50.38896588498784
38.432720645153616
-166.59179282144154
-544.6116497279214
48.94694608843346
-294.6589933867242
-162.527752988447
-123.75961631888259
-37.63650789721894
196.89879114923264
-3.1927820433740224
58.46126274837295
85.65747944103788
-32.63359536654955
128.2353132921186
3.597394338879129
-23.53227018016417
44.266086575546524
57.196074902100925
79.50164084632411
-363.9546549832852
-445.579255611915
-81.08784205246502
74.28853754815717
-174.8021886306963
168.3648772817744
146.44688426050257
-472.7334034823187
-385.7918717254092
200.40621337074944
-125.03924017268936
-464.31426331587335
-153.1941348485877
396.5252979800508
217.73788832778868
41.22214032730705
400.7707920276775
-225.28855213783535
-95.33038420128052
11.573473874105561
-181.23472563150077
-55.849651858843146
-168.5212184270199
91.7754360594605
44.2945207658986
79.43675768780246
116.69615001580793
24.440702355092814
222.86763188261685
122.73515334244898
-394.403966515836
-113.39097524509815
77.3939500481814
153.7441895550188
372.66893785694117
-117.16983149355453
172.0974788680276
133.28202895957148
-181.69879630399802
189.99145028786174
209.86223819070423
280.5553651204965
44.85645998642931
153.05742749714523
-49.90643193904355
-290.3933876683563
190.60455015734686
-226.45790816266089
1.3192869941175907
303.0763669591744
-16.290146157525903
-267.7522271631177
142.9338217224318
466.07048998797217
-209.8194740907348
-63.5780770093083
196.705692127728
89.13394062296827
-351.60004108827627
-278.8109152699999
-24.733591952823488
-360.3330412664854
36.536181916961795
50.59559098898596
195.71585705082
160.62458758468716
-289.3327471490021
8.415443870607396
-86.092378086954
-292.59161522387114
-102.38423733295238
-30.715297789869446
-169.1026698458141
-146.4961731006789
340.30359250998595
-41.732982974447296
-89.38746053068569
154.34060662477884
-78.8860582091365
140.31393614970844
-133.99075309516945
-277.87166557832217
69.06198607242912
273.05025130233133
-35.75676654295911
207.38886797995994
206.6319818922045
147.00165038629333
326.9905867487163
30.214530994379615
-41.15278447936947
298.89136882346116
120.7514724773897
-154.42650436843638
248.14750236931982
128.80695067447417
112.09964423861673
148.95399307187628
-35.925065361759295
-118.80881109933318
-106.02227759541789
40.61245821383675
-9.286282321692893
-180.45279480397184
39.032330561070346
-154.37312532229706
210.6302086605181
421.0678785061824
-258.84677828448935
-255.27705836629394
-119.37134258289855
98.32722155685829
-24.863101045445426
-282.8735489072381
-522.5554537460354
-418.1426558665735
7.294708812108107
89.03018542974075
589.5669301003187
230.1353879929443
-50.95867333888664
-2.171911766309205
-108.98232682122536
203.1578432459734
-151.0130476756485
-341.63964142261017
-165.54475249916987
-65.59299572323117
342.24906932563977
49.07401134181301
-416.9894990743867
-138.22659209122423
-414.5039690920604
408.46859834301597
405.96613105949075
-179.4974330623054
219.17728051287216
-38.31951068679103
-315.9990738578986
38.90494264665576
140.09919582719814
253.35148445052528
336.8401321891379
103.42587643030838
194.70141780331224
349.59729927350924
246.52086395344708
207.64870524968833
-135.7131110835262
-277.77742377755453
148.85935910375406
-178.3173873496682
80.16562694787942
164.33942859657395
178.47216200646255
25.532474821646975
-203.51724159230125
181.1029719394783
-193.89831411652816
30.99759384511483
175.67242165468994
52.854423312579634
179.33625390963226
-34.669348492942255
-103.48366901725166
-86.52241677157363
466.921655940048
205.01082536218007
-206.78536819772916
348.6616027036905
-7.101645383710684
-416.14472625529515
86.53177161654676
22.124592129157424
-32.254410411678684
-139.61304790447204
91.7812054498879
495.40629776666975
150.98553536429452
-93.42516629165365
-185.5906132340508
-337.2637130690807
-346.90485641178145
-520.5329666858813
-271.9067538477999
-111.44054446094346
-160.16352733778996
120.69725812351783
119.01560493142289
221.72544112360347
195.77884847507792
4.489531480090528
117.77736636174033
125.7549243173513
-191.17908510172708
8.945868491509426
-11.46709762371695
41.7696540065079
-18.220423923770966
-164.05870960057945
167.51335250357067
384.86430679635936
13.10444210976001
72.72348204710038
-73.70472100508249
50.329302234706844
96.92316277533388
-300.6725997248317
-328.87397063370884
-251.01132028071558
164.48549701474775
-294.94522220138384
-134.28504233241603
322.8891860189406
405.79426685121376
83.68343495749893
149.9152862728913
32.15419338982639
-578.2867339285997
-178.51982098442866
182.8884540531807
-134.8191736293346
-58.2120745972802
106.90192666639095
165.09094707558873
390.8427085428326
84.19752266813397
-13.877073921370334
272.2892971732922
239.44684682263295
55.426780875297645
-447.2903502612062
-46.160056424809255
308.594004027362
233.37068719519834
268.41320625590146
274.90297639931697
-151.32755893302544
-116.04895019789498
195.91434089634086
-362.8467340425404
-4.147011406798218
105.75755096569756
-235.29092282999525
-90.60121123817717
-78.80449961281711
-78.27925369979646
467.0996923251953
-288.4959715876958
-670.6132943951854
-202.94887805829612
191.00477436607102
224.44325035697415
56.54794080420586
159.7127793225606
-72.07283209640366
324.49636386444627
261.0027186661548
-217.83444453478876
88.63846514615348
-143.10558793155752
-304.49222675014886
119.19476212778606
160.7628116315528
