AAD_Filtered_TADAS_FILE
AAD_BASELINE_CORRECTION: BASELINE REMOVED
AAD_FILTER_TYPE: BUTTERWORTH
AAD_FILTER_ORDER: 1
AAD_LOW_CUT_FREQUENCY_HZ: 0.025
AAD_HIGH_CUT_FREQUENCY_HZ: 40.0
EVENT_NAME: 202302060117
EVENT_ID: 13194
EVENT_DATE_YYYYMMDD: 2023/02/06
EVENT_TIME_HHMMSS: 01:17:32.00000
EVENT_LATITUDE_DEGREE: 37.288
EVENT_LONGITUDE_DEGREE: 37.043
EVENT_DEPTH_KM: 8.6
HYPOCENTER_REFERENCE: AFAD
MAGNITUDE_W: 7.7
MAGNITUDE_W_REFERENCE: AFAD
MAGNITUDE_L: 
MAGNITUDE_L_REFERENCE: 
FOCAL_MECHANISM: 
NETWORK: TK
STATION_CODE: 4407
STATION_NAME: 
STATION_LATITUDE_DEGREE: 38.78066
STATION_LONGITUDE_DEGREE: 38.26406
STATION_ELEVATION_M: 1165.0
LOCATION: Kahramanmaras_Pazarck_Turkiye
SENSOR_DEPTH_M: 
VS30_M/S: 735
SITE_CLASSIFICATION_EC8: B
MORPHOLOGIC_CLASSIFICATION: 
EPICENTRAL_DISTANCE_KM: 197.44
EARTHQUAKE_BACKAZIMUTH_DEGREE: 
DATE_TIME_FIRST_SAMPLE_YYYYMMDD_HHMMSS: 2023/02/06 01:17:46.0495340
DATE_TIME_FIRST_SAMPLE_PRECISION: millisecond
SAMPLING_INTERVAL_S: 0.01
NDATA: 13501
DURATION_S: 
STREAM: HNE
UNITS: cm/s^2
INSTRUMENT: sensor = CMG-5T/GURALP | digitizer = 
INSTRUMENT_ANALOG/DIGITAL: 
INSTRUMENTAL_FREQUENCY_HZ: 
INSTRUMENTAL_DAMPING: 
FULL_SCALE_G: 
N_BIT_DIGITAL_CONVERTER: 
PGA_CM/S^2: 33.084
TIME_PGA_S: 
BASELINE_CORRECTION: BASELINE REMOVED
FILTER_TYPE: BUTTERWORTH
FILTER_ORDER: 
LOW_CUT_FREQUENCY_HZ: 
HIGH_CUT_FREQUENCY_HZ: 
LATE/NORMAL_TRIGGERED: 
DATABASE_VERSION: 
HEADER_FORMAT: DYNA 1.2
DATA_TYPE: Acceleration
PROCESSING: Automatic Paolucci et al., 2011
DATA_TIMESTAMP_YYYYMMDD_HHMMSS: 
DATA_LICENSE: U (unknown license)
DATA_CITATION: Turkish Accelerometric Archive v 1.0 - Disaster And Emergency Management Presidency, Earthquake Department
DATA_CREATOR: AFAD
ORIGINAL_DATA_MEDIATOR_CITATION: : AFAD - Disaster And Emergency Management Presidency
ORIGINAL_DATA_MEDIATOR: AFAD PROCESS SERVICE
ORIGINAL_DATA_CREATOR_CITATION: AFAD PROCESS SERVICE
ORIGINAL_DATA_CREATOR: network: TK
USER1: GuestUser
USER2: 
USER3: 
USER4: 
[...]
6.407014211770958
5.004913550026227
2.286420110578496
0.030044279401946934
-1.9975828772429758
-3.4811046137739043
-3.2784629910368617
-1.3939509215825177
-0.3567956879054811
-1.3894281686341454
-2.681954208525391
-3.073460840171043
-1.8653791407664226
-1.5662642807676583
-4.170326336120414
-7.0833902016883385
-7.927055205508579
-8.06164009548147
-9.564015245606743
-11.727879634955114
-12.856416120819121
-11.700718984142117
-9.45602352513354
-9.83703261792122
-13.966145430536807
-17.043704226024207
-16.579017206509107
-14.641330263996387
-13.09739614004567
-13.92273169580209
-17.10318542870784
-19.578426509278664
-19.74841140563564
-20.339344132366058
-22.69676943420845
-24.00826069180619
-22.898701505901432
-20.68352333947829
-18.784632703585316
-19.179247326558343
-21.594268119490962
-22.134206219865085
-19.558410007298978
-16.930224508622477
-15.560077227238624
-14.510596066203123
-14.272300266885061
-15.185246468268604
-15.402120156587873
-14.999717546430723
-15.280888562436227
-15.519454781430307
-14.64125817000376
-12.62322211363477
-11.882453863335607
-13.491891866965634
-16.047729726493724
-17.72445933283426
-17.42068952100118
-15.513472510259179
-13.17767437884085
-11.199600368174776
-9.37600357187517
-8.188515981840814
-10.296765319608586
-15.184032702870992
-17.51178242389764
-15.32471172285344
-11.902375638061821
-9.84880248163959
-8.936431232563327
-8.261522696621306
-7.319113421917003
-6.48578986612726
-5.723963966319423
-4.47574620348791
-3.0829024061905765
-1.9150066261444307
-0.4749824572585156
1.2548939739640463
2.0903389067697224
1.2600253145011595
1.2240626990407883
3.7605729370773395
6.310422273500073
7.122045286456118
7.464073097094154
8.664948348078568
10.248917458242476
11.772201281681589
12.767056806884442
12.46946184541453
12.040451094802167
12.554754040422418
13.494237006872435
14.72109875392118
16.012669602736967
17.50562083427834
18.969227665353348
19.59411315485359
20.276827763955236
20.953320846742677
21.02195276685433
20.42217966395351
19.50616319117529
19.00824101046548
19.59919452395286
21.47957356393424
22.111997078200478
20.11425015335125
17.500648143807936
16.843305555372453
18.022639031953936
18.21627999057033
15.650824205361834
11.595295738784415
9.38201443798104
9.581169915369603
10.296680041429424
10.610266408597859
10.580335110109427
10.334123957216306
9.554771189979022
7.771908528024946
5.433091047989856
4.1113664500287115
5.112059053365682
8.636948467122922
14.111010572156154
19.27078883071904
21.02473795514114
19.478176931623903
16.272833415809206
12.025927734485094
7.05589897337704
3.552179718892912
3.7073969614235076
7.6658137536643896
12.256114421380492
13.117873867532206
11.266544957525277
10.048353140460467
10.889913024129353
12.401582685463646
12.40695510744637
12.019543417923021
13.631393760152875
15.56875683272608
15.097958187859302
12.860032234252468
10.999320730544587
10.907860618208419
11.356058563403549
10.095425365147968
6.9901600748080215
3.806020678837871
0.9985694052890476
-1.6778899359702426
-3.6429934414168472
-4.083421578479745
-2.2379153141502846
0.6936036237349527
2.970325296422708
4.164407753628697
4.226297197283712
4.167319205927356
5.0646255994276785
5.201374729267056
2.718801277075684
-1.9914489544771694
-6.611158805316723
-8.829732116639436
-9.13164327378359
-9.419469563163235
-9.290876946173414
-7.408200733934434
-5.549696487204304
-5.736031724124547
-6.882249227388982
-8.104722654826181
-9.654917997065695
-10.998059681294926
-10.901274062190039
-8.574004070148021
-5.635355901026883
-5.172363849481488
-7.90228474401157
-11.453572880626574
-13.65999464118499
-13.426978761062312
-11.063294388702277
-9.013460587426898
-8.603588267301891
-8.311804675908132
-6.526597121605752
-3.708428846320174
-1.7996615115026966
-1.4212375831570137
-1.6839745871910419
-2.602747075657145
-4.265952181899906
-5.891723946302357
-6.423997678719899
-5.666289091806581
-5.277232346175761
-5.417319801430356
-5.380882486950856
-5.5772934992715735
-5.877098634454559
-4.620972290569809
-0.9609413341958358
2.0788231162683917
2.2658882707944663
1.3687347258224913
1.7553580161821327
3.1761665555478795
3.457777625032492
0.8867011426833599
-1.5852887313332296
0.5167653233691845
4.11501856877619
3.525902300259301
-0.8600276929588968
-3.636205262116296
-1.4959492225274102
4.41249917250625
10.470399564538075
13.608965246508212
13.192691115054233
10.148497246730408
6.5432857844381545
4.316767104991221
3.8483917338323685
2.940586394869705
-0.4129907314728927
-4.582172178420311
-5.042246748677546
-1.7046942808119032
0.4592622078882709
-1.1816406743699501
-4.723153025326299
-6.662566298292334
-6.573650844647092
-6.910894322592075
-8.590410896309189
-10.995285373961366
-12.872625447154673
-12.846276541645176
-10.116474243133958
-5.236410139700009
-1.4314874956946533
-0.6950289101479173
-2.8494510610806403
-6.943212448008134
-10.7985673177547
-13.16878261073436
-15.076349672881285
-17.104018529599003
-19.03978448456605
-21.145613851524093
-22.59407646438132
-21.83357449750207
-18.726744347918864
-16.01261036190428
-14.740873022766522
-13.051374775271322
-10.740067860490484
-9.027682956615843
-8.254784983026273
-6.301933560339818
-1.4504337869549189
4.799918233917844
9.885382320239328
12.690592815164242
13.095323963461645
10.996660289700156
6.484486043487431
2.0946316854166516
0.3815171466850473
-0.35879964582632917
-2.3537212633127154
-4.429864620051208
-5.996515054631864
-7.120119682550635
-7.169945645136018
-6.27011966795352
-6.181470082991459
-7.591467754231462
-5.869084787781964
-2.814790986028413
-4.604502879176199
-7.36890540603365
-5.905249027024082
-3.895584971525605
-4.803747351229721
-3.5027026682870126
0.8825489113529954
1.2527439097982065
-0.5612363837647764
0.9170541571579752
3.2841781227753333
5.206575417392576
7.900660831526674
8.438429712453045
7.528987908586957
9.401146674734015
10.815633636533345
12.04779875428381
16.30962765154676
20.253365540702262
20.010848838838935
18.57269865165127
19.83348206338678
19.545623230357954
18.88599416174004
21.232586290024
21.81965411288672
17.94687559264984
13.793934448770015
10.900532410858787
8.052926624945092
8.049125635961216
10.48403937698477
12.096635046302374
14.613606002126236
19.79498454618045
23.114737816664206
22.049271667139116
19.0374793394827
17.228338551313016
17.861194260782778
19.30440453694157
20.478253004842387
19.722872712124907
16.747617113490623
14.581216549703395
12.634820284347425
8.93965745333369
4.272225971944205
-0.87728409430769
-4.467420042814139
-5.704468843047442
-6.569102769419918
-8.326311719206716
-9.402204896215128
-7.244523004671475
-2.626272920978753
2.1122502243312775
5.158279225783505
6.184062997049565
5.865430472024973
4.922657969246572
4.566048525906537
4.944277842764747
4.846023462077261
3.864606676209041
2.5800332480259027
1.9611705243577118
1.4864995514592865
0.3002932502011371
-1.5513918600862961
-3.85645678564267
-6.2078364705387905
-7.604769665228632
-7.225058137469042
-5.797444697723685
-4.452570655626385
-5.474639664240846
-10.62925582990812
-16.210172529711087
-16.537351026751658
-12.204408956328646
-8.898252234892162
-10.272941463654892
-15.659520092173326
-20.883174657277394
-22.607098000695192
-22.077339942640197
-20.503574446620338
-17.040141015175802
-11.749494827624728
-7.234740755574786
-5.391497452547069
-5.017200055468403
-4.5417044225102
-1.8486640142690502
3.905235983834472
8.432559568991318
8.2167565918768
5.713963098666312
4.1435007715072745
4.423596712310322
7.129338464216861
11.086083585982774
14.093045165669077
15.796249649878865
16.746490926254175
16.29727388265223
13.271230446135577
9.778518744865002
9.309552180337805
10.89950653870676
10.721744971664732
8.664718332256196
8.148482726353512
10.795845704617538
14.581715207259581
16.784039060546924
17.07467491356187
16.95792463291055
17.327068999878765
18.265588701788126
19.892129486166194
20.76659379756441
20.162291703959802
20.03614340366809
20.700430161953772
20.136049307227346
18.36810193674555
16.94622439176027
15.787759018939305
14.885722061448847
15.70362834273483
16.41997228842572
14.903243534502469
13.106479905398482
12.020816233077163
10.358698230049448
7.846805246544656
5.9031120996800714
4.790080150762576
3.638092536892425
2.1582157356802636
0.8344853737712196
-0.7926479503726278
-2.28570861908017
-2.373113856434103
-1.4035341241095314
0.2856888174919953
2.559201814279514
4.342211512607972
4.254722017845902
2.0834611990641165
-0.9728383152164711
-2.612210478036263
-2.2095631084580662
-1.4268383489856848
-0.9063713656208924
-0.22118367804229688
0.7584690141221365
1.8878460541964803
2.55441625581994
2.733716478012144
2.75718542376662
2.3817426506932375
1.6302969704185946
0.46898713759502686
-0.972859553299901
-1.6854667739607585
-1.0124051361154627
0.6941448796476858
1.9313931931911907
1.5211391882264946
0.4095813538907365
-0.19898117758415645
-0.2046653776476221
0.484515695362236
1.612456117915432
2.121124076789199
1.5819137896734579
0.7444433967742576
0.29773989161985587
0.400440938885451
1.122075873082469
1.4786124045996465
1.5875869758782921
2.5870150312498374
3.786629801293887
3.38552369901176
0.9767427309948883
-1.5113598292495394
-2.398300827337292
-1.81509515327874
-0.3571470969598465
2.343617050551083
5.779229253080111
8.116821262593314
8.50925684845298
8.032739306058458
8.268695907553452
9.555895875528954
10.709379516328257
9.871268640719125
6.932495840849271
4.1791371011948115
3.364721355592804
4.2711611605644615
5.223952675685708
4.789807073245786
2.7908901438990377
-0.1506972172151631
-2.610306297469045
-4.542426429144657
-6.980184451394397
-9.565282429336843
-10.539689737344252
-9.263100768854484
-8.118466296835116
-8.959492542449341
-11.123323812791382
-12.664534281839838
-12.05865462236745
-9.820708386233898
-7.411731062458066
-5.7233432727154145
-4.947775194991679
-5.152661093563698
-5.211083596841012
-3.242728986702031
-0.22441583577607283
1.391925202140164
1.1157935067207516
-0.3956877362793057
-2.7843302729209984
-5.455175095249449
-7.325902726146329
-8.016192103901085
-8.097240286833781
-8.781442783267716
-9.965158103637041
-10.61870720795858
-10.48173080613692
-10.31178837538669
-10.920183751254843
-11.902950127945957
-12.946161617955598
-13.905093437700831
-13.43017937179788
-10.949233117906996
-8.885128408209443
-8.939761580828385
-9.847214438837444
-9.719130388166745
-8.429523473108329
-7.28691954617223
-6.500029564613637
-5.309894328067698
-3.7277067097389347
-2.7192564073504046
-2.1337201723832346
-1.615869965737297
-1.976527758092558
-3.391975599040613
-4.8899797883830995
-4.877502334672415
-3.342385556870876
-1.843996580754226
-1.560025690910955
-1.9093666364969073
-1.372114206549952
-0.02097835766803766
1.6696147390432343
4.173825272022532
7.32009334925845
8.910630645079994
7.526954568061433
5.0506497834577395
3.4721804420449875
3.028626860251481
2.9960682269645385
2.173610960732633
0.5741302379209218
-1.1507215146833623
-2.932725837385908
-4.2726484699369065
-4.096651105071454
-2.266685332791717
-0.2094701704353861
1.3078105042666202
2.3062053661669486
3.1517180257832655
4.207940845248642
5.085685437787051
5.420316827091603
5.420439118391042
5.528659058987527
5.756744468847968
6.224882968192145
6.725231220769109
6.353947449273475
5.310822817612511
4.6835662072200925
5.26821655183546
6.995842702022919
7.7127986841969305
6.1079372319882115
3.701271069407909
2.491356268124299
2.903780640380541
3.995038797648618
4.524982662004444
3.7990264174606594
1.7553339931556242
-1.0228985655126739
-3.2162436639613827
-4.3489869862105275
-5.120317133080183
-6.336251607530354
-7.366493212206494
-7.49385298073196
-7.5370268593947
-7.437603637868455
-7.181850822704266
-7.55361294672146
-7.491569602473828
-6.5535143426068165
-6.431834767376569
-6.97891981435419
-6.792846188876676
-6.670232860631905
-7.503213784391236
-8.008282271308794
-7.307343895841212
-6.961886603893381
-7.860078929033624
-8.629769821841531
-7.357243538738458
-3.913797871407726
-0.27733046962989544
1.724182960646356
0.9449760293936472
-1.2662288502152788
-2.8582659531464816
-3.452576132763748
-3.1929668831874496
-2.7986817637768797
-3.4049750303206325
-5.65756746093982
-8.759943561482892
-11.112516622196404
-12.938598596175668
-15.032955849878407
-16.66978026446335
-17.391209972132764
-17.850533612367038
-19.022543177376964
-20.28313087082329
-21.046765377830667
-21.69361354050298
-22.432850567641374
-23.10268160833486
-22.79651473727654
-21.604652396579844
-20.80522799705035
-21.504103834809353
-23.254760164376123
-25.019158474637553
-26.856042382575165
-28.724423127799724
-30.156754796452866
-30.82983282685978
-30.912007780683414
-30.942352115793646
-31.26478341009575
-31.9461712187751
-32.396467142863635
-31.791304049585555
-30.775162459641543
-30.313804531995377
-30.043434941468078
-29.38232724589955
-28.364840376039382
-27.532456501494735
-26.498966645238774
-24.644389132781154
-22.439890555238513
-20.19726695969242
-17.83343587696193
-15.67205613093546
-14.448085391408329
-13.797707773693002
-12.859123876189775
-11.372602894243771
-9.300565975427189
-7.577887933237375
-7.193270842247658
-7.047136916981956
-5.898525432552576
-3.992033147212899
-1.508807805701991
1.322843857468722
3.6281910387628264
4.617447468741602
4.456073111653688
4.30143732989783
5.201354357490212
6.471157152238551
6.729341711154432
6.761833066257444
8.09041521179659
10.219984564035425
12.110809194402814
13.569936516267092
14.535281552552835
15.05247533217709
15.693234568947178
15.554673419045466
13.955546729824261
12.811868770601922
12.874811869719968
13.132342679911098
13.32946144202596
13.79077857730101
14.310952557833389
14.639947013669167
14.949140916809348
15.127110365060188
14.880399491753181
14.250543521347376
13.855690538052066
14.137724698792006
14.34237204005734
13.97135959349426
13.678022052795674
13.671017912240005
13.283259651438188
12.293858853311043
11.064377158503122
9.762677209693342
8.919552652411857
8.817721830258126
8.4746119313935
7.126878079993732
5.253853255002202
3.5123223904436496
1.8709838531238445
0.4962926469880897
-0.079340282662293
0.11462584875420699
0.5636355354736102
0.6224039200776228
0.6839635574364342
1.3234681836519324
1.9613195421860172
2.0839191388492897
2.0195752676878262
1.5699184920951224
0.4384013119321877
-0.5090495278882882
-0.08899043433324946
1.4400517447408678
2.2755417620859264
1.3708410397808923
0.03200914993108038
0.6291466875411194
2.837819266541098
4.464674640259357
4.18612751599232
3.306716781509871
3.606527388231058
4.2088968561937605
3.704879508107579
2.826729134855713
2.2853719070893286
1.7123989682274403
1.4664369250426328
2.0994850381133694
3.007257061470594
3.0774166831972343
2.4092386866947346
1.592592480998324
1.1911681265721132
0.8156732386265046
0.17496858060314813
-0.02609655870052541
0.5883868701228355
1.5580609718735365
1.8822708859012447
1.8391745987284023
2.047899519431006
2.4702304149663012
2.433233967291557
1.3925833883491296
0.33148879513386836
-0.009511173979608628
-0.3997570973426915
-1.82091765070502
-3.7523666159120186
-5.407577774490402
-6.3450328616911875
-6.919849890357834
-7.518189935408303
-7.617264936040323
-7.515242986192866
-8.118341578801303
-8.805487721769797
-8.799931881828664
-9.051080900556709
-10.348350494244928
-12.22118233853125
-13.368145600161409
-13.942339350884854
-14.697012599612748
-14.993581851444596
-14.028037896460852
-12.524246360298081
-11.807696955721038
-12.230894253965017
-12.792584637361262
-11.963478451041858
-10.376228400970993
-9.719614364076989
-9.817677099348296
-9.749864084471776
-9.231315037320003
-8.325034397714973
-7.403831381279563
-6.664817808337488
-5.874788546835505
-4.739042652331679
-3.461523119715072
-3.0762312380334182
-3.642030428986182
-4.106327917230595
-4.23472080286926
-4.202167448488695
-3.901837648029316
-3.2649116938582727
-2.852709076044625
-2.7897418554619544
-2.483421477826237
-1.850472870149283
-1.7331243773386233
-2.6779961171209683
-3.813168575821475
-3.9940791707245316
-2.8877465404853893
-1.2669796100561195
-0.4938486106713447
-1.160861905210432
-2.1245468219017085
-1.81253571025262
-0.2808808955162159
1.2207689799750088
2.1171569677121846
2.9889723186137265
4.42446409960088
5.811629792568543
6.674132509421962
7.595666247640491
8.906192556784797
10.190645656261234
10.560238177899677
9.841699429793286
9.198899658763253
9.965817352872286
11.991850117140936
13.858901393119574
14.903319166924131
15.402046639195063
15.823261452858956
16.14111837887197
16.095909235657526
16.07955800942165
16.321666642735906
16.841532701313266
17.86627581334383
19.351427150673018
20.794688261057633
21.701368649456548
22.207579270121354
22.695674419697212
23.384185348335446
24.249294431825806
24.594054151888823
23.68854202561053
22.267800159354397
21.95094234879874
22.456707677590472
22.15822125421348
20.770440174892972
19.314665006757846
18.66051940129749
18.405209365912196
17.884210335069735
17.668572920503017
18.036712921901387
17.895780341288
17.032081198416723
16.074714615998516
15.249204023411549
14.82356666330988
14.64183348016921
14.157754889926988
13.13306734033887
11.911760833938748
11.130391591433824
11.252124719882877
11.417945754092354
10.423575728947215
8.799313383356218
8.199111185999381
9.00704539359691
10.244324204692546
10.849836813327856
10.05562773153502
9.225126699041963
10.040986053644087
11.682523808538228
12.121360854181685
11.161335715598348
10.355389580078956
10.602107584551717
10.659217759087413
9.162846332350721
7.343804046286474
7.310831802862455
9.150479270681503
10.398248549459302
10.190686055845639
9.944296135867061
10.558197580370063
11.495296435288909
11.82540828691464
11.523988242743629
11.122756196387392
10.978725302691785
10.623501980947442
10.001284041676072
9.259756831996748
8.728518026092159
9.33281686810141
11.005313617225111
12.123089619532497
11.721957712293662
10.667915429077649
9.364998619455571
7.9091504626283085
6.826833279665561
6.211538718165341
5.727899690422006
5.391972096298898
5.226125839935309
5.065617782148522
4.846113356053809
4.28748902543934
2.9126363417749
0.940096271901568
-0.20997204276593612
0.01257013509543454
1.2339954766583283
2.4061226144933587
