AAD_Filtered_TADAS_FILE
AAD_BASELINE_CORRECTION: BASELINE REMOVED
AAD_FILTER_TYPE: BUTTERWORTH
AAD_FILTER_ORDER: 1
AAD_LOW_CUT_FREQUENCY_HZ: 0.025
AAD_HIGH_CUT_FREQUENCY_HZ: 40.0
EVENT_NAME: 202302061024
EVENT_ID: 13207
EVENT_DATE_YYYYMMDD: 2023/02/06
EVENT_TIME_HHMMSS: 10:24:47.00000
EVENT_LATITUDE_DEGREE: 38.089
EVENT_LONGITUDE_DEGREE: 37.239
EVENT_DEPTH_KM: 7.0
HYPOCENTER_REFERENCE: AFAD
MAGNITUDE_W: 7.6
MAGNITUDE_W_REFERENCE: AFAD
MAGNITUDE_L: 
MAGNITUDE_L_REFERENCE: 
FOCAL_MECHANISM: 
NETWORK: TK
STATION_CODE: 4408
STATION_NAME: 
STATION_LATITUDE_DEGREE: 38.09616
STATION_LONGITUDE_DEGREE: 37.88732
STATION_ELEVATION_M: 1215.0
LOCATION: Kahramanmaras_Elbistan_Turkiye
SENSOR_DEPTH_M: 
VS30_M/S: 654
SITE_CLASSIFICATION_EC8: unknown
MORPHOLOGIC_CLASSIFICATION: 
EPICENTRAL_DISTANCE_KM: 56.74
EARTHQUAKE_BACKAZIMUTH_DEGREE: 
DATE_TIME_FIRST_SAMPLE_YYYYMMDD_HHMMSS: 2023/02/06 10:24:31.8517900
DATE_TIME_FIRST_SAMPLE_PRECISION: millisecond
SAMPLING_INTERVAL_S: 0.01
NDATA: 2886
DURATION_S: 
STREAM: HNN
UNITS: cm/s^2
INSTRUMENT: sensor = GMS+/GEOSIG | digitizer = 
INSTRUMENT_ANALOG/DIGITAL: 
INSTRUMENTAL_FREQUENCY_HZ: 
INSTRUMENTAL_DAMPING: 
FULL_SCALE_G: 
N_BIT_DIGITAL_CONVERTER: 
PGA_CM/S^2: 52.370
TIME_PGA_S: 
BASELINE_CORRECTION: BASELINE REMOVED
FILTER_TYPE: BUTTERWORTH
FILTER_ORDER: 
LOW_CUT_FREQUENCY_HZ: 
HIGH_CUT_FREQUENCY_HZ: 
LATE/NORMAL_TRIGGERED: 
DATABASE_VERSION: 
HEADER_FORMAT: DYNA 1.2
DATA_TYPE: Acceleration
PROCESSING: Automatic Paolucci et al., 2011
DATA_TIMESTAMP_YYYYMMDD_HHMMSS: 
DATA_LICENSE: U (unknown license)
DATA_CITATION: Turkish Accelerometric Archive v 1.0 - Disaster And Emergency Management Presidency, Earthquake Department
DATA_CREATOR: AFAD
ORIGINAL_DATA_MEDIATOR_CITATION: : AFAD - Disaster And Emergency Management Presidency
ORIGINAL_DATA_MEDIATOR: AFAD PROCESS SERVICE
ORIGINAL_DATA_CREATOR_CITATION: AFAD PROCESS SERVICE
ORIGINAL_DATA_CREATOR: network: TK
USER1: GuestUser
USER2: 
USER3: 
USER4: 
[...]
-0.10870032533239204
-0.10993934534505725
-0.11094440958316029
-0.10560057762443156
-0.10212614199728459
-0.10202078118770089
-0.10157373074283407
-0.10522002382781542
-0.10618858326179659
-0.10224643886304038
-0.10002732438026946
-0.09732956406946433
-0.09703664994949049
-0.10277084887579918
-0.10327235770779142
-0.09957598345217616
-0.1040966140515147
-0.1067790353442896
-0.10705914524165272
-0.11581037957607193
-0.1176859299336541
-0.10992563072172638
-0.1049283065498508
-0.10245702982913116
-0.10340998437158945
-0.10614563623614667
-0.11051549983853948
-0.1134564731612775
-0.10536119197991578
-0.09564826325913928
-0.09540237403862868
-0.10111906146304109
-0.10770853327868593
-0.11187905352375879
-0.11237169446219267
-0.10689600074016246
-0.10309724070913957
-0.10472503320195815
-0.10456850601853682
-0.10414469021705958
-0.10601284801737534
-0.1069072338930889
-0.10770722209833652
-0.1116881563548271
-0.11188718178200617
-0.11165726443801083
-0.11497697239708343
-0.10982209897093811
-0.1031111639468805
-0.10367388991445034
-0.103671197200495
-0.10238877604669379
-0.10509113045427754
-0.1098745534642252
-0.10947465875292425
-0.10661738903366969
-0.10952265388118411
-0.11105879554949546
-0.10564615212951824
-0.1028003530644363
-0.1039457469582254
-0.10345107663906147
-0.10438003921774452
-0.10928503760138825
-0.11039306996782004
-0.10755145798349515
-0.10888016274426451
-0.10632157909316564
-0.09908428924109755
-0.10247336606953415
-0.10672009074752566
-0.10503415569818954
-0.10832963277166303
-0.10967174233599666
-0.11004453919751081
-0.11169316670551865
-0.10877000075490713
-0.11053059442609017
-0.11147262024285828
-0.10714612635091005
-0.10923304300866538
-0.11040471238676544
-0.1071401675087964
-0.10574797070611175
-0.10379848009858171
-0.10409670201412397
-0.106582120397363
-0.10873316180535025
-0.1122251505291724
-0.11247987642447224
-0.10987361067723081
-0.10970833420020148
-0.10869443530049559
-0.10791772963389712
-0.10859046581840179
-0.10597744795605304
-0.10700048279085908
-0.11126720790926184
-0.10897616537244299
-0.11041698140883989
-0.11465880294096445
-0.1074737093252581
-0.105529173431131
-0.11483529971002393
-0.11624314978746936
-0.11382672202205123
-0.11218500108459967
-0.10584341431213828
-0.1030821605121288
-0.10575684652124104
-0.10624849248667562
-0.10569352865209809
-0.1074364516036181
-0.11094541183142331
-0.1166827981209474
-0.11911850364704984
-0.11558606808699923
-0.11372586185034513
-0.11219492352267571
-0.112851321864371
-0.11219856687534878
-0.10535540281609163
-0.10735850920656945
-0.10799305353273286
-0.10050476016065554
-0.10323919640881515
-0.11115413829997976
-0.11524003803316828
-0.11636458735490998
-0.11801273026527329
-0.11547237516816367
-0.10664372179901772
-0.10593214040568959
-0.11049873327804408
-0.11001940224712137
-0.10760058969565536
-0.10813349502355848
-0.11304219207489755
-0.11630167805392841
-0.11412274317535086
-0.11393102243012854
-0.11586402261931866
-0.11181382337570014
-0.1088564091307336
-0.11220818918610165
-0.11116851756910538
-0.10687732075478198
-0.10758151590737387
-0.10848707489146836
-0.10889596572797211
-0.11190836836998658
-0.11260919992133893
-0.1095857691552158
-0.11042311559968701
-0.11634914652387032
-0.11673406462102234
-0.11484169942667186
-0.11607158886685154
-0.11198781302087428
-0.1098330776804938
-0.11434329810435948
-0.11388618390278982
-0.11125421451978543
-0.11267320456820887
-0.1147721426932222
-0.11279735784336066
-0.10995960578013354
-0.11129059692515067
-0.11226280715008477
-0.1145904147966536
-0.11837827944446547
-0.11494908296569431
-0.10814433542996436
-0.11326106204819415
-0.12210044485519835
-0.1170737333025886
-0.11029305430332001
-0.1110821994425441
-0.11233068369274765
-0.11040408744592596
-0.11009680068551815
-0.11504098519063341
-0.11710687472705747
-0.11455756203939224
-0.11318548509675522
-0.11200177618531793
-0.11131350872137406
-0.11115870583357276
-0.10877349324219694
-0.10792049703420309
-0.11099254157538149
-0.11519611559347437
-0.11646334655221686
-0.11491026707094483
-0.1159711024609629
-0.11589636054841101
-0.11443978796115697
-0.11897916113172882
-0.1216346203225682
-0.11387811741935835
-0.10849633167300807
-0.11504705502393149
-0.11982412233802331
-0.11667529266594764
-0.11384231930701946
-0.1145778487184402
-0.11663175822782094
-0.117226768932855
-0.11777868654553804
-0.11482510482219206
-0.11228928282271872
-0.1150329168952369
-0.11547756971920226
-0.11689427343813671
-0.11898929869156641
-0.11877491662140577
-0.12071535377349887
-0.11783317202299085
-0.11309900073943072
-0.11578429527391851
-0.11371045968717666
-0.10975118652078465
-0.11499003127685474
-0.11573433383678383
-0.11327681664302958
-0.11715557362861437
-0.11937037822670138
-0.11772410404793239
-0.11608574115695887
-0.11719061064145031
-0.1184652954958278
-0.11514394741689007
-0.11220898621657452
-0.11261154666648851
-0.11327483452446549
-0.11497920938998751
-0.11634632207726281
-0.1170988726830351
-0.11972963491934846
-0.11963564181069644
-0.1199478132532868
-0.12142405357125867
-0.11819038848665242
-0.1157922759990856
-0.11434629681309907
-0.11339944339171415
-0.11514049256185596
-0.11511839746852309
-0.11599307662213587
-0.11836932768326101
-0.1156657977515971
-0.11104527568297615
-0.11446458124379996
-0.12123271687443282
-0.11922798983800485
-0.11875080508829297
-0.12043742233242645
-0.11670912496009339
-0.11731081445646438
-0.1190400685378977
-0.11960358546037689
-0.116840261587056
-0.11420803660744101
-0.12092045164650526
-0.12580359368603228
-0.1263150747516245
-0.12199542883693457
-0.11622450091804806
-0.11649581748826109
-0.11643640686987888
-0.11850501148576019
-0.11948663814708188
-0.11376877811228306
-0.11068781826739658
-0.1139147912826314
-0.1182370430778639
-0.1172900511217045
-0.11824132059563525
-0.1223396320644777
-0.11934139498796614
-0.11682447828235129
-0.11720359572234608
-0.11787265318285546
-0.11937257281219463
-0.11652733418384141
-0.11687915847201569
-0.12128632701523531
-0.1200938990359717
-0.12331936488330641
-0.12820904750092899
-0.1238165017534497
-0.12180300971014711
-0.12054414187014362
-0.11596597322104679
-0.11484946509093596
-0.11550227946584093
-0.11838861890622471
-0.12091607131961453
-0.11813434575129875
-0.11610038836231526
-0.11937298591243392
-0.12052616891003062
-0.11687725858314266
-0.11998977864537588
-0.12631752863534584
-0.12315846985215262
-0.12032538757910477
-0.11890071739030281
-0.11460759481537128
-0.11864126642145535
-0.12450511922358896
-0.12217443139816105
-0.1183346868561942
-0.12114956503188004
-0.1242968192920027
-0.12276168844211285
-0.12498196415461313
-0.12274015050143623
-0.11650340662882851
-0.11681986466601596
-0.11635029251608828
-0.11824049171441006
-0.12108122381709688
-0.11931740723137671
-0.1210753553618567
-0.12280252280186106
-0.12336544394859095
-0.1233425327221156
-0.12067906236691053
-0.12152052311652756
-0.12077381221056761
-0.11926924360698443
-0.12226751722334178
-0.12355649804971794
-0.12375367972168008
-0.12430960263587423
-0.12389743444671247
-0.12221517225142303
-0.12039920043679672
-0.12002764165547188
-0.118726415567319
-0.11986073101390646
-0.12367231827936381
-0.1237616708380104
-0.1277041458143272
-0.12967792132522798
-0.12167517795791791
-0.11837346055628181
-0.11699966717538493
-0.11543249347205775
-0.1186695822543171
-0.1208272137193358
-0.12313730799304487
-0.12516913705324176
-0.12674942761688004
-0.12679221575284252
-0.12350234380347214
-0.12132757258403631
-0.12015835460991241
-0.11965579590741525
-0.11920772585841555
-0.12108416114779896
-0.12432206978961335
-0.1245082350686264
-0.12409028198506025
-0.12456896364011533
-0.12498285727456106
-0.12170574736341466
-0.12011740391200881
-0.12394435643983004
-0.1240279122151043
-0.12327250314286085
-0.12529743589133457
-0.12296362456254609
-0.11971728515223701
-0.12458503884360611
-0.12864588934740537
-0.12448551250921723
-0.12353609527953838
-0.12428773960675782
-0.12260527952838976
-0.12236084661219851
-0.12099358277232256
-0.1211804532629134
-0.12253548001747339
-0.1246646032296091
-0.12541608200452048
-0.12451540653990537
-0.1281802134506123
-0.12716290948240558
-0.12323870214857588
-0.12335007940931315
-0.12180051425532812
-0.1234504246016107
-0.12562517140721569
-0.12360878573060763
-0.12314104694181
-0.12188697183950503
-0.12162342347865365
-0.12595120723288117
-0.1271502869154824
-0.12347209584113525
-0.12110708761573621
-0.12219526976488276
-0.12465963671862759
-0.12485029718901428
-0.12404192272415662
-0.12374360863507032
-0.12240303112180886
-0.12257555316901919
-0.12570061239002236
-0.12751299985083278
-0.12685399278108903
-0.125493851744777
-0.12566948959369967
-0.1301581379533509
-0.13126701816401043
-0.12605914719770672
-0.12485970211219032
-0.1251509716734326
-0.12350841660604152
-0.12559654752429295
-0.12558652780939497
-0.12585993196696976
-0.12912339422804572
-0.12850761196496058
-0.12986612542650583
-0.12825792701455038
-0.1240477869338161
-0.12450175546716155
-0.1241502463763283
-0.12421003809692505
-0.12386451543954373
-0.1254887524542369
-0.1272834477319185
-0.1278113992991639
-0.1307458627865937
-0.1277475619004493
-0.12287527553397651
-0.12073110541179713
-0.12288667209348787
-0.12716129809583385
-0.12642984814611835
-0.12942115300693036
-0.12933640533012428
-0.12395918937298453
-0.12696813355545744
-0.12786032004931122
-0.12551629592432395
-0.12737082153388327
-0.12943774261355512
-0.1306081676499801
-0.12713749020816129
-0.12662288278503148
-0.12793717273171867
-0.12263572780830222
-0.12306234415980952
-0.12743368083842097
-0.1293972554419987
-0.13042501083241265
-0.12781103938799415
-0.1264677383849465
-0.12702945573960212
-0.12955979802782264
-0.13382564317792
-0.13269291068049435
-0.12745052847211275
-0.12235098848313396
-0.11797543256959396
-0.12088366573077355
-0.12772176902706925
-0.12745095268280207
-0.12824961255872713
-0.12771892555227926
-0.12629749270227106
-0.1321903114766508
-0.1310188486844011
-0.12834837851662578
-0.12546684205205888
-0.12230734944005775
-0.12889787576930273
-0.1326703375373658
-0.13551599097768957
-0.13627915015862235
-0.13261307609983394
-0.13081599745420588
-0.12533030493772634
-0.12349698741812411
-0.1254918962959462
-0.1261237116356464
-0.13038669436181172
-0.12946224150596877
-0.12725965527396102
-0.13002225465629322
-0.1265303581567912
-0.12799170998137466
-0.13222122655629115
-0.12954580225891613
-0.13117191736976827
-0.12845259665925157
-0.12540246885475131
-0.12703389523175068
-0.1262808119847655
-0.13046529076547236
-0.13016943033716036
-0.12803825254007004
-0.13213598828093848
-0.13148835621015081
-0.13168818122864198
-0.1336123670277775
-0.1324994914937572
-0.13097421999759068
-0.12750743626233732
-0.12719199676260737
-0.12880178823839522
-0.1304078526665134
-0.13377558353230132
-0.13212502556807357
-0.1275446684736868
-0.12701234025065503
-0.13167207409255033
-0.1344641934087224
-0.13036194202321755
-0.12762060741705528
-0.12811221669048817
-0.12989807267991724
-0.1318053073845862
-0.13011943617542604
-0.13124467957096847
-0.13328885418668052
-0.13035421923136012
-0.12858728545670287
-0.12936631275421767
-0.1308077126360428
-0.129949365047041
-0.13163467012666522
-0.13456970288287023
-0.12922009925272585
-0.1280970685175897
-0.13050933430487235
-0.1293546744040952
-0.13373983013134597
-0.13549284749250534
-0.13387823856134928
-0.1384868691424851
-0.14109508014052824
-0.14020774125395777
-0.14090486350917042
-0.14353794933647504
-0.14909880823457342
-0.153745280702892
-0.15884659182942754
-0.16527197775796879
-0.1674811796292789
-0.16947827328326823
-0.17314672051139762
-0.17399703799468885
-0.1762785605962788
-0.18194148741785757
-0.17940518098666525
-0.16223540655661753
-0.13471793222911604
-0.10469036058630551
-0.07875380907204525
-0.05432535639191692
-0.029580198966936
-0.0028991485363689742
0.02743695398114495
0.056429902434841396
0.08819202033670022
0.11945032741809972
0.13756725864350364
0.15311440463577297
0.17600555415826868
0.2080403379050403
0.2535708347028785
0.28429265121885355
0.2689818640532768
0.21794418332266086
0.15600185150406487
0.10641334834133528
0.08416525929875382
0.1019481128690418
0.1391055960732241
0.14516120609799818
0.12234575663013025
0.09937551056613689
0.12356318536976729
0.2385288848348714
0.3691697794008105
0.40433912438490016
0.3282881395502518
0.19121979814163653
0.06356111333271589
-0.03174404693266777
-0.12505399502440068
-0.20642169614740363
-0.305817951203299
-0.46242901877536435
-0.5388259915347375
-0.4694993506932292
-0.3946971426535919
-0.3863398452364911
-0.43747806156100044
-0.5552271110270491
-0.6192302536452202
-0.42219331380864217
-0.12285767896142274
-0.12803051347776417
-0.38176769198879484
-0.5057562325782311
-0.5306516988883314
-0.5069335311543476
-0.08555799986838218
0.4803786779946202
0.43577414467132014
-0.11078302349709844
-0.27558183214974463
0.011280295122005207
0.29584516063004984
0.5965781398738852
0.4055924049762785
-0.323324212975307
-0.8815848098460392
-0.7145298372187556
0.551222942934759
1.50702379691265
0.9468575084903291
-0.323302998876809
-1.4012294327720272
-1.6695320978425514
-0.8643253779896132
0.9305536738306146
2.532564758149086
2.2706873509712078
0.5888277715656001
-0.6849344866142385
-1.0077835549376963
-0.9199791621235154
-0.38796916929017056
-0.2359441140159202
-1.6007695536940938
-3.0035277913202463
-2.5879295456390516
-0.8686716998459711
1.718897246032564
4.826682110817207
5.9810405922228504
4.113700413158167
0.6703050508402161
-1.586860648629487
-1.4642980472252254
-1.6728494826400673
-2.221757536553901
-2.1922638717749736
-2.5529864145785073
-2.279243557802357
-1.0009491521534217
0.810343262255152
1.9618693316745706
1.7599670006540526
0.44460379884732615
-2.1735619739302794
-3.606907301450908
-2.3686426140462813
-0.08133946890953918
1.4362571815100482
1.5237975106070447
0.7442412785490609
-0.2539922241321311
-0.053567100133853726
1.0613889221013617
1.1792134090617392
0.08548877564505881
-1.4040762561533684
-2.9458774388553666
-3.6995851541220275
-2.368808063367172
-0.020787174757159785
1.1260356346374998
1.3952205281783576
1.9047392745788991
1.076036646281616
-0.34335113240289705
0.58676453778601
2.55391476001599
3.6437947190623734
3.4243833547863014
2.1339623062315103
0.5634227766471941
-1.0208268600751795
-1.9556019412410834
-1.977980996987723
-1.6674267489134416
-2.091013551286598
-3.2866735198255683
-3.7892469936035913
-3.437502971359166
-2.3932436445393725
-0.7327724625573859
0.4091707568868297
1.3161873824996193
1.8211005286818391
0.7082833189152016
-1.1100593692436453
-2.7808344479515026
-4.261120367152615
-4.641525895471241
-3.0555450227260983
-0.8885827977326022
-0.7483915003068067
-2.62188745121553
-3.218267849244522
-1.491932958300405
0.07190317810627385
1.4258613396324054
1.3783667231735965
-0.9966435955010692
-1.3774986643018603
0.65848075979364
3.4101361414272824
7.446381992587485
10.737311513235033
10.486841755255293
5.404331079201108
-0.2583914348846522
0.9345246850214622
4.7790603699283905
1.3966181288150297
-3.7547043481870843
-5.8137190732928685
-9.588139856498108
-8.231444393572627
0.3581977847406089
5.29295613836643
1.6229153795862024
1.104019199669105
14.721943837793285
29.513323621100014
40.975270657019166
42.726631912646596
27.05196099508045
20.630858272270114
28.243893495036623
33.07997750595291
35.483121810353715
31.79729580960042
27.086953716605
21.70260611720998
8.552283768963802
3.7940776438974626
3.5494886836512136
-7.6723136647925605
-25.405528727768772
-39.45037366454332
-36.43166484456416
-24.015716817973903
-26.57195417129327
-32.69453397894085
-16.28143068023261
-6.363864228148092
-0.987516742274691
21.237926225204955
39.19284351273093
50.36639957788386
40.00564223000389
28.212666681673685
30.98526046308392
24.07249074985742
13.897680891558561
-4.338174268784674
-22.12601539778441
-31.918665665056498
-38.43304766926551
-38.20918492840132
-34.95879924230224
-23.465730284035022
-14.364320771346627
-13.48505424100971
-16.993661610763553
-30.779063679367088
-9.994734453732251
4.87420863673192
-2.698973303423678
1.1584354027938466
-0.806171926697195
0.19458509375011437
-0.31502612826522014
-0.055352116368369245
-0.1875033395535824
-0.12008398409271996
-0.15431345768791893
-0.13676975455118137
-0.1455962846511517
-0.14099176531959995
-0.14322843771734342
-0.1419809113149687
-0.14250828281533334
-0.14213190247343163
-0.14221610365605947
-0.14206598131244105
-0.14203547545179046
-0.14194431112869216
-0.14188430851423484
-0.1418086998361081
-0.1417413052052831
-0.141669991755821
-0.14160093878186408
-0.14153099852872053
-0.1414617738477223
-0.1413924479343357
-0.14132343640345796
-0.14125452715457298
-0.14118582780611474
-0.14111728313266877
-0.1410489208517644
-0.14098072643571663
-0.14091270687450935
-0.1408448581990378
-0.1407771820227019
-0.14070967711616983
-0.14064234369865647
-0.1405751812522183
-0.1405081896350113
-0.14044136851426736
-0.14037471765509896
-0.1403082367733995
-0.1402419256107654
-0.14017578389633467
-0.1401098113662229
-0.1400440077536228
-0.13997837279384573
-0.13991290622175315
-0.13984760777306365
-0.13978247718368642
-0.13971751419005962
-0.13965271852897715
-0.1395880899376758
-0.13952362815378994
-0.13945933291537366
-0.13939520396088845
-0.13933124102920855
-0.1392674438596172
-0.1392038121918076
-0.13914034576588147
-0.13907704432234877
-0.1390139076021269
-0.13895093534654016
-0.13888812729731903
-0.13882548319659962
-0.1387630027869229
-0.13870068581123424
-0.13863853201288262
-0.13857654113561998
-0.13851471292360085
-0.1384530471213814
-0.13839154347391897
-0.13833020172657134
-0.13826902162509633
-0.13820800291565088
-0.1381471453447906
-0.13808644865946915
-0.13802591260703745
-0.13796553693524327
-0.1379053213922304
-0.13784526572653832
-0.13778536968710126
-0.13772563302324767
-0.13766605548469973
-0.1376066368215727
-0.13754737678437415
-0.13748827512400347
-0.13742933159175122
-0.13737054593929857
-0.1373119179187166
-0.13725344728246572
-0.1371951337833951
-0.13713697717474205
-0.13707897721013135
-0.1370211336435746
-0.13696344622946988
-0.13690591472260077
