AAD_Filtered_TADAS_FILE
AAD_BASELINE_CORRECTION: BASELINE REMOVED
AAD_FILTER_TYPE: BUTTERWORTH
AAD_FILTER_ORDER: 1
AAD_LOW_CUT_FREQUENCY_HZ: 0.025
AAD_HIGH_CUT_FREQUENCY_HZ: 40.0
EVENT_NAME: 202302060117
EVENT_ID: 13194
EVENT_DATE_YYYYMMDD: 2023/02/06
EVENT_TIME_HHMMSS: 01:17:32.00000
EVENT_LATITUDE_DEGREE: 37.288
EVENT_LONGITUDE_DEGREE: 37.043
EVENT_DEPTH_KM: 8.6
HYPOCENTER_REFERENCE: AFAD
MAGNITUDE_W: 7.7
MAGNITUDE_W_REFERENCE: AFAD
MAGNITUDE_L: 
MAGNITUDE_L_REFERENCE: 
FOCAL_MECHANISM: 
NETWORK: TK
STATION_CODE: 0134
STATION_NAME: 
STATION_LATITUDE_DEGREE: 37.74427
STATION_LONGITUDE_DEGREE: 35.864475
STATION_ELEVATION_M: 494.0
LOCATION: Kahramanmaras_Pazarck_Turkiye
SENSOR_DEPTH_M: 
VS30_M/S: None
SITE_CLASSIFICATION_EC8: unknown
MORPHOLOGIC_CLASSIFICATION: 
EPICENTRAL_DISTANCE_KM: 115.66
EARTHQUAKE_BACKAZIMUTH_DEGREE: 
DATE_TIME_FIRST_SAMPLE_YYYYMMDD_HHMMSS: 2023/02/06 01:17:31.9832570
DATE_TIME_FIRST_SAMPLE_PRECISION: millisecond
SAMPLING_INTERVAL_S: 0.01
NDATA: 12501
DURATION_S: 
STREAM: HNN
UNITS: cm/s^2
INSTRUMENT: sensor = ACEBOX/SARA | digitizer = 
INSTRUMENT_ANALOG/DIGITAL: 
INSTRUMENTAL_FREQUENCY_HZ: 
INSTRUMENTAL_DAMPING: 
FULL_SCALE_G: 
N_BIT_DIGITAL_CONVERTER: 
PGA_CM/S^2: 68.725
TIME_PGA_S: 
BASELINE_CORRECTION: BASELINE REMOVED
FILTER_TYPE: BUTTERWORTH
FILTER_ORDER: 
LOW_CUT_FREQUENCY_HZ: 
HIGH_CUT_FREQUENCY_HZ: 
LATE/NORMAL_TRIGGERED: 
DATABASE_VERSION: 
HEADER_FORMAT: DYNA 1.2
DATA_TYPE: Acceleration
PROCESSING: Automatic Paolucci et al., 2011
DATA_TIMESTAMP_YYYYMMDD_HHMMSS: 
DATA_LICENSE: U (unknown license)
DATA_CITATION: Turkish Accelerometric Archive v 1.0 - Disaster And Emergency Management Presidency, Earthquake Department
DATA_CREATOR: AFAD
ORIGINAL_DATA_MEDIATOR_CITATION: : AFAD - Disaster And Emergency Management Presidency
ORIGINAL_DATA_MEDIATOR: AFAD PROCESS SERVICE
ORIGINAL_DATA_CREATOR_CITATION: AFAD PROCESS SERVICE
ORIGINAL_DATA_CREATOR: network: TK
USER1: GuestUser
USER2: 
USER3: 
USER4: 
[...]
7.817618940312456
1.3898906945346687
-5.621403127916764
-12.086538056585349
-16.58895888699897
-17.738948058470108
-15.290970579529144
-10.030898422633081
-2.9123285123975178
4.677947640160996
10.92706047371391
14.376608490673165
14.20663403632145
10.900007642708774
6.315182676810692
2.046478973424886
-1.235787947314256
-3.193436162148019
-3.730186876866242
-2.965203403947632
-1.0547039467662624
1.8498472502301002
5.639543105244282
10.13383439304844
14.752047906551594
18.574688606279064
20.59645897387875
19.981519989298864
16.85309954180649
12.42188695515219
8.284198176998697
5.824645463446969
5.410130364283841
6.142781236745843
6.698736412429814
6.015521808005394
3.360519283187497
-1.2156266426216862
-6.666166702489453
-11.935988937916353
-16.375983488222403
-19.281475335135188
-20.26163449246532
-19.835081743516692
-18.795961419837045
-17.474063351704086
-16.0985964034348
-14.733527820357766
-12.92148580641184
-10.31153348160214
-6.9838624790268655
-2.8962196050535405
1.972370034343738
6.9091194794639295
11.093593910938397
14.342399601764674
16.502016144066417
17.057399690865
15.655826306234843
12.704561756174222
9.286259615892238
6.404359049786231
4.519322676931632
3.663728960143028
3.3004659527451152
2.4499813621964455
0.5275699875642711
-2.5315654393163927
-6.638170757069019
-11.199425529519193
-15.177610353010513
-17.97920801916228
-19.51399340052223
-19.855012602848255
-19.396644402557612
-18.47649413380891
-16.928734870623448
-14.73637269259501
-12.473355293127703
-10.559180088352083
-8.864335222603671
-7.386094162752562
-6.553673726260468
-6.697822471995838
-7.6355071442420925
-9.04210242348007
-10.868732259582027
-13.057607554294238
-15.700742076203317
-18.88481918062305
-21.68450798657737
-22.445082590494412
-19.932513619367324
-13.588069032363762
-3.7899660829795936
7.553426174153484
18.00720904480457
25.95104446058968
30.283719026695167
30.490505534328594
27.12474145751481
21.223576391912548
13.923066408102189
6.3635881411913955
-0.6764803777198066
-6.797826371265535
-11.691644385208864
-15.247896219372118
-17.59589755682788
-18.449496095719145
-17.378455895983475
-14.662561541436954
-11.048334006239504
-7.400096614646577
-4.582820776239512
-2.9249449829645306
-2.1755797028963904
-2.122104083454418
-2.6276355704765595
-3.1756966636104242
-3.0513493258999325
-2.018948541078812
-0.29464957324895774
1.9275733148999932
4.33359156724776
6.49777733860014
8.456924766702022
10.47884153159414
12.696117182928788
15.244540880794368
17.906848479634952
20.199324097225958
21.580742608606077
21.40620709178221
19.564553877863005
16.400182309801455
12.267128124658928
7.752635125325417
3.481085041021199
-0.2011477549178528
-3.218723588044899
-5.798458100884299
-8.196724134046038
-10.138619307818308
-10.722820580155243
-9.093774281072387
-5.040737289751561
0.9724458571236508
7.758661659754089
13.546858584119681
16.89517585755375
17.56162352535289
16.15580797044105
13.648672395823741
11.314994634160627
9.958477483035661
9.602961470684132
10.065892475831
10.987425890225659
11.726991357511196
11.763961151663667
10.999017882248449
9.724575429141861
8.498697403678474
7.704237058910768
7.212664929195772
6.662220588232156
5.830005041573022
4.839914819101046
4.095576678841343
3.7739953899078826
3.645371682921849
3.4464365313271346
3.179860815641384
2.999631280688391
2.869735380892521
2.549491325403864
1.6711508243754334
-0.058725908730731434
-2.3044378853647407
-4.135610728323909
-4.810274508411694
-4.250694386980552
-2.8555465718408137
-1.23931720273403
-0.0893927844332614
0.2823611790282327
0.46402255131513614
1.8389701291876248
5.67841896659393
12.131737122663829
20.048290223325566
27.681454810634797
33.14038638088901
34.75930978868924
32.257355161202604
26.765313346831164
19.561741884004764
11.69571613086549
3.8480429612113745
-4.008526076561978
-12.161311996101153
-20.624326809803552
-29.083925461008516
-36.799899933972945
-42.80262457301168
-46.42025281690245
-47.53965707593724
-46.33485787128606
-43.11999879874289
-38.680366729786115
-33.95815894788826
-29.50881896269104
-25.532777721453733
-21.889953882202963
-18.26477245243615
-14.407669393293062
-9.999952632803051
-4.717749324246089
1.3227772848705617
7.48586402950002
13.130271151796494
17.67937208773122
20.378329318341265
20.801908431555017
19.06470705157885
15.403482415928876
10.370922735135574
4.964901084829556
-0.011078046860050919
-4.2275801056056155
-7.789569237775005
-11.066684171121553
-13.970731640986909
-15.744895654535458
-15.601730535428711
-13.393381710579032
-9.74008014596697
-5.53516503980958
-1.6226720838815323
1.4341350872039114
3.5789683538183934
4.991626336220185
6.037735630414707
7.39315084516447
9.542091022810174
12.327427189003593
15.208758858609219
17.387253862581
17.984018926561717
16.872925014503107
14.754008093769627
12.637698381164153
11.70694864862959
12.804115763965164
15.76953589602566
19.518210309800732
22.78438679960088
24.56370302724569
24.201970963999898
21.608951678585417
16.97795940417977
10.527649261270602
2.9628586721520893
-4.469397634138853
-10.521448664760257
-14.27374154206807
-15.268421938083685
-13.7945927987228
-10.719254898298678
-6.712400945521779
-2.38708527541316
1.3129966899510825
3.5519258475218862
3.8442611827950603
2.3302075993141704
-0.0004134823179012127
-1.9226004454072767
-2.8016983631604115
-2.824493942203334
-2.437118042762439
-1.8450108991842786
-1.1090676989858184
0.05845001619200816
2.5531047037377386
7.245089532936796
14.068283571414803
21.851227039694223
28.60055789215103
31.95892768062794
30.524486433030035
24.760846390043703
16.0491928571909
5.842552336096115
-4.117495924496579
-11.957909288367661
-16.517250471925937
-17.64428273450802
-15.51081350028353
-10.431510818709684
-3.2662662191802085
4.50831881869991
10.992637982920712
14.425229308191495
13.833303288047373
9.40102942266729
2.086410366618601
-7.025831773343639
-16.484529770043
-24.564869189405908
-29.42852517335295
-29.189212569967616
-23.71170027221285
-14.71860192274351
-3.993422544498135
6.238159027279765
13.484185949014218
16.297263732876537
14.375576812394517
8.606672745417198
0.6515969498493648
-7.8539810191570325
-15.351419907331866
-20.175709647845835
-20.739631801657925
-16.69109326584111
-9.154358421759738
0.48012139727259745
10.838349011268587
20.473148930747282
28.157155487624276
33.283496151007974
35.75173316003588
35.14540115933277
31.057900035467902
23.985876819856994
14.938718413093692
4.938303042643352
-5.030834844568839
-14.169597037934748
-21.694928454468442
-26.92151677273739
-29.672869394871032
-29.743407150571763
-26.683953535074366
-20.84180062978578
-13.48908970972844
-6.259272558147519
-1.0577472946417437
0.5514659600895404
-1.8433092239092213
-7.39632072757715
-14.331498031107609
-20.036834494528698
-21.73874331840435
-18.50825729639342
-11.47755132524477
-2.3489222719528127
6.768495949612211
13.875709229946937
18.36090584036793
21.14999841826452
23.846975127793815
27.543019865451566
32.210248472404054
37.07544695406726
41.236268995801225
43.86646494450498
44.163884876969995
41.682822937653
36.43520879994088
28.691165900832846
19.374144408014065
9.76814421586486
0.8386862241576697
-6.505238632419828
-11.659753185516458
-14.924266552954812
-16.942085832426173
-17.85175305187756
-17.250383798479575
-14.626949766580925
-10.062543411972257
-4.956863998951577
-1.6085630797374402
-1.8792620173979937
-6.3184396994705585
-14.100165474126323
-23.332926518570474
-31.599045979147828
-36.609900249884895
-36.80827706005996
-32.44022893511549
-25.30745085512776
-17.07315408050892
-9.07924809573196
-2.5688020361399917
1.8017613584389696
4.140843481871307
4.960500637610667
4.229304917017755
1.2770493296605496
-4.038301713629049
-10.648030894173004
-16.78136245952451
-21.150242194955204
-23.38313483218489
-23.736468627970748
-22.865859122568665
-21.105098237384972
-18.31071039387911
-14.648044764947285
-10.618424335220244
-6.494699061182978
-2.3259711008450674
1.56381175922717
4.6337855885602455
6.675285079347287
7.645557158473743
7.415108931919014
6.081559135036309
4.0161711934703055
1.5214153995855166
-1.1895888311925975
-3.6454133289171238
-5.420695512359747
-6.291261563886256
-5.937506596291754
-4.012048341211984
-0.6621162890361565
3.17438154906846
7.386549359752577
12.642869285759447
18.55930211728338
24.405175672061212
29.429613251244565
32.63809040153319
33.622607238676025
32.300714611207205
28.699879830465758
23.304071253138375
16.92703449055757
10.582149739366178
4.961439367681341
0.5270456083376801
-2.0986452687998485
-3.3170169786315586
-4.503112445855164
-6.338183986793835
-8.963435398572209
-12.826994569363452
-18.288795039392394
-25.071367357003414
-32.346838570415
-38.89784895556204
-43.30310198842845
-44.54023277867342
-42.25704777312214
-36.819278277355146
-29.518433416947403
-22.095339375182487
-16.135969391088565
-12.881937728259999
-12.639933495120141
-14.449595636481726
-16.81266570259963
-18.13412308840228
-16.731562470593833
-11.55453434425606
-2.663872923764485
8.998475310055246
21.936406164396786
34.52334664697834
45.231496655318104
52.93224887958171
56.92798644859014
56.865408688381464
53.212074660786485
46.99113249786313
38.998961970672276
29.97537827930522
21.301420981185963
14.617941278085638
10.555807602605155
8.570023244095768
7.910188183827849
7.962115243290841
7.756005941087874
6.002616974645858
1.6392259607209825
-5.794835245846583
-15.861219758973462
-27.15369306457048
-37.792539430514644
-45.92778574679459
-49.59344076765814
-47.387465841916
-39.75990187622928
-28.25414007720647
-14.390878296538201
0.07394179042491962
13.369913918314005
24.163353538393256
31.51462699985601
34.918843496764474
34.26314604267051
30.033724171031977
23.728105390935674
17.207339983120217
11.870396524370172
8.48558239744266
6.860709111190463
6.252931267688109
6.107730438434248
5.735925102919007
4.204727808668279
1.0714234666220153
-3.545093236936977
-9.455590992921023
-16.17799339673559
-22.781242448299416
-28.423029183135508
-32.827181976730955
-36.15665165983828
-38.46725914689377
-39.50766229938294
-38.84208889193212
-36.10437231266613
-31.362013787649705
-24.885226347481076
-16.88528766782101
-7.905201850107542
1.1184077263879033
9.018906582024256
14.524553871371765
16.66131486160393
15.311240135524601
11.639095575439836
7.345440095215034
3.4471496703001487
0.29925751545640655
-1.7733923480172022
-2.5179575024386143
-1.9966852194333038
0.010412938260137972
4.053826209227865
9.917382642278957
16.383399883718194
21.923028643586214
25.194322526742585
25.735488367628946
24.521787143357166
23.186918720426576
22.895023074607803
23.889968486752544
25.417778867061937
26.09592277123773
24.51915085570507
19.962627512230263
12.674169280998559
3.5311108394235
-6.199517013808461
-15.170062174677376
-22.468903478271
-27.70778953080483
-30.51909363586882
-30.58905653450277
-27.77777320002883
-21.794479722492742
-12.895076818615845
-2.448226729348283
7.439103962513019
14.891559868966217
19.059113841564496
19.590734529666857
16.70123905073931
11.414051234481583
4.730450225831043
-2.2462852884944193
-8.150820614333602
-11.886934673263234
-12.521823279599744
-9.450735127134774
-3.0250853807242457
5.18376179505476
13.275230396904846
19.808107267982262
23.687820602959277
24.781428717670607
24.19987818332991
23.456715213266786
23.57483181196475
24.518547087479266
25.310340763229906
24.98823799467203
23.15159264230598
19.602320004195594
14.385077128305902
7.763261370111156
-0.006489658006202663
-8.008703078838158
-14.57212488103903
-18.510619459521436
-19.72663137086372
-18.64707882896075
-15.831283653803158
-11.99986516014574
-7.843845824664153
-4.0098210219085235
-1.0871487929736654
0.907385343045328
1.9799313662035536
0.9379774570067992
-3.1825013115385303
-9.0385650587393
-14.756780334052658
-19.421269383956027
-21.624320048402293
-19.941863205371803
-14.424841349094006
-6.299851344224298
2.576562780637281
9.945886153336325
13.66485278934575
12.729825790505002
7.657989181322192
-0.3978538244620013
-10.059433009771517
-19.88282783618236
-28.902320522253444
-36.475075727715804
-42.335555096127514
-46.9154103179426
-50.884833325886305
-54.563987567994
-57.472441245982886
-58.42846688357755
-56.63939706724331
-52.26372081294058
-45.88051097794307
-38.31754963354477
-30.59618528686727
-23.350174945385135
-16.935563267074006
-12.109770550198057
-9.926540213579818
-10.969180958389078
-14.507010064738749
-18.684790837092805
-21.850415106278973
-23.075222015664245
-21.81273356095007
-18.086639774388697
-12.575660304228405
-5.927113494016195
1.4875129407412926
9.410220077343523
17.924803590287738
27.403952758651148
37.45005917798783
46.82922794851409
55.02074562565304
61.93865519421507
66.9752679080829
69.19360734253334
67.63626996282456
62.11080225643729
53.3587946464062
42.49507228903019
30.629822744546754
18.88777214978033
8.529780438855347
0.1812409552702715
-6.395470256660411
-11.29268235974899
-14.288785483909695
-15.716123820266748
-16.447024702756483
-17.075561233609513
-17.814974552092615
-18.8286624698733
-20.480798828206815
-23.29817096484479
-27.54463108341952
-32.77506509629191
-37.771870644955385
-40.940597758578704
-40.736026414947894
-36.58932953999592
-29.54294633243136
-21.285889509834373
-13.274174533872031
-6.678371668415296
-2.307616469073247
-0.5847429105255488
-1.4545669671273078
-4.554571798559482
-9.328990675576161
-14.570416440435265
-18.58673616657489
-19.754526344199178
-17.066115063158573
-10.715429952170918
-1.7829399631737943
8.284454771294463
18.230155208700882
27.376701928952844
34.97662817541882
39.932232227511406
41.24646112834809
38.349574925900654
31.379755090806025
21.120376499886927
8.679272589304784
-4.445743901869607
-16.5229769960661
-26.043232694045436
-31.654202558562417
-32.53680538883936
-28.994986846553918
-21.988061931875002
-12.893848177700953
-3.8258115383364757
3.191606933870159
7.562098455668293
9.821434179215787
10.637144445068754
10.636740201493156
10.264153800894755
9.619868958799668
8.65096129574399
7.404864731442679
6.1328603694503565
5.090601207177917
4.267978383323406
3.560805823891057
3.1496422944175224
3.3703106414283006
4.659633884901919
7.496734276791746
11.886819596278587
17.326617735613475
23.099494912822625
28.543468530921942
33.2634189278633
37.057281776414875
39.9009244745525
41.87729349048005
42.89018555049992
42.57339586909939
40.5403581559891
36.35229469819083
29.75461283013932
21.487358601377206
12.781662791984
4.451648556151123
-2.8849051658092644
-8.70299422456075
-12.776082133201733
-15.165136432699123
-16.04770573886986
-15.75765604496084
-14.751894748410205
-13.512024935623725
-12.833071911092034
-13.52354712162121
-15.855208737229042
-19.58351181153369
-23.822394988852427
-27.221102991944605
-28.56964413785524
-27.21851278655887
-23.51145824274381
-18.602202780934725
-13.884252250037225
-10.607177103564625
-9.412909495836546
-10.236879373786662
-12.283427834998745
-14.13721026869017
-14.525024650601155
-12.765168926105707
-8.656207739064085
-2.7986811194844123
3.462652030307978
8.841086487325986
12.137010773822308
12.462940956412526
10.000548587359065
5.682100134620149
0.6177845427445557
-3.938662246162926
-6.936268051231485
-8.134619142413051
-7.978542770793422
-6.757323733030743
-4.32919646651968
-0.5045949450685777
4.762606659694545
11.219280595147119
18.334092319862734
25.389206130278065
31.016681745764217
33.474218770709506
32.0382617021983
27.256344085473796
20.097137793952648
11.500310546896088
2.367265381426626
-6.222269855604272
-13.260648675685424
-18.00486287476984
-19.69565171356304
-17.908119728322987
-12.845954637373119
-5.307408008057917
3.0810242259882608
10.28501115736602
14.756838665605258
15.750023731298699
13.462677107320694
8.999920328114461
3.839065536940521
-0.7914282794867232
-4.355063757316253
-6.589165708234479
-7.4368378833120765
-7.721564609624179
-7.79936064279853
-6.701403777598243
-4.119025571678068
-0.7387538670265974
2.822738833982515
5.605054347956193
6.555586590180612
5.402950285345107
2.3552126993632965
-2.2949876086527046
-7.896293061609114
-13.267108615660986
-17.069236824858773
-18.23668610429655
-16.459168794775632
-12.505971283523749
-7.8260949003397995
-3.8721387235102935
-1.4906191517440535
-0.8798774126736524
-1.7302905490554736
-2.9519061468610612
-3.041756633842222
-1.0947267780319665
2.692469483510434
7.425854025495705
12.080378735264011
15.733232818842152
17.873474602356204
18.569483116651426
18.41699407945937
18.27083577748573
18.762116404195655
20.044694124533812
21.818899244950867
23.508885612187832
24.394056923518548
23.941994479726777
22.17850335897747
19.535845611589455
16.46163686234764
13.194822799993597
9.898440960691085
6.812717558835461
4.1962487102434505
2.2701661652608642
1.207823329446589
1.1142323601910142
1.8647424050238162
2.941799143851035
3.7698288107348126
4.242874172679689
4.638561101704991
5.214078832517297
5.899051036874276
6.2682149265015745
5.912729620141604
4.704168474233951
2.756770287985443
0.2755358062721745
-2.4647862583142137
-5.036525538453081
-6.982163376846674
-7.849687857460205
-7.210750489189096
-5.056268744309998
-2.1301683584547275
0.24247460999014628
0.9372113914532849
-0.19828985612155645
-2.308948190320881
-4.086405569707252
-4.441629426355681
-2.8143001030932946
0.5694248099188868
4.622651384359786
8.138525370776119
10.360960642611017
10.851869633162307
9.523891431582703
6.780395447259149
3.4782121194822677
0.8090215466604641
-0.20490128942525526
0.9329932534146202
4.141437692438059
8.471078306069248
12.521838713180568
15.30128162663104
16.21971172291545
15.226789562844672
13.060849249958903
10.606547561911054
8.38194546728193
6.605351127831624
5.240513091222159
4.070350877969487
2.993886419798389
2.054490267936572
1.2567629619545324
0.5255507820174038
-0.39346704965135587
-1.696048628488357
-3.336048786803328
-5.143741559399174
-6.8387701710947395
-8.282878659648503
-9.526514211984587
-10.673933959613905
-11.825945829397398
-12.862323742379154
-13.562856213785295
-13.903127227689813
-13.863430506551802
-13.095825274042872
-11.19509533892471
-8.151854021105937
-4.37917847640696
-0.5576922531839928
2.561916150598408
4.569682767647715
5.779534337399631
