AAD_Filtered_TADAS_FILE
AAD_BASELINE_CORRECTION: BASELINE REMOVED
AAD_FILTER_TYPE: BUTTERWORTH
AAD_FILTER_ORDER: 1
AAD_LOW_CUT_FREQUENCY_HZ: 0.025
AAD_HIGH_CUT_FREQUENCY_HZ: 40.0
EVENT_NAME: 202302061024
EVENT_ID: 13207
EVENT_DATE_YYYYMMDD: 2023/02/06
EVENT_TIME_HHMMSS: 10:24:47.00000
EVENT_LATITUDE_DEGREE: 38.089
EVENT_LONGITUDE_DEGREE: 37.239
EVENT_DEPTH_KM: 7.0
HYPOCENTER_REFERENCE: AFAD
MAGNITUDE_W: 7.6
MAGNITUDE_W_REFERENCE: AFAD
MAGNITUDE_L: 
MAGNITUDE_L_REFERENCE: 
FOCAL_MECHANISM: 
NETWORK: TK
STATION_CODE: 4617
STATION_NAME: 
STATION_LATITUDE_DEGREE: 37.58551
STATION_LONGITUDE_DEGREE: 36.8303
STATION_ELEVATION_M: 544.0
LOCATION: Kahramanmaras_Elbistan_Turkiye
SENSOR_DEPTH_M: 
VS30_M/S: 574
SITE_CLASSIFICATION_EC8: B
MORPHOLOGIC_CLASSIFICATION: 
EPICENTRAL_DISTANCE_KM: 66.50
EARTHQUAKE_BACKAZIMUTH_DEGREE: 
DATE_TIME_FIRST_SAMPLE_YYYYMMDD_HHMMSS: 2023/02/06 10:24:33.5228790
DATE_TIME_FIRST_SAMPLE_PRECISION: millisecond
SAMPLING_INTERVAL_S: 0.01
NDATA: 10501
DURATION_S: 
STREAM: HNE
UNITS: cm/s^2
INSTRUMENT: sensor = GMS+/GEOSIG | digitizer = 
INSTRUMENT_ANALOG/DIGITAL: 
INSTRUMENTAL_FREQUENCY_HZ: 
INSTRUMENTAL_DAMPING: 
FULL_SCALE_G: 
N_BIT_DIGITAL_CONVERTER: 
PGA_CM/S^2: 82.695
TIME_PGA_S: 
BASELINE_CORRECTION: BASELINE REMOVED
FILTER_TYPE: BUTTERWORTH
FILTER_ORDER: 
LOW_CUT_FREQUENCY_HZ: 
HIGH_CUT_FREQUENCY_HZ: 
LATE/NORMAL_TRIGGERED: 
DATABASE_VERSION: 
HEADER_FORMAT: DYNA 1.2
DATA_TYPE: Acceleration
PROCESSING: Automatic Paolucci et al., 2011
DATA_TIMESTAMP_YYYYMMDD_HHMMSS: 
DATA_LICENSE: U (unknown license)
DATA_CITATION: Turkish Accelerometric Archive v 1.0 - Disaster And Emergency Management Presidency, Earthquake Department
DATA_CREATOR: AFAD
ORIGINAL_DATA_MEDIATOR_CITATION: : AFAD - Disaster And Emergency Management Presidency
ORIGINAL_DATA_MEDIATOR: AFAD PROCESS SERVICE
ORIGINAL_DATA_CREATOR_CITATION: AFAD PROCESS SERVICE
ORIGINAL_DATA_CREATOR: network: TK
USER1: GuestUser
USER2: 
USER3: 
USER4: 
[...]
4.992513185417696
2.7418168360863038
1.0231689055179582
0.2945579550267695
1.2539707462489098
4.403390671243505
8.527756427039042
12.490612734043781
15.879036971873418
17.160558443154116
16.830681242545825
16.517120797477784
15.2263246418411
12.902555084295283
10.775529645011725
8.406934530241527
5.636601192766184
3.4860486851038495
1.851277168965363
0.07878267481605235
-2.100101500691225
-4.31325160689609
-5.130619904252606
-4.747256480820759
-3.5917268457552796
-0.7692029802304559
2.794595680296567
5.412805889913681
6.354313498222402
5.501527044823221
4.098025923811546
3.2996347716462164
2.1732754129762397
0.45731850140197944
-1.3403393655866356
-4.316388511310012
-8.311798642153558
-12.162212508985974
-15.572704424381596
-18.108452892586392
-19.96287082244726
-20.979848630175905
-20.3437684916103
-19.064651209950394
-18.76666549696027
-19.137822793615097
-19.318686180945168
-20.215830655377673
-22.447698597865607
-24.501619802592906
-25.39756764367615
-25.565345523380525
-26.05894128966836
-27.40003112339412
-28.445878693492503
-28.115996245222572
-27.010920595931704
-26.73412651014722
-26.951204365356748
-27.046520368744346
-27.86402617369104
-27.995704651212648
-26.270789532357256
-23.5463215704407
-20.334806467685652
-17.837463302624514
-17.316243803589412
-17.75831693696668
-18.19637026673902
-19.702685944264985
-21.407124894585113
-21.642869956837846
-20.877398473709526
-20.0205929308397
-19.48951279179761
-18.961964100367716
-18.784593363099685
-18.769119718037242
-18.719159937802424
-19.163957105421073
-17.709071025019426
-13.438624893151745
-9.916898738271701
-8.190589653542993
-6.296361909935766
-4.015700004931767
-1.5840812524783314
1.716074415083595
6.044660397807419
9.999679227200767
11.806612277076272
11.439918117820639
9.948745243591613
8.538993100965852
7.473250796129453
6.208837633697446
5.777133270701667
7.138815262676056
9.02911024733305
10.488181656665747
12.335314318048788
14.97489942583445
17.730146012776434
20.39241667115493
22.55840563593524
23.1968614897919
23.12072322733361
23.59155771083941
23.962205004233113
23.364846024796815
21.675078322460244
19.29360644599376
15.942469628454155
11.001958410007884
5.020424959168478
-0.48062391876424343
-4.470139447066035
-6.707181980024435
-6.986322259638693
-6.235677081014043
-4.722615485147371
-2.046310607908527
0.9631807353191333
4.3711699318156985
8.399977597429537
12.276537561548668
14.93619693802671
15.305030435952837
13.654802986888466
11.292609894364178
8.066235478746794
4.589056131085205
4.364983284901456
6.998318854634205
8.319070481175103
7.913785690213218
7.241976162315151
6.470998622562509
5.802046402675043
5.688822793636152
6.577023094934797
8.257411111628128
9.177101691284557
8.577753403237319
7.8079075092920265
8.030044823116405
9.082882840032926
10.118720698368627
10.656999989883792
10.214796424831558
7.5583611615763795
3.04976256506345
-1.3905097918990115
-4.991912320198952
-8.197658046460077
-11.909527392688084
-16.092518982994015
-19.181925829260557
-20.39720950505494
-20.956791917699377
-21.154886785213495
-19.69181262662807
-17.84277882725018
-17.54517674483299
-17.416264990552644
-15.426312488438871
-12.160490898436235
-9.517339220614131
-7.990402332411002
-7.462223804435057
-7.534031062341891
-7.984757707162733
-9.221395473801323
-10.846425929791874
-12.322798842789876
-13.373204259397879
-13.136292848160611
-10.85108343434906
-7.91103537935811
-5.905431202894469
-4.013659934831669
-2.07730099901049
-1.0371759366913822
0.04949045849637592
1.7306345709988904
2.465165454894997
2.2605799958327157
2.176081731241663
2.321089455386288
3.044610160002259
4.688584172890125
6.7403235670919806
8.002808270028325
7.740763365794355
6.158313214654253
3.999652224881629
2.0055050693483385
0.6207419975027603
0.07401665842818772
0.08385165075973444
-0.30026648238065234
-1.530797395777164
-2.2223717361140967
-1.13710473044271
1.6273598084845367
5.268103987504874
8.432850059037472
10.274475814456862
10.71277879820137
10.851093010180495
11.516849174456556
11.795047495760256
11.315667710631613
10.73872142860335
10.108521909870621
8.863839871900446
7.539197582771687
7.639502096473215
9.151599132588261
11.034499938040945
13.213032367852518
15.566211001638935
17.950788216128526
20.847080965916042
24.226124327180184
27.680636437453167
30.5031303051065
31.934334676184154
31.843849837953055
30.486950170766335
27.6604060724231
23.507495321480764
19.535969574149988
16.474808832043692
14.27757006590047
13.021665074980083
12.72799841295972
13.589195240079
14.598950662347862
14.403160619670762
13.418594681851243
12.578653573644699
11.976341423859363
11.311239061284118
10.614593898534501
10.383743089690771
10.191658201864872
9.902920757918215
10.45970947108163
11.097763558704719
10.857121449592864
10.130269353127396
8.48011788922019
5.706345604889348
3.054806777981352
0.7905967466800315
-1.4894646676354966
-3.02502855933104
-3.777974726385367
-5.258451873743105
-7.244210920074999
-8.088953613981879
-8.487399635949918
-9.305443122475326
-10.137999352171692
-11.28566933443171
-12.529985336256964
-13.164574227741607
-13.357297718748459
-13.646910912057564
-13.975716436616052
-13.860593462564896
-13.175805278221384
-12.315423327902826
-11.332612346690034
-9.575006784703206
-7.6755819694681735
-6.307738988643749
-4.369306815807614
-2.1376349423636984
-1.2112963015478304
-1.3283670457782344
-1.261548859874801
-1.2494121351481278
-1.6013661678604854
-1.4136704693727828
-0.30760864820708683
1.0353485340130615
2.0912434834652402
3.683858921317641
5.973161124766362
8.224470612275232
11.049158732225603
14.306208590086385
16.80389939471919
18.15197378794943
18.448163556020038
17.203820914153674
14.154215837479489
9.801515964369926
4.04979459338214
-2.1273695716544156
-8.14368328134045
-14.703265217861318
-20.587975693183573
-25.016969659944518
-28.518143156456542
-31.378756129910684
-33.88726177985846
-35.645048874198146
-36.247248408133935
-36.02514538561941
-35.343205280465526
-33.54183789599575
-30.270018963425436
-27.242147039051474
-25.86002423260617
-25.719594256390806
-25.827406306440196
-25.632772999677297
-25.016749485344526
-23.784343983460072
-23.41399069618651
-25.115661408958026
-27.17659817331699
-29.36560162779542
-31.970207809016454
-33.822977506890254
-34.91041295504387
-35.30095218403724
-35.122307292695304
-35.075221113520534
-35.6586756941234
-36.460090832965264
-37.31511336559681
-38.01368665455931
-37.21680898460801
-35.15575862695985
-33.32591391509472
-32.93561246435366
-33.76157046108865
-34.72160271335985
-35.5183055227988
-35.62595942378965
-34.163800462393425
-30.188591570455703
-24.317235588320287
-18.518836800234954
-13.327989980085531
-8.306221440185602
-3.335378682955415
1.9620957418307343
7.685367685289306
12.323285699496004
14.574693040000561
14.398823428293765
12.512243465709611
10.612117931388731
9.504967862558836
8.84421089817132
8.76036498840583
8.766585700386674
7.569407956534064
5.361369239709853
3.224129088393883
1.6602141637521781
0.6064907008251992
-1.0460922479463606
-3.682992883944636
-5.61107386097593
-5.09317879974481
-2.2749414378253947
1.4764367667508926
4.7034372311804935
5.936988975442155
4.5369725341504425
1.5414992389653053
-0.7846312942385333
-1.5096035019210936
-1.1569229279736553
-0.34345265264671604
-0.4020470429500352
-1.8039499330080602
-3.6309465475521154
-4.3688587120805815
-2.776464878030759
0.9726937280954475
5.5288865642006835
8.930882762432772
10.523909480964663
10.92267503559987
11.02358296290634
10.994164674350804
9.905838906399824
7.964901742831556
4.876841590067725
-0.13575839622068306
-5.4239091883184045
-9.286410679558
-11.868960409587942
-12.857737610464786
-11.646673332121031
-9.303341983503284
-6.255641314629862
-1.683571370447277
4.38373213304953
11.149899197995381
17.35868916645641
22.26990745633855
26.394518310195885
29.980248867548223
31.899996669241165
31.611116166590328
29.49727149589243
25.48661323634657
20.36844939124252
15.388297484105989
10.49808855720207
5.826682571952772
2.6901543652562094
1.1152771917897857
-0.5910950424890211
-2.650751732932258
-3.7262596941084856
-3.5157077953459783
-2.6065385300453126
-1.8721860271147754
-2.204335745671961
-3.0496269133508735
-3.55927227957526
-4.155909540130221
-5.690486305931099
-8.33622234558927
-11.33308262269322
-13.362500745733255
-13.596057884086157
-12.038031514731319
-8.283927881753778
-3.129713766602476
1.2074033934835904
3.580913939992347
4.807561229061604
6.783026526992469
9.644037025186538
12.875562647668827
16.653796716176448
20.178951181244518
22.370811138117197
23.037509095717652
22.519076720325756
20.94812327255345
18.78951387787877
17.076329895397333
16.27946378979987
15.860241543689558
14.685675016264092
12.102662564477914
8.839127157190115
5.695059482664026
2.5962451618758147
-0.022522382367690254
-2.0496169810267597
-4.093978981340828
-5.793976716452841
-6.518260830970051
-6.168361030467958
-4.6489682337053235
-1.7583711265470001
1.4725952198532453
3.898957270442217
5.035274764854812
4.180598930626079
3.1219243568013453
3.1358502942927804
2.862919986131874
2.477879407839321
3.202933178227908
5.369487850871287
7.546909998375804
9.522412048974825
12.204684672579456
14.047215504792394
15.13328302996991
16.842660976049416
18.73515131102591
21.045737476297848
23.829487524658337
25.738830740997383
26.224194262200783
25.019224991240463
21.959484966835262
18.631698508126483
15.763370262383607
13.896307728782306
14.61829889919519
16.85967280918841
18.865027885463302
20.513059733497624
21.895889174668998
23.236707531438803
24.91312624060193
26.95686253718904
29.50374475744941
32.97373503427477
36.67221475572786
39.96221570820851
42.88060355803299
45.31232787179751
47.63975412280491
49.87578591351444
51.715865130436335
53.451394950760175
55.36843092625548
56.948601143475486
58.08266644394552
59.59451720239693
61.048408310891546
61.83628686275922
61.45248937117812
59.01170185562457
56.017460800556016
53.980688636838664
52.17660639611138
50.170298697186
48.057036064315646
45.24490540432499
40.62741091982299
34.64122842305932
29.084487455735854
24.850625144402656
21.546819454209857
18.649393714954073
16.91059171794043
16.71397210236808
17.540080194138593
18.993292206674898
20.06478684943625
20.86741298327135
21.967883181559902
22.611757780058255
23.37677452300641
25.483027764762436
27.77902918469661
28.612915963416384
28.681235158424084
28.73018851510554
27.85544070110083
26.162075735977808
24.22460659034805
21.86039072197536
19.87162393529256
18.720400646690198
17.577236660714533
16.877063186864017
17.426897652853746
18.62116697766662
20.15772669960366
21.76894111979647
22.32049148373583
21.794522703985468
21.10102935668008
20.045682048613603
18.53614495629899
17.746291933713998
17.43680489873032
16.13118226222418
14.362604949863345
12.26955354846056
8.90948490949348
5.853137178720097
4.5707206051080975
4.463594754969064
5.232669778619864
6.426447119580488
7.732547370156178
9.083452891943988
9.663035903210083
10.11348097983626
11.241804942582899
12.546265217747745
14.459508771941737
16.938571946163528
19.01233628238877
20.554498125874048
21.517494009805944
21.130214222032265
19.590494536733722
17.599873247602385
15.502734568523314
14.933656915975945
15.728068928665946
16.38033748545326
17.04613166906783
17.11644891773343
16.41609150603139
15.810313856903134
15.691993253916856
16.12469318905097
16.805764439307254
17.322667656538812
16.428416938160286
13.032938476125487
8.065644226192614
3.1613712879512468
-1.5129218856450466
-6.0315171734540405
-9.14789464755959
-10.106378364192556
-9.876730715637864
-9.958717888377395
-10.498051470900313
-10.631106638133584
-10.425755245121723
-10.61203801767963
-11.061909078710565
-12.018355000650754
-14.451295189392152
-17.49641754994536
-20.15462486560164
-22.41098107074329
-23.63391535110517
-23.995989122725494
-24.451510317517588
-25.77599322096015
-28.145912865990237
-30.555208340233346
-32.44423021366277
-34.03748578620326
-34.912516904359975
-34.59538754944826
-33.60503088359074
-33.34282584191764
-35.03865412885971
-38.110440407904434
-40.966037675329375
-43.56624630441779
-46.19474537173476
-48.45503967677422
-50.5858821114397
-52.48850107936269
-54.54695198865184
-57.30286028239647
-59.89936669330583
-62.172054695326274
-64.5393705442149
-66.47891350474981
-67.41033293977672
-67.97795207524113
-69.05722588560033
-70.21173409484281
-70.59068718565922
-70.14991174183761
-69.2267234348589
-67.90132869158292
-65.9395255350283
-63.97331201338227
-62.88884951281594
-62.24065267629762
-62.08435825546923
-62.57977932628468
-63.49107595878944
-65.17114101998793
-67.29213459782045
-69.51872557816844
-71.9594715350594
-74.72442039544677
-77.81483677988666
-80.16871219056607
-81.05487490101144
-80.37681984223103
-78.45497770819355
-76.56946645741778
-74.76752383236737
-71.78211652729004
-67.07791596963999
-60.872253210791534
-53.32796951760905
-45.873535840971336
-40.07004367372335
-35.66695287949027
-32.27108489961727
-29.819602035542964
-28.773276429724152
-28.801977259629346
-29.610398636297017
-31.721883954919868
-33.73725047189234
-34.84761298212034
-35.230949233408055
-34.32823172074482
-32.785551720198946
-31.408367183207048
-29.711442032890346
-27.22850393371713
-24.323930277657464
-21.1966701982755
-17.97336301675484
-14.75500834533492
-11.380705155863147
-8.578252499834683
-6.419581423745853
-4.381452426066634
-3.092538636788879
-2.876964103143726
-3.2213360480018554
-3.2474175910296257
-2.2545967161489537
-0.3225646265720214
2.1710092932126894
5.351801642678771
8.73575611616096
10.974819597702126
12.411218667801343
14.164618642813743
16.236223581082495
17.75804665975593
18.03656879664037
17.533809983797628
16.701459083273278
15.340575396462148
13.712092012271732
12.763939915340416
12.370226380215762
11.447049112005384
9.36302859373323
5.694897626344068
0.7723601674287294
-4.08174088129162
-7.951250386403505
-10.219902919885511
-10.343165008310926
-9.349939689255544
-8.674283973002685
-8.24039990199144
-7.714376029308329
-7.361853999377027
-7.11081632743641
-6.977073330082595
-7.3492707197272855
-8.084997082163623
-9.012853324507432
-9.830616623552357
-9.609504515999864
-8.50610054798105
-8.301112966698005
-9.437630156891133
-10.825425259438692
-12.09468745152646
-13.01054007134592
-13.232033616536329
-12.920092819880272
-12.684815804883625
-12.828841973671098
-13.23400994668136
-14.076763575167885
-14.388549544248843
-13.2269696512492
-11.719189470780945
-10.147687452241655
-8.135409370132365
-7.109339897642333
-7.478280433977411
-7.446117295659847
-6.716314743768729
-6.335570967993406
-6.454979392094078
-6.87503859228216
-7.301680069221119
-7.214140985834972
-5.904671955337984
-3.103999771345545
1.1557579828817717
6.482870593453589
11.447759378866508
14.88535140952844
17.369411205125527
20.372851660754147
23.38288552412208
24.972093639885347
25.41908881962461
25.45366804329068
25.572887511940028
26.174475063362067
27.793505155830346
30.844956051888087
34.5297322145019
38.010475522193026
41.1858446400274
43.88022639893054
46.04436550989083
47.450439561227675
48.236479413551756
49.092027589085674
49.58729968420354
49.5784483157418
49.71273277613657
49.807022294849496
49.496640683276425
48.58533760566648
47.566207360316824
47.319880675723745
47.68432484674508
48.11467538520614
48.66155647367121
49.225276018526934
49.13466625074529
48.1673208886814
46.4934775134899
44.14501521001161
41.48449615313609
39.386526778682445
38.569248394844074
38.618380090068094
38.332989846772165
37.869629588345916
38.29513040297203
39.60642526544161
40.847402438582165
40.96381116387889
40.465443343677535
40.23210552821774
40.739587309222166
42.68329243803179
45.225745859547175
47.40811573666139
49.11420344569484
50.1726333112936
50.648970626364445
50.422886424947954
49.68381178249647
48.94363565814949
47.7978371147824
45.33156220505878
41.11442451374178
35.60123158354713
30.30484577886317
26.01543937024024
22.38914162572356
19.920388178456072
19.026466045079136
18.855824026667264
18.865409337336228
19.974015192068144
22.4551726398181
25.369074009574348
28.72198541380087
32.089790680826766
34.4286642173195
35.154062298418566
33.87659727384917
31.295335932864287
27.85806471168993
23.528762048274512
18.62293781512569
13.545998529363404
9.395150992735406
6.561493952522776
4.231897163742207
1.9089463630856236
-0.1763640436144865
-1.597564670535463
-2.3485637255030816
-2.4420805823649716
-1.6772713386052065
-0.13224765616425563
1.8715206178813388
4.068504046472348
6.1134309821166495
8.14011919810111
10.898001198959117
14.43469777765516
18.20472299290227
21.713725519109204
24.66137889924643
26.99071899231587
28.148490683422434
28.134127245257183
27.751089124668052
26.68159558138041
25.083389476200086
24.064870547801345
23.050422922003232
21.277455128427107
19.57642235262037
18.340709662168138
17.06840427442898
15.496585989539598
13.36290150633274
10.943955548949859
8.91661356404885
7.089936141368605
5.039752243483104
3.2632698211098177
2.9796364202961665
3.764597451189875
3.7285988755799107
2.9592537403850803
2.6861450793588735
3.0835935518419615
3.9747585512572847
5.062016803538868
6.17022036031955
8.118049733618703
11.308151828810763
14.810018316723601
18.425815926914947
22.54743115327955
26.683020767602244
30.75820379517304
35.214574402567074
39.642484342855546
43.66937570322264
47.20664691859536
49.85985852325397
51.80406622226542
53.43862968792375
54.975595631170876
56.74880417165102
58.57871509420047
59.71711308739778
59.49396246699587
57.86194607335477
55.38297642039105
53.048645830525786
50.94333148571746
48.60192988512288
46.576584360894294
44.35005265085304
40.869167334111545
36.045287212599604
30.60617493745757
25.67073179525888
20.901923461816295
16.116108146456956
11.652807567421325
7.438721174914274
3.368089970039956
-0.3965086737670371
-2.8167499981904247
-3.8376095837442175
-3.727075569673778
-2.038640394366749
0.8601281594102244
3.3099290307008222
3.677656108048414
2.243067535904583
0.12783215867891484
-1.6777934389098448
-2.61968649153744
-2.737551136336764
-2.3726888083592477
-2.823954356779028
-4.884104991626627
-7.691415616930132
-10.667981214937818
-13.196777526057527
-13.901532782107775
