AAD_Filtered_TADAS_FILE
AAD_BASELINE_CORRECTION: BASELINE REMOVED
AAD_FILTER_TYPE: BUTTERWORTH
AAD_FILTER_ORDER: 1
AAD_LOW_CUT_FREQUENCY_HZ: 0.025
AAD_HIGH_CUT_FREQUENCY_HZ: 40.0
EVENT_NAME: 202302061024
EVENT_ID: 13207
EVENT_DATE_YYYYMMDD: 2023/02/06
EVENT_TIME_HHMMSS: 10:24:47.00000
EVENT_LATITUDE_DEGREE: 38.089
EVENT_LONGITUDE_DEGREE: 37.239
EVENT_DEPTH_KM: 7.0
HYPOCENTER_REFERENCE: AFAD
MAGNITUDE_W: 7.6
MAGNITUDE_W_REFERENCE: AFAD
MAGNITUDE_L: 
MAGNITUDE_L_REFERENCE: 
FOCAL_MECHANISM: 
NETWORK: TK
STATION_CODE: 3116
STATION_NAME: 
STATION_LATITUDE_DEGREE: 36.61618
STATION_LONGITUDE_DEGREE: 36.20661
STATION_ELEVATION_M: 33.0
LOCATION: Kahramanmaras_Elbistan_Turkiye
SENSOR_DEPTH_M: 
VS30_M/S: 870
SITE_CLASSIFICATION_EC8: A
MORPHOLOGIC_CLASSIFICATION: 
EPICENTRAL_DISTANCE_KM: 187.47
EARTHQUAKE_BACKAZIMUTH_DEGREE: 
DATE_TIME_FIRST_SAMPLE_YYYYMMDD_HHMMSS: 2023/02/06 10:24:59.3269140
DATE_TIME_FIRST_SAMPLE_PRECISION: millisecond
SAMPLING_INTERVAL_S: 0.01
NDATA: 13501
DURATION_S: 
STREAM: HNE
UNITS: cm/s^2
INSTRUMENT: sensor = CMG-5T/GURALP | digitizer = 
INSTRUMENT_ANALOG/DIGITAL: 
INSTRUMENTAL_FREQUENCY_HZ: 
INSTRUMENTAL_DAMPING: 
FULL_SCALE_G: 
N_BIT_DIGITAL_CONVERTER: 
PGA_CM/S^2: 19.196
TIME_PGA_S: 
BASELINE_CORRECTION: BASELINE REMOVED
FILTER_TYPE: BUTTERWORTH
FILTER_ORDER: 
LOW_CUT_FREQUENCY_HZ: 
HIGH_CUT_FREQUENCY_HZ: 
LATE/NORMAL_TRIGGERED: 
DATABASE_VERSION: 
HEADER_FORMAT: DYNA 1.2
DATA_TYPE: Acceleration
PROCESSING: Automatic Paolucci et al., 2011
DATA_TIMESTAMP_YYYYMMDD_HHMMSS: 
DATA_LICENSE: U (unknown license)
DATA_CITATION: Turkish Accelerometric Archive v 1.0 - Disaster And Emergency Management Presidency, Earthquake Department
DATA_CREATOR: AFAD
ORIGINAL_DATA_MEDIATOR_CITATION: : AFAD - Disaster And Emergency Management Presidency
ORIGINAL_DATA_MEDIATOR: AFAD PROCESS SERVICE
ORIGINAL_DATA_CREATOR_CITATION: AFAD PROCESS SERVICE
ORIGINAL_DATA_CREATOR: network: TK
USER1: GuestUser
USER2: 
USER3: 
USER4: 
[...]
-1.4339014793491804
-1.8839619595979533
-2.024866786467553
-2.0532639032772573
-2.082070428020136
-1.6893808690841867
-1.1592867163255065
-0.4350186879042489
0.4064337797452319
0.6416180023801747
0.9553337274604187
1.0887954141733425
0.8249817414194881
0.5666023662390482
0.45381642504532327
0.8205637868653151
1.347462319738535
1.5322643417363195
1.4718731865885133
1.3125415673467287
1.274483091799363
1.3328011037750707
1.4824531430264165
1.226947910839606
0.7496023458392688
0.2345994621829469
-0.12340749738010814
-0.405624450455673
-1.4474179732855341
-2.5627675968857115
-3.5799686220942006
-4.190996554849385
-4.402079459803481
-4.2947429895326135
-3.938354214094145
-3.464809405871104
-3.124135019656455
-2.9699758902368436
-2.92899294196409
-2.6119991510793223
-1.815861628673601
-1.190379657595942
-0.8281920220951884
-0.8356637231652211
-0.5323518902073583
0.395856843289377
1.392849078043032
2.50909520670563
3.0346172311951007
3.272403818410727
3.1668719240702665
2.8254003748405805
2.9598995073340912
3.194272293629701
3.7694713922077345
4.458439328006051
5.159634480866371
5.604665671295775
5.845747467268578
5.894937762392428
5.266786045908618
4.288745007630155
3.5858187117988916
3.1459014439100406
3.160171802903301
3.3074660557809827
2.7224796107377034
2.28341278994599
2.473138691769855
2.4733745669424194
2.5202707320414626
2.7262501585412564
2.946387896914381
3.141100412330579
3.250465300167802
3.4195416139846975
3.371752636150293
2.924175302485992
2.2849364981968967
1.5252185423680933
1.1771657235525708
1.167087875203749
0.8907495292129851
0.6601434670357189
0.26543760047759823
-0.21259881428936137
-0.8336787264750669
-1.4733662208168323
-1.7634650032599608
-1.917917099314381
-2.037949100899047
-2.1254979705408177
-2.378464206522678
-2.7039870876979473
-2.4557837541884786
-2.21465237903309
-2.144112903925785
-2.205315130369066
-2.5806541577358395
-2.632856971177561
-2.3978579574762127
-1.7995100501098888
-1.130675279729237
-0.5741644937726237
-0.002930109025115915
0.9119173202229519
1.8339138766708711
1.9246696081775463
1.7246203404264213
1.3191142673407918
0.9462006203170529
0.7718380217810168
0.5881522614228393
0.625245348109873
0.6101187384716599
0.6184066271510431
0.6047819851863211
0.0637793775695698
-0.8527443839270011
-1.509633272447713
-1.732572528186582
-2.026328815137294
-2.4665249499091604
-3.045449320314467
-3.231771460613629
-2.8962821712045046
-2.514664585239538
-2.3146864412340715
-2.3541597831585555
-2.409302257117354
-2.613168640095104
-2.7695153396745837
-2.942167831711777
-3.1510552973818418
-3.4363399930797995
-3.5363957197380618
-3.1026641903592664
-2.4527862307370385
-1.8335727771329233
-1.1525730184528378
-0.3559552668582102
0.5778794966184785
1.4994085217324147
2.401862753953656
2.922204363183058
2.7757137654016653
2.0933302312202935
0.68196348930554
-0.5012724545847879
-0.9112471038878923
-1.060091484599814
-1.388583238263249
-1.719123115013746
-1.7782202790399748
-1.8383644922883313
-1.5526428144094628
-1.1234832253767795
-0.6085106238144848
0.19068052730140364
0.8509317922557766
1.196273892190298
0.5782149705972284
-0.5300161327248628
-1.4206194546257744
-2.0911594148834376
-2.45783501546292
-2.5406068203677266
-2.7530329508646725
-3.0692343291231152
-3.3214736660897772
-3.38186888548766
-3.248275942538787
-3.068628061285096
-2.398328900512793
-1.8767783915549354
-1.820281661397358
-1.681067200724446
-1.4181201101791525
-0.8152011380561909
-0.3561879943065706
0.02082004761967781
0.4513465123307462
0.08132232383228886
-0.1426163686537504
-0.03838414252002784
-0.21657728846170976
-0.06644012456272347
0.2908417727994255
0.47475877433314684
0.45272788650365636
0.531850196199102
0.5361963777544185
0.6566291884380576
1.141686279213858
1.5457008476687963
2.135899937480855
2.5115508603564876
2.737146486963842
2.813381257579008
3.1140434882635573
3.7442323763669094
4.4602177313996885
4.904832524548638
4.874308894478904
4.746418154995621
4.103692504408728
3.7785443081681986
3.2872197134252152
2.7882898453921805
2.5606230565390633
2.425902980316653
2.448264985539692
2.231599481485472
1.8356104722015734
0.8838097491207214
0.09844716835679179
-0.5141484812248908
-0.6326097719140505
-0.5990112941381504
-0.41042355877926645
0.35433371967422145
0.7219201351593474
0.6617309681430289
0.2162159105013565
0.020814879070357745
0.02526794192797711
-0.15657569810916955
-0.40506583955145053
-0.8705350462164816
-1.4392548856624006
-1.9001061158101973
-2.1482801756239427
-2.235764614210853
-2.108133946970159
-1.9912487385028796
-1.8630484393726676
-1.4980687151744079
-1.1842369681672553
-1.167636412903831
-1.3748441494121422
-1.5462706728024458
-1.4059554236161023
-0.8496385176006327
-0.29921273410752547
0.17256339040874766
0.6466785139258058
1.1761261251376467
1.4249455486171858
1.4629763583085558
1.5879121894185564
1.743024795383287
1.6488909871913915
1.2282839765138995
0.6642293108940058
0.10228929553384768
-0.10830115826764729
-0.2685278006868484
-0.13035488715029322
0.107659245156319
-0.18634526825339093
-0.6775282488232999
-0.905459132273637
-0.9585237886754889
-0.8772963488084009
-0.7635611241330269
-0.6350796026688853
-0.7599627282647359
-1.0466561168419053
-1.1736737134321955
-1.3200874390005906
-1.3512118723456552
-1.339217498899804
-0.9445269389515721
-0.554294517123191
0.2673525524714013
1.6202301832581654
2.6777362282692687
3.370716406844812
3.708420396873408
4.162221499918135
4.352106349505214
4.242275723464799
3.4823977157231596
2.404679679091183
0.9857299989619128
-0.7562997180169452
-1.8544411532662253
-2.4238588303912634
-2.460574121561879
-2.0007808908777953
-1.767562865538965
-1.4006117139023198
-0.743275992295193
-0.7256097765736285
-0.7331020338714783
-0.9386201240069825
-1.3080255002341237
-1.5659790249481305
-1.7179560162265
-1.381052559911217
-0.6490216227908121
0.1013871145319179
0.7308273538961935
1.4547890488692925
2.045450079253272
2.6734494898035113
3.4380216928401257
4.393230998216694
5.430790993792092
6.296919969349435
6.700997091848547
6.493923085730117
6.202331049023384
5.736765034215127
4.732801040124807
3.5540610970831685
2.1172641547859095
0.19802519347938377
-1.5539350978256292
-3.1589525381358707
-4.2253017500000665
-4.842032827903465
-5.328729432186194
-5.547236433606743
-5.661950050303574
-5.170109970822542
-4.590272577227451
-3.954431446318659
-2.778477242877306
-1.3595791899490883
0.16140278177799297
1.699717305194901
3.1225361560239806
4.392602467809847
5.6597214822092266
6.768740068414356
7.798479925039222
8.58762690982571
9.306388394657173
10.319779209260208
10.931292089322922
11.343568185288984
11.488754302223587
11.271718146644005
10.91576804930966
10.395956902559432
9.565131152424188
8.164336915453719
6.2471799032059145
3.982801015283567
1.6684206627371347
-0.7478128547884734
-2.8750338797482895
-4.166029392105976
-4.967327741455713
-5.45042112047914
-5.597167017500419
-5.5941561907062685
-5.466003363022835
-5.163041258348498
-4.732729629500697
-4.758101452286292
-5.032136009840157
-5.304797448006556
-5.788347742691798
-6.478741588724214
-7.047787363160626
-7.099151014069529
-6.659268771964661
-5.569478096534819
-4.045452512198163
-2.355282277159786
-0.6492112090113786
0.9882201795417562
2.3162493816266863
3.2392669947037307
3.875392705482847
4.157295131206801
4.120281358590077
3.826584333560237
3.56085465597239
3.256340588110018
2.717405820465033
1.9834985417655626
0.8854591933588276
-0.45328632024771065
-1.5293723934820462
-2.417386650324486
-3.334483787929657
-4.041255555320778
-4.670161104740027
-5.276124115190121
-5.7366294729302325
-5.909389157479025
-6.0471897451777235
-6.137987209207259
-5.740925266115371
-5.162600799835139
-4.324236049466301
-3.239729194424181
-1.8978304438586098
-0.5971821892169931
0.8407371719348419
2.4178663163985092
3.8954993007862524
5.437703060348082
7.057798149853363
8.698896419113506
10.343125979211312
12.026802281483372
12.978568908299671
13.43968499509986
13.765448664301653
13.788888420249895
13.900880539784273
13.843887172311037
13.452424173358875
12.641000056468252
11.201034791154138
9.395323163929529
7.214099650060015
4.93851023439468
2.5635651333966836
0.12426419429188185
-1.8444135379816107
-3.139270492381414
-3.628982230319869
-3.6293884582310536
-3.3988500034303146
-2.9554080650623202
-2.818505659015732
-2.7259848830123365
-2.395511414889252
-2.100814387737645
-1.9347782990214664
-1.9376930487312667
-2.4359034891491103
-3.33399396398441
-4.08742560575462
-4.873827149935348
-5.583725616987182
-6.191271760958147
-6.70735683648667
-7.096473962425657
-7.361775331904599
-7.392788424482934
-7.530843845115688
-7.590307513246492
-7.704575278560305
-8.161993894210944
-8.477866729456403
-8.559722730278883
-8.257468126839026
-7.65560435785508
-6.710053211994124
-5.663051754232947
-4.640392862500011
-3.2843749667350925
-1.6814637260339966
0.2403216827679736
2.188754087167016
3.974903814378286
5.369104898457889
6.115292428514279
6.030440410482006
5.415209782273372
4.184004307458245
2.4353733795109447
0.6780443938064635
-0.753192126165916
-1.921333738973284
-3.0266839669285495
-4.029033766790121
-4.768649542652999
-5.52800844645004
-6.320463696351521
-6.39406722563517
-6.493312858073843
-6.734290721821261
-6.6443524002031555
-6.459647216229203
-6.513756455049667
-6.594263178545523
-6.296218135551437
-5.805798200580506
-5.15905127117476
-4.333477015258131
-3.1539335365211794
-1.9892482437883572
-1.0678245299512903
0.11900909747462426
1.064342626786637
1.545849136395733
2.049434247193779
2.697194632684145
3.301647809977132
4.14342832930958
5.122609302633298
5.689624920965727
5.84713844647626
5.384154805944071
4.157982439120752
3.4276773009092283
3.2566963197120615
3.1296283548779322
3.170714412456235
3.165906616938081
3.204648221831
3.164186181520698
3.191785671627773
3.345843808346744
3.500362787652954
3.661543263427282
3.470811765891718
2.9577041577271768
2.5679942000111216
2.1661582284770766
2.098249815262437
2.48571013269328
2.8417593166168236
3.7310662937955983
4.660049113939478
5.334255836248756
6.222895309526923
6.8285804374273145
6.775814138209071
6.0235782967463285
5.196262906157544
4.306961195489389
3.5334460326650587
2.662258435705043
1.5831745290752532
0.2417606770402838
-1.5336243012829498
-3.3410186148403844
-5.067708775291551
-6.618467933903854
-8.18852252297757
-9.86124212257381
-10.958070879199441
-11.384706415434632
-11.170494884399577
-10.11547771019461
-8.471532651379295
-6.336647978063807
-3.912029942443837
-1.2862287601372226
0.887890670734184
2.3735307734537248
3.587099065513356
4.248034985421626
4.572039513290729
4.750703301627038
4.7523011070646906
4.949244549674325
5.143062151796928
5.162804009007072
4.905632017389174
4.538201625402939
4.115826652591792
3.2233295036441136
1.7152834314014382
-0.3717063801644194
-3.1781174003152746
-6.145358709199492
-8.742586991342161
-11.18321380819459
-12.675734561795945
-13.41066462355797
-13.997369745937728
-13.98311037028576
-13.668312157310138
-13.357307191277883
-13.267749242708279
-13.127294208432387
-12.619068358725292
-12.147014544503289
-12.1590190081612
-12.35649388511422
-12.043408431824547
-11.562901536235067
-10.700701292314372
-9.474082006158442
-7.676313534157804
-5.882304940204894
-4.809616318347613
-3.6154900518751054
-2.5390561158439513
-1.4391380582256263
-0.4273016765688616
0.9108440663314177
2.241467042953236
2.4268879660260696
2.294387100134875
2.2262863985598447
2.132178262627338
2.1341293908345027
2.818007359956909
3.7939341449607706
4.1705763101886095
4.244898838485867
3.9755366937873156
3.429049364962873
3.354317873581143
4.012568825238358
4.436539620932025
4.653425423555151
4.648979948919226
4.047197840479937
3.061133714833155
1.6543878194592236
0.2608786909444197
-1.3664131949079137
-2.8414570263674714
-3.8058041093529447
-4.6812466461066915
-5.278916696347097
-5.530980544951423
-5.613008704944872
-5.548686417090897
-5.289097138405621
-4.4637780205498085
-3.351653818759239
-2.2756757345769283
-1.2170013276767717
-0.525597816411708
0.18140524143083014
1.1513680309150933
2.045902821824313
2.7594829679007176
3.4785145116206975
4.650375629632029
5.477973261149379
5.599018274999687
5.541438016980562
5.262775089967739
5.084491847663686
4.874421530827041
5.060475066533439
5.615878676650023
5.954677207589011
5.860866719512132
5.263076709073325
4.845377613394847
4.7887174443760765
4.980023991744053
5.035244522123532
4.475509577958818
3.7718422388210104
2.7472353443470303
1.395557318995638
0.7183759351881575
0.5376949587858713
-0.209827409418537
-1.6093904524287213
-3.371922115499911
-5.025353938170293
-7.351739132254819
-10.203921343135933
-12.634211728089216
-15.182736306025895
-17.10271000852485
-18.709120120518616
-19.387945659580218
-19.006998854890803
-18.694057685600495
-17.993004900263653
-17.035492910517117
-15.417930331527204
-13.492144241695186
-11.76715530291411
-10.182440498041853
-8.098260051617352
-5.070176924269299
-1.7973644635443904
1.3940738644072346
3.7832435212093714
5.772234835169447
7.496130079070101
7.724876080967656
7.1345224921143435
6.3711312425821145
5.6837007689219465
4.9027595302712035
4.268131313660682
4.247127709310494
5.006663591284974
5.268516168283682
3.8508072212876847
2.4508591376640028
1.5517509238026053
0.7191708449488075
-0.1405016126825895
-0.5463433490291594
-1.3601693208487482
-2.8510610892347135
-3.956432240953093
-4.674014481240576
-5.351526160280331
-6.112944177348355
-6.754540407160415
-7.599209122073772
-9.129075394690144
-10.545165804979321
-11.53689290037822
-12.037618762907767
-11.791217260798023
-11.093793768653994
-9.363042289670693
-6.875068517748463
-4.182321000655948
-1.7376233142224644
0.4835921557699792
2.7768797709649298
4.898037856039644
7.223801948133218
8.935945985020018
10.453612226545003
11.58204067169838
11.52973359065719
10.702449917905927
9.131711908252402
7.1917901577957215
4.757910954836655
2.2103862539313655
-0.0007397302175348677
-1.710915230137654
-2.5477021253093426
-2.5191927303807047
-2.5311253369987434
-2.4334989918062258
-1.8741448468252115
-1.59200015328479
-1.637978553915042
-1.4670558498746002
-1.0965993073903295
-0.6762073268727338
-0.1576096918385082
0.05722144582304475
-0.179257907650265
-0.5848751673774287
-0.8156874548875803
-0.8175704718661738
-0.6297119435948195
0.2671125169744385
1.4871210557231975
2.7548097139827017
4.048126086822286
4.623385385798882
4.7735593275448815
4.775747073369506
4.62986604289547
4.245984051053737
3.0111066924541876
1.5056473287037475
-0.5469843986524436
-2.9844096867209853
-5.285737297622342
-7.641969586300465
-9.163107276736968
-10.40653439416237
-11.35272203374718
-11.797383166891416
-11.903920747144848
-11.524904987928004
-11.23506998214293
-10.674982211126817
-10.141768726536313
-9.549626983625899
-8.553337642346529
-7.4490180787783205
-6.696608756355678
-5.698711769435328
-4.972813319699106
-4.532442707055095
-3.850325788352083
-3.2292161137177016
-2.6945259505617996
-2.5903480994548205
-2.3153721586628473
-3.0193671680566907
-4.214718202644195
-4.790611123314279
-4.895133340241795
-5.005130961162661
-5.228963325542503
-5.34399242214531
-6.209910652482856
-7.063667554583612
-7.910917738934807
-9.320717426600458
-10.328078302337087
-10.534583871074087
-10.114330332591246
-9.321149943026294
-8.396545969377849
-7.754300663458772
-7.1057041572746815
-6.412853375135172
-5.624546900214577
-4.671502594919212
-4.023045415029834
-3.702140158651162
-3.399934759862443
-3.079403648523496
-3.1386538892485394
-3.751979614114462
-4.516240815039295
-5.241424067985999
-5.9561652318386935
-6.18045113099866
-6.5072359915708144
-6.728015316403366
-6.596164723770174
-6.409738724163353
-6.547225093257501
-6.431607265549883
-5.968833804151858
-5.918819045799737
-5.718935249300507
-5.6075403842819895
-5.009309677024787
-4.505518133470171
-3.685276442206155
-2.2002166147556097
-0.6509737289321534
1.2854484057760134
2.710371197258365
3.3553219162782977
3.3811455970631776
3.189330889062264
2.78320074680855
1.8826501716035235
0.5670687280339647
-0.867499462642682
-2.1696202233987405
-2.8975963793054818
-3.325521192820175
-4.079544418833437
-4.597408643758396
-4.658820517977482
-4.0496272297918585
-2.887584879443868
-1.533524638866718
0.3773811574341539
2.618341438017806
4.242456146424695
6.0913035266024265
7.85416491048289
8.969367930438498
10.425357260753207
11.591572231901734
12.621418194580105
13.7065975839409
13.811504650155348
13.372282188357879
12.625732168590709
11.483025223460794
10.205876367306395
9.065939185810636
8.295579433174357
7.530648392347055
6.998983574140117
6.194720068315352
5.349881874042928
5.168135058091339
5.153896976730649
4.939898018879588
4.850687920632986
4.6748532902897155
4.285897760695004
3.682613031279578
2.300105837872637
0.5175908229904528
-1.360940773724716
-3.7124901477927823
-6.149947926625622
-8.563132664662415
-10.862430429261806
-12.369256713557002
-13.613269950660325
-14.635984247388528
-15.002401105285726
-15.040820656644314
-14.806570655185045
-14.157778679325528
-13.056823118019691
-11.924928715678664
-10.932869006999661
-9.73065903137198
-8.994480950991322
-8.664416126610309
-7.798396069687119
-6.785761876126211
-5.569348587882961
-4.261092363498195
-3.308118103342429
-2.0823169700743636
-0.4857092880820729
1.1473112137173431
2.7223129862382724
3.696021619008132
4.388576852634394
5.117389495584458
5.2915672637551205
4.926731364581194
4.508243469049195
3.897435161242725
3.5120611102182036
3.405356426292405
3.2958587930708974
3.2742817794867194
3.0784557355790607
3.054770387020079
3.2715451189174845
3.4181757610545667
3.201831540428684
3.142897648483496
2.8687916073437827
2.401552869466384
1.8096362897233447
0.8197732776842905
-0.3895443092528377
-1.7390335963358474
-3.2069497625767522
-4.172693296340299
-3.9431222169403823
-2.8547206019149662
-1.2996576133837148
-0.262021311784505
-0.10255203164700681
-0.4005981844256387
-0.8810491344932242
-1.062891893243908
-0.6383683829699568
0.2559116758824347
1.1336381293223095
1.4407926692059232
1.6356729405886106
1.7492017892004526
2.0579309921332753
2.469782602129681
2.921720144922386
3.6792369761822226
4.10026977520556
4.062538841412886
3.541258187706224
