AAD_Filtered_TADAS_FILE
AAD_BASELINE_CORRECTION: BASELINE REMOVED
AAD_FILTER_TYPE: BUTTERWORTH
AAD_FILTER_ORDER: 1
AAD_LOW_CUT_FREQUENCY_HZ: 0.025
AAD_HIGH_CUT_FREQUENCY_HZ: 40.0
EVENT_NAME: 202302060117
EVENT_ID: 13194
EVENT_DATE_YYYYMMDD: 2023/02/06
EVENT_TIME_HHMMSS: 01:17:32.00000
EVENT_LATITUDE_DEGREE: 37.288
EVENT_LONGITUDE_DEGREE: 37.043
EVENT_DEPTH_KM: 8.6
HYPOCENTER_REFERENCE: AFAD
MAGNITUDE_W: 7.7
MAGNITUDE_W_REFERENCE: AFAD
MAGNITUDE_L: 
MAGNITUDE_L_REFERENCE: 
FOCAL_MECHANISM: 
NETWORK: TK
STATION_CODE: 0138
STATION_NAME: 
STATION_LATITUDE_DEGREE: 37.704858
STATION_LONGITUDE_DEGREE: 35.723358
STATION_ELEVATION_M: 477.0
LOCATION: Kahramanmaras_Pazarck_Turkiye
SENSOR_DEPTH_M: 
VS30_M/S: None
SITE_CLASSIFICATION_EC8: unknown
MORPHOLOGIC_CLASSIFICATION: 
EPICENTRAL_DISTANCE_KM: 125.31
EARTHQUAKE_BACKAZIMUTH_DEGREE: 
DATE_TIME_FIRST_SAMPLE_YYYYMMDD_HHMMSS: 2023/02/06 01:17:33.6406190
DATE_TIME_FIRST_SAMPLE_PRECISION: millisecond
SAMPLING_INTERVAL_S: 0.01
NDATA: 12501
DURATION_S: 
STREAM: HNN
UNITS: cm/s^2
INSTRUMENT: sensor = ACEBOX/SARA | digitizer = 
INSTRUMENT_ANALOG/DIGITAL: 
INSTRUMENTAL_FREQUENCY_HZ: 
INSTRUMENTAL_DAMPING: 
FULL_SCALE_G: 
N_BIT_DIGITAL_CONVERTER: 
PGA_CM/S^2: 27.838
TIME_PGA_S: 
BASELINE_CORRECTION: BASELINE REMOVED
FILTER_TYPE: BUTTERWORTH
FILTER_ORDER: 
LOW_CUT_FREQUENCY_HZ: 
HIGH_CUT_FREQUENCY_HZ: 
LATE/NORMAL_TRIGGERED: 
DATABASE_VERSION: 
HEADER_FORMAT: DYNA 1.2
DATA_TYPE: Acceleration
PROCESSING: Automatic Paolucci et al., 2011
DATA_TIMESTAMP_YYYYMMDD_HHMMSS: 
DATA_LICENSE: U (unknown license)
DATA_CITATION: Turkish Accelerometric Archive v 1.0 - Disaster And Emergency Management Presidency, Earthquake Department
DATA_CREATOR: AFAD
ORIGINAL_DATA_MEDIATOR_CITATION: : AFAD - Disaster And Emergency Management Presidency
ORIGINAL_DATA_MEDIATOR: AFAD PROCESS SERVICE
ORIGINAL_DATA_CREATOR_CITATION: AFAD PROCESS SERVICE
ORIGINAL_DATA_CREATOR: network: TK
USER1: GuestUser
USER2: 
USER3: 
USER4: 
[...]
-8.056537469445765
-8.25294775200478
-7.651206577182206
-5.986055765145095
-3.5493887193097233
-1.3796400911732989
0.19980183989580688
1.2230602913957656
1.6668709699049986
1.636666184155485
0.7071584370506869
-1.2344238257419229
-3.0427489371088323
-3.7390314968144933
-3.4346377908321664
-2.774341274399254
-2.4357354834663143
-2.7518800835220967
-3.563842279057106
-4.329826875258835
-4.397709495808818
-3.7976357095353634
-3.4845261096071245
-3.9250619722676716
-4.4630742063873186
-4.576034877529846
-4.147300290922471
-3.149122253505542
-1.9602351379232403
-0.8686797512790863
0.040007136017918596
0.5741588222524576
1.0841305691088772
2.0060247106434503
2.9728393862571747
3.5743467996769303
3.8743681141373565
4.0104542632679285
3.9410825456428493
3.3790749136448097
2.194600584321443
0.8101421714591904
-0.32614377574955733
-1.0955228160417485
-1.1123851941456098
0.05018090487692084
1.644301744534845
2.429891011418209
2.557540259666348
2.833429453174588
3.1493151764532334
3.227734791548891
3.190954271091471
2.945857572832768
2.1920079852642944
0.9430220637005504
-0.12086525701781951
-0.528653455022585
-0.8421930569680621
-1.3819092404016846
-1.8494133550381409
-2.3200839987316244
-2.582938692378108
-2.0948695155580213
-1.218668532934272
-0.626569787925562
-0.48533153851652105
-0.6736363995749227
-0.7445208731795522
-0.3979348011651746
0.03796442752985999
-0.11837855297172585
-1.0686356889747481
-2.1278360561712217
-3.0860955429836245
-4.131329932420422
-4.755475172527736
-4.968721420718993
-5.086575235738115
-4.92465688958108
-4.729932020353547
-4.596615487323687
-4.276849655419341
-3.925336027054136
-3.588155257715201
-3.1721830032518326
-2.798852776662962
-2.8226616890608693
-3.4179067378268146
-4.32830433531979
-5.399695681297848
-6.312611030633293
-6.7616903459210445
-6.816204031190154
-6.390191872333796
-5.975366930143167
-5.855623799835896
-5.243465417803259
-4.45464820711001
-4.101941549567722
-3.710987818645499
-3.3019664671194655
-2.8787669178713027
-2.218484234925574
-1.7399365416439436
-1.3108280566569288
-0.26895273287232335
1.2518666514069852
2.5390991532765823
3.1733759642228976
3.0674299273648806
2.2543437143492673
1.0848870603791003
-0.14322222112991856
-1.4110720173411635
-2.7195439838485633
-4.101070846666213
-5.443406857053761
-6.915881137250699
-8.848428254891092
-10.640479070208114
-11.493148287783209
-11.370356823604183
-10.657093179826372
-9.764901753253486
-8.652273793217905
-7.273651787851482
-6.07571210242584
-5.256574434095688
-4.637348994226508
-3.777909985774868
-2.225655592122819
-0.40760617464296683
1.0198513271939191
2.0907692540267244
3.0819390951663514
4.290481847089189
5.638497781086769
6.7803084888467
7.911238097104739
9.207435678749034
10.365904793608637
11.166850582940484
11.81706305505207
12.7661701308586
13.887621675202006
14.53574897347593
14.53179106126524
14.131848307181317
13.419648606857379
12.256187786653422
10.746023487740567
9.098150993420324
7.01122478275809
4.364252966138365
1.7986834152672446
-0.35551676955144756
-2.2426114927306986
-3.474210619091352
-3.584555018262673
-2.8581265572958676
-1.9078801776873184
-1.051485684951947
-0.19506787522342134
0.4810225481046023
0.5746302781596289
0.5976064643741237
1.1380479573046998
1.6418972694100504
1.3955269059845192
0.33580652919920795
-1.0697743566435158
-2.2926140576835823
-3.2374520566408367
-3.694162301572657
-3.285631283337354
-2.3323025575871434
-1.264678628138954
-0.11504467131471148
0.6339402831438664
0.4571632587689873
-0.42040583567615675
-1.7371288310589243
-3.760979547342048
-6.71586993002014
-10.05491266704938
-12.979246921399637
-15.07786101569319
-15.869039744009347
-15.033900006729601
-12.856436082957355
-9.914898563027316
-6.917269797046473
-4.337412211859185
-2.201933807751707
-0.38850294994490775
0.9656047224578317
1.5546135480496073
1.570574403164575
1.5172862851950946
1.8957661581350311
2.8907159793689106
3.8306254705664315
4.324924782558537
4.6644598150924566
4.918068562234967
5.189907649680394
5.363658418256838
5.233658792964344
5.145750050269036
5.212285333738809
5.343668030066149
5.594830226424651
5.742162113395199
5.445885174164986
4.499463157535116
3.1478998850849624
1.7858418331249848
0.4517466371277919
-0.6193651079495568
-1.2663613705114163
-1.5730706591084167
-1.3863962380124502
-0.9610024789214775
-0.5927665247381707
-0.16335992761772575
0.183839471593311
0.7492486965627079
1.7830567275993927
2.599846975439327
3.372876284413256
4.674026869318499
5.894507473496312
6.61738026300291
6.990251823375362
7.113118324459279
7.338671100150044
7.875270478908893
8.50988438699337
8.811878990634918
8.377829091615773
7.065470611240857
4.742731256905244
1.8334477288101343
-0.42537588574418
-1.5360822159146374
-1.932226394709506
-1.6584833278607747
-0.7483905760672274
0.1235585879568976
0.7553735070032357
1.5310854026472198
2.0363908921516605
1.644093987668062
0.6375367248404641
-0.2993815436592937
-0.633765625263322
-0.445295371834538
-0.18140417168376052
0.028165424483440657
0.07352682840403915
-0.13576816208122724
-0.454365659783474
-0.5827780386366153
-0.24488255707881013
0.3717715828843118
0.9421950049121598
1.419445775474248
1.9431235566102216
2.526067784311885
2.5033089592704934
1.5139980646058702
0.17192312597771742
-1.2981224791760968
-2.7565660879040315
-3.670781151947525
-4.017537918800681
-3.397344949234072
-1.5336968229263608
0.5551702123812776
2.406754792070683
3.5708330511157533
3.1072296848454
1.9126814744241976
1.0602288892282439
0.29347011316353805
-0.46355657963340724
-1.2621816286226082
-1.9150226912829655
-2.2039962896881216
-2.6240682457658884
-3.215954907992358
-3.7213568417630256
-4.162498778531017
-4.3695215812414805
-4.473621710595181
-4.583082844593825
-4.340745397313679
-3.8186802194117315
-3.430229340860561
-3.5374710021430986
-4.336536773400421
-5.378998178273429
-6.253947896655441
-7.112726039539512
-7.940483730088124
-8.705344660352415
-9.53353112152125
-9.893034659811088
-9.076087752473736
-7.488785468906826
-5.874827038162139
-4.300468888351701
-2.8862262667995346
-1.8347756260499615
-1.0950930670201358
-0.650593146562491
-0.21310052106318306
0.5445168515902618
1.7879066697943282
3.716126276940595
5.715979093883874
6.8990949258821415
7.368601969298643
7.369126921884206
6.847918168142603
6.160336573185573
5.861600771577894
6.034534062986206
6.492883765575815
7.271789622953672
8.016507241494692
8.039367429453057
7.399228019730011
6.48425791476386
5.504364381876856
4.6479825415816265
3.8211092227525816
2.860745027781773
1.4804773927404193
-0.6412456210711275
-2.9973882518707025
-4.672540231240198
-5.060770940990771
-4.165898161318398
-2.922243826286277
-1.8880020342601727
-0.6980480432969868
0.5067135118314389
1.283326543689049
1.55210458421564
1.3184469668127337
0.8201017340923128
-0.01982708594669179
-1.5386304943149058
-3.429856190421276
-5.470201128157539
-7.593173504316274
-9.482344886726969
-11.33321970143695
-13.30375527013096
-15.147047375202199
-16.75988464510762
-17.688480808628217
-17.561416970950834
-16.71803034986732
-15.215644447088406
-12.866900273424646
-10.312757075810785
-8.318626066393188
-6.59798484583022
-4.6312446723208005
-2.2643969259437413
0.963614891557511
5.129299353128405
9.258127128880423
12.47785481565454
14.532349138447618
15.464335391004456
15.427918477199249
14.36765874817926
12.516443609878667
10.489199371617769
8.573030406413821
7.241878777807194
6.81165189677655
6.484365191467964
5.571177964894429
4.1557330129417345
2.4557373025962272
0.5755910454339265
-1.6486442681206732
-4.052548310123987
-6.086050977220519
-7.6617263040800845
-8.748408143683388
-9.16630322268928
-9.119702336657623
-8.967490381238527
-9.042517989049193
-9.387300328719892
-9.747330010176722
-10.24864598887132
-10.738998516879315
-10.51815285544363
-9.572857541636516
-8.207829263484117
-6.402421729852103
-4.232543608199814
-1.9184508840285839
0.16833481510983553
1.9092097374507033
3.427380613431963
4.6108147672231485
5.659060374656502
6.785208094240315
7.754975390545465
8.789977182162104
10.20305877218053
11.346812045589628
11.510311628833492
10.944374800738277
10.021887067782876
8.812061314297114
7.586517682647472
6.299923062397671
4.733529821028319
3.375210342424183
2.8011402396953033
3.1380978293738964
4.088085865693305
4.752819008112417
4.709993712451887
4.641597059736537
4.759185943681736
4.4537358103125495
3.597211790057439
2.6785556999550955
2.2606379129089733
2.420713341168985
2.8066990182173206
3.380378116503744
4.161973645451336
4.962952519374983
5.829944594529312
6.969211441095875
8.152479368645754
8.839722871739786
9.130747674843358
9.06373399454878
8.365295445395581
7.951347913785118
8.40610894614376
8.993967721854519
9.42704359378405
9.522687413962615
9.274947666054526
9.076860444581966
8.607813771606676
7.95337095736462
7.675855439980474
7.463018609040867
6.9904847098655205
6.1466099861308
4.720652209779381
2.919915245904319
0.9719241182066467
-1.017539813205623
-2.866748969043669
-4.724704979728881
-6.541538539606221
-7.662188544072953
-7.539168303154867
-6.0561832804832365
-3.9993203229751493
-2.751983886637682
-2.7437060571492133
-3.4907141003573563
-4.446675563787933
-5.329203836418052
-6.07257811479714
-6.283968706219875
-5.831463219715055
-5.165859222525643
-4.5934489302925074
-4.517972034851598
-5.059173442557465
-5.773437606626739
-6.499752380042199
-6.74120161340625
-5.716131329149951
-3.6389990154915663
-0.9783027456289931
2.0531407818365506
4.877398007866201
6.888262516753421
7.803065862239303
7.834105636819109
7.3430079188720905
6.499626535303823
5.832984559565639
5.3235178066625135
4.203822797157417
2.7537949359757987
1.739885633375483
1.08889163248545
0.31572420633477494
-0.8733185692156177
-2.3287738063076664
-3.778263513839475
-5.130360717093622
-6.2386922568732395
-6.866668700685528
-7.051448957990449
-7.023659395785865
-6.979181951703498
-7.354711203532788
-8.165949168747057
-8.912401396232719
-9.730589561325448
-10.69305244131383
-11.385355926923552
-11.863005338625616
-12.416234198022646
-13.189474051030874
-14.034866586327961
-14.43349867600178
-14.090241161815785
-13.295191551114804
-12.49036127658402
-11.585899959831584
-10.403599851206344
-9.23207555113481
-7.973907865204666
-6.2005935446130565
-4.036035278206233
-1.6840814526263546
0.9863507896714494
3.9469949509597853
6.798006363738844
9.024724018201642
10.338212846213159
10.817914757227163
10.826593129227946
10.59829725930874
9.929038217153376
8.617460631189578
6.517248962036797
3.5477318482968263
0.3940686991733547
-2.2220195499304203
-4.332888760178693
-6.039846132995834
-7.523344879078743
-8.970244793308767
-10.332514777709038
-11.585757325144922
-12.389417062518977
-12.553943511855921
-12.297512219531136
-11.38813914960884
-9.73690449638176
-7.690043797493477
-5.209089476443288
-2.2273411271203205
0.7593031310720824
2.959045625290311
4.23150123907466
5.13573980039364
5.797977263429568
6.245948209524584
6.664446350750799
6.626097642069516
5.734930250648824
4.059956527184123
2.091686248583551
0.8773380850414496
0.8614730259848402
1.4845248153433908
1.9901565434618862
1.9490841352071784
1.4280168380631248
0.26843399181392535
-1.6459258346839942
-3.6529888571588103
-5.277326678831462
-6.653518932351916
-7.969065094130812
-9.091901253065826
-9.72108086563451
-9.701329484520004
-8.630136414878976
-6.387916564693293
-3.6321916131553906
-0.9617930802891536
1.0669121911050914
2.0091884134433267
1.893622422644657
1.0217266075073235
0.1891170857373558
-0.017482125219241345
0.16714607290829928
0.6965862763988128
1.5766963406591814
2.204266523374553
2.2881316866966217
2.2225934884452463
2.3083105534505015
2.595884562872101
3.0134310627659615
3.28876851519515
3.1268383899976735
2.41526376622668
1.4308105960791444
0.72183540625407
0.5500315108417363
0.8434705928867444
1.5450469565117488
2.694295424992504
3.9822544345032322
4.48876997315206
3.8569149528272755
2.9829838370766586
2.6803836225021076
2.961751383073789
3.67626128011114
4.793601875061444
6.097220088345197
6.9035967115775
6.6831254625078484
5.5492049560314305
3.6031053156157657
1.055891681212429
-1.434239324899006
-3.4239267635949227
-4.912334719850212
-6.254650236589988
-7.565444247960018
-8.34954263591872
-8.710290942044352
-9.230276591605593
-9.828703359773671
-10.386879042489587
-10.990300073228381
-11.399284976192682
-11.453498240604652
-11.12228030995013
-10.22445157867809
-8.871126275614643
-7.233130950625501
-5.0373414988579395
-2.2492149187208987
0.780748126131399
3.765192336803369
6.395914164764848
8.634034847842228
10.678894084748551
12.69268756253596
14.972325730656202
17.522959556628553
20.139058917611823
22.77403727003945
25.00344513138947
26.616805673875913
27.837768354311372
28.066990829325587
26.734643859860206
23.931056839085766
19.437081704826493
13.890507395601801
8.710199932880414
4.346092316826247
1.0883689410303223
-0.813209665294295
-1.7775482840691248
-2.0660941333210436
-1.824709736412283
-1.3717860777865845
-1.141606535002833
-1.3335559570082223
-1.5488028454888632
-1.68891268627596
-1.7476897825329827
-1.2578112290766246
-0.29828338000831744
0.792578942625562
1.994998167894157
3.03097116099659
3.5880000696347873
3.588775232546195
3.0120323581493578
2.233755644482281
1.8488420055744748
1.955900250032831
2.251091364059015
2.210785455493499
1.4917291377306063
0.6816802102721142
0.451860281538006
0.6461261527790865
0.8711525173622771
0.8049029436747919
0.22775416381208616
-0.9969257191880588
-2.7734308993903922
-4.304427348333765
-4.837025950342678
-4.383844905897512
-3.1594730633042936
-1.6928682472365142
-1.0066384190515203
-1.5048914290133164
-2.696458050500609
-4.103457595311887
-5.627697766288379
-7.630085361305594
-10.128398379359195
-12.129997500588768
-13.053857792368843
-12.98092470678837
-12.009946248389523
-10.890975798366515
-10.20719339602451
-10.009635564882606
-10.29553162529437
-10.137916660941578
-9.110756826601884
-8.216271369876722
-7.683192955006971
-7.302646642063637
-7.322273508297638
-7.478698135287879
-7.579821920825857
-7.716764933827285
-7.5805239936323
-7.12132722420069
-6.528371989879032
-5.812096784742677
-5.155293821404559
-4.564502193982855
-3.9080363409580356
-3.3180895682852927
-2.891809885848624
-2.691210486905626
-2.567302116348677
-2.4450707696120353
-2.641110035539488
-2.801977152004776
-2.4456681381872025
-2.1047355616269448
-2.374002527516893
-3.257079548382095
-4.190955077370958
-4.518722832261946
-4.189858586923057
-3.371807201343608
-2.304699728493462
-1.310521565816725
-0.2680342586990902
1.035388005831455
2.2755043157018147
3.069093567595618
3.601867427698499
3.994087631974119
3.9442179377107824
3.553567513965276
3.131169902950797
2.616936859501536
1.9065619707307098
1.0390921710294971
0.05006386846900844
-1.2975035284402405
-3.0658237451370285
-4.857578880966752
-6.578854813907819
-8.212505879394026
-9.6803447495717
-11.100645866793542
-11.947999047832072
-11.636556701203412
-10.673843118281269
-9.806364172114765
-9.122642817130172
-8.307592038570817
-7.210154576257132
-5.925981417075935
-4.651288495072757
-3.4862464969585276
-2.324105476758908
-1.2537091508152527
-0.1975649192331781
1.0922200223161225
2.3063357652625656
3.3253945872627466
4.150437041513901
4.4512747417874134
4.292842759706606
3.5670251994015647
2.143398485840768
0.5888245676219734
-0.6850927423210671
-1.32579040235319
-1.0502714654664806
-0.33615216829161987
0.16187110008251074
0.1769661844921944
-0.06038822889074946
-0.06387401036180755
0.4136461117798884
1.195799801808377
1.7564638391252396
1.9230280586770416
1.8538603027536533
1.4852077806213895
1.0186124690156957
0.7877406290289007
0.7747150045275062
0.8722518688005619
0.8986951518277101
0.6665556832200462
0.3488550424313782
0.5071125307427183
1.337306227180583
2.4174085392482527
3.4724356243612227
4.223818211704533
4.426506495746377
4.338501466595244
4.104212438703272
3.8277753665381353
3.741308587172428
3.724734193743624
3.576547386998512
3.0121012635830082
1.7666026624967204
0.23660873214893643
-0.8893802992027571
-1.5401022955262849
-2.1858520083057305
-3.031341142390502
-4.026307748837346
-4.92509078480802
-5.14816769282309
-4.466336908704663
-2.787744373279607
-0.19937781508677146
2.3446649032123896
4.266846063294133
5.655132097143068
6.345786226383455
6.43554373245756
6.1556143832765615
5.5906831633837575
5.1113620327005025
4.86914881710588
4.547667421789145
3.9896903069897443
3.2713260230246592
2.4328998030988425
1.6204836446159563
1.1064300980457358
1.1788161902863745
2.1069882955624575
3.7595282065987794
5.7423454229666175
7.7001068700155075
9.0669231348801
9.565017792546579
9.399078133373925
8.758262631014746
8.008118638179361
7.478470493208167
7.155723012020099
7.0674604411187145
7.293973530956763
7.773229661066233
8.331790804054105
8.772340946495417
8.826585819455577
8.41585530019323
7.811919381813922
6.936812068687717
5.828178678626538
5.098217219453148
4.76923439275022
4.673046872936704
4.753551916093116
4.369453207586955
3.3559698989727873
1.9235948542239516
0.050924623159293934
-1.6637627134798831
-2.9336238847694265
-4.210485142678857
-5.422213871739317
-6.363522633914051
-7.042105699310758
-7.292788891512233
-7.1542035715469705
-6.79331872573562
-6.111820838302546
-4.985177669622328
-3.4596092133689553
-1.5846825992486928
0.5195527746951477
2.5069497255530293
4.197243156906637
5.586171050145835
6.515258256628937
7.218724543487913
8.128899337688878
8.889650992393637
8.996278764375605
8.450760869789661
7.17886642111796
5.278083762911699
3.396011361454057
1.977612208584252
0.9632121213138031
0.26175621970758045
-0.08260374127094158
0.0334498175299559
0.671615491042788
1.8331373683560424
3.5142030973865066
5.473925580519372
7.273541130267912
8.788449727139822
10.185851875397224
11.443777780005938
12.431948402504222
13.318301829018212
14.094033573544614
14.19869493360875
13.46532400980395
12.381117844492863
11.419346955964397
10.91746094319644
10.734858444798164
10.298621249690143
9.433207914468488
8.310552947333534
7.157727368228042
6.316063859961377
5.94118734771699
5.864325036957521
5.667131176385204
5.050879142361605
4.205331405961351
3.307866556712602
2.4008393315205243
1.4585020186451505
