AAD_Filtered_TADAS_FILE
AAD_BASELINE_CORRECTION: BASELINE REMOVED
AAD_FILTER_TYPE: BUTTERWORTH
AAD_FILTER_ORDER: 1
AAD_LOW_CUT_FREQUENCY_HZ: 0.025
AAD_HIGH_CUT_FREQUENCY_HZ: 40.0
EVENT_NAME: 202302060117
EVENT_ID: 13194
EVENT_DATE_YYYYMMDD: 2023/02/06
EVENT_TIME_HHMMSS: 01:17:32.00000
EVENT_LATITUDE_DEGREE: 37.288
EVENT_LONGITUDE_DEGREE: 37.043
EVENT_DEPTH_KM: 8.6
HYPOCENTER_REFERENCE: AFAD
MAGNITUDE_W: 7.7
MAGNITUDE_W_REFERENCE: AFAD
MAGNITUDE_L: 
MAGNITUDE_L_REFERENCE: 
FOCAL_MECHANISM: 
NETWORK: TK
STATION_CODE: 0131
STATION_NAME: 
STATION_LATITUDE_DEGREE: 37.856602
STATION_LONGITUDE_DEGREE: 36.115347
STATION_ELEVATION_M: 769.0
LOCATION: Kahramanmaras_Pazarck_Turkiye
SENSOR_DEPTH_M: 
VS30_M/S: None
SITE_CLASSIFICATION_EC8: unknown
MORPHOLOGIC_CLASSIFICATION: 
EPICENTRAL_DISTANCE_KM: 103.35
EARTHQUAKE_BACKAZIMUTH_DEGREE: 
DATE_TIME_FIRST_SAMPLE_YYYYMMDD_HHMMSS: 2023/02/06 01:17:29.8683590
DATE_TIME_FIRST_SAMPLE_PRECISION: millisecond
SAMPLING_INTERVAL_S: 0.01
NDATA: 12501
DURATION_S: 
STREAM: HNZ
UNITS: cm/s^2
INSTRUMENT: sensor = ACEBOX/SARA | digitizer = 
INSTRUMENT_ANALOG/DIGITAL: 
INSTRUMENTAL_FREQUENCY_HZ: 
INSTRUMENTAL_DAMPING: 
FULL_SCALE_G: 
N_BIT_DIGITAL_CONVERTER: 
PGA_CM/S^2: 49.399
TIME_PGA_S: 
BASELINE_CORRECTION: BASELINE REMOVED
FILTER_TYPE: BUTTERWORTH
FILTER_ORDER: 
LOW_CUT_FREQUENCY_HZ: 
HIGH_CUT_FREQUENCY_HZ: 
LATE/NORMAL_TRIGGERED: 
DATABASE_VERSION: 
HEADER_FORMAT: DYNA 1.2
DATA_TYPE: Acceleration
PROCESSING: Automatic Paolucci et al., 2011
DATA_TIMESTAMP_YYYYMMDD_HHMMSS: 
DATA_LICENSE: U (unknown license)
DATA_CITATION: Turkish Accelerometric Archive v 1.0 - Disaster And Emergency Management Presidency, Earthquake Department
DATA_CREATOR: AFAD
ORIGINAL_DATA_MEDIATOR_CITATION: : AFAD - Disaster And Emergency Management Presidency
ORIGINAL_DATA_MEDIATOR: AFAD PROCESS SERVICE
ORIGINAL_DATA_CREATOR_CITATION: AFAD PROCESS SERVICE
ORIGINAL_DATA_CREATOR: network: TK
USER1: GuestUser
USER2: 
USER3: 
USER4: 
[...]
-3.5315343321399855
-5.278308175985582
2.204071452367324
18.12687561676762
24.300391042306632
12.748588911332206
-4.0488745038662985
-17.27340846408967
-17.865877053107805
-6.763387680161871
4.698580907440298
16.77781311508692
17.161015190034536
5.534749510163296
2.8039880303491516
-4.134149363526445
-12.126260725447386
-1.605970626456158
0.1983454363579589
-10.854114717719433
-10.897969090196995
-4.59027422024437
3.3729501171329015
7.241925527578967
2.8204886555568986
-3.184911277176117
-8.054562051334653
0.6773861842927802
15.476000619076741
10.099127616364946
-6.140432465299708
-17.245948215022594
-18.805511979488873
-7.521653859291532
4.099761555962864
6.317070889063915
5.973881793688662
13.907914753307098
19.087595027451748
4.4744336063186445
-13.812377783698775
-27.167737634719916
-28.728124676304798
-7.224011574565847
5.245520039993944
10.116102741632051
27.09881849444881
22.283499448641347
7.86256881882292
9.885706765024862
4.217043876916772
-2.8295171906371936
3.039531351982795
16.16570279599112
27.378677083114713
18.164710707509048
1.7441836740870202
0.7697175339453112
5.311630226065772
6.095987310376171
1.350718790929914
-8.202829578359028
-13.022680122521974
-8.449820136882789
-2.826406025150163
-1.7396854804991237
1.1713439673051187
6.245790460382355
7.943223160102271
3.9301589768791825
-4.33556414247524
-5.707983615075603
-0.2143915924288982
2.2651558902579336
7.448686169042797
16.166140010915708
17.05981605617571
7.630341017264849
-5.661447629100152
-16.775438751332047
-18.3074721250661
-3.416122002197699
11.434844657419406
6.878569673210537
-3.963768573268825
-7.97955827824161
-8.525400276141966
-3.097721409087062
7.317536063263971
5.114031632978583
-8.613513803476872
-11.389116795989983
-15.569544770822326
-26.109472478926346
-19.676315339384892
-13.459802945498845
-9.069670697451837
10.528848493759748
16.60101687909447
6.811392441162378
-0.4688386028568967
-8.323181089836773
-5.244229122465988
6.7651912589413765
8.664596400377127
-2.6451535938683275
-16.822667368008457
-18.95091713728469
-15.110988109662802
-15.10804814672528
-8.85102723097281
1.4798863762727714
2.891416092037807
-4.654848294437415
-10.914418102202589
-6.02864203525812
4.141865367765218
7.133241462782725
3.653179607312175
-1.071927736783921
-0.6551600058950313
9.089341490808303
16.5740092750995
12.016933203512844
4.76574552528612
4.620341867814993
4.2010179260746545
-2.3714440819532587
-5.369654003439141
-5.264166336671392
-4.177082933817217
6.408291554869464
14.367359695979848
9.664376325697203
7.451633606815751
15.56967556221497
26.95091536593063
30.03381274040113
23.584488256738414
14.977603867557615
4.608766522837788
-0.7371431543823995
3.774329134622715
12.29029559604777
18.013049282764257
5.422285294026912
-19.86948125010936
-32.95592819873824
-33.27742877692752
-23.28843414242617
-3.200658950345361
16.05277000867282
21.293980139763917
8.214835226161021
-3.2004815346201827
-6.482308612939147
-3.250414172454235
12.489277515773377
17.6059209137643
13.355141180385672
9.27707344014745
-8.308953653794504
-14.21878917764575
-7.822987286461241
-10.669345933488597
-11.222627381347763
-12.793991485428403
-9.312869088818331
-1.475099123424611
-6.307745152067311
-5.90693876013907
-0.132579396155848
-6.425844084892802
-14.365201933918781
-12.798174327517362
-7.198831675237923
-3.04348404174212
3.7375225003061177
0.8052457143333923
-16.48228121069187
-24.211467303908915
-21.295876244787006
-14.115011213632942
2.208420237436626
18.0422753575093
24.659061108479523
17.04962847468725
-1.3555096632161174
-10.983660187366064
-9.919289259573683
2.5398792414207305
32.16787696558455
42.54547486093295
25.337602072104303
17.477957425048384
5.994533964849783
-7.325108260690593
-3.0095985864262706
-7.876116376474634
-2.8170003785799587
26.181771569214135
28.449221373564896
5.582068636248559
-8.525607184931097
-7.6150493364280765
1.7521741573561291
0.6517236543579494
-9.58892712369122
-15.001818393907797
-20.54278579667392
-24.792052686201185
-18.58168670077505
-4.641620938755523
9.32915580216066
14.801412847544283
6.98936280694355
-1.9413268954858658
1.0244344219521224
3.0625816362834226
-5.849006532658313
-4.858240883790787
7.917509549888648
5.791927034820644
-1.8156807268671153
5.57016864235843
7.983667733237021
-5.937829645801161
-11.154880574428011
8.35717454494689
36.0667199197364
48.82814896206799
41.20364995070077
17.766447433791388
-9.6440346367454
-16.157120196493405
2.7073343519000357
22.63552232951465
35.871493087613956
32.29284254749072
6.7337706941609
-5.537028599099166
-6.183825966631954
-6.252379697127518
12.78709538540837
21.93787172573304
16.443035874940115
13.42851696735775
-1.9691998417670031
-5.932308113467328
-0.18620664809629628
1.8911739317778309
19.869085465949464
29.54574156088357
24.902698391663865
6.979361623943205
-25.179338766374972
-25.23402891687319
-9.103352621415747
-2.799423277935954
7.319591205187666
-0.1622521721231075
-8.020954841566182
-0.3260595811879653
0.39664138626447615
9.74112457712474
18.88076125855903
12.055609671204062
7.962428650128122
-4.480251212553899
-21.979988946032545
-23.299733918396598
-13.43390394221954
9.86631469787681
21.92880090773875
3.869585421995831
0.928508277335476
10.658351600582606
-4.172106554469334
-19.618190616619618
-18.364689950571247
-13.624690191163145
-5.7014502853954125
4.923558267584468
5.122642942977473
-4.727863798368698
-3.905414921743856
-1.061714684910658
-15.565508500766526
-27.489416492455668
-25.00242327643682
-17.09222933111992
-1.2761767931022312
9.975681378185552
0.08344840107361363
-8.87712571272665
-2.888725472632595
0.6005853521698226
2.7253032034433944
5.256953262486329
-0.5611109520822288
-1.5235541041968037
9.355196628236126
16.774534704910593
16.098953464526513
15.435498441501698
8.544733053362384
-7.161632956678956
-15.326206823574735
-16.62720091211816
-11.397813475495672
1.1239611508181442
-3.430660030542003
-17.147472646277727
-14.721975058707066
-5.369949230237668
2.029391737843491
0.47117353263821155
-6.854213574752949
0.05706541982971388
8.258877225923296
1.2500111536654834
-4.4198743861368675
-3.0004930635563865
-2.73048413855048
-3.601984880143309
-1.8814594144290064
4.605541343788365
13.073701295257559
16.33560659857297
7.317786038111155
-3.288415473206566
-1.9902067562595216
2.2800060537749167
8.917680039138455
12.321634433950209
-2.0794400505296764
-15.864586721749074
-15.79351553000947
-2.774735869181615
16.22342514489504
19.257989954579166
18.595315432713424
20.1185892940091
6.554911590661378
-2.709766042665517
-4.107424960923521
-8.417557757953295
-3.757547358884673
3.9526743829615105
4.64033421304055
-0.6167939942688762
-0.6907799414328369
16.0463080320891
29.4492576459907
21.950578051036555
5.237433036866342
-5.173144864121359
-6.960776089615504
-7.382671612342886
-5.746569025709425
-4.32979319118465
-3.765219366478767
1.6705460591055408
4.852904831688554
5.6127093290559085
1.8686082529540002
-7.601719104957358
-5.115044391273943
3.6796327451958724
5.533181888990694
-0.289863287460585
-12.773913784224632
-15.624817246703302
-6.981184705395967
2.848286430842152
7.213016485540022
-5.025699940384059
-26.003833296691518
-37.84844818222199
-27.889403847189257
-2.1906194749103576
11.894235686781073
4.131303448730079
-13.897991934974353
-19.789947730112665
-0.9923906262821969
27.997088676529664
37.25213556279557
15.832999757086865
3.1982542585022915
13.737448070256606
18.919537547421058
20.7046551058111
13.631216812353651
-3.477379088157018
-1.3875912067340679
11.633464913255045
15.630020975624946
13.596543407118796
8.34853030545971
6.927299553580029
11.059311915081466
13.445028589877493
10.965328143043807
10.664902333077041
19.465256835566027
21.276915751211302
6.708384669558097
-7.402686535436912
-10.1457161841109
-1.8649549058400432
-0.0326510640427147
-5.948970033003838
2.317956571674392
2.5361090575322156
-10.578070019978092
-16.64805869035582
-30.283473357145255
-23.305285934962072
14.122335024567771
28.955561170735248
18.736232025578825
-1.261908650925874
-17.586695816635935
-10.063808834708862
1.370829251160353
-2.314458517493142
-5.601637039117754
6.513960059106963
12.708300374070571
7.2888801440990205
8.943039044484802
-5.7082042104344275
-21.07055349561389
-3.985065672199364
7.353321094288366
5.60222184296694
4.78263043690233
-0.38921491988031026
6.441269665529764
18.335442151898544
24.39040670866942
22.353636753920927
0.7962394457244816
-8.406673100853615
7.134121052643149
10.03313417055348
-6.08186768936059
-26.587145098056293
-27.416978518311847
-10.611488121182497
-3.8333158137136807
10.351052222683515
20.333410416228944
7.171848430315984
-3.9828846512844436
-27.823807479266307
-40.34735123291104
-21.88253896150759
-15.46015671058507
9.153530726279802
40.46008797967704
31.41036974528104
15.81925131754447
-8.185629797028653
-24.489523397276113
-13.05536882376745
-8.82038443050722
0.5322719118149886
1.3142085020508414
-18.01746459799509
-18.033913404262783
-12.479237804503864
-7.349267000500667
6.068569314916271
15.140637989893245
22.075774627912374
16.202232777127083
-4.992606059223501
-25.283038565138504
-28.58931205935721
-14.308004690216578
-12.47496098731541
-14.160020094901197
0.49776642876581
-0.6703616800319299
-14.573199597485113
-10.866752841024184
-5.278785434333667
-7.231355588980087
-7.017827247891455
-9.183265630781243
-8.692506039943982
-5.07396947637446
-8.000217894778897
-11.633644506477724
-11.606279449434375
0.0939190209070618
17.73666586364629
17.243136542711238
7.820693806039969
-4.597273686727892
-22.74643988440381
-21.7019016702238
-7.953547825981004
-3.321808121327498
2.2977746909796863
7.853304738732223
11.864229474110713
25.97383651026135
33.55394268782263
17.631120110994353
-5.486177298752432
-18.500312726501406
-15.588658246422941
0.6640796975102062
16.902933080764633
18.86055414112983
4.925027095668104
-2.7475612750868765
1.025649896683695
-8.37725727884346
-14.526415798618466
0.4774052865879359
3.6513350594744884
-4.764760963856282
-4.818219430778677
-1.477372361352255
11.126884727429168
13.831838689218044
-4.712405135688764
-4.990828728701546
9.008902746328195
13.701499381647587
18.914904553591843
15.49759967440421
-1.9819300338377177
-12.36022154745816
-2.87891355333728
0.9647130122153269
-26.52074074491517
-38.46897652974534
-14.218307618717596
1.3745964947902776
18.827809646022487
34.8114901125265
13.394141073576417
-7.409364106601891
-6.192307213986468
-7.217144216351747
-8.420473764403924
-9.503729756582686
-8.279624034397452
-8.476212055118241
-19.800477514695316
-17.90734071644234
-0.21468453850890523
8.679267658749536
10.198203005382174
7.674806535264629
-0.17300498293170527
-15.759095168794675
-30.12721619059734
-21.76421362862868
-7.883379518886788
3.4001287557806577
28.54360420945013
34.93030607937591
13.375168398148466
-4.383266573035584
-24.499804858782177
-38.08421991614899
-22.25227549472902
-2.1164483549120443
0.03017167632458378
0.669465446973063
5.66082468376667
1.4064874573355701
-1.9281318798139684
1.5354853645447344
0.7796857983548243
5.783320726416783
7.20237495562668
-9.474839246752135
-19.35706365567626
-13.114081003769215
-2.358565670311258
6.582075569654948
8.977722407494255
5.761673766970324
-2.38360762828817
-9.361632913838548
-13.77281696471074
-14.13789094941771
-5.913695620717721
-8.856037866088506
-9.75576579275767
14.415898424646619
20.777266894292556
-2.669306801001047
-23.959055834453192
-28.8499775929238
-6.4161622701483685
21.095337136703236
26.698769594175488
14.638161075332512
-2.694183420360232
-6.808470864578038
-4.590215974818951
-3.904451074393292
-0.20368518360477406
-6.679174507501693
-12.144596371237295
-8.821702835197947
-8.45329434220089
-0.9285884429207863
6.9591999335979144
5.789149559464602
4.886655660647722
0.7789992553103473
-3.23817727549669
-3.214552399988279
-7.97218515081998
-15.754170802901262
-18.604105300946944
-11.20278672928603
1.1098551737450086
2.798454093489851
-5.602162687969469
-13.667081814862422
-22.718773276403713
-30.015601141008315
-24.785437579820936
-15.015416460726911
-12.25287016123891
-5.209238976818764
4.928339804771649
4.41173429857079
-8.213677736039552
-29.8485279497572
-27.639704870775507
2.4441490606422676
11.395977924951783
10.492200214021052
12.11337849856823
-6.816104894461078
-22.249655284553306
-26.04719114367368
-24.088667138890877
-10.137625134343947
-2.2913027549899896
-2.3632633890062196
-6.379326227935332
-15.218842520182651
-23.75038479697801
-26.963944462955112
-14.407513644817312
-5.935500148521819
-11.229300637994484
-10.349892783349638
-4.1292828673982
2.1992025729382183
-0.4331763688118672
-4.88804909917491
-11.399558182190823
-38.35989775465016
-49.48868470350832
-34.35579719468069
-21.05926514588182
-6.145136528000702
-3.1663059758733048
-11.376739213509385
-16.768223963529973
-20.89613140239723
-13.79951108397138
-6.609791495976732
-3.474282402713421
6.055028655641628
7.417555518605664
-1.8488810142938248
-6.098141477913295
-6.044588289648772
-10.95445514226125
-1.4490651234547196
20.777793585997234
22.4642003676498
22.98544899558163
21.476606716976352
-5.498950086558914
-18.10248050966552
-8.901174195451649
-1.0777053122602416
9.348130742511115
9.593221987644606
1.5391912793475366
-1.1603081058711178
-8.020656108238803
-12.406512379678372
-8.631762471003405
-6.267400305295344
-1.3424216220569127
-1.0432345007919166
-5.094573294603439
-2.3163435014638516
-12.3461273745968
-22.10859625827335
-5.858402814857807
6.5900729458545895
5.727940119202896
0.1644253141510983
-19.74952172300854
-35.49065923897373
-29.729372851679404
-17.965263884626196
-2.432949126422399
15.411205157122728
18.802301007083496
24.682052901003065
27.098076136390706
-4.313086125308282
-24.292949318841384
-13.61057229308576
-3.537059787174527
15.468267293839975
25.892512978417848
12.69726704677095
4.077305239136951
2.721894201572237
3.0691213117278022
0.03162853079863765
-10.028574809355213
-15.08286086816001
-13.18803695957808
-8.010346382419254
0.3472934531039665
7.148241074058901
0.5902308908882428
-15.52255605250467
-19.343488037825935
-11.318954637156635
1.7314074932985892
12.539423376534208
4.209167244697008
-10.765647674269582
-18.513370614220722
-20.255099722332673
-9.648976378471339
-3.621604682992209
-8.365095779748666
-3.980188346953714
-1.2084773255840802
-0.15441076348318217
13.113031514505975
10.647673744114284
-12.444414053764037
-21.811924946039348
-15.194966642518562
-2.2502031383161993
13.238743232401992
14.385664271043854
4.700423367010088
7.806671687501211
15.75940696772672
7.663272111210351
-1.237234535304831
0.5310477545435526
-4.421004671478347
-11.812398369242171
-8.63066136830741
-1.9378745080594542
5.45272476405692
13.198370536856649
17.637360462072717
18.759970234278036
16.962911489014246
9.442148251169014
-3.105920032918447
-4.7057095164019875
6.8833115023002565
11.983873573078915
8.879681413104644
1.6693013854054088
-7.571857687828335
-12.101150760416909
-22.88048397685572
-29.62548169542814
-10.755774036209138
2.0684614574440574
-2.2216270303253505
0.09861073604926007
-3.729041221425337
-6.331019617119359
5.746108664431846
6.524205777477625
1.257709098413848
3.4225769669711945
4.415051492770238
6.908502257885512
4.771472753055599
-2.221795604867837
-4.4154324459100485
-2.876785276197699
1.5513521341460952
-3.3130678770606323
-9.330127862074562
2.199012845030291
6.819322361929576
0.8673811909050854
1.5696174719894078
-2.5948318053673924
-6.308672156889104
-2.8112941007608856
-1.8616415183639863
-1.7778072210565545
-6.327518776874052
-10.235486723843962
3.4099951980118677
22.056984057060486
17.337140812776386
-7.424157445306501
-18.68648721309076
-11.108767969130474
-5.008077922258887
2.58297735232304
12.89736659281031
13.791529897448674
9.45748143190148
4.569017263685867
-11.421036556528332
-28.714449779048724
-23.51935824610115
-13.929718405965671
-4.863059238802513
21.521165526882477
23.09245761363959
0.5285366682674252
-4.551911573753078
-20.063851747068885
-24.86255967243996
3.6690276112015403
11.493102883071284
14.164886178155692
22.790984709318014
6.120682066002879
-6.075648894134227
-8.233116932558035
-11.00947483335227
-1.4356203616844025
1.622157762491811
1.9815989170216053
7.571014854893553
-2.929195867896508
-8.478582418683061
0.7582208317227443
-6.185899320589016
-20.015268298594908
-21.553475904199246
-16.282776325791392
-2.1707997325141593
11.649206844889072
10.298393673632582
0.0981807768726444
-12.170478202996325
-17.128407294571694
-8.957853103752775
-2.8724162484153584
0.5486379243815301
8.090440579142907
6.948874986433133
0.11538777593390248
2.856404796425634
10.396802338260423
10.32707596654335
3.5928155572537537
0.7782527624095451
1.1642653717165896
0.5477810706439133
0.3133030613801638
-3.4896138593371258
-9.47400302443625
-12.947360272234718
-9.394831967877982
-0.8472398441304975
-4.199004140641145
-12.681944855752052
-11.590359297768611
-8.216182561334552
-0.5153184817523165
7.173629907612425
10.183243493540507
14.901571285023433
6.319733453410274
-9.581756996805215
-9.585889809810828
-2.3497687422910203
5.3677224752971195
9.18534665318485
4.373470315163826
1.8468530628103401
0.7422631090548156
2.5489808742436857
11.328456749179976
10.132460051994883
2.190847050875635
5.6179656441033305
12.086945612197457
13.910287856420094
14.596962864019222
14.069783847045908
18.184121563124904
24.002445531321158
21.39266025676365
17.656482723946365
14.319454500154517
9.589083917608077
12.224613303955396
11.69811936764341
3.2791868348167728
-0.06416996511320479
-2.812135102384149
-1.4881021714083353
7.983567071126575
9.490925916713506
6.413783418762301
5.302878273819489
0.7568977914788194
-3.004522645288562
-4.222316455300435
3.6858228830465025
18.552366100168697
21.738626637689002
18.031022648706873
12.415176755123113
3.508604980805195
3.589205350287851
7.730027685655078
9.007292752494433
9.202253244575514
7.133015659832128
8.37699675924809
4.450481592294439
-6.295650533701672
-6.492336493538399
-0.1223038001214275
6.626455929716435
13.189724121149753
9.866284553767809
0.9485226423518198
-0.7661348483497393
4.318068250840714
13.208428685388473
23.772403240030055
