AAD_Filtered_TADAS_FILE
AAD_BASELINE_CORRECTION: BASELINE REMOVED
AAD_FILTER_TYPE: BUTTERWORTH
AAD_FILTER_ORDER: 1
AAD_LOW_CUT_FREQUENCY_HZ: 0.025
AAD_HIGH_CUT_FREQUENCY_HZ: 40.0
EVENT_NAME: 202302060117
EVENT_ID: 13194
EVENT_DATE_YYYYMMDD: 2023/02/06
EVENT_TIME_HHMMSS: 01:17:32.00000
EVENT_LATITUDE_DEGREE: 37.288
EVENT_LONGITUDE_DEGREE: 37.043
EVENT_DEPTH_KM: 8.6
HYPOCENTER_REFERENCE: AFAD
MAGNITUDE_W: 7.7
MAGNITUDE_W_REFERENCE: AFAD
MAGNITUDE_L: 
MAGNITUDE_L_REFERENCE: 
FOCAL_MECHANISM: 
NETWORK: TK
STATION_CODE: 0122
STATION_NAME: 
STATION_LATITUDE_DEGREE: 37.4339
STATION_LONGITUDE_DEGREE: 35.82021
STATION_ELEVATION_M: 119.0
LOCATION: Kahramanmaras_Pazarck_Turkiye
SENSOR_DEPTH_M: 
VS30_M/S: 501
SITE_CLASSIFICATION_EC8: B
MORPHOLOGIC_CLASSIFICATION: 
EPICENTRAL_DISTANCE_KM: 109.28
EARTHQUAKE_BACKAZIMUTH_DEGREE: 
DATE_TIME_FIRST_SAMPLE_YYYYMMDD_HHMMSS: 2023/02/06 01:17:30.8869570
DATE_TIME_FIRST_SAMPLE_PRECISION: millisecond
SAMPLING_INTERVAL_S: 0.01
NDATA: 12501
DURATION_S: 
STREAM: HNZ
UNITS: cm/s^2
INSTRUMENT: sensor = CMG-5T/GURALP | digitizer = 
INSTRUMENT_ANALOG/DIGITAL: 
INSTRUMENTAL_FREQUENCY_HZ: 
INSTRUMENTAL_DAMPING: 
FULL_SCALE_G: 
N_BIT_DIGITAL_CONVERTER: 
PGA_CM/S^2: 33.208
TIME_PGA_S: 
BASELINE_CORRECTION: BASELINE REMOVED
FILTER_TYPE: BUTTERWORTH
FILTER_ORDER: 
LOW_CUT_FREQUENCY_HZ: 
HIGH_CUT_FREQUENCY_HZ: 
LATE/NORMAL_TRIGGERED: 
DATABASE_VERSION: 
HEADER_FORMAT: DYNA 1.2
DATA_TYPE: Acceleration
PROCESSING: Automatic Paolucci et al., 2011
DATA_TIMESTAMP_YYYYMMDD_HHMMSS: 
DATA_LICENSE: U (unknown license)
DATA_CITATION: Turkish Accelerometric Archive v 1.0 - Disaster And Emergency Management Presidency, Earthquake Department
DATA_CREATOR: AFAD
ORIGINAL_DATA_MEDIATOR_CITATION: : AFAD - Disaster And Emergency Management Presidency
ORIGINAL_DATA_MEDIATOR: AFAD PROCESS SERVICE
ORIGINAL_DATA_CREATOR_CITATION: AFAD PROCESS SERVICE
ORIGINAL_DATA_CREATOR: network: TK
USER1: GuestUser
USER2: 
USER3: 
USER4: 
[...]
15.808344438185252
21.351956019243218
25.612223779962058
28.456763235671623
29.38697813366706
27.792755972572266
23.82350583725284
18.571821459838723
13.56900649348999
10.686938324355518
10.631395591812714
11.17072828555942
10.089050366035114
7.024628571697292
3.140537327302537
0.17437635277546937
-0.711755998312726
-0.1815288057155847
-0.24813104801423622
-0.5975908838805712
-0.2099389797337237
-0.06004869098142807
-2.3464074525320697
-7.611896266317788
-13.705617807364405
-18.006816164578336
-19.030272461430407
-17.72855436511762
-15.77219811342651
-13.24402609096604
-10.139995453631204
-7.22502346592177
-5.443893503746605
-6.1859050835279135
-8.956173144740205
-11.263620929938869
-11.271018093641288
-9.301524832331042
-7.285291603195004
-6.386619526610506
-6.867391802903769
-8.34423084432988
-9.942655850894663
-10.968536491026178
-11.59311655199104
-11.84781467785924
-10.883333464741195
-7.981374522605879
-3.6838257108775636
-0.11454984094890129
1.715728186925203
2.751459536555399
4.34700506816276
7.1048688573742655
9.242195435899358
8.718214774304302
6.181260464308569
3.435634552679197
1.2398156805471676
-0.6505247167150944
-3.4855106782631733
-8.467330587744712
-13.405040459435122
-14.396160965044759
-10.695432229743822
-5.5925671303567395
-2.440128183552055
-2.586407557851558
-5.096666739673946
-7.517391832096128
-9.223315022430553
-10.569588887298975
-11.605891883948233
-11.673115922726724
-9.639469135333583
-5.492803399113662
-1.0147217553671581
1.3979656371226035
1.1118551309152087
-0.10411248555509536
-0.5481116660390191
0.14823268070493328
1.092532764612453
0.6955273645088107
-1.1119321735880852
-3.4628114229196174
-5.022873299012679
-4.823823948470365
-4.323850949574027
-4.553035399160392
-5.198739058985613
-5.622471959163519
-5.016574925550171
-3.5120408413757427
-2.4446508559426197
-2.48308185848036
-1.9166845179841137
0.9113981412346646
5.480257454148507
9.242741942974252
10.748535859691225
9.961779297070148
6.450476620579012
1.6042095862384964
-2.0817336956444388
-4.658929185965884
-6.824363764741384
-7.981828459166629
-7.801832899431023
-6.7020366328316845
-5.8584445123389735
-5.657916658262841
-6.854682568027167
-11.286235355575485
-18.19826190110215
-24.000071980292276
-25.49072252053416
-22.813329781067626
-18.71390317941243
-15.879164955325688
-14.673765426517686
-13.451949632256751
-11.863341063081709
-10.732904480560618
-11.094018563769884
-13.078094113250925
-15.167613742403349
-14.616125055755642
-9.904532970594566
-3.2270608152680387
1.9446952153899228
4.8037107315456264
7.515093865421755
11.302569869098473
15.816550126372286
19.055064685390533
19.813374927912363
19.819234712358664
19.57068475016532
18.73299175500824
17.627857511634172
15.727589357438765
12.975891142993708
10.436974347258973
9.246900837065152
10.013073139126654
12.23664595377235
15.227188234267338
17.70305910997606
18.59019538775181
19.26290137214871
21.454168527415895
24.67612017705004
27.0676102039076
27.387704567332026
25.81473527415608
23.60485483454433
22.141080217126753
22.092717502824332
22.294171175873437
21.748558946465973
20.984071764805694
19.330189452608316
16.127982059339878
12.397613848106955
9.077260998633225
5.962154873254028
3.146084552031632
1.9836220286990045
2.6967803864318847
3.573259939011625
3.090517664558632
0.366277391396164
-4.661027538428029
-9.919783396244288
-13.221522306466353
-14.463431857346558
-14.454810328268145
-14.649896934796663
-15.880214879405555
-17.595752617552968
-18.435011040870833
-17.309452305600725
-14.555499110441168
-10.143688165361258
-3.651559951558192
3.57735696923563
10.078559845097349
14.951575118522062
16.123807291643622
13.272046071002768
9.987808595217599
9.15662952192605
10.304850325640025
11.387859477954239
10.762098170946025
8.366692671029126
6.045655202965982
4.415844134750175
0.9259868023908915
-4.900149674093568
-10.56609169371553
-13.818674947471258
-14.029161480114405
-12.16203563859793
-9.148523053561714
-5.780286447729155
-2.294345845894939
2.1705945372977666
7.817665817102474
13.410352183570028
16.697216704500228
16.61958357550749
14.869004441485934
13.384586899012483
11.613817714074463
8.945992834525855
6.687445895481062
5.571922569341837
4.996360633599083
2.9365717158030207
-1.1212029698128583
-4.0774075683090985
-4.017619143749043
-2.45854516322363
-2.202597983383058
-3.822151573650531
-4.595249485456788
-2.127000169924953
2.2936886765628635
5.015069753144562
4.070773893158394
0.866966266869634
-1.6797348614264647
-2.816922181856392
-3.981624673945881
-5.2766971416699615
-6.064973277347612
-7.252286717747325
-9.62008003750628
-12.227969031590087
-14.111196774927691
-15.754702436047053
-15.97326551500825
-13.012353423682665
-8.450931514343264
-4.372427853021947
-0.3882379663873451
4.23233150853032
9.314325164929498
14.638803826890813
19.57647422243518
21.74015528593093
20.28326123790111
17.065366866441476
13.134239469965676
9.920641647804716
9.286336988479203
12.075470804801919
16.729845152010792
20.804899992046906
22.332824522720447
19.886282413315538
15.157223583907061
10.303355391643672
6.963172172418647
6.310793746711583
7.409335540481858
8.049831290192259
6.817645880093747
4.321525356844609
2.1391681672259035
1.562736310671486
2.377120563848906
3.5380385218178785
4.676468610745454
6.161749870612993
7.509758476567539
7.0667237877166365
4.440769337615788
0.5562021091686745
-3.846489039659929
-7.1770442194294075
-7.366331326853498
-4.6516584852379586
-1.592351819567825
0.6439495646321581
2.4346386929581674
4.386576790433263
7.305167983149948
10.854692331765122
14.271609111863828
17.77891460528376
21.13854081107405
23.18327440866535
23.140588453778456
22.309762281286098
22.724770220422126
24.250769974776247
24.746346466171733
21.83232956725065
15.619938990227704
9.703539986400754
6.476310780686579
4.8158984079967615
2.7976025892955136
1.3042017038346794
2.1488216656799994
3.9270211275785427
5.126685452002545
4.939216775785239
3.36681161434235
1.221681205118467
-0.9856816456994636
-2.0328967255305894
-0.9619533939943802
1.4308378134947437
2.827350397609757
1.3554202572059957
-2.65870001558694
-6.6758965970951945
-8.42709047877117
-8.251660479108757
-7.438040888237543
-7.244154233292479
-7.939178031049781
-7.915836017997135
-6.245443649855779
-3.777776707443295
-2.961729697739802
-5.459464351978564
-9.687904159488856
-13.953791711460061
-16.531990557661096
-16.47127538985328
-14.872803067401282
-13.104434824632133
-12.560275462234973
-12.560506901472932
-12.286112714284666
-12.594384787324463
-13.504628431865937
-14.393445068786875
-14.677417987150973
-14.112503739948616
-12.814716709267442
-10.753904051208647
-7.574592049792387
-3.316529382732261
1.3045377914740106
5.876435637102678
10.047745255689843
12.36349564276422
11.733992010196012
8.721843213841629
4.559232238371306
1.7969019968895632
2.2540584665038694
4.004295971888253
4.485580160311222
3.905428532911396
3.6143242703643015
4.573488792231266
6.595246854220337
7.876173013706865
6.373181284820474
2.4127444573723835
-1.6730980143402765
-4.954052285439174
-7.652267962163891
-8.713525638337483
-7.809364183089145
-7.787803656794859
-10.782637233378413
-15.924876834511526
-21.020856881975767
-24.309070952397512
-25.171036466092932
-23.41566518672054
-20.091429720686797
-16.327149426504608
-12.0552678894719
-8.0612562637302
-5.661708621214326
-5.754112448007927
-8.301262465714418
-10.942313655127661
-10.774905377608674
-8.921603022979198
-7.719326525678047
-6.743317477756834
-5.276026212288177
-3.268513715795991
-1.0158126621689783
1.2579280448997554
4.04862751015452
7.433342546134128
10.091473680030761
10.512868662528492
8.366257488706863
4.891790572365093
1.794744510068452
-0.22980857120884504
-1.6233939386715481
-2.2479965035194223
-2.093807644062341
-1.6521602462290135
-1.6300577905271434
-2.8806799401736565
-5.3550330697329995
-7.847126412426894
-8.192594265219638
-5.986513265739111
-2.979120754293803
0.3561679740943174
4.2509455490033945
7.6496439872753434
9.722252325792766
10.619965342389095
11.088334749291818
12.0186442376769
13.480231765907684
14.530175288084742
14.309811041177385
12.605255713431989
10.353626206081906
8.211061908313106
5.705628006176101
2.7920648466295446
0.30587923730996935
-0.9653622529133989
-1.7395016285622598
-2.8222667867684725
-3.943409399323688
-4.871842791441403
-5.104266315592442
-4.202826000406793
-3.017844182500847
-2.6252858153148586
-2.6907533463283184
-2.6594239800637087
-2.2044764657536167
-1.152537646470315
0.17589694571720757
1.401976460043889
1.8025894413477452
1.183322634530933
0.7891822394203881
1.6689418831331742
3.158587814492004
4.5223399179533
5.15901637566518
4.261912648646496
2.4664510580079564
1.1855697661092668
0.9159411929890307
0.5610039802074509
-0.7606015994807203
-2.6306641459178484
-5.067844692561577
-7.320267809770354
-8.48554793747434
-8.484717106714534
-7.715816650404365
-7.152528787040227
-7.810376841867501
-9.645664494568315
-11.143738531776451
-11.555618613052276
-11.11197250413702
-9.90699735986447
-8.618386302105893
-7.508931782327718
-5.773761108766855
-2.758064492643837
0.9071414657828705
3.654969124611454
4.482696392979065
3.648745949976849
2.601122830877989
1.5076610870654958
-0.3383989479202515
-2.2973837396120014
-3.784717704260851
-5.276232377371345
-6.750749144492234
-7.886633144034426
-8.476127309835015
-8.884446251197529
-10.046851955122373
-11.760228819210116
-12.96139993109224
-12.876998898740537
-11.747854905582548
-10.416317505062304
-9.188642258256133
-7.546576353821548
-5.055504622651024
-2.3874692136321785
-0.5908007202591713
-0.562128762054975
-2.1833522877616196
-4.808760705027101
-8.230554714191713
-11.583276471562167
-14.132184891520277
-15.00264329654464
-13.564751461194996
-10.501891444792042
-6.849215794592509
-3.872826716109137
-3.0311115950682432
-4.887191340081997
-8.413916028749956
-11.939319348956626
-14.785491764608718
-17.394650956967368
-19.1880954742771
-19.8945004059862
-20.167259962335653
-20.007819789024705
-19.752366661555058
-19.95912972413934
-20.36974937212729
-19.64906327082346
-16.80688927754785
-11.745805352157467
-5.391283411907885
0.7367170303022834
6.060463745586309
10.80838322204162
14.75675092955829
16.921622563018275
16.90809589836523
15.537514109163236
13.95462952720729
12.535459705228188
11.297870305516538
10.445761284413274
9.775460535870057
8.76933246327762
6.596481407599248
3.847326649858767
2.123275786314966
1.1284971621520787
-0.23034935256783523
-1.8902613686542862
-3.3904253870293357
-4.970242291618429
-6.64332195291911
-9.117194407356719
-12.945676997857726
-16.691574973005306
-18.942177141824484
-19.40288239724123
-18.57054542549212
-16.646791921445082
-13.664997687478465
-9.735642225362028
-5.831207413987078
-3.9007805203042536
-4.417522567268601
-7.260204766316862
-10.709370653096112
-11.780232814395458
-10.259894781155433
-7.463907435789787
-4.525784164416339
-3.03538187770699
-3.7321018065750127
-5.60632734737518
-7.146910834259581
-7.4172660192453055
-6.782343364714097
-5.775343292164775
-4.961670741313582
-5.368582397042629
-7.3734929058561285
-11.589005427255799
-17.61234233007976
-23.435953378050236
-27.08403480018519
-27.28818231251268
-24.070211838868296
-18.299042008953705
-11.800910178436581
-6.565682920072004
-3.5568579967141885
-3.5022614749465353
-5.8897171000585296
-8.08439937841933
-8.574879238492137
-8.46773803788608
-8.744609009353749
-8.879016372543848
-8.7062843885875
-8.603899794575378
-9.337144643437963
-11.39465199189577
-13.659301868594104
-14.600519145937305
-13.374775074359874
-10.818851449224871
-9.01591189228175
-8.102008599070745
-6.944187107343212
-5.157075703946288
-2.7784501211380186
-1.1422201676115138
-0.9338010459711498
-1.3640676796080362
-1.706580078487244
-1.2653644594343232
-0.36392384256104654
0.35875913150219824
0.8840256325253989
1.3933536352776217
1.8795146090186143
2.136765560422243
1.5573289371284484
0.3568937711454411
-0.20501726415720958
0.3131606927823889
2.258517544032405
5.752065182503668
9.323646745210883
10.769353580374121
10.039478266269308
9.593111015528068
10.743733502446778
11.94548710292288
11.636552554920799
9.036558702187842
3.2877402231297443
-4.124783859638963
-10.542331554189404
-15.144967459025484
-18.50625999720785
-21.538613715229012
-23.61567501814245
-24.29525705056342
-24.45515234710283
-24.598008305489223
-24.026138656564065
-22.22314965034886
-19.521843611762215
-16.666930441720766
-15.163840997510455
-15.034627697719612
-14.935774121165647
-14.028428485790556
-13.092023975743993
-12.731047242936523
-11.907517106737775
-10.170541536609889
-6.367085799839612
0.281792541229974
8.05773715851076
15.575281968036368
21.99270244603669
27.087590979686595
31.514407101941423
34.17968208629334
32.76944226556401
27.587097447878385
21.310743496256197
16.5657356359292
13.440236905930888
10.442674484154026
7.596876400530169
5.501039967886812
3.908821663823251
1.8212807580078647
-1.1504343721750356
-4.084910537086891
-5.236061666429763
-3.6980430082382996
-1.1343461899494798
1.1394925563519247
3.1016513869074296
4.258027232747567
5.128446092279704
6.902731306625063
9.219125854002165
10.321083988224382
9.940573499851451
9.8976331492006
10.81995116866858
11.169859652457633
9.793913103700415
8.047964441180428
7.272321759715453
7.24664099026627
7.718192394968799
7.877851929564413
8.048617663100622
9.097060871831475
10.022726484542323
10.200809134697728
9.990492377832513
9.672604415244487
9.326631058302201
9.342992868313397
10.212563309836204
10.400731700579755
8.393940191903809
5.5595300365126175
3.657912199549313
2.574578205253125
2.4794296902274375
3.003275753681981
3.4089894158126195
5.2590493975030235
8.321770699003888
10.609729655937578
10.080090238708992
6.218675381895693
2.214915250969076
0.09006474223428605
-1.2264091877854217
-2.629001779190534
-4.986496700486594
-8.378750707450521
-11.292939250400607
-12.737977491035066
-11.597564007890146
-8.519683934462364
-6.0053212148910635
-4.917678865248248
-4.241925921819238
-2.8122047434015967
-0.7236528515792281
0.8733496008614913
1.9510987009982366
2.2259820382422393
0.805884096253203
-1.0863119830501686
-2.7763323656744405
-5.040541363440217
-7.348212224767454
-8.748524658725453
-9.519161403910443
-9.590145010147754
-8.270000949128674
-6.400136399512112
-6.04152290293717
-6.584857108358703
-5.775380893071415
-4.669282182495722
-4.776336616395318
-5.042979474584442
-4.165928139772016
-2.764083425234768
-2.010721619462311
-1.7638106356832823
-2.6747427657672915
-3.245338512019369
-1.1802227862627162
0.7624728708220907
0.2622032232135338
-1.7174474741066554
-4.096624293256482
-5.875890418496877
-7.421735916693351
-8.477366069585793
-8.566814570334989
-7.984937112862797
-5.526650134574263
-2.1027385621655044
0.6132690542076427
2.4353597157888864
3.7742100143877786
5.088000620535025
5.267697666247855
4.732109706534554
4.717042740847085
4.470823459213199
3.4664003913205628
2.510832954756525
2.6778872947339387
4.237769089358494
6.189204055839027
6.393694173983445
4.880485532480835
3.977236164961956
5.02061114875306
7.702318875368495
10.981010941978388
13.738131928424615
15.397555291899723
16.27803004809083
16.25306950131834
15.483035652760938
15.508480994807702
17.057966581051865
19.502562729175946
21.786824109436427
22.953210541247074
22.591567277112947
20.23392352478356
16.012339316790076
11.352566340128098
8.036141298275535
6.915942224710545
7.753644620701813
8.689610379970585
8.403295357471613
7.598714921317094
7.723997137290291
9.712107762022011
12.868796981220925
15.216237811213064
15.520044732915832
14.405150995045508
12.137481244900222
7.719535266592544
1.9081431299973421
-3.279924346312131
-7.974462664789376
-13.04192936373434
-18.04746784836517
-20.917772672421528
-20.43861121310089
-17.514619097210776
-14.008816057703994
-12.468932093790285
-12.850054120520062
-12.542690256925013
-10.844344923516875
-7.920626619512508
-4.287588655893704
-1.6352918526123084
-0.5290823284201245
-0.2117792620612321
-0.5078901950920431
-2.0606796173725144
-3.924440335429619
-3.6137148720765735
-1.1370692806303075
1.9694043296675412
4.8813014528533305
6.529092800751087
6.85490831023711
6.7104721255120205
6.813650986310153
7.53564949402878
8.631766362215519
8.873836262065106
7.548315577183923
6.300801573786561
5.846581812784205
4.756888043387407
2.0095979622348725
-1.147534327880174
-2.6002726932532436
-2.7077293565187635
-2.1717356490134523
-1.241917434844754
-0.28982564881902173
1.7988127002444698
5.005447560177684
6.847581770622659
6.839940695375943
6.913170972766323
7.651149551899914
9.204389451029167
11.346306579408596
12.608594651033602
12.577820005430027
10.344517754332513
5.814276999177811
1.26959410868981
-1.3386918550849491
-1.4938623037391314
-0.6597305091485632
-0.1276065036499471
0.07603598751661654
0.2389850939655104
1.5391036843816193
4.244886039476704
5.974359626873652
5.546510689684235
4.31079420688217
3.4920409416431926
3.2022570348174355
3.1705537577133382
3.2817229503190672
3.143521529077451
2.6844354511503585
2.2296810255230226
2.368212586294296
2.601227787088407
1.1830500287989854
-1.594005976553594
-3.3570129123210717
-2.930798229035408
-1.8060876034605364
-1.5673717599682677
-2.099027831214358
-2.4217512170518267
-2.5665538340416054
-3.1070774444418903
-3.911097660063561
-5.315326798049325
-7.030547100639387
-7.990866439259678
-7.937712759353374
-7.0547632489807315
-5.676671070611431
-4.8794352401578935
-5.631819463622314
-7.4902367531600875
-8.912649718989403
-8.902521270328927
-7.3445604791282495
-3.813608496684019
1.1204917729873793
5.23101634644724
7.96689117593968
9.758492912988867
10.043690513589313
8.807320984255634
7.443963329388773
6.901778379481174
5.83435605645125
3.8677060303860133
1.5423659167552874
-1.1611249149182614
-3.4512562829771483
-4.768930162144441
-5.182920215583669
-4.430712210172914
-2.4753227434448783
0.32963476040745515
3.6937388468997825
7.072585455414159
9.517941171363871
9.268925622848197
5.91313738715718
1.6887073557255925
-1.201229491046634
-1.7669970237741353
-1.29884862388334
-1.4236398529574836
-1.317824094329141
-0.7260019458950911
0.1959038731446754
1.9179945925532573
3.9183699111700165
5.35230807924449
