AAD_Filtered_TADAS_FILE
AAD_BASELINE_CORRECTION: BASELINE REMOVED
AAD_FILTER_TYPE: BUTTERWORTH
AAD_FILTER_ORDER: 1
AAD_LOW_CUT_FREQUENCY_HZ: 0.025
AAD_HIGH_CUT_FREQUENCY_HZ: 40.0
EVENT_NAME: 202302061024
EVENT_ID: 13207
EVENT_DATE_YYYYMMDD: 2023/02/06
EVENT_TIME_HHMMSS: 10:24:47.00000
EVENT_LATITUDE_DEGREE: 38.089
EVENT_LONGITUDE_DEGREE: 37.239
EVENT_DEPTH_KM: 7.0
HYPOCENTER_REFERENCE: AFAD
MAGNITUDE_W: 7.6
MAGNITUDE_W_REFERENCE: AFAD
MAGNITUDE_L: 
MAGNITUDE_L_REFERENCE: 
FOCAL_MECHANISM: 
NETWORK: TK
STATION_CODE: 0139
STATION_NAME: 
STATION_LATITUDE_DEGREE: 37.400943
STATION_LONGITUDE_DEGREE: 35.445322
STATION_ELEVATION_M: 238.0
LOCATION: Kahramanmaras_Elbistan_Turkiye
SENSOR_DEPTH_M: 
VS30_M/S: None
SITE_CLASSIFICATION_EC8: unknown
MORPHOLOGIC_CLASSIFICATION: 
EPICENTRAL_DISTANCE_KM: 175.29
EARTHQUAKE_BACKAZIMUTH_DEGREE: 
DATE_TIME_FIRST_SAMPLE_YYYYMMDD_HHMMSS: 2023/02/06 10:24:57.2284120
DATE_TIME_FIRST_SAMPLE_PRECISION: millisecond
SAMPLING_INTERVAL_S: 0.01
NDATA: 13501
DURATION_S: 
STREAM: HNN
UNITS: cm/s^2
INSTRUMENT: sensor = GMS+/GEOSIG | digitizer = 
INSTRUMENT_ANALOG/DIGITAL: 
INSTRUMENTAL_FREQUENCY_HZ: 
INSTRUMENTAL_DAMPING: 
FULL_SCALE_G: 
N_BIT_DIGITAL_CONVERTER: 
PGA_CM/S^2: 34.062
TIME_PGA_S: 
BASELINE_CORRECTION: BASELINE REMOVED
FILTER_TYPE: BUTTERWORTH
FILTER_ORDER: 
LOW_CUT_FREQUENCY_HZ: 
HIGH_CUT_FREQUENCY_HZ: 
LATE/NORMAL_TRIGGERED: 
DATABASE_VERSION: 
HEADER_FORMAT: DYNA 1.2
DATA_TYPE: Acceleration
PROCESSING: Automatic Paolucci et al., 2011
DATA_TIMESTAMP_YYYYMMDD_HHMMSS: 
DATA_LICENSE: U (unknown license)
DATA_CITATION: Turkish Accelerometric Archive v 1.0 - Disaster And Emergency Management Presidency, Earthquake Department
DATA_CREATOR: AFAD
ORIGINAL_DATA_MEDIATOR_CITATION: : AFAD - Disaster And Emergency Management Presidency
ORIGINAL_DATA_MEDIATOR: AFAD PROCESS SERVICE
ORIGINAL_DATA_CREATOR_CITATION: AFAD PROCESS SERVICE
ORIGINAL_DATA_CREATOR: network: TK
USER1: GuestUser
USER2: 
USER3: 
USER4: 
[...]
-1.0180040399410142
-1.0393672810254013
-0.8730164017307932
-0.37694907381637044
0.39641325386301285
1.2030729316193967
1.8329643245661538
2.239328229576198
2.50055048089995
2.7128956534104796
2.944303618445557
3.2187633024958466
3.377609168476166
3.143831272836697
2.392758228906447
1.2405469446197013
-0.06545977474903264
-1.2836948008547584
-2.2534976444190633
-3.024830933586405
-3.7925947825332207
-4.5580022554326955
-5.107070869688281
-5.253856396825712
-4.9484880663463775
-4.269126404832971
-3.378722389482374
-2.421409681654484
-1.39399896584397
-0.22676232622077666
1.0235447405278022
2.216691832755416
3.2652242642627103
4.0862082886711315
4.5824609305404485
4.757149618755722
4.713466522176675
4.536213898919104
4.2685992888612185
3.9925142932156126
3.8414985918052333
3.9466123004354605
4.345620777595011
4.948280815790282
5.581534670501486
6.021388371387297
6.096144897708882
5.783084505933723
5.19891783552946
4.500855692433589
3.768710618864008
2.9997917981437072
2.2086828096360964
1.4855958806751877
0.9006818093244273
0.444977107330994
0.08296046255740118
-0.24629151854585718
-0.6204237329124211
-1.067834279475493
-1.5288419814226528
-1.9158121976617157
-2.177086573539789
-2.278492725946976
-2.180966944124439
-1.8550786879496843
-1.3533665302350575
-0.787859210173855
-0.2057794846454157
0.37746450032967616
0.8911364816896735
1.2690960652327903
1.5247263038475605
1.6744350935091805
1.6781922482736489
1.5016427039244704
1.1274173090643724
0.6077262584925074
0.09231321258874715
-0.2857231824505769
-0.5044611489997781
-0.6800553603522905
-0.9183196438679195
-1.1717608478511155
-1.3022617031878534
-1.1967601227052702
-0.8982248106761566
-0.6295937709987383
-0.602086711652578
-0.7747283712389712
-0.896708752559548
-0.8227567285626838
-0.6428875802464618
-0.5388599518769637
-0.6143901503446174
-0.8390374195781574
-1.0854842403562228
-1.2007412225516367
-1.0979426814668918
-0.8100238041310739
-0.47996853466625783
-0.20602027901884915
0.11501177967313748
0.6156990255387136
1.237800079719066
1.791980400708272
2.086072805174075
2.037179193708919
1.737251409509404
1.353105561214781
0.9805648428336707
0.5892898744657324
0.08032898389730103
-0.5987815638899602
-1.3745214716542669
-2.0681296128183133
-2.5081547338178076
-2.612903026691889
-2.446854999566304
-2.2063213642671595
-2.015404950503711
-1.813227630807822
-1.500087310527745
-1.0528860436866916
-0.5273802306017802
-0.03529996433753999
0.29587872534173726
0.39107556400293175
0.27805709220224967
0.04018410895489247
-0.22023480640352702
-0.38569054020041665
-0.35314811476461866
-0.05105581858601341
0.52000477877573
1.245657866842488
1.9291825312677475
2.4326577556937963
2.7837386042897676
3.0766818448957842
3.330702212341133
3.484394357526715
3.4765452464736746
3.2681314330254008
2.8528248478567604
2.308200925041088
1.7452035484070048
1.2301118283795804
0.7980756510238644
0.5009717325123473
0.37930510653093513
0.38933329429907493
0.4301373557360932
0.4481401272572602
0.4888639655274037
0.6096339327344362
0.8230389412982094
1.1575302251827684
1.6385178321658687
2.222167384240632
2.8139449672883816
3.348068081485413
3.7944478405125373
4.111575356962412
4.259343125938679
4.160581317108603
3.6966054414605565
2.8784784467818874
1.9396705853501715
1.1608585341714608
0.6409085437469664
0.30835577979577167
0.06605845093299145
-0.14945849664720803
-0.3418348043676696
-0.44814395244962263
-0.39674422578722907
-0.19995076683429075
0.019034342388820208
0.1333428454500435
0.09723139369702984
-0.0739103885192803
-0.29785032404627154
-0.45502632350970773
-0.4988298620796017
-0.4689077518641894
-0.36839347057247335
-0.14178132188255274
0.1747608947445772
0.4442317824643925
0.5747674022270784
0.5628621701957297
0.4604037933332462
0.37053713880062283
0.4235869027961121
0.6281777330027999
0.8220325511245052
0.8572822309883135
0.7109453534193182
0.4413781159160228
0.10658360037944116
-0.2643916165313165
-0.6405801832691711
-0.9887333286482969
-1.2319743793648714
-1.2092050833162473
-0.7984242421815416
-0.07689678152425396
0.7104161814653762
1.3160452182510678
1.6162554271994292
1.682336680250282
1.6896112871089797
1.7124707886251542
1.6854208441824416
1.5184469954289628
1.215726005364037
0.8726400362859211
0.5430567155818117
0.1587957587510106
-0.3850413600132339
-1.0733321110949499
-1.757852111361575
-2.2767093465341905
-2.55235152089689
-2.6322386635986224
-2.6010509873375782
-2.4336235720808523
-2.0106233359942696
-1.284990635865591
-0.35720166593780545
0.6358521623870504
1.5849382552430662
2.4099254625511692
3.1340281493763777
3.841688625706711
4.540161948307981
5.1507375264656865
5.611569748596433
5.924878118392018
6.0830257923448565
6.060481865008735
5.902790594358087
5.697619987115013
5.454382102310294
5.064142424660462
4.436871394948757
3.6302787080545382
2.7471099916525556
1.8706872410742903
1.1108644497284534
0.5641334544354876
0.21363971546003555
-0.08044085176492659
-0.4426788424849044
-0.9694470092399807
-1.7312583759450115
-2.6115601589448465
-3.36015849073051
-3.8318563621578527
-4.034138122948784
-4.03613666549852
-3.966775414557266
-3.9769733070159545
-4.121070597835098
-4.321936112056917
-4.433500034291328
-4.352348118319484
-4.015141961444208
-3.3912146147795394
-2.54837254006818
-1.5639433222567243
-0.45125318843800266
0.760901899541464
1.9515403415341168
2.978659694690823
3.8331563629968004
4.557297428677848
5.100897399266734
5.407810038795389
5.517337414373799
5.5241902371660565
5.473908636876086
5.327794764850329
5.040705429499646
4.626133789950334
4.102600415713138
3.4687827840649574
2.795758775141952
2.2104941098535877
1.7598970657517812
1.4033342367990296
1.1461601944448823
1.045176292182032
1.0805309795089897
1.2043921221422311
1.4157949095256315
1.665059006459009
1.8123816118523002
1.7151389180080925
1.3615999188941708
0.9031331073119818
0.5306583446383
0.3532016112655127
0.3730487755578365
0.49373709708807384
0.5516902499357579
0.40961799948036054
0.04141153846044459
-0.42841115653978384
-0.7937177436001627
-0.9197584081215548
-0.8037172997276775
-0.5069678670903678
-0.08611429014464504
0.3795700015516519
0.7788343624303288
1.0706399699718558
1.3535052237819474
1.7517334068019772
2.285503268075252
2.8627219133217423
3.299111481117337
3.4001075980636797
3.0894978882201967
2.428371073621121
1.4674145313086582
0.20527069715643056
-1.2823984696158313
-2.828783141458918
-4.265032552341586
-5.479773155208972
-6.407903621151354
-7.0839933656972
-7.647808982202698
-8.16510571394984
-8.569833210004456
-8.7318512753718
-8.533737491941707
-7.924179179676832
-6.9739399278675265
-5.887861582919552
-4.840127374962893
-3.890390966792804
-3.063337183605476
-2.416462902502919
-1.9782951029403868
-1.659963586380882
-1.3339561037575665
-0.9291567573942523
-0.4476282976971057
0.05545878823316692
0.4911361786113995
0.8105629793624765
1.0825461149503652
1.3725248813815798
1.6675556634119681
1.9996804276409037
2.4418635908015913
2.9367533726934045
3.2851268707476415
3.369392030007498
3.238610139699315
2.9537691180341357
2.527325209650787
1.9748335575291427
1.2959310805997646
0.46465060488610466
-0.4562608908093621
-1.2937486916121144
-1.9516418393731108
-2.5065060679665145
-3.095598017880915
-3.7738483326654473
-4.4208252170224815
-4.803161693239721
-4.760561699284561
-4.251325370082241
-3.410427425624438
-2.547972946940221
-1.8717313482149527
-1.416479874039931
-1.136382647816364
-0.951271273209146
-0.8705363849845801
-0.9632182183001966
-1.241016467566905
-1.5876231306808826
-1.7963347592311187
-1.7666671440658386
-1.5471504474040363
-1.2160286691869224
-0.8376217963419237
-0.4153846011287377
0.1510869724027894
0.9234446726737249
1.7877537806416848
2.586403288592246
3.295069948843307
3.9900161530508287
4.701264880953476
5.33376469668284
5.753623370056264
5.905603512052356
5.860165453783774
5.822355653583887
5.99295300462903
6.443743187045442
7.116983022125367
7.8414597260055725
8.45038396729413
8.853683624606246
9.047099976958279
9.145173802676007
9.300513081162194
9.617595247358418
10.107760591906695
10.673330126617559
11.175505194236754
11.502409630931208
11.595945919779744
11.478373546697926
11.253692363315347
10.97820823554274
10.583631649129762
9.977029081743533
9.090560999116038
7.872589939118589
6.317637121761277
4.5043295745073095
2.571204192601355
0.6471633948442621
-1.16682199871792
-2.800880763467609
-4.202604380547722
-5.334535532264156
-6.1910880767944185
-6.735001607229003
-6.913663528175446
-6.764884399853925
-6.402860909794591
-5.93186713747262
-5.40278346833268
-4.853355287037658
-4.390225980891056
-4.1737044008465425
-4.300375313763528
-4.7692905796949105
-5.538388262561617
-6.577209018604147
-7.8819878962343095
-9.430105618768126
-11.150195974039072
-12.916496444456774
-14.601424330893625
-16.15895905733446
-17.57773299651259
-18.856605867754315
-19.992570716549817
-20.884825168067508
-21.378302211415832
-21.346876967673214
-20.689387223489597
-19.34296479130906
-17.30947223903242
-14.701665342393083
-11.743359220935314
-8.64642679136152
-5.519763578231708
-2.386043475523618
0.7158915900264752
3.649121233787367
6.255802354407765
8.400665853288274
9.950411581784886
10.863927109839688
11.207124751866973
11.017002351868003
10.260530894839206
8.96113964524743
7.2874798078693095
5.439954785321215
3.5365117859390964
1.638389338329317
-0.2501022581737758
-2.1838845337693025
-4.17704641789283
-6.038691272660094
-7.424572595780368
-8.171520346245593
-8.38989071809354
-8.239952560570046
-7.792337988650159
-7.073553055877139
-6.113474653795416
-4.920797902268825
-3.547493064798608
-2.1589874971245853
-0.9311974512348581
0.1030625100912674
1.0242261316419174
1.9080430796883543
2.839322555929397
3.8880746041501335
4.997453237403692
6.012239639991602
6.8491630458374715
7.546093036920187
8.13328240614864
8.615983922604057
9.051534694519114
9.48181608109896
9.858503361157826
10.138114107381536
10.389034367210828
10.709987659009201
11.102721902021054
11.50641740435411
11.884576562950006
12.218200384879177
12.430453290184897
12.429812251687753
12.192395551010511
11.69975558005293
10.917793836475381
9.827504852810252
8.454763497303581
6.867609622850664
5.075643178450711
3.1083652582374053
1.1118564415430245
-0.7919719395751337
-2.5607068470221295
-4.14609161961676
-5.46866814331757
-6.5073557082150355
-7.307836537518821
-7.892312553481543
-8.308197795311028
-8.636409164379064
-8.924176208619672
-9.213410881768665
-9.568418970846372
-10.068025730925603
-10.711577738884948
-11.378566467544406
-11.935459746392164
-12.3011223886229
-12.482784221495796
-12.546957201039207
-12.557474336856703
-12.607988324439804
-12.818694501783568
-13.241339822059857
-13.797380518848952
-14.374591995682557
-14.936142289318193
-15.418898961805242
-15.732890052471653
-15.956206828217969
-16.21961895434833
-16.462800474892894
-16.585789001608678
-16.616975578686606
-16.51098636996386
-16.141722530195942
-15.593919038493407
-15.067474879904102
-14.595487069091284
-14.054995154256039
-13.349984292015305
-12.563763655007177
-11.849507154168116
-11.2815865516173
-10.858474331620375
-10.485968288285472
-10.031788782560259
-9.38392180133092
-8.496532579907628
-7.443265618077713
-6.294826977904609
-4.960427052847964
-3.289175067047706
-1.2796408214571677
0.9939547252988494
3.475855955947619
6.044621541066774
8.543139821604388
10.82947958920032
12.800568153155556
14.41121010917792
15.655068049298078
16.54681576143948
17.077866074054803
17.190153172253893
16.812117041804807
16.003255414740746
14.930071317296434
13.707000299852812
12.496237352500836
11.465479356822511
10.575653060936741
9.672500634048617
8.667953954535395
7.60429668680606
6.572632826001768
5.632164948046625
4.837606431027318
4.17078023308877
3.541288651986065
2.926240305222149
2.404839586445729
2.0435670886739503
1.774925468040627
1.4770569682822516
1.1295116987317069
0.8017816481396718
0.5321530336836535
0.30591792891717734
0.1339784501540672
0.01458020452642693
-0.1332137708534018
-0.37378564087763966
-0.6183325673171323
-0.7476156183507475
-0.7935475041151677
-0.815923594369255
-0.8510093186262307
-0.9978932633810463
-1.3499327173285451
-1.7890203852122923
-2.038591577025134
-1.9734646899675965
-1.6076893398868057
-1.0759056869023063
-0.6141293145391162
-0.33298235850987046
-0.09877879701116066
0.3215629572213666
1.0112769597248545
1.916424842399451
2.8205745320071722
3.433105850177163
3.531791695702083
2.9590992419491604
1.746768264794709
0.02692896595899306
-2.0814471242510986
-4.522338290883356
-7.2719146389618405
-10.296302270589404
-13.599927695786498
-17.091903186288963
-20.553098501495594
-23.830511008896544
-26.871499340271562
-29.471602764122988
-31.49876117466025
-32.95036548020465
-33.67980380383616
-33.66518334567844
-32.98425521822874
-31.78402109358056
-30.11635396763503
-27.86546119629166
-25.190753976168995
-22.27197812338834
-19.132143508629554
-15.920347946699701
-12.925965425859085
-10.308745783274945
-8.028878426635684
-6.137157799512144
-4.828827057328602
-4.307698180671946
-4.57151731414906
-5.3922857219602776
-6.616589971155975
-8.232143840628714
-10.096729334012648
-11.933119289369369
-13.593552866108023
-14.956675104150483
-15.831560498268813
-16.140508445863098
-15.971594898134798
-15.445747755179434
-14.60675048992701
-13.485198266661294
-12.066005176537525
-10.301511573817141
-8.28848537472183
-6.154646765359866
-3.9977603696379385
-1.9141359618027385
0.15497747076571436
2.3839011125866723
4.83389016060004
7.272829378142967
9.410454872661438
11.21972927846763
12.693823992932218
13.783515612892073
14.63955743296198
15.39882091598274
16.005059345327652
16.335781109921083
16.27621755484675
15.916615225810622
15.52254485923412
15.23040561164686
15.08560426392971
15.054120465948955
14.948823149569568
14.61875979035322
14.026997847491867
13.150225690021145
12.004108406923182
10.67615077356795
9.14089824589815
7.284624633980298
5.175917294633974
2.9707489830564904
0.6149137962094315
-2.008070132034114
-4.7342920606316845
-7.388227830853982
-9.928621687264192
-12.181963950904501
-13.997934458837188
-15.393664165336023
-16.392787819112407
-16.883124206726073
-16.854937764938068
-16.4552860932291
-15.709603364050444
-14.653388721848405
-13.323991172942469
-11.702868019274515
-9.805235433282363
-7.703559723705009
-5.546239813674717
-3.541850910759112
-1.8966737499062654
-0.55002014420408
0.5949205327090525
1.457848879248143
2.0800731483273953
2.613970523672864
3.052014213260919
3.087115099855255
2.6107070531297736
1.7832530493847263
0.535152303683783
-1.1185599724544495
-2.883221580718274
-4.540646902883727
-6.166188312375942
-7.912050912547175
-9.565940943776726
-10.833192919279897
-11.640031035763897
-11.940421031140374
-11.828137535666382
-11.268617581565525
-10.180180818970847
-8.953989958332203
-7.786846697770673
-6.468416110009876
-5.017064391828697
-3.799764920017099
-3.013180887103629
-2.26825685882942
-1.3385432764197633
-0.5604548310884894
-0.028044847010020607
0.7095481798445035
1.8297108762427778
2.8522026423775566
3.518510687590455
3.9928804245497402
4.373676699821404
4.625205508095707
4.584490993370184
4.498122751006111
4.646588905720384
4.771485190379728
4.654727955266583
4.259275035525604
3.8397455528459665
3.2957120433322786
2.444595287139005
1.6805344253445267
0.8361982014890005
-0.1767269160104603
-1.0762420484199262
-1.9691872911839776
-2.959953219062981
-3.9425147960516873
-4.416901608057675
-4.261005030449536
-3.978485191233313
-3.7721959917627657
-3.259786750754091
-2.2212368690424555
-1.1517550100426717
-0.053121769176136154
1.4567879023754229
3.147994140609549
4.612895971596166
5.628449109775521
6.400841169656762
7.218839982160875
8.101053357631994
8.933041909399588
9.506062049481
10.539372058158284
11.722150192867387
11.630521988017401
11.512393833841541
11.596315127044688
11.663694689456232
12.196834075192465
11.375418452210688
10.268643632906121
10.019871185668086
9.246212832801955
7.658184898014602
5.710195828340677
4.839029094026808
4.025607069990989
2.012078548252032
0.8628496131660774
0.6078007192471213
-0.8398445525792386
-2.8951181003742152
-3.7932161851937574
-3.9672394605095787
-4.774560640635959
-5.747554720888905
-5.0042067104501085
-3.5736478415582273
-3.3839274346140797
-2.6853205436507332
-1.0731156796942933
-0.35078573131787605
-0.021329016484081923
1.6159319370516156
4.271635380504317
5.342926523665894
5.697544382964205
6.897971686512807
6.232361987437706
4.1300097964632805
3.894211442025082
4.616793450581589
3.1893533901686224
0.9355624716040054
-0.7868519017415877
-2.8138117568239784
-3.9320370016333595
-4.449141859901882
-5.8240318947122045
-8.095134964298357
-8.747319551434426
-8.596742806656449
-9.670237350724392
-7.923058491014331
-6.029519552414912
-7.418038660730613
-7.40323906254634
-5.474628915495409
-3.700907042026033
-2.8477758114678973
-2.3371350505835666
-1.3947055226311968
-0.55143478462463
0.16979997046288517
0.46096052666741577
1.5283575249515065
2.8615225105611133
2.8582340604965273
2.7365465831963887
2.34481628397255
2.5813741198310476
3.6942403705228437
3.101325518672297
2.0568640893666688
1.4555278204100923
2.0645133779509326
3.8632765085202037
3.4962258261883172
3.9735902210898257
5.316123969098684
5.457629458070384
6.188405311706365
8.241299247917535
12.092028890311528
10.8604555383397
6.7305585062369575
7.171305220264833
8.06129954776398
8.266156745580572
9.00508322523456
8.80840568781579
6.172670654831339
3.904374229288803
4.52411101505186
4.517990355911895
3.549135012513369
4.519139520253863
5.69077482110011
4.769339351812628
4.338443350017518
5.610620663457226
6.236681398701998
6.077511199101946
8.122790425192399
12.50728424182335
13.296704048917018
10.940244772225723
11.06969579211756
11.46706836072958
12.196711516299521
12.564029409034433
11.648748570486713
11.796605337944262
8.514409402612701
5.899801869093165
7.426263802502695
6.382188127993457
3.9411575282361078
2.604461762668418
2.1716002998962116
1.262497241223627
1.6310955558006228
3.8803429458860728
0.7838408504987765
0.0642278833756319
5.2472715333048034
3.2817001270532957
-1.15743525445894
0.8551048586673576
4.228162601730064
1.6512818226773815
-0.6115403990877025
