AAD_Filtered_TADAS_FILE
AAD_BASELINE_CORRECTION: BASELINE REMOVED
AAD_FILTER_TYPE: BUTTERWORTH
AAD_FILTER_ORDER: 1
AAD_LOW_CUT_FREQUENCY_HZ: 0.025
AAD_HIGH_CUT_FREQUENCY_HZ: 40.0
EVENT_NAME: 202302061024
EVENT_ID: 13207
EVENT_DATE_YYYYMMDD: 2023/02/06
EVENT_TIME_HHMMSS: 10:24:47.00000
EVENT_LATITUDE_DEGREE: 38.089
EVENT_LONGITUDE_DEGREE: 37.239
EVENT_DEPTH_KM: 7.0
HYPOCENTER_REFERENCE: AFAD
MAGNITUDE_W: 7.6
MAGNITUDE_W_REFERENCE: AFAD
MAGNITUDE_L: 
MAGNITUDE_L_REFERENCE: 
FOCAL_MECHANISM: 
NETWORK: TK
STATION_CODE: 3137
STATION_NAME: 
STATION_LATITUDE_DEGREE: 36.69293
STATION_LONGITUDE_DEGREE: 36.48852
STATION_ELEVATION_M: 260.0
LOCATION: Kahramanmaras_Elbistan_Turkiye
SENSOR_DEPTH_M: 
VS30_M/S: 688
SITE_CLASSIFICATION_EC8: B
MORPHOLOGIC_CLASSIFICATION: 
EPICENTRAL_DISTANCE_KM: 168.80
EARTHQUAKE_BACKAZIMUTH_DEGREE: 
DATE_TIME_FIRST_SAMPLE_YYYYMMDD_HHMMSS: 2023/02/06 10:24:56.1118600
DATE_TIME_FIRST_SAMPLE_PRECISION: millisecond
SAMPLING_INTERVAL_S: 0.01
NDATA: 13501
DURATION_S: 
STREAM: HNN
UNITS: cm/s^2
INSTRUMENT: sensor = GMS+/GEOSIG | digitizer = 
INSTRUMENT_ANALOG/DIGITAL: 
INSTRUMENTAL_FREQUENCY_HZ: 
INSTRUMENTAL_DAMPING: 
FULL_SCALE_G: 
N_BIT_DIGITAL_CONVERTER: 
PGA_CM/S^2: 23.038
TIME_PGA_S: 
BASELINE_CORRECTION: BASELINE REMOVED
FILTER_TYPE: BUTTERWORTH
FILTER_ORDER: 
LOW_CUT_FREQUENCY_HZ: 
HIGH_CUT_FREQUENCY_HZ: 
LATE/NORMAL_TRIGGERED: 
DATABASE_VERSION: 
HEADER_FORMAT: DYNA 1.2
DATA_TYPE: Acceleration
PROCESSING: Automatic Paolucci et al., 2011
DATA_TIMESTAMP_YYYYMMDD_HHMMSS: 
DATA_LICENSE: U (unknown license)
DATA_CITATION: Turkish Accelerometric Archive v 1.0 - Disaster And Emergency Management Presidency, Earthquake Department
DATA_CREATOR: AFAD
ORIGINAL_DATA_MEDIATOR_CITATION: : AFAD - Disaster And Emergency Management Presidency
ORIGINAL_DATA_MEDIATOR: AFAD PROCESS SERVICE
ORIGINAL_DATA_CREATOR_CITATION: AFAD PROCESS SERVICE
ORIGINAL_DATA_CREATOR: network: TK
USER1: GuestUser
USER2: 
USER3: 
USER4: 
[...]
14.81496778867072
15.282741950154485
14.882848632331786
13.668026711939351
12.777240632150106
12.44462546350907
11.65006005870291
10.65399047013819
9.315239107912522
7.438177771657496
5.812080639084599
4.633167156675569
5.084552601481838
7.063092080704991
8.737429454036516
9.946476991229499
9.980505484538428
9.039421790088122
8.431079296609093
7.611861964389849
6.758008333671706
6.296851917628184
5.858494054671702
5.543208970285596
5.456066381092313
5.916938523303669
7.346529308500327
9.260756431119317
10.198053191323417
9.704873829419038
8.744915244883098
7.377434273239465
5.752542324189336
5.2189578158357355
5.802599557753526
6.409409315889814
6.4831844860296295
6.066450974336858
5.484765227216512
4.522605161419073
3.932355735954221
3.9837670573325084
3.3915305028456415
3.0065359550377306
2.824681546457352
2.107134486931572
1.821434755492584
1.4084999469923987
1.054585115663927
1.7395354241185392
3.065467824137955
4.251566978608001
4.440080742620814
3.993549214940906
3.4315370934259404
2.646065785535551
1.7319593601832486
1.1687572366604222
1.462389535692448
2.0343637544280013
2.222631319850575
1.6784183537054542
0.6476390887456989
0.06424186110490553
-0.2607354900134603
-0.6513081688295953
-1.3208978992139468
-2.375837485356103
-2.831037667194361
-2.792106856031772
-2.3383739511988777
-1.1706705067545984
-0.11762694566716421
1.5510149017864403
3.738897185250754
5.025062910737309
5.712803709361653
5.394979673304754
3.945187054958644
2.9283107546392637
3.21179307071064
3.860217611069587
3.972166619586126
3.9497113042852914
3.6692317807182886
3.3595736422065645
3.823167678576805
4.840955417668148
6.378814746383716
8.352155428122117
9.800364229179248
10.40535408871271
10.33460482064181
9.198107365403892
7.020184385117541
4.680282473616468
3.0319736657376417
2.0186798693371033
1.3661243608609428
1.1343619893525172
1.2136776580684974
1.7253536918302255
2.2879033606142967
2.5077939645931724
2.929632198291359
2.9432905759823806
2.249084579875269
1.5722410554516495
0.35405385764519204
-1.0262178221916602
-2.005728949391626
-2.89752053847113
-3.533006626329207
-4.712904120024457
-6.746242375216578
-8.59958555191509
-8.871097569259328
-7.494458725575594
-6.149038025179441
-4.696881729153191
-2.388018962961559
-0.17740940076026976
1.695265994608465
4.273979113864895
7.03889370737833
8.773246522830078
10.759136384665352
13.695921934151075
15.851022614001332
16.977220633383116
18.223885344493084
19.307777775510527
19.62426331166931
19.78594753179299
19.831211042846036
19.45141645704045
18.752210857117486
16.7448407165609
13.744384282371797
11.42672021509413
9.862599092422416
8.637473712843514
7.656870725172207
6.977069599387273
6.543070964227206
6.0764078849896395
5.541642069103549
5.265945616006787
5.262781929527113
4.723286091174272
3.7048365055317367
3.323451424752325
3.651183422006162
4.211013616680738
5.1814896774715455
6.2370895186394275
7.039404893097971
7.527965918970054
7.434095031408263
7.3727108024694
7.241657081085974
6.56951152673907
5.500304542545137
3.502853809047791
1.0940113105632816
-1.009000517047837
-3.144209147247235
-5.164523008058385
-6.701810844092473
-7.556867600907394
-7.983482852956973
-8.136344513424174
-7.312209676559063
-5.074151664083772
-1.995303646445347
1.7361120338536753
5.994036098864294
9.416880171140319
11.577315867040106
13.087125513912799
14.183589600734711
14.893778512088188
15.078267762240822
14.80038766512631
14.03490712062285
12.739579063399939
11.19264284549094
9.70345813451849
7.954292131399269
6.043660687050181
4.693243039940064
3.3765923334208505
1.7496382007106686
0.23183027349973553
-1.3688439065990532
-3.420473699935819
-5.522409707410139
-6.504776149349102
-5.979404055405145
-4.561863075034076
-2.979485237721374
-1.8501016188653534
-1.248947108588445
-0.6439290729935572
0.3236958622491278
1.1369571572660493
1.0947290333387496
0.3516195424843497
-0.6708764909928567
-2.215244872443001
-4.186521180428266
-6.028899921473003
-7.631113439607967
-8.580463590875356
-8.849916268711919
-8.86727374594263
-8.443600763256535
-7.518881904183991
-5.850907735969636
-3.032062671902666
0.7695685889137472
4.798925324270965
8.119235922510791
10.530628755134112
12.22232709057056
13.551440758736558
15.291819390653465
17.485303088968173
19.071478968850638
19.509877793883405
18.894281877846957
17.268255439443813
15.060730225876506
12.464656710964212
9.566227764405417
6.606629621930321
3.6463580834017315
0.9203376474827459
-1.5723262260635629
-3.4478959248632695
-3.999719052080131
-3.610080714413987
-2.7228114664531535
-1.1024144002007048
0.7859452727935086
2.1040717098148107
3.193162235781127
4.048751937018648
4.280424050170613
4.710487255089223
5.348023234916819
5.718462278234363
5.8080780661095694
5.439162657895735
4.725314641350956
3.1375757917696188
0.568661984354378
-2.257973792670596
-5.132007341395397
-7.473728513307156
-8.905578624385857
-9.299012772986595
-8.375645322397649
-6.575440038039521
-4.199492233146469
-1.6922772716673575
0.4920327865004673
2.5416684865487547
3.937419421151513
4.515188893695964
4.600581200638986
3.775641203531502
2.1347685155437457
-0.15669473135212722
-3.017487594411798
-5.746559972430386
-8.135463149568041
-9.882678024240427
-10.55192312923992
-10.50614595048781
-9.817576286363114
-8.46138945434363
-6.861491773789003
-4.724319926521633
-1.7102066734218473
1.410787337328837
4.497266288095538
7.773261571414224
10.501520350067013
12.758479976738322
14.888067207040613
16.50348858594504
17.70077408864962
18.81278110364933
19.893416136410657
20.712351439589145
21.150844098918512
20.92827416351533
19.53939095270947
17.461189929119985
15.191408317190003
12.74698828590758
10.646205044077139
9.059462059931903
7.64730365728649
6.376013589946279
5.486358232224327
4.831677834893937
4.069244468845104
3.519183018727713
3.0025197127342635
1.9929957488204157
0.7331458183222667
-1.0226251984225128
-3.1895907237635255
-5.115077533923941
-6.945623955517372
-8.21173530722129
-8.57510455622962
-8.819858706436719
-9.277965617923133
-10.01620286612997
-10.86553703998415
-11.281145989355707
-11.0044548145493
-10.079645323179857
-8.735602296222986
-7.25956812681525
-6.011489867606942
-5.374425024621068
-5.330818815661428
-5.56901419732664
-5.94803187792334
-6.248267689368605
-6.175608505350889
-5.629317509370157
-4.674872945422667
-3.3855530149703066
-1.6956936000281642
0.32999498424949686
2.7034423564570775
5.493584197986339
8.307188276621455
10.653305952673511
12.528974744689208
13.952294584151211
14.633576123942488
14.443275858162398
13.206770582491831
11.035328148847993
8.592484275191799
6.1656983401712315
3.9298859435849627
2.282737091233169
1.3435166106404872
1.1094606057698293
1.354195477285174
1.7110768443868576
2.0573011938920915
2.25823470315837
2.473797533982362
3.000195342941681
3.736415689160348
4.483708453626412
5.004348547866295
5.177786013911262
5.042634294534891
4.764364063142969
4.256031917063212
2.9128725027599045
0.7170038353745035
-2.0004979877273987
-5.156552747435329
-8.316248267732743
-11.214043246284692
-13.788486742219684
-15.703236990430375
-17.067023717976156
-18.232425468028797
-18.841138261992032
-18.5772534997376
-17.938342607485932
-17.15622086475159
-16.079052134244375
-15.050436436967018
-14.45648766135323
-14.230706935196606
-13.994771691645276
-13.551970602530956
-13.042995176334394
-12.648623963825061
-12.58035140668013
-12.787848372048531
-13.186135916510137
-13.691206856241179
-13.904088028977682
-13.685087876953416
-12.978322538519423
-11.727546460993475
-9.981854144229308
-7.7333243630871875
-5.23229023186193
-2.6249832016240253
-0.30694757832046093
1.371898485266017
2.9777921178888134
4.836033770626671
6.962228975584038
9.373670502522263
11.797747434732376
14.05447309588771
15.939129285651992
17.172475789124526
17.670579677903127
17.672233983173967
17.40241805070674
16.999533579920783
16.667625298992796
16.17618626540862
15.243893874977394
13.919240295585537
12.18398050462767
10.290345052672942
8.580096570025514
7.228353777005568
6.531008824276636
6.658937910593102
7.637322221054169
9.124521283611156
10.522846228351236
11.538266799486422
12.20757310722643
12.656495866666205
12.976407441504675
13.467757082571422
14.118420571169478
14.643614616281734
15.078737420493193
15.374846895112768
15.428235804200115
15.229126841748306
14.807387841759734
14.1738292384095
13.240573572742264
12.166663426574342
11.205426294825557
10.300067706648436
9.436819933937107
8.694101258653657
8.02469276833628
7.469675817823477
7.014942576163915
6.526355885554584
5.786928023711937
4.701477061053006
3.610385501414461
2.6946240531120584
1.8787933913769563
1.1661233608090886
0.5784351154761498
-0.0659321974106432
-1.2132836458193739
-2.919373455567863
-4.8837419288136
-6.87669540690553
-8.916222691912166
-11.047731023969913
-12.875439898026363
-13.896560518857584
-13.889042900254566
-13.079733301670958
-11.78485653143429
-10.360647729826665
-9.359638945891415
-8.774740456974365
-8.139111787955226
-7.301740703942634
-6.2286090874551885
-4.717932275232958
-2.957418626830922
-1.4114008961564566
-0.43398341968786686
-0.3786456681426539
-1.1966811015978402
-2.394892582581564
-3.478830595296047
-4.414735430078907
-5.553411507057843
-6.9140702990679
-8.44507448065237
-10.364687566846955
-12.618206256532531
-14.959917361154304
-17.145815537823157
-18.897906087503564
-20.113474636714827
-20.585040993857127
-19.90515889334239
-17.83918329952973
-14.881021973418612
-12.005818715322777
-9.649738120637455
-8.137186001805599
-7.642117051115136
-7.748210154064853
-8.347164836333603
-9.199180876583943
-9.779413453787168
-10.052690740682397
-9.938483160444289
-9.40871278917042
-8.88187657489763
-8.677697684824977
-8.616753770447936
-8.568933221194737
-8.777888478733555
-8.969018196271263
-8.65031655443924
-7.850417993924264
-6.5747105803772055
-4.728120670305455
-2.393266818382923
0.19189297523554194
3.0037633311083773
6.134139352904785
9.227576484671069
11.930408122950048
14.009010699662568
15.166133374037104
15.38446317649725
14.77750365331234
13.516775378492117
11.703720050763986
9.451666057875808
7.237748555379994
5.1282247490113555
2.7952516068111306
0.32574557076331295
-2.0661241989867674
-4.363076912278433
-6.6348644168648105
-8.735959370813628
-10.562276998927292
-12.080404453109757
-13.090379776591208
-13.475257082310451
-13.02912535443833
-11.663909432517322
-9.432455188610898
-6.524881035382072
-3.2491453291301693
0.4695657171644051
4.259850904641512
7.442422370201385
10.106312844942739
12.178083742005043
13.476647191625176
14.55304164618845
15.528647375992668
16.134679156009998
16.538482346108133
16.912500980475038
17.22632431841456
17.149930903629976
16.755282880689464
16.345309742505155
15.798129677833874
15.223662435626583
14.480059237613505
13.368485619902156
12.250150734797462
10.955489633153801
8.975312979461448
6.55039799178818
4.168318547995538
2.1459045441294293
0.8376676082891091
0.2699112339738529
0.2823172028377967
0.7020859195951014
1.173706177735729
1.5353519073430126
2.0122179144811128
2.86217942818659
3.811553277659709
4.354263935915324
4.4141732794590505
3.897516236622136
2.777319656640931
1.631456503217513
0.6681017289232466
-0.27860563154226686
-0.9774076033811364
-1.643090271942826
-2.3173758115662255
-2.3447865275953066
-1.6354027134816522
-0.418133644718093
1.1733879878470208
2.9477950333152094
4.508215879603274
5.632781714935825
6.659699035055777
7.581795541496388
8.267772012230482
8.945427620213332
9.416841816002917
9.380508269501606
9.019955280055438
8.146024347714333
6.552624582307015
4.482439355637245
1.9963843263285261
-0.6091049485088549
-3.102225258388583
-5.085030364954231
-6.095902540587014
-6.56881026303166
-6.666215256817817
-6.214104340445664
-5.526422471661654
-5.004448572012776
-4.765057497854075
-4.941531175562975
-5.481760186158003
-5.851009598399381
-6.089433538765716
-6.303887474254531
-6.138348566313493
-5.755567448445942
-5.345056489546213
-4.952754903351391
-4.715336116268676
-4.705570773191765
-5.1553222970951715
-6.157396586549884
-7.832381191472086
-9.918091634248015
-11.934589424584669
-14.016577576666808
-15.772694075848174
-16.840792770056026
-17.489157999248764
-17.866457178487018
-18.121879651235222
-18.17553466007039
-18.023855513092794
-17.90818312642639
-17.861664548677062
-17.7448209141991
-17.54116563949676
-17.31689349300756
-17.199645896157815
-17.23515740652519
-17.195644431773655
-17.103659694988252
-17.08031120704465
-17.042295220406253
-17.029461581827093
-17.130426729887215
-17.41095090549484
-17.944342517890636
-18.619835007292068
-19.503412954583734
-20.612753792550713
-21.546464028466797
-22.301980746835643
-22.929817220123915
-23.266453049281907
-23.379081050249177
-23.394924960399084
-23.240894217814063
-22.603641894617713
-21.70420529666591
-20.885369133277123
-19.824889057717233
-18.377634253386354
-16.619893150717388
-14.57003528457411
-12.5507366141625
-10.660384679089256
-8.85393138112927
-7.2097318547258915
-5.612706771716801
-4.154380248427003
-2.641321331463288
-0.7864256591767789
1.3275625394016684
3.8234215162712117
6.5024185291989225
8.861113796324899
10.38861316158183
10.784754659173709
10.220733731393244
9.027540062150335
7.834427214739988
7.230925681112226
7.409790840410891
8.25096471792494
9.548244143588716
11.178125486764703
12.830154516979176
14.212681563599062
15.013037930252976
14.93507852709744
14.10033295864172
12.77012533624258
11.382515172172507
10.169830296748586
8.931215977063736
7.889179169840915
7.208719429197335
6.764318324011927
6.655494925617485
6.742282350830449
6.950599110290705
7.516703688481223
8.264740277321208
8.775060675574784
8.872900738623944
8.601870160356718
8.034911938876435
7.142882576692244
6.2388014389166555
5.499740192297299
4.568396405497531
3.6539669355017024
2.9264909034293964
2.170716091143997
1.7277690021744159
1.3403562599324088
0.3973808063324095
-0.8539296212957204
-2.565216087733697
-5.048967701697761
-7.656759470699048
-10.0044500888069
-12.18533720810883
-13.42741276053026
-13.774576698803832
-14.163962322520478
-14.327768963121615
-14.155056746458783
-13.777299492792059
-13.13282682210756
-12.030658778044634
-10.364247570475912
-8.756345633299272
-7.0715581321705
-5.2145315245586215
-3.6579700540192106
-2.1006227864635565
-0.25503234623730553
1.8389163756516378
4.026536098129338
6.064935567380795
7.994519464278366
10.03658604970661
11.92334568141748
13.032296955508038
13.159681805272356
12.395378503037108
10.975000882155957
9.118077988547777
6.984003099775638
4.682236455546032
2.1941518324120675
-0.6051406216712146
-3.724868514748177
-6.540033618483999
-8.621504968164777
-10.12831527847277
-10.921388103474854
-10.651489555829405
-9.754823441023504
-8.804781341530896
-7.408993940213065
-5.628545440830835
-4.059490362966315
-2.9470268003458613
-2.5666540822618913
-2.591180883861772
-2.5063394691057166
-2.633672922063761
-3.0174402958396795
-3.2955590351563004
-3.4682345341956093
-3.6968650161788137
-4.122606950443076
-4.416927661934681
-4.46525875774348
-4.349175373734149
-3.9188381492176965
-3.665984719007512
-3.728863388158684
-3.9504047364448236
-4.508467840203083
-5.350994486220761
-6.32254383422182
-6.926789713565301
-7.007890612274685
-6.843252152401225
-6.332356829600883
-5.333753818463113
-3.9904813332019686
-2.5413686473611143
-1.1620539808390606
-0.29011801057325076
-0.17795366468397653
-0.5014339264143625
-0.9619502329694708
-1.3985151737488966
-1.535669124283545
-0.890543104240201
0.8486500997547265
3.6228447955932084
6.892980836758666
9.958414842430363
12.569517403322063
14.340570639913388
15.304347735014481
15.723342883812554
15.264723327608998
13.996372890080204
12.036363536145545
9.622151708501164
6.935602315777416
4.002828375107417
1.347798959509152
-0.9196221543613451
-2.5960234986421122
-3.2225434225719396
-2.768545862084751
-1.5278534641092059
-0.0008669741231803092
1.6825681513756632
3.4000143429929146
4.596263756880976
5.292147372736989
5.746493747745581
5.547279875603612
5.118172590735482
5.215123881540902
5.504575341852128
5.856505521122638
6.258121772326683
6.213239136366752
5.652344108996945
4.784823325663102
3.3395540042648535
1.3634966492877203
-0.6488997731430681
-2.7740253809683484
-5.155181826161303
-7.485724201194259
-9.391906282262365
-10.75600460013066
-11.668363892118302
-12.086659191801038
-12.311812263926745
-12.71713984352054
-13.037915101361826
-12.940481161575931
-12.019458479983959
-10.418290553384217
-8.900129419630881
-7.383521705199238
-5.8746161608776095
-5.010779460791267
-5.035940325287818
-5.841970478884132
-6.834051364095253
-7.46191261640984
-7.802673095633725
-7.880494836512523
-7.762479754029165
-7.640881399462363
-7.578802349410063
-7.766005539536938
-8.071698024788299
-8.117731783375296
-7.9447835953396275
-7.6175262054988595
-7.1963099571014295
-6.7594115626155595
-6.045459113215034
-5.495643453210147
-5.693836229186379
-6.044112199754556
-6.5319425774561966
-7.60661422000396
-9.045898142302708
-10.704288181034897
-12.263782908783073
-13.492502210834557
-14.480347872443774
-15.055403356965378
-15.153635287082475
-15.206483926277542
-15.249956917863495
-14.839412123522704
-14.204981066180117
-13.73567546398528
-13.50229533636625
-13.400091995830364
-13.163825939654563
-12.65027434882626
-11.802044837834256
-10.983969662645928
-10.358034001467773
-9.33197728655613
-7.827624425549488
-6.47406047289383
-5.177515261177168
-3.599156227251932
-2.2669948997903164
-1.4472267049962475
-1.1510018169425857
-1.4151030643226763
-1.7228022358789654
-1.9176665346216204
-2.195704944341089
-2.351825940986922
-2.145378144089809
-1.7848317452381703
-1.5358333791736396
-1.1366507372045964
-0.4521136203095684
0.25458357393360126
0.8789755377151367
1.2233899594586963
1.011251597117395
0.5230533546464324
0.12055803918812825
-0.49640072882029024
-1.6268875782881542
-2.9349879271868007
-4.061493905022422
-5.059210185017565
-5.936464775983649
-6.478287220174856
-6.488742510030474
-5.963120582087206
-4.79889159791921
-2.9207845464988
-0.9763627920691508
0.6959768265995042
2.3122681474436315
3.601724010935841
4.606228131328995
5.740720032401765
6.951803869489467
8.09206878881076
9.247422683057284
