AAD_Filtered_TADAS_FILE
AAD_BASELINE_CORRECTION: BASELINE REMOVED
AAD_FILTER_TYPE: BUTTERWORTH
AAD_FILTER_ORDER: 1
AAD_LOW_CUT_FREQUENCY_HZ: 0.025
AAD_HIGH_CUT_FREQUENCY_HZ: 40.0
EVENT_NAME: 202302061024
EVENT_ID: 13207
EVENT_DATE_YYYYMMDD: 2023/02/06
EVENT_TIME_HHMMSS: 10:24:47.00000
EVENT_LATITUDE_DEGREE: 38.089
EVENT_LONGITUDE_DEGREE: 37.239
EVENT_DEPTH_KM: 7.0
HYPOCENTER_REFERENCE: AFAD
MAGNITUDE_W: 7.6
MAGNITUDE_W_REFERENCE: AFAD
MAGNITUDE_L: 
MAGNITUDE_L_REFERENCE: 
FOCAL_MECHANISM: 
NETWORK: TK
STATION_CODE: 0213
STATION_NAME: 
STATION_LATITUDE_DEGREE: 37.79667
STATION_LONGITUDE_DEGREE: 37.92957
STATION_ELEVATION_M: 602.0
LOCATION: Kahramanmaras_Elbistan_Turkiye
SENSOR_DEPTH_M: 
VS30_M/S: None
SITE_CLASSIFICATION_EC8: unknown
MORPHOLOGIC_CLASSIFICATION: 
EPICENTRAL_DISTANCE_KM: 68.73
EARTHQUAKE_BACKAZIMUTH_DEGREE: 
DATE_TIME_FIRST_SAMPLE_YYYYMMDD_HHMMSS: 2023/02/06 10:24:33.9046330
DATE_TIME_FIRST_SAMPLE_PRECISION: millisecond
SAMPLING_INTERVAL_S: 0.01
NDATA: 10501
DURATION_S: 
STREAM: HNN
UNITS: cm/s^2
INSTRUMENT: sensor = ACEBOX/SARA | digitizer = 
INSTRUMENT_ANALOG/DIGITAL: 
INSTRUMENTAL_FREQUENCY_HZ: 
INSTRUMENTAL_DAMPING: 
FULL_SCALE_G: 
N_BIT_DIGITAL_CONVERTER: 
PGA_CM/S^2: 121.297
TIME_PGA_S: 
BASELINE_CORRECTION: BASELINE REMOVED
FILTER_TYPE: BUTTERWORTH
FILTER_ORDER: 
LOW_CUT_FREQUENCY_HZ: 
HIGH_CUT_FREQUENCY_HZ: 
LATE/NORMAL_TRIGGERED: 
DATABASE_VERSION: 
HEADER_FORMAT: DYNA 1.2
DATA_TYPE: Acceleration
PROCESSING: Automatic Paolucci et al., 2011
DATA_TIMESTAMP_YYYYMMDD_HHMMSS: 
DATA_LICENSE: U (unknown license)
DATA_CITATION: Turkish Accelerometric Archive v 1.0 - Disaster And Emergency Management Presidency, Earthquake Department
DATA_CREATOR: AFAD
ORIGINAL_DATA_MEDIATOR_CITATION: : AFAD - Disaster And Emergency Management Presidency
ORIGINAL_DATA_MEDIATOR: AFAD PROCESS SERVICE
ORIGINAL_DATA_CREATOR_CITATION: AFAD PROCESS SERVICE
ORIGINAL_DATA_CREATOR: network: TK
USER1: GuestUser
USER2: 
USER3: 
USER4: 
[...]
42.51271469053649
43.24026695947093
45.73180848917922
48.46822567534056
48.46935386538365
43.525014622369426
34.628398178383364
24.658000495897436
17.056372415467713
13.88812202176986
14.554838897330582
17.255700272335332
20.699990071920812
24.505762546603684
28.477197884221702
31.51274644030848
30.9852380114571
24.910954281106225
14.826235926606111
4.337264756601313
-3.5393650148545652
-7.367879839623826
-7.704441840552563
-6.121194287933306
-3.670064083322503
-0.5462971405961549
2.718775381642769
5.428821825208755
8.662638240283854
13.651821857779405
19.196479389006104
22.71521038166797
21.664460673849813
15.591088712009302
7.63268414163087
0.9820461994876063
-4.162929508996575
-8.820625028640725
-13.562541184473393
-17.996980250741156
-20.327452025992
-19.338562052816705
-16.798442626495653
-15.633026320923843
-16.558960746085305
-19.085345405296557
-24.239945223876138
-33.104617671374456
-44.45752164938475
-55.74817264095846
-64.69638016894064
-70.44033701736181
-73.27600567723245
-72.57534889304567
-67.60364422886165
-58.85715784237661
-46.54832062254443
-31.549741693853278
-16.668454486899925
-4.698774384466423
2.4045458079752655
3.305053113445048
-1.9229464738455637
-10.88518882010724
-19.690119990877005
-25.607617541721684
-28.198895058385514
-28.21378440463392
-25.81175642106677
-20.580975194343406
-14.024726566094708
-9.210674766349651
-8.202987314270073
-11.941817272987347
-20.047323670078576
-29.87549558216219
-37.68277435046537
-41.21839308594065
-41.07453064952686
-39.532531340919306
-38.64699653562952
-39.5270058502489
-42.49844046530066
-46.69211404858715
-49.45968049341799
-48.61221593754978
-45.62483234287514
-43.779664458252135
-43.92225745457281
-44.498288565238816
-43.76024843902163
-41.45508738607736
-39.38643477382216
-38.36047565315183
-36.7340456417547
-33.006007324221734
-26.325165631370677
-18.139552427769974
-13.323979017482298
-14.113626544813503
-18.04582022696979
-22.380231921997186
-24.73442877179817
-24.34059198763323
-23.53656165071689
-23.492528941973468
-22.304531513436736
-18.53992171859897
-13.247433134378626
-8.97283935953932
-8.327285047245718
-12.261159288117009
-18.559870181508106
-24.422081706729298
-29.510657338765586
-33.56171593181388
-34.89043265309477
-32.6078822814182
-27.347494690249015
-20.623088313998803
-13.99430388002838
-8.24607548370336
-4.034341320770875
-1.8944512006522527
-0.6452996836145511
0.9044994773089553
2.0459126994993952
2.987762996927864
4.473257427752453
5.794450133486644
6.8446074237281
7.211333731807456
5.6357715685855165
2.7838598437210327
0.5413989313887688
0.2058796520169675
1.7793702521393944
4.5997587308603745
8.561343785129962
12.787947003111343
16.251668934009768
19.271775633376333
22.411565269317183
26.82821484605829
32.83929563035863
38.022481387743646
40.70204403399258
41.77558918708094
42.48902206085296
43.0564195736298
42.884311171784816
42.46088541700327
43.6816066098592
47.7313194080165
54.07731654909575
60.66593119503788
65.36496381200098
67.63464179285734
68.31088222311648
68.26674540489512
67.38954681185389
65.33332247655403
62.45385391143912
59.59620433906096
57.99880749021163
57.88399011851305
57.971293458422096
57.899349258011824
58.12246698500882
57.56721503479813
54.31441523646449
47.71893685845382
38.329448782895064
27.1282563537344
15.2389705914532
3.119745727983563
-8.1729504309929
-16.333694878886522
-20.99433843571691
-23.423634411942132
-24.58835210954488
-25.600542856687632
-25.457533859856145
-21.928018462001035
-15.559558428759335
-8.477142073118767
-3.488490353059622
-2.886119509118277
-5.2754879337067075
-8.298197212955653
-11.679589421783772
-15.768164773140537
-20.625733897593097
-24.417137999476825
-23.70600698548854
-17.44381208782152
-6.670165090428825
7.577197938909114
22.697683002590193
35.147747094818534
42.86724137551034
45.77090706251269
46.08715487599624
46.95275647892982
49.659791032154345
53.27101950043335
56.449495526499156
58.62583771442441
58.89952195885539
56.37655544933432
51.3326787946327
43.262082054306006
31.319594176354464
16.954830742611264
2.0376287319720467
-12.73645289393234
-26.38529859792109
-38.095828896062365
-47.6918329233754
-54.430818131142466
-57.525499733973255
-56.678260449073136
-51.96338298994656
-45.223818068852836
-38.77509484468057
-32.78715603443753
-27.287465793274624
-23.24878963641249
-20.509797846678673
-18.01396216905904
-14.935188146217477
-11.536421562312412
-9.945456533540522
-12.07541483833028
-17.63039414716551
-25.32047206166878
-33.751653358364855
-41.115681788422755
-46.19875117743362
-49.05940185529135
-49.751957836091734
-48.15341464966632
-45.06694174179407
-41.78636366857066
-39.194035685408245
-37.46176573614315
-36.19894424466996
-35.64665600268422
-36.982578546866186
-40.98466073571104
-47.23386249320638
-53.80593413579151
-57.68954119374947
-57.02547826274272
-52.567025325692974
-46.37385539583551
-40.2326583273194
-35.2383551044215
-31.395374333830464
-27.901299986729217
-24.4821387781222
-21.461329308169407
-18.636591241219183
-15.089107890674292
-9.785377229011273
-2.7305071997482004
4.437636599548829
10.011967293327967
13.264744563463612
13.957165056666186
12.69957261488546
10.918276255020125
9.76180281128577
9.873205398689459
11.68709932088638
15.360924765017998
20.924658112169112
28.361574016725026
36.55435387658322
44.011623862147545
51.34083019127066
58.956562483188684
64.95456369673099
68.66774015665746
70.40971301123608
69.4315581539206
66.65684477260722
63.888322524726235
61.58435836343631
60.314010576253395
59.66587950581842
58.49989034731374
57.563863257035656
57.06207536803767
55.856933540930605
54.112788983077614
51.61878542693848
47.23857331642392
41.57671711747156
36.22594099441794
32.262097828385016
30.18739756503229
29.396332274360347
29.065698001296568
29.587639527410587
32.02352865313424
36.65826024609537
42.42315827718845
47.78976260076361
51.7171101476244
53.54570589863176
52.66169571783602
49.04297483944887
44.4719590191308
41.57157605517849
41.4310590465312
43.85992556492078
47.89475664778181
51.16822839205627
51.696095643953626
49.240107839568594
44.18190570626882
37.846978845662534
32.25233360969317
28.09021805352338
25.2145256164405
23.32618237583314
21.203320130337822
17.98426119942368
13.652181565063787
7.323494792358398
-1.5775897922619246
-11.676983708563101
-21.26332394789181
-28.797116001456654
-32.588102923551304
-32.11933978446463
-28.08245300686728
-22.162336698727298
-17.39963590236857
-16.039585717988125
-17.364031184033703
-18.67644872919415
-17.36502434309396
-12.365876873813052
-5.412578409051198
-0.19341708768848556
1.6084541276099273
1.575512707403943
2.010165400270011
4.893333326782058
10.380663869501076
15.559830980317747
17.864569509932405
17.12013718616003
14.222880775782663
11.355627380979518
10.66589568548939
11.955973118117894
14.662353998109118
19.40876808493105
25.72611894337446
31.37739534189108
34.37075682675517
33.82424315740414
29.733431801773445
22.77344438563977
13.726143438076532
3.946456693475148
-4.518490857785965
-11.061373858121502
-16.64472445052648
-21.6133335463142
-25.64836340174406
-29.350800519622613
-33.55094715972759
-36.8473701914233
-37.3389775901829
-35.32925406230259
-31.881820610901638
-29.53360883128665
-31.602628770635217
-37.15536399380456
-43.14688670261624
-48.956088886169624
-54.15701884776615
-57.67282291898573
-58.918741607669105
-56.2545481124815
-48.211378384324334
-36.25098570114593
-23.131653106428846
-10.97065837702099
-0.7739539714100246
8.082780451021046
16.392859062983774
23.776719782728737
28.860277978748062
29.295917013960935
22.734602885468796
9.915589068180994
-3.2809969934232477
-9.98326042201466
-8.16570663521126
-1.3736845792278745
3.9930410198045063
3.788129642477693
-1.2626007939684711
-8.60159666681004
-15.409717788972683
-18.93276239287187
-18.980201746724973
-18.158806941456156
-18.911569547130068
-20.747168799249167
-20.132743005733268
-14.790573860020247
-7.795058027658895
-4.329960826142809
-5.13997166362642
-6.0836158275204735
-3.7883064797474524
1.1225349438545755
6.540981326266588
11.031737963784824
15.133098777398802
22.65782466995578
36.30858495109417
53.01675993385123
66.9572970857434
74.41038587866984
75.3631857672702
72.69514131799053
70.02470727001653
69.95904037690704
72.99342790548467
76.65145241738409
77.92077088710381
77.36409186358209
76.67959626648467
74.22225825053266
67.74942912371546
57.12518099205968
43.64438172524755
31.29233012658061
24.02344783749199
21.021805961688354
20.24683238840623
21.223902794154977
22.182001075092273
21.760692404300208
20.48896006361957
17.361628148735374
11.175773364274516
3.610390192928141
-3.06869782597775
-7.351788789599218
-8.457811470326734
-7.550843945218894
-6.5610183499368935
-7.212839788801172
-10.006584735847806
-12.575080985236585
-13.331629566916703
-13.19463882235056
-12.46346511407013
-11.926676743993362
-13.116253771771254
-15.52202052323682
-17.715904807853434
-19.40218284658712
-21.41525452594423
-25.021355902043144
-30.8149641339012
-38.06535052526134
-45.53115703243756
-53.35555151616005
-61.80663615871031
-68.53767799248106
-71.63223825171465
-72.17685458497068
-71.28973080997658
-69.45681023604094
-67.16223003841151
-64.6204390479764
-62.945044907450274
-62.68836211463157
-62.86958917119612
-63.25550921280033
-64.02384091435788
-65.20850620129833
-67.62750083427868
-71.04743375565305
-72.18149773774894
-66.57114756149696
-51.921587075507475
-29.943918613644797
-5.657669667586157
16.638378229792583
35.135858667761305
48.51780756175707
56.94091562551715
61.92736405253291
63.788686661130065
62.69234504791567
59.065420670445015
53.49380781235263
48.475192813943245
46.13452193066519
45.15911197117046
42.83819084824891
37.97882563807124
31.501582068140408
26.00510499125431
23.98574414387098
25.093881216684736
26.493024707492836
26.16186348785425
23.461531613728614
18.011152878886772
10.020106087003297
-1.0668609898474826
-16.184061070999324
-32.524158020839586
-45.44259050173654
-53.60507613944904
-58.52266239404498
-62.80441057125374
-68.30859649521577
-74.2067071482448
-79.10947718935246
-82.85002460795207
-85.63817701538633
-88.40692998831791
-91.40065239065568
-92.01423563817293
-87.57065506585676
-77.75774780153179
-64.0505355565217
-49.452321838883584
-35.74970367421127
-22.50073638511193
-10.530957357116423
-0.477885648287474
9.588795242208116
19.397561661071023
24.724308317808102
22.85921312990269
15.138643776714602
4.480587688942166
-7.075207596725029
-19.397019489989756
-32.94997038230492
-46.83543054896884
-60.085251299987725
-73.29979146310474
-86.53939542622649
-97.58063143486869
-103.58704045769846
-101.9928420453543
-91.35750484490178
-74.71975775757137
-58.05856406356043
-44.72053008343731
-35.24837217251164
-28.500247443800458
-21.77791949011571
-13.70777351963963
-4.880967768297965
3.090974270061939
7.945484936889624
9.98368693846762
12.483583786274624
17.59657233353362
24.610707476537595
31.845328358439975
38.840284170830394
45.53829367822867
52.49946277628931
61.75340147067067
72.82438315514115
82.64900728763789
89.05289662776342
89.55844962780304
82.8591288366784
71.21508139568118
57.77245416582292
45.10421885491616
34.808737629814665
26.695530061007407
20.358994102885926
16.114924282171188
14.039891846073564
14.317830989636745
17.840867925288496
25.068334403734468
35.213659367020256
46.798015689561964
58.54804815988172
69.19438546294245
76.11871149816311
77.03409885935802
73.77219589546837
70.20663996396252
66.36097276554746
58.930628184321144
46.42825317434716
30.59831732142805
14.484923363091449
-0.055642915023063996
-12.633338200394121
-22.382334101940174
-28.9728370612342
-33.712892275733196
-37.77340044857149
-41.46077127862652
-43.90586937086817
-43.43553612989554
-39.582304479199145
-33.916802484248755
-28.560307040087174
-24.026976530743305
-19.222448895823693
-12.921386654913745
-5.847809396744141
-1.4174466539495052
-2.376775458740893
-10.215110829092815
-25.479607819391806
-42.41122126594777
-51.62345156550305
-50.57004579526805
-43.78022153246912
-37.34390558993354
-35.43933901831536
-37.03386004280178
-38.7888730368549
-40.99843335418772
-45.57676001562471
-52.67781079985578
-62.23970814589812
-73.27409785042263
-83.18012101801308
-91.10380148078724
-97.49134480215407
-101.92038723087853
-104.85953452124473
-107.37703444505311
-109.23060755881586
-108.88985256805438
-104.11707877743514
-94.51630179487485
-82.4251286030827
-69.56670669864903
-56.17807897593976
-42.9848303991746
-31.139023630167245
-20.37201893531151
-8.239167257904736
7.285727397661422
25.248876718217087
43.45966112844766
60.33482198996795
74.91180562570428
88.1094886453685
101.47772707715227
113.52892427849893
121.29527583149266
123.50391430626952
119.79956028626731
111.2208921126972
100.66372660327757
89.80419527852436
79.0899560251448
70.19931248531279
64.80185367959118
62.65305448488258
62.08035905703062
62.12727458805485
63.76052156313966
67.3214891889709
70.78001441715276
72.20208531009828
71.30635523915876
68.0817995585273
62.61995704744746
56.09583882658279
49.16595303538153
40.658700475583956
29.415278190350456
15.988612882219124
2.1661174007010753
-11.41262264165831
-24.946645157110453
-36.92089733968139
-46.60865592263341
-55.448094361625074
-63.934581580540794
-72.29194107345288
-80.82230354792847
-87.8469282618656
-91.99178083372985
-94.099100999018
-94.22894947460588
-90.48161966937083
-81.93065681075522
-69.9679978439185
-56.56093404909536
-42.753476774423774
-29.498549290229228
-18.24616948272124
-8.325976961344088
2.955667655216147
16.568301869530124
31.73949124749964
46.40591063386441
57.528395391189186
65.13495150336755
71.65641701334991
77.41280092448248
81.78044960464275
84.37406816659767
84.18970822972344
81.94288928239378
79.66535164015295
77.95920903583591
77.2635589608173
77.32079009075939
75.61281908382577
70.52629958153999
63.09177763943376
55.29785672298758
48.36347548092117
41.662666075319386
34.26784741717263
26.219268722132142
17.492897402181335
8.821345892567823
1.9136879003031912
-3.2068416833998836
-7.746805913719199
-12.107105434554411
-17.346224256502506
-24.972588821715846
-34.73949040359266
-45.34014829330724
-55.375296744729596
-63.90690396390452
-69.92190755330711
-71.38884488508874
-68.22507216475273
-62.35832556945253
-54.67460662531427
-46.306834567364305
-38.94513382889527
-33.982211555510276
-31.73064899817561
-29.861826061515533
-26.929355153481335
-24.291682436079117
-22.91141280239402
-22.547163959640372
-21.69689741684703
-19.452789673100213
-17.309665646499443
-16.097047045284373
-15.220006796662771
-13.812706255912078
-10.292615077805175
-4.147274198804091
2.824573230649483
8.270299290950973
11.638979725570538
14.795408966522555
19.472583710288035
25.14535330972497
30.242479044348727
34.34862952748175
38.568617207800514
43.86061149251338
49.554934724518
54.39155556659529
58.89636207313785
64.24010288922145
69.69774610393105
74.24970816165542
77.91210644700173
80.44589963983181
81.54415862748456
82.38917798485862
85.2977823662944
90.68211523670867
96.63520938341141
101.0126223774478
102.20629177360986
100.94964631962604
98.82943155554072
95.47440882785217
91.82188448185546
89.78839378104396
88.48699396858807
86.32455559659878
83.43558683107682
81.09769145164438
79.41302740809029
76.45618478991011
71.81530725349789
67.13769807268285
63.06368362319154
58.967651691927
53.84044586653403
47.53517050318917
41.51804447714325
36.37575764034177
30.512622054256482
23.11978288297791
15.642234382684057
8.743061379045953
0.8538549626879081
-8.636564058751954
-17.761233857293863
-24.489907976726215
-28.758028004436913
-32.40474819924393
-37.40068134546538
-43.124229613650634
-47.56606314467327
-51.22111806253661
-55.73211117262931
-60.32352895722019
-63.04715500979225
-63.13099406844411
-60.51274700106167
-55.10176722732246
-48.15274370862664
-42.735058853473205
-40.06798671414098
-37.71089209319295
-32.55691448279093
-22.887737097009268
-9.60323060086331
4.134442076749194
16.404307806109124
26.348147413212796
32.21787083113442
33.50521617685871
31.85483508560392
29.312644050615813
26.789131198957946
23.38125374175957
18.672312474169367
14.904392436734145
14.736215991548615
18.071946778153166
22.61331755918773
26.70751099353808
29.572311742379284
30.476278726053344
29.8750276171699
28.92756443512254
28.614262520459373
30.20204892128429
33.4502026183753
36.40214221954012
38.21797945852683
38.83939479130231
37.827327953916516
35.59250565931744
33.71057818566683
33.538260023257514
35.23331004545668
38.55342266404492
42.61332504209453
44.64438018544343
42.70243075741004
37.88238125931556
31.99676069813066
25.76849000264441
18.732172030681472
10.762240298583388
3.4963561842020785
-2.2334922126298404
-7.999583138566328
-14.593262142294401
-20.641120526725782
-25.714442379931203
-31.234117286485823
-37.87634668066934
-44.84350508390673
-50.21126739762749
-52.55083647821456
-53.920696146227506
-57.0518950760712
-61.454312024610545
-66.09461216054558
-70.7891628234425
-74.77647122655755
-77.42441743766535
-78.52101172027163
-77.73052242943288
-74.68007190660761
-69.73763384798579
-64.50465569737545
-59.934063608019144
-55.52664097198166
-51.51171171969329
-49.50873111935226
-50.45301435426787
-53.113170218991534
-55.81002442756228
-57.883305425007165
-58.987982516880344
-59.052988162240425
-57.300620957898765
-52.67829450709392
-45.86422925141095
-37.20012011307228
-26.686231713313646
-15.689438702068946
-4.502611761379333
6.46036679480679
14.692659772465783
18.928242982623434
19.9078754868616
18.36296972642852
14.412863932378494
8.431619992665023
3.02062071239803
1.356669191389662
3.180985989569555
5.464719081846139
5.864984503521193
4.611665527167755
3.6153464719058372
3.6923152997524507
4.314876390346498
5.119829303473256
5.96308606803566
7.184641736472743
9.456982719583868
12.896249560833192
16.541428101515894
18.37116384829845
17.714366838015117
16.106775107883898
14.942773576269168
15.363141220481651
17.864290408196958
21.117015121565498
23.606502240844716
24.786536497571294
24.93376054904497
24.036379723538197
21.10492579406941
16.77366520116361
13.074234507301622
10.337067527626878
8.870448655191217
10.254420930284807
