AAD_Filtered_TADAS_FILE
AAD_BASELINE_CORRECTION: BASELINE REMOVED
AAD_FILTER_TYPE: BUTTERWORTH
AAD_FILTER_ORDER: 1
AAD_LOW_CUT_FREQUENCY_HZ: 0.025
AAD_HIGH_CUT_FREQUENCY_HZ: 40.0
EVENT_NAME: 202302060117
EVENT_ID: 13194
EVENT_DATE_YYYYMMDD: 2023/02/06
EVENT_TIME_HHMMSS: 01:17:32.00000
EVENT_LATITUDE_DEGREE: 37.288
EVENT_LONGITUDE_DEGREE: 37.043
EVENT_DEPTH_KM: 8.6
HYPOCENTER_REFERENCE: AFAD
MAGNITUDE_W: 7.7
MAGNITUDE_W_REFERENCE: AFAD
MAGNITUDE_L: 
MAGNITUDE_L_REFERENCE: 
FOCAL_MECHANISM: 
NETWORK: TK
STATION_CODE: 0137
STATION_NAME: 
STATION_LATITUDE_DEGREE: 37.704858
STATION_LONGITUDE_DEGREE: 35.723258
STATION_ELEVATION_M: 500.0
LOCATION: Kahramanmaras_Pazarck_Turkiye
SENSOR_DEPTH_M: 
VS30_M/S: None
SITE_CLASSIFICATION_EC8: unknown
MORPHOLOGIC_CLASSIFICATION: 
EPICENTRAL_DISTANCE_KM: 125.32
EARTHQUAKE_BACKAZIMUTH_DEGREE: 
DATE_TIME_FIRST_SAMPLE_YYYYMMDD_HHMMSS: 2023/02/06 01:17:33.6420280
DATE_TIME_FIRST_SAMPLE_PRECISION: millisecond
SAMPLING_INTERVAL_S: 0.01
NDATA: 12501
DURATION_S: 
STREAM: HNN
UNITS: cm/s^2
INSTRUMENT: sensor = ACEBOX/SARA | digitizer = 
INSTRUMENT_ANALOG/DIGITAL: 
INSTRUMENTAL_FREQUENCY_HZ: 
INSTRUMENTAL_DAMPING: 
FULL_SCALE_G: 
N_BIT_DIGITAL_CONVERTER: 
PGA_CM/S^2: 25.628
TIME_PGA_S: 
BASELINE_CORRECTION: BASELINE REMOVED
FILTER_TYPE: BUTTERWORTH
FILTER_ORDER: 
LOW_CUT_FREQUENCY_HZ: 
HIGH_CUT_FREQUENCY_HZ: 
LATE/NORMAL_TRIGGERED: 
DATABASE_VERSION: 
HEADER_FORMAT: DYNA 1.2
DATA_TYPE: Acceleration
PROCESSING: Automatic Paolucci et al., 2011
DATA_TIMESTAMP_YYYYMMDD_HHMMSS: 
DATA_LICENSE: U (unknown license)
DATA_CITATION: Turkish Accelerometric Archive v 1.0 - Disaster And Emergency Management Presidency, Earthquake Department
DATA_CREATOR: AFAD
ORIGINAL_DATA_MEDIATOR_CITATION: : AFAD - Disaster And Emergency Management Presidency
ORIGINAL_DATA_MEDIATOR: AFAD PROCESS SERVICE
ORIGINAL_DATA_CREATOR_CITATION: AFAD PROCESS SERVICE
ORIGINAL_DATA_CREATOR: network: TK
USER1: GuestUser
USER2: 
USER3: 
USER4: 
[...]
-11.665120761531492
-7.214350618080753
-1.7543281180539896
2.890480200857676
5.390295251222706
6.0799232365789955
6.656839655037008
7.109480992524586
5.038488782609732
-0.2167191195374164
-5.666419151033302
-8.379210754668895
-8.565157039133519
-7.7786060336001075
-6.504107399513481
-4.746993240922866
-2.5621264685213334
0.15567566765023685
2.7178732344455305
3.6510383831187596
2.129852623443039
-1.0808726266770667
-3.672385285068478
-3.8202421200153123
-3.173641678691521
-5.000944868525311
-8.380326215824796
-9.458531833884296
-7.17867371478698
-2.8077850491648686
2.1805352054234066
6.301487736352773
8.473444132778816
8.243255191265563
6.431467503048266
4.81035946278164
5.065028136116905
6.604079149009044
6.052634915521147
2.466960511961786
-1.7401319235578085
-4.155981510245909
-3.3970800786315802
-1.4279825594898166
-0.5537032734414518
0.4132325894215877
1.6450051260298952
2.554544659955769
4.309840790864197
6.0602810261839855
5.672964560990016
3.756897778879836
2.082297528491616
0.9757387305584926
-0.020641077466852658
-1.202244250387496
-2.1568867190696466
-2.212988039478987
-2.35186783493474
-3.5614173896456065
-4.869757210369045
-5.416199429166677
-4.767505981308719
-3.0149197868834077
-1.0284816173067926
1.4540049038732088
4.324656286135684
5.460072744553143
3.5783375727767193
0.2507404828278561
-2.142183400697963
-2.9956428490724925
-2.7104295992585485
-2.181060305563429
-3.0014769929168086
-5.801999759946715
-9.528380674216
-11.018162152638245
-7.668441620322662
-1.9736590567795993
1.84513787268441
2.59772748171469
1.1629316459846128
-0.6777859579046904
-1.5596554909266027
-1.8573310283709714
-2.613975835634549
-3.7552792430954707
-4.7668637623007255
-6.480742346809113
-8.685166391374405
-9.66376896053891
-9.144984663242667
-6.516583720742881
-2.274780953707995
0.5905260232386011
1.803992820261182
1.744803797141821
-0.045958507147327195
-1.97030597704644
-3.4932750575949165
-4.023769850292825
-2.6856878114074885
-1.6642327156751717
-2.365616270451117
-4.352092608302158
-5.736951021967018
-3.53428183105997
0.9515151902842826
3.7325325603022432
2.9964682094260464
-0.41665649698377405
-3.720828679324368
-5.36043416768529
-5.428119058757032
-4.37673207475017
-3.5821480225134965
-4.203467579463144
-6.381135011657916
-8.431413217274455
-8.470255963313065
-7.438317144743552
-6.414266686833752
-5.66373166824399
-5.82619853428867
-6.463732866283408
-7.42000478718283
-8.634797171174887
-8.96930048504285
-8.282767517853383
-6.633145627570805
-3.7541235166385443
-0.35434789692845753
2.632175761650218
4.262877680865251
3.743028498729666
1.352966175532317
-0.27292869117932217
2.0520619438374004
6.959355977384174
10.647278047950824
12.16663811390553
12.1408838372637
11.29971667863718
10.395902436933511
9.73047433337137
10.349461229941564
13.231803700083105
16.780789268101866
17.773442793442882
14.490144827816145
8.401515903258643
2.967252430625546
0.45345590320214507
0.5641985522819263
1.096233069610685
-0.6986249939365591
-4.746250444453442
-8.183223685016172
-9.734489724871036
-9.09942869549482
-5.396363407052837
0.20169450899331864
5.437552315061471
8.752848073284186
8.656883774686417
6.129550199600475
3.930292889779702
2.692732946214841
2.103657575899284
1.411041666962731
-0.34866191687731646
-2.160235967306294
-3.658279285639988
-5.114177615395189
-4.976609279068328
-3.1544086097294524
-0.9588029231938581
1.2572030631435689
3.539759878442309
5.684661185594344
5.574122977391808
1.8318480635619576
-3.4041998582436945
-7.812826749498011
-10.397299837321805
-12.057659676216785
-14.407812577336495
-16.39138227061322
-16.038981282151997
-12.732096618929024
-7.265931366308784
-1.9177911758745696
1.075509069394532
1.6258065359327374
2.2234705135638286
4.084895020630842
5.315815699307572
4.996245211130338
3.8287184874456908
2.3880289056512685
1.6278754770860617
2.097156112199776
2.9821399517995864
2.7195219884942707
0.6985454438225498
-1.8483259871109634
-3.896883452459021
-5.042457166060711
-4.254676437742166
-1.5194895569699918
1.7000158577277815
4.379563833886642
6.620907931921317
8.539281911040971
9.059864000091393
7.592830665864941
4.246919364470196
-0.6903058005412928
-4.443667509495373
-5.218990365891557
-4.576049368668924
-3.2937759199994425
-2.0310605549245158
-1.3844222115302376
-0.6891264903412526
0.44339043232489733
3.053851910129656
6.784973721157734
9.276763331616444
10.53826306652199
11.613345982471344
12.171581704601767
11.66626692319538
9.98133928707798
7.843970292220356
6.472903724526905
6.362111062352676
6.448152740460183
5.211287511490045
2.500797133414379
-0.5600947235457719
-2.7656016112155757
-4.548243109538139
-6.995792502423198
-8.968385282241831
-9.036115535195773
-6.70223215137739
-1.600602195569017
3.437535983865906
5.538171154017616
5.5899806753632895
3.6188551731737713
1.5683954678185736
3.25899732845251
6.514493698490023
7.8925210337211755
6.460057595472604
2.4407755363208574
-0.754486748155112
-1.4649148325414658
-0.9414656332561995
0.8375268612044798
3.361125929329037
4.940890504372606
3.469615834909942
-0.8404395876873018
-3.9973257165489224
-3.8068176227741195
-1.3309718756834614
1.4426147635377675
2.3273808041678246
0.7916205973079546
-2.0665874316410746
-5.077860254811927
-8.045774954888744
-10.527529963047076
-10.628545735151146
-7.613545000004972
-2.382992337120483
2.892106920245563
5.675905373953508
5.561435169321778
2.5868826627774966
-0.9557278670964089
-1.259438266311514
0.1623816533442899
1.2157975106212577
2.3627163094569004
2.6651051651991815
1.929230012313534
0.27970383077547684
-2.293185703370365
-4.470650496916123
-5.2246576147244035
-4.421840334117142
-3.9677077768350655
-4.7197080589495
-4.270389012489527
-2.2532385599783438
-0.29980874542104774
0.17363791558986816
-1.6239807638954165
-4.0100057824945585
-5.2505082596614825
-5.08460410221963
-3.804008533868557
-2.581200632269358
-2.199525875761762
-3.5103337182187544
-7.255365341729111
-11.326281075693098
-12.424801803444085
-9.413030136010622
-3.7570433278765485
1.9614999913214068
5.966268660912327
7.393965478853409
6.162618311933002
3.496443293304185
1.1791708974394879
0.6615075698474097
2.3595141468148535
4.516505386807622
4.448437668105867
2.2480692493185486
0.6547862042638916
1.0248910913892826
2.8184810304974515
5.502427683177114
8.467180871287237
10.852528176231301
11.757592736030462
10.64642350819876
8.250969441099144
6.164781513833523
5.376532962033665
5.388836079743142
5.169288427721749
4.417097201777384
2.8152923422052085
0.21353593743705696
-2.6501689078980712
-5.28870158720257
-7.136124828988678
-7.082456347178442
-4.724826447596145
-0.3225943832583156
5.003640906360662
8.458109704708203
7.610844503402635
3.5813290927538373
-0.33409806620169125
-2.902309185559297
-4.7818036609955685
-6.53852947731817
-8.175943443551034
-8.788797899061779
-8.75628477160536
-9.821792094769746
-12.024424800741452
-14.51471517300657
-17.006239034302688
-19.743581203329377
-22.803519084185545
-24.970721364889346
-24.681653274940988
-21.037807151010743
-14.984954306152868
-8.413699771193125
-2.3540699337451163
1.2226004958783834
2.0902720234067202
3.1035002544071912
4.751509341064278
6.555813808304737
9.877227058329153
14.593254593205291
17.798686439171313
17.03423590154483
12.736061601474612
6.376956126394089
0.19114142351824054
-2.352176331811543
0.16548143976681326
5.523117853723034
9.751650238747088
10.529308352093343
8.213505856946044
4.396449808677199
0.744018471083003
-2.119202769158925
-3.816318748617161
-5.430188314653877
-8.28401103458742
-9.623892997818311
-8.64743839665926
-8.541929660874557
-8.885897387252427
-7.558493968479239
-4.704579282607755
-1.010099731001686
1.6669298160364492
0.1444738144635845
-5.478251098317086
-10.723646997075003
-12.156555113183368
-9.706853996848997
-5.584226406238299
-2.2272411857547656
-0.40626438177788826
-0.06536127027743316
0.39855608888612076
2.6615583022664295
6.265050289627447
10.855185835127797
15.450624850480763
18.580972153282097
19.55441185182356
17.883172435565427
15.215762968621762
12.29998021536679
7.381338177832185
1.694506043616667
-2.0485186201798284
-3.421832111417238
-3.1620391399823276
-2.1233185820471525
-0.6901460545686805
0.5265162097507479
0.671350080532407
0.20248804186660718
0.6280602112161268
2.6059976525904793
4.774703569698676
5.831677423625173
6.0338582058596595
5.288935401952123
3.5566906800197784
1.8747869142141635
0.740337649846772
0.1401332959746567
0.17097230790018303
0.7816039326254925
2.6469043690820855
6.056603794797111
8.942999737448924
9.94113345699281
10.542110290790887
11.597922458592608
12.824116196938188
13.925313011741666
13.508464218481166
12.05668702893142
11.954835046777102
12.839025602879467
13.295509871104196
12.531022488694223
9.914417876163808
7.037738267982606
5.406529271427601
4.485518881821893
4.556514517705136
6.304973950405433
8.929188488373034
10.271240702554309
8.43137725855153
4.192428221822895
-0.5779698033433688
-5.366411711517271
-9.598236392625125
-12.080051442875154
-11.911604810623333
-9.403919543105006
-5.8659289759231825
-1.98453871483993
1.1277287281352124
2.139209442005668
1.1899959212992905
-1.7522961402040163
-5.663066518223971
-8.708612247606744
-11.67094886334958
-13.499758852248355
-11.07320610048295
-6.0390263626377365
-1.619481877671786
0.5629476841555421
-1.1107890172878072
-4.4484021492066805
-5.446601575634603
-4.240275866811183
-1.9789608159334593
0.9754436724129071
2.7773564367620187
2.0409951675880507
-0.19348910219932422
-2.035208698100052
-2.9717235177590275
-4.165314700685142
-5.922086595572949
-6.011916912277533
-3.4362494049095598
-0.7392968934016207
0.4867542897416434
0.5958701116484293
-0.019885431908037567
-0.25356657351406464
0.11979437164059077
0.5390803201516097
0.19248321138903832
-2.427693052738664
-5.575559590938894
-6.716252010716322
-6.7937278044345275
-6.011694314748354
-4.910495778100664
-5.3689341316314225
-5.917175565399681
-4.903109363629131
-3.807910893852208
-4.346324661491761
-6.7606779203585265
-9.256294288341554
-10.170284948704234
-10.489589043144422
-11.718948964121708
-13.483184294309021
-14.235520302358719
-13.295808028491221
-11.067548200197745
-8.359767599084
-6.394616510927678
-5.225113403538139
-4.138892688028292
-3.4029717865794598
-2.208855011942807
0.7338430979272984
4.536047827361604
7.797981121091864
9.318352020338724
8.266503867255032
6.011230242084396
4.308745178205125
3.4431587195042854
3.560741434900238
3.9227766722617186
2.533732534901471
-0.4704049536806861
-3.00265929472641
-4.801447955715365
-6.777984228895487
-8.956763521590847
-10.66566973167021
-11.278767383491312
-11.037961269029227
-10.257126738443125
-9.484545568708157
-9.365605173682127
-8.71651032314657
-7.109954938290992
-5.414638466957073
-2.9251930048479853
0.3388467986095681
3.727633124846627
7.748216818437098
11.551016494519274
13.835111819845864
14.886347966818839
14.628414069562544
12.739066065272036
10.398092134346074
8.427415481562525
6.122148332611598
3.4017378888959717
0.9075318165681575
-1.2796190889816428
-3.3586828377032436
-5.2110983222362846
-6.422972528404295
-6.658925631102234
-5.637909544053857
-4.160070017928741
-3.808062402363643
-4.75856599304468
-6.755349623712638
-9.341120988589331
-11.429906518938736
-13.076611578145723
-14.098649200580185
-13.6804074050433
-11.806963085976419
-7.676224462208649
-0.7052560747812909
7.311586076421568
13.598865818488505
15.987158025003293
13.545969528533627
6.766814406171733
-2.050244665859972
-8.862197314405805
-10.548950984377841
-7.118693646913396
-0.7066503508795194
5.009550776124548
6.526040779028377
4.922004701467967
3.6402168550784304
3.5438161544701865
4.524877846500517
5.652604203822574
4.912986479409512
2.1922797576824626
-1.1695285629093088
-4.03334380244654
-6.111994855889144
-7.146903801722152
-5.650187565228461
-1.1594138054803622
5.061760283878915
10.758719691197916
13.026657567551577
11.059638489797534
6.686728363079531
3.1870402437426026
3.440677671970634
7.019660435404373
11.107479712108757
12.626416546466151
10.779720602174601
8.065481331447934
5.686343938465537
2.935228251928883
0.06184660624982511
-3.0996485908387226
-7.227460096599844
-12.070161009747004
-16.800062214928207
-20.24593910844673
-21.182499718244472
-19.647333402804477
-17.198601491192417
-14.510109994728813
-11.657006267515149
-9.923530887362123
-9.104334751497674
-8.001656252258835
-6.860412168674606
-4.772111569708513
-1.4261372029834465
0.6233806182362013
0.7384023577154941
0.6652715543053008
1.5092392956228182
3.878419158972411
7.040949053009647
9.381825968718468
10.73569091164844
11.520680464845038
11.771508337192984
12.301671080651326
14.10264247586733
16.918502561963525
20.23844281349398
23.679485852994745
25.711264576547382
25.413806250305832
23.789155388574414
20.643366508324423
15.37346649778793
9.82374564642943
4.929594736727018
0.4001765726258379
-2.347075292905682
-2.8258823331222764
-1.7123186243541537
0.8277139532417706
3.935454173024348
7.304028714236776
10.447682744639167
11.650889960263
10.610551179538326
7.879726178382889
4.8622747292529445
3.9534103638563964
4.9677013853142284
6.040447217103368
6.683792709157646
7.266410637603808
7.406452166179786
6.12468679701473
4.182392672797532
2.720624543462146
1.1257032997120826
-0.8638071573569474
-3.1813854578238048
-5.657460456858541
-7.029549839022654
-7.127041584647199
-7.050709470835906
-6.788031580623641
-6.102812572712825
-5.578545685630085
-4.727669054997562
-3.229479338906477
-3.1115168440800827
-4.406148163069099
-4.513802127531718
-3.0905093420270338
-0.4807600066682147
2.446145683981248
2.290359927369309
-1.311790417045847
-5.36065016181132
-9.412398869939738
-13.080986111605505
-14.11296134425124
-13.197098330260408
-12.79764318452717
-12.822860679459716
-13.023897709272347
-14.157324722273579
-15.548037946619836
-16.77816326469407
-17.69343416771673
-16.28705180088866
-11.946443940659423
-6.529402681056779
-1.6845980240475231
0.8186972062180236
-0.11716174123149692
-2.7707663245464667
-4.528497826374988
-4.833640399896358
-4.384868961928949
-3.546043466509887
-2.4675793694919594
-1.1978774390468885
-0.41339908518969054
-0.9699046510725651
-2.222529765907784
-3.016431372734759
-2.41352773238335
0.14414578364100816
3.230251295191872
4.702555458336996
4.13101156132974
2.3919911867325663
0.9707599224478994
0.7803661832634887
0.5312731331422109
-1.6049640537493406
-5.663413444159496
-10.022934798398131
-12.401950119082414
-11.923156602431435
-9.605186187465964
-6.3999984328305795
-3.0801131315540826
-0.3584589903400218
2.2068752910837297
5.189850471484359
7.744753440472113
8.984311956428408
8.832934548944722
7.125858501509399
4.60568474975423
2.6804381493392837
2.0231632752395594
2.382933145114084
1.689788949373343
-1.0135833909266336
-3.700499461617684
-6.238463134492248
-10.183036199014548
-14.860270008384298
-19.03568219135737
-22.003302130657428
-22.349907189711526
-20.069255493620602
-17.08533472098825
-14.310940585855422
-11.924872361934362
-8.953024369515314
-4.1262265442976975
0.4591392721268142
3.639486783695694
6.159943056032912
6.3810397769300415
5.1308468425132085
5.613891793584147
7.398244642987779
8.48962464649909
7.62756590215391
4.431359358701332
0.19489743008759078
-3.741111497093097
-6.647530247346277
-7.526855053185204
-6.635456954588898
-5.495110613001711
-4.688626986448143
-4.483141396182221
-4.886866805166596
-4.976125790716018
-3.7104568367258737
-0.258677514348239
3.927127635992066
5.949521436975832
5.543728973225422
3.9875830406720802
2.0763199611277883
0.6720082039519422
0.590281990108365
1.4104064978137556
1.8777103078862738
1.7146068087177242
0.38111847344000255
-1.8683083196256003
-2.2938661049248377
-0.7559630190463142
0.5788260841651778
1.9809414728114276
3.6865486334924493
4.9717270958684106
6.686507675341929
9.555488175984568
11.809553998646035
11.046158691400016
7.807899575918001
5.143892944512992
4.431119179814011
4.2095963074793294
2.9998907129064656
0.8825196382922758
-1.0107278913362503
-1.894724801481291
-2.1062333031209257
-1.5216184016686718
-0.5096598844302858
-0.6192523331296902
-1.1589985196007153
-1.2755664123771162
-1.5329942731761166
-0.9404942535135237
0.7522378477805418
3.3602868265119747
6.904274919724612
8.862976065441517
8.80044272011285
8.467847072218321
7.246691210223661
5.319057589869705
3.626530143716558
2.1967160231469647
1.7614254528279782
2.10256760677857
1.8350310382968744
0.8045996744669911
0.4671791871566377
1.6484614350043274
3.2758237351479766
4.910371012988222
6.453978733250958
7.107481169956443
7.591876575439567
8.177344520205832
7.593756929704227
6.200936674775722
5.099323538371049
4.466972699774752
4.1277561025846845
3.84007442683054
4.045852066478152
5.35365433324671
7.44222261241601
9.21625970567744
9.347667116272785
7.597492976840619
5.180999871257319
3.4099278347757855
2.5354996920694517
1.8575312274442206
1.3583024792835403
1.4579916645739652
1.4480880938264342
1.0142796001798355
0.5888049258507799
-0.5368183330880116
-2.9051185119176424
-5.5867156847602
-7.643605885386372
-8.82314875700519
-9.37034879232053
-9.609501492271143
-9.174328273126521
-7.595980751074758
-5.354191953620879
-3.291098743023437
-1.717791439417735
-0.47437960925581224
0.7583850555305369
2.1220217561384738
3.458548880439923
4.45282579077826
4.916936361345806
5.351002888415244
6.418293495280667
7.951065696183064
9.650672422484803
11.537920245842265
13.025661340828655
12.970389843223833
10.835188832547791
6.7541322595784905
1.2410068626644106
-4.028087053268274
-7.231625093680393
-7.7024154670715825
-5.295456833629094
-1.3613514915175862
1.7942254442291252
3.2947371077889844
3.9291476130755254
6.037120011641673
10.50747281652448
15.101516349007206
18.09073492007555
18.737327149154822
17.22471360396764
15.418119598345976
14.569621373973563
14.932882932851438
15.56502059857583
14.722754722110565
12.557564858303136
9.892800335919901
6.732232537908377
4.1093872303497445
4.1101450702702635
6.748893965061271
9.400204739437966
10.38736449493773
9.14899020284264
6.26028575500589
4.130742862036093
2.8233947808956303
2.19278658913512
3.738802496578048
5.003438792076028
3.866496564014624
2.1026142540683943
0.8364933317398052
