AAD_Filtered_TADAS_FILE
AAD_BASELINE_CORRECTION: BASELINE REMOVED
AAD_FILTER_TYPE: BUTTERWORTH
AAD_FILTER_ORDER: 1
AAD_LOW_CUT_FREQUENCY_HZ: 0.025
AAD_HIGH_CUT_FREQUENCY_HZ: 40.0
EVENT_NAME: 202302061024
EVENT_ID: 13207
EVENT_DATE_YYYYMMDD: 2023/02/06
EVENT_TIME_HHMMSS: 10:24:47.00000
EVENT_LATITUDE_DEGREE: 38.089
EVENT_LONGITUDE_DEGREE: 37.239
EVENT_DEPTH_KM: 7.0
HYPOCENTER_REFERENCE: AFAD
MAGNITUDE_W: 7.6
MAGNITUDE_W_REFERENCE: AFAD
MAGNITUDE_L: 
MAGNITUDE_L_REFERENCE: 
FOCAL_MECHANISM: 
NETWORK: TK
STATION_CODE: 3136
STATION_NAME: 
STATION_LATITUDE_DEGREE: 36.11593
STATION_LONGITUDE_DEGREE: 36.24722
STATION_ELEVATION_M: 269.0
LOCATION: Kahramanmaras_Elbistan_Turkiye
SENSOR_DEPTH_M: 
VS30_M/S: 344
SITE_CLASSIFICATION_EC8: C
MORPHOLOGIC_CLASSIFICATION: 
EPICENTRAL_DISTANCE_KM: 236.36
EARTHQUAKE_BACKAZIMUTH_DEGREE: 
DATE_TIME_FIRST_SAMPLE_YYYYMMDD_HHMMSS: 2023/02/06 10:25:07.7457460
DATE_TIME_FIRST_SAMPLE_PRECISION: millisecond
SAMPLING_INTERVAL_S: 0.01
NDATA: 14501
DURATION_S: 
STREAM: HNN
UNITS: cm/s^2
INSTRUMENT: sensor = GMS+/GEOSIG | digitizer = 
INSTRUMENT_ANALOG/DIGITAL: 
INSTRUMENTAL_FREQUENCY_HZ: 
INSTRUMENTAL_DAMPING: 
FULL_SCALE_G: 
N_BIT_DIGITAL_CONVERTER: 
PGA_CM/S^2: 18.604
TIME_PGA_S: 
BASELINE_CORRECTION: BASELINE REMOVED
FILTER_TYPE: BUTTERWORTH
FILTER_ORDER: 
LOW_CUT_FREQUENCY_HZ: 
HIGH_CUT_FREQUENCY_HZ: 
LATE/NORMAL_TRIGGERED: 
DATABASE_VERSION: 
HEADER_FORMAT: DYNA 1.2
DATA_TYPE: Acceleration
PROCESSING: Automatic Paolucci et al., 2011
DATA_TIMESTAMP_YYYYMMDD_HHMMSS: 
DATA_LICENSE: U (unknown license)
DATA_CITATION: Turkish Accelerometric Archive v 1.0 - Disaster And Emergency Management Presidency, Earthquake Department
DATA_CREATOR: AFAD
ORIGINAL_DATA_MEDIATOR_CITATION: : AFAD - Disaster And Emergency Management Presidency
ORIGINAL_DATA_MEDIATOR: AFAD PROCESS SERVICE
ORIGINAL_DATA_CREATOR_CITATION: AFAD PROCESS SERVICE
ORIGINAL_DATA_CREATOR: network: TK
USER1: GuestUser
USER2: 
USER3: 
USER4: 
[...]
6.7671867060217314
5.780029024365987
4.500221489339235
3.642268382295401
3.278556959477257
3.381292855439662
3.692918743074598
4.019645578328553
4.449600859838743
4.509018894434852
4.211246292994156
3.782524309281708
3.188444717574986
2.9798398691466543
3.0234117285157884
3.3326637080132486
4.008255901959344
4.354092672381274
4.664597428928865
5.232550187462235
5.878473012271421
6.445202133606514
6.365285329094688
5.769335451036921
4.6452516663611485
2.794707527475427
1.075022342258452
-0.182027657606909
-1.198574645814175
-2.144960781505161
-3.248418270792396
-4.150059324749731
-4.79520066829531
-5.068639235642489
-4.6238651626859335
-4.105313144611417
-4.093988024971766
-4.735647463675126
-5.813351486550504
-6.607191953380749
-6.7201873281277695
-6.200456236141267
-5.5875570438605076
-5.5109742727127164
-5.931859946510064
-6.572538135833333
-7.33034440867349
-8.164924285123018
-9.363088435819744
-10.945450518938992
-12.36453978867722
-13.402065189079794
-13.909151076171845
-13.66905737693152
-12.964239186291012
-12.287379108549358
-11.985463731670876
-12.042600121521575
-12.158989962292068
-12.241052211091885
-11.88776755303419
-10.714533067094294
-8.752920478217973
-5.642134886422712
-1.714152629929049
2.428475611272803
6.900036759062986
11.007783508894768
14.03506116173889
15.937412611556061
16.711898072665008
16.867610341357103
16.395176183222922
15.224828369646607
13.823973377498108
12.140818167465412
10.719833988797063
9.876414523184307
9.661783586213152
10.507279595679435
11.612050840606678
12.500843368378057
13.006937866801929
12.525942722214415
11.399293883732792
9.770931205201222
7.834140939727649
6.288031973711494
5.061043774045941
4.1549150421726
3.444955034786264
2.8497039300269766
2.5839130001339554
1.8445715512483152
0.5926675775816616
-0.5923307914055708
-1.6459181373603093
-2.35237242003766
-2.940172185038809
-3.364924924478061
-3.6333295282378386
-4.113646797801318
-4.567744676156347
-4.777816754870852
-4.808963528031966
-4.868915557753875
-5.378050759079004
-6.19441414755111
-6.797351900536471
-7.510530038629265
-8.466912588114928
-9.322430153763765
-10.05028403083859
-10.271751723772912
-9.591649025540631
-7.871563886299225
-5.702791393073592
-4.116489323224714
-2.775580420821534
-1.359494130629632
-0.15389046092563183
1.135124250094739
2.07496683320171
2.45500176357694
2.581762223669979
2.1557566504444545
1.6540851791856512
1.1811093085333215
0.3462901043799969
-0.6456217853930442
-2.065900942872874
-3.389979720418388
-3.742156410250277
-3.484633273932238
-2.669588999797509
-1.6997315413757992
-1.3893003197470881
-1.0818579377698592
-0.230689198693927
1.1727205137081569
3.2018904717737753
5.139035647022108
6.400090130510485
6.81950685987001
6.777761783962197
6.97337580366985
7.293521784683485
7.846813643905886
8.347436944361778
8.045245461130994
7.461164901705947
6.773961798499874
5.847319171589852
4.97605931297483
3.6202131120207377
1.5664707030017102
-0.7198092150852802
-2.549719174741241
-3.351822980201512
-3.5463142692103555
-3.404321457841813
-3.254303787705343
-3.7196459827411257
-4.822607238699991
-6.49079283944041
-8.127200360947429
-9.154972155461452
-10.070521429642891
-10.909694045644315
-11.372295985642204
-11.660666255563543
-11.381359038780719
-10.412117002125942
-9.13200624984948
-7.913875199294695
-7.550190112334327
-7.6435692106380175
-7.538581420252944
-7.431461466514608
-6.98671303878099
-6.528969070025601
-6.535837882612738
-6.644210092985437
-6.6191987584737335
-5.960825602721316
-4.747333521380164
-3.6732415177559625
-3.0756992619624755
-3.183790260666693
-3.8270316503226693
-4.662537523473886
-5.06696364089567
-4.516590347539887
-3.474965513219204
-2.374288084816058
-1.4522219237639533
-0.9693591459394317
-0.5213558235284514
0.06988670375313243
0.705230184866497
1.5200202114673367
2.1234753075826025
2.7116890580571944
3.8683959332750395
5.270318000739426
6.604760693833037
7.254410797290153
6.93662869489552
6.275716962946996
5.511658954624039
5.1514131034548365
5.486399797484533
6.02506410053601
6.343664196641924
6.130949206881278
5.74298474969182
5.4152790801097686
4.888418375337883
4.131386125141601
2.947325088382938
1.6636611320681192
0.9231361347265904
0.7951571877359325
1.229848347215634
1.862308815601591
2.223801548496259
2.288435170166495
1.981909065536868
1.4673063531371373
0.9090645321076626
-0.057698626506340535
-1.0769748129737124
-1.9760199800934164
-2.8020165368994214
-2.6028045860315885
-1.5364395484518336
-0.41610341377357496
0.5581381319842491
1.1051238414176099
1.4168503108350199
1.6523240148784732
1.7504594665053135
1.953473421950476
2.030958830248863
1.9222790129947689
2.188520536162683
2.708437553566873
3.1467097165919196
3.3872057223668017
2.928099259786238
1.6962908954985803
-0.06348297531961798
-1.9561804403810819
-3.08318680154945
-3.4404974280364096
-3.6871781010148665
-4.173516088507373
-4.816034336476382
-5.196954534449615
-5.401602599951394
-5.1273918822857985
-3.9724868976516423
-2.601026668560726
-1.5333923094898207
-0.9180443237098859
-0.6331524846596959
-0.5282794551178813
-0.9165815314024855
-1.1191958388345513
-0.3467390269537463
0.8522513743450796
2.2509881057551233
3.731165664808541
5.041412113575051
6.203570238449756
6.941392820998416
7.452991104594317
7.6693080233734685
7.06226224015959
5.919007444409539
4.4231737047835376
2.7598542233566365
1.1039444214260499
-0.7401018891213398
-2.3777105769763915
-3.829374531004257
-5.234807440336359
-6.125909406649277
-6.662787214305614
-6.907306123726059
-6.71642701701777
-6.206440599779082
-5.510393157071609
-5.0269986714139545
-4.808688669895065
-4.856777877757714
-5.280276513665428
-6.084774718540197
-7.416809326219606
-8.746630133678215
-9.617700261313415
-10.368294028618395
-11.246953434572696
-12.247088910072176
-13.131547980094853
-13.536659058338502
-13.171006044754868
-12.209298748508548
-11.270644059059673
-10.550363825863139
-9.601414928904058
-8.074257608157616
-5.880956838671299
-3.0652632837157507
-0.33488845318691035
1.7560358172756667
3.31565621877056
4.44012520751884
5.647632101576056
7.066136798351696
7.8990331123182385
7.987736498989307
7.65154313535266
7.093132414037729
6.766807253378421
7.108342619345957
8.24664198549306
9.343652970233824
9.379656552893364
8.40685991537916
6.6660084080346875
4.847271969888557
3.4954767150352013
2.3908413212036175
1.8661478034600372
1.6126553336325344
1.031008372265037
0.4657692990324612
-0.1401755102953521
-0.9902585514050987
-2.016304712338585
-2.9425984045222693
-3.3454906392327723
-3.388369401195567
-3.2390112607469783
-2.7202658647524003
-2.0267469584288524
-1.394164380362989
-0.8725775333553989
-0.3576971897273525
0.3854817910621463
0.9357581781052638
1.1935059569730295
1.3131436589606058
0.6988115722352357
-0.3476728315504403
-1.1917005842475707
-1.6315652890702248
-1.2731254679208113
-0.5216957837402795
0.2167878824795217
1.2263795144794465
2.0725900646102127
2.2582670109889182
2.374216425418027
2.9134964672312584
3.4842723983269295
3.6587418236694114
3.6438358002551356
3.5254155056644447
3.033954989491901
2.6087497535752773
2.335037847514066
1.5579925603682376
0.10453538082211825
-1.8105104521015352
-3.279570780996881
-3.859040551709753
-3.937479701472776
-3.53831712605567
-3.0393090641435663
-3.0276254976703125
-3.5019228657114065
-3.9044942274271492
-3.8748905951311623
-3.65954952608672
-3.3806621481455665
-3.1190762081230545
-3.419089891722359
-4.350360620944765
-5.448635133151233
-6.635524756058837
-7.43400240288132
-7.700407739180836
-7.761618360237133
-7.466389962270437
-7.214010115075639
-6.764685601909064
-5.645576418562666
-4.463556274546106
-3.554783150409492
-3.3319380989814835
-3.7494882987557636
-4.427600380855679
-5.378948570321314
-6.0844622415319485
-6.7536326435907545
-7.509255963419477
-7.677951429299281
-7.736001439603049
-7.665219450587668
-6.9177241648346754
-5.795094302374926
-4.429156270329972
-3.437064931914643
-3.1316675011465396
-3.0383533871173385
-3.1442416454964563
-2.9473527958336647
-2.4481800676481824
-2.5727848965386166
-3.3628853533763867
-4.537250201300464
-5.519493195170586
-5.78770225946282
-5.528844689069439
-4.8665780164093215
-4.737064048155342
-5.948495637355743
-7.770656684279474
-9.434668086621478
-10.526224844959488
-10.920952785953173
-10.910840654953077
-10.993965673599297
-11.725243378186375
-12.815456888754909
-13.452123888966213
-13.576118315213531
-13.261631886223574
-12.402222225948984
-11.317823586386144
-10.074338322625263
-8.620407380071788
-7.078656060725197
-5.251150449721828
-3.414585812806173
-1.9812016384652005
-0.6485102017376065
0.9242447521035096
2.794997625400686
4.4807749936505346
5.986038076214744
7.59892899953215
8.281158248517999
8.25218886280803
8.243640175975914
7.5128962036619855
6.430499424596167
4.816685784946011
2.677723979806106
1.3338390282536758
0.160355987329067
-0.924971515571323
-1.2699937394795888
-1.1912562311228807
-0.7339327872230742
-0.18278227948084982
0.7468772126397086
2.0494706468051054
3.079776466919569
3.803295649633031
3.735335171057186
3.1867590679971887
2.8599895444988412
2.2548491944667894
1.4233683816220988
0.2683028937443637
-1.4796964518203382
-2.9798244697130594
-3.8847403636470026
-4.456153835943767
-4.931102920087924
-5.134216696032803
-4.761296772121782
-4.456086424649729
-4.746313929158994
-5.522275706569213
-6.4099045319379755
-7.1120689573619105
-7.910411489331461
-8.729859865821615
-8.670013335917018
-7.64320621995171
-6.532755910589219
-5.695149098560764
-5.353057918729276
-5.762583392429971
-6.890459121887689
-8.40274358266749
-9.772190687112744
-10.817004710882554
-11.31788965270955
-11.425666872830602
-11.549507120055226
-11.598855050025575
-11.553907773933197
-11.361868514131803
-10.949028990765354
-10.404339179685822
-9.702666262648123
-8.99666821302824
-8.877252967583887
-9.642287584547006
-10.818826422119118
-12.403249300336327
-14.483620837797842
-15.88853324080994
-16.168803519889806
-16.325545951184314
-16.572362632755837
-16.45576628665269
-15.942328079732128
-15.075853006778912
-14.083738272665489
-13.003078744369944
-11.247793980241642
-8.957643305891402
-6.692555795783236
-4.314286499058206
-2.088361255949665
-0.4354525501767585
0.8806900052105325
2.175697859556748
3.6880344178941735
5.191288132042234
6.205172548765242
6.691378058235609
6.802502157088342
6.830580644524467
6.854387028488911
6.6373506459082225
6.479626934937322
6.4574831947377795
6.344696753433788
6.368206435102519
6.239664438490351
5.9148339002293335
5.568133950204222
4.970433193295423
4.289006327700408
3.248735155591817
2.030740274502864
1.4138737019593466
1.4699001586616487
2.162688599091066
3.2702593929735553
4.601011706185898
5.685405402426166
6.203212598909698
6.744977717433593
7.337346579477944
7.678623987107823
7.80017277797315
7.579976693349925
7.028580927803606
6.441188030515555
6.119195370207565
6.304686370941531
6.830048135098469
7.3986190913912635
8.31888813095307
9.59028350727634
10.809421869821714
11.973087783332064
13.076189334040528
14.065618753368375
14.721187848742407
14.83295629817127
14.88752147520718
15.260834883893173
15.801317594947509
16.280587724495565
16.370942943014402
15.888837264095423
14.736168114077573
13.417219713011935
12.444982101934906
11.174118866510407
9.451712526436907
7.4667123311384715
5.387968298115535
4.0401497707639376
3.2786132627964024
2.8880891087880607
3.19348325026917
3.663480623632576
3.9305086645769207
3.9648767776869374
3.7767493752794894
3.4776738363267
2.8785385769610277
2.259816867449661
1.979145136770564
1.8491488335238384
1.8309346012484573
1.8723026216483634
2.0541281793944286
2.5804563486549346
3.1633111586817226
3.6219896623671186
3.7371440570507604
3.0153059096856127
1.7834681553757126
0.6146379432744387
-0.4604167338109005
-1.3548945492801527
-1.9103772315508403
-2.0095517161132466
-2.224350782577507
-3.2488127615225504
-4.469047689267653
-5.534322057080583
-6.610432785288521
-7.6392949664773635
-8.629202535835251
-9.142230006091818
-9.267798190786054
-9.22547155599732
-8.822286136260383
-8.070820514372517
-6.599692457278585
-4.440958166979893
-1.9398779577372949
0.6327589066129646
2.676011392326608
4.285321628149736
6.051340060612244
7.654910952868391
8.366827371024552
8.243792055654188
7.218782307063702
5.503184714739549
4.021950747896621
2.843169238590662
1.9175874364102223
1.0137612373560057
-0.22286675672570475
-1.4501441918976714
-2.536431286365347
-3.2839054496009212
-3.816895739874608
-4.306826124737874
-4.456580718661923
-4.677281735180342
-5.057119445802563
-5.409012699086948
-6.037031267434225
-6.922260279815274
-8.352915729002124
-10.162327287313854
-11.951963656824253
-14.135953292173802
-16.170848549812376
-17.50671719141993
-18.151744086797123
-17.80166387310284
-16.90727275815199
-15.843504928085482
-14.719285929844247
-13.739568612784087
-12.614233714583616
-11.184720775679784
-9.226726383682088
-6.884176765180763
-4.780358994559856
-2.689440120364644
-0.6294431565609854
0.9834964316626893
2.6669328367926797
4.365390641476319
5.40775435236005
6.115509451857937
6.792090657008485
7.3790758954530515
8.07430324424524
9.139975287744878
10.765950287158368
12.723269831499616
14.532725594069026
15.81940441115522
16.200133956282247
15.562734279198585
14.289761503344547
12.875125866880426
11.502967687377586
10.120101962804949
8.611743846923783
7.0032538308539865
5.772789207544864
5.329735735533521
5.5461362882546545
6.02661998237626
6.296037668090834
5.8886086242138544
4.803763199460145
3.5271602340645645
2.3510988022532944
1.5802841151495393
0.8848125928247284
-0.7296192663558173
-3.023819523925907
-5.417936841360337
-7.665439098988756
-9.110851010547682
-9.593105100251776
-9.514786937009722
-9.61161025513662
-10.143264174520082
-10.720960457929667
-11.271913666136566
-11.145275389365166
-10.11110311060453
-8.982285913099696
-8.089040957938968
-7.711181743239232
-7.69735295167023
-7.822510051913323
-8.417470524201882
-9.114994462708895
-9.722459982014017
-10.06313971850884
-9.817447199026214
-9.511379379092308
-9.156798927114085
-8.746220858295244
-8.542609062958176
-8.100210815038913
-7.28869239971019
-6.565902537125769
-5.796765496177343
-4.968964293592958
-4.943961244913258
-5.314293283481307
-5.705678233175132
-6.693610936872754
-7.810224077322384
-9.069968896030742
-10.593690504343579
-11.812622566320206
-12.895050423533219
-13.944403861553521
-14.446736060904136
-14.278909671534821
-13.815885445980095
-12.988572920909712
-11.821019180456585
-10.546132722082667
-8.938940687813966
-7.271580493428732
-5.734190215203025
-4.111033479755167
-2.8639219840294636
-2.455035450073007
-2.787837313414382
-3.7374353882300544
-5.186990927338114
-6.726648124017745
-7.9636885075572685
-8.833245274848435
-9.809245351103893
-11.067573087645783
-11.940108597443976
-12.503801274660765
-13.180306181053053
-13.788237406767355
-13.952891068290835
-13.48144430529029
-12.902950176858385
-12.2940533421874
-11.502404286641347
-10.814384429030424
-10.08254535981124
-9.122361493453818
-7.451966938067063
-5.0181151938661195
-2.5762206445863067
-0.389122406217541
1.2894963944089382
2.38274488973452
3.443481503405456
4.745129623429905
6.0953664501116425
7.196483510493328
8.023342090275655
8.671080796360936
8.769625667715006
8.519839102034615
8.59179628998403
9.077972313589083
10.16156051113794
11.48210104627103
12.677053112905703
13.846044180071598
14.524854233630503
15.106877124557744
16.02574347787871
16.768783661765504
17.348876364758343
17.655817019982848
17.528808128074118
17.05143408389943
16.13656287502983
15.258637705479659
14.64340783335118
14.103932921931733
13.726086657458703
13.196992563482207
12.241732136104734
10.731710534609098
8.674857708435997
6.797510542084963
5.4877491490316626
4.562747379609513
3.9201989061600258
3.064214993506125
1.7445156400329893
0.6555314316251755
0.16519875306339735
0.035419066416891055
0.14894652492314125
0.320889581354973
0.5216956215419476
0.8221648072219485
1.1866447755412324
1.6807275216806579
2.14437077579674
2.6972414881131375
3.458925684628915
4.376735101360934
5.961640060420606
7.9089112908639905
9.515832767112299
10.551588537117405
10.548086242452701
9.76385746998503
8.594581031830764
7.273162646383444
6.25835530229242
5.155865142342314
3.8503683886343825
2.472901484788211
0.7634159969790973
-0.9679336794678006
-2.6233219946200266
-3.789485993734465
-3.86108849177634
-3.210084063230647
-2.054030503863889
-0.9328157235815167
-0.31224167000221253
0.046342413750280184
0.18854496348379451
0.853871118752541
2.2967077141980554
3.928144075390706
5.655150904383073
6.942100523093992
7.6584051960995545
8.180814367547402
8.116383976491099
7.35205267214387
5.91033510476542
3.933628807028273
2.368079643525274
1.5511587845314398
1.211116556071456
0.9742155082806885
0.42071671903130553
-0.3111995268585388
-1.2014448898668357
-2.024347026291956
-2.5315650449086142
-2.9528078447815806
-3.1095482156336423
-3.0295215952735615
-2.6997730164974505
-1.8623820399057465
-0.6175812704940016
1.044077074453893
2.7617670910301078
3.823427848282182
3.8671767873267675
3.0518297397586855
2.084945494657945
1.5109109385137838
1.0866348100649261
0.3734417636486569
-0.888859851497255
-2.983991976692836
-5.391266815130005
-7.336866942039543
-8.81079572152737
-9.92074910668063
-10.774272836824572
-11.169157544747097
-10.89112252325042
-10.19141314148255
-9.313969928674384
-8.683191684494936
-8.294672137001372
-7.642215428124059
-6.846124027651808
-5.934906271446354
-4.735631160952774
-3.7199738013270047
-3.1635318221520112
-2.9111551052155415
-2.9007323300097183
-3.209712417636237
-3.6384619293508647
-3.41258483125134
-2.6588155518079644
-2.235829688401344
-2.0651270390324354
-1.9922507993835807
-2.026155028211835
-2.1904434361348946
-3.0484596729120583
-4.5240800544686754
-6.019332557014212
-7.400738912557452
-8.57245000407665
-9.616426543892093
-10.49873665425341
-11.078508886544954
-11.420457106641933
-11.238695150056003
-10.587562404262567
-9.518912319429347
-7.902540691373818
-6.151000106220297
-4.287582327621459
-2.5334787751019445
-1.1601752144439756
0.34787865491592856
1.9464589392690126
3.571236963694947
5.215284642823636
6.282716045115493
6.98074394882332
