AAD_Filtered_TADAS_FILE
AAD_BASELINE_CORRECTION: BASELINE REMOVED
AAD_FILTER_TYPE: BUTTERWORTH
AAD_FILTER_ORDER: 1
AAD_LOW_CUT_FREQUENCY_HZ: 0.025
AAD_HIGH_CUT_FREQUENCY_HZ: 40.0
EVENT_NAME: 202302061024
EVENT_ID: 13207
EVENT_DATE_YYYYMMDD: 2023/02/06
EVENT_TIME_HHMMSS: 10:24:47.00000
EVENT_LATITUDE_DEGREE: 38.089
EVENT_LONGITUDE_DEGREE: 37.239
EVENT_DEPTH_KM: 7.0
HYPOCENTER_REFERENCE: AFAD
MAGNITUDE_W: 7.6
MAGNITUDE_W_REFERENCE: AFAD
MAGNITUDE_L: 
MAGNITUDE_L_REFERENCE: 
FOCAL_MECHANISM: 
NETWORK: TK
STATION_CODE: 6306
STATION_NAME: 
STATION_LATITUDE_DEGREE: 36.727695
STATION_LONGITUDE_DEGREE: 38.947
STATION_ELEVATION_M: 362.0
LOCATION: Kahramanmaras_Elbistan_Turkiye
SENSOR_DEPTH_M: 
VS30_M/S: None
SITE_CLASSIFICATION_EC8: unknown
MORPHOLOGIC_CLASSIFICATION: 
EPICENTRAL_DISTANCE_KM: 213.70
EARTHQUAKE_BACKAZIMUTH_DEGREE: 
DATE_TIME_FIRST_SAMPLE_YYYYMMDD_HHMMSS: 2023/02/06 10:25:03.8427890
DATE_TIME_FIRST_SAMPLE_PRECISION: millisecond
SAMPLING_INTERVAL_S: 0.005
NDATA: 29001
DURATION_S: 
STREAM: HNN
UNITS: cm/s^2
INSTRUMENT: sensor = GEO-A200,/GEObit | digitizer = 
INSTRUMENT_ANALOG/DIGITAL: 
INSTRUMENTAL_FREQUENCY_HZ: 
INSTRUMENTAL_DAMPING: 
FULL_SCALE_G: 
N_BIT_DIGITAL_CONVERTER: 
PGA_CM/S^2: 35.997
TIME_PGA_S: 
BASELINE_CORRECTION: BASELINE REMOVED
FILTER_TYPE: BUTTERWORTH
FILTER_ORDER: 
LOW_CUT_FREQUENCY_HZ: 
HIGH_CUT_FREQUENCY_HZ: 
LATE/NORMAL_TRIGGERED: 
DATABASE_VERSION: 
HEADER_FORMAT: DYNA 1.2
DATA_TYPE: Acceleration
PROCESSING: Automatic Paolucci et al., 2011
DATA_TIMESTAMP_YYYYMMDD_HHMMSS: 
DATA_LICENSE: U (unknown license)
DATA_CITATION: Turkish Accelerometric Archive v 1.0 - Disaster And Emergency Management Presidency, Earthquake Department
DATA_CREATOR: AFAD
ORIGINAL_DATA_MEDIATOR_CITATION: : AFAD - Disaster And Emergency Management Presidency
ORIGINAL_DATA_MEDIATOR: AFAD PROCESS SERVICE
ORIGINAL_DATA_CREATOR_CITATION: AFAD PROCESS SERVICE
ORIGINAL_DATA_CREATOR: network: TK
USER1: GuestUser
USER2: 
USER3: 
USER4: 
[...]
-17.62443182664502
-18.824733065567393
-19.95640638346544
-21.023523079926672
-22.0271843446378
-22.994503834296058
-23.934685774374913
-24.76693723161656
-25.577701654294305
-26.30460432282119
-26.942984837325387
-27.568402224157676
-28.041960960764328
-28.348001076806767
-28.405567370428315
-28.097317385654797
-27.435848310713023
-26.494786369625764
-25.39236758289026
-24.20060264444394
-22.99246422164714
-21.840795336146368
-20.719605357543116
-19.609011330725867
-18.582313820008277
-17.61198223030796
-16.71241578971083
-15.964729638819572
-15.35785485288851
-14.867611336748073
-14.379058413547678
-13.812851620084288
-13.193721896851502
-12.506554019687933
-11.786008625654869
-11.086986093395673
-10.397141981897297
-9.772628490519978
-9.212968342298284
-8.68841997812798
-8.245630948864147
-7.7795375313739505
-7.2551963094907155
-6.751242239684745
-6.270964929184137
-5.910120022224894
-5.694306715749025
-5.513388999503209
-5.380143678966042
-5.226166859868085
-4.999818965610705
-4.794297707293996
-4.5314394412541095
-4.194130592652048
-3.8082969661030877
-3.3319250656879853
-2.7718579905823844
-2.0880579026505806
-1.1925068232467846
-0.015226881488720128
1.3876408243958351
2.9308233269291093
4.495944340546618
6.00074242100492
7.39166164884843
8.584163548201111
9.578204628611049
10.35687567687062
11.042574195270719
11.718881646804432
12.358232471218624
12.970647241246926
13.49622623659427
13.997953851388093
14.504760898142882
15.028026678480163
15.60880316416204
16.150432804149368
16.65333170799542
17.082400877592974
17.33296459112244
17.42369667405268
17.30091068012455
17.01691812505536
16.70903847718542
16.390597138597588
16.205241519484282
16.16679209083293
16.222948221400298
16.423342583524917
16.63745193001259
16.799510260985212
16.854301952764235
16.734983824504074
16.496203804993343
16.09820299544789
15.54062406282375
14.85332575431017
14.04256133919577
13.240216851181009
12.560322134303547
12.010297643453143
11.597426546620026
11.317325498421344
11.159477802010151
11.17226849417106
11.346137243855773
11.713618294243352
12.352173204804206
13.227450851458311
14.370386080855505
15.779350636327552
17.344273259243074
18.935202016238964
20.39158592817842
21.63380455119956
22.582109125097375
23.17369712131455
23.38346434074013
23.227924263944633
22.8346737067567
22.284814388841163
21.68698612862097
21.06453993544338
20.35718324974525
19.607853377830622
18.815412173515533
18.020137430092262
17.209899112242013
16.374920571125653
15.57705352122802
14.68762675514325
13.681910349755789
12.566362827593569
11.249709974489324
9.80832152969661
8.237214489018797
6.586997407799776
4.985361652791899
3.472552200476534
2.1729654151055335
1.0876478269737713
0.2207087638953874
-0.3608529812631675
-0.63212252667445
-0.6466363010566382
-0.5622693953935067
-0.4285934354336082
-0.4041218020670282
-0.6081029893482159
-1.0185956146135267
-1.7270616435180717
-2.6253766560944225
-3.645200308058122
-4.795073206299497
-5.832759950155889
-6.767358139430899
-7.601765850940303
-8.31929936486784
-9.109483387272082
-9.889614601840776
-10.703550042063272
-11.555542156086997
-12.29134109117274
-12.9376367739617
-13.422826209604068
-13.723687621009475
-13.859746469503731
-13.809033619838672
-13.55031473057568
-13.076237254972499
-12.438637461911599
-11.599823230242011
-10.618860378283209
-9.62514726177677
-8.66566511855608
-7.872344618265083
-7.2801571412372255
-6.844739527413031
-6.498609304019494
-6.143406796551057
-5.771641184760198
-5.351825876755338
-4.926188296573438
-4.58602361994178
-4.387336363087083
-4.372515285230653
-4.533062211339519
-4.804697263334677
-5.075307640002971
-5.267846338127638
-5.30537296163991
-5.085860831582172
-4.482639118501785
-3.4734936645503565
-2.1401106823136664
-0.5255310400883684
1.2943379877445453
3.164419204327001
4.836731893394084
6.072774906451789
6.6878567660818895
6.651476728436966
6.090602364185797
5.125336668908061
3.9429115838278745
2.664371645843818
1.3834048034918949
0.2082757897001869
-0.8751262020104171
-1.847945649622226
-2.6932214046156076
-3.366611693593807
-3.8340740341930966
-4.053566983121929
-3.9641351446448896
-3.633910522503741
-3.111029211037004
-2.4311315041168946
-1.5746888697355321
-0.5463695798347158
0.5998602051322945
1.8119703801603848
2.961779302837458
3.9659971607616398
4.713908290532409
5.115219403276535
5.12149286293393
4.655664015563185
3.8335080843358864
2.8146913699988887
1.6156124847830042
0.3625995356176851
-0.9374349210943501
-2.3706417229244154
-3.8754918967301792
-5.492339116343268
-7.1806868232708005
-8.880166080347912
-10.599965736721924
-12.280141011639824
-13.891607314503425
-15.439374558511735
-16.954073898911606
-18.482176578685614
-20.077082093170198
-21.767411537377086
-23.5921858197531
-25.510466400412348
-27.46987192107936
-29.354001361697954
-30.986950675457006
-32.373892547780045
-33.5023027818445
-34.36815386374267
-34.89012697088082
-34.859134191977766
-34.33167562685009
-33.44018348089313
-32.164341226044904
-30.631875461489493
-28.90078386320486
-27.045387082720982
-25.33519932248789
-23.801683412046916
-22.463756563589165
-21.260728975233416
-20.065641360390586
-18.927945428464806
-17.82040434718049
-16.74436798095476
-15.648823586529673
-14.39018239040113
-12.936732507044008
-11.383724210317391
-9.866380450596766
-8.442635083153407
-7.16484050349104
-6.056633038348313
-5.079666594365243
-4.285803885738649
-3.703281822847373
-3.221886142621354
-2.8667060509962576
-2.6742254612165217
-2.605085033336851
-2.705642055102284
-2.8365033106475783
-2.9171954039643975
-3.0123770488156336
-3.0639189032382266
-3.0608219405363886
-2.94630587849815
-2.6023074104321453
-2.0004477922681367
-1.1646483291162433
-0.08436443052551167
1.2731719167064681
2.935741305462822
4.82758839677257
6.7618942597895
8.58763258746179
10.182277684878352
11.502146445625888
12.54062855323692
13.320219290500779
13.787476453301151
13.889524959587547
13.730828425041706
13.340206508862446
12.842943358042795
12.335211996001933
11.850875984111447
11.521105796429532
11.284334749842792
11.181949349977263
11.224723895277268
11.24738062624024
11.201197152685006
10.984864332807424
10.592417029948251
10.067258244079651
9.419061630693571
8.721328024009091
7.968047819842637
7.159746211585429
6.32416428678033
5.481884787984127
4.641279277802479
3.71090067340411
2.714914826511954
1.769569006837555
0.8353362320091405
-0.08688468545995727
-1.05670940213849
-2.1392401951061215
-3.198823508355997
-4.162800176682946
-4.908359559649145
-5.3615688335742595
-5.584512618942399
-5.558416728519648
-5.377762585452038
-5.07228811837537
-4.609232117355368
-4.114655572036635
-3.57530994683395
-2.9761966177017287
-2.3707208425921023
-1.7390201281124724
-1.2100479010993046
-0.8749524050755058
-0.686922653110015
-0.6694151662038861
-0.7552287815984721
-0.8818739862730709
-1.1037613219848028
-1.435078185793094
-1.9205548126336802
-2.5567893910198536
-3.278033713532325
-4.037793990608335
-4.745802885911084
-5.260044448710343
-5.510078861358729
-5.522232045558418
-5.3504457009466275
-5.159496431086234
-5.027398122247866
-4.959262591487549
-4.991581003277244
-5.067736896098588
-5.156400024975285
-5.163203823856757
-5.007063158847805
-4.791214417113545
-4.614587002385318
-4.532963113620002
-4.488451489113075
-4.3671088551207715
-4.102408998424861
-3.612216057147046
-3.008795738037004
-2.300491714966514
-1.378012161790634
-0.2944250252958667
1.0439948969265405
2.546364749928932
4.102076442912997
5.7585513163678765
7.402119886914386
9.016749322525179
10.525429181220138
11.854107879233487
13.010506169908806
14.036209088475369
15.028992865863094
15.957324230433635
16.765477568986277
17.355292793983747
17.68291809875138
17.70646391887512
17.490035496092105
17.13069326766247
16.554025502653214
15.864975949905007
15.16474843240416
14.573965017296395
14.127445945997527
13.746768775542693
13.447507963499493
13.098675528060278
12.662059041004477
12.110420457699682
11.426987608684875
10.682217555926032
9.861379263174639
8.99789124581164
8.104513359115526
7.185127128868006
6.262678722023068
5.468448566690452
4.91098512829459
4.597917327097736
4.6188978704920425
4.984185846217491
5.67958083581106
6.685419640560268
7.899275361630931
9.217371809518577
10.50934318887003
11.622784502838169
12.42680324428495
12.834924514273004
12.726391818449898
12.042028270447853
10.951084309870978
9.613850240329047
8.216457848097885
6.977089640389581
5.962693120297095
5.303118026572248
5.066618690323404
5.282115760131942
6.008231725731311
7.145049016969991
8.588277234437456
10.172528690788543
11.788204566088279
13.349445798490564
14.60119826499345
15.43134227006706
15.688544654643845
15.310133272193763
14.533864530937477
13.467060289225854
12.305845622802538
11.182608824625452
10.07876767636044
9.100854577342746
8.143788558040969
7.1817640766960364
6.240876538666646
5.273891213371457
4.381244367651519
3.5928322437474054
3.049818453126926
2.7762526084841137
2.5639429059121692
2.2654064200478223
1.7211061204710232
0.8952052358232939
-0.17067686218501726
-1.4710341315718698
-3.015390283835957
-4.743100083724542
-6.60519761285977
-8.612414674893792
-10.651522378889464
-12.725512935477042
-14.793717708454185
-16.706012009155113
-18.471989197692178
-20.012362727789093
-21.33442551251264
-22.465351613255653
-23.278309730134477
-23.79753324755366
-24.001984565366488
-23.917667788427238
-23.647817465508894
-23.182458453147078
-22.565835920529175
-21.805994678880623
-20.930434703301742
-19.943557018815394
-18.813201573337928
-17.524278890187297
-16.096379416029123
-14.647008048305695
-13.194234255454262
-11.822987923503414
-10.634425539311403
-9.637754486664571
-8.837426664410104
-8.121687037363605
-7.416299579481442
-6.666478973996442
-5.8671644818743385
-5.11657732421755
-4.421473464150348
-3.8035001745950052
-3.2456078089307216
-2.7545487836797875
-2.4064569956818618
-2.1136233932201756
-1.923894857203546
-1.9103570212199126
-2.0586864401585676
-2.4265675785922336
-2.9713605475385023
-3.6322942449542217
-4.229936268237225
-4.639230691260728
-4.845912068009964
-4.823799461510222
-4.689205909599388
-4.525657452152522
-4.46458363763676
-4.605285872404031
-4.94366452982662
-5.447598219871125
-5.9950609536275
-6.432969891161973
-6.652632344551042
-6.7171200049034665
-6.667707144272998
-6.542093841235026
-6.411492536031565
-6.337718084961242
-6.4014222251672495
-6.5850581405685285
-6.901705142332816
-7.341022816693153
-7.855063950423439
-8.455426749280589
-9.2272772251598
-10.258299208467252
-11.51660533702991
-12.91168765578171
-14.32198129295528
-15.65301087921592
-16.757684661537297
-17.43984257195549
-17.589289891233953
-17.09534873525341
-15.9526156111119
-14.33299795742964
-12.429162698948828
-10.40660445298745
-8.413523853164225
-6.612780814170124
-5.078245752159594
-3.8148705631847712
-2.8439982349289283
-2.0880267413096503
-1.5551911047160099
-1.1793372231061805
-0.8111965935887946
-0.5083691715138701
-0.17375513023044367
0.2039182718640908
0.49931463455098096
0.7214986203070669
0.7916337775109463
0.7118171687256244
0.47547786781928614
0.04016116994097473
-0.5232409642888385
-1.2115875347345433
-2.048021810956212
-2.9792284798371536
-3.979712518865895
-5.046294194965848
-6.14563040676944
-7.256423170404188
-8.255768506466062
-9.079826295620943
-9.720636429819628
-10.113608378835
-10.300166934111884
-10.274472211731327
-9.989746229870422
-9.478027471992032
-8.78979276146879
-8.000293644607071
-7.186566357088309
-6.3810515231623075
-5.719762073211301
-5.3430728152809195
-5.225089965721436
-5.318706405463964
-5.494136886508504
-5.517987912839212
-5.213836108335408
-4.455900020752248
-3.1520739184009954
-1.38618127137379
0.8208075835042161
3.4437071377669946
6.228165616936534
9.062190985653919
11.746388344994038
14.022051375566058
15.814845144775987
17.07706282726936
17.835111191419838
18.05331753057443
17.83651182597308
17.3866911735471
16.76185005850352
16.102664355375907
15.465703124328693
14.836528641737766
14.26667901332794
13.762476501072081
13.399567550541509
13.187269845917381
13.103085546568302
13.187273514816095
13.407241750036494
13.819727243255702
14.371450209259448
14.954402689103881
15.54495127148129
15.970604648745647
16.208669781379616
16.233665519010838
15.938842716624778
15.402682630399369
14.671434268427962
13.824852765328671
12.932743818397444
12.044061130106172
11.206171293047284
10.421323742402517
9.79976136679949
9.39192950813883
9.27767540636048
9.596637888639043
10.392197579744767
11.661408017811512
13.428615580805952
15.707958636562932
18.380765452918393
21.318231492200034
24.335038976784777
27.234741830754647
29.861111668726988
32.10797537770637
33.90788230651979
35.149701236185095
35.85930636571371
36.10079973987424
36.00126020510617
35.54215132185761
34.66840652404883
33.55124356056487
32.088898739734525
30.27960403877806
28.25523819297516
25.891004230598245
23.268394492653613
20.53266960130204
17.720319570981538
15.038124626881599
12.58766308815823
10.362186142461354
8.37933094903863
6.5203495888576875
4.693338986309023
2.8575970681592096
0.9590867383936739
-0.9848621696263359
-2.886713196067965
-4.636953677486352
-6.027592739800271
-7.017517410276786
-7.796030962812305
-8.466064498383203
-9.197843187198483
-9.958991692519895
-10.642495594505249
-11.389966778428267
-12.122135865301077
-12.861594270989904
-13.657563804866244
-14.29239696017748
-14.69461917308856
-14.73208561974722
-14.422431697266248
-13.910042302406419
-13.232952226350477
-12.54089733635847
-11.867149417925486
-11.276247619041701
-10.910966333866837
-10.825125495950648
-11.026916349493124
-11.378493738578339
-11.740606267127761
-12.060812546670777
-12.31118902811007
-12.555287956149725
-12.768795534777128
-12.930765566231274
-13.084468252286342
-13.277346841045404
-13.640019551461059
-14.134426081596095
-14.64519110038151
-15.062438086528502
-15.32791106530076
-15.465379894359142
-15.491471906291851
-15.510039770230287
-15.544641511128283
-15.595334089506851
-15.677322069922736
-15.691883472793974
-15.557983034664376
-15.16145580649216
-14.444319397959628
-13.500567621574943
-12.43617847377259
-11.402100253143484
-10.456093792114936
-9.638716254712218
-9.039839972656988
-8.597972771816387
-8.329275123574616
-8.217483686165107
-8.09523754973302
-7.972560598366026
-7.925859554248338
-7.93367695018985
-8.022955670053852
-8.201641030237244
-8.349883741945282
-8.393576542837371
-8.294654926598518
-8.049019964804497
-7.719476994705888
-7.296836445159597
-6.806411760314592
-6.3775451521281985
-6.067369062291499
-5.8685660801151025
-5.840527671081002
-5.932581312230991
-6.013596434503176
-6.041968701281016
-5.940076031239879
-5.66708540585741
-5.232980138185211
-4.613887198980858
-3.7795926993282385
-2.8033261380116277
-1.8277037623735017
-0.972680946605396
-0.35613526710718635
0.1305643794310874
0.6128910175086663
1.1021581825594569
1.7316311027841642
2.5397468617563934
3.51772192968605
4.62931235392268
5.746141091535624
6.735315766872932
7.361967605770294
7.552314448843139
7.354500367070466
6.810129633663302
6.1245532395603055
5.45203765390082
4.931265423755971
4.65187209900534
4.5327226629659645
4.567641644733416
4.740936818210879
5.004328263870403
5.339360373473077
5.663267941903802
5.887122915515505
5.862483597416674
5.456607827443305
4.628698986131751
3.4406347954033913
2.083405079967879
0.7708494189402679
-0.3318968738173117
-1.0972934264110683
-1.4700767416525766
-1.5403645646587316
-1.3111650049494352
-0.8937024656549961
-0.4506249398371465
0.09468289905763808
0.7088762063166392
1.4311218865949924
2.2934519550269674
3.1734143050030172
4.0497817482609335
4.841732868066128
5.458281806074321
5.9578337565607775
6.401168548108642
6.8628072682084635
7.489479600312953
8.24737284426013
9.083231566123096
9.95487968020321
10.718187945944702
11.361122070827385
11.821013618680148
12.10885679570245
12.246990931850641
12.170076033902498
11.933690179501328
11.520423896608856
10.92392436003601
10.102932296358505
9.060138883396446
7.832700555730821
6.390973757063328
4.792268856919046
3.0300093613607535
1.128169614093741
-0.8778791012062077
-2.98882940639709
-5.12577381575541
-7.1609790124824615
-8.973728892771105
-10.417298862914668
-11.390855743148043
-12.02367650164747
-12.396076132735582
-12.54684592342265
-12.509167572938116
-12.12367225578514
-11.39871599410452
-10.329611004544073
-8.892744926388321
-7.302357390882141
-5.581972927777441
-3.8593276134288166
-2.2752681789300477
-0.8531927689960406
0.32595833117657735
1.3566589250129515
2.1894419421597746
2.907641367199721
3.5066179327743754
3.912481628713206
4.299992153083629
4.653124041633789
5.155543570612161
5.931016293593584
6.982897773902127
8.376123762232556
9.992519965977648
11.738767718323325
13.38731898848987
14.708932460580797
15.640730491335606
16.118128709943715
16.28194179700845
16.380391516462584
16.482549505215115
16.653250730602736
16.86575420416589
17.082065720758475
17.305339761398507
17.463460987564748
17.650077647619398
17.81004194863933
17.898126489031796
17.991303381258973
18.045979308750873
18.190243439920728
18.371174995731636
18.447799417087317
18.428485673154743
18.1701694515863
17.619387978189504
16.791060885208715
15.668847830305626
14.2532310601215
12.552118213153648
10.702443464916376
8.807162328492662
6.960873241080304
5.285640695405667
3.8161143845809997
2.5725398940051916
1.5463948657743398
0.6846765852957508
-0.08779787445050297
-0.8750588720467768
-1.7798943487198007
-2.7145970054575734
-3.634026479761465
-4.570940761832857
-5.3656976393012386
-5.935214743192738
-6.227633039683262
-6.166814218977435
-5.786811498546628
-5.178136258001142
-4.471980446346103
-3.832874236122294
-3.288678883273925
-2.7814970312533953
-2.382767515969188
-2.0807624433922602
-1.8833474269540191
-1.7988829629256
-1.6969540453897247
-1.5640171930086828
-1.4778831836357105
-1.4929822672487578
-1.5252832036827426
-1.475425325202395
-1.347963889344251
-1.215343838995732
-1.235883050446975
-1.4892284351067993
-1.8952597661911046
-2.359408547167065
-2.795566429805321
-3.1497490913177435
-3.5307517831813997
-3.9991359737533974
-4.537391444413881
-5.090510942927583
-5.581846352049835
-6.063661834999569
