AAD_Filtered_TADAS_FILE
AAD_BASELINE_CORRECTION: BASELINE REMOVED
AAD_FILTER_TYPE: BUTTERWORTH
AAD_FILTER_ORDER: 1
AAD_LOW_CUT_FREQUENCY_HZ: 0.025
AAD_HIGH_CUT_FREQUENCY_HZ: 40.0
EVENT_NAME: 202302060117
EVENT_ID: 13194
EVENT_DATE_YYYYMMDD: 2023/02/06
EVENT_TIME_HHMMSS: 01:17:32.00000
EVENT_LATITUDE_DEGREE: 37.288
EVENT_LONGITUDE_DEGREE: 37.043
EVENT_DEPTH_KM: 8.6
HYPOCENTER_REFERENCE: AFAD
MAGNITUDE_W: 7.7
MAGNITUDE_W_REFERENCE: AFAD
MAGNITUDE_L: 
MAGNITUDE_L_REFERENCE: 
FOCAL_MECHANISM: 
NETWORK: TK
STATION_CODE: 4631
STATION_NAME: 
STATION_LATITUDE_DEGREE: 37.966325
STATION_LONGITUDE_DEGREE: 37.427653
STATION_ELEVATION_M: 1421.0
LOCATION: Kahramanmaras_Pazarck_Turkiye
SENSOR_DEPTH_M: 
VS30_M/S: 543
SITE_CLASSIFICATION_EC8: B
MORPHOLOGIC_CLASSIFICATION: 
EPICENTRAL_DISTANCE_KM: 82.68
EARTHQUAKE_BACKAZIMUTH_DEGREE: 
DATE_TIME_FIRST_SAMPLE_YYYYMMDD_HHMMSS: 2023/02/06 01:17:23.8230650
DATE_TIME_FIRST_SAMPLE_PRECISION: millisecond
SAMPLING_INTERVAL_S: 0.01
NDATA: 3559
DURATION_S: 
STREAM: HNE
UNITS: cm/s^2
INSTRUMENT: sensor = ACEBOX/SARA | digitizer = 
INSTRUMENT_ANALOG/DIGITAL: 
INSTRUMENTAL_FREQUENCY_HZ: 
INSTRUMENTAL_DAMPING: 
FULL_SCALE_G: 
N_BIT_DIGITAL_CONVERTER: 
PGA_CM/S^2: 19.336
TIME_PGA_S: 
BASELINE_CORRECTION: BASELINE REMOVED
FILTER_TYPE: BUTTERWORTH
FILTER_ORDER: 
LOW_CUT_FREQUENCY_HZ: 
HIGH_CUT_FREQUENCY_HZ: 
LATE/NORMAL_TRIGGERED: 
DATABASE_VERSION: 
HEADER_FORMAT: DYNA 1.2
DATA_TYPE: Acceleration
PROCESSING: Automatic Paolucci et al., 2011
DATA_TIMESTAMP_YYYYMMDD_HHMMSS: 
DATA_LICENSE: U (unknown license)
DATA_CITATION: Turkish Accelerometric Archive v 1.0 - Disaster And Emergency Management Presidency, Earthquake Department
DATA_CREATOR: AFAD
ORIGINAL_DATA_MEDIATOR_CITATION: : AFAD - Disaster And Emergency Management Presidency
ORIGINAL_DATA_MEDIATOR: AFAD PROCESS SERVICE
ORIGINAL_DATA_CREATOR_CITATION: AFAD PROCESS SERVICE
ORIGINAL_DATA_CREATOR: network: TK
USER1: GuestUser
USER2: 
USER3: 
USER4: 
[...]
-0.08958076905944186
-0.08974652085342771
-0.08265534586172658
-0.08297494126867475
-0.1079173910454121
-0.1269801131917369
-0.11830341462736202
-0.1050616076292688
-0.08694163416434528
-0.05970706844155432
-0.05233832287978973
-0.06539252919550767
-0.07314400895933452
-0.08004688103388485
-0.10570506606531405
-0.14592397969364237
-0.17335255895859442
-0.1715987446422494
-0.15471110148755143
-0.14661716786256013
-0.1568193201282118
-0.16668705087956964
-0.16717891480991132
-0.17314291781315858
-0.15885180189402018
-0.11098463849280196
-0.08083516691596804
-0.07631149882965754
-0.06052971331106508
-0.04257493470959692
-0.04587136448544733
-0.050873911415564174
-0.03171884405944823
-0.008141248458821707
-0.015790309698097298
-0.053214644728071546
-0.07699553499428373
-0.06216163505763847
-0.05835912236429243
-0.09286557948630776
-0.10375237632028184
-0.0675498773809422
-0.05502690928947327
-0.10208770827517787
-0.13601908236234023
-0.11182768267020886
-0.08374591841587745
-0.06458661761321974
-0.03247026994294888
-0.01636616214647419
-0.012789762775595133
0.0017340610251985258
0.004131026968582148
-0.01482050357607615
-0.04226898896218397
-0.0787340897177906
-0.11564151416515853
-0.12807664864854112
-0.12383080331058041
-0.142891077098139
-0.16133961579295733
-0.1338536616290919
-0.1088070644728831
-0.1321325866352612
-0.17242218561923825
-0.19869909229864652
-0.21669720555707617
-0.26266903688102905
-0.3299281682676181
-0.33629719859935303
-0.26146014697747
-0.18489234164041818
-0.16228988501804525
-0.173842261795141
-0.18316444135376883
-0.1925405169408764
-0.2090967157009199
-0.23148504785990703
-0.27395628381277004
-0.3105227547479307
-0.2914591341416954
-0.23036881019014296
-0.16998598335676943
-0.12084844211179605
-0.0708705171759087
-0.036957579031854274
-0.07007833903083144
-0.14521345358899262
-0.16106643619064687
-0.11056796105221428
-0.09834011010870033
-0.16649089009139037
-0.22252566874444718
-0.17366721798378432
-0.0726359596229073
-0.02535696928269809
-0.01222316142860451
0.02124095865224456
0.03705654623974779
0.004497912031475856
-0.03953490896823761
-0.037597887062016305
0.020665913702502717
0.06302039504573367
0.05393606742121586
0.042110784223199464
0.014249018920891449
-0.07769355790244875
-0.17527366130370242
-0.21667556318532696
-0.26468185832385294
-0.3638829879013402
-0.42358854483549147
-0.41471217225027507
-0.4648925619022052
-0.5910818271354934
-0.6501031320809384
-0.6371582562932809
-0.6620763257616923
-0.683727793477321
-0.6341585863525323
-0.5879486687819411
-0.5263852137968505
-0.3676736011947405
-0.2492182586277304
-0.24247917839670768
-0.19605041243931565
-0.12494672101334031
-0.16125738201019665
-0.2745878853508648
-0.35871109238847837
-0.36208511236281643
-0.31181675933018366
-0.24203880910477515
-0.1377327151808963
-0.020371878170750195
-0.03654411577100826
-0.2568739458180845
-0.38643838204158476
-0.20263684298640144
-0.020446970445841678
-0.11631962885020286
-0.23368050282693487
-0.05309690214989767
0.21484434573386346
0.17479398203419802
0.013013996127147778
0.10961750492976999
0.2646949959503115
0.09622965072959508
-0.23125079675705257
-0.18029991551074326
0.2713114186319169
0.4812451991676094
0.2457496469864917
0.15250727631252348
0.43171285755050903
0.5510073124769171
0.24152436792833867
-0.1191612015101261
-0.2778426358383527
-0.446293389486774
-0.8111165260988125
-1.1787267848091425
-1.2761791443496104
-1.1771397344780847
-1.1944827178853723
-1.4144728807422036
-1.4407757871215732
-0.9803981760749279
-0.5636923537132802
-0.6473964215415335
-0.6996790729792028
-0.38902708021379306
-0.20195600222789573
-0.27166821689935067
-0.23426207448968986
-0.058672570462339216
0.01695621568319213
-0.09394560738875164
-0.25538905755233043
-0.21669424372579918
0.06841451569224852
0.33034670074028993
0.42163074368510983
0.49719886151529047
0.6264303559694951
0.6109707940884646
0.27199792894262226
-0.1416591568405756
-0.24037549977648165
-0.28105366919114433
-0.632597711374056
-0.9170978667347378
-0.9428130196964434
-1.1587925028238655
-1.5085165583759543
-1.4880223542975797
-1.234203580794994
-1.2636426333309587
-1.5524442645776297
-1.678334729073123
-1.5012809989196927
-1.2191237843199625
-1.0746724072059242
-1.085729387801909
-0.9970463169442073
-0.8392026662583952
-0.8923678331290666
-1.0407227344008327
-1.2759292850205515
-1.741686688316412
-1.953839058930265
-1.7220381410242627
-1.4797205094266714
-1.146335599035423
-0.6405011128114282
-0.26041837522325867
0.08201869335208581
0.5628797970662612
1.0725484483194057
1.4191102881084812
1.5518878906159823
1.5735176407471922
1.3684068788662405
1.0068099919885247
0.9012901581975236
0.9904479453534912
1.0630999024098307
1.2053421589888063
1.462809677433454
1.7952692511202568
1.7724402823020518
1.0547856641775701
0.46469037686646414
0.780850822907176
1.2183964887200338
0.9212988802633564
0.56874340649265
0.74745836719772
0.4968683447796942
-0.7237342085874472
-1.728900127628878
-1.7660595737620035
-1.672191841336145
-1.9372080896103145
-1.9372653826050186
-1.4536190227926553
-1.0527457810954475
-1.0547688709160865
-1.188367512683872
-1.1584532522773199
-1.0742131579395542
-1.1428285126226223
-1.2721568548939277
-1.2643202386810737
-1.136859675151213
-1.0627753040631325
-1.148825910463577
-1.199440866955539
-0.9942677660855406
-0.8496489638713459
-0.8151262905802673
-0.5180205820640348
-0.5048699652313631
-0.9171225687490931
-0.7174032344397574
-0.12433707076678605
0.2565354516591103
0.962730271906906
1.6279001481661761
1.5119212523729157
1.1822453490494669
0.9807165218177745
0.4092424086734079
-0.5675610381361983
-1.084278801461139
-0.6964875364974381
-0.28587463830702375
-0.3898982621645706
-0.6003500754609239
-0.6983387266517317
-0.717500453803539
-0.9417635257755186
-1.1899260858942518
-0.6564781355482551
0.4878076158058212
1.2266945701014944
0.8724375946221921
0.1348249708825763
0.48428085488540196
1.2096122792603623
0.710807696483677
-0.40224414056518737
-0.790287089955076
-0.3153854837084012
0.18034310948686771
0.07389883789114263
-0.4397376148164178
-0.7942847952084998
-0.6674095820229776
-0.896401502462649
-1.6427375313614414
-1.4525155082148804
-0.9163644346342374
-1.1769049685180273
-0.796083305008066
0.5053267402639949
1.1261762213253672
0.8066122137428977
0.5216486889215561
0.8383855504102483
0.6383574417550294
-0.7946975499616888
-1.617773274035029
-1.126535699385249
-0.8793169429008985
-1.2203238204698232
-1.398585175245452
-1.1925754337870638
-1.0410401404734457
-1.5190495757997646
-2.189475536354374
-1.935869230724454
-0.7365338206131199
-0.024858946332210266
-0.6000291150615389
-1.3962192278561263
-1.4489240365147047
-0.9216825641157846
-0.15646306428001983
0.6280571559726869
1.6742389466798282
3.0648890610100024
3.5676291277902634
2.5488128259025435
1.5036277638317892
1.27423466808119
0.7837698458511747
-0.42857441034354504
-1.540047240181046
-1.7315150265853443
-1.3199654546669635
-1.8919815392114283
-3.13004825059575
-2.6007131376518857
-1.196501207688265
-1.869783924874177
-3.2505627886072226
-2.3789117525603096
-0.8571002760326032
-1.693448269055964
-3.489721907002717
-3.3103356480528148
-1.6799250279085733
-0.44228921428289947
0.2095299140761861
0.7455930789878251
0.996789020186082
0.09593623428767777
-1.8809228432062637
-3.014055128964371
-2.0094990385267284
-0.43976331527836626
-0.24022274641175173
0.005980280264826013
1.6238238042905084
2.0818047253817458
0.4240923586560855
-0.5225235065915519
0.0908344139487176
0.24237633400480973
-1.0158397298605018
-2.7162801816683952
-3.585405200787104
-2.9213122342020426
-1.7365294550637438
-2.0250214639818056
-2.625570375383387
-0.8364627824083727
2.1152560184230875
3.2985176183199507
2.7361092181702737
2.8194136251037887
4.160559131433673
4.129148479940756
1.9183717468317703
0.5973391210255871
1.424192609747744
1.0596405047936692
-1.9780307289119172
-3.2615147147827908
-1.1329504609804861
0.5378046407936454
0.9882027211540481
0.9534981490680331
-0.48308954834954665
-1.6994238940218969
-1.8976796018338518
-3.1173682123937225
-4.251009368571217
-2.8016965251712764
-0.8404621202752207
-0.8263702330150025
-0.41640442049046883
1.4330535340213548
1.7366655221875182
0.8079278702173931
1.1201825011607427
1.6848047732872073
1.8280749702764654
2.2979638393367714
2.220791847486773
2.3729786956127445
4.118193875164489
4.653439252715641
2.645609413596376
1.094085862351569
0.6766395873186066
-0.3539216381613631
-1.9729640096401084
-2.6454189626276263
-2.07228613724953
-2.6552173290403225
-4.71916661306859
-4.565986213062245
-1.780437751258257
0.591488137496302
1.3521246867234742
-0.7893056369741178
-5.6786275002466855
-8.533105636718094
-7.055754565788262
-4.617979952609458
-2.975415616731493
-0.35799316671544024
3.276341377916676
5.555746308108231
4.972816718508382
1.6323813500872788
-1.8040137714192221
-2.1557830972834027
-0.7434854264652451
0.915678330392227
4.182023426830751
7.464309348359927
8.001227823899884
5.950045718000551
2.757198906785884
0.07596384819277838
-2.0493093345675875
-4.437812123150688
-6.240460418041565
-5.372742942172594
-1.0956105778694272
2.7802690167813497
3.00861334897243
1.2535063187838704
-1.8320670647811377
-5.453696617538482
-6.498114546176432
-5.2748984948754645
-3.6659658390466503
-1.5165212953321787
0.820804684515486
2.7713661813304427
4.222006667694706
4.6772001071001945
4.661462071104367
4.106327087393867
1.4480810400321695
-1.110429348573361
0.18400121204945144
2.983667743776137
2.338356810181505
-0.8893438837306697
-1.8082654865587895
-1.0483009707096882
-2.9274743822540863
-6.275985900725713
-7.316976362163289
-5.022616485793144
-2.028893300195311
-0.7369113892906222
1.6861568546092145
5.275516882358766
6.3449775228169605
5.789300815393135
3.8269037899838207
1.734010731511567
4.757871892383756
8.707538378131217
5.138545297305823
-0.8703926434016762
-1.4847444108510195
-1.129609570966063
-3.696089420413138
-4.905818826378802
-4.701124598268263
-6.022807932700496
-5.5691384746098045
-1.1682779082947277
2.5043011460754037
2.8052913280610303
1.597776597729417
-0.9347347110716107
-3.4457340530457903
-2.6631721012397174
-1.2556951312466633
-2.847510908291902
-2.8937273181577012
1.2753401970110287
3.0695865099528628
1.405913344177643
2.1745998247374945
2.661020158811485
-0.22527272028947687
-1.4719299239267087
-0.6005907309286136
-1.5010822500719996
-3.7663832183516237
-3.4120290624807468
-0.07993083912202414
-0.17667356474617824
-5.174384667547644
-8.785079982799163
-7.489351646358304
-2.091870487932078
2.293921829528119
1.0665382940663535
-1.1837453960981477
0.8749867401464758
3.526104848949564
2.5487440964320665
1.855430423125542
5.26660231078472
8.221896086275898
6.511767976596751
3.770875784274657
4.769979915311567
7.670863458629142
6.619089425013163
2.3522824937262174
1.113630272015777
2.7263532395858103
2.503965907462004
-0.5226772208361466
-2.9538994353633665
-1.7048476589074746
0.04189433305384287
-0.729351536058385
-0.6730772522993755
1.6504559656485234
3.2450769699936237
1.2146553453485684
-2.400589019056767
-1.8902547976590032
-0.17582663692294037
-3.6280394727571927
-6.7662381700639
-3.1469268160149566
1.4040934990280767
0.16003947094964271
-3.9033897846193986
-5.825103145528941
-4.830643692812948
-1.58157917431205
2.8050258116616527
7.3920770338453
10.756753051469458
11.309381544430718
9.325769266503322
5.3565967063915485
1.1767258603958188
-1.9914879856324827
-5.3090276381435855
-6.948247135245003
-5.135993281846551
-2.6131582899307975
-3.062994147944392
-6.120725300926343
-5.561672828561608
-0.5688262648324165
1.4423572611968631
-1.2160411247110308
-3.7863336695794354
-1.968705419615269
2.9665273124734104
3.936145422500722
0.5349946110577057
-0.8664118906792068
0.4218226952822311
0.8763721505234287
-0.20204808116459427
-0.537842246206864
1.7690766215283462
5.78850458054224
6.656726765097834
2.141039792913002
0.18563263903349397
3.641766016257678
3.5792786599185518
-0.4415303429346814
-3.2868477847652997
-4.305852633256557
-0.23444380621671435
7.4984020293983775
12.366405198151577
12.841465714447493
8.787918890670271
3.921387841067132
1.8989361687741728
-1.152567904117522
-5.106867630606654
-7.325821360752827
-8.105346856424978
-6.680102444220209
-6.813429430548256
-8.867989323786952
-7.979343920739942
-7.737958178751266
-8.300130310178512
-5.343882605360284
-2.718275847868732
-1.2469958238863055
1.1608585105265934
1.6570878121053627
-0.44408667614174974
-1.5299506021564415
0.9519609614566775
3.756953166020338
4.065526104479925
5.446614568343953
9.136701020829179
12.581814377655244
14.310048499179775
12.22247809821253
6.600384063717623
2.4740961417321397
1.195429829194796
-0.46954481916064994
-1.88298117328927
-2.5187983355181642
-2.6250332926873186
1.377280928086791
6.03986863771724
5.715796480891024
5.540491672320358
5.746683730442722
-0.549685120535404
-7.7873252334197
-7.883899127768771
-5.884905715983596
-4.826356529294735
-2.3357414874821534
-3.1456492308529684
-7.917210610584607
-9.569119541862344
-7.705059390339263
-5.41004765825207
-2.6420060708626765
0.9659172364087258
3.357319124281143
4.401614624332283
8.58621953593762
11.810956701010152
8.149329840569747
3.926171230326226
-0.6179232324279464
-6.458235305131556
-3.491049075536464
3.298175760894518
1.205206094603828
-3.5590304047963484
-4.047005898344697
-3.9872666203753484
-4.93309939289025
-5.278911327808468
-3.7765582358728156
-0.38304242391503274
2.2505556080834075
1.9282468649377698
1.4478290312130946
3.5629407573031124
4.390502806049367
2.8682276560672015
5.424619236237088
10.30821323362236
8.376445368767286
1.9613894241507557
-1.2254993139673613
-2.7823139799056267
-4.716649810087669
-5.216645307309072
-5.830304560765989
-6.529488273427736
-4.901253844757003
-4.042339396509755
-6.434541892647603
-5.911827566961686
-0.11653055677000788
2.297566941576927
0.5023008812413711
1.7070069555906926
3.2616978074828284
3.049903353679566
3.8986422211011216
2.6189369139874454
-0.6002038261483795
-0.9397754279713229
1.7738378205541612
4.940645978425693
4.467065190954798
0.8496468144275068
0.6873107937145302
4.2764862862525215
4.610203757026712
0.06344821596294749
-2.989984437049393
-1.8926447654349257
0.7687916497854778
1.79510883243699
-3.1786593628304582
-7.367940592979167
-2.6208874850329025
-1.5587426336148604
-8.357909292190408
-7.96703078859992
-0.8941450778022986
1.1385504678517135
-1.6790928105225975
-1.1530395431227334
2.314384114891489
0.9510304973646664
-0.868696188814994
2.0590760948845483
3.918557850969152
5.175056954305743
7.70547101454242
10.606800918701838
14.99020833416384
14.571920831986883
7.800683232411328
3.274380697623314
2.8056226012032095
3.752635626653506
1.7955056924776915
-3.207979301129515
-0.5869463055890194
6.14922414016536
-0.16094531666943931
-13.22284553653757
-13.896478572990638
-6.8742994612044965
-9.051756754712338
-16.826664976275627
-14.47594931683014
-5.804877946593803
-5.274078892236248
-9.683196755702463
-8.449296378300394
-1.4752702514966705
5.335319069000213
7.01191149631585
6.294362504120897
9.454788808832907
13.095833340910081
11.227318346475332
6.459726748972956
3.996495695016426
4.8896410347034935
4.476779762226401
-0.9438214792614741
-4.911349964689401
-1.6218871526844671
2.7280264334454416
2.9658122105304767
3.7779797760256564
6.862666202159386
5.806782326142217
0.7211380658827952
-2.076214010904376
-3.5647720415722004
-4.1515366048724
-0.14725276059133396
4.514936285143752
4.152345485113621
1.9379559136874576
3.5670028422857474
5.090527377739138
0.1652292518344765
-5.416435966839808
-6.661965180265161
-5.385848915084535
0.21692421608798373
5.945381656186128
4.432119187764988
0.8063428133333275
0.9959293353682807
2.1800914068634802
2.709125648847661
3.223542423224774
3.0245063759901427
4.645728311237696
7.954412052228257
5.401239632124112
-2.245433754627573
-6.529696823420956
-4.8073994744609045
0.34384746941526434
1.3427747545196163
-3.0795561935751903
-4.2377310917372615
-3.171025855905171
-4.922737925996524
-8.510185431977446
-12.722071662731068
-10.64787462856761
-0.35196514214460295
5.963869630883699
3.1292296405726647
-1.8015043830493194
-2.6433286402912297
0.8607041548569605
3.69084038039781
2.042904327416772
-0.34519565876154784
4.641583103506556
15.518790080393785
19.680977719250404
15.058578182751539
12.003124462928344
12.7388229700564
10.28925529637476
1.3017395113862609
-8.344679578032782
-11.16761368369204
-10.208149772809419
-12.130595124675715
-14.166513277134353
-10.819898943451298
-5.288682513554636
-4.343196051900227
-5.062702577458025
0.10969770426095596
8.667360533315353
13.801223532487148
13.379021517897634
9.081963127774952
7.199934994314157
10.933457633584572
13.675035477914644
9.373654152936725
2.122167042412883
-0.9349662402213396
-2.387061977208915
-6.935085979972169
-8.55330133320356
-3.2548921047431127
1.6105886313981794
-0.7697951412665825
-7.258821430977388
-8.5487322644419
-4.068534209331674
-1.7130819594394844
-1.5930660996400356
0.6903286368491182
5.440744102064888
8.283607404356358
2.855617838331499
-5.549620891159906
-7.4066797058380995
-5.118610059400036
0.4466281158998422
8.570940983224068
10.81713168734817
8.178156532548648
1.580197594343638
-1.0893732391016275
0.2705216479839875
-0.4219373680669515
-0.06905824206591549
-0.24860825338939563
-0.1569731129569556
-0.20346282017411255
-0.1796008974354546
-0.19157200040029426
-0.18529241940920602
-0.1883089552375463
-0.1865910192590639
-0.18728490022290228
-0.1867507326302299
-0.18684243183708815
-0.18661573069884924
-0.18655157824197072
-0.18640500903596707
-0.18630079229937252
-0.18617537794069255
-0.186061133746672
-0.18594157303925202
-0.18582509249797577
-0.1857074148038031
-0.18559071796728227
-0.18547389206561685
-0.18535750184102212
-0.18524125906879751
-0.18512530997224347
-0.18500957949539526
-0.18489410528877942
-0.1847788675983133
-0.18466387590907718
-0.1845491248144867
-0.18443461649372803
-0.18432034926318064
-0.18420632340759288
-0.18409253821005073
-0.1839789934647213
-0.1838656887063561
-0.18375262360273178
-0.18363979775476424
-0.18352721079831635
-0.18341486235234233
-0.18330275204529828
-0.18319087950168872
