AAD_Filtered_TADAS_FILE
AAD_BASELINE_CORRECTION: BASELINE REMOVED
AAD_FILTER_TYPE: BUTTERWORTH
AAD_FILTER_ORDER: 1
AAD_LOW_CUT_FREQUENCY_HZ: 0.025
AAD_HIGH_CUT_FREQUENCY_HZ: 40.0
EVENT_NAME: 202302061024
EVENT_ID: 13207
EVENT_DATE_YYYYMMDD: 2023/02/06
EVENT_TIME_HHMMSS: 10:24:47.00000
EVENT_LATITUDE_DEGREE: 38.089
EVENT_LONGITUDE_DEGREE: 37.239
EVENT_DEPTH_KM: 7.0
HYPOCENTER_REFERENCE: AFAD
MAGNITUDE_W: 7.6
MAGNITUDE_W_REFERENCE: AFAD
MAGNITUDE_L: 
MAGNITUDE_L_REFERENCE: 
FOCAL_MECHANISM: 
NETWORK: TK
STATION_CODE: 4413
STATION_NAME: 
STATION_LATITUDE_DEGREE: 38.313533
STATION_LONGITUDE_DEGREE: 39.039342
STATION_ELEVATION_M: 930.0
LOCATION: Kahramanmaras_Elbistan_Turkiye
SENSOR_DEPTH_M: 
VS30_M/S: None
SITE_CLASSIFICATION_EC8: unknown
MORPHOLOGIC_CLASSIFICATION: 
EPICENTRAL_DISTANCE_KM: 159.28
EARTHQUAKE_BACKAZIMUTH_DEGREE: 
DATE_TIME_FIRST_SAMPLE_YYYYMMDD_HHMMSS: 2023/02/06 10:24:54.4735450
DATE_TIME_FIRST_SAMPLE_PRECISION: millisecond
SAMPLING_INTERVAL_S: 0.005
NDATA: 21762
DURATION_S: 
STREAM: HNN
UNITS: cm/s^2
INSTRUMENT: sensor = GEO-A200,/GEObit | digitizer = 
INSTRUMENT_ANALOG/DIGITAL: 
INSTRUMENTAL_FREQUENCY_HZ: 
INSTRUMENTAL_DAMPING: 
FULL_SCALE_G: 
N_BIT_DIGITAL_CONVERTER: 
PGA_CM/S^2: 36.786
TIME_PGA_S: 
BASELINE_CORRECTION: BASELINE REMOVED
FILTER_TYPE: BUTTERWORTH
FILTER_ORDER: 
LOW_CUT_FREQUENCY_HZ: 
HIGH_CUT_FREQUENCY_HZ: 
LATE/NORMAL_TRIGGERED: 
DATABASE_VERSION: 
HEADER_FORMAT: DYNA 1.2
DATA_TYPE: Acceleration
PROCESSING: Automatic Paolucci et al., 2011
DATA_TIMESTAMP_YYYYMMDD_HHMMSS: 
DATA_LICENSE: U (unknown license)
DATA_CITATION: Turkish Accelerometric Archive v 1.0 - Disaster And Emergency Management Presidency, Earthquake Department
DATA_CREATOR: AFAD
ORIGINAL_DATA_MEDIATOR_CITATION: : AFAD - Disaster And Emergency Management Presidency
ORIGINAL_DATA_MEDIATOR: AFAD PROCESS SERVICE
ORIGINAL_DATA_CREATOR_CITATION: AFAD PROCESS SERVICE
ORIGINAL_DATA_CREATOR: network: TK
USER1: GuestUser
USER2: 
USER3: 
USER4: 
[...]
-10.732130908582185
-11.467624290347835
-12.166089449378015
-12.80555348782137
-13.35879772325414
-13.825307060345052
-14.21212020892055
-14.511763016002815
-14.697345127940574
-14.717289843668393
-14.524705901422086
-14.13133536460662
-13.634672169513966
-13.093519845509906
-12.559582555657014
-12.079708484925654
-11.672206375106319
-11.376778350742159
-11.176521395153147
-11.022807189905373
-10.849340478311442
-10.595948085140618
-10.2481394766559
-9.812798392804067
-9.31468743317897
-8.742426961200344
-8.051551573890169
-7.242758843330686
-6.35699062602751
-5.403441004169437
-4.376706579038361
-3.2797086396284656
-2.0862697234893606
-0.779566788625169
0.6129333250283499
2.038762100835094
3.4298793810448482
4.727924074608599
5.9137861953347794
6.991413356732945
7.972904466562053
8.925846390706045
9.91271128760527
10.916742285255717
11.906823356705212
12.847849067203967
13.746245517329033
14.63755639662934
15.506209302542054
16.377400036725152
17.286075899231104
18.24012301073082
19.262413432914613
20.248109864370413
21.04800788461345
21.636501012060428
22.024626083935377
22.2471974611934
22.35242569641825
22.340221496825926
22.18924602569182
21.91156679771992
21.531355164013206
21.03709615436726
20.40135545554894
19.636466204767206
18.801275424211045
17.901891601021465
16.94779008404256
15.97849645634277
14.958498354468203
13.856256191516996
12.670602966606639
11.471402715297108
10.392735233160204
9.49682091139564
8.81142360891418
8.348205634646707
8.123972054649162
8.105815534541147
8.13472420631044
8.112994513915993
7.995789743920596
7.745764912753522
7.44242050010924
7.227460427952696
7.140479865811595
7.113275092178549
7.1752398755912825
7.315475921542609
7.4876672352767555
7.704993427348946
7.894590915363611
8.106362555258219
8.371523156713197
8.59629819516626
8.844806353528524
9.149019442679284
9.387959757403877
9.539847579027814
9.590927842001731
9.475986967253323
9.272796399613393
8.967408128851288
8.555437637396443
8.191008345360109
7.8915172870247146
7.640506067090964
7.417817696402907
7.122657101516093
6.70381999703748
6.195096977194018
5.610591682643456
4.983618104467161
4.3696057339754235
3.727551835457552
3.052449307950721
2.34994060479398
1.624857502616261
0.9049829429989716
0.1674739464329497
-0.49592827462290373
-0.9818307959790809
-1.3119818121159084
-1.4698315790374814
-1.4009909209725546
-1.1109269050088506
-0.5757203342834776
0.25793825607212884
1.3638299557928486
2.7182418027193207
4.254158274919161
5.910586444718411
7.649894702033389
9.35216663509418
11.000342534976014
12.570197452635801
14.028958326931551
15.400479710249881
16.620454289520115
17.686607921110966
18.5653044795181
19.210524500499794
19.688128833996423
20.030723407289805
20.268567920366614
20.448848431101823
20.603462562610236
20.73968817482561
20.909446806557643
21.166514401655707
21.482093952837282
21.809786959197904
22.128057062766043
22.412897923192116
22.496543988303415
22.268576223281713
21.746287756715727
20.922824282166818
19.833283158175494
18.451745516149206
16.812327192638797
14.97020446901122
12.883770005982246
10.651116303209687
8.335816380135125
5.932016382803992
3.5602746594209473
1.273560003575806
-0.9186859355204313
-2.9454906838161468
-4.786695183789492
-6.41303812815871
-7.806171562263445
-8.971183209176688
-9.932485448828265
-10.749350961201301
-11.370315674328722
-11.800707950961712
-12.138772296378487
-12.439175457152365
-12.780214539820658
-13.200816179901706
-13.734798890916665
-14.338949038535528
-14.923740746674488
-15.48964560722651
-15.93241423900581
-16.24267191874338
-16.49315345289535
-16.606349613694032
-16.668879089907794
-16.74992327359662
-16.7727073928986
-16.763093444399136
-16.741212354329342
-16.738761523387435
-16.74294869888234
-16.731143440142635
-16.746320909060447
-16.74507737885181
-16.72022535519368
-16.65487758642777
-16.516878739202603
-16.32736929570509
-16.05139397872653
-15.77796094675994
-15.587516428445195
-15.454580806572999
-15.404937189798424
-15.35673539349024
-15.277905308639067
-15.179324457533417
-15.009518790912255
-14.856448228268214
-14.733052090157324
-14.5992967651557
-14.484443852964935
-14.354568694595118
-14.194996706732677
-13.94702778769749
-13.523351671980105
-12.92244077764713
-12.16715384992055
-11.293288065393515
-10.34133989447615
-9.312918318744828
-8.168322816393548
-6.8656912142106625
-5.3940138969507085
-3.747038750438143
-1.9223227781868146
-0.006230171743736288
1.8853100060993389
3.6939391831637383
5.347784323900193
6.772250588328467
7.961424903874962
8.936272944176215
9.638698096139859
9.975658713759971
10.035999458382795
9.9326962405826
9.620226364648964
9.181011154523631
8.739993533487125
8.394515348143218
8.237257130626748
8.212828611927558
8.406613992123487
8.851739416237294
9.471811200866698
10.337934796592531
11.35743527957008
12.466986211578146
13.589906006704549
14.586881780639676
15.535627416521683
16.31505716902673
16.817750030244692
17.10573560807725
17.13963401128669
16.98482055866735
16.62944810782764
16.099372762775435
15.543091463729564
14.969493235874564
14.43624666410131
13.940742252194683
13.42278015394474
12.881065302507855
12.276004489214618
11.651854605001791
10.99006024967138
10.205326174532292
9.317704138132044
8.320258781792246
7.2128709376915285
6.015394324878819
4.773346381218035
3.611067227121398
2.5839275174280063
1.6975411135586735
0.9758882902419416
0.4097575903901053
-0.09526217181716536
-0.6361999932434962
-1.2071318809185732
-1.8777626114158599
-2.692314877915214
-3.5722031900088616
-4.577832330822007
-5.702159137111873
-6.830046509565873
-7.971028850561051
-9.037125777600448
-9.907052256400458
-10.519188523254606
-10.734129093253285
-10.485560935673606
-9.782913575473417
-8.662064838723825
-7.2298801342221415
-5.632337846558147
-4.035487325682073
-2.578085573635971
-1.3897122540864646
-0.4942161775277527
0.17680383992562387
0.5521618515118064
0.6117599943076901
0.4967244703202697
0.245969353969296
-0.10208658132907919
-0.454881518033327
-0.8308877687999372
-1.1789288425450057
-1.4206857986586678
-1.5598376093376847
-1.5249731863870228
-1.2769995774238834
-0.8474878891707399
-0.2897097158276574
0.357244440034326
1.0686504569062711
1.826386858845983
2.6752504863012194
3.6469350021372
4.779189879867276
6.0147927721380015
7.222256028016363
8.374047307307297
9.460506372731308
10.43644828959801
11.259945927014035
11.973458407624507
12.612830201566357
13.112243267883457
13.413165712311896
13.51085290671185
13.395059270330721
13.016633312652921
12.392670379120522
11.574009426879671
10.569529396544661
9.465359903619245
8.382896401334397
7.374706521857361
6.444599988809642
5.520493699583451
4.544920271938057
3.520235221892141
2.401142636418503
1.1478652001513743
-0.24834886475464496
-1.7660189671486664
-3.2898867333631046
-4.710928022031506
-6.030492581471593
-7.291461214498234
-8.51602554190589
-9.665641357397977
-10.653014535228042
-11.436979041951737
-11.999177356504157
-12.310228266036882
-12.360631281821366
-12.146779040408363
-11.688889341801845
-11.096407103272874
-10.532224019377164
-10.089405160823894
-9.794736147654476
-9.702074204305006
-9.843393546899245
-10.187319138765218
-10.688774210848107
-11.272115663235104
-11.867656008124182
-12.413496816030731
-12.901282171119213
-13.321371838452656
-13.583118827373067
-13.742407510051269
-13.825929979763128
-13.816028789105667
-13.794353050804412
-13.681587841344502
-13.499106328140131
-13.320015990049955
-13.103934375644364
-12.926176352463253
-12.742312805554597
-12.54973760081373
-12.42082388153019
-12.298018056202467
-12.22318134658108
-12.201902076357209
-12.226772567601413
-12.316366165759202
-12.417225047118105
-12.503415578139602
-12.512339416727254
-12.42309830930927
-12.25915929289337
-12.004326702436792
-11.675398040683014
-11.334322692227257
-11.064157032815432
-10.913943274664318
-10.81459740377568
-10.664226381354409
-10.414974772050494
-9.947052268073527
-9.210205885667845
-8.262589118863422
-7.142426438670259
-6.0022179309148305
-4.9237373184850055
-3.897747998318058
-3.0003816448262537
-2.2194303845875694
-1.486780677235736
-0.7156782212161305
0.13259160926043678
1.0019336213059689
1.8938350976938103
2.7046749389983336
3.401575565925673
4.12191675629719
4.75973383280256
5.184263797266169
5.40195804536155
5.385877397492739
5.139622221255874
4.645037195713638
3.9364482263244254
3.06615744843017
2.119107851493211
1.3069151645976207
0.6242794550813335
0.024047760873872597
-0.4467361033717989
-0.8914960980178692
-1.3441743905167438
-1.7631647199671099
-2.1535465488434236
-2.463441505888243
-2.5819849247606945
-2.4362078102323643
-1.9720428207577816
-1.179207272238098
-0.14556777603414772
1.0955686910970406
2.5031178289029525
3.9834014672024516
5.464916002676943
6.903939296466152
8.26314374677427
9.429234888050866
10.375231262055483
11.142011072438285
11.770292438438014
12.362219562546798
12.955073222273748
13.541255635277734
14.100852216866649
14.656484370505293
15.33302863174124
16.203065081075835
17.249290522805225
18.41935825813424
19.54977731938485
20.493833571413475
21.210803332452528
21.619479048853044
21.70347037298328
21.535271425347545
21.164201615177607
20.613249360699278
19.88766451968339
19.075750220648658
18.27627885401668
17.52813098172283
16.93570863834056
16.551736359275147
16.39241165239269
16.514841313684194
16.84421591661106
17.300183332162234
17.795811536883804
18.209013886237372
18.4793721844312
18.518623867291158
18.298688950854036
17.71975384922505
16.68693660291115
15.330355888765194
13.738736924584908
11.928244431599905
9.992212577962139
8.083060501834243
6.285509694815393
4.652630531493434
3.210491176245141
1.9288704805987154
0.8914741511615777
0.16524740282591835
-0.29080580592031485
-0.5147201907231661
-0.5429269235325602
-0.38453127898535316
-0.04706424496219003
0.3633197951018207
0.8018824748989583
1.3955404319479139
2.1821956008422307
3.1097978863253526
4.1299043144366685
5.238343131829443
6.4427091184758645
7.659894785285185
8.865189370304677
10.059113811149917
11.198991991545816
12.242197627655518
13.160385261602173
13.876818428044494
14.326411785532471
14.511644477512364
14.440583597762961
14.228526176644385
13.891573920105639
13.40656438792736
12.787225748585264
11.98765204509986
11.116669636460053
10.197768233767567
9.17596661347284
8.149252778344858
7.194769343683014
6.328514765371787
5.568069077894154
4.967455871711974
4.540728222817098
4.237178812595994
4.043415152429619
3.91626924958949
3.7791640398489483
3.6014584712493294
3.2922904763427434
2.7238080997127714
1.8932810116949597
0.869305588525539
-0.3060123449750915
-1.6048950981406063
-2.9829349427030944
-4.378181917214508
-5.771136920700857
-7.104068806892306
-8.262649840982892
-9.214340877175976
-9.966058861103098
-10.553646551845445
-11.037927503503314
-11.440421498801651
-11.788909834396584
-12.09673795232528
-12.352599458992499
-12.590955516521742
-12.752771725580557
-12.715898265531083
-12.585894383629599
-12.517409488338876
-12.517772979506088
-12.607952823845192
-12.80388588902997
-13.059395009951054
-13.406345740643964
-13.868623888843008
-14.36899728848732
-14.94611926561229
-15.61495321926982
-16.28972097450739
-16.913172067372297
-17.401431257809367
-17.781491921767635
-18.016622514979264
-17.965680034039902
-17.704848009538555
-17.367412224776647
-17.092815670129827
-16.9971526248608
-16.965737798211993
-16.88965053666645
-16.782125958993845
-16.62123712119201
-16.474017425015603
-16.398857295105685
-16.302145287391546
-16.118783269144906
-15.85331586938701
-15.546952508927612
-15.180431163470514
-14.799203830632504
-14.41126570914152
-13.857373140114452
-13.162256651626
-12.393225008469008
-11.589914185735132
-10.782323452489816
-9.991252954848198
-9.34156907758694
-8.866212467142978
-8.634137743205118
-8.73701753731317
-9.154429035547087
-9.82356652022728
-10.61134413023759
-11.432452041764297
-12.257393198682255
-13.121933657428823
-13.970856958126078
-14.62026545280979
-15.120114263214443
-15.47731523582381
-15.54610542935327
-15.32938002025403
-14.799353455558984
-13.873946158392915
-12.594947954395005
-11.119335595218399
-9.554369247099045
-7.937160960143602
-6.274531419368864
-4.565427775961734
-2.8563090959536153
-1.0922969304719272
0.7621406446739074
2.704699948024634
4.809678860196243
7.051338812135756
9.381895204350757
11.747839937490342
14.097816081204773
16.43667103587288
18.709760156591543
20.869918086478012
22.901977480960877
24.76938615139699
26.43820829601936
27.930964822378467
29.26112576017919
30.36913430315997
31.222943847849987
31.901780463890848
32.53445784976118
33.145250877169865
33.72452932423785
34.2785082409802
34.78402272219718
35.19419299299117
35.46028238989565
35.58575345008828
35.494245860203534
35.140762128154584
34.6445136538515
34.104848049063825
33.62636279131726
33.234205107134805
32.84932780874993
32.4405303373743
31.93761592464176
31.23445090860151
30.246448500121122
29.016590284658417
27.65214853414623
26.139553726003864
24.477889640948913
22.683068443443073
20.724408207642004
18.65518815318078
16.591518034245155
14.51233792441254
12.370685262298517
10.28150451728718
8.361120600740707
6.6083975466319185
4.993329073383317
3.533157016804764
2.166364467692419
0.8284818455090509
-0.4106627270453483
-1.5356732888959166
-2.495343164629652
-3.1644636014592327
-3.6292355723613117
-3.9940433446646635
-4.218115720547808
-4.3477328419236905
-4.39935978137122
-4.3239676909258336
-4.152294488759126
-3.9080028431604696
-3.5442500895088864
-2.979488716962837
-2.2208616007363897
-1.2733638012020008
-0.15390358266161547
0.9938915747170523
2.1133703140241877
3.2067735608866212
4.217978537113021
5.092085778910592
5.7634065751579335
6.208294869823464
6.475179958051642
6.569864995711748
6.5033023840098005
6.345947919544141
6.172633445209719
6.08295680050161
6.154273583376207
6.478618884810116
7.102168060379366
7.927926596398811
8.861444582884339
9.792286296818595
10.530509996468084
10.955645642371657
11.118690190837599
11.08258117872855
10.856269953594603
10.518046233278698
10.142004674709193
9.744357783383267
9.321350985710296
8.900169670464189
8.566421442080731
8.279381543591604
7.898420679122585
7.48408929019774
7.172764392927342
6.872120777982856
6.452226818271728
5.923330125952777
5.281010288405357
4.531689684665092
3.79026086800398
3.1119214089709346
2.420152221971309
1.7006284471966326
1.0274661482002796
0.45502120924305633
-0.02097090483148468
-0.42626912917130766
-0.7282326332351857
-0.8922115021340078
-0.9308253852118501
-0.8766644270893476
-0.7554581337129188
-0.567243122747989
-0.3466085379764346
-0.13055385348057053
0.07577672507273076
0.18162122225158034
0.1286087464931444
-0.007209692821359127
-0.22808956627646196
-0.5390746948853916
-0.822322163827689
-1.0449588819196065
-1.2811994826808462
-1.591110023448609
-1.9556899262263479
-2.2928473630938146
-2.617581297005941
-2.933302198900378
-3.1418789691795306
-3.2227976463732237
-3.1899887405998024
-3.0510207782043604
-2.827688193224392
-2.547639475962498
-2.243649307864492
-1.8538278332533533
-1.3583570944038865
-0.8107143286910206
-0.13357645009108246
0.692912608947956
1.5830125227809677
2.4697286147494815
3.2440187589918077
3.9046027896161344
4.488092445398111
4.988836896200679
5.4562504245480214
5.862796994968624
6.219605373584306
6.548124047625073
6.822065315797833
7.1401583552603425
7.51068796174213
7.881907195963589
8.284390494538531
8.724178121528642
9.157980627966776
9.48157628894128
9.669920250085303
9.755956347170676
9.728500569342335
9.606828263455643
9.46233046885808
9.346117948363405
9.277057696077573
9.31114317887533
9.46244785179694
9.715014537452806
10.06375517703318
10.47072193980437
10.912281265974013
11.371070896001752
11.84930965729007
12.351682252452092
12.845030052847203
13.343928762650721
13.865812120529576
14.349733546482481
14.775992452921079
15.170013387717525
15.473841978526751
15.601391279192734
15.5118031591583
15.183042699662854
14.640021703896226
13.910888302537876
12.981237508637767
11.890653409079516
10.706749108775027
9.450409314137802
8.05312075011302
6.407294871654439
4.516561568831848
2.377524583804898
0.06761035825868661
-2.2990881161813768
-4.799988481637203
-7.307507315296397
-9.648569802342198
-11.832924217832762
-13.751397799884494
-15.371177663638058
-16.745172294063696
-17.826814549235444
-18.597507795364017
-19.13527746022021
-19.51197534792064
-19.77081636861231
-19.985812607697724
-20.211941894167367
-20.427788527561244
-20.614614997639823
-20.800487055620486
-20.97486134304217
-21.15964074466239
-21.37189670509078
-21.597909754963812
-21.88990361731097
-22.23998624261991
-22.620958999685552
-23.023497298435355
-23.36599457726379
-23.633093011463455
-23.80614660593242
-23.74890122886048
-23.468866246464383
-22.983349241774896
-22.218335928060057
-21.239294974264368
-20.09512167968533
-18.825265877740456
-17.47157995543407
-16.022922658029003
-14.520698035791952
-13.03986393594411
-11.608661158157036
-10.169817176702484
-8.75655812933417
-7.428813759735805
-6.215744788855171
-5.165108574771546
-4.263954330720297
-3.54603544226646
-3.0409858067351276
-2.739978643715971
-2.5946358930645426
-2.5727253319982766
-2.745214154841726
-3.0109174258303004
-3.2678302855650374
-3.576902512787223
-3.8466421479479496
-4.047139100774431
-4.206374704762689
-4.32158103307054
-4.472578168276625
-4.594362435098704
-4.704788903124554
-4.849139760854625
-4.9632898440611815
-5.072285266621287
-5.13818619360024
-5.127473624145652
-5.025235414048456
-4.851524956583164
-4.668405225526223
-4.483578793718466
-4.279638052957426
-4.013099044365613
-3.700895924314882
-3.3091336018012147
-2.838368331315427
-2.3559790674634615
-1.8556072103880221
-1.4259392850878547
-1.0696501694044414
-0.7919533510518753
-0.697616721107354
-0.7244033905205687
-0.8836109596904276
-1.2359458854039835
-1.7561168812005121
-2.418765655693968
-3.1664879710470624
-3.951566008918752
-4.7269730494524795
-5.423069281615433
-6.011355588353086
-6.550261528429433
-7.045172031643876
-7.55471234906228
-8.177238454880117
-8.873474241590683
-9.633564280719513
-10.436089609007642
-11.281009170591084
-12.16202969865542
-13.015679179438779
