AAD_Filtered_TADAS_FILE
AAD_BASELINE_CORRECTION: BASELINE REMOVED
AAD_FILTER_TYPE: BUTTERWORTH
AAD_FILTER_ORDER: 1
AAD_LOW_CUT_FREQUENCY_HZ: 0.025
AAD_HIGH_CUT_FREQUENCY_HZ: 40.0
EVENT_NAME: 202302061024
EVENT_ID: 13207
EVENT_DATE_YYYYMMDD: 2023/02/06
EVENT_TIME_HHMMSS: 10:24:47.00000
EVENT_LATITUDE_DEGREE: 38.089
EVENT_LONGITUDE_DEGREE: 37.239
EVENT_DEPTH_KM: 7.0
HYPOCENTER_REFERENCE: AFAD
MAGNITUDE_W: 7.6
MAGNITUDE_W_REFERENCE: AFAD
MAGNITUDE_L: 
MAGNITUDE_L_REFERENCE: 
FOCAL_MECHANISM: 
NETWORK: TK
STATION_CODE: 4628
STATION_NAME: 
STATION_LATITUDE_DEGREE: 38.241198
STATION_LONGITUDE_DEGREE: 36.922805
STATION_ELEVATION_M: 1228.0
LOCATION: Kahramanmaras_Elbistan_Turkiye
SENSOR_DEPTH_M: 
VS30_M/S: 186
SITE_CLASSIFICATION_EC8: C
MORPHOLOGIC_CLASSIFICATION: 
EPICENTRAL_DISTANCE_KM: 32.41
EARTHQUAKE_BACKAZIMUTH_DEGREE: 
DATE_TIME_FIRST_SAMPLE_YYYYMMDD_HHMMSS: 2023/02/06 10:24:22.7143200
DATE_TIME_FIRST_SAMPLE_PRECISION: millisecond
SAMPLING_INTERVAL_S: 0.01
NDATA: 2921
DURATION_S: 
STREAM: HNE
UNITS: cm/s^2
INSTRUMENT: sensor = ACEBOX/SARA | digitizer = 
INSTRUMENT_ANALOG/DIGITAL: 
INSTRUMENTAL_FREQUENCY_HZ: 
INSTRUMENTAL_DAMPING: 
FULL_SCALE_G: 
N_BIT_DIGITAL_CONVERTER: 
PGA_CM/S^2: 0.081
TIME_PGA_S: 
BASELINE_CORRECTION: BASELINE REMOVED
FILTER_TYPE: BUTTERWORTH
FILTER_ORDER: 
LOW_CUT_FREQUENCY_HZ: 
HIGH_CUT_FREQUENCY_HZ: 
LATE/NORMAL_TRIGGERED: 
DATABASE_VERSION: 
HEADER_FORMAT: DYNA 1.2
DATA_TYPE: Acceleration
PROCESSING: Automatic Paolucci et al., 2011
DATA_TIMESTAMP_YYYYMMDD_HHMMSS: 
DATA_LICENSE: U (unknown license)
DATA_CITATION: Turkish Accelerometric Archive v 1.0 - Disaster And Emergency Management Presidency, Earthquake Department
DATA_CREATOR: AFAD
ORIGINAL_DATA_MEDIATOR_CITATION: : AFAD - Disaster And Emergency Management Presidency
ORIGINAL_DATA_MEDIATOR: AFAD PROCESS SERVICE
ORIGINAL_DATA_CREATOR_CITATION: AFAD PROCESS SERVICE
ORIGINAL_DATA_CREATOR: network: TK
USER1: GuestUser
USER2: 
USER3: 
USER4: 
[...]
-0.026675353697465248
-0.03152914633122473
-0.0011233949003923158
0.03667347180422918
0.052282066810631564
0.035226731505595826
8.25351223799268e-05
-0.01960658367420767
-0.013074413869859454
0.0025035234081669812
0.01044697231089989
0.006559195749639936
-0.0018836307330995733
0.001885597929010265
0.015306929433518376
0.014969852217679809
-0.0025289851445302308
-0.023249567081135396
-0.023061643625684476
0.005641881507781198
0.027711804273797276
0.028766380171210304
0.015465330323046316
-0.01043084638785979
-0.019103941576245943
-0.007417638897659076
-0.00805251099836678
-0.01652794439380793
-0.017292620030590324
-0.008045350300907066
0.012665115228450517
0.022206601021545397
0.0037234562016751037
-0.023389560709500656
-0.033881852955592796
-0.018413677319852727
0.007269206573256799
0.016410548103006673
0.0037873103221308813
-0.009729280737355529
-0.009003941335128881
0.0012294351253968841
0.014009532240665984
0.01400237670751352
-0.001016724745603075
-0.013127045973223598
-0.021044448997207938
-0.01432303988462892
0.008920781171389397
0.021591536770458886
0.015626336259239804
-0.0027154064615278403
-0.014719751364200095
-0.005934973549902814
0.010596986954978623
0.02279779450013406
0.020066183035310534
0.004125973772991295
-0.01017333802054836
-0.018572294411089818
-0.01337533600422583
-0.0036421000312164185
-0.006466674512658475
-0.004486183294389583
0.003511215100969465
-0.001798036926730398
-0.004560740390675397
0.006554163517882695
0.016228887534474472
0.017266172150197594
0.014934294097761406
0.014497784244088083
0.012745447506151218
0.007434210995928271
0.0009479317478266768
-0.004043681835894635
-0.005375612538292968
-0.005567252348732188
-0.0024583614872705365
0.003725661567105206
0.006038988856893073
-0.001500389116983088
-0.017589773894764977
-0.018712157182068326
-0.0045186717647841095
0.005203707150767577
0.011004585817553904
0.004148611324794497
-0.011948700602967805
-0.01748912096444331
-0.011809174935817705
-0.0009140307342946225
0.006244932495411424
0.0068217592695496146
0.0017513352049023133
-0.0066074146962957665
-0.010100157821320187
-0.008829503254560283
-0.005399025337915831
-0.005543747487658311
-0.004222249967616694
0.005873126023873597
0.013245461017075168
0.014931925323429494
0.009983228493659253
-0.0018073947031539083
-0.006211500296749286
-0.0004301463458815853
0.003332541384956636
0.0022929423567960463
-5.511463778974227e-06
-0.008888759418528493
-0.013696348616279715
-0.004693851214532357
0.0020253160420797326
0.006539254667123229
0.011282194095067496
0.00760878248536677
-0.003767257246615654
-0.010493270350110028
0.004944160487288198
0.020183697611302134
0.012033023876479159
0.00010163178462291409
-0.007938868924951568
-0.004712878228008934
0.006531634111150606
-0.0011412912434738839
-0.015400132256872104
-0.013755898947384115
0.005191092687072994
0.028696684032071065
0.028843095834749984
0.008421044565097697
-0.006254482593254675
-0.005301765607736983
0.0039254705430809955
0.00680646409970193
-0.0011991540753769204
-0.0177573910719645
-0.02675310142885345
-0.00924116689057359
0.009384976157241365
0.0007724228295194127
-0.014776597463563577
-0.017943920238182393
-0.015232425657704489
-0.008992530752564459
0.004079905427106789
0.01505724198080648
0.006264487352699421
-0.01114588903332786
-0.008084811789243172
0.0021933200172009034
0.00013605722628620841
0.00030021479897314007
0.0010977891110683826
-0.0016033576707050077
0.004182799009018895
0.011635570119231902
0.012226709537229612
8.152780694512679e-05
-0.01754933950609425
-0.009070518921276522
0.012562662972896514
0.01281776620365538
0.003310790495389111
-0.001385022264685895
0.0011827786081224773
0.004812375922772022
-0.003569206853711073
-0.011819232227769665
-0.005832272479047463
0.004716082230769137
0.010098081537786996
0.014743391015568826
0.014286141711809511
-0.00032823875882568985
-0.009119797420542294
0.0008396110857490887
0.009880759028246191
0.0082578292731907
0.0027156813058591663
-0.00029152282298119584
-0.004757209563579436
-0.009705357104585937
6.36495393843853e-05
0.013788660103815418
0.010127550341661946
-0.0077858871396065425
-0.022993479053535756
-0.020848016514330117
-0.010780003150500048
-0.001414299996412709
0.010402831706021692
0.003487774210578848
-0.013812658096370278
-0.00374800610472251
0.007719216112280546
0.0008119625018323908
-0.0020252646442467455
-0.005162799169263928
0.0024406955629011832
0.01831879877535874
0.008790330418911443
-0.007722396801209698
-0.01500155354770955
-0.014967708158978708
0.004801100143913513
0.014840099981315353
-0.0008811190774168032
-0.01016598213997993
-0.004714170573167549
0.009630636552256024
0.016244315136397704
0.0012034306557392553
-0.00755060839787025
0.00026952555487070874
0.005109487963084331
-0.002124832608199456
-0.018720861842468576
-0.019054169063753353
0.009023191390521015
0.035812234056141624
0.03321379105622131
0.0020093874462755214
-0.025859994953355267
-0.026615645887847244
-0.015410881566628292
-0.005377542973518873
0.005051228569138823
0.01437245006979795
0.017180891157924903
0.003191904548296058
-0.02356006877998869
-0.03864425024356855
-0.01994789509263659
0.022084776271823276
0.04827049585388664
0.04330411781278492
0.01521920389008331
-0.012680881959279498
-0.012217418519807906
0.0022124571448440262
0.005626498289659547
-2.1739151794718687e-06
-0.004898910738729184
-0.0009866177322920954
0.00372712643442701
0.0034376883213053148
5.0556363312060946e-05
-0.012687883961700954
-0.017818931824865394
-0.005291706865211626
0.0026346469993594342
0.0003610715590917913
0.00010520665766203092
0.010287237910143967
0.020251022904801075
0.010022166846986555
-0.004021582497343447
-0.0018076999845973356
-0.002576227062120689
-0.011526158242129261
-0.008357922436091864
-0.0009553501874340371
-0.006481012464608735
-0.011943518564918794
-0.01178251361968638
-0.015186891958685483
-0.016770073470708094
-0.013456467889345094
-0.00823221334013771
-0.0020519981513947034
0.007683128258272295
0.021583056654121805
0.019401504622320206
9.193932397644758e-06
-0.008997872699098936
-0.008451792186301038
-0.0021850093396664286
0.013325589536023669
0.019337665493590728
0.017292741037541134
0.01811595978050316
0.010248256073930087
-0.001999298186940232
-0.009168791467204302
-0.008851537826469085
0.00829068807984013
0.021773610219359304
0.012572500167201997
0.0015270194003145627
-0.0036161569360522064
-0.006634741441564292
-0.004555180812356719
-0.0017226825796230081
-0.0024530008264887905
-0.004896724083382459
-0.0017031390321278963
0.0007325760809959116
-0.0012130186928683677
0.006480968668607998
0.006609421090817647
-0.01004808849740563
-0.012839403479393954
-0.008215492063299778
-0.013897874408732545
-0.010093461982263772
0.006688088115783943
0.01753650882531314
0.01356589295584373
-0.005432276610548881
-0.018859833040370994
-0.009870218249984632
-0.002073983705684352
-0.0051519652928309415
-0.0023397175274401665
-0.0030590285446984453
-0.007446890070957554
0.005030813971835548
0.013662373917269524
0.0004231649207701302
-0.005541780795987903
0.003147461758723584
0.010889093589177576
0.013628088690138937
0.0026803049007988536
-0.01062744122728571
-0.009300925147272461
-0.00201777162004408
0.004334674031709263
-0.0008459949252598837
-0.007379035708551251
0.004072933375806941
0.007056965000939252
0.003406306670357105
0.01618787889217636
0.02093576396203145
0.009125564777537658
-0.0035823889320813957
-0.006986285004205946
0.00022825024836241803
0.007139764096891925
0.0148942345480843
0.01109203370384165
-0.013628596993440949
-0.03206230086708085
-0.028784237143642043
-0.00516554192494045
0.014930635740335605
0.00414689889471362
-0.015066925934127801
-0.0241290224029082
-0.0233433455213079
-0.0027022755812637854
0.021900511536870566
0.024855536779464116
0.011302563633000457
-0.00034778618588681223
-0.0011232174723727329
0.00809121115881617
0.01696453220066559
0.010118974346704673
-0.006879513699435213
-0.015147617252356116
-0.015492242916345733
-0.01598547377811869
-0.015167227201384496
-0.0023212563734087035
0.01848480902752205
0.019146503261758978
-0.005394550829689793
-0.023409594947040643
-0.011371047744849665
0.018155726232032102
0.03342867554464336
0.019058204968496948
-0.007007873816369257
-0.01630790648358374
-0.0037806532116839106
0.016838707974270287
0.027650629194365662
0.01326947431529092
-0.008898248629350245
-0.010300622376770917
-0.0010978604445865028
0.0021604936781131207
0.0036723778677037995
0.003071360289176723
-0.0026259222179064495
-0.009068523639994643
-0.014763835250329378
-0.014654248913318216
-0.002330852868225765
0.010806082490836777
0.011153811592091934
0.003543663987849882
-0.000530316868688695
0.001014002918684201
0.00445849252623021
0.005518030551769381
-0.0033217250538418175
-0.015571528790574177
-0.020238984073881403
-0.019580884098217493
-0.009993469673649535
-0.0005609640476319262
-0.005708614429561721
-0.0062512392098430835
0.010968356374335433
0.025463075837249122
0.015034203646821677
-0.008618838965024035
-0.01667344884147517
-0.008834371172294865
0.01329933888244653
0.03587040221648197
0.02977414528863235
0.007939327762990228
-0.013952258682128375
-0.02994390865761718
-0.02138756164537883
-0.00046984062327133923
0.008291402384620755
0.007695577347878458
0.006041150183098496
-0.0005379541708003247
-0.007595302690552814
0.003947313902273383
0.016584685457367774
0.002183192624241055
-0.01553996509685869
-0.015483361170457679
0.001983638392831621
0.0317156572321093
0.03732945777450908
0.010403480790097189
-0.012784860800006513
-0.03305726971693963
-0.04436011052213208
-0.0159347893364589
0.02184608491279693
0.030797056017408637
0.016120824292358393
-0.01084179137226296
-0.02514374867441755
-0.014107588788916497
0.004297065607299227
0.017676211267699984
0.028641106068046183
0.028992888390323504
-0.0008800809255999425
-0.0331231452370599
-0.025641715745391567
0.0012989068843585736
0.01334252369619367
0.002248878938556417
-0.018214079115642174
-0.026634236037944896
-0.019291648378116748
0.007175787606503384
0.034964423375824207
0.028156213191482392
-0.002659605764943039
-0.021016385289423702
-0.01216018130320875
0.008405929497280322
0.0173256978622487
0.015570361473614448
0.00760875281699566
-0.010050965470316085
-0.03084838433046084
-0.028663378352800202
0.007325753751263102
0.03168238584675287
0.025746269278230847
0.011069225293974416
-0.01588100255780093
-0.026826100193587523
-0.006559164318880464
0.008190897328152626
0.01953935317353052
0.014780214994198551
-0.019161649701497467
-0.023369507529308504
0.004219722932843296
0.014691840171063054
0.011447326148681469
2.0592727869263077e-05
-0.016564237485566163
-0.020964040482851796
-0.007390733858744653
0.013939215273893347
0.02281042754645099
0.009780668695810464
-0.019591189377004582
-0.03405770046707104
-0.01074887309801675
0.01621979729380223
0.02292334937406015
0.017696576886797596
0.0016196476451946242
-0.011723192252074488
-0.014784923156184931
-0.010194620114617081
0.004248300303927078
0.007297895978111094
-0.008906766860394075
-0.015105028346176726
0.002719433492039859
0.01957133111694172
0.012718657944593734
-0.00534060554291773
-0.01942158326196706
-0.021207957234491048
-0.003496159183661673
0.015014745048527936
0.020554546593127852
0.018041675878073263
0.005522005594734557
-0.00787484563116641
-0.010741731645151178
-0.005026113900308127
0.008126298090045775
0.01693691244866493
0.005362374298395647
-0.009925968479692805
-0.0010694802374597745
0.016296240476287305
0.015538708949573063
-0.0005129012681136582
-0.020211482774436063
-0.021960944541288267
-0.0028548962552723206
0.008597539837842273
0.007161920207874501
0.00011589489524853947
-0.01199598999530857
-0.01762303642527361
-0.010663964161352969
0.003985946143303644
0.01821701937906088
0.020812497776412867
0.002691016765344969
-0.02654342852705479
-0.03383367730231284
-0.004123391474537567
0.028391597763728366
0.028365840401755302
0.007326497276661254
-0.01937685691431943
-0.043489559466482676
-0.029536511678250398
0.023571942663333532
0.05928702831497801
0.03904489909914891
-0.019880918192444474
-0.0535288176945713
-0.0357612167861094
-0.0020361414337504704
0.028078482126060744
0.03315409712822089
0.0029847505549590704
-0.01941836937977152
-0.013093433670150307
0.0010029780504046944
0.012348635974831816
0.023126283195649428
0.02393936160940253
0.0012499494743877719
-0.022307659504612786
-0.014154038244224117
0.012241028353624245
0.02735711358884328
0.025953910027897938
0.006149508577625811
-0.02153206532184779
-0.02609616985661752
-0.006254964702829078
0.007123899323961209
-0.006044504393407971
-0.03795280842129776
-0.06007981439585634
-0.04251279963408622
0.014432013477269
0.06832210188932138
0.08219613702451475
0.05237367356712003
-0.006473479874876603
-0.05377225159694519
-0.061509971755983994
-0.041733653365409344
-0.008487184875036574
0.01694867937875276
0.02319525867303768
0.02613588960098971
0.027400286555065982
0.028984616572753735
0.028992012115588453
0.0026446441018090623
-0.03563186462928195
-0.046061507548265226
-0.02319013872695281
0.00984966791160546
0.01630189168575622
-0.00553367079741408
-0.018928538073544325
-0.015070064714726491
0.0018730548190067377
0.02234987267880714
0.019289894528336158
0.007397737027879877
0.012722604535967836
0.01492279984226314
0.0010719980648387414
-0.022042503478628035
-0.04356449553073032
-0.03833565276429321
-0.008456688250995678
0.016752379934278822
0.030873917412587753
0.04001952316894065
0.0382720564317572
0.019496024726817857
-0.006270670436639326
-0.026305562759496137
-0.03986166120628949
-0.03975078090210923
-0.01731641559667479
0.013638726906461509
0.031193477819407865
0.032949731132839166
0.027746361806238636
0.014279689826633473
-0.00041980834178832814
-0.005816631085729333
-0.015402670548003757
-0.023364361314270814
-0.015556668017764364
-0.011025847293138309
-0.0027228792902820862
0.018455208843846906
0.017340817207856737
-0.00012056361391466728
-0.0019971002135141377
-0.004388491651850306
-0.0045731687210216546
0.008404729617615063
-0.001388840446472002
-0.035906896602084376
-0.04948117893336654
-0.023944300244017846
0.014972202480343305
0.03464808267848865
0.028262805925360193
0.011515997926932815
0.0028998183115111174
-0.007714938275657469
-0.020109149539655324
-0.004235892501834895
0.01503523769754655
0.018425669157215885
0.024064800572708354
0.005974787685101099
-0.021519959195505395
-0.019478177715245532
-0.004598969736799597
0.015531529154805037
0.015486302097837324
-0.016269227505671537
-0.02159651862750784
0.006557035864509495
0.027317517028390918
0.024102268314453137
-0.009765068074189358
-0.03396010349498386
-0.009936388963344483
0.02354348087825882
0.03414816043311731
0.025853440408072973
0.0014424685284632366
-0.009072260224217771
0.004055573294442527
0.0016022257771147405
-0.016022681162137904
-0.023774044165753537
-0.02012879191585953
-0.007298201599161288
0.0003021554371303694
-0.007619271425451438
-0.011155486896943404
-0.0058037436210100464
-0.008158497774587426
-0.0014746961639970654
0.021934322721955217
0.02849457340178743
0.02138750028994141
0.014370187979230755
-0.011720658049509752
-0.036339482657099
-0.03202238294646973
-0.012980085899385808
0.008756653765067627
0.018315030484479147
0.011118664637919677
-0.0025298187588792416
-0.015510033620541482
-0.011165283648958722
0.003757062074178234
0.011502219813295377
0.011769264946912055
-0.0005622385987286988
-0.0057524506115855575
0.004836303013422091
0.005435800459242451
0.005823341173193318
0.000498571399723446
-0.01619223715024238
-0.013308602650070066
-0.0022233425594868736
0.016832672621188045
0.036376051948835364
0.017181721638414946
-7.886402667175773e-05
-0.0024106052862704576
-0.014445159513271051
-0.0028239237128568537
0.004852088917041492
-0.004353331375775982
0.0033357924908349844
-0.0007587624336135887
-0.0013199011227425503
0.010431252729932056
0.0033732041732175474
0.004838813126740608
0.0035525831608498202
-0.009204284077739048
0.0011848723385290594
0.010183181979502992
0.00911008610097536
0.0062837933828987355
-0.011515548712827216
-0.02218710186845626
-0.02605372578030223
-0.030197779257735757
-0.014616157141791136
0.004475643845310839
0.01115626375635235
0.006322051669569504
-0.013983238829692539
-0.025491053133417194
-0.016227224197543483
8.554582769445832e-05
0.012245510747758181
0.00021357194241723902
-0.015710937749126054
-0.00281451110507854
0.017261840458145872
0.025704450478703147
0.02276143786145944
0.016268513606785526
0.013888460060445642
0.0016640992719255095
-0.001645895468231911
0.013443149907200545
0.017905863952360292
0.018063496847087537
0.00736045187400836
-0.018780179148811797
-0.028543876147439983
-0.022276234735045107
-0.0024854776348839256
0.019022270078948137
0.015446674738962296
0.0004753839251247985
-0.013250490983932066
-0.012764097557543673
0.0027136742608576815
0.001890199469865648
-0.0013981636772937482
0.004157412076396903
-0.0006175801238870461
-0.004535727002917911
-0.0046481248950537915
-0.0021111762186705875
0.003833411187104178
-0.003430860771890371
-0.007311186809468778
0.005436857255908948
0.009169809898292212
0.002488090502873978
0.00023670994433022303
0.00473157134649952
0.003845844724849756
-0.013699828283954186
-0.021850737423668866
-0.0063677416101518254
0.007993724821526256
0.010194138197842713
0.001115382646026142
-0.011375624107730863
-0.012579133147007312
0.002523595597934904
0.019526087714036626
0.008188253388624608
-0.01657328615264359
-0.014875675021526449
0.006163331759548353
0.028955778935817494
0.02964076412058226
-0.0005804243998409752
-0.023653960884210314
-0.026676425517631767
-0.016082213820714925
0.002022386940266765
0.010974331088697798
0.009746443068843536
-0.004112254595891026
-0.015218333130755452
-0.0030099404933061624
0.01970974294310456
0.03967541935079511
0.0329551174356015
0.0013779939863202634
-0.01325148362405873
-0.01547877738669349
-0.01642509673447227
-0.005853493865930144
-0.0008112346788015461
-0.0058421499315492766
-0.01173424199362744
-0.013647470202681885
5.447664588852679e-05
0.011426495103075628
0.00226592056667423
-0.008952220876072323
-0.007281812484045694
0.011460808839051503
0.024474624213356753
