AAD_Filtered_TADAS_FILE
AAD_BASELINE_CORRECTION: BASELINE REMOVED
AAD_FILTER_TYPE: BUTTERWORTH
AAD_FILTER_ORDER: 1
AAD_LOW_CUT_FREQUENCY_HZ: 0.025
AAD_HIGH_CUT_FREQUENCY_HZ: 40.0
EVENT_NAME: 202302061024
EVENT_ID: 13207
EVENT_DATE_YYYYMMDD: 2023/02/06
EVENT_TIME_HHMMSS: 10:24:47.00000
EVENT_LATITUDE_DEGREE: 38.089
EVENT_LONGITUDE_DEGREE: 37.239
EVENT_DEPTH_KM: 7.0
HYPOCENTER_REFERENCE: AFAD
MAGNITUDE_W: 7.6
MAGNITUDE_W_REFERENCE: AFAD
MAGNITUDE_L: 
MAGNITUDE_L_REFERENCE: 
FOCAL_MECHANISM: 
NETWORK: TK
STATION_CODE: 7901
STATION_NAME: 
STATION_LATITUDE_DEGREE: 36.7088
STATION_LONGITUDE_DEGREE: 37.1123
STATION_ELEVATION_M: 640.0
LOCATION: Kahramanmaras_Elbistan_Turkiye
SENSOR_DEPTH_M: 
VS30_M/S: 463
SITE_CLASSIFICATION_EC8: B
MORPHOLOGIC_CLASSIFICATION: 
EPICENTRAL_DISTANCE_KM: 153.88
EARTHQUAKE_BACKAZIMUTH_DEGREE: 
DATE_TIME_FIRST_SAMPLE_YYYYMMDD_HHMMSS: 2023/02/06 10:24:53.5432270
DATE_TIME_FIRST_SAMPLE_PRECISION: millisecond
SAMPLING_INTERVAL_S: 0.01
NDATA: 13501
DURATION_S: 
STREAM: HNZ
UNITS: cm/s^2
INSTRUMENT: sensor = CMG-5T/GURALP | digitizer = 
INSTRUMENT_ANALOG/DIGITAL: 
INSTRUMENTAL_FREQUENCY_HZ: 
INSTRUMENTAL_DAMPING: 
FULL_SCALE_G: 
N_BIT_DIGITAL_CONVERTER: 
PGA_CM/S^2: 22.408
TIME_PGA_S: 
BASELINE_CORRECTION: BASELINE REMOVED
FILTER_TYPE: BUTTERWORTH
FILTER_ORDER: 
LOW_CUT_FREQUENCY_HZ: 
HIGH_CUT_FREQUENCY_HZ: 
LATE/NORMAL_TRIGGERED: 
DATABASE_VERSION: 
HEADER_FORMAT: DYNA 1.2
DATA_TYPE: Acceleration
PROCESSING: Automatic Paolucci et al., 2011
DATA_TIMESTAMP_YYYYMMDD_HHMMSS: 
DATA_LICENSE: U (unknown license)
DATA_CITATION: Turkish Accelerometric Archive v 1.0 - Disaster And Emergency Management Presidency, Earthquake Department
DATA_CREATOR: AFAD
ORIGINAL_DATA_MEDIATOR_CITATION: : AFAD - Disaster And Emergency Management Presidency
ORIGINAL_DATA_MEDIATOR: AFAD PROCESS SERVICE
ORIGINAL_DATA_CREATOR_CITATION: AFAD PROCESS SERVICE
ORIGINAL_DATA_CREATOR: network: TK
USER1: GuestUser
USER2: 
USER3: 
USER4: 
[...]
-0.8644713234031624
1.1299841127638308
1.019629074172644
-2.1970812117350746
-8.061866416546346
-13.929672661475124
-17.91833733435299
-18.905734912498037
-16.064339872697882
-10.25910711230629
-4.39268856633135
-1.2357244383807182
-1.2796662133806578
-3.1220403745795626
-5.664831265210564
-7.938616410377907
-8.424570564998147
-5.456334787856026
0.7708272810174384
8.303619688089864
14.492361584759271
17.49762462612542
16.44492072453097
12.051039236815026
6.288411669482112
0.16467225588813703
-4.504861263663687
-6.696082855391133
-6.102504035196104
-3.5843406789092733
-1.0942275099720429
0.387772807309732
0.12141284436525186
-1.2376238255941112
-3.3369739593983216
-5.897565150561687
-7.058260424022781
-5.744464690119282
-2.0324589720886537
2.934193585921534
7.811008379371117
10.435833654283453
9.540173309692397
6.702385565254911
3.876342225807293
2.445340930223264
2.34864247675179
3.6084896164976663
6.029421927900552
8.5128206149012
10.256760039755758
9.93726207240838
7.161919225260546
2.449106879663592
-2.5214063122562447
-5.909001354132392
-6.70298300351094
-4.261583446220085
0.07017462542393095
4.718822632051604
8.316375312490546
11.171472242092138
12.625925089993313
12.184133360726847
10.251613125679773
6.87240743003474
3.224003506967138
-0.02902857332339845
-0.9673576832351654
0.040130460368492646
1.5768488119989656
2.9580776156948563
3.764313017104028
3.4977163025025844
1.965596050856587
0.8558746188707961
1.2362885469720342
2.5314781246153135
3.8187233659869775
4.910767092732964
4.373817271259322
1.5954219445280309
-1.6997461478177136
-4.26207624012779
-5.778574265482803
-5.41658213266407
-2.3214753018441403
2.0627724457813135
5.06756533618793
6.07942037487131
5.135889601389771
1.8697013656795944
-2.60789176619274
-6.2907668775545
-7.714156853234843
-6.170577981771156
-2.763217179209754
-0.11172821310397657
0.3242317042290592
-0.47394228125674076
-1.4154681389155377
-2.2716122140687056
-1.9610096706168891
-0.2479978919825081
1.3938020828694315
1.6056682989905973
1.332492795798712
1.465628982410428
1.0981335634136626
0.3689186362616805
0.14052579437892443
-0.6502437731966937
-3.0607102373392507
-5.118083099809263
-5.035894647553151
-3.0802453724473726
0.6013116950833182
6.032761158469779
11.600098230043892
14.619037513204646
14.424627317713233
12.43608514861158
10.081647192313541
7.695494379910423
5.490605630300255
4.048369044750669
3.119950574624281
3.371570663076852
5.298844050020334
9.198815267703777
13.361239905346467
15.47634650020012
14.850119676906196
11.11539120881972
6.106814790411179
1.5321569926529253
-1.15643613969382
-1.5905518568483876
-0.5462135421428224
0.5073503545543627
0.620207672346933
-0.1287839627360768
-1.4203431450206079
-2.6879980486888266
-2.652493155763602
-0.4649207707157854
2.688195372847148
5.467737297495876
6.373400554236272
5.824305155822202
5.4189151175521
5.2246086001005745
3.798240002137356
0.5862408051335687
-3.296542343881883
-7.641898862330752
-11.213458172433613
-11.941125093671024
-10.384227386785765
-8.533170141741502
-7.291883415273229
-5.1663168216029005
-2.2277435137082255
-0.18778042532290917
1.0113207807515816
1.6587621824688363
0.6006491585587517
-3.310246109526238
-7.836272848889718
-10.123090214945888
-9.619382155602901
-6.677921980981322
-2.649802889310848
0.5286698216443352
2.032224640425176
1.6806819757252571
-0.0542390588183082
-1.9955190074164546
-3.345002427285338
-4.576016381145139
-6.284155687922309
-8.532998109241401
-11.263185011545902
-14.342135428277992
-16.289323091116223
-15.12319147591817
-11.313625583819885
-6.430607457656804
-3.1820784976046044
-3.346400265453184
-6.294323084534181
-10.174228742200334
-12.738549491719768
-13.431539496907794
-12.221529177420235
-10.236673803993037
-8.271527351841245
-6.840958945729426
-6.900975201660675
-7.666518679693419
-8.04595419587508
-7.4722994892843015
-7.265493185684276
-7.159637664894584
-6.037472352321083
-4.179698089987473
-2.3492691251928512
-1.3595938984546563
-0.9278123622472445
-1.4243429875076303
-3.0433679053369462
-4.738756848463815
-5.277318429862707
-4.961136604595306
-4.435778562950152
-3.746280394943571
-2.9125607653055923
-1.9014709431722567
0.2368416475208517
3.186162883877241
5.4824480723868225
6.220708231434136
4.886521953297043
1.8906263365365048
-2.577386528497815
-6.59727727571473
-8.684097707442733
-8.1949193683319
-4.763378874136064
-0.2307179170393173
3.2222873661861073
3.885431449427152
2.301288567747852
-0.3384774137024099
-3.652121226629818
-6.543941911787588
-8.197613031648736
-8.721538509001862
-8.590577670040807
-8.430138212322698
-8.717977736062624
-8.817694103525051
-7.979202189388402
-6.432651448482813
-4.99667528174734
-3.941255915796668
-3.0244979664378335
-2.213658636996405
-1.341103116842672
-0.17350552952161163
1.0889662673369205
1.4401043634938222
-0.08160529320257659
-3.6607273850527076
-8.039497027597262
-10.95496464199141
-10.94177290788901
-8.492926014994804
-5.3742674872390745
-2.9285436893957364
-1.7369137799576064
-2.0496264712949914
-3.692230927426507
-5.584108687911073
-6.005250043151349
-4.375386168802569
-2.090800492725441
-0.7169433831459389
-0.6212725227956994
-1.8000717375279414
-4.271041893208248
-7.489804463977549
-10.589080330231614
-12.298349286743743
-12.05863640987533
-9.671560803443807
-6.125598277086622
-3.6701198723790385
-3.6218900618059773
-6.070559189786213
-8.658239712286838
-9.539491128069246
-8.354771081792558
-5.939271618524006
-3.9713605465973743
-2.8248654217214346
-2.431456213343605
-2.5132411935175805
-2.979655842206474
-3.0541296877593873
-1.5589230441717403
0.8606487281601881
2.8296809002272254
2.8979559849034238
0.7569025488235054
-1.5385425733780598
-1.7332918111953723
1.008061410842933
4.684194202746048
7.075984436533735
7.871079938217607
7.725565846788835
8.100209725338088
8.969658187026054
9.56968562276917
9.465945535889048
8.744393610649801
7.8054641411609635
6.431732941774699
5.388928081340513
4.793672426473438
4.496680532822931
4.406054421244041
4.474353043179565
4.5648916049021695
3.5296916038207993
1.7218321506603205
-0.13316748511981136
-1.0882612571019636
-0.4743562214573945
1.6778083609454115
4.443840481168057
6.652041668805466
8.459049172799373
10.223596025246302
12.104959847882949
14.384926267425474
16.321143882804073
16.902867748315046
16.125721215214593
14.37013147647237
12.221616751328954
10.720931074318559
11.27296747597003
13.230891223984022
15.40942081805749
16.210971935626564
15.128199720598069
13.232414149417965
12.299518008453616
13.612973937400135
15.774343260854174
17.251711893243748
16.96060867910883
15.711551787846822
14.71064815426664
14.206677114604055
14.05311638899466
14.610662282974133
15.670363423541191
16.06645709124199
15.418828477803851
13.72777752892854
11.423288916586325
8.171107100612248
4.101502542527364
0.17331524082848238
-2.2870420654843215
-3.0169094637999043
-2.7041549441864237
-2.6041076728728347
-4.317038222228321
-7.529753781411712
-11.1085426448222
-13.434732598206427
-13.956817022996153
-12.602431771451647
-10.259569616494955
-7.982971408725034
-6.408007155865994
-6.654997748002044
-8.205684075465852
-10.577482026243862
-12.062194684653301
-12.117218074806084
-11.859561382156267
-11.626836463938716
-11.847789596176005
-11.870404567931928
-11.554483467690343
-10.648874493121493
-8.905092660716655
-7.535426125030244
-6.536337701987751
-5.791701235133839
-4.676993933492178
-3.181951354861722
-2.077436104672306
-0.4603659252300173
1.6843737127377063
4.317571011917329
5.969768163361018
6.314014336584591
6.3244652557122265
7.159245292579508
8.997437008780281
10.354612018608469
10.645640396257338
9.185361991618308
6.662003861580406
3.5967743102311394
1.1881596138836577
-0.25255740250434217
-0.9484259810175752
-0.9064994234414392
0.1420525149878594
2.0741055485850777
3.3882770145844447
4.1033938158081185
4.319290257467293
4.619292745045476
4.444573855973739
3.728585847890527
3.6476049267179076
4.159530324605777
5.759707128204622
7.908069296479585
9.202348587002064
8.709715492244168
6.882084428639344
5.487138209909916
5.104100395789291
5.7697557780828745
7.655290709484362
10.084330053492062
11.654089576920871
11.933814840768628
11.59497394747112
11.30236317562254
10.4899028690375
8.959198702384887
6.544659972849955
3.467993700121888
1.287675162237824
0.4615149920952066
1.2414654812733212
1.9367903730044895
1.1804939823211444
-0.6000981722109058
-3.2484642238581953
-5.871915600793409
-7.231462901845066
-6.465973065206102
-4.146413407555633
-0.8867308608624882
2.8638044901214736
5.8323398368763595
6.162588296954351
3.853635696699674
0.7222637057814772
-2.4130268323832746
-4.828266289920923
-5.8923452241362755
-5.962306548216349
-6.059208032466681
-5.903794052903732
-4.950694180501782
-4.071527861202291
-4.357833357871389
-5.600280622752949
-7.764315273198228
-10.511084535249685
-12.291812666317423
-12.289919416356202
-11.06339262677611
-10.50759857978202
-10.341251811742865
-10.816606162243353
-12.449646007638254
-14.216927626034394
-14.808505735568392
-13.20650589886915
-10.637468653534672
-8.3040700460714
-7.065223407774088
-6.962132159299394
-7.599745409147891
-8.290172283058842
-8.394283681568902
-7.295674823564629
-5.19718864611414
-3.3270415975458794
-2.2765803701564513
-2.273071519300839
-2.939335106577593
-4.051041537305569
-4.60652472933502
-4.670228558696294
-4.667054628522581
-4.193712661327879
-3.3300604366542355
-2.6352373675865195
-2.9194045897135448
-3.58993235587402
-4.07812641328753
-4.736077171333692
-5.681120910733318
-6.367317003252763
-6.326046866162247
-5.3918513066554725
-3.767321849282464
-1.30029294993743
1.5856283230302188
4.0354717510372
5.434490069810131
5.360468751452748
4.475722375210509
3.225120884152999
2.248638363022875
1.6425937774923858
1.7237636286120277
3.1218201637113774
4.957038711820591
6.314097368033581
7.420504839119943
8.71755000013682
9.647820895787879
9.630311652128524
8.52815598934006
5.72340019839226
1.0854517072091299
-3.549450781583603
-6.664268092472081
-8.02021878171817
-7.733366870227992
-5.908062813799472
-3.0598596264717046
-0.4003199129170441
1.3516916118909146
1.4062960578026134
0.6261836628241942
0.28956768780780673
0.8467198449594939
2.535684893396557
4.606725313635076
6.274499413760449
6.350023064299598
5.014048036324693
3.4352455227535184
2.4854728542746294
2.626209362854338
3.43139107185091
3.9785353611345093
3.9664316021097514
3.6969048665556548
3.4535599568072928
3.1478933202839454
2.8927608206607216
2.815638661376525
1.9337331330878624
0.6510009293110302
-0.16525412938882023
0.004453411670210867
0.7491480459875144
2.1279483294795365
3.723818552457395
3.835517384832377
2.729781827056052
0.5487110703105206
-2.7759786552867998
-7.125086243552203
-10.57605628625443
-11.413997097581328
-10.510513429878923
-8.77885148160214
-6.428801265446355
-3.648356850877467
-1.9539456770505037
-1.4836584483336306
-1.2329975941658193
-1.1089135100036729
-1.1026426424823366
-0.7334862577702723
0.2645784664496046
0.4331708116861106
-0.17947378765941066
-0.8668125862837058
-1.955549882347955
-3.260000489647063
-4.248557096041744
-4.821619759693521
-5.1442956172717045
-5.018790365309316
-4.905760233718798
-5.14399382863003
-5.496723266251319
-4.8010915686743
-3.161533380531709
-0.8211072203577499
1.8291248417502863
3.0344444989653407
2.221206756630144
0.09593871114490561
-1.8698448154734502
-3.5614073786088007
-4.385047353261567
-3.9236249513643675
-2.9563368061758855
-1.7656240208629497
-1.0544140691515764
-0.5790083319208372
0.31698196529457123
0.6291372286370207
-1.6818138095061965
-6.152125502328673
-9.90110491730261
-11.17910142483442
-10.116754929042312
-7.888967486963233
-4.866958628080363
-1.1131834116332595
2.3432386322918153
5.014409749113474
7.329571172012261
8.830989341351271
8.922355943801897
7.85566749936646
6.261677115385605
4.719825614249243
3.8168721170043005
3.6388600982283696
3.867840156041678
4.3982602132783395
5.145534520599939
5.804836315938768
6.4598737146305
7.030900499808461
6.626820990930748
5.336225024488631
3.077783227917649
0.11231747722504837
-3.798883374192729
-7.3936556595504195
-9.16079418746395
-9.554411805781488
-8.882006280589307
-8.289885307225946
-8.039279577522127
-8.471159848764009
-9.097275341927823
-9.622654406477857
-10.77300110852283
-11.833321082764257
-11.585741485051742
-9.628114485840598
-7.308481498679486
-5.585840462140114
-4.1181754583000245
-2.848289510156411
-0.8567426990532587
1.799830775015548
4.506922265553311
7.354021338034907
11.018787591836189
15.331550257648967
18.135041560249867
18.30312995237325
15.943214650886743
12.347112198132544
9.556241885393051
9.255781389745135
11.409334648671116
15.007397433497284
18.67643244413595
21.41102495488844
22.482452874618044
21.4220699630381
18.793405736709772
15.524123375918789
12.786703978873456
12.214449206816226
13.803598276503854
16.355437561340974
18.696298233927212
19.801320023224843
18.405289066404016
13.238300722717092
6.349402813589993
0.4855051979567837
-2.533329135194643
-3.1440471905824663
-2.3480641323552773
-0.5417468239283001
0.5104949986284767
-0.3044957693734625
-2.972603599609096
-6.431985178082762
-9.5384651379589
-11.772916419106137
-11.974188145021182
-10.201696771553573
-7.860932273472881
-6.189445881436434
-5.365629781862531
-4.624030789152661
-3.5763411774000677
-2.358775382117189
-1.0750561845311717
1.2263584551578879
4.165720226546374
6.931267585904276
9.631328827952103
12.424802309925841
14.168891887774626
13.346347096146461
10.049709484191776
5.187032801497
-0.4703956790743585
-5.166735611915145
-7.176603107632319
-6.6369235624515355
-4.576153057985022
-2.0987716615923633
0.7668520704168966
3.414183416722143
5.899019227359839
8.58646813756818
10.760448042367385
11.794884222226983
10.813926272499856
7.343056339959759
1.8926627287390871
-3.644022608279755
-7.032585585417089
-7.614826454175362
-6.372179923652611
-4.916727497416709
-4.089763715067372
-3.501780942522946
-3.589630739567279
-4.917418885937287
-6.5080737055076225
-7.7581769526022635
-8.475025023195233
-8.054879519084267
-6.327825985660118
-3.729744853813622
-0.5476091015507466
2.567879484508172
4.011380236805471
3.7502873559338674
3.1821360398354392
3.241101289341429
3.7142890545799214
5.046058402930136
8.07040820227906
11.796381092646643
14.8151158261399
15.818945232663173
15.721987564504191
15.574783768742911
14.634150167409182
12.410511175904325
9.380672451663788
6.4702542278895505
4.334394074028019
3.665535587976754
4.7014109138370594
6.478204922903258
6.905443669597785
5.171884449843317
1.9118860830681614
-1.8337754906495345
-5.4294242718474495
-8.404619849197136
-10.178114923422457
-10.349157700124644
-9.324396164639149
-8.099902540408982
-7.429715065537859
-7.534324984998213
-7.853748816439626
-8.897285410318865
-10.476929834751026
-11.560408238331092
-12.458345136335693
-12.879959053232845
-12.287463565224728
-11.062589068676903
-10.041344687950712
-10.217929867528488
-11.506814342948504
-13.452538668840562
-15.309690487205755
-15.571681613371124
-13.886844351970122
-11.787653612716333
-10.164945817420662
-8.312356501068837
-6.197022657217304
-4.269425183166902
-3.0545231327429003
-3.0348187956056787
-4.074388876891035
-5.680116483709561
-6.3078139184010364
-4.803664841116275
-1.9518575798659328
0.996198450873463
3.3812754217330507
5.234099403020137
6.396561185655385
6.85320164926271
8.004057122666737
10.09763753124599
12.071814176541077
13.084125878255705
12.242236160799008
9.32373649242274
4.5441499644322985
-0.9211071481463865
-5.751769571674138
-8.923202725907558
-9.989221963678572
-9.001975116978855
-6.624453053985774
-4.24060119210456
-2.731910689797821
-2.9825198705292144
-4.989189999627987
-7.605631943756073
-9.12530730885724
-9.020998216285985
-7.814492144175396
-5.79134018691253
-3.698157295217066
-3.082774735557366
-4.94412060301997
-8.32875082232954
-11.65778839436905
-13.386185019952128
-12.497678541915084
-10.15438988602036
-8.741690877962933
-8.681319282413762
-9.428298086589288
-10.222546551949081
-10.677158874563963
-10.350822280098388
-8.781354597050292
-6.51902475196366
-3.5574014472987416
-1.264262332522343
-0.8106855134049156
-2.323850221871426
-4.917949068248185
-6.892317571739178
-7.287004115698596
-5.607006313694531
-2.697542794170725
0.6046147061918644
3.541435135752041
5.258951410176085
5.438167782634445
4.629706603130592
3.0066834567308547
0.970252236571772
-0.6732830113081466
-1.4142438381849565
-0.9375448205124752
0.7391108610078886
4.536328718156664
9.463624991368162
13.94544236662929
16.96947373855491
17.64821183511182
16.2049281239413
13.578099014431084
10.969367641963903
8.504938315708078
6.41970233120547
5.133013198629594
4.4759695690501795
4.28076008876467
4.617562725557872
5.266109568799886
5.4768673358921545
4.508289895751662
2.4511127532953
0.025800038219569818
-1.244191951314541
-0.87098412062315
0.4776800793965895
2.281348920253079
3.252677950933568
2.6554148364390713
1.5180037056334839
1.1709792406614097
1.4378820035124678
1.6756265064011504
2.0842555791734214
3.097524605281353
3.7608610746937745
3.920941590990011
4.100326884411975
3.919043559447372
3.162583676468082
1.5678457972141353
-0.4533363685088351
-2.310316513990046
-3.225869214680524
-3.128569688219858
-2.863599075083396
-3.0990760058342937
-4.167251848045163
-5.609220393605084
-6.85005600961013
-7.461251850217708
-7.345634730419525
-7.089519431905761
-6.740259049394244
-5.8887616166579875
-4.587398125557757
-2.762688151693217
-0.6334584436068018
1.3022534266794827
2.326993437963817
2.19583678635172
1.31975519074423
-0.13707514458307332
-1.891561185657061
-3.5200796997189836
-5.3146400729465295
-7.318014646492683
-9.145848076263881
-10.713435669738073
-11.89617057025196
-12.893734568389528
-13.692270298190905
-14.231117411845405
-14.262352427089786
-14.155932652891707
-13.910703300546317
-13.181446165552734
-11.59824559656378
-9.4182270562033
-7.7058821355
-6.781010495886292
-6.876027650816022
-7.373289584929738
-7.869590012509937
-7.855535699096439
-7.313422949353129
-6.670203363820911
-6.4038913861663564
-6.123421277116161
-5.121356235565364
-3.4030166830295263
-0.7752554283947587
2.506598763888158
6.550338552863225
10.310518526977695
