AAD_Filtered_TADAS_FILE
AAD_BASELINE_CORRECTION: BASELINE REMOVED
AAD_FILTER_TYPE: BUTTERWORTH
AAD_FILTER_ORDER: 1
AAD_LOW_CUT_FREQUENCY_HZ: 0.025
AAD_HIGH_CUT_FREQUENCY_HZ: 40.0
EVENT_NAME: 202302061024
EVENT_ID: 13207
EVENT_DATE_YYYYMMDD: 2023/02/06
EVENT_TIME_HHMMSS: 10:24:47.00000
EVENT_LATITUDE_DEGREE: 38.089
EVENT_LONGITUDE_DEGREE: 37.239
EVENT_DEPTH_KM: 7.0
HYPOCENTER_REFERENCE: AFAD
MAGNITUDE_W: 7.6
MAGNITUDE_W_REFERENCE: AFAD
MAGNITUDE_L: 
MAGNITUDE_L_REFERENCE: 
FOCAL_MECHANISM: 
NETWORK: TK
STATION_CODE: 6303
STATION_NAME: 
STATION_LATITUDE_DEGREE: 37.7524
STATION_LONGITUDE_DEGREE: 39.3291
STATION_ELEVATION_M: 800.0
LOCATION: Kahramanmaras_Elbistan_Turkiye
SENSOR_DEPTH_M: 
VS30_M/S: 986
SITE_CLASSIFICATION_EC8: A
MORPHOLOGIC_CLASSIFICATION: 
EPICENTRAL_DISTANCE_KM: 187.12
EARTHQUAKE_BACKAZIMUTH_DEGREE: 
DATE_TIME_FIRST_SAMPLE_YYYYMMDD_HHMMSS: 2023/02/06 10:24:59.2651230
DATE_TIME_FIRST_SAMPLE_PRECISION: millisecond
SAMPLING_INTERVAL_S: 0.01
NDATA: 13501
DURATION_S: 
STREAM: HNE
UNITS: cm/s^2
INSTRUMENT: sensor = CMG-5T/GURALP | digitizer = 
INSTRUMENT_ANALOG/DIGITAL: 
INSTRUMENTAL_FREQUENCY_HZ: 
INSTRUMENTAL_DAMPING: 
FULL_SCALE_G: 
N_BIT_DIGITAL_CONVERTER: 
PGA_CM/S^2: 21.689
TIME_PGA_S: 
BASELINE_CORRECTION: BASELINE REMOVED
FILTER_TYPE: BUTTERWORTH
FILTER_ORDER: 
LOW_CUT_FREQUENCY_HZ: 
HIGH_CUT_FREQUENCY_HZ: 
LATE/NORMAL_TRIGGERED: 
DATABASE_VERSION: 
HEADER_FORMAT: DYNA 1.2
DATA_TYPE: Acceleration
PROCESSING: Automatic Paolucci et al., 2011
DATA_TIMESTAMP_YYYYMMDD_HHMMSS: 
DATA_LICENSE: U (unknown license)
DATA_CITATION: Turkish Accelerometric Archive v 1.0 - Disaster And Emergency Management Presidency, Earthquake Department
DATA_CREATOR: AFAD
ORIGINAL_DATA_MEDIATOR_CITATION: : AFAD - Disaster And Emergency Management Presidency
ORIGINAL_DATA_MEDIATOR: AFAD PROCESS SERVICE
ORIGINAL_DATA_CREATOR_CITATION: AFAD PROCESS SERVICE
ORIGINAL_DATA_CREATOR: network: TK
USER1: GuestUser
USER2: 
USER3: 
USER4: 
[...]
-5.184496452004443
-5.376909492163022
-5.751568785598918
-5.657710656832179
-4.7589094275982085
-3.6603934295909166
-3.272971410206496
-3.432873992112423
-3.441176832854053
-3.055735983842215
-2.3885509289073714
-2.1197423384215828
-2.3761583624318194
-2.3684210650565025
-1.5810921463834946
0.018460790630487466
2.1361859017584646
4.840382112504889
7.736783694561491
9.62481400050963
9.88011057532188
8.973656033920726
7.7476208167687535
6.731274991672544
5.99914627197365
5.263167850092515
4.316904893872544
3.1365908551377286
1.9763116874988353
0.9278967643942038
0.020129743160350835
-0.5889243526727477
-0.9346701010994594
-0.7144907234789406
0.299853735110469
1.1799128530080514
1.0328066109465288
0.44427559390339855
0.4797681903785631
1.5075605837849848
2.7661244172805826
2.9582157168871923
2.2723981038707453
2.0098001307727604
2.3885493151176975
2.780879860966605
2.6382187961411057
1.9477537486865497
1.3725156964989549
1.3150150939269425
1.4436407458571605
1.3352830647383291
1.321894882149041
1.9689564494023557
3.045092328090665
4.345730422053211
5.768196294409911
6.8950179056863234
7.769235758988064
8.706164439863358
9.265513522113359
8.801221675477786
7.583190100311233
6.320061368302307
5.224412832002146
4.083591795848797
3.393580109112768
3.4078832498745317
3.2592694963956372
2.3850145759588854
1.126738338839377
-0.12500315859834935
-1.066772333812987
-1.6924122791408331
-2.3831222314052862
-2.811388734103198
-2.647765604304356
-2.1326784517630806
-1.7431013873963466
-1.7635693242151405
-1.924851248480725
-1.6510280528132615
-0.9431939627443681
-0.21393530273345776
0.03235457617317937
-0.17060581035671096
0.21541292279633645
1.2054725524310779
1.8831680809660145
1.5766845279653678
0.6524848267181889
0.2524394878106284
1.02717758132963
2.596888518827805
4.280790612507819
5.9047611757453895
6.952693570827319
7.319379674211717
7.3600861026021
6.544349122040089
4.397608912740381
1.5466408014368769
-1.0724761073982738
-2.873252308558025
-3.533800555045107
-3.4496525037645633
-3.06741570337353
-2.6075904123785705
-2.3606370038701385
-2.2798906127815246
-2.391765497538608
-2.673140246090999
-3.09844523378615
-3.611931780677405
-3.7223972428395067
-3.1858652914114143
-2.485373727972996
-1.3624140401023292
0.5059853800275378
2.102127519282694
2.48770856144478
1.926880447754337
1.289790925702388
1.0944546947489804
1.935184037288125
3.7669656848859163
5.53448946957116
6.302228500672361
5.799110796906567
4.129781617738763
2.1066011918398546
0.8076271453820666
0.13053176383302054
-0.5726554340485581
-1.5463804902292622
-2.5911292378023805
-3.4900537833097762
-3.6935864482928236
-2.9171117874729697
-1.5401411286338695
-0.15650836867584508
0.5003819336401684
0.20325795846659162
-0.8682601865080769
-2.002887366211599
-2.8070807110102103
-3.5224667335786033
-4.291497769010469
-4.7603913633972
-5.2631589620674495
-6.648668491114162
-8.22797156057443
-9.243156884527908
-9.646149204696972
-9.435862116206586
-8.945223323701992
-9.165476501828625
-9.854549014052497
-10.240847803355344
-10.463482984435215
-10.361203027669507
-9.29481134912522
-6.9463729188279375
-4.104105802087425
-1.1868890449300153
2.0493605722683768
5.34152161163922
7.803281239025998
9.351651835640586
10.29067325371672
10.668615321204001
10.865379620092442
11.166358798956157
11.198694241328448
10.873551889399776
10.588470573671518
9.783758914638396
8.446541098749407
7.321273401377774
6.447612825591899
5.150999253167883
3.3048917018832564
1.5955989832786526
0.49753969718257307
0.1985837117039535
0.8623905166977239
2.414812874619304
4.646455020505745
7.68823206387424
11.053615873505533
13.720720845322624
15.324385771059834
16.141833455448744
16.43588319314704
16.10631525480623
15.045321302388937
13.201755218727211
10.886113397389702
9.10576194195425
8.332579248824628
8.356402878124058
8.839332320732016
9.36909419920641
9.52605543046299
8.68725155452678
7.1143224383764325
5.739260993030546
4.800145688556287
4.040656388267339
3.3476133249320865
2.4141170561108805
0.8963991169170162
-0.4342449160413349
-0.9502649065160325
-0.9144935968256933
-0.5247899000154932
0.03338791694823281
0.6977235170181338
1.2144190660922722
0.8941053665032948
-0.44160652451990245
-2.3087828302061
-4.249940063083802
-6.109816830949848
-7.753339128308886
-8.47069250557091
-7.963667680860182
-6.643885962580355
-4.697836465299036
-2.5867812595450492
-0.974387570327981
0.13787094626212
0.9777510097021478
1.2108822216471387
0.14001152520788698
-2.39251151719197
-5.6494915939826456
-8.552826832532954
-10.512792026286359
-11.907031283626935
-13.28598140487801
-14.431780354353299
-14.585858117740747
-13.275879992757147
-10.547625731396023
-7.3213935429535
-5.252236555107001
-4.839329298268622
-4.736026894210574
-4.293966311435536
-3.7018771607899303
-3.1055849367404695
-2.95549335277949
-3.3557339543830773
-4.191212889665475
-5.224249619779847
-6.445289987995232
-7.610911063839859
-8.447359288813027
-8.647953906295506
-7.643457610447212
-5.428421840148107
-2.9321333750571257
-0.9258893951389902
0.5564408505175304
1.630846768418781
2.600532465187383
4.059563626621639
6.092644736120033
7.571912674879107
8.071662115480246
7.559551976868422
6.122598720074804
4.355970322188323
2.7339595099258864
1.52727076540946
0.7033036685603982
0.31015784990281187
0.26341172170823623
-0.010746187570930389
-0.5998946731120158
-0.8307554111386605
-0.6126729357954428
-0.17886830845555982
-0.01273433985489046
-0.3755584236204491
-1.2837608060876575
-2.980980308698709
-5.187585120916418
-7.255138628580545
-8.96053019982378
-10.59016822165539
-12.995136686878947
-16.41778332088552
-19.331123960638394
-20.84668347929449
-20.734317856535622
-18.939519436152104
-16.879939638882274
-15.715001018102434
-14.75473844819025
-12.908206534878678
-10.192826032129132
-7.346726879583736
-4.877076709312045
-2.6363230449433677
-0.6461724696515407
1.1329388974641292
2.8312299935286847
4.391666694540843
5.6364568587159605
6.49650909010353
7.2417414811333005
7.759780772597998
8.211990822512059
8.520256176391442
8.274654422208537
7.716914197446401
7.502207684992662
7.91790902792233
8.506766453744177
8.92805767507019
9.531087749232361
10.561506257858639
11.609324751517386
12.281275566708963
12.369203900118045
11.848263888762743
10.883792403733155
9.793984822454432
8.794169491315827
7.91736850447485
7.246861795421562
6.755195078193185
6.345599517393322
6.212668624337967
6.237614480302977
5.99687027076309
5.384537962515927
4.234736144200233
2.6863558819197717
1.390969182757322
0.6339711577600263
-0.1673063394288507
-1.613823640209759
-3.618817924850568
-5.552354924317606
-6.953565141412171
-7.843855025922094
-7.96642416411532
-6.981208701086717
-5.4318543953939065
-4.442197876949116
-4.712434173235288
-5.978660045973572
-7.056367226592334
-7.290248807614898
-7.368726392843659
-7.5714950237371506
-7.386755573637785
-6.431131353670453
-4.4613636800447365
-1.7555299239731124
0.8001303586824494
1.9303237865174072
1.293249305414942
-0.18697283940501153
-1.7466846711135684
-3.0362175303479817
-3.9239385802545153
-4.223986357565115
-3.5934091740297456
-2.2410076874848537
-0.8008495234211631
0.18459715162176682
0.6679811136081089
1.1257445395143928
1.6404274497430116
2.285671834055449
2.9550718817056
3.5045541636135824
3.7991279132799636
3.215427654294296
1.4672690872729364
-0.8581899060874041
-2.6478482162092805
-3.3032253190062786
-3.1900628612309343
-3.1183768819631754
-3.1294479704202693
-3.116397885493306
-3.2964931248865117
-3.324916502157886
-2.814717394471759
-2.1239674878889
-1.8926266166433339
-1.8654141204767087
-1.729488010995844
-1.6385171516708141
-1.5933104023356441
-1.6054192671308385
-1.7310893287358322
-2.3317845828735932
-3.5087459370144334
-5.350439505223833
-7.866164852300722
-10.254009633678114
-11.536370957982955
-11.287238285106406
-9.483070810585689
-6.8619690824576764
-5.157720592908251
-5.247115410706578
-6.497755014759423
-7.4121999827175555
-7.21270750548355
-5.905433758799406
-3.9386784829090695
-2.1017558122783857
-0.4415308010026598
1.2063811935069657
2.4007427598168083
2.828023199645876
3.0227766300041083
3.086533606514578
2.6614319601562357
1.7057403447909918
0.5465849765337177
-0.7241280496077052
-2.2305132855559844
-3.613480904760962
-4.195961550075024
-3.675104120640805
-2.43359409183383
-1.5295495626562825
-1.716758243621777
-2.286429944973922
-2.7305588276854973
-3.0313026905382454
-2.6098473711039203
-1.392983405706524
-0.2554162272412159
0.4960660118076503
1.1469270110567604
1.6978140883218256
2.29799899256929
3.0686347956925855
3.9294805903297747
5.206128260452603
6.9372449969906915
8.994149618207278
11.364815024326647
13.724875575708138
15.714282410534533
16.517143478083735
15.978578550961892
15.096600984227159
14.260450761860547
13.182836010547854
12.019658957679082
10.763801388277518
9.596162044054926
8.997853750819283
8.62107662606933
7.919022101805198
7.02898052087114
6.357842630660322
5.976780120538406
5.920872256489234
6.494857285286662
7.7141234229559625
9.332130055791021
11.508814930515403
14.29573567875378
17.069186837079446
19.04614357180065
20.141907180553208
20.22599899649186
19.8635525051474
19.821836964661312
19.560070063066398
18.57121327278533
17.06039373154333
15.230128007658529
13.270288636212504
11.520883819888802
9.47308735028489
6.912232426682889
4.432774555561631
2.3931158625525857
0.4179815179859397
-1.537705854346221
-2.905685374843283
-3.302652225102162
-2.624499224158218
-1.7272731446004745
-1.2718990008338937
-1.2512000092302262
-1.6320522906851522
-2.305365780779701
-3.329710750749489
-4.84016695906908
-6.489700162360116
-7.746695697798561
-8.372316304336302
-8.504664672001267
-8.239667581919493
-7.641922569144941
-7.12817281596435
-6.420011036438181
-5.337314488165149
-4.222535907896283
-2.954388316025591
-1.587576568949312
-0.34306233807018166
0.5478710341264923
0.9870864885408597
1.558161113165043
2.900204598078877
5.156250372697289
7.504808284532911
8.751886455359742
8.686133377999766
8.30935844764323
8.117680618007514
7.539280147523811
6.701113837903004
5.750854230236966
4.676872526611554
3.9273165091272815
3.8136914453208264
3.665729006351425
3.325616429373566
3.3832284877255523
3.280817493706998
2.2850128636328844
0.43593297517720725
-1.7640372286885977
-3.903206210554649
-5.625337847732438
-6.898356189470839
-8.100148339057235
-9.219561602225374
-9.950240978085153
-10.11490001005763
-9.688575642664862
-9.557170661884802
-9.931789795440057
-9.879887868630172
-9.044669006825266
-7.736310550797939
-6.62195341838622
-6.053541534323288
-5.996618180702054
-6.001172443538261
-5.926873816932366
-5.807635156788216
-5.521216558468585
-5.285934130358976
-5.789544784228211
-7.233505507304239
-8.413615973110554
-8.302946077446295
-7.063434580161033
-5.590182387680653
-4.309591641585824
-3.0197501864290426
-1.6697340678269852
-0.4195617688076641
0.19693039387624664
0.03776499468574289
-0.5195555409199295
-1.0207862826453449
-1.2697967625175526
-1.0719820289612068
-0.4220290537508563
0.28973971918973057
0.6573474893026687
0.3862365253327875
0.06989029293564589
0.24125107763870365
1.3389865771070613
3.3515723572738145
5.67553654214447
7.529814246392632
8.161592993538793
7.494778885198027
5.834842345389492
3.8750373991432285
2.3637628172109126
1.800170173114517
2.1246467371187396
2.9774328969927724
3.951999932481107
4.923397845785074
5.696214371113652
6.535283108221228
7.497504456597529
8.097507602796275
8.508416686009019
9.015223582833352
9.86902629382384
10.717381183523667
11.176395695114442
11.063241490300783
10.475563120495964
9.601541496282836
8.419302098137402
6.721740659582532
4.500831373215651
2.1100980129913265
-0.26908900306961003
-2.5782047575893787
-5.064242225337873
-7.528743974432315
-9.32846324098498
-9.811632697526296
-9.700079780483055
-9.675585545723933
-9.676470170481235
-9.535675686817903
-9.135158099023409
-8.623382900074409
-7.469444361954753
-5.896086820989779
-3.64095625735661
-0.724280311431503
2.0026888364853233
4.326834473986814
6.385657162183832
8.178509175673563
9.325008113693038
9.71097917151535
9.482923782175062
8.856584186114533
8.303606302114831
8.295757207782524
8.535734577328624
8.762972632834764
8.738845440977798
8.175078683594407
6.886259414894651
4.933835601710944
2.4767914318712596
-0.2153785422450945
-2.5013317300834492
-3.549711541150448
-2.9551344865552696
-1.0755914779697975
1.51683880199748
4.040744233132931
5.764079231265071
6.25761571133209
5.527375101561637
3.8776072538450195
1.5087066815094115
-1.40328910470889
-4.113865231234294
-6.696990244686473
-9.388988491190082
-11.868692708006847
-13.869826478019654
-15.185229681698994
-16.304639375530027
-17.918977669142834
-20.079303940348396
-21.619777744208918
-21.976987207315698
-21.518130639991703
-20.736822304354032
-19.96322105692604
-19.32577335014889
-19.06916535187095
-19.071139194311296
-18.874858062790945
-18.294604327367065
-17.507396911054965
-16.591534207809566
-15.629410663815696
-14.145343270533612
-11.912836003235908
-9.518243575029269
-7.883539086916395
-6.971956499908081
-6.151416558899283
-5.0460237716248155
-3.300097868798005
-1.4761914606759978
0.2795918358023385
2.2502541156787306
4.6604024582221655
7.54958407314861
10.674752221914668
13.07457268821117
13.734629446318825
13.067446331369954
12.335415968994196
12.401254428319307
12.774401053814834
12.814273212298058
12.527386747673265
12.102701510300802
11.497000993203905
10.704286424694915
9.828180774950786
9.064020837187723
8.466068563663784
7.784537956384714
6.1825278593432484
3.2744745228410315
-0.347512618487199
-4.147733898356843
-7.4534747449158765
-9.626839115775855
-10.805300242219644
-11.832406348043998
-13.05216597652771
-14.250835337877007
-14.852118664141225
-14.550672025680674
-13.66156399402392
-12.364934745448483
-10.821766223262356
-9.753937517662294
-8.869677987613706
-7.760421141141737
-6.730575598719177
-5.634855400758036
-5.187604274440233
-5.502644550915164
-5.526336032450335
-4.061038848712397
-1.2989268913116496
1.22418729070151
2.72570052122103
3.3390055547175503
3.1777993849755206
2.2547453987918136
0.9048897306206392
-0.6138748997903041
-1.9584005740023285
-2.7852070162288465
-3.4619285967536446
-4.836630021243709
-6.288674062794005
-6.941889783420845
-6.870441358233431
-6.432455228394343
-6.037510942213764
-5.922237839656158
-5.596132153460749
-4.816536677127121
-4.261593941883751
-4.053414986253977
-4.27726201825057
-4.783415516008502
-5.973768128514189
-7.7168857603735646
-8.916755823474537
-9.272529126555002
-8.799066678331767
-7.446038660786269
-5.479728850930726
-3.4183154169431322
-1.1393542450252505
1.16891503717405
3.0686029453001726
4.368405297800286
5.492980870351839
6.811704406279813
8.132250403126422
9.387431200138192
10.132229357439787
10.211163647792043
9.996271375607995
9.789045932388042
9.17363698036955
7.700406243822664
5.552464437923695
3.2625005641672513
1.3830033822787096
0.5504785629932861
1.1297191962071722
2.559757021455119
4.294175860896542
5.9312409160231025
7.529901459826016
9.179334923289838
10.21530926690046
10.356882781692528
9.891069454883649
9.191039322019714
8.529637897716027
7.6122653103445925
6.629584032476919
6.143082938948502
6.4533299405072295
7.095731895996427
7.1075312791564755
6.365791454716248
5.1457262426867345
3.8953209824664343
2.6971585107387854
1.9193379704485765
1.9779954625230018
2.439860132490535
2.4122413541216767
1.6777685716775979
0.7195838022895902
0.019463050975510654
-0.04115794718463146
-0.2850546512471137
-1.611388895311414
-3.4341712156543354
-4.745706709679557
-5.390000857056752
-5.617449662955704
-5.669553958157297
-5.383440295180087
-4.54448164415165
-3.5161774799934826
-2.5960680623930275
-1.7710629637182125
-1.3015852714722596
-1.5296733829704239
-1.8486834015894351
-1.7033786456663322
-1.1606266304059834
-0.3104546073819914
0.4526184573991433
1.0856128707904926
1.680996773897829
1.898078561142196
1.5557056699571234
0.8995313720641549
0.11759758504144724
-0.8773757594122518
-1.8321923398677555
-2.5810007278485494
-3.384035050692333
-4.4153688776943705
-5.509716493845292
-6.416272806759866
-6.807121841485148
-6.774495797687037
-6.782606588296387
-6.863482597326909
-6.906452627965317
-6.689278275953762
-5.555334482569513
-3.3237350391509493
-1.1772298293679562
0.034105181993752634
0.9218411890422514
2.1962005011234007
3.7777253595848386
5.176336079342364
5.36273877535631
3.8626618417896657
1.2098391475977375
-2.1398482601478377
-5.758287170060176
-9.116674760340809
-11.369870228530914
-12.301925681449742
-12.415416974109649
-12.106241945821518
-11.37362083615239
-10.407138491580069
-9.39996343156363
-8.271239895283948
-7.181912031613989
-6.3785952170495115
-6.137371439938438
-6.3262150574586435
-6.686716625877498
-6.666021087926194
-6.266386162442722
-5.965245259226688
-6.045781062093917
-6.237624240693213
-5.876262495161662
-4.661578061836742
-2.8554448933489947
-0.815374886055575
1.711845555596994
4.369524922992163
6.802829518337448
8.655403130549324
9.555702589516825
9.71741450972239
9.584449079371726
9.1227861747337
8.18528062582493
6.814040432501439
4.8826330777434
2.6557551010229377
0.39741168443410135
-1.5387181568775414
-2.9336877490660687
-3.9292376496230372
-4.468911619647976
-4.463906640571284
-4.439066438806289
-4.770916843656525
-5.410582773886285
-6.2415832415721635
-7.339742274617606
-8.230792600142928
-8.202224042676866
-7.356751762204796
-6.087437223515606
-4.883044920853084
-4.489053046577211
-5.211374130387526
-6.051943254468344
-6.225589420673704
-5.506844691559588
-4.684267417134754
-4.1559943066992595
-3.7254892409473497
-3.6560323801602377
-3.800098551464079
-3.8165391799709285
-3.40429972568548
-3.0673532810337485
-3.1005333651957576
-3.3892452729048377
-3.6318315649753408
-3.663191922575508
-3.7330112688743387
-4.402817165297746
-5.779280580985235
-6.9659194154744615
-7.406190250509595
-6.898444369764108
-5.210633387372835
-2.7698639627211774
-0.792588103310359
-0.09309140595251102
-0.6299130876204547
-2.0209282805641022
-3.5695859758500665
-4.773787518565886
-5.555685060397074
-6.46976759377805
-7.407490347127158
-7.538933354837371
-7.4483048916115715
-7.574738997591869
-7.796191722201361
