AAD_Filtered_TADAS_FILE
AAD_BASELINE_CORRECTION: BASELINE REMOVED
AAD_FILTER_TYPE: BUTTERWORTH
AAD_FILTER_ORDER: 1
AAD_LOW_CUT_FREQUENCY_HZ: 0.025
AAD_HIGH_CUT_FREQUENCY_HZ: 40.0
EVENT_NAME: 202302060117
EVENT_ID: 13194
EVENT_DATE_YYYYMMDD: 2023/02/06
EVENT_TIME_HHMMSS: 01:17:32.00000
EVENT_LATITUDE_DEGREE: 37.288
EVENT_LONGITUDE_DEGREE: 37.043
EVENT_DEPTH_KM: 8.6
HYPOCENTER_REFERENCE: AFAD
MAGNITUDE_W: 7.7
MAGNITUDE_W_REFERENCE: AFAD
MAGNITUDE_L: 
MAGNITUDE_L_REFERENCE: 
FOCAL_MECHANISM: 
NETWORK: TK
STATION_CODE: 4414
STATION_NAME: 
STATION_LATITUDE_DEGREE: 38.406947
STATION_LONGITUDE_DEGREE: 38.754133
STATION_ELEVATION_M: 725.0
LOCATION: Kahramanmaras_Pazarck_Turkiye
SENSOR_DEPTH_M: 
VS30_M/S: None
SITE_CLASSIFICATION_EC8: unknown
MORPHOLOGIC_CLASSIFICATION: 
EPICENTRAL_DISTANCE_KM: 195.07
EARTHQUAKE_BACKAZIMUTH_DEGREE: 
DATE_TIME_FIRST_SAMPLE_YYYYMMDD_HHMMSS: 2023/02/06 01:17:45.6412470
DATE_TIME_FIRST_SAMPLE_PRECISION: millisecond
SAMPLING_INTERVAL_S: 0.005
NDATA: 10657
DURATION_S: 
STREAM: HNZ
UNITS: cm/s^2
INSTRUMENT: sensor = GEO-A200,/GEObit | digitizer = 
INSTRUMENT_ANALOG/DIGITAL: 
INSTRUMENTAL_FREQUENCY_HZ: 
INSTRUMENTAL_DAMPING: 
FULL_SCALE_G: 
N_BIT_DIGITAL_CONVERTER: 
PGA_CM/S^2: 50.894
TIME_PGA_S: 
BASELINE_CORRECTION: BASELINE REMOVED
FILTER_TYPE: BUTTERWORTH
FILTER_ORDER: 
LOW_CUT_FREQUENCY_HZ: 
HIGH_CUT_FREQUENCY_HZ: 
LATE/NORMAL_TRIGGERED: 
DATABASE_VERSION: 
HEADER_FORMAT: DYNA 1.2
DATA_TYPE: Acceleration
PROCESSING: Automatic Paolucci et al., 2011
DATA_TIMESTAMP_YYYYMMDD_HHMMSS: 
DATA_LICENSE: U (unknown license)
DATA_CITATION: Turkish Accelerometric Archive v 1.0 - Disaster And Emergency Management Presidency, Earthquake Department
DATA_CREATOR: AFAD
ORIGINAL_DATA_MEDIATOR_CITATION: : AFAD - Disaster And Emergency Management Presidency
ORIGINAL_DATA_MEDIATOR: AFAD PROCESS SERVICE
ORIGINAL_DATA_CREATOR_CITATION: AFAD PROCESS SERVICE
ORIGINAL_DATA_CREATOR: network: TK
USER1: GuestUser
USER2: 
USER3: 
USER4: 
[...]
12.129335187625502
15.518650076182485
18.083791094401906
19.66630020161514
20.199398326790117
19.644954870171315
18.29324212031002
16.423097476295748
14.285130088280296
12.468658783766953
11.320284198339259
10.581902780895145
9.523665762778567
7.478187329796754
4.520490528123241
1.7945183287811926
0.4469531204343221
0.2948280814883406
0.8020778406290064
1.725160158663649
2.817067513074119
4.323047866683833
6.536459349354916
9.157995087283526
11.469707637741521
12.563569784031031
11.982661345879226
9.967574105072599
6.754490536673051
2.1638175352101934
-3.9041080893227678
-10.801675213440177
-17.156936209026288
-21.60677849124175
-23.391620060644527
-22.5277890208011
-19.768452093047937
-16.101287799502128
-12.125137833690111
-7.7984682915261025
-3.124941988673805
1.2723351918173729
4.878811543534869
7.629352851316517
9.828125293799808
11.907549709261446
13.606989315554697
14.367733050302718
14.124371014868126
12.56025340872493
8.952770377088607
3.054175814656666
-4.752678096939579
-13.254652623167157
-20.75066619023134
-26.153153964266895
-29.17616959524959
-30.11726032792059
-29.11806068014668
-25.625319777342646
-19.56406029233559
-11.834726102290071
-3.5443513895478356
3.7654228145319455
8.567559995797891
10.974420461496196
12.114297726120526
12.770184557273236
13.419208399635147
13.946775257263281
13.997895772153209
13.368548813161201
11.628556889825745
9.145096146377082
7.031042500101419
5.700816689184075
4.8388242433601825
3.5876983218414744
1.4556889151823427
-0.9463570051479769
-2.9115133086205365
-4.099101753204267
-4.383058997284411
-3.9026146328059155
-3.2097284709768585
-3.1082579831150627
-4.039975359871281
-5.5893763146364215
-6.576303196458319
-6.337612158493094
-5.154488198047197
-3.37626051874752
-1.2127244593205424
1.2350304533910006
3.884918425641744
6.556599967330943
8.85342464465783
10.29808797868183
10.591805543462689
9.149682799672602
5.470493000604224
0.10493097163892937
-5.589084826352162
-10.247589559774257
-12.705941066362145
-11.944516630186904
-8.221869188339292
-3.0453736373421254
2.4925062063885863
7.2452043873028025
10.245008748905189
11.59505733754231
11.244502892568075
9.110834339436156
5.423486650534821
1.0743175798860367
-2.1616045368642487
-3.1458114727751854
-1.6104493299773466
1.5266839345023002
4.764459282056217
7.288336827171382
8.38437428865167
7.962319790532845
6.541153894418412
4.331652193583238
1.3758763658067452
-2.030080592762253
-5.085387720949936
-6.88626534079913
-6.861675654424364
-5.5185304942203315
-4.515453345858784
-4.872975895403423
-6.036755454355785
-6.517508013724725
-5.28699857942432
-2.872888791887649
-0.3309239189614139
1.7679949936314894
3.5953843485347234
5.983751064179153
8.88591281414868
11.263150417502647
12.268259352054912
11.283065499867945
8.095192999820743
3.332453270652675
-1.3923116393094603
-4.500098742480283
-5.508762092536889
-4.443135027172224
-1.8862701731883758
0.7356008362412416
2.138800802070784
2.207664810856727
1.8412245684326376
1.4862491199828745
0.8753835700941494
-0.017279744946866377
-0.6906549388791284
-0.14166634983749485
2.3056759073971804
5.837348381915594
8.709257901523248
9.727223084040656
8.508371294392848
5.549245783204247
1.996425082126325
-0.9417093741426602
-2.2054224064807526
-1.7338699250343912
-0.19886109907422894
1.3778510347243467
2.0149724087312886
1.7055566442615988
0.5336870973541612
-1.368400797834449
-3.698837603205201
-6.2869481621562
-8.595834879604109
-10.170101579128955
-10.530498968143098
-9.215662240959418
-6.247373027452701
-2.3475636439992282
0.7720438670361304
1.9554261556367734
1.5787759787619629
0.7606653815564849
0.48719137067931395
0.8286059885785928
1.6521957502525495
2.889000780093815
3.971336203997357
4.320842858489295
3.3831843944285622
1.02727341439883
-2.0065505979572693
-4.8839412125724095
-7.107283329929228
-8.645299884409294
-9.771394214834071
-10.173668602165833
-9.3369862074886
-7.628173797134539
-5.3640245394353645
-2.639739464912827
-0.023619946945211356
1.9782708203363937
2.806690363861232
2.4275958157539925
1.6120919144872754
1.06590862439396
1.2923142844869218
2.141686797465
3.0611161198967456
3.87082490662121
4.661253534067931
5.249552000923317
5.061890199354826
3.7219594529297457
1.5675102492522475
-0.2833933430559
-1.2872367789030439
-2.0049321867931438
-2.8717705268708014
-4.462246298046378
-7.386662921200087
-11.403234031629742
-15.957040864358143
-20.237149652477967
-23.243521466932005
-24.24352014652728
-22.620100493932178
-18.53505829579609
-13.168411392708526
-7.7666140478511325
-3.1457153845653263
0.3530934664596419
2.7923384220584664
4.808254469611491
7.570745001762338
11.451728641707597
15.499433735253248
18.69224293640401
20.82244498609852
22.772022751296102
25.18847207205738
27.50471414138211
28.68098870914262
27.541982752252938
24.210200297060474
20.347031797648118
17.626756581578714
16.812156161371174
16.891281855092327
15.627005848519087
11.3262073638572
4.106167503270991
-4.652872857989875
-13.31096817332745
-20.627107122060593
-26.20976668840326
-29.88873620615885
-31.152602311833334
-28.843253291221565
-22.217293648641135
-12.125737489766074
-0.9362650156842957
8.302867548080846
14.273578624494489
17.883500934519933
20.62599429347355
22.894319881121866
23.366149403330564
21.0494191421881
16.654824641555795
12.405212732470392
10.512889909036922
10.980994225449939
12.013350358308067
11.76425135180178
9.598017394949979
6.050568317721129
2.116740878701395
-1.3942885559964304
-4.25719804846784
-5.741469236098267
-5.1321374858395545
-2.910683535458239
-0.05578325025897235
2.3228388167314193
3.6346871592969854
4.250765404668826
4.871532608417126
5.740943664528806
6.896645914671554
8.579838572440119
10.579960158692636
12.396947486445365
13.740226974437835
14.752296270672861
15.359522350416478
14.815109800708234
12.427813354385997
7.303987097274348
-0.4020887891862013
-8.670658910696625
-15.279812065612346
-18.823844286867686
-19.746092573840965
-19.347645303014033
-18.61460570075117
-18.025222862058573
-16.60579407805911
-13.492755458831677
-9.06393124147812
-4.433110291492854
-0.6745533083158508
2.2742852945508587
5.0991119234542195
8.175275638185067
10.82423703780188
12.367155949642886
13.046570847816728
12.595938544228053
10.522944825316266
6.9118641882137055
2.2515691415508448
-2.571010246036119
-6.617597225820052
-9.458036901085714
-10.937673867328348
-10.72145436898159
-9.00012171600116
-6.352155379894906
-3.4298746082399325
-0.6243657592357468
2.6790371808521405
7.13892835174218
12.756267890320206
18.422649145117134
22.726011535987084
25.811820981351488
28.044738432812657
28.716809514585766
26.946123372356926
22.62211316577192
17.36307657229956
13.592056583193054
12.160794780438085
12.193435870410298
12.505046862142244
12.163902886385127
10.671058561850497
8.298779802431952
5.380002620590475
1.9532225584263927
-1.608753335328347
-4.781550260560302
-6.70094242552552
-6.405725712527476
-3.7601275355151635
0.26381277778601164
3.8915712992672122
6.197205184930912
7.377363637667213
7.389046186849441
6.264347880023773
4.806624843457293
3.6484949575952053
2.9187368136265577
2.850045828136502
3.3219877429832025
4.247146871890045
5.511223284049199
6.1874636539884245
5.732690895250155
4.620600925444613
4.050150824839192
5.296280994742519
8.54178364882631
12.875884766067411
17.06713183848761
20.307362372224926
22.126593415528642
22.094929297691007
20.38831890565688
17.84762166591373
15.526160934368276
14.338661280932604
14.476925265882379
15.350188393829624
16.4371296375837
17.405905887360323
17.92357094671035
17.78069454614669
15.729266690908469
10.308564239047568
1.9338030670215975
-7.703640831231473
-16.3105111309108
-22.2071065976532
-25.104473159890336
-25.374004970569842
-23.862062224587063
-21.35240364654677
-18.614371456757056
-16.162681388359488
-14.046710705590229
-12.341766536659543
-10.798339531941812
-9.206619855792125
-7.489103437238501
-5.132558582574015
-1.2907701534280656
4.231174255897633
10.403805596196689
15.900812074214386
19.18401447610332
19.273380852153558
17.068174250612074
14.137411256982727
11.84039382876617
11.233576617939171
12.128887028409485
13.214740390672748
13.545012797149258
13.459159821831726
13.752038940340395
14.526911448453616
14.99499557208327
13.85811868216893
10.705441172167864
6.6456049072372885
3.175152254476009
1.1835438537051293
0.6274379845786372
0.9904645350184655
2.095158910199724
4.122344184804616
6.693772262153587
8.918059526838007
9.81459022771388
8.027662947993072
3.042056893227192
-4.273172527480695
-12.539185037182076
-20.37933815914905
-27.112890277029333
-31.92380788912525
-33.248742579828324
-29.962068303402358
-22.37190879573311
-12.501993440090605
-2.513956092557618
6.474625667514011
13.047833132810927
15.256570798090111
12.580622109109578
6.722509143897629
0.2336168937242402
-5.032174577233478
-8.65770529863121
-11.275753181350671
-12.862919010152195
-12.256810106731413
-8.937027341601503
-3.6974016044249667
1.7888279528673356
5.702617880189192
7.4671556403987
7.539255213762814
6.957206060557499
7.158616823514354
8.814929120391342
11.69737133616516
15.332163077881985
18.87618563634263
20.643057161821766
19.081976439483945
14.303707892353662
8.10500075919307
2.583668273736916
-1.8288028155234475
-5.866392415608588
-9.583248793860475
-12.139517966942284
-12.591922941532228
-11.674266897625305
-10.966847866609582
-10.515008552886409
-9.78688821140133
-8.651956159534135
-7.742218071012857
-8.148819313977004
-9.413900563571891
-9.602304699459653
-7.171597641648253
-2.241879633310648
3.6039472973281823
8.965426760158852
14.022657041429179
20.099447361786755
27.920823303455478
36.28755114492828
42.0920740966658
43.058694494199116
39.695783681321934
33.94074696330864
27.30225631423503
19.66632879742257
10.751654764204108
1.6241175639575527
-5.699082214779223
-9.204191078740443
-8.699114437034478
-5.418238732898311
-0.9660349819235001
2.789216893429887
4.470645724366595
3.4668759800855757
-0.06960302995541873
-5.689531256607519
-12.358374243177641
-17.939615968293914
-20.53991930427007
-19.43679213724834
-15.109769819325606
-8.7843613233799
-1.620063400709146
5.417070896851619
11.687161801633671
16.236285341288195
17.535045475788536
15.391572749247553
11.509343965053949
8.44471742295138
8.263485272891012
10.582326009990242
13.488034127563873
15.974057847092121
18.339115212435825
21.244130707708443
23.48164164282498
21.949197882242927
14.696669789839252
2.2960635841184978
-12.642648126354889
-26.7364390220117
-37.07480825809931
-41.50201633387804
-39.59239356599823
-32.85626436872696
-23.321439241310372
-12.794993287598675
-2.7295866818923606
5.061016062461975
8.826331548492346
8.82986305603812
6.965461305526103
4.946842173522127
3.505600780915773
2.678149889947178
2.219541870936742
1.8811084466737669
1.4006828933589524
0.920269854598802
2.1134908816314746
6.233887373882959
11.97738854441995
17.09246244220817
19.61621346055768
18.88492419577859
16.541492550059363
14.998589575469957
15.310362664798749
16.483548588698003
16.809976248414547
15.723804073417883
13.870022697123346
11.84419997657399
9.45911578923246
6.700027924879354
4.081208287611353
2.0088039823752295
0.31812867026040514
-2.2937045147587085
-6.953951543546204
-13.539077479020838
-20.816963207823786
-26.676062820219983
-30.506475357570135
-32.92449633324864
-33.338089722829025
-31.387024812019188
-27.771133183521357
-23.234591645498565
-17.923187647416306
-10.841804731689434
-1.7314718252073018
7.932275191558271
16.952355704165072
24.510529301272786
29.413171874752354
31.22149626508466
31.07280932068799
30.82516497650055
31.026535463984317
30.306578021412555
27.477521050326708
22.91595275702158
17.761073956349968
12.494327917907778
6.8560553854643
0.45465144199571705
-7.2138711103130415
-14.856063706966847
-19.288095843373295
-19.240201070613118
-16.56818495485199
-14.111012258919063
-13.097013712553622
-12.657160592457487
-11.671213056561712
-10.24314693188273
-9.62855911085735
-10.547699258075161
-12.475643135064727
-13.831490482209714
-12.379533804603295
-7.234844091628083
0.4346058687760267
8.074565923240325
13.575285244192603
16.978263048516
18.532830009348643
17.66164713895212
13.779246428978896
7.329176737691467
0.9974882824612037
-2.481503420977185
-2.6693739023283185
-0.7695898245325762
1.5428197277409166
3.2393229879828573
4.445077682497127
5.975311528123333
8.255994694680972
10.37337619298095
11.02999001011166
10.671943712872107
10.843167501691278
11.983005233348273
14.243246182441347
18.021521073211773
21.666984377313543
21.667658799224373
15.870308894844399
5.4887954585793475
-5.709483445268833
-15.04817166452655
-23.009306498759443
-31.019259483539624
-39.21783584261945
-46.1374625444636
-49.95045929470253
-49.65069468647976
-44.870494280878596
-36.73364292995229
-28.45842832627206
-23.237490330971593
-22.01917337956447
-23.15558549303561
-23.46774738828705
-20.742703355476966
-15.189673746776728
-8.225207433542586
-1.2593556802304722
4.751905915064851
9.599506026855636
13.410634675307675
15.795280098018555
16.31751603460948
15.570826437836015
14.865344070893684
14.837350478798877
14.426008487555615
12.522815679001804
9.9698955019106
8.51644145800589
8.104172143834857
6.7136226558467245
3.299215109538414
-1.292861301998717
-5.176083582291391
-7.49534495868876
-9.07434683718485
-9.61706230876972
-9.110463838051283
-9.04545745941905
-9.651863398718863
-10.176773070207496
-9.958813068463844
-8.763955914726225
-6.483579342264027
-3.4249771792385832
-1.0145999933396996
0.6156003254684341
1.839101327117877
1.9260723154955384
0.03437568331933821
-5.457489731242409
-14.1045597158365
-22.38075169121491
-27.313127679637876
-26.97417951819024
-21.360814909378867
-12.644011912069518
-3.3736168687139316
4.130666273782553
8.971061798527666
11.62694938657238
12.489554538744418
11.612589728972704
9.15593556948099
5.339101187695402
0.8262737933570383
-2.256341098368771
-1.5965333973564695
3.187300508385186
9.72785195834454
14.73788409420065
16.684606322481137
14.42212190244094
7.376523234197687
-2.866434400831513
-14.667239924561411
-26.50887375369714
-35.98869211328383
-40.74763081830273
-40.46166278294127
-37.52799812417592
-33.597284951421635
-28.602934758288143
-22.762093930069376
-16.68459995053778
-11.73694182991972
-9.246859244294024
-9.068331598489184
-9.435516537322474
-8.856843159171186
-7.761198144319628
-5.6330354195449885
-0.7306498354643531
6.592933290959686
13.883869178159003
18.88813089412004
21.54763081729314
23.27396506819618
24.87413180381167
26.33330649577587
27.286470761966637
27.299143278344882
26.873283408782974
26.596153970237143
25.736915868415398
23.992433612048618
20.857523431100198
14.805707843411673
6.34760621748514
-1.6478798977252556
-6.533668555653105
-8.108670096463252
-8.77857702618209
-10.897459845615318
-14.279547342595546
-16.93860801669406
-17.896081127957295
-17.85002176793667
-18.11410846808953
-19.126327371306438
-19.75764723318636
-18.81367224074691
-15.860371471830504
-11.378746216741488
-6.748819939426594
-3.3596455191128625
-2.929591858517603
-7.047567869629119
-14.771189421293908
-23.44153270845987
-30.211544059212866
-32.10539730392279
-28.90692431210103
-22.561735351512347
-13.903139891247386
-3.9461722742083643
5.7385253346084415
13.647107946229681
18.22934626590512
19.18073579631559
17.271479539515934
13.239614180628214
7.72520654025065
1.3800501176351203
-4.832304753630254
-9.667346566356052
-11.93157126285384
-11.350888315075066
-10.088229036060332
-10.62911201369612
-12.313274696164704
-13.556940125166625
-14.132056252644128
-13.264440781538605
-9.706234882274618
-3.902895823508008
2.062323960571746
6.452128625053942
9.197178950271832
10.883895728537802
11.149982716416128
9.460706378298045
6.098315535700093
1.4891468359565527
-4.016167792805219
-9.796537551635712
-14.809126509032726
-16.969806895163885
-13.338575463004268
-3.4928649233766262
8.298413560035506
16.215124906353086
17.1021023118909
11.687719105426348
3.0405275604948967
-5.472793090203991
-12.147010808915482
-17.181922733031975
-20.90792383419796
-22.629883442452332
-20.604725872785316
-14.592921212896746
-7.52347004506837
-3.2534256738932403
-3.893234069382693
-8.526528518918978
-14.462832668664044
-18.446088237625567
-18.096926587729236
-13.794300773989406
-6.660696047861175
2.5506335906028235
12.658607118427637
22.277590812000916
28.914522991255357
29.399609574073637
22.924059251393633
13.44108231704709
5.9757261049362835
1.8596978604335197
1.3635011102550956
3.633569218480077
5.278841745803859
5.211908381533582
5.293156172031028
6.754015958000886
9.060876539908213
11.090258705839545
11.76597614414734
9.644797026360385
4.890193791260908
-0.4504905917837649
-5.1026106436340575
-8.659301780303448
-10.27478651527298
-10.482679609855044
-11.696745780485847
-14.45638914464098
-17.40403284885571
-19.45536082639468
-20.223696112122905
-20.261011345323464
-19.68413793357011
-17.646721943072276
-13.743800798826355
-8.326189718690776
-2.3830270687303545
2.251384579429911
5.5144997853765165
9.777445362011449
16.08323746001506
22.91467812630988
26.89322396204093
26.058705690320046
22.53127166652145
19.73423575309784
19.80642015526753
22.125860292120255
24.216254258867945
25.165438005993348
25.02909604434057
23.46967597258478
20.547322897495782
15.727550505962174
8.702467547447874
0.9079155946951407
-5.185414626315321
-7.239245212878709
-5.1680890440933736
-0.7095937353871105
4.10551783693584
8.105314642137486
11.094152865317463
12.052054524425257
10.27039299744607
6.307085588904892
1.530692628996374
-2.4561735609358553
-5.153003251470877
-6.671065610622493
-7.339049760538496
-7.976605612761305
-8.952715173871452
-9.708710127277586
-10.209417012538607
-11.208986871354778
-12.808547369196203
-14.07824572931481
-13.766134832365271
-11.984541176485159
-9.540846228952095
-6.114109215606043
-1.2336487475555329
4.615351275841714
9.482958900340009
11.146844846261612
9.508873463887603
6.610019234138201
4.60836676648043
3.91399859589341
3.8782821179144444
4.530841211793792
6.314700927522122
8.444681045786583
8.764244170207126
6.515591249203293
2.8666775783758975
-1.623381177687984
-7.171222293941152
-13.180123495626198
