AAD_Filtered_TADAS_FILE
AAD_BASELINE_CORRECTION: BASELINE REMOVED
AAD_FILTER_TYPE: BUTTERWORTH
AAD_FILTER_ORDER: 1
AAD_LOW_CUT_FREQUENCY_HZ: 0.025
AAD_HIGH_CUT_FREQUENCY_HZ: 40.0
EVENT_NAME: 202302060117
EVENT_ID: 13194
EVENT_DATE_YYYYMMDD: 2023/02/06
EVENT_TIME_HHMMSS: 01:17:32.00000
EVENT_LATITUDE_DEGREE: 37.288
EVENT_LONGITUDE_DEGREE: 37.043
EVENT_DEPTH_KM: 8.6
HYPOCENTER_REFERENCE: AFAD
MAGNITUDE_W: 7.7
MAGNITUDE_W_REFERENCE: AFAD
MAGNITUDE_L: 
MAGNITUDE_L_REFERENCE: 
FOCAL_MECHANISM: 
NETWORK: TK
STATION_CODE: 3114
STATION_NAME: 
STATION_LATITUDE_DEGREE: 36.56704
STATION_LONGITUDE_DEGREE: 36.15135
STATION_ELEVATION_M: 6.0
LOCATION: Kahramanmaras_Pazarck_Turkiye
SENSOR_DEPTH_M: 
VS30_M/S: 215
SITE_CLASSIFICATION_EC8: C
MORPHOLOGIC_CLASSIFICATION: 
EPICENTRAL_DISTANCE_KM: 112.73
EARTHQUAKE_BACKAZIMUTH_DEGREE: 
DATE_TIME_FIRST_SAMPLE_YYYYMMDD_HHMMSS: 2023/02/06 01:17:31.4795170
DATE_TIME_FIRST_SAMPLE_PRECISION: millisecond
SAMPLING_INTERVAL_S: 0.01
NDATA: 12501
DURATION_S: 
STREAM: HNZ
UNITS: cm/s^2
INSTRUMENT: sensor = CMG-5T/GURALP | digitizer = 
INSTRUMENT_ANALOG/DIGITAL: 
INSTRUMENTAL_FREQUENCY_HZ: 
INSTRUMENTAL_DAMPING: 
FULL_SCALE_G: 
N_BIT_DIGITAL_CONVERTER: 
PGA_CM/S^2: 0.017
TIME_PGA_S: 
BASELINE_CORRECTION: BASELINE REMOVED
FILTER_TYPE: BUTTERWORTH
FILTER_ORDER: 
LOW_CUT_FREQUENCY_HZ: 
HIGH_CUT_FREQUENCY_HZ: 
LATE/NORMAL_TRIGGERED: 
DATABASE_VERSION: 
HEADER_FORMAT: DYNA 1.2
DATA_TYPE: Acceleration
PROCESSING: Automatic Paolucci et al., 2011
DATA_TIMESTAMP_YYYYMMDD_HHMMSS: 
DATA_LICENSE: U (unknown license)
DATA_CITATION: Turkish Accelerometric Archive v 1.0 - Disaster And Emergency Management Presidency, Earthquake Department
DATA_CREATOR: AFAD
ORIGINAL_DATA_MEDIATOR_CITATION: : AFAD - Disaster And Emergency Management Presidency
ORIGINAL_DATA_MEDIATOR: AFAD PROCESS SERVICE
ORIGINAL_DATA_CREATOR_CITATION: AFAD PROCESS SERVICE
ORIGINAL_DATA_CREATOR: network: TK
USER1: GuestUser
USER2: 
USER3: 
USER4: 
[...]
0.006532474225485335
0.0022762899652507868
0.0010388299250673502
0.005062111381258677
0.002324511752632115
-0.0019496317761844438
0.0011344035946904934
-0.00224840232113822
-0.004372598047475
-0.0028287077881648647
0.004771264074257511
0.0038382264113680487
-0.008829726553637594
-0.012329831011560054
-0.004180316804710324
0.0018746555010337581
0.00014945440575277923
-0.0007845904029243318
0.006258904467734091
0.007869642872843377
0.005220098130831567
0.008366847796494235
0.006520478585834358
0.0020094466371027454
-0.0013620953421449365
0.0021674174012888065
0.004896000235676993
-0.0012588702971293012
-0.00016396325293524695
-0.0025313934760372776
-0.004944239773390642
-0.005743553766147829
-0.00600307622140112
3.017228268828762e-05
0.001038018584742909
0.004825357214940895
0.0031141798729179956
0.0021652218016204204
-7.497960938343705e-05
-0.002105787831015538
0.007762895761158915
0.009972144399270116
0.003617535778210459
0.002085584232654809
0.00014204495107675527
-0.003398578472274116
-0.0006841313434871099
0.0035978571822125947
0.005260792004817424
0.006893232667325982
0.005141595717536568
0.0035288114536298244
-0.0024531080845699264
0.0005947100431934881
0.0035719793001874004
-0.0072340921375995135
-0.0026268065243143773
0.005905431233582286
-0.004108325006208973
-0.007157624698076135
-0.0015146889052564327
0.0033173030435062743
0.006739238600665409
0.004077942848543578
0.0027047479452766703
0.0009052876401466223
-0.002030818942861108
-0.0023439073159926137
-0.0005944384785085957
-0.0042003482101165305
-0.004168429292474801
-0.002136769598082718
-0.0011268666461066994
-0.0039021029767642885
-0.0011231292718107881
0.001768647952015191
-0.0008382965741469413
0.0004893955202642516
0.00434166088312354
0.006674677303969425
0.007963005186420031
0.005703475998971196
0.0004993644035709368
0.004276796891100768
0.009364896526117494
0.002452847371094679
-0.0033214922701845133
0.002340450078161731
0.0014928551105410522
-0.0030616138271252332
-0.0027755435245544412
-0.0029144637840331955
-0.004196122987541994
-0.006025022304474616
-0.004401105621650027
-0.002499642494572109
-0.004366579273844651
-0.005897439614490533
-0.0021610757636486622
0.005454515693216428
0.008361698998713587
0.007768571131383396
0.005787449950772646
0.00044155827018530576
-0.0006907142177372804
0.003283172945176912
0.003972130914566098
0.0024801771700086314
0.0021008329559510162
-0.007221826728380822
-0.0119743870317136
-0.0011507647251604678
0.003084582388165803
0.004772451392983107
0.0011851459120170197
-0.0022016317536698244
0.005186648015281505
0.009115938392006672
0.005963965090849488
0.0009860410668919785
0.001250824641369068
0.004283375099364262
0.0036369137982567063
0.0012401461422402813
-0.0032047550138137224
-0.005012852470633404
-0.001364635359091243
-0.0023107987837536416
-0.002956342091226171
-0.0017151987890267968
-0.0016627268463885606
0.000578821173955964
-0.0010157975325185298
-0.002240523346382668
0.0004256153671749267
-0.0036488735049776248
-0.006549408629402788
-0.0041530034151234935
-0.0019653721036546226
-0.002167350631117718
0.0036012606736159237
0.006998777466167713
0.0020842152468221052
0.005031802269262266
0.007369928427433981
0.005031258169901365
0.003265454798385446
0.005966665904787209
0.007521991125800177
0.006713199931739612
-0.0001369357087967563
-0.00095543588573578
0.0003689192973878999
-0.005739209627585202
-0.006242927388255468
-0.007557466268850938
-0.005965209162266307
-0.004722781367907633
-0.008060304605797921
-0.0036270961276483587
-0.0020239396799104294
-0.004192866338737293
0.003486686640487839
0.00319581658107657
0.005600450159312627
0.005270184969209903
0.00361386994198599
0.00784404793163914
0.006580108840889854
0.009924122969530007
0.0034451169514192986
0.0017505517556691344
0.0026081276807291974
-0.0016832170690544647
0.002993648704827509
-0.0023357363852020024
-0.00301650646066408
-0.00266318357495905
-0.004421289859329959
0.0005592931955024805
-0.00016386620670762612
0.0008830932154273106
-0.007576537188346717
-0.008011478627425891
-0.0007521090506394132
0.0009924983048858634
0.003952711042181635
-0.0020906842930974306
-0.0024089351207571418
0.002513500366789089
-0.0002227538160788901
0.005244547284543824
0.0040372424935590095
0.0007925773634085573
0.0017611102165524962
0.0026228151522470085
0.001725805425927382
-0.0028033342490472258
0.0051673029339984215
-0.003426955404104918
-0.005841302193433744
-0.006185169208988503
-0.0019203524529426092
0.0006702673689682734
-0.006535833869833518
-0.00013817203175392552
-0.004070908978796624
0.00020296983517781308
0.006407453236364634
0.008671538642580866
0.0034235254087793265
0.0008759710536795296
0.01032077252880657
0.007983853249002661
0.005078003190334973
0.0029209236403838334
-0.005273358019362292
-0.008566327246687475
-0.008456169822912486
-0.002605106276753336
8.634796148577006e-05
-0.0028673013528667845
0.00022622681602705037
-0.00293222336632483
-0.004941860783967248
0.0006204289856979414
0.0009604960989799858
0.0023699763201551066
0.005270312984569696
0.004915026405797668
-0.0010293157181453306
0.000410542906744915
0.007375386708322408
0.009930102111344746
0.008154814164102277
-1.8993507687315272e-05
0.0025529893210324145
0.0007856512300541077
-0.001713949451114631
0.005675325358702357
-0.004888807227752628
-0.0008634339640087694
0.0004880085984287833
-0.00020043061042679
0.005357584486706887
-0.004501567346632668
0.0007490971455489135
-0.001016981626984079
-0.003512950293125728
0.00048151702128582064
0.0020717689014638704
0.0014851671806297812
0.0026858068632011436
0.01225825708822837
0.011889863595021352
0.007520372154039663
0.00270534799210307
0.0010714608939913091
0.005975853467694443
0.0016558492991937761
-0.0013594427592435818
-0.003671890326042463
-0.003845685201855095
-0.001031339740930813
-0.002460117765562188
-0.001048130236956697
-0.00040528108698152193
-0.0016371340232665401
0.004200631639401291
0.0019015287035729874
0.008726957816449431
0.003423515440997892
-0.006341353343104159
0.0022621949621063208
0.0010517787170375614
0.002796958143353794
-0.0008140582941182441
0.0017037754812955818
-0.0034304838413659034
-0.008283955443334592
-0.0023997083344705233
-0.002895806707648643
-0.0005986513606177263
-0.0019917257204419836
0.0018915884731383415
0.002176585782133989
0.00044099794197142295
0.009473914307113796
0.0005562736548660548
0.0014671253435125876
0.0034910149162710354
0.000641740762954266
0.006617780906928571
0.005148506929149068
0.003845424956358401
-0.005917495136794197
-0.005014759143002177
-0.0020655029611890393
-0.009447501354089618
-0.00793543186998547
-0.00913815248284656
-0.007372734799635131
-0.00010168779516309385
-0.0028931894476078206
0.004646567201532821
0.006688350150550811
0.008351778896232601
0.005901325662422467
-0.0014712349879338086
0.008394787150155443
0.009244694924386818
0.007432110841758998
0.003128012090150119
-0.005332607440324897
-0.009168837002690663
-0.01104605325709074
-0.004630761829734571
-0.003806156365866977
-0.0005937525173226195
-0.0019997155273439177
-0.006487486439892095
0.005319874056865851
0.0024721997005798775
0.0011975860987052571
0.002975065691497816
-0.0047288653987481236
-0.005554859880803308
-0.005121671531363722
0.002821526785334772
0.0021718763333087553
0.0036292299384694665
0.006728515045837638
-0.004599653846552501
0.000266133641954094
0.0036781096146314488
0.005330720921495748
0.0006278611102058587
-0.00422757839898057
0.003912367240437318
0.00157536023238245
0.0011753356688861494
0.0018285114720595927
-0.0014519218132008013
0.0011255894315616844
-0.004490209875055651
-0.005020224549415186
-0.005191381274724669
0.0005687196242583663
0.0028463456390110937
-0.007375936906034413
0.0037269870661145285
0.0016946345756288037
0.0022708015292964233
0.005368860624801486
0.00015788179443659522
0.007336080710997494
0.0020835717845734186
0.0006736334949920543
0.004332169982768714
0.0015554993104962527
0.0036434198316305515
-0.0010497770975605458
-0.0004724060282750061
-0.002349645157370307
-0.008408678770107968
-0.004628693920180807
-0.0054078536650670975
0.0006619516892113893
0.0021022645931369857
0.0045349925714939605
0.00894786895937015
0.0037386156068051142
0.012945482512661763
0.007553902190231584
-0.0008174999081406138
0.0011772611501950708
0.0008396304613684525
0.0003297150219746888
0.0003611822247451125
0.0037407667467900933
-0.002062080591530682
-0.003408606566950519
0.0024916710964099646
-6.145355489498313e-05
-0.00034769565353231526
0.001383383342039973
-0.0017645531936631652
0.010029852664769029
-0.00821927693090237
-0.002542224129708361
0.002954442938206346
-0.003697628489186881
0.005808028240195783
0.0027720130828386546
0.006573653347400712
-0.006470514392703035
0.003800981048091589
0.0010591074081913144
0.00109247531705874
0.010130142943143712
-0.002642010980696469
0.0068032395993308376
0.00039911411397821294
0.0020694003984785643
0.017291540139929895
0.0013581362992174516
-0.0032223962864235635
0.002058491001199813
-0.0004056595115695045
0.001074665270498002
0.0037157610656400972
-0.0005800766855325157
-0.004281203004372284
-0.004653238884113872
0.002792457248898005
0.003981343995297067
-0.009765277790578872
-0.004563252824737584
4.761630275835477e-05
0.007892090102132604
0.003431593637515628
-0.0029129349636417222
0.006207429785385858
0.007442468182877957
0.005890861549923362
-0.0017124924095158398
0.0017055608315968292
0.0010954418566824246
0.004798800838079749
0.004262542285752909
-0.0009086305820253872
0.003534977627533634
-0.0007711992726624068
0.00028829202975712043
0.002465664722905062
-0.0031761079961093487
-0.002563874008942919
0.0009798622227945128
0.005742051602715721
-0.0014482411433930813
0.001532094025761586
1.2824893452592042e-05
-0.003516222005763229
0.005758514559785938
0.00034869901871122674
-0.001882254715383798
0.00016257582430103166
-0.003821618154181237
0.002742146292161321
0.0009831760947888247
-0.0033329046053208657
0.002492601761649577
0.0024680913507612577
0.0008899596271817554
-0.0005739541127424421
0.0033412665252371466
0.002700722720230855
-0.002867031197208979
-0.005010800060449762
-5.9736358300913006e-05
0.005573956855905434
-0.002511690405366106
-0.0011107931741747793
0.002934310566697554
-0.002526226314918856
0.0011624912619192173
0.001548172696757505
0.0006687454865860818
0.002246509052914027
-0.0015043498125324702
-0.0004992405340145689
-0.0010092210057113828
-0.002332231869995272
-0.005050403664866134
-3.342198168121309e-05
-0.0005474117446491101
-0.010474170850641468
0.0009391249062255875
-0.004414647152537588
-0.0073424072862478765
0.006165002108720407
0.00041350597059602303
-0.0007387230833777046
0.006415608799078458
0.0070644802489787375
0.0033212618330180008
0.002952610489526282
0.0020008989052125543
0.0024801071741952347
0.0020034698121424743
-0.005910297874197114
-0.0050413137988201025
-0.007056776279195321
0.0014566381885881571
-0.006272696175248115
-0.013875056271373446
-0.003183180948109134
0.010407508070743277
-0.0026418957767214758
-0.011170916732845341
0.002702664366777978
-0.004358994061911837
-0.002568578651262031
-0.0021145746824689396
-0.002567504668701334
0.0003865112598668492
0.0018272495119631377
0.004033375626695716
-0.004796926012118513
0.0028751346322346796
0.005307146122589199
-0.004773202321481288
0.0017227441279977736
0.0033971468574160433
-0.0028969327746427172
-0.003991672977453033
0.007216444736051478
0.009650950157467891
-0.0015723648082437073
-0.01057923885931989
0.002630069022441419
-0.0011497014502468983
-0.014848767952120333
-0.006036129176462818
-0.003483426345911522
-0.0020564682716870415
0.00016587042486241788
-0.0030019718211111495
-0.00138392304200459
0.006400428301673165
0.01171013459955037
0.00513313831499558
-0.0024026670156007015
0.0023411062397700228
0.008074522300836369
-0.002106553097406829
-0.00666099057483321
-0.001611506395981601
-0.004175564290233
-0.004220971897942608
-0.005546343345337281
0.0003489945633787154
0.009350550475881786
-0.002495518077514833
-0.005069412968999477
-0.005785786788114273
-0.0006528942258557568
0.0037575799275733988
-0.0016644336140690214
0.0008704925167559018
-0.0022317019248612405
0.0029738869163601477
-0.005794523129121256
-0.00041588630734736964
0.006133369370367566
-0.0008352392214624095
-0.0027232466387768907
0.009791899683134235
0.009064280033999365
0.005110440084907459
0.00507169008975455
-0.001940630604215464
0.0011766444758137481
0.007966988509580252
0.004494936225227631
-0.005071649792497432
-0.0063080454732858
-0.013589469258830832
-0.008495982965108523
-0.004273160428922448
0.00015613697325117545
-0.0023230040805344867
-0.0037744237524905493
-0.006877193833076677
-0.0021128628770369045
-0.004078161364517922
0.0050822770582720075
0.018979604343349447
0.005074348820992433
0.003528928648257252
0.010420534529755672
0.009155484505429573
0.0023045413778992616
0.003972004829169009
0.003114593097622289
-0.0014387370458074783
-0.003874730535321329
0.0023551558318854033
-0.0028566153640436033
-0.007672035490901049
-0.007922693898814552
-0.006191760139734814
0.0024532098978963073
0.0046177403436175124
0.006902491190495304
-0.0035593137135644
-0.003665201558972109
0.006360431786261674
0.0012469238759292686
-0.002948597447062253
-0.0037519732600899158
0.0005144651803871698
-0.00029723413958088906
-0.006224161475668901
-0.00591300988093907
0.0011889969729965626
0.009801960168296474
-0.004790720751378532
0.002641514183252733
0.009497629595800671
0.004176748948226485
0.006420118809920599
0.0020938449935589153
0.001345009709436037
-0.005296620403926044
-0.0037183388107134897
-0.0022478578477055566
-0.00774526223405322
-0.006742303234973739
-0.002254453752287093
-0.0004560660590251092
-0.004087191395146469
-0.00019294297116397897
0.01096043396762387
0.0014127384982841713
-0.0025662627914173628
0.00127500779075743
-2.6312426324062327e-06
0.008798446359957248
0.003169733919239105
-0.0012209060928171454
0.006675539944325563
-0.005281042672734838
-0.006207418918537435
-0.005042800526554421
-0.00675528785309786
0.0006982134114929652
0.0032465276515565465
0.00013189147626559763
-0.0046249261177027864
0.007314833661752218
0.00462212958066865
-0.0019446164033800465
0.010230363708858766
0.0006181909580417633
-0.006722608448900615
-0.0041057987114527005
-0.006332719046210237
0.00591001510339684
0.0005759732073753514
-0.003732843961198102
0.0011840365361170616
-0.0019980571968844694
0.005512675229077236
0.0012267793951691865
0.005893967653616323
0.005544562268182342
-0.006292089128506333
0.0017801945432379695
-0.006857735433422781
-0.006298595973173948
-0.0020394157534168685
-0.0035209676376767767
-0.009552171659403391
-0.003745601729862904
0.007348831501560785
-0.003065451419737642
-0.0011586449792156735
0.009195954499413834
0.003003311215583216
-0.00404406473321613
0.0033983669347417353
0.006624751313634613
0.00315652965584015
-0.001880207459212034
0.00815811679313394
-0.0028531711613310113
-0.0004169887030363442
0.002647425109148064
-0.002766280220936897
-0.00046000477980634577
-4.705518796978627e-05
0.006083402450841436
-0.003161955628067243
-0.00660426896873207
0.002181114115723897
-2.7463693170087313e-05
-0.0011686025514297054
0.007339541684773053
0.0009573771269637025
-0.004630334262322746
-0.0031362743216423188
0.009697222123332598
0.004732620138304616
-0.0004527651387594736
0.0035436697992759707
-0.011177099880953263
-0.006607746586354697
0.002632045929710795
-0.0059227833499575075
0.003422852501719512
-0.006772394037727935
-0.0020242809786168584
-0.0010376354228872862
-0.001084393822197672
0.012754081903824347
0.005686447940926244
0.004285898843872694
-0.00067284614847232
0.002530013846075435
-0.0006895053799459482
0.0011756189684972405
-0.0002290002251034859
-0.00268438043079544
-0.002787838126631724
-0.004087089172106547
-0.002963403731655419
0.009831750980404829
-0.0030387689122222616
-0.008035071939508528
0.0029023994789545006
5.10110666891479e-05
0.005123642083551734
0.005928315942381535
0.003014430857183555
-0.004795218943025353
0.0005460423356708959
0.0037163057843406745
0.007303491048619782
0.002970583410669853
-0.0032107072686222812
-0.00979581384957072
-0.0028011118550158973
0.004969998539055802
-0.004201931476363361
0.003189129846365467
-0.000803368395693086
-0.005111546169187259
-0.004267036162771361
0.004144552211018124
0.015707287998857244
0.002318169066370449
0.005271711354693712
-0.0032627769075902957
-0.005707918555449821
-0.001959631848184347
-0.005672160264948625
-0.00014804345376468467
-0.007938884074435928
-0.0035056134446109057
0.0026265930958610274
0.0060685416178142505
0.00022770117698138706
0.004555845057365803
0.004154991125584535
0.006613270721635484
0.009423502166978095
0.006160274245516022
0.0019180454026322524
-0.0015899902628026153
-0.002746200914217288
-0.002830592468528857
0.003559377346207778
-0.00015194211212826107
0.004000038343470394
-0.0028758181934604
-0.01069397899126385
-0.004881093821191455
0.0016841905465266684
-0.002790679744642782
-0.005263372085256267
-0.0021824789932492353
0.0030488525110430164
0.004909894773354738
-0.0075960327544798345
0.005800878330111437
0.0019174301238058123
-0.00018758558585811502
0.002241738729814923
-0.01213232890707362
0.0026786667994010928
-0.00010474252645082467
0.0006313404305636017
0.0018409558749573525
0.0028068956837338076
0.00593174256359077
0.0038752339975178214
0.00015691640569943534
0.0009152531168975663
0.005734874910379913
-0.005560679795363521
-0.0031998026165302386
-0.0009963758528582025
-0.0027934138760232936
-0.002325529540707042
-0.0034638652303921147
-0.003329366032383736
-0.0036161882189635545
-0.0018770751530372512
-0.0016249072445048472
0.003911455614274828
0.002218863167233012
0.0005837199402098687
0.004130705449956084
-0.0006268013833327826
0.002020295440993045
0.00021676506859602567
-0.002263093069460311
0.006928430709140133
-0.0027434400057826467
-0.006649446188323374
-0.0012509042022623047
0.0012141374372345681
0.005844724237441535
0.0003065775595944507
0.006065320095039658
0.0038012188266544795
0.004490990791100831
0.00390325582674346
-0.006902432947840014
0.0038164473643344955
0.005149363587643871
-0.0007481819648253701
-0.004540266980777906
-0.0044128799374143915
