AAD_Filtered_TADAS_FILE
AAD_BASELINE_CORRECTION: BASELINE REMOVED
AAD_FILTER_TYPE: BUTTERWORTH
AAD_FILTER_ORDER: 1
AAD_LOW_CUT_FREQUENCY_HZ: 0.025
AAD_HIGH_CUT_FREQUENCY_HZ: 40.0
EVENT_NAME: 202302061024
EVENT_ID: 13207
EVENT_DATE_YYYYMMDD: 2023/02/06
EVENT_TIME_HHMMSS: 10:24:47.00000
EVENT_LATITUDE_DEGREE: 38.089
EVENT_LONGITUDE_DEGREE: 37.239
EVENT_DEPTH_KM: 7.0
HYPOCENTER_REFERENCE: AFAD
MAGNITUDE_W: 7.6
MAGNITUDE_W_REFERENCE: AFAD
MAGNITUDE_L: 
MAGNITUDE_L_REFERENCE: 
FOCAL_MECHANISM: 
NETWORK: TK
STATION_CODE: 4613
STATION_NAME: 
STATION_LATITUDE_DEGREE: 37.5701
STATION_LONGITUDE_DEGREE: 36.35737
STATION_ELEVATION_M: 965.0
LOCATION: Kahramanmaras_Elbistan_Turkiye
SENSOR_DEPTH_M: 
VS30_M/S: None
SITE_CLASSIFICATION_EC8: unknown
MORPHOLOGIC_CLASSIFICATION: 
EPICENTRAL_DISTANCE_KM: 96.56
EARTHQUAKE_BACKAZIMUTH_DEGREE: 
DATE_TIME_FIRST_SAMPLE_YYYYMMDD_HHMMSS: 2023/02/06 10:24:41.1832220
DATE_TIME_FIRST_SAMPLE_PRECISION: millisecond
SAMPLING_INTERVAL_S: 0.01
NDATA: 11251
DURATION_S: 
STREAM: HNN
UNITS: cm/s^2
INSTRUMENT: sensor = GMS+/GEOSIG | digitizer = 
INSTRUMENT_ANALOG/DIGITAL: 
INSTRUMENTAL_FREQUENCY_HZ: 
INSTRUMENTAL_DAMPING: 
FULL_SCALE_G: 
N_BIT_DIGITAL_CONVERTER: 
PGA_CM/S^2: 80.613
TIME_PGA_S: 
BASELINE_CORRECTION: BASELINE REMOVED
FILTER_TYPE: BUTTERWORTH
FILTER_ORDER: 
LOW_CUT_FREQUENCY_HZ: 
HIGH_CUT_FREQUENCY_HZ: 
LATE/NORMAL_TRIGGERED: 
DATABASE_VERSION: 
HEADER_FORMAT: DYNA 1.2
DATA_TYPE: Acceleration
PROCESSING: Automatic Paolucci et al., 2011
DATA_TIMESTAMP_YYYYMMDD_HHMMSS: 
DATA_LICENSE: U (unknown license)
DATA_CITATION: Turkish Accelerometric Archive v 1.0 - Disaster And Emergency Management Presidency, Earthquake Department
DATA_CREATOR: AFAD
ORIGINAL_DATA_MEDIATOR_CITATION: : AFAD - Disaster And Emergency Management Presidency
ORIGINAL_DATA_MEDIATOR: AFAD PROCESS SERVICE
ORIGINAL_DATA_CREATOR_CITATION: AFAD PROCESS SERVICE
ORIGINAL_DATA_CREATOR: network: TK
USER1: GuestUser
USER2: 
USER3: 
USER4: 
[...]
6.299875694296404
7.408565292373581
2.634396512452539
-0.5512608970381123
-0.7095988207123751
-2.091804783348372
-3.4722090361505975
-0.13450152604727178
3.5917545751304676
0.4417749697510289
-5.441698860042581
-8.622295188373823
-10.487910099637153
-12.615564921833686
-16.240386947618234
-20.383915957314354
-19.054715768703797
-10.598627978728162
-2.3278343648523814
1.5406720447659823
1.114696587368229
-5.514529124676039
-13.99742494851011
-15.007036893347774
-8.93502791885345
-5.066180594356764
-7.716791437060095
-10.077826853053233
-5.093861069315519
2.612070483246658
4.012840162425826
-0.8573354134901452
-5.914282059330792
-7.468714443977593
-3.5234085252854515
1.2879369283025823
-1.2188698978015795
-9.613487486646687
-17.031369509671315
-18.64239857601208
-18.27053788163145
-22.13497449953502
-24.448823287496392
-20.991114980873167
-16.85029092548623
-15.03601019742833
-14.359237139632233
-13.266074518713356
-11.498884100032905
-7.511905287772264
0.0386244591383933
6.716398906589157
7.504651856650679
5.939798772341869
6.7032905193321
8.249284564496882
7.816017290776761
3.523089711153505
-3.6064933925577227
-8.335952224977667
-6.5929363403448376
-2.0014216833495517
1.0575610963439075
3.6975550218079967
3.254814788106372
-3.0923390471931422
-12.000099853408624
-19.636310627113865
-22.95017423358032
-20.951131911524115
-16.978733306284564
-14.429168914879062
-10.710455629826688
-5.760967047362486
-8.139097749171311
-17.64804510594749
-23.28500427031251
-22.531615898856618
-20.601809583809708
-19.078306482411634
-16.480276591213993
-11.745245252643864
-6.138448631762548
-2.1771969879118416
-0.8883012515886717
-2.1063220223797168
-4.887062104339898
-9.242612552347087
-14.319200056356188
-15.342913056262764
-10.061370030218344
-2.5071408861844002
2.637287806479933
4.6628782942661955
5.311292753420893
6.738455808168605
10.143098201533611
12.673948289752321
12.509962375259462
11.729225977787449
9.83130650923982
6.807063875116414
5.103594550749523
5.019255664056985
6.937303871882827
10.242711510503007
12.33924287784604
13.02273296037926
12.748532600518349
10.05825017412739
6.134429046596254
5.794065971665111
8.824459155909581
10.28144780983325
10.009518893458967
12.01936471178574
14.739764362025829
12.218105636807667
6.673751132093087
2.7870622910453786
-0.44782122418315595
-2.3316545244902476
-1.919873234602122
-1.1185956033873103
-0.28961364760723257
1.204383596910815
1.4637803169562842
-0.6701266837071831
-2.426176110667975
-4.328876263043028
-7.971155367105816
-6.656671444182977
0.47455020214062305
3.30044843465221
0.6725078203493345
-0.9271876069979104
-0.697322456264025
-0.2600203931050515
1.334731550643753
1.616449774592934
-2.9530792148607166
-7.444352691970016
-6.726266625346343
-2.9598800072964417
0.12519451339526305
2.9533962796115354
6.439837649578758
5.969260456701059
1.8160696709727968
2.0332498510081254
7.944555103243624
15.736977692976064
24.12120422238205
30.772111160365874
34.72661665983049
36.847468816258385
32.96948293615449
20.36427702168019
4.123786915186094
-9.472443463114503
-15.82899296172324
-11.856697757393247
-0.1661308106738155
9.53790772110632
12.172529099001625
12.17836807530225
10.714651615320346
4.137401429868864
-7.15826373396406
-15.241187787332935
-14.840667338453773
-12.655398576153834
-15.272222726741239
-19.636942418411177
-20.34780223221725
-20.17436358607579
-21.649370272890973
-17.579174394608142
-5.348978478463965
9.384924876461868
22.62650034691702
32.5669805748672
35.604395578332024
28.062852651853238
13.157940286497364
0.3651016233672713
-1.5073171207705685
7.276442047306087
14.691261196699887
13.405462463261582
10.65318628544683
10.046090637315725
7.669637600197299
5.460514711323393
4.293456432032331
3.1527516462278693
6.2999607095580155
14.24951158659017
20.566661509816644
19.33667699137462
12.223949780329797
4.360076485647974
-2.5014572888470936
-5.9659752692508015
-7.759333539975967
-12.648205093729098
-16.82909460409714
-15.14427720541976
-9.658809817948033
-5.9741213008660035
-6.277441047023201
-6.963949996006507
-3.998462459515092
2.829014609128837
8.725969462741045
10.224342117500447
10.076691272549681
12.397806044567195
16.937762599116276
19.673006679694176
20.07818194536477
19.4924460232612
17.165817905141257
12.366400607941284
5.724419244855754
-0.3114162041329954
-2.284584513738146
3.627338655881505
12.175799750148451
11.355764267791557
1.5078967528705671
-6.264764913801934
-5.626938154747456
0.6670094398686499
9.13029648814751
16.041629677554035
15.580605556032443
9.885006226757408
4.985081511069162
1.6187662190447047
-0.6866927811153709
-1.7943044601134543
-3.182209161167203
-6.319169049609536
-8.018455768148506
-6.58784996378669
-7.485290830701183
-12.454223114536997
-17.837671985093603
-21.575862702579144
-21.307177850414554
-15.751949590510915
-9.638327085385017
-7.305114037382507
-5.8092099158551775
-4.257054862102565
-5.852546171757759
-9.758926225018593
-14.950240907580746
-21.831341877205798
-28.77965195713906
-33.06334981867623
-34.35963605894416
-34.98523042817322
-34.671350832142
-34.25737736306669
-34.17175069131487
-29.296858992875155
-20.086561986598905
-11.462245933027374
-3.980905584919399
3.4099175599713405
8.181000973844325
6.83513142347764
4.906837738922067
6.484790802699149
5.956183947011363
0.07127867862697496
-8.316665752826504
-13.713675727111985
-15.603552938919238
-16.309727097709256
-15.785957796604357
-14.522256772581624
-12.072119443320702
-9.540073559843481
-8.227372021676663
-8.393222380082628
-10.06649653441124
-10.867730994721613
-9.552994504556587
-5.207104184521605
-1.3907766199905292
-3.530024581958347
-7.744571188401392
-9.06451709073726
-9.383196035006463
-12.413390623815646
-15.284244653561341
-14.67291429025604
-15.19902253297481
-18.4373529565324
-21.23452073899047
-21.934829680138808
-21.217707306738298
-21.91141910106913
-23.935307183922713
-22.812703788147726
-15.4180551552981
-6.047829021437571
-0.9127012217507972
1.6965975117732477
3.971253997235479
3.556711691609012
3.9928521057603894
8.743048903736662
11.628078628191618
10.041296676535909
10.522901134756877
16.378759180564767
21.872258893885604
22.543026498293234
20.855522255901697
17.076643628257905
9.010272553625182
-3.045622842261259
-17.09820917926221
-26.340346785068988
-25.038145576076342
-20.980306936915618
-23.41891417434258
-29.036242989133758
-33.3411756528566
-35.59490072609546
-32.60531872876218
-24.21809775423249
-16.9627337562993
-14.623979177533405
-14.701399574542899
-14.503537017978946
-14.83526111517992
-18.421358660541085
-23.702701434464327
-26.298015418783592
-24.62156626625684
-18.362671120182767
-11.77091656937216
-11.758385905020122
-15.74472177686129
-16.20892838579104
-14.449835173339297
-15.961424672305109
-19.220136483400207
-18.99180452529599
-15.23374176396445
-11.739732745815068
-8.980465805750832
-6.231465918144501
-4.992065536524604
-4.637294306920474
-1.8527944920922388
4.748533898804906
11.49383497601812
13.664595175994409
10.379687643082525
5.661633339655908
5.015634654887624
5.077360748929961
2.296152177465052
4.136907750814468
8.965218140036917
7.560174777166745
5.139266058227797
9.340734598296624
16.453244713858954
20.58294906210463
23.142379705124814
27.55683909333771
33.515261370877205
38.73886218422862
37.55343769901081
30.195790955584567
26.14505734935786
27.58110518419412
27.800402722292283
25.824123572843096
27.40100230077402
32.84659615252439
33.289214198374324
28.748735741353766
29.44583680061999
32.413184066906766
33.72073287132284
34.97520067509439
34.419935880733995
36.052040695984935
41.24017870711469
46.4962607593455
47.26447273071635
43.16110187117361
38.05092760977521
28.4499131452866
17.630153896452057
13.53743281859477
13.269335872835338
10.462644127844948
7.6331691328845555
10.645165563547375
13.863164998940718
15.47634187822114
16.099990460108863
12.152819236189742
10.129732886483174
9.503391991954885
5.221969633026378
0.24778721782182722
-4.351927517359755
-6.338512542711908
-5.976072457018746
-4.954730977929098
-2.8574133751271003
-1.0577204907019628
1.326386809868194
3.6658890467802125
5.051084000394771
7.113839187684839
6.965174039023378
2.822066884955928
-0.11575720919898379
1.0779569482295683
3.499084464451544
5.128250920849945
3.6845306951414987
-3.2130415907380088
-11.823949231001986
-16.510672286003757
-16.495801999924105
-12.279479631342126
-3.536599338965021
5.260130287323523
7.887821421977299
3.768418515335659
-1.3869892090883986
-4.027134013122738
-4.7503063534464225
-3.0046303250095447
-2.3105092702173193
-4.066189299808479
-3.9188446146818285
0.07607634053338849
5.225548347349877
6.365831379730494
3.5828763770219796
1.3493601080536328
4.015971465091779
10.453495580671223
14.103251715936523
13.708392088450017
13.074360297980153
14.905075138275883
17.33177505713812
17.498329114281187
18.947483612050945
24.720242549110452
29.725429984975563
27.34851047431012
18.07519139679129
8.28389154686383
2.4896266299502443
1.8151430865586686
6.2974798348638155
17.09059202408124
28.75898557457381
29.759343060798336
24.32719055369157
21.23467482833962
18.422546470640533
15.086153670390026
11.635150210480727
12.290980068320247
19.507493279840492
28.098654354457768
33.408548130656975
34.08480088209609
35.61594677324937
37.891380862661755
37.7957536607826
39.69672129275706
42.63221741000157
45.076393921390014
46.76673579386324
44.89167075909857
40.98034953257502
41.22525301877691
48.47282600609344
55.60329363793761
57.67877906577524
55.32394421301812
47.10676580863633
35.66053524391464
25.211469630141366
14.236186316188226
1.2240700641666933
-10.204917065710438
-15.149965876371692
-13.371092585763643
-9.950492029487329
-9.24954052056031
-12.230553551936955
-15.951538186939988
-20.45340893366222
-30.65360882153807
-40.484068941093966
-45.622621900135044
-46.159530184617154
-41.33190133640747
-38.906574215970224
-30.875029158753275
-15.318759279842544
-4.316236222615237
4.6136650531182575
8.366450482018813
8.21356895156699
8.252070211587062
6.706599425135533
8.563690960150693
11.84138549749282
12.480674465780492
12.697349332806875
13.580643132683877
10.541156625158008
1.6859569571602295
-8.115323065110722
-14.990111569631559
-17.12393907905311
-16.84974125309461
-14.580183764940374
-9.905388301750406
-6.530463166615508
-9.90746510434189
-19.461687674947886
-23.871806664267922
-23.327884711613088
-25.545562092495587
-30.318347684031057
-38.27794009709409
-45.16411458160205
-47.48847674327469
-47.17688661217132
-41.07292283358208
-29.439013703235986
-17.164666359521526
-9.848192114731164
-7.040302806176603
2.0115923915600433
14.487164935340298
22.940421105039334
31.67473013406677
38.58055425082093
37.60102118135364
31.430749401570484
27.957300898087905
26.114533617063366
23.595979865639475
17.921002335944276
6.386196881512604
5.664314273013112
15.146211800996717
19.429572096496774
28.989585031038096
42.324891976988745
40.91633564888053
35.84984247072534
44.57112516266401
50.73686440395805
43.41488496981778
30.80034099523821
21.18871640859915
22.2769649985726
20.67247653933674
9.720186722232807
5.305481034262338
2.1532813599345983
-6.19562150362219
-7.549905786680594
-8.928822541932727
-9.508206164542697
1.2409373851176078
4.692388795590189
2.4207754600242706
3.047496731871107
-9.440285697984427
-31.043939291862277
-44.548235407514575
-37.44451656675165
-21.920655756191973
-16.785400414866523
-15.550447404900863
-28.92182781054113
-32.18148772648902
-5.436084067676201
-0.17175547113042947
-1.4043988610197173
15.138821078163476
24.076583149751308
29.967634836558606
37.403492054108156
36.49264866060012
35.95160641721446
40.7601205514437
8.395586327014552
-1.5767686204890305
47.4928798177672
28.01780867494736
-19.25447561723153
-19.448976396718944
-24.94001490762979
-36.75832100187174
-35.11747983650789
-8.945270403640698
-20.854198897759492
-55.029082389598514
-28.024856837464316
-11.679343439268637
-16.12910353001219
-9.998450657495642
-23.144632655981187
-26.835226570656953
-19.215638212905507
-26.181048604551098
-45.74276187345162
-52.19750689543106
-31.475570711766963
-22.494254463446378
-27.15696541928233
-8.951032624449473
18.959859639413946
19.200801302009832
6.695553634223264
11.527241615020275
20.732308223247284
24.582834718261964
22.112272595011984
18.498017129605138
17.58924950480886
16.580567721416138
22.106606022458987
28.00191962029191
34.53936205764651
41.41994675283964
40.0867837475637
26.528159008659625
10.194600704032467
16.691697870665383
31.479935904329153
29.113299091500856
26.613437689803195
36.90517658451353
36.892451465566026
22.283915623849563
18.225533871972377
28.1282475371544
23.252984938633176
0.9821120006613727
36.751537034977034
79.9806371827035
28.943578874454982
5.957207673823539
41.16289840276468
22.253810992677955
-9.445042945289558
11.264426488971166
38.37682223956058
13.970855993538423
-10.23427796318391
15.660809948670448
25.084193586155425
-3.1843209953581604
-2.9288615178718174
20.852218063518723
5.5927230244897235
-6.806512669801917
18.34579612169013
10.13708574995348
-13.053617068025165
2.8790164680323107
16.702223864503456
-5.531713352301228
-31.070465676325078
-25.67987039897516
-23.223483896815836
-35.708127452926696
-35.06660459347231
-26.28868259064999
-3.214524733326876
21.550719526803416
12.449690571211175
-13.744498877915852
-22.40583966002521
-8.553824426410255
4.998292208062429
1.2763017427566743
0.6565278688075524
14.947754235215077
29.53729786133639
27.279639536660493
9.468330771751226
8.757422185191913
22.02401580343748
20.210252069005808
17.29711589547668
21.146586941212263
21.7091552979653
15.789449100207872
3.1244860624953676
3.9210423118217923
15.770043326117385
25.265421441061967
32.61155664458779
24.779876806213352
19.755320048208006
23.417737167197075
16.12332619352814
5.254874121036523
-6.010212523430751
-19.594242614997903
-30.716352858118547
-25.761867140795843
-9.153725501618034
0.4455846732234974
3.6048881014979046
-0.575243377469396
-4.63299028969699
-1.3001881675359248
-5.217564355930835
-15.744841200214779
-17.110810544977667
-16.67263043879789
-19.728918449339925
-13.202500648694507
-0.13466077379314795
10.208130749728285
15.076423949198709
14.097013341424605
9.803016389206919
8.056121970538289
8.171053510451697
6.975643721569066
13.916299512465159
16.336423086061597
17.607486110293923
30.772754094840856
28.056545775836486
13.614088123501093
3.3974465330034302
-5.218066933462156
-13.251538017646574
-20.32815754623352
-16.74452710319543
-7.250599927684601
3.774426777406151
9.310099213955771
6.164163435698798
4.2266817412267335
3.5623780272844208
5.797630100893897
4.035685239037752
-1.1116600488883852
-3.881951646339795
-7.2615971232123355
-6.0803877044344095
-2.8731570230426975
0.7335433775305521
2.5483378090304556
-3.0743871548319937
-3.0084140701013773
7.248031521786273
13.133601642638835
16.19793606053595
17.298470407318963
13.571489300447007
14.069174884900569
7.675271995209093
-7.135781156414455
-14.763012100890142
-15.874807842446087
-15.223576445031695
-25.84205968476085
-38.39416266125361
-35.33861024502223
-31.793549532380048
-36.30363364241389
-41.65580705859575
-39.70679923175834
-34.298828622888216
-29.722198455956747
-27.76769750314561
-38.65065581111231
-43.96975596947391
-33.695649323088645
-27.627378619818167
-24.61988542664218
-15.356064646055172
-2.5054593151523075
-1.5351065196735076
-10.885274620278121
-13.32631700848013
-11.621710986980835
-7.082791433392082
-5.981780352541192
-13.603476385340018
-17.509378258242812
-16.06016188564812
-15.410048797056653
-21.238876950201288
-31.715627695227017
-35.53507903802812
-30.385503237967324
-24.780154518337493
-21.79753662788534
-23.963092022390526
-34.391808662683914
-33.916037428716834
-18.458056802750953
-5.327075965877261
1.953243442659832
-1.1110121760289247
-8.606178047215694
-12.060616684145856
-13.251357919744343
-11.209154207487387
-12.901389977656496
-18.89733513910313
-21.812884007386096
-22.142822060441457
-17.430929594748218
-10.48866590541624
-12.967093647080143
-20.710715780490084
-18.481818002394448
-6.1372084291772335
1.5992039975547985
-1.1894657590532371
-4.447801492002977
-1.1238270905676224
3.785612300218799
2.2259993016273687
-4.268053194376342
-7.32372695496989
-7.5254421024108265
-12.161911194761366
-18.941080005162704
-20.83887783542646
-18.806683859910763
-18.985345727606614
-20.55155840337362
-14.357140458709518
-6.105442057238801
-3.392106112465402
-3.2922141054866456
-7.328734003127418
-6.211654882540177
2.822094751102914
3.5865146829940886
-4.117697422193412
-3.831689972012123
5.803815318826344
8.16199020974691
-0.14762947068685453
-4.0081338198254315
1.6632501237957862
4.51963249202794
4.247253737070796
7.357061059142957
9.205464909157978
9.717502745011522
7.643253998150139
6.794506376733683
9.709577676246157
6.379225241260041
-1.233887734347163
-6.717241290719777
-3.704538133124207
1.905976963934891
-4.918177677195646
-11.242507499497458
-5.545216229633351
-0.6540593778251452
-5.711663040631201
-11.565823470393125
-9.787889426056223
-8.37677328392079
-7.6339933824516955
-5.915136734510585
-7.896731348783498
-7.256275422300809
-4.012849402043007
-4.98360407766345
-7.945175394106776
-10.195333360710242
-17.04137640141784
-28.991095916958724
-36.689848836688725
-41.42998608794218
-44.06569909373771
-39.51080907476609
-31.576803547380326
-24.977361233133497
-21.397479448442937
-16.91751662325404
-11.17344243329959
-11.531246878564025
-16.51597370288389
-16.668325076040613
-9.053882993412246
-2.4505323343359526
-1.5521437493869288
-2.0646784697631
-0.8752922946140144
2.759824894533911
4.084534951883025
2.633731559112527
6.228487234109409
12.307318039093241
10.097562112073668
3.2873080060677826
4.725649158540109
9.877320291826562
10.137277817448394
8.838771519508924
5.95762263623753
0.8125473219953221
-2.557531310067386
-1.421920921764203
-0.6977684604742873
-4.606854271811355
-7.360596693666434
-9.946680172467461
-13.742241968438565
-12.423899058163947
-6.924461917087905
-0.43208665231952037
3.8937117115747166
2.7864148545799496
-1.333443580353524
-3.1924600278442545
0.9665815447417313
8.448321283760752
14.548649025816395
