AAD_Filtered_TADAS_FILE
AAD_BASELINE_CORRECTION: BASELINE REMOVED
AAD_FILTER_TYPE: BUTTERWORTH
AAD_FILTER_ORDER: 1
AAD_LOW_CUT_FREQUENCY_HZ: 0.025
AAD_HIGH_CUT_FREQUENCY_HZ: 40.0
EVENT_NAME: 202302061024
EVENT_ID: 13207
EVENT_DATE_YYYYMMDD: 2023/02/06
EVENT_TIME_HHMMSS: 10:24:47.00000
EVENT_LATITUDE_DEGREE: 38.089
EVENT_LONGITUDE_DEGREE: 37.239
EVENT_DEPTH_KM: 7.0
HYPOCENTER_REFERENCE: AFAD
MAGNITUDE_W: 7.6
MAGNITUDE_W_REFERENCE: AFAD
MAGNITUDE_L: 
MAGNITUDE_L_REFERENCE: 
FOCAL_MECHANISM: 
NETWORK: TK
STATION_CODE: 8002
STATION_NAME: 
STATION_LATITUDE_DEGREE: 37.19156
STATION_LONGITUDE_DEGREE: 36.56195
STATION_ELEVATION_M: 593.0
LOCATION: Kahramanmaras_Elbistan_Turkiye
SENSOR_DEPTH_M: 
VS30_M/S: 430
SITE_CLASSIFICATION_EC8: unknown
MORPHOLOGIC_CLASSIFICATION: 
EPICENTRAL_DISTANCE_KM: 116.24
EARTHQUAKE_BACKAZIMUTH_DEGREE: 
DATE_TIME_FIRST_SAMPLE_YYYYMMDD_HHMMSS: 2023/02/06 10:24:47.0665590
DATE_TIME_FIRST_SAMPLE_PRECISION: millisecond
SAMPLING_INTERVAL_S: 0.01
NDATA: 12501
DURATION_S: 
STREAM: HNN
UNITS: cm/s^2
INSTRUMENT: sensor = CMG-5T/GURALP | digitizer = 
INSTRUMENT_ANALOG/DIGITAL: 
INSTRUMENTAL_FREQUENCY_HZ: 
INSTRUMENTAL_DAMPING: 
FULL_SCALE_G: 
N_BIT_DIGITAL_CONVERTER: 
PGA_CM/S^2: 65.874
TIME_PGA_S: 
BASELINE_CORRECTION: BASELINE REMOVED
FILTER_TYPE: BUTTERWORTH
FILTER_ORDER: 
LOW_CUT_FREQUENCY_HZ: 
HIGH_CUT_FREQUENCY_HZ: 
LATE/NORMAL_TRIGGERED: 
DATABASE_VERSION: 
HEADER_FORMAT: DYNA 1.2
DATA_TYPE: Acceleration
PROCESSING: Automatic Paolucci et al., 2011
DATA_TIMESTAMP_YYYYMMDD_HHMMSS: 
DATA_LICENSE: U (unknown license)
DATA_CITATION: Turkish Accelerometric Archive v 1.0 - Disaster And Emergency Management Presidency, Earthquake Department
DATA_CREATOR: AFAD
ORIGINAL_DATA_MEDIATOR_CITATION: : AFAD - Disaster And Emergency Management Presidency
ORIGINAL_DATA_MEDIATOR: AFAD PROCESS SERVICE
ORIGINAL_DATA_CREATOR_CITATION: AFAD PROCESS SERVICE
ORIGINAL_DATA_CREATOR: network: TK
USER1: GuestUser
USER2: 
USER3: 
USER4: 
[...]
14.569727572203123
10.23952903309819
4.744412917802139
0.7130750421648732
1.2516137082391279
6.200769406919494
12.135975413228651
16.6410582410226
20.207258189284225
22.291256475194917
20.977698627426456
16.956716722985128
12.687890314838999
8.854496208579532
5.114176890672685
1.1469845722760197
-4.271005104211365
-9.396739873551843
-12.054818566756728
-12.569693012736657
-11.300335739716811
-8.833162616627396
-5.795921356784649
-2.0111488406197946
1.4982119546892516
1.6255341538872061
-1.6750590288799911
-5.398734366964224
-6.856922537370697
-5.41145309268866
-3.733815624488466
-3.6731831639771206
-4.574698876351069
-5.365149686770079
-3.915519786775641
1.4959908924917809
10.000940745038141
18.383692346400196
22.772034971592447
22.71208998601928
18.377132870833904
12.02996498061127
4.760226293894495
-2.303012988306713
-4.574854968284569
-4.993724109909493
-4.624201760103598
-1.7556762410887246
3.12134396204381
7.956143792329497
7.8428031766377355
1.6674987238830132
-6.196257432591815
-9.898734358217885
-10.297986745366002
-12.359792161790518
-19.7860698209507
-31.237308070573917
-39.299025280207594
-40.52319263973835
-36.280903085306875
-27.990359562178973
-19.498356734444695
-13.687199439171714
-9.555201976715445
-5.0681855610154525
0.20916753204535085
5.17091078263881
8.780993306011753
11.30212459177818
14.8856837328674
17.930158801936365
17.8946796097457
16.816932829554563
16.3457639026332
16.47240211758662
16.381017161077917
15.182577543332478
14.261790300828347
13.727259300279124
12.287202994568174
11.298523484127447
11.487069142724863
10.619317490712572
7.855682287304088
3.9510054548969977
1.0490639759903544
1.4956588347903919
3.3370088865668786
4.793300752855369
6.6566037113284535
8.697852207225715
10.401702639064778
12.08823324237574
14.223523665192891
17.39545620790108
20.38138334385681
21.33483284826003
21.249026803537294
19.707622501294484
15.842633823312042
11.10966885773775
4.881186526651372
-2.0742982137985218
-7.769400322119314
-11.955416430193132
-15.21060169438082
-18.221065392927695
-20.220529841501573
-19.86924064715169
-17.016535870580228
-14.567045672991979
-15.19285751056591
-18.189970852239245
-22.322435578876984
-29.0616724971221
-39.12620983472554
-49.75777707496154
-56.95537371021787
-58.83196271396022
-57.21955180570377
-54.90924333714159
-52.48581849884292
-47.28419186025866
-37.713902907375164
-26.065674382933278
-15.656838097467908
-8.02521068499755
-1.7935494510807717
3.4580520436851185
7.175605530841691
10.699502296439976
14.868347587377368
19.852940771017614
25.27277813414408
30.98488312616771
37.63902245269433
44.1368490573681
47.56511163953958
45.80046286556627
38.34619892867941
29.103208705666486
22.416266542150943
18.80918452244707
19.193332623486423
22.00624081150064
24.617507522340162
25.654759226885478
22.806536700701372
15.80226257161729
6.496866868306308
-1.0758694114759246
-3.0463699979866417
0.5060633841641397
8.267834760787604
16.67259814751472
21.806011134285125
21.892129907120847
18.059514648643088
14.149943804033011
10.642658005235983
7.798641759041
7.29013340970067
8.860937548718887
11.1655609681712
12.212630889708956
12.812858755205154
15.736669636583686
19.976530229260714
22.968078703620208
23.283727046441722
19.970302197503468
12.883570319337096
4.14000243101319
-2.883820157828022
-5.80479586981525
-5.872202569171111
-6.35991092199313
-6.980934008742663
-6.716890510356787
-4.901059241384069
-2.962168826836984
-2.546410562830792
-2.1915442681797055
-1.1902716075333826
0.44629016490337675
1.790891194782648
2.752198056358572
5.214592787511844
7.676314016743577
8.017042958755763
7.667567596090785
7.525949754238518
6.887020992573611
4.278502146410949
0.7461900732803228
-1.725961597731437
-3.6820264276664334
-6.577431387367084
-9.76318763649402
-11.668734783915973
-12.741437804565003
-12.879876576018638
-12.607794973976494
-12.548432602477403
-13.485237414645411
-16.349048732688612
-19.353487569725882
-20.64958354500164
-19.289784030819142
-16.490582706009
-14.578933257382737
-12.4582754954576
-10.109705624302004
-9.48418103468017
-9.893743501778543
-9.208844691938502
-5.313295039330042
0.4465011086506466
4.925001016392917
7.154778135105048
7.454183260367204
8.061762538237526
10.277764680674103
13.386565383201885
15.607046711287348
13.778481502479774
8.323308375586334
1.8692019932799755
-4.44788181979601
-10.509996144833503
-15.320803443331778
-15.02230718207448
-8.411399768708176
0.924285215205272
7.778250698752449
9.676662034304911
7.841786623755358
4.942305112839458
2.570046774711722
0.1454546698372841
-1.8056635769997804
-3.3367030164442504
-5.377488224989465
-8.29339995840697
-13.360313171385414
-19.033327891441477
-22.150500328464716
-22.82379872371926
-23.028455808409625
-22.783275118024086
-21.096356917614763
-19.22987335548509
-16.9908305259737
-14.782969748655928
-13.844564093393371
-14.128921032123056
-16.128496473208795
-18.754081426287172
-20.808297145820845
-19.956636042041694
-13.362867557261476
-2.4947472037232883
7.698461250494286
11.550293808557965
9.382570202404082
6.039748253342996
3.255150899426377
1.3979450291149726
-0.3971824312046926
-1.1877595614060203
2.4112660441318203
10.626601005538154
19.448516312227753
25.02110156577079
28.079655072847007
30.090163830770983
30.554509590489484
29.43984686521802
27.397797581403648
25.804540075290273
25.236652168267543
24.376794012996193
23.913539010254254
23.81633433708479
22.129731802217766
19.09095986259374
15.967150622575648
13.87053815468177
13.572728222892618
13.265787120593547
10.135276587952474
5.613933857387982
2.04840914495109
0.6885885274638315
0.8867757339912558
0.8347155926636964
1.7542060125586143
4.960291458232658
11.38912759292041
19.413326824273604
25.190254053774
27.687539745180775
27.349543415770597
25.09289045948986
22.293490320625917
18.218415381083982
13.501079845400586
11.003243859204545
10.125052264791293
9.615306631120614
8.55487895011258
6.146589404790112
2.8994963130733247
0.412414396315106
-0.9160971843218636
-3.3615790373079446
-7.455358689734986
-13.527791408810081
-20.26109274372263
-24.915729459078207
-27.060554666993465
-25.959588932019418
-20.41875207824981
-9.693455912558886
3.328083599249611
13.951803438983676
20.40189769573701
21.763513946142055
19.24819204101316
15.347439572728534
10.025826926628666
3.547989855707581
-3.5091961206640203
-9.348459597615804
-11.566259649642364
-10.987341599448715
-9.140434049268341
-7.361191267153793
-5.458616344665846
-2.139890386614152
0.8578774964178383
1.9969635796297094
2.405825715828585
3.4011289996923346
5.64943468743023
7.166093341170719
6.18777291943804
3.498907463913039
0.8508698480912759
-0.0148148144340901
1.2982255403662222
3.7939343085801425
6.27564954289785
8.235929372906085
9.706886646802351
11.138339646213392
11.322248051630918
9.540032756934938
5.929637230089521
1.9164261776191904
-0.9588308436653967
-3.267721247249591
-6.1369217908366585
-10.927751357448809
-16.871273625104756
-23.010700572826398
-27.38307627524396
-27.83896828701887
-25.564172158141734
-22.115697927569595
-17.742306040233053
-12.521803973296382
-7.609243642510249
-4.4100287812254875
-3.397541368013462
-4.421841723813851
-6.633120453588646
-10.353872906254221
-15.094786757286602
-17.96389590821932
-19.126677407571858
-20.36960161596213
-21.729100310386396
-22.262537989311888
-21.419135708950094
-20.445558795812786
-20.312791601269065
-20.317267591361542
-20.10561099719197
-19.6511933395436
-19.003117547236634
-17.16221558639255
-12.571679384813308
-6.80816930722869
-2.677702094881685
-1.2275738346227407
-1.8339789976771181
-3.204147464079498
-3.0817745353334627
0.4182113295216431
5.687127720652789
10.288184969542582
13.494883903638879
15.926777401312885
19.065347086256132
22.151039528822277
23.9811935956366
23.824348341275375
21.0569995998724
16.83073783000837
12.685986752890535
10.60288768889062
10.089885434894445
10.768675560274529
13.064028931167124
14.926403750909502
15.178632976470839
11.937708181630281
5.613013984146947
-0.7830096225387428
-5.318703727606001
-6.013565806877906
-3.338494985286761
2.0907520804061797
8.17357119304402
10.984926977610323
9.150747249727054
3.290033388137251
-4.353643669994949
-11.21693876552934
-15.517463728626959
-17.194463995491642
-17.293041309272702
-17.87635558329232
-19.363025010235667
-19.07029760750891
-14.973216138027462
-8.332063910716197
-2.164039705689908
0.6960973275334053
-0.2848800023628293
-3.316373251844455
-7.982894504389533
-12.862151711419521
-16.607525238865303
-18.21155472985038
-16.343272402742105
-11.059888386688517
-3.8256748850022655
4.080329198934582
12.702035137129396
20.728954217094508
27.116244585779288
29.822424881884533
27.612703077081168
20.697374462663404
10.11274580486231
1.3522782719074335
-3.274897215331426
-6.833141596932365
-11.131734620618865
-16.092766284370953
-20.299273639472624
-22.271130490684218
-23.11194118169884
-24.082932142048637
-25.551114641187926
-27.47358085460885
-29.36802481299204
-31.00439349913943
-31.02281922868067
-29.43691579772742
-27.552009963436486
-25.321048905224682
-21.855822905144656
-16.45686504589162
-10.189392487355043
-5.298022581582886
-1.4805376140030866
2.331717873573016
5.044978967721931
5.653843510593614
4.057355568540885
1.3950069020220528
-0.4535308035645813
-1.203574891969758
-1.275537374688184
0.9103151271104648
5.3383852658573
9.76104484216555
13.427782127915583
16.94615436719158
20.626431306139857
23.522776912088187
24.775553298172987
23.88945189180908
22.392285368531116
21.465432387059195
20.969628214866503
23.012871947378443
26.709103158069798
30.03301425454416
32.81265257752819
34.091176648051146
34.87076452564239
35.50106904530321
35.35926528827988
35.21802730083862
34.32108067421407
31.317069954510906
25.883358379140805
17.95598217491073
8.088722247488567
-4.624488972479424
-20.314217192962456
-36.00975168376937
-49.02719917570891
-56.00206158544367
-56.18859265660622
-52.53991599070363
-45.95850607568022
-37.13132547843802
-28.893156375793772
-22.812685636981268
-18.93714215672073
-16.123624684408327
-11.964206558439644
-6.382168016066742
0.7046837053985692
7.516316933533017
10.1094217749364
8.909793391166778
6.316854314022431
5.095789311847555
5.836815510614524
7.530676707672199
10.628550707178215
15.069766169830595
20.92241543410414
26.66278159821497
28.965015037180326
25.600875220485165
18.290192595537334
11.747123252309601
9.102754226343185
10.919059897216231
15.764513799981176
21.682745581554517
26.814464204314056
30.647311395692725
34.632094679814436
38.83440828209276
41.122609384535544
39.878765818433244
33.675743923762965
22.059852847011456
7.372647603680975
-6.118560332377081
-14.56901508858222
-17.934140684405925
-18.710714269049863
-19.11301384467131
-20.259038346089234
-23.201334364279372
-29.128434176739788
-37.121064365622104
-45.76341831061935
-53.839051208970645
-58.48935891531848
-58.931120024851616
-57.56754413390737
-56.11563689784137
-54.41068660811104
-51.70612587026047
-48.091797609727095
-44.13501466948082
-41.0236667098021
-39.10221004042581
-38.000465930100994
-37.00643982279405
-35.2214931914905
-32.650611790308986
-27.67689053348427
-19.65766502612987
-10.958316101667833
-3.764405943484501
1.302750102399534
4.64074661875149
6.335873974992867
6.746469611402085
6.516242052702148
6.404177412072719
8.161035923488326
10.323296492022783
9.519794191817027
6.219734168473101
2.739238608378446
1.3851292887736182
3.281278507115914
7.454854786622992
11.94376411991181
16.407294452109536
21.574771782222626
27.386153904206544
32.102685574744086
33.48391071773095
31.42915843018018
26.855409023310987
22.148276345522657
18.647972333020356
16.0750338097033
15.265801139289296
16.120791031713136
18.29281543024266
20.322530133700997
17.947207782057134
10.257721520285699
-0.15054415410957817
-10.44414976880578
-16.511117012427746
-17.656709693023327
-16.73796872065688
-16.330795937560936
-16.53909942969188
-14.930443123247827
-10.433464084604365
-4.307365485701825
0.4320378980839384
2.214033191967313
3.553769018597713
7.655063945092691
13.250889764401899
18.369395304972652
22.797508221452006
25.879063668315002
27.364204605026874
26.542918033657177
24.501798169626262
23.835218312403477
25.7840558543945
29.553168865369923
34.08026025738558
39.00024859527581
43.1437891832099
44.23233853618011
39.507228949973985
29.796972863022045
19.142666984690624
10.583218679012983
2.898274699385287
-8.413016124253325
-23.507465233652763
-38.26889769056204
-49.04527251957762
-54.318053558965026
-55.01009740482164
-52.56735421918124
-48.63888911788838
-44.4427062886017
-41.39800185368584
-40.863447454347444
-42.39793848801723
-45.893954129458805
-50.63229499502567
-56.086199591319925
-61.86561634456415
-65.24108557393733
-63.16163434741489
-52.81439441072893
-33.987550289078364
-11.522163016073712
7.369512698849255
17.300490596293383
16.84564004533385
9.653458670653949
0.44921267227897976
-8.689394618921494
-16.985388662463578
-21.7558946900007
-18.968907700884596
-8.822168057995999
4.8789749024827636
16.763502745732225
24.495696560943315
28.29688313437802
28.58649721501102
27.58545148875615
25.21320013337818
22.487430421741717
20.81830584255418
20.551160420074666
23.300587730822382
27.624912396611087
31.569278897323017
34.464482751705916
36.15240324691173
36.849402694469646
37.30497096350264
38.21224347359789
40.13606043987731
44.05928523649241
47.76845578175639
47.16750225043893
39.97184001842114
27.86667111275743
14.356316554237788
0.8788952923727811
-10.987426009117145
-19.49335308549165
-24.89059994041528
-28.575477170618502
-31.398157435128716
-31.785369079102516
-29.10850603118191
-24.994672899983883
-20.016455439135964
-14.783495644510165
-9.651352331653987
-4.3505603373556125
0.14815551769118201
3.5150898912524378
5.527940105895137
6.311475068487443
7.171049801971304
7.784963861943009
7.001384116929953
3.1378510188481865
-3.272040821878432
-9.182185850777595
-11.638079500562398
-10.369617826329554
-8.891143117954618
-10.26090096691977
-14.490355921513155
-19.31334453475537
-22.989302968515027
-25.128610962186446
-25.635661487836373
-24.218514694822243
-23.190609332180827
-24.2881240485166
-25.52978316243376
-25.03381210504635
-21.727808748607206
-15.791940151243562
-8.704336286254547
-2.108834028945806
3.4551550917500546
7.2715265318481
8.638900416746313
7.759954878728031
4.683273726339895
-0.023197602550330987
-6.763088465291762
-16.071437197809956
-25.898523351404954
-32.42566434422849
-34.33918692634018
-33.712808232485855
-32.22669619933221
-29.511181403439608
-25.07233107396759
-20.58898322767801
-17.72912105219584
-17.515042408032805
-20.48154134288899
-25.4177215523347
-28.489051356540628
-27.782289665996814
-25.580936844719023
-23.250573560491222
-20.90812938236531
-16.862570046509617
-10.880775411878219
-4.915584321437502
0.027885012971649165
3.521160074695009
7.085744257768165
11.701780841769914
17.095277945869345
21.62769067718668
22.889325084905614
19.808261182219766
12.869220832629704
4.6120207421478865
-1.9654893793291137
-5.942517530788159
-7.081697405928702
-6.069302856841178
-4.522808784428617
-1.7651370271126319
3.942000536890795
13.083213961074037
22.797901582277003
30.488556728750314
35.235151528339365
36.660800013133766
34.72816566244621
30.802664708340085
27.665645327174
26.81108262088078
28.457702339478978
31.17020649881768
33.13661368260723
33.47220169562236
32.97990479731601
31.761140252013995
29.544554116749005
26.72368403066367
23.312588944823812
19.93858398341572
16.752759045110583
12.556375233206785
7.893821483491778
3.3810426682523413
-0.5012584491527898
-4.147250904665693
-8.958859324570879
-13.822301832555501
-17.48881184952961
-18.52497595702486
-16.557278832247995
-12.497172029055871
-8.811735684549465
-7.535864295140803
-7.590022996872724
-6.458016300057944
-4.612579587589667
-4.518652613857847
-5.7296434506028815
-7.14007989798214
-8.137489050104827
-8.843780523574544
-9.861917815065345
-10.621662021693451
-10.662822569062762
-10.832207375923593
-10.514727414974644
-8.573339242133954
-4.7310604858575465
0.9766724828918408
5.969494798003852
7.4648186973507435
6.52217080788527
6.015684159946906
8.162685040489167
12.551954095532727
17.538686286581505
22.404792909767995
25.628592717096346
25.680591201502022
21.397505484118287
14.270737814676417
8.490198684483692
5.574752578531419
4.603137312797731
3.7646470595392385
1.2579223736228675
-2.69226330137495
-7.58074782289821
-13.239290713723285
-18.699428771042403
-23.273573114787474
-25.97099965258047
-26.04708285115304
-25.36842970846858
-25.89572309436975
-27.26398313426615
-27.50468208096146
-25.774368349461287
-21.985388185766467
-16.540371755589195
-10.571287112102613
-5.472190713304246
-2.5780920586002725
-0.4188505632033183
1.6605328960655847
3.8895412952024593
7.3945579128293195
11.963325937614371
17.248332338406016
22.042399913372886
25.529686301799366
28.579216370577257
30.980109391660154
30.745737039068832
27.564550492077217
24.550761231288565
23.47118305697025
22.86295888386762
21.2713573512463
18.173071025001477
15.869845050560482
16.55790267986518
19.46954260917077
23.992310977731456
28.733926456780008
31.073926620326883
28.700664331494632
20.79198161773877
9.399111089693228
-2.159362562595779
-10.84347530693587
-16.138696931733755
-17.671250215792202
-16.03278529773004
-14.969698459901544
-15.356162853158477
-17.276554782551397
-20.821202622366577
-24.421246086162167
-26.926245027433207
-28.64323516777435
-29.37090240987437
-28.85039182150911
-27.531413465352216
-24.33827087695736
-19.22577552647129
-13.153326488287465
-7.598098894879897
-3.0787659493820594
-0.8548012172878565
-2.0754607486209773
-5.498054887353153
-10.342293588550056
-16.22718339753411
-21.934618868319326
-24.889591972959696
-23.126002169949235
-15.008423652718763
-2.600080395360457
8.614758533644189
16.411096921004837
20.325534144901276
21.58798504336197
22.561403559596304
23.619690206568453
25.28003254727718
26.17592061223635
26.879034176479813
27.70144460409277
26.111943682154564
21.66311949035241
14.084807845640082
6.520486608355666
1.7968653393145921
0.05144680513087653
-0.5210389565199638
-2.3567001315333975
-5.577218897187642
-9.480348618221944
