AAD_Filtered_TADAS_FILE
AAD_BASELINE_CORRECTION: BASELINE REMOVED
AAD_FILTER_TYPE: BUTTERWORTH
AAD_FILTER_ORDER: 1
AAD_LOW_CUT_FREQUENCY_HZ: 0.025
AAD_HIGH_CUT_FREQUENCY_HZ: 40.0
EVENT_NAME: 202302060117
EVENT_ID: 13194
EVENT_DATE_YYYYMMDD: 2023/02/06
EVENT_TIME_HHMMSS: 01:17:32.00000
EVENT_LATITUDE_DEGREE: 37.288
EVENT_LONGITUDE_DEGREE: 37.043
EVENT_DEPTH_KM: 8.6
HYPOCENTER_REFERENCE: AFAD
MAGNITUDE_W: 7.7
MAGNITUDE_W_REFERENCE: AFAD
MAGNITUDE_L: 
MAGNITUDE_L_REFERENCE: 
FOCAL_MECHANISM: 
NETWORK: TK
STATION_CODE: 6306
STATION_NAME: 
STATION_LATITUDE_DEGREE: 36.727695
STATION_LONGITUDE_DEGREE: 38.947
STATION_ELEVATION_M: 362.0
LOCATION: Kahramanmaras_Pazarck_Turkiye
SENSOR_DEPTH_M: 
VS30_M/S: None
SITE_CLASSIFICATION_EC8: unknown
MORPHOLOGIC_CLASSIFICATION: 
EPICENTRAL_DISTANCE_KM: 180.18
EARTHQUAKE_BACKAZIMUTH_DEGREE: 
DATE_TIME_FIRST_SAMPLE_YYYYMMDD_HHMMSS: 2023/02/06 01:17:43.0781870
DATE_TIME_FIRST_SAMPLE_PRECISION: millisecond
SAMPLING_INTERVAL_S: 0.005
NDATA: 27001
DURATION_S: 
STREAM: HNE
UNITS: cm/s^2
INSTRUMENT: sensor = GEO-A200,/GEObit | digitizer = 
INSTRUMENT_ANALOG/DIGITAL: 
INSTRUMENTAL_FREQUENCY_HZ: 
INSTRUMENTAL_DAMPING: 
FULL_SCALE_G: 
N_BIT_DIGITAL_CONVERTER: 
PGA_CM/S^2: 55.989
TIME_PGA_S: 
BASELINE_CORRECTION: BASELINE REMOVED
FILTER_TYPE: BUTTERWORTH
FILTER_ORDER: 
LOW_CUT_FREQUENCY_HZ: 
HIGH_CUT_FREQUENCY_HZ: 
LATE/NORMAL_TRIGGERED: 
DATABASE_VERSION: 
HEADER_FORMAT: DYNA 1.2
DATA_TYPE: Acceleration
PROCESSING: Automatic Paolucci et al., 2011
DATA_TIMESTAMP_YYYYMMDD_HHMMSS: 
DATA_LICENSE: U (unknown license)
DATA_CITATION: Turkish Accelerometric Archive v 1.0 - Disaster And Emergency Management Presidency, Earthquake Department
DATA_CREATOR: AFAD
ORIGINAL_DATA_MEDIATOR_CITATION: : AFAD - Disaster And Emergency Management Presidency
ORIGINAL_DATA_MEDIATOR: AFAD PROCESS SERVICE
ORIGINAL_DATA_CREATOR_CITATION: AFAD PROCESS SERVICE
ORIGINAL_DATA_CREATOR: network: TK
USER1: GuestUser
USER2: 
USER3: 
USER4: 
[...]
16.011075881336783
15.392887883592792
15.392700334092996
15.58945254285812
15.6907359780526
15.530829809631403
15.313064922525529
15.434027835362864
15.962560074707783
16.746025264590628
17.439363124671914
17.555406800609653
16.90769643279018
16.244888121678805
16.13148581495671
16.43697496241225
17.127473926046626
17.837886348869304
18.37241677161299
18.755761667306565
18.645269353902034
17.914143282678
16.324518166819512
13.259470683990692
8.480263855954652
2.6674406409986395
-2.396621578093682
-4.690959554210471
-3.7828154641210516
-1.2443882678821048
0.7563876062138188
1.0427702423033882
-0.31617084659888434
-3.0034515686583356
-6.519947141363204
-10.292540455736845
-14.018291380350824
-17.587147647622956
-21.24118152132272
-24.922966311023455
-28.13586504441592
-30.338046781861795
-30.946249345225205
-29.923661528564228
-27.77780340136421
-24.59523913240746
-20.03768932710173
-14.201424033103457
-8.050339896015814
-2.6130248838491776
1.8547034185217064
5.140578872034116
7.217023299685126
8.549817002119221
9.420575304949207
9.830301031607082
9.77780065151302
9.500052576201657
9.394508050597429
10.411582481128107
13.265113125839587
17.952988523559103
24.15639933980273
30.535215708900093
35.43303669577417
37.687610978906235
37.176395339932974
34.537363675296625
30.2911948639291
25.238586488349927
20.05404930194458
15.001450849180266
10.711960401401456
8.196500540378182
7.584006936444134
8.138524333720396
9.11163342089729
9.387296027329246
7.955254068731129
4.938754355428323
1.074554476934978
-3.308970972836207
-8.189360706162633
-13.801126021925773
-20.289626825174086
-26.76276634020272
-32.26045791546216
-36.4340726917654
-39.00414179241066
-40.095455267086585
-39.95506985272306
-38.957987312929944
-37.590290917450325
-35.56127704147054
-32.374712532364775
-27.808926024814706
-21.904627265813915
-15.50513053156386
-9.559606035028635
-4.565879670931069
-0.9146978534134732
1.2662664152451137
2.498041778923171
3.590774275513361
4.710074769842951
5.77627798932011
6.424103211769891
6.334059194707693
6.327365650985199
7.344944407433637
9.666215476140986
12.593939317906814
14.796141814507164
15.194343412616854
13.19631490752153
8.994908215002276
3.3781827160419535
-2.318566450005688
-6.678197598020873
-8.865690760621517
-9.112489388695034
-8.545621535530513
-7.884260341013977
-7.585038264922143
-8.14485822266681
-9.897448291455895
-12.60971803944096
-15.246406821813581
-17.022121043916034
-17.534457168663558
-16.80087291104497
-15.143231873994592
-12.597499471836244
-8.978979864454482
-4.155611410677331
1.7518078466930993
8.603619062028425
15.693348914464254
21.999828280065117
26.865882463622523
30.207403234656894
32.724397896113196
34.73688499670967
36.4340147224907
38.21824176650743
39.840127812923605
40.78464595489429
40.506495500022396
38.56460318025247
35.3573236564823
31.562968837443357
27.3875519801491
23.297023732022264
19.664881779023112
16.621498400792373
14.41205179002255
12.551909057761891
10.53416764015966
8.634025266095243
7.2933193992760215
6.970021378678946
7.784135464997752
9.639266562962153
12.543080618306274
15.874457434995955
18.829397550846213
20.843169608021107
21.795900049526058
22.246119533878904
22.01361914965752
20.645109569938132
17.971253636295376
14.038110755075431
10.070696613714151
6.94994051412618
5.019218233224345
4.50807431405371
4.635153572938422
4.930651953026937
5.164839842513029
4.879193839552021
4.0233057403327805
2.805456719288813
1.1514816933709942
-1.0209692522272196
-3.1087428250113818
-4.7520033806246715
-5.502300914744247
-5.352042444448474
-5.099528297827944
-5.109674862633732
-6.042569226599315
-8.012076391790577
-10.390863462416664
-13.059813452016833
-15.898761066707463
-18.874123760282778
-22.582234384480252
-27.179949657065755
-32.243044863796015
-37.39876053888616
-41.870830755060815
-44.993784910513114
-46.333803772666805
-45.47293425706708
-42.46859348874348
-37.783019189575064
-32.232598141437514
-26.854228305348744
-22.21596611883747
-18.573552239646556
-15.760126150963815
-13.14120742636361
-10.573588391489476
-8.396502027994186
-7.534049857958691
-8.353245833953325
-10.437955225787052
-13.01645085553523
-14.52517975469611
-14.638870096586642
-13.599399013297734
-11.71691805851512
-10.255169963935606
-10.066498748565282
-11.871465282061925
-15.309565976385134
-19.029633165864823
-22.18269649255284
-23.86617482408322
-24.024940078053636
-23.520943073276474
-22.947308908264453
-22.534744040589
-22.464033638064446
-22.18537516722619
-20.47344457780444
-17.18128008923067
-12.892362578773866
-8.775838430540443
-6.081309942381957
-4.828356375605673
-4.6445633775727995
-4.987515826155273
-5.645981205155789
-6.7273409033641345
-8.002502755505745
-9.165610698509067
-9.65989246116903
-9.081114657131824
-7.643602527731125
-5.860284055023709
-4.12511550295858
-3.140568595095279
-3.113360016092535
-3.409079129504479
-3.8264693216794052
-4.478243343269745
-5.796078136625617
-7.9756205579092905
-10.54386502223378
-12.776598943927132
-14.307246399264882
-15.367391910447974
-16.084359350869022
-16.751299721424132
-17.642395837636222
-18.709662912099088
-19.732931023840734
-20.16460926175561
-19.738018720255795
-18.810637361599063
-18.023640611042474
-17.70390332600627
-17.686398254237403
-17.78034574373584
-17.996201957832298
-18.161093319842593
-17.668057549744113
-16.254662523821988
-14.344381572472653
-12.299423152243225
-9.830435627488702
-6.090485658840012
-0.253623307101359
7.667999037875926
16.80838345343279
25.804504685983222
32.760396290162376
36.27525694747087
36.01183506867237
32.6204319805424
27.3355536968483
21.58408312347535
16.893583955512657
13.56947419281405
11.423545689678757
10.261059076540727
9.668744137984934
9.759880607345448
10.562071532735906
12.558024687653779
15.832906363007853
19.621230043562697
23.198600688135805
25.379301451169322
25.74080115639161
24.875885378595992
23.766619609039292
23.38566275506094
23.67986250063133
23.971306891456877
23.433513916495784
21.414644699909932
18.10462140345778
14.311782443115694
10.86295664310861
8.354491317739328
7.194001066200079
7.421551540795023
8.870180551578022
11.570405613165322
15.298652349546998
19.402287139617258
22.921930258091383
25.02148681443039
25.438417509717244
24.44268594086644
22.689105967180478
20.480923793462466
17.544436869923157
13.230386229312291
7.364723626944932
0.9770125471892938
-4.579798158861036
-8.235304552071174
-9.804291970679879
-10.091188712631
-9.876453365249795
-9.72910513103606
-9.657751569438922
-9.074883224703676
-7.91913371264636
-6.667872753142599
-5.980783265841761
-6.173792148338416
-7.310905664296319
-9.578228553421535
-12.388356620524014
-15.052336784497925
-17.226232163151252
-18.903214617131237
-20.562748432600486
-22.178924016865125
-23.682806379586133
-25.390095751723095
-27.135148035411873
-28.47828783484324
-29.532725004876248
-30.40830725561167
-31.025624781408766
-31.341861238472553
-31.29959976369371
-30.948952935592036
-30.169991780962715
-28.983347390925577
-27.008379320779206
-24.057513490123096
-20.713031661229206
-17.636840961766374
-15.92963629369659
-16.257191894609136
-18.715414599930906
-22.43687182386095
-25.58061999410426
-26.910087726069182
-25.93619477345201
-23.070439528797312
-19.315854669275428
-15.568665241018795
-12.24920555891638
-9.503700003356528
-7.2443526611584375
-4.872932499804221
-2.03941648406996
1.285209267857361
4.808376341367553
8.387897000282582
12.057236287155366
15.226509820989168
17.509518967513944
18.632078653766758
18.652915749882194
18.02598186439317
16.755995726967424
14.936369164754767
12.740374068911729
10.225860365127955
7.56783323519945
5.627794836622965
5.4527056637185165
7.134019799456448
9.67244343591906
11.42023775744424
11.373891344493464
9.564464290749058
7.10682409829593
5.5802080097340045
5.267616743436258
5.449070790973164
5.668288512513401
5.69518699576786
5.526660880489537
5.361140628808266
5.102682111057318
5.0160408147680675
5.45643245659925
5.84333086901946
5.871550563249599
5.997938072493929
6.484815991608991
7.201125845906832
7.487433663730422
6.856904817703046
5.671153391920099
4.573286812567247
4.462684940804755
5.946460676454419
8.82023384865145
12.725990716324631
17.269097498131057
21.89176144264249
26.107166822116383
29.67784181958292
32.30116140110217
33.82874012238133
34.34591322824432
33.46933146288631
30.843770152783257
26.52901157524821
20.967079724785446
15.080030856342876
9.405296553236886
4.047642510923334
-0.43595216525224456
-3.7231701680623677
-6.133642188956434
-7.8884935191384065
-9.41148183878887
-10.89499774582503
-12.201877579747118
-13.727773075316774
-16.060779443845878
-19.18206866109969
-21.947293550733793
-23.296392831204546
-22.902080309256483
-21.01483014309743
-18.81237097485252
-17.222896291046872
-16.37559323144136
-16.113868396586007
-16.25441196397743
-16.530094962219568
-16.64033758847323
-16.625099707928097
-16.527749406522993
-16.308670821879314
-15.918868949037643
-15.30145120952123
-14.447713275719696
-13.28823996791642
-11.998623636817667
-10.726397294785993
-9.566780417812193
-8.702275037051084
-7.664883806867515
-5.958239818425589
-3.94164665850568
-2.1462278196448277
-0.6737222304872436
0.6546243760743138
2.116347103355656
3.853033757328305
5.866430310503707
8.535163832021205
12.181499097121844
16.43237070791793
20.462690174547213
23.36933998584077
24.747547705719885
24.959661782137193
24.775404493775188
24.80895668610128
25.334149876384203
26.411037877565345
27.812272442772173
29.063533204534558
29.53151287509907
28.75190925266465
27.01564391741534
25.292691126630288
24.252637535746167
23.65208292944273
23.03524954832802
21.963464682342277
20.03674057594117
17.474716385083475
15.118606440081553
14.269102882495806
15.575356669270919
18.2273278342263
20.902307927170597
22.61370371313055
23.241903126619928
23.14151007907934
22.650819469028878
22.380014769048984
22.416912533383023
22.06250152180152
20.577595244819328
17.666199743473538
13.92666940298069
10.459105071535758
8.121646390323406
6.985013490352534
6.654730239839745
7.109486735219025
8.250830211441768
9.681685553587265
11.312083607576733
12.99730685748672
14.422482218814475
15.536513531278608
16.37020614453488
17.003024186521486
17.414565135813593
17.226503082246623
15.80519080440617
13.033997136243514
9.602422061758242
6.190394060002886
3.347389869367421
1.3480613614679404
-0.009812813582589073
-1.2847537461009615
-3.0287358009210323
-5.364446351095109
-8.290951072916624
-11.353817982615977
-13.695867867949707
-14.779341697017845
-14.298982884028721
-12.250904505307261
-9.118453741217671
-5.7131479542570345
-2.612171980078905
0.017752330886580944
2.3317757476510503
4.916912992474617
8.129757077926067
11.632995681413748
14.752081710824077
17.066177026263304
18.512243373956768
19.25401943943156
19.74953282832419
20.26043486976268
20.738506126724904
20.97821926528703
20.618011989373986
19.75989511657444
19.050833006545368
18.860014052054265
18.96898806905271
18.7226448658594
17.556130694110156
15.572607266425246
13.178073453552782
10.71394452057558
8.08329511348779
4.82210880991571
0.5628795031572993
-4.726562961696356
-10.302412138482524
-15.150828930371924
-18.73312106871303
-21.272963287565375
-23.360647937174612
-25.56358675838151
-28.124058378654016
-30.432186657263443
-32.04671834393741
-33.27927687743901
-34.63728350694932
-36.35035364756803
-38.21422378426226
-39.817646483822465
-40.71142352757229
-40.78935749679424
-40.1176876660008
-39.04840482941426
-38.344554771212216
-38.33496015586228
-38.64371424179029
-38.66057580882686
-37.99269180999545
-36.39009086707967
-33.7894483078302
-30.163893687373776
-25.21558309570701
-19.07532286117596
-12.609334588833061
-6.883296591489746
-2.4817795465209826
0.44780883987440306
2.0844235363398895
3.2654233767655234
4.500772566650403
5.718872450249649
6.694441091702206
6.908349476410093
6.560165922493091
6.216497515423369
5.968476190363917
6.0019673894013685
6.1417015740148
6.358652938113608
7.063905906489379
8.224463208537404
9.712019588703207
10.947368181061966
11.250812668735332
10.415138711381275
8.673606719101373
7.095356253916812
6.5264744990517505
7.476826614645485
9.775861136879321
12.141447747243205
13.569805636520536
13.400963625241372
11.634109644393865
8.953879497128781
6.242683846926702
4.4544583388099355
3.7977875862623334
3.997891662861024
4.72867138124381
5.625553673676629
6.162210511005367
5.85409205132984
4.473199456300833
1.9833607198580026
-0.9681221848263877
-4.068492626672746
-7.651705400599387
-11.944715655768377
-17.327257267568065
-23.858979441481445
-31.022778194599976
-37.6372147379452
-42.86219732417116
-47.00429448727939
-50.558646193540795
-53.76209248203406
-56.02340570545888
-56.531424788438514
-54.8005939695899
-50.6379833114343
-44.974041747501275
-39.297188850694475
-34.71428131627227
-31.827350873806573
-30.834773619071054
-30.78578285103552
-29.832852725628264
-27.256523092626033
-23.369869488355672
-19.05164714406358
-15.941521421293876
-15.241088444203475
-16.72724663004908
-19.217180064242118
-21.737483780150654
-23.596418833337626
-24.14407510935295
-23.358219497053014
-21.832896525553245
-20.198216544490823
-19.143649265515236
-19.495886641964344
-20.952469978731212
-22.268740408586535
-22.977070891477254
-22.878295412157968
-21.95823849181595
-20.84576380927463
-19.884916777800836
-19.387621315326562
-19.600071764025188
-20.17112047219648
-20.3764489138085
-19.13951812616325
-16.535326802424393
-13.90902526694079
-12.357070152648038
-12.411717665630697
-13.54811929661622
-14.992559279687436
-16.03152946852311
-15.860269163781357
-14.427269502577815
-12.401311322734077
-10.878972768073178
-10.590545084185894
-11.570127693652987
-13.279412287715575
-15.091397362437826
-16.59950974106248
-17.346773206043704
-17.251310149652024
-16.47679152701586
-15.530760670002845
-14.94835528383581
-14.806205409922622
-15.1115314076833
-15.457590191054075
-15.671489877294187
-15.917820128972767
-15.806856415373534
-15.05340961862983
-13.520103195035155
-11.221825276009469
-8.911205176403609
-7.429855618357145
-7.1642718889011805
-8.315084002873213
-10.769982928818848
-13.971094590593966
-17.34092583383808
-20.573999136977676
-23.680379672407415
-26.852525824314803
-30.135884994970745
-33.301635837856765
-36.02481213810132
-37.776368462585644
-38.2635173811074
-37.572805142629335
-35.56836827384746
-32.581481395780166
-29.22978688769283
-26.0271629036403
-23.697604301442624
-22.170596524844743
-20.808538358727375
-19.11403506194534
-16.736558603619844
-14.046159254622877
-11.87018866367875
-10.816575174421345
-10.636364750137895
-10.333287546363744
-9.031738377542801
-6.351545603484946
-2.635977798384914
1.4518011751422466
5.4633066042672285
9.120725156146484
12.113379536465231
14.282991254400866
15.612917792588341
16.224770732521396
16.785012100221262
17.662091118247844
18.758623885208554
20.076736503722472
21.351846194910276
22.389750718530316
23.200278060399512
23.95174119821954
25.300382955207166
27.73550831927987
30.618616117759192
32.56053673198357
32.50794891512948
30.52801657065418
28.075789408833565
26.556914617011508
26.4582604203487
27.70696964721947
29.440896475559743
30.6347060490622
30.866976681423832
30.261783991280097
29.48923454360828
29.44801271362477
30.208876633431686
31.156138657416367
31.968899210198124
32.57450183650491
33.024768394059144
33.54692462945599
34.317166722659614
34.9136104633741
34.710610264039744
33.21354775518248
30.08803241434068
25.886723594827586
21.705490978554653
18.243459550104095
15.425193200480807
12.980515258130437
10.834630466310497
9.135135485781552
8.0857580723208
7.59680397943673
7.652362555178657
8.027508794305554
8.1435355047846
7.697838141254355
6.539863779237938
4.352775852765305
1.1797462811057096
-2.594877579445597
-6.542575605805522
-10.33590368040229
-13.750564872482066
-16.345380542465524
-18.111374225735105
-19.229267487294365
-20.002890887688917
-21.016342002700256
-22.07021184255043
-22.36679071425528
-21.491581025277533
-19.59067200184093
-16.920169460005624
-14.424517452825363
-13.371693938515152
-13.853564570870926
-15.226879169245013
-16.38616297387218
-16.386023418812638
-15.358925217911622
-13.873142264715298
-12.80703310390238
-12.787382264034784
-13.73587641600957
-15.292120502512649
-16.489978929451752
-16.22156071694224
-14.309029587542684
-11.478678579253726
-8.631164230259065
-6.7373902383720745
-6.114611850433517
-6.191143353538055
-6.735955941024602
-7.227606469041466
-6.875937192677317
-5.490810426176825
-3.054173208717496
0.04177699775535829
3.087734095351702
5.6969686113699005
8.025987377727368
10.468724197694762
13.244347442283459
16.080093372578883
18.4461681728019
20.34604458235892
22.005281714233423
23.454461055392414
24.527951844963255
25.218184072990688
26.022486893023718
27.536449674523897
30.074685714197297
33.26009658433493
35.97957655270528
37.3073036457757
37.14207430002793
35.792280219666054
34.124022058022454
33.331580657798774
34.06555965148369
36.15235948889217
38.36998694513999
39.39768968807033
38.93829203551542
37.613090344259405
36.35701249577204
35.6378612590807
35.11134909576827
34.293685591561015
32.915753938468974
30.63364423741085
27.477010082054626
23.688183763256017
19.41604223638905
15.278177475729693
12.192160811916485
10.844840466038946
11.396508384334272
13.402997788628612
16.02612869806795
18.254879222421515
19.392787571739735
19.34595080921232
18.422935108662667
17.101748450136814
16.032700275369457
15.983801928928028
17.333957814870278
19.88911870063129
22.831349791622923
25.07417888317437
26.14632644361556
26.24175402992549
25.825606120523993
25.17927206732996
24.215778948499725
22.590703588286903
19.931907452845174
16.341237529778006
12.616634886885107
9.965297304667468
9.150294180695758
10.090142776718816
12.056452394487557
14.081190632941375
15.60494932138787
16.498953630834734
17.00011427926896
17.235881090145142
16.721236032377004
15.183093226530483
12.700427538398555
9.590448964209685
6.484391461348809
3.780564732285551
1.7122737166119997
0.3177567685127633
-0.4636255193878548
-0.48351831507391574
0.6144471543010602
2.9200252133793176
5.662723114914232
7.778345769805915
8.472485289937268
