AAD_Filtered_TADAS_FILE
AAD_BASELINE_CORRECTION: BASELINE REMOVED
AAD_FILTER_TYPE: BUTTERWORTH
AAD_FILTER_ORDER: 1
AAD_LOW_CUT_FREQUENCY_HZ: 0.025
AAD_HIGH_CUT_FREQUENCY_HZ: 40.0
EVENT_NAME: 202302060117
EVENT_ID: 13194
EVENT_DATE_YYYYMMDD: 2023/02/06
EVENT_TIME_HHMMSS: 01:17:32.00000
EVENT_LATITUDE_DEGREE: 37.288
EVENT_LONGITUDE_DEGREE: 37.043
EVENT_DEPTH_KM: 8.6
HYPOCENTER_REFERENCE: AFAD
MAGNITUDE_W: 7.7
MAGNITUDE_W_REFERENCE: AFAD
MAGNITUDE_L: 
MAGNITUDE_L_REFERENCE: 
FOCAL_MECHANISM: 
NETWORK: TK
STATION_CODE: 0119
STATION_NAME: 
STATION_LATITUDE_DEGREE: 36.568
STATION_LONGITUDE_DEGREE: 35.39
STATION_ELEVATION_M: 22.0
LOCATION: Kahramanmaras_Pazarck_Turkiye
SENSOR_DEPTH_M: 
VS30_M/S: 485
SITE_CLASSIFICATION_EC8: B
MORPHOLOGIC_CLASSIFICATION: 
EPICENTRAL_DISTANCE_KM: 167.32
EARTHQUAKE_BACKAZIMUTH_DEGREE: 
DATE_TIME_FIRST_SAMPLE_YYYYMMDD_HHMMSS: 2023/02/06 01:17:40.8668310
DATE_TIME_FIRST_SAMPLE_PRECISION: millisecond
SAMPLING_INTERVAL_S: 0.01
NDATA: 13501
DURATION_S: 
STREAM: HNZ
UNITS: cm/s^2
INSTRUMENT: sensor = CMG-5T/GURALP | digitizer = 
INSTRUMENT_ANALOG/DIGITAL: 
INSTRUMENTAL_FREQUENCY_HZ: 
INSTRUMENTAL_DAMPING: 
FULL_SCALE_G: 
N_BIT_DIGITAL_CONVERTER: 
PGA_CM/S^2: 25.278
TIME_PGA_S: 
BASELINE_CORRECTION: BASELINE REMOVED
FILTER_TYPE: BUTTERWORTH
FILTER_ORDER: 
LOW_CUT_FREQUENCY_HZ: 
HIGH_CUT_FREQUENCY_HZ: 
LATE/NORMAL_TRIGGERED: 
DATABASE_VERSION: 
HEADER_FORMAT: DYNA 1.2
DATA_TYPE: Acceleration
PROCESSING: Automatic Paolucci et al., 2011
DATA_TIMESTAMP_YYYYMMDD_HHMMSS: 
DATA_LICENSE: U (unknown license)
DATA_CITATION: Turkish Accelerometric Archive v 1.0 - Disaster And Emergency Management Presidency, Earthquake Department
DATA_CREATOR: AFAD
ORIGINAL_DATA_MEDIATOR_CITATION: : AFAD - Disaster And Emergency Management Presidency
ORIGINAL_DATA_MEDIATOR: AFAD PROCESS SERVICE
ORIGINAL_DATA_CREATOR_CITATION: AFAD PROCESS SERVICE
ORIGINAL_DATA_CREATOR: network: TK
USER1: GuestUser
USER2: 
USER3: 
USER4: 
[...]
-5.181092823366986
-4.379766696238102
-4.667352572796652
-5.278004370306513
-5.117183968710548
-3.7068895019095494
-1.5500284536070421
0.6707472703234236
2.734785615396972
4.55220400860034
6.0628615222325815
7.567703416747319
9.226148394075334
10.33092464183127
10.168967168090276
9.087686196299261
8.31091203119947
8.534173795768476
9.216202221377051
9.403849222442926
8.673330827173167
7.410500798887562
6.388960502013744
6.313144178903789
7.40206064180227
8.977231724502632
9.849869503189629
9.4061975573926
7.991264695861877
6.176240657304059
4.264811864454273
2.79696423991635
2.9083748037483628
4.859787713660611
6.752859982877715
6.605325193764449
4.8874912904197965
3.460212283395292
2.7057447641675294
1.2568416214513767
-1.6420414262662968
-4.988287051367615
-7.314791879745587
-8.175136793814678
-8.118176624205786
-8.104931478233697
-8.684209640129104
-9.414445156159633
-9.674737655300252
-9.529109491133482
-9.588596362195773
-9.8527683275985
-9.213487380239728
-7.039382469173429
-4.511851781942402
-3.2414896735142658
-2.9734506276394077
-2.0922588117648684
-0.47646163496014016
0.14555387275014153
-1.104873935037954
-2.897556017244937
-3.2619153175695246
-1.5790110537346234
0.9157351366936186
2.4391996264748155
2.8171947801800385
3.3929312453639224
4.80313830761802
6.044399599089831
6.120267157481254
5.418424367215734
5.096946202471879
5.558930198731673
6.005275848724044
5.622645195240671
4.747852958351443
4.185256947344656
4.1679399792419005
4.697650704201712
5.350957292175826
5.475331953887753
4.862462406796592
4.087635326299509
3.787741935002533
3.461091261844418
2.5759634254636814
1.9471376869528632
2.736085232947966
4.725102558481616
6.517533860778229
7.092751230623861
6.075299015149447
3.20552520131771
-0.620426211724591
-3.269873104395206
-3.6352211106475543
-2.4724617767019605
-1.0367936927999604
0.22854046248813165
1.314720039213352
1.732086867686607
0.9298953551795298
-0.9060997243027397
-2.9175625244276557
-4.258147276422087
-4.743464381984608
-4.229712011074277
-2.4577072607290997
-0.3739814533048112
0.24304413940018998
-1.3567853529690528
-4.104602791329182
-6.542629639693832
-8.103308384668173
-8.420281066939745
-7.433034299154391
-5.801982157287914
-4.347035485898345
-4.05269243879905
-5.0934225722929956
-6.3418401408074665
-7.119802226817474
-7.515475468794723
-7.392685266596976
-6.517506429562115
-5.676729330930151
-5.8597303550363815
-6.376224814510441
-6.061293704212089
-5.023494910786667
-3.5293510376096573
-1.355236884638496
0.871205473786645
1.6825751997561547
0.7108848888967764
-0.5024341300421192
-0.5760276502342572
0.16218791005473704
0.8701678792552354
1.6474284809170787
2.7953800564655196
3.880295527789401
4.114595860800761
3.2250639837423143
1.9299455908121708
1.018233817165473
0.42743431495371426
-0.5749288756969974
-2.0070704231461196
-2.886364260231745
-2.72704979496419
-1.8621079770210098
-0.32350370431908687
2.122914442600419
4.707375449845474
5.684973115754777
4.514483518673216
2.37052236048029
0.1694413436568091
-2.09600473672398
-4.2687123118460795
-5.250675329095767
-4.160067732113936
-1.8355380411553164
-0.39448985084380594
-0.5203824877093913
-0.5052431311905308
0.8241626837915094
1.8952697656100184
0.9362141707820532
-0.8372902680839568
-0.753173712944643
1.2375917969028472
2.269649201956599
1.1351427722757694
-0.32018343954103357
-0.6448443957783038
-0.45760881749427584
-0.3319834001777979
0.43395735451257766
2.027399031262489
3.4774753734475903
4.009775348079232
3.877195336907633
3.6376733129001875
3.0070203812841565
1.369555700341974
-1.1640672597583825
-3.675651171862876
-5.424737433493028
-6.443887784698714
-7.192500810935137
-7.896450596510973
-8.267843791270938
-8.178087542157916
-8.259902752614572
-9.102680666947627
-10.098120699987183
-10.52538426790894
-10.734415863261173
-11.284776249962654
-11.961347331233428
-12.17713984860666
-12.032598209614594
-11.967808920041735
-11.75050478479941
-11.126639604290384
-10.249548962274813
-8.91224133959788
-6.731941655092941
-4.310703433054584
-3.1230001263962452
-3.563929067080717
-3.935304209518402
-2.5771844219326283
0.043228532276124526
1.9081277129725105
1.7712668091958121
0.5299077058546889
-0.2804666304991053
-0.33976813392851907
-0.6609604700472875
-1.639615118138903
-2.1500998577345665
-1.4785568394645556
-0.4581792785222654
0.22651663802264113
1.0015338708694643
1.848699054473677
1.799298642735998
0.7092367988531558
0.13891074684119795
1.4537298107792611
3.555379140653435
4.091299211201262
2.614182880575563
1.0774488247022114
1.3242326397752084
3.216945063203722
5.6943880669834215
8.152666370550172
10.475316070500957
12.070973894973074
12.040084094343005
10.389126833999752
7.9590123443988885
5.5753942407518124
3.8729413835719884
3.258378830633795
3.40687008805704
3.377236769193981
2.7892381188010797
2.5324682415643713
3.2531082648387146
3.9506376718468355
3.289510085172141
1.3799720108209492
-0.7553777123751348
-2.3566813678639043
-2.9736213351084997
-2.3569192653037194
-1.4044907963524367
-1.6953141120534931
-3.17845463758015
-4.222275442918421
-4.160849916213217
-3.728783067781671
-2.9566509416616387
-1.1989039033509699
1.0693200607299596
2.6955544699738283
3.915446948603478
5.69292556150716
7.656392652477394
8.5489891730605
7.878049910825688
6.091057288749024
4.014439041215642
2.9005911193971223
3.3050174035662256
3.629162243782459
2.291111845386892
0.4500295883950231
0.6203344813411179
2.775702971612683
4.131012131002326
3.1699577741989144
1.19586196347395
0.14393896777014342
0.12392195033744281
-0.11711471078764443
-1.5507879294811067
-3.643980670680694
-4.760103742495658
-4.136264591819868
-3.2035898029686725
-3.9784565272336296
-5.990319049178724
-6.77255518118918
-4.438115195441926
0.5817043061612781
5.835913641433058
8.386762750398821
7.038254960889012
3.302842488464056
-0.20541125091908458
-1.5102789854469039
0.1006271201479161
3.9175287229396716
7.884087464214904
10.150871660657186
10.384955568675663
9.060371907787987
6.559440794765773
3.9592353183822127
2.745171897287656
2.953054865974601
3.444209899477269
3.4303960871711183
3.138632421575895
3.037868269374497
3.132081356967655
3.1354330292187984
2.6073946419269007
1.7775077053318298
1.6598639927834415
2.2936094572412573
2.152535181137223
0.29887586528379506
-2.052255112085621
-3.423436647063011
-4.282594963642089
-5.817325164781812
-7.754878181034243
-8.666276028302722
-7.512868182365294
-4.622203063151299
-1.8827151036896455
-1.224723311167397
-2.792944860441682
-4.689650082562639
-5.164318423531532
-4.7119845665937845
-4.929633419407676
-6.1237231499103855
-6.738245781203504
-5.445435807669632
-3.2202126686185863
-2.5728406506906967
-4.4751876703801114
-7.224972055368904
-8.591195237922532
-8.617527980378528
-8.688935149584147
-8.896430336628061
-8.38095321185675
-7.003965396503585
-5.690151076019545
-5.404817147442144
-6.0775344438963534
-6.286997996944592
-5.220876913480474
-3.9454941573587594
-3.6982057801779726
-3.4901851681674985
-1.4126079756259848
2.015166292105765
4.18905239933441
3.9800066252913338
2.9283554151413913
2.752591608270595
3.6578675170088424
4.633304387284617
4.753090621208689
3.970186931070957
3.0580668055713462
2.877738883313275
3.6875922912080523
4.895971807514765
5.487272993640526
4.7648865345561076
2.7540995177407406
0.1570397707793056
-1.7967868042551356
-1.8715370164180167
-0.2961552888427743
1.1532396257386908
1.1805071415644894
0.2307893306529192
-0.1666265492694752
1.2516241501316219
3.854381162661808
5.208101612849683
3.9297819820262534
1.5499383103833884
0.3281535580745761
0.6589865903523308
1.391073161731413
1.2676457633992633
-0.26199455937567084
-2.398371264370227
-2.834877581879217
0.21178026802386768
5.496528533712434
9.318153500535901
9.047108184384104
5.9811181673691864
3.860038608751934
4.582586286841344
6.743382160947041
7.925928348327115
7.147805777185703
5.25692640407475
4.032197632560324
4.406600580429991
5.03834708891985
3.9369425646355714
1.5912887089324452
0.26332341558565664
0.7008153336998196
1.4249218110998616
0.8662492698378754
-0.6998569468136621
-2.064272602781946
-3.1278254340144502
-4.870012395650535
-7.4477017455388586
-9.678835998834106
-10.48722826094268
-9.89253905146992
-8.591512888057702
-7.577080771853503
-7.542082343875677
-8.03157661774116
-8.222439228701868
-8.248719904149667
-9.094456098573996
-10.784968836096088
-12.066946831446444
-12.592649024189308
-13.653073169338038
-15.882319641078313
-17.974768286424815
-18.539081023711088
-17.533574358540776
-15.91246365049211
-14.64656928813194
-13.95683246921795
-12.3969621327236
-8.682717551242396
-4.28545294039345
-1.5548678342462892
-0.6797816483692912
0.18363325281083073
1.5183049655799776
1.9254296430708364
0.5794951559249258
-1.344344909830114
-1.8098312445447802
-0.15675487436007624
3.2138080657755372
7.804954107012744
12.610075741787485
15.956039422540579
16.781556182884664
15.268059787116718
12.99110904097687
11.883593168484447
12.252393392473502
13.259365224567238
14.389992474406586
15.552504298599446
16.488142018400904
16.59392025046649
15.082873635784477
11.77695262907701
7.865818794760801
4.458107702093274
1.3341673039417554
-1.5113424115095946
-2.7322076860925852
-1.9522903433380425
-1.2893592430475742
-2.7272498368027835
-6.071680103486891
-10.046518731648568
-13.693951936128279
-16.03374410623856
-15.832350207234589
-13.29238705372565
-11.22062119850032
-12.140893643180815
-14.854889733167711
-15.94331320736757
-14.556566063599565
-13.348783289128843
-13.981222337212014
-14.260316426056997
-11.629215954675677
-7.479272138393796
-4.851157947796852
-4.48214671882353
-5.083234438190643
-5.393686005663039
-4.702883206959911
-3.11936637705483
-1.9720567158207563
-2.161248798637581
-2.4307533096612906
-0.9416229008642336
1.9590551210241316
4.218053682111242
4.403933968339914
2.7783949755508877
0.8448884642599029
0.28641239151355513
1.5976966606410425
3.423126397644189
3.9049342099437254
3.152101927452264
3.211982081759012
5.331033893973898
8.611041362723816
11.286263681239715
12.563285075891963
13.041193644576298
13.663700345148712
14.513710260241941
15.238205859863259
16.034037577450466
17.2387343969213
18.462552454508902
18.85727017193236
17.865411135132995
15.758620031737637
13.681224043617226
12.640889210000088
12.391647774604825
12.147753155406493
11.822955371135144
11.58808410362117
11.054959737493153
9.242389745790025
5.59914436904278
0.852181557130974
-3.249636650864242
-5.164329202333345
-4.665367901405457
-3.1627197270771403
-2.719701870189767
-4.15045829933818
-6.832170405500273
-9.856012531413995
-12.572871844415939
-14.006549584702912
-13.1439578305756
-10.565808165575154
-8.805880340247304
-10.02434339930428
-13.401095275826119
-16.408806454025978
-17.895752253058465
-18.660080636418844
-19.527298252508512
-20.285973435365175
-20.399597275048027
-19.85610421454037
-19.44749529552787
-19.852781461478838
-20.7441262319511
-21.01933308779923
-19.884622176260926
-17.337343930943245
-13.646625958208368
-9.25259446070462
-5.722627072840017
-4.890811821743097
-6.068294810948053
-6.7621125909943816
-6.552402602847593
-7.404144210881879
-9.848459409209703
-11.676724587261518
-10.980636414803655
-8.513814551073606
-6.12360085815038
-5.031007565147664
-5.98740847861378
-8.757929880624971
-11.072383377270294
-10.461850445621057
-7.869021141655901
-6.642826554035943
-7.9563995465554305
-10.05551129376065
-11.972030743444774
-14.487041253373517
-17.088147804896703
-17.682554785603898
-15.831923164836105
-13.275392386440934
-11.273350719826917
-9.925502605303143
-9.750087186476675
-11.618927576295233
-14.802836233913048
-17.15740836435278
-17.07497473524325
-14.655821007586441
-11.256356207117935
-8.31877038442115
-6.661569892388817
-6.002662099627203
-5.800294680331586
-6.129970765498807
-7.232549341309732
-8.988206801071001
-11.027987730782016
-12.679322617117025
-13.271894702932666
-12.94923256374071
-12.270376742159732
-11.193367738616557
-9.51744629881452
-7.693814399300919
-5.987227356200487
-4.016787271799933
-1.969488546169162
-0.48624099750355965
0.9811307122713779
3.610166544704582
6.9686415849491405
9.384340008769922
10.279389861625724
10.261582441109047
10.02023108615889
10.116882717002534
10.914659669239885
12.402739275983475
14.2801108445121
16.195134236097907
17.795075593260083
18.68412692997708
18.883843196256453
19.12024574181182
19.78564200094133
19.857596170802363
18.255257716234812
15.724538702115877
13.913422262581838
13.02946651021916
11.98169809705035
10.775626072506986
10.655772861515699
12.125534097964614
14.25176644418481
16.080274771850785
17.1662905762991
17.180981073565412
16.348982787400214
16.063532584219107
18.08246386636373
22.143346908516616
25.407148057216357
25.46537380039054
23.355533611623308
21.860558228163892
21.439865818469713
19.87545588753552
16.165012287574434
12.111675948466257
10.087197194887112
10.858919200419045
13.239298942863535
15.17488513090542
14.961646756399269
12.669901394115417
9.913831838064683
7.834439357239868
5.925093366189703
3.2384215622952133
0.10382739651087212
-2.4573247588451705
-4.139858609230394
-5.397412526025759
-6.644116845653561
-8.019922687901301
-9.616318736409665
-11.47566248835045
-13.132782211682276
-13.56617821052287
-12.549863819772678
-11.344601045243179
-10.98498360003989
-10.592115761266996
-8.80528423330095
-6.336323136361488
-5.110609779781294
-5.348552807231219
-5.453729475313024
-4.686469018790784
-3.6872932456428176
-2.9158037833673474
-2.520194505854863
-2.686516078058284
-2.8885884215289264
-1.879690905078706
0.6326017053262339
3.4799144332939944
5.129749435109801
5.034310347504705
4.0394683791617165
3.2590891688851995
2.862045653587354
2.1366587807303334
0.7585224248741731
-0.395093880982759
0.11849805402971952
2.700070091577895
5.976511903299918
7.948332658945037
7.852531078230281
6.7627346777312045
6.112412372196416
6.292194713149564
6.6475780553246695
6.3496594704675005
5.440476623017808
4.944111272162196
5.567064477812064
6.720575795461718
7.438107755717672
7.318394883332994
6.334740500943112
4.933003943405038
4.2001409805975625
4.808414906412635
6.167029856155658
7.581017869450802
8.998737646644638
9.876184846108131
9.228964608112772
7.274390451060065
5.558105819790232
5.266128332250008
6.330273818673406
7.632501804751191
7.800618707612205
6.235667548492915
3.8643806646901835
2.1353536396460617
0.9613112814810273
-0.6435524287288382
-2.41413117893609
-2.8873738581947213
-1.8401543479109441
-0.8484167513314107
-0.9838628379728821
-1.4462147247658914
-1.05649490782686
0.023656882623802517
0.7697699443502855
0.7106942849892173
0.5309435150646337
1.3905347774095522
3.9466422324379784
7.421351541539457
9.87076733347972
10.162598679724347
9.211029927921096
8.69275072945039
8.749836217870637
8.240298772148156
6.760871157320359
5.179535351771062
4.197537262866039
3.0677676813394874
1.0075270797538671
-1.05857674349099
-1.7383478696812282
-1.5618787059439816
-2.094204342615349
-3.3145074375904575
-3.7645938750388046
-3.1170968610083842
-3.0179433478249518
-4.7336331635143996
-7.619588221735655
-9.760957234583453
-9.715779187178237
-7.682545869083216
-5.193249875158965
-3.68777025036338
-3.1477353313021883
-2.7438562542725644
-1.9504958715448415
-0.3681798685610672
2.1521476153400414
4.661587060030431
6.342313615125645
7.577416576758101
8.862837150186989
10.012005181858282
10.962833042912594
12.278121378769386
13.863332394169607
15.061064184266574
15.368783787427269
14.456399577388774
12.658813988796615
11.1172036083436
10.20192618206026
9.368135468176161
8.924643744429206
9.567094275676146
10.887116915638599
11.581053811200125
11.248758005890746
10.83410166894701
10.957589693828382
11.011947296380116
9.763087524444217
6.984045148028314
3.905996479272718
1.6885882858660803
0.6745593399340476
0.6063451240711358
1.2479651947244665
2.389922453396698
3.6408702013263916
4.511047007723239
4.358017281164255
2.636957174654052
-0.12844558962014588
-2.18898608192383
-2.562610407696754
-2.7560556153838522
-5.3891030997892715
-10.186648866892838
-13.510453234542423
-13.247940568594741
-11.568280805470591
-11.807002373111612
-14.629492963313346
-17.62735856892187
-18.015408895939604
-15.234139914424398
-11.444830012144429
-9.524360464174515
-10.250611275208472
-12.129467589823484
-13.531496387359805
-14.150198716332982
-14.277405286529486
-13.710765362018186
-12.017919989366895
-9.742369600042355
-8.368596899719753
-8.909450333246108
-10.755205940393967
-12.526668006273006
-13.412112958809148
-13.133420061224879
-11.777780805905142
-9.58818095251004
-7.375875834806028
-6.02995047219087
-5.0467851514677555
-2.97440922539438
0.005118497508983648
1.6179518903667265
0.7279747518141213
-1.3370241447396563
-2.7563033659466187
-2.987318803679142
-2.2744945735281425
-0.6305870885774144
1.3677841815027587
2.3344104983199694
1.8728231095633803
1.2597107563066825
1.3824041222721748
1.2301980681506322
-0.5992903909466833
-3.6968753977962385
-6.028241159191897
-6.29406660122957
-5.3582055980331855
-4.965890660585159
-5.361261584514939
-5.22031043270469
-3.925491421576653
-2.4073608136011035
-1.4791998888728681
-0.669732985567327
0.697001082675285
1.8582318261866928
1.2768137665059023
-0.8177302713698171
-2.422840010845268
-2.314397405818032
-1.4127330335157915
-1.012615446633112
-0.8539063790854435
0.03150679002044323
1.9168603729725202
4.024115072614629
4.914409836892064
3.9322985267825303
2.1702816665432616
1.043681866439174
0.4100209501596085
-1.2039066043277045
-4.401400854043628
-7.95041572301107
-10.026520585999698
-9.828467617369386
-7.9675535498617736
-5.623871008770236
-3.926714762252817
-3.5765409726207795
-4.431786656038216
-5.487299223414595
-5.551034142160506
-4.1827981918123385
-2.2988306610296143
-1.193905692434919
-0.9698117725684364
-0.8981355012513548
-0.6708306455757009
-0.46454943079121075
-0.19957846760118877
0.39348716077624396
1.0001847386801683
0.7084769257954654
-0.8801920466035756
-2.9786952997653433
-4.469761718901905
-4.978095424604147
-4.643186290157589
-3.4616152840883454
-1.6786166673386078
-0.3565932157521721
-0.44853270642817816
-1.574781141012671
-2.6818452242036317
-3.1787171920972117
-3.021360489757332
-2.4562871923771055
