AAD_Filtered_TADAS_FILE
AAD_BASELINE_CORRECTION: BASELINE REMOVED
AAD_FILTER_TYPE: BUTTERWORTH
AAD_FILTER_ORDER: 1
AAD_LOW_CUT_FREQUENCY_HZ: 0.025
AAD_HIGH_CUT_FREQUENCY_HZ: 40.0
EVENT_NAME: 202302061024
EVENT_ID: 13207
EVENT_DATE_YYYYMMDD: 2023/02/06
EVENT_TIME_HHMMSS: 10:24:47.00000
EVENT_LATITUDE_DEGREE: 38.089
EVENT_LONGITUDE_DEGREE: 37.239
EVENT_DEPTH_KM: 7.0
HYPOCENTER_REFERENCE: AFAD
MAGNITUDE_W: 7.6
MAGNITUDE_W_REFERENCE: AFAD
MAGNITUDE_L: 
MAGNITUDE_L_REFERENCE: 
FOCAL_MECHANISM: 
NETWORK: TK
STATION_CODE: 2103
STATION_NAME: 
STATION_LATITUDE_DEGREE: 37.94406
STATION_LONGITUDE_DEGREE: 40.31274
STATION_ELEVATION_M: 730.0
LOCATION: Kahramanmaras_Elbistan_Turkiye
SENSOR_DEPTH_M: 
VS30_M/S: None
SITE_CLASSIFICATION_EC8: unknown
MORPHOLOGIC_CLASSIFICATION: 
EPICENTRAL_DISTANCE_KM: 269.74
EARTHQUAKE_BACKAZIMUTH_DEGREE: 
DATE_TIME_FIRST_SAMPLE_YYYYMMDD_HHMMSS: 2023/02/06 10:25:10.9932700
DATE_TIME_FIRST_SAMPLE_PRECISION: millisecond
SAMPLING_INTERVAL_S: 0.01
NDATA: 18251
DURATION_S: 
STREAM: HNZ
UNITS: cm/s^2
INSTRUMENT: sensor = GMS+/GEOSIG | digitizer = 
INSTRUMENT_ANALOG/DIGITAL: 
INSTRUMENTAL_FREQUENCY_HZ: 
INSTRUMENTAL_DAMPING: 
FULL_SCALE_G: 
N_BIT_DIGITAL_CONVERTER: 
PGA_CM/S^2: 10.954
TIME_PGA_S: 
BASELINE_CORRECTION: BASELINE REMOVED
FILTER_TYPE: BUTTERWORTH
FILTER_ORDER: 
LOW_CUT_FREQUENCY_HZ: 
HIGH_CUT_FREQUENCY_HZ: 
LATE/NORMAL_TRIGGERED: 
DATABASE_VERSION: 
HEADER_FORMAT: DYNA 1.2
DATA_TYPE: Acceleration
PROCESSING: Automatic Paolucci et al., 2011
DATA_TIMESTAMP_YYYYMMDD_HHMMSS: 
DATA_LICENSE: U (unknown license)
DATA_CITATION: Turkish Accelerometric Archive v 1.0 - Disaster And Emergency Management Presidency, Earthquake Department
DATA_CREATOR: AFAD
ORIGINAL_DATA_MEDIATOR_CITATION: : AFAD - Disaster And Emergency Management Presidency
ORIGINAL_DATA_MEDIATOR: AFAD PROCESS SERVICE
ORIGINAL_DATA_CREATOR_CITATION: AFAD PROCESS SERVICE
ORIGINAL_DATA_CREATOR: network: TK
USER1: GuestUser
USER2: 
USER3: 
USER4: 
[...]
0.8723807046592525
1.0537855717133489
1.3054466337131618
1.5770163233419923
1.8732822540328748
2.1459022629338205
2.3327179765719093
2.452414534255527
2.503485793580019
2.500575953565401
2.4457708214171654
2.2660284151349943
1.913950038311826
1.4630318226619596
1.0234751060553662
0.6236594275501671
0.24102560274339077
-0.14963425885966394
-0.5135380734917178
-0.8300336501869631
-1.1845832994206713
-1.5863421210784132
-1.9408042032512525
-2.123327938039952
-2.1042442862501645
-2.0435220424186675
-1.9776670376176717
-1.829543625916357
-1.6362205327543071
-1.4173576583577874
-1.241783732495875
-1.1950892187693787
-1.210322936322375
-1.302772146327677
-1.4544864006123766
-1.5335759852173612
-1.6509785362394827
-1.8704909284348277
-2.0832085346869746
-2.3251326799516807
-2.638038289681481
-3.0087421135731196
-3.3777811692349626
-3.633737869348824
-3.8374585812916027
-4.109778446960282
-4.4065237146623435
-4.6407685177939575
-4.7357787639976365
-4.734041297409839
-4.7483953223414
-4.6947722957211155
-4.546919617477646
-4.4163791726724755
-4.31594316014062
-4.260587387105134
-4.222213455605052
-4.129837862559056
-3.9859848479071456
-3.7444282434377447
-3.4245974340324157
-3.158849491670419
-2.9665459963041023
-2.831594184411853
-2.729712432182889
-2.5877427794752257
-2.462772721661067
-2.375302153630149
-2.239971961636456
-2.124598038548521
-2.0749795663481847
-2.058657381527145
-2.1100854932245725
-2.1931644736400666
-2.2630849037009595
-2.288197224316664
-2.2057397605952813
-2.118420232465083
-2.096088049418846
-2.0546720853447
-2.0263899374570267
-2.0538021322478817
-2.128261872947035
-2.225448480691531
-2.260492346495403
-2.299819890442614
-2.428572964091397
-2.5803181459022646
-2.749988973831145
-2.9236613077486635
-3.0752934659334
-3.2413014204054282
-3.3845191667785506
-3.46668672852924
-3.4780153403862277
-3.3476289054288633
-3.0878052692662252
-2.793122790451141
-2.493354472719742
-2.24273195764994
-2.0486311996526863
-1.8350645210162906
-1.6307280250389051
-1.4586251928556844
-1.2738691359734193
-1.113423547858802
-0.9823384430184818
-0.8250732459527812
-0.6942294023665001
-0.6472470509747597
-0.6735269550157309
-0.7314568211802189
-0.7731542220118852
-0.841622182755762
-0.955094181489222
-1.0898879700455357
-1.3191282349233073
-1.6226471155294748
-1.9184345282483555
-2.191392631070484
-2.372056998034407
-2.482254460946925
-2.593540586273807
-2.6771671735305067
-2.7625131923613275
-2.895177893330307
-2.9699602783903654
-2.901970198948447
-2.7566604795556318
-2.601051555421029
-2.448110352703246
-2.162898400239569
-1.6736695129477732
-1.1459261584309859
-0.6868274689021948
-0.353204046394135
-0.15073315241321703
0.0025483855087322636
0.11601765848034483
0.18872425883883812
0.2467197592258366
0.269345469168549
0.2995196139590945
0.40200163646226633
0.49000256428988315
0.5065899655753993
0.47441823132329053
0.37013021010557495
0.23183552075821728
0.07961648734446851
-0.10317206985148894
-0.23216566879652517
-0.31238364166254057
-0.40252101797917955
-0.47407697889266026
-0.5294410293896216
-0.5501945786335846
-0.5710609628300863
-0.6529516922498011
-0.7136085171367892
-0.7230041723772893
-0.696530119307903
-0.628208489556054
-0.6158142124852017
-0.6927645753751804
-0.8077624835700999
-0.944677566427997
-1.0517032193754645
-1.1323336254976344
-1.193083494105149
-1.1793507255763136
-1.1441591967341667
-1.0978228550669478
-0.9679185480892422
-0.8238021072281351
-0.7248737749372347
-0.6416036909005786
-0.586032371472912
-0.5071027197564719
-0.3936053261354821
-0.29795590802758304
-0.1668100646447351
0.008476897938489682
0.3056963903191816
0.8021691737279004
1.300766707450044
1.695020785235085
2.0583262400105458
2.3798831515151733
2.6923231442214233
3.041772003715116
3.3319927588668437
3.5740552141234363
3.8167182424247583
3.954459189660985
4.022771146336867
4.104088328827215
4.156654455943158
4.185704845915757
4.149054920523669
4.010708580667214
3.8577880084877294
3.720479018453997
3.613372410548064
3.585796427031051
3.5873986840314918
3.5087163606751326
3.2709988770163347
2.884105514248301
2.4873869783034825
2.1624392482377823
1.8795498100268506
1.664700462237867
1.5123555974514997
1.4179328532834794
1.432608176813407
1.5259836100881679
1.6970683116838703
1.9283518257757206
2.0859565023060025
2.173675869472532
2.2579307656309098
2.273406970973653
2.2229169598377334
2.175919101474301
2.2252241279063765
2.4905384045204486
2.878929875114332
3.2341813805575863
3.5305961969095643
3.7226013761581274
3.8026624677797938
3.7615529513319106
3.5966105574398988
3.441934428612104
3.297490260351702
3.1309433077089386
3.0514663010054193
2.9802139578537217
2.8075681474160907
2.5371994800680966
2.1214293874675496
1.6069880781191566
1.047544008070713
0.37887991696641143
-0.3186721765425859
-0.9046554629527701
-1.4115760589658313
-1.8703110223357033
-2.3340443690916635
-2.850173565975442
-3.2784781964365153
-3.5380367656123224
-3.6492397779521886
-3.593840483602127
-3.4063954600127073
-3.1278377064161353
-2.795760558780147
-2.517157959344463
-2.3186098596394475
-2.1387987151664523
-1.9283328755375433
-1.6281491834539652
-1.31493409764175
-1.0954958046760226
-0.9227407956496035
-0.7830849256575774
-0.6537708496833441
-0.4910930748225519
-0.32323604154826274
-0.09962982890716644
0.17249060544774666
0.3895125171397748
0.5501793501478178
0.6442913418857443
0.6636744430149277
0.6050203332967276
0.39005914637362554
0.07699070752891944
-0.2512786170608856
-0.6854651857606682
-1.208967651860805
-1.733421343206874
-2.2457634742543466
-2.6403950862172576
-2.915259254501897
-3.2139340820675
-3.493326812774404
-3.667633573921278
-3.709416501140179
-3.578865596568694
-3.383433096151083
-3.1905002901453035
-2.9804915682409807
-2.8223777991077137
-2.7156430287811313
-2.651414353886632
-2.6823024728610747
-2.7619307133276156
-2.8009096392151536
-2.7468260125639263
-2.5942242570479994
-2.4513304023530353
-2.368301200189961
-2.326932845455501
-2.368909449825447
-2.400732052971058
-2.369653925727835
-2.345752718602976
-2.269078639217372
-2.160446994263911
-2.1094712647224587
-2.0816107600796068
-2.0720389952108134
-2.0768975881689005
-2.0602992243770526
-2.012329858998709
-1.9004856176164489
-1.7882768049854312
-1.7750743067111499
-1.7997249647422053
-1.800953706025758
-1.7570730369744971
-1.6412074097858087
-1.533813878697791
-1.4852611850790634
-1.4807678587039794
-1.5677180802863673
-1.7325739985065312
-1.9369701862437096
-2.214823199811034
-2.4950245699950577
-2.6828455839714827
-2.8015995490162413
-2.8433160593970173
-2.761876002709267
-2.511664292303957
-2.054949846137871
-1.4737160835903487
-0.8923283435284529
-0.3782317176766196
0.021523843827274933
0.37972744292409216
0.7317612790320865
0.938559622962164
0.9886984318013061
0.9616379901694583
0.9088492117117901
0.9033622761784429
0.908710237774437
0.9612415835656937
1.1575698980480043
1.3825848803107232
1.5750403799924746
1.6995409932042145
1.6794157565416228
1.6108187420769489
1.5059028036654607
1.3037113973778247
1.065451354854774
0.8408078174757254
0.6854034727569581
0.6507291628686641
0.6695591341348832
0.7036536917396856
0.7688959792569792
0.8144207988373731
0.8547771369053676
0.8592633659877628
0.7146525922987453
0.4681004808966046
0.18345164406794728
-0.10564003215095712
-0.39805738956964964
-0.7999695335544296
-1.1997164475520874
-1.4066208479339328
-1.475197365269908
-1.4307571877539274
-1.3157543369289881
-1.2233882633974182
-1.0950415363703783
-0.9762837464718979
-0.9266020060416335
-0.8519036294753687
-0.7779559355207599
-0.744947854981336
-0.7145154189838987
-0.7347676271185757
-0.8459741648940245
-0.9917805494279514
-1.172548172594972
-1.4389536670948253
-1.8047979623868804
-2.2581242280691898
-2.6560918034162144
-2.8773003147927323
-2.9159155025956287
-2.753588514018859
-2.493195094088594
-2.2090300081334364
-1.8747325567740352
-1.5385066898034423
-1.1734924536914622
-0.8198687848962137
-0.5672918529597727
-0.3289779842728738
-0.0992579127670189
0.10724816784516207
0.34211640862216175
0.5696470108431747
0.7556959711630642
0.8368049201621139
0.7775037454495083
0.6380928700264539
0.4194483626066946
0.1450191623032391
-0.08863576037986551
-0.2495982786085006
-0.31606551744100675
-0.24977774399898242
-0.14084688404997506
-0.02642930955469566
0.19308290969389272
0.49362930403864064
0.8604112886435918
1.2976612450397838
1.7617176304473352
2.2357307625956553
2.6326278864931965
2.9808055469643873
3.3460765254002744
3.633603303652428
3.8196949742889332
3.9573942752181615
4.045117265616373
4.04597265174199
3.920538237790922
3.744806371755099
3.6462077511275166
3.559364922157966
3.4381440520032034
3.3454692187967137
3.2706299210508862
3.2925068557257244
3.436982576637713
3.565990859000128
3.6533793196906985
3.7203836505552523
3.7621310535311148
3.826223900909176
3.9608989326567388
4.146160063311387
4.241381994825722
4.109425306254231
3.8391826981174684
3.575637388353888
3.3551598633502553
3.250458004885798
3.2505373554791226
3.282170782053388
3.327465109818203
3.3635500656759816
3.46262145311128
3.6040778006168317
3.678383940975609
3.772751321889077
3.959754109426909
4.239689897262776
4.637855581081655
5.013944447350054
5.244404947953335
5.364981501407192
5.39811961633781
5.462517540467002
5.571997250429629
5.567769733882567
5.464825117572641
5.28712400660269
5.051460480141038
4.834663078746317
4.554315177951655
4.1960501989003
3.8815896645067443
3.5710699429913495
3.245370443797158
3.008103512092303
2.8941476046674253
2.920938418617822
2.957600125009787
2.871985681049136
2.816035137361997
2.8072430030271582
2.7345189918402513
2.5884794614525783
2.400716145284704
2.377843182314766
2.6256174061884274
2.991061910727095
3.347331448617984
3.62042731640633
3.772546464106805
3.8038031013603195
3.6926770464353424
3.4553470388251615
3.162062371623315
2.862855870566478
2.65808812536811
2.651286186700265
2.820291732555894
3.081122983343277
3.3107067026409975
3.457669389005409
3.5391225588651394
3.515366863838945
3.4340753591621387
3.305429207334764
3.055002153775201
2.7904884265644943
2.567661299473163
2.3206369525442896
2.140189825402877
2.1038297270563366
2.2196071108484845
2.4963908241849
2.7792033060189802
2.977358693785236
3.178125450746285
3.369839096559135
3.5480673836771848
3.7129412906178647
3.7964368748850688
3.8750740985724583
3.998122223849281
4.087321035139974
4.18431317550622
4.354310832059824
4.519500494669708
4.555271683990034
4.372470294110513
4.013817769760909
3.6008427902730173
3.1469152412275947
2.6453323590880857
2.057489814150324
1.3683479159068166
0.6957137583108285
0.07016100023074316
-0.44931833447762043
-0.8089196057039214
-1.0779209374108405
-1.1605676514299963
-1.0203724203242086
-0.8180791982781782
-0.6572495252280548
-0.6116933007265145
-0.6949385242049753
-0.8351415338394568
-1.003847452187696
-1.162753062385458
-1.2653300256678524
-1.3845537674967898
-1.4805301328335554
-1.418420967022031
-1.2706988077973391
-1.1284613049429673
-0.9871026381289557
-0.7750951975660866
-0.3883000008642708
0.14792823942591565
0.7795114055868724
1.5082540546251586
2.2311209025706265
2.842011343352954
3.3777104004195873
3.7693340602078673
3.950170427516406
4.044187506924508
4.150588270535662
4.353892456620291
4.64635319377821
4.921779968495648
5.109207768066838
5.116596987074449
4.9655121081973075
4.670050375481746
4.1734222981051925
3.599815346608696
2.9924553112495644
2.2743824873241367
1.5255546231428287
0.7420232673920197
-0.13721291752458495
-0.9852886013545665
-1.751780208719087
-2.42608011588124
-2.8856585639653756
-3.177857008703129
-3.4139977592929944
-3.6302776558011627
-3.8869062197539335
-4.166493223367492
-4.441776056075956
-4.728980007648278
-4.974955758755406
-5.092208530580928
-5.093991954040176
-5.0637734288738
-4.961338282044147
-4.73637994165184
-4.5011782540090275
-4.3268009754253
-4.136600984305971
-3.911204984936461
-3.7148225558851222
-3.5791932867940077
-3.5568066198035524
-3.6479364655136663
-3.7951563167297997
-3.9908973703640185
-4.172080550426929
-4.284607022475614
-4.272878025793646
-4.044570217586832
-3.7517765605955913
-3.613362155330354
-3.6697048327900403
-3.9199913314849497
-4.280119880935092
-4.628600668630849
-4.89087311657053
-5.009638873184518
-5.080993358872955
-5.260932317616507
-5.513955071125883
-5.752529025398659
-5.92186180147201
-6.007856313743897
-6.119373313255327
-6.225679836734625
-6.236025266426058
-6.254783497502803
-6.314675785345964
-6.437955823564136
-6.706029605864037
-7.0187673568095414
-7.323529690053984
-7.640246753524418
-7.904872340872295
-8.15911326212234
-8.450165901346564
-8.82663377148068
-9.378023272037542
-9.971799706816071
-10.452483686532304
-10.791254179239516
-10.922966864965677
-10.861058825216979
-10.612283773860788
-10.198730288782066
-9.769829791165012
-9.264910301759611
-8.619194992857334
-7.95981105672121
-7.341073580406837
-6.896912250064986
-6.660495592386073
-6.450464759185881
-6.215169235339325
-5.942925236891391
-5.621734958861706
-5.233127781629024
-4.749428817565065
-4.259000256014781
-3.747294011327167
-3.2227370352180844
-2.81215488541669
-2.4735111069642817
-2.1676632599707024
-1.939323036934999
-1.7702720616517473
-1.5840107362848999
-1.332879873891117
-1.01952109572094
-0.6738913221840008
-0.34529563711855515
-0.026058911656603415
0.2478046164361677
0.48119829691144617
0.7949674293259905
1.195260134023203
1.5997834598121254
1.8961752552237907
1.982537404143353
1.8990383918256228
1.725776761038432
1.5296045831469598
1.4223546057533032
1.3986719894491895
1.4083750353146773
1.4780797443698803
1.566481352655875
1.6743600789329143
1.8014683440905235
1.814651016955083
1.7178218111897763
1.6023196193794789
1.4769942121262003
1.3455967533230793
1.0963152700080725
0.6495272317401644
0.08283031818487539
-0.5291130699145772
-1.074469904111922
-1.500155073786225
-1.8197323302646
-2.008529250802323
-2.096252993949302
-2.0656841400230554
-1.957601643098665
-1.9467988239051508
-1.9708038616930004
-1.9366885343494835
-1.8702940261226026
-1.6729333873890833
-1.3880497930136382
-1.1532475205835924
-0.9337006474427031
-0.7292531217918394
-0.5434747172377676
-0.3276778323023215
-0.19114016319741106
-0.112587292375075
0.036216756532254625
0.125234654094541
0.08044746713261396
-0.0486264102658957
-0.230539287530062
-0.361050053931186
-0.40747182199412113
-0.4240501516400996
-0.3352660327827454
-0.11413468503334556
0.1980723352534407
0.6793392570946568
1.2137817076602642
1.6709327794537654
2.110659653627213
2.510397335607879
2.825286660249777
2.9562727463395144
2.8657989648424675
2.683408655631401
2.4772651887852213
2.309552775606015
2.2637673355069166
2.3383052382428398
2.5240957160873996
2.7802280263779817
3.025061274251283
3.2429268624366414
3.3932652935973926
3.5001927022661756
3.683412996632322
3.9367332375347885
4.2462855018583205
4.603118294939489
4.939372083227688
5.2218110636655615
5.415542089710392
5.55478188188743
5.650474056245482
5.615256643494132
5.5238435646751505
5.4680825080071385
5.395499161836078
5.367302140520508
5.364211556980321
5.157128856806136
4.79309395444965
4.477799837096367
4.22056338093757
4.0750937761404975
4.093165819513504
4.205349048895078
4.383245339289205
4.565706051448435
4.697996794695882
4.868614525948768
5.074394993070238
5.149535608790437
5.053068727404928
4.897343458435107
4.838152496735953
4.944363841502643
5.127463828232445
5.302182684922479
5.399829366309997
5.399283985326781
5.330329454256682
5.187583298616042
5.027643403510594
4.851550711497765
4.610025816087342
4.406267226798095
4.256086423439742
4.071177713281854
3.916515172734154
3.901626601263949
4.063746334264329
4.311024064055952
4.484824318839829
4.5476469898238685
4.550371809056097
4.554458167354599
4.578807331449839
4.541851877900961
4.396653963677506
4.1975135025185315
3.9349711164612153
3.5783279795900467
3.09658985952076
2.4211702175579015
1.6436413518453914
0.8612976442352731
0.06660177712854724
-0.6936736488096064
-1.4355581923337153
-2.12997969489233
-2.6750568321348047
-3.093171675349764
-3.3546307266220103
-3.4069150254111924
-3.3173952186391245
-3.1070086784607525
-2.7828316393248396
-2.430882887155325
-2.103296232104961
-1.860497022963139
-1.757963262419765
-1.655662261170389
-1.4180942161121732
-1.072164347336774
-0.6659713617953864
-0.3205818463961531
-0.06598204855375486
0.18030227257778156
0.3165897399881878
0.27807244287660715
0.10929034641384512
-0.14959555420033904
-0.36792477947070806
-0.526615305963884
-0.6529510785832159
-0.7207903015104937
-0.8611259352506155
-1.1574533597590806
-1.4891562114637062
-1.720573916915053
-1.7853467760473074
-1.7117373376462544
-1.572696097506852
-1.3937833442628313
-1.2359629955886198
-1.2096472010502604
-1.3304791755569263
-1.555279145302511
-1.8244460405470593
-2.1119510619636874
-2.4762479619888484
-2.8343306349539423
-3.0675634078636
-3.1834745527379744
-3.209078958117562
-3.2656554374161724
-3.3761006114117045
-3.4865163943392625
-3.6403786706380457
-3.778836051383583
-3.9181375171127897
-4.136425331498426
-4.4051371351385615
-4.781784847968583
-5.190233844603201
-5.454968860908844
-5.686551341668579
-5.978332810328997
-6.243904395736012
-6.487690816241492
-6.7239517099608745
-6.936244505530601
-7.147683069532666
-7.286559150121418
-7.280766636807438
-7.204153970569259
-7.076546381687195
-6.838803084782905
-6.510092679115194
-6.1710126211825695
-5.926376657650924
-5.766156458433196
-5.60257401595926
-5.404645144453739
-5.1096379797787845
-4.775155702775306
-4.48446523444844
-4.109690836491794
-3.67726625719162
-3.2983044268442883
-2.89618854976037
-2.535406077445401
-2.281229059630995
-2.0102779275437848
-1.7763211988192866
-1.705541454900465
-1.7402420396488134
-1.878163394324143
-2.1658620195091323
-2.4609640464215246
-2.66205951876699
-2.846413560068415
-3.054714834917044
-3.2011645518443634
-3.2266762887463036
-3.1527661484809304
-2.9448245412516427
-2.6807254215652057
-2.4469855722476423
-2.1881722838858826
-1.9632966215059373
-1.7644088993277336
-1.4828281914652586
-1.1669655574979514
-0.854785900179694
-0.5375540706730695
-0.3178876761329886
-0.15179659358002123
0.08209579827498058
0.27840720581623096
0.4153830813866818
