AAD_Filtered_TADAS_FILE
AAD_BASELINE_CORRECTION: BASELINE REMOVED
AAD_FILTER_TYPE: BUTTERWORTH
AAD_FILTER_ORDER: 1
AAD_LOW_CUT_FREQUENCY_HZ: 0.025
AAD_HIGH_CUT_FREQUENCY_HZ: 40.0
EVENT_NAME: 202302060117
EVENT_ID: 13194
EVENT_DATE_YYYYMMDD: 2023/02/06
EVENT_TIME_HHMMSS: 01:17:32.00000
EVENT_LATITUDE_DEGREE: 37.288
EVENT_LONGITUDE_DEGREE: 37.043
EVENT_DEPTH_KM: 8.6
HYPOCENTER_REFERENCE: AFAD
MAGNITUDE_W: 7.7
MAGNITUDE_W_REFERENCE: AFAD
MAGNITUDE_L: 
MAGNITUDE_L_REFERENCE: 
FOCAL_MECHANISM: 
NETWORK: TK
STATION_CODE: 4406
STATION_NAME: 
STATION_LATITUDE_DEGREE: 38.34388
STATION_LONGITUDE_DEGREE: 37.97378
STATION_ELEVATION_M: 1050.0
LOCATION: Kahramanmaras_Pazarck_Turkiye
SENSOR_DEPTH_M: 
VS30_M/S: 815
SITE_CLASSIFICATION_EC8: A
MORPHOLOGIC_CLASSIFICATION: 
EPICENTRAL_DISTANCE_KM: 143.07
EARTHQUAKE_BACKAZIMUTH_DEGREE: 
DATE_TIME_FIRST_SAMPLE_YYYYMMDD_HHMMSS: 2023/02/06 01:17:36.6947250
DATE_TIME_FIRST_SAMPLE_PRECISION: millisecond
SAMPLING_INTERVAL_S: 0.01
NDATA: 12501
DURATION_S: 
STREAM: HNE
UNITS: cm/s^2
INSTRUMENT: sensor = CMG-5T/GURALP | digitizer = 
INSTRUMENT_ANALOG/DIGITAL: 
INSTRUMENTAL_FREQUENCY_HZ: 
INSTRUMENTAL_DAMPING: 
FULL_SCALE_G: 
N_BIT_DIGITAL_CONVERTER: 
PGA_CM/S^2: 131.344
TIME_PGA_S: 
BASELINE_CORRECTION: BASELINE REMOVED
FILTER_TYPE: BUTTERWORTH
FILTER_ORDER: 
LOW_CUT_FREQUENCY_HZ: 
HIGH_CUT_FREQUENCY_HZ: 
LATE/NORMAL_TRIGGERED: 
DATABASE_VERSION: 
HEADER_FORMAT: DYNA 1.2
DATA_TYPE: Acceleration
PROCESSING: Automatic Paolucci et al., 2011
DATA_TIMESTAMP_YYYYMMDD_HHMMSS: 
DATA_LICENSE: U (unknown license)
DATA_CITATION: Turkish Accelerometric Archive v 1.0 - Disaster And Emergency Management Presidency, Earthquake Department
DATA_CREATOR: AFAD
ORIGINAL_DATA_MEDIATOR_CITATION: : AFAD - Disaster And Emergency Management Presidency
ORIGINAL_DATA_MEDIATOR: AFAD PROCESS SERVICE
ORIGINAL_DATA_CREATOR_CITATION: AFAD PROCESS SERVICE
ORIGINAL_DATA_CREATOR: network: TK
USER1: GuestUser
USER2: 
USER3: 
USER4: 
[...]
18.664851006972036
17.25044183426301
16.535618355679087
19.07297063061454
13.470702064985153
5.550900248654804
3.4999929789624953
0.8789773098579355
-1.4913331223188049
-2.564886664347133
-4.490237802927444
-6.14921218331521
-7.791898289061964
-6.690685235964981
-4.128774011578311
-0.9213656101178523
7.572216015231783
12.24269658998154
3.4334219952802005
-6.230821894095554
-1.7872597530742296
12.075090715271616
18.39945082954351
10.204469642062604
-4.03681078142181
-13.048098475953745
-14.259539162104623
-10.41888252294587
-7.659256998800392
-13.287896406488574
-19.887355769766806
-15.719410514787922
-5.373682439462585
3.2767814993773507
8.810706876328897
11.096763017344157
12.480844762458169
15.263026421292885
17.54723780344326
14.491837395088199
4.842753763438186
-1.270743316732213
1.961714450463868
2.7548260854640345
-7.099158896426541
-19.950873053383145
-25.224550089032633
-23.075360539276204
-17.27749296228855
-14.050047849805772
-15.746292418309938
-15.966308176498076
-17.96065365448809
-23.748720394385888
-28.601010308984034
-28.569152891879042
-25.404517418954907
-24.97033487951261
-23.669776330571086
-18.15260981475442
-11.173862844128
-4.389307314714271
2.3049173439424218
2.8366180291901655
-3.5735430496269025
-3.36144204844654
5.4939001475590095
12.495188393840332
12.480802794553048
11.823242125312486
16.284993380895884
19.806594543564593
17.601353497094404
10.09796853404256
0.8514089260563937
-3.492850272573818
-0.6165356914413526
3.8728333857538426
4.387774595248061
4.86589233839942
4.537069274956629
0.6419445888943864
-1.0904655221570243
-0.5922084549558858
-1.6616646427962152
-1.957237530823862
1.3404908762170944
5.347056629550161
5.2825523851761025
2.4956955652414585
0.8484743999281534
-8.683857143195363
-23.758958088328228
-24.560906803722734
-13.688287542581135
-7.449196491420923
-8.246556829260298
-12.952327221196857
-18.84029061130577
-17.92310480117496
-12.462098177800122
-14.500018501864318
-22.69029714634973
-29.594550300772138
-29.214504101258044
-19.48908501924502
-12.220224533996182
-15.91905222428733
-20.55000117693604
-19.766878551905613
-15.0267888804005
-4.695911154845879
-0.534070532265133
-11.286737563491025
-19.48623463853062
-11.153995888022346
5.843098755925362
12.158783619433997
1.7920944270955368
-7.777217707372402
-4.2334005136163695
3.0648162896253552
4.624752956399598
4.470854867607047
2.3066486680500833
-2.6117167100635554
-2.3512942557216454
6.624191933214704
18.95824462499913
28.38903989240596
27.788326625642004
14.998284904754707
3.1028755298898574
3.961713777224208
16.547578235952333
28.70553360913632
26.72380038035453
17.835503229302173
16.464307193011063
21.679524123495618
27.96113956441146
27.670680724086193
20.628808473849247
10.666191267350309
0.33769744902871557
-0.22997393939063024
6.280793197089991
5.275071872075538
-1.3240892493912657
-1.5606964676220587
5.104982494162556
11.044398587114413
9.110208046021306
1.7943972769587333
-9.305925247793255
-18.050287841871256
-12.653530561533064
-0.7765944578484337
2.2740852666589477
-9.238295727994547
-24.59362201838571
-23.514459077228747
-8.403759009483629
-1.2743646853423007
-6.152891185790715
-10.505293865101079
-5.967388273321408
7.290569560098862
20.476228079612227
15.862369359721095
-10.940865262234444
-33.78172296916507
-33.00384573982568
-26.3699830775858
-31.421442494652712
-38.25331496475624
-38.09127420016781
-36.0725536608716
-31.15223773138779
-14.53320229530973
-2.3132675521676167
-13.453270429027304
-23.532117328430836
-13.692963590472182
0.14389954537882457
12.619946096350944
24.241898387093393
20.098201343047325
8.312299214626478
9.617405228067287
10.231380581328892
-10.637947528198696
-38.48137912469173
-38.86995345739093
-13.093354230274603
4.338490612359724
6.667291352862756
1.7263187419810009
-6.7756869675418505
-6.505289373119102
1.534865494424251
0.727933142875446
-14.783557986300861
-28.389095566444013
-25.248998278706438
-8.183986714100099
5.6006396658067965
8.430351002156996
5.7504400129893645
1.2328075827871738
1.5423069994398788
6.698943517711566
4.753442732116421
-1.5915924485957291
5.21615124502961
18.390408742916055
27.059388472417776
28.755574319072164
14.093752251573028
-2.4499068108184097
-4.604288700763135
6.493816109783237
27.76484337632221
36.80279102829866
35.75227262441025
44.41908037076951
47.741710216085224
42.28460427380066
35.13619244551944
25.589512582171444
12.266544839508251
0.9499078838694188
1.9036608074380705
8.324861323802835
10.976445898369022
10.326964135111579
11.661373634851655
9.158481704898827
8.92810341865333
8.51378964465024
0.16238279922318863
0.12837965899237672
9.400240072175938
25.552786410681
39.08759484800112
38.104049939927265
33.882810241821865
32.1819034601835
28.551817394929948
25.32529919986056
23.444346411622796
14.770075418011798
8.385173856498145
18.426950800449152
25.171787048027756
14.478339292316663
1.9028129123004458
-0.8244763967797889
-2.803879374938559
-3.7588824809816908
6.304078806666178
15.341816746651523
16.18835172116989
10.580681178893132
0.13261529862732038
-12.367045618829092
-18.170792992777482
-13.76639126408565
-8.76837106836263
-9.538989578259226
-18.193663069673306
-18.468919121497947
-18.389681064048236
-22.776689542505494
-12.160034400716723
-0.48259468480843115
2.9013941575820907
3.9421606135137175
2.516398616455754
2.872290544565583
5.021808740587629
6.6140029550112125
0.8266001270167083
-14.678465157411402
-20.818464358108503
-12.068929125316144
-7.33164991698074
-7.551748532291254
1.5596763845357988
8.196914555460696
8.15612165546614
12.888181729968778
19.486707573445972
18.228757467573274
12.501559295491251
13.642368792316361
10.99079249041719
4.715351189069799
2.718998504906568
-5.908427193969248
-20.132396582931193
-15.555549732877624
-0.3480826647368238
4.390520843487696
8.11328446355069
15.974541449199847
19.858743143525416
20.01766873125175
24.789053098214968
21.272201612523055
9.298437288430808
11.981910795246526
29.608449679961968
28.403006615140853
4.021081487654291
-10.397411141418974
-14.495647619412278
-20.392799492804407
-17.33119474946778
-17.609906956541852
-30.687237952480558
-38.743439358037186
-37.89736450529513
-29.55819411952597
-22.244522468091066
-17.079642054714895
-10.498378398382313
-4.375719797415697
0.9466874003455178
3.1089728715223934
-1.0647607129395733
-11.762505196343614
-23.81725037038842
-34.93396519329288
-37.46773085213822
-24.062300310307197
-10.978773215856462
-8.096650229947201
-8.591963378203827
-10.67845624819792
-9.555610276512098
-8.869646627746317
-15.692994891896113
-25.856242986327306
-36.05851940785262
-43.2660521456144
-40.31709974821514
-29.502421006744754
-19.847171214693514
-9.488438768702919
0.1850616791737901
9.067460302052394
26.67483540300954
47.911618078111466
58.64597033629013
51.577264891465575
33.70080147288859
16.325496906757568
9.006587881022142
17.564218689403706
31.1569873832489
29.139569959653592
12.595034375210275
5.83437162050327
11.891297721606016
21.889093395209745
19.436756189868024
-6.369637821356736
-30.118990803182363
-33.45744715117791
-28.543996607241592
-31.65502725292518
-43.71795608279742
-57.96496254300798
-56.14282158642257
-32.52802014692879
-16.212518051039407
-30.399389749353272
-52.51402973718407
-45.80185587021146
-20.253186880572258
-4.874429154540115
-2.83032914914583
-9.23518875289307
-18.482851847857102
-19.929105098198757
-9.125600073743328
-0.4344754365059218
-11.812666229746615
-22.45405052306348
-9.80270295259825
10.850293966483994
24.681641087686806
35.07712878079191
32.855930441766155
22.144999234043357
22.1209729341725
23.4786714124767
9.600059118390513
-14.332833776430267
-23.383340175807643
-17.96607661857642
-6.785818735764447
4.005469499053128
0.5359971426203165
-13.042713341852712
-22.32840641196996
-14.885115995592983
-3.7185697878392316
-3.9734589174624952
-0.2693718484799693
15.015221495379436
20.37914839243331
13.14923857154798
8.572704342110129
0.6018763176591344
-16.86753555561414
-29.650407272520003
-37.124897051517294
-45.91738975732699
-43.74942648444824
-31.940061450455037
-21.950919402517815
-14.260962100674726
-3.4986110190551343
-7.008313449260283
-30.40966528507703
-38.70048597468093
-23.644218226102126
-17.912490547063797
-27.908352843472816
-27.920582878505076
-23.892878824309207
-32.902793686592624
-43.7899813606229
-53.53358424255641
-68.01716136918165
-72.16463263115276
-50.985378285611176
-20.532087804107803
-7.927655823200028
-4.696380409408023
1.474111393387819
5.306037105555239
10.775939601697837
12.547344327892295
-2.541291778435941
-22.001385920669797
-27.788181946053967
-26.639730183655647
-23.12645924335547
-12.679046964490832
-13.974802412155938
-34.27646222683772
-37.40422380011807
-9.50915280070481
19.746724429452925
17.441621505427452
-2.795465328276423
-3.557550922988048
10.561036186680244
9.9971714972347
-14.423071278809614
-43.253717602086994
-54.37348697997485
-43.109471884672054
-25.021940107718653
-8.89778555330767
2.0643851525835353
2.4166153892389852
4.448796318747252
22.650124040768745
43.20484661174382
40.75866013096593
19.030919515268774
6.479336543936583
14.098893204462522
21.124485203278358
22.094595618638618
20.835684487842148
16.97241214165062
23.892953186904542
32.78218423263776
30.554012000274174
19.05367639146718
2.6349242593872786
-9.642196983388086
-7.963527382811224
6.659741603699837
20.22779657680615
19.01171483390785
4.441234389691101
-6.294239962904913
-10.394706819150446
-7.973902827920377
0.08927989638741005
4.686373742853609
4.877211869963572
6.495104268324459
11.755623019373703
3.6348613033586217
-18.09105858598983
-27.02394959350119
-25.449829968515076
-19.498885946416937
-8.529194510235959
-3.6269823850431613
-1.9145336325582027
5.170502254970552
15.577021495747388
20.686835434478205
11.819371133085502
-4.393533582506981
-9.497931415274682
1.8510351982503015
15.036727374598385
12.70338707044081
-8.820349395249481
-31.421286560362976
-32.86965594559794
-23.120678066999293
-19.426366562025915
-23.217613030020743
-33.36581601103642
-42.33091259236616
-39.92691172615437
-27.013489334276354
-14.430685158178171
-12.121105709429974
-15.703300245242946
-3.9857836269934825
21.785057022046466
31.40306642062524
18.026709196759423
7.229399111984893
13.36944291498031
25.698797387733833
36.60760237385619
44.756171968277535
41.114222185255485
35.34916738016468
38.994581874876715
28.80016130480652
4.045080915463628
-2.4849196099474837
7.233667687174905
14.769839509195716
27.483935970996352
38.48896201996824
23.609473550200725
-6.4060162808936845
-17.765448427459848
-14.199006508993001
-22.02568434321244
-33.48317513070913
-41.51784192315424
-55.76513371609921
-65.9700608516228
-61.04733819211073
-47.484742987448655
-39.65787132221287
-37.99694729741436
-27.709420708629196
-3.4806958931437872
23.234361801220242
38.108020719376476
35.63859048080879
16.214218469080617
-9.21874714778679
-23.75537835949771
-28.674677297276045
-34.78657107930349
-34.61050857181735
-25.397737698812506
-21.990493754830617
-28.966415840754976
-38.761227166670565
-42.14834513128419
-32.18350238728991
-11.231914448710251
4.0527246659179665
-3.3446053719712237
-19.439709218138134
-22.956943381240833
-21.471672148340204
-24.131868631292523
-30.46561521955975
-37.04545553108405
-32.861414113193774
-13.524943474222031
4.186585212788464
1.4345511903792256
-16.890602082233904
-35.686931570797526
-45.972591889551744
-39.13222201691139
-25.293704521506708
-25.030414294631413
-34.752007832311016
-35.891855863251855
-20.26431111385529
-4.3261326247785945
-5.816288774842115
-16.906180942664847
-23.179062637598282
-17.074517593016385
1.5816566893954065
17.592489039029473
9.338076826396165
-22.193668974493477
-45.1123798050436
-36.88538645041166
-11.38533642986764
0.521751418432399
-9.865426138147553
-22.210885756179298
-19.649495527225337
0.37256371542087763
18.758416899650207
15.46298303441822
-1.0201494099826252
-14.7291064750377
-16.40937081600425
-13.460676534821207
-22.522810940612533
-38.5075389677575
-51.48148042537174
-59.296179748450385
-53.93548523536955
-35.51509794209254
-20.726125960688133
-18.652167921400157
-14.008367479919016
3.0575980874580724
20.280112099214612
21.366280031477007
9.743991702415569
-0.8043479104285588
-2.279061821878726
12.923860529834263
27.562556866276626
14.236920863914444
-12.92029186677858
-16.803302344376025
2.13117579988575
16.7992147023142
23.643464719940212
19.922328451233046
3.2197811703154535
-7.936405180158635
-6.097432945245053
-1.3083414632025618
1.4301364541387807
5.918840653585432
16.802433830819737
37.16598974526347
57.63887927826067
67.3360170184463
71.46204286961697
81.65963685077509
105.02286695153737
129.98394778478442
135.54353544305684
127.32376077489864
119.60512194587778
107.27493692897764
95.68935047523131
102.15358131426943
115.28971147652429
112.29838069154496
95.04529327859157
74.53155175747307
55.685991165203035
38.784349607727805
25.41301283675591
18.92144295790079
24.086478482193463
36.87495916434421
45.14081115793148
49.277144603038046
50.72972214073218
43.30299718262772
25.156039745853683
6.7738854635599255
-4.512466310099726
-2.738754497234064
22.223090215718617
50.8487839767753
61.36415982011954
64.11800273472795
57.70877606139831
24.138267933357042
-17.986407710947102
-31.60936880326153
-17.103496448912942
1.3286532529160986
9.319771612522167
17.65533482587893
32.50640735867433
38.3588602776489
23.59598578924596
-3.0351761890222315
-22.944945195059113
-22.636119361539823
6.564257955148019
38.98740553268923
43.01032594948186
19.1043446364575
-12.43049966161057
-28.643164573782485
-27.320372933675618
-23.86166543515412
-23.817716134218326
-21.868338813659456
-3.433067482351615
36.57297936443297
62.27350363788698
43.46339107526369
-7.997464651074272
-54.15873978674764
-67.43091296230965
-53.84541160617282
-44.677452268039055
-54.139583266902726
-60.94721048489656
-53.96572937389531
-36.80306849859465
-23.883883262253693
-34.64952204432665
-58.33573640082147
-58.09343356010143
-30.209587514956617
-15.364174252414271
-32.01180061577119
-58.742067143673864
-77.69194352905349
-87.21245321889597
-86.23934419125466
-81.18246088630686
-80.41016561905255
-80.90560764838904
-78.09186789193096
-66.96331092774304
-46.80376939861696
-29.57833093192893
-27.37040645129481
-43.18733989421865
-52.13591748915123
-42.00181581398834
-32.797024898249134
-31.793534595355027
-34.047272621042175
-31.94956925196224
-23.769760167036353
-14.713809983174706
-8.571171233674587
-11.959193897626454
-11.937019169832645
-2.1531820724844004
1.5391397106080138
-2.1750949922499467
-8.642503079089932
-9.147199442545949
5.209166506410034
27.968134213259344
36.87032660717032
26.53706298385257
9.358314697263276
-3.8986287389877994
-5.4364030152319724
0.647697220637923
4.020389972998492
9.79584163714738
20.88114123654887
33.60149279142367
48.40386414858476
57.73454856791222
50.754061679950254
35.89885342450069
35.16661765712731
39.52368617189501
31.99802931697574
23.28756397679189
20.004118852247554
16.073850961028484
6.421049982241444
-6.638931594873794
-14.242887322172109
-15.193650193947349
-13.577046218709674
-12.687780085818044
-13.191380968399223
-15.860858036437303
-20.25160414770828
-18.060907551306794
-3.6394915687936806
15.268804088963211
23.49857653589124
12.374770061104346
-0.40295587868664123
4.634932348412124
22.152082978631327
43.62223643192391
63.05596908700918
70.70190394673989
66.21086385571873
56.39628198126522
44.83620550977184
30.161718623943617
17.049548501356114
17.917179835301464
31.25589629431087
49.317480991763674
63.74560382560637
66.65657049014844
52.88373000409106
17.076096576372745
-25.0997933898703
-46.691691036685384
-42.89681378279136
-21.406189167786742
2.8833227568343136
12.464080654018254
5.555756097458362
-4.059855197271537
-1.107173752924807
16.807039369881394
40.27320231618084
59.530482783123034
70.95066103450846
77.68680149529933
85.45367351715673
89.28686231221529
81.77361846694126
73.56285295087699
76.36846804562111
83.83009233650066
84.8144472170378
81.15034706572514
79.79693503982922
76.89999809538777
79.4640856181353
83.6997535690686
73.05989777274986
52.820728220593004
31.38632612191978
14.497365787450441
4.031824553561138
1.215075085157184
0.36213390653063027
8.005157872235221
27.550022967515538
37.05061424514529
28.64259883213619
9.36245469054216
-9.969623876892161
-18.089439084520084
-11.760568374901249
-0.1884092240553372
6.465112163672835
9.199499701616377
11.10505700397542
12.30082755572451
18.72471434673431
25.697265017220236
20.090534362798735
12.802482441721722
19.5566606854275
29.71531241278782
30.61281120285969
24.80662851984221
30.292241068987824
51.08877304778221
61.98274996797694
55.61795171306006
44.343057091582935
27.231883424463195
0.470528371606125
-19.02733213940736
-11.887182437975897
7.596900841206548
14.078102862385725
12.96277573704727
13.61974155751296
20.938259027249682
36.808585549028315
49.68559908324405
51.434910269439364
49.10527729654724
54.29742760992588
66.86493407932251
78.71806553695858
75.99769821828468
52.71775170216325
28.678791064005974
25.444515878006282
32.304737151347105
27.034633665054397
10.08327054657997
-0.3930346687981504
8.935508132492174
28.363170925708587
33.001067563891255
15.065985356331383
-5.77686057788455
-9.743693119542984
6.94338486507858
23.581558423586642
19.15072179670236
4.269320265284484
-1.6085218932444845
13.557020653415616
41.4796724116253
61.40533951273661
56.24000237684865
29.28679863223288
12.798101447569653
20.741655759855366
33.433794043144786
29.564382476108204
16.101419179626024
10.295914410952927
16.26373750267161
31.48235589496432
39.69053722429976
28.81025361882913
16.25222305169322
25.05868292908708
50.42887313422213
64.53136711701735
51.1940080894342
23.785686971238935
2.978644828190488
4.854510282905007
29.43052823757809
46.49839123223777
35.92765958284693
11.328927539133836
-3.2539041236879496
-4.602177895131268
-7.769383075955253
-11.887122741872876
-17.147372099428075
-26.282115601242392
-22.776090316307485
-5.9948283234938735
-0.5532251004510432
-12.62113185778311
-29.961349859664338
-39.96069180619436
-37.24631790946616
-29.89551084682305
