AAD_Filtered_TADAS_FILE
AAD_BASELINE_CORRECTION: BASELINE REMOVED
AAD_FILTER_TYPE: BUTTERWORTH
AAD_FILTER_ORDER: 1
AAD_LOW_CUT_FREQUENCY_HZ: 0.025
AAD_HIGH_CUT_FREQUENCY_HZ: 40.0
EVENT_NAME: 202302061024
EVENT_ID: 13207
EVENT_DATE_YYYYMMDD: 2023/02/06
EVENT_TIME_HHMMSS: 10:24:47.00000
EVENT_LATITUDE_DEGREE: 38.089
EVENT_LONGITUDE_DEGREE: 37.239
EVENT_DEPTH_KM: 7.0
HYPOCENTER_REFERENCE: AFAD
MAGNITUDE_W: 7.6
MAGNITUDE_W_REFERENCE: AFAD
MAGNITUDE_L: 
MAGNITUDE_L_REFERENCE: 
FOCAL_MECHANISM: 
NETWORK: TK
STATION_CODE: 0213
STATION_NAME: 
STATION_LATITUDE_DEGREE: 37.79667
STATION_LONGITUDE_DEGREE: 37.92957
STATION_ELEVATION_M: 602.0
LOCATION: Kahramanmaras_Elbistan_Turkiye
SENSOR_DEPTH_M: 
VS30_M/S: None
SITE_CLASSIFICATION_EC8: unknown
MORPHOLOGIC_CLASSIFICATION: 
EPICENTRAL_DISTANCE_KM: 68.73
EARTHQUAKE_BACKAZIMUTH_DEGREE: 
DATE_TIME_FIRST_SAMPLE_YYYYMMDD_HHMMSS: 2023/02/06 10:24:33.9046330
DATE_TIME_FIRST_SAMPLE_PRECISION: millisecond
SAMPLING_INTERVAL_S: 0.01
NDATA: 10501
DURATION_S: 
STREAM: HNE
UNITS: cm/s^2
INSTRUMENT: sensor = ACEBOX/SARA | digitizer = 
INSTRUMENT_ANALOG/DIGITAL: 
INSTRUMENTAL_FREQUENCY_HZ: 
INSTRUMENTAL_DAMPING: 
FULL_SCALE_G: 
N_BIT_DIGITAL_CONVERTER: 
PGA_CM/S^2: 126.619
TIME_PGA_S: 
BASELINE_CORRECTION: BASELINE REMOVED
FILTER_TYPE: BUTTERWORTH
FILTER_ORDER: 
LOW_CUT_FREQUENCY_HZ: 
HIGH_CUT_FREQUENCY_HZ: 
LATE/NORMAL_TRIGGERED: 
DATABASE_VERSION: 
HEADER_FORMAT: DYNA 1.2
DATA_TYPE: Acceleration
PROCESSING: Automatic Paolucci et al., 2011
DATA_TIMESTAMP_YYYYMMDD_HHMMSS: 
DATA_LICENSE: U (unknown license)
DATA_CITATION: Turkish Accelerometric Archive v 1.0 - Disaster And Emergency Management Presidency, Earthquake Department
DATA_CREATOR: AFAD
ORIGINAL_DATA_MEDIATOR_CITATION: : AFAD - Disaster And Emergency Management Presidency
ORIGINAL_DATA_MEDIATOR: AFAD PROCESS SERVICE
ORIGINAL_DATA_CREATOR_CITATION: AFAD PROCESS SERVICE
ORIGINAL_DATA_CREATOR: network: TK
USER1: GuestUser
USER2: 
USER3: 
USER4: 
[...]
2.832136879661621
6.349755349765242
5.764780844033724
2.5733604369585947
-1.3964118666722085
-4.054183828767374
-1.5187020391698156
5.662417406355976
13.344295199401909
19.00854560169251
21.794866424525427
22.361833019028108
21.46785069601548
19.61225794535669
18.905730367357428
19.6376360883453
18.68192796230567
15.356394413097867
12.700388106798592
13.270268094470323
17.25450462423872
22.046284608691693
24.095683221434285
22.703654234224555
19.467560231725077
14.36313650180539
6.689776120892457
-1.2353544360394733
-7.269429348741903
-12.846983771346705
-18.8058906454042
-24.16172642253551
-28.169418890124476
-29.747742470617144
-29.494443489373083
-29.24772884488657
-28.226032231029315
-25.797727510813203
-23.21281664639403
-20.133318124394908
-15.118186799510863
-7.662125621847346
0.8849465159898544
6.967571759873585
8.881747799967522
9.068090899823627
8.648002119741326
5.844148486506296
1.060258531233693
-4.020383436504983
-8.358602087625068
-9.669077110497142
-7.530337131808396
-3.553615154735501
2.211126531180522
8.02106924366515
10.314774542708138
7.044081326136894
-2.5702533644037557
-15.759882435888013
-28.22710836694605
-39.85910040541943
-51.26770774082796
-60.81707337398774
-68.25949900625889
-74.83021957573519
-80.61399093455087
-84.89805031716648
-87.87612830968108
-89.58417972575954
-89.29149417819414
-88.27465310407722
-88.48358356728822
-89.52669691349956
-89.105682162076
-82.16953972116966
-64.78917186291915
-41.03673858400573
-19.673732913480904
-6.741581813685142
-2.434396809025334
-1.6789383284366861
0.3947268135430651
3.8479028381253513
7.1521427841690794
10.865695642143532
14.99167408013665
18.2283780537649
20.352681385188344
22.047463794278634
24.26720138093904
25.353269803802913
21.181518327786552
11.584889430750057
-0.5756409321046886
-12.802109620720861
-21.893239872985937
-27.29985720785965
-32.02428582331868
-38.22944837359028
-46.2011620311144
-54.272259711606274
-59.45673841724093
-60.72044675745818
-60.37879346066327
-60.65594585404316
-60.50013391777386
-59.107018237117316
-58.00659971656516
-56.8685711677189
-54.19029455849712
-50.570275209239064
-46.96972469703184
-43.999830876141765
-41.52075405632637
-37.41804887840727
-30.80246323806837
-23.445594316423307
-17.077065806050918
-12.897249348624099
-11.005606919104368
-9.976809996615504
-8.759252369669879
-6.4743966306911656
-2.0948216307399035
3.5663466441545832
8.025210628060673
9.486583986935855
8.2083111051516
5.437557474273403
1.531343395648343
-3.5112650828842633
-8.963551086077981
-13.696224684445118
-16.945753581213516
-19.218561101904953
-20.95246805754412
-20.619733852883538
-17.162528077664224
-12.516688576107226
-8.558979254705145
-3.783871826775848
3.318762909190887
10.105480999504673
12.649460560704032
9.821377104538024
2.845758020562248
-6.57080557450351
-16.604469917517036
-24.762268812257098
-29.313771947156805
-30.758319916955305
-29.58717366371531
-24.87548460874657
-15.30958562370132
-0.4340681425668737
16.453287219884093
29.994373250423713
38.907577452726386
45.407635775331364
52.0224119730705
59.50045019300495
65.02335313017083
66.97382059161109
67.52459159675857
68.2051465976105
68.77999885267178
69.17622879176673
71.32758908409079
77.23101469772539
84.90065867736746
91.17780331284298
95.45858024287391
99.16137928612807
103.90038216164244
108.91592345214993
112.19641822770522
112.74590534225926
110.11942959427408
104.79097630629175
97.43656158492026
88.4864301280157
78.72791833568763
65.83579723199625
45.60377497792717
19.446239088296316
-7.7710917347410495
-33.45491910096566
-55.000442522565976
-69.96812935517991
-78.71814856499812
-81.99325769758953
-80.39791034063963
-76.10034430643282
-71.1175461134504
-66.09595325763327
-61.204216460235415
-56.50721383528049
-52.15947570313352
-48.408888795936285
-44.87280479605128
-39.87445285929674
-31.9760918026846
-22.825859650175243
-15.773801087600056
-11.749634098036132
-9.711900775932957
-9.700032015237428
-12.439702653254617
-17.71406965918292
-24.580255532888422
-31.5120972203868
-36.725536628305555
-38.796733135403926
-36.83747269631553
-31.08010059971089
-22.036200236814132
-10.967332079320151
-2.152916620908871
0.9672547356427258
-0.023404947619501047
-2.0338891015783096
-3.231958888853061
-1.6387725732000369
4.5720855023427776
15.710105581136348
31.009643475847767
47.81193157513629
61.39337174313551
69.19834967239547
72.12999916346607
72.06624342200054
70.95302657397333
69.53814254990252
67.47729389828314
64.31049182488273
59.3452887904383
52.95342332256715
45.8512440990029
37.75532529652818
28.55116201260536
18.65547697950714
9.228903265717744
1.2416473965786616
-5.1504320726195205
-9.903583317942699
-14.466874227493177
-19.892703638509097
-25.700097968054187
-32.47274019225918
-38.5069237424166
-40.1581061985765
-36.648397496884954
-28.04526783506776
-16.425172013423584
-6.4807751841930274
-0.4991101868489242
0.8773017544615205
-1.197926092987898
-3.0923027647000865
-3.5191412169449663
-3.0128051685550816
-1.9863968649299835
-1.6460718880938345
-2.6170701882282565
-6.19206591178098
-13.894733081701888
-24.175280653333374
-35.14073258578543
-45.83382324108421
-54.22590029820825
-59.79004926027457
-63.73591385615901
-65.85125299036164
-65.71894776879282
-63.40390633545079
-57.981751188541764
-49.781972330584395
-40.569293792565304
-30.38208687880072
-19.64101527793237
-10.314514814093036
-1.9819159390701746
6.810269034158827
14.811630981482498
19.674210176688145
20.689291905980387
20.453652239406257
23.17496713872979
28.80357590870154
32.14893840842441
28.910311309689344
19.222729946243174
4.782160307378666
-13.650438566849608
-33.28064830515478
-48.58536767855447
-56.06648617041163
-57.049034487175874
-56.2155755206125
-56.27991191394136
-55.36943019704765
-52.23229341869254
-48.85678460008408
-47.89611574193112
-50.86763012506165
-56.11976295647862
-59.72565166664601
-60.09557336776949
-58.501307008212514
-55.73551305738154
-52.211178577101556
-49.83341091008003
-49.75828853692589
-50.22891508532448
-49.34289039179727
-48.100320413984754
-48.37201237407324
-48.708882168784015
-45.51575136594488
-37.44551814723447
-26.044251960082956
-13.939381621089906
-2.8020696296464345
7.128065710521293
15.23526460186417
21.211662559020976
26.89239253683473
33.996282487421695
41.68308120447616
48.30787706110242
53.86710312820879
59.132380605605064
63.44378706503946
65.538838006922
66.11083312086011
67.26854601419963
69.69531090319177
72.03650584461106
72.74814062907627
71.68673615049444
70.00605049313727
67.74667592361402
62.63299538661546
53.993600112312556
44.524741125964866
35.37722539407182
24.794832482498354
11.912193746356465
-2.506333445984545
-16.584353924644738
-27.714174240344967
-34.586170474004405
-36.944262228425494
-35.047879237857295
-30.857996563754373
-25.829268556749348
-19.278782912888364
-10.639552004575602
0.10938724952577662
12.809711605698833
26.67444799887554
40.75446329397282
54.2620511761669
67.41574478101936
80.56868833817873
91.78559793542091
99.21922982062912
103.98899808369563
108.3039340675921
112.98736710227926
116.46431240965356
117.11557514768066
115.68415680229838
112.82136747028134
108.46284544150234
103.23650668694279
97.84119485579605
93.68679225214848
91.58459234388404
89.6817023585673
86.31422821005657
82.0491090638051
78.33381944940609
75.64157736828817
72.3160730794787
66.43282463387976
58.69070670516093
51.74665324884963
46.55528733174191
41.822151287746216
37.54102515754073
34.24638809728937
29.57298976229552
21.345836664847806
10.743958355754176
-1.098937163268122
-14.01755087545714
-26.611734745528352
-37.3525762504675
-45.18956655531474
-49.741168457239546
-52.521208079223214
-55.003288455964075
-56.820523543193005
-57.150073102899526
-56.318680468618346
-54.80413004300184
-50.57286846684213
-41.11897863087801
-27.201562433494267
-11.908425023310198
1.2675428203466508
10.510519466127299
16.04944141834625
18.05441044213434
17.60836152625452
16.508263821196344
14.84260697448446
11.710337920752776
5.897335350560859
-2.6182233783611117
-10.872095195972195
-16.16541988527365
-19.230670778772275
-22.364696100781075
-25.87090839753081
-28.40538122338474
-30.155147173036056
-31.994034550434375
-33.819392437197365
-35.57676566007396
-36.86777985306583
-37.088993372556324
-36.84537024936516
-36.65883835629929
-35.48580394114022
-32.62489116700238
-29.237562162628294
-26.18010132203565
-22.595338124055075
-17.415137009273696
-10.305087904107024
-2.358939052607742
4.237298727262882
9.00785274889021
12.757309700554472
14.93591125415394
14.888087239368605
12.962547518417855
10.189618955372872
8.06386703644694
6.299497007337003
3.271005363860774
-1.0054665833670553
-5.497550352107209
-9.785928931500685
-14.5280086579747
-20.72598292179139
-27.729376367058073
-33.64070284644723
-37.57832924800278
-40.11660262437745
-42.437840588629605
-45.67848901233784
-49.698955971458126
-52.90632041885032
-54.8143110326486
-56.019637735054324
-55.89445229003961
-53.63593015149563
-49.30752303879911
-44.23073875937902
-40.87162845292694
-38.96275324926947
-36.19869686643401
-33.24353074565087
-31.410599446208302
-29.879289362975236
-28.178472868818897
-26.531207793646473
-25.399879827265533
-25.524201258829088
-26.558882799367577
-27.48737627314631
-27.860510720241187
-28.568084733580783
-31.59867183612589
-36.75568822388246
-41.181505602005146
-43.13726507572375
-43.13835892967103
-42.46470860740523
-41.114039397734366
-37.55120047376277
-31.195610625292165
-22.313867188177223
-10.688563731426173
3.491818419148675
19.327067819751832
34.37950851397836
44.85649762968974
49.34153996540417
49.48176719987273
47.51086303377995
45.53563012603525
44.719170864157554
45.42993199335172
48.06944576860261
51.975562193050166
55.71572680626522
57.98327886364167
57.713419036972496
54.05663819318431
45.42411252953255
32.13567024317397
18.100065136186835
6.484325674070209
-0.658957163648946
-1.2803370816637092
3.9492347207732017
12.236124451283453
20.90534870194239
28.226747935328543
33.87380946163302
37.82926742265594
39.65323145445154
39.49068870590854
38.89235391148112
38.7761061707577
38.088382204861276
36.38530008661496
33.83539282117906
30.46535330202395
28.404389985465034
30.030230242377392
34.52422058094712
39.90515617635114
45.87719451250899
52.44372076588694
58.248854414111854
62.129814130344556
64.10917695013042
65.0505882412064
66.4539442426794
68.67995542207439
70.37829575825636
70.96668737482867
71.29336490354602
71.46985267042267
70.22864956508809
65.48785304604584
54.724607939312705
37.94635929405098
18.944963044551717
1.412242663734195
-12.586090338421378
-21.786426503785773
-26.957708068125285
-31.086656349393206
-37.03749104065469
-44.500519615199806
-50.379769833083365
-53.210563414988144
-54.32673312738579
-55.444760700060414
-57.38114152404117
-58.99834522131413
-57.92904149346561
-53.57063637539825
-47.39172684978076
-41.07154970740808
-35.20710807061061
-29.50377522492475
-24.738788820164903
-21.664976155994214
-18.363042508621277
-13.253602864329261
-8.49845334414668
-7.05935224407696
-8.523027206194126
-10.497481149701441
-12.354754442707492
-14.404236617275847
-16.56784502277514
-19.033852270127724
-20.918767438760085
-20.905211960276258
-19.454946515909114
-17.255316341519578
-13.875146659912268
-9.535797732755297
-5.8860233902816645
-3.6659726445200085
-2.056057643561318
-1.1848837574393447
-1.902474618659879
-3.817765161772131
-5.6310206824333635
-6.643466737732435
-7.3342088107447445
-8.150937831253193
-9.182757476155274
-10.052843879615539
-9.860042048616375
-9.161954846733469
-8.22588770446219
-5.882202363495785
-3.7322708355782126
-4.296506420657456
-7.046098956524261
-10.453819455139268
-13.648924524213703
-16.87756777622184
-20.604897364107746
-24.410492881448558
-28.15157167815926
-31.602520407615103
-34.815452125827996
-38.78864519662901
-43.88008208422876
-49.90506515161351
-56.20142888167735
-61.893416518491875
-66.14983626675496
-67.05050093061726
-64.97621711149367
-63.17418905011305
-62.390048010219736
-62.3511818458773
-63.52704589919334
-64.17585108132741
-62.88788200422025
-61.08577296663998
-60.165722698146645
-60.35660380640698
-61.7716413190545
-64.32778167862787
-66.9461715095428
-68.55133062856717
-69.62768509274764
-70.51208203512067
-70.79243596507322
-71.37947983279935
-73.15839149565168
-75.42332093639484
-76.20747526322879
-71.07622022435339
-55.77977315405403
-31.78972467528694
-5.312419672446154
18.04382975247214
35.96817008518777
48.625293416832115
57.08083398417657
62.814590629159525
67.34017772758476
71.86457003113017
77.09710267417908
82.99720631851451
89.5881618716939
97.38376542236676
106.07808436464275
114.31504710919178
120.89544978312878
125.2063958082856
127.16693305172099
126.13181803874973
119.94098654317212
106.62436829478773
85.2323332000336
56.41595577689815
25.161813030971192
-0.9594361057528463
-17.197006457503768
-24.559224739012876
-29.595493722287074
-38.814820216579236
-53.701764235603385
-71.94015065564787
-89.05048049935762
-101.569302994406
-109.78854454845454
-114.54125431368088
-116.16359809761589
-115.59261763370012
-112.3434132559309
-105.61613708891025
-96.39802773766202
-85.28716736806696
-71.57812411780127
-54.50700372761751
-33.30935867766374
-9.168635649389698
12.742978377730612
28.181936964122233
38.790778888734216
48.80502383971488
60.66368218457303
73.74085429239219
85.02517978409112
92.28590001252145
95.36395449773386
94.45648183967772
90.34858625917882
85.64965317973287
82.72185993726202
81.25241798312334
79.51779339290833
76.43254144564574
73.15354434188248
72.06472520950103
71.45534067853237
66.44799999984905
55.57414235840843
40.556102317397986
24.18383557090718
9.528348827121919
-2.6587858947391556
-12.662634661313021
-20.061075647030407
-24.689280660106576
-25.99256404332967
-23.950162160111006
-19.082797352330612
-10.913867124483195
-0.20867230582455748
10.795459868699284
20.54207567634435
28.578728069465324
35.45045394491968
40.23300944578205
39.845343755922755
33.31587078453854
23.437795863397877
13.038316153490074
3.3887250818105783
-3.3393073260955544
-5.867592909767811
-5.958781770214184
-5.434654205190352
-6.203398710257802
-10.288566317828327
-16.491361179522873
-20.924336547439516
-20.28562710277361
-13.871773358188092
-2.9916521061882633
9.901666425475273
21.125898500031788
27.82745185312032
29.04415210329463
26.263543654057912
23.506493526616072
22.266921384511036
20.089655541187216
15.259677943188814
8.85434256430815
3.695952829343072
0.9937889120663254
-0.17907048959244595
-0.3131391801921943
-0.8224379403288905
-3.2334657834963285
-6.7566172842339745
-9.606756321926362
-9.04239654131574
-3.685508714296107
3.943695819768537
10.718800432869562
15.145850697067573
17.692469686824897
19.557239528173028
21.295960497515374
24.097539668955463
27.79571967620126
30.92019798294382
33.65255643058546
35.68923943716636
37.08292572675801
39.177676055014764
40.462496774759344
38.933078209536475
35.68360085122888
31.091406064881184
22.98195377829578
9.872191997662531
-7.252995702374977
-25.438614804066088
-40.78410631115537
-51.093856813536185
-56.97754187283736
-59.978953294034426
-61.958158605872505
-64.2997867517624
-66.52015792027967
-67.58613928652115
-67.80788962720464
-68.01192873139078
-68.3019068539053
-69.05942620814612
-70.3307378442651
-71.29895825569842
-72.63786164160473
-75.15388273086606
-78.85541973300428
-84.81797885134567
-92.4508232370525
-99.03083627762781
-102.73899720893073
-102.56805067239951
-99.8206301211558
-97.80060519937093
-95.88207236152887
-89.27011396166243
-75.73913964559596
-58.08882238964948
-41.341637106184784
-29.154348274052175
-21.303444603481942
-15.896428007638933
-12.158722913887335
-8.606951643889955
-3.4574080724281093
2.4389985355916344
6.769275182052377
8.278744488706733
7.0294943077115635
4.530169516690687
3.906546160979571
6.927874981767003
11.122305296140278
13.018895503185899
11.92675728055403
8.834753532620692
5.488222846834459
3.939356473260485
4.763014348228455
7.586994690116713
11.199527064580664
12.40907533390648
9.770992753185704
6.028287233637003
3.9535946002147497
4.042094798670122
5.924333838620486
9.142572396719732
12.6355685902112
14.959165965999253
15.896688130806599
16.025926734227472
16.51846406878381
19.846064268996383
26.872637285660428
35.92942046567296
45.061797497644385
52.79932447501382
59.085065272281035
64.11012664800424
67.15199210321609
68.27206670161047
68.21377988796603
68.42616247271052
70.28237102890854
72.18084595769147
71.35735206717514
67.81346381330208
64.32240089001472
62.92819460207354
61.71843537509092
57.11425785995906
48.532515181612396
39.14251406833454
32.15769832054182
26.915874199963625
22.026584081204405
19.708962980322617
21.11613838861184
23.51238915824879
24.801637946444405
24.522110890801123
23.723546592793006
24.98144000546451
28.234827240100184
31.218541820977155
33.411797190746555
35.64526021837895
38.474954298680146
40.88875239970484
40.71465671346201
35.957008907017546
25.688331042278367
12.026128241377865
-1.2948997877000188
-11.956423218168826
-19.27778618518885
-24.248594920808003
-28.53193493838237
-33.586419633040144
-39.97536253064346
-46.18264970524786
-50.90235742497312
-54.39211711317629
-57.043167606294475
-59.69210007398718
-62.99748050980539
-66.28955507284908
-67.95768247509348
-66.43071013306874
-62.36124968137321
-57.48405181547014
-51.07032812278646
-42.21388945840352
-32.24809458706764
-22.152164650180982
-12.630235871400226
-4.786362652138712
1.9133189876337813
7.821121063655446
11.732718127474632
14.07976980588621
16.429149577324438
19.02712614398696
22.1631677212396
26.575108063981997
31.710478414609096
35.7163159056831
36.67338779023779
34.305811945710104
31.06554581883045
29.219323040337503
28.126053200200083
26.91363821457928
26.102742073532436
26.120851962599378
27.394916945437817
30.101089747093468
33.18019782859806
34.62866531338949
32.87431845695866
28.434167087796173
22.659581435851898
15.687569512407103
8.008548532708955
1.5098181291280968
-2.3444848232367743
-3.4589108016987806
-2.2745151370626413
0.310043484025042
1.8591961493629108
0.23148160998096973
-3.396496430452909
-7.039284721643129
-11.05827763473134
