AAD_Filtered_TADAS_FILE
AAD_BASELINE_CORRECTION: BASELINE REMOVED
AAD_FILTER_TYPE: BUTTERWORTH
AAD_FILTER_ORDER: 1
AAD_LOW_CUT_FREQUENCY_HZ: 0.025
AAD_HIGH_CUT_FREQUENCY_HZ: 40.0
EVENT_NAME: 202302060117
EVENT_ID: 13194
EVENT_DATE_YYYYMMDD: 2023/02/06
EVENT_TIME_HHMMSS: 01:17:32.00000
EVENT_LATITUDE_DEGREE: 37.288
EVENT_LONGITUDE_DEGREE: 37.043
EVENT_DEPTH_KM: 8.6
HYPOCENTER_REFERENCE: AFAD
MAGNITUDE_W: 7.7
MAGNITUDE_W_REFERENCE: AFAD
MAGNITUDE_L: 
MAGNITUDE_L_REFERENCE: 
FOCAL_MECHANISM: 
NETWORK: TK
STATION_CODE: 2703
STATION_NAME: 
STATION_LATITUDE_DEGREE: 37.058
STATION_LONGITUDE_DEGREE: 37.35
STATION_ELEVATION_M: 840.0
LOCATION: Kahramanmaras_Pazarck_Turkiye
SENSOR_DEPTH_M: 
VS30_M/S: 758
SITE_CLASSIFICATION_EC8: A
MORPHOLOGIC_CLASSIFICATION: 
EPICENTRAL_DISTANCE_KM: 37.34
EARTHQUAKE_BACKAZIMUTH_DEGREE: 
DATE_TIME_FIRST_SAMPLE_YYYYMMDD_HHMMSS: 2023/02/06 01:17:08.6017760
DATE_TIME_FIRST_SAMPLE_PRECISION: millisecond
SAMPLING_INTERVAL_S: 0.01
NDATA: 10501
DURATION_S: 
STREAM: HNE
UNITS: cm/s^2
INSTRUMENT: sensor = CMG-5T/GURALP | digitizer = 
INSTRUMENT_ANALOG/DIGITAL: 
INSTRUMENTAL_FREQUENCY_HZ: 
INSTRUMENTAL_DAMPING: 
FULL_SCALE_G: 
N_BIT_DIGITAL_CONVERTER: 
PGA_CM/S^2: 165.064
TIME_PGA_S: 
BASELINE_CORRECTION: BASELINE REMOVED
FILTER_TYPE: BUTTERWORTH
FILTER_ORDER: 
LOW_CUT_FREQUENCY_HZ: 
HIGH_CUT_FREQUENCY_HZ: 
LATE/NORMAL_TRIGGERED: 
DATABASE_VERSION: 
HEADER_FORMAT: DYNA 1.2
DATA_TYPE: Acceleration
PROCESSING: Automatic Paolucci et al., 2011
DATA_TIMESTAMP_YYYYMMDD_HHMMSS: 
DATA_LICENSE: U (unknown license)
DATA_CITATION: Turkish Accelerometric Archive v 1.0 - Disaster And Emergency Management Presidency, Earthquake Department
DATA_CREATOR: AFAD
ORIGINAL_DATA_MEDIATOR_CITATION: : AFAD - Disaster And Emergency Management Presidency
ORIGINAL_DATA_MEDIATOR: AFAD PROCESS SERVICE
ORIGINAL_DATA_CREATOR_CITATION: AFAD PROCESS SERVICE
ORIGINAL_DATA_CREATOR: network: TK
USER1: GuestUser
USER2: 
USER3: 
USER4: 
[...]
25.766840549689192
25.703221759043608
18.896848997398553
4.453754647581787
-8.508904579991519
-20.835715641991612
-27.100789094137646
-25.915924265460088
-20.479511949134242
-11.630958700692485
-6.361376138225815
-2.661899503240039
-1.9884388101801036
-5.67233971034663
-9.70141434119431
-12.758384905094257
-11.629136230879787
-7.970167425999229
0.2150732546075304
9.405618510637366
13.818631921784558
20.537254688006097
21.986896062820083
17.154457926494416
16.68592890660705
11.336413304193899
3.6830862440849264
-0.6800671205945449
-3.4402216988671146
1.5219428650512818
4.379199985667291
1.0598422717705052
2.013059915523745
-0.7846804351135153
-6.674002289732605
-3.4523877947468526
-2.2262949215739427
-4.658082388344921
-2.7692955278661673
-7.126715387196584
-12.424152035184118
-11.991930032899793
-12.405284624658846
-6.836095840579953
-2.886289158881179
-5.300523262848277
0.9071072532526997
2.0109155719642153
-2.14841048385952
5.152886653076923
6.301931585559207
4.289019109231726
9.444669469760731
11.16934918319306
15.030831052961581
19.071578005638187
18.410993252306827
18.645252745958473
11.945066427402969
0.548095019189871
-2.9730314376746545
-3.213507698417658
-6.276215446991532
-12.506050480060237
-15.252657219490116
-20.51156003993734
-30.431630245906067
-26.23730856505865
-24.439779400203534
-24.48855552856559
-10.237893364286563
-4.499387587244339
-2.63862753798011
6.701926272625305
11.073966620821794
11.433733886536995
7.481427272986743
8.889371625864577
14.589927168366527
8.927426377496396
13.834441709195238
15.63938249812527
3.475905691312087
6.303551498219852
5.228296583190686
-2.6668427672067305
3.4309871376027323
3.04116983825511
-3.2274324460277617
0.8901009242657945
1.2747886787550446
-0.04468140176063823
0.004064431967816834
-1.219973282020861
-0.016538815628864174
-1.438482136753263
-3.835400242876581
-4.801421251761441
-8.152146668793035
-10.01498433352122
-10.771715229143462
-9.650139556855567
-1.0587425909054433
4.292625632183141
3.848004404155494
10.060765738286296
17.225113723403762
12.275616726129817
9.906836633690023
7.896061631387979
-3.3304322120231173
-8.75185932477046
-15.539667575639179
-24.108372448017153
-25.96430563346233
-24.521606123843497
-17.57213162120345
-16.058112282649308
-16.315204468795503
-5.9088205714306214
-2.9584087379257764
-5.959013112169111
-0.877840193737459
2.324728477057605
1.1397890185537962
8.189608236776152
14.779671888719065
7.923312852771089
7.9816152696094385
11.70587998010623
6.5224158865770185
10.933052684983165
15.50808928118721
10.2226960369314
11.351338162538642
10.11627341147215
6.190625155204032
7.904349620483278
-6.937846464167106
-20.246006084620134
-11.858650278721068
-12.213298584210392
-12.864690749584163
-6.102284174578071
-9.726932760010474
-11.916060314937889
-8.677412338274737
-5.38575231096318
-2.7820189261102657
3.318675858926474
13.973448383047435
16.3644914239967
17.15409322832378
22.192858769854745
17.055705071506797
12.036587914122896
8.541725816540287
-5.4359864958025765
-10.406188283726898
-14.129781671540544
-21.192557700302125
-12.545163173198123
-10.980898630558242
-19.656098143868054
-18.616719764318084
-18.838175375046106
-17.39707209717395
-7.159698475599267
-2.508188165295265
-0.4938298719875806
5.221934035870062
4.014106238790193
3.1232012030098546
6.326993482697859
9.253265048461351
16.527208499889984
26.096320042274552
28.40541748257571
21.182288094491504
16.880849609010205
-0.4484783542454068
-14.520499551845269
-11.507167495639447
-19.630644414645825
-12.508917514822317
2.9707270640515757
-4.3297314395836475
-0.42804158470147446
9.29180452950962
1.734129660537677
8.256172568806939
13.19193103920464
8.580996336232813
13.537823615116352
8.258635300422949
7.719496941520048
11.192407863451633
-1.918917332276774
-5.0760101897846654
-5.468669659599387
-15.314585931382137
-6.2987314391428875
2.841881153971312
-4.282987620337537
4.904828806055904
12.80041995421883
7.345266886394145
11.338927575672667
11.730096581591912
5.92813178027295
-4.353187340831441
-2.4785829466283733
-1.450632939997017
-17.23961894443068
-13.705150613861655
-11.202095866969147
-19.41316579130092
-16.472259868640474
-14.322493743153126
-13.44406991419186
-6.90530501974875
-0.15200732532899497
-1.5849786003696038
-2.697801591767424
-1.2851607844509625
-7.29759831501882
-5.550639296487369
2.9044347000144874
6.9338273590486015
9.94296167053804
10.324956426831863
7.955311148421224
3.7823314527161127
-0.5151104783374174
-1.7712777458572067
-7.8643802301434915
-16.766654899173666
-15.936347783925978
-16.168946707433644
-16.094536816366137
-0.3201526005561168
7.145932060755436
3.2220626612877528
14.216071478930065
9.982439821123796
-1.9676925652647541
11.183510843996872
2.272260749480191
-16.013193506262027
-7.0208782236785305
-12.82354235559696
-13.937294395678025
-1.3070074655918187
-8.032242420444389
-6.860177718655103
1.899594658021527
-4.338534572438143
-5.779024744007431
-4.402590774652629
-14.64842899212578
-10.775747619199677
0.6472085349815209
-1.2047461229791838
3.9498296866678104
7.033264769194238
-0.82059885466905
11.998641829194678
24.551233359765284
23.789325054576835
42.87814330084362
50.47815763264376
29.289806285106494
27.19912034074395
29.21609871629346
18.945554574144232
15.122848905563242
4.591228569434296
-8.151207342875509
-11.28709122283896
-6.9570039040940745
-2.2834397724766493
3.693841393252103
15.565193315036748
21.280503767091588
19.379072028674138
25.029331435626716
25.30206960244863
18.352842210829316
10.781871012583478
-4.051557182520738
-5.377826382021364
-14.992254732966767
-40.86502261849417
-33.42733096704835
-32.000814221593856
-52.60832531048429
-37.10437636712461
-20.276598219158707
-18.795257197756623
5.184573998564371
19.286503428964377
13.860507063410731
27.846219402232446
32.650985068102905
13.07160069186285
11.768783001435587
24.78918162299963
20.281094439500595
16.02256564686631
22.696554894743674
15.53260067174665
17.028515354098694
26.43620618924918
19.222177417091284
23.867260745292967
19.960460496519936
-3.6617000979212664
-2.9843328344657776
-5.907846960916835
-23.98646886561304
-23.853284715160402
-19.338739806191892
-19.47023889829392
-10.73669569803718
-8.495813891635915
-9.797423948432645
-7.135720906533016
-15.041938974170357
-7.219488837247244
4.772803395196185
2.9482433752678148
2.634097921603059
-7.845462168192216
-15.847841513467683
-10.118868613435799
-16.63752135862582
-24.55892715618355
-14.991901374893867
-22.940248833965626
-23.853344087207745
-13.95074485321935
-26.745061784787904
-11.598836000950076
-0.21797332997428062
-9.046980823666921
12.41136339384453
11.667948847878924
3.472943130242868
18.0195824560726
4.211191883007011
6.1645109956824395
19.918791505352644
0.7895515986028084
4.434552168543425
8.578046413923714
-7.24219196701627
1.6455524786809
0.5777518053213107
-4.271997417105854
3.837228718652112
-11.07376535451084
-1.1354058417042199
18.143416834350415
5.701776307026867
16.697389427788476
23.65967684104448
9.908511738207979
17.77779649660023
18.965100760873334
16.91669512912912
33.9404119952222
30.520043608732728
26.462356238946764
31.21154128124757
17.29973113867353
17.972788671253088
13.884753695409268
8.127363740571216
24.63279980097837
13.818557669182633
7.0262445288055
18.42066187731921
1.4580969171214364
-1.0766320152402853
5.944881881622864
-13.192926561284688
-12.551902423900641
-4.198709987362171
-13.276763414973573
-3.7808362516853298
-1.2857633759859495
-11.19527349407085
-0.7235260748744728
-4.736472028774061
-6.0780336043277545
15.599531988564102
17.95600145896134
22.191318799678303
29.327773379533298
3.4527451738656727
5.058487125089566
15.692199921085905
-10.622185999897402
-0.062144383450073386
13.379597438071924
1.0133145645815946
15.555297124993915
25.85853196758362
20.007095409608482
30.87995653733787
35.398403048687676
29.5457184105329
29.556937910035927
12.816564750797525
-0.19786211379627552
3.827689257864969
0.8250218819447552
-4.74096938641087
-4.157931367523054
-5.082803881049177
-14.28300603671798
-10.122272523936777
-3.442730804539407
-14.422721967801829
-13.163270256939015
-12.259382198196509
-19.124266649470357
-4.0592785178944775
3.444271786327538
-12.798160851821349
-13.631187407054442
-5.407140975074083
-13.08568355905724
-14.994693373968524
-2.3154571198047478
2.6819495011479297
-1.182992785598095
3.780087986423595
15.026973217525944
0.5135158678082616
-10.981366562304856
4.123169266773504
-1.5360470091466913
-5.716823183533861
-0.46392765638520556
-0.1253276273487198
16.25819066695175
31.64296560566804
37.55195307602951
49.73552032511053
54.291848279575795
35.034135258840585
30.39531348254964
19.997552004873928
-13.226502136233194
-17.484397681595528
-21.542550154361326
-36.15137389306491
-23.403411296596165
-3.9324748627339434
4.600995020189996
17.014640473845155
28.168843756134414
24.611961435470377
18.19158496226291
21.603238587643833
15.77063672086102
9.184737451947981
13.49225095428931
3.0185840990350234
-6.468128660481387
-7.761387395010694
-21.39289727954233
-26.935594461377956
-22.707182415545837
-24.5032514783601
-9.520828729192717
11.495198400843341
19.660052685703462
30.887143948342977
45.074098436576016
58.76464058698861
58.073112068839194
56.8239743877193
68.56505302718035
51.05550788696275
40.54132552415954
52.745452968656004
27.804768917307047
16.917619976578735
32.776096092031864
18.41439243922082
10.810826871484892
15.43963430441035
-20.228937614300186
-46.486882873992194
-37.262394029993814
-53.274970019923465
-59.32679617847124
-47.77261415097313
-58.42353846603958
-64.83959083303372
-53.92341871671742
-21.192211094751997
9.48001684825375
16.241385462278636
35.4833987337078
34.588022911450324
8.01075774418933
8.673060985611794
-5.190166543856399
-20.723608394784435
-18.697244854547122
-20.628440998456735
-17.40151858529321
-23.31662368040559
-17.876602260751216
1.0817420269005997
-1.3919231546788926
-3.3195002132782734
2.10526899727903
-3.7460787245186267
-1.0529691294125638
-5.343266276029881
-15.193658172910572
-14.861715671733936
-17.846047712486175
2.810896801475132
21.899679012584556
18.442530221138878
19.821919081775512
18.66338137082935
13.407050116510423
-10.581527578045387
-22.267704211645686
-24.87813124555187
-55.45131150376531
-54.61600717662548
-45.632201468238726
-59.99483557412572
-53.71549396080444
-37.86023774564884
-28.302936650173827
-24.146023182074188
-17.733599261091975
-7.273691129716859
-8.183815010579693
-4.757710677564547
16.0697894170706
24.29290246805144
18.057595436482423
26.664510006461544
31.90484409811505
21.925960271556562
23.375284981205763
3.4671437527026954
-32.58738825891199
-17.007138373267257
-24.726476675889053
-53.55056728469418
-24.1198724677316
-20.661735594671796
-18.90129492395653
9.829084735564473
10.210587477048792
24.577394286509545
40.29448178109775
38.58725530419751
33.083456656645645
-1.5191681099266012
-41.923659804649105
-64.35173472246886
-89.28145339168232
-100.76778477036387
-74.59047994394822
-57.35795141479433
-55.91305356797588
-26.511832065659913
-13.963576277514928
-18.84073143600463
-4.082197872230691
12.237090576306299
38.07159927006479
68.75733167023222
82.81344611061546
90.17850723010059
109.30264537320038
90.8555308337007
38.66056719986282
29.287827934453667
13.682395914073288
-9.276607008282394
13.284950436758677
6.546524813005015
-13.173142021408605
-2.656972871845628
-18.856195736861032
-33.04184890033722
-29.023250479550352
-38.95166123963872
-18.620999926584854
11.790225717854405
-3.1258133485983666
4.275055814239331
4.166345886985022
-45.26847373213928
-39.22299303541881
-12.198051439394586
-11.501661107304002
6.524085577541662
-3.5853940625770275
-28.14649568013487
-42.85859053165407
-94.95939182334268
-105.16163211910431
-74.00831708572088
-75.36482903548438
-33.210191044167786
14.996748495510262
13.973705025513889
40.47140486690901
71.35364035912221
42.040005395076
-0.33481638199922664
-19.352004935835293
-50.78750151370385
-70.17658090966543
-57.949035650311394
-65.37004022269979
-74.80828307202718
-61.05866099181034
-52.72669684531076
-42.944414801576755
-24.052634340971274
8.56612006632343
37.32804707480454
73.86897967075028
122.32838570777695
117.9599721055917
101.19342908720222
95.21196809721661
54.48961036551356
33.175668309266634
46.31408332187257
33.94367739651378
28.42665930278988
31.0182475922324
-10.727807322893987
-48.510476349036374
-53.94720610125368
-61.304549162590924
-52.599444058044696
-34.86171424180521
-47.11754813444254
-48.86694373255329
-37.80504297145818
-21.92563197925618
7.97357196708944
29.00234004147438
63.361240412036025
102.43867542268674
129.073167499021
147.96575305917858
154.4354259012434
162.1984785018147
145.50797386773613
111.14148884384839
104.2934356052726
73.66407065198615
9.692325565371691
-27.87555149567322
-58.79298591743552
-85.31973262075167
-76.88096368352531
-76.37676813886398
-94.69434896600622
-91.77713491090377
-95.88960281567716
-114.69877960899431
-102.22421748748606
-107.87768690626676
-137.46618199585845
-108.79612811179837
-87.05173751730891
-108.3505565171494
-85.14161987288101
-47.34010932904293
-36.05270522472994
-16.731812208800932
9.81741571220062
17.83008854182934
3.779145405248267
11.965134526056069
21.955691626139455
12.216817887797347
31.003579600233127
52.76077911328554
49.389495046645855
70.03670988690641
100.63782639098424
77.25586048541929
54.97003551961759
56.44293835453328
29.034299364463177
21.692350863190875
37.04179281200961
28.912524740639316
6.53558604665577
-17.047281007919818
-31.461067756054454
-48.685203798058566
-50.25567050703276
-44.28291672745716
-53.70148658777168
-31.633507284974126
-4.9420371547211035
-12.423796916607296
14.319550491682397
45.94458841869758
13.555306822576624
-1.604279382794699
28.500700458699356
23.004558162693293
4.468682178078748
32.88957831789293
41.22222405659896
34.607505520914586
64.59473346018588
53.0657838005257
20.124906262856662
27.274670401878726
1.080277715091988
-35.42214655135122
-23.523799386592575
-24.348177109817257
-14.560358256160983
15.720522250226933
9.375592841236166
14.178925221358593
24.082250632067957
-5.574761103398121
-21.79345937304175
-17.144808090224373
-24.11425171586262
-25.012775535198383
-28.8014759008664
-41.995405595559525
-28.52809260659786
-15.400670373866006
-23.966737712182653
-30.437734483795072
-33.57262742833841
-30.580422988945077
-27.246089887636927
2.2021543013707285
34.32994470111488
25.165854961753062
44.98191884763717
47.39685567527667
4.802259619733869
13.001120680261899
-9.081691867990019
-54.85256682651604
-44.4549800775898
-65.89049842378654
-84.39283271444154
-53.014796371768824
-42.6899888395836
-27.734757067271794
6.102369730185047
21.190069717398547
26.2045377919777
41.29421525030008
44.517302656954236
35.43889261164228
43.716235705068875
55.260756929723485
59.136304980739
42.437676195648535
39.494621911049926
48.85435674530701
36.31991462125977
46.493176606435
41.61344503571531
-4.299097222143013
2.8659036794254744
13.963456882358125
-9.78193978432917
17.03433362309986
13.2486939553468
-36.805236992448194
-34.30342266732892
-24.68147619558656
-44.91487905879708
-27.112412447365443
2.768551651589381
-12.344722737417747
-17.73837554696444
-9.472260306026106
-13.992444066830567
-25.978837218084948
-42.288091026349036
-55.43023975954756
-64.93123661525944
-66.7531508014099
-55.47717435580239
-53.78848285474699
-58.8474166475192
-44.738391403587094
-33.295476464403286
-29.51467601059744
-18.55353352426406
-8.403440123802989
1.5809067685173712
7.415478165939949
10.751626376177462
26.660817851873837
52.36265040725162
76.28166116172976
69.93838978485778
54.9999801029665
51.290508346404515
33.34641073550123
7.616075436833148
-16.681476779943846
-27.67960314728332
-39.666474861507886
-51.67341672430991
-39.17153638022282
-38.9992134837392
-47.68812083764662
-34.50064177926564
-25.41151966765224
-11.243650667436485
3.4164304546675424
6.921700718791685
21.192242116533674
20.041557370979717
3.498827002248993
5.6225906169130635
0.5699882290532082
-14.901816096443111
-6.708766343060948
0.6384862750071282
-7.9209972427610476
3.519572263051533
26.084576086125264
29.651710523772188
29.440490971594436
23.284069650771407
0.35715169126977925
-27.375617031939193
-37.79052391047317
-26.24274188320696
-24.351944038665945
-27.169057390780566
-20.48936326220435
-43.040554302781665
-69.5796013018689
-68.35197360092904
-79.95455972115629
-79.51860707266218
-60.267192839718454
-49.68258366116994
-13.732151277831527
20.973318361930264
7.05430773192911
18.011699665845804
45.60235448636432
22.236411088097555
32.65652419890567
66.4001985348396
46.83937624183093
37.56905009231223
49.08939529779854
36.29407759926205
36.704492582913026
47.81207291459937
31.885913413324047
31.359228188443165
35.54968792766827
-0.0007298106091503796
-12.969812953641684
5.160630553182898
1.1087291652332933
16.433004895927002
46.827555015937435
53.39782820095371
65.03791969297332
53.94159281758309
35.01230220365387
53.28102437123117
27.947032287375784
-1.3974921196423524
29.501665075296213
10.275355965987155
-2.1554298095645645
26.334067381120263
-5.74635191824493
1.394608556344325
34.50727601815572
0.6612691237939059
-5.017128675667062
-9.5757803286769
-60.2362923153804
-74.80410874051451
-79.76965123962316
-99.49689315017127
-74.16617501055036
-34.41115023708551
-23.278831054806876
-9.883556377830512
-4.432766507038643
-22.106360785855962
-15.935527628108867
2.655336749399608
12.806720549160726
31.11378878087223
35.585319025761926
33.27964037705414
32.48581278062854
30.293428306038557
25.415876569002346
-3.492225938998282
-14.203998761042053
-12.392051265831624
-40.659520281912094
-39.405415532042056
-20.722707846197494
-36.512526392500675
-35.055159372442695
-29.87947007902885
-48.76555769883642
-43.19450059833876
-38.301137116908
-60.472890809904605
-58.578261128276544
-39.151669793438415
-48.01072313863256
-41.438191997391286
-7.624106160691409
-5.756852331007808
-24.848273425394638
-14.328726440848762
4.702631879323341
9.04161631192782
27.107771572607444
41.11244780524968
36.29848720104967
26.66260550782242
25.868929826913185
