AAD_Filtered_TADAS_FILE
AAD_BASELINE_CORRECTION: BASELINE REMOVED
AAD_FILTER_TYPE: BUTTERWORTH
AAD_FILTER_ORDER: 1
AAD_LOW_CUT_FREQUENCY_HZ: 0.025
AAD_HIGH_CUT_FREQUENCY_HZ: 40.0
EVENT_NAME: 202302061024
EVENT_ID: 13207
EVENT_DATE_YYYYMMDD: 2023/02/06
EVENT_TIME_HHMMSS: 10:24:47.00000
EVENT_LATITUDE_DEGREE: 38.089
EVENT_LONGITUDE_DEGREE: 37.239
EVENT_DEPTH_KM: 7.0
HYPOCENTER_REFERENCE: AFAD
MAGNITUDE_W: 7.6
MAGNITUDE_W_REFERENCE: AFAD
MAGNITUDE_L: 
MAGNITUDE_L_REFERENCE: 
FOCAL_MECHANISM: 
NETWORK: TK
STATION_CODE: 0122
STATION_NAME: 
STATION_LATITUDE_DEGREE: 37.4339
STATION_LONGITUDE_DEGREE: 35.82021
STATION_ELEVATION_M: 119.0
LOCATION: Kahramanmaras_Elbistan_Turkiye
SENSOR_DEPTH_M: 
VS30_M/S: 501
SITE_CLASSIFICATION_EC8: B
MORPHOLOGIC_CLASSIFICATION: 
EPICENTRAL_DISTANCE_KM: 144.43
EARTHQUAKE_BACKAZIMUTH_DEGREE: 
DATE_TIME_FIRST_SAMPLE_YYYYMMDD_HHMMSS: 2023/02/06 10:24:51.9173880
DATE_TIME_FIRST_SAMPLE_PRECISION: millisecond
SAMPLING_INTERVAL_S: 0.01
NDATA: 12501
DURATION_S: 
STREAM: HNE
UNITS: cm/s^2
INSTRUMENT: sensor = CMG-5T/GURALP | digitizer = 
INSTRUMENT_ANALOG/DIGITAL: 
INSTRUMENTAL_FREQUENCY_HZ: 
INSTRUMENTAL_DAMPING: 
FULL_SCALE_G: 
N_BIT_DIGITAL_CONVERTER: 
PGA_CM/S^2: 67.457
TIME_PGA_S: 
BASELINE_CORRECTION: BASELINE REMOVED
FILTER_TYPE: BUTTERWORTH
FILTER_ORDER: 
LOW_CUT_FREQUENCY_HZ: 
HIGH_CUT_FREQUENCY_HZ: 
LATE/NORMAL_TRIGGERED: 
DATABASE_VERSION: 
HEADER_FORMAT: DYNA 1.2
DATA_TYPE: Acceleration
PROCESSING: Automatic Paolucci et al., 2011
DATA_TIMESTAMP_YYYYMMDD_HHMMSS: 
DATA_LICENSE: U (unknown license)
DATA_CITATION: Turkish Accelerometric Archive v 1.0 - Disaster And Emergency Management Presidency, Earthquake Department
DATA_CREATOR: AFAD
ORIGINAL_DATA_MEDIATOR_CITATION: : AFAD - Disaster And Emergency Management Presidency
ORIGINAL_DATA_MEDIATOR: AFAD PROCESS SERVICE
ORIGINAL_DATA_CREATOR_CITATION: AFAD PROCESS SERVICE
ORIGINAL_DATA_CREATOR: network: TK
USER1: GuestUser
USER2: 
USER3: 
USER4: 
[...]
6.162128920030731
5.955460955655548
5.324047592761545
4.727993942312913
4.272434898735466
4.044660667654576
4.134436811440911
4.442023519523575
4.930860131808624
5.583960578406364
6.275368866085642
7.016201124881387
7.334165536400607
6.570827021064329
4.578875898869103
2.17721271447898
0.4214601225483022
-0.35268340923164915
0.07378582732601113
1.5947621409661015
3.508735558139945
4.872483290865398
5.048107030947352
4.340450410805119
3.2167271501710974
2.053590507713266
1.1465143634913402
0.4982558621391064
0.4939291422868838
1.0290741034093729
1.803307174151564
2.994380595232028
5.115326880951813
7.9608081203817695
10.536047390138158
12.009941759751621
12.25667116268974
11.930828531040946
11.410747280127874
10.36930166300066
8.425711682772207
5.501202502929186
1.826684573515682
-1.8925316658907563
-4.83445607019063
-6.182585681573622
-5.593213448232747
-3.54731115695293
-0.9462016020759375
1.5060108778752546
3.7324379279417736
5.63580650248966
6.830059327889771
6.875606349752539
5.812650425261108
3.890308349065821
1.3683576995505264
-1.4070405787649918
-4.1342307307719075
-6.5257719406217864
-8.914947240286391
-11.611578426717731
-14.273033367696229
-16.553286328778444
-18.44240171805131
-19.99305974497814
-20.462777540964666
-18.74118654549455
-14.707454872704698
-9.163196168502045
-3.143479447768936
2.6236232313414467
7.420573868163025
10.389762772655818
11.11750630208289
9.995233399709383
7.593930037847568
4.391670121576502
0.7042091081454028
-3.2004353507698493
-6.899842232135671
-9.736982897138406
-11.688423754805656
-12.859862998962104
-12.414078013544339
-10.362561054044194
-7.6390205362229455
-5.033863658351081
-3.0712670126617705
-2.385708847193361
-3.5552998440131085
-6.878938691303588
-11.836477551518023
-16.93946938772129
-21.241130594067616
-24.55970872432634
-27.24362358041726
-29.576097341547694
-31.232536419973275
-31.878923810203684
-31.547409576661675
-30.921531994268907
-30.62872117374785
-30.17656786385446
-28.997356080370242
-26.982585465216005
-24.429064260051316
-21.69199727548507
-19.105391481368585
-17.02086243027663
-14.782301518285708
-11.585200300315735
-7.296267634728741
-2.204632971115316
2.704906196188432
6.3853155892756845
8.721095044569212
10.33065096190892
11.500719337523632
12.460137065051308
13.262139962551393
13.598836810878817
13.551707484233242
13.631793962585773
14.153337774823141
14.748773756463853
15.125052512673097
15.298744584965167
15.479678772875609
15.47903623105842
14.805569179055983
13.19795783989409
10.93755658819004
8.397531274662281
6.091262441381813
4.690659236570199
4.106282781122419
3.841420895857154
3.323266531998802
2.255029604521988
0.7287217495736603
-1.3443754910365244
-4.2754835725461025
-7.534869797818318
-10.611231875115951
-13.32578194203387
-15.592340199877016
-17.58852415635625
-18.905361113289743
-18.988994127704544
-17.984881635280757
-16.37246169523217
-14.539831553050568
-12.47499024070291
-9.85743626608114
-6.7167706755658205
-3.122750046680737
0.5008604208552921
3.84176462382174
6.551631730705133
8.42221258093029
9.70863117942145
10.35012598408221
10.678996483755752
11.532796622563767
13.476636061549968
16.722714664588892
21.012801300331496
25.63266032016224
29.62774772906341
31.95316065895415
32.37316507175331
31.25180719822293
29.23864802823081
26.53664209300017
23.188985805215868
19.680600016406192
16.351982341650757
13.248556776494993
10.69547401573909
9.105174875587014
8.442855986233798
8.481907070274344
8.587454740554465
8.11965861437546
6.931364412282464
5.308532008620244
3.1249587284198275
-0.13884306967551574
-4.980069542679763
-11.194985746615892
-17.775646259835014
-23.40577325908611
-27.450095567620387
-30.497448949964642
-32.35988473923265
-32.54637103331039
-30.87233309255663
-27.847015113791464
-24.607333829784082
-21.647552169199955
-19.779216452570175
-19.263962104044534
-19.90359035285429
-21.57297325627765
-23.81294987924916
-25.796530436863954
-26.343760982364802
-24.601012288264222
-20.350800066242304
-14.218711334753174
-7.794028166340814
-2.4949240868752263
1.26024622755464
3.0874095955361702
3.187434610951297
2.1359949467972195
0.5886458201008753
-0.7933010449422786
-1.9131989204641227
-2.3628987794186873
-1.405477430040094
1.5371257580938174
6.212450779139242
11.367577785944343
15.28182819148778
17.40140697305569
18.249632765681095
18.238840283383944
17.680991458300245
16.94376164732471
15.914092548673993
13.471330225411402
9.20725380329551
3.7381099689462465
-1.7659513306026164
-6.334432825133921
-9.486044710475884
-11.377462546475535
-12.40589345008457
-12.770316509542461
-12.718181901454063
-12.454498360425331
-11.966703147958068
-10.901132839686326
-9.023365864884415
-6.756622923836028
-4.123796767624908
-0.9745004950323134
2.3073021816358903
5.11452220053814
6.775301068400244
7.235584506377676
6.578797950904281
4.978515777410547
2.6448899112310027
-0.3949715817465701
-3.7881732067257876
-6.308857772601202
-7.168664183980369
-6.295102329076541
-4.182640025775352
-2.1224277391968838
-0.7476834692370251
0.15757300701602148
0.7525374820801147
0.9882054355683525
0.5010086051586808
-0.6829579461700953
-2.4969045719922027
-4.529394311796326
-6.158593234507891
-6.534149889286966
-4.944337785583618
-2.089299161211727
1.8412956427089802
6.288515849494924
10.690816473240389
14.871281923773173
18.198010881755035
20.361199784897547
20.521989558639746
18.40259374929197
14.400885959124281
9.542569139736193
4.791202759294315
0.38064376419952256
-3.6960200026695076
-6.977407898675006
-8.984520597398456
-9.585931573022078
-8.653696999215654
-6.602351067811661
-3.623897187693727
0.18243659044173158
4.776663634411357
9.311555566257983
12.684820807643137
14.689441563299441
15.835078153535362
16.57764146031034
17.277871700140388
18.380921208624333
19.70271853747754
20.9428331610719
21.71618961078133
21.825460860547242
21.363229585369826
20.431983916091706
18.28879911498574
14.405151100571013
9.241481716455134
3.4151633330399207
-2.2461865154374117
-7.285110817082042
-11.498936787572742
-14.966386773746695
-17.685820902660797
-19.83092014188393
-21.566664108615345
-23.57848440817919
-26.738030355694626
-31.102462035636396
-35.78227145612088
-39.57484854196723
-41.768286913240615
-41.842802038267386
-39.866438978566784
-36.22952092133714
-31.523793678482566
-27.316215365777776
-24.872211318392427
-23.9828330091046
-24.049150176658223
-24.52941088416322
-25.03915460402558
-25.448634494841126
-25.722554509289125
-25.44314354855452
-24.2438392819738
-22.260140200607992
-19.75485841333308
-17.011960087078556
-14.21180611805632
-10.825540161574294
-6.122120856917958
0.03138501377241309
7.1234727712672
14.399108620031804
21.27018573290621
27.119671047534215
31.233636215477134
33.07300161701647
32.761466128305635
30.749283212124535
27.583805685114996
23.723612362989094
19.531482025915174
15.661388916026747
12.55671749529666
10.378534754395705
8.496330002971867
6.190075464786385
2.9314995416888414
-1.5957028079085407
-7.198422231937179
-13.197562265473884
-18.828739987152314
-23.7274418609126
-27.577135467993987
-30.777976177693333
-33.34406389912806
-35.048025457300476
-35.53904299365413
-34.84772175631524
-33.47870188363535
-31.584246212553705
-29.225077661394256
-26.249257338607865
-22.364852310821593
-17.521659048361716
-12.094544886506265
-6.72210196288369
-2.2966378409774437
0.15153138100277322
0.028493114913097594
-2.603919532258028
-7.456338448628531
-13.374571197551344
-19.01673297280388
-23.524486129496157
-26.56570605787786
-27.95046329054173
-27.187883009353698
-24.077712540671403
-19.26785985637458
-14.312965315655982
-9.70829651764885
-5.588291379875785
-2.0370578816730665
1.1640398702767134
3.1852022143205754
3.234023957583691
1.2452343284213918
-1.5505385366266262
-4.427288126267289
-7.2877482823226
-9.696709361610855
-11.656327252267818
-13.658901910300044
-15.460124024175935
-16.556945639832936
-16.788510264572352
-15.877841024358474
-13.834046778068862
-10.821830621818927
-7.068697515607988
-2.4521058172681567
2.509103433448026
7.130663196166266
10.890988062706445
14.00009374541319
17.17810907015025
20.8869917728888
25.006576707609938
29.04272852371554
32.55870028237652
35.41626065921586
37.536838413996925
39.11305446388161
40.37982514237303
41.21448760435015
41.562215287139026
41.44491655777865
41.192734954317544
41.07561720597884
41.39471270053648
42.29472990646412
43.2872728478625
43.573642749020095
42.797990311713534
40.80926658487767
37.47847957255991
32.654419767653536
26.537225228164004
19.188196171298433
10.730735097593323
1.57984019443271
-7.166741291855254
-14.171893574084018
-18.568002568065335
-20.415581158134064
-20.156911132968297
-18.33084180615636
-15.714648020370005
-12.68968105447358
-9.170882835146726
-5.371787439595663
-2.097602359091603
0.15958314008587837
1.2257210419170033
1.4799736818553637
1.3351230884140508
1.0364313865319357
1.088040793130537
2.4196982843418664
5.515639739898878
9.596477034309553
13.853541588371035
17.815244585406727
20.816591340789454
22.230085758939428
21.867831249140924
20.358296353129052
18.276352157695328
15.904454695915659
13.631063416883379
11.875349730656374
11.315408323102854
12.05976783471828
13.590998785873925
15.100906028474691
16.41259229664752
17.91119685636615
19.8020505417789
21.397266672594878
21.954797106232398
21.586787511473826
20.236435063328962
17.852858364728228
14.224237490391156
9.788397948628036
5.296236048313056
1.1115269745246943
-2.675913004649512
-5.9578475697759155
-8.76839581835341
-11.303447092768153
-13.863210589940508
-16.662180423046344
-19.491409847014555
-22.331973717732247
-25.315875724174496
-28.18908746488301
-29.938838425931202
-29.52250670884261
-26.420478892345244
-20.822249795662444
-14.272162899303009
-8.18576973692682
-4.2049527269178135
-3.333237144203803
-5.656846733116072
-10.563452904970926
-16.47748981567059
-21.605141036180637
-24.971300068475223
-26.23883658574107
-24.647929343323753
-20.375202916855642
-13.754064978498795
-4.922861349046529
5.588204503035788
17.108293637156862
28.566518405411117
39.15769701649535
48.03806548744764
54.750488706186886
59.297594100238314
61.45753692027472
62.21694437887653
62.17807658013852
61.46227390355918
59.91627739743039
57.766488064806865
55.466255935826936
53.229546422726884
51.56607018018143
50.631394853310816
50.37786372299636
50.37140769044345
50.22899732390644
49.26455862970444
46.600442618653474
41.87856973138634
34.769249108295675
26.01408241469907
17.106908018142487
9.254786158732951
3.697146595841468
1.2251041361408919
1.874662963009352
4.571054336111685
7.768437694877746
10.286599352088123
11.025189625070523
9.489841341782578
6.210181904894475
1.4401329284364581
-3.6488330897192096
-7.5540707262345395
-9.502866054411582
-8.829001618733122
-6.1451628098771245
-1.8907791079557539
2.6665784641936727
7.24365444005232
11.74504158092426
15.564143408721351
18.940019590468296
21.748217331743096
24.19666909235888
26.104289355669717
27.612134202758675
28.956664913705126
30.445457924885957
31.80721652924113
33.060012711413556
34.2735688116672
34.71396798699671
34.35512683818209
33.43096225779315
31.917998361012753
29.912895349491663
27.130962244387206
23.455321492356585
19.810028364063697
17.324001235533473
16.556220837229485
16.992220545128703
17.900457962733967
18.31764616836893
17.338692235544457
14.399748598168575
9.602442893916384
3.28859453830966
-3.5567855356942406
-10.376919629598445
-16.403737424255205
-19.87751667924393
-20.13690976690501
-17.20508948636629
-12.416443665070423
-6.73674336115522
-1.4771835230123675
3.4152852797265156
8.287428830245053
12.799497770168054
16.458520845288735
18.35533372421852
18.304357637612476
16.614247544517806
14.235798579635178
11.731025660861018
9.179430843082127
6.688172953381271
4.462913536031664
3.111000487552638
3.079540281879484
3.979003265827835
5.1063956809442566
5.412472598300469
4.555513663753726
2.040045028928452
-2.023547659230199
-7.374585125597119
-13.667948433208721
-19.992946204743088
-25.309577834534906
-28.451642242679572
-29.555252298497024
-28.819268366337948
-27.041129816566073
-25.863052804519317
-25.835763981209226
-26.16251044625749
-25.7662157085242
-24.270164797997552
-22.13522734603092
-19.761965744319433
-17.209262722995987
-14.978275578400607
-13.197072950002676
-11.81715781328519
-10.978994728185757
-10.604460917890268
-11.09276975287177
-12.33914677435747
-13.47555140974422
-13.428339151103348
-11.254810541615026
-7.421951014978885
-2.527006179063287
3.16589620693944
9.259491752195034
14.87162840535174
19.606514621823088
23.975979491205727
28.53517359115332
33.73134839750055
39.66319851604754
46.21783197548069
52.92444060265058
59.136973893865346
63.61450397884472
65.38469173888232
63.80915695306649
58.486029286867165
50.20667051305156
40.038387002371785
28.8210717378518
17.52720185279627
7.407081880935431
-0.72253437201277
-6.883032656263593
-11.541854307507238
-15.250903765948802
-19.138463101503127
-23.614259893430795
-28.35080094257031
-33.20529074939241
-37.55421704020034
-40.744714609005015
-41.90147824029505
-41.00596566049458
-38.10393265508026
-33.39562477202655
-27.723909746192746
-21.34600064719576
-14.836730652591259
-9.252773415571607
-5.027931617732083
-1.409425346260712
1.526645968413802
3.393403505478353
4.6145366943474855
5.530877801246289
6.282229434226932
6.917099263758674
7.262880983130528
7.251955672802524
7.306193411125798
7.8153166651690675
8.702465570939777
9.365776224783644
9.476464681499067
9.10152622723148
7.785763747087685
5.64736707578775
3.273152452240216
0.5958184945396411
-1.6142690035808185
-2.5996489190427394
-1.8982095304903512
0.4653839762333738
4.248777220063778
8.882145867352714
13.581579138143017
17.467426195286198
20.095233369173435
20.752849334214666
18.94509087741955
15.00262206636779
9.994770160940979
4.93861828179131
0.06894930134571116
-3.070525220035417
-4.091082910683891
-3.1570800876983336
-0.28125109144794924
3.724690475220453
7.680549043403717
11.04292570404609
13.372822665389709
14.56754851682551
14.818679037477
14.64601104539464
14.540808978611615
14.443332323891825
15.169017101757596
16.882788400304985
18.835029222817752
20.39615729908582
20.56291421933038
18.56057994610156
14.418836072774466
9.07741728701548
3.8447774016376863
-1.2658490290205306
-5.923756329381405
-9.250855004638929
-10.992633968470765
-10.44632342208929
-8.19545679128395
-5.533205371562775
-2.6909820097731285
0.14441854631063092
2.91389082183019
5.924414294548316
9.565466961698478
12.811369165755961
15.084468331673325
16.23765581859674
15.669260561421009
14.259583483336662
11.928698093520481
8.857815972555107
5.444936868156721
2.245035216068636
0.3245584402198806
-0.2655508295479016
0.4984935124573166
2.4733260678570073
5.261233141948238
7.843388563971377
9.286469934969674
9.278554411592701
7.345830017460694
3.5492153201385976
-1.1305772011074473
-6.642300749523945
-13.337199909850643
-20.810421761980596
-27.731249867925563
-33.897022541065
-39.25233166889516
-43.66283648916409
-46.76526335318278
-47.75148385335253
-46.69336062663461
-43.37460158927293
-37.67287157730227
-29.71625141044925
-20.353661853200066
-11.413876673908831
-4.158155058672001
0.8950459681986168
3.967654018798083
5.22089740475433
4.603890275369073
2.6245243805233347
-0.48827874620064826
-3.941503983721159
-6.803438722109306
-8.549885876827354
-9.161988850820636
-8.74075841942978
-7.06472820959124
-4.01426773695382
-0.8163340999078865
1.5218156808798449
3.5309151713189646
5.666455056679259
7.910344585432068
10.011473910936088
11.421447626190416
11.687818300593806
10.590626246512885
8.301985122081886
5.428372591157138
2.0658649581851556
-0.9235445125520854
-2.980177768579301
-4.736944093177686
-6.508572795118047
-7.944484577233313
-8.631141784186793
-8.707372324376172
-8.60667739967257
-8.624461169399888
-8.493465817904669
-7.733496169789604
-6.299708504954681
-4.477540238582567
-2.3611792493696
-0.046724514895043416
2.13692722513279
3.972669719441999
4.836557060381207
4.422395269171657
2.5526738843535735
-0.5124821534262747
-4.227319597705485
-8.280872273936641
-12.430318353501256
-16.522638677098808
-20.51657313308456
-24.51887498457295
-28.247874361096354
-31.657949320171436
-34.40706487331203
-36.47752966548045
-38.04831972222449
-38.868359827538164
-38.4990754282173
-36.85808794739477
-33.83545207342297
-29.693873493001444
-25.11771557007249
-20.66156595963117
-16.629091079570507
-13.382508788234603
-11.185563222029648
-9.379079143166267
-7.249269644410249
-4.725565799764934
-1.8501946939296845
1.2954776770444045
4.271655977107708
5.859078221696875
5.2866708885961735
3.231879936217607
0.010728080751660374
-3.9251545319527676
-8.191711387313704
-12.461392672308026
-15.815326240008059
-17.99565043772997
-18.812810335978817
-18.199782987310073
-16.975428332128747
-15.230871047499322
-13.225544988818228
-11.995424112079824
-11.833292858857133
-12.261063744681637
-12.621832087258236
-12.42984038106496
-11.127456898090673
-8.819737754443613
-6.162059933199867
-3.269810515647826
-0.9771089797226956
-0.6777388653264499
-1.9386392323753596
-4.396015024580807
-7.262611637489207
-9.967156377069823
-13.036756051347046
-16.305481627385888
-20.078459945344925
-23.981304919142083
-27.93716295696203
-32.09732066926643
-35.40068083979046
-37.827728003219995
-39.77046539600895
-41.19119823341678
-41.61750990138082
-40.54109049128943
-38.80628879797539
-36.785103902503415
-34.82659665781747
-33.12573568797704
-31.58251575558146
-30.629879560782786
-30.39774837252605
-30.76721891811058
-31.598974464876804
-32.506076368379965
-32.90201227204429
-32.55607324780016
-31.86902385601277
-30.691699038539976
-28.856549017900157
-26.175538619627442
-21.950896946239805
-17.32152839578882
-12.8529094496859
-8.969657667099519
-6.475489934085979
-5.597957347763275
-6.393254603720827
-8.316107728667143
-10.882854942262632
-13.882713783804261
-17.082403413315923
-19.69505965892761
-21.210809066833818
-21.441242661361162
-20.923966299154458
-20.23044108295595
-18.911691873618793
-16.980729061791074
-14.692439551908784
-12.166550693722535
-9.973945547002435
-8.543457767243694
-7.262419697227175
-5.880396253885147
-5.03329036268039
