AAD_Filtered_TADAS_FILE
AAD_BASELINE_CORRECTION: BASELINE REMOVED
AAD_FILTER_TYPE: BUTTERWORTH
AAD_FILTER_ORDER: 1
AAD_LOW_CUT_FREQUENCY_HZ: 0.025
AAD_HIGH_CUT_FREQUENCY_HZ: 40.0
EVENT_NAME: 202302060117
EVENT_ID: 13194
EVENT_DATE_YYYYMMDD: 2023/02/06
EVENT_TIME_HHMMSS: 01:17:32.00000
EVENT_LATITUDE_DEGREE: 37.288
EVENT_LONGITUDE_DEGREE: 37.043
EVENT_DEPTH_KM: 8.6
HYPOCENTER_REFERENCE: AFAD
MAGNITUDE_W: 7.7
MAGNITUDE_W_REFERENCE: AFAD
MAGNITUDE_L: 
MAGNITUDE_L_REFERENCE: 
FOCAL_MECHANISM: 
NETWORK: TK
STATION_CODE: 4632
STATION_NAME: 
STATION_LATITUDE_DEGREE: 37.256028
STATION_LONGITUDE_DEGREE: 36.773694
STATION_ELEVATION_M: 507.0
LOCATION: Kahramanmaras_Pazarck_Turkiye
SENSOR_DEPTH_M: 
VS30_M/S: 428
SITE_CLASSIFICATION_EC8: B
MORPHOLOGIC_CLASSIFICATION: 
EPICENTRAL_DISTANCE_KM: 24.09
EARTHQUAKE_BACKAZIMUTH_DEGREE: 
DATE_TIME_FIRST_SAMPLE_YYYYMMDD_HHMMSS: 2023/02/06 01:17:06.4080940
DATE_TIME_FIRST_SAMPLE_PRECISION: millisecond
SAMPLING_INTERVAL_S: 0.01
NDATA: 5332
DURATION_S: 
STREAM: HNZ
UNITS: cm/s^2
INSTRUMENT: sensor = ACEBOX/SARA | digitizer = 
INSTRUMENT_ANALOG/DIGITAL: 
INSTRUMENTAL_FREQUENCY_HZ: 
INSTRUMENTAL_DAMPING: 
FULL_SCALE_G: 
N_BIT_DIGITAL_CONVERTER: 
PGA_CM/S^2: 200.231
TIME_PGA_S: 
BASELINE_CORRECTION: BASELINE REMOVED
FILTER_TYPE: BUTTERWORTH
FILTER_ORDER: 
LOW_CUT_FREQUENCY_HZ: 
HIGH_CUT_FREQUENCY_HZ: 
LATE/NORMAL_TRIGGERED: 
DATABASE_VERSION: 
HEADER_FORMAT: DYNA 1.2
DATA_TYPE: Acceleration
PROCESSING: Automatic Paolucci et al., 2011
DATA_TIMESTAMP_YYYYMMDD_HHMMSS: 
DATA_LICENSE: U (unknown license)
DATA_CITATION: Turkish Accelerometric Archive v 1.0 - Disaster And Emergency Management Presidency, Earthquake Department
DATA_CREATOR: AFAD
ORIGINAL_DATA_MEDIATOR_CITATION: : AFAD - Disaster And Emergency Management Presidency
ORIGINAL_DATA_MEDIATOR: AFAD PROCESS SERVICE
ORIGINAL_DATA_CREATOR_CITATION: AFAD PROCESS SERVICE
ORIGINAL_DATA_CREATOR: network: TK
USER1: GuestUser
USER2: 
USER3: 
USER4: 
[...]
-21.815446095837682
-18.53467862389659
-9.607695285943546
-4.5298547391361685
-1.9129736962751303
1.2753754207849848
-1.145982428711108
-8.503699238585986
-8.987261494701418
-0.31138756020740505
9.944529348327707
13.565030868026748
6.047031925450899
-3.0278109222429417
-3.2320144038839587
1.844825601549684
7.654661981112341
11.278186516951951
8.631039688084451
1.4861209059005338
-4.98895485010088
-7.640081096163226
-5.71462033815818
2.412820112224311
13.724507974229263
13.316497761134663
-0.2430143449884519
-8.804738282929877
-9.75542333529472
-7.835465532294384
-3.285310446009662
-7.486843592354341
-12.205050405111985
0.35394093066902726
8.575205170376536
3.971258473749546
8.677583439820113
14.811832698003883
14.545393431201093
16.09417682635399
8.248584112157477
-1.2083798676509339
5.632167713778354
9.530065323506705
5.444691421315791
7.9060919616700795
5.517045173789952
-4.040008316634847
-10.373784163375381
-17.362152048816878
-21.495198215621873
-16.903968557174906
-8.763653855438502
-6.757542728490786
-14.202949109611323
-15.035942905229819
-3.6859629139333263
4.789731239940875
6.673756103492371
4.193462337599654
-1.7696756563570422
-7.030113067007426
-8.4964178150779
-3.8457434804265493
3.5377063031999443
8.26329495374224
7.889328350065246
1.9652003855145341
-0.8085299414252467
3.8869281130239295
7.86248038481759
9.587788110996833
7.99672518966489
-0.08687164955019283
-4.213185147224706
-0.36713826512228115
3.4533480401175702
7.128588547740371
5.616871293340602
-6.437650018760141
-16.526658569446866
-18.801153738808843
-20.08837543472143
-17.489594445519785
-11.099760852388071
-8.435818369382703
-5.085940143781618
0.2994829821350591
1.073042589056259
-1.309803937813265
-4.227102282066405
-3.6606126722977548
0.07358351057415367
0.5861088461358489
5.516025103748252
17.449183019130917
21.00944751956562
12.421324346497073
1.275178216822939
-1.8743002869640062
9.137848304782475
18.107287496987908
9.359804665750918
-0.1560765830308857
-2.435999069100629
-2.872934206467009
7.091920316309706
13.420691554934741
3.9678260449656118
-2.36631446551109
-2.275905311700023
2.9255395380104066
10.90675235650279
4.628566227853145
-11.974166076099246
-21.168341952425692
-12.948859819617626
2.570276833747592
2.6342980631285324
-2.962072952874559
-6.02517428739377
-18.068358859318828
-19.98856076527657
-6.164480477053556
-0.6368209169654951
-1.4813362900729603
-1.5194082484091456
-1.199509716100913
4.430587479454013
8.292652428361622
2.79774345460453
-2.203928251491181
1.601968729757526
3.620258946002279
0.30670919917155737
5.38443681993976
12.487399565777395
11.592419398444257
10.296792043259208
6.585011465431256
5.042894798275662
12.566007984062079
12.989801736583015
6.116039423783318
5.126705801178023
1.0287655254235037
-10.13914276468563
-12.792174850296412
-1.954408959443562
4.347090074657117
-6.3762385973768865
-16.11584065055568
-3.967202211522139
21.293033925615774
33.55728125848778
19.534230512089234
-4.1302915932230295
-8.494355936968272
7.159312031175262
16.76600324946895
7.681589464341068
-11.25130227333738
-20.61690633726087
-5.600004383254302
15.387301713036942
15.84632629736463
3.911441350412589
-6.084470407172323
-16.23171354883887
-18.18614139365363
-1.7725127356937487
12.666852002062011
8.941218318749609
8.290934124705847
19.505942073634152
22.56297559288372
15.130505102849439
10.00815759059588
9.834258291427604
13.884243602211178
16.977721483662485
10.77966698209033
3.2044787240654533
7.525074192369138
16.66934928197117
16.202216527918633
12.259858517992559
17.599227385037064
19.269561711731807
-0.38805802010079565
-25.659189883116966
-27.251022816717224
-4.024586554992745
18.427736103863786
14.338873201666472
-13.448232536212338
-26.170962366755546
-14.745387349797346
-9.69209236913131
-11.5400723978161
-16.521478962679556
-21.763885236581643
-6.690522230234859
11.830384496416249
16.752597224975432
18.258639974138454
15.507009909424427
16.903216392812347
19.250443102696146
11.806233629648547
11.4109321000527
15.382317071460298
5.916890209502377
-7.595750255423572
-7.633670764976096
6.429172340530767
19.816782647878323
19.069084817398334
1.2272442493598914
-15.804646934197836
-9.832708518624164
5.51105034596026
5.442503379061556
-4.016268416284845
-1.5813674895526824
9.193096474624179
5.2130562096511746
-8.243682062553756
-17.449029632627504
-24.802958395280942
-16.39653633196831
2.759078877187832
2.35539848490318
-4.40899695222257
4.112549134317507
12.816208283014289
11.686795515794062
9.1549490616637
16.18603740252819
26.832643910460952
26.716099625024423
23.18968815500115
15.181020147249798
1.942344616266749
7.83983065454526
20.654998039146935
18.156278247396376
19.822306511998246
26.850929966795242
18.39712273186967
-9.360734079263173
-44.58876912415803
-64.13479400568735
-52.79193965181389
-15.67227823739019
20.896538630655193
26.83337165304784
12.545811981953248
8.457925551649872
8.484661627961689
-0.7169364715120364
-7.899226698020937
-14.28119489302916
-25.389257076849564
-30.514406627273658
-32.32448586389242
-34.39564326862953
-30.750245610586926
-23.48589359993763
-5.076973681684625
23.872398924023166
34.6364430308418
20.647732107186524
6.199933411922042
5.7820496580526255
21.48780461762122
42.59616856926649
49.93466199611466
38.22977125801405
6.652922693343175
-27.94242391972798
-28.230642069480652
3.2034412864884927
36.05560390484422
47.816108411466374
22.75505062926136
-13.372089384789563
-23.158036432961104
-8.733771528410433
3.7094323052470024
-13.464187074160439
-42.04999396903682
-48.41850525848888
-46.58207095704207
-36.13425505230069
-4.908392240430328
24.148540733657004
40.980137957068465
43.14778828354324
28.41391358432674
12.082474380322218
-7.736296506260829
-17.78375157320986
7.206257023284836
37.489638360857334
52.566228014130616
64.29663270895189
55.80402624605578
24.50551989037501
-8.719374501078706
-42.397340271145794
-64.36908010349727
-58.67629194334792
-41.892048596029454
-26.657624601054373
-16.276146883832787
-28.156195872716257
-48.6633925323486
-57.74829271689006
-68.8161825009799
-60.98505051765445
-25.2994242973054
-5.732851274659811
-2.64416586334676
0.6876148726547182
-2.3135029833204706
-8.271269862868321
-10.042180086123894
6.076486889384837
30.59827520256927
40.33892133700974
42.034692249113704
43.145096541851956
52.90281834424702
66.01890396315598
53.66906868832116
24.024152061572018
14.964450172535633
35.282955345224515
39.67648390433489
13.096717865200084
0.15948117663142436
-12.48725952861614
-38.6046618694844
-38.03229583421881
-31.034624946383186
-44.42218214293301
-39.62111908080457
-1.4636863315900155
18.409653969112664
-22.469114207210158
-81.46917406542957
-93.58747776044676
-49.35184645690451
17.90909641234998
54.20632171526247
38.554987124139906
13.022602479089185
17.622893729056457
37.52157801630843
39.46999658538028
19.946332692008237
-17.206375286205557
-61.77741918928584
-62.24177861359838
-16.39193184680025
-18.528901896234874
-68.36469638555072
-67.73399412836886
-36.075943626858134
-26.51605299753629
-25.620744075669307
-40.465288537311615
-52.3226667551953
-38.66700513461663
-30.21313209615331
-34.14967093766213
-39.10836267670591
-18.981277576167148
33.919947315740906
65.12669907935908
71.15723944809189
71.07699447415517
39.6981866094182
18.681256105975347
58.394394646692426
106.20466081163553
104.30996748693562
67.73913784869515
41.30655191559441
34.5049913971235
19.636761699413853
-3.4385937876277257
-8.928492445385867
-3.846313884341603
-11.324454985924952
-39.77571355319875
-86.4575119959906
-117.32520098237313
-106.32573540702099
-71.89996586564165
-36.37347988715476
-44.89302005165532
-100.71380523789398
-102.98275969856508
-28.531274145338994
33.18277043537409
36.90566502947588
12.528846482022105
17.98958187775357
47.04745558847866
49.45158799955394
28.447622589426413
7.833963723433324
17.809348460540203
54.25864015584884
62.888683128391705
44.534570403701636
17.1856073212208
-14.409156552345586
-22.007752436231225
-14.168274179507025
-2.9699087562567987
7.800873391624014
-14.601421593100593
-55.67066541697492
-74.28372228276525
-62.51428354586312
-34.07673504495908
-16.357453107880083
-12.244736708171107
-25.094800306269324
-57.25913479782713
-56.79512129764621
-13.190400724844666
18.538327772810522
28.79569317630686
27.67752921456913
2.831175724283982
-11.080850276017253
34.49460742137726
98.38528987366693
128.96949874411317
134.25254083477896
111.90767368165562
75.1576748919106
43.394856693185545
2.250465981060588
-8.388017692786656
27.364578573066847
37.31678767685879
23.45754159977182
18.490968030415626
-4.456438261744905
-38.68405940156554
-67.9928102396733
-85.2156697497581
-57.02156035460027
-0.19098457022300436
22.663189439085613
-7.225194649727736
-48.564450865047625
-62.92454917948733
-58.147773430452965
-30.550445258607123
20.093066776928563
36.06239626256404
-4.288403013594006
-40.136695318873
-25.201305346298668
16.960307566664397
48.58399072824694
58.66485046175577
45.19640031908262
35.07521331792468
43.85889891760859
38.29792461192169
20.944365892715403
-10.138942846529487
-64.27772991269099
-42.38221465677156
76.51236589803315
134.50173782980823
78.04241700602567
-6.426315975715814
-63.87633692942499
-64.4539220860416
-16.43550070792781
13.724039709956486
-9.35151404951705
-44.70557134587728
-48.62681454747437
-50.29356871908208
-73.21334404916257
-79.31971248886427
-56.74228288643856
-25.254489319368417
-4.042269875524656
-9.44433787718788
-35.538752553145116
-57.05008186427637
-29.306482325083326
40.75720175071481
81.98392095651013
74.87342012599014
54.50943434494613
59.24923093330657
74.18523604517851
51.868879652782475
17.37624182804514
-9.277134393754395
-39.00619254435865
-34.1979035316159
7.873228395652011
33.340866885146525
21.619093488179193
-10.928008342233644
-48.32860670635709
-59.36374629285678
-18.82459023639493
33.56465365839382
61.8635039961699
61.02687980175824
15.0473974386399
-41.25475389284609
-57.358216443596206
-37.38596092293082
8.465996849582144
55.277497236564095
51.79705322810213
-13.246093839070674
-81.77658883131875
-94.04910149892504
-67.31086705626805
-32.172121924416935
7.930719978527941
20.828298271242733
10.841069159951974
11.583284596499567
9.390230327574464
7.714935130596611
9.190134970397906
9.313811712030233
21.031132763042198
4.664386630916284
-41.684457395262285
-52.78199393917048
-24.05016686988262
-9.187220860468052
-57.42213641005194
-117.25417859153278
-97.25650543665562
-33.723685718831426
-0.24958221772852618
-12.416649845457433
-40.21624010748145
-26.779668576462374
4.665133036546658
-12.474723106596283
-44.38739762739283
-22.340713096688297
35.49900132806434
69.8123468086194
69.46012798122794
51.09759939210835
14.391565982768373
-36.531055568037075
-75.66893299907525
-73.08005783525034
-29.975389981000014
-4.8156038427382155
-47.868635006606524
-107.37260883330187
-100.46030515304753
-42.092490432716964
11.202014287821513
46.86348874802695
43.333128042529225
-11.814243587747665
-49.55794887204525
-22.981872197257193
10.711511331609524
11.95419510060581
16.36226048002254
45.64101699679054
77.99378784018
75.81812448848845
33.62155343186407
0.4632819894492306
-16.7438865687309
-26.623997692594344
28.33040382043477
113.56077119954794
131.29040003144547
100.33916142462967
48.55993116397431
-4.923404634772618
-5.363130522285872
14.816145335446683
0.5130735145738855
-31.659908355918134
-59.28269150418514
-65.12611688590404
-50.13473362532822
-37.24429519648355
-21.631017740423466
-2.873287223930026
-1.6319766104937572
3.676435867637451
21.9108523457699
7.952382648661059
-27.189510261703226
-54.36887136007819
-67.36484158896481
-18.06586344679933
45.22573924229539
23.152923636475126
-20.041732111423606
-19.938793652504813
-3.3571487529864386
21.02493285269718
15.211104363744173
-19.7545537486679
-13.420644412266189
7.505608248995594
8.539190713180318
34.44891451679414
54.92388746259077
36.77563300332093
19.510602897099567
-3.10563222132112
-21.407479520384314
-13.21770033134344
-21.08953357422225
-58.23594359991621
-102.34630447342064
-92.82157710611683
-10.270082277007422
21.945401389676526
-3.9242244423908983
11.494423081204012
26.281029125004157
20.35209341897348
45.09482316151019
78.58204586442851
82.40930847979837
58.4676230169046
33.16549468951192
34.042658107141534
57.9089372579935
65.31693972840061
54.857916822738034
63.57659935349853
66.93986917637766
60.974697183361386
75.69983722868744
90.0229952903334
119.95958656344823
153.2418939620872
124.24915529499408
77.26914849231856
56.89411356566708
23.544061063835365
-9.754693924689304
-18.811248891982203
-40.25638279295354
-74.69754707403328
-110.24243255234937
-171.59013871300618
-203.2203370883686
-158.37279135912553
-103.5403875437142
-48.913385936632146
16.633674896364305
44.990686891333524
56.35774319996511
80.82534445120751
76.86184982589631
50.576727250662266
50.29154092392513
40.54621728710226
-16.81678903468672
-64.17935112114127
-70.31580452835989
-67.44065234946748
-85.23002836907297
-118.93508842220241
-117.57257509608056
-69.59695994731017
4.416801503522461
68.32732570997723
53.07287166623269
12.051053963624714
14.656474895655094
16.245285621633364
44.350921649303515
92.21143312112521
83.06491724035551
54.09583643925472
33.37649614675053
21.90426183383486
9.979505551647488
-29.166837182867415
-7.01689802658098
44.568061524113276
21.21759254136791
56.10773110171055
141.28376817851682
121.84728889696393
74.46423986905523
67.34265204672386
84.24023803718758
116.78899594036692
100.18672908029806
70.55447495642497
88.40765440025272
74.49479858277957
7.3930603146200395
-47.03045434486068
-72.6981799804265
-63.133304576416876
-21.682524476086265
-8.971878637723625
-44.48100011344623
-73.81999269026002
-71.68755247500172
-43.22530941885541
-17.780167699652193
-44.78159827222557
-100.68832354652699
-127.76692155049791
-124.98540833006163
-119.10996653414713
-113.33593606633193
-91.66523751177921
-84.03876038868582
-99.90288245527464
-84.55588062540976
-73.1010443354943
-105.20609439538188
-117.32743203801587
-119.79948051006116
-142.73961612394
-115.49258791448591
-34.69059521916175
13.44969186146086
24.56934000156978
46.453957072945954
54.33855263696495
24.865604228756048
5.411001228064327
13.790675106303153
28.070599586647365
50.275198049600476
77.93273070976676
96.84234349521843
107.90696593109396
105.58997801399312
77.7404547804655
52.4297201300241
67.61592603813634
100.06939347569897
111.05776433441798
98.05713434631966
77.49530648722383
71.80312639300405
64.74430696353771
34.864201856159035
21.41342608629084
36.85018122428421
46.25489189211494
41.85656642241263
38.36369907900397
47.39435630833621
42.26355321271207
6.342412174301755
-15.187619357635054
-14.826238035215471
-14.27953803737661
2.7640070408837865
23.217768266065754
16.811390967477355
-9.971238310761509
-34.447986867747446
-19.69335255568348
13.90108104334333
-3.6357404153717625
-24.894478663524815
1.5068602795837531
7.547064188405912
-1.5075595025490574
0.8458662125181999
-31.3575379934997
-65.81059841895471
-75.89556890962695
-100.80219979675542
-118.41434567373022
-109.81844874378477
-104.78541756732766
-96.0593959209081
-56.74969897769698
-5.11798989720653
17.623239697165175
0.5076819660138602
-30.50836123916656
-42.39681454884425
-37.15914202761705
-26.355602736182604
-12.108513341633323
-21.455938623194314
-39.39507328378302
-37.73858261327121
-58.155137046720206
-80.74313427487354
-54.060718518882624
-19.702311292064607
1.2990605035234803
9.312561646206358
-8.44882301032225
-10.530956529892938
-0.9451637898055274
-11.089856518600117
-2.472928381546391
6.39008107342226
-4.641325696738589
16.50045821791187
41.79193462879214
43.54959886373917
32.67894154646507
-7.506750463264693
-10.763289294489368
19.74590660174435
-8.884216750649673
-20.112258389009074
37.67190077253004
77.84523275149365
77.74772797140399
61.19224296533299
61.735453144406776
85.34001492632615
82.06341459941886
44.618298042915725
11.535375978938617
6.650721856660789
-2.457057300507766
-42.24798787614445
-53.70433401221616
-26.258738715217536
-26.17764373342888
-56.229266527337316
-78.87965374103797
-82.53244934035351
-69.01923138147563
-60.815617901543234
-72.06131425145416
-48.19654960702827
22.779471604565227
49.22978145653964
23.989469818311765
13.572584629664505
33.78116019575892
73.57776805665048
74.77124594539869
31.506090565621516
24.63781953329888
60.003141156618945
102.73544181328478
103.48546484763442
39.895016227186986
19.428930200122757
67.48386180910025
84.4680546069981
80.17150244101023
87.1438028927061
73.95550150034227
63.44471211839554
63.6823813992863
34.58456245724767
16.019735074790542
36.85305208886687
44.46056609210132
29.119063823807135
7.570772377412142
1.9643984181342191
28.52578857917219
32.34585575889599
1.90577307960067
-7.583242661030907
4.3879746393710795
11.193008004893638
4.809750357125736
-14.667281088772745
-54.255341860978426
-79.54242714634916
-18.95480914016938
66.97862619742098
65.3970978625708
-1.9882184951784712
-84.32042074434746
-134.66760858341604
-109.38233774319592
-62.95912311864424
-46.55851049346389
-47.43677621737337
-61.805731122344014
-80.3290701659943
-83.08688582420795
-51.94003879423893
5.0670383759480355
28.309609233117406
-17.56925313381957
-74.20693159503568
-67.88368283180822
-27.316054919987756
-10.278664384906655
-13.555573341442983
-41.239929904985736
-81.39811747099593
-88.14121467333854
-66.59913744831485
-50.072826634260366
-41.08158676888929
-15.472504030631434
27.39028818510743
52.415977057403914
50.2109199651724
49.688409548396464
82.37693626474643
132.36507478576496
140.5189407672852
84.99886569747487
14.008437148798116
-5.550241808531805
9.544418469573795
4.52237402748927
-5.315154131257068
-21.729175073215714
-54.145957425413705
-72.29748912312328
-81.22725810046121
-62.52401746032173
-17.964055514453506
-4.936517578163735
11.251205071019994
32.33733303400982
-13.51833798744245
-74.5931097715174
-82.94965761825213
-56.242937764947186
-9.620684143285724
33.429866564799504
35.97487625831235
9.0241821852941
3.368190883128622
18.50329242503468
16.65811363922551
6.75721028018606
3.7210509971165417
