AAD_Filtered_TADAS_FILE
AAD_BASELINE_CORRECTION: BASELINE REMOVED
AAD_FILTER_TYPE: BUTTERWORTH
AAD_FILTER_ORDER: 1
AAD_LOW_CUT_FREQUENCY_HZ: 0.025
AAD_HIGH_CUT_FREQUENCY_HZ: 40.0
EVENT_NAME: 202302061024
EVENT_ID: 13207
EVENT_DATE_YYYYMMDD: 2023/02/06
EVENT_TIME_HHMMSS: 10:24:47.00000
EVENT_LATITUDE_DEGREE: 38.089
EVENT_LONGITUDE_DEGREE: 37.239
EVENT_DEPTH_KM: 7.0
HYPOCENTER_REFERENCE: AFAD
MAGNITUDE_W: 7.6
MAGNITUDE_W_REFERENCE: AFAD
MAGNITUDE_L: 
MAGNITUDE_L_REFERENCE: 
FOCAL_MECHANISM: 
NETWORK: TK
STATION_CODE: 2704
STATION_NAME: 
STATION_LATITUDE_DEGREE: 37.00879
STATION_LONGITUDE_DEGREE: 37.80215
STATION_ELEVATION_M: 524.0
LOCATION: Kahramanmaras_Elbistan_Turkiye
SENSOR_DEPTH_M: 
VS30_M/S: 721
SITE_CLASSIFICATION_EC8: B
MORPHOLOGIC_CLASSIFICATION: 
EPICENTRAL_DISTANCE_KM: 129.97
EARTHQUAKE_BACKAZIMUTH_DEGREE: 
DATE_TIME_FIRST_SAMPLE_YYYYMMDD_HHMMSS: 2023/02/06 10:24:49.4282450
DATE_TIME_FIRST_SAMPLE_PRECISION: millisecond
SAMPLING_INTERVAL_S: 0.01
NDATA: 12501
DURATION_S: 
STREAM: HNE
UNITS: cm/s^2
INSTRUMENT: sensor = CMG-5T/GURALP | digitizer = 
INSTRUMENT_ANALOG/DIGITAL: 
INSTRUMENTAL_FREQUENCY_HZ: 
INSTRUMENTAL_DAMPING: 
FULL_SCALE_G: 
N_BIT_DIGITAL_CONVERTER: 
PGA_CM/S^2: 63.630
TIME_PGA_S: 
BASELINE_CORRECTION: BASELINE REMOVED
FILTER_TYPE: BUTTERWORTH
FILTER_ORDER: 
LOW_CUT_FREQUENCY_HZ: 
HIGH_CUT_FREQUENCY_HZ: 
LATE/NORMAL_TRIGGERED: 
DATABASE_VERSION: 
HEADER_FORMAT: DYNA 1.2
DATA_TYPE: Acceleration
PROCESSING: Automatic Paolucci et al., 2011
DATA_TIMESTAMP_YYYYMMDD_HHMMSS: 
DATA_LICENSE: U (unknown license)
DATA_CITATION: Turkish Accelerometric Archive v 1.0 - Disaster And Emergency Management Presidency, Earthquake Department
DATA_CREATOR: AFAD
ORIGINAL_DATA_MEDIATOR_CITATION: : AFAD - Disaster And Emergency Management Presidency
ORIGINAL_DATA_MEDIATOR: AFAD PROCESS SERVICE
ORIGINAL_DATA_CREATOR_CITATION: AFAD PROCESS SERVICE
ORIGINAL_DATA_CREATOR: network: TK
USER1: GuestUser
USER2: 
USER3: 
USER4: 
[...]
4.52855756904248
6.876769404920368
4.772777618824769
-0.3736686504006871
-6.904975013399264
-10.315725758149402
-11.52254412624691
-12.017643128765211
-11.233487884288023
-9.816921980969006
-5.321800405693243
0.9030394133061836
4.587703346783306
5.74674130718613
6.322848009138919
8.063294326246572
9.521542002315774
8.690343544562424
6.960099906859375
4.5589617573781025
2.494514860867823
0.2193413281704305
-0.8846211199813215
2.1696640739048747
4.454892615579427
4.3787960473544025
4.526675145163222
2.600008207706928
-0.7220447007527877
-1.776559120193229
-0.884818845743272
0.35191467413611605
0.9857028749104692
0.8109148978497686
0.8483952314992844
2.103589217310534
1.962566868650443
-1.3715705363139192
-3.8563038689892135
-6.08306780123162
-10.63375840181864
-12.16684733972976
-9.510928647249159
-6.805806154854194
-4.894775295461242
-2.435294319512145
-0.3271493789532647
-1.484000782371481
-2.480394251693089
-1.4222933687974093
-1.0431065194738953
-1.3812285880348376
-1.0487543983481118
-0.8821111054460831
-2.7250259373070125
-4.295508947766635
-3.3500076873247218
-0.7088912401754649
2.3098811904313683
3.2713640673077986
1.3520237199501908
-2.767679915459475
-6.591842717194743
-8.388122137260222
-9.07373414675661
-7.760301842425224
-5.281038946978199
-3.6724682904528008
-2.6079692977555307
-1.1684885161218193
0.7720213389495525
3.37929111403279
6.355868395294516
6.458105754103134
5.994450724327763
9.106409189181205
13.043695016866934
15.186878387730681
15.514165614944414
14.283059982200527
12.171744716663927
8.661676110976908
3.6371506982192288
0.6903776581804498
-0.6658586910583582
-4.4647360594022905
-8.262335023064255
-8.798839540438893
-7.969807981255628
-4.9861024741083435
1.0438636573685847
5.22712363132511
5.486833596869087
4.750920360929645
3.2995251451189493
2.378911702634478
2.7373808268956217
1.994299242664116
0.21869794048284263
-2.124433224105877
-6.318693838744943
-8.96294349909398
-8.03220770000714
-7.981200633406845
-7.818019407157142
-4.240996534614674
-2.1409611461139915
-2.631487140147915
-1.66100575162679
-1.3537079556286167
-1.1457891283532977
0.3912115727987487
0.31420677340737324
0.0328092126583108
1.4909475837333799
1.7400386878375205
0.9693810773260682
2.127896793398982
2.681628238568673
0.8718356372147001
-0.48374882244783485
-1.3532373172710594
-2.1670082720008033
-1.675654676815202
0.5615973871135596
2.256266101664468
1.8294185979461783
2.0594976699335223
3.6770685973168984
5.842283259317443
7.837180518685974
8.644407139904013
8.101493475518442
5.997800020221081
3.2814964656958154
0.2687388082814896
-3.2222859377097417
-6.815168217431226
-10.39583526892223
-12.61379131007796
-12.029012490667553
-8.636057010487301
-3.994175642256306
0.3230142382399845
4.070817941973157
8.223705028270457
13.546622114679144
17.908339916399115
19.67731154223302
19.598734091727028
15.705880255628973
9.036849199587579
3.881436255877532
0.9432953709590591
-0.5488160189382192
-2.791018766386943
-3.9978062983970815
-2.433912214686359
-0.7067579095213942
0.11627737263689833
-0.23085055640921376
-1.2997395893208485
-2.5785628259665447
-4.346297717922278
-4.748907418852132
-3.46060628064591
-1.5753759752093637
0.08368788981169835
-0.9373371679143715
-3.6228384899742907
-5.448359791376125
-7.0085145332909855
-9.437833447609357
-11.333830691759935
-12.210574486967658
-13.440075668191739
-12.797075872596862
-9.09359013413866
-6.064019299585296
-3.0085602798260753
0.39301994669316964
1.6860710518221194
2.1974082263177968
1.914364318794263
-0.31583557117063804
-3.32492029901347
-3.8476938826649874
-2.2633907373405173
-0.9584108054044556
0.9001509266650392
3.529366129193849
6.218778977615404
8.142077651776164
7.825049026579009
6.296723829598903
4.304610390384969
0.5548523725699188
-3.0583183107269125
-3.266198381243585
0.5111652777114661
4.348739770776602
6.55144606030492
8.88773145722462
9.495272338824831
9.164507836363464
9.88125446075264
10.855400694262597
13.212406541916817
16.1477205348369
15.818536500258661
11.933973506275544
8.371403990909386
7.552697425033055
7.6160623579844
6.72589635119848
4.7821676938288755
3.4442637692871796
3.282362936708817
2.8729162621774122
4.654220638745588
8.575980958252487
11.625181638266566
12.31208211265823
10.199687931510137
8.154020376422359
6.649759362451199
3.683502663111986
1.954763997654113
2.300164394067217
1.5136590249660984
-0.4380560379837078
-1.2436098128463173
-0.8185176199869858
-0.39797049557356345
0.0467847297506884
-0.5790940617164277
-1.8194383967159762
-1.4496035937481344
0.13296343372138497
2.472608846649703
4.000834895642412
3.2576719472902176
1.3685812715859902
-1.3025089307275384
-2.1009328624360033
-0.9538565505841415
-0.46493415846792835
-0.5503578415917928
-1.585076932162707
-3.754026460326573
-5.17569434756984
-5.376777884670141
-5.941873888996425
-5.158261101574018
-1.2227209252988809
4.196115297787255
8.610536382152445
10.2723011541805
10.727018975999245
11.116234901122253
9.551412576043454
5.442194364439801
-1.471034677315794
-9.175334855032101
-12.875657402938367
-11.992674039834078
-10.838239676516977
-8.968732701382544
-2.837006645757779
5.428485095189274
11.834260999353175
16.2950104558952
19.14616973468286
19.83733033632414
18.34572350880204
15.970605826955111
12.699691972098913
7.316890936668037
1.3706296868725538
-3.837243645936645
-7.328651770050935
-9.460751295775607
-10.88878887103332
-10.147635668112217
-6.31372605341888
-3.141776924591006
-4.007845206070335
-6.199698082577126
-6.712921454529542
-7.19080887544849
-7.964650198457796
-7.110557084449231
-5.109638623355041
-2.242804963227526
-0.05343993390681845
1.2718349661960515
4.382726255594729
9.602463212427056
14.992851828378384
19.520328813602546
22.837037815834723
23.99170968723623
23.121725967144023
21.885286632798486
20.364304925564355
16.110501666270984
11.859779276624
10.101638440394835
6.874746418945679
1.5173584209320752
-2.7577711485566034
-3.167155304186257
-2.491734687472337
-2.8970564875997358
-1.9722812977911246
-2.1606175480419987
-3.372284151097507
-4.850853935544826
-8.04873410853752
-11.290391031093517
-13.536870642452389
-14.254440111996246
-13.729015685914051
-12.797019692415816
-10.66198393154285
-4.748224552505298
3.5221040185868113
11.279043421419967
17.797064490118945
23.898302649472768
28.98274225507334
29.161686695181146
24.841640572436837
17.191836183105927
9.120430462153568
5.93273464806743
5.421037328837884
4.62247163399913
5.936138779910032
10.489494284744037
15.062959747923179
16.02545485722245
14.349631305950753
12.505475885160044
10.645150758584217
8.548403775509156
6.70358028896936
5.508081000157192
4.7376931314466475
3.08764422208912
1.7389970920655313
3.005543906250556
4.203634449038715
5.0216123646373765
7.400869786855086
10.257706059179524
14.014441262024814
18.77677024977049
23.927318642917868
28.811580053566527
32.493701166756516
35.41984140859385
37.29344863398455
37.010757140995764
34.66250522714525
30.437305955256182
25.055373866615767
20.554249139999445
15.91302558866231
10.263479493799114
6.877232286311219
8.721484199678564
11.730248318104422
11.832979285889135
12.637451982327772
14.955577048044969
17.267592011417474
16.725707938756553
12.416213965853974
8.72125860743504
5.782127461289334
3.3112749741578287
2.1991322493372722
1.1918552041780759
0.12646902156716291
-1.3501459348498321
-2.554242717521156
-3.801570544282683
-4.997594945729751
-3.436341133698801
0.708767643826821
5.529211280703643
9.255726483208083
10.918221436606956
12.175320217821374
14.722466329331109
17.676833412210524
19.48818540407153
19.733064933756555
18.406680450260954
15.540630553980698
11.437455333184914
8.345439525346
6.438818733097839
3.997724265072305
3.3100435544223057
2.8356056315131664
1.1332197732510645
0.5722345406464717
-0.09704317030532889
-0.6800641191324449
-0.1622736985668228
1.015016406440098
3.291114758026652
5.520800834496122
7.1807391698789464
7.253366276547788
6.079769988216483
7.6389746802603025
10.069835009183619
10.758522529665862
11.61882816812061
12.104459812190703
10.20220977941043
7.280075561420727
4.198326426460545
-0.2555148902872743
-5.865136244805566
-12.473251790366103
-20.15031116815434
-26.790824261599077
-30.770682863684243
-34.43586396751658
-37.244369661831506
-36.65054255277959
-34.09853080573385
-31.21360884237549
-27.45518429162204
-25.299644065529627
-27.144984185694398
-29.210424767347785
-30.120271479924966
-31.909540603749157
-33.70545367656682
-35.334632052458254
-36.592880126329426
-36.786416427036514
-37.00201661078875
-36.64094458282962
-36.27868293798547
-36.96151083806117
-37.46298293788511
-39.53687085595147
-42.31464703609645
-41.741079079023706
-39.42916640393625
-38.206543382845354
-37.70150484217657
-36.94258874888915
-34.89239784126632
-31.256684626741027
-27.958587655154204
-27.05075784671703
-28.678082165279093
-30.526084681766633
-33.413496035792186
-38.33650845667083
-41.563096675569405
-42.68035552423295
-42.78293106575108
-41.57972121384012
-39.01835843912294
-34.45067184906267
-29.27131034707382
-25.58123949728769
-23.299875053476683
-20.288114559590905
-15.717986599970802
-12.378524887492722
-9.166917109098204
-4.551573468746935
-1.1332297929560593
1.5803313992371681
5.045235482572038
7.024185576077502
5.948216433240417
4.812370924691437
2.6142423627475484
-3.1808240482525356
-7.577902327937163
-8.987301872062632
-9.421232860619197
-9.071623023987106
-7.429947906614805
-4.524544124113857
-4.627646951039977
-5.410149721632168
-4.770454493547891
-5.580711642003241
-6.603281653760309
-8.534802897898404
-11.717688980822034
-14.07559882693623
-16.443689936929985
-19.539830344688262
-19.45288419488892
-15.757946775220201
-13.917893914302606
-14.94851532907523
-17.814226196056975
-22.854391344665544
-27.539478023884715
-29.938863835954827
-30.16748864084632
-28.49001279244176
-25.333443095179202
-22.246020689157884
-18.245763195328028
-11.693539731081126
-4.349327913193705
2.528009734188654
8.327083737398464
12.500655348907097
15.513785849709807
16.302774274243998
13.91556423249984
11.214136542943544
9.769470792912589
9.258605022331537
9.863681732715905
8.855276073024207
7.905961004908598
8.140127215313527
5.152542214704965
2.566067088719293
4.151648701780638
5.037476579282325
4.57437151837143
7.6831722895131875
13.018941821663304
15.679629051644783
15.00258416654082
13.061513740677706
10.098232179963365
6.626505602208308
2.115246606350441
-0.7508475773175208
0.49940185405354454
2.129817520861436
3.8423888739996297
5.44159754916523
6.554236894280303
7.081032615598488
6.132906712930721
6.770961657624528
8.937178595954514
8.67533815227334
6.829721897623211
2.4350024225104114
-4.645727214282012
-8.476407557035081
-10.522053927450003
-13.908591424632462
-15.952626120038568
-13.47490248957075
-9.217060975063932
-8.136409556600563
-8.071668409024308
-7.84680650206108
-8.762561826121786
-11.81997876966445
-15.792435453770635
-17.778242591666753
-18.22774201381139
-19.840854292624286
-23.299463778828063
-24.606336522762522
-22.519050705317635
-21.08375944853436
-20.27721403881304
-17.543811607188438
-14.330648624218869
-12.861094596077953
-12.048218777479855
-9.390958810447435
-5.004930788177517
-1.3747786833614448
1.5729658467331626
5.026095945858985
6.550200027407339
6.154589306737285
6.473000216990882
5.413525646643159
0.8910922179145676
-5.1132499084746525
-10.041732207304932
-13.47990871172375
-17.15120207759222
-20.50839642113989
-20.252867965049344
-15.587501902396456
-9.050975641523982
-1.8932804722605197
2.9675677218523178
5.178803889647361
5.924865664286819
2.60081392582454
-3.7045842989920295
-8.251365362964302
-8.553751838352765
-7.993744595348772
-8.278539506349487
-8.08610322949944
-7.464341669369012
-6.064543317298977
-4.60770061976107
-5.385963702282089
-6.133199031845475
-4.481130494030472
-1.858331022309756
-0.13522960133563158
0.12866015745788406
1.9794318760953997
5.259859258000732
7.848722900212518
10.619181290572257
13.57955448368621
15.292344982759843
15.42015586156542
15.384983909195952
15.293103404603189
14.585789243476466
14.105709921387362
13.154625663563262
13.018584659101354
16.651443257485457
20.56517979250847
21.23963375707502
22.319134329892535
25.801123110082933
28.407841184283924
29.166207865532584
29.87946189189102
28.437454791042704
24.03555626010191
18.83913049205445
13.411571912265506
10.080955308950102
10.163746705389334
11.519506859184792
14.309408684485442
16.68204465311243
16.376193877614263
17.0900039750338
17.977795530312434
17.42173950225005
17.17321024975081
18.737501286846935
22.91360884523005
27.689940157065145
31.799373080309476
35.9556221383867
40.32171725553398
45.4081003489763
51.0383553285024
55.94694504810411
61.024507064880254
63.48118308386471
62.390825309408534
59.76183663558491
53.98452116609433
45.38196534199878
38.371817620294344
33.777525083044445
28.596186372967182
22.08102246921523
15.926832400322445
11.30518805922179
6.957612127174161
2.4717167123780404
-2.117511131738525
-7.180503092224565
-12.690789514627111
-16.033092681579095
-15.071473188696643
-11.666843695293874
-9.02748406455667
-6.040131424179957
-2.0119024634986054
-0.16117234992314436
-1.4078911923708173
-5.314351381939073
-9.960795845190258
-13.596009375547894
-17.069008850885677
-21.396732374651943
-26.32200801844746
-30.922483045782858
-33.6716080202462
-33.77434817895515
-31.713430524209247
-28.56846626930898
-25.582404233719597
-23.763723685293495
-23.282923977652498
-24.87059854579333
-27.196641562312184
-24.74842283201433
-19.74632317395503
-17.80375523039449
-16.461907681509278
-12.61811444993863
-7.6271900047372005
-2.9410048894741827
1.5037842067163731
4.949184250774048
6.420977286689572
8.68180290648244
11.674686269441496
9.235878064875015
2.124871257988246
-5.243175187625363
-12.332851788252563
-17.94912615600996
-21.795788775558712
-21.927698503133417
-16.925824241745378
-8.107635703621929
2.1246834850080654
8.433250460044583
12.646942080036231
17.455781939374393
19.409146749575317
20.150173628578084
18.413705974961925
10.944823313466744
0.43678925151513653
-7.85309114074999
-13.357569848615045
-20.276118538141073
-25.99481539772436
-28.289405697599285
-29.254640725294834
-29.11138033247599
-27.290676959158457
-24.24401095019072
-19.215134907153693
-13.221398168868825
-8.633247236628785
-4.059438181157144
-0.2469786584170587
1.569621063291948
4.449144452631114
9.784764280599857
14.997160248068063
17.89372903196807
19.439348863586897
20.806217473753346
21.973305262257803
22.301278748273738
22.351274292925233
21.166583886910757
17.222248806766856
12.306006302732436
6.704042823923437
-1.2609626452422815
-11.685718477252903
-19.652286596758575
-22.59569953907333
-22.66658884164942
-19.59809628692536
-14.712968664631266
-12.749901777669027
-13.274201965057927
-14.864947195427597
-16.469679916740475
-15.863859576387505
-15.741444952735243
-18.27936081258796
-24.359468879676125
-31.54866450059516
-38.5046070515913
-44.71839159148112
-44.68415755720147
-39.85274127048887
-33.8139662070435
-26.56714505448927
-23.116935711910852
-21.651828134950733
-18.13128971575678
-15.07999183282386
-14.373179150159142
-17.017276863856022
-20.157621234452623
-22.322217360770665
-21.930029540511132
-16.917637212393494
-9.477740431554293
-1.124540297130777
6.659544873592452
11.900762653459395
14.689420682148699
14.68848431851646
12.19297181610377
8.898119344822502
5.321742383265805
0.3832546114774669
-3.7842451599147324
-4.774101136790918
-4.126897265879445
-3.0522712737365167
-2.6524173900238224
-3.2157634877660497
-4.509176391326114
-5.926598505549237
-4.188348041268322
-0.8080991850248477
0.5321793002911406
0.3752023379764166
-1.3907551691126958
-5.70868210942346
-10.877540982865513
-12.110258478579064
-9.796846406215325
-8.256953746698546
-5.691183117302482
0.047712927838912456
4.928488239218313
8.500641114792638
12.374844137470843
13.944204680303072
11.143768083533613
4.2482149867147205
-4.652910076313538
-13.624874451046072
-21.354861324007405
-27.518368137786457
-32.64117791322517
-35.885110924017674
-36.34401627636485
-35.257908938066144
-29.247305269904984
-16.274965399768394
-5.282911383975503
2.9561657535070367
11.728177905628232
17.745120964274214
18.752056810422538
14.864646627946975
10.96681884345452
9.800467396821361
7.968858613116
3.2942180834645303
-1.053438078277258
-2.7168772142206468
-4.0942122262100975
-8.157049753376008
-13.831620216098681
-19.91214536378387
-24.806120652645674
-26.44392363414369
-26.065893411984806
-26.04095003519846
-27.503810687035298
-28.156651424042597
-27.317386952754216
-27.367707377894217
-27.005528491260463
-25.107820813282476
-22.4710923397526
-18.016563871673686
-12.812133615496716
-9.668000710468885
-9.381510748954119
-8.425722920762858
-6.283778055996335
-5.262330288821137
-4.3956790851694665
-4.006665017126074
-2.3824648894957416
1.99545944289434
5.496822647483115
8.089782980357066
13.13353577054424
17.882397893909292
21.102895236418195
23.54778563939288
24.053556791766045
22.47164210893155
20.225401390493925
19.321081624646695
17.480035212835084
14.051654924385584
12.902884177405442
12.602728834081148
10.92245769490115
9.724390554519074
7.823528062221044
6.172182160183969
4.657554293265939
1.106057883020687
-3.0705821453477484
-6.877327625789936
-12.481433270477645
-18.31170045696131
-23.98099338443039
-31.346931766183552
-36.66225606504618
-36.68568793870835
-32.82023668386809
-24.368575271590345
-12.910708502991003
-5.291882572808062
0.005278572499162041
5.550860194909858
10.190376741315895
12.01258328005699
11.591410779375982
11.007834543460003
9.24861832005805
7.402306337997146
7.043953579202529
7.844738782670312
10.457528426146904
13.291498090346373
17.207377626006867
21.192319016587422
22.370430114327
22.88425557792179
23.235873801990806
22.879201012043325
19.85397756885429
15.200622840975418
13.208731584041445
13.933230646715666
16.757233199464547
21.43563138704188
25.608997386734075
29.544370838521665
32.4141577317797
32.500845549016724
28.68021760435969
19.241334326179768
7.834246492208188
-0.6655420038721899
-7.571864650627165
-13.458008555755256
-17.58183701543216
-20.9920832704685
-23.610830703694436
-23.217272534161424
