AAD_Filtered_TADAS_FILE
AAD_BASELINE_CORRECTION: BASELINE REMOVED
AAD_FILTER_TYPE: BUTTERWORTH
AAD_FILTER_ORDER: 1
AAD_LOW_CUT_FREQUENCY_HZ: 0.025
AAD_HIGH_CUT_FREQUENCY_HZ: 40.0
EVENT_NAME: 202302060117
EVENT_ID: 13194
EVENT_DATE_YYYYMMDD: 2023/02/06
EVENT_TIME_HHMMSS: 01:17:32.00000
EVENT_LATITUDE_DEGREE: 37.288
EVENT_LONGITUDE_DEGREE: 37.043
EVENT_DEPTH_KM: 8.6
HYPOCENTER_REFERENCE: AFAD
MAGNITUDE_W: 7.7
MAGNITUDE_W_REFERENCE: AFAD
MAGNITUDE_L: 
MAGNITUDE_L_REFERENCE: 
FOCAL_MECHANISM: 
NETWORK: TK
STATION_CODE: 2103
STATION_NAME: 
STATION_LATITUDE_DEGREE: 37.94406
STATION_LONGITUDE_DEGREE: 40.31274
STATION_ELEVATION_M: 730.0
LOCATION: Kahramanmaras_Pazarck_Turkiye
SENSOR_DEPTH_M: 
VS30_M/S: None
SITE_CLASSIFICATION_EC8: unknown
MORPHOLOGIC_CLASSIFICATION: 
EPICENTRAL_DISTANCE_KM: 297.07
EARTHQUAKE_BACKAZIMUTH_DEGREE: 
DATE_TIME_FIRST_SAMPLE_YYYYMMDD_HHMMSS: 2023/02/06 01:18:00.7020370
DATE_TIME_FIRST_SAMPLE_PRECISION: millisecond
SAMPLING_INTERVAL_S: 0.01
NDATA: 18251
DURATION_S: 
STREAM: HNZ
UNITS: cm/s^2
INSTRUMENT: sensor = GMS+/GEOSIG | digitizer = 
INSTRUMENT_ANALOG/DIGITAL: 
INSTRUMENTAL_FREQUENCY_HZ: 
INSTRUMENTAL_DAMPING: 
FULL_SCALE_G: 
N_BIT_DIGITAL_CONVERTER: 
PGA_CM/S^2: 22.876
TIME_PGA_S: 
BASELINE_CORRECTION: BASELINE REMOVED
FILTER_TYPE: BUTTERWORTH
FILTER_ORDER: 
LOW_CUT_FREQUENCY_HZ: 
HIGH_CUT_FREQUENCY_HZ: 
LATE/NORMAL_TRIGGERED: 
DATABASE_VERSION: 
HEADER_FORMAT: DYNA 1.2
DATA_TYPE: Acceleration
PROCESSING: Automatic Paolucci et al., 2011
DATA_TIMESTAMP_YYYYMMDD_HHMMSS: 
DATA_LICENSE: U (unknown license)
DATA_CITATION: Turkish Accelerometric Archive v 1.0 - Disaster And Emergency Management Presidency, Earthquake Department
DATA_CREATOR: AFAD
ORIGINAL_DATA_MEDIATOR_CITATION: : AFAD - Disaster And Emergency Management Presidency
ORIGINAL_DATA_MEDIATOR: AFAD PROCESS SERVICE
ORIGINAL_DATA_CREATOR_CITATION: AFAD PROCESS SERVICE
ORIGINAL_DATA_CREATOR: network: TK
USER1: GuestUser
USER2: 
USER3: 
USER4: 
[...]
2.1539942351578243
2.546648702965673
2.677151193498918
2.9710288361605213
3.608656751884691
3.9000882315879997
3.3940672532325418
2.7973002180054256
2.754195008861747
2.9067357753175638
2.9012293059414698
2.9510292608004023
3.1383460974038466
3.230990856323216
3.2418517389280987
3.3902847577570654
3.441562598799083
3.093043578479776
2.666711927330988
2.4277162959972176
2.283096873065494
2.182524377457679
2.267088597147163
2.9240699584188388
4.040984598655147
4.909602255252867
5.356359330211761
5.90000855923357
6.749892823065571
7.434193373029017
7.874650411924572
8.412202950692222
8.965723247509798
9.669889750062703
10.631217822099115
11.23201151899349
11.309556933049377
11.640469709646588
12.591202349215582
13.444710995699005
13.45021656250661
12.635710590490502
11.703279997460944
11.362640166991323
11.08179278604586
9.73059479588079
7.46465114773249
5.369087480466014
4.045730016748801
3.2633088670671113
2.54760202582978
1.799861002825215
1.252990307595838
1.088244245419687
1.2793572550198236
1.7379368643164816
2.2829743458168363
2.57898062235056
2.399407626496592
1.998332006798286
1.7804055539994543
1.579973210597
1.3305617781032368
1.6499757474171028
2.8726059791984095
4.366011715028398
5.222072146132058
5.563967220857991
6.179259623947441
7.05572783206183
7.746161794579501
8.331082569814004
9.054485624832672
9.903252890976376
10.767764608438934
11.527192624318474
12.208551039445064
12.783395719090846
12.994682655057135
13.206956142657788
14.033460308034002
15.033916268784896
15.385713448876144
15.005948768517994
14.459310516403074
14.062116097775995
13.383349823890487
12.160279433175411
10.79878241619801
9.609266273051032
8.407802820501466
6.9129361652667995
5.091366014799154
3.189261457404997
1.6239749489063873
0.5739472402195483
-0.24225650984676705
-1.2984805172041536
-2.7650433966599457
-4.296118228209722
-5.641259175208125
-6.948057536911699
-8.263615629759265
-9.292001982344635
-9.567194874691971
-8.884960452232347
-7.693334433080061
-6.607808595054176
-5.716405888765001
-4.726242344482696
-3.5472577001929757
-2.612081409590539
-2.0044146148117217
-1.0709716419303645
0.11898410494695083
0.8084924737197177
0.7807896195624533
0.23989718730511786
-0.32225493968281627
-0.6510537832255912
-1.2352880790320908
-2.0695280033942276
-2.3069574980715903
-1.7941748133070934
-1.2806734981266448
-1.1974604614199589
-1.6045188381469153
-2.5244570941974374
-3.7017996139274754
-4.984100331942343
-6.488409699546626
-8.106673936374401
-9.473879272487158
-10.22116024149234
-10.266198632975527
-9.890385260763814
-9.297249978294966
-8.375183474866757
-6.99342953073695
-5.420601105912006
-4.060351966370521
-3.036075780088619
-2.577735198490278
-2.569200876711534
-2.246909167785543
-1.6480036699109124
-1.5873653362081979
-2.130930205554487
-2.9063352668106464
-3.89215250525754
-4.987293998086371
-6.102031333178115
-7.106193928003749
-7.386345962416199
-6.735169089819472
-5.7430826946049285
-4.697664812624815
-3.108933038698851
-0.7165465572882918
1.6212171075266186
2.842052896462043
3.0091823692956394
3.040491514106285
3.5228676239198005
4.199895125609593
4.481057181341832
4.002197116920007
2.782974938393732
1.3813986930359585
0.2651512441822574
-0.8828473875618106
-2.5076933022902494
-4.604294834063308
-6.604931918078192
-7.905468181878378
-8.752677459008792
-9.526084697478808
-9.894533488005136
-9.524619217653509
-8.617814139050632
-7.5008575827240005
-6.501059647536176
-5.893329638097074
-5.5757326321701886
-5.47539199221015
-5.56968086270538
-5.283211491925595
-4.219801969946492
-2.88509485864259
-1.8907816325327735
-1.4642008291401538
-1.517786158557667
-1.6417333736101285
-1.7866226215816303
-2.2001168624644944
-2.469569995347781
-2.2175608781418465
-1.5275337690455815
-0.31694707324220456
1.0339828927099906
1.702551814288904
1.589329164837698
1.3709802721226854
1.6429559044077333
2.3467921937816936
2.919864559145858
2.913255925912877
2.531747686910467
2.204443106052983
1.788041922839837
0.9251610427120929
-0.44102693312356966
-2.1397494143337616
-4.038399201236025
-6.1555426705773515
-8.360915984672488
-10.292240440991264
-11.661411003987329
-12.704639843186001
-13.698951753627338
-14.574513817827667
-15.520733610400345
-16.61276050093473
-17.38842281104064
-17.34306432424041
-16.52973131863527
-15.616093662295047
-15.026607766357502
-14.306985302568863
-13.02747323136462
-11.787272790861586
-11.170726127487024
-10.630751814683894
-9.605994828495518
-8.83744571102703
-8.830950218171145
-8.277055006229672
-6.302132619312357
-4.220246115577811
-3.209887887879797
-2.756402135934663
-2.2735572900571124
-1.7964022964101236
-1.439355660561207
-1.3624144800706466
-1.672628183014374
-2.5231143014688038
-4.043983817258008
-6.165719621794216
-8.51431333695441
-10.346773734395995
-11.3516893338454
-12.068127943779771
-12.968952147690063
-13.719992491196058
-13.940181071424414
-14.177441449760035
-15.243470256478664
-17.084829291102206
-18.91314021048579
-20.404981799119025
-21.66841031009131
-22.18171268545679
-21.32066953333312
-19.388538784420795
-17.477238951239567
-15.810867837502965
-13.400035126930291
-10.168504651896226
-6.683074532465485
-2.734090540167058
1.664779970834627
5.454514906822787
7.72323432492012
9.228447452177365
11.233180737608258
13.257757285581114
14.367908321346588
15.176693659239117
16.579825630907376
18.42428774328909
20.045823600317537
21.051924062077564
21.471817945886475
21.3704045154686
21.095833871173717
21.278523611592487
21.528811313140274
20.780326500319738
19.355730854693682
18.657864783786746
18.61212045869718
17.553004331299903
14.827258048834063
11.380199760829619
8.513073500467906
6.800101882226663
5.731791431306832
4.864851681243649
4.035892180817891
2.969351890156114
1.7528293151807974
0.8255042175513501
0.48688903386675625
0.2948597854926147
-0.13388489457578437
-0.09619413934731534
0.9817029356025128
2.6209856517559444
4.078270159940178
5.229256857070826
6.242511701324279
6.976602343276732
7.670462566332413
8.941354940210838
10.567863296272426
11.789442266403132
12.410715312467056
12.764447915809964
13.271421692042631
14.112295613017595
15.00728921179252
15.438447384108326
15.473747034649243
15.949312732467401
17.233219464773395
18.53994614403931
18.90813852292342
18.554988596682303
18.2293620733089
17.61424259130799
16.184387792852366
14.453556045736017
13.177313606054302
12.166873038734776
10.529705269409057
8.280130857347539
6.363583095000563
5.015212845938809
3.647178931447973
2.070589367947629
0.7513334633834026
-0.2493200966832363
-1.1803788347564066
-1.8899073946975233
-2.4572628998430526
-3.020334081615523
-3.4241718032387314
-3.776556404159879
-3.9881183424450932
-3.785461404618625
-3.8386040457907873
-5.223210398909492
-7.520385962364285
-9.141527067271241
-9.953456075328008
-11.375807546834432
-13.532616740037355
-15.006136883305633
-15.469145823958433
-15.832446977942679
-16.310446336861602
-16.46604055707437
-16.41764624402749
-16.365534555050992
-15.633192856261239
-14.196534593462752
-13.309549384302608
-13.24315617728569
-12.988471099265528
-12.051106798361742
-11.002293278931049
-10.331427120858752
-9.639042119990936
-8.41924559509288
-6.730111778617911
-4.808710592120117
-2.843043059405059
-1.2082449582193897
-0.1138394348497449
0.6281417635272398
1.355176401091673
2.231709660601613
2.9018026000016905
3.099436822784489
3.067406296498608
2.858930038899876
2.075086553587102
0.6904710278435449
-0.7848591475103699
-2.270516800638366
-3.9676317330726323
-5.743638609803152
-7.077177545639542
-7.319608282635164
-6.572955099131884
-5.231471851525817
-3.067861004223883
-0.6291489261128179
0.7972650684889244
1.7417000681491996
3.3128362996005567
4.393827526768764
4.01119935588809
3.3756912715793534
3.4857190150288333
4.034380322908813
4.67256797640302
5.470231206799626
6.091443265717553
5.869244881611165
5.1310934169827735
4.6018193520078245
4.277546038746613
3.92679343830215
3.4439751364426052
2.958336966925316
2.7129522888077333
2.641245695721658
2.4584629309617774
2.1006124142259384
1.6212253254857478
0.8683607811965002
0.009475921438552675
-0.37650905797195167
-0.14485146835305313
0.28570753150280964
0.6091991600461111
0.8227664005771942
0.8556269535383684
0.661324011290352
0.388242933552332
0.10649476380900764
-0.3471067819342153
-1.023579546646593
-1.5547409145855775
-1.6453858805507613
-1.3567481791821636
-0.8723521061108604
-0.3961728542038079
-0.0362674273767417
-0.001333799607909562
-0.6347293556221572
-1.7541868693812308
-2.804266435823431
-3.806020536892397
-4.6095496875806665
-4.732158321350994
-4.893915245995005
-5.839105327508833
-6.673634439922171
-6.314943963948261
-5.103010010419031
-3.822930310577805
-2.411643520403595
-0.801015836142636
0.7500750333980467
2.1484863741575775
3.1435376487079787
3.444951944347805
3.0873688744328516
2.4656097099936023
2.0862553530149537
2.156658272290898
2.679441217372156
3.2942254840458016
3.33331051535261
2.663839985740982
1.6417092395121178
0.39007472408511323
-1.3453608352701136
-3.357716352843054
-4.8994233218580066
-6.022788321902493
-7.1677435154958005
-7.985901977676102
-7.952583752821879
-7.33858478510435
-6.847348424823282
-6.295435456840307
-5.067970569630046
-3.7717724099956467
-3.3614095006676696
-3.422040344853772
-3.2243968694925673
-2.791577572102187
-2.0530257369644582
-0.8451020330250784
0.7894042668435828
2.8428302044263045
5.107645687333686
7.144579929534562
8.550959743149276
9.32947745315806
9.98223571605023
10.628822760666472
10.849094264665482
10.542068714737637
10.064243391925126
10.068433004558168
10.939223829563943
12.188415126582296
13.141504454136559
13.745435037496604
14.091890973410107
13.904634020585826
13.290922039740611
12.773074177508214
12.190264630421208
10.811696283590795
8.533399744528962
6.417484069903902
5.620238230425459
6.003717562347688
6.313302098218283
5.504303694272472
3.7869520555439964
2.611821275386353
3.238292726743501
4.814160107676556
5.3615352491873285
4.883930331051667
5.052331627328558
6.325470305975011
7.471901983714476
7.882792969941404
8.912461513518648
11.622572834923107
14.598515042795421
15.921954349315346
15.849350286799687
15.77502650335656
16.12830419767047
16.397312710456223
16.14796840986113
15.626739135759586
15.122549501206592
14.573269735276995
13.822504811075904
12.448281239421682
10.972323099700846
10.64648203422386
10.606878577283302
9.064958786625457
6.789228491695247
5.652288600918769
5.432733395226596
4.92802207317681
4.0069905742287775
2.8576316632750864
1.5931644480296632
0.8201119320494006
1.1417294580354065
1.8303248406436459
1.3856731526119395
0.38743816703570144
0.5173691900125308
1.15875663351173
0.6607423267097506
-1.2493202480305665
-3.9080516140078507
-6.606305060873681
-8.724744772465888
-10.010118764249858
-11.012880925939742
-12.246918446653554
-13.163112296389858
-13.161324626388362
-12.73408255676919
-12.306136701464167
-11.544710196515359
-10.83045358095039
-10.907815083004165
-11.38791409591644
-11.770419825606256
-11.962216032645584
-11.6082673959357
-11.181770102944377
-11.218942926150032
-11.061576643873861
-11.255485212867015
-12.446886439291093
-12.870156593001772
-11.69254508376829
-10.32668690364376
-9.493203481808987
-8.79674406310322
-8.286185644680474
-8.998785418022178
-11.16909015450488
-12.720115906057595
-12.455519302401957
-11.982750257348442
-12.16107609949781
-11.723571915968918
-9.829027092044331
-7.8054747546394125
-7.652179767890359
-9.323960719569811
-10.821145109721275
-10.915249702203896
-10.821740771887386
-11.887199052030459
-13.747972568096246
-15.6201685922465
-16.982289666873037
-18.039221136983816
-19.211227643652514
-19.898521107749758
-19.84885109361438
-20.184261081160862
-21.37306267075518
-21.983600460574383
-20.764786300110092
-18.36893696068704
-16.093961130812264
-14.211402823567356
-12.313812126184496
-10.503994871462787
-8.874649331950366
-7.168949137384572
-5.82333977963986
-5.460673193486596
-5.854160597146725
-5.665464973202634
-3.8923056011131725
-2.064054530414247
-1.1518181986757126
0.6396598374461641
3.2890013945673466
4.7873084772803445
4.830469676703649
3.970807087463592
2.9061229307334053
2.6351708213868736
3.3682259253379443
4.401510704450497
4.54412958168052
3.478015648718665
1.9510815388854108
0.5731558514303461
0.32301566923445457
1.5613777445811914
2.8988241481058648
3.3999532719573495
3.3435598747632356
3.161904731664987
3.2495239441865675
3.667304273396302
4.275735454461905
4.694269805920512
4.62821958305354
4.816787832793523
5.940135589335784
7.781828574342693
10.095390933497569
12.458780243365869
14.083904875175255
15.137578475000291
16.405295268873825
17.669118446594823
18.55906191941722
19.49889461102116
21.0461529477659
22.718563535755084
22.58111457066202
20.263312510701056
18.000766756422507
16.55232112119369
15.253093664752232
14.465340072764969
14.13333704254953
13.449659364375975
12.161722716320503
11.082632174864933
11.064138181383639
11.351597604432088
10.936912684351896
9.997199781911515
8.87272961278449
7.778654229739167
7.361796723065224
7.945845419779005
8.897300413214987
9.775066036850816
10.405686572505793
10.066982970444434
8.626914997658949
7.495041854149956
8.086960755525892
9.376767939532122
8.882800369256149
7.071887309981298
6.5656952488942535
6.988390903046195
6.6048172893090005
6.069053883528559
6.3500413727310185
7.20330951735358
7.951234548022685
8.50839101856286
9.322101734011794
9.463420831745491
8.767597378842623
9.396913087571212
11.111721174796122
11.242383098656646
10.007963054258518
9.846465006881838
10.252050625858061
8.453815210851582
5.0006441819152325
2.769919731826639
1.9393841659433233
0.9348479954588857
-0.8244762125176186
-2.94289286292254
-4.845657992067289
-6.6878180851968905
-8.387144535119456
-8.926765542689589
-8.909229211448956
-9.86907004427535
-11.164090061856996
-11.460508508626496
-10.579795123712454
-9.528584438155638
-9.807619839569366
-10.648802784784026
-9.67245729286387
-7.050474270074319
-5.3930521522892745
-6.062274584314282
-7.09441538940317
-6.512363840377832
-6.262339313292957
-7.909995042711297
-9.234897914046009
-8.939745985420117
-8.02530774624779
-7.055886855340468
-6.416896757737598
-6.57616659886445
-7.284100436601731
-7.900222230475036
-8.07683089534681
-8.264528022145303
-8.651677223246548
-7.976596067264159
-6.187649678326375
-5.443154124303838
-6.390593529228019
-7.575158523196902
-8.134539788722815
-8.618066883121426
-9.732900941903814
-11.294464844305534
-12.66002492154374
-13.660009992989005
-14.881348383371458
-16.470793120503963
-17.603587786515284
-18.03287882292127
-18.23267274502873
-18.45406425414213
-18.55520500241837
-17.869644438106494
-16.84376978649879
-16.85432647049211
-16.742595621460428
-14.537839557917849
-11.781133691764301
-10.950250254038677
-10.549384077450174
-8.131127832096173
-5.345154673380785
-4.653349069443577
-5.311550561436051
-4.9025303353385175
-2.7659248159687366
-1.5664141996131515
-3.0789030111288356
-4.8149284566482535
-4.662304386570378
-4.023119455330013
-4.280839175493286
-5.046426939239121
-5.292121427328051
-4.746704728979428
-5.118238685963537
-7.087154126988557
-8.67503020758812
-9.008876067373778
-9.124591961838162
-9.780645407747693
-10.587696187650822
-10.973160597416898
-11.279964792728745
-11.173630267203091
-10.241344931824473
-10.437052235162716
-12.272341222315717
-13.102948291650325
-13.149139195956387
-14.912373143321737
-17.40001508980502
-18.204529601053185
-17.50714906785117
-16.955644592042866
-17.488259478677207
-18.58610436738966
-18.7490860954034
-17.063504572210853
-14.570518736064418
-13.141992821586706
-12.884674761324819
-12.45871851795766
-11.63341672801983
-11.351139741258544
-11.942540984683829
-13.044208820111482
-13.981939001081411
-14.290747458938334
-14.905722483377989
-16.161781344325572
-16.40327297422787
-15.205687347366698
-14.003893741391096
-13.399595695450806
-12.448012480247312
-10.06294543147848
-6.77175289812657
-4.34337967983095
-3.1660463601565088
-1.9830785275351681
-0.5616451680922391
0.05173080615007494
-0.2783498322788405
-0.22132732868240357
1.0243543265094497
2.5396111497341676
3.4952791404617565
3.954021077869075
4.607951684499716
6.2434143024251645
8.177424822105483
9.704624567926935
11.528151081925204
13.682188722003891
15.17908571963221
15.933088138067285
16.174920442953216
15.560984993676199
14.922267241452039
15.29262287475044
16.042020220878282
16.404084751631736
15.999441307527093
15.132164465581013
15.013990066556007
15.60729027733332
15.816604623533532
15.241411355704681
14.246937511926928
13.81249347248059
14.12019775147759
14.405188704070303
15.060986262365185
16.283165408739066
16.470653893062398
15.017621295303023
13.660097628785309
13.964400166991764
14.75112362280536
14.047840598299407
12.936371639957004
13.003619909973487
13.067125237373586
12.404485919507364
12.441859252855316
13.626568752489531
14.984646533357093
15.729567148254977
15.634790265340463
15.475459149078485
15.764910792464281
15.758443990999922
14.685136385528617
12.805146689886039
11.156640588148951
10.17375232014607
9.516374743506368
9.05083821070955
9.087623535105921
9.382026243112888
8.700636006071617
7.022104832662702
6.008052145335566
6.125258809678277
6.168297008084517
5.3008232832545
3.9044579995805995
2.9151651483443355
2.5498141163033354
2.5863282874861557
2.9658338918071423
2.7658039406314283
1.561720169972459
0.8346436528588757
1.0493773164680071
1.0082184634386346
0.9834491660483616
2.1124936999171844
3.7554138390160765
4.811978127193867
5.483152713844949
6.315999555050295
6.92730613343663
6.22557577667743
4.398474188107633
2.9984973732071696
2.6644756586270693
2.849175664557559
2.788654236656492
2.2009093598104146
1.7110309245493351
2.1104850785063287
3.2681985324896217
4.096149413424553
4.3011969343117205
4.750227938779569
5.3268761781222365
5.395426604719192
4.734102630918816
3.08788233638231
1.680339496148157
1.8580173210868822
2.2979551573338783
1.487633558272792
0.16215575829348416
-0.17050394919771766
0.6822856221036212
1.033859658656687
-0.664314001248241
-3.3138414464681794
-5.145491082120306
-6.556389570083505
-8.194370158992943
-9.896580007278137
-11.536033124682815
-12.797733243856861
