AAD_Filtered_TADAS_FILE
AAD_BASELINE_CORRECTION: BASELINE REMOVED
AAD_FILTER_TYPE: BUTTERWORTH
AAD_FILTER_ORDER: 1
AAD_LOW_CUT_FREQUENCY_HZ: 0.025
AAD_HIGH_CUT_FREQUENCY_HZ: 40.0
EVENT_NAME: 202302060117
EVENT_ID: 13194
EVENT_DATE_YYYYMMDD: 2023/02/06
EVENT_TIME_HHMMSS: 01:17:32.00000
EVENT_LATITUDE_DEGREE: 37.288
EVENT_LONGITUDE_DEGREE: 37.043
EVENT_DEPTH_KM: 8.6
HYPOCENTER_REFERENCE: AFAD
MAGNITUDE_W: 7.7
MAGNITUDE_W_REFERENCE: AFAD
MAGNITUDE_L: 
MAGNITUDE_L_REFERENCE: 
FOCAL_MECHANISM: 
NETWORK: TK
STATION_CODE: 4619
STATION_NAME: 
STATION_LATITUDE_DEGREE: 37.58702
STATION_LONGITUDE_DEGREE: 36.86616
STATION_ELEVATION_M: 633.0
LOCATION: Kahramanmaras_Pazarck_Turkiye
SENSOR_DEPTH_M: 
VS30_M/S: 545
SITE_CLASSIFICATION_EC8: B
MORPHOLOGIC_CLASSIFICATION: 
EPICENTRAL_DISTANCE_KM: 36.73
EARTHQUAKE_BACKAZIMUTH_DEGREE: 
DATE_TIME_FIRST_SAMPLE_YYYYMMDD_HHMMSS: 2023/02/06 01:17:08.5005960
DATE_TIME_FIRST_SAMPLE_PRECISION: millisecond
SAMPLING_INTERVAL_S: 0.01
NDATA: 2267
DURATION_S: 
STREAM: HNE
UNITS: cm/s^2
INSTRUMENT: sensor = GMS+/GEOSIG | digitizer = 
INSTRUMENT_ANALOG/DIGITAL: 
INSTRUMENTAL_FREQUENCY_HZ: 
INSTRUMENTAL_DAMPING: 
FULL_SCALE_G: 
N_BIT_DIGITAL_CONVERTER: 
PGA_CM/S^2: 0.019
TIME_PGA_S: 
BASELINE_CORRECTION: BASELINE REMOVED
FILTER_TYPE: BUTTERWORTH
FILTER_ORDER: 
LOW_CUT_FREQUENCY_HZ: 
HIGH_CUT_FREQUENCY_HZ: 
LATE/NORMAL_TRIGGERED: 
DATABASE_VERSION: 
HEADER_FORMAT: DYNA 1.2
DATA_TYPE: Acceleration
PROCESSING: Automatic Paolucci et al., 2011
DATA_TIMESTAMP_YYYYMMDD_HHMMSS: 
DATA_LICENSE: U (unknown license)
DATA_CITATION: Turkish Accelerometric Archive v 1.0 - Disaster And Emergency Management Presidency, Earthquake Department
DATA_CREATOR: AFAD
ORIGINAL_DATA_MEDIATOR_CITATION: : AFAD - Disaster And Emergency Management Presidency
ORIGINAL_DATA_MEDIATOR: AFAD PROCESS SERVICE
ORIGINAL_DATA_CREATOR_CITATION: AFAD PROCESS SERVICE
ORIGINAL_DATA_CREATOR: network: TK
USER1: GuestUser
USER2: 
USER3: 
USER4: 
0.0042759412268459805
0.008527044001357531
-0.002079435876968196
-0.008044535870250046
0.0012774750746470042
0.006526404543563459
0.001099138244043939
-0.006723630188695268
-0.0021412063158110337
0.007485668436222156
0.004335782061161407
-0.007199952679108238
-0.003471494383454843
0.007964065941226338
0.0019336740693208006
-0.005975826049161392
-0.001154958468466295
0.0048213630663120075
0.004121806533027998
-0.005132544692828745
-0.004332632519537547
0.006243187581088249
0.003005892524171512
-0.004171596148178698
-0.003842547057907372
0.004424398655819583
0.005304190789783847
-0.004952229021676302
-0.00462219577831185
0.00286241274165245
0.005907233471595929
-0.0030998032766546943
-0.007329449738561552
0.0028718046238370193
0.007083007715724793
-0.0009525943607894001
-0.00803239430447774
0.001464989021633961
0.006428936027333616
-0.0004212982611976191
-0.00418598229487136
-0.0026530511511348677
0.0032353783447755277
0.0019967028104001337
-0.004431285251466327
-0.0025231796574114516
0.006505000876811655
0.002094528127732914
-0.005659346104836435
-0.0009183693666832898
0.0025508555909924836
0.0007805773920768183
-0.0032192441845987213
-0.0025488225984586833
0.0014269235451624196
0.0019488888108763801
-0.004590651109943415
-0.0038005892910176796
0.004427925636094914
0.0010166104244437053
-0.005087872319471229
-0.00393029938303813
0.004895314973904426
0.0009831354087188058
-0.006434683814317296
-0.0020588750133669867
0.002187084029196384
0.0055092181451829704
-0.00579359711720309
-0.005322412189738148
0.006794184518549113
0.0015968933889554913
-0.004971990177736106
-0.004166856102899779
0.006602026470657543
0.004244742959863112
-0.006126472610067467
-0.0016207438136956497
0.00294957320010922
0.002185774498002878
-0.004092687895527304
-0.004024902537709331
0.003983873582311027
0.0042123150541913245
-0.005318814671760792
-0.004769172810362
0.005152024555507408
0.0028377917914845265
-0.003045982962872988
-0.0057285553813940975
0.0025070121331052433
0.0047793212629718435
-0.005008094602416319
-0.0043296124356665576
0.0008221605754375957
0.0058418354143002635
-0.0024066054187281845
-0.008198817177870514
0.0031913402665692554
0.0038578033098188467
-0.004327112032733179
-0.004464419570342319
0.0018862167517036364
0.004138005203998453
-0.0013275659193894838
-0.0048144578045704114
0.0010846955980026044
0.0049399934629997515
-0.0005584825845195514
-0.005793943133736572
0.0004091680249847757
0.005287397729763853
-0.0013204291256584664
-0.001287829776730196
0.000658230591762834
0.0018227233079397406
0.00024717272850400293
-0.002479149518613785
-0.0003031571655420699
0.0005505757614099953
0.004425756629993299
-0.0036287754704634333
-0.005597521610560502
0.005409468248759457
0.0013665567097532227
-0.001478180767862336
0.0011478772311779982
0.00039728226461422403
-0.00039710713333078544
0.0005961366494737148
-0.0014777492645279182
0.00016797237939476009
0.0038374149090942378
-0.0025437274985327047
-0.002818861019752648
0.0032057457638115044
0.0009180969128087428
-0.00419020656545533
-0.0006027239504262281
0.0032569932674010506
0.000698888778157995
-0.002508633513976563
-0.0008715476725369974
0.003393079854370881
0.0004333857280429686
-2.212021536607304e-05
-0.0013577981967314188
-0.00028312170125709574
0.0054412669178794835
-0.0008135418152850426
-0.0033127198964028708
0.0018852310230688682
0.0011970013761317814
-0.003157956455069041
-0.0011319281630035338
0.0031308808186287164
0.0027198971773876065
-0.0021718793739483925
-0.004381949192465105
0.0032186780401686345
0.0052246172552247
-0.0003138602634551104
-0.006901571221627267
-0.0011840690642022833
0.008451640971322462
0.0005928670000439996
-0.0040333527266809355
0.0002883960352251698
0.0037726005858674237
0.0006205518215138016
-0.003459891751866267
-0.00020073397795009865
0.002452982363778327
-0.00046971468749717907
-0.0036844132545929905
-8.130146828510296e-05
0.00043838399363983847
0.0019365434312238342
0.0015615481777342287
-0.004129468502165669
0.0019099007624766864
0.003145529781179452
-0.004935671972079271
-0.003165442725013715
0.0024081741530471348
0.002115240868587999
-0.004010284767138748
-0.0008857273629946812
0.0067362802787496266
-0.0008780708746985627
-0.0003346639119692541
-0.00041410459909305944
-0.001351766149626958
0.0065744080510788065
-0.004721197573207537
-0.0030803137920585614
0.0041254936766839416
0.00025518798183707175
-0.00032363587625627415
-0.004142296049220628
0.0027076673065793092
0.0021564209209807804
-0.0028580458276985885
-0.0008888081477404777
-0.0007122276496446246
0.0029227299830762877
0.0008711829266248938
-0.0067081284001665195
-0.001661968688449693
0.006748153495799869
0.0003003590894598647
-0.0028870022852686113
-0.00047558590761377455
0.0035896847656900393
0.0019060564099402293
-0.004687657742425202
-0.001714868442840142
0.0028523000349766994
0.005225829325211503
-0.003438966225143028
-0.004706353581260473
0.005550394389492563
0.003848265387500668
-0.004308013244099419
-0.004068460904461425
0.003656962089018001
0.003050482512841872
-0.0009589744811378941
-0.004207430041381491
0.0025488282055617976
0.004984994874373881
-0.004690123195689249
-0.004460964373186541
-0.0008438588297805168
0.006136106632023169
0.0006124058994425018
-0.007552382868865413
0.0011243639111906429
0.006114981142462445
0.0012115216125318197
-0.005310513443031325
-0.0010014390121859717
0.005038679405295511
0.0007799655537633527
-0.0060689232746541375
-0.0017879438278658648
0.005836449923497662
0.0046893613168290235
-0.003555058907882271
-0.005232056423796041
0.005429595433219733
0.0039140644710786736
-0.002769891927788183
-0.006025987982190629
0.0019143708884040505
0.008648101628842633
-0.005964440306497375
-0.005964673766104177
0.004630457928102233
0.0072651826258572595
-0.0036929718419486187
-0.011042771789141119
0.0033019192947234283
0.008343648195597872
-0.001489303499789371
-0.010004862495432714
0.0017947064853335703
0.010681459440510105
-0.0005240392622514098
-0.009323690220379854
-0.004630536892626011
0.013175000777306116
0.00291310286332624
-0.012839383598883888
0.0002968461186210574
0.008506654392338577
0.0021565603780208283
-0.010293744676450212
-0.003350335685817182
0.009976981886377028
0.0057238251590370735
-0.006429290224978012
-0.007091554635436871
0.010112393368485975
0.006433917218700522
-0.009344730177706543
-0.006392135285718114
0.006816922522991943
0.007528859278306962
-0.006762000487408293
-0.008099079938772227
0.002201152031272064
0.008713916634186785
-0.0008881929594054862
-0.011677512169020469
0.002262106632539613
0.010450924086221374
-0.0035345950567781978
-0.008365449512428107
0.0015564275329388955
0.010418072205309636
0.0011848016995197727
-0.013323957360429843
-0.000427594061543806
0.012413419965119318
0.0009556556640330223
-0.013008898778889057
-0.002741084286705058
0.012028947127887924
0.0031180768008581645
-0.007052463693222933
-0.005194503752184207
0.008372268098493204
0.007135883298269339
-0.007926730987028698
-0.007497324133563118
0.00543011770336811
0.011186772292875768
-0.0074416594462172305
-0.011078066384506237
0.008235366454525097
0.010151041591606982
-0.007109231725432557
-0.011442939323202535
0.007246921080090001
0.010265733234873365
-0.0030497986647970167
-0.009203063298393047
0.0011979381295805632
0.011384904619744195
-0.001856234375357602
-0.011772473352057866
-0.0004315663118321774
0.009477395931423898
0.0008896607342538438
-0.009243813665538538
-0.0026966459981075104
0.009850832185910503
0.0036427440997981024
-0.010646776571551973
-0.005705850281761819
0.01119330558429814
0.009430745893623589
-0.013991014245696124
-0.009883876964866057
0.011366863374857589
0.0069987331703331565
-0.009214222028751122
-0.010156361399101274
0.007589398446894021
0.01089139929733287
-0.00707562546771546
-0.013792522575653356
0.004547476962801221
0.013628617689224094
-0.0021902249477781344
-0.01255829446025204
-0.0021616562028572927
0.012541491361769078
0.00013721601443239268
-0.011580582680730039
0.0008713846182396339
0.01275940844903384
0.006096098886553063
-0.015217766071910886
-0.009044923459409958
0.014288835407002756
0.009638927942457074
-0.012706468450588473
-0.010913224779036427
0.011125190111929832
0.011059934661306758
-0.0053912259684037464
-0.013666672034568969
0.0062492935143501046
0.01805116890905566
-0.00895818496266608
-0.013227209110499249
0.006413027901346321
0.011105460971521099
-0.0016911434717164521
-0.01398953342777636
0.0005276294162645388
0.013717295282402517
0.0012954553383597671
-0.01198352530273028
-0.002655107993981811
0.014159808657590808
0.0030280863846569427
-0.013262127053399285
-0.002790822413847028
0.011680491071029819
0.0070368909069765
-0.010408081160502682
-0.009741069728466677
0.009732558775749866
0.011171002064612105
-0.007808586246239205
-0.010285751304925782
0.009024617725071649
0.007804488773056844
-0.008247769497513125
-0.007118219903836982
0.005452277135036401
0.009823031134476615
-0.003003057315596636
-0.011560275320059668
-0.0009109814008281292
0.012681678056397052
0.001820835548182678
-0.009314584852930498
0.002248277036105063
0.006160004442683314
0.0014136317247532095
-0.007932036608990752
-0.007079796482147891
0.00994227494815405
0.009492189054928072
-0.00636808909354471
-0.009063691459036429
0.007220125912301961
0.009699085294102535
-0.009022469435973625
-0.009276922084264158
0.004981547931070955
0.009670926414042614
0.001189919682998975
-0.00978297868296029
0.0007185508940656249
0.011443108595085847
0.0012600520429836416
-0.011393867615219313
-0.00728293141240948
0.010824975262332448
0.006293652216488311
-0.010226105552747848
-0.005327167114122096
0.010220431690584791
0.00953896143346053
-0.009534608395873537
-0.010980093967944892
0.007219700024472683
0.011075370955408883
-0.007958088294919405
-0.010212147159033264
0.008788481029114207
0.009489906548276457
-0.006171512179108572
-0.015042829510762759
0.00615921628155666
0.013781083863584757
-0.006586461962311193
-0.007185545426771365
-5.292501755213151e-06
0.010647247013800536
0.0008941664866318535
-0.014525462138478586
0.0015794822908009266
0.010824472806670952
0.00374710565087164
-0.01029670927371976
-0.005286204903824141
0.011575821731968323
0.005717460492602593
-0.007382809814644406
-0.00854094172237246
0.00754735271220761
0.010516433309653687
-0.0057137827976572195
-0.010769971882189637
0.001624007540539851
0.010796465160974643
-0.0005553471397258876
-0.010259553776430263
-0.0007935349391101732
0.010069737561158146
0.002954134600304941
-0.009697096416983181
-0.006179123153416446
0.010072767154615723
0.005311175932237923
-0.010109357874652369
-0.005965800439521275
0.00428479476041999
0.008859032357992623
-0.0070068774756413795
-0.010285675360726223
0.00825645079066516
0.008996193554262082
-0.004920814805794898
-0.012527247587453208
0.005086213204624247
0.011008593134046219
-0.004764306338907093
-0.009075513062291518
0.0003884359811968968
0.01105385024374434
-0.0002741098366122959
-0.010579441488622518
-0.0004155046248463077
0.01107175008275857
0.002657414723570018
-0.013838658224359578
-0.003849626749631691
0.012240712075330338
0.005008973801567939
-0.007783423403175631
-0.0061577861083770185
0.0053744733683026725
0.0098819306152146
-0.006540772150694739
-0.010908784414019693
0.006425245285720766
0.00935105960851406
-0.002151528139846657
-0.010404016018714709
0.0020471623065836954
0.009426051028130765
-0.0008143070036413
-0.007556155503739567
-0.005677133034709003
0.009447445785116984
0.004476931990021754
-0.011619817793554452
-0.002426690375435044
0.01151861286965929
0.005575525320428745
-0.009637019472171425
-0.006971610292183519
0.0065802262690721315
0.008881893105815974
-0.007200398598053712
-0.011544602926159284
0.005974936807474626
0.01155075399594718
-0.0018922453076479784
-0.013077000762924873
0.00047945928038421466
0.01259042576787748
-0.0008475512397969286
-0.011254406303978356
-0.0022123903048288907
0.008478402369053523
0.003806093458411356
-0.009501330456263115
-0.008589505102802089
0.010756146205171228
0.011277453319831113
-0.008607246414230812
-0.008467288444745072
0.007156816887688603
0.010166772369659998
-0.003340125772295773
-0.011354215236925999
0.0031329262496857086
0.012217154361270391
-0.003403798655256252
-0.010734882453421295
0.0018360883619598252
0.008566984460516921
-0.0003620140577059247
-0.008360137144250091
-0.0036846478798372943
0.00805426899939852
0.005983941048814476
-0.009435531496483554
-0.004706534015126569
0.008182744121115058
0.006115440259858825
-0.005778923295611508
-0.010491976996389233
0.0070165322706791725
0.01024368242441323
-0.004941218442993272
-0.00798289911557877
-0.0007345078839176802
0.009296782656879086
-0.0001371664765528547
-0.011014529489294444
-0.0011454814672133338
0.007358728023681832
0.0036041672551340117
-0.008602116209175498
-0.0033534190699755747
0.011619420214535426
0.004761335909655845
-0.009200283752622376
-0.006976694080979416
0.008171851191215414
0.008091146919170514
-0.0065816367204504
-0.006745874535827276
0.0041306281291238174
0.007798607477503212
-0.002314237678715741
-0.009117374302388011
0.0016131593525298465
0.01143545869035397
0.0017112553440219898
-0.012745197399087018
-0.0012480586927505408
0.012306463428636758
-0.0010812551919391648
-0.011120893657521466
-0.0020705802926788714
0.009202478860341983
0.005407501318284304
-0.006782502464240582
-0.006444614609928327
0.0063307695839241625
0.010987472833985367
-0.005317635355539684
-0.012296263833980088
0.004409815766834508
0.008835649127557452
-0.005192008471324995
-0.009606033284839227
0.0012827223818469074
0.009850193746206505
0.0011600936581282824
-0.011077657842372112
-0.002280885490052621
0.010297511614149615
0.001525483764133036
-0.012434949658521741
-0.004130173159008383
0.009290380087372267
0.0016598417335443318
-0.006218947531155686
-0.0021967924423719493
0.005951665754313087
0.00532073711706979
-0.004363561533779491
-0.006677663138402354
0.0009813199085335822
0.008448689738329735
-0.0018343450047569223
-0.008945044288979433
0.0025298179438034093
0.009425017569227758
1.821325673620303e-05
-0.009305197037323272
0.0005524896262616288
0.00827401462973958
0.0019766803125319905
-0.008345076012477816
-0.0011167084467364997
0.010297686316213433
0.000550226864900359
-0.003899100237916419
-0.004369723751676674
0.0029338883787715744
0.008226295482890262
-0.006435956878131497
-0.008565483100639253
0.004489904757665324
0.010184484402229266
-0.004295463387911045
-0.009069181162906968
0.005135958938786231
0.007108823146985712
-0.0017481380932243553
-0.00821223765605783
0.0015600546502449624
0.007363783427430152
0.0004765070103349485
-0.00856189152203122
-0.0045328078862858
0.012631170433248321
0.0017177864672769307
-0.01017434940725892
-0.00077103614954627
0.006597117027042381
0.00498945909753506
-0.008704103812412052
-0.006029675642767758
0.008691249345272009
0.00510295402234224
-0.005427952586594668
-0.007700464490036585
0.003662107870710753
0.00904360442841951
-0.003314835520747749
-0.008582166317679862
0.0005831568774330345
0.010616291221643374
0.0007868141180896164
-0.011262855797947637
-0.0006017003902666878
0.009849461293659727
0.0031400683378967472
-0.01089332123919613
-0.00040015191139704834
0.009547629957327797
-0.0008234841495924038
-0.004951648798716256
-0.004996278661497489
0.007381869609482101
0.007339874305868882
-0.002844058242368145
-0.004123993071605476
-0.0007200410627975824
0.011266255820194405
-0.00132149520829378
-0.012746414989172162
0.0030863420106865473
0.010114375232032631
-0.0017126664602511528
-0.00999654905055052
-0.00046975032914738687
0.010361096881684493
0.003849627243748559
-0.010677560144389631
-0.004832005678350711
0.007685872829669764
0.004241250728801547
-0.008124154925828173
-0.005343586460231487
0.007362148092834752
0.005194021431056876
-0.0029238145514435304
-0.00897655940916794
0.005291219585023934
0.011738615950914664
-0.005675012741119029
-0.009345794763167105
0.00018458589262700348
0.011992609776198515
0.0016487404804871354
-0.011121178708111527
-0.0022490295516831267
0.008332127900107981
0.006654552585605134
-0.010925823766031144
-0.006661761171880602
0.010583124791765618
0.005511464759941205
-0.007793022075212819
-0.008062639341164204
0.00620142558212719
0.008337910510367802
-0.0013896082696700273
-0.007803310760115045
-0.0023675035845299357
0.010549015425464745
0.0031718162870721196
-0.010130578238256152
0.0007734857535776875
0.011489326607817655
0.002094285149491497
-0.007827600278524777
-0.007074038024082996
0.007254934801771864
0.007397080237173572
-0.010130655611572873
-0.006875041372023385
0.006964759742444551
0.007355600465684524
-0.005791754693493878
-0.007321172083972128
0.002878927596430704
0.006502387863329774
-5.7783236516125064e-05
-0.011416202701582123
-0.000910098510410162
0.011188014505848947
0.0003063126844189504
-0.010227327361541283
-0.001906950661631155
0.008561773790787227
0.00027913391692684027
-0.008245310912639792
-0.003694654817188002
0.007324087928186742
0.006210059431715566
-0.005973943703106752
-0.005249554893962576
0.005367615918407453
0.00798939720319348
-0.0037475648384975788
-0.007566432833571952
0.004582202666448049
0.008973449560330832
-0.0015099840069407202
-0.009890044161890495
0.0008613178481269746
0.011458496151528053
0.0009479686169500649
-0.008796153025768845
-0.0012721322369497478
0.007641229408578491
0.004266264136368356
-0.008330731914675836
-0.009350323629162157
0.008040703447164003
0.008190436090747972
-0.008363243133137238
-0.007762104944401782
0.005470108734409215
0.009505076398140015
-0.004716859525501233
-0.01060133255150402
0.0033886171409432723
0.008022976495052722
0.0003575481000338502
-0.007501161941011133
-0.0044667235863875285
0.009872065963837776
0.004712579644658908
-0.011680842401711824
-0.004491639770709993
0.010085413660249723
0.005195721093806804
-0.010943072223031564
-0.007215954878128186
0.009715727711062303
0.0077440299157654595
-0.005574821407114291
-0.007801224335697737
0.004125716813024116
0.00843543071283708
-0.0020052642880350417
-0.009034624086679818
-0.0005395387211284755
0.00944563492360572
0.0004270101042143022
-0.009683097734331089
-0.002559185755986436
0.007735847237990632
0.004049493403731764
