AAD_Filtered_TADAS_FILE
AAD_BASELINE_CORRECTION: BASELINE REMOVED
AAD_FILTER_TYPE: BUTTERWORTH
AAD_FILTER_ORDER: 1
AAD_LOW_CUT_FREQUENCY_HZ: 0.025
AAD_HIGH_CUT_FREQUENCY_HZ: 40.0
EVENT_NAME: 202302060117
EVENT_ID: 13194
EVENT_DATE_YYYYMMDD: 2023/02/06
EVENT_TIME_HHMMSS: 01:17:32.00000
EVENT_LATITUDE_DEGREE: 37.288
EVENT_LONGITUDE_DEGREE: 37.043
EVENT_DEPTH_KM: 8.6
HYPOCENTER_REFERENCE: AFAD
MAGNITUDE_W: 7.7
MAGNITUDE_W_REFERENCE: AFAD
MAGNITUDE_L: 
MAGNITUDE_L_REFERENCE: 
FOCAL_MECHANISM: 
NETWORK: TK
STATION_CODE: 0134
STATION_NAME: 
STATION_LATITUDE_DEGREE: 37.74427
STATION_LONGITUDE_DEGREE: 35.864475
STATION_ELEVATION_M: 494.0
LOCATION: Kahramanmaras_Pazarck_Turkiye
SENSOR_DEPTH_M: 
VS30_M/S: None
SITE_CLASSIFICATION_EC8: unknown
MORPHOLOGIC_CLASSIFICATION: 
EPICENTRAL_DISTANCE_KM: 115.66
EARTHQUAKE_BACKAZIMUTH_DEGREE: 
DATE_TIME_FIRST_SAMPLE_YYYYMMDD_HHMMSS: 2023/02/06 01:17:31.9832570
DATE_TIME_FIRST_SAMPLE_PRECISION: millisecond
SAMPLING_INTERVAL_S: 0.01
NDATA: 12501
DURATION_S: 
STREAM: HNZ
UNITS: cm/s^2
INSTRUMENT: sensor = ACEBOX/SARA | digitizer = 
INSTRUMENT_ANALOG/DIGITAL: 
INSTRUMENTAL_FREQUENCY_HZ: 
INSTRUMENTAL_DAMPING: 
FULL_SCALE_G: 
N_BIT_DIGITAL_CONVERTER: 
PGA_CM/S^2: 38.646
TIME_PGA_S: 
BASELINE_CORRECTION: BASELINE REMOVED
FILTER_TYPE: BUTTERWORTH
FILTER_ORDER: 
LOW_CUT_FREQUENCY_HZ: 
HIGH_CUT_FREQUENCY_HZ: 
LATE/NORMAL_TRIGGERED: 
DATABASE_VERSION: 
HEADER_FORMAT: DYNA 1.2
DATA_TYPE: Acceleration
PROCESSING: Automatic Paolucci et al., 2011
DATA_TIMESTAMP_YYYYMMDD_HHMMSS: 
DATA_LICENSE: U (unknown license)
DATA_CITATION: Turkish Accelerometric Archive v 1.0 - Disaster And Emergency Management Presidency, Earthquake Department
DATA_CREATOR: AFAD
ORIGINAL_DATA_MEDIATOR_CITATION: : AFAD - Disaster And Emergency Management Presidency
ORIGINAL_DATA_MEDIATOR: AFAD PROCESS SERVICE
ORIGINAL_DATA_CREATOR_CITATION: AFAD PROCESS SERVICE
ORIGINAL_DATA_CREATOR: network: TK
USER1: GuestUser
USER2: 
USER3: 
USER4: 
[...]
5.577528849886601
10.036216496237993
11.874349755203301
11.543130126178335
10.195860652554593
8.59044544175133
6.831433866691497
5.2190663678409805
4.194951592724041
3.661500600708064
3.1125697779384534
2.0324882510547266
0.19962519206258492
-2.086716961879059
-4.20562774780806
-5.534041804660405
-5.55480493559803
-4.35343049645202
-2.853763863204297
-1.8920146966316957
-1.7197143117658242
-2.1908551278686117
-2.887568058626404
-3.7370220294831804
-5.15221406452738
-7.224388580475785
-9.371259855618028
-10.798416825495165
-10.699175542323788
-8.476567633724644
-4.6160805571812995
-0.8143370848763982
1.1337121960681689
0.6327405709690065
-1.6791115340694893
-4.890822518589152
-7.9861220645355635
-9.96869662085469
-10.54970438839512
-10.292708082555885
-10.103965351389713
-10.352157208822547
-10.584592882562095
-10.153317427023959
-8.625483805084984
-6.158032152240508
-3.6263517171757655
-1.8757502739008995
-0.9460562744670917
0.00652599366175989
2.2947861860272014
6.879860860470584
13.267180779134701
19.5964707443654
23.97418912081573
25.491048656696982
24.191417760541146
20.822281356747308
16.652043506074893
12.860988054253363
10.070781555026668
8.135907579821081
6.541635429238697
4.727498663254328
2.0883131282869014
-1.1575545468786153
-3.775252487901625
-5.082577190716099
-5.600262904914446
-6.150071486674901
-7.1675450005137415
-8.423385006862881
-8.975381200497356
-7.860430321016076
-5.090304050502408
-1.702145104899807
0.9607412763345413
2.2824666070452695
2.8123635065512684
3.6227048209919177
5.410950928624471
7.916736750869377
9.981678500991334
10.249220381290886
8.326661683761394
5.382801136125183
3.0340616521309367
1.97553806102719
1.9217583153379045
1.9853003822970232
1.0431106265823875
-1.487966389406159
-5.0134638041975155
-8.292245765242873
-10.604017505634536
-12.056551090597031
-13.08872873139485
-14.055363030544852
-15.01018589604366
-15.618353076427923
-15.182110048468754
-12.921511935153985
-9.028191044074692
-4.992150721521585
-2.1444728461682168
-0.8174854769273424
-0.5908167289194526
-0.6598811199770633
-0.28653790755870207
0.8183206229463452
2.2243153814108467
3.147247491754747
3.265094246537251
2.8868932317195437
2.196129256692113
1.393850703209847
1.2180172347080775
1.9233583508570016
2.7645622436531374
3.1973316222331802
3.312679589567064
3.2645216454879096
3.40631631937177
3.88304769641973
4.189026811279294
3.864268454516189
2.7209571616996175
0.6403444154537757
-2.1592483267260034
-4.799956565249496
-6.213418768913792
-6.056356440599556
-4.675648214089691
-2.4777960547697266
0.06940105907822733
2.360076229420955
3.883815124670042
4.342630762541276
3.633296807966987
1.791500858926901
-0.8518772096766045
-3.6042216694273734
-5.577430852148754
-5.92901647332227
-4.6851352722473125
-2.8520191438562943
-1.2119734362307675
-0.09731127024706009
0.34742947386319
0.19099001377627547
-0.42452173064777643
-1.2098327478810922
-1.9007610973588767
-1.9120324342691062
-0.21818178233377566
3.364173296942872
7.723134999227474
10.958575718226154
10.956212047037825
7.318307926464404
2.176855907086919
-2.098217050835064
-4.312504622426361
-4.20943461123317
-2.8797129169132085
-2.2465960664886113
-3.325917341014681
-5.574810322619827
-7.513515060998366
-8.08350149822086
-7.564794351279843
-7.060458280075834
-7.396821833648108
-8.307211019162963
-8.381971545639237
-6.237196414621062
-2.059224616763152
2.3911353648314404
5.175852939270392
5.438447534674588
3.803143115684114
1.7389720346542972
0.7213228353935509
1.4841981838080769
3.3333941916759913
4.556997777931545
3.8140985665810643
1.2877929806128516
-1.6046342597434606
-3.387902702688249
-3.0417180728869604
-0.791255086826186
2.1217928154560646
4.8431739916824625
7.038363525197152
8.789672553317981
10.461537641885082
12.200348854100017
13.320110303290017
12.836734810497722
10.721901748551653
7.634544243315791
4.369961696910276
1.6740859793751555
0.047963817228090184
-0.40070447274988774
-0.1595856462705823
0.2341757505499422
0.9909492951567043
2.3649329201065297
3.883459317192355
5.254518541090541
6.341983981128003
6.586550874209336
5.844183074717399
4.437705293635653
2.336606381579325
-0.6542717142378746
-4.024805373247792
-6.892906754317556
-8.602298983419848
-8.27091940684986
-5.639376622969304
-1.8322158043095575
1.6735076492328096
3.765316196523525
4.1460866153669675
3.3005620304571295
1.638147180340987
-0.7825463876033849
-3.915637879616881
-7.207707641958806
-9.628329777073175
-10.561033055533155
-10.175064556528392
-9.259865149697562
-8.817531320708502
-9.367552389181304
-10.656094315039825
-11.760174228679011
-11.664061712134435
-10.031154652042453
-7.304140128364077
-4.188950096425603
-1.4875144145718902
0.022150302001687786
0.09802951454504694
-1.0674511962926994
-3.2180998955664686
-5.822331558984961
-8.003681582696066
-8.801627495769177
-7.37967277669224
-3.894601591965073
0.4093599019192994
4.503413645437081
7.668881040040048
9.116609322990056
8.552419456874823
6.643141323472562
4.62586030736953
3.285142026767397
2.6683210401534216
2.47680344098474
2.193604744905475
1.218987483089792
-0.9001186131913314
-3.9693946200440418
-7.0165738720055515
-9.081641862184965
-9.913947141956909
-9.862369700039947
-9.236007554476183
-8.12486201677978
-6.701748346617845
-5.3694105360635485
-4.3601617103560235
-3.398677721260573
-2.2377785838027857
-0.7586929132133857
0.9929438477260398
2.5919517971808164
3.8061120336975742
4.563268282153266
4.793980868236743
4.8502926959219455
5.231815657429958
6.056504368357861
7.234579036735241
8.62005263285184
9.903121112646234
10.961535940016658
11.944054923499854
12.73747086567139
12.867766783059569
12.024019425239164
10.309340993412388
7.883211218208346
4.772198106053511
1.2490373040010792
-2.0621756289141517
-4.732847805656627
-6.783886939274553
-8.255505263082695
-9.092123922272622
-9.588912483224076
-10.525208897418517
-12.675644474521173
-16.100148205302908
-19.99582756891352
-22.89672066695694
-22.93705801604481
-18.98238071422177
-11.411336303704275
-1.9778047544803528
6.907690836692857
13.635941876170321
17.761595402707005
19.81937828998184
20.917583612189357
21.68662512560804
22.228513835314054
22.17395907786675
20.77436571303106
17.98896953469559
14.724925560312721
11.826299595735124
9.684053486017813
8.247471046490272
7.115323775912462
5.902287181195503
4.301743284976425
2.4275075109279434
0.7758992061348488
-0.3976003511268114
-1.0995464239892438
-1.8050911945543324
-3.3133860452514097
-5.763861370529634
-8.321213093499933
-9.902212403938417
-10.207402499700125
-9.691174498126353
-8.929948798156728
-8.251207914012323
-7.332858351501964
-5.541299049688216
-2.773347060061702
0.30922800140305734
2.6540206500231935
3.498297887078951
2.810263364086363
1.3406709169372715
0.41538153149598983
0.8440414844630545
2.2582618591710175
3.7572850170887424
4.647615525203098
5.129590456688587
5.805743144291278
7.001049133163976
8.778266016508676
10.37402866805663
10.38687869328188
7.972423983040569
3.8485044028403057
-0.7044487628403822
-4.997571084926386
-7.981604491684517
-8.785115553623655
-7.807934139660892
-5.8219132589351545
-3.9942384035734015
-4.274767142734079
-7.633361209930257
-12.957947308432907
-18.185017139166916
-21.39168443316387
-21.56594779071159
-19.05117295628549
-15.068725269540987
-11.20177018038225
-8.671502945222365
-7.473412577197879
-6.430055479332765
-4.322771035387426
-1.0439188328889484
2.7134357208743745
6.2226043308751935
8.721053225075282
9.61988316759973
9.045662961238774
7.883085726984851
7.24395522148741
7.528718465543622
8.296651730951938
9.026378246962754
8.99717764387575
7.411890940499886
4.330955996278769
0.9557841394467761
-1.0259260228481577
-1.0863044167672957
0.13379563139074585
1.9950948651677014
3.5407222906899682
4.158865756794021
4.510783563226681
5.86328696820648
8.950396446101497
13.151896763050955
16.92750614784116
18.592857118429897
16.987356060112354
12.413405099900974
6.232543679410035
-0.252691648405775
-6.085112578098893
-10.57451161076995
-13.37268104214937
-14.94374193481579
-15.8691221209953
-15.736874587820623
-14.092233651557404
-11.312712779747503
-7.902942502830495
-4.032964042670417
0.03132314969692122
3.671505035191071
6.258035921133228
7.532852800381097
7.7468630438279495
7.439986794086919
7.043919931070093
7.054951238900259
8.092119247377662
10.096005275468737
12.252483047689513
13.733553067975524
14.30164451566056
14.444065217341155
14.938756121070758
16.479265460043962
18.99504218214922
21.3437776679183
21.920084175408356
19.50071354096262
14.245575848450592
7.618689854733417
1.649722768632104
-1.930471276177838
-3.0803529858464267
-3.1568082022469213
-3.6717410736643483
-5.735981011517786
-9.368015285398371
-13.338821096891303
-15.976398449074146
-16.30194819095111
-14.30077733475565
-10.499920774574617
-5.952225535166718
-1.3224968903849657
3.44922779565989
7.917529180930738
11.549234210459188
14.128104325970568
15.384283462039642
15.121141085223705
13.187803875809065
10.033871524711873
6.457287597860157
2.667834615388325
-1.0902651049462329
-4.001535238640962
-5.498143627956746
-5.673992561119143
-5.304998051695291
-5.585689035372958
-7.380256291950941
-11.0418400877818
-16.270747593362564
-21.833117564678037
-26.187628355887714
-28.06864704240582
-26.51403075102153
-21.290431634262024
-13.181042839328825
-4.025725510989497
3.984182688311137
9.533962717567386
12.010525520037865
11.211479888807824
7.941258057504785
3.6946430429999393
-0.037791573656562216
-1.7275415082816696
-0.5650509989907656
2.6367462889888813
6.087565296565436
7.871298904732041
6.923343161555533
3.912006577573673
0.1123574135099939
-3.630797342120409
-6.568863279570722
-8.59631077544446
-10.096967973837419
-10.85061715012736
-10.445153104747657
-8.818500740565865
-6.426588992725534
-4.461956047301365
-3.958744468956073
-4.972353414753047
-6.597750554982127
-7.220606405583194
-5.788803705056967
-2.515307375136591
1.7351495562512889
5.85379890350397
9.410388506729275
12.928893662751548
16.297952216789866
18.60641133570912
19.40843042368639
18.496439231357414
15.952548460578756
12.642290059471838
9.31131132012805
5.829295754100745
1.5428528340490484
-3.800540867965906
-9.688174040449107
-15.034146099551647
-18.33770836927747
-18.718935613079196
-16.572270975988147
-12.652386584878426
-8.093107806213183
-4.237295273217329
-1.3286726685521746
0.9691506988403075
2.655319345690039
3.739301479242133
4.240986951151253
3.797537901003814
2.1707175946621553
-0.37514470247544984
-3.2334037720631064
-5.358013726047473
-6.413808565169562
-6.96983957635605
-7.106647059395983
-6.910000479836046
-6.519944874215459
-6.021081805027972
-5.610828582676726
-4.866750079923274
-3.709257978813722
-2.6487094182972295
-1.6254927489000157
-0.24096102014675957
1.600386042606022
3.585969180501659
5.359297348778696
6.617035109863806
6.906268887606006
6.058782590122833
4.345332348274952
2.425777112231801
1.3232599155880347
1.8271990416948947
4.055733103992283
7.448106784439723
10.868551660309505
13.115781028368351
13.994398930344033
14.538474713359786
15.949717294561836
18.364781022019834
20.78968108010034
22.060404534971212
21.429814793212042
19.027016153794126
15.272860400853231
10.306049378690394
4.653914081210131
-1.0598947621909718
-6.2997485158724285
-10.12325118789316
-11.884213758882568
-12.041518380349974
-11.566521222790989
-11.231327631907757
-11.386437152725886
-11.973066156131296
-12.592622787725345
-12.88200972836628
-13.353956682502927
-15.055774894680761
-18.328391884354442
-22.324244377083172
-25.44694955224386
-26.243998558269272
-24.026042759402106
-18.836186549768076
-11.52805675135603
-3.7968352558942806
2.9389135717537824
8.230417424277713
11.827539791984325
13.703140891439347
14.559325808834487
15.122817616353275
15.510223557073013
15.43993783999404
14.647306725368454
12.829173623205257
9.95450361691666
6.578380198870406
3.288919874533517
0.6740352400170279
-0.9864925020286585
-1.8543111474186242
-2.2215391126492294
-2.646544892473557
-3.1081718876945748
-2.7572308973099453
-1.0642902813132773
1.7229225128732666
4.779580526897011
7.327640452913816
9.191552512632564
10.421475990592636
10.999930163548429
10.661720253073941
8.953473673662932
6.125042792738278
3.0409711529129835
0.4629504554994228
-0.8118156030249761
-0.08948578686112367
2.6111219739747114
6.1407055334307925
8.5021752560377
8.299717733161945
5.735713473850645
2.004045900236169
-1.5104695531358012
-3.671702150143108
-4.257368473367441
-3.9843470739801887
-3.326875364719033
-1.8889833586589544
0.9392438358282539
5.626440805382446
12.196166689182856
19.64408876979205
26.158506170906865
30.157602537504548
31.733846885123512
32.53570373167678
33.93208646085312
36.00947589248097
37.724690812375584
37.69432336609191
35.12814189357167
30.393987202033326
24.67802914046532
18.99347819822667
14.14671720887654
10.95358124384604
9.219228516104964
8.087899848009881
7.2564012432829275
6.5313343761666784
5.939729940922352
5.4899219956410565
4.560478338562717
2.7434221309029154
0.30317193222995076
-2.0667276968003905
-3.793145234841455
-4.8592243630478995
-5.416530593757836
-5.869383787645739
-6.9407056008230885
-8.724304559304235
-10.532063175138594
-11.437642700410395
-10.914728679109444
-9.253226603812207
-7.1375868088069145
-5.1491024385788835
-3.778540972511297
-3.256465652101702
-3.4122989117446636
-4.200153442115186
-5.661089121360497
-7.911767009052057
-10.897866257054996
-14.144798078161491
-17.633003319921848
-21.490536999027334
-25.14776004623925
-27.46854442544625
-27.347425135314904
-24.630751648152753
-20.188785309046384
-15.467312153137808
-12.031486638572458
-10.46557962760626
-9.82913525971402
-8.802476464354342
-6.71193609004544
-3.7359743547459328
-1.080843754325122
-0.10002756042348632
-1.0914431057795295
-2.86552718280068
-4.062103334322101
-4.378414861230588
-4.0182999495512455
-3.8658285182257113
-5.021008188109238
-7.225364619239841
-8.66558070194334
-7.480224138843433
-3.2095934184724553
3.026845105282559
9.162816526386724
13.108969492787216
13.718278091835517
11.388856470367367
7.694140986884221
4.243103521113546
1.763675177870556
0.10944879231937546
-1.5864732658203236
-4.056899878392334
-6.727535579746304
-8.22313556826448
-7.612707763249073
-5.1496695500640435
-1.797594612023474
1.5273564161289352
4.044031266060552
5.740527565118032
7.205725969707296
8.374013106284721
8.995894620683503
9.337445473487067
9.420970162231953
8.827495188188804
7.267339494439579
5.0578139906005175
2.904068869052858
1.0875134449968964
-0.433125128625376
-1.5273442970624482
-2.2237227845823293
-3.1352273081079387
-4.446928612347319
-5.40105375488243
-5.602417511697265
-4.491426744462245
-1.331196209718181
2.793299744697888
5.696048632933857
6.536467155759784
5.905268663307787
4.374926565573493
2.5937277713253826
1.4640114316015462
1.1693763332029001
1.1614448395409014
1.1175958335925966
0.9626784148603645
0.872722688664732
1.3033174747932834
2.3842896015689634
4.222658032124487
6.466472529474512
7.925660620949954
8.032814548432825
7.000858673399863
4.989613710744694
2.481612459336897
0.5536526144207676
-0.014465115196087305
0.25826916472328165
0.24453510548306454
-0.7843712706030938
-3.1012507939486285
-5.790867667109294
-7.214491442917843
-6.588213067888964
-4.251700144823057
-1.4741956013448325
0.34556793932278446
0.38924982613425385
-1.4191974955561948
-4.0645158987364765
-6.064781834045733
-6.555753436257324
-5.4957323675875855
-3.4040725677180803
-0.8613367993020692
1.4315227118219143
2.72093195857094
3.256350614855622
3.569771401194083
3.1174934992770864
1.2082742506775104
-2.028809757943748
-5.737137013368344
-8.650005574304569
-9.737474182942991
-8.725611190557707
-6.308190193632617
-3.7584677005569627
-2.0244851797247367
-1.4554295506181587
-1.7478748355955325
-2.0866495125735214
-1.9277493922173037
-1.5366549697978602
-1.7791437080552848
-3.220193979594628
-5.636134753383001
-8.215580905110894
-9.865653222171558
-10.045865300193531
-9.022742491255359
-7.077659916909424
-4.583760686858513
-2.1766531905447986
-0.13618046883874377
1.364472642365804
2.223672702784274
2.740451752771689
3.0120237353995125
3.1210856836091847
3.446907337137588
4.177891132895442
5.2130350283499345
5.97959821405874
5.991085634450873
6.008091185698873
7.496149299958785
11.088517831986444
15.989622914040702
20.485496773710544
23.3621903633105
24.53020510371026
23.91654392179058
21.727963981888433
18.763300179162204
15.179993099335942
11.082844340968094
7.016001306158929
3.12784454394941
-0.5964913778382274
-4.129555876547357
-7.724181605179701
-11.659711667961394
-15.716394782718652
-19.297138751130426
-21.90645658013621
-23.282635859430826
-23.592198353060603
-23.396475637374373
-23.186952276523392
-23.194795422982875
-23.366299165002893
-23.444998616134885
-23.110972602375966
-21.858658156139285
-19.09575489823733
-14.742792182427412
-9.515300299683075
-4.246045861576865
0.8009672910041563
5.75911103574448
10.644183803304266
15.072883903903744
18.515376051872888
20.494321751572382
20.678577071335372
19.116823814322633
16.085234898175692
12.186091104916395
8.691874244297072
6.995725622112047
7.484613145191832
9.227732381304143
10.741194017038962
10.92358483070077
9.40723939667677
6.371340521885219
2.4702550644995274
-1.1801706542666262
-3.8208006102523457
-5.667257186117697
-6.812452248125807
-6.970264209662778
-6.186431362060492
-4.389138107835197
-1.4571860670358245
2.0626195449502975
5.041478727806969
6.659461222204334
6.7139049800819555
5.347550289433761
3.1810411626394295
1.0387904870797668
-0.37376939327789976
-0.6538816710527333
-0.14060123116427992
0.722754248808559
2.0953737821751197
4.16896112584287
6.979271125291638
10.284709079838084
13.200202344755537
14.711686068284394
14.199686814846007
11.84347820973451
8.906193237061684
6.724048199199705
5.519510976104391
4.58954810477865
3.2318925378871777
1.262246883507046
-1.2508435335929635
-4.412369346805855
-8.45907910424601
-13.27094665783139
-18.50036642820917
-23.41335140446307
-26.520992643091795
-27.335852595167186
-26.7480303933068
-25.20209965640773
-22.954086182594047
-20.674832112096137
-18.69002709487409
-17.087638369878235
-16.279819805797615
-15.816320128126518
