AAD_Filtered_TADAS_FILE
AAD_BASELINE_CORRECTION: BASELINE REMOVED
AAD_FILTER_TYPE: BUTTERWORTH
AAD_FILTER_ORDER: 1
AAD_LOW_CUT_FREQUENCY_HZ: 0.025
AAD_HIGH_CUT_FREQUENCY_HZ: 40.0
EVENT_NAME: 202302060117
EVENT_ID: 13194
EVENT_DATE_YYYYMMDD: 2023/02/06
EVENT_TIME_HHMMSS: 01:17:32.00000
EVENT_LATITUDE_DEGREE: 37.288
EVENT_LONGITUDE_DEGREE: 37.043
EVENT_DEPTH_KM: 8.6
HYPOCENTER_REFERENCE: AFAD
MAGNITUDE_W: 7.7
MAGNITUDE_W_REFERENCE: AFAD
MAGNITUDE_L: 
MAGNITUDE_L_REFERENCE: 
FOCAL_MECHANISM: 
NETWORK: TK
STATION_CODE: 2107
STATION_NAME: 
STATION_LATITUDE_DEGREE: 38.14594
STATION_LONGITUDE_DEGREE: 39.48379
STATION_ELEVATION_M: 714.0
LOCATION: Kahramanmaras_Pazarck_Turkiye
SENSOR_DEPTH_M: 
VS30_M/S: None
SITE_CLASSIFICATION_EC8: unknown
MORPHOLOGIC_CLASSIFICATION: 
EPICENTRAL_DISTANCE_KM: 234.92
EARTHQUAKE_BACKAZIMUTH_DEGREE: 
DATE_TIME_FIRST_SAMPLE_YYYYMMDD_HHMMSS: 2023/02/06 01:17:52.5013950
DATE_TIME_FIRST_SAMPLE_PRECISION: millisecond
SAMPLING_INTERVAL_S: 0.01
NDATA: 14501
DURATION_S: 
STREAM: HNZ
UNITS: cm/s^2
INSTRUMENT: sensor = CMG-5T/GURALP | digitizer = 
INSTRUMENT_ANALOG/DIGITAL: 
INSTRUMENTAL_FREQUENCY_HZ: 
INSTRUMENTAL_DAMPING: 
FULL_SCALE_G: 
N_BIT_DIGITAL_CONVERTER: 
PGA_CM/S^2: 44.237
TIME_PGA_S: 
BASELINE_CORRECTION: BASELINE REMOVED
FILTER_TYPE: BUTTERWORTH
FILTER_ORDER: 
LOW_CUT_FREQUENCY_HZ: 
HIGH_CUT_FREQUENCY_HZ: 
LATE/NORMAL_TRIGGERED: 
DATABASE_VERSION: 
HEADER_FORMAT: DYNA 1.2
DATA_TYPE: Acceleration
PROCESSING: Automatic Paolucci et al., 2011
DATA_TIMESTAMP_YYYYMMDD_HHMMSS: 
DATA_LICENSE: U (unknown license)
DATA_CITATION: Turkish Accelerometric Archive v 1.0 - Disaster And Emergency Management Presidency, Earthquake Department
DATA_CREATOR: AFAD
ORIGINAL_DATA_MEDIATOR_CITATION: : AFAD - Disaster And Emergency Management Presidency
ORIGINAL_DATA_MEDIATOR: AFAD PROCESS SERVICE
ORIGINAL_DATA_CREATOR_CITATION: AFAD PROCESS SERVICE
ORIGINAL_DATA_CREATOR: network: TK
USER1: GuestUser
USER2: 
USER3: 
USER4: 
[...]
-0.12736089992026836
1.3781856451871655
2.349075461553688
2.5373100734642238
2.2908318529090304
2.040081487090278
1.262641643898558
-0.6773139722565272
-3.4996345461145193
-6.223886150940511
-8.06786035212969
-8.382748638472146
-7.257388218038295
-5.240417041858729
-2.1016065096849723
2.3580743394019485
7.638140061379925
12.800598624783559
16.648420875647204
18.78858420367982
19.703537911067986
19.55317261308808
18.13990963584371
15.387002477150876
12.05037358483401
8.975168848135771
6.103552634224134
2.7276439496707985
-1.6405564215572144
-6.413670369520252
-10.592462773443964
-13.369276494933414
-14.431583882788292
-13.769306009473867
-11.306429724859502
-7.8238807653477815
-4.97739859168837
-3.84822616827059
-3.9959996563446833
-4.067547303212398
-3.4977749776090516
-2.873632672232098
-2.731418147571818
-3.1836413263741297
-4.358559138182055
-6.165429094657636
-7.998981688904922
-9.294685568929408
-9.658844235235163
-9.48837333602326
-9.99561039016047
-11.261151340658905
-12.348992538602864
-12.720676253497421
-11.9451494725099
-9.97556233214251
-7.7789259334067795
-5.834608850798095
-4.03036252378791
-2.2615293201238478
-0.7564640536717528
-0.4409002645645429
-0.8948136111512184
-0.935156447715308
-0.6805459424132426
-0.828405519641194
-1.6539889427893715
-2.793836957640937
-3.690225472864344
-4.100279494644417
-4.0579602792575615
-3.4880291568797364
-2.966358459694134
-3.3286468433903367
-3.9830753456965913
-3.7762895519308417
-2.4003001496384586
0.06715335809995022
3.6087394523708984
7.431780080210852
11.230231214011308
15.161691744291767
17.890623347050486
18.228331262223723
16.48168287216028
13.399926998429459
9.776488290060394
6.675882867982814
4.204251933862248
1.5902678290482366
-1.2884181612134056
-3.7242807189044593
-5.022829912685833
-5.497796971708792
-5.641506927948466
-5.087252356349975
-3.039249863781582
0.3723353621826001
3.994905963386768
6.9814252336882
8.556683275010803
8.543320974951827
7.938993645804636
7.052414311616892
4.854989587510748
1.0694360937117615
-3.5683584755860256
-8.505479320420001
-13.479606314175285
-17.571091098560235
-19.841069069330853
-20.253037004764227
-18.83734326854473
-16.25232453142641
-13.164646199855506
-9.742602038873379
-6.332060311208826
-3.5322467321712945
-1.3307579803197176
0.6519912320366164
2.3439475413790674
4.284520631711339
6.90895979643944
9.697913486334437
12.602760026902171
15.302279282461408
16.877114484740073
17.20301076195492
16.415868970592964
14.661094420575312
12.12557496280525
8.77278170228758
5.263146966294039
2.346288670279397
-0.3261255557427784
-2.8513106017316012
-5.382533199492094
-8.29177944853712
-11.02807801945947
-13.240442106917616
-14.918864715674035
-16.01566077103702
-16.387908155938035
-15.66458501604747
-14.160761288810887
-12.849822278150436
-12.246180495237425
-11.661377894558434
-11.002912761527512
-11.117184387815433
-12.353980456020448
-15.186962292582033
-18.81797084000417
-21.133233764832788
-21.874303135050663
-22.37785424407745
-23.064086299308617
-23.85171912099561
-24.928732513264578
-26.337875728640448
-27.843078085181844
-29.20706547202648
-30.718432056264596
-31.90963280192105
-31.656030673840245
-29.94661461068056
-27.14753247664398
-23.522729865918965
-19.878389461431976
-16.419030007190976
-12.635973563300565
-8.743912664769475
-5.101486263026376
-1.5645257444920175
1.3553881244647108
2.8564393398449224
3.2354727539249053
2.8143689810957673
1.4525246082864516
-0.40399542014508155
-2.1450127876634815
-3.4316584103476235
-3.9523978739755328
-3.737727713940854
-3.79565719710111
-4.671129065593018
-5.855826203840279
-7.409681013380637
-8.989714760236335
-10.016567975684136
-10.69833142127591
-10.38292898850331
-8.558006510643393
-6.129516150244863
-4.035620586337605
-2.889488070899618
-3.03220814750906
-3.0436183638290957
-1.423421699110669
1.0672715621185709
3.602414011026771
6.063235703971418
8.711951699239542
11.552848566810587
14.101686857096714
16.05714748187014
17.38413019150011
18.335755295090603
18.484229609035065
16.95223958078846
14.531537450717853
13.21748035197089
13.486353417844207
14.207784394058605
14.649750008200131
14.727851332475916
14.496344509657943
13.93432407532363
13.043920320291946
12.140502345493847
11.157522069710215
9.928082941230318
8.723094809194365
7.384734246291827
5.552204959854548
3.6341755185287408
2.4733668710474284
2.9530725207960113
5.438208952881747
9.084008642180194
12.13997403624651
14.244758995840652
16.762321021132106
19.98745809357568
22.88321294177052
24.820702207250765
25.446140738833908
24.43285351002902
22.452455073414242
20.18556589984032
17.191757383322248
13.455567338490102
9.834603802026415
7.279912688799606
6.501601375256073
7.245280941578828
8.648503927975108
10.049147004032731
10.93237112130506
10.284237939449733
7.6198429359841375
4.843203784176011
4.083073421600913
4.6968281424808245
5.1520544170897535
4.9033479423653334
4.233544260621504
4.1877523633808185
5.215749457573469
6.561090939171548
7.71162837342442
9.204901342312567
11.305241259669325
13.40613271531743
14.72186432577126
14.728738686012353
13.276706115822305
10.248175982001841
5.6945418369349134
0.1148836432796644
-5.263069653185691
-9.35912075857465
-12.526366764870943
-15.389249372344228
-17.721164131927626
-18.253783974936574
-15.636142868045692
-10.136823344042192
-3.778655898665529
1.1423346271798371
4.07691130501438
6.233732544750014
8.45766577302732
10.05822631790363
9.92987998510633
8.164227430291028
5.4884691213643
1.9468065363692002
-2.642830988150859
-7.371664579921756
-11.396916356360668
-14.973383945946013
-17.714970014758553
-19.75952907751476
-22.258454064448454
-24.897013369819597
-26.463436520583688
-26.663276030444866
-25.829010567564158
-24.556059156292093
-23.30733359266264
-21.95473671682486
-20.564607944858608
-19.682512629626473
-19.534981652928344
-19.360394076732263
-18.6114821240456
-17.72932161275107
-16.835358192342177
-15.527188987832417
-13.779032620679207
-12.012133380487766
-10.085404663293257
-7.903374582332128
-5.804209909745678
-4.102349691508801
-3.309957175643527
-3.243461268817928
-2.699420710049992
-0.6835461595385292
2.104827727405634
4.249732097029511
5.150788938971589
4.831772472237318
4.136233775767137
3.8064166662289747
3.8446618213500368
4.069880962017982
3.9176138834115717
2.9804176292891404
1.2709476093028667
-1.0040004330990437
-3.0688366968537713
-4.101486473205492
-4.823841808101809
-6.271018960501275
-8.080836228388575
-9.458406942022544
-9.916718358170888
-9.88201909195821
-10.15763155638238
-10.93874865470526
-11.512844944231633
-10.966253075291966
-9.471775097090777
-7.753916201315236
-6.082545298165553
-4.816678337331713
-4.192252673463899
-3.577116517868507
-2.7989723564245317
-2.1096154900344573
-1.3879297739385137
-0.7572422342377584
-0.4238735402357834
-0.2931478506178102
-0.48272180012775917
-0.9434314317661707
-1.4408583901508407
-2.502407592532712
-4.355140719093263
-6.2048940843551135
-7.647306628716337
-8.000993522236241
-6.585651454720574
-4.0754389854895114
-1.1161816398234516
1.5172412445844548
3.3692883400854488
4.757270288449394
5.768510015553869
6.3994886553419885
6.807639639746177
7.534065025948822
9.389844936101133
13.021846900066281
18.08619224948396
23.64759591125043
28.92066718273082
33.170397057200944
36.59515466921025
39.67284785382563
42.002714664904936
42.87330391387947
42.36681454260373
41.29650601790564
40.183594038658946
39.13188486600086
37.88085293665555
35.939012331106554
33.12918270486516
30.10940628220153
27.281638603023147
24.671937733718725
22.183451172584853
19.675168611715275
17.597845308166033
16.170224534889186
15.171446803582953
14.922307291794137
15.604039661849816
16.474498968836738
17.097415538973006
17.322901954142026
17.736867580838364
18.67797188468674
19.266406427308176
18.7603343558202
17.113226752067014
15.214911191404223
13.721428473640058
12.323670732572426
10.74199176542801
8.610294427700675
5.7751465066644405
3.4013413567059296
2.5614234895592913
2.8110781979642465
3.1285935447541213
2.594045816581516
0.6290695779458163
-1.9253224616421611
-3.425205987374
-3.5497007940377436
-2.750922996581071
-1.9781367771577998
-2.791381055381698
-5.003004798311773
-7.340771094689276
-9.041539747201233
-9.689054835794476
-9.264667362832107
-8.30890536841913
-8.326257559092495
-9.85083042611823
-11.867770970404122
-13.963549062200533
-15.750730383976332
-16.79072340452042
-17.241679725291384
-17.233829281305606
-16.347077981658966
-15.123529923653
-14.172238172542459
-13.969397722396566
-14.612457621696128
-15.36875301169925
-15.403136518125372
-13.759102984961551
-10.603756988668259
-7.033170460790276
-4.332367067810547
-2.498577680239561
-1.6501888360865067
-1.2392464225389863
-0.9139238753641272
-0.9757765623043096
-1.2907703815681855
-2.288326024187496
-3.4092068462335687
-4.610887496275267
-5.792674809790246
-6.749663535589202
-7.336859127988203
-6.879682560891798
-5.223006456039347
-2.7137670691678513
0.10634608483604549
2.0765341657121437
2.172182586853242
1.3673019205532257
-0.036155817591925515
-1.8641761371937584
-4.036648562293605
-6.99534879007569
-10.751104332584863
-14.52304787395837
-17.245331263546728
-19.0196644191096
-19.729198974322813
-19.654899529956214
-19.453737127547253
-18.545521858784646
-16.71085194448011
-15.088842599571752
-13.702012393556117
-11.593235385174042
-9.431885605913147
-7.451183828242195
-5.9722825053867945
-4.008399143832287
-1.4294845986274882
0.6101038227141914
1.24814776914482
0.5345827907641065
-0.07415930377896807
-0.6323962829625558
-0.8528975301729199
-1.4729320424299392
-2.8151064507639827
-5.4497483123952675
-8.656673234363307
-10.868868856947921
-11.768574783085615
-12.233498425823024
-12.36158950940903
-11.727454006613646
-11.500534244273139
-11.211336380889328
-10.500028421248459
-10.378112329848182
-9.713931789454282
-8.29293293818419
-7.59012959200972
-6.898953762005059
-5.872355237249509
-4.732609611483928
-3.982110642276948
-3.6546518488286432
-3.2640090124304457
-2.5876546179448185
-1.8075155235626923
-0.6746748300335326
1.3174151548090083
3.769851723591854
6.823931430081864
10.589446771053924
14.004005601040271
16.599785944551225
19.130377237346856
20.017857030382842
19.28460385114701
19.112086840170885
18.084420585176787
16.122334374077823
14.378689972978052
11.652728196118755
8.82975317636693
6.811517818478361
4.712833070140095
3.6022954415518433
2.628704520599532
1.0483238777368615
-0.198548033189567
-1.1678374125814999
-2.0503048701206152
-3.5728513973269003
-4.328721724313874
-4.995839469414473
-6.434989776659955
-7.806413718617345
-9.867991134963301
-10.040099461524939
-8.438250619618216
-6.909331553284176
-6.498706734208951
-6.062673787789134
-5.9184171865884165
-5.552799641072221
-3.988166375373748
-3.209344279627994
-2.917404034363136
-4.102385871450713
-5.161743626756188
-6.3381829101902305
-8.920439783075201
-12.728561183708791
-17.004120046485898
-21.398217196071183
-25.7630420246006
-28.947082302759284
-30.84619137280706
-32.18724449272806
-32.01937697048177
-30.498090102707728
-28.99399582378131
-26.52817858145456
-23.364809899698308
-19.892802139863388
-15.939870302913397
-11.71879861800238
-7.456495095595323
-3.6987742919419047
-0.3168530495552579
2.7053728554753884
4.977994733720205
7.03674413036826
9.094389987767592
11.39887774320169
14.193962459331972
17.678292617407646
20.69982297578464
21.593175016851873
20.70345918829046
18.366479178888785
15.223365341533967
12.921166962622827
12.068455216189086
11.889753535930351
12.089101699723601
13.606485333774776
16.037896358104998
18.37677565516546
21.040940157428505
23.340537410080817
24.102441340328358
24.02400573344746
23.11468802069839
20.61103041420289
16.99266627812087
11.845015368109921
5.250643285416256
-0.9309165930793867
-5.622016675212737
-9.079489306218703
-11.31706002326578
-11.50384009360437
-8.614079996479838
-2.164689837118735
6.862223571518057
16.408407969270105
24.58993891086796
31.07897467965396
36.48642824931202
40.79582039920888
43.23656805489086
43.99285387069775
43.4059036327248
41.2251475641169
38.30836176486952
35.411405376948345
32.63359634352656
30.167448264904525
27.5665095269799
24.796740377632013
21.90965774212069
18.430351181320805
14.3184350660112
9.816395615104902
5.8631383254643135
3.560168203050263
3.3659080139520383
4.77703044945324
7.086527007614469
9.89785728925999
12.612301425759647
14.969394316995736
17.753785840253858
21.42580598139679
25.041726969973613
27.239932145258347
27.097848074083625
24.62667109836999
19.858366522883152
12.799740938551118
4.548098555777765
-4.173582026178479
-13.324281159186032
-21.97062940635236
-29.77381589151726
-36.35987427474505
-40.85771461351438
-43.34055304703794
-44.54916681662986
-44.46862848899882
-42.23755259163997
-38.15457660729666
-34.18147801479028
-30.17572670702182
-25.565917011434394
-20.301010323283993
-14.264008622371929
-6.443995310468534
1.5432362752620636
6.846590846014323
10.488085162429703
11.727428671219187
12.487775497606199
11.699183316666115
9.374733466476272
5.819709000301437
0.648474820217754
-3.894527301982388
-8.963831075764558
-13.826561494322938
-17.495837788161143
-19.519332765743815
-20.134542131604256
-20.316270126158745
-20.59588191225883
-20.44200738305896
-19.289572254924106
-16.93741438896384
-13.693983410819365
-9.426673953782425
-4.965250909513406
-0.9887825525549983
2.8718275749556823
5.9915911964821955
8.438221601839611
9.776312266925503
10.443692294142553
10.279767487801468
7.7517159652148555
4.19861475736705
0.7402653401198217
-3.774133026445197
-9.854331492347596
-16.20395289590724
-22.122263233536277
-25.740964478544605
-25.153825950466818
-22.29127401966778
-18.133665157501962
-14.482609645672364
-12.545214560419335
-9.27601178470947
-4.146915855340265
1.4709198960026877
5.795599956651659
8.789565182434986
10.575057153768721
10.823048051165268
11.708535956547946
13.204043202763048
14.431973257839397
15.547145524154601
16.529182136940356
17.450896656204964
19.433352582139637
22.846194565098337
26.796477124179628
30.367195967204072
32.453399986466
33.08439399112412
33.497613309908154
33.63326775646182
32.407086480739004
29.178840985410588
24.65214202850678
19.816132196206183
14.409926993282337
9.348876356937392
6.102855823024867
4.124575178579009
2.9913400413051203
2.281184122287217
0.17747201548970584
-3.83629273866255
-9.07036036844765
-13.828339093003269
-15.230224741623342
-12.129368030289205
-6.337019637230877
-0.6629972374671433
3.383438501711378
6.013730716596617
7.624123406819423
8.139322164622907
7.793521184953249
7.255994110018492
6.879851868519346
6.7310622520552155
6.88552675405963
7.5731790608715945
8.62726065231601
9.131118416757708
9.368421590044498
9.692626683155101
9.623819481103528
9.799316555209163
11.165230517223566
12.555313260709944
13.603185948461796
15.066379276233995
16.271808969742235
17.042677814314565
17.624427967585756
18.11742560535174
17.87520235507327
17.14374089356248
15.972657715348513
13.561671498769272
9.67720523439424
5.1026394042244645
0.9310416570179696
-2.351206677236292
-4.490286558409483
-6.231478451446252
-8.001143405591591
-10.222073595376244
-13.410007107931573
-16.934950877275664
-20.18231257190273
-22.190454945451545
-22.453851761278354
-22.684722483290784
-22.618055481541003
-21.189476352539927
-18.7539870505127
-15.182246115853326
-11.733283493387447
-9.568459149872197
-8.886891743967677
-9.911860431754459
-11.333545890567347
-12.462746769771126
-13.302113389039077
-13.646725312229064
-14.221885012454171
-14.451087950503302
-12.921402048302408
-9.605856601100996
-5.835328440655313
-3.334267111946277
-2.6451571842829797
-3.451643951016356
-4.421725327454685
-4.847562326696031
-5.734373257381694
-7.219315337406228
-9.216937834975727
-11.754959237462943
-14.482330813455457
-16.71532962361985
-18.09386766716624
-18.42694582902343
-17.900114178882255
-16.866471442833088
-15.265496103672819
-13.947778077893888
-13.24142267832723
-12.746250907621672
-12.32816802194546
-12.13374494841195
-11.732960016029597
-10.93908366071648
-10.007034058380519
-9.11722490946802
-9.113405009035144
-9.611772870661792
-9.91118967671939
-9.903027388150985
-9.500416805261782
-9.300304506260108
-9.564998041007268
-9.808380227028248
-9.765394324500576
-9.897182044800319
-10.093568646383956
-9.227008378787898
-7.215407295747201
-4.668868772202983
-2.3651679344753567
-1.7801066618814976
-2.856642181077353
-3.9983841845825143
-4.217230091718702
-3.3924573732267036
-1.682918707629487
0.7198666768290217
3.6966776753447825
7.47604660468072
12.083883235210482
16.847750579731155
20.381125259063044
22.129800417305592
22.935482887557406
23.361768412972538
23.088428124236607
21.58267600786397
19.12456382132539
16.11981435510219
12.208418131585265
7.11375681731871
1.3525921431423196
-4.326418184822449
-8.788905218160792
-11.73782656352205
-13.81538410304619
-14.522558551515347
-13.6369048507245
-12.28304858891857
-11.039802017761088
-9.941560818626645
-9.052622863963837
-8.09173049401875
-6.655962145799849
-4.393796904090158
-1.7006888769029873
0.5607216202193281
2.1997456235592363
2.8877428105869334
2.4955588253913383
1.8896659402070082
1.0667866753675765
-0.3463266835048461
-1.8020815934653986
-2.2947249278206305
-1.9006769379310384
-1.760170177033423
-1.6558019527497774
-1.599723445362442
-1.4556578275313241
-0.009230865734107075
1.7175398218966347
2.980788343371289
3.4009448095054875
2.505975172699004
1.4901128075049257
0.8050072942185184
-0.39948832306765647
-1.9419233387019172
-3.7635517657185256
-4.666600037464251
-3.5135324693289096
-1.2467017248901962
2.06911289897318
6.095843567161216
10.134311750505189
15.262573862748365
21.149789071191336
25.10324215969128
27.98335480092713
30.377128315459725
30.8430640684088
30.630149136995357
30.248262411341397
28.838827579558938
27.173711663295123
26.327478146392277
26.173582990172097
25.836046839870093
25.920752023714616
25.567464745687285
24.018407193372585
22.313116652248365
19.889991875658048
18.13595035323735
18.161495518297382
18.053802544163613
17.13732816959025
16.094389301801034
15.476759818044327
14.543845627487999
12.05893338521668
7.945895308084427
1.844736846338848
