AAD_Filtered_TADAS_FILE
AAD_BASELINE_CORRECTION: BASELINE REMOVED
AAD_FILTER_TYPE: BUTTERWORTH
AAD_FILTER_ORDER: 1
AAD_LOW_CUT_FREQUENCY_HZ: 0.025
AAD_HIGH_CUT_FREQUENCY_HZ: 40.0
EVENT_NAME: 202302060117
EVENT_ID: 13194
EVENT_DATE_YYYYMMDD: 2023/02/06
EVENT_TIME_HHMMSS: 01:17:32.00000
EVENT_LATITUDE_DEGREE: 37.288
EVENT_LONGITUDE_DEGREE: 37.043
EVENT_DEPTH_KM: 8.6
HYPOCENTER_REFERENCE: AFAD
MAGNITUDE_W: 7.7
MAGNITUDE_W_REFERENCE: AFAD
MAGNITUDE_L: 
MAGNITUDE_L_REFERENCE: 
FOCAL_MECHANISM: 
NETWORK: TK
STATION_CODE: 3119
STATION_NAME: 
STATION_LATITUDE_DEGREE: 36.57527
STATION_LONGITUDE_DEGREE: 36.16811
STATION_ELEVATION_M: 5.0
LOCATION: Kahramanmaras_Pazarck_Turkiye
SENSOR_DEPTH_M: 
VS30_M/S: 374
SITE_CLASSIFICATION_EC8: B
MORPHOLOGIC_CLASSIFICATION: 
EPICENTRAL_DISTANCE_KM: 111.03
EARTHQUAKE_BACKAZIMUTH_DEGREE: 
DATE_TIME_FIRST_SAMPLE_YYYYMMDD_HHMMSS: 2023/02/06 01:17:31.1874370
DATE_TIME_FIRST_SAMPLE_PRECISION: millisecond
SAMPLING_INTERVAL_S: 0.01
NDATA: 12501
DURATION_S: 
STREAM: HNN
UNITS: cm/s^2
INSTRUMENT: sensor = CMG-5T/GURALP | digitizer = 
INSTRUMENT_ANALOG/DIGITAL: 
INSTRUMENTAL_FREQUENCY_HZ: 
INSTRUMENTAL_DAMPING: 
FULL_SCALE_G: 
N_BIT_DIGITAL_CONVERTER: 
PGA_CM/S^2: 0.056
TIME_PGA_S: 
BASELINE_CORRECTION: BASELINE REMOVED
FILTER_TYPE: BUTTERWORTH
FILTER_ORDER: 
LOW_CUT_FREQUENCY_HZ: 
HIGH_CUT_FREQUENCY_HZ: 
LATE/NORMAL_TRIGGERED: 
DATABASE_VERSION: 
HEADER_FORMAT: DYNA 1.2
DATA_TYPE: Acceleration
PROCESSING: Automatic Paolucci et al., 2011
DATA_TIMESTAMP_YYYYMMDD_HHMMSS: 
DATA_LICENSE: U (unknown license)
DATA_CITATION: Turkish Accelerometric Archive v 1.0 - Disaster And Emergency Management Presidency, Earthquake Department
DATA_CREATOR: AFAD
ORIGINAL_DATA_MEDIATOR_CITATION: : AFAD - Disaster And Emergency Management Presidency
ORIGINAL_DATA_MEDIATOR: AFAD PROCESS SERVICE
ORIGINAL_DATA_CREATOR_CITATION: AFAD PROCESS SERVICE
ORIGINAL_DATA_CREATOR: network: TK
USER1: GuestUser
USER2: 
USER3: 
USER4: 
[...]
0.0014366736158511434
0.0005322837367153948
-0.0033287614876948003
0.0065993824742729065
-0.001647345803876691
-0.006315352306585818
-0.0034717124154450803
0.003956086264709008
0.005852055135898878
0.01032963303928172
-0.006747227985046488
-0.005321195406051094
-0.001260013281806714
0.0014514731544703647
0.003933254853585337
-0.00029337197877859437
-0.0017803684374929857
0.006936060785948562
0.007942616093109641
-0.0021356119030096735
-0.0026880643565073063
-0.0028555789599268118
-0.001172875920981347
0.0007023720351150647
0.006567164519724349
0.012661837342500915
-0.0059255160270425
-0.011689312140338306
0.006727464586757484
0.00825715560160265
0.006777817809273995
-0.01226286810726999
-0.013916990808789477
0.0019603231332473467
0.012976533691768127
0.010753673530079173
0.003901810434125958
-0.006262452313164166
-0.007443229865156709
-0.0027332181815033635
0.006244111412264743
0.004846265004751958
-0.009003450599560862
0.004426241718638627
0.005315244053929717
0.008942456818862833
-0.0006523000971459412
-0.003728249667991383
-0.009429347565184048
0.0028127074589133854
0.009311044131365706
0.0018924238004891726
0.002023492154361909
-0.006003982869675589
-0.002817139432173598
0.007616834416405664
0.008203165982009982
0.0003835953876855635
-0.004506449778946187
-0.007691663138604914
8.384195053473043e-05
0.009995978573555182
0.011751691949838244
-0.0012169376125343476
-0.008713292145687355
0.0003481140221844424
0.012560919701093763
0.0026834040461109726
-0.005484491932526073
-0.01063831600693117
0.002237189206469479
0.007959933790715875
0.012759825311522125
0.0025596706271815745
-0.009307974656227258
-0.005978973805188559
0.006208742968625383
0.009543651399176248
-0.003313175396914439
-0.006314687946220919
-0.0027277703843822877
0.00818515230282087
0.005571350945751452
0.001658767603793431
-0.004766321828850285
-0.009443657515018187
0.0029596697153474174
0.010966397300408715
0.0014123104968115834
-0.004644437658212629
-0.0038259657672462663
-0.001959759587636887
0.009143774667501525
0.005748909788322219
-0.005041058199746198
-0.012044771517866275
0.004502992102844052
0.005397665755638604
0.002428740506479878
0.00211424626051974
-0.005005000146112979
-0.007738014023337388
0.0048091941831385964
0.002736017829800354
-0.0016718073494141345
-0.0035182137707311842
0.006066966772657545
0.0016329922182449126
0.0018383804888738294
0.001729571967263188
-0.0016292449565640818
-0.009010009895846641
-0.004098587014976401
0.00500658911260301
0.0026377685174127845
0.007701015232509577
-0.0030758982120443474
-0.007135684831957256
0.005629984502345745
0.005262308157895481
-0.009566341615214616
-0.0017749716955382622
0.0017689876174682838
0.004508533168143812
0.00605990743931528
-0.0004260471019317085
-0.008265729826940033
0.003923679729059505
0.002716414618785677
0.003096876236925301
0.0008504782194582236
-0.008465586740700751
-7.088400291470727e-05
0.0020247830042922363
0.011183643343648885
0.004680976229629955
-0.010890544900633839
-0.012038752035355746
0.005167586080765285
0.0014060812166654159
0.0003603845962201272
0.003164666426270152
-0.0009963518552305267
-0.0004694699760666307
-0.0007362994051233703
-0.0005981109109035031
-0.001576618165121884
-0.003121607834396205
-0.0036922457514399006
0.0061542202248910305
0.0031786720364276465
-0.004636183558033741
-0.0015607061311890091
-0.0019843207247010907
0.0005091671966046794
0.008787455022922084
-0.0027173515829104875
-0.006861896970381579
-0.003147231642098929
0.004745744053513953
0.002312131749763372
0.004453876485518827
-0.004601860687973225
0.001377933669855477
-0.004394467959358708
-0.0007667197824940808
0.003982556359779271
0.0008760745567864366
0.003135612810904427
-0.0027946442190455345
-0.002044881505525259
-0.002194284983877393
-0.002340899237362877
-0.00203300636343117
0.007135727286864126
0.002228385716658672
0.0008537926262839411
-0.006178190448974456
-0.0014508474181453544
0.006378702053813963
-0.0001184313819962081
2.8637913860009333e-06
0.00016895978799161645
-0.0015066615509837854
0.0013945966016230041
0.006053373068430594
-0.0004220413326307257
0.005372340012864335
-0.0019059915142818251
-0.01002107186916389
-0.005870508057526684
0.01112774533750734
0.004730498646147167
0.0063817651919342005
0.003935400517501409
-0.0048322160370312655
-0.006727382301212626
-0.00461099650566571
0.00023411609273170692
0.007317169078337228
0.006880843600744674
0.004131195854877447
-0.005846371236089238
-0.005532323569864785
-0.003405553994974317
0.003931820295143397
0.0079194077771797
0.0026905422996445186
0.0003424326719732735
-0.002783976814176883
-0.0007326639640423811
-0.005638214301403834
0.007326219135777222
-0.003375942078936899
-0.0015625848879260791
0.005020909635183616
0.0021158822814506583
0.0001781299596502997
-0.001564311392986321
-0.0015841590171343733
0.0013841549056970855
0.0016906702130278734
0.0008489273018535357
-0.002135077569739311
0.0012059964407858058
0.0022315109228139562
0.00420586088858864
0.008193413044045568
-0.003856177485327704
-0.002038323397624715
-0.005458339562755233
0.0008397730736650192
0.004681333554417116
0.002716661085772964
0.00416415071936324
0.0041000351314710495
-0.0006508443996581187
0.004040055864877354
0.000508300789092976
-0.006562549533210488
0.007051139647226314
0.0021576955595591202
0.005322932265826763
-0.0022097716805124395
-0.00314764547447427
0.003019412616766123
0.003513160431971302
-0.004929314522515407
-0.0013061852197797307
0.005265259840414297
0.004411356718812539
-0.0022119893504156567
-0.002929686756392504
0.0013071005089948253
0.007560284072010341
-0.005412927231635953
-0.00016721938591394612
0.0012574455314804443
0.0012125810795433137
0.007824824275159813
-0.0021485968432739103
0.0006549776892317479
0.0021829256144472306
-0.0033730322489649313
0.003779307673379532
0.006953214807542192
-0.003997809171558959
-1.0846276695548009e-05
-0.0027201980045111853
2.7768260596544607e-05
0.0034040225020949733
0.0005430750117397281
0.002451505376523558
0.0014751856661827582
0.00014964007590419906
0.003323770563046762
-0.004208717525844616
-0.006278645219292623
0.0036545371227950612
0.0013219204488418895
0.0022772165306863407
0.00042229655774657593
0.0015923767574589792
-0.0058257679750235904
0.001142693378117015
-0.003313382299219018
0.002825416613018957
0.006744042220955686
-0.0002662622478361262
-0.0003377191783070637
0.0010638886285979123
0.001485278069228342
0.002176356578917423
-0.004772547620996964
-0.001000431598172816
0.0057215586532785
0.002517406305098535
-0.007225202879347838
-0.0008898901554618232
0.006574688747659755
0.003899774132926114
0.004114138058675555
-0.006234013845312456
0.0022261852649468404
-0.0029910615417749614
-0.002377143574152336
0.0025448763876143978
0.008446660679094485
0.0013334596653295726
-0.006645483879392126
-0.0007536097861461718
-0.0005658012972928337
0.0011593250989451057
0.0025526497554125907
0.003428792472250563
0.007067018062848328
-0.002528892140441825
-0.0058268401019871035
0.0035930825547737864
0.0022042359241277484
0.003587147003151394
0.0040120639806940275
-0.0073518130312586255
-0.0031469491858790123
0.0038148846567021832
0.0004932825032819099
0.002863125758447258
0.0011963617275556405
0.0011322411049839542
2.548070926300813e-05
-0.003731448107570624
0.002506869805117877
-0.001125556256184667
0.002542871638536631
0.001807995036570354
0.0021774192209063447
0.007212223889658822
-0.004003135096893956
-0.012838555436208446
0.0019143929963464912
-0.0005917613519510296
0.009321990520522598
0.003576529766335774
-0.00032951208691452545
-0.0074350721026547615
0.002333466418798953
-0.0033215837478609705
-0.0022564540431603106
0.0024358225055906547
-0.0022287573070812763
0.005831289789720701
-0.0053284905380483185
-0.0007773890341878048
0.008503153486055376
0.0014908919433102615
-0.004494180270791975
-0.002122514912135063
-0.008324363199307456
-0.0024225798091173415
0.004356450296229299
0.00430878499465543
0.001822410589143925
0.006719583051854966
-0.00033346596867401526
-0.0037930727620277597
-0.004297358086807423
-0.006304091379383256
-0.0002678553701188326
0.0021187534550389762
0.007037532841942405
0.00474726051834815
0.00430994206943554
0.004749151939274647
-0.008670070036958348
-0.012509567274885657
-0.001662479129143583
0.00532806964974778
0.012899523542183933
-0.008484963341654906
-0.007592412472201119
-0.0005263611374048756
0.0061116799314415255
0.013404961556288696
0.005344592611968493
-0.013983080471345296
-0.016623862178097276
0.007263574569753438
0.013057095408643226
0.0023509415928807628
-0.001302865890820526
0.003058714430474282
0.003788663050764019
-0.0054571933803122495
-0.005970237881819752
0.011809116835115497
-0.0068078543114667095
0.003812372538233875
0.014542393795594142
-0.0018606833910682107
-0.008745649844654438
-0.002040653292631294
0.010239454807639142
0.007607381413733027
-0.01380428295947459
-0.005383351025911062
0.010806582309857
0.010958639614194802
-0.002557061344222555
2.531326524990601e-06
0.003474641248203108
-0.0042089826291737175
0.001526936335009626
0.008835777535775264
-0.006722871852142738
-0.012207195384572284
0.017889581980872173
0.018909488761678618
-0.0016579409052334424
-0.018473589456684862
-0.007378033542002976
0.01154763478835426
0.013943796139932468
-0.0027657646278318286
0.0009644477539594801
0.006794198029408451
0.0006311940108838291
-0.01123934092654579
-0.0017668093576114464
0.0218357970772379
-0.016815001220044316
0.020838569154826386
-0.004724310540219863
-0.01717378135161325
0.007156306880189513
0.006814531667572469
0.006290325097296089
-0.004142217534575073
-0.005419376489511199
-0.009984884180113169
0.020321233101834146
-0.002185830442801231
-0.02369651007305815
0.014122663552444478
0.03509244341287166
-0.024074131194407856
-0.017115667316467076
0.006892167010563914
-0.007378606823675342
0.01762742930212244
0.012371116365233893
-0.003398376877470366
-0.007191852029738082
-0.006837192395641824
-0.012456967862851108
0.010435120837890218
0.024683317535656123
-0.010354607133236283
-0.003196210694866735
-0.005692260118875454
0.0028647260964353607
0.016464767998181362
-0.007993925975380284
-0.006902908751177511
0.0021061570771695906
0.012522874879366892
-0.001896793810608284
-0.012062920198326887
0.0004096803082497125
0.017479930691389776
0.0014834891074057416
-0.004478755729416076
0.0003824189383231012
-0.014593324432389785
-0.01489904524938219
0.01188799127181683
0.03415437276131126
0.005246600445856492
-0.023710911094306054
-0.014839205659313447
-0.0027209648625140578
0.013628017485092776
0.006645377237535636
0.009270905480010581
0.007685964391563816
-0.017213613788978455
-0.010420161397326844
0.00319929678177216
0.02218011561324814
0.011111386051407041
-0.004199694140381996
-0.010497754082843385
-0.002723350391389332
-0.008489005638241834
0.004692546833940069
0.014117954914530217
0.007244997190112153
-0.002006811358720385
-0.010481782369780035
0.007719361122952899
0.01958650249765279
-0.0012709130372376522
-0.027942361473501917
-0.004537410082179032
0.011986619161476596
0.008782968153361406
0.001298619407271849
-0.005809639428534582
0.00759350170900253
0.008715537331844825
-0.004151433402822831
-0.02237598237714428
0.0008121239086328524
0.02243454601053264
0.0009284034846322093
-0.015416004754543492
-0.008431454539144873
0.031227539764020266
0.019169286010947938
-0.03316518204619298
-0.013519713307686802
0.017894260696800484
0.019380242539023772
-0.022793738510732617
-0.014022488352549264
0.02246779113876151
0.04318468985957593
0.00526892023867681
-0.043431391265020686
-0.038339476449951074
0.010991515001085694
0.035434275680463326
0.02564768537471026
-0.004443365910262407
-0.016408547689660474
0.0013081788880415404
-0.008386383855737143
-2.6420714684365102e-05
-0.000186554387722662
0.002395720305418292
0.026310151061886222
0.017269440013698997
-0.009089908764472864
-0.02726147869599636
-0.02250268564451062
0.02923278430631147
0.026041079750454346
0.005552176110641946
-0.006318941431188765
-0.013223888060082524
-0.0014973167732159967
0.0036811211738297742
0.004448263264080795
0.006093929459338281
-0.008169040498385356
-0.011125823526133111
0.019501585865469608
0.031613141425293874
0.004692480927545624
-0.03732216273987782
-0.021096307831907607
0.01480281151799736
0.017653096591482554
0.0032042058347312038
0.011453293000482855
0.027462921448517103
-0.00461247246169596
-0.046484090390936365
-0.029172571269799205
0.020514128062345028
0.0470275468253496
0.03502454500079195
-0.021013436452816572
-0.03884019105564607
-0.007632297193167212
0.015160373000680889
0.013762919951672144
0.000574486627778766
0.001597267778819382
0.019713591805581313
-0.00955064980337808
-0.03670030430423937
-0.005302421938812864
0.04784847983729506
0.027980055914801905
-0.025632125742636534
-0.04081667021131315
0.011556596176998873
0.028541218009501
0.0027875424296998205
-0.0016259292208443056
-0.005061075488537633
-0.0023932892434927336
-0.006698752506551524
-0.0038115313624969204
0.012687618374303211
0.01154128847197925
0.00345824912251094
0.0002864098322160243
-0.011058093401904839
-0.012763987087028422
0.0026821017699842097
0.014824792651199565
0.009069476333059136
0.003336888040852309
-0.00989562308074549
-0.006552999902923435
0.003810613014955334
0.0021683866424444215
0.001861696831002409
-0.0029875515619466886
0.0028955963356301438
0.003988842741610996
0.0025137849725298473
-0.00742626260492588
-0.00235378343746469
-0.0012906639685655173
0.0070374292844334494
0.004377115337847258
0.0009458435778904223
0.0006421989519890432
0.0023865972161706992
-0.006916995316054699
-0.004442748383199912
0.0011288763115643173
0.0010202599358144512
0.008347994592696601
-0.0001719766491492524
-0.008114568407781275
-0.008375177118554438
0.005189601306212349
0.002598809750118607
0.0009549391687255389
-3.065099100417526e-05
0.0020613821195506646
-0.0042352124048933145
-0.0021598078544891827
-0.002983072885451857
0.004034962765185492
-0.004317292340313377
0.0031233797108357886
0.002515135212882279
-0.0035467814602994883
0.0015899069931915276
-0.0028445958884388287
0.001235794116470453
0.0009763785436647485
-0.0007125540287014011
-0.0032612736214344025
0.0023615136307866768
-0.0005034762751830283
-0.0013186952530258528
0.0011445747180736517
-0.003293058606483449
0.0028355619133433626
0.0008488960344239176
-0.0054169868241594425
0.003010870877006045
-0.002418821203938465
0.004440014377199334
0.0007144875660757181
-0.0035308743315674504
0.0004549573173186786
-0.005892001938808467
-0.0035592689232726267
0.000491475249486423
0.002749299324838611
0.0011397733878977072
0.0021826097020796707
-0.007218552874996708
-0.0028754321091169727
0.00015133563065809676
0.0015669783521338905
-0.0041574400754855
0.002855395622382265
0.003601284988004157
-0.0024692196106000093
-0.009378644798777855
0.0039318426823325
-0.00011815719224913876
-0.0026042786765981987
-0.001333821961479773
6.884176986507718e-05
0.0048109956625184925
-0.002385729431712452
-0.0034940405073539712
0.005033879958096159
-0.0009063162078592319
-0.00311119415992746
0.004155676695382726
-0.004096371203261611
-0.0021635581213237144
-0.005641734965385851
-0.0013591830292449109
0.0010121797267355261
-0.0011050367392556825
0.001110947170849907
0.002936628800761261
-0.0025447318051233527
-0.009526544354757414
-0.0007248694205300792
0.0013931805583785558
0.001448701182347275
-0.00040150705320726694
-0.0008233733635028583
-0.005152861663927137
-0.0004385453789876887
0.00012031563089197243
-0.003346428034255954
-0.005440400479474328
0.00041112042568753433
0.00038965747069767806
-0.003692256154494054
0.003166062043884174
0.0005805005516389778
-0.009472090798167469
0.0013451279264627039
0.0012966117333225312
-0.0034555524775755383
0.0035160168940741783
-0.002992837008972107
0.0010061059233469434
0.00010679560454922558
-0.0028461715157489
-0.006338531731995511
-7.854240573769056e-07
0.0024588987191989362
0.005066348433159321
-0.0030909820494345883
-0.002344646960469224
-0.00044526299593633636
0.00040842777944128175
-0.004345612594672062
-0.0014628847733298726
-0.0015616720554664741
0.001219701241612647
-0.00042465362249450943
-0.0023148658303583543
0.001152263007110673
6.822952259396181e-05
-0.001199201529728363
0.0010389284583775596
0.004444270810054573
-0.0063907072480372685
-0.00313818707933935
0.0015804965264455137
0.003950892129928301
-0.0056747497269864005
-0.005767860761061498
0.0070229471644362275
0.0014113564811745847
-0.007559181249156862
-0.0009338416777055785
0.0016095915331383506
0.0016760656937041948
0.005048336323895363
-0.005089396704357647
-0.0019675006478503884
-0.001049280944261086
-0.003560071061967098
-0.0009110864089851126
0.007973354843906457
0.0018448882018170627
-0.005272320633458885
-0.0020945318401225754
0.007888269529113362
-0.007891255696282273
-0.004167779906835721
0.00122273933980845
0.002343436825440883
-0.0005053967644960221
0.0025352899609571828
0.0007559467824262038
-0.00061359317519856
-0.0005975351571578703
-0.003332472222766447
0.0010214660584305958
-0.0002854431269444834
0.002880244940587365
-0.0005549896080062607
0.0041484923501700684
0.001973802967612382
-0.005335810706713041
-1.4450844252566166e-05
6.912668818416063e-06
-0.0054595891031559585
0.00597190287221421
0.00264481727458255
-0.0013529171380134272
0.0011381085546458745
0.0007782821273431307
-0.0033602708746032907
-0.0028392057364538792
0.0009944496991405928
-0.0011844947745952674
0.007428339083101401
-0.0015159363164710267
0.0007627843445844402
0.0021025642257364893
-0.004949015017988866
0.002285783797916668
0.0049664776409359315
0.002227759506792123
-0.0011585451035444011
0.001248120346356455
0.0032035438478388123
-0.0021173923535077886
-0.002361704958250571
-0.0010951817290985088
0.0019011779390776381
0.0005999494422802979
0.00012356873609810153
0.0001384994500885678
-0.0032794671391402543
0.0023305845262787494
-0.004164935974595936
-0.0006240642570645243
-0.0008317403227836377
0.0031399596968423264
-0.0036609997647792767
0.00048807392130104056
-0.000714143829522312
-0.0010099713447299025
-0.002675677774820748
-0.001822261830375343
-0.0013422869045964568
0.002735751384083085
-0.0009360690161036876
-0.0017940280852138885
