AAD_Filtered_TADAS_FILE
AAD_BASELINE_CORRECTION: BASELINE REMOVED
AAD_FILTER_TYPE: BUTTERWORTH
AAD_FILTER_ORDER: 1
AAD_LOW_CUT_FREQUENCY_HZ: 0.025
AAD_HIGH_CUT_FREQUENCY_HZ: 40.0
EVENT_NAME: 202302060117
EVENT_ID: 13194
EVENT_DATE_YYYYMMDD: 2023/02/06
EVENT_TIME_HHMMSS: 01:17:32.00000
EVENT_LATITUDE_DEGREE: 37.288
EVENT_LONGITUDE_DEGREE: 37.043
EVENT_DEPTH_KM: 8.6
HYPOCENTER_REFERENCE: AFAD
MAGNITUDE_W: 7.7
MAGNITUDE_W_REFERENCE: AFAD
MAGNITUDE_L: 
MAGNITUDE_L_REFERENCE: 
FOCAL_MECHANISM: 
NETWORK: TK
STATION_CODE: 7901
STATION_NAME: 
STATION_LATITUDE_DEGREE: 36.7088
STATION_LONGITUDE_DEGREE: 37.1123
STATION_ELEVATION_M: 640.0
LOCATION: Kahramanmaras_Pazarck_Turkiye
SENSOR_DEPTH_M: 
VS30_M/S: 463
SITE_CLASSIFICATION_EC8: B
MORPHOLOGIC_CLASSIFICATION: 
EPICENTRAL_DISTANCE_KM: 64.70
EARTHQUAKE_BACKAZIMUTH_DEGREE: 
DATE_TIME_FIRST_SAMPLE_YYYYMMDD_HHMMSS: 2023/02/06 01:17:18.2453950
DATE_TIME_FIRST_SAMPLE_PRECISION: millisecond
SAMPLING_INTERVAL_S: 0.01
NDATA: 3575
DURATION_S: 
STREAM: HNE
UNITS: cm/s^2
INSTRUMENT: sensor = CMG-5T/GURALP | digitizer = 
INSTRUMENT_ANALOG/DIGITAL: 
INSTRUMENTAL_FREQUENCY_HZ: 
INSTRUMENTAL_DAMPING: 
FULL_SCALE_G: 
N_BIT_DIGITAL_CONVERTER: 
PGA_CM/S^2: 16.552
TIME_PGA_S: 
BASELINE_CORRECTION: BASELINE REMOVED
FILTER_TYPE: BUTTERWORTH
FILTER_ORDER: 
LOW_CUT_FREQUENCY_HZ: 
HIGH_CUT_FREQUENCY_HZ: 
LATE/NORMAL_TRIGGERED: 
DATABASE_VERSION: 
HEADER_FORMAT: DYNA 1.2
DATA_TYPE: Acceleration
PROCESSING: Automatic Paolucci et al., 2011
DATA_TIMESTAMP_YYYYMMDD_HHMMSS: 
DATA_LICENSE: U (unknown license)
DATA_CITATION: Turkish Accelerometric Archive v 1.0 - Disaster And Emergency Management Presidency, Earthquake Department
DATA_CREATOR: AFAD
ORIGINAL_DATA_MEDIATOR_CITATION: : AFAD - Disaster And Emergency Management Presidency
ORIGINAL_DATA_MEDIATOR: AFAD PROCESS SERVICE
ORIGINAL_DATA_CREATOR_CITATION: AFAD PROCESS SERVICE
ORIGINAL_DATA_CREATOR: network: TK
USER1: GuestUser
USER2: 
USER3: 
USER4: 
[...]
0.19504367960809912
0.14002893852594298
-0.022945010651638058
-0.1966193983142852
-0.2512166221181725
-0.14050288366033853
0.03423577456484046
0.1672185450133054
0.1796507011016409
0.06037748212805415
-0.10818407232903712
-0.21258949066887167
-0.20220565009395247
-0.11492182972546965
0.013753846944720576
0.11609104964470479
0.10173926426227388
-0.014885132423657126
-0.15399436776945943
-0.21772530055660227
-0.12428383462615594
0.07439153924866829
0.20744989686915524
0.1855669412250207
0.034594748931287334
-0.15149173586260933
-0.22480740981916886
-0.1506862896723782
0.004943660863795261
0.16409131056988213
0.2306368475174532
0.1608689927307157
0.002736587217367935
-0.13548289306370837
-0.19235167449617313
-0.17319617783660599
-0.07857362840843886
0.029905486224934833
0.08052154693243109
0.03463869996648171
-0.09570041879988524
-0.2034326263873283
-0.2020601703516038
-0.06984175989899098
0.10946005448993562
0.19080909530614618
0.12856074552810984
0.003947720139797893
-0.07227705780642592
-0.06777432026081492
-0.03241265948820109
-0.04416077113207054
-0.09933597837442643
-0.11995255281173656
-0.11726831999008851
-0.10507663048856186
-0.059057791100222565
0.02092100852097202
0.14681774302886502
0.2568981946280616
0.2703196161451691
0.17240309641223903
-0.006809943578759079
-0.16110858509447526
-0.20831601044594403
-0.13398202379380061
0.001086210322601265
0.0831111357232583
0.11809510636583992
0.12374755956445918
0.10442534511672592
0.1306058126896103
0.1483009692595146
0.05704530131906669
-0.10201932805817443
-0.20509806968167282
-0.2599711056040239
-0.2824976737992107
-0.18873236223884726
-0.041340849774803456
0.10359205698763697
0.22450768313236846
0.24365121583010876
0.13410509674270613
-0.0015988180276419219
-0.07264510920245099
-0.12774367065071304
-0.11462622314752634
-0.045793443760001565
-0.04984503776903258
-0.09064441498495285
-0.11099785483655693
-0.09659985143633432
-0.030122707752933835
0.050302154300733544
0.0538953983974857
0.029139075043949053
0.03998375680986419
0.005876533120265737
-0.019532265549692427
-0.003493078660531038
-0.0004990622388963617
0.021939829282940797
0.10493478103212608
0.18304854315827795
0.18109331790942337
0.1258630573714932
0.021423730225431967
-0.05323368457261028
-0.04363988026427084
0.018745670850087093
0.08285859480745623
0.013490098956313555
-0.14259758963303565
-0.2347515557573257
-0.22912240651502724
-0.15217510163781295
-0.08010817725424062
-0.05605274043201176
-0.03541089120963625
0.04554873851710056
0.18346816102221503
0.26859455777126007
0.19640711745995354
0.03704713477429523
-0.05007015405316424
-0.017057495834358807
0.08177806130919815
0.17111801008934235
0.19505180965772306
0.15676856398251385
0.10891346736456989
0.08004392295495767
0.009543615601973423
-0.09089022215134009
-0.16446974946367376
-0.17035165420083523
-0.027399128087542742
0.14349364418825739
0.1912961191083551
0.21945194218650724
0.21290653306353421
0.19340395274189473
0.3034930714479826
0.2978086446033286
0.08160095613970003
-0.14073391162389512
-0.2932004054979811
-0.3094573500472406
-0.19365625696876385
-0.03657103533830552
0.056658677951807755
0.043042638335323534
-0.052692520231187895
-0.13397476612602652
-0.14693080241364814
-0.09467101925857711
0.061973076829668156
0.14261304217703688
0.014138513280034225
-0.17598299662774217
-0.2797094536676589
-0.19379297259177747
0.010059012590145272
0.22585098865967962
0.3555415831917062
0.29609036703682373
0.24751376933263697
0.17571840973132713
-0.0671088197726614
-0.21597553370149325
-0.17205617968208767
-0.14296322061306746
-0.1251520814582299
-0.01571895423998867
-0.04856006990723558
-0.21571814476873089
-0.29755917133900817
-0.26450673096957134
0.07060118583642973
0.5530023012542227
0.7274479642178004
0.5401510894375386
0.09148111792622075
-0.39268795932174544
-0.5455180323130089
-0.3357309296963505
0.04449363888068628
0.5113717345664067
0.7146987238930014
0.3776824884945574
0.05894352055785858
0.07133801094036704
0.18234777172509475
0.4608485161944493
0.6183830611163212
0.34025058263341723
0.01183165951702234
-0.09155983094348921
-0.10002006591866032
-0.04493636427868703
0.06813987424326085
0.13887556994071223
0.37743082739877454
0.6433029884642518
0.6978760455273995
0.5614018795245251
0.07900303306290124
-0.462042158722861
-0.7749662871475456
-0.8594493975620796
-0.8621759787282245
-0.8248174692526024
-0.5928767888480981
-0.3196794826865909
-0.029419277244462923
0.3760937747684513
0.7082677235519266
0.8144216033267947
0.6967771475861954
0.43947550435404964
0.025457317199452805
-0.47000514815304334
-0.5917483385476178
-0.4373006479914275
-0.2902723097808092
-0.18112167910729973
-0.16096898023789213
-0.35433596746959833
-0.5257755403552803
0.08389831947933539
0.9201274285621205
1.2154617160287653
0.9650561952434582
0.25645989875943154
-0.28676135194874525
-0.3628150820935077
-0.07453299534910661
0.11229065310046626
0.1335496904208994
0.10246838711282767
-0.40680306257868226
-0.8005811480122176
-0.7107236174408839
-0.23016809791323387
0.5063096739238215
0.957318694983807
0.7615224051774195
0.014718817680466187
-0.38222094397412876
-0.2020217614902465
0.0723499743591155
0.2803782035204195
0.3901500571532649
0.27808003051776686
0.08302507816397514
-0.0518012956544517
-0.048168265188349796
0.06544357477256109
0.054970716165126395
0.11640697466502249
0.38395605785733544
0.5652813789672494
0.3587282135214693
0.13462345095136802
-0.12726056788552692
-0.4542898701803312
-0.2681705845990031
0.009281017847215073
-0.11499759918257049
-0.1552697674584585
0.19977564919079516
0.3104573998168235
0.009644353890183349
-0.49587642612797667
-1.0221404157715157
-0.48483331766077803
0.7209096526324462
0.9322967889866626
0.0822241570851714
-0.764866160091649
-1.0227943855890052
-0.7301840960226484
0.06104122788599456
0.4779062533668701
-0.013190354013719577
-0.4064624213210637
-0.3835470960375923
-0.23289753919569203
0.1923476552363741
0.4444242355026712
0.3101805825552377
0.2008590705942652
0.43469848504437514
0.40754677413083984
-0.4016305857390742
-1.278577714917972
-1.7095245981661977
-1.1476133866108054
-0.04348614685780699
0.8929008478094709
1.3419761833655814
0.9713113048769113
0.14250709193901442
-0.4399588747502865
-0.21203811840271797
0.18122088763462924
0.6945527792867545
0.8341804516507528
0.11221879370419961
-0.2135579168551932
-0.562960456918922
-0.8192894897563294
0.12905895247604146
1.357411518660735
1.9258471877419978
1.5541021449214336
0.527450894683611
-0.5506327000299348
-1.3192000130756647
-1.5053706873370054
-1.1158941175989925
-0.3288646509810294
0.7884430440402378
1.5376553745884396
0.9056560892095711
-0.10650639577482907
-0.2488187221452244
0.3757681827036778
1.1633681521000578
1.2644766694373295
0.45806610452483015
-0.7555896706249569
-1.938007963460095
-2.549823111538437
-2.2568767236253926
-1.4144929955979515
-0.44049566545906205
0.28006515957965583
1.0190856254595508
1.469485326424949
0.4294178612664346
-1.2165149959862325
-1.8492590932552453
-1.1599470040255002
0.028487827751189725
0.40959163632437606
-0.5326701363494447
-1.8901855618035017
-2.1657342742126993
-1.7449069304391078
-1.1254312325909006
0.05025040670948365
1.3215060882254337
1.7979486027870302
1.4524002697321654
0.8166666328932018
0.009326449835252906
0.0668846674284833
0.7383851554531181
0.3020878829045762
-0.42457982641489955
-0.3073241985127985
-0.030840668064552063
-0.3693498930818367
-0.8201477374862413
-0.172630749330221
0.6330920849595212
0.856081466094641
1.1671867431773582
0.521015910397015
-1.3767165439973699
-2.605239570040989
-2.1580548427381014
-0.26281089810613933
1.875200941347506
2.7885251408920175
1.8336850599528909
0.10049277978864705
-0.5071384663510715
-0.3502894688217623
-0.7195399287084279
-1.516810658076238
-1.3845614242103057
-0.5707651009966984
0.13662557907950815
0.35477826416557484
-0.586142184097343
-1.242792137624821
-0.8188185850229733
-0.13311498923238843
0.011727538954456728
-0.5659060003053727
-0.5070140480998983
-0.044901629691386974
-0.37737096212421534
-0.3149483420378678
0.5073731856420922
0.9460566296840366
1.423081627697931
1.735158457558117
1.2753792248452485
0.6672974505769147
-0.1746390622491892
-0.8728698937218318
-1.1675535898954819
-1.3671989007058516
-1.3191784485162696
-1.0827079027240705
-1.469349967583832
-2.298487418502995
-1.9879571428845066
-1.5159525219847
-1.0994101079135705
0.5254899302249458
1.9505231925275572
2.078810522592265
1.1384386653654475
0.47457296315866443
0.3443667059540485
-0.596215072547847
-1.0690536896199236
-1.3815206238967155
-2.503283165775204
-3.305065019969765
-3.6839816350459835
-2.6111981026744444
-0.3316000004488881
1.350011202641743
2.0323855271737603
1.698341839253202
-0.04354910855177408
-0.9160660058150643
0.7557974752187333
1.7656956155815462
2.8117000581173954
2.996345772879851
-0.3646766180386302
-2.412628215253224
-2.4604446363661334
-2.3030845689668054
-0.5207409305377941
0.6690941412984852
-0.4184900773967316
-1.5677874013237028
-2.0335402396439015
-2.5858794313803037
-2.6138692763153837
-0.7953987422405999
0.31927260476400143
-1.2747292492942681
-2.2057675207171865
-1.937160336169117
-0.9428740341096963
0.622844513363977
0.6713407677570159
-0.9338978874976722
-1.52700369661629
-0.6459322297829798
-0.43116955307880844
0.4383367120933694
1.1980824793691986
-0.21015118123429946
-1.6386215161305955
-2.712555886567022
-3.259257945443283
-2.404324609684083
-0.45142529658412245
1.206713989241585
1.4280530265322031
0.6298974876074905
-2.482320415415657
-6.1536028053291485
-5.64118879056971
-0.1080442631926533
4.2767932476222
3.47404828384895
0.4644755245256689
-1.151758180769828
0.5095883028150358
1.9211092543913615
0.01735092785124266
-2.6707478575112558
-1.9155436252943006
1.5690342244065205
3.594938890187888
2.708543925609959
-0.03307487337986081
-2.549666801803982
-3.099187153339806
-1.849408088416828
-1.0976981229989813
-0.02469712867450456
1.346188544521509
-0.004076976123585812
-2.508830635695778
-2.864129856804552
-0.15084926863600503
3.174785654707095
2.7485627423503773
-2.0207142169547323
-5.177270508565717
-2.92958221126803
1.2691451013985529
4.79758547591506
5.923343169673865
3.6989620238829435
0.5212075795510023
-1.8788742179631717
-3.9181865262073248
-3.6489934472874506
-1.5742491342657068
-2.478451585993733
-3.753390989870295
-1.8832115405543164
0.1398837363762958
2.4295879358414814
5.126603760079832
4.742695880990941
1.4176647432333593
-1.4188000889421828
-2.381338854224442
-2.780864129668694
-2.3544014329778036
0.40114518999656473
3.7011295772180937
6.00456022991488
7.092199395298626
3.3246907190387964
-3.746427158679536
-8.752622174622624
-8.950917270329446
-3.621512522292191
3.3025802456750095
6.792772664185875
4.7499173668632135
-0.8825479132035314
-6.659420336234046
-7.078657940582957
-0.8243146972239043
6.3913793874597475
10.227280596256726
8.806816097612895
2.235106799837307
-7.200996789284716
-12.845652267516465
-9.311650481215676
-0.6205249147405485
7.769519762003519
11.828857296044596
7.1413421638758345
-4.638454194943165
-13.549867709986826
-12.307473572521241
-5.081982665030013
4.068950277738783
12.12812399273379
13.372363030469671
7.606407286578046
-1.579008803109459
-9.3080380058127
-10.423057325483404
-3.7692156216074784
5.322515775385157
8.766155299360198
5.2252809646728124
-0.3049719823030101
-4.455343397579725
-5.599412124377056
-4.235761765199626
-4.129485559569431
-5.392405790651454
-5.3687993436491865
-3.3224653484941693
0.03510436264054744
0.3183570211650182
-1.7064107836515654
0.4742427788989524
5.510788290702228
8.032007671298533
8.492797537872221
7.042463810335435
1.7795057513192192
-2.09871572309994
-2.010750093152442
-1.2669492951594332
-0.3995964246353225
1.8472506331920082
4.478190172576938
4.473128691410991
0.9988048597511469
-4.17857135840851
-7.3104758779781625
-6.930042253878485
-4.562995124766227
-1.6603906791712122
2.087155503502508
5.956559801003604
7.094647516385413
4.568544802300819
0.1414592371021248
-4.357103318430919
-6.390592044055894
-2.563923742290404
3.701214126696928
5.927843209206673
4.619330178264911
1.0783197826078226
-2.9328530036747997
-2.6955436009478837
-1.01962844191292
0.21933885851795945
3.4027600215821847
4.990457069653042
1.5433129243831365
-2.9287660569925653
-3.767585189950183
-1.975786355799214
1.6015539400759282
6.350286067510983
8.567254464549285
4.505597438477595
-1.3560412741144596
-3.6595857982963427
-4.508036200581986
-4.1285668382985055
-2.134165666107894
-0.04713147869224889
2.2700793122338796
4.161626060340813
4.491545361462671
4.228602145628157
2.3391639872192878
-1.5355042074055405
-0.5128426355046858
4.237138203637712
4.282057793672874
2.6793352834843005
0.11311882963523641
-5.320777316526056
-6.873482860852943
-4.613964324078788
-4.248846857257037
-5.00388480139445
-3.6954019612150915
1.9882481032107626
10.09657762052912
14.066262767145826
11.450426651168927
4.302285190535575
-1.2819851955150774
-1.5591178979419105
0.4839556707355062
2.290085269544644
1.083450783046945
-4.050048615212411
-7.522169560945729
-6.1877582843207355
-5.757443765779419
-6.858946703024416
-6.0708222950815856
-1.6242038099974492
6.75906614680725
13.122434102278206
11.628916415519042
2.9176532401402357
-5.903202732077314
-9.082339181767079
-8.47050111740456
-6.752270125411655
-6.70712269915805
-10.481224931691509
-9.654420610417807
-1.6178777604094101
4.808742398349419
5.530694961946791
5.486064577001658
6.571249980909649
8.464112493469681
13.67625658174196
13.21976284447835
2.650718044704315
-8.344237893065456
-11.10817811162423
-6.593376154384051
2.8814381997983407
13.933808155573308
17.050480527401696
11.528244472288323
3.6304734939745362
-3.2119113609130787
-6.768356867736395
-5.842898988352686
-5.454195887104985
-3.422895678573397
4.307980339740384
6.442686189650776
0.9784346241615098
-0.5306639218348187
0.23800059435727974
-0.15348255190758436
0.045939673031891025
-0.055607759547032676
-0.0038604431563288733
-0.03019177008916741
-0.016754852167793058
-0.02357339777302301
-0.020075147957046513
-0.021831666613169366
-0.02091178954248451
-0.021355147200158055
-0.02110420872104235
-0.021206949369064074
-0.021129597131023366
-0.021144021440001402
-0.021111749224265536
-0.021103309781785207
-0.021082779898410436
-0.021068456498214864
-0.02105102021598739
-0.021035217667693173
-0.02101863115335894
-0.021002492019938812
-0.02098617302212103
-0.020969993563385393
-0.020953790884653097
-0.020937647809899956
-0.020921522078833594
-0.020905435141248915
-0.020889375997192674
-0.020873350174666613
-0.020857354783500842
-0.02084139122132368
-0.020825458701948695
-0.020809557551602492
-0.020793687530035763
-0.020777848685642353
-0.020762040919915806
-0.020746264209287314
-0.020730518492135405
-0.020714803726335836
-0.02069911985994914
-0.020683466846150377
-0.020667844635624655
-0.020652253180440207
-0.0206366924320755
-0.02062116234242392
-0.02060566286328188
-0.020590193946609367
-0.02057475554439705
-0.020559347608733763
-0.020543970091772
-0.020528622945745294
-0.020513306122959173
-0.02049801957579559
-0.020482763256710522
-0.020467537118234975
-0.02045234111297431
-0.020437175193608423
-0.020422039312891452
-0.02040693342365176
-0.020391857478791797
-0.020376811431287944
-0.02036179523419044
-0.020346808840623253
-0.02033185220378397
-0.020316925276943655
-0.020302028013446778
-0.020287160366711056
-0.02027232229022737
-0.020257513737559626
-0.020242734662344664
-0.020227985018292115
-0.020213264759184318
-0.020198573838876188
-0.020183912211295094
-0.02016927983044077
-0.02015467665038518
-0.020140102625272403
-0.02012555770931855
-0.02011104185681161
-0.02009655502211137
-0.02008209715964928
-0.020067668223928345
-0.02005326816952303
-0.020038896951079126
-0.020024554523313653
-0.020010240841014736
-0.0199959558590415
-0.019981699532323954
-0.0199674718158629
-0.019953272664729783
-0.019939102034066614
-0.019924959879085852
-0.019910846155070272
-0.01989676081737289
-0.019882703821416825
-0.019868675122695197
-0.019854674676771017
-0.019840702439277092
-0.01982675836591588
-0.019812842412459418
-0.019798954534749193
-0.019785094688696034
-0.01977126283028001
-0.019757458915550315
-0.019743682900625163
-0.019729934741691678
-0.019716214395005788
-0.019702521816892107
-0.01968885696374385
-0.019675219792022695
-0.019661610258258702
-0.019648028319050194
-0.01963447393106364
-0.019620947051033573
-0.019607447635762457
-0.019593975642120596
-0.019580531027046023
-0.019567113747544405
-0.019553723760688903
-0.019540361023620112
-0.01952702549354591
-0.01951371712774139
-0.019500435883548738
-0.019487181718377117
-0.01947395458970259
-0.01946075445506798
-0.0194475812720828
-0.01943443499842312
-0.019421315591831474
-0.019408223010116764
-0.01939515721115414
-0.01938211815288491
-0.019369105793316424
-0.019356120090521973
-0.019343161002640694
-0.019330228487877466
-0.019317322504502785
-0.019304443010852698
-0.019291589965328662
-0.01927876332639747
-0.019265963052591126
-0.01925318910250677
-0.01924044143480655
-0.01922772000821752
-0.019215024781531573
-0.01920235571360529
-0.019189712763359873
-0.01917709588978103
-0.019164505051918877
-0.019151940208887833
-0.01913940131986653
-0.019126888344097703
-0.019114401240888083
-0.01910193996960831
-0.01908950448969282
-0.01907709476063977
-0.019064710742010896
-0.01905235239343146
-0.019040019674590104
-0.01902771254523879
-0.01901543096519268
-0.019003174894330038
-0.018990944292592134
-0.01897873911998315
-0.01896655933657007
-0.018954404902482597
-0.018942275777913024
-0.01893017192311618
-0.018918093298409298
-0.018906039864171928
-0.01889401158084584
-0.01888200840893492
-0.018870030309005074
-0.01885807724168416
-0.018846149167661835
-0.018834246047689497
-0.01882236784258018
-0.01881051451320846
-0.018798686020510345
-0.018786882325483194
-0.018775103389185612
-0.018763349172737358
-0.01875161963731925
-0.01873991474417306
-0.018728234454601426
-0.01871657872996775
-0.018704947531696128
-0.018693340821271213
-0.01868175856023814
-0.018670200710202457
-0.018658667232829974
-0.018647158089846717
-0.018635673243038817
-0.018624212654252417
-0.018612776285393554
