AAD_Filtered_TADAS_FILE
AAD_BASELINE_CORRECTION: BASELINE REMOVED
AAD_FILTER_TYPE: BUTTERWORTH
AAD_FILTER_ORDER: 1
AAD_LOW_CUT_FREQUENCY_HZ: 0.025
AAD_HIGH_CUT_FREQUENCY_HZ: 40.0
EVENT_NAME: 202302061024
EVENT_ID: 13207
EVENT_DATE_YYYYMMDD: 2023/02/06
EVENT_TIME_HHMMSS: 10:24:47.00000
EVENT_LATITUDE_DEGREE: 38.089
EVENT_LONGITUDE_DEGREE: 37.239
EVENT_DEPTH_KM: 7.0
HYPOCENTER_REFERENCE: AFAD
MAGNITUDE_W: 7.6
MAGNITUDE_W_REFERENCE: AFAD
MAGNITUDE_L: 
MAGNITUDE_L_REFERENCE: 
FOCAL_MECHANISM: 
NETWORK: TK
STATION_CODE: 3129
STATION_NAME: 
STATION_LATITUDE_DEGREE: 36.19117
STATION_LONGITUDE_DEGREE: 36.1343
STATION_ELEVATION_M: 106.0
LOCATION: Kahramanmaras_Elbistan_Turkiye
SENSOR_DEPTH_M: 
VS30_M/S: 447
SITE_CLASSIFICATION_EC8: B
MORPHOLOGIC_CLASSIFICATION: 
EPICENTRAL_DISTANCE_KM: 232.64
EARTHQUAKE_BACKAZIMUTH_DEGREE: 
DATE_TIME_FIRST_SAMPLE_YYYYMMDD_HHMMSS: 2023/02/06 10:25:07.1035180
DATE_TIME_FIRST_SAMPLE_PRECISION: millisecond
SAMPLING_INTERVAL_S: 0.01
NDATA: 14501
DURATION_S: 
STREAM: HNN
UNITS: cm/s^2
INSTRUMENT: sensor = GMS+/GEOSIG | digitizer = 
INSTRUMENT_ANALOG/DIGITAL: 
INSTRUMENTAL_FREQUENCY_HZ: 
INSTRUMENTAL_DAMPING: 
FULL_SCALE_G: 
N_BIT_DIGITAL_CONVERTER: 
PGA_CM/S^2: 22.785
TIME_PGA_S: 
BASELINE_CORRECTION: BASELINE REMOVED
FILTER_TYPE: BUTTERWORTH
FILTER_ORDER: 
LOW_CUT_FREQUENCY_HZ: 
HIGH_CUT_FREQUENCY_HZ: 
LATE/NORMAL_TRIGGERED: 
DATABASE_VERSION: 
HEADER_FORMAT: DYNA 1.2
DATA_TYPE: Acceleration
PROCESSING: Automatic Paolucci et al., 2011
DATA_TIMESTAMP_YYYYMMDD_HHMMSS: 
DATA_LICENSE: U (unknown license)
DATA_CITATION: Turkish Accelerometric Archive v 1.0 - Disaster And Emergency Management Presidency, Earthquake Department
DATA_CREATOR: AFAD
ORIGINAL_DATA_MEDIATOR_CITATION: : AFAD - Disaster And Emergency Management Presidency
ORIGINAL_DATA_MEDIATOR: AFAD PROCESS SERVICE
ORIGINAL_DATA_CREATOR_CITATION: AFAD PROCESS SERVICE
ORIGINAL_DATA_CREATOR: network: TK
USER1: GuestUser
USER2: 
USER3: 
USER4: 
[...]
5.277368511022038
4.438808741803591
3.5629347576064414
2.8409549041995494
2.539512434526296
2.6924758695724504
2.916713525322724
2.492269485463638
0.9501647533902938
-1.5199894770446867
-4.271392925866637
-6.8620810153732394
-9.2487593125057
-11.377905465333173
-12.784768529885467
-13.178967481249067
-12.91453962579502
-12.306368243836861
-11.426538124477196
-10.098941388546283
-8.08639842612669
-5.528585130446694
-2.6886561407094707
0.30242225421567137
3.2052355307718123
5.635057429923556
7.529237898556929
9.052966666561469
10.323949746166353
11.41322521570183
12.275106509474712
12.961187072697138
13.453876258602111
13.663826866874675
13.702783297174049
13.782755986123783
13.980205998222079
14.282423830421203
14.630574049239854
14.702568416498366
14.399911165142509
13.619770117297357
12.108540749631345
9.99574866660449
7.710118190111602
5.5857887648122215
3.402101759238354
1.0778263806399115
-1.097146021058046
-2.8097506128450216
-4.066087868740526
-5.161762132783053
-6.180186379018631
-7.144567738640917
-7.830838981718741
-8.306777670842708
-8.902069578534897
-9.669201154752477
-10.355749001837541
-10.594751083916554
-10.513534287848806
-10.185457968067814
-9.646100951590682
-9.015024763916596
-8.220477697542519
-7.4647036168794285
-6.8934037447565775
-6.271185156395791
-5.490393167623849
-4.526012739062285
-3.429995863968926
-2.6213974070428416
-2.1901307450533594
-1.74316524963273
-1.047000738848493
-0.2607460709885712
0.39416743702548385
0.9518902808604108
1.5157856840278618
2.21882654327493
2.9303614186456817
3.7224931122901177
4.802694558774098
5.769502002696964
6.591633613184145
7.450708295232156
8.239193270175864
8.77094017103442
8.831055094701629
8.668267848873816
8.567493380115387
8.747937979852479
9.355114960586345
10.112984197458733
10.817112563422887
11.644868577113103
12.591579977040423
13.267472062891063
13.549872687499244
13.447431430422707
13.018380575710848
12.58871897791445
12.260313324372643
11.683104764091524
10.596218024657645
9.07709593300642
7.36227806711897
5.67286473497066
3.9253567338366673
2.062428695544293
0.31806077276584105
-1.1280197906232308
-2.4239539681076936
-3.7097025974491142
-4.850044809821476
-5.568069432278728
-5.78105575779843
-5.803244246238068
-5.91182693879661
-6.307543571082
-6.923681844710747
-7.716447106895001
-8.881877331114163
-10.238082858731014
-11.555581080319303
-12.850846353343586
-14.190791821887688
-15.566754690746606
-16.912127322100645
-17.896611702045025
-18.192924688298916
-17.75223393629618
-16.576627485642682
-14.896616972446154
-12.86636757506782
-10.792342725283973
-8.967881357799156
-7.2594804106443265
-5.832919472261808
-4.7989649489217605
-3.9706482638396436
-3.2190002675166087
-2.3069013375775884
-1.0904129811290009
0.13905737496189136
1.1764004443008613
2.199069027005655
3.142916639652079
3.974328562850751
4.752007804216424
5.3833344368803235
5.92320134681963
6.265143546974485
6.180842450886583
5.6318450868026115
4.668589151862566
3.1819592374540258
1.3578059449238304
-0.28940095403458144
-1.3984390720714202
-1.85763410612945
-2.0241171433958205
-1.8831202412136763
-1.3286520713244037
-0.4095189885042412
0.5189039247996092
0.7699133871704521
0.6418180755141857
0.272428141026926
-0.1277755788696825
-0.3524583431026597
-0.8567070589365142
-1.270689318401186
-1.4985874164807227
-1.7643429803714454
-1.8215312529308971
-1.8427913224723849
-1.9138175653617957
-1.6205962437488035
-1.1230009621335606
-0.7499142279399523
-0.5089581396223891
-0.5276114910244729
-0.4872830563078284
-0.500752760443369
-0.7105896712409141
-0.7904823946389393
-1.0773409336964368
-1.7430124487995013
-2.436067694921834
-2.9660159798551224
-3.516522090100005
-4.056444882564278
-4.467430600573521
-4.556235461322986
-4.438354268633322
-4.474060648137085
-4.695892714371345
-5.082747956790153
-5.044035821277756
-4.737286294015019
-3.9135400896924617
-2.4412104977745526
-1.2103057297380362
0.1778786591208849
1.549015836506005
2.971029750220141
4.720205851604105
6.251641148362105
7.385448116160302
8.422719177685398
9.791512363266417
11.03040063697376
12.570474527192466
14.001542015574891
14.492633912681882
15.198608847066202
15.971739210906538
16.437516975651928
16.42640567132494
15.896237973103114
15.760603062760962
16.11434462822331
16.939030204846844
17.419207157880738
17.264426646146838
17.549494040810387
17.769305594601686
17.41849775569843
16.523432324633834
15.770501602789377
16.820210288799025
18.088906966502332
17.39517785104049
16.735100064216613
17.18335547099058
16.658592833160753
14.632530273482878
12.368023724832865
10.106115419469486
7.492233139602704
4.442816634507579
1.9536349811715312
0.28249201522190637
-2.379876307851546
-5.3816291367349045
-7.37408976451791
-9.140138348844365
-11.455837337755582
-14.037303043099186
-15.601474279991972
-16.859870178411686
-18.208474262714983
-19.158852403382824
-20.44409786278143
-20.940181665293
-21.096165286157497
-21.833060971613847
-21.441052106102248
-20.941816897660253
-20.96951656196116
-19.73795121226551
-18.343220553109337
-17.30104602039897
-14.71775993101889
-11.794353345963515
-10.265439252766992
-8.945817409737506
-8.517063688431637
-10.899383747883139
-11.919606022668763
-9.000934090747215
-5.9479423978958845
-4.429422513338886
-6.145734354585512
-7.3540721995506795
-5.216393748730395
-3.1393056586862125
-0.5241552389914151
-0.6264507115793391
-0.012957320649654144
4.74823685156512
6.927266588140918
7.857504336857476
8.204035804366315
8.790348180532774
11.249908037475794
12.136768462568075
12.395876747793778
14.146470333975591
15.04176292530571
14.063146619522485
15.486582581002523
16.779996345010694
14.674103336525235
13.627270999953593
14.20374496759879
14.8840313528939
13.948509703109705
12.184976911950105
11.456446951876112
10.545996719798252
8.521300503224603
4.402738329378377
1.4900212370927775
1.4345304149027385
-1.0086375017064277
-5.8591337727697175
-7.994807123078129
-7.892185171021489
-8.232885532845527
-9.825660110064776
-12.292117732637161
-13.004092309233727
-12.880020701446881
-13.634992236266875
-13.8674778755632
-14.074152133605969
-16.137011882664968
-17.490476722428426
-15.352154100330274
-13.30740724242823
-12.346348173461658
-11.137819692505618
-10.165963594965742
-9.180487409291038
-8.983701717843982
-9.139085364109135
-7.767958259434846
-5.40433489035142
-3.7986961461046196
-3.152180709725748
-2.3554764189088786
0.18182512017598834
2.6346181794802193
2.9963299015232256
3.880384474285294
4.537271740000238
4.788114275611531
7.196163988290582
8.611406952979047
8.92679986477422
10.418737206883568
10.278402290282127
8.445026366141267
7.08157267271263
6.240841536532949
6.345197392421015
6.610380821726188
5.175903554855744
3.66769953512153
3.1224357409938026
3.390760255417208
3.5734873966229017
2.5931370540492487
2.3074845173902263
1.7854188102909803
1.2621599117804985
1.8060456126201265
3.312893890062242
5.503644141402323
5.775502751069141
4.781246668921213
3.995298946350568
3.415837302806199
3.5078611452990502
4.933238510930031
5.429125252997669
2.2954068785095636
-0.8619556462626122
-0.4949303902975862
1.0865421738748506
1.7433683696392908
1.8740942987719726
2.315353381211727
2.9834437770986395
1.8227174118573337
0.07646483898431737
-1.1353131775879957
-3.157386624670138
-4.6562099376418695
-5.7376788899390645
-8.530272408862773
-11.984164787795422
-12.781938426848948
-11.350198829808273
-10.654171108481936
-11.223084156784655
-11.314903889443483
-11.343662563716086
-12.558281916776949
-13.578432021964803
-13.200664860856076
-10.145602374218182
-6.681372146430725
-5.2103612111376325
-5.455447565870823
-7.337570514267713
-6.97161745968645
-3.0504625847566746
1.418967847816135
2.6395886743245334
1.102687662757214
1.572466268846427
4.934260859436169
7.879161350206667
6.067433312938579
3.621553541893619
6.165443117410612
11.365538111202303
14.27340828031467
11.501749443141556
6.027836978009265
3.138646045004651
5.123813739127768
8.918416619237775
8.544080979433392
3.3626350318188436
-0.47582759111592676
1.0472280377368104
4.376034544226733
5.609910017130163
4.692880770242881
3.0952993547431897
2.3399735026543986
2.6924851519226887
2.052276565026786
0.7447709526274611
1.7463054514706358
4.0076827595374445
5.075582899885268
5.064995257733502
4.8553927453438455
3.242127015968912
-0.421666960232506
-3.5175750965939603
-3.497428080663463
-0.2870282496688668
2.8557858779203324
4.497817425402197
6.9789048178172655
9.921471733472538
10.276654370705863
8.245568132935306
6.284428234272143
5.595723851738355
6.110215535214136
6.122713263077545
5.432146945644804
4.004888380968673
2.55554906139208
3.4089994548483733
5.293051997783051
5.528577666572202
2.988257386674483
-0.0865202727703442
-2.1059260494013103
-3.507495876562256
-3.9696758443037017
-3.7173875175005957
-2.1191087546967045
-0.33719358393280985
0.6805419984301976
0.9184711015948973
-0.22962881152668804
-1.3729792039427346
-1.8594587197608448
-1.0829396679655436
0.06067751062492441
-1.0955111889356703
-5.027900128510195
-8.390310414087974
-6.392861913198143
0.026372979196870015
5.876391636077623
6.858921938672736
3.1602554881635974
-1.2234965348476248
-4.602470264139138
-6.2756287897119485
-4.635159289220461
-0.728542060406306
1.2326584472646824
0.2512110099075457
-1.2505736981536
-3.0041982379380627
-5.604094459836249
-7.186326474985776
-5.996307442325963
-3.8996208250773083
-3.524917789374139
-3.959666702547778
-2.39036767015632
1.649988094285967
4.365168484399309
2.054539193184408
-1.2290766041418864
-0.5111081052748352
2.603817587453982
5.589261764240235
7.579543630496966
9.828813230902174
11.903035517208362
11.670759685163846
10.736681785796266
11.216231198875626
12.729966062192199
13.505325273870104
14.343193767513661
16.03056187755989
16.277763326813787
14.460376009365604
11.292508303756689
9.656734799543287
10.969647377767554
12.13874095306
11.615572346826916
9.455465151808466
6.8501369074599
5.431401065313761
5.663303399592667
7.1266683095802295
7.758116779142145
6.265544734194648
4.104800277051204
3.013141804596505
2.538571381215006
1.497970339307229
-0.7000783823668059
-3.546538360612131
-5.7814186130324074
-6.726320881359878
-5.823681542300551
-3.3622048188418874
-0.7047242721341238
0.650012825340248
0.8461499929140343
0.5913836022239851
0.11685139328804307
0.7699486458164128
1.901598690877423
2.1504161810493763
1.7748543301005544
0.03971793330711427
-3.3664125943556127
-6.809345894943844
-8.04719707924557
-6.71108929679161
-5.793834228239809
-6.920372338420261
-8.609405679920393
-10.287397652600761
-11.191322040151832
-10.615568929262293
-8.781204724612941
-6.8335590078362385
-5.69954700086827
-4.58630006729507
-3.3763741962452056
-1.9876695019570887
-1.045658802933905
-0.659324192326617
-0.15512509908536076
0.6894103899336402
2.434553009085286
4.216613402128405
4.5876736923630945
3.583404878404811
3.6651495333604336
5.121244950738912
6.217671252880511
6.0703504682722915
5.047368618646553
5.993353263950112
7.756626023808336
6.984983268720703
4.55780061097181
3.2574809137061913
3.9605979548925228
5.047491903085325
5.330815320288823
4.5414337847067205
3.128722575304097
1.6956148207831736
0.817644731604875
-0.19477700695309966
-2.5148266463667452
-4.481814143820935
-5.835635538292345
-7.7453357216754295
-9.908603507862294
-12.070639493570807
-13.769690166392417
-14.638780278296274
-15.284034604416073
-16.251042483098686
-16.836018946597452
-17.039209584998957
-16.79124973244263
-16.400047663382438
-16.649847585170196
-16.520572594958217
-16.309677478237962
-16.831850387557992
-17.534096575932818
-16.607172126186747
-14.005324660992121
-11.75843949267154
-9.499974677968543
-7.3215242407908265
-5.217465710425774
-3.0435324324336888
-1.5108250386451445
0.4922671808055955
3.4969601671058665
6.763629416485503
9.29995982414262
10.83680171930534
11.258289435702128
11.504363341109068
12.711751252075462
13.439170880075801
13.37852681348847
12.733038505311402
12.861832413680824
14.258488004748367
14.780579258994663
14.380123444975117
12.878173831632601
11.580785396392727
11.370984948986829
11.411152521535325
11.885655974846792
11.503135351330465
10.10292561610477
8.690035868961047
7.265586865430395
4.856220062433541
2.2267082639168927
0.9209669370718615
0.123094448049827
0.18273227519545301
0.7233232709318793
0.42534819256846224
0.23612764166691677
0.7554116641060404
2.034301980880369
3.509130619800999
4.656476781951525
6.497839608387242
8.9147502428325
11.080661522972173
12.192689993122892
12.38927872071049
13.529212289248084
15.581577917955693
17.42116162125648
18.413328979686145
18.55541660444429
18.84535911413289
19.427586150013607
19.886051149400426
20.10501948836208
20.3102626974067
20.85606760423472
21.934911005710276
22.478555076366693
20.638555532739726
17.33117276004978
14.603269520568054
13.018645573404372
12.320206264383438
11.710605173448876
10.703217204731931
9.62639371825487
8.823143372476958
8.158354733891152
7.337145578200572
6.59664472643986
6.131331458748981
4.7003334197716855
2.8194074171706065
1.6455154036325497
1.4648432478969036
2.574076363690966
2.4251560902450655
0.9746929547496702
0.13331686952279362
-0.37862856339540146
-0.9506916551439419
-2.2706466736659756
-3.1565916849530997
-2.8604102455528553
-2.7219005025135043
-3.366433715263038
-3.961565255807367
-3.678912604589248
-3.3187978348045357
-3.669809826206033
-4.604328239997087
-4.882512177872944
-4.574873493048703
-5.050227294907731
-5.836145400718039
-5.982226951125183
-5.013417995424279
-3.633018930324486
-3.4460500167611405
-3.9391285299200076
-3.600270689941378
-3.0675041303865958
-2.765886628634607
-1.9267635145049484
-0.8384538943528248
-0.2523084617322127
-0.6371664380408188
-1.3177222396415385
-0.9894694712968652
-0.3920553955144178
-0.878712661967307
-1.740678035854303
-1.9165747312855586
-1.179320944974512
-0.00590590330949781
0.5289128974027599
0.6314941091392589
0.8143312154448032
0.7004225802389661
0.23217939224001607
-1.1788395997371355
-2.8447729655431826
-3.17212506316428
-2.780053495336303
-2.602915907786232
-3.221917996824974
-4.686804882602036
-6.0725028472697105
-6.7759106177391075
-7.424718182386707
-8.733407368448477
-9.899550127660977
-9.724297661283092
-8.6754963007372
-8.547181831669944
-9.268730930881668
-9.65004061472001
-9.192055769224984
-8.257141373542268
-7.595193937186056
-6.883584392961202
-6.113097371310222
-5.448833241555862
-5.083044120301557
-4.867095737904098
-4.374235260698133
-3.761986299282941
-2.8339433496750455
-2.0681052624401377
-1.193968685241248
-0.12089083126111116
0.5185207949442785
1.460027870833863
2.726500953887928
4.31690309826254
5.748798439642936
6.038604577744367
5.502490198798599
5.020672588695085
5.304353207022122
5.43927224915312
5.0574080342750705
4.615567667737574
4.01854872292897
3.528702471391038
2.893426661097071
2.469003235222282
2.33336390067217
1.9340207642903084
1.5770494799659103
1.5048387153956584
1.6588926111809112
1.5713352269145855
1.7528255697339075
2.0721573417137007
1.3031457858032398
0.027648681055447287
-1.0438839979617403
-1.2984498801240045
-1.0183705573168886
-1.285541683443108
-1.8474791516836226
-2.7944586791614254
-3.916053820562341
-4.479084342721433
-4.056153912988209
-3.180048913173864
-2.582324490293259
-1.6555692567679297
-0.9573118068843275
-0.9488216071538974
-1.3513732817934567
-1.7749484892285852
-1.4152377005999202
-0.9872082986132258
-0.7985129320491652
-0.3950940801290983
-0.035991354891495485
0.1439636150525163
0.26627290645681334
0.36744764110476374
-0.17725133183259945
-1.5934844272511053
-2.7071654878702347
-3.046862090620871
-3.1386465257557563
-3.3874393501586453
-3.9768614524136567
-4.22453179072013
-3.398872177252834
-2.3049293179546018
-2.446265426082726
-3.5153909182134684
-3.996330365068373
-2.5968417845414136
0.041647499465345426
1.2177448425830806
0.4855005346520559
-0.48032828689490337
-0.6012986171424386
-0.23798074285557955
-0.32381113904342707
-0.5885737577987913
0.13997701147197084
1.727329364099247
2.7405596963675922
3.8638746189107662
5.65938118940316
7.115655070849515
7.767390574162627
7.015890085444985
6.18544767723519
6.933835205822261
8.424460843969804
9.433778997410833
9.637216183174663
9.54266698147023
9.841858672578523
10.951524506053252
11.814908767915538
12.061640130019361
12.377437813717853
12.17164263061423
11.507605894289599
9.957232671536229
7.6838966109924405
6.494649803745036
6.695304723837049
7.196555437478351
6.335816882028168
4.647327711896183
4.060736319509267
4.5704360396096915
5.293798808977451
5.5872217004068565
5.930477193455432
6.712138773872668
7.647547510243794
8.82016414244746
9.792173943014586
10.271780859314289
10.615056581396884
11.253151928784925
12.555485329060463
14.282067814577232
15.290352834735705
14.442372455312729
12.568298089819367
11.526717705755578
11.779661423641887
12.327894963476249
12.32828713739792
12.457777504731656
13.10754596365083
13.318183629531491
12.978870150837963
12.90611944888286
12.96778678517188
12.47033088808681
11.33240066032361
10.133354457517463
9.546825374039768
9.271311918273186
8.53184682540697
7.183044862138851
5.565971970294071
4.309780167701963
3.5739023638094474
2.612397727885547
0.5936750009915001
-2.0139558757804656
-3.8746801280488827
-5.155445319421237
-6.642677534263505
-8.277671679951156
-9.401220169288171
-9.377734827286563
-9.153874727445208
-9.962544891342764
-11.805230705966
-13.58776138656388
-14.225948587796646
-14.19822355825865
-14.17925029002397
-14.34220507966758
-14.737116892271118
-15.307036197194899
-15.66904595956326
-15.243444628073375
-14.766379626872238
-14.88953004170633
-15.247545049567714
-15.47743665475796
-15.060500142187323
-14.238732238162378
-13.496250303073756
-12.59627612371518
-11.426039473379232
-10.043920177287834
-8.607849531472176
-7.553733802062744
-6.870799483215919
-5.836727014006066
-4.167603603356948
-2.6600141804411654
-1.828004990894278
-0.9733921583238513
0.45197761002389925
2.151536631432193
3.678829601141881
4.7281657293457435
4.752922467176735
3.875975387015578
3.2968345716184086
3.086651174795989
2.597052904631658
1.8192595207487892
1.1600851363953992
1.5158737984984059
2.6827187954821046
3.3401012754258543
3.0674452330868456
