AAD_Filtered_TADAS_FILE
AAD_BASELINE_CORRECTION: BASELINE REMOVED
AAD_FILTER_TYPE: BUTTERWORTH
AAD_FILTER_ORDER: 1
AAD_LOW_CUT_FREQUENCY_HZ: 0.025
AAD_HIGH_CUT_FREQUENCY_HZ: 40.0
EVENT_NAME: 202302060117
EVENT_ID: 13194
EVENT_DATE_YYYYMMDD: 2023/02/06
EVENT_TIME_HHMMSS: 01:17:32.00000
EVENT_LATITUDE_DEGREE: 37.288
EVENT_LONGITUDE_DEGREE: 37.043
EVENT_DEPTH_KM: 8.6
HYPOCENTER_REFERENCE: AFAD
MAGNITUDE_W: 7.7
MAGNITUDE_W_REFERENCE: AFAD
MAGNITUDE_L: 
MAGNITUDE_L_REFERENCE: 
FOCAL_MECHANISM: 
NETWORK: TK
STATION_CODE: 8002
STATION_NAME: 
STATION_LATITUDE_DEGREE: 37.19156
STATION_LONGITUDE_DEGREE: 36.56195
STATION_ELEVATION_M: 593.0
LOCATION: Kahramanmaras_Pazarck_Turkiye
SENSOR_DEPTH_M: 
VS30_M/S: 430
SITE_CLASSIFICATION_EC8: unknown
MORPHOLOGIC_CLASSIFICATION: 
EPICENTRAL_DISTANCE_KM: 43.91
EARTHQUAKE_BACKAZIMUTH_DEGREE: 
DATE_TIME_FIRST_SAMPLE_YYYYMMDD_HHMMSS: 2023/02/06 01:17:09.7103280
DATE_TIME_FIRST_SAMPLE_PRECISION: millisecond
SAMPLING_INTERVAL_S: 0.01
NDATA: 10501
DURATION_S: 
STREAM: HNZ
UNITS: cm/s^2
INSTRUMENT: sensor = CMG-5T/GURALP | digitizer = 
INSTRUMENT_ANALOG/DIGITAL: 
INSTRUMENTAL_FREQUENCY_HZ: 
INSTRUMENTAL_DAMPING: 
FULL_SCALE_G: 
N_BIT_DIGITAL_CONVERTER: 
PGA_CM/S^2: 336.563
TIME_PGA_S: 
BASELINE_CORRECTION: BASELINE REMOVED
FILTER_TYPE: BUTTERWORTH
FILTER_ORDER: 
LOW_CUT_FREQUENCY_HZ: 
HIGH_CUT_FREQUENCY_HZ: 
LATE/NORMAL_TRIGGERED: 
DATABASE_VERSION: 
HEADER_FORMAT: DYNA 1.2
DATA_TYPE: Acceleration
PROCESSING: Automatic Paolucci et al., 2011
DATA_TIMESTAMP_YYYYMMDD_HHMMSS: 
DATA_LICENSE: U (unknown license)
DATA_CITATION: Turkish Accelerometric Archive v 1.0 - Disaster And Emergency Management Presidency, Earthquake Department
DATA_CREATOR: AFAD
ORIGINAL_DATA_MEDIATOR_CITATION: : AFAD - Disaster And Emergency Management Presidency
ORIGINAL_DATA_MEDIATOR: AFAD PROCESS SERVICE
ORIGINAL_DATA_CREATOR_CITATION: AFAD PROCESS SERVICE
ORIGINAL_DATA_CREATOR: network: TK
USER1: GuestUser
USER2: 
USER3: 
USER4: 
[...]
14.523078894115725
14.675188995240635
11.286191228966144
0.783218837733001
-12.7958716059559
-3.640102063349554
5.6942758057860665
2.122958990705225
7.223737320230191
6.30138309728998
6.743113415271606
10.845201345002558
8.431153174930667
21.87765422067901
29.911062159788514
17.956461889075406
6.286298751688071
-1.535773668215022
-25.4016760767586
-42.399593215160465
-32.782751825642585
-23.270130175603352
-7.115582968111944
21.07071203680967
33.21540559714086
25.203429097574325
25.428723570257763
21.35561136598711
14.551252775184464
9.395482829352604
-20.062980116053005
-37.64287729638306
-30.58584879815872
-22.626404069181323
5.457824516722392
26.337640207005933
9.496943335486126
-31.806863593826538
-62.67514002719809
-62.02362482226947
-41.71669059489176
-12.974507428504218
12.349760048649125
36.966148343418894
43.889245678076016
42.51308534775501
48.49291397807037
52.25834046035459
34.36452546637711
6.430900364309992
-0.3307638640641649
1.290701567259214
10.005582681165679
27.574940532599076
38.338929276065286
21.238977257490568
-2.557098804920887
-4.670936651499063
5.0560587301802435
1.2238116006972968
-24.321833646688123
-48.086954705309694
-76.08649482706748
-98.48530808642698
-92.7669220576355
-71.24082751015945
-46.37305946651657
-28.079096908442477
-14.66723519936912
1.015063360568376
18.42071842044986
18.363516959451598
-7.795046731286006
-36.61968093361391
-41.20929728338899
-9.047308092348574
19.521226663219867
36.29023417628403
59.52629279238981
51.69725381661344
28.56604045912645
-0.2804767286832167
-42.648165181043936
-70.71593430082129
-58.9811815540651
-12.539762980440722
14.728165312113974
3.4041672444361972
-30.6724793361866
-37.82941675434636
-8.901412366350153
21.29377734221186
28.795385423605158
2.3955451882482968
-21.638232337984107
-12.573738052797815
27.13289834260581
53.08573810507009
51.30994772520926
35.86458885940645
17.056686449027524
23.05253207417102
35.6316642779482
48.22341924247572
58.269018184025605
30.211906114381712
1.565872424960795
1.075342087002006
19.056747277120554
57.87111155436256
81.69519476778028
61.46857413558106
25.638393613971754
15.34575326899141
16.777994061251327
10.509692448812228
17.056281896213395
52.31862603736299
82.5917314881121
85.12836159156925
72.32377765894071
40.20533025502204
4.368047510726765
10.640162825818294
26.98102555973446
6.389897774226299
-7.100868273304173
-18.268140419061744
-18.73596170909079
-2.977907805034099
-13.622965017476744
-30.170117780669372
-43.16056153309495
-67.27217803621306
-68.68452703675524
-35.86911042006839
7.5278661269781155
40.729772793999715
26.10485699475328
8.056499093166202
5.621951526374293
-23.833989402561674
-36.904408853470905
-2.981821822237588
3.7465012749100928
-38.30169944482945
-50.83342279784148
0.9680128986468529
25.787318605598493
-39.95051336393987
-103.80925409391143
-133.06263566691592
-142.85466837016418
-105.07936154679534
-41.277287286476025
-19.27937362464513
-45.65529566887958
-44.61399834790456
16.874032407608773
68.61126409397714
64.43271863876322
13.571160830858743
-29.922005770487516
-28.23996100265306
-19.09992105194329
-23.617577926116503
-66.64750513778793
-91.51374582065704
-64.5647790300008
-0.8036073325988348
70.58120682721726
78.98931800228115
69.30764921241344
57.17988700923014
27.447103697710062
23.871392591383923
43.14438511816048
65.95575931240272
77.14711491137652
74.42620538102041
80.07749643638938
76.79999293954891
51.44376697469867
28.144956135105044
28.530227560617544
32.14065459756601
11.413270767194422
8.205424761259758
18.911041928963
18.50742044355459
42.56626660304801
53.40935513516728
-13.020011641374161
-90.13134231931255
-43.533703530521386
54.802831547297224
51.29723708285414
17.41868114220013
22.937502953199818
29.082142656811577
24.861535978980577
-4.314137651065808
-66.816353656806
-106.49799777224123
-71.8076397453043
-10.714227807094577
-2.1838463435866564
-22.297578047825795
-10.268008595854852
18.240565506704506
28.93293904576951
7.469544000893055
-54.765418206342545
-125.21870182324555
-128.9091934239639
-55.468027454050976
8.005739500117132
8.720434603730371
-22.866357866732965
-61.519663355717555
-103.82885950527933
-128.3813331832277
-132.2605842076745
-134.5608642463251
-99.0207401275654
-46.48005471237968
-56.62940532145621
-62.5991470834294
-42.396262667252394
-60.52767836086356
-64.47563789286502
-21.70029014298842
-7.633967469777613
-19.157756840513258
-39.70822238113465
-120.86819933507563
-177.77638199234644
-152.41803429773393
-111.93080422157972
-67.65537897009266
-15.909939204564608
-16.48611279788506
-46.77905643580546
-57.400343780786244
-48.69008293023288
-4.153572864738476
31.75410505881411
49.64089143584934
58.48031871732283
65.2772946076232
87.91502654461775
87.15323202120821
58.431287342206865
26.737760953322056
-7.730049425668137
-21.29494130249738
9.020905219502186
44.43817237107961
39.84087493283683
26.29059775885754
24.694504677792292
7.548060096760845
28.144972725350655
82.99407485363017
69.29993868812929
22.58881253630593
3.44899608876946
27.48694589365539
68.67821596715817
82.59628151809794
100.52548415020682
78.58560123901657
62.914694913312296
82.86616116348567
51.319687946582725
0.5550740631909675
-27.600163522797022
18.51736952169918
79.62579933839874
123.15399328343368
172.9158562937724
114.01067059295995
7.687520891604031
-29.9415173471924
-71.07876441075629
-84.09379540410237
-64.8222603326206
-97.07815615381244
-83.28784905733103
-2.51088349342946
95.1105070765981
194.18549136753504
224.6221090636011
103.75592931399962
-61.32227451218804
-117.72549446819717
-123.69139749480765
-110.34049486195343
-76.57768267411511
-66.1486948123163
-79.53214720009886
-38.75379627442881
31.872431704419444
33.66976816226695
-0.6054574868086595
-58.11290914222846
-140.33082428417006
-111.13473773318876
19.826541054594763
78.2267457552703
93.35496166668203
53.95333938700849
-77.49426727069536
-110.49079338548279
-69.98790103212876
-83.3190555794093
-93.48029691400177
-9.78058764683768
86.14269598606641
46.739063074388355
-11.345895458766716
10.407101887489478
51.5775186388803
96.35721966447775
133.68303385406742
94.034136908538
15.984933468587528
-20.78251804970776
38.02221745000779
91.16162900345569
44.62666896917391
13.481906193383125
-32.91831627360427
-41.03439878281613
28.136993987076178
33.19671640442683
-30.55998286107609
-61.94447822641313
-45.11313331273567
-22.608588721131937
62.34960403358154
98.03168609733117
-6.360650920286028
-90.86401477566926
-112.01697535413203
-111.495127769893
-30.25297375249588
127.22691272081956
205.5539987960998
132.9617673837167
9.416393439779435
-69.67641773156318
-119.16612714941304
-71.3337745150314
19.46851704830357
-8.94093292472976
-54.76413556061684
-56.177699390277944
-16.039283391425215
34.8604994103628
47.44052336128526
84.45946003449029
93.88966966681876
74.6021737858709
54.99232544784522
-14.130266831832657
-62.456992626170546
-66.55425528690724
-39.977153292544116
16.709312808770466
23.457606110763106
-34.19505238855505
-59.83312674030643
-15.938061248938892
12.840920661870035
-35.559124954379186
-59.096106640233046
-54.757698951435565
-77.43578125795695
-95.63547191778547
-116.0421030696986
-126.61805114910365
-97.18681989478752
-43.83284927112345
-9.44660971610096
6.439929755380358
-52.019253464788534
-78.2517922944792
-52.06847434743743
-78.29723326101355
-81.62490863812381
-30.086221457393485
-11.279726425266944
-54.151700330324616
-36.05544703080824
14.92565705254901
26.84783614351496
13.527672198047187
-28.67921372603665
-82.65615088139528
-43.01328751557985
-1.069703547459595
-16.8374141369365
-53.94451290677536
-113.67618812276407
-105.80412470172284
-76.4062481389846
-19.744231776378232
39.794446615388665
58.13352381733836
68.4881088854454
83.35323507455803
72.68129948352663
34.64936768700762
-30.76305773536581
-85.81825314705034
-65.16099438760435
11.287085534198841
117.22062234568132
230.9832820143034
218.40226639177666
74.88640039188671
31.951086471844732
17.747954672941933
-16.146359163190606
0.5971093330874517
-1.6209596841356382
-14.304988424369727
8.106796228008898
25.461351608484286
46.73919841144108
87.17760850249317
45.913144016324985
-52.51286439381703
-109.21533538441074
-96.98486112639873
-11.186205496520602
75.08316794888528
66.69738995201376
40.15140351039175
58.052885174320494
87.69814013401196
70.9291716634741
29.905350955924515
3.5991143622039514
-50.29679900111054
-122.07555853335025
-131.04242664180137
14.043639988884795
146.14545114044972
157.81519077806996
102.82961774916899
2.883889704434297
-40.98265036468827
-42.63817574519261
-6.189338568345535
94.62159626992978
134.05215648492285
41.713037924780345
-80.39338513419798
-127.0421324395287
-81.91718854781998
64.70199079403501
186.33396597509352
158.37265713710974
131.86500038973756
111.11452490959776
-4.156933681128397
-97.17126569066184
-99.77601933500273
-94.83869022774695
-46.30335988896521
44.61767048354393
59.67719820935785
15.005024236092241
-48.80711839934994
-4.711179258124813
72.92663219722814
12.558949894225746
-40.170741159810795
29.036350696796262
115.30409259897637
144.86529004857846
113.76301467648551
64.72178754008266
59.27072649625277
25.729787592097654
-30.452958042242344
-80.22573585852612
-115.40477274489011
-86.22064932550197
-7.668331747904553
41.87951369473849
35.513588241962715
-21.345725079704344
-31.54621676611373
50.175984294342825
37.02507632126483
-55.430797979807835
-56.47173408375575
-2.2030844017190936
-10.937997469396286
-17.520348127292255
96.30850073259653
183.46195078717398
32.24716375566851
-129.82448162298428
-135.84162473035127
-130.8252399110333
-97.73460971699382
-9.762429994803098
15.032676062480952
-38.92742400261885
-39.18594498425449
-26.11679915082092
7.23151880579843
62.567928977554395
0.5781270689946689
-103.67779652447754
-144.95337769089147
-85.67190991871902
42.195244672813196
134.09359665438424
110.92028696581345
-52.25792950088496
-171.7759145673989
-195.48659510584818
-170.53093313858784
-62.54474342473858
46.92353959863908
43.32820382757171
-79.36652120010427
-105.65438061830181
-20.951304260612034
56.44833158378318
58.07181462551726
-49.90785700260192
-103.37715616853339
-71.89631675163496
35.56778771603572
145.07449283146502
100.49035321225652
-21.49287606165113
-91.41138504347661
-20.987428397625557
155.55232551119386
204.53610654378895
62.68171428980008
-61.25960180048561
-114.59426101282754
-104.2451458713063
-3.165638083288013
50.43039793760992
84.19686474321796
101.76569971039521
67.17867408679105
22.701102109115112
-48.39525278577344
-66.42036616781137
-25.22752033960861
84.0349195803834
167.12104021006144
160.23674551076402
115.78643469048068
-2.6099921242186928
-59.23852203341331
11.344379040603998
49.29999848381534
10.73963683354678
8.58300958938811
62.85626986826079
71.25747025293236
24.529772578071046
-23.527759903240455
-31.895366257168607
42.962345993477484
117.97982007106113
120.93023359291915
179.5068602915352
244.6049150595324
96.55005267695665
-64.17366040868107
-89.03798874117045
-57.684887460254124
53.52562616270246
129.30712984261083
149.23826978687532
116.12482587055896
38.27052486196052
-1.5088196482776377
-26.882841924627904
-47.86279862354003
-40.63966778584182
-27.593139680745434
-65.7631532783173
-61.715501222909275
37.38301987564534
74.75750007669795
19.269275166781934
-30.19546557442659
-58.199013537860495
-55.75235648642389
-44.770168786689474
0.293499871216951
110.37149094645473
104.28834486361973
8.576571175940707
-31.608969300826864
-87.2064220770088
-97.1231844671264
-106.5775672899796
-98.18316320648138
100.157012790945
171.74707772839506
23.21796096941367
-66.76362631925825
-28.73882225260655
15.808529305672886
-75.42859224883556
-127.87018494877965
-13.459362877939123
22.74917329070039
-72.58088459611581
-114.60149087373507
-77.85776497690608
70.49264095349953
86.12944888035811
-12.767244731155754
4.770743394675002
-82.7492908450698
-135.53941778150855
-112.9932060939055
-107.48072992085423
4.339372941167216
67.6638546962251
112.94651154903819
104.57373791941463
-65.07656294971886
-132.02772942035133
-133.87896515473804
-217.19650097694588
-214.18816520416
-11.887282840721069
188.66806635097396
208.91284011205033
160.46860069337757
91.25505707898401
3.6928211054751734
-116.0458880791301
-146.22213227013944
6.628551869985168
76.3916935887192
33.3291525472395
-46.51776651909357
-139.1907964999255
-126.06153415502165
-29.803132893454457
36.92615306646886
-11.191399262841088
-70.26185832016667
-37.113146711512115
101.09838425653427
178.81747807026224
39.80743593553066
-123.70457942907444
-168.78008198184042
-173.4644284562406
-114.94389705993463
49.1891925705815
256.1420802892762
343.93350723493825
200.73672148470774
35.09315553350655
-25.231143420616355
-8.238965185658127
18.150406982838888
39.27034818110697
53.71758733950635
94.42921278829166
186.61812471964373
169.59068995558226
71.48511970076763
-30.093627053758944
-108.11345976201966
-127.22724161671209
-111.91214691696727
-3.6424994840222458
170.9471208739401
176.4174813297944
55.24112037946681
-25.824733838314
-55.60747991610411
-6.878424784705049
12.810774482275178
-2.4004700536241237
-4.575233203174735
-36.014521586749424
-71.60606138802366
-41.4156140852147
27.16623211617916
5.928061657360727
-29.904352174532956
-28.349008309426768
-24.769302458220064
101.04132417287968
175.20423428831097
39.20883778320549
-73.45314032180295
-52.45871176980984
-19.886074344183395
-97.24549707472327
-130.97499009881034
-89.39039909094552
-66.47193763345001
21.56286908374717
184.53514708381715
198.09400495072128
-31.70312818945283
-201.7550907481372
-147.56627257690695
-33.787024112056834
-36.291995750357245
-80.131818248169
-49.75898789804605
-10.03633875453928
-110.29503468310247
-126.86828997873877
-5.4697784728407335
38.81470435359336
101.8787852852781
62.217485255410026
-55.12752047576872
-23.208516346877047
61.40134992670918
137.00228579315075
61.787380051969805
-106.05003351260945
-31.692522445526826
19.194100857585024
-9.220943003972772
13.7430846553367
-53.55402267804601
-82.11022015417227
20.257911946666336
79.56600148521234
18.175165578729047
78.79318602954582
222.72249845413947
166.38833396568504
-34.13894553367247
-128.39207103955926
-157.1537355074924
-239.52129524973464
-160.6138108428292
22.616279959338247
65.59155588240849
15.976328524787696
-12.947890423878176
73.74011524233042
92.74867783324895
4.491064737415007
3.2252285233772064
1.1321275628877387
0.6266421164563456
43.88922906910711
83.78773608814467
77.09296970385542
82.13522013821034
205.86664844484721
221.60700785218717
2.763070667032383
-186.74794116656844
-191.37029433924093
-64.98045969185891
107.41378727724641
196.10075789778296
228.01952531033672
161.58824513915815
-50.87082023394812
-104.38412774428537
-18.51942141792561
11.829084788585146
37.007297236643225
27.706749141798888
5.474883273903042
19.135990147957248
-55.20579234554417
-81.42008266709877
26.233052216994253
109.12639651403246
175.65493536535922
64.16526609258605
-121.40109679957328
-164.67003114105754
-148.02222436620215
-53.1790802652684
-6.8810503925219395
-19.024838411037162
19.429368196348534
14.859446004752977
-19.246916948136857
-111.34547466542907
-177.02498724644613
-29.126694684001375
39.66626815036979
-45.129667672228564
-40.092908388931534
-9.475277628660876
7.414119755542909
-9.305149449694019
-22.58666070901152
22.271736785180835
-50.5434757062911
-129.18483004663892
-41.72072264711411
1.672159623618845
-6.45778681089487
53.505443055889984
109.49490866175555
63.25740011727558
-31.598691695873267
-36.77497167594742
-23.40499450228423
-81.22307906292569
-76.4396137684533
25.48230826016109
123.77126507037359
180.84179234469656
117.9756449671639
-38.74188703194841
-69.07385071579037
3.0569917158268582
20.12693499003726
16.26038953209395
-20.762539155252156
-66.58772171626137
-25.439657645114423
4.808020201109008
-40.19807931540715
-47.025119083762576
-64.61020658378197
-110.03596231987815
-47.66751816161074
53.908105851159775
35.87598645445273
-61.04620250715715
-74.58626959151582
23.31829288843409
19.159302448596137
-49.07401776740167
-17.57919070438005
5.994686881987762
-9.360668591141867
-41.16362999463558
-28.989470863271634
32.67763306457355
49.32597931264548
-59.24910032674355
-93.72672185724514
42.52470934914264
85.10275734687774
66.63666659545129
36.4552375926231
-24.639753704865317
0.9413547000501624
17.63269171080874
-28.566580983104267
7.559798155230395
51.209821102366924
-0.19175445808445254
-96.28588443990125
-154.41718705091796
-53.94125181507841
39.716189346258915
-12.065929883491204
-64.01315474986632
-105.01669230366868
-90.53651932013113
-92.17502006749122
-117.05198222908737
-58.61274076969414
-26.972051440578312
-54.437221123024926
-94.36115573693962
-124.58858424827848
-118.66694625494569
-27.747494840817957
-3.212829216470382
-83.39390962494097
-134.7837948329046
-112.48248087250025
31.608056154935653
180.32707616874953
173.22743411275056
80.19286685456618
51.38134897229666
30.596310201749088
-6.423708134116611
35.321175184523234
63.17815242299358
75.29918524394445
126.72581643539361
94.244036025063
69.8036047355282
87.74931543217038
27.48686162678261
-22.501500217287894
24.80596488935157
22.23030647789514
18.48189258435843
92.74466929164959
75.23314852684175
42.42436978719675
32.442262546687346
6.405423272810306
-56.71912314472509
-174.57479582047822
-141.54984180511718
5.154871805502767
27.78705730345253
15.69819783176319
-2.799950650630796
-38.14014063928147
-38.29336996471635
-17.189209255946057
72.7648700234671
124.09800346042246
76.04370036043603
40.893143418053626
44.186507735198006
71.04620947774492
95.09555982691244
40.24192854008382
-54.074109521460265
-104.21008337085453
-32.352576770809414
43.356982631486765
29.15761032431683
-12.187844103679375
-120.68498991489055
-176.64445309838655
-77.40246043218939
56.826436984233446
115.99949391168556
76.39401740252036
-67.46125175121712
-166.26638730576502
-148.37047155156316
-75.07198010509767
58.722374641138764
135.91707056987065
48.899860810447514
-35.408580326963616
28.98011044479428
154.4917439301375
183.1145672763546
