AAD_Filtered_TADAS_FILE
AAD_BASELINE_CORRECTION: BASELINE REMOVED
AAD_FILTER_TYPE: BUTTERWORTH
AAD_FILTER_ORDER: 1
AAD_LOW_CUT_FREQUENCY_HZ: 0.025
AAD_HIGH_CUT_FREQUENCY_HZ: 40.0
EVENT_NAME: 202302060117
EVENT_ID: 13194
EVENT_DATE_YYYYMMDD: 2023/02/06
EVENT_TIME_HHMMSS: 01:17:32.00000
EVENT_LATITUDE_DEGREE: 37.288
EVENT_LONGITUDE_DEGREE: 37.043
EVENT_DEPTH_KM: 8.6
HYPOCENTER_REFERENCE: AFAD
MAGNITUDE_W: 7.7
MAGNITUDE_W_REFERENCE: AFAD
MAGNITUDE_L: 
MAGNITUDE_L_REFERENCE: 
FOCAL_MECHANISM: 
NETWORK: TK
STATION_CODE: 3131
STATION_NAME: 
STATION_LATITUDE_DEGREE: 36.19121
STATION_LONGITUDE_DEGREE: 36.16328
STATION_ELEVATION_M: 203.0
LOCATION: Kahramanmaras_Pazarck_Turkiye
SENSOR_DEPTH_M: 
VS30_M/S: 567
SITE_CLASSIFICATION_EC8: B
MORPHOLOGIC_CLASSIFICATION: 
EPICENTRAL_DISTANCE_KM: 144.98
EARTHQUAKE_BACKAZIMUTH_DEGREE: 
DATE_TIME_FIRST_SAMPLE_YYYYMMDD_HHMMSS: 2023/02/06 01:17:37.0224140
DATE_TIME_FIRST_SAMPLE_PRECISION: millisecond
SAMPLING_INTERVAL_S: 0.01
NDATA: 12501
DURATION_S: 
STREAM: HNZ
UNITS: cm/s^2
INSTRUMENT: sensor = GMS+/GEOSIG | digitizer = 
INSTRUMENT_ANALOG/DIGITAL: 
INSTRUMENTAL_FREQUENCY_HZ: 
INSTRUMENTAL_DAMPING: 
FULL_SCALE_G: 
N_BIT_DIGITAL_CONVERTER: 
PGA_CM/S^2: 153.960
TIME_PGA_S: 
BASELINE_CORRECTION: BASELINE REMOVED
FILTER_TYPE: BUTTERWORTH
FILTER_ORDER: 
LOW_CUT_FREQUENCY_HZ: 
HIGH_CUT_FREQUENCY_HZ: 
LATE/NORMAL_TRIGGERED: 
DATABASE_VERSION: 
HEADER_FORMAT: DYNA 1.2
DATA_TYPE: Acceleration
PROCESSING: Automatic Paolucci et al., 2011
DATA_TIMESTAMP_YYYYMMDD_HHMMSS: 
DATA_LICENSE: U (unknown license)
DATA_CITATION: Turkish Accelerometric Archive v 1.0 - Disaster And Emergency Management Presidency, Earthquake Department
DATA_CREATOR: AFAD
ORIGINAL_DATA_MEDIATOR_CITATION: : AFAD - Disaster And Emergency Management Presidency
ORIGINAL_DATA_MEDIATOR: AFAD PROCESS SERVICE
ORIGINAL_DATA_CREATOR_CITATION: AFAD PROCESS SERVICE
ORIGINAL_DATA_CREATOR: network: TK
USER1: GuestUser
USER2: 
USER3: 
USER4: 
[...]
-4.817367228845778
-5.6703554811821855
-4.233669891112106
-4.306090832607168
-3.6516589237039696
-4.566550212290611
-2.1742307361369964
-1.3161977901387685
-3.2918174238901945
-0.6395629084998556
0.7594042423630594
-0.15308826781239218
-4.546107434673704
-7.526508369572883
-4.858564737164532
-6.509258850609537
-9.018199743517263
-5.688115240817574
-3.0980992104351026
-2.6818850817656052
-0.08101216687300357
2.866544597493301
3.097770329398172
2.7892497881420133
4.22270864018033
3.256840495079802
2.3164422045804187
3.667553939223224
0.7418372859345308
-1.1366791071360849
0.43360513703084436
1.1268560833529084
2.988250374260699
6.89062580173022
9.472704924274376
6.718603325704393
5.599389754419587
10.148231667778806
10.192119610695451
4.803874609675122
0.4252719578568388
-0.1346608479987913
1.464145814379565
0.024158999451236177
0.946443359974417
1.1797653482881711
-0.13296700380944726
4.853320310246585
5.342310908335714
4.334859475229423
6.316805245917939
8.010183190165177
11.430230978165175
11.583295275660998
10.585126488626223
8.253236053202153
7.515627040527564
9.833436278464504
9.177900065570697
6.524234369934508
5.310320685933007
7.04304866849553
5.240568474321419
7.089962641638408
8.734685212405523
1.936252162855063
4.29677371267454
7.218831655915358
6.1560128486078565
6.0374742519737845
3.717337193095852
9.603569075125053
11.630801272719815
11.714022877363181
14.530642027341063
8.657863101318414
7.824102366778891
6.821371695360079
3.664473085349614
3.244821273135528
-2.078935227716053
-6.824546278519017
-11.393842504944303
-13.80400506753151
-15.109633494438487
-16.86629482128583
-18.021459776125166
-22.127435313246284
-22.35991605915667
-19.220479882791143
-16.22673697142094
-13.036094145498692
-13.63299474160259
-14.558760045194237
-11.481824582688676
-8.955463402167295
-5.940946709514749
-3.985740213538044
-9.636184742457791
-11.965662741850858
-8.751400613469796
-7.1426900033570115
-4.344332749731447
-4.300721103285522
-3.8589215373136616
0.32722617310471114
2.8949788360948734
4.5470083999947
6.992126884456503
9.889463584033905
8.241555221238526
5.33845853012641
2.32443946180259
-3.2321550388356277
-2.9537518387584383
-1.7185502568790028
-2.2691476140734665
-1.5525193233868466
-2.3976218745946407
-1.0111071260520568
3.7441517915925386
9.232619915206325
10.820147388974865
9.73070620193639
10.754046042826463
12.268403540100502
11.927117329768349
10.005684555202665
8.62452457098517
8.875983449735342
10.477157858715502
10.615978350333647
12.980768205802782
12.600126511385012
5.575966343549531
6.174414195320121
10.73539639964212
12.850390159788466
12.206393558789793
9.359224935768548
11.184244733935074
9.566798961577781
7.117664142804887
8.888418708950994
4.137901419089645
-2.0544937880159297
-4.022103413192618
-2.0895088236557235
-2.0700437137218755
-5.990988264064165
-5.472145546038041
-4.827212727966311
-2.70984269247288
-1.5328099456112667
-2.816844627566694
-0.0746001258854464
1.1581370728924163
3.566466873481605
3.831798102020662
2.2735281988587426
6.578386997498233
9.729686809170685
9.000867263025826
5.361129112479415
0.992933049394769
0.2868569040020159
6.319511128247099
10.357757626532013
6.204270075482467
5.354318699475386
8.101954631934861
6.9347060254035755
4.439992913325753
3.710755241437628
-1.0928192134466042
-7.14179352023874
-10.169350527588502
-15.427091242280408
-17.658638257674053
-19.28754981381703
-19.376689244346434
-15.421796232871209
-15.43612467443421
-13.492665461416994
-13.749911096407327
-15.728656796005648
-14.04891279057943
-15.06184182320145
-12.89045546875602
-11.397779511885764
-12.944150019420226
-9.999625943604785
-5.929154954666366
-1.9673428626768314
-0.828540795974576
-2.1322260802678477
-0.026236052380472812
2.318777766213241
2.385122534954613
1.3778124318880232
-0.2461458396993829
-0.8623876929142145
1.2025386220411913
2.547445766600652
1.2308729361110078
2.2374270064969894
5.1591040601660465
7.436757057783271
10.821239392168291
15.047330686211307
14.941018380004547
12.712492760779293
11.436608041751393
9.815077344126133
10.005300602535744
8.80485788005329
7.442751053691033
7.629521391621011
10.13061826164427
15.160653992819256
16.34614685311491
13.37017025095208
9.487767874260648
7.546400197880155
4.5688603356434925
-1.1618868808567093
-4.981858300183231
-5.054596783380599
-5.77525847608544
-6.795041050062626
-4.034716625851622
-2.894660504270029
-1.778211887359523
-2.0613705529476096
-4.494124783000742
-3.0952638480368493
-3.327881268302668
-2.5363050454719596
0.3371150795139618
0.4611677054311122
1.6797730367141377
3.932210402615003
3.750258405493933
1.6080798679211343
2.816102562027675
1.6112179016027528
-4.855075837756228
-5.410433450225148
-7.406450657678944
-9.298565958081333
-5.700352784792721
-5.687614993242151
-3.7753433222846056
-3.796018515464552
-4.213050756358565
-0.5100131930492324
2.3020729182077084
7.099837587414418
9.321110598413823
9.648529778118414
9.224033743922481
12.384884826937801
15.734659098785153
13.022045462368405
15.64461069726422
16.77437680906336
15.494891308785903
16.14409801734269
14.19488594277889
13.496641913075202
13.534061210216212
14.928950348353755
12.333805254478948
8.098546796591297
7.977730184995007
5.795617216340034
5.029987871268649
5.282213375936463
3.3592051305958193
-1.358234281193082
-8.738849062226633
-12.596089699568788
-12.479586615466932
-16.611538703776084
-18.61768017978682
-13.585091542017848
-20.14350489806256
-25.57469142725597
-20.694607269403775
-22.05588728952163
-20.878531223358607
-19.72686481066821
-20.563985641213062
-15.986470749813394
-13.768935681696561
-9.6094216979526
-6.278242772861955
-12.62298668305514
-11.324901615052969
-4.502084549558927
-6.5005686697321785
-3.524207695363144
-0.6904698039739683
-3.0584273213092446
2.3830481117141122
4.806985934301553
4.220487016372297
6.82605812924102
8.519095188188944
11.267425973742625
14.108394638221947
19.26025574320748
15.517249804340405
10.391407660298604
11.977715045066764
8.443040940111743
11.242730132007768
6.21437428280481
0.013160807844798983
1.0593944265884616
-6.3166173139079795
-2.5612553525468833
-3.9633309033723783
-8.079734411638121
-2.106937485908029
-4.982778110954944
-3.9879511139677004
-4.426800891423745
-7.585159803153924
-2.523366657436615
-0.7607485163475537
-2.267402289043504
-1.1427662308114883
-1.7407790552576365
-3.0713399869129008
0.4873314194203558
1.272987772872427
-4.515810411675403
-6.743765178124389
-3.285106959544587
-4.040827570270286
-2.54892107428228
-3.405610474987552
-8.847563798862906
-0.963487956637607
-1.4274584164777266
-2.5465455467578018
-0.11845985949814258
-4.083888195378745
9.209581052865257
9.023286543029949
6.453281597584738
14.823459432283636
6.7014548588035785
9.089133993899777
12.417862772018312
12.85759251580603
17.903727104161288
12.730557460100316
11.616598913589673
10.061402939383347
5.990016663089154
5.5269381809240805
6.93061981896535
13.385098614098556
16.444789849249638
18.907066640530726
24.680985737593645
21.97190968656072
19.318844945867
24.478621076609436
22.889198440819644
16.08563224275001
12.166477252621009
9.185672388845786
5.434575705425423
11.507962988122394
13.73646196012922
3.682247540541412
6.294556927971899
4.537564217188691
3.609474664780209
4.981043598432962
-1.8806056793800399
-0.46365786293339656
-7.984218988231904
-8.978051291372307
-8.213899488891483
-14.991859306969776
-5.575015989559285
1.6803672904302225
3.4061144574551454
9.968696494339529
23.445403699088395
27.274831368148643
20.030930863172703
22.96187579636486
29.24023864991801
26.31986572771289
13.052001560908398
1.4754023892797048
-6.277439441265459
-4.180945627868961
-1.9664420189926386
-3.4233780246363796
3.4278303513909796
-1.7515786168842844
6.182606348488137
10.033803133779164
-5.532019834109715
5.343543006373788
4.448023271276758
-1.1144737276904053
0.4153056400422763
-6.574366344544007
-0.9685194915835598
-5.612156275903039
-2.610601041774122
2.032507083071088
-6.475662894921509
-10.016052711749401
-19.152874412107376
-10.79062638321301
-2.1089896493805247
-5.340765906613325
-7.791031424169818
-8.827965672946714
-8.343010652801656
-9.576174346937774
5.586906398319468
-2.8730520059432627
-14.91205296077704
1.6361759000074347
8.979864772459562
10.541125190546492
1.674555998833226
-3.9755389578571685
-4.474670220990379
-4.584473746602518
1.809550028156232
1.4995435312614789
-6.318749352839151
-8.142443702031676
-1.796161408029798
-3.123749393419931
-11.142875539011834
-24.72488479539301
-10.348888110423202
2.1643181285244673
-8.12821900165762
8.478613518942222
-1.2486802641744195
-11.801782530012632
3.9358281164994007
-11.534122728767912
-13.100456524619139
-11.896869960392962
-30.297279268718224
-14.509323548725085
-3.1688503529411562
-11.570564897034899
-4.792575556378979
-9.301598523091052
-13.477278929003775
-2.056881735622333
-6.611004389503619
-4.832521353418716
5.260566350888898
-14.054016649094011
-9.225827907895951
-5.951498844016247
-18.06032770186531
2.953707802170015
-8.813225206588744
-5.959835315864999
7.096330891256909
-11.099406075696729
4.043835960998454
7.682680372005442
-0.55742016783193
2.4136190125021475
-5.019232986201767
-7.163106217070038
2.2732931734604143
2.8632330215844655
-6.206348452148788
0.13069282244158462
6.04557253094521
2.6245822358842448
-3.7375712010184943
-6.340213069284723
-5.128417257955009
-13.67902873686658
-9.308105806974995
6.039681243223643
-2.51175405764218
-17.7037258025497
-15.309601660924546
-11.873026774098307
-12.533678353118702
-13.745084312277406
-10.933539495979119
-4.1453692032724305
-2.769346662155285
8.217714335898034
27.27086298246698
18.393417729169574
8.957077418968183
11.09121567638051
-11.118806246822121
-8.32884242788671
-12.54740116426307
-37.70036371874205
-27.686134573569056
-38.476730392915755
-34.32178315516988
-10.991000827398642
-12.48219412425205
-7.957024650043529
-8.05705872984615
1.5541443908789616
-3.4600399458101614
-8.254001427003756
1.3658591534492381
-23.135048367807862
-28.115420672359264
-24.176867268368582
-24.9198150274572
-30.445227312793087
-48.41162504562984
-19.506296387943923
-22.37518204112174
-36.28543258660328
-12.339636899665207
-26.73507303083857
-14.434119854035407
-8.851503019385191
-29.176253982372135
-10.577429262410599
-20.071281545063798
-24.712091177285807
-9.88632450738403
-30.642819812365868
-35.74125727756076
-20.062947162801397
-11.784000614497181
-1.1030028305784279
-7.94025007892771
-6.053456801805303
8.26705157500511
-6.89261550620392
-7.8918108103246905
-10.97194088603808
-22.486433273441076
-13.063311557249962
-34.325776699280304
-42.02078637472928
-16.14775665191766
-18.21654035465109
-26.037712312004782
-19.2880858692269
-21.045996642137087
-36.03948064970084
-43.621049671925284
-56.49235791494923
-59.46663219830624
-40.844428341966314
-49.303067506445615
-34.399629194806494
-9.76139640553885
-21.398928371525205
-12.560243617032295
-26.08019440011529
-34.917106029914784
-2.629016990629913
-2.110762125567795
-8.647451097769707
-8.438745301093148
0.3934807175764133
19.184545953262987
12.842308061422651
10.437117883842392
10.54395344189083
6.707387708197278
15.214369120542678
7.441169056013592
10.296690863127846
31.10184133322616
38.60932674067836
53.44623213557981
48.6723181121977
41.878989377370935
53.171109652529516
21.562096527167387
15.43334196249119
34.40807149297379
4.959087584068014
12.115415555328713
49.724224532950345
55.685560911329794
50.0888987572919
51.084221146129885
91.29702447599416
116.61917697850178
91.54211371996247
90.82844090309842
80.8974009553897
57.26861508105855
72.02745341865106
79.23432771759852
80.9878455537247
111.24430595101185
140.54702426728716
123.36029724188808
111.38355580219853
130.39147469253476
103.02013446638824
80.54356450010431
85.33480070498035
61.062085529747506
48.85000046513073
33.45634806021855
10.559136885268236
29.223009401060924
37.137114655583524
20.84890096546787
21.536406827667044
32.241316961312194
42.92917015193174
47.16214596843129
64.06407009842037
46.51167232258799
18.68610811216805
66.02187596166732
67.09270596263944
49.861444522449524
72.87172431841155
44.265982549039265
29.653753615874404
24.34870819388152
-6.832855243066475
-34.34395034169819
-51.850751798727664
-33.09253852673589
-16.393705717129812
-10.884705811337513
-13.092225170031604
-6.231992463588922
24.81838124551858
8.35936115077016
8.94505946164595
28.129152430184536
-6.397955803732678
-1.2156026111038338
-1.3397817788976756
-27.680361392761817
-23.620945606235324
-48.1567171706562
-60.68054256636828
-50.488241352784726
-69.97566132320308
-83.20989602979255
-85.90767645063978
-103.01901892970491
-120.12653746055356
-140.26672853084
-155.02189975096167
-141.58402633384674
-132.80388889662305
-132.57969876313388
-122.33918511228993
-110.42061532485117
-95.15243747820323
-88.89086907468686
-71.94863358299897
-40.884397379683506
-38.04662693715792
-11.350331296215568
28.829547024053195
21.82425986321306
23.43675938676914
10.716744992556594
-19.44948409768844
-33.182571822022545
-47.87575593200844
-15.835649963119154
2.5045088261880513
-31.05872594509472
-40.11697656288749
-30.092482813045905
3.755640905218544
32.83995869643991
10.057095362926743
-0.41309374769353957
35.87631123629957
39.36454998835837
9.608787863557959
35.261935032806356
50.5329407458068
24.789420723411034
26.80046532356152
-1.4058540278112819
-34.45577063823753
-24.566585246337226
-16.160516478059073
-10.691380935212049
-44.6230546237835
-74.35940148176218
-62.19863893813485
-72.888857672045
-80.17909046046098
-67.42447249512504
-50.35389851261585
-47.686934661391774
-84.58067131567178
-116.95602008006402
-104.37857066938602
-64.49279909178037
-51.672972219285576
-62.9411767252012
-54.15206989529999
-77.06732287430138
-101.89432443053326
-6.112904771512299
72.5084660169787
0.7990889529163678
-54.5104107997853
-10.76214417267669
38.91538230583825
27.0905774467756
16.368215394776616
85.55397845355078
106.63295366804023
51.408340934888436
44.24716687322378
21.34281742160493
-23.81118672670238
-11.311631400800348
14.434579619088789
72.04460647110524
129.52561267922835
78.18341075978738
35.908884689981164
79.80013055437877
97.82643875471939
101.29809110740209
124.98564391008193
109.35719787907769
80.25732575260042
103.77675251550711
85.44889896263783
6.323637625616079
28.94474515077978
80.99443668759598
14.892616208171484
-37.19563009435669
20.859784273483516
59.29734828970194
50.322624351302174
29.351260955396405
-49.42530035861521
-44.485072694511935
50.15532100493837
-4.06923376378963
-99.63898355979545
-86.44459037691092
-85.80418403697311
-77.81008198520539
-30.44638311895641
-52.15561205967215
-99.90923063320933
-100.03400386654982
-88.51795338318001
-79.71292508390546
-65.78738205263392
-38.37534795885342
-38.78231278270606
-44.66380329401742
-10.576388297221238
-1.368214737905926
18.96085222392607
51.92740941867034
51.322783472149766
61.81614837893143
64.85731460174895
78.07374876097266
97.61551086919113
87.1039465976111
112.57965585130897
151.9587069200238
118.67936217217519
51.23586391543592
18.302703960284603
6.840639560097426
4.8786142669616295
-12.781314491306842
-84.52126259985492
-140.61734982274797
-120.25326831930815
-89.38670218629112
-103.2890502718484
-105.21289979823291
-74.0794670780903
-62.052758644905325
-54.73968107033961
-35.8422626267328
-52.21839008196118
-89.21793185423769
-46.93966953707399
0.09899677787556603
-54.451220507576686
-77.47600859341925
-48.747739176371475
-47.94495062360409
-23.86391117453055
5.2229497323912835
1.2994836070981095
41.38290225658473
103.49916505373609
80.40062066686284
26.414585732990002
7.124993185706703
-3.949674444327102
12.444259647333562
34.75612850297368
20.78940567162185
11.855818755737793
5.436440608605106
-3.0660808683561034
17.43963371621541
34.120280292796195
60.00867089175553
78.05491093806583
30.653772524426028
-6.872633659776365
-0.3310351035094717
10.675730073123896
30.13370430240926
31.65738733435584
-4.041834943995469
-0.934694672758445
31.843008280692462
-11.9481490665695
-55.04578937437702
-28.583403291631985
-17.14977828320929
-13.022769948094405
25.632626187418936
51.2456416042458
17.970650831126363
-8.640258404891917
24.702244850729556
45.0492303648505
18.84231325896046
-10.798196366612842
-13.403784588045967
-1.6726286880583432
7.416729351517212
16.323216442416395
5.942065189052485
-4.47681048223655
13.476040595398453
24.792925413712947
8.12413222845907
-0.4453558876122297
21.42408502988374
29.44605008108977
29.725505614800046
40.921429181685625
28.84453024625075
22.102401221915027
20.20250237080105
7.262911081719864
13.152326745897964
24.368075003859982
18.60336751068368
4.835407559922504
22.220184771606625
46.591144962524965
41.665159384399956
32.555384953750455
7.852729020310377
-4.979185184817005
8.404266929680867
5.814872082651575
-16.662900160257976
-55.44283541191638
-60.762730130101296
-42.69608136678457
-71.47661514455794
-98.42885276221602
-99.91412291176549
-118.32305422898203
-128.09400449130825
-101.0073167819025
-93.95248608161803
-125.22147972467602
-114.6777332244177
-92.06596819383178
-90.73238658729876
-65.96656426932816
-90.901447375773
-116.81193298131578
-59.71790403560211
-46.07137824769217
-38.36456266580234
20.826237280183786
9.780606059789568
0.7838609598601656
53.62431818337931
44.60409734759179
19.0406637350951
56.3474126008497
74.02424567044399
40.356078317184625
18.90739651349937
14.68951350720125
-9.797121614782123
-23.74413093658268
-24.55298150327598
-36.446544649376506
-13.425803397310075
28.95477091879354
26.4774778177651
-6.152633293677427
-11.890800025870458
9.785240386456826
10.687869898917233
16.292970362192325
43.61904374890694
35.097488019121755
-7.154145729065987
-38.713530531181945
-42.16770963136384
-27.197081972610903
-23.36329712625167
-34.92045352433141
-32.865623936929225
-36.6570818784462
-54.57806701776488
-20.27302646237208
12.213652753226409
-36.9543868516244
-27.652059353415073
76.1359007471332
76.32373851920424
37.24401121356183
81.517906790441
67.05257424470436
44.65522951363552
69.68368228153705
35.31011587826101
22.752531791231682
40.55735318056084
9.279914507441548
