AAD_Filtered_TADAS_FILE
AAD_BASELINE_CORRECTION: BASELINE REMOVED
AAD_FILTER_TYPE: BUTTERWORTH
AAD_FILTER_ORDER: 1
AAD_LOW_CUT_FREQUENCY_HZ: 0.025
AAD_HIGH_CUT_FREQUENCY_HZ: 40.0
EVENT_NAME: 202302060117
EVENT_ID: 13194
EVENT_DATE_YYYYMMDD: 2023/02/06
EVENT_TIME_HHMMSS: 01:17:32.00000
EVENT_LATITUDE_DEGREE: 37.288
EVENT_LONGITUDE_DEGREE: 37.043
EVENT_DEPTH_KM: 8.6
HYPOCENTER_REFERENCE: AFAD
MAGNITUDE_W: 7.7
MAGNITUDE_W_REFERENCE: AFAD
MAGNITUDE_L: 
MAGNITUDE_L_REFERENCE: 
FOCAL_MECHANISM: 
NETWORK: TK
STATION_CODE: 0214
STATION_NAME: 
STATION_LATITUDE_DEGREE: 38.028298
STATION_LONGITUDE_DEGREE: 38.22594
STATION_ELEVATION_M: 1353.0
LOCATION: Kahramanmaras_Pazarck_Turkiye
SENSOR_DEPTH_M: 
VS30_M/S: None
SITE_CLASSIFICATION_EC8: unknown
MORPHOLOGIC_CLASSIFICATION: 
EPICENTRAL_DISTANCE_KM: 132.74
EARTHQUAKE_BACKAZIMUTH_DEGREE: 
DATE_TIME_FIRST_SAMPLE_YYYYMMDD_HHMMSS: 2023/02/06 01:17:34.9180790
DATE_TIME_FIRST_SAMPLE_PRECISION: millisecond
SAMPLING_INTERVAL_S: 0.01
NDATA: 3908
DURATION_S: 
STREAM: HNE
UNITS: cm/s^2
INSTRUMENT: sensor = CMG-5T/GURALP | digitizer = 
INSTRUMENT_ANALOG/DIGITAL: 
INSTRUMENTAL_FREQUENCY_HZ: 
INSTRUMENTAL_DAMPING: 
FULL_SCALE_G: 
N_BIT_DIGITAL_CONVERTER: 
PGA_CM/S^2: 54.381
TIME_PGA_S: 
BASELINE_CORRECTION: BASELINE REMOVED
FILTER_TYPE: BUTTERWORTH
FILTER_ORDER: 
LOW_CUT_FREQUENCY_HZ: 
HIGH_CUT_FREQUENCY_HZ: 
LATE/NORMAL_TRIGGERED: 
DATABASE_VERSION: 
HEADER_FORMAT: DYNA 1.2
DATA_TYPE: Acceleration
PROCESSING: Automatic Paolucci et al., 2011
DATA_TIMESTAMP_YYYYMMDD_HHMMSS: 
DATA_LICENSE: U (unknown license)
DATA_CITATION: Turkish Accelerometric Archive v 1.0 - Disaster And Emergency Management Presidency, Earthquake Department
DATA_CREATOR: AFAD
ORIGINAL_DATA_MEDIATOR_CITATION: : AFAD - Disaster And Emergency Management Presidency
ORIGINAL_DATA_MEDIATOR: AFAD PROCESS SERVICE
ORIGINAL_DATA_CREATOR_CITATION: AFAD PROCESS SERVICE
ORIGINAL_DATA_CREATOR: network: TK
USER1: GuestUser
USER2: 
USER3: 
USER4: 
[...]
2.9106547315364337
2.1447877800194095
-1.0922293625197348
-4.457529143610081
-6.90493600692375
-8.640537354692707
-8.926939572217316
-7.637318037427592
-5.039220110637124
-1.662508068440552
0.5169864544946818
0.5111185199371246
-0.4013381016210646
-1.5874832866101547
-1.6963778107485619
0.09463816255958969
1.909933103275813
2.80398538530992
3.226552141866561
3.7194680524871684
4.421225535366699
5.329777143794331
5.597455514076684
4.021505355253378
1.433299395034986
-0.870825146755936
-2.330342480448256
-2.451308089908896
-0.01101272477150636
3.9654617619062753
7.330574787337192
8.143775315096917
5.235184551205782
1.464254174300517
-1.3438126778632304
-3.740896096220065
-5.080292061473826
-4.713069736088269
-4.2173021666547506
-4.589594610197442
-4.78445598099521
-3.9540887038664896
-2.483704204148191
-1.81096730942316
-2.8594560857065936
-5.293877942365735
-7.910767725729444
-9.868688628048956
-10.678120795258641
-10.47302306552715
-9.26622360286206
-6.077272344327177
-2.345664396620939
0.8699774019049855
5.112650864406649
9.522836654896116
11.79208138420888
10.592713079844504
6.003095553690402
0.12965020059223964
-3.7334368529242945
-4.071880323298101
-2.5349675746454623
-1.0915976342823803
-0.5572628502767598
-0.22615134292087366
0.7807060204672794
2.3421188501113717
3.9428595790131844
4.171526258539199
2.7063015813535505
1.0848375200313396
0.35242990530310714
-0.16282307473456303
-1.2224814133800763
-2.359898605359243
-2.2572859263839793
-0.4286203030696777
0.5648895199465385
-0.08790224223973508
-0.0323824728865037
0.8013886062280928
1.6400576274963068
2.9344466260331616
4.392180421857623
4.874838511833003
4.1409166951298815
2.81829650532374
1.6012274325111573
0.6902506600842684
-0.35700769494278867
-0.788543727867394
0.8799182750548677
4.290057004435484
8.038399004084136
10.43756208592292
9.729174617151957
6.542594271201677
2.2178594253908996
-3.2135611774811332
-8.243161127649417
-9.680275850252794
-8.660881342218001
-7.780253269127401
-5.30666299244339
-1.3364641674045044
1.2105690887603349
1.157432224711804
-0.45997698456651925
-2.433396123729844
-4.842161403230477
-7.597247718349126
-9.603579348575728
-9.525949707896194
-8.216951686827263
-8.45293160932373
-10.2664125484566
-11.734284533175037
-12.577398466363682
-12.84908853896096
-11.421090928444947
-8.098223510241148
-3.1484065344376795
1.266598065869182
3.565692327085889
6.227011743966915
8.607004545250547
8.063191565174455
4.678925709124479
-0.9610885454853937
-6.970275536012423
-9.080088118271233
-5.556315009897826
2.105234310136803
9.789726838572188
12.575101039307665
10.106792573659073
6.373316700196303
3.4104847713333326
-1.3081501628100338
-5.944039811492042
-7.403546753727568
-8.299394587577734
-7.644862566986167
-3.600070615031785
0.6905542542304333
4.121376333558122
6.2683591577482165
7.825478342216816
9.785962689274392
9.746357409087773
6.864050990086094
2.1653902144023194
-3.7390472966591775
-8.751416396341908
-10.225343555353266
-9.224154214052831
-5.15754389509382
2.7513618566125366
9.121119207993871
12.18109875311076
13.09856896830106
10.570770115492493
6.773508458854763
4.33609227032389
3.298322968068691
3.5302606236195766
4.877495288846141
6.420500247688204
6.989665288635032
6.546866794853124
5.171208938363363
2.6947067082267115
-0.06007960116759767
-1.085254171420975
0.16494503587812914
1.1164973534118565
-0.48927280250010396
-2.8539728113217464
-4.166901437868991
-4.264903787697445
-2.711357889496801
-1.2783993150099422
-1.0789481935578036
0.08721413914572083
1.663361439800857
1.5341710038404872
0.5428169340407241
-0.029210773757126808
-0.24229908164210462
0.6351474846042696
2.9783576520260238
4.839520625846997
4.962627929021225
2.9686992425808403
0.4860802560675309
-0.21057931013190306
1.2667577805508001
2.627376652039891
2.7741569161616497
2.4169765254350604
0.6945535670362096
-0.5104300418470573
-1.0453898282306957
-2.302408389472235
-3.593785805397492
-5.1729225821884635
-4.73453211310829
-1.1063685321239074
1.9964050884894928
3.307805754276092
4.626965313286491
5.062763890800839
3.5440933037716715
1.2889998549940567
-1.1931658935752179
-4.3941729706205646
-7.900421876788985
-8.572754760297581
-5.413706475050979
-1.7727398857628898
0.39243861334813535
1.2060179333270578
1.4388109447770345
0.9146212977281587
-1.0030746907904784
-2.293200322225875
-2.1633460642872495
-2.285569274255997
-3.173527496026985
-3.901373620751334
-2.7683459481589376
-0.5946924826132244
0.1772878320108226
0.624970146781634
2.0955779652155107
2.1091342490748413
-0.8243362615686461
-4.093921439207147
-4.711645958986497
-4.158944992285241
-5.558351091407277
-7.714298145232493
-8.405273292872415
-7.327026309647423
-5.516175746438108
-4.298473832268969
-4.704901462535804
-7.905405581458499
-11.449115824832917
-12.483425150112632
-10.079734852739543
-4.3837090156176135
1.0834509620985904
4.566515747663653
7.399632859820512
9.727444128632293
10.509547083371114
10.109799844592787
8.582081615766924
5.169735762415692
1.2942208588864728
-2.4825782142218875
-6.362426411344658
-8.998452427383677
-9.308269271069124
-6.998190457855873
-3.8518097567854346
-1.4330248045870522
0.31311554463036456
0.7259824119439049
1.2544983238736438
4.173962527415237
7.890683980517546
9.012230217674391
6.257997742507579
1.6940044202503894
-2.1848630500332544
-4.544933749942497
-5.715399319540053
-5.969935692207018
-4.319310733746714
0.5739405000009967
7.4223792052067115
11.971225892372173
12.831652897207407
11.377244160852749
8.830301731493703
7.207298287390639
6.17572673713693
2.211545908007107
-2.6953634798054593
-4.836655472542633
-4.649345671149822
-2.8354604652610638
-0.6439345255591878
1.600619789475009
2.872911162162689
2.870360881551395
2.1142951794983347
1.0846387886622344
-0.8304610377768752
-4.39076610804133
-6.6908393841802605
-6.214826399975296
-3.677194560539185
-0.48056612735439247
1.2206240333117722
0.5274039936059874
-2.118619796316278
-4.080669358446135
-3.504877022463335
-3.6157708042879686
-4.941777802450094
-5.5344344013349245
-6.303549983950025
-7.860697563371287
-9.978390560415985
-12.5131691660627
-14.879134865607876
-16.59789236600673
-16.825912925335878
-11.932926344913644
-3.118624305891924
2.6000949845401538
3.260494151565905
1.706640430928049
-2.0259322513930282
-8.00225991914064
-10.944855079408729
-8.080345972039003
-3.384354013056194
-2.909577743278366
-7.108292027022564
-9.655175231719689
-9.21127067141823
-8.545022430431386
-7.956391018037167
-6.732439945355123
-5.191703941362559
-4.536324917857349
-1.9068383916855205
3.2768678698777784
6.7023842983286865
5.605430214358815
0.6901097335779225
-1.6226448073264765
1.2330021359055152
4.92333079278303
6.602655146768446
7.0739762667090185
6.769642426444052
4.319360969742722
1.250400579826927
-0.5364045426178099
-0.8426666238086818
-1.476295677879193
-4.137265367498054
-4.6195359842036705
-0.09370075770300543
4.451809564104721
5.862002340959188
6.569358484927221
7.85701303530282
8.771738894556776
7.424111249114678
3.107721393886329
0.1612675785030795
0.3053214969693473
-0.33476903981991135
-0.1641481275956625
3.0946993991878173
7.073981403786912
12.591145502544675
19.209153244774665
25.159191360407593
30.491064745418573
32.15529805473903
28.773724987799042
23.216496870578258
19.100342869683175
16.763068225777698
13.972754494598943
9.89071291256427
6.9014690579508144
7.135278520411021
7.6179359216712745
6.125028914729127
3.87593699264578
0.7840235659081487
-2.4312239973702514
-1.1937470445674112
2.848752508976388
1.362960793539857
-3.7047575439472444
-4.381295171051486
-1.6364793777844444
0.6630525054045876
5.742385404720557
14.629246468179227
17.987813286440833
14.882098075048496
13.343023150816485
13.132863270972246
8.925996556392418
0.3664386817688155
-7.194388820577798
-8.220020891970519
-3.5841234986109716
-4.0317421421563235
-10.017504834405072
-14.2535262610111
-18.607663107721557
-23.04190468711933
-24.86915785750266
-23.026878117620846
-20.470537564139963
-19.932644079145465
-15.797789755565022
-7.874571597643468
-1.5242030419916814
0.5249561248860175
-1.1488702497315175
-2.054369283221407
-2.8880099593878
-3.8715624039300365
-6.304568162681275
-15.74708566718347
-27.546764471634326
-28.45064661407849
-20.60095589427907
-12.46206423329873
-3.7311831792529757
2.6701582440730234
10.276365052206117
18.52321017193451
19.027810627813146
14.836695598863544
1.5528777814330048
-21.82141872984921
-36.832361776143046
-39.732352664562285
-35.95254876731955
-24.65179413926294
-9.424413211294828
3.0324511658396602
14.044290899664524
24.64752233720695
24.83964450670248
14.458910366463948
3.940332468603573
-0.4187834030843082
0.07941503162433702
2.517709026889726
4.013855969205092
1.014671119829024
-4.226361898100419
-13.161503223062908
-25.27132961279115
-30.82843775128244
-24.959912922379377
-17.352917809539754
-10.242318295738587
2.076887035981876
11.597592434438491
19.10571142995482
26.259669657363936
27.576972262412255
24.38738638187015
21.631243820709894
22.055737549221373
23.805045813811933
26.92014105011959
29.02618701920201
22.328137442413567
9.003388982449492
-2.666301906162396
-12.974720074690529
-22.428367569608767
-28.468106718474253
-27.743195443386274
-19.660383602304325
-6.201034125518855
4.44813829586734
4.878240076363893
4.615390306208036
7.153736713742003
7.8636289313522045
5.986142951442277
0.5943200724740153
1.7983238687813854
12.268758113210334
23.458395583276474
27.35420479501296
20.132550369398203
3.2207774759955843
-18.385180818023315
-37.54663079874988
-47.27922997817761
-43.18678989354452
-32.42675129865594
-16.80619724922671
-3.0910408658908075
2.492228551218589
4.536296172590174
7.147113500255234
10.527341278961533
9.04475720864081
7.077623429634914
8.75679633085602
9.957362154224366
11.022716892573026
12.958415003570968
8.163831922498261
-1.409841611458788
-9.522586393567627
-15.191663418128933
-14.051027124593686
-10.441146797775266
-7.7277891290228595
-3.1572264516692905
1.058121033568114
0.3512667672113055
-4.8842138902004555
-9.189154523607336
-6.592511309084647
2.6199532895411974
11.673955199742903
16.675248806622385
16.45020657849608
10.658873548148355
0.3334176672741543
-9.46744651167092
-19.33400281581031
-27.387652030752974
-25.532420631445873
-14.490544048769122
0.6252604103380572
11.45280077123385
18.58869995522583
22.31974237633878
19.280162740987805
12.51948542733558
5.896408086148138
3.4082540554705196
0.15076122676839906
-3.78172819211032
-3.5847519791590137
-4.23217414521466
-8.246061065253041
-9.741667048776893
-4.730615487880823
2.738234382668467
9.886552854677875
16.428005978184054
23.0137163893073
27.544079077317715
23.80422829204697
12.816438077898615
1.2503774519449133
-8.050796038709489
-15.005089996742827
-17.792550165497577
-14.928218738607786
-9.484942561755695
-4.178408403337181
1.776669536151466
2.983268014369335
0.3609118438892986
1.676378843667469
1.8735755681477786
-0.4024302499380427
-1.6139370820859682
-4.4340890907828285
-8.64911740906574
-12.810458292422332
-16.12828230585168
-15.381266517421022
-8.555666368014709
0.008930228358946857
4.638318152491218
3.11564550760437
-3.210762388569295
-8.808289347787417
-9.768959343024132
-7.009372197607874
-1.030123794915212
8.004117928222637
16.13373800057281
22.037045468026918
26.50277907620973
27.231593090574677
20.783855858248412
6.8526199386096245
-8.770132588410751
-19.88152954723597
-23.326761577287296
-17.068445769925713
-5.306858440111408
1.904201165303517
6.192291097581124
9.227304995211975
7.449938164127688
5.773056285204951
4.23657175400255
2.408246920141937
2.1559576073531246
-0.31884429430825867
-5.363673676027578
-9.650747441369996
-12.785693172889175
-14.389883257619115
-15.223241796720638
-12.618315251264898
-6.599253793887333
-2.245519636934768
3.1216840458450723
8.669594497710285
9.349367388815228
2.923190482786098
-7.125256903966749
-13.351926941974169
-16.84757540985025
-21.131943584755074
-22.297180780877447
-20.19382984026597
-19.22198108313758
-21.044897652175706
-23.165108414692035
-21.183807705149103
-15.334683757591998
-8.583919084723068
-1.1745133980312459
7.796304593409921
13.489254797476224
11.149517473635624
6.686496630631128
3.8002028395397294
1.436542897364197
-0.9174484373656779
-5.39863594467814
-9.195986325332697
-9.14643078646949
-5.763477203712847
-4.6658440246321025
-4.645949650989025
-2.9736507098362237
-5.693234740603359
-12.268744493743467
-13.67234591466608
-7.295299701561532
4.086239920433751
12.53682821803929
11.859159790312532
3.9423046664151813
-7.930064063916498
-15.109609157951981
-15.304145119382747
-12.199029060258873
-3.302629784756897
10.477399778656252
25.478048531313558
36.08043836185509
39.516321596488204
51.15863536499839
51.29705391018919
16.25920567451903
-23.810037635242786
-34.384116442381305
-26.57859192154424
-7.640438059398894
18.566441500650107
28.963766120661262
33.32443687071596
27.496994104967456
22.783223923973686
21.896667701201295
2.572139028602061
-19.65484928876756
-26.850290488636134
-23.827389495832648
-19.125123645373233
0.258014650646475
19.708694222076726
19.92913826339087
-1.1396742147318817
-22.234482807876024
-18.01717960043204
-14.394394564612472
-12.664218883660531
5.236820991696911
28.068407567469045
28.031981849658603
11.264026054912899
-5.360173850540419
-19.142482672918923
-19.94898548921558
-12.639334571594144
-0.2050577661451492
16.973614274963765
26.769248688867638
18.92067532827129
0.2760645918114421
-21.68126521666631
-28.264604560708516
-28.168588319098276
-30.12782036123753
-17.596417590937488
2.813400812125255
22.87285075767297
37.20819323937442
37.25513477586517
22.026186020938596
0.7100971227795628
-17.702417995076996
-24.085579361486733
-17.25489707304305
-5.174439513990553
-3.8871920738097656
-8.831276082481658
-11.517773968269909
-18.987695835844654
-26.283828979387685
-31.045062724353652
-31.72376397734701
-23.40507871794545
-13.5171651647501
-2.307507379341724
14.181291523776249
22.815782127248774
23.910315147225795
19.07807323361935
1.9313873412079916
-14.850314498356502
-26.866860106648424
-38.838961818185936
-42.53326993672474
-37.26070785818599
-28.15462707562093
-17.239898818801734
-6.568357919025438
6.851179494360198
17.71843658996349
18.61943919453301
15.57524884773997
12.680165589570803
8.458413900376586
6.077839921200326
6.799415129881589
6.336820002664274
10.657987422968986
19.02497295634143
22.693835865830092
26.53063012107375
31.034346760979012
29.776948371819376
24.238870603273867
18.97995061552607
15.938995710304455
14.179516643711882
8.493585283513264
-0.4252291629446499
-4.490261563684545
-3.672977414407973
-1.4017699938398591
4.3999768731155315
8.478895236468215
10.30029359299182
14.68822465679869
17.344018381229642
18.91209969567919
14.804067755170646
1.878564487809368
-10.478305864778898
-21.47245177450162
-27.162037132748736
-22.239707784991705
-12.937819131565565
-2.6743679883324396
3.4522032476139084
7.56773451029527
14.74598118307021
15.284459471201512
10.982110911209269
7.772515273687959
5.498968675840227
0.6988805467576866
-9.740287902209609
-15.03250980728029
-13.743786147415012
-13.66134243084436
-12.596507339676885
-6.641597993166743
1.1834769786294557
5.577331056265622
0.2867999946542078
-7.76044491367965
-7.283013617763051
-7.235913054986684
-9.900166396414328
-5.634018276314738
0.26787352428282585
-0.7020431771247445
-0.5999245091664585
2.906329897149459
-0.5600515338907097
-3.54044680460412
-0.564866860719639
1.42060235004863
3.497039362590512
2.689866768335203
2.700475490960095
11.335462116295714
19.433990711827
20.963821998122512
20.185409497753906
13.986565018500015
3.910432472271901
-0.2827987935374631
-2.412559199398203
-2.660550695818776
0.8439374913380097
-2.0576272426375084
-6.556528535463578
-7.22996647970231
-1.917200541529578
7.196932636177626
12.855199518237736
15.617997251955819
13.02061423297381
8.726619236391468
3.3461491057512105
-4.901086741264268
-12.101633469624364
-15.538558993226562
-16.57225204031888
-14.160188512505087
-9.778076894001869
-11.171521188478149
-9.777195700359654
-0.10666148021736603
2.4372616742755264
-4.085534735116426
-7.633732344848754
-8.48215173937162
-9.305804214026955
-2.3721529952120153
6.6679267544679774
6.71817596680285
7.681961340198145
9.433532736426654
8.191569588837298
4.6248647466877735
-4.661463144243795
-11.989905700397165
-14.015901591166765
-15.686034912777767
-17.447318273683674
-10.921908731546546
3.845308446745818
10.034071707935997
2.638678272356536
-8.22960810547153
-14.055637782137978
-13.370527492417649
-7.281779867957452
3.004180099645986
14.842162713069046
27.26087782472875
31.590897422695587
27.059939994027964
20.49904819736101
10.04222833587868
-0.28523310729627166
-6.6254334408198154
-6.12410833721256
3.568249123205696
13.411665760185208
17.81087212481682
21.499168156737056
18.43865552757352
6.003556312861125
-5.50787242677353
-9.038048538118533
-7.232308657826685
-6.982420446612028
2.2154655098498353
11.124954049636568
10.04056724024648
11.163520729749196
7.650249857417309
-5.650873033503125
-15.512760200116531
-13.529930974467947
-11.776910802720003
-11.140105735331836
-4.546880983509629
5.1658684416989615
10.861122052347493
11.789084956034534
13.20262791898828
16.907002922283638
17.673020525437092
14.390229277676685
11.061423336256308
5.915564712278417
2.3185163987655035
-2.2963414655507415
-5.675976610633355
-2.947562884017562
1.3114841935692163
6.627565270145486
16.17853449529441
21.774039832045904
15.662067501605929
5.11578993885995
-2.3819930744498032
-7.283460267502872
-9.750714022132028
-10.190402937235586
-8.058749475413025
-0.88945281239255
4.853999075326829
5.810842627323638
7.639012171095725
8.466848349542877
0.39554233728668076
-7.307556697144043
-4.399766889544155
1.535634886629378
-1.6987235060128232
-9.015703966781626
-12.033481579825642
-11.268582111036565
-6.663313780443637
-2.1424500205499655
5.136431186235642
13.681218126279717
17.946213893795537
18.70536328662077
16.45558130877092
13.303009227207493
6.07564475856501
-6.829412224400389
-16.149031022382147
-17.782858891481514
-19.154292432668576
-21.448227670454354
-13.586680698462885
1.2098140585621393
12.189815467401806
