AAD_Filtered_TADAS_FILE
AAD_BASELINE_CORRECTION: BASELINE REMOVED
AAD_FILTER_TYPE: BUTTERWORTH
AAD_FILTER_ORDER: 1
AAD_LOW_CUT_FREQUENCY_HZ: 0.025
AAD_HIGH_CUT_FREQUENCY_HZ: 40.0
EVENT_NAME: 202302061024
EVENT_ID: 13207
EVENT_DATE_YYYYMMDD: 2023/02/06
EVENT_TIME_HHMMSS: 10:24:47.00000
EVENT_LATITUDE_DEGREE: 38.089
EVENT_LONGITUDE_DEGREE: 37.239
EVENT_DEPTH_KM: 7.0
HYPOCENTER_REFERENCE: AFAD
MAGNITUDE_W: 7.6
MAGNITUDE_W_REFERENCE: AFAD
MAGNITUDE_L: 
MAGNITUDE_L_REFERENCE: 
FOCAL_MECHANISM: 
NETWORK: TK
STATION_CODE: 0132
STATION_NAME: 
STATION_LATITUDE_DEGREE: 37.855892
STATION_LONGITUDE_DEGREE: 36.114868
STATION_ELEVATION_M: 761.0
LOCATION: Kahramanmaras_Elbistan_Turkiye
SENSOR_DEPTH_M: 
VS30_M/S: None
SITE_CLASSIFICATION_EC8: unknown
MORPHOLOGIC_CLASSIFICATION: 
EPICENTRAL_DISTANCE_KM: 101.89
EARTHQUAKE_BACKAZIMUTH_DEGREE: 
DATE_TIME_FIRST_SAMPLE_YYYYMMDD_HHMMSS: 2023/02/06 10:24:44.5985200
DATE_TIME_FIRST_SAMPLE_PRECISION: millisecond
SAMPLING_INTERVAL_S: 0.01
NDATA: 12501
DURATION_S: 
STREAM: HNN
UNITS: cm/s^2
INSTRUMENT: sensor = ACEBOX/SARA | digitizer = 
INSTRUMENT_ANALOG/DIGITAL: 
INSTRUMENTAL_FREQUENCY_HZ: 
INSTRUMENTAL_DAMPING: 
FULL_SCALE_G: 
N_BIT_DIGITAL_CONVERTER: 
PGA_CM/S^2: 65.332
TIME_PGA_S: 
BASELINE_CORRECTION: BASELINE REMOVED
FILTER_TYPE: BUTTERWORTH
FILTER_ORDER: 
LOW_CUT_FREQUENCY_HZ: 
HIGH_CUT_FREQUENCY_HZ: 
LATE/NORMAL_TRIGGERED: 
DATABASE_VERSION: 
HEADER_FORMAT: DYNA 1.2
DATA_TYPE: Acceleration
PROCESSING: Automatic Paolucci et al., 2011
DATA_TIMESTAMP_YYYYMMDD_HHMMSS: 
DATA_LICENSE: U (unknown license)
DATA_CITATION: Turkish Accelerometric Archive v 1.0 - Disaster And Emergency Management Presidency, Earthquake Department
DATA_CREATOR: AFAD
ORIGINAL_DATA_MEDIATOR_CITATION: : AFAD - Disaster And Emergency Management Presidency
ORIGINAL_DATA_MEDIATOR: AFAD PROCESS SERVICE
ORIGINAL_DATA_CREATOR_CITATION: AFAD PROCESS SERVICE
ORIGINAL_DATA_CREATOR: network: TK
USER1: GuestUser
USER2: 
USER3: 
USER4: 
[...]
-5.1242988051525495
-2.3659244149156167
-1.6544860166751751
-1.9019671891163243
-0.07022297797877644
1.255130195431043
-0.7580105715962001
-3.4995610407929774
-3.448604878198522
-1.5318318463818528
-0.7486636425059786
-1.812101286986806
-1.6362798266301548
1.6493877851718082
3.7612685949191875
1.8093507140488478
-1.8142922176735066
-4.062166698022212
-2.6900403989255883
-0.49713058953137906
-1.5490556475521409
-2.6298281336093434
-0.8178735613502292
1.35166791232521
1.7495773938643617
0.683919618266767
-0.2748938014371215
-0.9549438072353479
-2.4658901473434574
-3.8258138153438224
-3.9451855464820853
-3.80124342689855
-3.960662435756091
-3.978306460833382
-3.5128702537348104
-2.457440091110995
-0.9432597720902918
0.807000556438828
2.426355420173329
4.268917391679036
6.439229359717498
5.366131279065761
-0.16400340027688634
-2.92210684271193
0.2051979451547518
3.106242084495389
4.481980311369735
7.013860257222609
8.546556109654727
8.049827057841599
7.084903380737618
4.582266178214984
0.2607999149744276
-3.2260008355516736
-4.407801794191837
-4.068998135885674
-4.098861330616388
-5.2383735521342185
-4.274210265802808
0.07325008882803526
3.153136869724131
2.1677158862193076
-2.4482155826890435
-8.08351197767415
-9.125117607744416
-5.790530547565503
-3.047167766323948
-1.0929410876933219
1.255842493682999
3.435268931805647
3.4117975294782985
-1.4061805933442917
-6.513912498490074
-3.4957637692416843
5.66071251896746
12.028906454996275
12.776447393707178
8.452014160818104
0.6252476499828777
-3.2526000387230427
-0.3692697537872929
-0.051466317613699054
-5.923921676055332
-8.949262534765886
-6.335008367456255
-4.8723441033021
-5.174508295396008
-3.4796660494279004
-1.6142325310819017
-2.130175984544855
-3.0943526516715427
-0.7457755717125388
4.916745003160879
7.929903119618729
4.735789984606046
-1.2748977865401088
-5.146497539053652
-3.1224236125330034
3.594245135117674
8.484583697451617
9.25212200099663
8.641480584524073
6.5256431765748495
1.5420760257886317
-2.5271750599303253
-0.13369602197333202
4.7432550890474525
2.8641752026733394
-1.8703091079538539
-0.25089414599515125
3.620493214563327
3.599373019165492
1.3108475516056926
-1.2329601847637583
-2.0747902537984393
-1.1090322496685643
-1.5902986567364212
-3.2010047005932805
-4.254339698928716
-7.4095685354268355
-11.827304775735822
-10.5698566695925
-4.336578053140978
-0.1338876060105913
2.1981624102492554
4.380513988874447
6.062283090377056
9.306114493469618
12.23160909944632
10.946436796523741
6.37678120273663
0.9305164955446606
-1.9617102312974524
-0.2138052146368467
3.0209684629475158
4.676348669205169
4.491968852073847
3.413846192211823
1.9233951133681024
-2.862592634167624
-10.28780574367187
-13.61938638634101
-12.577098846258973
-10.127418116975157
-5.003362247585466
-0.9220551054641946
-1.7374904834681872
-2.2617935046242965
1.2039929775367535
5.95640186072728
7.530499306471859
3.981975890242971
0.954206931295029
2.5198900168482643
4.159217284620152
4.445370539648113
2.6937350347290696
-4.320411729363825
-10.117592463921182
-8.287903408911344
-3.9238676479314396
-2.163766516351883
-1.6500021067770463
1.0981013658538383
3.1730571307184317
0.9395840843315825
-0.9816815882314355
-1.8148055348011245
-2.304888230365078
1.4082928023054908
5.236971810707986
5.079612792440498
4.866851435336565
5.656726442967264
5.541777211197866
3.4363821721601893
2.0050231151445677
4.006145805651637
3.5440169627736453
-1.0490843071221887
-2.1807975132459214
0.43386038954555345
2.9006132469332324
4.5163854143988225
3.41665965735923
0.27847896420169244
-2.380118566251667
-4.036059167964042
-2.0852242631322926
2.415175601832111
2.8367342215416285
0.5989398258826054
-0.6723079497263639
-4.95504672928411
-8.429427350427854
-5.006815621778567
-2.0758861822660784
-1.2878254738968724
2.43761001592147
4.704363508539503
5.474469637801374
7.635521353385599
6.291667353492191
2.5765467210735173
1.393058340132719
3.1175703802562804
7.140201930433829
7.968106145100766
3.3930646577511108
0.938795623454967
1.7439660969473745
0.5078953210995527
-1.4383136795051374
-1.5161358224161776
-2.540213800651869
-6.0686631677579
-9.006989295168601
-9.32503997533886
-6.8100832314218165
0.011861562223037032
7.68609460723528
9.094066548267536
5.277506203396535
0.48372817249676153
-3.2938599573060254
-3.0893223146059023
-0.7289892422135034
0.5989287684836804
0.81258251117867
-0.995677375777106
-1.6758542126240787
0.47961602424126004
0.9920267554599577
-0.7363397847859505
-3.046988895529439
-3.810342829111062
-0.5249271205172835
2.883264451961124
2.994164870918432
3.0969637000184527
4.154142818875121
2.6009808552568625
-1.8637506760547196
-4.943421325195003
-3.655140849958857
2.0038057157201945
8.626315555462938
8.618277606721405
3.173305450694912
3.908183195076342
7.6693339954427895
3.1343726047216376
-3.2312649326403675
-3.049046984147501
0.9253483738522669
5.530693103039787
7.485312617388749
6.115063241516173
4.63909306015957
3.2020433463760023
0.125520751544463
-3.9744823683095203
-5.769546906802436
-4.04558180116263
-1.6331889300274753
-0.14655535922277801
-0.6145972840205288
-3.6119534076224102
-6.126441858725962
-5.7565598198704535
-3.892457878084233
-1.3966852077220249
3.887094152730399
10.197573201168296
11.814156293695712
10.626888093454864
9.331440026656653
4.163856185408141
-3.8265464200006742
-12.502108496724626
-18.920720667298248
-14.425674624778809
-3.5427863955850585
1.5024917936914228
2.707903444827001
4.06021059907169
3.2472057647306585
2.1527763552594816
4.988084565816987
8.905721737851533
8.820339763209951
7.215884811221253
6.789453373398548
5.6129547158219575
4.673961692111689
5.632752595607075
6.260257446814028
5.518244253410357
4.64332211513458
1.3589926599322237
-3.6827536368218228
-3.43047249791347
-0.36212801414473705
-0.35797725976961625
0.38635009789007957
0.9545982481941695
-1.833522191191901
-4.504304449760887
-6.682988603848226
-8.006360475690853
-6.463003813458206
-4.4311090560610085
-4.626309147061118
-5.93513357797394
-4.30409673528258
-1.0947176455966818
0.7120648592533815
5.095339157975745
10.045237085686926
11.173627382880001
10.64473533588792
8.209418351360135
8.05167465090402
12.60768751775329
10.826797760072155
0.7248442418786258
-5.988869491004057
-4.906259680237538
-1.3906346532558231
0.1535413131243974
1.0491881783042678
1.1444277887382115
-1.8860823871091807
-4.154496228341969
-2.8581138040472265
-1.1549705891515991
0.7233040222611842
2.1844721075148184
1.0719053008625998
-0.10732940831672216
-0.38771022702668734
0.580914007711763
4.56808011929693
8.269866039745844
10.308041791215578
10.199036623387949
4.839578447439572
-0.6251576718296901
-0.82490439025146
1.0565476923052233
0.757141693374313
-2.576813008020206
-4.831235536785855
-5.811698954957018
-7.929697898756241
-6.88055572032253
-3.0788892075909535
-1.607928724769488
-3.5403744503962358
-6.905889142470852
-6.2452791411688375
-3.2729866347866725
-3.800675154071939
-3.5178521779916068
0.48849372096159205
4.5712790624226365
6.813489091075081
5.791468631546794
1.0048071282457882
-2.872685890925815
-0.23908285706820098
4.364349553162904
3.7531716871366467
2.1457850823743927
4.1286963737381575
6.720326165765247
6.874641298013512
4.474501950934954
2.176053399355307
1.1719197808941846
0.4208462087730555
1.7487736760114323
6.006130648931173
10.131765879106034
12.06108426925917
10.548076121453583
4.721847109845457
-3.2417748502433317
-9.905950724802766
-10.990667184655981
-5.679701278995331
-2.485220788108688
-3.6807875151697322
0.1489463868040484
8.106732955577566
12.741067800343723
13.469464639184194
8.65142173910123
1.5620931331597485
0.5926883773479343
3.2610739298975364
3.237481940112957
0.25820907582952807
-2.5821955448069542
-3.4985401897753223
-5.504558372408768
-8.3541619359588
-8.936665293336304
-7.904706573236012
-3.994884135380345
2.146670446317241
6.892572077608705
11.195654986546389
12.664884573091445
7.330931407855673
1.7617923107836089
1.628174049596675
1.8885370938745942
-0.8083572074860151
-3.431851842681903
-2.686505940074262
1.7716439983462968
5.305265114415924
4.571953037536419
0.35820950425083803
-7.28540524975302
-12.912045698313992
-10.77908316714488
-6.893839465114857
-5.357055700619787
-2.7396761726841494
0.08890509787219608
1.6188625215749524
2.864786464102219
3.167495318486591
3.227362589030247
3.803833126184005
3.425125858258677
2.0438189307208003
1.1133940451588689
3.624583496178478
10.134858050224972
14.547878295161045
13.848391318774722
10.900066007352011
6.814258188358119
1.8633192330901807
-4.427079186130884
-11.46197263123508
-13.361236147910587
-7.821053554114093
-0.7630497851976518
2.8474140107508936
3.483504989264723
4.080233202667184
4.476896047664602
1.082052892025138
-6.263754652392359
-13.643541893521437
-16.570918426705042
-13.96214136777876
-10.933293978898474
-9.195842264894617
-4.806553464112883
0.02497214510741356
1.6908709116376155
2.3218788822818657
2.4455190076893265
2.062069740737806
2.9326982732267233
3.6632826732206367
3.4012225882202167
3.731693855054418
3.9974194304122133
2.2706384825330206
-2.289299623779698
-6.798381171369825
-7.75128073293411
-7.442305577399295
-6.326208836577148
-2.588296008083292
0.226994171289223
2.524492982852439
6.148517664362941
5.6345742094168845
2.443657099259179
3.3717554780387533
5.159775383905744
3.891575773155721
2.6038733120697337
2.1699576763250024
-0.0978266906803528
-3.1085757466785107
-1.5103515497768656
3.5321570648681755
3.998453217544542
-0.2868254549637856
-2.6122091463169546
-0.11322582152816386
4.71196475444565
5.543090652099036
0.17878042179638917
-5.387946955988786
-5.598250352104915
-0.9565271394815578
2.80762940860237
2.714587979116298
2.6706461275419624
3.6507445721405825
3.834950548462138
5.0815835321479765
6.964732801547356
7.286363939754507
7.333723682777574
7.461724648538652
7.650165518893682
9.74475888926144
12.25676094219217
12.106917418368361
11.0959940562648
12.938650769329572
15.85106308088314
15.36598728242235
11.993426033742448
8.207351983383111
5.453492210498473
6.012707331413952
8.969948451296567
10.647792817372807
11.880522281954613
14.23358224085957
13.70949323527903
11.076838666146301
11.99525239291302
12.166184719613126
7.3869559171045545
2.6239937495650203
0.5057103255710294
1.1597399064704075
2.8278580894989958
3.0245834049594995
4.446290328750307
9.004724010368715
15.175349188114307
19.43754438248101
18.377469119209202
14.379175404091976
10.269399087476184
6.665157826725302
6.400661302310493
8.892729413778616
9.205211600268234
7.685843571902855
8.518930749444621
11.432355545179474
15.338727584448263
18.815008255339684
17.12991849678735
12.352908024807396
9.42021441072483
5.908203209419685
1.7831799800678825
-1.4036456169162623
-4.364694291402478
-4.94935565583329
-4.757220297291735
-5.372867226072562
-3.54141223163086
-0.6276230436271756
2.014356731485649
4.708943675273371
5.169242555157639
5.028895636368931
6.7211336174242176
7.744940579868714
5.198948063655184
2.798901430631682
7.597360736615306
16.373274216061045
22.1209908157585
25.022537470023682
25.4003337622822
24.57805680808462
23.375358185500367
17.73724542274698
9.760501697634536
6.152590382131378
7.015556935594298
9.114624183031385
11.647711931537408
15.28566867575667
17.447070928048614
15.941000169964292
14.146304987056592
13.15952814560152
13.068664215345542
16.214387699325457
18.910468920459532
19.033561516229803
21.47634086973905
25.262661125800722
25.18289472618585
21.2642337768611
14.208567963478155
3.8820670318541928
-3.803822533389978
-5.016857204284194
-6.295803681245597
-9.662109553598652
-9.61688828841706
-6.3091956459180345
-3.4537582352977103
-2.4686784330960503
-1.4794730825681741
1.7946115289440994
5.301293659134859
8.111606386509376
12.624958318436109
18.692305939151254
23.900341227767942
26.101687276664755
24.477728421822952
18.91544279213174
10.517849269749531
2.29063628165005
-5.14350615964736
-9.497255048893166
-5.928587398229696
0.4712785485842875
2.6276507235553503
4.319557519710904
8.954969388801194
13.517969959365358
15.034328467393024
14.856420117360397
16.211702110554455
18.57911271498902
20.42515019445124
20.153571897476375
16.10225186693575
11.556329624286812
8.807796030734123
5.773181610827342
2.648061049352515
1.1231030342652255
1.268499720611837
1.8470314297206025
2.3323063908238093
2.1667601255671616
-0.5863030362495533
-4.278277414942299
-6.686771071557416
-10.20815842030941
-15.703626030387412
-21.146964593026592
-25.56029619440138
-30.705808359814128
-37.436744168243465
-41.73844017677595
-43.07655385862269
-42.827772471090135
-36.74186286445938
-25.236773209061198
-11.017045257464876
8.178731473067847
29.35951650479447
47.017098335022716
59.278970758943004
63.6327967768097
60.15479925195861
52.79749805396396
45.598522094204775
41.23398696057177
39.956184413516475
41.00558681329823
43.05237128038397
44.669981983187554
45.34359263089773
42.16037858107313
32.91843035023206
21.86965339445821
12.222638628417496
2.6642090318058633
-7.912086587080902
-20.751707351004537
-31.652505948794985
-33.80171012462089
-29.52389865607801
-22.87412477441036
-14.62568998674644
-4.931923945375011
6.273786441911282
14.990255823176346
19.74056237501856
22.33073081847794
21.788551505782934
19.279618021821825
14.974661560833347
8.214995354836013
1.1517691630139821
-4.181094584115899
-4.313032513668883
-0.3234809890852983
3.4983745001892204
7.397861441130859
11.105434805097671
16.459302563683238
24.60834823369606
30.401922435215393
32.26222736787845
29.774293086462464
22.32515933556303
14.546779329110787
7.281568343304386
0.03642585451777046
-3.841833010895428
-4.751857302855962
-3.6547835393122634
-0.8428707217541113
2.852014327641254
9.13090778982163
15.97939626239246
20.030401533202706
21.151733976125712
18.62964837512806
13.517145087369682
6.108058282529155
-2.3900788311942516
-7.921062559370679
-13.885006221160282
-23.94340034654465
-34.59386780870726
-42.52128365207011
-45.2293979031802
-44.56626152011714
-43.88297612638994
-41.06454645990863
-35.260597768633474
-25.751884224777005
-9.920008653003173
8.956446475733204
26.65517532708059
42.50092840147048
51.774365230980465
51.23172998661001
46.29355827803469
39.26074669268559
27.13752466238084
11.81210690184315
-4.2861819765021565
-22.578717971104908
-40.29839203378713
-51.36820924159102
-54.95632555738397
-52.32209481900793
-47.70327970810872
-49.94716034919888
-56.184317950840324
-58.39683511367561
-59.32649003337249
-57.00043908590267
-46.26461035396519
-29.431087098247385
-7.574079052907774
14.907153940486811
31.35448987519185
41.844890584456884
46.725074691758415
46.57232047048272
45.123735064530884
45.389992654992405
45.6476538437225
39.849832208276524
27.860224457522964
15.5340932413548
5.387441062251932
-1.5284995467827616
-4.320167718088843
-3.7286104161536384
-1.0278349116535963
-0.693047090912541
-7.122286186880317
-16.405481254508683
-22.320320003267778
-25.146105614745398
-27.07553558166095
-29.571904873955333
-33.284978471989355
-34.76082802753571
-30.99034429992522
-22.772729518301013
-11.859111833094163
-1.131410548662583
6.818834611603225
10.239393162384292
7.588625593013632
0.8287849543631218
-7.234890222772781
-15.125338754833761
-19.159895113827385
-18.83450909544863
-18.07783997703336
-18.51606974961119
-20.453649841881337
-21.895382060539742
-20.505091838991977
-17.243335082716747
-10.487050767688086
0.02290729829702733
8.22363424168309
8.733567986739843
3.153120979321331
1.076509071092847
3.906499533619893
-0.0925787595840215
-9.429109612154551
-13.88362066984437
-14.185121835094444
-7.088591354532738
4.495513962801107
5.33456268744214
2.1911458164737554
3.46918848514591
0.25225675943634096
-5.425122580377779
-9.629906780072472
-11.127089540701864
-13.40123651031469
-26.149422220995582
-36.86366846516219
-36.18462496327492
-31.408974601651927
-23.316567939699283
-20.67068243531574
-19.875755249664632
-6.14550514966047
8.317863701082747
14.04725859066586
18.20515590012922
20.095230554148923
15.83161381625182
6.951259860030919
-4.023050571261373
-14.706048475070515
-19.91641455680708
-22.348388756789262
-27.880785157653406
-32.05969457815431
-34.37426633141084
-35.148662315540044
-33.01212822749255
-34.957135974559684
-38.920551648489976
-38.66492022282294
-38.557611497068784
-39.368132829992526
-38.0523320706344
-34.24149418403633
-27.769469262891736
-20.70001579900769
-16.41926815800044
-13.878457904938955
-8.584115869363261
-1.1049621953819464
6.294841576133363
13.708465454645584
15.865837213286703
9.73489941637491
1.885608509208242
-2.792138585788205
-3.997116000837739
-1.0913635100274672
5.364345445782384
12.807602158041918
19.31236663140656
22.152125710904173
21.734032012778275
24.344226241275365
26.915290079552104
22.98823535703441
17.958261176574513
13.727865256337168
9.36927956458314
8.33097711802151
8.757774963987346
9.435035117787763
10.264591955162556
8.39864289071159
3.9554408658766484
-1.754478107917907
-5.703119343791242
-6.730063189120104
-8.601990919615504
-11.728817085902525
-13.944317453157796
-15.234575481441151
-16.483184148124902
-17.637857649044417
-19.633589111356667
-23.232266195502273
-24.290529820319335
-21.292077065624394
-16.271613784457294
-8.87408653705341
-1.2013324134498429
5.450060993903454
9.9830015303339
9.806828441488902
8.6050725809517
7.153906126840264
2.7767638622968684
-2.12878176628728
-7.014803210335626
-10.421746524126963
-11.829015212743544
-14.078800025217571
-15.74490790973512
-18.53712269526312
-22.51404042939448
-25.510150905897042
-31.626724155582377
-35.29811624006311
-32.69616930295392
-31.089462250272348
-29.742790287372287
-25.940895185304328
-16.967188743543563
-6.501913013736157
-1.5112880708360177
4.236286923083165
6.413545285030716
4.31205748321446
6.489612579511182
-1.2660309153464617
-12.942538386637176
-7.7664277083103075
4.717414262647711
14.129235765206298
15.237887850639359
9.953530794622631
3.598019665175334
-11.025580224061903
-22.645725436409556
-25.66460437881291
-37.11286528263625
-49.00286153476218
-53.98968274346986
-60.57595567729508
-62.628917255256596
-59.31608346314852
-55.07745370800968
-46.57103073920401
-38.77185416049846
-33.75952480201579
