AAD_Filtered_TADAS_FILE
AAD_BASELINE_CORRECTION: BASELINE REMOVED
AAD_FILTER_TYPE: BUTTERWORTH
AAD_FILTER_ORDER: 1
AAD_LOW_CUT_FREQUENCY_HZ: 0.025
AAD_HIGH_CUT_FREQUENCY_HZ: 40.0
EVENT_NAME: 202302060117
EVENT_ID: 13194
EVENT_DATE_YYYYMMDD: 2023/02/06
EVENT_TIME_HHMMSS: 01:17:32.00000
EVENT_LATITUDE_DEGREE: 37.288
EVENT_LONGITUDE_DEGREE: 37.043
EVENT_DEPTH_KM: 8.6
HYPOCENTER_REFERENCE: AFAD
MAGNITUDE_W: 7.7
MAGNITUDE_W_REFERENCE: AFAD
MAGNITUDE_L: 
MAGNITUDE_L_REFERENCE: 
FOCAL_MECHANISM: 
NETWORK: TK
STATION_CODE: 0128
STATION_NAME: 
STATION_LATITUDE_DEGREE: 37.250287
STATION_LONGITUDE_DEGREE: 35.062788
STATION_ELEVATION_M: 236.0
LOCATION: Kahramanmaras_Pazarck_Turkiye
SENSOR_DEPTH_M: 
VS30_M/S: 494
SITE_CLASSIFICATION_EC8: B
MORPHOLOGIC_CLASSIFICATION: 
EPICENTRAL_DISTANCE_KM: 175.27
EARTHQUAKE_BACKAZIMUTH_DEGREE: 
DATE_TIME_FIRST_SAMPLE_YYYYMMDD_HHMMSS: 2023/02/06 01:17:42.2346370
DATE_TIME_FIRST_SAMPLE_PRECISION: millisecond
SAMPLING_INTERVAL_S: 0.01
NDATA: 13501
DURATION_S: 
STREAM: HNE
UNITS: cm/s^2
INSTRUMENT: sensor = ACEBOX/SARA | digitizer = 
INSTRUMENT_ANALOG/DIGITAL: 
INSTRUMENTAL_FREQUENCY_HZ: 
INSTRUMENTAL_DAMPING: 
FULL_SCALE_G: 
N_BIT_DIGITAL_CONVERTER: 
PGA_CM/S^2: 14.223
TIME_PGA_S: 
BASELINE_CORRECTION: BASELINE REMOVED
FILTER_TYPE: BUTTERWORTH
FILTER_ORDER: 
LOW_CUT_FREQUENCY_HZ: 
HIGH_CUT_FREQUENCY_HZ: 
LATE/NORMAL_TRIGGERED: 
DATABASE_VERSION: 
HEADER_FORMAT: DYNA 1.2
DATA_TYPE: Acceleration
PROCESSING: Automatic Paolucci et al., 2011
DATA_TIMESTAMP_YYYYMMDD_HHMMSS: 
DATA_LICENSE: U (unknown license)
DATA_CITATION: Turkish Accelerometric Archive v 1.0 - Disaster And Emergency Management Presidency, Earthquake Department
DATA_CREATOR: AFAD
ORIGINAL_DATA_MEDIATOR_CITATION: : AFAD - Disaster And Emergency Management Presidency
ORIGINAL_DATA_MEDIATOR: AFAD PROCESS SERVICE
ORIGINAL_DATA_CREATOR_CITATION: AFAD PROCESS SERVICE
ORIGINAL_DATA_CREATOR: network: TK
USER1: GuestUser
USER2: 
USER3: 
USER4: 
[...]
3.898990499445918
4.177173324252381
4.037452079005948
3.68611702552388
3.4499289854147737
3.578798286285506
4.1128281366648975
4.838447301999208
5.451867590554376
5.734870250621028
5.689699194840967
5.534308069228995
5.422286592822871
5.330974826642993
5.172564267262491
4.839329095981702
4.348022653989599
3.910755303753065
3.7235544945046617
3.779955528011403
3.820618406292877
3.378241903706575
2.1026146495878204
0.15105892593163017
-1.9164553699497615
-3.4935198587079666
-4.200693740245327
-4.157875493424291
-3.8603016802162053
-3.7781606833685975
-4.1453220431707445
-4.86365735693185
-5.6559962633150365
-6.1883909881259935
-6.022183517017377
-4.92519173133567
-3.1686473404534743
-1.3741164017745418
-0.10556622188697799
0.4727214830051301
0.5011226334745993
0.19399866097392782
-0.2701261821547589
-0.7887436643776358
-1.2378611468977108
-1.51510910790507
-1.585486345329184
-1.430073013973183
-1.1618354999822695
-0.9879360518430506
-1.1098203606979737
-1.6560628631795118
-2.4207823389650356
-2.965368016593345
-2.9690109623621104
-2.302696615865935
-1.0874076509266657
0.4263572897132275
1.9588017893321554
3.107083486868179
3.7221644412424464
4.007717195609438
4.043464951598217
3.8241969715914923
3.3018516590432525
2.3448175597455054
1.130741411862862
-0.017635794885651777
-1.0815480356153744
-2.184480112076607
-3.3882212873089594
-4.627604419150526
-5.7372949982131365
-6.649846368396105
-7.327546487716512
-7.531254523409235
-6.962414524924487
-5.54084972562477
-3.5176196156937105
-1.4699200011241893
0.1185597379698159
1.1331958070787973
1.5273034915433388
1.3936346550012815
1.072997937409408
0.8280976854677558
0.6895146837053335
0.40637552161928026
-0.2485596680063259
-1.1599066038142187
-2.0633754858818825
-2.5433630245324332
-2.2311628051375747
-1.2043502411829847
0.1734688320741507
1.4201331971833928
2.075591181869146
2.0106902256150563
1.5747936860373557
1.3141350490529389
1.3259585700180563
1.3501393969303728
1.3485804987917627
1.3437148330238708
1.262597739014166
1.173012108799149
1.3120814740755031
1.886151760627065
2.704610478620004
3.2296728116420184
3.091680039656644
2.256228357573396
1.032201289622924
-0.06802963013402824
-0.8140180463848372
-1.2855284431979923
-1.5500417066142298
-1.6090007966258777
-1.389681483402873
-0.8173938539439405
0.16550403933179997
1.6809123739372087
3.5874572202367525
5.333075194038461
6.370771944085417
6.432486256101754
5.579610247987906
4.123967260520306
2.4727197296486674
1.007387832419661
-0.07023648565487839
-0.6982782106360047
-0.9764573622016847
-1.2991068985251508
-1.9951544153558194
-3.03787300509114
-4.245876398078968
-5.3614962696905675
-6.130493919033349
-6.489528874294299
-6.450445527998996
-6.067769493239616
-5.599208513669088
-5.258140023311935
-4.914943616455353
-4.276499546813658
-3.289948367224848
-2.3293402759670006
-1.8006205198317378
-1.7874742388948919
-2.1792875069278943
-2.698410905159963
-3.049810472832474
-3.149908324237592
-3.0185242787631665
-2.7794463200990474
-2.6905754411201275
-2.952639102853392
-3.575765927987945
-4.401410656775816
-5.17466205742044
-5.682458043229599
-5.949309415390788
-6.165591730387197
-6.500011771145121
-6.96454404908733
-7.312961291656547
-7.375726773037404
-7.210812260000618
-6.850999166749132
-6.345501863684004
-5.677926246730717
-4.788395794108406
-3.787770537398143
-2.6545010064035903
-1.2337425073863377
0.3504636425980517
1.7396955706166903
2.5543194429011224
2.5731070502970126
1.8474923188266419
0.661512954396683
-0.5137949691333472
-1.3411683871987716
-1.8862528322448453
-2.2697561738341925
-2.437906691427769
-2.367419558062579
-2.1481174129723697
-1.9133127647995989
-1.6726639078678622
-1.2396370016052736
-0.4563153013404048
0.616973992717528
1.746231304451441
2.799911035862199
3.798180875908705
4.630222090658203
5.138523590218109
5.26957769526584
4.945504673577277
4.104707675228946
2.8444549281197786
1.4592683643582582
0.2994327636745403
-0.36879763428473605
-0.37426318642990297
0.2020054329324608
1.0353295203129314
1.7576476045482172
2.03740914876893
1.8132551537883377
1.3798099429716792
1.064228697866135
1.0058215640816195
1.1336641814469688
1.236321401295606
1.158444286891351
0.9600638367034372
0.8331330770375052
0.8967724555264728
1.1733646914300466
1.579956208894996
1.9057197994581807
1.9995371947811627
1.8014339459461317
1.305921098835285
0.6970727686770174
0.15894188663967226
-0.2657451717801526
-0.5547232447608573
-0.7594899121328146
-0.8549381108263738
-0.7295945322539276
-0.43661580402824346
-0.0627570724096281
0.28425117222215673
0.4774448667599758
0.5561840010989412
0.6102338108687096
0.7426649087705834
1.0470663552676562
1.4380517803308723
1.698022642582327
1.6767778779129034
1.3873535165592443
0.8489733535937278
0.08190111440334924
-0.8530883375878007
-1.9471772033592014
-3.070802642396141
-4.057005846014677
-4.794038521453071
-5.093492755899314
-4.937241126606194
-4.504345963254105
-4.080900009909249
-3.9830662871161944
-4.2046544917172515
-4.5639491968256385
-4.9401829637174295
-5.224028829488839
-5.359145853710861
-5.293595190883892
-5.08706613075999
-4.870365980279888
-4.660938804378355
-4.520611333418482
-4.472093493117748
-4.451771955797657
-4.55312186859041
-4.891616888819676
-5.355067981679667
-5.613327780422801
-5.399553542337256
-4.7149534804367725
-3.713450313537206
-2.730520941728163
-2.095460156840535
-1.8119219631892418
-1.7516572246051787
-1.6878563124857944
-1.3426164982456517
-0.697807195546966
0.10843850931969938
0.8606553273400114
1.2895762837662035
1.256213032500051
0.773266137395427
0.11679092222592163
-0.3587113923462328
-0.5805380813968649
-0.5487013502798055
-0.16204468323532367
0.7622191072178806
2.3256057457901322
4.218038960481018
5.914848290472864
6.9890369802801615
7.201254404405858
6.676496892154608
5.754837510445824
4.762102773969925
3.974688465646096
3.4830928338920746
3.2439442739900413
3.1751839476496966
3.079013755377549
2.7166210019612427
1.9515577315619261
0.8330061330904311
-0.488447459543347
-1.8670591672088857
-3.0712019717496233
-3.887019631648959
-4.253837046290025
-4.195462545119901
-3.8295282365713166
-3.248247582597159
-2.50117020248144
-1.7163822100144797
-0.9020201508839183
0.03186384024845414
1.0671073647544576
2.0688086303272746
2.7501358400388694
2.9815548185411775
3.008467694662864
3.0158735730748276
2.9642304867621925
2.85950335111876
2.827164086007123
2.9249126181519984
2.964210725064389
2.7319409340577385
2.3517622710992594
2.1589759605343084
2.324735360465522
2.76097791502165
3.3388495965978158
4.016145962845431
4.6562654845739635
4.988592683101875
4.82488131472429
4.1698082815891
3.2491168982409016
2.368693782736339
1.6746181497576953
1.2224803984859918
1.0083010353827953
0.8741244135877263
0.6327465451042094
0.10222887159039153
-0.8143206205881925
-1.9143516344817306
-2.8747343012392594
-3.5056681658721973
-3.776603823502988
-3.790691250495529
-3.588314114076132
-3.1307558793106125
-2.50920005521989
-1.856128094069931
-1.2188676765276736
-0.6357397300272221
-0.17071636721450803
0.14376577041471925
0.36582397753393886
0.5976774964115855
0.8590932872967796
1.0244419250616177
0.9710882268857105
0.7430462600550632
0.4717684942562417
0.2954225927290028
0.29817465335134563
0.42727675724573205
0.5389036920282297
0.45565047726496943
0.13240878968262043
-0.26482676048625287
-0.6465931688772935
-1.0894589385886233
-1.6458657900673128
-2.2312107579381224
-2.625164823613538
-2.611870620073394
-2.101382645335976
-1.234789566894319
-0.33567200833308825
0.3830662394249806
0.8592418398767153
1.1019504876357704
1.245552419634626
1.4229898172300384
1.5533504315756417
1.3638206511987712
0.6547813934219994
-0.5574321246861694
-2.1027069309159674
-3.6260742369520083
-4.65544354718716
-4.903376275025332
-4.499028839058734
-3.871858923946549
-3.344322832448796
-2.947242287403062
-2.4852909880655174
-1.6962672860584325
-0.47851182944655624
1.1803339347206054
3.1588446099144334
4.9840358485918435
6.161261838778392
6.564989855112013
6.472506471570755
6.348314544650439
6.383204988615552
6.38137626239914
6.066695344326737
5.316513867005533
4.158612652793656
2.5877654214961168
0.700192109318375
-1.0440597058820316
-2.121347469760154
-2.4168721822256867
-2.279367097734009
-2.1511371579605734
-2.206303426721758
-2.4128428610931554
-2.637846330054233
-2.723488386062055
-2.783336715704441
-3.1014580907894342
-3.675268572125956
-4.215033838288861
-4.420610383877752
-4.0750981364151935
-3.097005438797599
-1.6587115943284372
-0.12420910739994676
1.2134798889351712
2.131567503839197
2.3055967702170093
1.556161834574086
0.2501979396004821
-0.8571224439401446
-1.3045479620010199
-1.2724812875084521
-1.215403109091343
-1.4279384340811836
-1.830865048554619
-2.028269244118839
-1.7527172952490802
-1.1349813535500601
-0.5694571007316717
-0.438278506733096
-0.8280649065978205
-1.510132830884331
-2.138938122045639
-2.4686861029228724
-2.4078232530530896
-1.9921945989943732
-1.454824290455392
-1.1155423923868892
-1.2632082604250596
-1.9398734377071125
-2.8174682074353967
-3.6943178752198134
-4.408640792084432
-4.614926133670657
-4.351122583663608
-3.8007856677161738
-2.953250112233532
-1.9326198762452287
-0.8618863835151607
0.09741840046975857
0.7614211473637911
1.2797004342051364
1.7830367881212454
2.150997088850767
2.2700351724028778
2.0625212743919517
1.6186131236631187
1.2702252987014253
1.262577295978496
1.5287054730183378
1.8069883818232704
1.9017319215049862
1.8474642449522976
1.7754634558914864
1.7666131219183012
1.890023754802716
2.0888983981191727
2.130244365916358
1.8276664511802814
1.1496231057948814
0.2486541838965668
-0.54122214731191
-0.9529685770167189
-1.0314036737646555
-1.0477880964690662
-1.1850951537860586
-1.4582670929317523
-1.8833659209578193
-2.421708530553071
-2.9604388509920367
-3.4074061718993134
-3.6675549270988066
-3.812592374695605
-3.987785189442904
-4.100143210087117
-4.069783024878063
-3.8819404457576345
-3.4559721723062893
-2.966946093467721
-2.6400545245523834
-2.418941708513998
-2.312794871181762
-2.3565242603231487
-2.3533821120806087
-2.124376753671636
-1.6935278910199212
-1.24501946664679
-0.8892601478881017
-0.5256212870151877
-0.22187145883544918
-0.26876406185406543
-0.7756029627912678
-1.5560987678772233
-2.2001652934469726
-2.4179626199730118
-2.2998784787942284
-2.0023073793049253
-1.5886289762119912
-1.1505061331770818
-0.7584769878029642
-0.3490498866521223
0.19234136200744
0.7741455171335484
1.1396865418791917
1.151783846699593
0.8276026371501447
0.22763427560132887
-0.4925370814516366
-1.0006856340639148
-1.005823585448382
-0.5253904136489996
0.13161358634395673
0.4985262394932129
0.20125364726869288
-0.7583157734174266
-2.070612971270392
-3.419622686410718
-4.535503062071837
-5.1883494627861575
-5.381020901926146
-5.208028303655735
-4.564511545657485
-3.3308568805529775
-1.6079110644102974
0.334559232891843
2.1787770398736934
3.6330145611285696
4.51872275730705
4.849398057715887
4.775911224590559
4.52810454071818
4.31521912270262
4.113647460222482
3.6927161444710315
2.898678179024783
1.8398777768792869
0.8466316764436649
0.2994181155333762
0.4232205998261603
1.1149094430394522
1.9757246756514109
2.6051235977961804
2.8795184501659445
2.871063957254678
2.608632196195835
2.147799314807483
1.6625134265044434
1.3271281500219607
1.3259592648965686
1.8085464092596109
2.6617217840754916
3.4937090407369715
3.8648895585679512
3.6176009667391478
3.0246449774939492
2.426008089361205
1.8690643490476093
1.2760138835928931
0.7200132115275459
0.3827924035321792
0.29768027790419455
0.29970561136164314
0.2918006541903167
0.3300538691736308
0.4457888494340513
0.5752795704815004
0.6664321996219791
0.8049035149236804
1.115609015085182
1.5709434415259038
2.076678554791085
2.636703670555586
3.228808738747359
3.5843516625804344
3.3894143100858503
2.777959346380827
2.275371324205086
2.2679294672137242
2.7130304836381653
3.1923417814665545
3.3506869196626425
3.2303100040899473
2.9430006689486508
2.46440108817035
1.8708352477404004
1.3884567161691086
1.2435778116880398
1.4426943038209847
1.7097617348994367
1.7316131173164522
1.3153936950808025
0.4983187158490574
-0.473420399610451
-1.4199292631276872
-2.215669120391945
-2.7518424159309274
-3.0988519867393416
-3.360305635809252
-3.5168701477863893
-3.50896910342844
-3.372579544533741
-3.3041458279781644
-3.4064071058532512
-3.486164094852307
-3.2428242549758384
-2.539398382370413
-1.4995446158544228
-0.30488503589142335
0.9452396679834234
2.1028264990368037
3.056080946056341
3.933406070583339
4.998569295074536
6.327900033192251
7.654998041798471
8.58348417665463
8.966182655205209
9.172671146632606
9.77847226387247
10.899615158662401
12.212061182673942
13.373148160255438
14.076243034177327
14.03027051589489
13.121920088812692
11.597609097515685
9.885094482453484
8.20516010653439
6.561134964198243
4.8741766840670016
3.07532354939325
1.2279494962850097
-0.5207145573737769
-1.9747308362994425
-2.973800326475766
-3.547263387960237
-3.8282806592470426
-3.937283523645669
-3.935290988178603
-3.8664820984946098
-3.7406441876188223
-3.3725338499493205
-2.6574794667399284
-1.7738579962986145
-0.9590088962612842
-0.5017232611599548
-0.5350359420644656
-0.9714387586003381
-1.6790127366466483
-2.2336073306287325
-2.2691633333332306
-1.8205252607943072
-0.9501253660371525
0.08781114790135286
0.8714432742833984
1.1896658776290878
1.0816330745629676
0.8878376267378605
0.7721490483157357
0.47029421582840053
-0.1888514416434502
-1.2459754564908028
-2.6401189090381956
-4.076476175271653
-5.232788978065165
-5.918617652266408
-6.24655944872905
-6.6081205052053
-7.215894585194509
-7.902462858088374
-8.449285251140832
-8.764149771851644
-8.636857928965023
-7.90095683939381
-6.859089846371008
-5.985515769626092
-5.379180486774287
-4.748421094720197
-3.7000596517938438
-2.0038651701921935
0.22066499399705664
2.568375098268792
4.71685444358211
6.595287156966557
8.128345588481947
9.140719757420797
9.618750806406531
9.698502003427418
9.430934048447503
8.944199467072249
8.518050906221783
8.348487305923332
8.544021408539303
9.036438059636467
9.522726980111122
9.816470277276883
9.896182763678757
9.651972179913313
9.047557127413812
8.305567618509286
7.654696691625603
7.151601307490716
6.834306272767017
6.831693686071177
7.239009011794035
7.982686377239902
8.87749710158353
9.689273648244015
10.194302638416293
10.369529194449203
10.341201411805155
10.122840074724468
9.631485696485543
8.858126365880794
7.875025590168835
6.734458070442535
5.467172762781371
4.179687349157604
3.020327178406054
2.0223424206622385
1.1275278819344867
0.38375502730104466
-0.037052108453543287
-0.024170784600317678
0.2751278205710485
0.4871391721740214
0.4358421619171434
0.29513780632732745
0.1492709635122659
-0.12852948117986557
-0.5484309397994991
-0.9377485742191932
-1.093577624088703
-0.9281450147386472
-0.5312864891023512
0.010756489921301435
0.683478424880941
1.2839186459070497
1.4527298767303853
1.1241463435790902
0.5941361805289977
0.09269219927546997
-0.3968727495129548
-0.9338174933218032
-1.4429264868923375
-1.789343861879822
-2.015582180444347
-2.2912900899724766
-2.7027200022872986
-3.3025018284901373
-3.9914760057981393
-4.476687955245715
-4.727902626321901
-5.0186917175509915
-5.484410468019395
-5.946829212394487
-6.07741803793965
-5.8128436579661775
-5.496089057849895
-5.4714926431443525
-5.8362365394961495
-6.529043393724284
-7.328652386328467
-7.886537293470385
-8.010006763848002
-7.79684706395175
-7.481691570850165
-7.241370883503862
-6.996717433117802
-6.474457050183204
-5.500498591898882
-4.112070259320656
-2.5116536632107795
-0.9376591759522609
0.4799234434899522
1.701409224549701
2.7068841934517622
3.5660638782845653
4.4360598622132486
5.29708205617865
5.868774155407592
5.842419970783336
5.182624999879166
4.210089714132749
3.2389538168352603
2.466209490913164
2.059784857913874
1.9186002480262223
1.7636620957644351
1.4268666039994524
0.8890297329136094
0.30710253372925633
-0.05598514171768384
-0.06324088755664041
0.189607295735614
0.6714455364592511
1.473029475804314
2.460686718607164
3.3360361174990443
3.825911117863413
3.9350601540627976
4.030886502905449
4.363744817131546
4.920912174242633
5.4637358876720175
5.712603069124355
5.678849636919586
5.353677275029961
4.802385764745474
4.34234983028733
4.008228449709087
3.5833571836981566
2.7478492637852194
1.278624422273777
-0.4919356530455365
-2.104882651863124
-3.3945586201604137
-4.361679650618354
-5.08459218982783
-5.522268043950887
-5.630999642577588
-5.5976198636792684
-5.6402914862918445
-5.758988189222725
-5.726939099622104
-5.392305710224938
-4.947292282183554
-4.6557505185587695
-4.435514060583579
-4.005837813172339
-3.2195442664444087
-2.1655514229739996
-1.2038131890494608
-0.64641556004792
-0.5021045417820325
-0.622788805223426
-0.8509026109244466
-1.2157086183234187
-1.6787234791876473
-1.9699012872942703
-2.0532763497413375
-1.9687928223182578
-1.6432796363560085
-1.0915930150909448
-0.3594412279852984
0.2278854342165553
0.23216814737709732
-0.33979604348195314
-1.2234632699876467
-2.1320389327312843
-2.8729025421412673
-3.4190241541398048
-3.7191865866511598
-3.828586533961965
-3.9425079666951373
-4.104824438215899
-4.230682923366266
-4.159994109769571
-3.827209616196841
-3.4913022481277394
-3.3623404716880967
-3.375329037671209
-3.5081403532021875
-3.822707501575274
-4.27299661352448
-4.684940737800472
-4.841543290062492
-4.650257088008031
-4.3018106333682
-4.006777871897447
-3.789325348599318
-3.793222512084459
-4.128055776077358
-4.589357809419528
-4.903780934701451
-4.938402545256652
-4.9014996687530035
-5.010567775567814
-5.014991650020875
-4.602658521180621
-3.6904485670186293
-2.414750215297485
-1.1170709029282497
-0.17170173314554618
0.07661940542585713
-0.32211176404833475
-0.8415882704454768
-1.1122095513436319
-1.1475849067273511
-1.1009436989004682
-1.0137681857086889
-0.7756520081840084
-0.3221245244248464
0.24051012938702013
0.6355808007705955
0.6437323213001561
0.26668494203494875
-0.37860552928516317
-1.0887522037837993
-1.6314450017478017
-1.8335434481859123
-1.659580059547983
-1.2755536916133752
-0.8304992461149722
-0.35316919568516536
0.111906597470867
