AAD_Filtered_TADAS_FILE
AAD_BASELINE_CORRECTION: BASELINE REMOVED
AAD_FILTER_TYPE: BUTTERWORTH
AAD_FILTER_ORDER: 1
AAD_LOW_CUT_FREQUENCY_HZ: 0.025
AAD_HIGH_CUT_FREQUENCY_HZ: 40.0
EVENT_NAME: 202302061024
EVENT_ID: 13207
EVENT_DATE_YYYYMMDD: 2023/02/06
EVENT_TIME_HHMMSS: 10:24:47.00000
EVENT_LATITUDE_DEGREE: 38.089
EVENT_LONGITUDE_DEGREE: 37.239
EVENT_DEPTH_KM: 7.0
HYPOCENTER_REFERENCE: AFAD
MAGNITUDE_W: 7.6
MAGNITUDE_W_REFERENCE: AFAD
MAGNITUDE_L: 
MAGNITUDE_L_REFERENCE: 
FOCAL_MECHANISM: 
NETWORK: TK
STATION_CODE: 3125
STATION_NAME: 
STATION_LATITUDE_DEGREE: 36.23808
STATION_LONGITUDE_DEGREE: 36.13264
STATION_ELEVATION_M: 156.0
LOCATION: Kahramanmaras_Elbistan_Turkiye
SENSOR_DEPTH_M: 
VS30_M/S: 448
SITE_CLASSIFICATION_EC8: B
MORPHOLOGIC_CLASSIFICATION: 
EPICENTRAL_DISTANCE_KM: 227.96
EARTHQUAKE_BACKAZIMUTH_DEGREE: 
DATE_TIME_FIRST_SAMPLE_YYYYMMDD_HHMMSS: 2023/02/06 10:25:06.2991800
DATE_TIME_FIRST_SAMPLE_PRECISION: millisecond
SAMPLING_INTERVAL_S: 0.01
NDATA: 14501
DURATION_S: 
STREAM: HNE
UNITS: cm/s^2
INSTRUMENT: sensor = GMS+/GEOSIG | digitizer = 
INSTRUMENT_ANALOG/DIGITAL: 
INSTRUMENTAL_FREQUENCY_HZ: 
INSTRUMENTAL_DAMPING: 
FULL_SCALE_G: 
N_BIT_DIGITAL_CONVERTER: 
PGA_CM/S^2: 21.048
TIME_PGA_S: 
BASELINE_CORRECTION: BASELINE REMOVED
FILTER_TYPE: BUTTERWORTH
FILTER_ORDER: 
LOW_CUT_FREQUENCY_HZ: 
HIGH_CUT_FREQUENCY_HZ: 
LATE/NORMAL_TRIGGERED: 
DATABASE_VERSION: 
HEADER_FORMAT: DYNA 1.2
DATA_TYPE: Acceleration
PROCESSING: Automatic Paolucci et al., 2011
DATA_TIMESTAMP_YYYYMMDD_HHMMSS: 
DATA_LICENSE: U (unknown license)
DATA_CITATION: Turkish Accelerometric Archive v 1.0 - Disaster And Emergency Management Presidency, Earthquake Department
DATA_CREATOR: AFAD
ORIGINAL_DATA_MEDIATOR_CITATION: : AFAD - Disaster And Emergency Management Presidency
ORIGINAL_DATA_MEDIATOR: AFAD PROCESS SERVICE
ORIGINAL_DATA_CREATOR_CITATION: AFAD PROCESS SERVICE
ORIGINAL_DATA_CREATOR: network: TK
USER1: GuestUser
USER2: 
USER3: 
USER4: 
[...]
-7.137411169684844
-6.165948242324744
-4.23339938385355
-2.3962347436125393
-1.011220694301142
0.2173935579826406
0.9454073452323054
2.5524763166029376
4.433074346526615
4.560904451380568
4.303067435446543
5.2063574386663936
5.86618775240884
5.433074998693432
5.103200520121493
5.220457886166738
5.011499490714986
4.960307721763335
5.459721043953327
5.244931479202951
3.8628159303071374
3.5319769241624175
4.841008871341342
5.586137196265565
5.6281660330311425
5.455125740580575
5.515697342579248
6.241064235504826
6.7585026008023865
7.726474355565323
8.908594443060627
9.128066061842151
10.037393147733646
12.123410314864763
12.615839354705752
11.859205010101435
13.371890005633684
14.380007802720954
13.282685461869171
13.789641003161478
13.878092242911599
13.58488794414634
13.762928603969147
12.692426451896125
13.32978241940688
14.065428697364192
13.354487107406491
13.854056053278681
14.240013123073137
14.550966989972288
14.845835259363913
14.042329402868786
14.344185367370883
14.796607236580368
13.17618600559299
11.94538824739655
11.488267536195162
11.040061738185683
10.863280812965765
9.962260298297327
8.631676624274403
7.401608066685815
6.835561762055215
5.989802706876014
4.600757293434908
4.0645901597341565
2.367685071976758
0.26894773746020034
0.692736256158261
1.241690071941179
0.22502737947592047
-0.7438736651596652
-1.6064295155875505
-2.464200806917419
-3.662318570149313
-5.225884924733043
-5.556941406692501
-6.040807622334614
-7.640039280024783
-7.652158551741884
-6.392487052161622
-7.458382796549701
-9.85530915908784
-9.867004970748296
-9.400537502192076
-10.636288440127855
-10.081009829909654
-7.818400558217455
-9.5181084216038
-12.136257840299693
-9.329478761567376
-7.176146148978947
-8.999518256269623
-9.042363266047142
-7.412264390657425
-7.073128750115732
-6.814421559354134
-3.965140878914392
-1.5524311981044003
-2.541361589365453
-1.4273811936618108
1.2796554573955459
0.5344350010844197
0.4554190879802225
2.658623882443883
3.69738600353512
4.049528479088353
3.059091136822301
0.6300163911041863
-0.44764239205744694
0.6912141133868519
1.8458224371239653
0.8136325808317375
0.5699205446252215
2.0842334775469142
3.132385470651582
4.3053895941012685
4.473790732835732
3.429423506770009
4.554111977218812
7.226635057613443
7.457098879358287
6.759503386903494
8.060277292555453
9.13290864927044
8.494667800165615
9.107702787616704
11.380887304502952
11.915089280508633
11.397310898567394
11.3783064430027
12.026202967072658
13.512163625079845
14.366603989373175
15.01212594032632
16.23613075196382
17.310005813187953
17.946095805093798
18.817219562874303
19.45644433707324
18.82917599449962
18.848431484401733
18.894481991248934
17.30798503025343
16.350902401790275
16.249069470405967
15.346349653911012
13.82282486041869
13.127064646836345
13.68058444221853
13.895504416632132
12.758909621715066
11.491336739437305
10.930554852517913
10.237781595333509
9.641007157025559
8.478189657342895
7.027191086484763
7.57835290323564
7.826569612216315
7.2916885302377645
8.432824401895157
8.742647080055555
7.782396299858039
8.588892200687857
10.493163172440916
10.791897311464162
9.475632267081236
8.148111036171224
6.2334271432139605
4.204926183004167
3.628486051245881
3.0773681443253063
1.2477657347337758
-1.2283504596702872
-1.3708962826733349
0.13771701561139277
-1.1206074782617916
-2.110964460871929
-0.9743548768467605
-1.0682461536462367
-1.6927627423687093
-1.2896489181625863
-0.28384552205968894
0.17188810206581898
0.14173524440342225
0.6103250376117276
1.6092856142848981
2.565801742754554
3.4097710862356565
4.584653974399162
4.921116576124696
4.914301524450588
6.180285709553475
6.784248297730174
6.524909260554605
6.676990425080598
5.4499544780956155
3.5844182335221735
2.533139229568557
0.9360564095077637
-0.3330471661741657
-1.330565467355997
-3.2573659558709864
-4.420764921245424
-4.42056435147914
-3.954244941838556
-2.629815008012624
-1.2084360262601592
0.10207930646272284
2.3222975553537935
4.6216859052067445
6.581461195184264
8.802562333608043
9.85821977656737
9.644625165786852
10.322895365279473
10.88615538675305
9.686529971367847
8.750430657768735
8.625179691321332
7.921923212506123
7.648681132377668
8.074383156651246
7.939474486701394
7.568201722566495
6.896749149423076
6.6940160259542
7.693717696879451
7.751182054037995
7.063080064501797
6.6050826173050625
5.826402750033736
4.800792634938693
3.651410983189139
2.8000739437844238
1.8048700782120424
0.6961096406180272
-0.2023854350243204
-0.9100128885315601
-0.8671755048114999
-1.2578054122364837
-2.2643049704523937
-2.0978160012131606
-1.5579603450585109
-1.635217310055001
-0.981321787238608
0.0414068425300566
0.008702635039440177
-0.19883265358485042
0.5496507496725095
1.4949815176291412
1.7627037595066795
1.887874091094532
2.1193327719650084
1.9211729253681582
1.1789899709484333
0.7379493899502142
0.908370107252235
0.5119379057086203
-0.2914456699488535
-0.7319704240327984
-0.7683698401728957
-0.5581738219137871
-1.2397876953933693
-2.1530195355289057
-2.179020468917922
-2.618137763250911
-3.2860021520116667
-2.9440629797935185
-2.366026485970106
-2.10241955116838
-1.2915881535738234
-0.42865727612659044
-0.6730825462949577
-0.9492424260994229
-0.26459603142329663
0.14162707176906714
-0.6961948475830723
-1.5649775465800666
-1.921613459400743
-2.9046395271753522
-3.8673571693005853
-4.3022393362866636
-5.3642505530442985
-6.374628300602015
-6.782073320345264
-7.514955671468108
-7.93091057074416
-7.843809353767526
-7.9418086312400336
-7.942114413791151
-7.8882540351493695
-7.25760901680819
-6.5690925578156785
-6.553323957692812
-5.8063488574777375
-4.869285567975551
-4.696896673634256
-4.288488364205235
-3.4640154517243382
-2.802921172058083
-1.9925169389553752
-0.8665262088781073
-0.13822526250902797
0.2560793000477281
0.8467298754802093
1.788935956290224
2.585006601973322
3.393745683712498
4.719425856492297
5.82140244822321
7.131712268405397
8.494030226065089
9.15539880542602
10.338202122593703
11.480906072400613
11.313052033474058
10.89645923782908
11.185745914315804
11.17181048695352
9.93194375586324
8.762971803932706
8.19554635831424
7.282998935775316
6.2675435887620266
5.3350416840738415
4.238733909081854
3.347650371952863
2.316108160722653
1.06218609543929
0.1298594588703732
-0.8284099946461441
-1.6599237478821656
-1.9610279343466486
-2.10832413392238
-2.5066945860916867
-2.727261336924225
-2.632335951130617
-3.1939851074270025
-3.860284304054643
-4.227847204584454
-5.325835577346468
-6.392267806513875
-6.59188541042229
-6.8454538180659394
-7.662707964119142
-8.48409648433936
-8.844515780378629
-8.780355424272841
-8.750238372771348
-9.143146075236201
-9.209883330920439
-8.67230856773556
-8.206830193717304
-7.641720132122829
-7.200131798312498
-7.413113190703811
-7.550175304976247
-6.9065124067100845
-6.0965225166313255
-5.737866336174157
-5.151520353498863
-4.048699484126627
-3.0949498902764336
-2.378601293181283
-1.5230423058933333
-0.26888556269348585
0.8305403220337844
1.5405047149338769
2.5726325751166605
3.0385797033418283
2.7041037701672597
2.9114848896295222
3.2683905883264157
3.1718243429080597
3.101538744200025
3.239265359743632
3.1977996532998083
3.6633318663543366
4.842553588174859
5.4536427645632095
5.922318824338339
6.403133953754705
6.0341171230574036
5.418840229456526
4.889499290480042
3.537694699888502
1.8782742988726226
1.2256593007166188
0.7740324543162983
0.34744777855972886
0.5927560578741267
0.7589416029483237
1.0819419806886106
2.045666556096788
2.824896210776388
3.2219388869109293
3.80279545518681
4.511969071334953
4.780559982956993
4.446506404978081
3.8855936229253025
3.4662598290752746
3.1520668799791283
2.477532918365295
1.6406485983194279
1.3395469378121978
1.1040931739126185
0.34695602473044607
-0.5175223220695027
-1.0586984833529236
-1.4679248736849866
-1.765765553064444
-1.6957379967070172
-1.4171621611506855
-0.6190931774609953
0.36120156034332535
0.8961723735263836
1.7006195130513515
2.4139299265694643
2.2864672660886622
1.7949024451466178
1.7226283074630653
2.0109980430899457
1.2517996390756332
-0.22058546130403128
-0.7787697483762268
-1.2029348252232075
-2.3655205697587047
-3.012289992948381
-2.938205248033973
-2.962447038774967
-2.7561723117617993
-2.2263671400321243
-1.5774561351902017
-1.0259209282000705
-0.2788312858945672
1.1017956204521604
2.5031907367702666
4.440495793758235
7.077217554585973
9.337315372626195
11.501437211003017
13.472548293349865
14.472039736092164
14.919914123616898
15.246948936078324
15.199097175580514
14.721085698921957
13.969595286808707
13.464960435915916
12.974708606085597
11.638333234717065
10.251255097583313
9.467925078902589
8.809696071566332
7.995164457966915
6.942087688020706
5.926016177028764
5.108671365192837
4.323088445986205
3.4626718352417085
2.9482045361209925
2.8971872433421946
2.8696351391024995
2.8839019876036813
2.6405713921551843
2.0926649081075515
1.4787549636550332
0.4987861505808428
-0.7347339790544152
-2.2560817568057256
-3.818097820297724
-4.915269276346957
-6.260337000920264
-7.620752336653968
-7.911504003965061
-7.769578104517391
-7.514147872915775
-6.735902333567165
-5.940679562129583
-5.071527300463545
-4.066668863808357
-3.552503694864128
-3.339227101526263
-3.160365189107873
-2.897416144718953
-2.409812686420234
-2.217674129943996
-1.9513675140923694
-1.180669498106334
-0.4711897452222133
0.5769252425418946
1.7511075360117883
2.333683429444071
2.622050432242174
2.5628505661268464
2.643509917141402
3.1769805042955026
3.251042852719634
2.742095583584534
2.4914537146131694
2.753302498927207
2.7268714133775864
2.2973101391196846
1.95346992306215
1.5648935562985953
1.1594288980089291
0.4233710333828403
-0.5335171087376716
-0.9763259450524164
-1.6983232864029003
-2.9361481216311964
-3.6469531163300224
-4.289033972391558
-5.269220068741381
-6.206812133632859
-7.2551474580218915
-8.098318271279005
-8.642158286021623
-8.934284182740397
-8.646007163148484
-8.240342885119684
-7.659822345810083
-6.59962517909309
-5.795278965485731
-5.201695558079374
-4.222936388994486
-3.483323766162346
-3.342341239627387
-3.477821843910391
-3.80410785894316
-3.913264495614978
-4.255039855879863
-5.138793720803709
-5.690562898862484
-6.1453392892809715
-6.824703273797537
-7.249132554179355
-7.311382764527156
-7.1371900662287855
-7.063077432133883
-6.805990427158726
-6.187209414583989
-5.989735360806095
-6.056168031776389
-6.111088472773413
-6.103155811868457
-5.7322000363487895
-5.271837933414575
-4.905841908313759
-4.664951369793804
-4.188392258996329
-3.341404501854888
-2.631702561483835
-1.938511137821557
-1.0577193876910325
-0.6339569928279846
-0.7593864217674504
-0.763942292665379
-0.6886868176449746
-0.8113364246061245
-1.0924711079328808
-1.079558120533391
-0.9824597240947172
-1.2906861747946123
-1.5137351061582156
-1.6974751774353023
-1.87686546656634
-1.9739861742837288
-2.298263767734845
-2.5654275221119076
-2.607659642296611
-2.67718257828981
-2.9354541650929735
-3.551304612041512
-4.47094707286359
-5.102644578995505
-5.541876077175275
-6.077158062999216
-6.357378621782077
-6.791135653857958
-7.288229245149761
-7.307164029188458
-7.251409503264792
-7.269821129884312
-7.196591008265193
-6.576846804609164
-5.4694098610205915
-4.627106652764299
-3.586331750311099
-2.1248286270844194
-0.7837569057665853
0.6124405824049576
1.9136162263851362
2.777051553972855
3.212307202015908
3.0337091858018743
2.427852581384904
2.0908666773468965
1.937126595624495
1.3925477942400266
0.589528282823606
-0.3462408043385387
-1.1133374905256643
-1.1044342243961862
-0.3876511460194573
0.3861619205500549
0.8808897574263177
1.5937647390744294
2.4869358564561934
2.847016957433953
2.456717320093877
1.7653228406658832
1.6812940794926066
2.2118407982208317
1.7541880645943921
0.6607956613714605
1.1543279169776222
1.3990744754457334
0.09373196778541211
-0.3453921167133428
-0.5280195441303133
-0.45603253401016464
0.003767346845244657
-1.8275180273511997
-2.6997963510364884
-0.914905060682074
-0.5123550879017295
-2.0454612952535567
-3.1527183455784633
-2.10055365900544
-2.4186340954656744
-1.2985075280116603
1.5835957851907523
-2.954537344127611
-4.087194981972642
3.262551531908055
4.073668962113273
-0.15253707670233094
1.5332313421029613
7.606651394113943
7.989470747051322
3.9335804566162516
6.855212107439795
11.55493668768034
6.099996117216468
2.6212130141859253
8.64665146216548
10.257776848441287
4.830455408019633
-0.9590494674928701
1.792251018821298
6.794367117431096
0.38027690249289603
-4.717591613313998
-2.0878939102150884
-1.1634622270087225
-4.83512467084788
-8.98147788708532
-10.06572624653542
-13.737565823363076
-14.732671867426339
-9.987137298998904
-15.490925704873268
-21.928525208819245
-16.833893142897583
-17.135269574398517
-18.668358951629106
-12.959431317264174
-13.245571065597298
-19.891497882880408
-20.835365184824706
-9.982382887365542
-7.122809272378893
-18.51693413380719
-15.80994494185403
-8.610040214475172
-13.873382675783414
-14.411316312728978
-13.096883102912546
-11.434000572958189
-8.17846177731777
-15.479693237507464
-13.142941218388206
-3.3818442800564434
-10.23101614865869
-12.183232885202262
-5.687359204554603
-7.239519368334992
-8.54872849768634
-6.086729311680542
-3.855682993663228
-2.968859411753727
-3.781746165085375
-4.35415626137568
-1.5947397210288856
2.025235143877181
0.7961558546513996
-3.951266152722921
-2.2112755205682326
5.840412648642498
3.5416489180280277
0.031768005695876324
3.231835688084524
3.17606200209008
6.457058637019304
6.398334122993971
5.754304093660507
9.419056962633544
4.579555568516981
2.6269201365563815
7.598603932017206
7.984477305735188
3.1568270977853485
0.021225648507616574
3.52924563050125
5.064095793031351
-1.708945545935435
-4.4973491775653525
1.0349762217328977
1.0451035863323832
-1.0135646974307881
0.740918618581846
2.1826853589996507
3.9087913225739936
1.9578176182793754
4.684635554599826
11.667760006761915
8.91715070585132
7.6289169861372725
14.349529666814517
17.419140488485766
13.110009916603474
11.486791150871198
17.938731136851256
18.72039331513
12.74101549752194
14.131760638299525
15.798279163304539
11.688855250167398
12.109993341475056
14.216387305002765
10.056307292059879
6.264501109424789
10.46507451106854
12.92740407765607
7.15356372521248
4.99360622872935
9.822740855559891
11.26706779826656
6.4186752350055905
3.268452899620477
4.441649458168685
5.875956693285412
3.73758095295635
-1.2977781658324383
-2.7608839973007364
-1.3537158566174128
-1.388949538243548
-3.370972257681672
-6.907589874490087
-6.857693818003623
-3.5862746090471793
-6.211871011834298
-10.364170525983639
-8.745468924856993
-9.481090872858987
-12.18871760847933
-10.459016329018276
-10.714082375010136
-12.682121833694763
-8.931468817051565
-9.212934700357684
-16.836754566439634
-14.616646732363275
-5.527493427854182
-2.0356344803126083
-1.9108751710100702
-5.8112827107093645
-10.939366346358172
-10.251638718770042
-7.132146785844279
-3.0355740613059754
5.96044219669827
3.560693924758692
-15.06733799406782
-17.462990637948554
-8.167448874093894
-11.083189955451301
-6.030676577909619
9.510174788850389
6.150413853874259
-12.40956426658973
-12.80879583671426
6.87640075529699
13.645379626710955
-2.2034873137843993
-10.200867915851106
7.4483680457860295
10.29968978639
-14.899473579429465
-13.55807640143977
9.561340720831407
4.866809326541657
-13.262339379683292
-9.499305526263713
5.408426708645022
6.3392120120308855
2.038355766804131
3.4727889868933457
0.2790583367012528
-4.201816406552508
1.0333019893486408
10.2555747108762
8.770803852777702
-6.404818257722208
-11.13822834930457
6.049563081561343
14.422044075559919
6.8065119850704
4.366602514635032
3.7017634747870702
1.0509216048781274
-0.08248073550897136
4.9888378662071435
9.972901993173357
-2.2560595630757363
-7.853750395253993
3.111048060805585
4.782356355533663
6.384982878380674
9.442399032849726
-0.4408494454080647
-8.953090549308394
-4.254511788869742
5.5548831917103945
8.749821797491002
2.0752879550338585
-5.873535757556493
-5.668831399470784
-2.455248192929818
-1.93639992451691
-2.4227471968922996
-8.057513252389352
-10.50097915569382
-4.99229104147165
-1.3457602643938684
3.470892943706542
2.285234515378269
-9.049845759904509
-12.453426357145593
-5.403802860519425
2.258326521218618
0.7661099746273325
-5.871626761044506
-1.07359926440767
2.067630371807127
-5.481901923543648
-4.789530392601567
1.1970492026105735
1.9294016155137257
-0.8995217682360829
-3.486212163811254
-0.21434017227256294
0.12279901967545852
-5.458104233610197
-3.816574806627473
-0.7655385508577565
-2.3354647514831983
-1.015075968963099
-1.3463397650277655
-3.7388817989625864
-2.9312495873975326
-4.24590882534733
-5.863643577609801
-3.7172404998468007
-3.9707537764830354
-5.12343064745921
-2.3613979778130396
-3.1631823008848032
-3.97665033185176
0.03186630622175689
-3.3507937932684317
-5.924191176832523
-1.8529073290419806
-6.123369607083707
-9.829313465175982
-4.049342251248314
-2.3252257971524344
-7.571904240094818
-10.454681716745975
-7.010234548997413
-4.367080599969061
-7.5906565872998035
-9.886729162883642
-9.624580620532244
-6.245870666134264
-1.7951468350405684
-4.232348295976297
-6.7158543351650914
-5.382900757721684
-6.142238074226235
-7.813141573843404
-7.8752011906776165
-6.695799690352495
-2.239468997985171
1.1206106225523256
-5.136645321686358
-8.66592217448844
-7.208192341887224
-10.768370487267587
-8.11355147906225
-3.300660595470703
-6.373820588090409
-7.191784533752227
-4.683233319115652
-5.389992374936681
-8.07967147574916
-7.26406221376267
-5.335274890932925
-8.301625868746035
-7.873816164382
-0.9183458813661423
-1.0867255267941716
-6.813860523069977
-7.353685041777636
-6.245270025472653
-2.985553342914129
1.763657466249427
-0.3266918725154034
-2.2646144252458487
-0.10302798176966563
-0.8213236088784034
0.31299152769607214
4.5849929520656145
5.1672796769179286
3.162127759492427
2.007879880223358
1.6494201696196
3.2077731246126544
6.297390527709079
5.417434076055129
3.028865333150293
3.040575842103645
1.9135288365491823
1.2032764077069824
1.8233873386067414
1.3857680616409218
-0.44268017795432224
-2.3095455923591377
