AAD_Filtered_TADAS_FILE
AAD_BASELINE_CORRECTION: BASELINE REMOVED
AAD_FILTER_TYPE: BUTTERWORTH
AAD_FILTER_ORDER: 1
AAD_LOW_CUT_FREQUENCY_HZ: 0.025
AAD_HIGH_CUT_FREQUENCY_HZ: 40.0
EVENT_NAME: 202302060117
EVENT_ID: 13194
EVENT_DATE_YYYYMMDD: 2023/02/06
EVENT_TIME_HHMMSS: 01:17:32.00000
EVENT_LATITUDE_DEGREE: 37.288
EVENT_LONGITUDE_DEGREE: 37.043
EVENT_DEPTH_KM: 8.6
HYPOCENTER_REFERENCE: AFAD
MAGNITUDE_W: 7.7
MAGNITUDE_W_REFERENCE: AFAD
MAGNITUDE_L: 
MAGNITUDE_L_REFERENCE: 
FOCAL_MECHANISM: 
NETWORK: TK
STATION_CODE: 4624
STATION_NAME: 
STATION_LATITUDE_DEGREE: 37.5361
STATION_LONGITUDE_DEGREE: 36.91765
STATION_ELEVATION_M: 466.0
LOCATION: Kahramanmaras_Pazarck_Turkiye
SENSOR_DEPTH_M: 
VS30_M/S: 280
SITE_CLASSIFICATION_EC8: C
MORPHOLOGIC_CLASSIFICATION: 
EPICENTRAL_DISTANCE_KM: 29.73
EARTHQUAKE_BACKAZIMUTH_DEGREE: 
DATE_TIME_FIRST_SAMPLE_YYYYMMDD_HHMMSS: 2023/02/06 01:17:07.3320300
DATE_TIME_FIRST_SAMPLE_PRECISION: millisecond
SAMPLING_INTERVAL_S: 0.01
NDATA: 10501
DURATION_S: 
STREAM: HNE
UNITS: cm/s^2
INSTRUMENT: sensor = GMS+/GEOSIG | digitizer = 
INSTRUMENT_ANALOG/DIGITAL: 
INSTRUMENTAL_FREQUENCY_HZ: 
INSTRUMENTAL_DAMPING: 
FULL_SCALE_G: 
N_BIT_DIGITAL_CONVERTER: 
PGA_CM/S^2: 319.957
TIME_PGA_S: 
BASELINE_CORRECTION: BASELINE REMOVED
FILTER_TYPE: BUTTERWORTH
FILTER_ORDER: 
LOW_CUT_FREQUENCY_HZ: 
HIGH_CUT_FREQUENCY_HZ: 
LATE/NORMAL_TRIGGERED: 
DATABASE_VERSION: 
HEADER_FORMAT: DYNA 1.2
DATA_TYPE: Acceleration
PROCESSING: Automatic Paolucci et al., 2011
DATA_TIMESTAMP_YYYYMMDD_HHMMSS: 
DATA_LICENSE: U (unknown license)
DATA_CITATION: Turkish Accelerometric Archive v 1.0 - Disaster And Emergency Management Presidency, Earthquake Department
DATA_CREATOR: AFAD
ORIGINAL_DATA_MEDIATOR_CITATION: : AFAD - Disaster And Emergency Management Presidency
ORIGINAL_DATA_MEDIATOR: AFAD PROCESS SERVICE
ORIGINAL_DATA_CREATOR_CITATION: AFAD PROCESS SERVICE
ORIGINAL_DATA_CREATOR: network: TK
USER1: GuestUser
USER2: 
USER3: 
USER4: 
[...]
39.113046737501
31.98878993723031
24.24289196535548
16.463710780141856
7.391455995570836
-3.0429680003990014
-10.266089820561588
-9.274915450437256
-0.7411750941134304
8.315807887152667
12.595980548613126
13.857807499899355
12.925296132359732
10.059017471014242
7.264381990823028
3.515712711478479
-0.3255387322469571
-3.080574654558614
-1.7521113927055267
3.7651326612744493
7.846279628285736
6.110700523479087
0.3269055831096394
1.8945537477305359
8.563521457546205
22.347301782604934
24.256106120957444
12.180597451135556
18.563020327176037
-19.08258197357717
-60.38658900389984
-35.39357823638599
-53.97746381160585
-87.61344840392722
-75.98269854655398
-76.47241860715147
-75.34511618705525
-58.2484534253038
-40.60558660361754
-29.56083387408465
-20.606039183000917
-4.801556423505901
13.516546333212709
26.36267500195635
36.34301925832117
57.38176791499619
62.214382092745296
54.083676827472864
62.1361702870712
51.43518301170847
26.602985052428156
16.234704234840088
5.964824609454393
-4.98458826027315
-11.407685701196945
-22.635116906007966
-32.026410661274895
-23.554136814951814
-10.894402111683632
-3.8582768557908116
3.9593573868451357
8.602864340517316
14.094392304214427
23.877984117761834
33.125079373871685
41.04365499901251
49.97468441010937
60.54180841600945
66.384708665503
56.46931592796803
21.829046697602184
-28.894729190387846
-74.3756129901037
-103.40394285062528
-115.14347387193688
-110.1031586708301
-91.3090182706547
-68.28025238957025
-47.65272276264152
-30.19233323100493
-16.428467141528106
-5.005903973521988
3.245560612095594
6.542145391879458
6.212411321207058
3.8758899695114604
4.920370804335021
15.132868151833039
32.2452900109043
50.41020631592532
61.47848138455694
59.398559485082124
50.086394402613365
40.64794821843168
28.35177986473191
7.74852720420037
-22.00962373075543
-56.85777454385425
-88.96434082160074
-110.77497395632723
-119.33956299674826
-116.74894172333782
-108.79323796428505
-96.36120594559334
-75.8326474745193
-48.12570292709991
-16.203856352405076
17.52124083260917
48.80573684000978
69.72881098918754
77.85976603175446
79.50622363258647
75.89363599027877
68.69255021885323
64.60072070862073
62.89353676295578
60.42778188834859
58.09930901712669
56.46970785015639
54.855748974764644
51.108634586067055
43.30445786858381
30.720309635772086
14.534363294919995
2.875889140287446
4.8257176574580996
17.297415936610385
30.740609209940676
39.040305224995095
35.455823121330994
17.889836348414743
-3.895087187461614
-22.35489621252252
-39.314595583639445
-53.37686801730847
-57.927095004410994
-53.44196673124449
-46.97847939977711
-41.99192835253439
-41.21797831617358
-48.33487056043886
-59.79910426472168
-68.42660667998183
-69.91565876499378
-60.65933789603185
-41.45520273154397
-18.836955499778625
0.6844004955780272
12.062249109644325
13.841518676644505
10.175370939300173
6.929032290990482
5.852020554608802
5.488931060285931
4.812630335474957
-0.17303814124865907
-12.992173767928994
-29.002624065413805
-43.89966720543426
-58.740393484320556
-71.00960200945742
-74.79499393706305
-67.25348622359778
-52.48110755839263
-39.95472476051883
-33.88462264787447
-31.219581838558632
-29.535117066151194
-30.14668361606554
-36.55485979670732
-49.364758592628306
-65.61032559220347
-79.5392413436066
-83.79275015603072
-78.26666316564454
-68.81349400956046
-57.67271111063092
-45.12352360455262
-34.49610939571276
-26.812362377507796
-16.684102993039744
-0.8308478229914514
15.31324287719926
24.839023359869984
30.45515977608931
37.45504656127626
42.69012650007926
40.643121060451726
31.4546818896362
21.669877797374355
16.196066870597402
11.11712262473533
4.4761056290019
2.2317851993098006
3.280107526703746
5.722204712943787
15.734630514085518
30.568138786343955
44.30827920419418
57.35746656210816
68.8898204404838
76.19945680476367
76.35147730569675
69.25946170130447
54.621852154785806
31.933325189082158
9.028510755602895
0.24107352639583157
10.334005114515717
25.86374407459379
30.795813895451467
23.289349549274892
18.06537900202775
25.21627590129075
38.881077988973196
57.93393914083092
79.46990771337595
90.98395846013324
88.43773376744824
76.32840370899743
61.124861175323474
46.05333070624101
30.213675799946007
16.77720562007145
9.725310374793098
8.097776393601091
10.851947619539333
19.282196630800698
31.13368315299606
37.54328354179264
32.214151150301426
22.00891502948912
15.734144807788686
10.273213073777027
4.6835111236468485
3.938850281938005
5.987827399360945
6.190412930056944
1.1795175624432976
-8.460552678655727
-16.51994806378671
-20.67476718927401
-21.46104316811526
-16.790406628977397
-6.913116226839134
-1.2672388592449961
-8.856930824091336
-21.60422819573839
-28.774155698002353
-32.126096083811646
-35.59732224488603
-41.92555303632513
-53.54603250019603
-70.89735140067764
-90.01660036345227
-102.67650135713144
-105.99789961082094
-102.80727766456434
-96.02598483869942
-89.84668183230968
-87.08297495048795
-88.8891438362801
-90.42341805135186
-80.62406946116045
-63.69608107606564
-49.169806736843206
-31.56896851425635
-11.695043965735852
2.370577989008048
11.773922370155198
17.724291783461346
16.84849258927553
15.412809370509505
29.910832907620055
61.29385389628484
93.40641463636325
115.20870767238625
121.34463555608077
112.87576061031402
100.43985884096016
90.12761728748346
76.00971929413848
53.272679641411465
28.76703591876003
8.017410699713212
-8.015773735594726
-12.5437272523488
-4.083041885818014
10.607080313911574
22.820817777705095
20.15322719099192
-0.9073716057259291
-28.707986978305257
-51.14379229161285
-65.33439760421122
-73.47811513293074
-77.35374988474916
-78.75427201644703
-80.4496881649398
-81.49716921766613
-77.3008511455373
-68.11794070990666
-56.53433657376482
-41.46171909232145
-21.37118479518682
0.33292475220051465
12.890510014766882
12.120878973471319
9.775400925315134
14.762463485643112
23.96594569785585
29.539385372826104
22.301268048730364
4.5710773270394744
-9.096991314744823
-16.59344008042773
-28.11916423359872
-41.66905758061175
-46.105534055276436
-40.91508143691085
-33.89026745328282
-26.763166936141896
-14.706877179994706
3.0639949200610936
21.574359386915145
32.721845641518854
24.77570064580007
-2.2671262604959095
-30.660647800631914
-46.08718751275421
-44.498050788506255
-26.792966179450612
2.536114317108907
32.05424059457102
49.108424247856085
55.690112507877224
57.15400711850356
57.142554954287625
64.52436737182525
78.32028596453291
90.25104164213586
98.01634149079958
101.59299859385042
100.78955497125209
97.95074197106632
93.17413812525088
78.54127423246265
54.780269877199046
36.853998420953104
26.30548357043406
9.039952794733598
-17.68325481737741
-42.30915996067482
-57.82929838721599
-64.73609110869067
-66.50250943497089
-75.16370541216985
-97.22649252781733
-118.36527047565224
-119.32581036205622
-98.21563098022713
-72.19700716138942
-56.4203438740354
-53.01254143022937
-55.32908915454414
-61.31603844566704
-74.27831640653861
-84.04884835131165
-80.97973760613759
-67.18998826772746
-47.60813026618228
-32.86526053790586
-24.95268377943515
-13.668875944561636
0.823691850084515
11.274428586507659
18.046864277498358
23.81080121532294
29.869182764178554
39.11316823256213
49.06568023261293
50.665430958860206
40.25119659061346
22.16230653833325
8.020505865825697
8.898401830188128
21.04208728065541
30.5088014274646
29.848707816475834
30.017319154750766
37.65008451443392
41.39509656020306
41.258666527593526
42.39575185709128
36.167830521172895
20.819102476285412
10.151287918130656
7.125715406104578
-1.7284002594822816
-17.800018849578358
-32.013195224870984
-44.964656638388924
-58.563101031859425
-63.41684247890976
-52.735043423836885
-37.28689010781776
-28.020605122301134
-23.782481310012702
-18.16771712149555
-7.07322856013791
2.6196410757416775
4.293013669191518
0.7276543810606381
-5.93074224829678
-15.151702331285067
-22.217670156721844
-21.8286510377899
-16.491236310998506
-8.990471392084656
1.7603446370383364
9.792887955926721
7.977937827298438
-1.1074597751974187
-10.22324519399192
-14.598362299650516
-12.969881069782437
-8.477161816586403
-9.962469551352541
-22.10024352797837
-38.22143812592005
-49.280709487404465
-47.052106514317956
-31.034957074436978
-14.072831266465995
-4.491529639250071
-0.6735350706536395
0.9125916202386183
4.274570089178016
11.126971912785795
19.754135746620612
24.193460067560245
24.97656141790513
31.995290429327127
41.655003717310855
44.07427012805229
42.50898407821184
39.92005637768649
34.83396344689609
27.974419671506862
20.203360691199236
11.316608490952545
-0.7187723285369918
-19.437552012043255
-43.355890588181396
-60.75342931934725
-62.035315891565446
-50.03982039078639
-33.48644145546161
-16.188697685620472
3.3452095156614567
19.203748515428664
23.529052503960056
19.493721859977146
9.418572860354702
-8.610376746266
-25.368944667975835
-28.189006917258467
-18.929582522694847
-11.879043146114727
-19.55716237677345
-38.357276780198745
-54.88927446953694
-59.88047796963899
-52.51212982704153
-43.548989564548705
-43.564480281703034
-52.128666288172006
-59.51524261491644
-54.29715413466365
-35.88183703356242
-12.917576248436053
3.8956470644757486
9.05727057923795
6.790338850183685
1.3940921205612429
-7.366310144000215
-18.638118062452563
-28.841581334476665
-36.10512122556369
-40.99697389010097
-44.49286927100095
-47.86117889150445
-48.39556625527681
-41.82708580657401
-29.158476377708798
-16.238240394309454
-10.997542346945595
-13.949192964814525
-15.570947811154618
-10.170019375738383
-1.9198632949379855
3.7967003679111406
7.56187860210169
13.794884880596115
20.904405776842285
18.502287454375484
5.193842534274662
-6.013458255701089
-7.550757159153278
-3.7267535510212255
-0.028382170451619074
1.231450462963163
-1.4723109391238147
-4.951195326162689
-2.5318827652734166
6.155248148888733
17.168941238652167
28.643731398548372
38.829553749113316
45.831676419549744
51.14550638074082
54.79674781810557
54.134482985642265
51.00529312357257
46.88106959728578
40.24367803249407
33.71739456924878
30.482534054261034
30.19696971859219
31.851499694609583
32.34523225126476
28.134338513345206
19.961940873186432
14.55040081233638
16.54750968080689
18.055986252078576
14.165278877208513
10.451954681242828
7.906114785674535
4.801990725371149
2.482691235012159
5.352936399354094
14.020131132582318
20.13792677022864
18.327774821926692
10.357709856417488
0.2719593281401788
-7.7102089773306774
-13.041803688560805
-14.372588933276962
-6.160522792811761
9.51210420011157
24.22993733491442
35.54831658989856
46.19408241441089
60.497547566393344
79.23690363100738
97.81387382859072
111.87684885757312
119.64770986927502
121.51815287301157
119.83229309740803
118.20453978168023
118.23593758264938
120.84512954901372
130.65079342038197
145.62881631605808
153.54853992149756
152.52434991526493
150.9775577842823
148.13781042760738
142.96431198963657
142.93736975855364
148.24901235924997
150.8594551282642
143.18670036182786
118.07031562908772
69.8376925664332
-0.07877893282279863
-77.57461623999868
-146.64521343150798
-195.62303149886057
-215.55590058569223
-206.78967680641495
-176.71276909905308
-139.45023369823144
-106.88437395135847
-78.63143132488094
-52.79414100030926
-28.634810754982503
-4.908341261772504
16.68664220712844
32.05519466173289
40.3066949863584
41.84215204015155
36.38029207209212
31.028191592843843
33.849873357945064
44.40300406596051
55.52862445345335
62.7433002390309
68.39859844199702
72.40292300511084
70.23580625490243
60.112724588408255
50.45257426732224
44.997837867699374
34.462336377016484
19.297733883545412
5.923385311768563
-8.102192248051177
-26.40622142082671
-46.43900559775274
-63.46650142296905
-76.10663941181092
-81.92750728883837
-78.91085566911985
-71.78069877132015
-67.28147515901159
-68.38970674414149
-77.14522763782112
-94.38903416690864
-112.99372020934389
-125.42761208068949
-135.04327845494032
-148.5261488059079
-165.8647805048309
-181.64256975874352
-191.55078380060934
-195.9007739062846
-195.14870451243422
-187.12670923418136
-173.44390403250867
-159.69326778777824
-147.17376585128997
-132.80622966948746
-116.6269364731052
-103.44780008244821
-95.86430544475407
-91.54421869805392
-85.43197271811817
-71.00374471919457
-45.3396726047133
-12.352032647607887
20.093667987134136
44.58561096851593
57.97103636702659
62.54437012148335
61.7490785371363
58.283698040218944
56.300558034082144
56.4237015215695
56.95395449062043
57.78182420173513
56.587361013109636
53.85682683353397
55.21893992743456
66.25871984279858
86.85573637168781
110.18322342385504
133.64904742700887
159.63461000214156
186.52163459783014
209.23114669203648
224.8154468556984
236.15316214104502
250.67885334115627
272.46825262484435
297.8732162620812
317.8781610665038
316.00884160954547
279.4594583876272
218.56207713993643
156.84204600164918
108.1355592442836
74.74398388490184
57.18824683725356
53.513782165989355
55.46880665330141
57.90609650774704
63.86841321983668
73.92593787306599
84.70008824253048
93.55010244620496
100.25442106646454
107.226174277939
112.90369099843983
108.95933133536451
91.60886615656622
75.48997108047777
71.67137066727732
70.89613200144146
65.761252776163
57.72718567356347
49.680745431876794
40.771497904342546
26.93883003375729
7.759058347321363
-8.674864728637383
-15.14117446241095
-15.775117196998444
-18.084082582423374
-24.994702397685803
-35.283058101410845
-47.603223659384554
-59.26711096583351
-69.28754420339357
-77.47310134911378
-80.4997537199715
-75.67687219319328
-61.68117616991336
-48.5420637313803
-44.26012713609666
-39.52725451141802
-30.580929866465056
-24.687459876205956
-25.15751675181405
-31.876944345004688
-46.14414038107977
-63.92574646731309
-79.76337807711617
-94.2760758633268
-109.31137543717807
-121.51282034498105
-119.73755676953705
-98.07593315325092
-62.703165280136204
-25.8531162103353
4.622399180418161
31.941221555106882
58.17251435123678
82.98569016504062
109.34429559028209
136.69473668319736
158.80018166075084
170.02746107215896
169.4694237261383
158.85950869960752
143.28331245642042
125.61337824682953
103.58015876761303
78.1569110084727
50.72595037113238
21.534855397559188
-6.082797280825304
-27.717717487839735
-42.18889265302968
-54.64037498693652
-71.63878872569755
-93.58280720290537
-114.27490724447105
-129.93755273837036
-142.38337617867634
-151.91143993406882
-162.5588015474888
-179.49196940532283
-198.73123611135225
-215.3161615631336
-225.04132608251754
-225.72262257332568
-222.11717434972869
-221.21339245669415
-225.99248553581478
-230.31556535185118
-227.65440731643127
-219.95035244269306
-212.87284297888647
-209.30147792530732
-209.44527390407526
-212.53275101741957
-213.39862327594153
-207.61889286497592
-196.30090668789882
-183.095700374491
-173.02562669767175
-169.59318833544447
-169.67110485923314
-166.51260070079894
-158.41990063990679
-146.6740570971317
-133.24642714104488
-120.88789633110102
-110.96399575961019
-104.99074906363717
-100.81002538932476
-92.1422384554586
-80.73327650565895
-76.24777838595155
-78.31469577801474
-78.71981251486028
-76.43674539698263
-76.94646022748405
-85.51385992422142
-99.29922179490788
-111.40157084381306
-120.22804049570155
-127.48988707330119
-132.1413029198378
-129.50236931778886
-118.34959858476944
-99.19427873538402
-71.88236312875516
-37.999646730644805
-0.2446709355446356
33.19818719095984
60.132933427555116
92.51085894640565
134.82951025702715
176.98250450256185
208.1860853934836
224.96026335262295
232.80152690513484
235.9409420439713
228.86478852905026
211.2090387067221
189.73340033269477
162.60741296745877
128.71330729756855
97.47592887257512
74.64620725365877
55.82582118738532
39.480420826746816
32.74131802365067
41.12503545468777
62.00551317041895
86.5581667083492
106.96603293200727
124.38328341371513
144.94318245575772
170.08026051007266
197.1821971997004
220.45742714925325
227.62298913997458
216.60756891521135
207.4151019590366
209.84309932672443
208.0926756358178
193.77676571113824
176.3984224864174
158.82798163824575
126.59479169619588
67.60068120989516
-8.720525752630456
-81.67113199620364
-139.01607098673196
-177.84456413852314
-193.88577264426263
-187.31924285041472
-167.5901009681149
-142.680331324357
-118.82279646593206
-95.91272263952459
-72.36998750912072
-56.74846707297168
-48.88144357487404
-37.89922284849725
-21.64697727008836
-7.5087953372311205
-0.4905084922870434
2.087183697934885
3.3339122600318065
2.3051248253599583
-1.2313507586259165
-9.214304256179195
-25.013067529840107
-41.94147733562404
-52.966234818850296
-55.21139384629137
-46.043896422214466
-29.955152723102035
-16.56762234142573
-5.242327087172547
18.230998507047893
52.4003162829528
87.54222735823481
120.74881006467143
146.52051911597667
166.3601084268324
181.6011994976102
191.41289190077356
198.06630940040776
203.29520790459176
205.0983830226353
192.91465075310745
165.9900746405463
138.9698158842106
121.06996598189788
111.58003871858459
109.6342554535985
114.38692642525001
118.50870297838941
113.60133560709376
96.7740751506975
69.8561602874371
40.30533452188137
16.444654995421928
-2.5348572258141733
-22.67551285282849
-46.75850812436817
-73.2408359679618
-97.86890143817126
-119.90018519012303
-141.8388461170981
-167.08116316715058
-196.521618088027
-225.45516057584908
-245.81923468401854
-254.6892283551039
-260.8741101081644
-264.99329594868226
-260.73305181347683
-247.76249852532072
-224.06823902335964
-194.3349484006061
-165.48622781893752
-143.12238490898014
-134.03927622151195
-134.92288473588576
-143.52775147241314
-157.94930274763402
-167.7655458254603
-164.1214759087805
-141.3828832802212
-92.16307621144988
-4.121312290285723
109.19131620901351
206.9589317334435
269.8361495084028
300.58169779983416
309.85630129543466
303.72756337579915
284.7340604934296
268.81643274099105
264.64789426675384
265.1366033377918
260.057531228395
243.48321987980916
219.22801190827946
190.9298304884578
155.70214600970908
114.11505816670568
78.07988163560607
53.770862032033435
31.808854212217227
12.913841020255287
7.347359742030206
15.893456632245433
30.407192521211787
37.63917024748989
34.58964500554795
25.608373150674165
7.083540286190787
-20.454128250517236
-46.585889645748836
-66.30330370067631
