AAD_Filtered_TADAS_FILE
AAD_BASELINE_CORRECTION: BASELINE REMOVED
AAD_FILTER_TYPE: BUTTERWORTH
AAD_FILTER_ORDER: 1
AAD_LOW_CUT_FREQUENCY_HZ: 0.025
AAD_HIGH_CUT_FREQUENCY_HZ: 40.0
EVENT_NAME: 202302061024
EVENT_ID: 13207
EVENT_DATE_YYYYMMDD: 2023/02/06
EVENT_TIME_HHMMSS: 10:24:47.00000
EVENT_LATITUDE_DEGREE: 38.089
EVENT_LONGITUDE_DEGREE: 37.239
EVENT_DEPTH_KM: 7.0
HYPOCENTER_REFERENCE: AFAD
MAGNITUDE_W: 7.6
MAGNITUDE_W_REFERENCE: AFAD
MAGNITUDE_L: 
MAGNITUDE_L_REFERENCE: 
FOCAL_MECHANISM: 
NETWORK: TK
STATION_CODE: 2715
STATION_NAME: 
STATION_LATITUDE_DEGREE: 36.855364
STATION_LONGITUDE_DEGREE: 36.685618
STATION_ELEVATION_M: 431.0
LOCATION: Kahramanmaras_Elbistan_Turkiye
SENSOR_DEPTH_M: 
VS30_M/S: None
SITE_CLASSIFICATION_EC8: unknown
MORPHOLOGIC_CLASSIFICATION: 
EPICENTRAL_DISTANCE_KM: 145.61
EARTHQUAKE_BACKAZIMUTH_DEGREE: 
DATE_TIME_FIRST_SAMPLE_YYYYMMDD_HHMMSS: 2023/02/06 10:24:52.1194290
DATE_TIME_FIRST_SAMPLE_PRECISION: millisecond
SAMPLING_INTERVAL_S: 0.01
NDATA: 6688
DURATION_S: 
STREAM: HNZ
UNITS: cm/s^2
INSTRUMENT: sensor = ACEBOX/SARA | digitizer = 
INSTRUMENT_ANALOG/DIGITAL: 
INSTRUMENTAL_FREQUENCY_HZ: 
INSTRUMENTAL_DAMPING: 
FULL_SCALE_G: 
N_BIT_DIGITAL_CONVERTER: 
PGA_CM/S^2: 27.738
TIME_PGA_S: 
BASELINE_CORRECTION: BASELINE REMOVED
FILTER_TYPE: BUTTERWORTH
FILTER_ORDER: 
LOW_CUT_FREQUENCY_HZ: 
HIGH_CUT_FREQUENCY_HZ: 
LATE/NORMAL_TRIGGERED: 
DATABASE_VERSION: 
HEADER_FORMAT: DYNA 1.2
DATA_TYPE: Acceleration
PROCESSING: Automatic Paolucci et al., 2011
DATA_TIMESTAMP_YYYYMMDD_HHMMSS: 
DATA_LICENSE: U (unknown license)
DATA_CITATION: Turkish Accelerometric Archive v 1.0 - Disaster And Emergency Management Presidency, Earthquake Department
DATA_CREATOR: AFAD
ORIGINAL_DATA_MEDIATOR_CITATION: : AFAD - Disaster And Emergency Management Presidency
ORIGINAL_DATA_MEDIATOR: AFAD PROCESS SERVICE
ORIGINAL_DATA_CREATOR_CITATION: AFAD PROCESS SERVICE
ORIGINAL_DATA_CREATOR: network: TK
USER1: GuestUser
USER2: 
USER3: 
USER4: 
10.968796880244152
16.657295966207535
13.695054195402767
15.170971095457052
14.415521844168417
14.692021685222889
14.615548590098609
14.53412262500666
14.566330858491474
14.60310241708341
14.357253070314862
14.713857119614959
14.289052791360476
14.528383452266459
14.592883048266522
14.074789757043995
14.906803305654975
13.988135524870216
14.541050798654792
14.698052645716748
13.61121773037515
15.430653423190048
13.428252132497086
14.752989686815999
15.05431773441961
12.594105634507647
17.584444311743066
11.619903066549513
19.253435161194943
28.861163460321936
-9.820636895533061
-25.20563018098166
-4.793167420117188
-10.024583939644117
-11.27997778854234
-7.8609649361403084
-12.055463739450243
-8.543683067592209
-10.06854159053478
-11.167721386365324
-9.810539677977966
-11.721357184382027
-10.47686021977247
-9.969814451902824
-9.727849733493901
-10.145034671680579
-10.72508789635806
-9.073048449059048
-9.135441006481951
-8.372566003120241
-8.054807808790853
-10.324336723180851
-11.450864922768888
-12.552348253323224
-13.677534857998479
-13.288354774957096
-12.66309631860963
-12.488964131163398
-12.190756189946384
-11.750203262962266
-11.680400593104514
-11.78408447887183
-11.854493653460588
-11.530418425336089
-10.916421081956859
-9.83145832487296
-8.028896106312104
-7.376214840438334
-7.54174342056362
-6.718899531113392
-6.5655127241532805
-7.82703999266505
-8.656658416540267
-9.145993467888262
-10.011776001450903
-10.328907805894756
-9.980493272303926
-10.12936426659151
-10.354408592290884
-9.756853323974584
-9.511142597322246
-9.7660198575048
-9.128587218972259
-8.153233472410982
-7.142890432629951
-5.038405356281188
-2.698235454825114
-1.5757520989879295
-1.1889103312077585
-0.8473530708966375
-0.5666360191056018
0.26298904835996717
1.162084844414509
0.4884546819043246
-0.4743129937166734
-0.5028454672216924
-1.436333158201303
-2.992637833363033
-3.517854166162611
-3.784959691355996
-4.386545681843891
-4.950279613603742
-5.569840787757913
-5.992366710819462
-6.217300002064216
-6.831213001991235
-7.302114790269361
-7.524911611861712
-8.06309850436889
-8.048662736396787
-8.149347416776322
-9.378939628032548
-10.195351725067844
-10.90375764243787
-11.94403573019815
-11.836826778082344
-11.42074755572186
-11.645738081463097
-12.001098972025115
-11.900829294324183
-10.79014474283157
-9.836884336943509
-9.17950495658727
-7.772582454529827
-6.544015111844697
-5.62143990224826
-5.0750098862987345
-5.278337509727492
-5.072746066911418
-5.02039581542583
-5.543954102178978
-5.7876839377156895
-6.105951326915203
-5.685112785831093
-4.974192946945328
-5.872442985254678
-6.803226386209984
-7.080589451042571
-8.154783669847365
-9.154506560377056
-9.324930488332917
-9.401396614588595
-9.827189601408032
-10.226161549643178
-9.863491954976167
-9.898173612265573
-10.699196661050593
-9.968002729868948
-8.98875160414412
-9.588940915430012
-8.792158190268134
-6.5818254806184475
-5.586872425342015
-5.074670331203116
-4.5303299485644
-4.412215869126487
-4.703127628840112
-4.7645367323059755
-3.8832000210325908
-3.5313385946938194
-3.6088538052047165
-3.0997971388843117
-3.6241917864867146
-3.817538376449256
-2.2252168300874455
-1.6547865722827522
-2.0030804576634136
-1.664322059709485
-1.7499991072351424
-1.396201496630721
0.35159549027805903
1.0959091974821429
1.0503320767049904
1.870694637187277
2.334278575877116
3.011705345289109
3.4869042164519684
1.6766226230433812
0.42713509310730313
0.6237919074080533
0.31081696989119756
0.7127231264523809
0.9887302427410972
0.5594158316098508
0.9500648576921531
0.9732420417883414
0.41630903536777386
-0.3440599689620053
-1.7036739576474829
-2.934670730074904
-4.6843613765811565
-6.152374715041057
-5.988405210143734
-6.4739916031956835
-7.249193734853877
-6.277584422241672
-5.742504314785164
-6.805885052142891
-7.474983061743229
-7.162894777008979
-6.675109746980032
-6.361064303100318
-6.313512289456812
-6.379551337651735
-6.509698905609024
-6.824017348595325
-6.852069401517984
-6.209326008070366
-5.398707546031631
-5.337912380044745
-5.569766232820509
-4.949684845840857
-4.468757338864177
-4.563983198199944
-4.301620769838362
-3.6900434078375177
-2.3641362088626456
-1.1926664784596912
-0.899290176426999
-0.45809030769264203
-0.7612838951897369
-1.4357348815794264
-1.552636624652086
-2.0704177603414737
-1.6089509498082593
-1.138156006842862
-2.8828331581115867
-3.666370727170985
-2.813974108341636
-3.4141510388628635
-4.678107506682702
-4.854333281687767
-5.2032663777071795
-6.262567430907838
-6.346541600288903
-5.901030948244964
-6.390132709655473
-6.9039651435662135
-7.117440331382425
-7.351597433554531
-7.249500584553282
-6.990286238865108
-6.118193691075442
-5.13484538705363
-5.391745141238213
-4.978528189742561
-3.48483953640754
-3.288682212140983
-2.3141138352427166
0.21797052043586135
1.0967224447948523
1.8322784397709921
3.224379483873677
2.7308112032719554
1.7446085621639449
1.3193429019990457
1.0907238560575048
1.5184635377624125
1.0264687197030802
0.18476163505647597
0.8075703613821643
1.0207886546530869
0.37931042037125745
0.3785581638650528
0.48155407341470585
0.4028142014207358
0.4032782016302886
-0.3457990057917294
-1.3686430673028591
-1.253488084282254
-0.8054348997477915
-1.3043610940986474
-2.647885830607852
-3.9085867147716074
-4.0907378753560995
-4.232295672595388
-5.118589273508203
-5.5834977386466464
-5.994252882093779
-6.216077644639686
-5.3887931541874465
-5.025206949287264
-4.8507866739613545
-3.926690469179702
-4.119091186258245
-4.948932551652895
-4.394745640541771
-3.123824276926963
-2.124292266816371
-1.6103832887047473
-1.6236583643249114
-1.8382422597391919
-1.9555875412608408
-2.108877435742029
-2.693911465363074
-3.2650306694390063
-3.4032995461085838
-3.8520022846136768
-4.883837449072473
-5.693921584606308
-5.766453406185097
-5.7920658173002355
-5.9804375601188084
-5.852816965507086
-6.190389109592217
-6.495153652917466
-5.928154426566504
-6.199778874904454
-6.9771573756623395
-6.763663534352567
-6.479859027653816
-6.3675625873891
-5.980681869438205
-5.301601360640372
-4.711002365107697
-5.153398576875101
-5.707801790147142
-5.161726598382685
-4.824063081848304
-5.578425957529764
-6.141406626648926
-5.727489426645537
-5.174732559078726
-4.7102903919179475
-4.181581492848596
-4.026095903024933
-3.7039293367516475
-3.1749084098813944
-3.0471833280466942
-2.5368724507694367
-1.7685918047183937
-1.7995525014624623
-2.2940865264256143
-2.4527740484191947
-2.4544004975693903
-3.023667061697143
-3.565673440395145
-3.5282639146938592
-3.5977883964218313
-3.690889518944639
-4.0415883895811975
-4.8108328403238305
-5.294517091174576
-5.748923960703522
-5.82054006023589
-5.542269412653279
-5.780466971572834
-5.551248117227853
-5.20863650404216
-6.030188659656403
-6.776230052408941
-6.5965837605619955
-6.141460081579279
-5.583618298959311
-4.334273159102649
-3.1036043873491312
-2.8764636753086705
-1.980819226296275
-1.0735053624182105
-2.296245905352246
-2.805848570206819
-2.0389983977520534
-3.1248856993812164
-4.3122745649028635
-3.966041792425011
-4.195441695148253
-4.696755373540697
-4.531327940113795
-4.68454552368733
-4.693167301548778
-4.265132143910423
-4.572099415759124
-4.834858551357429
-4.335265336969655
-4.202497008133519
-4.056670657764511
-3.72508341011
-4.3366184518265305
-4.971441105842754
-5.01749901290607
-5.405002596969942
-5.694836653576487
-5.648335279728459
-5.902243649426037
-6.533405034001487
-7.0165446583921325
-6.506214965436396
-6.128985438593092
-6.974227901077719
-7.180276416497294
-6.639059185951494
-6.902895374543265
-7.285567816648556
-6.791476528901629
-5.561670705741234
-4.907129609210797
-5.202718269530403
-4.842669608066279
-4.361211726730638
-4.544503091302396
-3.9971178356037234
-3.5032427460217836
-4.1748939457470176
-4.6782921359523835
-4.920245522119628
-5.790110743637917
-6.62075044281476
-6.771568436939567
-6.599568009840036
-6.11265510603574
-5.644552930825692
-5.941799093101819
-6.260724699922008
-6.047824456303124
-5.779641277885054
-5.464025498018649
-5.512567181628488
-5.607172396975047
-4.983677567361062
-4.533917150346493
-4.384304828048015
-3.8850793832835557
-3.1955583267861103
-2.600740600468392
-2.488562793067688
-2.4230623247122094
-2.530605094989887
-3.6379474636926514
-4.635769257919031
-5.175517731794183
-5.876042705948752
-5.9741596616780015
-5.732082411426967
-5.951376665632198
-6.245013159028246
-6.124354331131905
-5.663760528722253
-5.496337076162844
-5.569594205577765
-5.547615453613304
-5.819239767798609
-6.012155493417757
-5.694793128139158
-5.894437194794811
-6.772906936227627
-6.7868641892015065
-6.40524990124322
-7.051353622210348
-7.487365257014624
-7.564510158842177
-8.087429892726458
-7.619897642897937
-6.67384917264729
-6.3957334651126345
-5.631888671778121
-4.784276986182513
-4.593015542808792
-4.517052478962743
-4.4693974459765435
-4.3244006347853245
-4.5406763633094975
-5.138082681687733
-4.912109582682582
-4.369499536412532
-4.24278149288761
-3.8704791219502734
-3.9046896643212414
-4.476095334916289
-4.328042525647557
-4.5518536941292265
-5.63316900356409
-5.887888479243102
-6.074584633528788
-6.423633807492039
-5.799804461130654
-5.838667477956317
-6.308772940652963
-5.780247035744579
-5.999234273694667
-6.3323897983068935
-5.520229503631797
-5.711955629451157
-6.656408119025472
-6.615199015034893
-6.122182772738197
-5.641425813654752
-5.326628728368021
-5.275758702347738
-4.967878850489069
-4.154289880160022
-3.122784455378548
-2.5607601230819386
-2.7864179198885592
-3.006695224150776
-2.6458342173397047
-2.42740812079028
-2.6798576479098832
-2.612189753922395
-2.510671690645683
-3.0044933997278473
-3.093345765182959
-2.570918123846665
-2.448583126996013
-2.627777076166547
-3.056334236222991
-3.5487530020159337
-3.0376258658669553
-2.209929237121655
-2.14369818358818
-2.275859557307026
-2.1805535781779892
-1.4398631769044807
-0.4755801938617088
-0.1868320798939233
0.2553711030084305
0.7359355686032979
0.5160397336285796
0.12983325391414552
-0.8245959982453372
-1.9558224139373392
-2.192085224872848
-2.4988282470875034
-3.017825964181916
-3.0100666781079384
-2.8746568588078794
-2.773445016278036
-3.019765027079168
-3.607401366866554
-3.60989237256472
-3.408063654454883
-3.48431725064936
-3.519492857417638
-4.245235764379766
-5.043424707041639
-4.476758480908383
-4.250882258521917
-5.012593194984403
-4.747055454718287
-4.1427380011457275
-4.505161324168416
-4.868164972015921
-4.728308756006302
-4.5778715088102775
-4.89678437803593
-5.107107318922918
-4.9469834375413315
-5.333429538931949
-5.278770497480043
-4.775270023706368
-5.536011910477512
-5.917261550551714
-5.375557889351504
-5.5977556344956785
-5.567799023883076
-5.085259456675276
-4.892388592101523
-4.506111501268366
-4.358592647567883
-4.098118516198304
-3.5264344741590183
-3.599846754611762
-3.2148864726904747
-2.356084411706254
-2.437730938336996
-2.223801755668571
-1.6538723879611354
-2.0300863774409503
-2.148571480148172
-1.5626656528329737
-1.2571779681282853
-1.2311006861075253
-1.4015777479611549
-1.508904690292694
-1.2280350679143432
-0.8939499842930809
-1.0485097489927697
-1.6461896616416438
-1.4200029378853882
-0.39282827930085895
-0.2577248601336957
-0.4497972925227834
0.033195931772414866
0.07405350967372737
-0.33821678967028806
-0.30270110338852796
-0.30435459404912996
-0.6050529624790761
-0.8257934511242921
-1.0863194505363203
-1.1984972765047393
-0.896841175730159
-0.9107467067312197
-1.527369316186187
-2.033356348730358
-2.236071017718264
-2.1497252383611936
-1.8725266266784968
-1.8997179283746641
-1.6620106391525167
-0.8806448739145947
-0.644764847910305
-0.6408016461069539
-0.42668020141558743
-0.8107103070787399
-1.3320992154588114
-1.5381601941659595
-1.640098622618633
-1.1396200209929306
-0.27674012201784554
0.6112395613587142
1.3538549846194488
1.1974968468477445
0.7962855928895645
0.5970766929808082
-0.2302488418201722
-0.9485131147139598
-1.0186788524679962
-1.4228447205621106
-1.8240828250580063
-1.3525928310066633
-0.9234364709894878
-1.2244729073018727
-1.3409208305578506
-1.2370666737928722
-1.2931037218636225
-1.0620773155962975
-0.9537732291519094
-0.9337402343307897
-0.5854767017577903
-0.7207908093097746
-1.0394459065726684
-0.9071845560805845
-0.6437401623618235
-0.22631738454048528
-0.32658287788395335
-0.9207520417250722
-0.9320479463483342
-1.1496172056069716
-1.991844792914757
-2.163484640336594
-1.6649209660842863
-1.4764430559112451
-1.4738908218461517
-0.8288875802071562
-0.05309358400822162
-0.1857620101185697
-0.36259383976874443
-0.3283860158420141
-0.9510743410107572
-1.2091331108382368
-1.0203368712078977
-1.5154367681556669
-1.8165838576598574
-1.7975321588891893
-2.2531376607612597
-2.7937568225026146
-3.051265328145875
-2.5076259890930537
-1.6665989647098278
-1.855236674629373
-2.519685982906773
-2.817326734328325
-2.6904627472453697
-2.448597753895239
-2.6608032708678966
-2.7075470369684904
-2.047940171608029
-1.3431533346749978
-1.2437187250272734
-1.6762583197892769
-1.6956382615157595
-1.6020125787342703
-2.2517086261307773
-2.576172803293568
-2.5378089236483623
-2.978544010552468
-3.0296393047607424
-2.8721050839886897
-3.394515637815267
-3.714161444368949
-3.4357171617513362
-3.4668439102683584
-4.001765315715255
-4.45591895957064
-4.749916345245523
-5.049362301159028
-4.96953336023862
-4.4944789511345915
-3.9709490344391902
-3.3997743804863925
-2.9460587351279384
-2.4488518156763135
-1.8842978071990772
-1.7711526355973366
-1.4863825206973609
-0.6483714787750101
-0.11202865764409226
0.019200136968087533
-0.08843500885097388
-0.34080228921799455
-0.5935633930569186
-1.1416088168409528
-1.484229981114158
-1.3723698710068062
-1.4850172628091496
-1.4287354816059616
-1.1629377122433031
-1.1508596926461914
-0.5966048784180578
0.1101977259279886
-0.07943758583321359
-0.09631481868680508
0.48110062150651184
0.48564866525300165
-0.1868047926364102
-0.8731298317651568
-0.8536786449901838
-0.32644578457469586
-0.8115076426007273
-1.754764852169543
-1.6725713310838886
-1.5777238329681864
-1.579471535960911
-1.0037598666682337
-0.9651937777748563
-1.228448584150419
-1.0690173510584309
-0.9245848707771835
-0.5164608064421906
-0.30212389606387313
-0.6483978025341421
-0.7244541451396429
-0.5674183107768977
-0.08807325706560903
0.4501890246657861
0.4742037238977651
0.8423820111531249
1.1522912829909655
0.7291080066505606
0.4577130431103371
-0.10925017113781393
-0.969305485395619
-0.9885851190023093
-0.9821747867785084
-1.4286496730229425
-1.5028575114233795
-1.4625319047507916
-1.3618654305246118
-1.0403010304487141
-1.4033691480569717
-2.023692580586881
-1.881108661627004
-1.8936999327463409
-2.1710459798337176
-1.8750530690639193
-1.85104648470828
-2.361363792571967
-2.369674229903664
-2.0523701443103333
-1.9588932905571828
-2.001166668775456
-2.4049412408560937
-2.8022073032512353
-2.421334025514955
-2.0043228696122943
-1.9837047846083866
-1.5714534075845465
-0.9318765124618617
-0.39442875962693275
0.002346846956229498
-0.051382587222633225
-0.030011516046018538
0.3084546358841929
0.1381682699907557
-0.6122237358846467
-1.08258474192451
-0.9858554888831872
-0.9738849905772446
-1.0761405314816432
-0.674085822812846
-0.18662727254700712
-0.2521600044654216
-0.5046947831679078
-0.4155307439144782
-0.2028483546175603
-0.24764006348102774
-0.40069148451548486
-0.7064131039439987
-0.819323033237862
-0.22023642988636327
-0.024323023046190106
-0.5341428346115435
-0.7459366014761598
-0.989046379400836
-1.0246710621328428
-0.6839469665867279
-0.9942693320320306
-1.133602045913592
-0.7948988901595878
-1.1520715893286608
-1.5317223917900402
-1.5398253633599346
-1.637747905187331
-1.6879977882192958
-2.0436432275953607
-2.523354043427171
-2.6556236210692834
-2.44369313089277
-1.7553516977310626
-1.4001442946048759
-1.3967650189600849
-0.6122543783131628
0.19216179964993602
0.4773784581153784
0.9517097001783856
1.2546801769082376
1.4030121707130687
1.859586977733168
2.1004856038761592
2.1087355728268813
2.3497250227205617
2.702271313344908
3.135859923089613
3.4370952202570657
3.1811882124058357
2.9746758098709054
3.1614737672107887
2.9834625293903465
2.8527852169866486
3.3769253605434355
3.558360726103163
3.092402489274458
2.652046634721528
2.353135746741188
2.0620067673500406
1.5494713240974702
1.0562233953111595
0.9234288378927442
0.5827806601980765
0.1837585561850661
0.42587730681123537
0.6436355954806128
0.5449108783934576
0.8526609759265138
1.1855753879773214
1.112358198694815
1.1058285144831326
0.8670134270742373
0.15913001226261192
-0.23023981762679174
-0.06910568587818672
0.034949293665310854
-0.20571580115896015
-0.15694000839555494
0.44038945560620013
0.5406156557790215
-0.03752919194343801
-0.24710821748490885
-0.08830571625278272
-0.11703803138492058
0.10767223762607331
0.7653329675935695
1.0827597246505687
1.1488733410434657
1.3389292621147146
1.3288379372447698
1.5998971442595504
2.13399304659418
2.0156611881866975
1.9922080165602407
2.4568290965764827
2.269724902730059
1.8856303735554898
2.2230077074595873
2.613805137547447
2.707936207123545
2.7772457271527253
2.8551349812215574
2.9526362747101524
2.8343140145604173
2.622523827490879
2.865069723097665
3.20981732480963
3.0416879966659467
2.9146954927704325
3.227171255946752
3.030092887517734
2.3620082397093682
2.201843388417814
2.0172451669005205
1.667576898198158
1.7860578227432686
1.7527737246516617
1.4200715847427765
1.2420105640928711
0.8282553436661471
0.32954516263347405
0.3298396414175469
0.2744080174471822
-0.1895374828138673
-0.20692487115953512
0.21928168503095602
0.33565984713158437
0.16404855505360133
-0.12716111571188854
-0.21595953330482354
-0.052848399805988155
0.15988060077488292
0.86374256132123
1.3678473516475516
1.014960274041401
0.9952068213349895
1.174300502916911
0.9120302329721144
1.100201925974185
1.2923441972214817
0.6288505216277653
0.16874642509055798
0.28100214449070304
0.10792213846535476
-0.27797819286354186
-0.5441555227638568
-0.7515515905960635
-0.77214751701387
-0.7053474387141435
-0.8289877287955614
-1.4414855848230652
-2.3121574314081377
-2.317638566148047
-1.8545545278682187
-2.136962563117088
