AAD_Filtered_TADAS_FILE
AAD_BASELINE_CORRECTION: BASELINE REMOVED
AAD_FILTER_TYPE: BUTTERWORTH
AAD_FILTER_ORDER: 1
AAD_LOW_CUT_FREQUENCY_HZ: 0.025
AAD_HIGH_CUT_FREQUENCY_HZ: 40.0
EVENT_NAME: 202302060117
EVENT_ID: 13194
EVENT_DATE_YYYYMMDD: 2023/02/06
EVENT_TIME_HHMMSS: 01:17:32.00000
EVENT_LATITUDE_DEGREE: 37.288
EVENT_LONGITUDE_DEGREE: 37.043
EVENT_DEPTH_KM: 8.6
HYPOCENTER_REFERENCE: AFAD
MAGNITUDE_W: 7.7
MAGNITUDE_W_REFERENCE: AFAD
MAGNITUDE_L: 
MAGNITUDE_L_REFERENCE: 
FOCAL_MECHANISM: 
NETWORK: TK
STATION_CODE: 3141
STATION_NAME: 
STATION_LATITUDE_DEGREE: 36.3726
STATION_LONGITUDE_DEGREE: 36.21973
STATION_ELEVATION_M: 111.0
LOCATION: Kahramanmaras_Pazarck_Turkiye
SENSOR_DEPTH_M: 
VS30_M/S: 338
SITE_CLASSIFICATION_EC8: C
MORPHOLOGIC_CLASSIFICATION: 
EPICENTRAL_DISTANCE_KM: 125.42
EARTHQUAKE_BACKAZIMUTH_DEGREE: 
DATE_TIME_FIRST_SAMPLE_YYYYMMDD_HHMMSS: 2023/02/06 01:17:33.6594550
DATE_TIME_FIRST_SAMPLE_PRECISION: millisecond
SAMPLING_INTERVAL_S: 0.01
NDATA: 12501
DURATION_S: 
STREAM: HNE
UNITS: cm/s^2
INSTRUMENT: sensor = GMS+/GEOSIG | digitizer = 
INSTRUMENT_ANALOG/DIGITAL: 
INSTRUMENTAL_FREQUENCY_HZ: 
INSTRUMENTAL_DAMPING: 
FULL_SCALE_G: 
N_BIT_DIGITAL_CONVERTER: 
PGA_CM/S^2: 868.819
TIME_PGA_S: 
BASELINE_CORRECTION: BASELINE REMOVED
FILTER_TYPE: BUTTERWORTH
FILTER_ORDER: 
LOW_CUT_FREQUENCY_HZ: 
HIGH_CUT_FREQUENCY_HZ: 
LATE/NORMAL_TRIGGERED: 
DATABASE_VERSION: 
HEADER_FORMAT: DYNA 1.2
DATA_TYPE: Acceleration
PROCESSING: Automatic Paolucci et al., 2011
DATA_TIMESTAMP_YYYYMMDD_HHMMSS: 
DATA_LICENSE: U (unknown license)
DATA_CITATION: Turkish Accelerometric Archive v 1.0 - Disaster And Emergency Management Presidency, Earthquake Department
DATA_CREATOR: AFAD
ORIGINAL_DATA_MEDIATOR_CITATION: : AFAD - Disaster And Emergency Management Presidency
ORIGINAL_DATA_MEDIATOR: AFAD PROCESS SERVICE
ORIGINAL_DATA_CREATOR_CITATION: AFAD PROCESS SERVICE
ORIGINAL_DATA_CREATOR: network: TK
USER1: GuestUser
USER2: 
USER3: 
USER4: 
[...]
44.282507789913176
45.02853656445365
53.60419101497097
56.753227046348904
40.029461483554435
19.37817529832446
13.676796378496373
26.699995025381472
41.27636060804867
41.41577190412098
34.53671269346905
31.19588683146244
37.09419535483337
44.511592694017295
39.2997386040647
30.072496365486877
26.01642432171887
24.05658147276718
21.84497762079498
9.684237326868256
-9.162288866172675
-10.827587916541043
12.593479545569936
39.14118379939675
38.97786603436536
12.999328634878053
-5.334407399551916
-2.212868666530688
-0.4530012505330856
-19.890751721724737
-56.93181235910138
-92.52738459086613
-106.70162770526757
-100.31747827020077
-84.88884192087785
-67.2886712614561
-50.058423679319425
-25.178948259753522
4.507183527552015
28.24797228596562
43.47805969872166
51.861751343708065
57.08089893409187
52.306052428852375
44.74394924083804
45.59129192593775
41.66400856045529
29.878324747138592
18.288491474623655
8.663859767699465
0.14740910618379816
-7.621784684378573
-15.732193967181058
-27.626745581783126
-36.949576766658446
-32.57656542740374
-19.27943724957876
-14.28560150455938
-27.090224474471782
-49.336801436806645
-58.885413053953194
-43.43496746990206
-22.24215150788967
-20.58722645989625
-33.41023384495964
-30.11414253110919
0.38454228832528586
29.645779449283324
36.071757679743136
28.87278644561481
30.890742152042787
50.17399681897179
66.35848637914225
57.99958255052208
23.179891464028824
-11.493128853286786
-21.015429500250157
-16.505859723877375
-12.633943058036317
-4.292334321821568
16.1173400344977
41.6918881870424
53.032468542446274
42.04985711202759
22.897421549101445
9.540335431788781
4.746596902412357
4.804660467386792
10.365303034204736
25.46505256447749
34.73871664789505
34.34223219517442
39.54479265230695
40.37508662953588
16.231329874692708
-31.279660889567317
-65.86758971096468
-62.682561823507505
-48.688194140662794
-45.725003641287444
-49.68224644517706
-58.608896154045546
-71.09983780413597
-77.04166109474315
-67.58124487097753
-51.93478073759724
-48.90725320177458
-61.581726645803904
-59.04208403036926
-26.541092088086682
4.2495828022650075
14.856935869641772
14.766109500961083
25.043671949561013
49.887442352647355
50.157427947779354
3.4339420654207937
-46.557167389064176
-50.45176641876783
-21.286609339071255
5.118340694210848
22.392641198252363
34.05068404741993
42.185943958414406
45.715123255013765
37.67340010175401
26.755522196263612
29.43648325407245
40.479469898894024
36.450823709534674
6.593719903889246
-25.905296862453913
-32.56698024197145
-12.674736243033877
9.163779683935562
2.3249769212167486
-17.898526064114073
-3.4737560437065693
34.89051768298379
38.38142955143656
-11.472556455056779
-56.66241387102901
-38.337843465098295
13.814757873995555
32.490647410872405
0.8759450291347342
-30.452967556696223
-17.339729780467625
12.451565441260861
15.061572054910776
-13.101964965125344
-35.16104954735363
-26.298677223760244
-11.847259340879132
-15.008576852735887
-28.717643301037903
-40.35590032482428
-47.84541111691533
-49.54842501763732
-44.51949407199377
-45.771285868562366
-56.08694388823046
-59.40704792673651
-46.09726588395113
-26.565550856653918
-19.715497477190027
-22.52686417536859
-14.096941222563814
11.408092628164702
42.43771347079959
62.20028765705854
61.81957145504762
51.18114147916551
45.99282360673935
54.35247561430825
66.1590008527626
65.74978616779431
59.61636962035414
61.39656221864874
69.18199256233461
66.83399246508402
52.2681115662011
43.52677457385909
42.75596292414192
39.287387273574005
26.06005694744155
1.0345699743704937
-27.5643496608999
-50.0678218703523
-62.62900683548302
-63.879987955886676
-55.39140943182985
-44.52165890147798
-40.24602801071857
-42.347892744048735
-45.64773650826251
-54.60280471008187
-70.63501051858282
-80.74661468252637
-70.78279675988752
-45.95166181747384
-31.70503498689249
-34.46218978668283
-36.08887389238546
-31.254099191186825
-30.27312722610274
-33.399448039858356
-29.331820352056347
-12.39787754333743
16.975649061478617
46.46663636423957
58.43016480770071
59.20145776252932
65.65317839490848
81.39431091791494
102.17928843976625
111.84723921176784
99.17346336137855
76.6188764864553
56.15057943660813
41.30693431644847
27.687316575512277
14.209529609782031
17.977313996774516
35.03154683193986
34.27032435805177
3.792496063423638
-29.11094078808912
-27.196281278815764
0.556012984070777
8.625544645800376
-16.11814937186857
-33.596771103192985
-12.400550009801627
27.226739017758508
49.29003487279903
35.75912153492076
6.850914655802329
-4.75164814948882
-2.12002293645442
2.493913089813641
7.462338554979387
14.68966422142151
23.404670012532925
23.40477312324292
19.51537544773437
24.656610221061772
33.2361758285321
34.131424870982585
25.818594327632184
18.82196857341666
23.90834372573623
28.453699760134832
15.87381341239378
-3.6790561418641583
-16.045338162528996
-15.253773065836521
-4.705632276273735
-2.3895305720570152
-11.408107440050363
-17.35980415705073
-14.299464400798481
-11.770148982880306
-25.81325643929456
-48.02339480829363
-54.64326327109323
-48.42088784379008
-45.17623540252218
-49.3821477235695
-51.49697338557922
-35.20191216351644
-5.853849946579929
7.980046770412393
-10.610757195192978
-41.54207390810066
-48.96353394283466
-37.37415911467655
-35.74584112907795
-33.57191946945343
-6.107800293282527
28.46259717484527
29.379425260558328
-10.48173758653325
-58.516125134928714
-85.49298357064839
-86.29065200513382
-73.36972481490086
-67.56829605588824
-75.95351135012919
-87.18017136101828
-91.30878219168738
-88.27805850408544
-76.50184408319353
-56.994602581223944
-48.30871438619588
-55.26310133452044
-66.62827114154602
-79.41525959127252
-87.1330397937011
-91.51590619224096
-93.62251043349917
-80.0199346200042
-47.5801503592688
-12.535463059851487
5.8503076972466985
3.303940805399145
-10.73147192643334
-6.84671525595124
29.528580570248213
65.05660808321602
80.70495483790184
92.47755548507561
114.6387809063594
147.52348860439406
161.3133898761481
118.81332547252968
28.085949064668483
-46.41655145328363
-37.606914837847064
23.318583679000138
46.47952064330294
16.848092817548263
-18.72470149489887
-19.657459902607084
8.702448742914033
25.305022048267833
15.79706341643213
-3.3614027610956057
-18.557077520463018
-27.80032712727763
-27.67678906163496
-11.485904182392789
16.577511449556923
39.79136581042381
43.67076072991234
24.76147585667372
-21.88072710619658
-88.09066976942802
-144.95769862917192
-184.62147307663244
-214.84319079080834
-232.78777597698252
-222.52255898866173
-160.56761103843604
-70.17352530316757
-6.187427208905716
15.097108768055904
5.482510372841245
-7.795846691539713
-6.8323598497114295
-2.1914707731471337
-5.607536108975897
-24.351248336601028
-43.6945773950774
-37.67841895264252
-6.289651860808608
29.78533255797536
51.50688689089633
60.6862079922994
69.58016164103265
83.03058866975432
83.61050509233121
54.25269795644105
7.905523973186132
-33.952487225713654
-47.3309968596391
-25.052715062798825
-3.2467375874850637
-24.774061335089307
-87.09825270708882
-156.6556260420899
-204.13689669570633
-215.00479009424924
-201.3595503658531
-184.36586526365915
-165.9454343060961
-126.82232005876956
-70.5785914637279
-35.150355100344655
-33.279705538551774
-44.3301590493362
-48.539432787983046
-45.920959012087806
-47.641396112102576
-49.361403976312914
-36.631091580707526
-16.967418218939212
-16.90191440143594
-45.784772284895006
-84.39439739648651
-108.6926987501356
-111.57244373536318
-88.05737791739425
-45.367472016630735
-9.428014744160865
11.698900389923217
8.26000849334863
-24.997862392126695
-65.05297198551916
-98.6125794277999
-114.84013865190322
-106.60720278597043
-91.564617360144
-81.54442573192082
-79.07161923122929
-87.60880233193897
-98.09023955583764
-103.9227368609775
-109.04153871765868
-111.12696439651371
-114.83643727568453
-126.78849321042932
-138.3060238040132
-138.6590884738184
-112.02399297214126
-63.653924914536006
-24.07406016545109
2.6541819524783277
19.881407113349624
40.86233182591022
71.24473253513146
56.23895906368552
-2.0596143976957033
-22.66386827259885
12.804851695006981
63.46261844812939
87.05493696967348
68.1878760076941
43.739998464650526
39.4180267439153
32.70422569987066
36.963564666703896
67.58128614328568
92.15345191314124
108.72278707774456
104.31210436966481
59.36306220069889
1.8666712534691596
-42.5041705620447
-59.935716814537216
-49.94902774632632
-19.19290030170783
8.510983547094193
14.833449695522685
13.352753916356527
-3.880202249963012
-47.61381820800824
-96.49152569175001
-139.70232277557722
-166.69117716379756
-153.7739268690324
-123.1543905156938
-107.38878312864769
-99.41084559919466
-78.84098545139439
-19.386981739538275
76.20744674265435
132.74921596640579
93.05291564329478
18.180700016291674
-3.792347115515885
35.90392602073115
82.04602891285478
90.92489039625939
86.11890041533925
97.66215889175383
116.34251257349376
138.59458628697456
153.54469032673336
151.82485893017693
153.5059839755489
167.63517123185414
181.3301469884491
184.1110316775602
168.68649003896522
153.72115271317924
172.35356121217137
197.32851509720322
193.43037225053314
142.31755336558786
53.103490337098876
-26.8715330797637
-86.19580455762774
-107.82931734318892
-101.0870495132649
-94.08951093673761
-97.63016104864916
-134.35802458934103
-182.1507756807774
-228.40595156720096
-264.7076715145556
-271.65532549483265
-247.02763918916315
-185.61767656748947
-105.2026402070524
0.37956539733591066
101.44957704499876
164.831643962265
214.82647735706485
203.73630853835246
143.42940933372947
114.09891410483544
124.07849318878267
149.59478926401712
144.8257979201135
117.9037047051079
99.72259103857864
121.30784705460547
218.2197493291046
292.6465683699665
295.40876601225546
294.66270060277924
297.5644505513316
309.2354958076003
262.3566767778914
139.31934823625377
37.630894650817794
-41.966034898898386
-46.98107111781827
9.854585035067828
14.386994742693815
-4.912907237335635
2.1540803372942934
56.96542932282979
115.88423203459907
105.66583280884889
50.008019389924925
-9.186903715786725
-39.57914560817866
-30.217400745429213
-3.86210028082172
25.747958360830168
89.88098387531048
211.37094265649674
303.6519215850397
301.2346815559853
218.55586288426161
126.96322645270797
105.1034091881466
128.48573125999377
192.79605786587894
248.58928088842325
248.78087760585876
268.9502324658672
303.6130666256956
378.37623889368695
500.967192543511
565.2961671710397
590.1223985116525
561.9568429917337
447.59680136722505
371.6170221314643
364.78171839039175
351.11151180159067
279.8621579756933
159.42987422686997
76.65822865547699
52.170965086306666
70.72774812524985
105.64573124317266
77.87658179840523
-12.188920770570176
-121.35827313281735
-219.08200377778934
-292.8537472462732
-386.8611384197912
-483.97123537314144
-505.6969024582292
-472.39957253489894
-450.56513164848326
-438.734706053613
-443.7153408364274
-467.5851914970108
-481.6401721723792
-494.45995597362264
-488.00658291666673
-450.3941779745373
-398.5481665213485
-356.64812027977683
-316.9899039448045
-189.46226364326114
-43.32698182768036
-13.863915697370082
-37.61530503248464
-55.664567035182415
-80.51201534938136
-54.101601332726396
46.9409022285369
147.2423157612153
194.9376355610301
191.59391123905002
141.6561638130992
67.51872340540443
61.24241699062934
114.76685145938542
127.74070872203141
96.20870358973706
70.94439186465107
98.94771222827963
165.70444122770397
236.95656754844086
293.4321876274435
270.11189936005974
137.84104307135877
-3.705634486845395
-93.09055442180473
-162.19943983711119
-213.883892143363
-215.15803419562448
-83.8771503747342
123.54894265545717
249.60698675682647
337.36094890379155
431.6168771645369
375.68970492328856
159.52568349429708
-61.68054663026146
-244.4973563456781
-304.864944775383
-247.09785974461786
-124.94998679092193
65.36709379855692
175.26193894801588
178.7492726635584
137.07640223385718
91.89505797441332
112.12898052853724
151.34288327442192
158.70764940632424
118.89200484911936
46.48860279007923
-17.577701070298104
-43.438389060930646
-59.764992788657395
-106.1416378085393
-164.17952058469703
-194.70011606934082
-170.83535791561764
-162.62040442421315
-174.8507011530956
-158.2744134131077
-101.48375265009035
24.668783963231537
190.00952100790533
325.77240706896276
406.9771166010209
447.62864928674946
339.6167904495389
99.84518386235617
-85.27124648664942
-224.53872634955613
-282.0168775268044
-36.55801260367817
364.3364771003171
550.5932666796102
613.8426216651966
617.1287384498798
441.0789895401201
197.14961027021502
3.556880100938931
-178.04500239925062
-388.57129133515036
-542.3642459994232
-652.5175421801442
-782.7127148822334
-825.0602835739215
-820.4350175924441
-861.7525347482059
-783.2733211415276
-611.3885962355776
-312.8004565019199
17.174273361716324
-25.620033431408636
-180.74332742148337
-227.80695991549732
-256.1325567249773
-191.1087429644316
-78.97601174263664
82.15924835668638
219.52600043903394
276.4386315904804
345.3080381025143
330.6541670837437
215.3852446684516
130.6883307500236
103.86578576440165
223.3457396910787
368.2122603570151
458.96461023143394
611.0794371278985
522.1476171890317
222.7859711120138
-7.723415395640902
-309.4747330368527
-495.7992823666838
-436.68959048400194
-366.5355717890406
-325.2714434887821
-330.4360468695172
-384.644005679944
-420.19432101598346
-323.6424664651749
-58.836209744303005
131.704258320672
127.49902610861398
43.32939902860568
-81.00666750467691
-201.04243173193862
-249.22288751482242
-226.7460035803156
-158.51811327339476
-102.42667088132123
-113.7289534098091
-174.36308378165222
-253.89251330859182
-341.8321163293371
-390.68296396102915
-412.21297562517555
-445.036685562782
-474.2941545011819
-489.2213582989369
-451.13367777405426
-375.0874957493196
-307.75490178511825
-262.74023633231076
-213.42357375634336
-119.05606670592486
50.69922330130311
328.6569251854021
511.6567973587673
557.4256704751243
611.3027144388432
594.8832835712486
502.5459801273065
297.28860623268895
150.39785388471873
98.68707193175898
9.413206321505324
160.05464988070716
388.2549214358205
543.8796628154198
696.9460393693861
654.5711637432446
508.4503195143613
398.00250971222914
357.73907837583783
372.2113386065704
360.2648971074573
251.93673355306953
35.07706823228828
-146.41183483962632
-256.17143273753624
-318.7386428152796
-283.1112344026731
-221.12357667028934
-185.10731401101577
-134.6760411910277
-67.11034449671622
32.195071746236295
135.24562361638627
181.50707584937334
151.54934388215986
115.33847896260285
83.51315506343485
118.97505787490793
220.1532904244828
261.1284959760337
281.860042402124
99.82648288246011
32.72498491034522
-102.90083815152465
-352.5764604111387
37.96918123737758
-97.9628136510039
-423.64250355466874
-75.22544943374962
-46.70582653251276
43.775447889551145
202.7493761701448
218.08443712538832
266.66205270586437
180.69000332344555
105.18839726038401
-0.8278952280437439
-106.28940321748784
-205.3434833062843
-217.13272205661673
-118.52744081929588
-99.7269613760562
-116.97767163010828
-182.4010172570491
-269.7871640579732
-297.205297989867
-242.48322280098614
-106.13531144931875
67.24107362960935
269.02358892760896
386.48691291529326
411.3697891711707
437.1045672751316
416.1347099453667
363.6594722062514
295.0176776069063
219.84237542601704
191.22874250933287
212.39490127062052
219.82575353043836
205.63976858977946
202.26972893861637
78.45698915419727
-82.65007449608392
-173.1714573021608
-215.68213539675514
-129.61352603751683
-101.50335172144885
-178.71816437480177
-252.39015854620226
-355.4427509210289
-442.7893802298854
-516.7170764926526
-539.9673833932799
-402.85450395996963
-89.45907266659913
207.89916010715095
347.4589195445973
397.55353107256474
447.34509752992676
408.23152945058257
264.78292700875454
172.46044744210323
-49.689720019589366
-179.87006493897445
-229.1360927238451
-590.6382153236859
-682.0816227376823
-520.6688873423328
-543.0682302320538
-519.9243195190807
-505.5909461915479
-484.63716950572586
-142.7733714768125
186.5749302580875
176.64546388843573
153.90516492233766
34.87193716999189
-169.1292855229757
-281.61136324061243
-404.8823225801443
-429.27266224361864
-388.34063621732764
-316.7958427812373
-191.5557394764164
-97.97592444133933
-53.66069422223852
-77.16313950974886
-121.83986774435019
-159.1833466471287
-211.23961340206571
-239.4091150707365
-263.1633990775528
-262.1488083539253
-201.08579059529583
-142.8533819266004
-100.21830906074678
-98.70734753362315
-133.2558478890827
-168.11959650043121
-200.3421549978304
-219.39226850011505
-236.523950748586
-244.65771062298865
-260.5975411694913
-293.84918175296804
-339.4505896275408
-388.3265158636535
-394.34524070764303
-355.9726937921816
-289.88655912757037
-233.0407755267898
-215.6826711690886
-215.80608115457622
-204.48304583560304
-140.8285010614792
-39.687191373541346
36.16049514258896
52.569532964667275
34.42173949081109
29.49242194773827
41.672295977520214
66.6086550417158
122.96013966480777
248.2624731433921
378.6678304258976
453.0930582949082
514.7203580551459
563.518781249276
632.8320098599265
697.9623458955122
679.4886303211384
585.6293671771933
453.14725720426384
354.6570494474384
311.2992466227063
312.69189318319013
341.84380422952717
355.9106782557229
353.0311843474761
353.2790233641981
386.13357095984463
420.76345142695374
414.594694731034
362.0389838204141
267.41359736389944
180.78782231017547
122.37064978142242
93.16635540312815
96.03599198396851
108.33152970165239
120.92643884455114
117.6239185314739
89.59850632428244
36.865488014798395
-24.856625185967456
-30.23158204345349
28.952852470118533
96.20295729654248
136.44807343808836
143.45305453295944
126.14214609351599
81.69835962242077
51.08587074788985
76.18702838555642
127.87005733202253
182.44217745315427
219.19685445990987
250.25501696095515
297.89772936057
310.6841451328469
286.91966883057665
259.07526034814293
230.46553992481932
236.54398404886325
267.2887380793362
273.8261867896177
280.16603521126154
282.8599628621594
276.68944716189134
300.37188930679787
310.8285404801898
335.62021327569744
358.92835164946536
411.92676258571413
472.7677728699911
487.0641067729675
510.74158276591396
