AAD_Filtered_TADAS_FILE
AAD_BASELINE_CORRECTION: BASELINE REMOVED
AAD_FILTER_TYPE: BUTTERWORTH
AAD_FILTER_ORDER: 1
AAD_LOW_CUT_FREQUENCY_HZ: 0.025
AAD_HIGH_CUT_FREQUENCY_HZ: 40.0
EVENT_NAME: 202302060117
EVENT_ID: 13194
EVENT_DATE_YYYYMMDD: 2023/02/06
EVENT_TIME_HHMMSS: 01:17:32.00000
EVENT_LATITUDE_DEGREE: 37.288
EVENT_LONGITUDE_DEGREE: 37.043
EVENT_DEPTH_KM: 8.6
HYPOCENTER_REFERENCE: AFAD
MAGNITUDE_W: 7.7
MAGNITUDE_W_REFERENCE: AFAD
MAGNITUDE_L: 
MAGNITUDE_L_REFERENCE: 
FOCAL_MECHANISM: 
NETWORK: TK
STATION_CODE: 0129
STATION_NAME: 
STATION_LATITUDE_DEGREE: 38.259195
STATION_LONGITUDE_DEGREE: 36.210863
STATION_ELEVATION_M: 1456.0
LOCATION: Kahramanmaras_Pazarck_Turkiye
SENSOR_DEPTH_M: 
VS30_M/S: 965
SITE_CLASSIFICATION_EC8: A
MORPHOLOGIC_CLASSIFICATION: 
EPICENTRAL_DISTANCE_KM: 130.43
EARTHQUAKE_BACKAZIMUTH_DEGREE: 
DATE_TIME_FIRST_SAMPLE_YYYYMMDD_HHMMSS: 2023/02/06 01:17:34.5207130
DATE_TIME_FIRST_SAMPLE_PRECISION: millisecond
SAMPLING_INTERVAL_S: 0.01
NDATA: 12501
DURATION_S: 
STREAM: HNN
UNITS: cm/s^2
INSTRUMENT: sensor = ACEBOX/SARA | digitizer = 
INSTRUMENT_ANALOG/DIGITAL: 
INSTRUMENTAL_FREQUENCY_HZ: 
INSTRUMENTAL_DAMPING: 
FULL_SCALE_G: 
N_BIT_DIGITAL_CONVERTER: 
PGA_CM/S^2: 49.919
TIME_PGA_S: 
BASELINE_CORRECTION: BASELINE REMOVED
FILTER_TYPE: BUTTERWORTH
FILTER_ORDER: 
LOW_CUT_FREQUENCY_HZ: 
HIGH_CUT_FREQUENCY_HZ: 
LATE/NORMAL_TRIGGERED: 
DATABASE_VERSION: 
HEADER_FORMAT: DYNA 1.2
DATA_TYPE: Acceleration
PROCESSING: Automatic Paolucci et al., 2011
DATA_TIMESTAMP_YYYYMMDD_HHMMSS: 
DATA_LICENSE: U (unknown license)
DATA_CITATION: Turkish Accelerometric Archive v 1.0 - Disaster And Emergency Management Presidency, Earthquake Department
DATA_CREATOR: AFAD
ORIGINAL_DATA_MEDIATOR_CITATION: : AFAD - Disaster And Emergency Management Presidency
ORIGINAL_DATA_MEDIATOR: AFAD PROCESS SERVICE
ORIGINAL_DATA_CREATOR_CITATION: AFAD PROCESS SERVICE
ORIGINAL_DATA_CREATOR: network: TK
USER1: GuestUser
USER2: 
USER3: 
USER4: 
[...]
2.540991500847495
-3.600185570110251
-8.360821014683033
-11.267734025642055
-12.969075020501558
-13.074432286625239
-12.958475124176681
-13.246309578600693
-12.453090879443806
-9.43987914949061
-4.708246771262631
-0.0850820021398818
2.3105975637521032
1.3495861246351515
-1.2731745233644147
-2.5653504080475034
-1.4459438511182117
1.2139433595535478
3.550041605363743
4.2992607700731345
3.370211311596008
1.158631157699261
-2.5818289509949253
-9.009063652076176
-16.973971558524553
-23.50442695493537
-25.79743599926242
-21.948300207389142
-14.62252685231682
-7.571359516586488
-2.0323363484919827
0.9160231508040482
2.792938550336144
5.566315527503822
8.391460206617745
10.25300596231143
9.617274327577839
7.707807238935128
8.196959819328217
9.038348354941283
6.901772158252361
4.436206642715067
5.0878827421721535
9.34898988097182
15.422764366979422
18.364653419776886
13.836535333433456
4.371166344980079
-3.7345770699941476
-8.855643300783253
-13.273128135006107
-15.948417217152864
-13.397360365619548
-5.474762669158179
5.451598316210856
16.40724188280993
23.37699351693689
23.86226425393828
18.004034288220264
8.819177039653717
2.8319275281615495
2.862020262062078
4.322121531429887
3.474312894874527
-0.28305832300747413
-7.958315818138869
-18.503540915861638
-26.45595510353532
-25.67697711519058
-15.917865270909848
-3.2770133386486906
5.62211310121386
6.7783467017073
0.056680484535418484
-11.187693025840476
-21.984594060636564
-26.377368318708125
-21.4144356130988
-11.003682055424685
-2.439808386873728
0.5504474613238884
0.24774389373160752
-0.1424048594443939
-0.11559820303486214
0.04739047394222009
0.603823060351739
2.6314973640015666
6.7661625879554075
10.545032058777785
10.149660214497532
6.0091895317781745
1.747139630034327
-2.0231015724579797
-4.66095123650595
-3.2178177294204064
-0.032724856142809525
0.33080252936104204
-0.1377062013500336
1.4536244246399619
3.313628033100625
3.9524748146093542
3.864585468922057
2.532029949219237
-0.7933724948309911
-6.116675024371253
-12.019276956666605
-14.492324552755706
-12.144379439806373
-7.670774477058588
-2.3462988740210906
2.197448270354706
4.687709143730263
8.271360491277935
13.940967166994131
17.37952238341742
15.59463694792911
11.094212226482403
8.430149900072285
7.517943823910371
6.24922863609194
5.114736576277281
4.107421849102435
3.768949932414111
5.408158051865529
6.554628210281846
4.867841264229977
2.1363918793627192
-0.6077095989696778
-4.348804959542179
-7.813150987776974
-8.821970855669502
-8.174470788358667
-7.089652833378648
-5.2775307852575795
-3.6880825949691682
-3.1608065549893616
-1.5901013915790043
2.2894838444532
5.425882289132403
4.413921753051184
-0.24585557613336653
-5.421620386532089
-9.563726806356742
-14.357454271117778
-19.80850438737795
-21.93000087536075
-18.730801967978564
-12.545808413491569
-6.943004049678605
-4.0411864141291955
-2.6642387176111533
-1.2271876491071176
-0.7393433624924026
-1.527234954963826
-1.203708469811814
1.960503362633274
6.173207159813449
8.242214453272226
7.113907028961145
3.916781872489544
0.8871698114484553
0.4219182228948349
2.5885039920315025
5.316985694577226
8.182481121090566
11.988671438378955
15.843730708163783
18.534247931730455
19.540147158875648
18.80383552735287
17.807587846749488
17.558337705682497
16.570234055907346
13.664359382089504
10.26038117639219
7.8804706721145585
5.845288016854481
4.062852948778819
4.870955821676987
9.633029871409589
15.494928728722599
17.424596857550927
13.67392074746688
6.993624454513843
1.5306557048514906
-0.923506544088598
-2.5561875232578286
-4.243006717600624
-3.629253920446563
-1.0622083008290828
0.49608520955863517
-0.7475734612021229
-4.83413321301667
-9.961639789834845
-13.603654790720626
-14.230301536053858
-13.082049881838277
-13.629855403307355
-15.381158461135824
-12.643203475865672
-3.820377267605635
5.861463514874141
11.26280627942886
10.157034403953872
4.703583296193061
1.104743910402787
3.6850881430629894
11.201904182165633
16.75836175599363
14.09948103573366
4.147584917964436
-8.932693475913435
-19.75746192220829
-22.659862305960562
-18.933612275612713
-15.142540775669948
-13.5042794837519
-11.719098113425092
-8.711429644706019
-3.7217685274374976
3.056634327762581
6.535185789596155
3.7690089170798933
-2.733868983365764
-12.522229041039687
-24.07879861668635
-31.412873351414376
-31.92324982909988
-27.07869935133141
-17.529657169170676
-5.938512482185123
1.7339275685999453
3.257439111771065
2.5511394029234085
3.3671804482296626
5.411645149089251
6.770840380754956
7.390948205019923
8.05972805889377
8.803041064331484
9.786197871412078
8.23511210779306
1.6174263050772846
-3.1890586654930444
1.510302508851412
13.377311719294982
25.69979149795326
31.06893854346473
24.577500435587307
10.345565010542913
-2.875219683305749
-9.291029807077365
-7.629949658091964
-1.6863139498050848
2.9518888396113634
4.664724866893019
4.060198561055488
0.42442843733806856
-4.659633859870315
-7.473800645200344
-7.189566902378726
-3.7815101928035415
3.5444017281048357
12.71091303332706
20.12471866055655
24.17132490922923
24.269152263973595
20.6356701286469
15.919420503286053
11.907287780519715
6.152228747111944
-1.8388064608113492
-7.420182750154809
-9.128796130533884
-9.481680314864752
-7.928412926204159
-3.5838956917726357
2.003392657262214
8.823703432509248
15.759627438013084
17.969019665585282
14.266843781601763
9.722478708777397
8.048096155664124
8.541569309251457
8.730286014218576
5.791562352173283
-0.03337132179707666
-4.8008676447400065
-6.142899371699785
-4.023636494585069
-0.06702220071595465
1.203380146278169
-1.9154172728138654
-6.043397260656814
-11.02247357251456
-18.53982525393983
-23.42366690219974
-19.73528922733881
-9.707925193784188
1.287790220442156
10.55950045702713
16.460884506788535
16.899222704956536
11.110989095774437
2.57011067524613
-2.0936762073545254
-1.2625012666546909
-1.3349659649257877
-6.362248216569399
-12.529605448156149
-14.518345684831182
-10.187086654139042
-2.5014619043142736
2.3849487506358753
1.78321901448875
-1.3576291205587507
-2.5340924277130212
-1.6113294191366043
-2.0464361851011046
-4.309791898550477
-5.580738507686296
-3.444113824883757
1.1468419032824613
4.759894497876273
6.012110149777705
3.8585971970362927
-2.509899997323786
-9.404870932190374
-12.723743212771069
-11.14477716956134
-4.883888417742501
2.8343895184516925
9.091733673605289
14.567310970780106
18.769463922952937
18.686544790916287
13.802992153226407
6.646773132796702
-0.7744987097734475
-6.809675657183728
-10.14658953758987
-12.284043992085932
-14.231256851211871
-14.424082596733868
-13.684852627016298
-13.077307249285116
-11.00810524594699
-9.27781584926826
-10.391793954053007
-10.38066463844691
-5.456306192771208
1.6912993398307974
7.3363768682555275
10.151110221308665
10.029184039294659
8.78644126879781
7.06295348824936
2.683258563085789
-3.3363303511278457
-8.270344875055759
-11.941229620736145
-11.969550424510208
-5.064630838917301
5.2452622168904925
10.675727489854022
8.756985855298076
5.354122752631806
4.543642968816047
4.7752115876972345
5.549200185923006
9.676476119041713
17.86385045674796
24.096900551321173
22.771237983050547
17.264806507385483
13.026175526584282
9.46364682252162
4.842191661171173
2.4782796302188044
4.9405299114676255
6.709472799836251
2.3811774464438913
-5.409305834936352
-13.510550194499586
-21.742635141977637
-27.078952398946427
-25.290885887341677
-16.13543175163218
-2.914980368927252
7.646509520731947
9.123862179079246
4.435542970091096
2.7432060599583425
6.366479363881509
9.496766159822823
8.029112544751223
3.595324200014997
-0.48503692145945637
-2.3442074768787706
-2.6424278128728087
-3.4887966846439467
-5.406802900376395
-8.186063824628295
-10.842412512876923
-10.414073676330755
-7.283977292712484
-5.038475974759125
-4.094272108674392
-3.3708674614235505
-2.470410247720287
-0.09546831892406415
5.289880513841458
12.912417967389727
18.084994833793626
18.164621819207778
16.61123274237304
15.863758955702961
15.107289982201348
14.207823651354849
12.932468466656704
9.65684161355969
3.8039728572475884
-1.0963155289852589
-1.2546869234158327
0.971957142078013
0.9906268042998845
-0.8594434127672893
-1.6549944884319987
-1.7513820777030424
-2.3866674660406018
-1.9632456481149323
-0.28489974454122113
1.1057481685026243
1.8715952474523203
0.5480041718060629
-2.1930206354507398
-2.21155493059713
-0.5092562545372539
-0.8025448577412637
-1.5651414008629356
-0.4504280882815764
2.5692317861633853
7.225916786276545
11.09709493051204
11.103683935911096
8.230263044481696
5.813901562540242
5.74107674391974
8.298947208130874
11.735260712400056
12.520321323352746
9.106408875631399
2.7160692783422347
-4.475030796344747
-9.00192528505861
-9.539707934277972
-9.579552249297903
-11.457342184990193
-12.212795772458371
-7.319605499430838
2.092621340486871
8.571641753966029
8.360370962908581
4.205113555049914
0.21338199762993107
0.6043900077524943
4.954192929833413
7.800713606271
6.3207346425040125
0.6402701002637867
-6.541342121907443
-9.19713359391596
-4.571185265951828
3.3780251605327822
8.863458272775627
9.55936951163778
6.066432423508851
-0.7859778195621375
-8.383984275535111
-13.02057383030571
-13.529374542236681
-10.275069714250218
-4.082063548773372
1.6685432356707597
1.7442476314673336
-5.316596397100044
-13.454580105259165
-15.233783580218237
-10.507621198223433
-4.313263313616833
-0.0851898921662537
0.9269407049870781
-2.082961694187828
-8.598095628083119
-14.909944853995889
-16.30163547411818
-13.315854435562045
-11.06360940319852
-12.30317755874046
-16.38576630582675
-20.935068317823294
-23.46749748802361
-24.26029476650135
-22.949990718265703
-17.190025178434343
-9.897810577070187
-6.932881604162986
-7.601921441463424
-6.134631470299034
0.14419275832175935
9.047637083350658
18.88811198099373
27.528656407927187
29.272165897896727
22.435542150924043
10.814974274508817
-2.1897559525830115
-11.953537557006937
-15.441670639966256
-16.68289132737225
-20.308280384429512
-24.66813909513386
-25.998970708204354
-23.01145483129053
-15.21819155435299
-3.6726932540877164
8.084654472682509
16.922605637978954
20.12154701702541
16.800183440982455
10.712753953942755
6.5436944093216285
6.100283593764651
8.8388810772179
12.118524098265969
11.983173616492744
7.303177375624761
1.8205431819096503
-0.0972082955057273
1.9597990366929217
4.206230218031032
2.6438653667157364
-2.5423016939161998
-7.038280792423975
-7.232108041147675
-4.7702919567268305
-3.4323785782503675
-3.5974486874182627
-2.8942912463112958
0.2870200130071852
3.8042488704620667
3.934230045306144
0.4290551025151758
-3.8620970411945423
-5.940067244041706
-5.627726220166436
-4.185404925826657
-0.1162284700794659
6.414758476299099
10.926052928981136
11.734374537233366
12.078830058319948
13.75435151900743
13.564138009761384
8.857330029892925
1.5989688495260095
-5.575348114882963
-9.821254006875657
-8.090750609079366
-2.7191818529841263
0.9529241651550703
2.0169564759921825
2.3744976573430177
4.048202351721616
9.207387243304726
15.098658161972624
14.750929888168006
7.947065999013676
1.5675436586508025
-1.095656727946846
-1.2835131974998562
0.0926880552405676
1.2631213872599074
0.6825550105552207
-0.14132625927391113
-0.8501003635478117
-3.0954489414597433
-5.762746229843579
-6.448154990540817
-3.3908082065622263
4.994961778191603
15.16455358067562
19.262243901706725
15.337210932541934
8.411343856494707
3.2760451529590364
1.9574841055068612
3.782855775085117
5.62483381399041
4.821686225343597
1.5919600259721867
-3.322213971542188
-9.975410942987518
-16.48253652627892
-19.776071275982577
-17.971078473226065
-11.767157859229254
-5.818017046385149
-4.196270962380048
-6.738172270975516
-10.755371237093804
-11.965783586692016
-9.069416365271826
-5.105598608572076
-1.028307671420848
3.124806527306632
5.172620202874991
5.160648171253927
4.3182738254943684
0.9721392019795247
-5.993638710877924
-14.493139448401413
-20.45870853388145
-19.397429432991682
-12.418671872805552
-6.226117264367115
-2.411590378076715
2.078404505664341
6.498349884297907
9.395653891211518
11.895292018860685
12.952451033151474
9.545685514467527
1.6379755766966992
-7.8626902392105436
-15.247139923739514
-17.598568589357935
-16.71904904025316
-17.090713549861583
-18.602966751918615
-19.01297120880297
-18.27939007248535
-15.3664684775453
-8.864169370939784
0.5033532745682723
10.978771646530648
19.03619206117131
21.5427019004854
20.498615122098396
19.910920201121478
19.257938088864222
14.608262125352706
5.064449455485078
-6.464008986057222
-16.839313048615594
-22.902599615975742
-23.602021025990865
-21.73113462308689
-18.237735581573066
-10.857826523239623
1.0487229704925425
16.35280199280448
32.62849255697651
45.32724868475488
50.29082058947149
46.21218501172098
35.81124062109718
24.448457761354653
15.346327164910194
9.319173426910156
7.13769201575716
8.023813289300003
9.529773848316133
9.82940580784899
9.08078768506712
9.060645627609361
10.64798967322989
13.03684022356182
15.029362902398507
15.116491253975688
11.761965500423702
5.075197879179422
-1.9488821750345955
-5.196668758120472
-3.247757131965298
1.3306216905472408
4.133858947285827
2.1953988572026426
-3.6149280338200906
-9.636592973282813
-13.089889928590502
-13.921118274902911
-13.845788915511255
-13.685865794559112
-12.159454945837801
-8.080282483150906
-2.1338444581161147
2.1809291592132665
1.0681848662768372
-4.528411921272057
-11.331829773121305
-16.683990219561174
-17.989916394640865
-15.873808140396674
-13.206745024142078
-11.898366629739646
-13.385156514683151
-16.758576187519125
-18.875548125619904
-16.87569478158585
-10.482494537511455
-4.150701640199745
-1.4863771350589048
-1.0002353460129672
-1.2442020362327375
-2.0803867080060887
-1.3733611560218308
3.5612518916278675
10.819290494087726
15.151448192286827
14.618447295971452
9.47277465122343
0.7134104888795478
-7.270966610442422
-10.545772062381516
-7.958522083113422
-0.39310747379893424
7.654887452933229
11.610634331585636
11.69115166479204
11.656355215027602
13.311305437456655
13.933742651799271
11.026465687940462
5.225331125154644
-2.1768266201801256
-9.94835317775956
-15.497812186890268
-16.3917912688474
-13.678827877237122
-9.781167186355352
-5.662854249630679
-3.191374986817843
-4.108587530648945
-5.97305004429343
-4.579049518459456
-0.2545889989838003
2.7294985034296957
2.9137754261890696
1.8444910408674409
-0.26782198647873945
-3.3325405801457526
-5.563374417216167
-4.538462623018227
1.1789212820431134
9.488282338513395
16.116135190605338
18.993104914628713
18.39692944196516
15.931077381373779
13.96143023693855
13.772620453098364
15.187332830194421
16.270661896453802
14.843543489378995
11.911431937674733
9.480393577992091
7.953781590718524
7.017643479307803
5.066247663135586
1.7963085022923762
-0.1850192210983304
-0.399606930301943
-0.6376392483725064
-0.8078125965394319
0.4757390085472631
4.438614518325409
11.935681431588776
22.09918988860964
30.65707991311657
31.51979647195619
23.64639574786768
13.661528409481473
7.169567345683969
4.1152230019367915
4.41829970338422
7.368499641685534
9.006636849902863
7.534675145352475
3.6318770901844726
-2.0958597701084485
-5.761118654918501
-3.245700589109904
2.879462469021113
7.48630293073882
9.88186147058575
12.14984722437361
15.440004644281956
19.81064975086653
23.98456449031555
24.424218329471064
18.383117013712504
8.238984798268396
-0.7239055355963524
-4.253921606780333
-1.2433712931242462
4.2418772872486645
7.607249978298561
7.927474160364949
4.82925624124437
-1.6009186031596314
-8.853227974653448
-12.055348739655692
-7.815087480431019
1.1018783493278665
10.65505220739531
18.395379393476343
20.146780587600627
14.264522825874293
4.313011926688004
-4.776442799885545
-10.674527940031767
-15.904936172789135
-22.532375674048623
-28.48251322535007
-31.2877324279086
-29.38018604993023
-23.960016305063863
-19.49993678438992
-18.483767151864395
-19.055115481820174
-16.48597757823656
-7.158189417468312
6.813914266899824
18.21087136143988
20.450343641896186
15.246918902743422
10.75969826489039
10.341122418886398
11.198354499800406
9.983235650407346
4.6736241076558125
-3.1609358875564397
-10.016492441228776
-15.349311668777718
-19.091757448431203
-17.971278220883267
-10.047463041015975
1.6216584889473775
13.256858611179824
23.027807624111357
28.412276953990517
26.85455922657347
20.221684197356367
14.31722556563202
12.4815586934884
13.035609900747367
13.808367909577505
14.725715367928128
15.409176623473602
14.486000543275996
10.973987020944735
5.319150740478296
0.5021971792957586
-1.556618774942932
-3.2387766987757107
-6.086682086566428
-8.83230726130948
-10.198739838136667
-9.436656017287246
-7.663994189001402
-5.058111801528832
0.2594730236675638
5.910116586743838
8.308870770002635
8.99308133982658
10.276887230098998
11.959528727641958
12.570559278676916
10.497083888076979
6.307158256384047
2.7253825842733477
1.300738364858861
1.024904603858958
0.32016769270960216
-1.1909422573528063
-3.9806148471690954
-8.842256172515416
-13.082741055582751
-11.608607940276906
-4.243697701317115
3.6353506717234008
7.255903666208833
6.325279207697802
4.934206239337262
7.085659135170703
12.481230930314847
18.204147497044595
20.881412230938228
17.691280101874405
9.683900257574887
1.7044430081335602
-2.4749851399885388
-3.0850211611151557
-2.9251349755454927
-2.816109126795943
-0.8675835934597724
3.0154851550956985
6.903152726120641
10.28338241945228
14.265108303365373
18.89330397319817
22.68642045906985
25.17055243691798
25.802769226327293
22.685689152993593
15.441571516267915
5.888855300992117
-2.316612768980882
-5.73249822371652
-5.979276425753812
-7.943942046585513
-13.923764235210363
-22.16256576557352
-28.448503361080828
-28.56781580947503
-20.815114137219453
-8.575836668095956
1.6386997636016023
6.999060606107269
8.737129478996188
7.697998541879667
4.477064526682618
1.1595032828916623
-0.1415011400199505
-0.11845705363204491
-0.2053698171937051
0.8526003497838824
3.8812758164878165
7.188450514072644
8.16969876958181
5.272430558779661
1.389317727884715
0.05424630791171103
-1.0245874925603715
-5.084446615903794
-9.826572291320796
-9.94240198712362
-4.20363771119103
2.25615377301483
5.0317126446567375
