AAD_Filtered_TADAS_FILE
AAD_BASELINE_CORRECTION: BASELINE REMOVED
AAD_FILTER_TYPE: BUTTERWORTH
AAD_FILTER_ORDER: 1
AAD_LOW_CUT_FREQUENCY_HZ: 0.025
AAD_HIGH_CUT_FREQUENCY_HZ: 40.0
EVENT_NAME: 202302061024
EVENT_ID: 13207
EVENT_DATE_YYYYMMDD: 2023/02/06
EVENT_TIME_HHMMSS: 10:24:47.00000
EVENT_LATITUDE_DEGREE: 38.089
EVENT_LONGITUDE_DEGREE: 37.239
EVENT_DEPTH_KM: 7.0
HYPOCENTER_REFERENCE: AFAD
MAGNITUDE_W: 7.6
MAGNITUDE_W_REFERENCE: AFAD
MAGNITUDE_L: 
MAGNITUDE_L_REFERENCE: 
FOCAL_MECHANISM: 
NETWORK: TK
STATION_CODE: 4410
STATION_NAME: 
STATION_LATITUDE_DEGREE: 38.86677
STATION_LONGITUDE_DEGREE: 37.679
STATION_ELEVATION_M: 1243.0
LOCATION: Kahramanmaras_Elbistan_Turkiye
SENSOR_DEPTH_M: 
VS30_M/S: None
SITE_CLASSIFICATION_EC8: unknown
MORPHOLOGIC_CLASSIFICATION: 
EPICENTRAL_DISTANCE_KM: 94.59
EARTHQUAKE_BACKAZIMUTH_DEGREE: 
DATE_TIME_FIRST_SAMPLE_YYYYMMDD_HHMMSS: 2023/02/06 10:24:40.8433690
DATE_TIME_FIRST_SAMPLE_PRECISION: millisecond
SAMPLING_INTERVAL_S: 0.01
NDATA: 11251
DURATION_S: 
STREAM: HNE
UNITS: cm/s^2
INSTRUMENT: sensor = ACEBOX/SARA | digitizer = 
INSTRUMENT_ANALOG/DIGITAL: 
INSTRUMENTAL_FREQUENCY_HZ: 
INSTRUMENTAL_DAMPING: 
FULL_SCALE_G: 
N_BIT_DIGITAL_CONVERTER: 
PGA_CM/S^2: 127.247
TIME_PGA_S: 
BASELINE_CORRECTION: BASELINE REMOVED
FILTER_TYPE: BUTTERWORTH
FILTER_ORDER: 
LOW_CUT_FREQUENCY_HZ: 
HIGH_CUT_FREQUENCY_HZ: 
LATE/NORMAL_TRIGGERED: 
DATABASE_VERSION: 
HEADER_FORMAT: DYNA 1.2
DATA_TYPE: Acceleration
PROCESSING: Automatic Paolucci et al., 2011
DATA_TIMESTAMP_YYYYMMDD_HHMMSS: 
DATA_LICENSE: U (unknown license)
DATA_CITATION: Turkish Accelerometric Archive v 1.0 - Disaster And Emergency Management Presidency, Earthquake Department
DATA_CREATOR: AFAD
ORIGINAL_DATA_MEDIATOR_CITATION: : AFAD - Disaster And Emergency Management Presidency
ORIGINAL_DATA_MEDIATOR: AFAD PROCESS SERVICE
ORIGINAL_DATA_CREATOR_CITATION: AFAD PROCESS SERVICE
ORIGINAL_DATA_CREATOR: network: TK
USER1: GuestUser
USER2: 
USER3: 
USER4: 
[...]
-10.57559735088797
9.51777612229409
25.906804019454636
32.718154188075836
27.760187398017266
19.626999237564238
10.676421334502358
-5.96910566818538
-26.57289223320294
-41.122453688874444
-45.14933262889123
-38.99340383871972
-27.731268286366944
-16.507465228497086
-7.587852489518994
-2.6820811730855505
-0.14005670642151863
3.036332185215656
6.0301968786422915
5.811059794594925
-0.054067801240553076
-10.970017277977128
-24.23119064107121
-32.986679585622674
-26.137423191360277
-6.79568000058338
7.61153228829292
10.714849287707313
7.619053614846718
4.733510160803555
8.411994638910807
16.62231589340239
22.1202592046157
24.549239849992496
26.268509052210216
25.20284041106246
19.59650815641526
12.66625341460432
7.392769082527861
2.432858404945507
-5.300197305840705
-17.233461267331133
-30.20827327726115
-40.30654072472092
-46.03751375369888
-43.94139989782511
-34.096912778385885
-23.473973814181694
-12.599501369510273
2.965150183816785
18.1186544491904
23.811551316345856
16.771653393087593
-1.8268769025680633
-23.691838448725317
-37.81073054274897
-41.80912101554724
-37.10946533744897
-24.94175894953543
-12.787189963718287
-6.24455951276217
-0.18926747920049372
8.279135555376703
13.075909301409165
11.139722630710319
6.087357600278626
1.2401132930473462
-2.9115115146817043
-5.772141164642737
-4.8207818620549325
-1.6666147748326063
-2.1251985438392356
-4.046321175850974
1.0194524421395728
12.22602627462272
18.118571004968587
13.301474930241046
7.21091836509003
8.253939202106512
12.1210615753676
13.436641828187517
11.88559959791137
7.976716703613375
3.049427704925353
-2.5968148285353063
-9.074145856399875
-14.478110160920233
-18.393307359008865
-20.467031137972402
-18.93985449544337
-16.406026463963716
-17.034958820460076
-19.309366168197954
-21.452448105916233
-26.19502719243447
-32.13781030963551
-31.93124464984365
-22.743196666501472
-9.908457357563105
-0.2358882406501224
4.475875278777471
3.4608729908093245
-5.006650240337872
-16.097850692203167
-23.979893090150032
-28.206189989265877
-27.442857403739193
-23.17237241262728
-22.856113931688476
-29.70042644965666
-37.25942417907953
-38.57021097484141
-36.76684079749103
-37.48657053885039
-39.14416927325442
-39.045740854440474
-37.80745881010648
-35.87520085507709
-30.81531191884202
-22.93323681388973
-20.831321416008297
-28.677383407243884
-36.40284405872875
-35.57252383843203
-31.542557886650147
-30.513139424040002
-30.540390031935175
-29.838180742383948
-28.03116610531926
-22.58565419134605
-13.47738509997859
-6.202914736685146
-7.09423911812839
-13.397080232722583
-16.054473188964927
-17.03725516731086
-23.980692811535324
-31.46845101343789
-30.511830590109124
-22.969449889306308
-13.248498201097213
-1.29396677950334
11.942113498476058
19.38301613897124
13.582074516176432
-0.9262833040109794
-12.922247087435846
-19.541754620877793
-23.11812529835981
-25.04470332146597
-27.456353952962814
-30.164929067106712
-29.51100082066096
-22.927159661845074
-12.214859096892932
-3.6175457742491215
-2.270069670438568
-6.800805902204117
-13.67127003174203
-22.96957152706249
-32.760894102301414
-35.81309756946074
-30.49625796727738
-21.754015307278085
-12.170337086757142
-6.243065934425436
-7.278197173169701
-8.94487466756846
-9.59375064745278
-14.429317684116958
-19.422124287016576
-19.536225549351677
-16.298065200716177
-8.704090667300962
2.607056356256555
12.954754240103775
19.602233120228135
18.059177834967613
4.659358994088653
-14.151634717380242
-26.151748592271414
-26.094664817864192
-19.813040142391333
-13.08656845983798
-6.01467684937086
-1.8509320813961858
-4.311021419825185
-9.497327090960887
-11.578283471733887
-8.827198813948279
-4.157710440303009
-2.047343997279239
-3.6673112294404033
-6.576171760204165
-6.857136880264891
-3.413925116502154
1.340442638741137
7.034920634534999
14.252749236342476
20.34285159806852
20.849882675351058
13.527746406804903
1.4590397194060898
-8.51977266811254
-9.815773764545018
-1.1065450139518838
11.441981246292956
19.998528349638843
19.6382956516044
10.659258033423841
0.4939641295579411
-3.8736969988225347
-4.542714141559037
-8.11402283482587
-16.036053825676163
-24.189300991766462
-28.086907440980145
-25.725610272695
-19.71127766644516
-15.06278980669314
-12.478029564212811
-9.027847475373928
-6.696056239770965
-9.117171980386303
-9.538928514945553
-1.1328062625197026
9.239160017876388
14.910203599288547
18.441473878329056
21.685846670251603
21.614341152451424
16.639734995789766
11.347557246584019
8.683625492546788
6.012218747297747
4.07484502000704
6.299282473266351
12.109976573715805
17.10366920530143
17.322075709244253
15.685283045599453
17.61383772488814
20.4444946795817
18.645458245295536
13.360952679538041
8.500776798018157
4.806540154595622
1.2571507708710328
-2.6493379866354014
-5.975774585524702
-4.981210408910118
3.432218159973972
14.66961432237655
20.410549326447807
19.639248600049253
17.47816610607988
16.724116157233958
15.754679336193668
13.187575380152412
11.545893600907913
12.497621690200647
13.211190205259312
10.116429300438545
2.531876294904292
-6.6042809750354206
-15.263030730670387
-23.06832635477794
-26.717190835779626
-26.026016507687828
-26.02820870664084
-25.758735532321467
-18.492747392678556
-5.074727225649516
2.070452448977557
-6.061167449374421
-22.774713121066483
-36.925119509114126
-44.64018027653364
-45.655192120774046
-40.90221134792575
-34.06769772728539
-28.84048354902634
-26.17631880520117
-26.189018048499825
-27.509221655565977
-26.22228383668688
-21.186167697686127
-14.529320333253816
-8.396087899588439
-6.0892898629002135
-7.574728515968294
-5.771880003781434
3.454104110133043
14.106649335637604
19.92008478418374
22.09773191961982
21.21549915198692
14.774452041662288
5.128102950958494
-1.2380496193065886
0.545501210779142
8.871899704805633
15.732366704752701
18.129724971538064
20.462407731084937
23.29523505022762
23.125357173668863
19.583626315927717
16.14738023049823
16.302240058745813
18.791580932680876
19.132586938178026
15.879077006349098
10.706994269368192
2.8901098749998915
-10.032340172979183
-24.275120327301828
-33.14976825913069
-35.92426796691558
-32.600901774816315
-23.66115995326656
-14.943499409399397
-9.534042559186085
-6.003672229951343
-2.295129841165754
2.60433772769312
2.4953758401992925
-4.829922934371321
-7.4694422841927235
0.24851510392492515
9.938891136007658
14.944427838935484
15.886180867209617
15.657395830396968
15.42289907091172
16.038322954209015
16.278442247983495
10.439400794823909
-0.8386350169420793
-7.912715853031842
-5.280378031618555
2.5648809052904404
6.858502748693746
5.916469629586448
6.647598456282888
11.82673404662775
16.808444897815708
18.9607518261272
20.320975253254847
21.449811540282834
20.005248669382095
15.539078331738471
12.499293995969762
16.044885631359854
22.01660860091043
21.31723539299004
16.455595830022123
16.470671855350755
19.956338787693227
17.449745886091367
4.649112149598605
-12.049216380670238
-21.65713695304836
-19.759159357643597
-10.671312651181813
-1.7428639272015714
-0.009915575989178043
-5.739448295745911
-10.146228288198078
-7.745926152740566
-1.6256344258655355
2.459138302237389
0.5887140251177452
-2.7035138626173403
1.3364316387368975
12.38023121105942
22.79628059153275
26.41935914978984
21.69378442153546
11.220023137293754
-0.5837252809879546
-9.015741395135846
-13.391252862752681
-17.624473570333375
-22.77706256543678
-25.968424783019373
-23.904112548202225
-14.322489250500842
1.4432666023179483
18.2970120643034
29.396061307345178
30.60191390570279
26.08556405109833
23.564404161938196
25.219514499063525
29.464697194523918
33.69909286679886
33.147319636498786
28.207268868616588
25.328185208553656
26.806853257698382
31.964180412504817
36.95139923798786
35.30863330263993
31.23798487148646
32.034854018723095
34.09781698670893
33.31176839431766
29.393885691439685
19.816724324691027
5.383287007712825
-3.0044397272686756
4.221751974092961
20.987603623135463
34.85269040469167
39.88932367490881
37.57309499269796
35.85272357593614
40.97454073563158
50.82207955647537
57.92847471228867
54.84124055579772
40.47110277098578
20.562852052727557
4.3042705454460535
-1.2136461994205747
3.450791647376088
13.857400842851346
22.285439772913893
20.998482326074484
13.271175063477862
6.491759664072962
2.6554935946423033
1.7028827377343771
3.041017961436551
6.8554167397553085
12.040696307677974
17.2728904854273
25.79946975624008
37.029470907760064
45.12141135924656
48.882934261659386
49.59389703072197
47.09633110167728
42.96706351108883
39.871873016862786
36.38494451592398
30.608966188981952
27.21324637651071
28.39662467246209
28.12358751174201
22.44706705114355
13.334371040658285
4.878128794967361
-1.7838623491546994
-9.95178072372679
-19.470774084347607
-25.347678936339165
-25.046988890411143
-21.45650577855362
-20.90978396894931
-26.734246580173412
-36.05950035816449
-43.62592782537521
-45.37493580282144
-41.57494868998533
-35.116011934390116
-27.598567273115496
-21.894929080333533
-20.82038795882567
-22.370280238573024
-22.70761291775456
-20.402081533431254
-16.02719096665636
-10.57787915122201
-6.360272599498757
-4.265828057668397
-1.8450536976588787
-2.668971311354826
-11.256173562463482
-22.07419420111595
-32.72706516282616
-45.20001362255041
-57.324098980919416
-68.85691038221314
-77.26047784854885
-77.23964919726706
-69.10146041044135
-57.83238935647579
-50.56956712414739
-47.1072828965439
-42.01481330447832
-38.795399039581746
-40.79279886559864
-40.484157662164456
-27.794306007889976
-1.3803050230762568
26.579900507758953
37.015618534812035
23.59930674054658
4.836101452608338
-1.685127696615359
-0.1983313968860273
3.2836273570660266
9.53380294193181
20.08120260110186
35.149958470317664
47.75446139909695
53.277066350440755
54.012791990955876
49.395936871889155
39.799520971306606
28.18443290772697
18.29955383329551
15.331554622491392
19.025262467642587
25.423884664930082
33.72558070720237
41.791050490200625
43.34685593863172
36.88673742376126
28.39083187113464
19.530222571751427
9.300781609681458
4.6163335604688145
9.995347066153437
19.222446324955456
24.689866798444463
23.74525862935829
21.638592695056666
28.06061083759781
40.64611656486065
43.057156899326806
28.53302719861843
8.167427991883285
-7.877514195658357
-18.478839098454554
-25.08037837407161
-28.326168221336697
-25.15094105687985
-13.950081528045343
-0.7863921711761822
10.64571635754572
20.357532775125655
21.910770078952673
11.31684432196286
-4.222222950338429
-18.326648974578013
-31.3596975121845
-42.89105624263155
-50.63318301413498
-55.421185631496044
-59.75555431971674
-62.273015223105325
-59.234992934691846
-51.25848120582797
-43.512728086901205
-40.186670291038965
-40.04514234281559
-37.54755052509259
-32.44371775289104
-30.099757555548674
-28.98823105170501
-22.48879397479713
-8.949404924446888
6.527247830352521
15.872426833720464
18.37662152841642
18.85812965184746
17.22638624926829
14.73566375150616
15.919029258281814
22.63012449215594
35.23015467079789
48.56562846017096
53.2419787293342
45.29193998690484
28.180935343299875
11.363171756513614
3.012374616562092
2.865656996939949
5.621326797455248
5.678413920043486
2.8115557977020327
1.5879669642254741
1.9031152027620601
0.5857304982334035
-2.7715322759052254
-8.146260052525268
-14.463187202181624
-17.256552997997346
-12.462198464313726
-0.8544564812019024
13.06798540180117
23.523797686317337
25.83548893851159
21.67343588758492
16.535762016506276
11.300656019482439
3.8734538225810216
-5.796996333555075
-14.749906902108332
-18.719436429118506
-16.825897862370237
-11.684429391361876
-7.8897688394076635
-9.340013475577008
-11.778594661720874
-8.427760975911836
-0.20894192124575825
7.677201228299605
8.559303202078755
0.8136864676793202
-7.113699672943315
-10.69226832922906
-12.411760030437414
-11.210258271077967
-7.375128340778398
-4.966329973097295
-3.2451390645566933
0.6052089015990216
4.060947797255648
2.337144400107785
-6.237052254492349
-19.059237846795583
-30.182073994037854
-35.36610954377125
-35.20198325120225
-30.12608565363038
-19.08732060004514
-6.296516743867432
-1.0450896107721173
-7.447821247338321
-21.1097092671331
-34.665757835556704
-41.56951304774444
-41.15222209097774
-37.391526722167505
-28.541149879636187
-13.064983748295615
-2.5392163135552117
-8.8747194183266
-27.684969948082276
-47.420716894194946
-59.980746142828366
-59.20199637470631
-47.467250978354805
-36.69324226219878
-31.872720707597896
-28.21757145829745
-23.22192774039302
-18.47930364360912
-13.67621015993651
-8.342657446527067
-6.756171471887401
-7.985352276404721
-2.178300589172473
11.543196211675067
25.55871930861891
39.37986120654529
56.748690796809385
79.49023550332753
105.83078659920399
126.08852546004077
128.86651101977006
115.15982909671773
96.02289577966964
76.5677775528213
55.426097121796225
34.81500187538711
19.743274263102485
13.97492796943737
18.75946177586497
32.60815067160196
50.9679694543685
64.79980441938663
67.64258414599651
62.18730953904555
53.21954222400113
41.98919801630171
28.44195901052201
15.681119735906758
11.082049719935288
18.30685536299053
32.81507057228572
46.59012798080318
52.01716510348044
45.05672134179963
27.209899345069516
4.626148196254477
-15.827585223808462
-32.064275112088765
-44.45479892836806
-52.13615250253398
-55.91264576440091
-56.86387752149374
-54.37293467167028
-50.36503625246955
-49.0637614189853
-52.45985943862273
-60.35583302118416
-71.83910098637931
-83.76302450987515
-90.74996814824651
-88.76956277441171
-77.61073866603185
-61.344268798457456
-48.015506068688346
-43.72403619401098
-43.53973756938094
-37.22714572232465
-24.816386963574462
-13.082685355577425
-3.7640836521235475
2.1523276802806297
1.438227662969375
-6.53368548610227
-20.85654735951084
-38.81442154535954
-53.78344298003427
-59.79601602682144
-55.567708483288236
-42.71131351350769
-23.365745659880794
-1.094976962001732
20.518045369905835
38.67826414722972
46.643562296884525
40.68626616648759
27.76406440114069
14.149475283486256
3.13874855444895
1.043031096317171
10.705447423329966
29.360033398010792
50.69280902399098
66.24797491993859
72.51237422703115
72.41492112470863
70.19942537859765
67.63841082579903
65.50182797792692
67.04395415148001
71.83592446165662
72.93377959857997
67.8457976784346
61.43500388058453
58.67965101667364
62.5908191639383
70.99825790680394
74.75667209894273
68.59811611150364
56.33301972926222
43.912836863840646
36.88551544683836
36.85909186475543
38.87925932976026
38.36762884042608
35.28151382755511
32.72666506859783
31.700788531086044
27.053936003895526
15.88253836264903
3.5451913417202032
-2.6196762411878765
0.8813250213333887
10.128387201824712
16.106973537754957
16.226308736570925
15.752414246911483
15.966814141422473
14.341617902313844
12.140259786669994
10.324233684395656
10.08248335048851
17.878831528748005
35.09088191041553
52.72425199868346
63.70920983839914
68.88333973269702
70.30331382357228
65.14152176956115
50.887428145775246
32.07046682485088
13.799483661868667
-0.20214666947336868
-5.5126659710756245
-6.329287776709992
-9.927638471555946
-14.421797550866941
-18.906313330820943
-26.58401819250576
-36.0603549241886
-43.8633164466954
-48.47789492114668
-51.11448295173095
-53.54555417550877
-55.57190953385125
-55.97127322640188
-50.70560698350087
-38.30556579865973
-26.293905924640363
-21.8071801916776
-25.745432633012292
-34.898333888691276
-42.834142112552925
-47.65676159737294
-53.805294879021474
-62.49739893298836
-70.72873983406211
-74.15678785349795
-68.74204303161166
-57.73998075182948
-48.22949982746762
-41.247375174596804
-36.60830725835638
-35.68106845998026
-35.006972568408685
-29.82231269884773
-21.11831895783423
-13.054081763668153
-7.6233048361930855
-5.251204740967024
-6.721052433886599
-10.848088256786468
-14.587670590174243
-14.610773612264563
-6.534852036422791
10.776818709507015
31.87882715085638
47.840002417166545
49.33364385689252
34.51346040875826
14.015664775654548
-0.1978179429808032
-6.375981448815639
-10.175552067407626
-14.313916284446073
-15.993558270699582
-14.224183649017402
-11.27450337984904
-8.39912609514865
-5.251712627993776
-1.4500185139368016
3.0269251130158845
10.174552800631638
21.353510357836083
32.94166392666988
40.9537401011534
43.07688887250092
37.0072973877469
23.38029000827204
7.684713328524559
-1.0562787242017504
2.8876810414215033
17.08488668474532
35.481139056746166
51.632819526863486
61.4307030850994
64.3271215702676
59.02295306552245
45.99443031516109
31.106372496722564
20.838845641481086
17.923101698977366
20.218469677985357
23.924362368328634
28.09908804568044
34.549009388134
44.68741957202125
56.070314721700804
64.35291386171727
65.06483398635119
53.29734687859796
33.06236592165673
17.03835935306006
9.456380700486791
4.026042059857276
-4.550446656587434
-16.3803455170749
-30.144228494750614
-45.42184386653601
-56.68325939543671
-54.396611836806294
-37.91463321203805
-15.79174703048202
5.277068769540937
21.756394524844755
30.609895042514722
31.842774979251686
23.64826838276407
0.3051805916356027
-31.263137165238238
-51.40375585267196
-51.81195502849569
-37.65253713637542
-14.48195338401075
11.973012215517834
37.247537521201124
56.64946068530066
57.873531270860056
34.083620297001865
-3.155360106596612
-39.489296684289286
-68.54659650606476
-83.74018873647636
-79.18131385123945
-59.342662040040885
-37.34758913719835
-23.223042938833647
-17.789393150615215
-18.122200526550237
-23.677055244864476
-33.51804597537375
-43.64323698669931
-51.36948038231939
-56.19785132838955
-55.89029575868133
-47.6857667643378
-32.62810882411469
-15.692731920739412
-1.4333132017115922
7.348825618650461
7.804273099740402
1.4448230769434656
-5.878549372796667
-12.435146448406986
-17.679035814687268
-19.701796589365994
-21.137806411164895
-22.810780088594225
-21.483788265826945
-18.065505426663545
-13.973351477841142
-8.573993289797922
-2.3954008530702233
4.238664411757172
10.281683549615561
13.924494851302455
13.337584805333737
6.575276913483378
-3.449929350475764
-9.82405053743186
-9.210842789521719
-2.610502656188273
7.101270291198901
15.632035736244006
18.150300324404775
11.568355496932826
-2.917560267970253
-21.179086794584784
-36.922332460708255
