AAD_Filtered_TADAS_FILE
AAD_BASELINE_CORRECTION: BASELINE REMOVED
AAD_FILTER_TYPE: BUTTERWORTH
AAD_FILTER_ORDER: 1
AAD_LOW_CUT_FREQUENCY_HZ: 0.025
AAD_HIGH_CUT_FREQUENCY_HZ: 40.0
EVENT_NAME: 202302060117
EVENT_ID: 13194
EVENT_DATE_YYYYMMDD: 2023/02/06
EVENT_TIME_HHMMSS: 01:17:32.00000
EVENT_LATITUDE_DEGREE: 37.288
EVENT_LONGITUDE_DEGREE: 37.043
EVENT_DEPTH_KM: 8.6
HYPOCENTER_REFERENCE: AFAD
MAGNITUDE_W: 7.7
MAGNITUDE_W_REFERENCE: AFAD
MAGNITUDE_L: 
MAGNITUDE_L_REFERENCE: 
FOCAL_MECHANISM: 
NETWORK: TK
STATION_CODE: 2709
STATION_NAME: 
STATION_LATITUDE_DEGREE: 37.128525
STATION_LONGITUDE_DEGREE: 36.670482
STATION_ELEVATION_M: 531.0
LOCATION: Kahramanmaras_Pazarck_Turkiye
SENSOR_DEPTH_M: 
VS30_M/S: 555
SITE_CLASSIFICATION_EC8: B
MORPHOLOGIC_CLASSIFICATION: 
EPICENTRAL_DISTANCE_KM: 37.45
EARTHQUAKE_BACKAZIMUTH_DEGREE: 
DATE_TIME_FIRST_SAMPLE_YYYYMMDD_HHMMSS: 2023/02/06 01:17:08.6216750
DATE_TIME_FIRST_SAMPLE_PRECISION: millisecond
SAMPLING_INTERVAL_S: 0.01
NDATA: 6196
DURATION_S: 
STREAM: HNE
UNITS: cm/s^2
INSTRUMENT: sensor = ACEBOX/SARA | digitizer = 
INSTRUMENT_ANALOG/DIGITAL: 
INSTRUMENTAL_FREQUENCY_HZ: 
INSTRUMENTAL_DAMPING: 
FULL_SCALE_G: 
N_BIT_DIGITAL_CONVERTER: 
PGA_CM/S^2: 127.007
TIME_PGA_S: 
BASELINE_CORRECTION: BASELINE REMOVED
FILTER_TYPE: BUTTERWORTH
FILTER_ORDER: 
LOW_CUT_FREQUENCY_HZ: 
HIGH_CUT_FREQUENCY_HZ: 
LATE/NORMAL_TRIGGERED: 
DATABASE_VERSION: 
HEADER_FORMAT: DYNA 1.2
DATA_TYPE: Acceleration
PROCESSING: Automatic Paolucci et al., 2011
DATA_TIMESTAMP_YYYYMMDD_HHMMSS: 
DATA_LICENSE: U (unknown license)
DATA_CITATION: Turkish Accelerometric Archive v 1.0 - Disaster And Emergency Management Presidency, Earthquake Department
DATA_CREATOR: AFAD
ORIGINAL_DATA_MEDIATOR_CITATION: : AFAD - Disaster And Emergency Management Presidency
ORIGINAL_DATA_MEDIATOR: AFAD PROCESS SERVICE
ORIGINAL_DATA_CREATOR_CITATION: AFAD PROCESS SERVICE
ORIGINAL_DATA_CREATOR: network: TK
USER1: GuestUser
USER2: 
USER3: 
USER4: 
[...]
-7.325308142627373
-16.015727181264563
-13.424995524932076
-7.928928545675613
-1.172891147813803
-2.426700818261786
-6.248950736172432
-1.5651403276647933
2.996768021651617
-1.5243311455320443
-7.488495119377797
-9.116562330279784
-9.343793755266024
-10.477548453300392
-16.09570454956652
-22.240009010554697
-19.492802753264623
-15.354365208530789
-17.79355436403939
-16.09990456941991
-7.133542569779585
-0.49603286513776784
7.937312640966449
20.597829846641172
21.3237440547591
11.701436758984208
6.758636850736136
0.24951991603287854
-10.015349450969246
-12.953295444545121
-11.261544091633182
-11.43704912820886
-9.165570787611792
-1.2713059589796074
9.262364794737271
21.70040268597239
31.83256256713995
32.10423431987403
25.723520477218955
13.993451873168963
0.17383271955172677
-0.08576466083444025
7.320540623459856
7.81266756372043
8.943715526489367
15.768145413114805
29.45190219847314
42.869999173997385
37.37213631525746
26.52371170880943
29.896604875303737
29.849095291626604
16.422439286184638
2.4428524735112775
-2.4897669751541227
-0.9146688233075254
-8.29102312673877
-24.937904702284925
-31.43597868367642
-23.768937468004278
-14.353891742847019
-12.47839699898155
-14.144467497256302
-8.238006278660217
1.2049583493035498
1.4246296904179119
-1.7948525860971056
2.7988297875453467
2.415517709395466
-11.364166267026123
-15.17838103307558
-1.8554123248259853
9.073953335766458
17.134108876672947
21.53398307146999
8.58075230824466
-6.445947031439749
-4.319956968734054
-1.4943255341697133
-9.012888839392083
-13.344692722156724
-9.708411425498662
-4.9083880084680525
-4.3254032042573805
-6.3980060684252695
-2.460936176768021
-0.6966732349687323
-14.220167013053926
-24.15241933317718
-18.054960937351403
-10.793189281482464
-2.986189544313321
2.57024425685615
-4.642987581369983
-10.091806646533804
-12.406586339782944
-28.63340702208895
-40.66145393649879
-31.677455687653428
-25.0390577874908
-29.771988813145494
-27.973663695821283
-21.17093435087575
-19.799279797151268
-19.461999876603027
-21.55170807244445
-27.979012718567954
-30.20912539064975
-30.692118385797578
-30.006953372639124
-17.706219058973748
-0.30444629054229294
12.225774440935568
22.45889591379886
25.937919780502096
18.45763733137879
6.427700165300216
-4.728489922631303
-9.938423713738581
-5.579913297787069
0.959195135434415
2.3237560022620127
4.945264139522527
12.267632053455095
15.864781567691065
15.404253980565688
19.418590246235777
30.04090153930209
41.767933763511586
47.34131521068764
41.82177502358311
25.141719357918575
7.408750606725892
-2.8671377645813267
-12.753513255362588
-21.875319610757174
-19.58688301127315
-15.774992859012638
-21.08679414222897
-17.514856195374975
2.7477858298308675
19.307326434564537
25.48401576970175
26.117357469656756
21.352415494937325
24.883544842034507
38.92008793165327
42.88841079844785
38.59613805305258
39.37524522096391
39.41862988060009
34.601756040432385
32.665048828393196
41.7911104168046
55.95574926174422
54.11834991459928
32.51196255221131
10.936458087988207
3.6137428030336753
2.8680241317848627
-7.35546544056541
-12.95765517682979
5.424186478649688
20.531655908883305
11.941311054583492
1.4963227481695225
1.1410874051634954
4.097537923671071
6.312137777899913
6.520370700179043
5.238313487842715
2.1552098989238924
-1.070875030263681
0.3378815746751752
4.884776954138493
10.312042796719272
19.351451342577704
24.280415744788282
18.536439656302957
16.391372371080383
24.082788540029494
30.508166673745848
35.80432652964107
46.84093079865127
56.31646485955884
54.055895407350924
49.00876458289219
48.76222062447525
43.77332096550705
35.90166087597712
26.696817210261315
3.498978889233022
-25.408757401281946
-43.87674274221794
-56.506156271852355
-65.07224453722729
-59.42899462031897
-40.53846035672752
-27.591079973945934
-35.77142932909924
-57.44030772139487
-72.05963176048593
-73.46564707291125
-77.30116572423897
-88.75224715040736
-92.9540578015551
-83.06346616855014
-68.26425921106751
-64.02871754334842
-69.51635862268078
-67.66326130311354
-61.32916731142699
-62.2663755085557
-66.40017293996343
-68.27185636361061
-62.15352112894045
-44.03703957608923
-19.4728416811055
6.249290299227958
25.463394342186927
31.50186080774506
35.45204405103254
47.874408474679626
59.39307413101601
62.75013934697133
61.65268309981348
57.356570057500306
53.23360319416078
49.71269917287014
41.17230894398081
35.413723446161335
34.15660971535686
19.007463005377065
-7.759049040032265
-29.005180665105524
-45.45890338369996
-57.89316392789084
-63.75941950664889
-64.84469292436715
-52.986452791251594
-26.377795415387027
-0.7235368863932946
18.185392612891782
36.32116236621005
52.30072326574355
58.44991581593877
54.695635232243916
52.65271286578106
59.55252551447904
72.51593543794887
86.11752212267793
91.0853651013962
81.39317956916126
59.74087539233503
36.497747663706214
27.58288640416791
32.580434936356845
38.14228653753336
45.77936528130458
60.777812538213844
75.37420894141334
72.56442717422468
42.04572970739051
-0.44074190911334177
-32.12619559639244
-51.59238193553633
-70.8271348955063
-92.34324984484964
-103.77378254633
-99.70926668480885
-85.49999669924297
-64.17567768048403
-41.43117573575429
-23.408359402130053
-13.294143794137891
-9.831790785257095
-6.554646851703521
-2.822345696962135
2.4888292626480926
10.026289574172575
9.888411414323262
-1.148244414868483
-13.427320595722618
-19.47277065345687
-25.10873439399371
-35.56001696008733
-37.49192031776377
-21.338982876955118
3.216978794498267
17.56176873853583
14.939198228597306
14.794955838817954
18.86574506417986
4.600481587206674
-16.181424717447452
-18.139175963871907
-1.8819433883538166
21.807406705559625
33.945443419205226
24.04146516747176
9.21914344819372
5.605800128156842
10.016498797832579
13.190381801657416
18.742993952436308
35.67162904083125
48.44377757965052
42.30152384586774
33.44387416060363
30.34101923124511
26.965417188312866
27.535712906936286
29.306460699879725
27.959484131041915
34.04633746864693
46.785294751849804
52.50953178626334
49.79927485590053
43.885405852179204
34.39557638946106
21.98770054665247
12.488414923395956
5.843295369412844
-5.18655289278745
-18.185710484201728
-20.768170520155877
-10.309746917084556
2.8130587047607816
16.516610377652565
33.572689343084114
36.56799314332523
15.335569219934621
-8.532700378805146
-23.588982928563464
-41.06916807340089
-64.84898045830819
-86.62988732590719
-97.71340506622072
-99.32566496456536
-95.11040376171397
-79.5292536926259
-49.53601773478095
-13.494456458619164
12.269623421380336
18.532734477907862
16.26187894198798
16.707862011339845
18.714035439945935
19.34856382575502
13.405029091873551
1.2744606599110893
-7.532363538365637
-18.00926510238045
-43.660039907981535
-73.2081725845914
-83.70158305730394
-74.62235372102425
-57.477513175554435
-35.60018592909876
-6.6909486307821595
30.896127250569098
66.33409874953593
83.52435842189333
86.19459970486248
86.47432221053506
84.21711385904044
73.22588298099014
50.97045919100755
24.91340547378286
6.356720953165448
-2.485729439828067
-10.658511385003184
-28.63194465802616
-45.91231014716932
-42.11694301149152
-27.16365473502711
-23.296803549060424
-27.72112023504055
-32.37414318593038
-38.09228184797002
-39.676631196823166
-35.3943948477939
-31.05930658733677
-24.912560152057555
-17.390488291357748
-13.860215230204016
-7.62217244258369
10.603092760350009
33.858437030689174
44.99705138220105
38.36756037395837
24.7261691658527
12.065593193528283
-4.050172299164479
-29.746015602802633
-57.62980432021363
-71.67798113220353
-68.42637579640102
-55.32777062595654
-37.085737788162504
-14.931034910381845
9.16842502095803
30.727076396222746
48.15487518955946
61.092571089055696
63.070446441743556
50.064874390339654
31.164986357071093
20.8277012050393
19.828735657914265
17.730622637348215
14.842456060786638
19.364894701904017
31.50299114736851
43.61450131782392
48.78607484356473
46.54856530165906
38.986995954020436
30.63766598698711
24.756281747606632
13.057622023651858
-10.305296884623592
-38.60558850832344
-61.59443118355844
-69.85731522181055
-67.50203616698899
-66.33404754768448
-59.2498064398872
-38.74744012951925
-23.92235637707166
-26.712535722782917
-30.159526948062908
-26.49494642750582
-23.38959615505111
-19.87566297777586
-18.107462248702426
-23.044375333930784
-27.75799982041848
-27.398956489545427
-25.062037373326973
-18.936697712270195
-7.312218820368797
-2.8945289288044522
-12.242720115496471
-18.02079985263321
-14.709243256246063
-16.962933642503057
-26.074353456849643
-33.113990220789766
-32.01859412418262
-23.679807457840525
-22.50457274639448
-33.0360470048258
-36.56487649943347
-25.76532530980131
-16.56550568707169
-15.012294579548382
-12.261166920837539
-9.547858675906747
-10.826034010531151
-12.700681858192652
-18.556113488755308
-26.242320622775154
-22.770808030469816
-10.856857229974445
0.13057645191617023
12.713439828913785
28.208490184156986
44.0330831615399
60.08357374849768
74.45010929311711
82.58229021674654
85.32022561023419
87.48148004241297
80.59653607239495
52.37294491786468
18.013852584978665
2.3086307241900537
-0.0844054999927146
-7.91591079936112
-17.734406458865568
-13.534474856950462
4.13510229425703
19.68632130847908
28.86806678818965
37.19762667263061
36.76377178749498
20.692146289451813
0.6316412101922864
-16.178362385702577
-32.244834448635984
-38.91687064434657
-26.230097218670775
-4.738797065433001
10.545856772487445
23.85613389874672
44.29461118353079
63.42784218248776
63.185043058709425
42.172193480419175
21.83262573303264
15.917938961399226
13.499452191399874
3.0363063696713297
-8.226853970216721
-6.4770261825173385
3.055533721970215
3.0252914399959314
-5.960130772071363
-13.58253555828264
-15.137609942250913
-8.164022766981994
-0.5857837598489302
-1.8023566850917212
-6.71913315695656
-6.743629627359088
0.6432032685920438
10.603862157119108
15.162847619786852
12.586134422485651
6.6110897250546286
0.13526374567702282
-7.664713925068774
-15.98273338206054
-19.673137921541553
-17.931254610479535
-15.023327646135021
-12.73678285722761
-7.510874237931101
3.5526789515012274
16.314622017746355
28.87866056884588
43.5064468149359
53.587872575470676
50.27654252849254
34.97595242690124
12.380925687605508
-12.861054284636358
-30.17074834275003
-34.22100473837732
-36.571357948325314
-43.22305040617006
-41.74724969001075
-28.848550073756883
-16.311024000417785
-6.629592349924217
6.11234362098179
21.31995225788355
34.49115889381864
42.83515047775041
44.07951207266916
37.075437082871936
24.084866516829997
8.237869406421988
-8.371788004926913
-16.48429752425098
-7.1395502415606265
4.719557255303297
-0.1354255258008969
-14.116758995470553
-27.243168651914946
-42.63085369318777
-53.128510650503515
-48.421891508198215
-38.08763822923925
-33.746422326234224
-24.933243716305746
-1.0607380082946758
25.28323227335578
41.67156914046375
50.15118940964157
50.87437072534183
43.747493624028415
34.04567758280303
21.946592644038546
4.59217748778287
-13.88921332553243
-27.87355327759785
-39.67744489356681
-52.561666962216734
-59.90235676057336
-51.082442504532004
-24.340253507684668
7.1592683911355826
24.939557243249453
27.071760079349186
26.01535378227905
24.867307266029055
20.690466754689066
18.590171198490076
19.135769503314606
12.843482990160803
-1.6211476744437845
-12.18564702030023
-9.404820169931682
2.787955970329708
15.480577056483867
24.471165327200872
30.24430245609658
35.95584450882283
43.44069558316729
52.880275020498345
59.74929331012529
52.97417136985266
33.65209241933656
16.871850553846375
7.576702056991788
-1.8948229980192663
-12.66514789142732
-13.486714411858896
-8.463411018104173
-17.005271954496823
-28.49011771675038
-23.920757062470138
-13.520989843125696
-0.7566337235345743
14.342818335321402
11.452564359714279
-8.790197039271623
-25.27391882876333
-38.233467189810895
-51.01836860977037
-55.289962292113906
-53.994281631412434
-54.568751361586955
-56.436054528764984
-57.12020090428164
-46.928521638448444
-20.034613032046774
8.089934935314936
25.454235076101597
36.08237438892139
36.16794472994765
22.299608746381004
8.070100953345325
3.3023916143088607
5.637305431178716
11.97323507306972
19.2869906261616
26.305701763563114
33.85653550283451
38.83360225022603
35.49529055785452
25.20406779478261
16.676612066235023
11.46275806482704
3.9407999645383502
-4.957875031418975
-9.61036969751745
-6.457685521366793
4.204418624685625
16.82386264919765
28.472684220311557
41.61259151741793
54.5668912744582
64.68663071692261
71.98803373281301
72.08857009212309
62.124539932270686
47.46258010656591
34.54356919841985
21.573139821979595
-0.37724164750848455
-31.10049086253877
-62.540999205813016
-93.50625964525898
-119.06322243163167
-127.91170595908156
-117.80355032404299
-93.10012634720803
-59.661598103458694
-26.471233265433096
-2.228033766023406
9.091396232425092
8.818857591384562
0.9904185166966807
-6.129372645071539
-6.000796210167674
-3.1201963547804326
-3.098842366176984
-6.891135034977687
-11.600328762431007
-10.878880187040433
-7.677000778276907
-5.92344407049767
0.7935477526575537
12.783181205133749
26.034903725072073
41.63296822060833
59.125357402644035
72.44560519315202
72.51475963764412
61.698233503420724
50.804980764488114
39.40414765420796
24.83737198846505
13.257640726990518
8.21747771789713
1.1356344579613935
-18.12308951923542
-43.76978856688565
-63.93177831058963
-76.56653544508438
-87.8019532379509
-103.59755624420013
-114.39750728638963
-104.61543268520624
-78.778619114892
-52.52017061999408
-31.583279100671277
-12.923786451779371
1.4971708016070528
6.5412942830977245
8.023514125860263
10.029604704629088
5.675663188255546
-3.2575863467610255
-8.019087297797586
-8.55380117572052
-7.517412912016307
-7.23236127701279
-12.84769518110482
-22.557659641286325
-29.255041412228767
-32.96909216903841
-38.052511564865334
-47.227819296432045
-54.43470426235097
-47.74475286805906
-29.769170337964386
-12.560425707490484
2.8742916299743677
21.94797407959078
40.44073636676288
46.604748917541244
40.524561238326385
31.35759420728189
21.40054415403628
12.824145431783222
12.1996803822012
19.03518205178329
24.357191512985207
28.409333338055045
37.128206357223824
41.9223521317497
39.70824534548794
38.40668849984897
31.743499461251638
17.16522804413629
4.588486232540659
-5.34216156089503
-13.30711508813145
-13.760000993057025
-5.635388991832157
8.579411524136072
25.012712458866407
36.17565889131749
40.74632450630842
42.19567375681534
35.13767553280796
18.51165968740924
0.8923212621113694
-14.072957758623621
-25.220434172724822
-35.22620233468585
-45.606866740600786
-48.492191095971464
-44.85781027831624
-43.590170616749056
-42.74928059908653
-35.790188554252744
-22.50836954166642
-6.743009565707052
3.7256617479647476
-0.34704192565144004
-12.893628923219305
-19.361017134554555
-17.333990110134366
-9.049855503232086
-1.2866906382730756
-0.6411964058718604
1.472002004233347
7.642585271223476
9.177494573495311
9.343691075513885
15.0883742984513
23.366768783247732
32.36168425796813
44.14530420113767
51.28462728437171
47.77777732121105
44.92234668799417
49.37219310054349
52.68278072856849
51.59650743996492
49.61158075350486
45.196285649892886
35.29979211594469
23.270817145662352
14.284198263730099
10.777246560002087
14.507206400830748
20.426933076719163
17.350500063845065
3.983048816874131
-9.975100511105616
-18.89451402575329
-27.09400383506518
-39.2474976357309
-51.281660063317595
-59.280742545924724
-67.0840155293918
-74.5761762851187
-73.12592109356379
-59.64114387011105
-43.85641851684029
-32.92889716261683
-20.337893302498223
-3.5807703712830703
8.305812294150252
13.179055635135152
16.672424211388194
21.94992937259259
32.61922182483294
46.27987848003857
50.983058517815316
45.44651644679787
38.82494677327202
30.09091982112898
17.284217071027935
8.85030822228584
3.4143378860327847
-12.930779978128726
-37.05417966757849
-51.44384956433433
-55.93208605608728
-60.245190557836025
-60.825064262202325
-52.52396527526578
-40.97846171507409
-30.803380820493967
-21.59111432970164
-15.395649957718325
-11.404259363232233
-5.3400392528077445
-0.001662208229966055
2.911499222589286
9.83997659850731
20.440633013029487
28.20792083519978
35.81866901852275
44.94107711068583
48.10690037093723
47.16452104205399
49.284860016226126
50.720166035449175
47.277422281910056
41.00262220396041
36.73979927734947
39.39789223116868
46.6852601889977
50.47117646371742
46.708857176604596
41.66058060341906
39.978433050711054
33.11904480379178
18.0860333539256
2.2315495639478833
-13.334077081347695
-28.00418024360444
-39.617026053010015
-50.98973524612595
-61.073821110481106
-63.5428565826553
-57.89833826979906
-51.03144126246026
-45.33130643788986
-37.8516598560857
-30.93494310128041
-27.01180632724968
-26.260779594351792
-28.183956770602524
-25.62855357486026
-16.80712828615681
-8.119757740652004
-1.6630185746379302
-0.3952933853356225
-4.961132099731127
-7.798626066290515
-3.620018244189191
6.548209648503192
18.86958390192007
31.14621329546141
42.72116767344178
53.47785524930467
62.412025046288996
64.29352421562328
62.27933421848663
63.19676164931934
59.153515353046956
47.06866208921725
35.17238830897372
25.680075613321094
17.959010934684926
7.500872945740652
-9.480546905243493
-26.96989194970268
-42.30891197465629
-54.687405751260265
-57.99626063749979
-54.606451832529814
-50.41952399917503
-41.20673316949568
-26.065394601482172
-11.77209092881413
1.269051930349148
12.561131265534483
16.07108169109506
13.675475300149026
9.940754497458366
0.9523128266529817
-11.052311370860416
-16.11803474856373
-18.508227551427453
-26.22819554729507
-31.376957004780838
-29.771231170334843
-28.146778066526338
-28.100415441778875
-30.878198781532195
-37.48613425887284
-39.44753323496194
-32.89778717542612
-25.056485674516153
-19.326027552534185
-16.736092769674077
-17.408793504168354
-15.214171172910769
-13.014456995485977
-18.3847861125804
-24.65796077906622
-28.165168884906326
-33.35034341251071
-33.33586883005666
-22.674276871361645
-11.821504097405068
-6.697005897443079
-2.2297469327047437
1.2232169868684746
3.2648077740914374
8.276697906373867
13.564753502005196
16.867249813827154
22.584354761301686
