AAD_Filtered_TADAS_FILE
AAD_BASELINE_CORRECTION: BASELINE REMOVED
AAD_FILTER_TYPE: BUTTERWORTH
AAD_FILTER_ORDER: 1
AAD_LOW_CUT_FREQUENCY_HZ: 0.025
AAD_HIGH_CUT_FREQUENCY_HZ: 40.0
EVENT_NAME: 202302060117
EVENT_ID: 13194
EVENT_DATE_YYYYMMDD: 2023/02/06
EVENT_TIME_HHMMSS: 01:17:32.00000
EVENT_LATITUDE_DEGREE: 37.288
EVENT_LONGITUDE_DEGREE: 37.043
EVENT_DEPTH_KM: 8.6
HYPOCENTER_REFERENCE: AFAD
MAGNITUDE_W: 7.7
MAGNITUDE_W_REFERENCE: AFAD
MAGNITUDE_L: 
MAGNITUDE_L_REFERENCE: 
FOCAL_MECHANISM: 
NETWORK: TK
STATION_CODE: 3113
STATION_NAME: 
STATION_LATITUDE_DEGREE: 36.57752
STATION_LONGITUDE_DEGREE: 36.14766
STATION_ELEVATION_M: 2.0
LOCATION: Kahramanmaras_Pazarck_Turkiye
SENSOR_DEPTH_M: 
VS30_M/S: 221
SITE_CLASSIFICATION_EC8: C
MORPHOLOGIC_CLASSIFICATION: 
EPICENTRAL_DISTANCE_KM: 112.13
EARTHQUAKE_BACKAZIMUTH_DEGREE: 
DATE_TIME_FIRST_SAMPLE_YYYYMMDD_HHMMSS: 2023/02/06 01:17:31.3769550
DATE_TIME_FIRST_SAMPLE_PRECISION: millisecond
SAMPLING_INTERVAL_S: 0.01
NDATA: 12501
DURATION_S: 
STREAM: HNE
UNITS: cm/s^2
INSTRUMENT: sensor = CMG-5T/GURALP | digitizer = 
INSTRUMENT_ANALOG/DIGITAL: 
INSTRUMENTAL_FREQUENCY_HZ: 
INSTRUMENTAL_DAMPING: 
FULL_SCALE_G: 
N_BIT_DIGITAL_CONVERTER: 
PGA_CM/S^2: 0.148
TIME_PGA_S: 
BASELINE_CORRECTION: BASELINE REMOVED
FILTER_TYPE: BUTTERWORTH
FILTER_ORDER: 
LOW_CUT_FREQUENCY_HZ: 
HIGH_CUT_FREQUENCY_HZ: 
LATE/NORMAL_TRIGGERED: 
DATABASE_VERSION: 
HEADER_FORMAT: DYNA 1.2
DATA_TYPE: Acceleration
PROCESSING: Automatic Paolucci et al., 2011
DATA_TIMESTAMP_YYYYMMDD_HHMMSS: 
DATA_LICENSE: U (unknown license)
DATA_CITATION: Turkish Accelerometric Archive v 1.0 - Disaster And Emergency Management Presidency, Earthquake Department
DATA_CREATOR: AFAD
ORIGINAL_DATA_MEDIATOR_CITATION: : AFAD - Disaster And Emergency Management Presidency
ORIGINAL_DATA_MEDIATOR: AFAD PROCESS SERVICE
ORIGINAL_DATA_CREATOR_CITATION: AFAD PROCESS SERVICE
ORIGINAL_DATA_CREATOR: network: TK
USER1: GuestUser
USER2: 
USER3: 
USER4: 
[...]
0.027631241406451443
0.01942346739767165
0.009752020264121744
-0.016796015676504784
-0.031984153554849716
-0.020791192769076105
-0.006074758155129565
0.010660239875509063
0.012756755900333936
0.019125333324608276
0.018329654480950884
-0.007775702753663966
-0.025246109056603253
-0.028743610087205253
-0.02327791995699544
0.013358461433937638
0.029757996422876538
0.02474037507607354
0.0046128490405912565
-0.02112980891275451
-0.01929892178146429
-0.027875550413303533
-0.004446448648630341
0.014414605670996901
0.02514733505582542
0.008771274912544692
0.00011328367751615094
-0.00679435716948004
-0.02814880016806903
-0.005007216850024326
-0.005906022295506403
0.0006723372696724774
0.02266125415274045
0.032010839551743414
0.007726249464850246
-0.0351375757706684
-0.036329561821400236
-0.015504380554712106
0.016242851007893418
0.04507518478523292
0.03347319966050376
-0.005043527576711029
-0.025483257281644786
-0.031768007489948416
-0.02057991033901427
0.0063538713485702765
0.02838297653817302
0.03792408919616093
0.011718595221719292
-0.016152978678846436
-0.021168810286470004
-0.0224131863957839
-0.00815421881098058
0.021260001654223273
0.02004996409081686
0.021748413295330504
0.0246791307854771
-0.024147300832259556
-0.03839452156131195
-0.010699101576763874
0.002839267223901667
0.03666542174890369
0.0447125278811348
0.010654305246339537
-0.024531599366826282
-0.03576129160454329
-0.01955996058769978
-0.0049050527482732776
0.03063370705071424
0.04144316638279684
0.013905489294682834
-0.008995983672958757
-0.033974574109607934
-0.024810525085794333
-0.0038498457562552188
0.023503035647507078
0.042790035065520635
0.020212509323874816
-0.005452611335547878
-0.02134215664210622
-0.026783484843435724
-0.010606890084150992
0.015123348602912886
0.023718849497922967
0.035578394583441295
-0.007861181687343587
-0.02217180532373629
-0.005341040029298046
-0.024971436919181005
0.0054289549701445425
0.01732799351057217
0.007616822636900248
0.01864453986433369
0.003944124198125594
-0.007817357212846548
-0.009056422740275655
-0.018358195955946545
-0.002500444133922242
0.0027879883838999916
0.019093520565421872
0.020257044268095745
0.009890268045684087
-0.01788770480420371
-0.024303953129630806
-0.0024345104130745507
-0.01581222634380035
0.010708652289017274
0.005566524726478068
0.007263143899863706
0.009549529225936805
-0.004981863323780428
-0.009795710647447923
-0.02655230715229428
0.0030699948325577805
-0.010644401054396865
0.007665327760521831
0.024350680931857004
-0.007944079910565185
-0.010503735900065118
-0.024559733283771777
-0.0033286938851264515
0.014610981449630106
0.004095662059796458
-0.01205650358833038
-0.014671677344365783
0.012028855371398294
0.002946223990812241
0.0028076842950443843
0.006717470982245883
-0.017681724453718704
-0.018126173586074476
-0.0024746699377122985
0.0011083422386378482
0.0010930872366193881
0.014218725759287962
-0.005835890227246163
-0.010327283492998423
-0.012316613644128909
-0.009466309000439472
-0.002750300651651376
-0.001182480463113265
0.01363183104670806
-4.14332196606154e-05
-0.018649402922639526
-0.0032613625966186784
-0.002709677592537138
-0.023116006537387882
-0.007028374257099819
0.014892609095778367
0.019091457231469978
0.0022072080442542405
-0.016808958329514345
-0.018408979812604503
-0.001943628955251917
0.003260777745976094
0.00965534944614347
0.01474992656128687
-0.005746715713894756
-0.018609175137405346
-0.012702149059842151
-0.003686911810194152
0.016393499835757417
0.002523262154634629
-0.00015626446734829126
0.01930387670959903
-0.008508219453824394
-0.016739590264610346
-0.014549756216862905
-0.005901862340674098
0.01618085055377588
0.021652082715044246
0.004340990934975296
-0.014915728937286954
-0.0021467628670724234
-0.011576077581109637
-0.009468125360221062
0.01074665135379058
0.022609900511771988
0.010867885952526534
-0.007391123686975917
-0.010529911792631868
-0.010718279965937263
3.505712394283046e-05
-0.0013619758684692662
0.014959742841376321
0.013410221179975533
0.00127293753938527
0.0004297154078302613
-0.013393663741579714
-0.0061059691759373725
0.007846262488792263
0.01136458591527449
0.0014053479836938895
-0.005748746393680791
0.007630016225617968
-0.002585136372794634
-0.0010039892871004622
0.016065172280098603
-0.008713857509254049
-0.024141915374266132
0.021312257980903762
0.02076711548493629
-0.007281670520483436
0.006321308882034474
-0.007623743440328882
-0.01657551867262125
0.01629281164725081
0.01695773912083106
-0.013959433239742688
0.01016625531484826
0.013708447727792979
-0.019342304692226208
-0.007239350785673544
-0.00772226239558784
0.013352609820622977
0.03246356574461038
0.003892729706219373
-0.0051128353285146205
-0.016355437036267708
-0.0015512204936598034
0.011282400746369239
0.0024672178550538093
-0.003460943431145874
0.004538583147258941
0.024211656744726587
-0.00010137686092598836
-0.0024408014866029513
-0.010293560871715153
-0.007858982278884536
0.009244232516378448
0.0002984061880058615
0.019776939367679585
9.744895183575487e-05
0.007164040704569387
0.0010650839046738166
-0.015741817471653326
-0.007157607869229773
-0.021233096128033174
0.020132898539394928
0.03569440374660044
0.005527482300254925
-0.01714771499416898
-0.0021824772563752773
-0.007299368966429664
0.008892336406872618
0.0200912477033687
-0.01799900292741692
-0.02414747995786167
0.016360665676724465
0.03168927223191481
-0.005135870425167634
-0.028245104227164697
-0.0008174652986612118
-0.0018700480345534612
-0.023951624018852882
0.03845795850259217
0.004593456151373742
-0.019818905789321634
-0.004190205607500245
-0.00986601402402774
0.0077474067521522425
0.00985667672036141
-0.004812409537042859
-0.013628176939709885
-0.0023258549599946094
0.0009801907687737638
0.01829812329274758
-0.009779880921845611
-0.010181740487232326
-0.0067861003605385
0.001003914696535735
0.01988678835406495
-0.013288631721027403
-0.004981888113994835
-0.001050553649521296
-0.022953964608018816
0.003168332425267312
0.01249791438944581
-0.004491541839413658
-0.004889364289155787
-0.00965140153224915
-0.0022302191896013497
-0.0017010804418020249
-0.004907052441184594
0.0014852882667157753
-0.00561501049328843
-0.01262313145666681
0.002960496535061687
0.007017703844740682
-0.019266662182226273
-0.0024610080849648782
-0.0028584095420762733
-0.010114560007720682
0.019387837963550432
-0.005614512488010537
-0.015281600862548775
-0.0015066621531927117
-0.009187017815097828
0.00944417898167855
0.0008522461933928445
-0.02011635886128555
-0.01732295657837848
0.005954559524603992
0.03301112731883012
-0.0007330433095932281
-0.015240649474345757
-0.01800575399307152
-0.004341570846856965
0.005233152759089672
-0.001231582501621627
0.0018325846220169824
-0.0010869542092576026
-0.005255214860167474
-0.003123071679993095
-0.013021889437668062
0.016021048467158617
0.008452366892970844
-0.01576922425102448
-0.010426741418272512
-0.009725448334491
0.002382599328600753
0.011602088817201619
0.030864304810644897
-0.021079763533330652
-0.021080888148924525
0.010186525166971537
-0.005059425610653314
0.002931944197157658
0.004968375783501814
-0.029557977435105676
-0.0031073562105698007
0.030048323768849295
-0.009505057453196332
0.006786525964747143
0.008212592852415499
-0.026916179033792523
0.01091850472385815
-0.002014128821735259
0.003888494674717732
0.01105715722889284
-0.016819072042825362
0.001242862155312438
-0.010659874567990954
0.0046928250846781745
0.0174597571978589
-0.0010631975801481625
-0.014036083207097087
-0.01373999905283193
0.010572721565262925
0.019674340899400147
0.015451737725311061
-0.004379982199894718
-0.025048812221809786
-0.00882386245987573
-0.001445880396990872
0.005437712895071388
-0.0028261417615131922
0.007491067532471417
0.02416902666260984
-0.02146832149419278
-0.01947278043498372
0.009870321800471328
-0.016385391329683176
0.008090135800478624
0.02050754495204848
-0.004178479281153386
0.020374238395095886
-0.01975795469423211
-0.016947060958271722
0.017404641154974202
-0.0059867629690190435
-0.003804258769503722
0.031740218846295645
0.022638252646406547
-0.018706600607170686
-0.01867496977470453
-0.028600141639474698
0.009542078230504113
0.03649513629699185
-0.0019550355503260165
-0.002303004051277103
-0.00958560975189439
-0.0033711135952672697
0.01564525112290315
-0.01396902196604695
0.0038386132369994637
-0.011107374003761175
-0.00777831304396801
0.03556263285488705
0.011175810618066434
-0.014452166650081493
-0.029435657714054965
-0.012698060033930512
0.02112195849569057
0.03169660174471926
-0.0015803466297903083
-0.008405990394747981
-0.004688722633162556
0.003385322264089603
0.03184590934999308
-0.013014625775576166
-0.048306564211170855
0.005722429453031799
0.024380009522380477
0.042205777841036254
0.028516559597964022
-0.039238765518269915
-0.06169430748053091
-0.046283381716502855
0.04710497067584758
0.08138979524085613
0.005625790804128942
-0.026435686736430087
-0.04807167429279184
-0.020894435734162404
0.039757339581203095
0.012439169517773989
0.002550039954882945
-0.0078095935925990515
-0.01338130307871438
0.02137954767270354
0.022653210996183382
-0.0058724145616795625
-0.037272051146793723
-0.02754946265658361
0.017111103554987957
0.03620805710851331
0.01668366794219363
-0.024098024793383382
-0.032483083339738233
-0.0014492091478426259
-0.0013925513632866721
-0.004358981379030267
0.027697921823702443
0.015175398707900063
-0.0036020264265192352
-0.035440259419625905
-0.036582942669785526
0.014303263921613322
0.028656943571884662
0.023777954866006052
-0.03758801653981543
-0.02755568902894812
0.013328399088712084
-0.0027438894834451136
-0.004064829109152395
-0.0045148771094778595
0.012915946249172316
0.016915312022786483
-0.001445545430890282
-0.0038677920600314855
-0.029093369241884035
-0.038817569955582096
0.023902941443614947
0.041264647780869294
0.029623896350306534
-0.010220923372435105
-0.0546300294282068
-0.0522761269036234
-0.01082213948866114
0.06267844239844274
0.04641570008634221
0.007298322425204214
-0.06398875821058171
-0.06015961591335949
0.005672434446507606
0.05225935960359777
0.050839293082104726
-0.01913595943853
-0.05204752277454464
-0.04649845982941401
0.026796683227298217
0.053930210742273284
0.015346938452254127
-0.015061360384158961
-0.04955410368622912
-0.05406380040486246
0.040198874793848635
0.036956757910511284
0.017706101129040776
0.0021186531612489923
-0.061441612027311
0.015363352101670098
0.05815666962390883
-0.03047478857277973
-0.08441017374660623
-0.004979625207734389
0.08719769205463047
0.0704272336119409
-0.01802845016232556
-0.08361925672259604
-0.05888844178385998
0.006038374778833113
0.059418367627513
0.026702607183726954
-0.026622345219620328
0.026798654925529734
0.029881112653994395
-0.024916599893009334
-0.06191306231604913
-0.035712821737020804
0.03904321838907129
0.06630841278279519
0.028760246440146256
-0.015777783082560982
-0.028153357822861262
-0.020436294231016484
-0.028610111808051168
-0.022123590764502106
0.048826803055468916
0.058324505005957435
0.03571171109920902
-0.0006036237298283295
-0.09048895320738905
-0.061755809481310965
0.05023025196840153
0.06758506075781277
0.0049874088420762425
-0.03648349320769749
-0.01824846890055866
0.021835640733979457
0.04392753264088392
-0.024642005059825025
-0.08064960049007501
0.0016345645187732683
0.07583108680688679
0.051944545990813946
-0.029455843465410917
-0.08774899380722993
-0.009035340885289064
0.06632411999238111
0.04707165842626226
-0.019934304168008544
-0.04530501148261225
-0.002888312394075787
0.027123421341299216
0.007725503145809981
0.008749794159742797
0.010243909458766534
-0.03103159316449567
-0.0183380818548425
0.007372265240085969
0.037938669966804145
0.027733055766019983
0.003449812469099941
-0.048679046252615696
-0.06231936677068047
-0.0004917992548992502
0.06443307678336081
0.058634545304880985
0.011678441435484762
-0.06309773568750793
-0.0875818711482346
0.006964656530193969
0.0812470306829878
0.06884128152009863
-0.057572014006547725
-0.0935866569804706
0.01588674419057797
0.08843814016091935
0.06626269237433043
-0.041150624069375405
-0.12939352663721002
-0.051638293159216794
0.08380244678639472
0.10204433722338632
0.0527132340387447
-0.054431381773940905
-0.12468304589250416
-0.04862318640718098
0.019809541710374273
0.07793388073098327
0.09727856313325414
-0.0116424032352284
-0.09059291018440672
-0.085065629124735
-0.019585551391385805
0.08605429952678548
0.06605933963782117
-0.02527031593547584
-0.062237077563454424
-0.0208964151235709
0.04182722827383822
0.029963726149571827
-0.0036605581963439072
-0.04310474921249889
-0.06773300031852832
0.0035396681260747727
0.06546129918371575
0.08494025244068494
0.011041655119387206
-0.1325985010192155
-0.10561038627063503
0.036774441802264496
0.11244631435282523
0.09450886965050137
-0.04227193657255603
-0.12349529380402731
-0.028060158969805633
0.031149636227876518
0.04892256468578504
0.017825979284075245
-0.05914888398891291
-0.04949712214888781
0.017872741610173305
0.05754065017096143
0.04198204044813405
-0.015580064885707325
-0.09032656328888776
-0.06092309292341104
0.06248216829440659
0.08010816692231074
0.02299842582423837
-0.03962790027665578
-0.06989374668683047
-0.031490035780296126
0.021668291503247287
0.048195834486428994
0.014232139203713001
-0.020105950718011356
-0.018656782963359233
0.010736708764095153
0.0034548425333626688
-0.025650388008241536
-0.010788544698214289
-0.003843365667750708
0.018647798158296872
0.03860917485274445
0.004162077782824309
-0.039407079711671
-0.03502731866304148
-0.005049569103685965
0.013422823392620674
0.043357076219611546
0.028031622499088995
-0.03368752601863743
-0.03366444536961133
-0.00826054657751558
-0.005099170847209101
0.027010445279538275
0.020570808854200467
-0.00493175467511039
-0.0019044308828613072
-0.020178924453215532
0.005676074266424355
0.016040009558885664
-0.0057816706785011746
-0.0034927936894330676
-0.0064587634258756015
0.002529815344891675
0.016954297735318837
0.016591141249473012
-0.018778253437941907
-0.04870351900325765
-0.0012479943760216926
0.043163180321892314
0.031333834044011535
0.0024393140580132207
-0.038293190828451895
-0.0410141150636018
0.019280827926165107
0.047160707427611935
0.024275320878633808
-0.021375047736186252
-0.05624551204478731
-0.02299677284719851
0.04362060671778965
0.06347722420296983
0.02653612735993283
-0.027579830875051985
-0.09160872414916053
-0.032137787308503675
0.0849570431632865
0.06389054375989854
-0.01263790993921294
-0.03951772200794207
-0.05787673995594021
-0.004292238376245939
0.07139341643050477
0.026400905716510163
-0.029049516891399327
-0.03539172388884918
-0.006521223659345915
0.05278283670300711
0.03313158688971093
-0.04721084030753765
-0.06415160838767185
-0.007654486813353001
0.042806055580225426
0.0627378655181759
0.0284748944271601
-0.059355887390563494
-0.07178092576379176
-0.021407394370894364
0.031069166517194984
0.061992670422500826
0.024177557572086228
-0.017726281947254216
-0.04478359804483952
-0.03453682382356867
0.011910259569049779
0.011561310252014173
-0.0070646662409486
-0.008208124494284782
0.016370982010906577
0.02328686558922536
-0.004941611406755853
-0.035137637565798435
-0.036211793668505604
-0.00436284269970457
0.028990701353812307
0.03707005488963416
0.002561738332493294
-0.03056660891439976
-0.03264873792991955
-0.013642418188796109
0.03621739180813642
0.02706365538974244
-0.03688662102903348
-0.0352687871389834
-0.002077189380617192
0.03262392226235801
0.04521231944001924
-0.01739598746724172
-0.0759997009956219
-0.04895835505916088
0.024044417447485616
0.06988135962026315
0.03780954324852751
-0.03554881840549637
-0.0723557954504728
-0.04328778108387436
0.02595630448086192
0.055830020819408764
0.025802082542241617
-0.013052484041769877
-0.04506424357567229
-0.021439596984712518
0.028578436922504055
0.020040430875209687
-0.013668260969288616
-0.0349494035506309
-0.0030070583572187836
0.042511152371984044
0.03147806580932842
-0.008453889107442571
-0.05259659260580196
-0.04359608038681045
0.009613555126391761
0.05243049254141346
0.030305936090754524
-0.015293075627794112
-0.030297424434244137
-0.03164433731409023
-0.00011931225113576907
0.018459669820158724
0.01959920914090122
-0.0027429076590939454
-0.004494393206266092
0.01382524370162597
-0.006155922808362241
-0.007064178243562685
-0.01925351659657609
-0.012104817451812404
0.021387156325016903
0.022627983423605065
0.02963459062846273
-0.025801183440917974
-0.04052865433897108
0.008227061914100008
0.011236919199069087
0.013751175649827203
0.0011297110402767414
-0.003538490291327998
0.001332151252365026
0.0006615567114481837
0.005977645144047915
-0.004204214626942224
-0.015077063735703104
-0.0024996821404794645
-0.002103691350807149
0.025975900593978328
0.038553886532231595
0.006052154348103241
-0.030819499184266307
-0.04592740721004503
0.0028082908508907547
0.021676279783262906
0.03894889346630436
0.024417290177888504
-0.02276700798643638
-0.010028385696235901
0.005233439046075115
0.006734294260053293
0.006859433007793656
-0.005435865085025875
-0.0005273286702518306
-0.004152924592539192
0.028012418276078043
0.03217347856694654
-0.0066642277952229205
-0.021281385906734562
-0.029406440654454222
0.0019397250748604611
0.026259532354106083
0.03577217177883492
0.01908701821464592
-0.01816756542636695
-0.029264713392881437
-0.01246734564951842
0.027881600334588627
0.02403604974005552
-0.00844941874545864
-0.0068393577156797385
-0.005153618429078703
0.018432058452287077
0.015894927566529406
-0.000948954940855166
-0.013870860850679378
0.0001974885982414399
0.00887783119853782
0.006252733697934518
0.006215160925437552
-0.009841879382499506
-0.0009741464452263501
0.0042456122374865774
0.0013548030976573765
0.010739200449699261
-0.0019761443919620253
0.0020063983481383605
-0.0027375106439281025
-0.0009966859046382055
0.018252550262099144
-0.011260047562050011
0.0028704803154713035
-0.004774801768494885
0.004779142419650022
0.02162539525023861
-0.0005651276279265997
-0.008280650318622356
-0.01496959144250609
-0.005877063550536912
0.01190793519027657
0.026813549775586594
-0.00231993872370343
-0.018263364128908142
-0.011921778958166417
