AAD_Filtered_TADAS_FILE
AAD_BASELINE_CORRECTION: BASELINE REMOVED
AAD_FILTER_TYPE: BUTTERWORTH
AAD_FILTER_ORDER: 1
AAD_LOW_CUT_FREQUENCY_HZ: 0.025
AAD_HIGH_CUT_FREQUENCY_HZ: 40.0
EVENT_NAME: 202302061024
EVENT_ID: 13207
EVENT_DATE_YYYYMMDD: 2023/02/06
EVENT_TIME_HHMMSS: 10:24:47.00000
EVENT_LATITUDE_DEGREE: 38.089
EVENT_LONGITUDE_DEGREE: 37.239
EVENT_DEPTH_KM: 7.0
HYPOCENTER_REFERENCE: AFAD
MAGNITUDE_W: 7.6
MAGNITUDE_W_REFERENCE: AFAD
MAGNITUDE_L: 
MAGNITUDE_L_REFERENCE: 
FOCAL_MECHANISM: 
NETWORK: TK
STATION_CODE: 4413
STATION_NAME: 
STATION_LATITUDE_DEGREE: 38.313533
STATION_LONGITUDE_DEGREE: 39.039342
STATION_ELEVATION_M: 930.0
LOCATION: Kahramanmaras_Elbistan_Turkiye
SENSOR_DEPTH_M: 
VS30_M/S: None
SITE_CLASSIFICATION_EC8: unknown
MORPHOLOGIC_CLASSIFICATION: 
EPICENTRAL_DISTANCE_KM: 159.28
EARTHQUAKE_BACKAZIMUTH_DEGREE: 
DATE_TIME_FIRST_SAMPLE_YYYYMMDD_HHMMSS: 2023/02/06 10:24:54.4735450
DATE_TIME_FIRST_SAMPLE_PRECISION: millisecond
SAMPLING_INTERVAL_S: 0.005
NDATA: 21762
DURATION_S: 
STREAM: HNZ
UNITS: cm/s^2
INSTRUMENT: sensor = GEO-A200,/GEObit | digitizer = 
INSTRUMENT_ANALOG/DIGITAL: 
INSTRUMENTAL_FREQUENCY_HZ: 
INSTRUMENTAL_DAMPING: 
FULL_SCALE_G: 
N_BIT_DIGITAL_CONVERTER: 
PGA_CM/S^2: 22.005
TIME_PGA_S: 
BASELINE_CORRECTION: BASELINE REMOVED
FILTER_TYPE: BUTTERWORTH
FILTER_ORDER: 
LOW_CUT_FREQUENCY_HZ: 
HIGH_CUT_FREQUENCY_HZ: 
LATE/NORMAL_TRIGGERED: 
DATABASE_VERSION: 
HEADER_FORMAT: DYNA 1.2
DATA_TYPE: Acceleration
PROCESSING: Automatic Paolucci et al., 2011
DATA_TIMESTAMP_YYYYMMDD_HHMMSS: 
DATA_LICENSE: U (unknown license)
DATA_CITATION: Turkish Accelerometric Archive v 1.0 - Disaster And Emergency Management Presidency, Earthquake Department
DATA_CREATOR: AFAD
ORIGINAL_DATA_MEDIATOR_CITATION: : AFAD - Disaster And Emergency Management Presidency
ORIGINAL_DATA_MEDIATOR: AFAD PROCESS SERVICE
ORIGINAL_DATA_CREATOR_CITATION: AFAD PROCESS SERVICE
ORIGINAL_DATA_CREATOR: network: TK
USER1: GuestUser
USER2: 
USER3: 
USER4: 
[...]
-3.9691507167085534
-4.350614858752669
-4.666401379000521
-4.880065479850473
-4.979308379942697
-4.967992339945955
-4.8687419672816725
-4.698494014984161
-4.473130464609433
-4.214002671855977
-3.9465572084317713
-3.6694158446740235
-3.3813473786816375
-3.133433443555676
-2.9672560801583856
-2.8856242213547
-2.8583200012857257
-2.8481991182062787
-2.811074370823765
-2.65370793347983
-2.3030533636971082
-1.7223153120941244
-0.9307509044509231
-0.08899749871364444
0.6233143194825791
1.093283269906911
1.2460783284042098
1.0958236531796897
0.6845309524288331
0.04472389437419617
-0.7414009530161045
-1.563654125575924
-2.2670361361889104
-2.706384298276768
-2.8133823395897153
-2.53939278670882
-1.8866121974402992
-0.9539042988602556
0.07288859425779168
0.9689639309523843
1.544781102543572
1.7227612687545182
1.5699337830573086
1.238907896694208
0.9183163118108728
0.7576058396989128
0.7975912879471179
0.9877431015449158
1.2596466881449033
1.553079026304595
1.8014853073831603
1.976313101775308
2.0823139954031578
2.135347011344805
2.183051059392684
2.2946129296335496
2.5028815977940733
2.765532011080968
3.0178397752286092
3.217276566574465
3.3506157160133254
3.440720815264589
3.5323553902247786
3.66649890996621
3.8195469862574254
3.920891020406923
3.9586170604140674
3.9938023111458407
4.10157869146319
4.305359492743465
4.566730434997181
4.841343853996698
5.091348383449432
5.25312690072989
5.2583824153446885
5.050415443656528
4.563567300919987
3.793356285511205
2.8718238877379276
2.0244567861338703
1.4538998410695545
1.2329464303194633
1.3052823232387998
1.57490884463275
1.977422399292617
2.4749429392607007
3.0335944847162173
3.6258888496446806
4.214231145714256
4.716358865056185
5.020713671836643
5.082217796373574
4.972136839937018
4.843211697449175
4.836219381840632
4.974634471812815
5.1701753234214785
5.264109958715068
5.111536091645782
4.669353666629894
3.9262513969587616
2.8858541539048757
1.6478816997599268
0.39860935068576436
-0.6720249436434946
-1.463934876341957
-1.9796692918198646
-2.2548110912963355
-2.3139197221756396
-2.1501664869222776
-1.7187209290339596
-1.0062599678023538
-0.09089610767939202
0.9012990606459816
1.8412389454025233
2.6199671608601305
3.150511497580529
3.3525028449397407
3.203489082887834
2.7775133186664527
2.200052295669361
1.6099042963762105
1.17960398847815
1.0825884160549246
1.3747627303480205
2.00280325756871
2.906910872880551
3.9957412459725337
5.093349950904883
5.9697471785236305
6.403795779476504
6.2726588681155055
5.606405432077507
4.5499354467485835
3.3303975160191457
2.2085732290808697
1.3596918746491193
0.8127887511895849
0.43696446577813153
0.04392674057541264
-0.4615915538607768
-1.0717176081102864
-1.655079175950691
-2.014859620564179
-2.0112520537568876
-1.587834461623902
-0.8115832982527292
0.13302821281290356
1.0325768191254867
1.7229609538039183
2.096710576279286
2.1096131631571042
1.8462685960309666
1.470642609905308
1.1039975607605639
0.8123162872341378
0.6629021683575778
0.7540116277684512
1.1475071415505642
1.756167671731033
2.408449469668266
3.0268806897022467
3.6374442158269407
4.256776005976275
4.839107278650598
5.29557778017266
5.533882522444189
5.494229657975517
5.195787270458591
4.7590435852489446
4.302219607869554
3.8497650252073283
3.361712672333018
2.7792772901002354
2.0769980266666055
1.2819573389883128
0.4590873027596242
-0.2995593104775436
-0.8901928309700544
-1.2253597597851404
-1.244841546953774
-0.8986838061778722
-0.22381084991302844
0.5676483104428152
1.1548238151758703
1.2665141134125897
0.8135876547452948
-0.11538501374869381
-1.3251331739810497
-2.5676839721453684
-3.6371909117026697
-4.385179226668423
-4.668797877661181
-4.362917593518771
-3.423187449346676
-2.019979090181243
-0.5354620445223743
0.6644724398063867
1.4109025555325916
1.7435730815205908
1.7789134706281742
1.6370524264389439
1.4292042799856357
1.1824256501250887
0.9100395123636584
0.6902083963414207
0.5887118526363994
0.6149667690010728
0.7313868847705612
0.9273956726220389
1.2593224302972277
1.7710022252755457
2.448063249966118
3.1899939384306175
3.822065959336489
4.168289001539882
4.0745064615971245
3.498699462612093
2.575245673788101
1.4901985172885372
0.41869484976300714
-0.49521509010026543
-1.1903869881214875
-1.6353969551154837
-1.7793427920626472
-1.5584427622794688
-0.9502407057557749
-0.024428192429702667
1.0766483784964498
2.195723218705422
3.258423883048519
4.234163984207984
5.041220038288871
5.584114509417457
5.796430439333027
5.715390894279408
5.496245109739373
5.2917392920561195
5.152188192927746
5.039420624985426
4.937271336328249
4.841862208526162
4.736503919242261
4.650303984099217
4.6286114006546475
4.725808507534067
4.9634984448711625
5.307989123557559
5.745796484254275
6.2468009909531945
6.74235846462631
7.141494217889429
7.310647855718428
7.130419981264126
6.586713601956031
5.812033703903051
5.012286767846506
4.357161430870199
3.950729717820211
3.832877276538426
3.9767768940868695
4.284648772336765
4.613347143016878
4.80993062479707
4.702119091660047
4.147585000124893
3.151757334433535
1.867760423733031
0.4907953647694425
-0.8057969871198607
-1.8788105088970761
-2.612669296447404
-2.9277395103536215
-2.7797456564299816
-2.1660207849865385
-1.1588091635504782
0.09196062149206102
1.4090998359140283
2.6536746554491892
3.7530368603933066
4.670784407950683
5.333346265470615
5.630650819586003
5.510336283911419
5.017598606991112
4.313230180151988
3.630968863990391
3.132985138946263
2.8468186074132795
2.706824443793169
2.617835249288608
2.5084457305742895
2.348074378386562
2.1179456591132255
1.7833812523802475
1.3002932045568858
0.6664167022875584
-0.05317013818697126
-0.8022208499304974
-1.5345126986170106
-2.2078908179926238
-2.819428976843136
-3.369696063242052
-3.8770147521750205
-4.346730993758885
-4.759700598827864
-5.096672044853248
-5.2768793557403875
-5.238067480780577
-4.979209357448591
-4.526386021206209
-4.020389470139408
-3.612061644514204
-3.363142174487805
-3.299032168595394
-3.3822275448029155
-3.533078932505835
-3.6125882214106997
-3.4772878134157073
-3.0843387099608766
-2.495201096710815
-1.861090919376013
-1.285979346336615
-0.8278334163704553
-0.5973520966525943
-0.6692781244353999
-0.9640454621401692
-1.2566582248550926
-1.34174247007517
-1.172410366737772
-0.8835558592242215
-0.7158301270365423
-0.8594388925309138
-1.3682042714972604
-2.147124688976082
-3.016941687039916
-3.8404263577996955
-4.558560934246785
-5.187401920797378
-5.7742193942088305
-6.344260231527187
-6.915621574240525
-7.473947845176411
-7.966907655446573
-8.339233389340217
-8.552018499096278
-8.598257787535697
-8.47906782751952
-8.20830153843609
-7.83360794137523
-7.4235146093766415
-7.054591948877915
-6.755633364059485
-6.505792609643653
-6.3091619200432545
-6.191413389418919
-6.187247652434933
-6.311064823138948
-6.5042779437599565
-6.697611204712635
-6.86272462635427
-7.023686023476211
-7.255273736163726
-7.572562289064863
-7.863095013678414
-7.991287426027222
-7.867729162445911
-7.430523927160122
-6.6936029146352105
-5.72907662322383
-4.614455530593224
-3.433023058882608
-2.2480595136983643
-1.1168860927077002
-0.0984762746755938
0.7331958045367659
1.3075208567776244
1.5937174193790842
1.579001126290755
1.311249878045525
0.9075255764285111
0.5142435874777453
0.2611231372294511
0.1733110233491335
0.14209702542755676
-0.008916668825807088
-0.43549404655946516
-1.2142070326525194
-2.3013750146251635
-3.588144782747319
-4.957870172139328
-6.234043007068066
-7.190754560634789
-7.676583361859259
-7.6957810982218415
-7.363243797393917
-6.817231878421768
-6.12360127365314
-5.250277503005374
-4.155223429794409
-2.8706408004142845
-1.52958161586269
-0.3033456669445413
0.6317660055318634
1.1171496887073817
1.1098744785409491
0.6581552015313753
-0.15795190641635873
-1.209251857711199
-2.33253662062476
-3.354403366903024
-4.1338581786529005
-4.602187602922749
-4.780335480347257
-4.771093703263861
-4.725590743025795
-4.826128227630767
-5.215817383849256
-5.924006864138907
-6.875355027769194
-7.931096968412548
-8.922547289526408
-9.698590386020793
-10.171446638694654
-10.32556890779678
-10.197851963920645
-9.833414446853741
-9.320498467086956
-8.828549418076141
-8.526865857387609
-8.444676458210482
-8.415310520565773
-8.21834095226525
-7.728321034378846
-7.002814661476389
-6.251223101074847
-5.708936262073815
-5.568981680137524
-5.877138368548645
-6.568578559178055
-7.544494779698293
-8.612259150893523
-9.575206297495109
-10.294591201178225
-10.62900054830765
-10.520570848565736
-10.009544442345401
-9.182062732700105
-8.19394463167783
-7.178169022793157
-6.230182508783266
-5.434816704823839
-4.8032603753573975
-4.304043674959885
-3.887333966952726
-3.5159514677774313
-3.206032699872532
-2.9985898113379474
-2.9513628737360498
-3.088767175782947
-3.366520185913269
-3.709856398754536
-4.00837258307094
-4.155846646497156
-4.099759506696788
-3.8289454687464852
-3.4057039237793836
-2.9785902745324204
-2.7130248812471156
-2.713965681163089
-3.036433268118273
-3.690928643419272
-4.62018379148499
-5.713991342703285
-6.801075841737747
-7.7064636839408704
-8.32814930707055
-8.631492831247899
-8.65919185319865
-8.523894047806222
-8.345734598468995
-8.184821999106072
-8.011435779024506
-7.800057600491677
-7.599266978490151
-7.465305058642884
-7.417356319286082
-7.431610254591784
-7.468710547402955
-7.523048232454117
-7.630994475582653
-7.819916145669115
-8.044985931423149
-8.223617120888228
-8.29617112578285
-8.235342208529614
-8.0547999665724
-7.804874446199135
-7.567741606987684
-7.436354303972966
-7.465293499097398
-7.670282717024827
-8.025505463651873
-8.436662132217485
-8.764597118984438
-8.886547877831637
-8.784283923380219
-8.57468046628415
-8.421758166432602
-8.469789858439487
-8.805629594491734
-9.39738885003153
-10.084531744216372
-10.648737171155936
-10.909756869955919
-10.762339663495249
-10.170774005590214
-9.18197450377869
-7.938160617095169
-6.652253471391133
-5.547946668542609
-4.747394318326956
-4.212617312544092
-3.8552258113924216
-3.6290126275141183
-3.5205858901454214
-3.54162531170376
-3.7361368391163055
-4.129274229232841
-4.636037391528065
-5.085946614207728
-5.306052772352149
-5.187041626157455
-4.695458049443449
-3.8481339984818876
-2.736966935595278
-1.5074437068468922
-0.3527422058993946
0.515876021429255
0.9611251034979311
0.9797791429852671
0.7563181813350975
0.54446690695212
0.5031823402858949
0.6654005998367807
0.9954226170905462
1.4589777803986475
1.9867036063739993
2.5048721461160444
2.9787291942596203
3.3971107796662974
3.774171656520543
4.109736490761466
4.422281543261365
4.753249650361783
5.1006992195988605
5.413907409184993
5.606882761035716
5.619939477651603
5.467166718972822
5.196483166695375
4.867255151954661
4.5344865501871086
4.2030641643586915
3.892163024812373
3.6681591038626316
3.5793055624757995
3.664490553293288
3.943299596380758
4.40336100900602
4.986257141518124
5.611846138832097
6.239988426015719
6.839063229358746
7.366978939226388
7.760431530578628
7.954447470677881
7.944364347573713
7.788793944799976
7.541020356021675
7.219799197924209
6.841691594883845
6.4081774625558525
5.91792501408851
5.374409314703615
4.782203828073715
4.150639998861556
3.4702723590674345
2.7211600215933935
1.9180454643490747
1.1574366673105811
0.5758898389965054
0.2706267759764693
0.27571907945538643
0.5626277016920967
1.0434515635026833
1.5967629644456367
2.1401333557567264
2.6418137274108306
3.0708161461093715
3.4151936149732682
3.7105202398391537
4.01357707707027
4.388871602405842
4.87409935438327
5.424615021010341
5.9525208801266185
6.364601236042212
6.570032449964191
6.510370602420262
6.162695445775445
5.571840801018792
4.857991530581165
4.160083434821539
3.5690101814204227
3.108257197104146
2.8032171730436994
2.6825135622248073
2.7117980988009704
2.8341368659145094
3.0219742588545104
3.227552643293616
3.4317897936193136
3.7131120174100256
4.143497498244879
4.752576945626935
5.501953654248724
6.243907683591171
6.839964314751847
7.2333963526033465
7.472353922057227
7.67263910614355
7.91928388364124
8.27512088279068
8.739900725581686
9.272474903883648
9.892897730387448
10.603546727500637
11.366065483084418
12.12952003257559
12.769233102275203
13.145587922509854
13.211770715814792
13.061752811568686
12.886375254909943
12.83209236407307
12.934409996508306
13.146489172892462
13.399021295629739
13.63428941929413
13.819182444514304
13.961956736080605
14.087279744344565
14.207330453202065
14.289292425211972
14.278562609855376
14.178091171653772
14.03080500239729
13.881750734221228
13.813498557367792
13.939059954594047
14.36120419649659
15.192102868450808
16.45862084099841
17.99602026655279
19.54579528969478
20.846598592027362
21.71088423753775
22.058204527696187
21.894293631997325
21.28208199725899
20.27550681236843
18.98657552694247
17.563554303740403
16.078032684461775
14.595321166953502
13.22656198323209
12.08187869033448
11.235959133987048
10.712084363946634
10.432663293539374
10.202185553881034
9.835852847689587
9.263359147860582
8.478508133061894
7.532718982972769
6.537662107359184
5.606241898226676
4.849579087484533
4.380683380942505
4.27031664406938
4.485017181417262
4.928985212994448
5.51722140985557
6.189797800210114
6.93046753110945
7.717500015393433
8.484061296985471
9.143265379386811
9.621468465199895
9.886589481821636
9.907682329220549
9.62914767378287
9.005748481783106
8.056688454447816
6.893009453559111
5.639514734776162
4.403235277423474
3.289512457804125
2.40731502338266
1.8960026692945668
1.829786030193742
2.1751987132813735
2.8474269727472983
3.715343111157786
4.617703359149016
5.360664700203969
5.784642927974969
5.8358865628050705
5.549717353915634
5.043745294874893
4.472650945324495
3.9781109183620753
3.6391826334076325
3.431629613439971
3.2687386774626703
3.0602606469423934
2.7751342345840238
2.4921953678072737
2.339148465559868
2.4034509386638208
2.701550502015654
3.1440913121696505
3.5598951034423143
3.803463088065276
3.8284494238521987
3.653080839238795
3.308516095881106
2.857085719417681
2.391286261843286
2.000840113664029
1.762108880872195
1.6923655772824235
1.7192119920462263
1.751033345077964
1.7010541864277104
1.4880579851743443
1.104901371840432
0.5781714394077825
-0.0737051640639954
-0.8079532834314647
-1.5587672879349714
-2.224089305434357
-2.715744068442354
-2.983807717098267
-3.008031063854806
-2.8374660474012243
-2.559496689469835
-2.282825245521542
-2.1238764792318903
-2.1742737133573486
-2.456711846707086
-2.89162362304641
-3.3820290354439178
-3.8830043776755843
-4.397481397334453
-4.905115935630771
-5.3235809479714
-5.605459410782278
-5.759028908598349
-5.806487822616669
-5.79841438992862
-5.788413749130677
-5.8039215343070385
-5.857204723473865
-5.969280062092159
-6.149564223523029
-6.340901646128322
-6.4425305504715356
-6.359412890592514
-6.030045869627092
-5.4555719944481265
-4.716784659029566
-3.9519725254362337
-3.279094052719045
-2.7791109844806483
-2.5326073321308473
-2.5956650376568557
-2.983420855303439
-3.6593525815856776
-4.546352228434062
-5.57836615035982
-6.684943769512437
-7.792353325725756
-8.857827209094049
-9.861842093756414
-10.779845781480438
-11.562378383995364
-12.177560105878207
-12.612524349158074
-12.844054077403568
-12.880709082083118
-12.782522526330002
-12.654590878052977
-12.610630032257195
-12.683880996021013
-12.855919406127883
-13.127534599258754
-13.477490838826256
-13.854608914338906
-14.194291988116584
-14.463601604933185
-14.667024631672726
-14.78219244564774
-14.829390731042146
-14.8641651159683
-14.900380955590167
-14.94217034629934
-14.984755434323258
-15.031806326786647
-15.092810615263572
-15.168237837059559
-15.258525550641739
-15.322042141521807
-15.28964131023377
-15.119116964271972
-14.82604465512258
-14.501521792646356
-14.288582444940658
-14.309725141303018
-14.588220168070231
-15.056045497769006
-15.60014106879008
-16.087824117061714
-16.37894975057229
-16.333770912416224
-15.879079011773955
-15.054671464220462
-14.023369828614012
-13.032251220245191
-12.277322379926277
-11.862549192930295
-11.84168313442327
-12.209184338574744
-12.893791529752237
-13.761949229508447
-14.624378255179291
-15.263231790165113
-15.515305376240327
-15.349446814782372
-14.849964054894224
-14.16814518524679
-13.46098719627112
-12.855221041682254
-12.402465739387408
-12.044501606987499
-11.680554272639208
-11.194972588375672
-10.508710437054617
-9.674693646434442
-8.868428441293476
-8.292695646603697
-8.071290566657813
-8.252285216155444
-8.818980686166968
-9.676854020157528
-10.702286300489037
-11.781953842583043
-12.812127209429674
-13.704685342314635
-14.434628544445268
-15.00031785884868
-15.38965871046771
-15.614368250655017
-15.675803027373052
-15.557857507148228
-15.220138530121865
-14.64304504643554
-13.857710586121348
-12.88342162534073
-11.780956800186242
-10.61755166560435
-9.400531295074842
-8.141923121886105
-6.88223259549684
-5.721432809071688
-4.7581369552479815
-4.033174472979612
-3.5651707909398973
-3.293083770366898
-3.107035139813299
-2.928102684953955
-2.7003415162413282
-2.423728358433548
-2.150950513291726
-1.9736429388677166
-2.028582854314485
-2.416838720379298
-3.1259983315858832
-4.044596713561723
-5.035095956764588
-5.971057871650621
-6.751594923061224
-7.3245034267439
-7.656096094089023
-7.726964603880084
-7.553811183771783
-7.165121510424402
-6.585630244229568
-5.834995256839629
-4.925289541835843
-3.8447134083962387
-2.5922134701802255
-1.2441989571783414
0.08667326817763214
1.2588590699508457
2.1266627648215066
2.6255078503807465
2.731222028492549
2.524859435748835
2.187188772564887
1.8299082975570904
1.5358293819013051
1.3404629719599634
1.1862749233576164
0.9829241102907239
0.6487976036281105
0.20084859809766267
-0.2703695065040752
-0.6707504646126631
-0.9632643325650917
-1.1506619152707973
-1.2206061684556726
-1.2391346862300323
-1.285719621782349
-1.3820279156528295
-1.5099990992705214
-1.5789490694738857
-1.5250416565933125
-1.3456966319727908
-1.0977464468303355
-0.8968139988196787
-0.8018943307411365
-0.8194897735687826
-0.9250749059759534
-1.051719604036862
-1.1600743705545409
-1.2265112753740828
-1.205081766941349
-1.0634263523899774
-0.7593338773051321
