AAD_Filtered_TADAS_FILE
AAD_BASELINE_CORRECTION: BASELINE REMOVED
AAD_FILTER_TYPE: BUTTERWORTH
AAD_FILTER_ORDER: 1
AAD_LOW_CUT_FREQUENCY_HZ: 0.025
AAD_HIGH_CUT_FREQUENCY_HZ: 40.0
EVENT_NAME: 202302060117
EVENT_ID: 13194
EVENT_DATE_YYYYMMDD: 2023/02/06
EVENT_TIME_HHMMSS: 01:17:32.00000
EVENT_LATITUDE_DEGREE: 37.288
EVENT_LONGITUDE_DEGREE: 37.043
EVENT_DEPTH_KM: 8.6
HYPOCENTER_REFERENCE: AFAD
MAGNITUDE_W: 7.7
MAGNITUDE_W_REFERENCE: AFAD
MAGNITUDE_L: 
MAGNITUDE_L_REFERENCE: 
FOCAL_MECHANISM: 
NETWORK: TK
STATION_CODE: 2106
STATION_NAME: 
STATION_LATITUDE_DEGREE: 38.4616
STATION_LONGITUDE_DEGREE: 40.647
STATION_ELEVATION_M: 1006.0
LOCATION: Kahramanmaras_Pazarck_Turkiye
SENSOR_DEPTH_M: 
VS30_M/S: None
SITE_CLASSIFICATION_EC8: unknown
MORPHOLOGIC_CLASSIFICATION: 
EPICENTRAL_DISTANCE_KM: 342.16
EARTHQUAKE_BACKAZIMUTH_DEGREE: 
DATE_TIME_FIRST_SAMPLE_YYYYMMDD_HHMMSS: 2023/02/06 01:17:58.3069380
DATE_TIME_FIRST_SAMPLE_PRECISION: millisecond
SAMPLING_INTERVAL_S: 0.01
NDATA: 18251
DURATION_S: 
STREAM: HNZ
UNITS: cm/s^2
INSTRUMENT: sensor = GMS+/GEOSIG | digitizer = 
INSTRUMENT_ANALOG/DIGITAL: 
INSTRUMENTAL_FREQUENCY_HZ: 
INSTRUMENTAL_DAMPING: 
FULL_SCALE_G: 
N_BIT_DIGITAL_CONVERTER: 
PGA_CM/S^2: 34.401
TIME_PGA_S: 
BASELINE_CORRECTION: BASELINE REMOVED
FILTER_TYPE: BUTTERWORTH
FILTER_ORDER: 
LOW_CUT_FREQUENCY_HZ: 
HIGH_CUT_FREQUENCY_HZ: 
LATE/NORMAL_TRIGGERED: 
DATABASE_VERSION: 
HEADER_FORMAT: DYNA 1.2
DATA_TYPE: Acceleration
PROCESSING: Automatic Paolucci et al., 2011
DATA_TIMESTAMP_YYYYMMDD_HHMMSS: 
DATA_LICENSE: U (unknown license)
DATA_CITATION: Turkish Accelerometric Archive v 1.0 - Disaster And Emergency Management Presidency, Earthquake Department
DATA_CREATOR: AFAD
ORIGINAL_DATA_MEDIATOR_CITATION: : AFAD - Disaster And Emergency Management Presidency
ORIGINAL_DATA_MEDIATOR: AFAD PROCESS SERVICE
ORIGINAL_DATA_CREATOR_CITATION: AFAD PROCESS SERVICE
ORIGINAL_DATA_CREATOR: network: TK
USER1: GuestUser
USER2: 
USER3: 
USER4: 
[...]
-6.5101587400883165
-10.244045912747115
-12.443596677135861
-14.467721083856286
-14.398444735133905
-11.370579834714595
-8.281478125607107
-7.235251503264603
-7.676462453757863
-9.347576930203404
-12.493618710774436
-16.48587523167683
-19.310049136641503
-19.06402787091262
-16.02524747157587
-12.211780090502389
-10.050391406531167
-9.300374455372062
-7.2074103123355195
-5.036827224071325
-5.563424834265565
-7.75375591145368
-9.985308827787044
-11.734474241788556
-12.249612831502931
-10.810813150400433
-8.029808501469894
-4.536239370685419
-1.1776062159972118
0.8758254873417629
1.6493585833266584
1.5579458211503612
0.499991771598381
-0.696214354944826
0.21275896145813356
2.1984207436195256
3.1639491971464193
4.150053958098004
5.392571829511288
4.654868313170228
1.3910696062694314
-1.9280197921617794
-3.076612079419531
-1.2637490265729823
1.2748160728056892
3.3332969369293015
5.955702616281478
7.432604557212929
7.245868331001605
6.393371354682839
4.794804714174986
3.0145501425812578
0.7019597319130565
-2.4381360140000647
-4.80238443019672
-6.029049203405285
-7.200007952375232
-8.326179034103854
-8.262951637794444
-6.83264402160395
-4.7999303637464426
-2.4400248046561788
0.08960817594749164
3.4605615462235715
5.755367961167392
3.8239245836291107
1.3874274726845583
1.4781572052479686
1.465558836687461
1.5913555829947192
1.089825209239157
-2.543279695091242
-6.442510770756569
-7.299291155378831
-5.727681990261515
-4.140740378419506
-2.893548432821528
0.26140373733563044
4.53345022809378
7.693365419404855
9.546051713499779
8.118678149065767
4.1277853239250595
-0.5393302647203366
-7.677857688664942
-12.660368828699722
-11.573123672191686
-8.220643950272388
-4.710404200438304
-2.860891381984081
-2.329246842725514
-1.2529009324540814
-0.19179076914397009
2.8885654773770852
7.285584365848245
8.032043916576797
5.644484397194072
2.4402765035963707
-1.6888763657264942
-4.009045597012271
-2.942686930343646
-2.2153777917327155
-4.516987757661457
-7.32857323034912
-7.539395233572067
-5.971634430680484
-2.2778191392610436
2.5759827810784177
2.8589437146747643
0.01085152138688534
0.23284216324291734
2.9042326170339927
5.2694589897654
7.058836952558244
7.327356527434952
7.005729689852448
7.848657115145127
6.758545816109178
4.224840484708587
2.9910471213952987
0.8018923789492942
-1.8976598056412155
-3.0596421319926606
-2.0061147353572912
3.303905922582892
10.878989659779702
13.76310848293416
12.35630123522031
11.149515069726597
9.701622250685064
7.2893965391225635
3.2232956524488747
1.7850151958577865
4.727257246391518
8.416408548234648
13.67711567988206
17.46272475184533
19.818938571046907
21.950298945101615
19.7824223878856
15.025196749710663
10.331462176360128
7.6985673980098435
7.061673258721758
5.253913590330267
1.6858328350112037
-1.568366333264518
-5.417872999300056
-12.12358845538448
-15.273826897312594
-13.135966769886302
-11.589789581616442
-10.76818444180817
-9.14566843943044
-6.94756285895328
-6.1105174645219265
-5.894110803925669
-7.010997839736977
-9.503935704070008
-7.213595739119078
-4.394312587342807
-4.852026402831449
-3.0818095695779686
-1.0823236751050112
-2.282498906314292
-5.371672189560771
-6.936248201583758
-3.193163513919063
4.757033829276396
7.485086078730517
3.1300509168683917
-0.22857765985413694
-4.927102652894238
-8.442483522195523
-6.680020723844507
-3.8365169958442116
-1.7616985665961091
-4.491398735189162
-5.688526261890766
-4.371658521420643
-6.248693246845999
-3.5870408236716096
0.8417307361527974
2.9482796469717507
6.113601139863159
6.768162212723669
3.9355972490036133
0.4705334220938951
-1.6944006122068809
-0.33999863062960506
2.724990401905492
4.5458332878492875
8.697531201334426
13.038146798102112
10.613560963724332
7.117995208018643
7.72235399797703
5.406812454780721
3.75929729174387
10.914757303715962
15.6149317377906
10.881180705556599
0.023380659643455197
-10.034821544086505
-8.718746768976938
-1.420620110424321
2.3002607651027787
1.9093558077507793
0.6360820099410264
1.9600281174291057
2.381510656448639
-1.184633012226256
-2.9766315418226177
-2.4879516287144936
-2.55479924713811
2.2907585267636406
5.78603868523559
4.52192489694781
5.326883441811274
0.06043464727403409
-8.239343574686607
-8.221453629786309
-4.5204249205369935
-5.590433114891536
-10.870513662512662
-6.289424001891844
4.541103700580622
3.276964953446135
-2.520464242203935
-2.586605896409597
-5.800517722458523
-9.60189661564192
-6.519360399445714
-10.344907153090505
-20.384957539590108
-14.974612623278718
-2.0264641613540357
-3.5082295946216537
-7.537756331854535
-3.3028930643231087
-4.389999342065924
-6.838068360344272
-5.057687646203456
-6.425628902568199
-4.82362576094505
2.2534413736853165
3.7904928971121885
0.41804368523511454
0.7184108536507111
6.292712377654399
14.141109167719636
18.292567467445252
19.94095249813138
19.326219372545335
14.251663612057678
8.56492725103656
1.712705618696798
-1.9753988698196716
1.6443413144827195
9.606023399067283
14.578611923751598
9.676259293959966
2.540272915356322
0.26025077789623297
1.7594607820446955
0.8316467661937731
-3.0572474484820584
-4.21611550200278
-9.03868716689159
-14.942376048174147
-11.887070286249411
-4.4701573893466895
4.114917390602464
13.574302856082442
18.229045681299173
15.796213583531712
6.563231628508022
-2.473607588435674
-7.804881723129009
-12.304623819105228
-7.256616151822284
-0.9872822658187871
-3.0314029385756696
-3.1070083816641207
-2.653834463674428
-4.230915640797544
-7.9437861076207295
-11.820218456360417
-8.786150014282622
-3.0551351643855216
-2.4278449855590574
-0.5914778215314694
5.12100722799232
8.581354193538775
5.975842693378396
-4.575000521528412
-3.9349833180529035
2.465330175259752
-4.114819141228509
0.9703177611284716
12.495818250254928
10.986763778736977
9.290325974847155
9.39979191208771
8.720338844242336
8.119418371630152
9.551799799712661
8.881480281473817
-0.5307518429477506
-8.62376325036157
-10.96904200754412
-7.0245260577373445
0.7786311479076516
1.065681563578091
-3.712155620878231
-13.239958273357153
-24.57809926124239
-22.63720148924816
-14.654737990676603
-9.66852280455032
-0.9167830113873642
2.522371222748218
-4.204568301976034
-7.251099732028911
-5.98068459198142
-12.839940579121974
-20.75351318449467
-15.31391157428156
-11.837605076770556
-8.166430548276846
5.151358790825685
1.1947015759373876
-16.70101846951719
-21.086752404767203
-10.481774692911241
-1.9436664468134353
2.342296357349641
15.398754342270012
18.99171711005532
4.575236077505181
-1.2924556893934511
5.086383241667252
7.61269670548739
4.7334533161624766
1.821414917706347
-2.8917840130788024
-4.849588626373322
1.9854166818100178
9.579887775157639
11.378214805797192
7.170905097705139
-0.5739741041346106
-3.9147831007481124
0.2696551051490162
2.457531339077828
-0.358864925277065
2.327633961496502
4.52391903810975
-0.49278920884031274
-4.574973051362213
-7.7353071907373545
-6.223456171243369
-2.7057546753859794
-3.6850707653370436
-4.279261566972494
-7.897779116462739
-14.833622460220763
-17.912919091725048
-12.410114966177957
-4.347205374519081
-6.011696248899261
-14.89206852340452
-16.077144113220545
-6.608923759325664
1.5315420361192322
2.6235761306429155
-4.640697917667247
-12.579935338239183
-18.120958327010634
-26.063236827573874
-28.041970542019293
-20.62134047442514
-11.417556258995553
-8.512368022245255
-6.071255197591904
-1.6760963932114077
-4.82829837126989
-9.724544401097186
-8.790598418105976
-4.659430577177721
-3.29900867093535
-3.0717077482154997
2.9874319580027624
9.207145167274138
8.150235987911726
3.165190925905674
0.3282841185146584
2.8309808934537917
5.162060497984256
2.5256515624069324
3.6958044473859313
10.629992613410089
18.539723177439598
23.37746414440723
17.084279229739288
7.027534653053929
1.2793442923303644
-2.8171266730645668
-0.07888236670964367
4.427239221379569
0.41099924637439145
-5.000128605517505
-5.1081254201987365
-4.726608895623471
-7.977940668795139
-5.6927124833855896
2.4015000100198356
2.236912557837835
-1.6519625061701153
-7.3161618815486165
-15.187318016057791
-15.80316122415924
-16.423172610820515
-18.300826355956968
-19.336185997571995
-19.56617575370123
-8.38306838500351
3.7581059275588675
4.63470494788284
3.919121030714962
6.31675762714479
6.246757884457945
3.4190646568120364
1.9381537334678316
1.5921798210701796
0.45042218495784336
-3.249024007616348
-8.530039639824654
-14.415955218421335
-20.538524323902173
-24.475777511986504
-19.99042939305
-8.89044468341393
0.009357307140934485
7.082220762565458
7.4331816932655395
3.0938663640738135
0.6486154343045156
-1.6601374947413665
0.10080210027685914
2.6010149996075116
2.743157178271072
4.629414523514525
10.410743148907077
15.198025309461736
11.47333140573002
5.076356194965569
1.3029714220981863
-3.217458052443149
-8.823837496846743
-10.581993231370541
-4.3516091269124075
-0.46306349209289155
-4.04275301314292
-4.208740622794836
-7.335310697903478
-12.396181046445147
-3.6243397981724144
13.160237737163964
24.857838562393233
24.445779997565268
20.461413901829335
23.10040590512352
27.40671417005698
24.619694761669532
14.601119923609316
7.8386375621535
0.9528764883550228
-3.9922965779915995
-0.37509434127486757
-0.5290244274941089
0.3397476546841497
8.965012732828345
13.740778539395807
18.55639110691323
29.560078125128303
31.11522937520044
21.213937943040627
19.103455769750237
21.43970388816564
16.036829691350025
7.88651543766263
1.4932275856797232
0.20875741511290113
4.25467345921027
10.023124046247137
15.75992794608866
17.758246611938446
15.571172294704253
9.80170372545653
10.33970199441867
21.802009801311144
27.321415160179416
24.875226824957057
21.097036092108212
14.710137836196282
10.34136766825186
10.618781973238177
12.754784968187256
14.220163873715777
12.418886735924467
6.525552063486578
-2.1573091532280317
-9.613799094348398
-9.011841968017952
-5.378674819018097
-7.640060144389273
-10.604594861495633
-9.443363334837422
-6.401202603968185
-4.921745643091976
-3.8968558213871805
-0.27261730745836665
5.088132877121671
9.874429936556398
8.03324671055357
-0.23547740353026578
-5.706387197587983
-2.698884565653816
7.893527608200373
15.692048031651652
11.96608818306302
2.6436754739531456
-6.251595050890781
-16.514100389164255
-21.7511314579206
-17.861516477655876
-15.435671363173311
-13.782636013277626
-8.143939288842486
-5.49985943406716
-4.023676359413925
-0.580633162882056
2.7482759411822695
6.78489294378669
4.545203196808888
-3.1023110904491054
-5.410372001917228
-1.1968049993432641
8.840830915148345
15.758120076639324
12.983694501914545
9.138841161580121
4.203755674121083
-4.275723667363976
-9.961206327471823
-9.280745024375424
-2.131431317687409
8.210442497605888
13.519499097129389
9.46662876641082
-1.0453598186537967
-14.223743046134938
-25.548411423039333
-30.054593258663672
-29.523382860260316
-28.705847238862404
-22.585147827815614
-13.524856088954488
-11.160855304257622
-5.9328341260670765
5.3186831479988275
12.333166544886925
14.02471374259219
6.495552850326566
-7.487136055864066
-12.632996896917158
-8.277043229002363
-6.304453054671501
-10.199517116599203
-15.177658097077794
-20.93438911234733
-28.11273970603919
-28.320406266396706
-16.508355062645116
-1.489114647441253
6.901899726370066
6.635471227815924
2.3339805813109638
-0.7551072629291714
-5.860823427172719
-11.786957398495877
-11.023286483629503
-8.240159513880752
-8.047101328025
-7.293663911007363
-6.28620618674344
-2.0102598864256396
3.7793035832943427
0.7036966531043939
-5.223306094834072
-5.367821555732462
-7.535821443945741
-13.426177700643679
-16.119976474686
-18.364865460056162
-25.521634614343277
-29.802266603596305
-23.618428041108977
-17.289343237748422
-17.41856828651228
-13.521195839857892
-4.376874948387132
1.310226807213674
6.2340065862681
14.610468390344314
21.567666580539083
24.03099472027704
21.476977319031597
18.79425243922061
21.680874231210378
24.114530045187326
23.2618137194227
22.813877983888442
24.18653523466679
24.216874309906977
21.19681097262695
16.989122399748034
10.242769066377502
4.945266551741611
2.5063876738179345
1.2317763565178743
2.1919249907879754
3.2110893710833963
3.2412732407245692
-0.4226030919300246
-5.941387117004313
-9.886020198607703
-14.191152398557447
-14.3803367849277
-7.907037051820922
-4.211576766978713
-4.496136381646517
-2.6659061808917848
-2.46074809010388
-0.23858080522628045
3.794237444619224
-2.903350970970549
-12.64299466094413
-15.984922588043329
-17.099749429713274
-15.614291107628723
-14.022802841789703
-15.288717909858605
-16.043727884817574
-12.17583265814754
-7.664537948527966
-8.249010120424902
-6.013625736263644
0.685188722480851
7.128388153228103
17.163559111975097
26.35481253355258
30.60462187678382
34.13981872845294
32.509779035644634
27.498646195659564
26.559631824806452
24.163534503157585
21.20525234564116
22.968586032956438
23.802993803630326
19.339498729188445
13.97634603094467
11.955619970506397
11.72816262004413
12.29902876716305
11.607310183605291
6.9342628106055395
0.23600006076059213
-2.9792587551086736
-2.552489182866562
-2.7928423440836125
0.8324756165910797
8.479358810575377
11.750975288885005
10.602336511838718
8.837952028236886
7.583874833187826
8.815758479901417
11.461494535495731
9.760503314299969
4.327199489872991
-1.8577661065453592
-7.185573829859468
-8.392140300886442
-9.26832884684619
-14.740924419686332
-22.009478181644905
-26.703993547258584
-28.496122275690084
-25.443821706925416
-18.17193833185973
-12.90459191200085
-9.059548564767363
-2.9297136112842646
3.5729487979869683
2.1302015804001275
-4.014336990021539
-4.78663099501085
-5.984884916242323
-8.740810243384457
-8.90330887053342
-8.222135172796454
-6.930417756224294
-5.443991145916156
-3.0780788034988182
-0.7533662965877288
1.6800522984862172
5.181006629823089
6.48708589665439
6.9237754760857335
6.558341108922873
2.8706942315530304
4.016012873176709
10.169516511922518
14.82688679853456
20.63728995962571
23.455983877599653
19.573064634267308
11.348348764332089
4.2191748910536395
0.9986692739930146
-2.337389508109718
-2.1054248265827398
1.802393625533373
4.646340233609516
5.682948516667852
4.1103530241032775
0.08446875556838189
-2.751688492306882
-0.27851488374465494
-0.4816058063845434
-3.2119538595533896
-0.11278016802697943
0.6518992924797882
-2.7408057398156505
-2.997717538841426
-1.5260247473555093
-1.4069259428728684
0.44367377082234344
7.0072097179120805
13.265962988607079
15.92115025470973
17.766287308248828
21.074687642703946
24.468939833088978
26.347268620808972
27.863268011347138
27.205580043324737
23.504757745752165
18.94809999296642
15.031637361178822
14.861601097043923
17.393198091300945
19.660371855162772
20.88945743547339
19.649653249918806
19.483346667744406
18.90103389592026
12.41810089182319
5.0675938393225515
-1.2210152421754423
-6.1647329244371285
-6.253145398635051
-3.3885425799376785
0.46278240038200136
2.1867336393278225
1.2121966628873957
-0.1145240905909324
-2.565298015855643
-5.162815452328457
-9.131036235274951
-14.18031047530511
-14.776599212554716
-11.275352295581413
-8.077462311214449
-5.552674708019873
-3.216483084441821
-4.698231218484757
-10.384708063094891
-13.630836098238056
-14.45668187526659
-17.397976839874037
-16.7789230752648
-12.046446405743353
-12.706169075462805
-17.209718017769195
-20.24749981105988
-20.930060477888517
-20.125785590622012
-20.968875129711538
-20.464749660238205
-15.759531970458449
-9.036304560449151
-2.827004575733692
0.9117076698604827
4.330269101400687
5.667136826202623
4.076884311312155
4.718209994074805
1.8127878192240574
-6.250122332178135
-9.666346245276706
-10.236592575949537
-10.07770031233172
-6.253526700558991
-3.6898544523616073
-4.350378278209312
-4.071748676220135
-4.258049926004779
-8.775692765702859
-13.761740207329444
-13.54140561995991
-10.01163782983795
-7.7625245868574515
-8.31299437019452
-12.15814446113368
-17.10804171013173
-19.848739180146094
-21.36537172669903
-20.24935540730482
-18.02383520245655
-19.55998063271591
-21.556816970964128
-20.001778305873206
-15.294245575898463
-12.576439751760926
-11.077281131308341
-6.697140280767277
-5.4522288331482205
-5.722043036173303
-1.9954469581243877
4.0611032197638295
12.37667892266959
20.91292530315458
27.891882237332045
32.438981136210366
33.0765420366556
32.198010176649994
29.294798465156106
24.07231743104534
20.24306853310168
15.099152300098133
7.560789116765236
1.2342482970372275
-4.402734736763202
-7.690561561519807
-6.279740637069873
-1.5333507767506838
5.001592553832104
9.104176714051665
7.764755444444635
5.7081337321379415
5.7398483252915575
6.937661994553555
9.045586533323617
9.979933462294587
8.146437716223407
3.5567172307930206
1.2571082401098792
1.2467956025813518
-1.175787750442465
-2.1472381303006864
-3.25164506886416
-5.881513303773083
-5.857239679275928
-5.157178601414177
-4.06494080219875
-0.6930187171261786
3.2787436001556887
4.6530193051277635
5.23258251508889
6.318170206460122
5.608705006115402
4.806470998000312
4.157943107609826
3.3526507105915013
3.009492469599673
3.709237629472935
5.339426545610793
5.118104970160747
4.098968683822263
3.57887936643787
3.0109913079234008
1.8168818266563456
-1.4469328396976562
-4.670722418680586
-7.673866623935808
-11.949086259797117
-16.252851436585054
-20.867339031190806
-22.080736507275567
-17.44482652447383
-12.576851407140246
-10.421434791070745
-10.891698671998011
-13.729935412637184
-17.20980702910946
-18.17085487225213
-15.1837847286098
-11.720051850360372
-9.825373506237291
-7.272067196977921
-3.621196626540316
-2.807621727291391
-4.770209981548882
-3.834511765842575
0.6580590415688984
4.489939278236328
7.9182777519404315
12.073709279311133
12.293716153560307
9.509748761049911
8.123443591344897
5.8893725670881
2.141970154642307
-1.684767965033246
-4.409725152631797
-4.869410894315814
-3.2789948275832153
-0.2768989172508934
0.8955104191311622
-2.1077123807084615
-6.996232771553438
-9.927500546131176
-10.39478623084193
-11.564196353985832
-12.33831385180759
-10.388271820893088
-8.002662647882998
-6.252537328483514
-6.4372307273147875
-9.736122884864008
-12.98414652999334
-13.514895018379624
-11.734418482716407
-10.543152987760854
-10.956621456458919
