AAD_Filtered_TADAS_FILE
AAD_BASELINE_CORRECTION: BASELINE REMOVED
AAD_FILTER_TYPE: BUTTERWORTH
AAD_FILTER_ORDER: 1
AAD_LOW_CUT_FREQUENCY_HZ: 0.025
AAD_HIGH_CUT_FREQUENCY_HZ: 40.0
EVENT_NAME: 202302060117
EVENT_ID: 13194
EVENT_DATE_YYYYMMDD: 2023/02/06
EVENT_TIME_HHMMSS: 01:17:32.00000
EVENT_LATITUDE_DEGREE: 37.288
EVENT_LONGITUDE_DEGREE: 37.043
EVENT_DEPTH_KM: 8.6
HYPOCENTER_REFERENCE: AFAD
MAGNITUDE_W: 7.7
MAGNITUDE_W_REFERENCE: AFAD
MAGNITUDE_L: 
MAGNITUDE_L_REFERENCE: 
FOCAL_MECHANISM: 
NETWORK: TK
STATION_CODE: 3142
STATION_NAME: 
STATION_LATITUDE_DEGREE: 36.49797
STATION_LONGITUDE_DEGREE: 36.36612
STATION_ELEVATION_M: 139.0
LOCATION: Kahramanmaras_Pazarck_Turkiye
SENSOR_DEPTH_M: 
VS30_M/S: 539
SITE_CLASSIFICATION_EC8: B
MORPHOLOGIC_CLASSIFICATION: 
EPICENTRAL_DISTANCE_KM: 106.49
EARTHQUAKE_BACKAZIMUTH_DEGREE: 
DATE_TIME_FIRST_SAMPLE_YYYYMMDD_HHMMSS: 2023/02/06 01:17:30.4077320
DATE_TIME_FIRST_SAMPLE_PRECISION: millisecond
SAMPLING_INTERVAL_S: 0.01
NDATA: 12501
DURATION_S: 
STREAM: HNE
UNITS: cm/s^2
INSTRUMENT: sensor = GMS+/GEOSIG | digitizer = 
INSTRUMENT_ANALOG/DIGITAL: 
INSTRUMENTAL_FREQUENCY_HZ: 
INSTRUMENTAL_DAMPING: 
FULL_SCALE_G: 
N_BIT_DIGITAL_CONVERTER: 
PGA_CM/S^2: 749.514
TIME_PGA_S: 
BASELINE_CORRECTION: BASELINE REMOVED
FILTER_TYPE: BUTTERWORTH
FILTER_ORDER: 
LOW_CUT_FREQUENCY_HZ: 
HIGH_CUT_FREQUENCY_HZ: 
LATE/NORMAL_TRIGGERED: 
DATABASE_VERSION: 
HEADER_FORMAT: DYNA 1.2
DATA_TYPE: Acceleration
PROCESSING: Automatic Paolucci et al., 2011
DATA_TIMESTAMP_YYYYMMDD_HHMMSS: 
DATA_LICENSE: U (unknown license)
DATA_CITATION: Turkish Accelerometric Archive v 1.0 - Disaster And Emergency Management Presidency, Earthquake Department
DATA_CREATOR: AFAD
ORIGINAL_DATA_MEDIATOR_CITATION: : AFAD - Disaster And Emergency Management Presidency
ORIGINAL_DATA_MEDIATOR: AFAD PROCESS SERVICE
ORIGINAL_DATA_CREATOR_CITATION: AFAD PROCESS SERVICE
ORIGINAL_DATA_CREATOR: network: TK
USER1: GuestUser
USER2: 
USER3: 
USER4: 
[...]
-14.002271428893481
-18.191512692098108
-15.331695299687988
-10.53290759655432
-9.42994413931245
-9.225940056492938
-8.343467953272794
-4.98351814257185
-1.6783884913445275
-3.503750623972436
-10.474562006241106
-17.200253950686875
-23.623193650236058
-34.54676895057426
-37.019628378651156
-28.5025889303676
-21.4275588521975
-14.615461311418457
-9.224277800755436
-8.170563982800049
-8.066762870989571
-0.12142276150448686
11.413175880948808
13.292066849339712
10.395063495822116
5.454575925039014
1.703118413081056
3.5774028641571944
4.421669739457355
3.3281678251524713
1.3607169307060092
-0.7052729395031013
-3.355198234842738
-8.064274979788745
-10.022944971842792
-5.483992572007634
5.117162021524155
16.53314728952079
20.496963553308667
13.89180695588417
2.3594855478538443
-4.9046613087982545
-2.047588221254716
5.908574741005686
9.314032196382083
5.044899661892655
-5.535960206535633
-10.88346387122461
-6.805169873276098
-1.5948461561228509
2.3011193403877876
3.2827929477758375
7.016759099555148
13.464699688847109
15.621875473581591
14.526597751913796
10.332964888977187
12.761008338837149
24.37632599171368
32.14142520388279
32.17867830402361
24.653969364392797
15.800555306941572
12.805328363782433
15.521728891357528
25.114450471284353
35.277123784088865
40.77807650185674
44.71716794715082
46.22844561132752
44.88592707539206
39.55262843225514
27.8560256358656
14.6879652761056
7.466007807500499
5.724464569158318
1.962636274702603
-5.021723185809077
-10.111909068445685
-14.596781650180494
-19.196628941604036
-19.234126318398445
-16.592969792309948
-17.76768704033238
-26.426115741432206
-41.34245221019497
-51.09444802513984
-42.168333895262656
-23.06946006965879
-13.052907394975199
-14.653237267204798
-27.23545841640768
-44.97389094540431
-51.27655329186851
-42.671640556952426
-28.202557947311394
-22.94439048658259
-29.97176717683016
-32.104031618817594
-29.41770741224028
-30.82286217220244
-28.114136094192034
-19.894960419209305
-13.138332698318276
-6.9998360957610135
0.33955793722093863
7.533834929923231
13.43662991065735
13.027301773555129
2.530800794695794
-5.160186694433747
-4.902788729451276
-4.998398768407611
-1.2835951529057754
8.565408242507598
18.006067280919765
18.005735360425835
14.33545250224084
15.025801631541643
13.410762403244904
18.83879748282263
31.082904813090853
38.37225180756337
40.864059392069144
31.990983538929108
17.863368552170932
12.057636639414097
18.947355617272144
33.84970446190352
37.029561709095155
26.64496638667912
16.682870688436022
9.880601356545592
9.858289840112445
17.6497177323048
21.406392806304204
14.683600802047874
8.866446400798917
9.962033441142054
9.79641800750147
4.828320644065131
-1.9743822732707144
-4.352704072401912
0.43324031382724165
6.598896823046449
14.12011892585863
24.10908510961465
27.237845296394163
19.626130610329824
6.800656834928887
-4.33093297666727
-8.853981448482191
-9.469377300063279
-9.369342582797255
-7.742009701314202
-5.444324005072279
-5.894163072586483
-12.635960918870106
-20.856095893546772
-22.154176528310934
-19.344891107381603
-21.834738116685386
-30.563597722867524
-34.43120644038111
-34.012604997727905
-37.313169726608756
-38.151659302514766
-39.223315213259745
-40.389189757815984
-30.29261184542196
-19.599245124364597
-18.687386874138
-17.025240110117252
-8.926331190298884
0.34540397153632596
9.935697762230678
17.712065000593565
16.741880931449433
14.042548543291401
14.498068792989644
13.607765357340245
16.327122742694982
16.90715724448133
8.900640167040509
0.8013916475531377
-1.0754297487057796
9.376308359063167
29.41484494245303
51.28138285242304
65.11009537427813
69.80695747683362
75.53038895765158
70.2623467735212
52.83448339337476
33.78465265436248
13.829244083851567
7.139353764854214
13.571030930533915
17.80176754701699
9.61126807929329
-3.9865117632428664
-14.443897429305396
-25.857483675552707
-26.207846317539307
-16.588205376174457
-3.883945457248362
5.201670015159396
5.869355187809282
10.357796494178857
5.638122275718061
2.1573811473291733
14.254533286190915
13.957676652429141
1.336622076119036
-10.58487084908229
-15.105412330696437
-6.695836963790196
2.9637908709874297
2.001154070218626
-8.171965151683548
-18.578970458346475
-24.140719557696727
-16.363681951772325
-1.385865011102836
-5.412805967365029
-20.836994228426324
-20.13116368195199
-19.096165551909255
-24.98468794541817
-4.325663612720799
20.185154433939676
19.870927638784416
10.75074681298521
-9.010914015720582
-31.34120755585304
-39.71431657850097
-13.60364875302719
22.47668805918718
12.936739270508898
-11.178387415982666
0.22409838412238892
37.4010644130376
60.33243818125388
62.00982747637663
49.68222099696137
8.388849175073391
-28.685970405430254
-6.935412576942984
43.315652762096114
68.30305274606998
86.87438067438951
92.4403207476875
71.56219985044093
45.60888107552341
3.833505825596832
-30.632224381041357
-10.006564860350768
43.278893354305154
52.81955875169602
30.10065703095082
29.76015615493808
18.811622374521843
-0.2558685001837284
-4.854969539838275
-17.53151554983671
-21.21488160883872
6.108675471074212
44.05402853988243
37.61306961138461
-17.277667743098338
-52.736493220946166
-58.97114697340536
-33.4340348957643
7.354712704334142
10.1517009415007
11.894257556931288
21.15945930435085
-1.4663851597138373
-26.578647862595766
-12.799022856969778
24.907911079600837
32.99108432880211
4.235766120048161
-8.957848887592123
13.605278360194186
38.30872129037661
46.35871425006384
53.33765581528945
58.571881979590295
31.8127110764494
-7.900366732902562
-49.070320768483185
-83.48302343471897
-50.28997452478357
2.9162117917442307
28.786860116177998
33.548044846231825
2.7799447239734243
-5.854335896172508
5.292260325884596
13.158342479318573
40.12574957335991
39.67825781717798
22.210331081598387
28.78140007196862
33.98048849473783
34.847655714572994
48.62491131285117
65.16954696391457
45.796862030478714
10.244586975652371
6.188464398206498
-3.5664722882591464
-20.29415045975508
-7.31603524188974
0.7324466696408043
4.653407607850701
31.686101046484964
29.28076022263225
-9.223449326867327
-27.98543695999792
-34.252231292053004
-20.35219149773131
-1.434643224807715
-19.444219106956165
-35.33359452542113
-43.95822784715777
-30.32955052804926
-1.6042952540504447
-21.767242488475958
-16.616552514563857
31.11068778054479
30.547629142520698
-6.014055591701678
-31.883873996658373
-12.74340447489764
5.1726706459070915
-24.207713598828796
-7.3127337296829875
41.24700694591873
15.919306315279927
-30.654627534009926
-36.87939489334044
-29.781875637216814
-9.881402667690779
23.773683851883245
26.674784261924973
9.269994617393117
19.245755526556458
-2.219188897513716
-80.03356478793663
-105.68819860176127
-41.633360600484856
36.90000977942868
73.97219395207703
56.941813277519365
-1.1719762104280658
-63.811764430354714
-89.05002702678895
-38.66632420269826
25.56003244178734
40.52571903576029
50.58814314276703
34.551750713555634
-7.337466668862389
-2.1149382138152966
33.87681742103669
50.55743744381485
65.97311997328563
57.233107318193454
-7.4614761032327825
-50.97350466691243
-42.62566637375351
3.0247893975172953
39.629548328156446
40.1013508878693
23.61601906061808
-34.1165796257352
-71.66023361865665
-61.888206000504276
-8.832472369889617
70.65935423598862
68.94528458190521
-19.128048238922773
-111.14131372446941
-139.14409631882577
-175.61254085149665
-206.2273845157845
-118.83473764702026
-86.04368714911315
-155.74168377138807
-165.07079023337624
-166.5883545795069
-179.9484119015612
-122.13811158649878
-105.93212336134543
-177.67428625254405
-192.97414505680288
-162.29821292868672
-128.68432604727386
-39.05464918936846
2.918847704595498
-65.12147314249185
-109.44091590930744
-133.82889344488066
-165.7168362786142
-148.6304212511557
-116.80690350894069
-82.35907837609766
-45.09801181119687
3.1948954003261654
53.062203984635794
51.5764962707855
41.9558902400837
37.98232022971996
30.721657674992823
42.52686756330252
42.30303631275828
52.94052218843493
97.82434459558137
96.56667451655755
62.7829888515542
90.87469179799723
129.55184294388926
129.55329508529945
138.76826149229967
141.90854899538144
89.68209299212126
40.3760001642363
57.20586919474453
50.772521629845386
8.001923270541583
1.803616005881254
-74.81522386428854
-243.15814348381068
-315.3818310080095
-287.68056464444805
-290.3833115859821
-245.73501854326238
-91.90168789486802
11.345220570782496
37.43676442379456
49.981854333672025
-4.611014730073398
-101.55245145083174
-93.39435457134765
64.95021916382875
159.141597024749
126.63322388515842
105.65574744513825
28.1830518831179
-75.80919619287194
-65.67126997673101
-50.72383800856282
-92.95242498374063
-73.11699025085704
-26.766950398814195
17.670231230064605
69.95521544817764
25.663988800599107
-29.164519998818527
-25.82528108394115
-39.51614292815869
-18.44971603472131
30.85594466958932
52.22216852366459
99.46580938157702
123.48339838483754
50.63170456112446
-65.2165700351441
-154.91198862074904
-200.18236728111188
-285.33189326432876
-282.5694496378505
-111.61167255824056
-11.416843560774371
29.27827007428681
33.24612614684854
-83.21878101993406
-183.59965429080742
-160.2418509167202
-116.52814300737028
-132.09473505253223
-109.63535740665809
-118.36991514509103
-214.19752395501254
-263.5586484915012
-298.6901719412425
-318.6197241198378
-269.4383456596217
-188.1511339035179
-90.57744870497427
-16.28235232136511
49.15226636882561
156.91686694332518
196.42104959076568
154.78570625639395
154.52223704654511
145.2982851961019
149.36673381410534
86.11264005634833
-158.10817103390292
-256.44357012922075
-79.4515472399091
142.423912478582
276.57367908700616
286.01823266185613
225.72952854948403
137.32511843042317
94.12402353790372
182.7719280017334
328.5000421979156
465.14382821256436
520.6935419137167
437.22537568997996
264.8718463014313
40.82358570735007
-138.9983302924527
-162.6080674260136
-77.21062122972451
-39.4487284845868
-55.838217799792965
6.912252517082966
71.71552743336676
27.459029501039574
-1.5658295708969725
7.511816088651863
11.907497878794139
73.05323242082515
171.57782759007696
207.22141368772805
63.317812616195596
-158.43818080762276
-297.6171621072292
-380.43277387684594
-429.7591991378764
-424.514172712118
-249.97496370174864
-102.44654668181663
-257.4269646680042
-433.09417289305225
-483.56648643780625
-542.7724204345473
-525.8612901765332
-262.0872786413062
42.2126170820497
0.6402391241955244
-174.2505692991727
-237.38189310640755
-298.78609497106714
-292.4495641193406
-222.2509745343029
-172.78879254978406
-109.32575521156733
-75.07444145124175
-39.11929856967929
21.50713288389158
-11.358483792760538
-20.352304098969
69.36538838834826
142.7920885489366
254.17663805159236
350.1143443437879
231.95670592290134
-31.37566896742324
-173.66591962270996
-109.59071919832849
4.019120558876844
62.29847772350969
108.82310140027558
33.83252745471971
-130.438157697946
-217.07221703541845
-234.36030430871796
50.71234045449031
374.74360194808685
296.4224628982274
191.307353144018
143.91180194753494
-0.41210766785241565
-94.68459435063322
-95.5354138119896
-48.930052340209286
32.40210921701963
162.63875893870872
233.73446407256395
200.955908116979
139.43056005590154
69.37613754267583
59.21270972975977
96.81630726532534
134.80642886593685
218.103557612056
304.79011992807347
301.6632109155539
180.82210295456326
24.514817788149443
12.809132260710426
127.69313405915844
181.12838053481855
205.96520999421531
200.0494992979051
63.154555450425505
-98.15216695601667
-172.88071422558434
-121.62194917526553
14.979616040466821
167.03269324726628
282.4230901948454
365.58553494352674
389.80311448998015
209.34198083738497
-5.7123810219241165
-70.86589720045924
5.643075675706735
145.18642569474582
167.09960952734116
130.5824831774217
-29.68738438238607
-331.8211384533301
-433.1040042341484
-270.16833362099976
9.970756469134942
151.89630554962227
-45.441055003765946
-250.65962988675463
-262.0040053177196
-289.3861072696441
-378.1517738551599
-412.4812774191716
-307.1640918675277
-78.9900603346348
196.08767439530033
221.23574814588181
21.05517935544325
-30.451255947341426
-51.50739134175099
23.389776380144554
287.8633781046581
456.9688267424058
473.6973367938955
378.542559689264
195.6539669839272
-47.39419264278419
-156.9979635699395
-51.15073625155045
29.89560034987925
20.13889519453639
-14.730413556880128
-56.64983693552001
-123.92845459437648
-187.5048654733181
-195.09837653271506
-199.32677551860917
-243.67903406629102
-282.82402390985
-264.4425089227304
-220.78578655483625
-171.00225835009957
-115.20705823384763
-78.93398380777167
-68.74516826038543
-79.54588884829482
-39.51395403997039
60.32346058927804
299.4273052277854
613.2796654146163
713.1329555569947
737.5618839067897
710.5014858195467
604.7344600898826
502.12780204698373
262.89953738175853
135.7713848453571
138.0862926254058
49.125695166985416
-22.06457635200308
-39.613728316133106
-40.482557730061394
-96.54722138773562
-173.01659906034726
-190.56777822184253
-111.64056601938303
-24.4142540840572
-41.95304776859271
-36.884387217392074
-13.53826727630942
-58.199407242795026
-155.98550897246963
-223.75862527343762
-178.57950437057784
-153.19373843426806
-176.63757415139375
-155.3899098729189
-125.76781823806957
-98.11362670185315
-80.42662651428076
-41.2128134994902
54.185883592291546
136.3898547382576
212.90147043043555
239.72847429742376
156.95839281172124
60.61744331633782
8.70484200585996
20.739825730158834
42.583176798033534
51.58354532372664
111.69255967125736
157.25567579577913
134.17812720228926
106.44807361299513
149.29795961776043
230.71342393304326
279.2830843747901
296.27899075286865
301.7298660596371
319.40794521677174
340.97556090552655
337.2123549397388
297.4665491024622
273.9495132381985
267.73580498023966
185.84867341550452
91.39023866999685
58.63648286607944
33.29777824852763
-3.1088451996613657
-28.229137443853936
-29.132900400001077
-45.5881160852002
-87.13220189849562
-82.46936199765341
-2.4621164156498363
44.21043649652858
-2.9723658259094066
-48.99609623275694
-38.15498205487262
69.4360687938236
229.69768488497553
286.8363377333218
205.69606155514757
54.940588309836286
-81.17314063767154
-140.29083938148736
-130.70527819222485
-84.50188552741126
-36.74556626862807
-38.26275540252654
-82.44223164458988
-104.43351401471271
-95.1224791200778
-89.92507071744629
-77.70873362394046
-52.903196610198236
-4.825626627796563
43.122090635959644
39.49058675569594
45.33461157016747
15.714288442033537
-73.10616454408806
-83.67426052056696
24.549059294212146
173.68275517562134
203.35948347346636
194.7533649695293
209.7412909982
138.57688317889475
146.98527839814113
171.51536470684798
84.32454160014005
44.49809857718971
5.01932572498707
-88.42687544382406
-176.53119627233042
-244.4150034942244
-272.8206948056521
-230.21933968754453
-125.81191070828638
-67.36251271504682
-67.88099503163433
-34.33195816866893
-0.4478743195940458
21.081843722096693
94.55611610583061
96.28365954486544
10.843645707474385
-7.4063170383364
-16.497880872729574
-46.319548017753775
-83.02607334253962
-135.1287046919803
-142.7222331283741
-156.50451544316584
-169.15365822628445
-121.3346035999415
-90.91572121305242
-123.98181719373852
-169.3637057068293
-161.3471439174844
-122.94197009557865
-132.66039058358626
-160.42529673098397
-133.01079377712264
-79.91873687771076
-56.06205278716143
-78.86936769754091
-148.42504531586317
-189.05234983717222
-183.69659312737576
-169.8076869771427
-120.27576588477493
-99.12487883342793
-95.69797571805888
-52.4255833117691
-31.17487807130299
-22.560222155472413
-57.55987136249525
-142.17045157570828
-165.68395359557738
-111.61991034745255
-44.768342592992774
-7.890853324998193
10.010709315354335
-23.897114388967953
-94.0870924470959
-99.4099100432379
-64.4045378281958
-41.259251144929564
-23.373608686730613
-1.3857354755563502
22.027744111915904
41.40373349055332
60.37348482631815
78.6903604051531
68.07746167962858
-19.600896895014444
-102.77994195665384
-106.81106225555098
-88.65724802414066
-51.02502541760504
25.612260939301937
72.69664990664883
54.585757719472554
32.61053442135873
53.07838607111951
109.59763428943486
134.5755287887452
133.08097864974607
77.8150281516904
-52.164363933102614
-99.67493379271271
-75.54003097575038
-68.7842235358621
-89.99306829390278
-133.53394099386816
-153.83438669539873
-155.95376466574004
-148.65538661627704
-80.95651119711995
-26.959691841638556
-51.95048930522164
-56.033125133998446
-77.62398948680914
-84.97731405536547
-52.90969575492378
-31.298243339278223
35.93815342501956
138.12790786489714
287.50609013869274
331.5165257825903
236.4662547727104
137.16231670913683
-11.403836682320886
-32.52146804519128
98.0979477998439
138.55853465519155
169.595501326494
222.33810957604393
184.70981535484287
78.77835857625742
9.482994360291396
57.444659469928354
72.9098403055291
36.91444777116713
62.02779857636407
84.74843398752468
95.66915598663574
103.6392674256138
116.55020798651489
128.08376611579604
102.90256893536225
43.350020019547664
-0.6296101496231359
40.076375012814474
117.6796557793803
185.38227086547124
222.50664572250915
248.87300226753928
234.3898787517283
67.73436814817644
-84.75150736270679
-117.38585137178504
-141.21245077659827
-109.54774266867386
-21.934926389140053
9.272649503535883
-35.47526527122923
-124.5161503221841
-195.8165555456588
-214.2447281987812
-237.26634014163724
-256.7537837321694
-232.93534337742267
-199.4976658162808
-155.19181012501167
-101.95773075053121
-66.9717617387256
2.315835432336895
129.13320300621973
289.80551997890234
436.53569240033676
489.38453581621036
510.84933146109995
533.0237475436221
517.5565561669047
431.8269050794539
271.7704014855213
211.8623929954753
213.72307481484978
102.5848114538597
-78.4082317687132
-285.21738265979604
-456.1573777787397
-500.3688351527751
-444.3193985246402
-333.9219949997183
-178.05663028528792
-111.92207256671229
-164.01141825049683
-166.82141561522891
-149.41830809888089
-172.18110965405222
-179.49083074511302
-149.24478757392237
-83.90322942754139
-70.04992067314328
-65.49958630559615
40.46307282489062
139.6716048460966
235.59192360417694
354.49107469691825
411.7059701474076
446.91771071977723
