AAD_Filtered_TADAS_FILE
AAD_BASELINE_CORRECTION: BASELINE REMOVED
AAD_FILTER_TYPE: BUTTERWORTH
AAD_FILTER_ORDER: 1
AAD_LOW_CUT_FREQUENCY_HZ: 0.025
AAD_HIGH_CUT_FREQUENCY_HZ: 40.0
EVENT_NAME: 202302061024
EVENT_ID: 13207
EVENT_DATE_YYYYMMDD: 2023/02/06
EVENT_TIME_HHMMSS: 10:24:47.00000
EVENT_LATITUDE_DEGREE: 38.089
EVENT_LONGITUDE_DEGREE: 37.239
EVENT_DEPTH_KM: 7.0
HYPOCENTER_REFERENCE: AFAD
MAGNITUDE_W: 7.6
MAGNITUDE_W_REFERENCE: AFAD
MAGNITUDE_L: 
MAGNITUDE_L_REFERENCE: 
FOCAL_MECHANISM: 
NETWORK: TK
STATION_CODE: 4406
STATION_NAME: 
STATION_LATITUDE_DEGREE: 38.34388
STATION_LONGITUDE_DEGREE: 37.97378
STATION_ELEVATION_M: 1050.0
LOCATION: Kahramanmaras_Elbistan_Turkiye
SENSOR_DEPTH_M: 
VS30_M/S: 815
SITE_CLASSIFICATION_EC8: A
MORPHOLOGIC_CLASSIFICATION: 
EPICENTRAL_DISTANCE_KM: 70.17
EARTHQUAKE_BACKAZIMUTH_DEGREE: 
DATE_TIME_FIRST_SAMPLE_YYYYMMDD_HHMMSS: 2023/02/06 10:24:34.1517780
DATE_TIME_FIRST_SAMPLE_PRECISION: millisecond
SAMPLING_INTERVAL_S: 0.01
NDATA: 10501
DURATION_S: 
STREAM: HNN
UNITS: cm/s^2
INSTRUMENT: sensor = CMG-5T/GURALP | digitizer = 
INSTRUMENT_ANALOG/DIGITAL: 
INSTRUMENTAL_FREQUENCY_HZ: 
INSTRUMENTAL_DAMPING: 
FULL_SCALE_G: 
N_BIT_DIGITAL_CONVERTER: 
PGA_CM/S^2: 467.202
TIME_PGA_S: 
BASELINE_CORRECTION: BASELINE REMOVED
FILTER_TYPE: BUTTERWORTH
FILTER_ORDER: 
LOW_CUT_FREQUENCY_HZ: 
HIGH_CUT_FREQUENCY_HZ: 
LATE/NORMAL_TRIGGERED: 
DATABASE_VERSION: 
HEADER_FORMAT: DYNA 1.2
DATA_TYPE: Acceleration
PROCESSING: Automatic Paolucci et al., 2011
DATA_TIMESTAMP_YYYYMMDD_HHMMSS: 
DATA_LICENSE: U (unknown license)
DATA_CITATION: Turkish Accelerometric Archive v 1.0 - Disaster And Emergency Management Presidency, Earthquake Department
DATA_CREATOR: AFAD
ORIGINAL_DATA_MEDIATOR_CITATION: : AFAD - Disaster And Emergency Management Presidency
ORIGINAL_DATA_MEDIATOR: AFAD PROCESS SERVICE
ORIGINAL_DATA_CREATOR_CITATION: AFAD PROCESS SERVICE
ORIGINAL_DATA_CREATOR: network: TK
USER1: GuestUser
USER2: 
USER3: 
USER4: 
[...]
8.855162021024805
-43.62615780196556
-46.49083008497058
-6.329591512822466
33.28985625911684
48.286497450550634
56.44236331422526
67.13087895512835
79.68591529747839
92.01740002381139
98.06996851201497
90.14725732474272
69.25954971233756
49.16559751346696
43.06138020841877
55.13046719573685
82.41434947377675
102.00921664191038
92.08707620927632
63.610744960571175
47.94992998124292
63.006394423726064
75.05289656801516
52.71978759886893
23.02110852007141
17.708750143363957
26.75290865842993
25.559784474910593
16.58471667988594
14.133673577229267
20.357168118528467
20.37289446258645
6.911101090938237
-14.943196498718684
-21.387519526304384
-7.273028742230144
-11.34471799392122
-42.19269525218148
-65.90447250593532
-52.532798915765845
-4.664796377322331
28.257255077860037
10.684809493546604
-22.275921974415915
-25.55821982020327
-4.382806170436626
2.5480720915677635
-9.400647879106948
-2.3685885165558984
28.429790336354362
67.61487589661577
114.92179823503169
147.06180668117236
144.20444402705186
117.96219391497222
88.62020428487295
70.7207147567439
55.98951557603542
26.97179995980311
-8.019362377917403
-26.933725566116102
-45.94982653683297
-67.40668689909722
-65.26265545558321
-45.585097869580096
-43.18709272899552
-74.1521562811428
-102.71277024488595
-95.70690204744236
-65.39565728697752
-33.17987610343078
-17.95749101441082
-23.12768104756488
-29.637149151146414
-29.20840032677229
-16.111051198110157
-5.3405076359726005
-14.036249085779597
-32.29567635494141
-46.56288395720688
-52.55877834294071
-52.775635334691906
-60.31611032028895
-72.9759537278914
-73.2828781250928
-58.80018330493329
-44.25427752508151
-32.26352306492238
-22.123130176478426
-19.91746118387021
-24.188678655316437
-37.56638295041207
-51.33649485272318
-40.33051797312369
-5.6294414565889594
21.804866317678265
12.763110088890352
-21.632519271034962
-30.900366949830197
-7.163061114470355
24.420899922850193
41.196695473755405
32.62477868197848
2.482614843933196
-37.94993601657636
-69.08540777251658
-78.64582167227809
-70.44465937412528
-55.54511582905916
-44.94003090532315
-51.53319926350109
-80.97064936057737
-117.58589685989104
-128.49298810366054
-107.72521009171395
-83.0548903791761
-74.45934859654531
-59.10083394510215
-5.066434774375966
75.9768819843451
122.07816197555971
88.87030988050857
18.404252829697565
-31.832445005966022
-27.72642524059053
9.17178902931389
23.811241727418935
11.119928418179532
-1.1521043764814338
-9.980981913235123
-21.861852870442025
-46.68934554311446
-73.150553497709
-75.25910931414226
-59.55445959547006
-64.72277156556564
-116.32350856706712
-166.30979524302904
-163.10563376505888
-121.92393487135914
-89.73611862327155
-78.0068949696315
-56.68946582578242
-6.075408995552215
47.831416169849476
54.99156628998242
12.061840832259103
-24.501365082205815
-11.093499439534803
55.52401611759607
132.83226869869293
163.40959152736727
147.11447292114647
112.85261789822
87.9397999948327
79.32706045303533
53.35811542631514
24.50297994929646
21.68519414165328
39.14116729719774
60.0535586560343
69.41155660698789
72.98806522508026
74.08909730928606
66.57597278717371
74.21746682323041
106.56591438287562
112.51931594034666
50.095733090934175
-41.851518750744454
-111.15443275203327
-136.18410185437853
-130.4015232502524
-118.93676426769106
-105.97567481718082
-95.5108456197574
-82.75527847764025
-69.68619030441545
-61.68366527997337
-58.24824188446587
-47.26461361138908
-41.471515224157
-53.301253043839935
-69.03971520961265
-70.61723450747573
-66.96528750982131
-68.18674292129487
-65.7750385032863
-55.90028144852525
-35.791697925576074
-11.923770687665616
14.090675658262407
41.85488854641062
63.573955521680354
67.15815617179146
43.23762960060696
3.3769558931958445
-14.874978158766064
6.79229127390989
28.616326435386622
23.383524654374387
12.563152827562773
12.856596916270583
16.41713020686587
9.186877889963045
-1.332395210354236
-12.389462167891647
-12.696662538993781
31.959241545530237
88.20111012661076
101.1216832360392
70.26594959506387
34.589469475722275
25.573541720164542
34.68143034456445
13.216482491067755
-61.12681335133372
-129.77166861898365
-125.97548074295052
-66.91533113046457
-10.895334934315622
21.293783168364257
27.0936811626823
18.389053948240115
9.297737493380662
20.709839514579993
41.42290104165447
32.33472057230419
-8.58262707870513
-34.60419194758787
-22.896236541633208
8.078910118157514
8.011328996412846
-52.70422914013208
-131.62145430282825
-168.33006061091336
-106.70519614832742
30.145679344852002
133.22054653745346
152.6722475478322
156.04327914446574
166.67315736048744
159.8213861660942
132.02134616646993
91.5189872473067
65.39405289344018
74.86024982248962
105.83128760765672
124.6685436985758
119.4314213111268
77.9724933293935
15.106320663165164
-23.57924695914723
-13.809387616255488
14.141566269214966
35.70215357274254
64.44184024340741
91.10351728079598
88.8261382740266
62.54822609971144
20.566728680605625
-13.028341598317263
-24.556318955019968
-34.77589523477898
-60.24148890125627
-94.23203808618477
-102.06379493369757
-72.29841097416093
-31.97132619707132
14.509215212272926
80.74004573574017
157.44887183258268
226.45857064724896
265.00206940824773
238.65525673698866
124.72855726519668
-11.7114337701905
-64.69801745067792
-23.041560535170238
47.60585086055003
95.22277520364541
102.02703318367577
93.573815457804
83.51535269002126
74.63019552829837
68.65242669466714
70.84779277462924
69.95318239048713
36.833097210721085
-32.38295873057155
-104.88924342211129
-140.39278051902014
-148.3984205901466
-139.85004728284576
-136.51118014228078
-166.65817037715973
-212.81284995277437
-235.99559101651778
-215.1772256942927
-158.9668070879256
-104.95175653445155
-94.1995621699235
-97.9086041047138
-78.51728868251588
-49.68205698248634
-48.628952365160345
-90.94279643935359
-148.18186806692376
-191.52732654047693
-207.4876286303331
-178.2695534973821
-116.3985149054974
-74.18848687192106
-41.14670351904402
16.3784236321591
76.21681677692972
131.14130522175907
172.07906515777253
185.58004765860687
170.42503874443813
124.83089079084971
57.26358851320562
-33.306160057083616
-95.87863350465565
-85.00457477290189
-35.01120883979126
24.975050774489464
100.39252214236744
145.91432083998274
117.26510508940201
67.64441936435273
63.86100095798993
91.46201708652993
88.87161020363371
26.49405007392784
-40.57380648087959
1.9926934542402162
149.74239727859785
279.6432945345748
265.97101335126916
132.25165904463216
58.01755917786198
123.7418748158752
178.2513304649529
75.22258921897608
-82.75397103080216
-153.66214654598863
-121.21993352629664
-85.79020291693983
-26.40907532939686
113.01812350723888
190.64867377705178
138.71731516077296
12.44863919727267
-42.17624342188909
53.258677269988794
132.3331635767622
73.46192796063345
-23.457452988244412
-57.76873767995682
-55.19812887181093
-46.84314865715793
-29.623659921818053
-15.072663258371252
0.04947799572975827
0.32109059469918994
17.44466348618249
71.99099953983873
116.48727322986022
116.63492916342346
67.25714625744459
-23.458103289529824
-97.26047109195622
-43.719734518045975
83.21469269705152
88.54228105927179
-44.506509336772126
-149.79674009311373
-165.33442212309947
-85.49142575696202
37.72508200404079
58.92612201174925
-84.38264945999126
-221.99262808096552
-226.6132013294862
-150.1321317950556
-44.0337060430407
91.52380131643748
168.67286017499018
175.70689896900285
159.69724391391443
77.4292456322936
-23.392683925567916
-88.41486434749103
-120.04128731162815
-155.99490882975516
-164.4688644615834
-70.42928206951808
68.35601338343714
148.5643403671949
103.15926416793523
-12.772247890438445
-74.490693490577
-76.12908977432399
-70.33101390368893
-31.309085962841817
78.10058291193087
117.24416381023711
18.176452959906808
-114.34878809948208
-130.15551076258697
-66.55275397742832
-40.42074796782639
-82.2635661076816
-150.02547838607512
-128.45684070626743
-21.752769571451935
99.11420567161349
192.29011269245905
202.34283929480637
122.75041116650002
9.216906453495062
-5.157580171883524
97.91839146558212
146.37342240617377
54.10641850418037
-71.8861478325664
-63.41054869467555
49.402019520645155
123.18216560411005
91.99538588483307
23.62678025027358
5.090340189138207
-7.540013046498452
-24.627104939535364
-19.533473459072887
-12.13442469966986
-4.466842246265071
11.827884852046497
-3.044716947417537
-63.93199212894968
-92.62024556627874
-68.67426093005413
-62.80094567591031
-89.33448081201998
-65.6105019108743
28.221888900269626
81.96059550645539
38.77737492759484
-20.949731701892738
-25.85078917588704
15.296162424986795
61.28404660629706
77.25423276910747
107.5208518935629
173.7621446585771
172.48518422108722
81.51851729281826
31.337002460537843
86.86985151524219
137.38258267145386
149.72151039181105
132.34627009205315
135.7721840946599
171.548678955095
149.96455446430153
98.65914445169793
44.68242872007023
15.844093387080337
20.79717018840959
5.565511189836527
-10.213988476783104
-44.147066029339086
-117.50092114820465
-119.80742528542862
-88.56407146228894
-124.796763784011
-147.57279364013112
-134.4310691146386
-128.67582977296678
-117.3047591759084
-102.57690204091548
-72.92599174989331
-53.05996006217456
-94.99510792230149
-151.92557948709202
-130.53250573646022
-20.511051748748528
97.96904064129292
101.16060880028422
-44.602097648767256
-192.93359991358156
-253.70898145567912
-171.4961958871793
-45.00319220932406
-9.924983213559164
-52.178269388470895
-98.43511761700739
-101.1365891145938
-46.302024546897314
48.547297481740245
123.87412960900346
135.24813416318716
58.87690698519077
-4.891631536761922
11.324249272839367
76.84519025605603
77.60150872898939
-23.075201634296477
-118.34978784796112
-132.04925063344945
-123.83923474611828
-122.83072978272419
-120.23643288290828
-124.22206908911826
-125.52641752461831
-106.31879478564856
-41.639384596493265
55.6200504366904
80.8067220159625
-14.432943960904705
-109.97424293395142
-74.29354074417265
27.310316955757283
36.68497499540996
-46.67857291948708
-88.1974298385941
-67.00112038481261
-60.40091899728515
-29.487743203108987
-1.6346827035915223
-32.47024052767475
-104.63100403552784
-128.54345759160944
-33.71482477749952
100.41853106957596
166.67921800307178
122.08001678314544
54.88537396554264
19.58834095205356
1.3443136893086896
-2.773656076339226
31.159021202310917
56.418030563769825
33.03806183561105
14.054294045889499
-6.530687908311479
-6.366534441187952
28.667613165227245
66.17316564491782
63.937768399023206
8.136934539117128
-59.63304767634844
-74.61297111897919
-38.98258337566822
-1.8985729050270161
-23.39724044600448
-62.016102041299646
-21.70027903234615
82.98874208253962
164.41043802679943
133.10534471883597
30.17221845458869
-38.1841374759314
-21.154071613601996
46.02063034849423
79.86172813815448
68.91244579583866
67.62850215271038
91.2223894936788
58.053265340595985
-26.81483645638858
-59.69904408029841
-41.70561728560021
-6.116324755720644
23.359513794465666
23.562665232661818
37.25700046913038
85.8451264136454
141.96456646142207
140.37659958992688
48.85908875115203
-34.29420322589584
-56.145315326358016
-33.12046961045476
-27.5792539376636
-58.208256394884565
-69.13795358714529
-17.262724658692516
59.094899350647566
88.74276523987614
66.72754795750897
91.74291110176719
165.1485393863919
141.10904072399788
8.880848274600247
-119.341732623089
-99.31325599321084
19.92825020027882
57.9630506456036
-13.710675638873479
-62.596487458228005
-32.8779514044109
52.078029454487975
123.81077744752069
123.91905624927176
71.22065177235812
-1.9660802215359838
-33.128900886466965
-56.54125648409878
-114.56359181391586
-132.01644676032703
-77.93651211103568
23.83653628677634
119.07993883389227
121.22608325455205
85.01952182488397
95.5771248183148
103.88560761683857
118.88039034545022
163.61405323703752
153.50114260758758
29.67374105205004
-133.05369537358234
-209.7353476085826
-156.59136813327223
-103.54220014306446
-113.52432354145257
-117.03463197155612
-88.6396693146511
-46.11636010449227
3.0646861759318886
67.37524450613675
100.0019258809862
81.89707971403367
48.98926796391008
34.07452429701403
53.706833212848814
85.48631598470993
23.853617861802096
-128.7034150521805
-238.2892105457867
-242.8825762431659
-208.01077680177784
-136.96948806193453
-17.594518788735794
15.258424837798234
-17.56636872117714
49.97207252788224
204.58066704416237
301.6543202293786
233.7889447777361
57.97742630520577
-57.59009080065972
2.4533663198269697
103.74989924909111
45.760381335036385
-123.12105849431087
-215.30516058964366
-127.53566047404698
36.971494933093254
126.57683102656267
65.62576492688682
-33.90171512644815
-23.735523678368054
78.13969315815271
271.56050206810437
449.2344560110999
449.27950888324295
237.92388528609692
32.24719997185221
-45.813909776751125
-90.50425030796616
-175.87005184272311
-209.9668167064295
-100.6079353490803
-11.623015600456759
60.852454464573896
70.78869596911487
51.13357377088305
140.9021296369186
244.66148125346368
150.11457740235463
-85.54857162985444
-139.71834878566187
-9.69300048844012
76.87947832422948
43.53924779778346
-12.18041665175903
-17.407060239074873
-29.48105652695743
-117.94317608322743
-271.32093777952036
-291.2086435568485
-110.28253085454709
50.12167338308635
74.38152006160618
66.04130584113315
59.39276519576774
-25.890222713383206
-32.9086801900988
23.27225295114917
-25.79943876481694
-135.83578768929667
-183.3783001844943
-70.60730468405976
61.470938247366625
74.85959295054555
-27.89107203789129
-97.74970112049863
15.070486641950266
206.42512574962564
287.3122622193391
258.3734434031008
130.11597087167974
-98.40985975928238
-272.032432410269
-260.0233596333317
-100.78832858137976
115.41759966233305
267.95272842067277
134.09803337765706
-80.72737085997288
-147.94552652088467
-45.81592471672679
32.78231091121345
12.059962395686817
-57.72856051183929
-171.59804166241912
-95.08205973240123
50.21612496097109
89.52191713129712
12.318088659971213
-59.02921991719002
-108.21810372533113
-133.29828193129387
-135.49433424365887
-86.09910884365685
80.54843507391536
186.9114906252602
198.47035180946767
219.05949521321085
206.22720097418556
81.17957804933822
-40.28539722015059
-87.17241403411434
-9.778382566442614
125.89683006934213
150.24323497105752
-53.763804754593075
-313.2255000594833
-399.21452769665393
-276.77762060008433
-93.94378878974024
92.77820809915666
149.0004595096778
-23.021554652501223
-103.11319580845796
79.71325787768004
273.6542556080789
227.1717454760138
104.21818440588059
-5.906212361638174
-51.705760914288255
-3.0879299815385095
-22.354532224194593
-169.47936164069884
-164.145576908271
77.13907216773512
238.1263733907129
88.02186395064085
-134.25897541422947
-129.94870638491636
10.047246355337142
44.998505128656426
-9.30447744924086
-65.08977728745528
-92.6795883777224
-52.84466406664604
-63.74212325542322
-178.67065808673166
-256.8441742702857
-228.70349674107769
-142.2084217720096
-53.01318791574173
24.367305714909993
70.66859515585438
18.814206684594417
-4.786233597889528
103.83336641587981
218.9746718316675
213.86982552524614
171.25499694726162
151.63934524523756
100.49762738031558
57.38307479479306
70.49143611829611
81.98051260304129
36.223803948083024
-17.021684686377856
-8.733641093388378
50.52118250289473
124.56927974182886
163.79787232724433
178.93692845239244
179.42406622025524
131.07977948085056
-20.76694281164054
-252.57220673133
-416.29669262018894
-405.4089911040498
-298.07816244015794
-185.48567677011914
-59.37190436377942
1.4173540786338568
-30.867474134093904
-82.10293280801153
-106.51805831506319
-104.78591391945419
-116.52800672099488
-144.2155113942109
-193.01611158564668
-190.08048006790034
-81.49574456047267
33.030287274352865
82.66681276886544
67.02293247020123
44.69976902901979
16.57370485893824
-63.671123919429206
-145.90378799389615
-115.12792645080485
9.003767690120021
113.42228588625963
139.97056621503643
102.27670183780351
128.34134868379283
233.92122311097464
291.6355589775103
244.61897216285408
111.19981440604512
-14.595015036236028
-87.96725052022147
-84.7985797425313
-16.454232353469298
36.09226170947079
49.36473300838317
44.86908759570905
46.463541842071194
-27.76727808314271
-152.27281962562276
-247.41722297307396
-205.44608030530426
-50.6849800859327
94.24441186867705
46.18783240702247
-130.32329597168723
-137.37679939266044
-57.70989960278284
-34.90133683873567
-95.65438511022889
-170.73268457850313
-167.57416836076158
7.531972134015462
234.97507336939253
339.8780812020189
320.28552126947415
213.3464750607234
34.16701593394781
-161.99398769088967
-245.6640128734782
-210.24064892009852
-143.06672223571672
-15.20860181891557
114.27927794758511
141.56228618444496
94.61647830440079
1.9286394386000223
-46.780836277173066
-28.333023004702735
-21.170608430162552
-59.39587119398678
-91.01970635988536
-27.795568595147557
128.64836044126164
212.88202054192269
130.24002136858692
8.048051281568501
-25.239837204225065
25.971924380164765
40.34559088269372
-6.961365903624314
-19.318135298175186
17.563032887055805
33.33403399531916
-21.916758820999863
-117.95088086186843
-215.3997110131664
-235.63739834694172
-145.20149910324986
-46.74177597352858
-4.370670160819707
6.261075687801301
18.339483060076013
-0.1205872386778982
-18.358283534832566
-21.52506700428686
-58.34067263966772
-104.2716397329035
-82.11734707557044
29.843150084635965
108.21970687327851
144.7660045361945
167.68749053251634
165.99162346811391
126.65098964241179
74.37777123751465
67.56890175488778
109.26563485691491
145.54872084382617
121.40856787386667
47.37921861897058
-80.277128200084
-160.36391381495852
-136.43195571656423
-23.90356011112227
72.86934388702112
120.56170300440454
160.1406447030134
189.0016422952051
162.55029225881455
58.75608669100024
-14.609639638908664
31.576391559680943
179.81142136966454
201.61889995648988
75.54745102981889
-50.38557054325245
-84.93819744189565
-53.23123969315546
-48.67072324340205
-75.97508214360045
-118.0311800511834
-142.00073267657328
-109.19612915218991
-13.572650210617217
76.47285664161384
160.1510071270204
194.8589566289271
107.3415368541863
-9.125713307079202
-65.68086705347554
-60.461359340406425
-49.30371129012771
