AAD_Filtered_TADAS_FILE
AAD_BASELINE_CORRECTION: BASELINE REMOVED
AAD_FILTER_TYPE: BUTTERWORTH
AAD_FILTER_ORDER: 1
AAD_LOW_CUT_FREQUENCY_HZ: 0.025
AAD_HIGH_CUT_FREQUENCY_HZ: 40.0
EVENT_NAME: 202302060117
EVENT_ID: 13194
EVENT_DATE_YYYYMMDD: 2023/02/06
EVENT_TIME_HHMMSS: 01:17:32.00000
EVENT_LATITUDE_DEGREE: 37.288
EVENT_LONGITUDE_DEGREE: 37.043
EVENT_DEPTH_KM: 8.6
HYPOCENTER_REFERENCE: AFAD
MAGNITUDE_W: 7.7
MAGNITUDE_W_REFERENCE: AFAD
MAGNITUDE_L: 
MAGNITUDE_L_REFERENCE: 
FOCAL_MECHANISM: 
NETWORK: TK
STATION_CODE: 6303
STATION_NAME: 
STATION_LATITUDE_DEGREE: 37.7524
STATION_LONGITUDE_DEGREE: 39.3291
STATION_ELEVATION_M: 800.0
LOCATION: Kahramanmaras_Pazarck_Turkiye
SENSOR_DEPTH_M: 
VS30_M/S: 986
SITE_CLASSIFICATION_EC8: A
MORPHOLOGIC_CLASSIFICATION: 
EPICENTRAL_DISTANCE_KM: 208.12
EARTHQUAKE_BACKAZIMUTH_DEGREE: 
DATE_TIME_FIRST_SAMPLE_YYYYMMDD_HHMMSS: 2023/02/06 01:17:47.8876210
DATE_TIME_FIRST_SAMPLE_PRECISION: millisecond
SAMPLING_INTERVAL_S: 0.01
NDATA: 14501
DURATION_S: 
STREAM: HNN
UNITS: cm/s^2
INSTRUMENT: sensor = CMG-5T/GURALP | digitizer = 
INSTRUMENT_ANALOG/DIGITAL: 
INSTRUMENTAL_FREQUENCY_HZ: 
INSTRUMENTAL_DAMPING: 
FULL_SCALE_G: 
N_BIT_DIGITAL_CONVERTER: 
PGA_CM/S^2: 117.423
TIME_PGA_S: 
BASELINE_CORRECTION: BASELINE REMOVED
FILTER_TYPE: BUTTERWORTH
FILTER_ORDER: 
LOW_CUT_FREQUENCY_HZ: 
HIGH_CUT_FREQUENCY_HZ: 
LATE/NORMAL_TRIGGERED: 
DATABASE_VERSION: 
HEADER_FORMAT: DYNA 1.2
DATA_TYPE: Acceleration
PROCESSING: Automatic Paolucci et al., 2011
DATA_TIMESTAMP_YYYYMMDD_HHMMSS: 
DATA_LICENSE: U (unknown license)
DATA_CITATION: Turkish Accelerometric Archive v 1.0 - Disaster And Emergency Management Presidency, Earthquake Department
DATA_CREATOR: AFAD
ORIGINAL_DATA_MEDIATOR_CITATION: : AFAD - Disaster And Emergency Management Presidency
ORIGINAL_DATA_MEDIATOR: AFAD PROCESS SERVICE
ORIGINAL_DATA_CREATOR_CITATION: AFAD PROCESS SERVICE
ORIGINAL_DATA_CREATOR: network: TK
USER1: GuestUser
USER2: 
USER3: 
USER4: 
[...]
18.646003482821758
18.633116717781498
15.239480523017615
9.707912532327338
0.7564538293243727
-5.865614331748453
-7.494554279425078
-8.492317282538222
-8.411041872128298
-4.746298094722962
-0.7620588163611057
-0.29721243644897877
-0.9706011075532488
-1.6439939215435653
-1.2007552767883476
1.5011850328687415
4.822404623685248
10.284348468573848
18.938834542698693
28.015479014056776
37.229979155958496
45.493994525010784
48.24738639196756
45.316178818183914
40.65019180741831
38.479358239574324
38.26188398641825
33.96890180357302
25.093852733632655
16.079152638092054
8.1146489989422
-0.4431750378917872
-10.19443805141333
-18.78060782137392
-21.575749007285328
-17.707579573119272
-13.494926583680375
-12.941025103533217
-14.526746828325846
-16.631791238053143
-17.07770089236607
-15.097420633242729
-10.482355051535622
-2.5031486138284866
6.835912869232008
14.471903492109309
20.929098091241357
28.729241011673576
36.65277339380249
43.55073964514519
50.27679880892155
52.6533909743266
48.57552898212654
43.50907033376857
36.551070762883676
25.497902790413946
15.61703752592348
12.56492595498893
14.806147558077427
17.704564367940563
21.710140858165737
27.05098021774607
31.34293941439367
31.941180735596806
29.17253302055732
27.985361388175246
30.922385936898472
33.79569148743265
32.73366872174728
27.524571090600247
21.59704628485906
16.890120387203137
12.9513336526182
11.27432272551176
8.34683151603145
0.3302823496970625
-7.962943044630507
-12.2441378466727
-14.923457698369335
-16.965652020560864
-16.791999370667302
-15.281599903247999
-10.921371036888688
-3.438989771724293
0.4926174111428477
-1.4278819592622656
-3.453812905427731
-2.2282227061594186
-1.300116001781288
-0.01440815726489842
5.11334305718599
7.180749353137466
0.3804648886414924
-9.962056756351094
-15.110571472142597
-12.818253012570619
-7.129454464517763
-0.7629747672457858
3.406536712029738
3.5369148617703563
2.3270084570256544
2.819213713048471
5.661518704151317
9.609465163290958
9.668957660433321
4.740750479101033
-0.5771462541644101
-6.374661663019415
-12.413031051152974
-16.064351406535987
-20.894794963602514
-28.349064878877048
-33.427994767446606
-33.87616188056908
-27.884972133049178
-17.17434229718693
-8.750172703880454
-3.223228010726671
4.044203742684371
12.477405376502954
17.324597482892205
15.785633207855481
12.126751793369506
12.605205124300852
17.44501842677543
22.191942965068055
20.80690326929795
14.67625709523191
12.789096036023587
15.061261074337832
13.124589051657034
8.706951616697665
8.256050268131048
10.597998984831657
11.633589963390767
8.894435953374263
3.8280942817542325
2.738035255887594
6.034869017128225
5.767777872099903
0.499297039279213
-2.43560038977276
-2.275128509898095
-4.186695452280114
-6.220843175181847
-8.278080189093208
-12.079239973031523
-10.247491874436431
-2.0964674938493872
1.7474707035104384
0.4513896819155469
0.8334546666222918
3.898447073030045
5.214431146955972
3.4883461675598038
3.098661480619419
4.3430067810977375
4.00034562849115
2.0587852274719562
2.5990448826822035
8.11797596524113
14.56937305923948
17.325595248152634
15.644918992831121
7.7213252669195525
-3.2930580939319785
-6.740149765996162
-2.7128757997453175
-1.0830477328225927
-5.232559947001769
-12.437310757839953
-17.576347068749403
-17.752939389396868
-16.35783064321062
-15.356094182843147
-13.905181642712797
-13.199592620773847
-13.39697990729098
-14.434981450250847
-17.50513723157632
-22.011176226303785
-24.824223801092568
-24.050893218900352
-25.48556494308827
-32.20180531824628
-35.718706840892615
-30.674558943682964
-22.313050161775436
-15.634135073927206
-11.420590588207114
-9.28061388248301
-9.614682265588383
-10.191489961773181
-5.307478902583739
1.8593720235193165
6.063563082658806
9.03893187874408
10.376908433447452
8.407721568806414
7.456945798668272
9.114041235046825
9.607969978572624
9.269178660521796
8.484006302178651
7.090768251898055
5.331299117544002
0.9522157257316832
-7.539550451606861
-17.37764883573302
-24.757202847882873
-27.92498096698287
-27.53175559010783
-25.37940699740483
-22.889870401309118
-23.140502369356145
-24.808515703398914
-23.772986606969482
-22.032654281307213
-20.40407242224241
-16.563940673152086
-13.403714024777655
-12.315069854316564
-6.373493547226415
6.257402393632377
18.17162634623396
25.43517052158042
29.003035564276335
29.526424728965235
27.978345632815707
25.37460770417434
21.836908830789376
19.764110797302116
20.287581964474672
20.718544986753024
19.294630188958543
16.84070243638909
16.78000459444345
18.90022892898285
17.290829734216487
11.695850156946511
7.817953867990994
5.708905012905609
2.7568676077807686
1.5339081958295384
3.060365463758181
2.667526905928706
-0.5608351793129668
-3.890650038152183
-4.580610997158667
-2.028006175598098
-0.4003592610353086
0.522248045584446
4.123896170306988
6.790655429540348
6.591868854055879
5.660859288466251
2.5539735283474823
-0.411573380411477
-1.57431684491867
-3.7897921656651388
-4.3142432055927795
-0.4043755459662163
4.183996244974865
8.886924070051059
14.469711495570662
16.76992413011315
14.937009390497261
12.330674633613949
11.424820348203843
13.208074707041254
15.832559648849083
15.908383609999866
13.901053574268062
10.323085635970235
2.9907827726663148
-5.031156045227284
-6.524212986035652
-1.5933376840759208
2.4976316273114096
1.9768606927428545
1.4166996044112945
5.0720371929686605
8.964401068009101
8.123898024829197
3.1806189010205084
-2.084592755066747
-6.148349286727532
-7.759763389328651
-6.400612156865843
-3.80467072358317
0.5441637815582543
7.784530283727211
17.220577005678777
26.967812007732363
34.84582505235104
39.29012274975219
38.59318726246049
32.70028919017508
26.311678406110506
23.627782862657956
24.26476627350489
24.838521386911466
24.452721510589495
24.520417581033428
24.028880265572198
22.133131002084568
19.806022804656298
16.045611006313745
9.098178043823733
1.4034913076675495
-3.165335717215228
-5.027847690832093
-7.736631857474165
-9.818640412874464
-9.559984816017257
-10.4894059302896
-12.490099264719564
-12.760925613020532
-14.807112148374445
-17.28175274692549
-12.141362673005977
-3.83805150688051
-1.5092547604974558
-3.421676895652935
-5.298083285093221
-6.720020291792699
-8.230767355558477
-11.157394282030276
-14.476365562947617
-13.76121166746985
-8.333532140930709
-3.1620904885428165
-1.1329132123120336
-1.9063614067602093
-3.3794955970754286
-1.3011684200322133
4.4503901965947446
9.293831278891462
8.883478190549608
3.671440708185148
-0.16795795771445915
-2.616085673144727
-7.064538332196039
-10.413486285961561
-10.802526617004482
-12.125881351027497
-15.166121697929764
-15.112852080854621
-10.958433697722596
-5.5415222811539175
-2.1847239948382176
-3.458165087307756
-7.35703563813157
-10.210305405062261
-10.341049320245336
-7.46069027534299
-5.06560426964305
-4.991498680099252
-6.478893276586952
-9.087394692962487
-10.023318780306532
-8.39599284673638
-7.264514607420564
-9.006604799414264
-12.941128860616997
-17.13313330956337
-19.965446831906068
-21.230821107448566
-20.75052110479942
-18.188051802296894
-13.119796453277008
-5.798231703031721
1.091332702031107
5.0640632318665135
7.6809556764912665
10.274594535634536
9.774617607124277
7.442432744692817
7.696202184175644
9.773746843231399
12.365485845008452
14.778655487196655
14.145083968145128
9.278470401022476
2.8110601336554555
-1.8753197538698991
-4.235421031817032
-5.17878100735689
-4.9501576274426755
-4.447183045852699
-3.7077773150186557
-0.3674933025575869
7.098888391605293
16.657454183390126
24.532827377322423
27.79216752887829
27.785401341588987
26.707220136786717
24.52230462033892
22.760035903030815
21.972343861218064
20.200249633978114
17.39518813514574
15.449580101075636
14.168741294282123
13.19078770346716
11.578298633934539
9.191057140733191
6.0900937040934355
1.79007540618305
-3.066294757705099
-9.303510185233842
-15.965364386806021
-20.590769207613555
-22.399357880389523
-22.75412712049228
-23.35600170251819
-23.179817149307368
-19.2471437395978
-13.303582075870157
-9.716944750700597
-7.208766627613748
-3.27818397595835
0.6174939113329665
3.8377067843134043
7.719865695563042
11.492030345910406
12.68165871092013
11.335095505106445
10.275209020316161
9.78928052792974
9.407814220829124
9.831481830163032
8.930592425744782
5.657190535881798
2.2467178462920696
0.47365581869862905
-0.2977604846781199
-0.05082429658986937
1.5013714662339093
2.2018211055546186
3.3005056554785845
5.301977540053487
5.855430636065659
5.68264341007358
6.8155479096365745
9.997516627974257
16.664150289928116
25.163257360231587
29.84331582721163
27.620352476881834
19.95055767588609
10.654557743739629
1.8358989993158064
-5.229605209110313
-10.620173615017533
-15.021741043557029
-16.94619691291172
-14.019354159588103
-6.94352370318498
1.1873278852237403
5.977538855523322
3.9655446856272283
-2.352355692213312
-7.919507996158903
-11.465348050043106
-14.157343660513645
-13.69172689507626
-11.025000371019395
-10.547436450444337
-10.092243009206236
-8.397958745692625
-6.31374096753426
-0.9513376683698651
6.084452745321616
9.088458597965749
5.601316786454279
-1.6880867823092165
-7.479286682618535
-8.985446525990254
-7.437049533604899
-5.14174958404201
-3.138143664953591
-3.0583326036246916
-5.704581850157872
-11.23005752061217
-18.408887318980177
-24.57743999743551
-27.962020691920088
-28.76966042141361
-27.87158431005712
-24.428846009118015
-21.3286085960342
-21.34370887481351
-21.968715177498847
-22.337415974162145
-24.016165051869113
-25.77948325506108
-26.712599089687853
-27.187202028626686
-26.951237800090123
-26.284902614625814
-25.527889344903688
-24.579390801467596
-22.137408790784416
-19.452069522281224
-19.75128890116157
-20.91980411269822
-18.46795199415181
-14.031751259312182
-10.897084548738547
-8.451709533161713
-6.010715891553249
-4.732249240022044
-4.4178845849652735
-4.0067993236358035
-2.8315082860078524
0.8514571679794067
4.671136805960785
5.8613186258994725
9.176491653218005
14.141949600726655
15.801434659226448
17.19098298378992
18.876482042876848
16.376027534755643
13.234382810767848
13.392787942543903
14.44895392567335
14.957486573432778
14.848428747455747
13.414040450144352
10.123210727295671
8.270636136911097
9.309026242819197
11.506225502591107
12.457712056649925
11.830791334736388
12.030834341379022
14.069852561037475
18.542925315022945
24.79088606345916
28.497222244363247
27.278958529835084
23.142376903578892
15.390467548831984
5.411990723892894
-2.1789017064841514
-6.125853151917183
-8.77519617320903
-11.045519083535032
-14.610164522435444
-21.266726834145395
-28.089050703794346
-34.434242702744456
-41.519308391484195
-46.543884670626646
-45.82821390383524
-41.185232700166246
-35.028643253728816
-25.195763022123565
-13.566013858163409
-7.131591735332312
-8.544593224388771
-15.153126918709443
-22.293896018195753
-28.104956166541374
-34.37966561411897
-38.94574591338738
-37.33391458458286
-33.694033680835716
-33.45527954161017
-33.19649926664778
-31.838946271771
-34.40058817334879
-42.917245217697115
-53.309331508238735
-61.920808016088486
-65.8785491608752
-60.90067650322918
-47.48160615187429
-31.560716074888983
-18.59423526230915
-12.038243030356709
-12.250796085673764
-15.282077738668429
-18.094652922929946
-20.137567680535316
-20.32130051374536
-17.874828965145813
-13.683579927205777
-7.142533360175317
-1.0403304141721652
-1.7207642331826152
-7.8582824647694185
-13.711210735099332
-16.108360632733373
-13.736114346996562
-8.643664083486048
-2.6982540946855043
4.140431040205864
10.183039960957624
11.47228317150298
7.822923771845517
5.048792166833763
4.688213834791105
5.009847057352858
5.796492125095945
6.638339509162252
7.480280060851809
10.275938710201052
17.368970086331657
28.11950158261189
40.60303454480582
51.826805846356905
58.17779110218716
59.470048682152374
56.263027326444345
50.46260877857428
46.73741840956449
46.42657328770162
46.713521255996746
43.87768856606607
36.17275907929033
24.03926281523242
8.706444191392121
-7.2852741208316365
-20.95870197386636
-32.23714960514304
-40.045985448386425
-43.39478748244217
-44.58160926843747
-44.614335784449935
-43.75809814465778
-42.57935631684795
-39.99472948302849
-34.03440602990087
-23.673023818380997
-10.410234931900442
1.076803952982238
10.170548643682013
19.544040844440236
29.71086616036043
38.682101052147075
44.789763957249825
49.12992831756022
50.43762180074933
47.62628585185521
43.70086280093232
42.11468954596844
41.10844724416693
42.38743093248105
50.65109847443913
60.55216268520246
66.75927031395082
71.09131363008686
75.3437419843659
78.53101947792464
81.17395177770949
85.99783931181473
95.01654514898736
105.03148534501159
112.26177581566056
116.1532624568288
116.35395848097372
112.77374282633765
104.75611155108403
90.4961208909861
68.68640616143173
43.06885973095507
17.104390915354095
-5.902097380868931
-23.456729177524075
-35.51733742308576
-40.33433494608727
-38.112588209711916
-33.51945960449999
-30.12153997556221
-24.47019837140022
-15.57957727927172
-9.474253350153935
-10.2880436520068
-16.758278431018862
-23.814052084624425
-26.830958078421244
-25.949443442397452
-23.167347101582024
-19.22044181562627
-13.939190431588608
-5.828888165891951
5.243036267191673
13.839536792572295
14.365938775486395
8.327288694170264
3.4071786108184585
2.4197313474578213
1.6087394058945312
1.7451711634238294
4.644594754178502
7.690497430352193
6.7576558145561165
4.082049120021601
2.502338051897602
0.3472186022272986
-0.438366646840418
0.10537392782568351
-4.484042967571983
-15.369124489890382
-27.33758009428037
-38.08217420965867
-42.8434402670707
-36.873636887877296
-25.663443643003195
-16.088378336659215
-6.435491517128622
3.2577755248159477
9.186481391604568
10.282603330805252
7.9519023452272695
4.53656532796588
-2.9236282988698283
-14.563580106071655
-25.378685652427485
-32.503916640905025
-34.74648516941345
-33.737689390015056
-31.65971918044848
-29.287759935711158
-27.12602544964942
-22.278813839470917
-10.694542995118278
0.972987013643766
4.40548744616417
4.213146201844904
5.509809207629736
3.937003522338381
-2.4087183196130115
-11.134744896974935
-19.714725469274114
-24.445904538419832
-23.704059499580705
-19.68897786399976
-18.119114502253428
-18.800409458810982
-18.26950832336211
-19.527156160228927
-22.8606635899238
-25.641231166279137
-29.567762997485204
-35.31706007199397
-38.412270135545576
-37.27752738357717
-35.77651405818471
-34.35108649843558
-32.46975992718276
-30.0642790287579
-26.856630049672333
-23.12166448136808
-15.038995366949766
-1.2985711364152357
10.879649661062524
14.018513675057655
5.8793489052847505
-7.523756703449911
-19.570476990519104
-27.921355453902283
-34.3887727123661
-43.43333875856212
-53.34745949166075
-64.07502304821192
-73.4973555627368
-77.94224794735712
-78.56269479378584
-77.82205361052699
-74.54185297695793
-64.7953153939615
-53.009038742897665
-46.230375726534824
-46.8776755957231
-53.17200731643049
-59.48543440177599
-60.50443782479618
-55.55583633856446
-46.232267619856785
-38.834537186732895
-39.98708083863779
-46.11752043167701
-50.29524675754651
-51.9770512525028
-51.71630945591232
-47.31108897794476
-39.64683237148248
-29.521176366916652
-16.92144369091329
-2.043527388150057
13.883952074638335
22.338132232833512
16.981083265873803
5.094603250303243
-4.032945767506957
-9.562583374123069
-11.159298696550417
-6.396046561736781
3.2565136159235903
12.152982314973476
14.790825953217299
10.595982989187474
6.710699682819059
7.219270670986678
8.358988149138302
10.220015510855147
14.581355676677997
20.35237543851831
22.79727395572031
22.048997528810048
20.477543250427416
16.475891896228635
13.725506153466135
13.44224352114871
10.421882135236608
2.300865541606711
-8.190601873994552
-21.070671600263406
-32.73900780584126
-36.49148440876291
-36.05991191166586
-36.57011072367809
-35.032953505214934
-29.28770786974321
-21.748188179160877
-14.030134578584233
-6.44752708033453
3.449302794692059
15.18026591943704
26.092009559648556
33.7302020414069
36.62191589021793
33.85857112098695
24.162913786552966
12.953154373514
8.852049787322871
14.285708924440598
20.151923858614804
21.079750426877506
18.439738674792814
15.068253035689462
13.539225920962956
12.913166979598202
13.118278898285253
12.75535234041503
10.166619840045023
7.507084453967441
7.956377715337395
8.22985351338599
7.786749427964265
8.554817644995454
7.800764038100734
2.5010296939925842
-4.2489865737384305
-8.284259070985065
-10.262528686817786
-10.318486063726802
-7.531314949910676
0.5555999220674793
9.0574514245065
12.393495766084008
11.068739043778532
8.74988677303007
11.850822125413087
18.39799641739193
20.412925275055
16.149141360914673
12.052297769945456
13.393211568441385
23.43920963516877
36.95923479856954
44.181462912715695
43.07434856129029
35.3350692083045
24.777557381559788
16.254879092193907
13.613244776444906
12.594761839457888
7.879587249299196
1.1567933493316422
-2.910360577791558
-3.8199952486490547
1.7280618676830808
16.052703902216585
32.84800934617488
46.43074679783914
54.71437914146568
54.78740275546438
44.68437628490615
34.30572087871732
29.32405717917034
26.307734523485816
23.294449614413406
19.953083528663043
16.97291092747004
15.29214567416914
13.381344357055681
10.036944935906964
5.0982706352383405
0.46075011560248597
0.8263758931785848
4.874413251297343
5.364697081329513
-1.7174617565945471
-9.123497444526452
-10.21613778345147
-5.473493972087209
0.637777531295278
2.068858200231982
-1.5683594702428612
-3.980617600719773
-4.085833742617174
-6.883976362206941
-10.275808382831364
-10.470951263635655
-5.983906131955233
4.47786970667783
16.013858735229903
25.321846528432374
35.30807858443547
43.466093356854145
44.361377269850244
40.40002829046446
35.7477772350557
30.12247448254154
25.72898068490998
24.719350070921063
28.311240362987718
35.65389053155344
41.99582661086438
40.50414989414551
31.26013355619223
24.111061846519696
22.957406810928994
22.973586233241555
21.560983167351853
19.957078744676437
16.210180280319772
9.89980003872682
1.9789908685561297
-4.522460074730227
-6.592594648504452
-8.744178481983777
-15.227439647060278
-21.75512134063892
-26.228894785458877
-32.25143801542113
