AAD_Filtered_TADAS_FILE
AAD_BASELINE_CORRECTION: BASELINE REMOVED
AAD_FILTER_TYPE: BUTTERWORTH
AAD_FILTER_ORDER: 1
AAD_LOW_CUT_FREQUENCY_HZ: 0.025
AAD_HIGH_CUT_FREQUENCY_HZ: 40.0
EVENT_NAME: 202302060117
EVENT_ID: 13194
EVENT_DATE_YYYYMMDD: 2023/02/06
EVENT_TIME_HHMMSS: 01:17:32.00000
EVENT_LATITUDE_DEGREE: 37.288
EVENT_LONGITUDE_DEGREE: 37.043
EVENT_DEPTH_KM: 8.6
HYPOCENTER_REFERENCE: AFAD
MAGNITUDE_W: 7.7
MAGNITUDE_W_REFERENCE: AFAD
MAGNITUDE_L: 
MAGNITUDE_L_REFERENCE: 
FOCAL_MECHANISM: 
NETWORK: TK
STATION_CODE: 0122
STATION_NAME: 
STATION_LATITUDE_DEGREE: 37.4339
STATION_LONGITUDE_DEGREE: 35.82021
STATION_ELEVATION_M: 119.0
LOCATION: Kahramanmaras_Pazarck_Turkiye
SENSOR_DEPTH_M: 
VS30_M/S: 501
SITE_CLASSIFICATION_EC8: B
MORPHOLOGIC_CLASSIFICATION: 
EPICENTRAL_DISTANCE_KM: 109.28
EARTHQUAKE_BACKAZIMUTH_DEGREE: 
DATE_TIME_FIRST_SAMPLE_YYYYMMDD_HHMMSS: 2023/02/06 01:17:30.8869570
DATE_TIME_FIRST_SAMPLE_PRECISION: millisecond
SAMPLING_INTERVAL_S: 0.01
NDATA: 12501
DURATION_S: 
STREAM: HNE
UNITS: cm/s^2
INSTRUMENT: sensor = CMG-5T/GURALP | digitizer = 
INSTRUMENT_ANALOG/DIGITAL: 
INSTRUMENTAL_FREQUENCY_HZ: 
INSTRUMENTAL_DAMPING: 
FULL_SCALE_G: 
N_BIT_DIGITAL_CONVERTER: 
PGA_CM/S^2: 52.331
TIME_PGA_S: 
BASELINE_CORRECTION: BASELINE REMOVED
FILTER_TYPE: BUTTERWORTH
FILTER_ORDER: 
LOW_CUT_FREQUENCY_HZ: 
HIGH_CUT_FREQUENCY_HZ: 
LATE/NORMAL_TRIGGERED: 
DATABASE_VERSION: 
HEADER_FORMAT: DYNA 1.2
DATA_TYPE: Acceleration
PROCESSING: Automatic Paolucci et al., 2011
DATA_TIMESTAMP_YYYYMMDD_HHMMSS: 
DATA_LICENSE: U (unknown license)
DATA_CITATION: Turkish Accelerometric Archive v 1.0 - Disaster And Emergency Management Presidency, Earthquake Department
DATA_CREATOR: AFAD
ORIGINAL_DATA_MEDIATOR_CITATION: : AFAD - Disaster And Emergency Management Presidency
ORIGINAL_DATA_MEDIATOR: AFAD PROCESS SERVICE
ORIGINAL_DATA_CREATOR_CITATION: AFAD PROCESS SERVICE
ORIGINAL_DATA_CREATOR: network: TK
USER1: GuestUser
USER2: 
USER3: 
USER4: 
[...]
-10.283925223616368
-8.709474668598821
-6.171261034209311
-3.1631921872947273
-0.6971303105054327
0.9527877463563638
1.314150893727608
0.4279621084913161
0.06646265316423505
1.1148363574997369
3.3004999206697185
5.947018808850841
8.564041658937677
10.439199308696658
10.806343689044816
9.155360766665494
6.057199670993242
2.6173793287359985
-0.5550046751499865
-2.624921397418783
-3.1885899694646227
-2.483677336953721
-0.899159295028528
0.9321081776548786
2.5192590284405214
3.3935402506989387
3.6509821966962983
4.047967020385343
5.211951454197135
7.36794735473669
9.91692396141323
12.035846881580607
13.132088944768341
13.285281178494333
12.355403679200954
9.748644795290994
4.775724179918492
-2.8735801569956227
-12.015600618650517
-20.302867221029544
-25.07315906652805
-25.496143231473397
-23.258678243548697
-20.94842495894552
-18.942190411176274
-16.271162952152622
-12.876306951025398
-8.93142925463587
-4.843497394304249
-1.196619913957415
1.4959144406136746
3.191377303749224
3.4352957623193507
2.711954784395298
2.415849238336967
3.209589174695381
4.7489603313638264
6.180056530898019
6.510283230818752
6.26348826013522
6.414194417874813
6.710693447950445
6.8229692438410074
5.697183552373993
3.0504885089342904
-0.5628790644529238
-3.5799872993857433
-4.935640996799266
-4.857408237894999
-4.021230125128029
-3.3551925233241806
-3.8528575321005305
-6.292210580795081
-10.405745537220339
-14.645267065068385
-17.056913060418513
-16.74746827098016
-14.06799025235709
-10.64602961376179
-7.130210607707802
-2.7098825309348396
2.9207488767750864
9.13752259226612
14.916376739961457
18.996851108023662
19.471364342232008
15.996154265501076
10.922340022744766
7.0807849144377695
5.816548703764313
6.196418194504088
5.92020544103232
4.190365613346298
0.8311745540817291
-2.888007126678071
-4.625660402176741
-3.484027588060677
-0.04347561662771372
4.437167098850577
9.206108211409163
13.050250741569492
14.614944968813763
13.68085700294072
10.960030915139438
7.80927701733241
4.976306369609099
2.185574818994876
-0.8911349250598525
-4.4342833449338865
-8.546894197539046
-13.700984566180892
-18.630551200554912
-20.815305349997494
-18.815071777747466
-13.238438610210588
-5.33635086534827
3.3802060697990433
11.043736923527078
15.936586015850422
16.774573332660164
13.291498181842856
6.5552031417967465
-0.5186561986775556
-6.0089446307556775
-9.725654561864788
-11.144800076744753
-9.292105161580281
-3.8080340929746623
5.006590249112111
14.786778108886484
22.71071136569685
27.215138150621833
27.6106582022967
24.180415214393307
17.877874618289432
10.500802619582082
2.9566552072280152
-4.304969789864786
-10.843337538106319
-15.829088112873642
-18.956908921366505
-20.501006419250217
-20.201071662827882
-16.944960998719992
-10.616770404426191
-2.901783765883934
3.643559245523343
7.463707178991312
8.01117646997298
5.747636558587014
2.1697286757413385
-1.4055139667087027
-3.8235560533303095
-5.21413299163738
-6.5482622723976895
-7.921699733059528
-8.461255217399946
-7.887363312303769
-5.608671796050787
-1.4469559615420602
3.524172006423052
8.102871960996634
11.187314793530447
12.347853227739504
11.685132233934576
9.487066856871271
6.328605590449901
3.0662833436384065
-0.5710401255572739
-5.001075310052801
-9.305807316632452
-13.091596503935582
-15.955195365987823
-17.290022942121556
-16.917315407788845
-14.71474434599304
-11.17924463383023
-8.397316345994867
-7.004564820844137
-6.154118052061309
-4.769606504475572
-2.996317520494861
-1.9239064618391124
-2.027944073493856
-2.624804391277646
-3.0175616532650134
-3.893428869294062
-6.392544217048341
-11.276010799038506
-16.835379116798443
-20.50752022508473
-21.339763207497505
-19.99487305354646
-17.22714327193583
-13.208665875070349
-7.708641472162476
-0.7919094313636139
5.804114472209201
10.102904136327524
11.720391416924135
10.563043257168719
7.438366987835954
4.34328422302315
2.740584348841138
2.554118345984597
2.5664287339875993
1.211281612765021
-2.3353268483846077
-7.1720743366303
-11.377652490484628
-14.413066549516182
-16.398861201002525
-16.934319109825108
-15.27616310570143
-11.058880377686247
-4.454503547629858
3.2794492275566793
9.405993303379631
12.278571123551094
12.17370251116525
10.785321941656623
8.549653490222525
5.17190204441404
0.8939118157488715
-3.084013366449003
-4.683723279669682
-3.3331247682348084
0.15000075632541032
4.211818872360186
7.200379460478979
8.78782156917218
9.774663375577656
10.66984479330194
10.729811745712976
8.250312782959917
2.7192249309190806
-4.448161202836287
-10.305327300040556
-12.561889894215296
-11.360993266437156
-8.871097713192352
-7.880527194469523
-9.695121256079624
-12.64008503384268
-14.216685637196182
-14.118145607734029
-13.33474445891932
-12.92015801087236
-12.673681813538398
-11.65038293131261
-8.792966558717332
-3.898688492590639
2.458981739248253
8.779544582321948
12.99137587403711
14.16423116505757
13.093733309369291
11.034315836084096
9.578296188900111
9.725766762034178
11.604152234221779
14.531778553695524
16.94985872031854
17.00212247490418
13.106701487252842
5.439056982670159
-3.8942470152505373
-12.64645357079308
-20.623137215450203
-27.27463093322362
-31.154422595140762
-30.634469603929276
-26.112408022312508
-19.90435532527171
-13.949243637110046
-8.785131214705086
-4.655397167569094
-0.7819711677672223
3.5918801947273287
8.36231823705558
12.674711772956767
14.93767374040551
15.25351309327229
14.874343620922236
14.630997212291625
14.629843460018677
14.054738677500003
12.085478917458307
8.915110197532364
5.611418780432238
2.8351307669060093
0.2681654775422866
-2.3583616869741872
-6.142699026077079
-11.83836791775686
-19.131631123598886
-26.102742434039914
-30.502155418450613
-31.580427587689943
-29.16982120465368
-22.917293606129125
-13.691113437199775
-3.7878272944571774
3.7291728755852054
7.374037824959023
7.287967951763106
3.5795681585237302
-3.0972863223266924
-11.16389488843811
-17.883023535399982
-21.40853103964162
-21.792611073360423
-19.66924725310609
-15.504840735406331
-10.122990333238993
-4.919024224093414
-0.5399879313331319
2.8505765604191704
5.015203800283141
5.686988704471556
4.933673350160998
3.4121708861115994
2.2556761434076518
2.9013550771127257
5.742044678062461
10.014566568544682
14.456303160971428
17.674728817571324
19.46972583023321
20.54200089246057
21.582057477759363
21.682588299784772
19.388532631616055
15.040935739624404
10.1537085611604
6.502736644833073
4.5228060667255265
3.700040670712682
3.4850895869030833
4.9866689672980575
9.361396036867815
16.10030752992031
23.329995523972546
28.878903147147327
31.51878814516702
30.826193508364973
26.541862649115895
19.771884353231037
11.956268996706028
3.6588229598572637
-4.249800226230633
-11.030508687835981
-15.088086721990717
-15.021408112693967
-11.009315770488719
-4.50005158409788
2.285672039478574
7.395208935168842
9.63621427884769
9.206933132694802
6.688574412782662
3.0612930071656805
-0.616557510477929
-4.331501779170787
-8.319386426564117
-12.245293516965825
-14.367144963212894
-13.525676894594504
-10.341037569666584
-6.3208311949409035
-2.5831670950849186
0.7564342620612494
3.667946308304085
5.340549123904422
5.072857296317525
3.1393833472015205
-0.23887289392796068
-4.6706782131254885
-8.800041067823518
-10.399399711080365
-9.246818710173695
-6.796602089214051
-3.3576323588543437
0.8337625199774352
4.612924205393444
6.562731022144533
6.318807029054447
5.1666736043302475
4.858884628946702
6.199917213618676
8.970689474704649
12.206569058815802
14.77499419614452
15.306540964291674
13.131878033772804
8.902340977936934
4.267039409062624
1.1515462831267924
0.19848626277552975
0.46169140226955174
0.9712070804766579
0.9631947289071714
0.008573173627949507
-1.7093257449514425
-4.5068277827438585
-8.474418667770735
-12.629037612625757
-15.33812482252482
-15.509506971493398
-13.46372814776484
-10.251125475550172
-7.336935200653738
-6.34062240696085
-7.734838638272006
-10.431459725343677
-12.913109437276098
-13.938126757519832
-14.2438924822562
-14.680210022913428
-15.607060923340502
-16.843659718309663
-18.168555760547548
-19.59927761668187
-20.23540206467746
-19.617924329755386
-17.315653176388004
-13.808468781392762
-9.695323852212805
-5.264697494860801
-0.9536682939118473
2.591917278059949
4.420236485915994
4.537881195233972
4.720449683009953
6.591619606367801
10.120773831699685
12.764497410464504
12.681945568592443
10.432766690703271
6.908468064869956
3.9293760194002654
2.4444145858499007
2.3698487496244716
3.2476718146752646
4.305935250281639
5.347355489231941
7.371914125525011
10.741085353276489
14.21216281980758
15.945136994855755
15.061192478830751
12.477259325941102
9.436410119799854
6.218501505976204
2.7337451985645123
-0.18157602944131065
-1.3360140383187908
-0.5471888315334398
2.2089688641502123
6.589630599850328
11.773989679312137
16.461153577808105
18.81951034700749
18.871167862025736
17.560107325952675
15.317972307072788
11.550658596750461
6.345392615983752
0.427370524329863
-5.903906621171547
-12.954125291519794
-20.44249432795108
-27.24344095704812
-32.150685473752304
-34.70654824798879
-34.93968465769816
-32.50871147322306
-27.48638184877086
-20.844443761454926
-14.624024490799446
-10.558967598124331
-9.305550795547347
-9.585655603596782
-9.802725830394305
-9.213908338010262
-8.236241632896277
-6.927224075372605
-4.052523669450203
1.5539552034216615
8.960172505110666
15.717497264446951
19.92944175681218
21.200334896784582
20.123768502305005
17.423991765862826
13.677207901185062
9.021301012775012
3.9420860461106373
-1.2876120940233322
-6.1169640230273155
-10.057692439023224
-12.579807503697044
-14.398870123146029
-15.967472702991113
-16.681455347062602
-15.989547711377883
-14.035073451200015
-12.172038390292123
-11.90318704950113
-12.675856811985756
-12.728271420086731
-10.816196426092658
-7.347205750916829
-3.230935851579784
0.9957278279480184
5.0072812544662995
9.249727489528443
13.46891880399438
16.884952715236963
18.34241564133721
17.254925878316907
14.760207879096479
12.49740340060438
11.950260395026918
12.95819468317524
14.618209169051832
16.934225424708078
19.581192754907775
22.06218792629473
23.536760004884847
23.63438185870979
21.08622013712424
14.67721463149736
4.693991952302676
-6.243882812172075
-15.346251177233707
-21.33186294855663
-23.929574550962037
-23.785497700456425
-21.765740296187275
-17.95735469655526
-12.678681977317302
-6.4652035270985415
0.08551563118226047
5.757045653375503
8.536606625416281
7.352082841044474
2.103523002678157
-5.620003763777934
-13.306164690434912
-19.170528291116845
-21.07600176553384
-17.407869855122396
-8.673330076053364
2.691898923679615
14.500467445665734
25.289691484688813
34.291954445833426
40.0637863437306
42.021812518598615
40.644044110799136
35.95535360635418
28.4395829093233
19.70233074602941
10.870549208752667
2.464668838330397
-4.5955011337501555
-9.246645312354461
-10.891518136164517
-9.663500543104727
-6.769389908141849
-3.574410697123465
-0.46061566614142035
2.4552982496723175
3.9422221205746073
2.993338727655152
-0.4804466364348892
-4.851056510780278
-8.465445453611316
-9.47653419102653
-7.246625238843629
-2.3672547291802366
4.113329209128079
10.805962472491201
15.917817595162349
18.55775437296547
20.109249375255345
21.111377481359504
22.09186075393583
23.031867823722656
23.93369734060754
23.69362793226142
21.7196677963823
17.853404310401082
10.754260648618502
0.14835646330970045
-12.41027123603274
-24.63629805481971
-34.67454744442823
-41.70414149045671
-45.32230691934253
-44.75286965064072
-39.519779148284655
-29.65619071841299
-17.188709432848842
-5.400733322831153
3.1277794761091604
7.660716423299952
8.788110976447912
8.096849342359771
8.002467051777817
9.53353854570679
12.195587562122126
14.858229755509367
16.46077579252787
16.36678954544376
15.508356448848602
15.037757227720594
14.591033340937294
13.373961496692708
11.22053662134823
8.052222767691468
5.115765834492689
3.5632952648141267
2.892643183483973
2.5162198741640007
2.1609080522689625
1.5405651467931538
0.404619104894219
-1.5501482908353545
-3.996770531179084
-6.345759857118658
-8.125324017384443
-9.035491460120946
-8.753532920394647
-6.927026352647839
-3.6044008112584374
1.3226838124473794
6.794937666746493
10.802566586742557
13.18119538128164
14.674552668413984
15.397624600037448
15.641811050401357
15.350758089933722
14.143911289747933
11.506616104787309
8.16706438383731
5.4290075191040925
4.440763392483996
5.441082779279608
8.04255657310037
11.176482664087565
14.088004723963756
17.260824360899107
20.4274498236155
22.6271798345409
22.873867817690893
19.407390937038482
10.521523277474174
-2.998825903936681
-18.642902451510704
-33.762275411106806
-45.3421255520717
-51.487753738351344
-52.69601452735212
-50.31501535144326
-45.10438203481166
-37.58979367327522
-28.869129150548044
-20.525856364144364
-13.864975881842202
-9.685281578360797
-8.237343563141359
-8.945074678982897
-10.308650764874141
-10.881487231687924
-9.994406446448883
-8.13496144014983
-5.649886744509553
-2.8637979080113785
0.5498962295511148
5.1880528382947215
11.242720784929658
18.58190776488223
25.308482215871734
29.514067337206935
31.115735133751336
29.98510127662076
26.35074842280008
21.274572071547286
15.670667180225648
10.259435191114331
5.3192851344175685
1.4508076703920856
-0.892727156840881
-1.4764590412276335
-0.5144474918670392
1.0986013327238349
2.74298635520745
3.098245778711765
0.8411047898861035
-4.010013876629261
-10.604187388246965
-18.056225975249976
-25.61402431078271
-31.633213389784114
-34.949437464730195
-35.487000532925286
-34.19772488050761
-31.93363033667405
-29.18376066835743
-25.585046153775732
-20.7543760496655
-15.447454802396246
-10.097152251117974
-4.627231772617972
1.5529842883331237
8.09940111792758
14.53944326291738
21.20094302104791
27.1298677129513
30.686727073857487
30.48175661575333
26.717641594583466
20.16199891099468
12.321258993732151
4.543537716556492
-1.805216468069387
-6.00576267605073
-8.400686679847968
-9.339418055043755
-9.328320777763569
-8.37391563742139
-6.512729472886671
-3.9333305890836985
-1.7562530964041299
-1.2686863228070377
-2.557051836516681
-4.739204895021762
-6.6676400142189705
-8.069659783765092
-9.04315767168276
-9.771399489974012
-9.901223803172272
-8.316821990033581
-4.465660920770887
2.106735160095398
10.856290599932228
19.35887671198727
25.019803217807958
27.194012601012034
25.815435494984946
21.697646026344096
16.764047476963295
13.094194032505317
11.769431020654828
12.262564182319597
13.144581758169096
12.966213467041541
10.849884186157976
6.391094408682159
-0.11532954679459989
-7.976789812979794
-16.10634324778341
-22.735540305541935
-26.651688224166485
-27.21476789936369
-24.552959739325996
-19.796657041699774
-13.93531139032773
-7.9967321646182015
-2.1031474221655047
3.90823730132739
9.332245949581855
13.130787217321892
15.681260165594045
18.593933299633907
21.684452026098587
23.864601206870507
23.975505110731152
21.13121307843477
15.338231241859456
7.74319403350184
0.948118319707553
-2.8159285676917114
-3.4518953364605096
-2.2128424271634373
-0.7096168106381502
0.060631199428050224
0.23286944776823854
0.33446139753525905
0.10820560030958369
-1.3193862590312428
-4.791942747309335
-11.055425083358402
-18.37469188754347
-24.516857180898036
-29.131917796447784
-31.77740489541568
-31.119978748228334
-26.621453400062506
-19.419255264829296
-11.166318560501988
-3.7093908106208464
1.507096916170635
3.967718994719729
4.0421430901864825
2.825439328640241
1.001615945106399
-1.023348642752813
-2.704032005596647
-3.392702559214283
-1.6978277783399875
3.3935266220009908
10.982619601620105
19.420487892761738
27.39197519401035
34.40412978320618
39.649542513684246
42.15818105344635
41.70325446127615
38.99383511448386
35.44244540559881
31.595909154078253
27.226743886450343
21.29687406508458
13.110635115511446
4.0302413045139795
-4.0287420936416645
-9.752048868849933
-12.366318229719209
-11.857050703803395
-8.941755376403272
-3.755797472132407
2.9470054179997494
8.533428205953923
9.703341622097383
5.335505819304466
-2.4370153954770792
-11.549369521234095
-21.189228914456287
-31.044570309459186
-39.82262135411527
-46.34086786020678
-49.45520944809628
-47.806856228054215
-40.13098207147543
-27.705228060182428
-13.374307440689812
0.6698048022415316
13.356373258839373
23.55015505181984
29.431956502369065
29.46342916379004
24.009373128450182
15.926962031003809
7.57192069064215
0.08321933002938776
-6.031033384467102
-10.003092595814838
-11.126310182237614
-9.611451074544213
-6.234342556156781
-1.9923830102367954
1.885741912756532
5.005180040181489
7.5444388206154915
10.337817656483606
13.830070819490697
17.692592509726087
20.531050218326264
21.141448795906225
19.236813406685584
15.547646869891022
11.933117221816026
9.239448969874783
7.289750944632528
5.931825581242959
5.914660373270437
8.934857058692206
15.262682444697557
22.90299139981254
28.445152493504256
29.247494258493337
25.714386985815928
20.02781375090794
13.675430973639628
7.262771840325869
2.0536654987628093
-1.8182683114597786
-5.73916040647967
-9.779485425030602
-13.273389564634325
-16.337842138562745
-18.74674551416802
-20.86193627077499
-23.386200463090653
-25.798703706635376
-26.933792925112364
-26.327154267622635
-24.75364229520264
-22.746193730099325
-21.021446695531427
-20.183715489028938
-19.236580673522646
-16.13933662647352
-9.34759962781452
0.7390014671182943
11.298485594112618
19.41347797990683
25.075726145382447
30.03916511010296
35.01241807833493
39.19758391023493
42.3570762602016
44.39366736933861
44.80248829646261
43.62071291066328
40.54193724210001
35.57555667251343
28.981566060147717
20.34672746457796
10.484047824785025
1.9423840644854176
-3.021890255921558
-4.285579124340311
-3.622980158316107
-2.9229582334273214
-3.4797378944201087
-5.982092953522723
-10.345275957789688
-15.967427796533675
-22.174344504978446
-28.256717995669018
-33.671512994145225
-37.63290382576648
-39.36192075211958
-38.40240613047445
-35.68167267075286
-33.30507418101943
-32.046094129580396
-30.54767442061493
-27.57590981305097
-23.59316167784213
-19.813948588078112
-16.388029528030216
-13.29543339052346
-10.210014064011784
-7.025269618038922
