AAD_Filtered_TADAS_FILE
AAD_BASELINE_CORRECTION: BASELINE REMOVED
AAD_FILTER_TYPE: BUTTERWORTH
AAD_FILTER_ORDER: 1
AAD_LOW_CUT_FREQUENCY_HZ: 0.025
AAD_HIGH_CUT_FREQUENCY_HZ: 40.0
EVENT_NAME: 202302060117
EVENT_ID: 13194
EVENT_DATE_YYYYMMDD: 2023/02/06
EVENT_TIME_HHMMSS: 01:17:32.00000
EVENT_LATITUDE_DEGREE: 37.288
EVENT_LONGITUDE_DEGREE: 37.043
EVENT_DEPTH_KM: 8.6
HYPOCENTER_REFERENCE: AFAD
MAGNITUDE_W: 7.7
MAGNITUDE_W_REFERENCE: AFAD
MAGNITUDE_L: 
MAGNITUDE_L_REFERENCE: 
FOCAL_MECHANISM: 
NETWORK: TK
STATION_CODE: 0120
STATION_NAME: 
STATION_LATITUDE_DEGREE: 36.77006
STATION_LONGITUDE_DEGREE: 35.79005
STATION_ELEVATION_M: 35.0
LOCATION: Kahramanmaras_Pazarck_Turkiye
SENSOR_DEPTH_M: 
VS30_M/S: 439
SITE_CLASSIFICATION_EC8: B
MORPHOLOGIC_CLASSIFICATION: 
EPICENTRAL_DISTANCE_KM: 125.25
EARTHQUAKE_BACKAZIMUTH_DEGREE: 
DATE_TIME_FIRST_SAMPLE_YYYYMMDD_HHMMSS: 2023/02/06 01:17:33.6307180
DATE_TIME_FIRST_SAMPLE_PRECISION: millisecond
SAMPLING_INTERVAL_S: 0.01
NDATA: 12501
DURATION_S: 
STREAM: HNZ
UNITS: cm/s^2
INSTRUMENT: sensor = CMG-5T/GURALP | digitizer = 
INSTRUMENT_ANALOG/DIGITAL: 
INSTRUMENTAL_FREQUENCY_HZ: 
INSTRUMENTAL_DAMPING: 
FULL_SCALE_G: 
N_BIT_DIGITAL_CONVERTER: 
PGA_CM/S^2: 103.684
TIME_PGA_S: 
BASELINE_CORRECTION: BASELINE REMOVED
FILTER_TYPE: BUTTERWORTH
FILTER_ORDER: 
LOW_CUT_FREQUENCY_HZ: 
HIGH_CUT_FREQUENCY_HZ: 
LATE/NORMAL_TRIGGERED: 
DATABASE_VERSION: 
HEADER_FORMAT: DYNA 1.2
DATA_TYPE: Acceleration
PROCESSING: Automatic Paolucci et al., 2011
DATA_TIMESTAMP_YYYYMMDD_HHMMSS: 
DATA_LICENSE: U (unknown license)
DATA_CITATION: Turkish Accelerometric Archive v 1.0 - Disaster And Emergency Management Presidency, Earthquake Department
DATA_CREATOR: AFAD
ORIGINAL_DATA_MEDIATOR_CITATION: : AFAD - Disaster And Emergency Management Presidency
ORIGINAL_DATA_MEDIATOR: AFAD PROCESS SERVICE
ORIGINAL_DATA_CREATOR_CITATION: AFAD PROCESS SERVICE
ORIGINAL_DATA_CREATOR: network: TK
USER1: GuestUser
USER2: 
USER3: 
USER4: 
[...]
42.45380624273648
37.83575227684685
33.21472820687432
28.34982472828082
24.47502568011331
22.412758241032403
21.269293878330085
19.519448630601936
14.660430984475397
6.533747104031719
-1.5139714765334034
-6.447558657942047
-7.438028753105676
-6.511137211177416
-6.365409979329339
-7.344376525029602
-8.637929460844932
-10.371747514579406
-11.747771435219645
-9.107135039499768
-1.522741223694229
6.520412432176202
11.81847153005349
14.980226740408295
17.202817423799296
17.323883574779444
14.562073118869698
11.85694744586457
12.086849340984473
14.467363490922166
15.945346913518328
14.956352953496287
12.102944329441309
8.97903083778937
7.646377114031795
7.491930632761347
5.088918510078957
0.6080840651375679
-1.2950070311775794
1.250264142244791
5.205839394302058
6.486088745196511
3.8711007338134404
-0.5250086991880776
-4.085590788093493
-5.710350615151281
-7.28777597749149
-9.138863123381785
-8.24588697279453
-3.879048236659713
1.3343100214774326
4.125934711333683
4.1293078229686655
3.3930125887163047
3.115964016047465
2.3851469565059586
-0.13263153851372975
-2.1341267750126844
-0.6539775729849338
2.1769025220082803
2.1607605015473768
-1.6493392207254756
-7.25052532373108
-11.640897662455936
-13.705587582514797
-15.407009377733186
-18.377778023476964
-21.649517134197126
-21.394386118108596
-15.250077833747385
-6.659919263051594
-0.9424409858210365
0.42752342035754787
-0.1341494514218316
-1.438670545934099
-3.866782605040242
-5.52306225622151
-4.328640651684364
-0.4094646547772127
4.469845005647904
8.054108365425671
8.840113573305674
7.219980832694926
4.701694549769022
2.5432124290535674
2.433761611534674
4.554523610321387
5.968604869154258
4.374501226386665
0.9624895712334918
-2.736559742919092
-6.601879933227422
-8.993730165690167
-8.825279848490645
-8.902343935851295
-12.102691247550116
-17.750222713415855
-21.474925138935458
-18.761580147179814
-11.244355395029674
-4.355487680430438
-0.39318225775103277
0.37472733054271684
-2.226674798883432
-6.32227767875939
-6.9124521631790685
-0.4286911256671529
10.150934352188946
18.204698386530776
20.016922927527734
17.929781612463273
14.878677867893263
11.669093740701426
10.015769547158705
9.746212820652511
8.774525659169157
7.744542621365249
9.755543253690385
14.347864619696253
16.241486731644216
12.089006207896205
5.406064443798659
2.4786637622011125
5.467051026489088
11.107078545941558
14.534205695632046
13.68029173211924
9.355038779527963
4.031462918187555
0.13210909444868757
-0.6264716122163728
0.9627265168263618
1.6260987945615686
0.2798870061998522
-1.7783370296685195
-2.666731874713519
-1.754155034184179
-0.7984325346110425
-0.8941408348166724
-0.24077116546747435
2.1960482289697993
2.64354973082488
-1.5200582615812204
-6.0974254180957175
-6.43085373058731
-3.698420435658384
-1.9488857199942988
-1.618579134466046
0.20494732533924984
3.248784311140926
3.049490485092054
-1.8071269198171578
-6.002420942676471
-4.572110462902254
0.48830436824984674
3.5845322791998337
2.1850221056817545
-2.6937908451234898
-8.590828235960425
-12.162612896897498
-12.388573478453925
-10.387590868031397
-6.50520160305873
-1.5461505871979209
0.7454040327512366
-3.121909198152822
-11.085437099578579
-16.364333638492578
-15.499669608008558
-12.603139570521899
-10.157118152437116
-5.479932088498585
1.8941273315113798
7.25230072468517
5.802855670802143
-0.6282521081072886
-6.399720831361278
-9.082630833505664
-9.10318795788749
-7.6304832642058
-6.977200176124929
-8.346794597139843
-10.827190388772237
-13.518599724993715
-14.943012393374286
-13.473106876733976
-10.006106711836976
-6.853457964047559
-6.122973161777981
-8.8695685875997
-12.462801275809136
-13.259129408161277
-10.551849433132704
-5.097800600549944
2.032334404342469
8.572738925924087
11.631204776428751
10.749144706075542
7.988305487069551
6.977934847354348
9.245232049821286
10.931767584768762
8.365474286007906
2.5407515072480127
-3.331511242861021
-6.912831978388302
-7.19250940520868
-5.538557455426341
-3.688406798546738
-3.164561769642471
-4.507963876255789
-6.1601668244270265
-7.206873357301872
-7.977726375140802
-7.463011620190431
-3.8974328362946182
0.11353163311430214
1.4736366125937235
1.870566397202275
3.1733276689652032
6.162988019202136
11.550864015705145
17.313745559820404
19.6200053722179
17.65248072457051
15.146598228733735
14.5894384564446
13.815801436189489
11.116091783297202
7.791427401752651
5.164453047317402
4.0968718908491635
4.522486597756598
4.855257906711272
4.90348105673781
7.163489690177694
11.14372957220667
12.026057172357472
9.920605409956789
7.788504709881598
4.734700186746168
2.4444857948489767
3.8601198724424823
7.158346356484645
9.463343858158497
9.756926193501688
7.751362469430317
5.654263454235025
7.164567908416903
11.113731047057817
15.468618055275742
20.812547937068754
25.607472270042184
27.197775794183038
25.619026212601
23.496387308584183
23.163986603522897
25.40137025538426
29.51885234898613
33.373216055125894
33.170806363509186
27.216922634393537
20.78910644177527
18.96979892168614
18.029396618374196
13.97631158458316
10.214795518059328
9.084785631479262
7.630006300896189
4.1364118158289545
0.49797927457370006
-0.8734676146997363
0.11757004277960643
1.5726975590415164
1.0440350721437577
-2.715089925195553
-7.623723932588253
-10.686196317052143
-13.058524097360987
-15.915257168763155
-17.12846704067936
-17.611274675614546
-19.515007294611095
-22.833230811933394
-24.743084185208904
-22.96669894509248
-20.996583344075514
-18.931257352106044
-15.625248338894863
-13.861927548062956
-10.450740654476084
-6.186501256525064
-8.53439172780441
-13.362339849670935
-14.357464423409716
-12.008645964553319
-8.765633923038866
-9.021979138641791
-14.911703388589883
-23.691091797121093
-28.18543548092731
-26.352766896329143
-22.98594689493209
-19.433826433089493
-15.534946920180698
-17.47115077435576
-25.98544652208383
-29.675573469812434
-27.095037240521556
-26.311183105860902
-25.697431539008722
-23.668710037253888
-24.460528305982685
-25.730811150530776
-20.2748167938629
-13.12661941203713
-13.491151000868811
-16.645919479802316
-17.928339118403976
-17.22236787344391
-14.811452385710455
-10.267394216081795
-4.207715517292631
-1.2291066397407022
-0.6508196022880619
1.0753619268928907
4.737034060681881
8.645289334184726
9.088054089513237
4.226221402795281
-1.561192887307223
-2.1230189830336954
0.3273595227374433
-0.36747381952957775
-5.96294179789355
-14.03429259230432
-17.30469589647055
-10.057942501520978
0.9681686342319655
4.742740923635045
2.03041192826634
-0.9237389640461571
-1.102207305024532
2.484894030277102
7.576507520420535
11.296452724128356
13.101833754643991
11.2871943170411
5.867592047818484
4.1246462452949935
9.575485785841828
18.3155214877548
24.782497027392047
23.424578937726842
15.729133987998742
9.589329108269954
8.4304862523065
9.00603902912563
8.457178770036407
6.687953344519871
5.3733994364192625
5.798973318117434
7.383101782809249
7.966384810296301
5.9945847075087295
3.311300898434393
1.7547902607871362
1.818073323234274
2.645599971769758
2.3811698418846188
2.8040832992257574
7.65657136375751
15.805921717180473
23.031886410642574
25.55378131545196
22.312004157633325
16.615093169888485
12.195970752331505
10.634069746152022
10.80768255972276
11.151958818519821
10.312800853556439
7.885096757509932
8.067232001378253
10.214788409790314
11.628247519346623
14.70752272372913
18.12832673560066
20.88919256845458
23.05711856412687
23.78660482202078
22.25967993095586
18.61698059408321
15.550350494092415
12.817570010020185
8.877579477851551
6.3901272667577995
7.788935310941596
11.771993162097745
15.30266505203545
15.596716843196846
12.496307458534366
4.0311298119391905
-12.144394733111397
-28.56659782526136
-34.30441990793235
-29.927357307015434
-25.47608960507507
-26.383525074189425
-31.78603721554757
-38.396349033199286
-44.73556932650477
-47.683460510840305
-43.06432614347356
-37.94480328589282
-37.494668217329746
-37.26158841890867
-33.61774914704892
-25.860333289874955
-16.089477189822958
-12.215105018875516
-16.316356488156842
-17.710421425836138
-8.128014168922707
6.520639261109713
13.891190188027785
11.577629030688946
0.33068675357168953
-14.027652881292624
-21.613414473673416
-18.002649147632052
-8.164389768466988
-9.28335125001239
-21.694668617289544
-31.54824080082413
-31.776957680941177
-17.48443992824897
7.297212997089563
22.71873674590335
13.657544101840287
-8.64951032203628
-21.817494761544708
-17.84955439015902
-4.88401869672604
8.918635233455214
15.348341410833214
8.08764809037552
-4.105120689324515
-8.732734230163658
-2.487202469461165
11.175657568850028
20.46954827965792
14.290620593793756
3.2871017789858388
3.2850273427802374
3.098632557723514
-4.450234677122343
-6.555599026347021
-0.10456055620820527
7.974326733227384
9.645512032166959
3.917078589293551
-0.5813069652105741
3.60933536998169
13.89808997066288
18.056620911842565
10.995366923887074
5.561066024977955
8.585113535265762
9.828114318271428
6.518852377970893
6.225663435858953
9.329924617911615
9.800742845906395
7.510251845386388
4.282700023237469
3.2347577275997383
6.606391273518866
9.172267135248392
10.031744010327325
10.591819711642565
11.837295825666223
12.27374619319257
7.781888500332013
2.1209922713852882
1.1910486497242172
3.5115851671981577
4.726414922318498
6.901164210668699
9.749589730323382
8.828379036404293
5.475015128062918
-0.05084437988926355
-7.381257150704546
-11.338346811602321
-6.20916892806905
4.533901431354831
6.956196965131765
-3.0782612377863905
-12.135328680205864
-13.71926257502724
-14.320615145107991
-15.260064106401998
-12.963379599651695
-6.099322655861507
-0.9558359947353634
-3.5337982771940455
-9.688967071534522
-13.85952202028981
-11.6930833962376
-2.852039940139974
5.083652906777573
9.622523432755015
10.782019147935534
5.57161872545248
1.0587384893149696
4.423111696351367
10.293686686059875
13.002419302678568
12.297276704791253
10.129543560862036
12.840486707045107
19.240344906164864
18.65213321333728
11.831865401645688
5.696376282103107
1.1690008970008399
-4.3265113151008805
-9.410766068873842
-10.847665998682622
-11.33613787494471
-14.588509222127115
-19.22584099145937
-18.641487458682732
-16.98120867111312
-21.86593195646271
-26.17160263599039
-26.47510019813724
-26.025578189286502
-28.75641873004693
-35.334260361802265
-37.54709902797443
-33.07037670886296
-27.72388605540519
-23.450519155957178
-20.272555671901813
-17.995980153460682
-12.440154335478368
-3.977140060500655
2.872907103632569
5.812910390543094
4.733472305640831
3.865898884247955
7.742985612965527
16.347828093588976
25.069909215520962
25.654753452306892
19.133146046574687
14.801103838551375
10.414403093175702
8.686569032344927
14.296679355783828
21.462561786421762
24.151767050875428
18.079150594688315
9.951487126080739
7.8791867961438795
11.786230447792924
20.14467839851725
25.536111240093987
21.30190311617714
11.246893553834092
4.171403289002131
5.4096615771049334
13.519831653742289
21.288457619598102
21.152169521758236
13.52923505295196
1.5777762250870282
-11.137509527833009
-19.501242447859795
-21.47917573122864
-19.67289517637615
-14.165041233957298
-6.656266833492944
-0.24401948893206
4.395458022393006
5.3838367510589835
-1.2724542165055206
-17.72649020036448
-29.292981634672888
-26.6388306174945
-18.21782111632395
-6.253487062129683
4.496867453252286
9.07545155869465
7.199270651583866
-2.737888261504302
-11.835972980357603
-15.819947541108125
-17.294762735389988
-11.895209578551748
1.03718266619081
13.878241732401571
17.77954518917849
11.535576807010436
-1.4422266787773363
-15.38619785966727
-25.444594439580456
-28.494011685181622
-22.97524222006999
-13.614324814143545
-8.719883969772123
-12.958087332767851
-17.39763711548697
-18.336888119714214
-22.507400372030844
-28.550103218500524
-29.882785021580627
-20.298804698889484
-9.02710441097824
-7.082772177334109
-5.894650136587985
-4.44414739312554
-8.530857939927948
-14.411272441371127
-18.69923361306362
-17.49973720942249
-8.826743168400778
-3.73751606594175
-12.413814318601428
-24.32251377542975
-21.90477083122116
-11.244985029529824
-6.6094543496104965
-9.31528313419015
-10.208089561248674
-0.786427817193486
13.898754462453992
26.45929038364266
28.575660893126468
19.68874904901583
16.900331983129195
23.276927136067755
27.268754646406546
26.283364572010438
28.130396027399154
34.954898088894225
32.59166092743487
25.4944287468488
21.315339408692505
14.660907610958306
11.554525749447793
17.22590353322941
24.374081597944848
25.471474671751462
31.609918660892284
51.168718392000486
69.83480899938255
74.0740539187356
51.78847277733773
-4.8122349659495285
-73.89801435577738
-90.38304175881918
-27.26600460055634
56.300396963302866
100.84326935336625
70.44674697916594
4.944374965637798
-29.94809477223714
-35.69872446822767
-19.885828740302284
-5.874344355875235
3.154265127769342
31.046674122405587
46.84571391214198
20.97970218960418
-27.384694294093247
-50.60751465434521
-32.02046189555539
-0.0016511518239022607
28.013935000501686
38.28231436131676
32.49014940668568
19.298744109635223
1.3169263316572746
-21.445347641334664
-29.26939062489367
-8.055563793514368
10.47339778318431
19.992678711711307
27.90177590778727
15.734806623467893
-7.667119314930156
-14.756075708948243
-1.4386371789290022
18.08806806930013
20.374359081392864
9.31410812214389
-0.5286857248586926
-6.724639221338796
-1.9887590474078218
13.804390846702013
18.27784554622634
3.2979606884952513
3.4633265167701275
16.749004233592174
12.67288543185991
-3.589420669878542
-6.238910633058936
9.381964388322052
8.552004731594506
-9.783352889488341
-21.667937295307812
-27.532205151915175
-9.437300052803174
6.245321837330967
-0.6178207786413141
-0.7001999225770497
5.858723905809297
3.1958602319743834
-13.551065384842257
-16.605888231802005
-8.06842185616449
-4.091804459275962
-6.09675400532326
-2.249012332218854
-2.354587861101241
-17.674289429044215
-11.877253308222757
-7.36390833949576
-23.037796431426916
-28.197905424865187
-17.593531837320164
-0.9654110196063135
0.3758495726414995
-9.774454143822
-15.147780682039087
-11.756374973265906
-3.064841341374253
-12.452387961371098
-33.97719194136497
-33.594097330082626
-11.953125004964996
6.161576168345862
6.845387184890719
7.341029716509318
6.553057664007461
-11.799377745904545
-25.116540323820338
-19.550042631256613
-2.3377077622051354
5.725756168896611
2.1400239626708353
-5.023105443834532
-1.7676436187621403
19.22117686095464
24.192199226229082
0.6062499585588377
-18.05586493932684
2.851821246982944
33.38047852411509
33.379206484274384
24.33496504373466
21.63501052503384
23.193357803163597
22.799681318168926
18.3158723363021
22.72965729304135
27.721636850407517
20.201812503077644
14.293993462352319
23.602750675629373
40.02608033211322
58.47070635308508
59.470004728702264
38.01397028009666
12.405854139539002
0.05847429650139957
24.158758328091952
42.63890385437261
32.725789818750165
18.40410415505947
-11.718269905989569
-40.72827820618173
-37.946241769179345
-23.874563671809796
-6.093454583008546
7.848842859557552
-0.11359494711828494
-7.248684655471353
-12.165072038581354
-16.85334229402289
-25.178052930597513
-37.25059181286462
-5.856711135032709
25.388658996822585
-17.16265372652551
-71.48752774051607
-62.13447138980042
-8.967337051742772
11.650037804531994
-20.12158610280002
-38.5430814007085
-5.879664249094015
24.864086993563927
-4.254975986476277
-54.45466101101365
-37.04843020989713
12.954051397409847
19.125246087086584
-2.5509929406456724
-19.799472205261907
-17.169249021705298
-13.209283548092834
-17.850025492072064
-16.33987170785631
-18.415298692394114
-27.408185213545583
-31.889681710395333
-38.08019444692967
-39.6857306899237
-31.734622215537733
-4.197541038529854
15.91714761223912
-11.27037036150219
-27.794213792207245
1.2814367801983084
23.108288947133268
-2.6415772946932403
-37.024940260911855
-26.2909981402992
2.915673713109029
5.5886407092900345
-14.551885989741228
-20.33280992064772
4.323052186965999
26.943582626289295
24.393729688567507
14.95726282116396
5.672011839451646
-15.442272788237013
-31.215079859144364
-12.249864510951063
19.08036351234563
8.710778062206817
-17.539845720921853
-19.54175018296634
-5.633418503969411
-1.3242336537879822
-31.991570149947496
-40.09551726064536
7.255014962011465
46.54166387503475
37.11423721267
13.603267738988158
-0.6962562509694641
-6.038997015158587
11.262986769009839
20.93964986745527
13.433890906772554
6.219407866032048
-4.426799635698897
-9.456550899220554
0.2958938784074957
4.100459222752068
-14.189492815768928
-29.102343035850833
-28.221431664533377
-24.8427134630364
-16.47273059514125
4.4214332918478565
25.2949725048769
23.821001165607008
8.258795997158282
-16.132127135830753
-31.862674379321042
-17.181601388014744
2.3441842619501956
11.247406910042129
6.3169221607756585
-2.806601894297341
-21.13545418516425
-34.605187997639334
-15.491754087151078
20.410212398254266
44.480120033197664
30.750066387827072
2.6380205099778005
-5.680248434942504
-8.818004548764222
-14.402715291700417
0.2830992970024584
22.697257217826937
10.809031815607492
-29.315474544427417
-44.69653311254945
-21.799419170032586
-3.2785147758249833
-1.8311734740681491
15.971638839783445
34.84394888088891
20.55406519359731
-19.29582987089539
-38.17042220343071
-7.160407889499768
16.350084792903473
-0.013603958152008164
-18.926274836654724
-10.05054866716472
-2.9020774801685034
-5.365369608450983
-6.386476245596916
-3.528340971203946
12.840003254676098
-9.550635587194236
-40.74172990343893
-22.920854769441778
2.0965137302066092
10.475796724489
6.6081057304923725
-1.8242329766096592
-3.760274828325273
-7.783846889098962
-16.735546810997832
-25.412743950016086
-37.86080789318554
-30.056660488924397
3.6558855710701437
25.634989584575194
26.546857779475264
9.797121659849232
-9.833424662549914
-19.714717870331466
-9.785736636781849
17.1922781490098
30.74587250746097
16.91784765730501
-1.6051298762301123
7.841651958522855
14.308259941986066
7.480208239103887
1.362000235539987
-3.9069629101498897
10.373219600819587
26.002599462401154
14.406799966035138
-15.567469439251724
-51.801795415288495
-61.685046992933835
-22.2420215596234
