AAD_Filtered_TADAS_FILE
AAD_BASELINE_CORRECTION: BASELINE REMOVED
AAD_FILTER_TYPE: BUTTERWORTH
AAD_FILTER_ORDER: 1
AAD_LOW_CUT_FREQUENCY_HZ: 0.025
AAD_HIGH_CUT_FREQUENCY_HZ: 40.0
EVENT_NAME: 202302060117
EVENT_ID: 13194
EVENT_DATE_YYYYMMDD: 2023/02/06
EVENT_TIME_HHMMSS: 01:17:32.00000
EVENT_LATITUDE_DEGREE: 37.288
EVENT_LONGITUDE_DEGREE: 37.043
EVENT_DEPTH_KM: 8.6
HYPOCENTER_REFERENCE: AFAD
MAGNITUDE_W: 7.7
MAGNITUDE_W_REFERENCE: AFAD
MAGNITUDE_L: 
MAGNITUDE_L_REFERENCE: 
FOCAL_MECHANISM: 
NETWORK: TK
STATION_CODE: 4404
STATION_NAME: 
STATION_LATITUDE_DEGREE: 38.19588
STATION_LONGITUDE_DEGREE: 38.87385
STATION_ELEVATION_M: 1255.0
LOCATION: Kahramanmaras_Pazarck_Turkiye
SENSOR_DEPTH_M: 
VS30_M/S: 1380
SITE_CLASSIFICATION_EC8: unknown
MORPHOLOGIC_CLASSIFICATION: 
EPICENTRAL_DISTANCE_KM: 190.02
EARTHQUAKE_BACKAZIMUTH_DEGREE: 
DATE_TIME_FIRST_SAMPLE_YYYYMMDD_HHMMSS: 2023/02/06 01:17:44.7714990
DATE_TIME_FIRST_SAMPLE_PRECISION: millisecond
SAMPLING_INTERVAL_S: 0.01
NDATA: 13501
DURATION_S: 
STREAM: HNN
UNITS: cm/s^2
INSTRUMENT: sensor = CMG-5T/GURALP | digitizer = 
INSTRUMENT_ANALOG/DIGITAL: 
INSTRUMENTAL_FREQUENCY_HZ: 
INSTRUMENTAL_DAMPING: 
FULL_SCALE_G: 
N_BIT_DIGITAL_CONVERTER: 
PGA_CM/S^2: 136.244
TIME_PGA_S: 
BASELINE_CORRECTION: BASELINE REMOVED
FILTER_TYPE: BUTTERWORTH
FILTER_ORDER: 
LOW_CUT_FREQUENCY_HZ: 
HIGH_CUT_FREQUENCY_HZ: 
LATE/NORMAL_TRIGGERED: 
DATABASE_VERSION: 
HEADER_FORMAT: DYNA 1.2
DATA_TYPE: Acceleration
PROCESSING: Automatic Paolucci et al., 2011
DATA_TIMESTAMP_YYYYMMDD_HHMMSS: 
DATA_LICENSE: U (unknown license)
DATA_CITATION: Turkish Accelerometric Archive v 1.0 - Disaster And Emergency Management Presidency, Earthquake Department
DATA_CREATOR: AFAD
ORIGINAL_DATA_MEDIATOR_CITATION: : AFAD - Disaster And Emergency Management Presidency
ORIGINAL_DATA_MEDIATOR: AFAD PROCESS SERVICE
ORIGINAL_DATA_CREATOR_CITATION: AFAD PROCESS SERVICE
ORIGINAL_DATA_CREATOR: network: TK
USER1: GuestUser
USER2: 
USER3: 
USER4: 
[...]
16.409181100628096
15.20867597151932
14.003779972357462
13.064566407165813
12.420005604906743
12.221608902685013
12.595085101957526
13.623769982467186
14.92690598775437
16.138056610941597
17.440618304959898
18.889503839339604
20.02370320694289
20.633448547991073
20.897008152529107
20.763002980710297
20.20534414424513
19.42696052426585
18.408876665707417
17.632505581696893
17.80412079421242
18.931935630863702
20.71475622876221
23.16847212369094
26.290877737040187
29.68225066430882
33.06520976438669
35.80968538482896
37.384116570942915
37.6507976146373
36.38787956890623
33.386743728520656
29.24666479924029
24.466823520898384
18.8195408908712
12.438264847409435
5.918760466352138
-0.4969007543442085
-7.036348507837835
-13.435591460379333
-19.07683837114282
-23.896023237286773
-27.806426550878356
-30.470198778034263
-31.652211522337236
-31.53843385443212
-30.592257539755852
-28.869778674687055
-26.101587567705323
-22.37468621692046
-18.221674669660192
-14.239325297213053
-10.245454220582682
-5.990255119998323
-1.7031768234581077
2.28336326910055
5.687835379166753
8.616105416254575
11.096900723268648
13.04971510206578
14.681647502566802
16.194654604094335
17.15197822387144
17.050684107290028
15.692777427085652
12.984443966745598
9.358433247724395
5.758211092095163
2.340936235981397
-0.7405254005131309
-3.1618280965925076
-4.942441162074938
-5.904778816739148
-6.401683057379797
-7.033888096142838
-7.646007696983859
-8.037287585408382
-8.607129299814034
-8.903622562271321
-8.038394120665838
-6.3211942644269445
-4.149154245614085
-1.5274715189636707
1.557420358191131
5.0086233758126735
8.432532203241202
11.362509054750191
13.707440446738653
15.509843898547901
16.741693083104188
17.56879546576473
18.05957715557543
17.425857348526552
15.169900748104022
11.701360034470156
6.5560025167638845
-0.08448037197582757
-6.417377072430359
-11.367257088779
-15.585183583714137
-19.61972051623121
-23.143702519412695
-25.190274659222705
-26.063021301012938
-26.54345524334427
-25.08118308827153
-22.509053699170323
-20.604920467445925
-19.032917699375055
-16.916386473526146
-13.975394364331985
-10.68813653260597
-8.017950310555475
-6.799519944583863
-5.656214622861926
-2.947109100842275
0.5957072517310998
3.125474507062696
4.190515458951422
4.603090926689767
3.904405544016923
1.7092373486862196
-0.5057896618035116
-1.582790622088468
-2.277743526164128
-4.237793998470104
-7.637763021419143
-10.907961631886975
-13.70775063180646
-15.801128657116351
-17.39642363855871
-20.326809209090484
-23.696925470900183
-26.30022330171719
-28.166664698027027
-29.17078525130972
-30.373526896747524
-31.578504814798915
-31.20710711324011
-30.309479866722278
-30.573757518555293
-30.672263274806262
-29.650724250544236
-28.1895814159032
-26.76951191389505
-25.991548191170487
-24.684853262205
-21.692291766672515
-17.75266264000155
-13.08336344075714
-9.220111464569849
-7.030678336551829
-4.880621551221287
-2.3586775653773087
-0.7043492618863205
-1.1173200744837921
-3.175110043889574
-4.712110334039899
-5.326101722002228
-5.90244309290669
-6.985856382620191
-8.38476623014634
-7.722247743572829
-5.377453144702392
-2.8674026008734357
1.1761642957363077
5.153715938791864
6.905532207021576
10.753466860585785
17.548558156474982
21.88641800300106
21.550700463930355
18.867626771886
16.79761435660528
14.639488834141567
9.875588627402841
3.1450010458777626
-1.722798886661356
-4.08163914897041
-7.2615349075425
-12.764801886606943
-17.675222553232548
-19.981590441484787
-21.66225168784473
-21.809897721318336
-17.965125550950084
-13.375119067433026
-10.118263915868818
-5.165312100870945
0.6565428463908732
3.151001180170875
4.984953112834226
9.197193007939443
12.800993920639067
14.293595045326573
14.416611986940882
15.869886031158918
19.28083339855019
20.88849735539
19.634403365087604
19.468285353641186
19.890511536838105
19.249538231078283
18.362873203763616
17.331348322834923
18.1046272758155
20.23053935244752
20.872947075471263
19.313047879658278
16.29326173976593
13.307764882032076
12.09556810656629
11.21933330240873
8.52887962858288
5.434120954176591
2.874196678731638
-0.8460745543061818
-5.371757111185824
-8.404898676272799
-9.263165274605585
-8.13062922303671
-7.4548881741555375
-7.322541502009141
-4.474051393825247
-1.4282944408178684
0.09475960910081498
1.5237550374093392
4.322104880701816
6.975966058819422
7.409810917318605
9.093061059160185
12.38932131438857
14.385847193053616
14.549846885928796
14.256665250844438
14.318824175322876
13.214311781468831
10.326441693878538
6.79871193731156
1.4116350462376
-5.804480517089338
-11.228014707106459
-15.008823168061149
-19.130384550220295
-22.492963322717866
-24.673149225039307
-25.799937764457155
-26.661453979336013
-26.105163440424825
-23.310342000640606
-19.51424398580111
-14.884955049280032
-9.713347353166926
-4.54589334870984
-0.2712446027219117
3.6270613734231283
9.002334534992245
14.758621125227883
18.05151788109359
21.402639500722742
25.038104850969493
25.658803702459124
23.576056909565303
20.24404174089997
16.50787300531073
12.431873691528494
7.9861744486778905
1.6316508991036427
-3.0408315922547042
-5.270795104321852
-11.229506148492467
-16.805029980652822
-17.737608560896
-17.345488993246224
-16.904990858360623
-18.06116371286801
-19.46943449784949
-18.52908680346904
-18.187681029528797
-19.011957748441688
-19.30075523474442
-18.614086886421088
-17.62047911033652
-16.007155073178403
-13.998433566984842
-12.414744354928144
-9.336509365126894
-5.336948029271529
-3.539337340433389
-3.04416750497865
-0.7984074309506797
2.3302488522999845
4.903877220333713
6.7054033992122095
6.106139136650157
3.7748888427285396
3.1895388547984034
1.7355930444637113
-1.332604982960595
-3.3244732435654885
-5.770073052597665
-8.266649178337236
-9.143394159783329
-7.219286201183434
-5.780102827655614
-7.458070074401897
-10.571069311609113
-9.668470427755182
-6.402850735850976
-4.210701344900798
-2.4270238869551104
-2.26015850620715
-2.6570133349372
0.22084025091844423
3.6384396958589957
1.5536751376198437
-1.2245140990687367
0.3221911783171882
3.3772812997200714
2.009077446132668
-1.3956339276809506
-0.8480366585796719
-0.8745218359837996
-5.7002980807562365
-4.747158940491248
-0.23267795219633555
-1.123127915301138
-4.518386501039955
-7.939753554295229
-10.795247481046315
-9.438768756180737
-6.764406941871176
-7.390604802724271
-7.802701396067738
-10.052070755988131
-11.179689071400198
-9.285820562611823
-9.65254931284117
-7.574668427927948
-2.4937326016262165
-1.4688089985971977
-3.1779664861059462
-2.6579802632214573
-3.6976495433842125
-6.783581400900815
-4.565016386205873
-1.9408970169010673
-2.629662330248554
-0.09995570973588823
4.883018288179084
3.8288364269197572
1.0912139078138234
1.935886874292775
2.861965709693146
4.079693768505889
3.6052828744665866
6.044004480169859
12.435622364003308
9.555731525582951
2.6118183773626553
5.1870251595605605
6.627405171848883
3.7216426182477536
6.9956765957381855
6.528664517677983
2.473983561163737
7.622147139265621
12.54169077337043
9.249923871800426
5.988957687045463
10.695297883200649
20.58829454782963
22.645470783960725
16.309367582348557
16.086154139135
24.822211062746625
28.88869898078315
24.346322489646393
18.700947550769516
19.764668619772745
22.68744292272304
17.638388236215647
11.792216084347158
9.884629928068456
6.218206600457453
-3.179590512196296
-7.207165539321871
-6.826478994633026
-14.432592920718868
-22.528077396438317
-26.59885078239964
-30.00710402366049
-32.61314754262468
-32.83225782847503
-30.64239963219331
-34.053372778226716
-31.98083667995817
-21.115330079587647
-22.182855085966484
-30.041509969445467
-30.829913020264556
-27.91350758120285
-23.56977839252934
-23.9726580634511
-26.16486153290594
-19.448821856425614
-15.793576275358149
-17.432851830648577
-15.817499984086657
-16.478851974413406
-17.46410429363721
-14.42792291635389
-13.642370046361668
-14.680663719593829
-13.869461766007733
-7.417118948887094
-1.620180464562595
-1.869896906270045
-0.8578238872824341
2.825057550183186
3.1186936980361692
1.1009692681039058
0.6921050943947282
1.7738351622010198
1.3066395863562905
-2.9267170238452076
-4.51885546079568
-5.9540006765484
-11.192382902180336
-12.185975438474008
-11.121334959655536
-10.173243584638639
-7.76608396600131
-8.695586347314352
-9.83211149229976
-12.380112731340988
-21.558809698666142
-29.488040012668517
-32.512328871714686
-37.42546744587174
-40.80948343017829
-39.114221808872834
-38.07935140339385
-38.67346772493017
-37.80258011232712
-34.33629426095117
-29.859752395232537
-26.517885366759252
-26.321953131909513
-24.832271619275417
-16.536639781997128
-10.110455024115671
-6.962196767982649
-2.600766214404055
1.1553268138875004
3.9458422292627335
7.9907924435598146
9.083381618183603
4.791210536859517
5.023982644384528
6.021373548871155
-2.015899515115289
-12.253546568673398
-16.99523537116058
-18.129485650564607
-18.942952595390917
-22.283546099415396
-24.565438143957003
-24.48573460628561
-24.779251292931313
-25.056682589146845
-28.339816495209877
-32.01441640311378
-34.21853106262412
-35.37906672800843
-32.08438135103684
-25.642265449271193
-19.018541630862032
-13.012747224633369
-9.629800271244648
-9.08376485318763
-9.769014847289606
-13.777234861677234
-17.639709948687646
-20.33475765269568
-27.560832421030224
-34.41008309098804
-32.86161643032079
-28.568086732134443
-31.05385220070436
-36.10269906882207
-30.135165825655687
-18.886594943513668
-11.255576281184455
-2.3142211985937586
7.504051837654333
13.879133740488271
28.8168689229626
48.468801280871176
53.76892098503395
56.011925690774305
69.86968464217266
84.11605352124081
89.03990105667786
83.53507851199412
70.12291124990384
68.89231778158268
77.51965207437127
74.61623356575154
63.44767752725962
57.004568471743795
58.39675285561787
64.45022252365881
54.98586795490211
38.883046299187185
33.59541571864454
26.320311432397535
15.230235453508715
8.144417534206067
-4.448839862783956
-10.506429429842948
-9.120873894434585
-16.740782180479197
-14.215687580713594
-5.241637085296135
-0.780643657457299
5.107949546969831
17.66224465947918
28.64244735026476
29.89963155725031
32.12542966568211
36.759036730547116
39.65592243232757
38.4163268805333
35.015779613168114
34.689785917783304
40.54487002186005
50.8275749852168
48.411247795840865
40.94043689507376
43.520825962296385
44.673172572892796
33.115324845460414
21.17961957749922
16.79490206435006
11.718828080824526
0.8577666441815344
-11.366227865295494
-22.116906276646038
-34.65090354841625
-46.317756042748876
-55.43503947788785
-64.08612805571879
-65.25904716149715
-66.77065163109532
-71.6081622788461
-66.10166087367682
-63.63243883163918
-65.549153873404
-57.42714316213452
-50.127616434983516
-46.29463096566565
-30.657381608292564
-14.233320337530362
-5.504657532205966
6.503454577845396
15.139852092084771
16.10851500352691
12.891740996127451
-1.2783447349941088
-12.011092165650513
-22.306791205715047
-35.75147128193684
-41.18855684745358
-43.51429632238567
-43.49745107774909
-40.85872338995003
-29.673315465176895
-20.768280282918557
-16.97328290792377
-8.255515753160372
-3.7371266248433184
-4.924376065137954
-5.9301693183223065
-10.071992281595545
-12.249086397941754
-9.39800872494195
-8.557163700745825
-9.313730464814373
-10.205562975146577
-12.407503464935068
-15.933154155421521
-18.584110108418567
-17.63259112832619
-15.254055432605654
-16.4211197316979
-18.167956393208193
-16.68821395035712
-14.997668253370083
-13.136699704391537
-7.158407677479747
-2.089185481705092
1.3163894900449085
8.219462603744194
14.400027737787264
17.20339787456642
20.445574379177263
22.253935467091697
24.08409916933415
26.671795113344306
24.08243748623702
22.336514129201735
26.12575234500747
32.23156011811413
38.33876909014316
41.346876819549685
46.39053125531965
55.33631816075268
64.85666981516266
67.90122857890549
65.47585839791479
59.54429624424959
50.18370396343823
39.74042908400195
30.164300424022432
26.616411121200247
21.372001232146637
14.40293895638588
6.6589222163004855
-7.9222074096131365
-22.689248595481306
-36.44452891596336
-52.105259505375216
-59.25809575183715
-55.88189182305768
-53.5943166093268
-49.06605712980077
-40.502601382169054
-33.94226762184097
-25.299350690383005
-20.1362975993301
-22.390899116425814
-26.350646345986345
-28.289034253494847
-26.057898844842082
-18.28594173141836
-3.8321269611298976
15.516909528029688
34.10281026826955
51.98697440260443
62.449244314749
65.37656263264145
62.39969915250208
50.41161248478539
36.16336472832734
16.480957891918656
-11.714921770628477
-43.449760913374575
-73.22237526351991
-97.03081367015787
-117.39735553824231
-128.93839247666963
-132.54909184450207
-135.71759438804568
-130.35774970898277
-115.92522139249924
-98.27674642042173
-80.31895700580698
-64.87266438739161
-47.614841626827115
-30.222941517653208
-17.953249142885298
-10.867245471173302
-8.603100928857979
-2.2942875599540256
13.912130555667435
31.820231787812602
42.60518856203994
45.21434357073631
39.199150476401456
34.63695421043881
35.41790513616509
30.29230208664599
24.293553463240432
18.66233975689494
6.23189323629666
-2.166946258012575
-0.157745280956008
6.362719108176816
12.549073016480156
16.293108715984253
13.289156815762125
1.8379729481321587
-10.656936168784277
-24.93860665902479
-41.68156599931456
-55.55130334638108
-62.166029003682866
-57.42606356785668
-45.755696587095564
-31.205992064612115
-15.682100411008209
-2.9934516172183554
11.573164786034406
29.727588777821932
44.22830146031753
53.28865223295861
59.887262060825
66.54582737748714
68.77712264818699
63.808504083037796
52.92361035193877
40.77178501203661
34.5987855877198
26.278790359531797
12.993450531358802
6.080359562023696
3.1926931491880928
-4.71144213881793
-12.461476443218482
-18.04402282468705
-27.49660226220756
-35.76945967781155
-41.08268822506929
-44.52240590384859
-39.976649262336416
-29.577632273584772
-16.96482795970269
-4.368067589207667
8.300872502412702
24.842064321370373
42.85668328261489
59.5402556129776
74.35725830097992
82.80373631339026
82.31967763044503
75.4860596800889
62.37578661829555
43.273176016894475
23.174881848097996
2.2567956467190275
-19.69820401342484
-36.91273427270008
-48.84110536954724
-57.52511598076362
-62.25918990054597
-63.67277157708328
-62.064628517428545
-59.67943887650429
-60.18042219535304
-63.57652694976078
-66.8486587745371
-67.78640245528587
-67.07667653240856
-62.11015888604456
-51.842115699474505
-37.75584518908824
-23.08397845032263
-8.097499372351022
8.183961200474895
23.643870857601645
37.91435312101874
49.63848638432747
58.43333102079283
65.71689734180623
70.1075060123224
70.24912997381736
68.00120524130872
63.59353342061314
56.980650865023264
48.59219916819673
39.90096868490105
33.56791217923389
30.176483328753857
27.432811199827505
23.973307937998555
19.151909128546116
11.755831979062135
3.989580205833389
-2.1919488519460786
-7.622193436664491
-14.836336678734394
-23.689157035169625
-29.113629372351934
-28.648140496441165
-28.210921518915278
-29.8489547871183
-29.28088170437788
-25.848420521552438
-22.691784160618862
-21.78253842775133
-20.15648364300062
-14.763019342396431
-6.964936637128846
0.7615564505698905
7.399751959869807
13.709043666485966
20.518776935687907
24.119642944730753
24.673253616142585
24.63298871297667
23.64750832885017
21.60206543517267
20.596577310529543
21.45135377890083
20.60730289376398
16.120814145845408
10.45294502102828
6.941807396999059
5.529053636762608
3.3477467788826427
0.7351991643381883
1.1857170966731543
3.0268058779099527
3.1581120614158804
2.8235051789744032
1.637427130596538
-3.0013757738414375
-8.977393226199947
-12.59522652566704
-14.036580132120998
-13.893742508297889
-12.609425611717235
-10.84952415006742
-10.27351010573759
-11.770833385502046
-12.804944972562945
-12.077224040358907
-11.352978017510466
-11.130640985078537
-11.10171245344731
-11.391627156594575
-11.747861730083976
-12.042833068804242
-10.447062379874739
-7.3658320267696595
-3.5599888309109766
2.539422798344002
10.513651505433138
19.825391024452987
28.729863627596565
34.805195706660875
37.80079291402864
38.91819435112194
37.100669589483715
31.572402260461804
24.303671688977857
17.183302693265755
10.613996743752086
3.9112276805736266
-1.7624538358747006
-6.135662182903467
-9.31872492057592
-10.707084540030431
-9.660544872611327
-6.760854335502119
-3.307948062601913
0.6304369904282764
4.342237244965779
7.582275281781097
9.674663343422502
10.536491393296206
13.177991932422287
16.369289353440873
18.097594580155164
20.55764528430412
23.96555939138852
26.836094567079105
28.273365288522786
28.2239945884102
26.637893015036067
23.9809863461015
21.92785367031774
19.17984624401381
14.849034807154732
11.062403203169904
8.030930402381806
4.759247401618
0.2210842157422572
-3.758862705681372
-7.926159607131427
-14.284330634631822
-21.05264709511946
-27.62507585280377
-33.82867090746254
-40.195400511775546
-45.82028839643937
-49.26265788095631
-51.44490477152076
-52.5203067121101
-49.93586816171996
-43.75417551103702
-36.40562181456237
-27.927422022116513
-19.02086463085463
-10.687137522077808
-3.4655811971357875
1.6675138812511539
4.9905347733429855
7.668716694143685
10.431181400443835
13.655923408764584
17.492330069339427
20.20011681470362
21.48682359197296
23.607387147258255
27.00404462645104
31.1382926235622
35.97368077134956
41.974074257172795
48.10320556804884
52.978992898954054
55.071164950528704
51.90280589089795
43.00304223002516
31.370644576583416
19.3064272756405
6.474493427305565
-7.047076541495669
-20.321843208679518
-31.890253743018473
-42.484789935150296
-52.40891763705257
-60.341982828404525
-64.84886580704257
-65.67964205047383
-62.62107979299779
-57.29195958415017
-51.708858452777754
-43.930047855994246
-34.441915440798056
-25.354649712623576
-17.475576736621175
-10.96245749051324
-4.4716138288685725
1.7360305128645188
6.721603705713841
12.096273817391891
18.33641318098665
24.051740578754327
29.795554874698958
35.838593784820766
41.63121912571299
47.12213871585268
51.88528064199637
54.83856459764557
54.63232599008106
51.629689341502285
45.744235542787344
37.41740894873841
28.381108909994264
