AAD_Filtered_TADAS_FILE
AAD_BASELINE_CORRECTION: BASELINE REMOVED
AAD_FILTER_TYPE: BUTTERWORTH
AAD_FILTER_ORDER: 1
AAD_LOW_CUT_FREQUENCY_HZ: 0.025
AAD_HIGH_CUT_FREQUENCY_HZ: 40.0
EVENT_NAME: 202302060117
EVENT_ID: 13194
EVENT_DATE_YYYYMMDD: 2023/02/06
EVENT_TIME_HHMMSS: 01:17:32.00000
EVENT_LATITUDE_DEGREE: 37.288
EVENT_LONGITUDE_DEGREE: 37.043
EVENT_DEPTH_KM: 8.6
HYPOCENTER_REFERENCE: AFAD
MAGNITUDE_W: 7.7
MAGNITUDE_W_REFERENCE: AFAD
MAGNITUDE_L: 
MAGNITUDE_L_REFERENCE: 
FOCAL_MECHANISM: 
NETWORK: TK
STATION_CODE: 0123
STATION_NAME: 
STATION_LATITUDE_DEGREE: 37.00338
STATION_LONGITUDE_DEGREE: 35.34376
STATION_ELEVATION_M: 23.0
LOCATION: Kahramanmaras_Pazarck_Turkiye
SENSOR_DEPTH_M: 
VS30_M/S: 519
SITE_CLASSIFICATION_EC8: B
MORPHOLOGIC_CLASSIFICATION: 
EPICENTRAL_DISTANCE_KM: 153.90
EARTHQUAKE_BACKAZIMUTH_DEGREE: 
DATE_TIME_FIRST_SAMPLE_YYYYMMDD_HHMMSS: 2023/02/06 01:17:38.5568280
DATE_TIME_FIRST_SAMPLE_PRECISION: millisecond
SAMPLING_INTERVAL_S: 0.01
NDATA: 13501
DURATION_S: 
STREAM: HNZ
UNITS: cm/s^2
INSTRUMENT: sensor = CMG-5T/GURALP | digitizer = 
INSTRUMENT_ANALOG/DIGITAL: 
INSTRUMENTAL_FREQUENCY_HZ: 
INSTRUMENTAL_DAMPING: 
FULL_SCALE_G: 
N_BIT_DIGITAL_CONVERTER: 
PGA_CM/S^2: 18.691
TIME_PGA_S: 
BASELINE_CORRECTION: BASELINE REMOVED
FILTER_TYPE: BUTTERWORTH
FILTER_ORDER: 
LOW_CUT_FREQUENCY_HZ: 
HIGH_CUT_FREQUENCY_HZ: 
LATE/NORMAL_TRIGGERED: 
DATABASE_VERSION: 
HEADER_FORMAT: DYNA 1.2
DATA_TYPE: Acceleration
PROCESSING: Automatic Paolucci et al., 2011
DATA_TIMESTAMP_YYYYMMDD_HHMMSS: 
DATA_LICENSE: U (unknown license)
DATA_CITATION: Turkish Accelerometric Archive v 1.0 - Disaster And Emergency Management Presidency, Earthquake Department
DATA_CREATOR: AFAD
ORIGINAL_DATA_MEDIATOR_CITATION: : AFAD - Disaster And Emergency Management Presidency
ORIGINAL_DATA_MEDIATOR: AFAD PROCESS SERVICE
ORIGINAL_DATA_CREATOR_CITATION: AFAD PROCESS SERVICE
ORIGINAL_DATA_CREATOR: network: TK
USER1: GuestUser
USER2: 
USER3: 
USER4: 
[...]
-0.5253054097935781
-0.10979882930080333
0.3359094826005381
1.0629613922382535
2.2433889783989476
3.6426481942493556
4.746335395028652
5.428499692474559
5.7220974527778665
5.39557318868912
4.574907127346116
3.590516620771578
2.600750653303071
1.4324383888854062
0.18782080013364394
-0.6745751026948227
-1.1149627222761715
-1.4323058742926429
-1.6712758949410937
-1.559119072741021
-1.1277546388768538
-0.5226513419935584
0.5375100939829721
1.8456123241100137
2.586093594257865
2.663736601952734
2.3932337808613955
2.192799485455994
2.2841635295573517
2.2829011742462386
1.913717889335991
1.1488165995095085
0.21826543334286583
-0.48347676205809836
-0.7946404143664478
-0.8133771726418538
-0.8765394187586526
-1.1348499853436058
-1.3471170043917082
-1.3882941726353533
-1.367500214642606
-1.3010556928678876
-1.0647054215656395
-0.4918452816527667
0.4335884502767489
1.392044531878826
2.1285059452737167
2.5818377906768473
2.7632896579120603
2.8444128874287014
2.8938416227353816
2.832590888742057
2.742351256819958
2.5256685131679295
2.115855621440973
1.5407670118958887
0.9700146718756681
0.8303296297436539
1.3853077802339853
2.3597849974161758
3.283185117775705
3.740299667472373
3.28754098069464
2.2658143348540274
1.4480188606419417
1.3734725737320777
1.7318867531597615
1.9216364891334832
1.7541725172241964
1.1010962317007233
0.0792851495186166
-0.7306306602718635
-0.6783048640497752
0.1829134037222942
1.0918541306986118
1.4372483648469954
1.2410057938518038
0.7017465752288832
0.15988468708561807
-0.09126223564870586
-0.007061682101624684
0.4092629382692074
0.9662508791770501
1.615432158714411
2.403677251897186
3.3287802112185036
3.9987087551755995
4.073893295884552
3.781994424316048
3.6446460293940515
3.9386454352966784
4.251957397808475
4.572802752511486
4.501052724333694
3.9730389388334695
3.402262372018047
3.2819195522627838
3.701808120906972
3.9519027333212744
3.8495588373879728
3.498144078038886
3.0109706666891407
2.540422804700641
1.8924216344270488
1.1525719871514093
0.6107873121734422
0.37831806334569046
0.5559055508480494
0.8384689729049036
1.0635994288648607
1.3482888071210095
2.0037734908879665
2.966693121989457
3.998047402194015
4.6719566764461655
4.7775428536738795
4.5486256182783595
4.1650920392510145
3.93131190731706
3.8699832071800544
3.529030604293383
2.8161604743915643
2.233307547958408
2.0572084288128645
2.152442352582709
2.4101228778112533
2.6738623204255076
2.9828776353106505
3.286957329043406
3.7018919069028535
4.148506830732565
4.412183249779728
4.408976701769897
4.162180496478239
4.2118867946693985
4.589423210226421
4.799593299697857
4.62264417010302
4.207922046552141
3.5410914528729225
2.784468938443349
2.4628226501275017
3.148207954200178
4.625989554042205
6.131637825274336
6.948503098315614
6.810225389931004
6.109087916098333
5.545037127203098
5.318952077428357
5.312192368474754
5.397567661697458
5.547606524848918
6.004149514685563
6.422941874002224
6.370350425082982
6.19107114115798
6.312870695628106
6.3678974049654995
6.047754174065996
5.503887423780311
5.031406930302749
4.761661870034134
4.852503066826719
5.2056720023286145
5.559002910158153
5.96860032782426
6.352233060117344
6.580701612719268
6.312768537428582
5.77574554630303
5.2868343955185955
4.6583110302111015
3.756739723543604
2.8636887927341257
2.2533917419566687
1.9681404084176657
2.2426366214699716
2.9438933182165963
3.64556140806071
3.8967885571576684
3.848289945499615
3.4653925462081996
2.834567767782552
2.0330776058712834
0.7788093977975149
-0.740748780879859
-2.083188433356241
-3.0084505507459025
-3.523057702084535
-3.4941258051155932
-3.0250235751570074
-2.5791521570375844
-2.527659432950657
-2.946051757749542
-3.761760349277412
-4.691996607836069
-5.363923848495624
-5.740937876414697
-5.917636538852394
-6.204952968302603
-6.865323962676326
-7.869128454918326
-9.012485217915982
-10.084095494427753
-11.141151347588323
-12.099104715032162
-13.163095234415916
-14.192114889826291
-14.877190623595599
-14.998875684084297
-14.466206809855105
-13.54608992986553
-12.339216386393938
-11.213707424480601
-10.40926093653235
-9.677988883848066
-9.082799570746946
-9.091102376682914
-9.591175602258184
-10.010817568646274
-10.043274046108959
-9.690305497639658
-9.03131618274017
-8.332855723217456
-8.03061371720037
-8.068581122682128
-8.429071014511994
-8.88673913887868
-9.233580463001353
-9.251815638329697
-8.816503904282419
-8.234035636431475
-7.957494828542035
-8.113348204918523
-8.270212311635376
-8.155215232673774
-7.7661264096762865
-7.334926460392968
-7.092899129818802
-7.109706616005967
-7.078094393061203
-6.746396907612892
-6.513798471914205
-6.720944612792892
-7.4305149679852445
-8.230850155383921
-8.520808454357287
-8.11819683710925
-7.176183816204819
-6.250351331946047
-5.829307788408757
-6.297264785513785
-7.025293394745241
-7.206483479955555
-6.667574106432465
-5.647743289322364
-4.7161231073924865
-4.277770906498225
-4.187784607185324
-4.065390716548684
-3.758527096742423
-3.535341971317029
-3.4742689534818547
-3.3960499389840026
-3.709913030219251
-4.430020761250278
-5.042692205196406
-5.236572458577432
-5.151444891391676
-5.075450664090381
-4.975688699080223
-4.901038583372196
-4.748645199758568
-4.633735419777312
-4.749777470601259
-5.006041706077406
-5.267846256183787
-5.609459913839597
-6.044320959523216
-6.709187080869747
-7.8430659738613935
-9.147397419965905
-10.335653897413454
-11.0929472442495
-11.500802969528106
-11.511109780034895
-11.240245579866134
-10.831658766998071
-10.152644272370448
-9.163227468875355
-8.073649150473479
-7.5503422420639215
-7.776669836978004
-8.267193018899233
-8.258809844206159
-7.582650259886945
-6.4197964239235565
-5.053324211217137
-3.9487919577471846
-3.335972386773624
-3.301712226744057
-3.177692717103608
-2.556698320170962
-1.6356490208073873
-0.6150460103204533
0.3891875413635752
0.9310107200400309
0.8645805576560937
0.750268159607379
0.8811215874684556
1.4998795627466264
2.217242739987253
2.789138461992258
3.0060783509325044
3.1356571343108546
3.4534082645734427
3.4546521924979006
3.0307414621699276
2.4782652176504905
2.3245015682083436
2.6956079027083533
3.224323347266823
3.612517583981513
3.960014655895007
4.369611026827822
4.820252258846175
5.108276995884026
5.258494545521835
5.333417393150939
5.269342267439184
5.190685932396019
5.420285446746012
5.876482818010945
6.218778508323898
6.147659917612283
5.505871939512457
4.435785359351132
3.2115501625461573
2.2676748440888024
1.6930802853913713
1.5480823554105403
1.807022634394463
2.0097770166751676
1.7285929085376635
1.0897307141149346
0.3611289373883009
-0.40890704118786614
-1.4620099690818167
-2.872733872089383
-4.053128149528628
-4.616005777787926
-4.868071491946871
-5.019171589891899
-4.996852894665759
-4.81014078042402
-4.504542194759904
-4.217657747030599
-4.130174093557886
-4.546905626278122
-5.504684854017912
-6.544823819338836
-7.162987084710254
-7.319853061855501
-7.3234133634402525
-7.38055636785535
-7.487046891023068
-7.578082986197219
-7.647806854326668
-7.609245607397985
-7.202127225874985
-6.300048875994883
-5.310622893074428
-4.78081781243604
-4.828322162957259
-5.100916703418242
-5.402452487212278
-5.539917530548978
-5.467800436712115
-5.202987695226548
-4.58991634441956
-3.7029706207943276
-2.8415798631603972
-2.374611361497087
-2.259291242420799
-1.905095054136567
-1.1874872043604303
-0.594134070539649
-0.4022866670985051
-0.46831226196039744
-0.5415475496888799
-0.6353132808839878
-0.7664337702274017
-0.8565310899584826
-0.6897866344284985
-0.4834549656414048
-0.5897113442628851
-0.9182412109758828
-1.2630174449073792
-1.8713788356065624
-2.861593131271226
-3.669268959531755
-3.860379170942758
-3.3101215597993714
-2.1932667120742053
-1.0199700734490473
-0.28112117042183526
-0.12757011121096562
-0.384699148107261
-0.7178257368663492
-0.9967956790346892
-1.1759649382743285
-1.1605471548213364
-0.8481545957582377
-0.39073100402338357
-0.30831681162847374
-0.6941291633374783
-1.261495241191331
-1.648805766659395
-1.6627516144545758
-1.2862188495556692
-0.5927783877954376
0.2018373748373442
1.0012702042812371
1.667506896522578
2.2319579589336267
2.7522445976006122
3.1868638697926626
3.365052435407505
3.0427173601001236
2.456653754808649
2.0893419080195565
1.9301682903496251
1.5962744078291302
1.1307551835166052
0.7349644294233639
0.4617354521390983
0.5674327426328616
1.223130611118721
2.0818591413174317
2.6439572367175526
2.7569160168680136
2.4725723085816442
2.062300886427194
1.5674368950217956
0.7729182222321237
-0.16702081682551337
-0.9431902867247756
-1.565539077577477
-2.361396015971912
-3.195018323914465
-3.8614756145216798
-4.320602179683713
-4.430922716464407
-4.254108763618097
-3.9370733862089122
-3.4522496733490895
-2.6526271129543146
-1.4949947614866863
-0.2241664789558404
0.5922909826423185
0.7605261482962191
0.4622142736622405
-0.06721301478649094
-0.5504848272264716
-0.5274034868961385
-0.05246702658099192
0.04822830003927027
-0.5535518062020992
-1.5717119698272917
-2.7084613730864264
-3.979106698220566
-5.3002623060742575
-6.487394846544654
-7.502917403970818
-8.243772650347966
-8.588563050582557
-8.716267594714015
-8.905323230095702
-9.249976338785011
-9.594555024304725
-9.744594638890542
-9.50000038537638
-8.682354148585276
-7.4382791551365814
-6.134345940885239
-5.101860757117231
-4.213684468082684
-3.4653602728742503
-3.054273659286828
-3.0954480103378645
-3.289468765573731
-3.2899619924811923
-3.0110018425124223
-2.146826340416602
-0.6489709585705195
0.8345976020802369
1.7712781966669973
2.1332839570288806
1.9435884532851948
1.1334224916591071
0.06714951350805451
-0.5895904883726162
-0.7272198558465612
-0.6032086650729488
-0.38452085306858114
-0.2229434513890863
-0.0604550774808241
0.29349690159854497
0.8648581968230766
1.7776990829762964
2.9606365890167368
4.050469036632136
4.764003701339627
4.954903746205536
4.6107534191173745
3.974879804967692
3.502136636053467
3.502535444267832
3.792690817231179
3.992477246062773
3.7947273235589636
3.227736742651355
2.5516209594772903
2.239288842602845
2.3719985608105887
2.6308479693969966
2.606081732807855
2.1515604496771354
1.7038405397036314
1.5017754972667074
1.6206957683003087
1.8634844005685811
1.93436514193632
1.971368356232948
1.9386450007899785
1.670724422218201
1.1456591819851236
0.44350601074737384
-0.1642729669343409
-0.5787566134060765
-0.8569813417741456
-0.9825709005692226
-0.8833815671677421
-0.47550287501893496
0.24230108374377635
0.9472614379849074
1.3916575780353337
1.7850877932987423
2.4976425023055757
3.429881894783085
4.218997013799254
4.715392943608396
4.830551393569799
4.564784685043502
4.065786425347538
3.7681366804610077
3.6776571110179086
3.7107860742755165
4.011069734869726
4.439485121872662
4.759739809501725
4.810661766587068
4.785847092002344
4.538765767851082
3.862144655614088
2.734761491783063
1.2925035680252377
-0.13870855069120755
-1.2237151468134457
-1.8331234140575166
-2.0632991726304684
-2.2621016937514242
-2.6843844787386684
-3.092880756793974
-3.56074502503688
-4.098653814746578
-4.416282969293094
-4.43377069096984
-4.367139357745987
-4.281429904510677
-4.1735329261948255
-4.308577581991339
-4.599661141362291
-4.597639104755026
-4.148675863590997
-3.3923866586816858
-2.352123259674761
-1.1284034702141643
-0.10439421987025829
0.5129930321417593
0.846351701222051
0.9954379954477761
1.0646300076903488
1.1511228387736605
1.2831446418685097
1.238960289329501
0.902035439887648
0.38179007999989323
-0.1212114645464841
-0.4440615896171082
-0.4593819815460919
-0.1255418121790876
0.35062860585556355
0.901928625338988
1.3531503103256675
1.71231359757287
2.0346762924500648
2.0965346289735005
2.0931010193468977
2.2676561472442343
2.792613663451138
3.646544493362074
4.461455455412418
5.175319259803958
5.752597092672362
6.137608035625899
6.274669673305039
6.095685077864209
5.713248318643186
5.0997796370947555
4.351652336421566
3.6013884372496574
3.044129819639711
3.011136437811323
3.411129153313941
4.04024196590954
4.738834652241075
5.430118164399485
6.051332138446791
6.407741825999629
6.404761667808257
6.284379059755501
6.212402665433119
6.209361959904201
6.27599474060697
6.532649508678672
7.0848917660027935
7.651037494717387
8.075092693952465
8.59959722610851
9.38160114949027
10.441005710133542
11.490991077199089
12.238763057354388
12.50528926086518
12.43487479131043
12.61897956846425
13.122025617008228
13.71649370035767
14.119732239385744
14.367591559400093
14.612803104768101
14.869638372918471
15.036224731043925
15.210185858638216
15.567471267326246
15.845401518680099
15.878299273800353
15.813493944369046
15.852577905455043
16.088237593936704
16.675319002474534
17.485020794602796
18.21626986176817
18.58513063368321
18.476496092209924
17.979955194424335
17.383855669266502
16.970821401447214
16.88914484295741
17.188825854538216
17.306650906206176
16.84997708977956
15.984369135737253
14.77548032188877
13.403560031771487
12.073641804823431
10.875842588091365
9.80190534927807
8.754392027203204
7.7154693462408614
6.5081463020267964
5.259505481451468
4.327768695148087
3.6624873148836223
2.811884628105824
1.5776035631606882
0.1282640665407377
-1.2690819769159414
-2.2668058272642977
-2.6206114242103267
-2.387972293502163
-1.9196439345519674
-1.5725235741427217
-1.5550025675214112
-1.8947281390269768
-2.46821020943755
-3.0959162675539083
-3.5946636183233576
-3.851362683394068
-3.985147070919867
-4.099804069553121
-4.543632512447874
-5.4528973301327595
-6.512766187941282
-7.421147407293011
-8.08566107524953
-8.635903267795694
-9.158982079476834
-9.789464291999261
-10.269969425472855
-10.347356174029267
-10.079406468850603
-9.6431379661998
-9.333554443934961
-9.310160174387647
-9.564274301325264
-9.969113148845686
-10.318543049679592
-10.345684927408916
-9.92811030822551
-9.054088957273647
-8.172722008215317
-7.664432066504478
-7.549146332336424
-7.445410124756951
-7.018742379853812
-6.35265556585336
-5.550026037495943
-4.587575282434263
-3.2675913847746756
-1.4714047218205084
0.5428508168573448
2.1902482168925386
3.2877284461244756
4.043577868683688
4.604357916152104
5.148151737433515
5.7736128125314625
6.558990464795379
7.4935513543884
8.095224338417305
8.197574165724763
7.940955585936026
7.62619884247857
7.3675721113030335
7.193457503182563
7.172468446863223
7.13639620696297
7.1249708887419185
7.193696111353294
7.454349109272858
7.959421946145404
8.426108649332773
8.90035225668013
9.26104588284546
9.358670555651297
9.203529667996936
9.102736083344784
9.108222011692389
8.885674424531471
8.556177779511412
8.229488300466679
8.099524770784242
8.231046766366168
8.57457628059017
9.119783943505208
9.734148161300093
10.26073233269782
10.619332353834144
10.711906491052167
10.45598897167053
9.998581773832916
9.718560410447372
9.612248769943905
9.602441922920441
10.000355646857777
11.006288477341343
12.295188301782478
13.354128381187675
14.000271723572823
14.191966897220446
13.846748953237002
13.288454701657248
12.812816124628716
12.471211171694232
12.484762785382516
12.862517861405177
13.251788102224026
13.399498713120979
13.423820964958818
13.493218619971186
13.543631752561012
13.322228591280311
12.513520070837513
11.099571189508389
9.571356959334963
8.423382400157536
7.841224685848412
7.692493642686283
7.450139801094059
6.729947316267655
5.52261108339525
4.087135821945653
2.660807446504752
1.230553960746466
-0.1069639282801006
-1.0094994041270242
-1.27208739341101
-1.0924109240319853
-0.8007373307605055
-0.7042482627685113
-0.9633306998902805
-1.6292566801670667
-2.4324856648446174
-3.1533694098527416
-3.8610940716101085
-4.561769396803118
-5.317694843702239
-6.097057906719929
-6.774581199526897
-7.486844987602479
-8.45169462688394
-9.287497806577035
-9.905835058569386
-10.595894957789177
-11.323612696669644
-11.880852137884766
-12.00636910361308
-11.559685307831305
-10.714456835784574
-9.670218878853118
-8.459891771817095
-7.195254784537383
-6.044722267442111
-5.15595317314098
-4.404976747170607
-3.8084242597942035
-3.24285649568598
-2.565629109347433
-1.9745394325071741
-1.610815172634454
-1.460249796781365
-1.4424551893137523
-1.5572181904486762
-1.6409758508567793
-1.3124851550083991
-0.4854902268072852
0.4931026839084548
1.178254097672663
1.4799156689010025
1.529242378855915
1.6751645413667942
2.2764087793048895
3.339852124427741
4.466142723360182
5.229883247814838
5.712171988883765
6.226173598572054
6.682050993679568
6.95840987597918
7.018477089432681
7.001872645610498
7.263180682656038
7.716252367464176
8.161217137308203
8.484017229545344
8.905819922721038
9.687926610535195
10.611183370268094
11.090807220321308
10.688798826965362
9.340673337975039
7.367642323516662
5.206010817411497
3.386949373114714
2.3361474469039254
1.919276636127962
1.7700195604354194
1.8800261232409
2.054340622701287
1.8087419465958632
0.9619297264736165
-0.17458468004557254
-0.9608063515917492
-1.291347314842947
-1.2462178896726248
-0.8247110292882195
-0.43972783835321816
-0.49530301222139356
-1.1089874852838504
-2.226435456755735
-3.65378531341373
-5.073619806460535
-6.331760512474824
-7.358599039539356
-8.261264592947336
-8.759236075121803
-8.426429099157847
-7.520342361453904
-6.723587004568145
-6.34002752430171
-6.150698752455797
-5.947015750801892
-5.516817582500032
-4.928477308993777
-4.359456169247916
-4.106020057305138
-4.313069456062915
-4.908719855065453
-5.676936183256763
-6.327344100464387
-6.627365737346966
-6.399071311681355
-5.703068188023731
-4.915987049029605
-4.3457544208905805
-4.0384341374859
-3.9152036910137618
-3.8484933712049396
-3.476674075547568
-2.654278657787192
-1.7813744415077257
-1.3700738475051308
-1.5610956076117883
-2.0633201069805645
-2.508405222853774
-2.7481592251199425
-2.6415066723002623
-2.3847943583481532
-2.1955903842626583
-2.027761355431311
-2.034292872377266
-2.0855763011216637
-1.8468659024640584
-1.4333405471902287
-1.3090052493807933
-1.4135982055655654
-1.4582292622972957
-1.5305930920364426
-1.816948002447355
-1.7693973013865498
-1.1693236166242635
-0.46799030649788353
-0.09271835444284277
-0.43204383145919373
-1.000753396094828
-1.5265084786298826
-1.8906829306348636
-2.076046923033477
-2.266967340802605
