AAD_Filtered_TADAS_FILE
AAD_BASELINE_CORRECTION: BASELINE REMOVED
AAD_FILTER_TYPE: BUTTERWORTH
AAD_FILTER_ORDER: 1
AAD_LOW_CUT_FREQUENCY_HZ: 0.025
AAD_HIGH_CUT_FREQUENCY_HZ: 40.0
EVENT_NAME: 202302060117
EVENT_ID: 13194
EVENT_DATE_YYYYMMDD: 2023/02/06
EVENT_TIME_HHMMSS: 01:17:32.00000
EVENT_LATITUDE_DEGREE: 37.288
EVENT_LONGITUDE_DEGREE: 37.043
EVENT_DEPTH_KM: 8.6
HYPOCENTER_REFERENCE: AFAD
MAGNITUDE_W: 7.7
MAGNITUDE_W_REFERENCE: AFAD
MAGNITUDE_L: 
MAGNITUDE_L_REFERENCE: 
FOCAL_MECHANISM: 
NETWORK: TK
STATION_CODE: 4613
STATION_NAME: 
STATION_LATITUDE_DEGREE: 37.5701
STATION_LONGITUDE_DEGREE: 36.35737
STATION_ELEVATION_M: 965.0
LOCATION: Kahramanmaras_Pazarck_Turkiye
SENSOR_DEPTH_M: 
VS30_M/S: None
SITE_CLASSIFICATION_EC8: unknown
MORPHOLOGIC_CLASSIFICATION: 
EPICENTRAL_DISTANCE_KM: 68.19
EARTHQUAKE_BACKAZIMUTH_DEGREE: 
DATE_TIME_FIRST_SAMPLE_YYYYMMDD_HHMMSS: 2023/02/06 01:17:18.8412820
DATE_TIME_FIRST_SAMPLE_PRECISION: millisecond
SAMPLING_INTERVAL_S: 0.01
NDATA: 10501
DURATION_S: 
STREAM: HNZ
UNITS: cm/s^2
INSTRUMENT: sensor = GMS+/GEOSIG | digitizer = 
INSTRUMENT_ANALOG/DIGITAL: 
INSTRUMENTAL_FREQUENCY_HZ: 
INSTRUMENTAL_DAMPING: 
FULL_SCALE_G: 
N_BIT_DIGITAL_CONVERTER: 
PGA_CM/S^2: 75.029
TIME_PGA_S: 
BASELINE_CORRECTION: BASELINE REMOVED
FILTER_TYPE: BUTTERWORTH
FILTER_ORDER: 
LOW_CUT_FREQUENCY_HZ: 
HIGH_CUT_FREQUENCY_HZ: 
LATE/NORMAL_TRIGGERED: 
DATABASE_VERSION: 
HEADER_FORMAT: DYNA 1.2
DATA_TYPE: Acceleration
PROCESSING: Automatic Paolucci et al., 2011
DATA_TIMESTAMP_YYYYMMDD_HHMMSS: 
DATA_LICENSE: U (unknown license)
DATA_CITATION: Turkish Accelerometric Archive v 1.0 - Disaster And Emergency Management Presidency, Earthquake Department
DATA_CREATOR: AFAD
ORIGINAL_DATA_MEDIATOR_CITATION: : AFAD - Disaster And Emergency Management Presidency
ORIGINAL_DATA_MEDIATOR: AFAD PROCESS SERVICE
ORIGINAL_DATA_CREATOR_CITATION: AFAD PROCESS SERVICE
ORIGINAL_DATA_CREATOR: network: TK
USER1: GuestUser
USER2: 
USER3: 
USER4: 
[...]
25.957765844786937
37.52088957981006
32.463197565927636
12.208318951437821
14.081990844518858
24.28269776126253
7.2497139976717975
-22.916689172806134
-21.692803425328837
0.8148063844403334
1.7545358208554422
-12.353764857398879
-14.537889828842449
-13.296693391791106
-8.78323629443421
6.40816238388426
7.776228060817383
-0.47373643380877284
1.0138253629065472
0.007304601700052027
2.0317789894819276
2.681722180671235
-11.052949599189569
-6.417658628785514
19.411655902083645
32.875092100357435
35.14243047631132
33.359476479178426
34.39521059474968
44.57810511465389
41.16977789647457
23.745147323967934
20.71627865552333
26.09170002505094
18.86972573695604
3.296844393855354
-4.283928032455232
0.3707693640973362
9.221071488847961
3.79351479186776
-25.385841216531574
-42.475766753319306
-23.38216475840715
4.711285048883032
14.58312116871198
3.6587741916927174
6.719339373165064
35.78964751927924
39.20791764688274
10.589481902776102
-4.272474436720557
-7.281227926857417
-14.594444978135094
-9.97221290015529
2.692033441333825
-2.8405205114900456
-19.407214213129127
-27.519747825699408
-26.14514595953525
-6.834859872052396
7.00285848897092
-15.728612565966579
-32.761112319631444
-23.258428347367204
-18.866387328882446
-16.12896946175162
-7.793038820430383
-0.26953956483803626
12.942454137182079
25.39403289081158
31.93073182210779
37.00411839457055
37.025636199226035
27.63377565977736
7.6964077309622585
2.1275986687863973
11.524408888983048
-3.5649411234850503
-34.76622394764904
-50.33721231944107
-39.49642021596619
-14.592278245903517
0.8259139312473821
10.037030295894054
19.72694453803472
16.248105081839054
-7.596230712418471
-32.67596545733145
-23.97718577269291
24.708869243735975
59.6468754175898
51.22895544542363
27.22844432700842
1.6745625139217182
-2.6688389926456604
13.116922380060622
13.906238563031739
2.8806546471338708
-16.48837153337008
-25.50220994326017
-0.4397151321007725
10.624770319682222
-14.641910968966506
-24.90431062276018
-5.371419967056718
23.286122209106896
45.60906694904377
51.02774913843205
51.71057853348434
47.36696866365735
26.627613519604793
9.015971044404692
16.88666747133477
36.33239002034486
30.83963964224147
-3.9945807635152617
-29.662117569263895
-16.014783183293183
17.909748754437278
25.51268527767751
-6.788416983871391
-38.75285587109374
-31.482765285276628
-8.678142447800708
-6.350419235940842
-17.242139749887507
-28.156781260300853
-29.43505595624359
-16.359181564536886
10.650884399210218
45.29102395392356
46.13234308818305
13.208155637828547
0.723600253429545
9.401600294252916
15.562800514027533
17.216262834866896
20.44906796343035
30.504084608703792
36.45911531690903
26.682984916005196
-2.4590328564284305
-26.85364924544312
-18.548622824468847
0.8056730098232001
21.753147643451157
41.749280955431814
33.7687311807218
20.05617321581573
23.055857149937808
21.15033739771081
5.675988473411404
-15.338755965330346
-16.582910471437405
9.876083494009032
25.969955072638232
13.077707403331688
-8.432991155711791
-16.4971077603569
0.5360068839574414
13.450696530990488
-4.504735791771105
-15.599765125392187
-3.98567636207574
4.813101028245277
1.1618990307031265
-11.601181899885619
-2.768002629527038
37.39559946699207
45.38475350189141
-2.581678541964736
-29.741892535035305
-3.831177589927165
15.768130094481023
10.879279779876965
17.937872195452787
26.05309312132783
1.1884696698736577
-33.41313744306248
-41.44456387514367
-21.524949910864123
8.873803199310514
22.571141815151645
15.29500399330648
5.757269782270114
-3.4925947473886403
-9.922813183874412
-1.5674917929059966
13.213304753147185
14.863786349157811
-0.7801113859618872
-22.719441095838103
-34.86579629702026
-35.02626369707434
-29.748112405007937
-9.464194914579016
17.870056517187987
30.10766232989765
37.05040423310765
41.77977132631434
32.59061603960778
8.240589682709777
-8.09224371294183
3.059945376383229
1.9592393557152012
-14.037802734695864
-14.171570752317391
-14.565841673845547
-10.195589929309623
-9.830223101186128
-26.254890329849875
-23.371133559064337
-10.603787452731009
-12.158424902465388
-12.256946596442827
-9.73524649409234
-8.831993052136541
-14.120344260778003
-22.02228646683639
-18.95893838204127
-19.95041960763392
-34.59951845436951
-45.820794015497114
-44.85433665313882
-42.15115467026092
-35.42097709799112
-13.675782177119604
0.7111611573337361
-4.818294668943751
-6.517679983510701
-0.6767445347677453
7.9243025239399465
22.17615655685723
17.598347687407113
-2.5367522307618584
-1.7433671542457683
9.942380419633485
12.47585699326736
18.124600036060716
17.052622781904635
-16.241563606438415
-53.563279284719
-57.36043340418388
-24.957283368014952
14.135341088105267
6.441302110375703
-23.31380931078154
-21.25635299552057
-12.152784091676606
-14.332483248022303
-4.312621282902441
22.80716238722576
22.530010710691343
-13.129926628500776
-28.916357463067776
-27.382650960647105
-23.452645398700447
-1.519765198591357
9.406349116760268
-7.700460048279057
-12.774393341024476
9.187288796202596
18.692038581452774
-0.43412519595485566
-20.08124864323322
-29.706745073225328
-35.02639678413177
-28.118391862811883
-15.645783064532356
-13.059151487973212
-5.1123034116215385
7.200313411599345
-2.853805285815626
-16.39788910993415
-18.241373213724163
-25.957195641800542
-14.810456048915979
16.79922068680065
10.945460301067387
-31.41879762797809
-51.791492657685815
-36.31623067283605
-23.40641673035958
-27.18116969122896
-25.002949233980125
-17.542510035594816
-17.13041569367462
-18.058796301345694
-14.847595492530298
-1.4783314955662066
4.199445292123941
-11.928919285903662
-14.255131036719725
0.9366879663476999
10.883774824883092
13.085965260071662
5.252334354393309
-1.90098713974783
-16.05234482787283
-32.4112673535301
-21.390374236887798
-11.580544728208022
-19.412759731360566
-13.485735155048992
5.813055954907767
26.188692672526273
41.638262682570115
35.280184389826644
9.455471337167866
-3.7736067046987474
6.695387751911214
13.050823262462835
0.738699488747362
-5.816774384517152
-3.791431568298574
-19.892299565023425
-31.005405747988647
-10.520317714570123
4.588128395734834
-11.135322650857617
-25.806700571845347
-19.757809212567494
-14.244870992570194
-12.312768528881957
-13.780432865699852
-26.763446222471224
-27.383285603611604
-14.83187713253199
-12.10777021977778
-12.738221563676554
-7.338943131169208
9.104957066769591
17.11983224749127
-0.5903308541053199
-23.483358738345988
-40.44529659056706
-39.81515763145637
-23.403611695656135
-8.411652835481911
-1.3066355558198022
-10.910316840994737
-10.487905402453748
9.761094686852699
10.679246088146147
1.5486768848274957
-3.2458004767022826
-22.54200557659499
-32.798023490298576
-7.732733875814657
27.808693218602148
33.57586045365125
3.6847738410947684
-26.676475374523264
-33.459813400750626
-21.958911027372594
-17.85919774202309
-40.28791883624716
-66.24165195662636
-61.60940726004424
-25.522799432913736
9.593067296331418
18.425999098499336
3.559432916533304
-24.626100437096586
-43.75895615515153
-34.933932706368935
-8.709852902545709
14.795942897577229
20.11229574434201
21.191222538873273
34.85129818209839
28.950067349653096
0.28858398362598414
-8.252060221264951
0.24811099242564078
2.9918740739019785
8.873964239249206
23.346715284108214
32.147233342490146
22.50901747188418
-1.9179188269689547
-27.63710190324528
-37.962464667686255
-27.594734898446006
-20.246766416019682
-18.27040287242615
-8.849153708749142
-15.210584803300838
-35.121305798984444
-30.707475370252396
-3.099537130476909
15.957642264800933
11.912050651387705
-3.6631681668223086
-12.8460457180094
-14.529296036117259
-6.433731612584421
11.971279854367376
16.570500270679517
4.479111862185977
-5.542084844207121
-6.39389637960009
13.660471268892229
29.385406350973753
11.692806511542138
4.802516622281771
11.622878321597298
-5.760508438378645
-13.540618308323035
10.921776955599231
34.423430650062585
33.40958752674468
25.275621874501642
37.96858230995393
49.67313833934592
29.907202010974796
3.6748028404320725
-5.249383492284561
-10.532407197482067
-5.916321571999657
17.253335308270636
21.699875135314095
-4.049294239150776
-20.827082484626903
-15.140508786154818
-4.2988287038459765
-8.569771228210135
-19.84311562892841
-19.328699611839845
-23.82367356146101
-13.517947695742393
29.733026350177504
51.27628047192492
34.89900856000426
14.041400258264726
7.452296459213493
14.591098437128151
19.982301149836317
14.456133400433924
6.767476283087802
15.635815253343369
29.17367944514276
19.855127045901817
0.19615144921256122
-2.6526551311289177
8.631248823524873
1.425757101675554
-14.317341967246524
-8.39608192491436
-10.469966587858236
-26.603538102990658
-30.104175513428103
-16.08779248925683
-0.5534862842885175
-14.066419778479771
-28.533202595309366
-15.777276763488809
-15.284939679744918
-21.501319756354423
-2.0803759083956965
26.189557521016123
33.177261633624504
1.874856945528602
-32.35259825411474
-32.324036884815115
-32.13260350706167
-39.455470323574545
-31.721638440833143
-31.53683734338879
-28.36191340659277
7.91302684463492
46.71907367525073
65.73086368861662
60.32817039342689
37.66983166961504
20.85427949906825
3.2228207595215412
0.5435160193832985
13.707688201951742
14.22760228914099
15.648837414420726
13.906605539243289
3.5449439158813267
-5.210141820993459
-14.607081512304187
-2.531818714276793
18.992813798470234
9.115061590829814
-5.042010463559738
3.7146922200315617
9.063261193121983
3.849949987571999
-1.947877500202602
-21.801038795243358
-50.14093107084549
-47.09372697012406
-17.443321919914297
-3.0324558126076715
-8.56814187104483
-18.788229511548803
-20.433096050715804
-16.30720850807916
-21.5459322662292
-22.44712221709033
-14.764393343411271
-10.854382553719653
-1.3366103204728894
3.7440759586951997
-9.600012057315382
-17.04415402778834
-5.36328510627545
8.310220079901288
17.805384239183738
14.946231580202953
-5.975071606944986
-6.026136433930532
25.208317164837194
47.94283135242209
54.22354386292801
52.485992592604894
36.81100571378097
7.129896712905236
-4.918444438314466
10.957040529784733
3.0412273033249817
-26.761742907282635
-35.8794356166058
-32.249435681399454
-30.648294657442456
-32.880143497293226
-25.009738526283307
-9.899740192401925
-14.358074846249325
-14.720327572959489
23.076732371156616
60.47165801818242
56.008533808592674
36.11457168435913
26.94009012614853
31.49087891532906
43.63312809494876
46.991809602586834
44.51077144523262
27.258147306835802
-6.978987466592908
-12.730072502027543
20.372844165076145
44.17755597605215
26.110034876990856
-7.719770151951349
-12.966958450436534
-8.578462183164321
-25.52861005060218
-37.10070442217901
-30.972336104199037
-25.76615501440387
-16.397243050213568
-3.2104354980464174
-3.385715377543366
-6.983856089191081
-4.7914695902315305
-3.1035135149493365
-4.450820681578837
-18.258960292310803
-32.07917686855877
-30.301320155866478
-31.44256709778611
-34.808425509852675
-20.516147038138715
-2.049382618300226
-5.744599790017611
-22.389774550838524
-22.633416264755073
-10.620799667942377
-12.786151684858446
-14.340923028020308
11.077084652839204
31.655175771116443
26.690783596554713
23.54819435166493
25.472796929720257
14.542932418546522
-14.61411005903093
-38.841584101670485
-36.4513907183775
-18.95452268872325
11.556894495203563
33.61224771029104
15.901751079392554
3.202103177832634
22.539792831312763
33.003623651693395
23.23386077032962
2.2108311896199946
-14.518783077102041
-11.134704764557906
0.6269932945452066
14.656071781556783
25.77207986236969
22.23613519966719
7.035222239511187
-5.4626548330840174
-16.20072018254459
-23.813546237713002
-2.2576269013296524
21.958604488154595
9.58900305150104
-12.389446540060217
-23.948274706446103
-28.630120701516752
-24.417737117817946
-9.228971008296316
16.12130906594334
34.53486376499421
29.95824323948473
24.433095078415626
27.07561836856997
11.292117471406938
-6.680061522802573
-3.1109864044793367
1.6463965624200996
-11.546725018324864
-27.31794807407067
-18.318109689003098
-3.9460642837844446
-7.82359088899818
-22.25993053071912
-34.99136539801531
-16.708877131491583
25.097549958473987
32.75340567684033
-1.735880082088788
-26.7761452711589
-23.588380800086934
-19.19183351318647
-20.059171593757625
-13.076075703110693
-4.251545154951862
-7.692151425389645
-12.084405664985589
3.6425188627368814
24.391965510582335
20.389636080423376
-0.5813953224042071
-5.4650280823976
9.741938232197834
20.39599296977504
22.066230090528826
15.925676822922037
5.836590881020594
10.329008692976766
15.902448049189474
19.539044610177065
34.83472910399475
27.4467620090849
-7.804216192020696
-22.724388312392634
-9.438952279816617
-2.8939916682726263
-17.074941363005635
-39.86322890271832
-63.66675454355543
-74.85170570033813
-56.73098482040448
-25.10062102234154
-6.761699917083609
2.7370936519806075
4.68967833206716
-7.2518374918158885
-4.104276096287586
29.506261744224165
59.818165114608064
54.31844064084804
21.97339282688815
-3.9066580849798673
-1.128404127917852
18.516401148083837
19.236315192683527
3.2546947555125327
-6.672124128706965
-9.893427515867137
-12.987527961048725
-15.000012852252873
2.4902700855101743
21.586272558652315
12.567692884302753
-2.9704618815272084
-5.835340586327222
-3.2806759864813486
-10.341702120469009
-21.53453036280963
-17.66698666725573
-3.6843255291926154
10.158767885904695
18.749004857860836
10.605547310449676
-10.486296602257323
-24.65833602296944
-32.538223850285206
-29.189989632505178
-20.56982030921517
-40.65864365131655
-56.80086181423208
-35.63591707032865
-7.741300168540693
16.926881353852473
29.068880295291965
17.542958161716967
2.18672212717915
6.189444361437031
39.343643015453424
57.269808627381245
15.718932532948246
-24.04665265798279
-10.755388111129346
6.905104522059714
-6.634398592040189
-21.62392306598516
-12.60169461366928
-5.22437348281066
-11.183149429876822
-5.193217415392735
6.878018207642531
0.8902105815277246
-13.564605722515747
-21.904012766707723
-21.809664283801556
8.54847694863097
46.57862513450066
33.615145201785296
-6.124640787552129
-17.76386454609307
-2.8205282424872125
2.666573390510824
-10.06145341654253
3.01751487747909
40.383433493470875
45.35325135699828
29.457587764175088
38.13828243141586
47.83402676488684
22.268619942026547
-10.838425206752078
-15.599723427259754
-4.480917842379303
-2.937899858172161
-2.361877245546005
9.248562638467327
6.451413832161263
-12.741580008165938
-24.074733660972367
-27.009271126545812
-14.633196293883072
6.452671875371267
10.591792651572872
9.830033273735035
16.5275374346519
13.334241448664779
4.477569998364654
4.882944510247312
10.54642707653279
12.570890909809426
-0.7550789853011701
-11.600845451332154
4.068836389710675
23.812239268753434
29.43268286838999
14.998482253439201
-6.5724017925995355
-1.2847979489559487
17.741839198210716
21.23222883914906
5.62469796593143
-10.034111250645275
-13.34383919536571
-23.844419486270603
-30.27495743227696
-14.097717519016458
1.1296699950156806
-0.09360501444460927
-11.634509483329534
-12.57193978349084
7.837454413091976
9.569516117314842
-16.22569505993514
-20.61554952623113
-5.057329604975495
6.93483622598126
16.75161882809991
32.196689253882354
43.43568494738913
18.98059986238616
-7.847129733549878
-3.468028435742316
1.685917224993471
7.92330219442879
14.644557160912518
3.4420652668668628
-10.124084120679356
-5.387612996197909
6.28070877964654
-2.232311444201315
-13.108221448253556
2.442424192015726
18.959493370034643
12.541799274674528
0.7912340532389671
5.886603076023121
14.596138472137838
6.97868834047418
-4.130936540092073
-3.8483075346741376
3.7965057245511082
4.909330648702735
1.024040213734157
5.31202967773655
5.73087329627651
-8.540474944854218
-16.628880666663076
-8.961119713443871
-2.5970941993416172
0.8053350328251229
5.057627965107858
-3.106305974695743
-17.502468576727875
-24.501211216707087
-32.234883264814684
-33.837558585801155
-26.381240312204486
-12.53593470315449
18.403751125829086
23.87218131235965
-9.924715641656336
-12.841011308332213
10.466312706953854
4.111914884070413
-7.773513374393469
12.40464172786769
39.301366094707035
44.49067982699052
24.451731342401278
-3.768505207090477
-6.847495967820863
-1.1190879496822805
-10.772212443351199
-20.832176303366907
-32.76378275318358
-38.26342738812914
-22.551226853753615
-6.8149489829995735
-17.222993379945958
-41.366472015732725
-45.419092180831626
-31.158591783010177
-15.079835313693515
-6.2478564216615995
-8.604194393537385
-8.729992552782557
-0.4840312927990791
8.61578595932324
8.78074342194715
8.00382063907697
12.98620085910626
3.0202929869907886
-11.585362990194044
-3.345646857228049
11.365313815497196
8.095606634005838
-2.480647092417042
-2.0671913971737235
-7.221831314115571
-23.401127455571082
-10.983060334775692
23.389504488978737
27.840222156070784
9.049652342212191
0.34945561693107274
1.08318120538968
2.0143998110834147
2.219123535273838
10.287509663513891
22.175395843862226
5.832013727171531
-29.59634192646165
-40.70460494694438
-38.18148289266905
-38.660658459659395
-29.900321374944674
-20.73882036270514
-16.569740707987616
0.14348885290091234
16.132984399735758
4.273492905198796
-7.708495541673653
10.903716526197053
37.20293156860618
42.22083887397673
30.766443437067974
19.925209714074093
13.559853404121482
13.335117482131794
19.7712045143228
25.088186776530645
14.10109957223411
-2.2586878562100425
3.56161042421776
6.716322028061338
-8.837163366354645
-12.733095631576457
-2.200266502835641
5.097997018906358
2.1927314316738094
3.200826789186052
15.036845354707276
12.882266312099384
-1.958339427496008
-3.5791660968096775
10.355160889939965
29.514671687850928
36.54515557279976
24.52002992987882
18.115122277242122
19.769703607164004
6.500736697428909
-2.1054401660248154
12.439658821580828
16.682966991836718
-0.9552537519209073
-20.621684875887453
-34.21414067600686
-27.415320125590362
-8.730034169912573
-5.703776462715336
-14.149212504192663
-22.07831358170164
-18.520781356359333
-5.6857195880080535
-8.289239870820415
-18.05879902812318
-6.096025795362481
16.4043790711914
22.009929355801862
11.848761724830249
-3.661723138329053
-5.691027326149081
19.4266112214258
32.503263602609984
15.23461841470449
