AAD_Filtered_TADAS_FILE
AAD_BASELINE_CORRECTION: BASELINE REMOVED
AAD_FILTER_TYPE: BUTTERWORTH
AAD_FILTER_ORDER: 1
AAD_LOW_CUT_FREQUENCY_HZ: 0.025
AAD_HIGH_CUT_FREQUENCY_HZ: 40.0
EVENT_NAME: 202302060117
EVENT_ID: 13194
EVENT_DATE_YYYYMMDD: 2023/02/06
EVENT_TIME_HHMMSS: 01:17:32.00000
EVENT_LATITUDE_DEGREE: 37.288
EVENT_LONGITUDE_DEGREE: 37.043
EVENT_DEPTH_KM: 8.6
HYPOCENTER_REFERENCE: AFAD
MAGNITUDE_W: 7.7
MAGNITUDE_W_REFERENCE: AFAD
MAGNITUDE_L: 
MAGNITUDE_L_REFERENCE: 
FOCAL_MECHANISM: 
NETWORK: TK
STATION_CODE: 4412
STATION_NAME: 
STATION_LATITUDE_DEGREE: 38.59685
STATION_LONGITUDE_DEGREE: 38.18385
STATION_ELEVATION_M: 820.0
LOCATION: Kahramanmaras_Pazarck_Turkiye
SENSOR_DEPTH_M: 
VS30_M/S: None
SITE_CLASSIFICATION_EC8: unknown
MORPHOLOGIC_CLASSIFICATION: 
EPICENTRAL_DISTANCE_KM: 176.60
EARTHQUAKE_BACKAZIMUTH_DEGREE: 
DATE_TIME_FIRST_SAMPLE_YYYYMMDD_HHMMSS: 2023/02/06 01:17:42.4632560
DATE_TIME_FIRST_SAMPLE_PRECISION: millisecond
SAMPLING_INTERVAL_S: 0.01
NDATA: 13501
DURATION_S: 
STREAM: HNN
UNITS: cm/s^2
INSTRUMENT: sensor = ACEBOX/SARA | digitizer = 
INSTRUMENT_ANALOG/DIGITAL: 
INSTRUMENTAL_FREQUENCY_HZ: 
INSTRUMENTAL_DAMPING: 
FULL_SCALE_G: 
N_BIT_DIGITAL_CONVERTER: 
PGA_CM/S^2: 63.579
TIME_PGA_S: 
BASELINE_CORRECTION: BASELINE REMOVED
FILTER_TYPE: BUTTERWORTH
FILTER_ORDER: 
LOW_CUT_FREQUENCY_HZ: 
HIGH_CUT_FREQUENCY_HZ: 
LATE/NORMAL_TRIGGERED: 
DATABASE_VERSION: 
HEADER_FORMAT: DYNA 1.2
DATA_TYPE: Acceleration
PROCESSING: Automatic Paolucci et al., 2011
DATA_TIMESTAMP_YYYYMMDD_HHMMSS: 
DATA_LICENSE: U (unknown license)
DATA_CITATION: Turkish Accelerometric Archive v 1.0 - Disaster And Emergency Management Presidency, Earthquake Department
DATA_CREATOR: AFAD
ORIGINAL_DATA_MEDIATOR_CITATION: : AFAD - Disaster And Emergency Management Presidency
ORIGINAL_DATA_MEDIATOR: AFAD PROCESS SERVICE
ORIGINAL_DATA_CREATOR_CITATION: AFAD PROCESS SERVICE
ORIGINAL_DATA_CREATOR: network: TK
USER1: GuestUser
USER2: 
USER3: 
USER4: 
[...]
-0.9169714773197869
-1.2417384926590387
-2.1504012468336997
-3.297655828194974
-4.389456943774976
-5.942621711326539
-7.829550590474228
-8.554562251478266
-7.290379896021232
-4.726761935832429
-1.791530078821826
0.6543264037527173
1.5025527735596074
0.13265760606674046
-2.739190550288712
-5.648979254360389
-7.496545770500594
-7.770110465166413
-6.727489766649594
-5.5671677657977225
-5.637390542126937
-7.166077429010993
-8.780400608274642
-8.885089144957895
-7.404603301422225
-5.402510387575049
-3.724028721328526
-2.6233172562042335
-2.0667472886258276
-1.9124778855502684
-1.5594565248061312
-0.12312432240087888
2.2523733790448173
4.508794615862832
5.9759029141608275
5.823531493113779
3.2291600471888686
-0.42293710868682327
-2.5896209750039025
-3.0292503924729797
-3.2808022127450953
-3.791755676282735
-4.062541624534864
-4.017482139197281
-3.4021945538524867
-1.7428804779926939
0.30386413108905147
1.551099534329946
2.006686046482002
2.3932836921286587
2.446543992985084
1.1432713632255356
-1.3079403510730847
-3.345742360312676
-4.231437372926176
-4.458564828743759
-4.299511654060232
-3.887011008581056
-3.7091243774670817
-3.7299485560182113
-3.3442405311391132
-2.4810805650936083
-1.798930728011557
-1.8581703477005367
-2.416684531635273
-2.9619221863574103
-3.437143253699607
-3.6225440288952697
-3.1408772159712153
-2.489587836442544
-2.360088524243725
-2.0434921577399106
-0.45152612117447205
1.3153329914713217
1.4114742045093345
0.4434805854680167
-0.5236840537039342
-1.824035151922972
-2.7642341200956118
-2.176387635674469
-0.4474761611105476
1.9179062220249545
4.572810608682298
6.410953414660328
6.934195506032544
6.995906354158535
7.327093031091872
7.4768989410934585
6.865426639952477
6.012810414942106
5.513566866074136
5.202779365913123
4.93814504293247
4.517526214509263
3.5827652057949626
2.3309732524273885
1.3493546323640524
1.1216291123121402
1.6636577556915277
2.378141862953057
2.7348337715592463
2.7143197762790545
2.4270023342339773
1.6473716495060509
0.10313793232298113
-2.039670291968728
-4.789295989723159
-8.141343009963856
-10.72006365491557
-10.980261968193986
-9.561741493589532
-8.169507648952269
-7.365723880034923
-7.250899939327947
-8.301854931426583
-10.342121466274522
-12.405253029136691
-13.695872038374588
-14.047692861066887
-13.997009143281327
-14.155718261543678
-14.223790847152204
-13.178673056520484
-10.691964718901799
-7.718648142358453
-5.279873441468086
-3.8405028164345616
-4.082823143480621
-6.37995632069233
-9.527175855055775
-11.799238247793102
-12.541887094386913
-11.678811103890608
-9.555762170143286
-7.603588214808869
-7.410548573213022
-9.387744323308588
-12.25319778620573
-13.672081465557785
-12.919877591460194
-11.38363560018314
-9.146879921499963
-5.316163296539299
-1.709769709587459
-0.730151189693053
-1.3703069503710683
-1.5130578512792483
-1.1284414392110151
-1.1906783347617833
-2.141090756392821
-4.029126547346949
-6.555667272934264
-8.980765751488105
-10.606654339202096
-10.781545375674284
-8.927745936089329
-5.376113772859193
-1.4483102403524803
1.0596316428991979
0.7809229784925571
-1.7735749218182821
-4.602620339632167
-5.816559287020849
-4.35131779820988
-0.6661926277190406
3.5890388157551683
6.9944181176871565
8.200762420327564
6.314042967896434
2.9731703209683737
0.9861590979254017
0.6706445922574618
0.6286554614899791
0.7994777894205534
2.012329449411602
3.8929591821960807
5.3360782369775865
6.153747484010887
6.591682019543049
6.673956779906309
6.878708470852532
7.294379373639689
6.514456312205358
3.064705175198792
-1.9122943985799594
-4.267544519181158
-1.7205209271636142
2.8195386300278824
6.181708751390804
8.648314021469238
11.001780046339121
13.052747759419198
15.134005361109542
17.650251794440514
19.81306348587543
20.83794039852157
21.502143916496607
22.619938022746126
23.087885770553076
21.837467529835287
20.637331742946706
21.89406893601939
24.596685736274836
25.85170202256245
25.429606237909802
25.4773019908155
27.042912970393992
29.651904708400163
32.42068134597794
33.987486656079874
33.72542952725987
33.051163332940384
33.588528816389655
35.11074016437295
36.320025177432385
36.69169268948444
36.84354203164126
37.4663865284549
38.901020783157975
40.9191348074766
41.78663926019508
39.93601993401283
36.64981343665298
33.783668995144176
30.802224680761604
26.870199758056913
23.18489720590351
21.668481424632187
22.453178390652397
23.57321992907821
23.564806088963508
22.918600603948086
22.51009467367833
22.33965983959519
21.876800662361894
20.7740703868172
19.074593108668022
16.700012756206508
13.532359528614428
10.260943191655686
7.78100272844086
5.744380887826015
3.515180966347403
1.7965568866525394
0.8799058044895935
-1.0365136503827677
-4.877777647097261
-8.247424381201396
-8.964605378967251
-8.426097103554842
-8.596204019175259
-9.190290975554518
-9.850924610829235
-10.994430586107137
-12.158419795666958
-12.730642733730198
-13.233880767249902
-14.01083827188717
-14.319636240839829
-14.102906310379458
-14.303657937979347
-14.52899054432622
-13.451318768808733
-10.861131192912262
-6.847572510470901
-1.4751963137316249
3.6584623629934656
6.410464801277656
6.5366947941076345
4.888596189034923
1.2109096535757156
-4.516930228607529
-10.190260911499314
-14.222682392394411
-17.489721324453217
-20.337631167390345
-21.377887689356967
-20.39930688984272
-18.81673517971311
-16.87689211130179
-13.889087787972151
-11.173950437290134
-10.738999069885317
-11.736218024405478
-12.021102441757437
-11.100550832164751
-9.174393588295606
-6.0948989782128615
-2.331592751512659
0.735055741126891
1.999408276835085
2.084601194949364
2.5771974780347007
3.337933064246267
2.881093959794369
1.1137082714937763
-1.2086312333953086
-4.397083336011991
-8.71018059211013
-12.806872653919847
-15.317332878281892
-16.816898856895442
-18.536016157440017
-20.246450896096572
-20.707131757704968
-19.58683322372474
-17.96345459117172
-16.37033253414941
-14.013132095173576
-11.29390919717831
-10.245304284904398
-10.833269803131893
-10.321126998304775
-7.594135243080334
-4.196978769912434
-0.8832776605297527
2.794952734509701
6.289669372450721
8.316700907756914
8.476262889124355
7.311671881653132
4.958892729570258
1.1324014466490493
-3.200689282430948
-6.224915929018975
-7.639595361271575
-8.730945767574438
-10.319367844605909
-12.181341884079853
-14.076137139598407
-15.912541732591299
-17.20416170086707
-17.406961789964445
-16.620311921395214
-15.541968229562354
-14.708333288607426
-13.99840972126475
-13.04738444314953
-11.345841189964595
-8.289815379511733
-4.431955111646099
-1.6194979526599775
-1.3825944772179686
-3.67518610001348
-6.859163974408504
-9.904653348299348
-13.322838319777816
-16.58730111440488
-18.12294336096198
-17.91661325590137
-17.306658072373054
-16.797246464849664
-15.419844126551759
-13.046013348202447
-11.468093455124553
-11.682553292718229
-13.053374705397077
-15.299915723907791
-18.48416759155316
-21.165672596934932
-20.929138801143438
-17.746581250211104
-14.057974350240723
-11.001372968218345
-7.829359854966991
-4.48813393982136
-2.307771176582138
-1.906503971954098
-2.01310201710773
-1.9738640202979414
-3.028866139035347
-5.282369766041448
-6.526211221355645
-5.384250439433719
-3.0828853611566185
-0.9875553068442074
1.1185297759025672
2.932881758956305
3.108963420456665
2.1700078947765746
2.6171483712773025
5.235431726521838
8.03725363164749
9.569925432453589
10.545574399614871
11.3546111488554
11.250105027826068
10.94770890189837
12.377157250616856
15.137944306864005
16.68664510449409
16.068325760682487
14.463782163832292
12.685817291921127
10.850364159203796
9.966553194825623
10.862703678659704
11.843323908535378
11.025079941113583
9.742070695286428
9.711383583732403
9.97184864114262
9.904468207087543
11.074917458826167
14.061319359699006
16.744603400642312
17.061511556367982
15.575418813097057
13.828752268640375
12.111341261577115
10.322284094593456
8.682531780020993
7.042334951867387
4.847059166830112
1.7543973783009172
-1.645917935444157
-3.896653149366323
-4.0590727424346005
-2.8772056802024872
-1.8008756589469728
-1.0864291721980304
-0.10570405739834306
1.2157104572688338
2.3873678717091815
2.909386993691125
2.7419599591229407
2.618872465106888
3.377830480486767
5.0942065575125115
7.138757935637651
8.80595536082347
9.854847019110945
10.159018686504606
9.490200997951215
8.509752522877275
8.078593209873157
7.796408415677747
7.619006094884018
8.705865937329436
10.908039825163138
12.396563581764273
12.898781099011634
14.031347486120548
15.625588970250336
16.131109438247677
16.15393666657495
16.991068706782002
18.082579623967913
18.36867821612992
17.897857614590517
17.795967983380045
18.45897244200996
18.833886389031427
19.08848692306868
20.143261756910444
20.26328441118355
17.039256241874938
11.511396788799445
7.098212252114738
5.629629979671639
6.392926301546663
8.167313674535867
9.999793052812029
11.113812531809728
11.347493405782455
11.230339469263908
11.99179199513275
14.198767538748486
16.70761421095084
18.7917777903711
20.919969578082704
23.099729972445157
24.921153484213722
26.335018934596906
27.866029431651423
30.101295989764054
31.719363068844658
29.965185368421135
24.912153859903515
20.048865086151647
17.349198320302925
15.455776461296551
13.438108578833226
12.522145638644362
13.223675474501094
14.12326624827514
14.18693326779203
13.51025322178252
12.009698090929911
9.758970079101651
7.899651536324458
7.632959779011619
8.862360904411371
10.637926416635786
12.294482743736591
13.48159369597527
13.892219578579153
13.475724701632716
12.209207457657367
9.840047290652302
6.723637075294834
4.199883934632173
2.795018582409119
0.9930742321110829
-2.7325749563703154
-7.753916812197381
-11.953498251011297
-13.393319783538614
-11.432327535334704
-7.409753310061127
-3.8908487670880043
-2.3327051435772765
-1.9232089233425813
-1.1940154892329269
0.4314153233148678
3.1825737882765157
6.886302142870676
10.139686781694781
11.880544509775609
12.909026014718094
14.379691670953237
16.34325945191899
18.29892799938102
20.3356262902937
22.92939370572748
25.462267389073556
26.44727546251391
25.627809028250997
24.38134909355117
23.42393601442541
21.791176608422976
19.502670866047794
18.753799616356
21.05467980114097
25.73311950164387
31.026979431757194
34.845200263285605
35.84930190569955
34.62204794260954
32.72312014244684
30.80646220597335
28.871268708199413
27.5493111887074
26.90281992081712
25.35922553582711
22.352448055136666
19.681055774235084
18.82597990798925
19.67329363794349
21.745392197658983
24.212184493312847
25.869839429654345
26.660413906329573
27.335449236523523
27.660987296725118
26.86522728483354
24.603192345324295
21.072484224975522
17.26014913310714
14.041990448749724
11.344017410434626
9.233131210187308
8.37506982057903
8.494442167431552
7.956524449058911
5.909207343803825
3.470621352541326
2.155727711753263
1.9881811963395635
1.7001196364790307
0.7291419777273728
-0.5198617773598443
-1.94105944511231
-2.886182488801649
-1.764562310429172
1.8844402588574112
6.430448414758402
9.526216614913215
10.096803045373345
8.59890774614198
5.544425776502312
1.6482199738894718
-1.0790445902171295
-0.7097247143301406
2.043840030363715
3.7499873273117115
2.1562718675284063
-0.5594641164893872
-1.051457808478141
1.1191779741478443
4.918982605454982
9.265251365391558
12.477037109911835
13.099957748597092
10.960994515866227
7.806865447717768
6.653357756132107
9.249883582530963
15.00563791057145
21.52430451750952
25.48989622852947
24.990431481292944
20.999636250870505
16.249098086454243
13.106262154732804
11.24105883051116
8.506240966273563
5.505582940466632
4.530248235187629
4.164998202443882
2.0506750975833152
-0.284380322988193
-0.770815474914812
0.457111429445846
2.6778147606768337
5.016887773569738
6.956751091234405
8.728230099914345
10.787993461669801
14.330292770914959
19.724775906663034
24.3851782165438
26.19517290202212
26.61812303247652
27.159612223539987
26.81547204655143
24.97619427711176
22.953396326718156
21.748738767716322
21.009438060966037
20.278419308095057
19.438231813447565
18.39456088595859
17.5448391523568
17.562936510744535
18.32524645950925
18.7801209167051
17.44410622383809
13.076076260480521
5.871571022138739
-1.766303262505374
-7.0296137520952025
-9.763224193231379
-11.777214012852012
-13.53199873451617
-13.868415830807631
-12.820463255903032
-12.775081350132117
-15.85145339797046
-21.50129493463655
-27.282308661091005
-31.18524411712349
-33.708703531253256
-36.89613042039866
-41.46671648020511
-47.05021333723738
-53.34914123859607
-58.704657721644885
-60.44888851157844
-58.94034660788452
-57.94522610588588
-59.391930944738995
-61.36149266131029
-61.95833257866919
-62.34206959045406
-64.35001820108906
-65.80286432272446
-62.64695571061943
-56.41326429643557
-53.00680652563754
-54.18247739908845
-56.19394126874247
-55.6539891497449
-52.79912541345086
-49.63865235333599
-46.878621714418976
-43.63404997226431
-39.39222472105324
-34.628210142346006
-30.174722228416037
-27.286723303230797
-26.765523276210473
-26.610022030692043
-23.128021368793423
-16.409824284849126
-11.107801280916524
-9.5170427858189
-8.870976324079782
-7.2011224557218325
-5.216453490971041
-1.4141033225649655
7.001130949495251
17.883886950655437
26.00313064491949
29.978976311760228
31.349324449563063
30.26708401113035
27.47520320106688
26.34709176371978
28.72196291105126
32.49091351962406
35.52030008821273
37.44681916439463
37.494637273190165
35.58343817834245
34.25435557996224
35.93094509408669
39.77568403298434
42.587024498025045
41.88172421438662
37.86069448197602
32.17315462219872
25.7025042092603
20.431228371357854
20.15956168932746
24.59369357539048
28.744451732549145
30.67085132386451
32.64884830943626
34.61743186786867
33.01601435144082
28.08386432225393
25.34391871403989
26.18310049990658
26.502313243175294
25.244495216391012
24.250078434688433
23.44854512635487
22.356667134190577
22.116531444589253
23.758714411966587
25.96287719885345
26.308842960803464
24.878286051016254
23.35942610426012
21.22107341566732
17.062714755970838
12.234430863407804
9.378891029072388
8.54295049303063
7.654850987114834
6.45468049492508
6.26798207576535
6.516666077657136
6.181138070446169
6.07102085877655
6.365520625431592
6.598339383841227
7.618673399047021
9.425562639422536
10.353806473407438
10.183293512718132
10.462608489954434
11.616962158833529
12.891777139489609
14.40368624536853
16.120149393803075
16.479111022974976
14.345399681109035
10.56865853602187
6.370952007354055
1.3190922314598268
-5.138056742152448
-10.945321055771037
-13.463743506107955
-13.415686697129711
-13.894149512556309
-15.761904147716766
-16.544167082187702
-14.615600473834057
-11.817519048377381
-10.3653205829982
-10.21126325531318
-11.476713224671194
-14.74307017103181
-17.66378804058706
-18.07906798096761
-18.133273478289507
-19.32729396115677
-19.664099287573375
-18.087105128718232
-16.09624597819637
-14.90938981962305
-14.161178590189593
-14.253627706983643
-16.273627031019885
-18.476194972519306
-18.80754155660113
-18.83869029481407
-19.68301794354364
-19.57907197069607
-18.138950211781044
-16.922531495739033
-15.22772886631611
-11.124626687105888
-6.621233171225165
-5.344239964090163
-7.28045204148795
-11.157510908722324
-16.226135636970536
-20.19660206332661
-21.344731226290392
-20.213320705185186
-17.3614474936524
-13.36909417624879
-10.059819520503925
-9.092003547644577
-10.52052296046498
-13.366401087285313
-16.65445706785215
-19.979841113019738
-23.764546855200994
-28.890109918320086
-35.08299099543226
-40.408231356450585
-43.68953184092336
-44.631974008773305
-42.531922183474514
-39.050201311847594
-37.596665181818196
-38.69075730404931
-41.37135994463671
-45.529189770314076
-49.59305700077348
-50.58892023460378
-48.00283810970129
-44.88651534137678
-43.54140469649772
-42.87563995586534
-41.845172239058925
-41.25848970042982
-41.365573608582324
-41.34055948981826
-41.12196516502404
-41.85919690913288
-44.0284862690365
-46.609217002877514
-48.63883536354745
-49.82957433449818
-50.59057768835564
-51.7033947159412
-52.71190410690708
-53.0618040117699
-53.88440892217201
-55.2561171866529
-55.325174426659224
-54.10771522205472
-53.53415617783528
-53.78922213516527
-53.041943057827424
-49.78218584729468
-44.37879727111179
-38.497037475059216
-32.936324661508294
-28.083449851758456
-25.185722076191716
-24.532136756797666
-25.11284023564113
-25.965790180221468
-25.675568804802538
-23.151135819902702
-19.1284375502703
-14.938508188064686
-11.036122920199865
-7.436743220768896
-4.577590144080702
-2.641044503124804
-0.6001840085012173
1.6855772233230277
2.1338234917554293
0.07600109382859091
-2.014177540187399
-2.193753811586694
-1.103512875078304
0.44866935865640006
3.4712260692347416
8.266091590002421
12.533096180834232
15.216138488221352
17.636897458905185
19.86611342483537
21.638488315281627
24.063799408213733
27.292101826921648
30.11039774413998
31.897329865780517
33.34130025277674
34.774091870479204
34.670907016607494
32.351011182303694
30.137911939626207
30.275991296979228
31.6629426747636
31.563815428112896
30.208365521046886
30.27569705152506
32.26840050404248
35.12518745918308
38.85626305261751
43.18579003228147
46.362019670904935
46.41359921834985
42.83721534242626
36.89606771893226
30.58939564632913
25.858875704727215
23.851375750660658
24.206466722169267
24.80176164236455
23.199136185382624
19.821904445185602
17.402919286981327
17.23960454391263
18.702095956820855
20.245694320017524
20.300997795898777
19.03848986842175
18.12253673008526
18.88221015300204
20.653528298217566
21.35087707598573
21.30011123927068
22.548141973140275
23.93069364067548
22.506259229980277
17.93083757354949
11.590747569558014
4.670139697174522
-0.9689480738628898
-3.458284463534906
-3.545900154027862
-3.453603270073579
-3.4958687512961517
-2.494411473339521
-1.186869213456909
-2.558416883047634
-7.0960343575665865
-11.357823834863389
-13.451289079259928
-15.019024970468664
-17.283326451763134
-19.93291642191165
-23.178434068110437
-27.099511218795858
-30.01650286321518
-30.794475609761953
-31.119226657983116
-32.482233186320826
-33.60005185829946
-33.721169801594584
-35.07540455105836
-39.069678262800345
