AAD_Filtered_TADAS_FILE
AAD_BASELINE_CORRECTION: BASELINE REMOVED
AAD_FILTER_TYPE: BUTTERWORTH
AAD_FILTER_ORDER: 1
AAD_LOW_CUT_FREQUENCY_HZ: 0.025
AAD_HIGH_CUT_FREQUENCY_HZ: 40.0
EVENT_NAME: 202302061024
EVENT_ID: 13207
EVENT_DATE_YYYYMMDD: 2023/02/06
EVENT_TIME_HHMMSS: 10:24:47.00000
EVENT_LATITUDE_DEGREE: 38.089
EVENT_LONGITUDE_DEGREE: 37.239
EVENT_DEPTH_KM: 7.0
HYPOCENTER_REFERENCE: AFAD
MAGNITUDE_W: 7.6
MAGNITUDE_W_REFERENCE: AFAD
MAGNITUDE_L: 
MAGNITUDE_L_REFERENCE: 
FOCAL_MECHANISM: 
NETWORK: TK
STATION_CODE: 3144
STATION_NAME: 
STATION_LATITUDE_DEGREE: 36.75691
STATION_LONGITUDE_DEGREE: 36.485742
STATION_ELEVATION_M: 843.0
LOCATION: Kahramanmaras_Elbistan_Turkiye
SENSOR_DEPTH_M: 
VS30_M/S: 485
SITE_CLASSIFICATION_EC8: B
MORPHOLOGIC_CLASSIFICATION: 
EPICENTRAL_DISTANCE_KM: 162.37
EARTHQUAKE_BACKAZIMUTH_DEGREE: 
DATE_TIME_FIRST_SAMPLE_YYYYMMDD_HHMMSS: 2023/02/06 10:24:55.0049990
DATE_TIME_FIRST_SAMPLE_PRECISION: millisecond
SAMPLING_INTERVAL_S: 0.01
NDATA: 13501
DURATION_S: 
STREAM: HNN
UNITS: cm/s^2
INSTRUMENT: sensor = ACEBOX/SARA | digitizer = 
INSTRUMENT_ANALOG/DIGITAL: 
INSTRUMENTAL_FREQUENCY_HZ: 
INSTRUMENTAL_DAMPING: 
FULL_SCALE_G: 
N_BIT_DIGITAL_CONVERTER: 
PGA_CM/S^2: 59.115
TIME_PGA_S: 
BASELINE_CORRECTION: BASELINE REMOVED
FILTER_TYPE: BUTTERWORTH
FILTER_ORDER: 
LOW_CUT_FREQUENCY_HZ: 
HIGH_CUT_FREQUENCY_HZ: 
LATE/NORMAL_TRIGGERED: 
DATABASE_VERSION: 
HEADER_FORMAT: DYNA 1.2
DATA_TYPE: Acceleration
PROCESSING: Automatic Paolucci et al., 2011
DATA_TIMESTAMP_YYYYMMDD_HHMMSS: 
DATA_LICENSE: U (unknown license)
DATA_CITATION: Turkish Accelerometric Archive v 1.0 - Disaster And Emergency Management Presidency, Earthquake Department
DATA_CREATOR: AFAD
ORIGINAL_DATA_MEDIATOR_CITATION: : AFAD - Disaster And Emergency Management Presidency
ORIGINAL_DATA_MEDIATOR: AFAD PROCESS SERVICE
ORIGINAL_DATA_CREATOR_CITATION: AFAD PROCESS SERVICE
ORIGINAL_DATA_CREATOR: network: TK
USER1: GuestUser
USER2: 
USER3: 
USER4: 
[...]
-0.2863593748708747
-0.4747526208829778
-0.8490187684055637
-1.8090980867923494
-2.560870319050436
-2.614771461707222
-2.083162444629611
-1.5842844189302174
-1.570941740846289
-1.5064629032274757
-1.1923365161995683
-0.8939293989016077
-0.7197899365211194
-0.8491389860744304
-1.1686028670411712
-1.5780852418942881
-2.0998832273117056
-2.5626218534199015
-2.912867706706845
-2.97438218337146
-2.5524972776192065
-1.7977894443713403
-0.9238587416081985
-0.06483818425508041
0.8418756725878179
1.8267591512992891
2.5366034034467897
2.5013166445904194
1.5887517588879776
0.24451226009015545
-0.8838962106298912
-1.5656631486395156
-1.925746430538718
-1.9159986885734166
-1.4536824838793816
-0.9076558977799369
-0.6116416027987941
-0.38422722536275783
0.03606882147277453
0.401544027549098
0.2602327098921603
-0.07446960194433754
-0.01659318981701513
0.39346762438709165
0.8606435635929567
1.158530974386306
1.2204992900584095
0.8402791155021488
-0.08321523725808638
-0.835287168135958
-0.9082919050495396
-0.67291683542645
-0.793839945417026
-1.5571730297269184
-2.3224799887996777
-2.547996587235724
-2.297483428004855
-1.6070071495378124
-0.8431745551727188
-0.4085460844894539
-0.36143763084759717
-0.7088367335935915
-1.1323593782754091
-1.235071915767327
-0.9324981468694407
-0.38000784495536033
0.12026234619196656
0.4353456232096894
0.5456556860964968
0.40062170760143545
0.07171199340504228
-0.2994022356254692
-0.6349489669325459
-0.9265954769525501
-1.0575334971910464
-0.9367700030425649
-0.8222613596768924
-1.111849480984111
-1.9792864510125863
-3.1047130957619267
-3.864732807779803
-3.9215771504641763
-3.4597915160201045
-3.159680679359567
-3.5945446974365494
-4.64479869085499
-5.8426988297451
-6.669765200501127
-6.729776580193195
-6.163616253320037
-5.587814439782496
-4.910356722318994
-3.064123693020024
-0.24010001245441204
2.030787698677017
3.218661388578125
3.820215219539592
4.403907547992828
4.803434902814011
4.447975711640315
3.695204054942134
2.826549070262723
1.8815097618781587
1.5104723037328738
1.7001640238751314
1.7991162943327905
1.458322362418923
0.8585994279444498
0.6280995236257249
0.7932056437221384
0.9965712196807219
1.1704758096887766
1.1856012474355673
0.9999881744459074
0.70510692508272
0.5523716994070229
0.5594307977581281
-0.021782329301562996
-1.5654497220582957
-3.4474857794078346
-5.031485371789186
-6.1956359648598855
-6.84011149198512
-6.636706395163409
-5.778671314944134
-4.924925397375674
-4.2718789540480895
-3.5930879625548084
-2.865337647566669
-2.4777531434268663
-2.612197069032342
-2.9021423084902884
-3.0236202660403144
-2.996999828311187
-2.9508825595712187
-2.6871263926129987
-1.9245164470755887
-0.9109339222248224
0.21280062778780642
1.7963122199562311
3.8913745060549263
5.917601508441788
7.04927339526153
6.881004966985435
5.71108473465371
4.237713918283809
2.9831667892424263
1.8051241707345644
0.4578272487640738
-0.7155588037684719
-1.2570524701927628
-1.2247053920513404
-1.0733678384993672
-1.0100581738263221
-0.9396942178652757
-1.049606560763082
-1.6181337812224268
-2.458908789794764
-3.078123745083871
-3.518453099312011
-4.368776352262636
-5.19745379194191
-4.9920896420006935
-4.1248417632960415
-3.4405273471810203
-2.842563442087492
-1.8700453802735655
-0.7291503934439764
0.11144712855683703
1.0664366725085639
2.0318808272939797
2.2681139339777743
2.1962151260269867
2.1558003046969523
2.19698986350452
2.306270187040364
2.015805678206477
1.997384182729429
2.4160787170435847
2.363196073949707
2.1689937741936944
1.8541957726825122
1.1376807216382858
0.2268472595165047
-1.1705933575879908
-2.5488072371446577
-3.2695895750589368
-3.606497708363455
-3.547063362918417
-3.378249955960721
-3.3649184893435073
-3.1670961238078017
-3.152617947893824
-3.5341205713224007
-3.7805354455278084
-4.088891143541419
-4.571341606218956
-4.903099231349647
-5.1447620523697575
-4.815868878032306
-3.7836658533596914
-2.483952809967072
-0.7334819663918557
0.7975436632998281
1.616528322277107
2.452149747928435
3.3125982495878534
4.025593659318682
4.370314642021038
4.208459778883538
4.249758031232404
4.37457415068306
3.951920523104402
2.9699759850836105
1.6743208430911851
0.676527632005332
0.23165865533416555
0.13057379103484446
0.3089923552236748
0.7321052316189259
1.3835295546190802
2.1239822023455366
2.617781780585538
2.429767108780161
1.5657666579907814
0.3540090094492534
-1.250624491335781
-2.984075007303759
-4.324314056347304
-4.906249675239745
-4.609088958086382
-4.036314004662236
-3.3752785339046834
-2.620322718472769
-2.586266022154236
-3.3500979497472456
-4.290951238262779
-5.183815400231586
-6.070751843190813
-6.990871889783669
-7.465531534732071
-7.355290132711461
-7.208225797633061
-6.910943344848024
-6.032986708056421
-4.698350239305153
-3.3677497619459205
-2.3503834403278394
-1.517013933203238
-0.8070155293937241
-0.4106960630147055
-0.29966149391182906
-0.23990923086635152
-0.1870205294048987
-0.35349091874359023
-0.7619406786881452
-1.1687515257009566
-1.381626884718258
-1.3108322405145452
-1.0411167759157052
-0.7601614382590682
-0.44449914414607605
0.055386558854561334
0.4806831048715271
0.3724241832189777
-0.14529412090175378
-0.6805173238019571
-1.0078861449972978
-0.978683047428473
-0.8056973713128258
-0.8369128542855255
-0.9596022841831878
-0.7332258976533914
-0.11988623590241229
0.4056064043876553
0.6604556649708379
0.7112799710067103
0.4820092559460805
-0.08023709493951788
-0.8001768850093262
-1.1169149447986735
-0.9479035078250406
-0.8681319075886957
-1.0212648665833575
-1.2555705172303766
-1.2143835532794667
-0.517366953761918
0.509131860094089
1.3827492076441918
2.02114364566656
2.7598338657913857
3.8284396319310887
4.807857758503893
5.447992167106492
5.75673769511486
5.616769091357211
5.191271619276065
4.66668819153591
4.022505246693384
3.044420319627929
1.623537056664631
0.3948736526510472
-0.03543671819595515
0.13039653195955625
0.5144832232783512
0.9827658733957314
1.5309169096583992
1.9611481249307523
1.7955541517119122
0.9052552374033629
-0.28010039745737203
-1.3163028223465072
-2.094898261706236
-2.7210266701420336
-3.123770626164692
-3.0997162880968294
-2.5288310432737857
-1.3510689210739413
0.12773183308119712
1.439181001921756
2.3162850262055263
2.639796417838659
2.522984900280454
1.844220858930768
0.7532748147382443
-0.08385834016551293
-0.7699824851053005
-1.2967342518761529
-1.3793611450380345
-1.451342723954671
-1.684456370876741
-2.0740243605698114
-2.0713264329471666
-0.9800864661106288
0.1621616791940188
0.6694858702083164
1.0098354233664604
1.1121075540003218
0.7765444682348928
-0.3463825761612502
-1.9707224821180205
-3.0870493023390027
-3.6776846702079435
-4.056532332015806
-4.298297220821629
-4.405697586215982
-4.194975989885772
-3.8680802885737706
-3.6401862068151876
-3.587327676582326
-3.863169508310353
-4.300086492851537
-4.575581972966421
-4.348102375136328
-3.5691022276431106
-2.7036784505682148
-1.8994215534559098
-0.7063950728877366
0.8981963920094865
2.243838346330077
3.180121764803503
4.179695963107098
5.313654033394971
5.9422459270001715
5.533377670370097
4.68986282613771
4.049983446489999
3.444204029574027
2.6590460437168235
1.5730130239700322
0.7021653769743489
0.39159728328687027
0.02503447165404499
-0.45096800129638576
-0.9068690006245707
-1.2754498910201164
-1.1537632050418427
-0.7626990752795908
-0.2838277991517623
0.12668383248976792
-0.02083039011999404
-0.5398729161611521
-1.0442141557527354
-1.236002416860298
-1.1286631321125353
-1.295374108831139
-1.6545609342425658
-1.7231514326382527
-1.4575806629194268
-1.0656065881252683
-0.9151879317107884
-1.015786111375371
-1.0011927227910915
-0.8341265426563322
-0.8282293418740359
-1.011253343509286
-0.9390585817519671
-0.32194750079217177
0.8686939386271498
2.5182017371960383
4.209604987999291
5.5237078147300105
6.160532762045165
5.99454968052178
5.233632374686685
4.17554902770566
3.1005668730370988
2.329107095195967
2.157768705962863
2.628806294857574
3.418363359002687
4.171392208804389
4.802251049522814
5.4946242782398755
6.411892071488568
7.457738485318552
8.222341129859975
8.119456196361266
7.096397640996041
5.708884757090984
4.300852391447291
2.8683259722786745
1.462760680262319
0.40532665299909104
0.06408444183450397
0.45366736984792444
1.0815378780075209
1.2698492684695368
1.0084864178456143
0.7759132117327554
0.6177768721071516
0.21160447785499487
-0.6968485979856046
-1.7330360505820264
-2.3432986697866345
-2.754123590681793
-3.415643350038997
-4.69828329370742
-6.422247036278839
-7.835694313729193
-8.94520183130835
-9.840197149040618
-10.467070625961595
-10.86553584094428
-10.581950501628322
-10.144710641835154
-9.892982810475837
-9.0147707900035
-7.881284743100507
-6.818050950225036
-6.032332972819352
-6.022409787283373
-5.835953282925571
-5.442569130407758
-5.4528431252967815
-4.957324910671774
-3.5855861959726907
-1.639353556782158
0.29068162812847753
1.7327267998994629
3.343685927560482
5.183408554089186
6.737376512464488
8.182038160638625
9.713601247295376
11.00706465919043
11.168252997546558
9.731928034100164
7.561145479970793
6.028411588236342
5.421780757953091
4.998815529804468
4.498970463777008
3.6477419833469775
2.4294923927456193
2.2036774475298526
2.7682628540876455
1.4851132259710444
-1.8426526272476673
-3.956122384357586
-3.9681338744431502
-4.931867603162215
-7.379820443771846
-7.3180169411538945
-3.4969301623877915
-0.7307745927227615
-1.5590816975841333
-1.7300335174614232
0.5947763911234644
1.6284899146523095
0.0570988871005107
-2.0328236122191976
-2.7942614105407366
-1.7678656290366768
-1.3950876387802393
-3.128433793066125
-4.116926042931906
-3.4309578375463397
-4.078506162121474
-6.473073770613486
-7.299724583197497
-5.148310261558516
-2.9381551476881045
-3.798198434504291
-6.709808816032197
-8.471233918525627
-8.645752006777503
-9.286508940932766
-10.380099710491804
-9.730060283886413
-7.5027702274616335
-5.972104213328928
-5.027732306998272
-3.213794077828013
-1.0020177695205519
0.8447248359935742
2.6328930979352414
4.491578188911425
6.1377067115048245
7.57254383928575
9.210360081318866
10.667358930788714
10.651313894275876
8.993154376061472
6.891612962797852
5.285576148368059
4.167961056951368
3.310902899615504
3.200165038228055
4.05073987127875
4.826083103687703
5.025045143663624
5.338713863775977
6.066794722735327
6.839165116143001
6.88162284896428
6.186834098414844
5.977237885455874
5.853987376131726
4.5368154346554395
2.6887849236621166
0.8708560060621029
-1.1589296685390367
-2.9821750357594348
-4.370746569371694
-5.412414866470947
-6.146426117671666
-7.092817776458944
-8.075506854728507
-7.7082894379673865
-6.087379934550446
-4.617971620053377
-3.2643982267659175
-1.9748653730373653
-1.6063260116036775
-2.002077220412862
-2.3598545633792
-2.2809461385136256
-1.8067322310718785
-1.1292511504090657
-0.31673721603922245
0.2632961687935706
0.31334252197339363
0.3393490099400807
0.9007375608773928
1.3176188784347849
0.343681148833422
-1.4980791370705355
-2.527178929374446
-2.8619471913263737
-3.9902324614065097
-5.866847631407517
-6.944931130743971
-6.889158347297607
-6.832768200034947
-7.122288071311556
-6.920083565811101
-6.079105677522879
-5.951158113951288
-7.279037790983718
-9.08621152355728
-10.577998878652117
-11.82086368923553
-13.157389713003933
-14.613644219179434
-15.566989237862003
-16.068086846631584
-16.48620127569772
-16.024646073175205
-14.052150475721753
-11.314962733375303
-8.762050096227933
-6.333269511395447
-3.7734075823452393
-1.0245748108567088
2.134633994904065
4.989666898360694
7.1962390251016775
9.703540903722411
12.366569410381825
14.758929493276266
17.355918106227897
20.212487597846245
22.95479227130774
25.374675378756727
27.49023098996514
29.037982699865182
30.124519293453417
31.382009533647516
32.16902909523524
31.904875307665286
31.23192811867504
30.16606523044677
28.222950441093076
25.32719602367197
22.151244862103717
19.51962047887658
17.28383388752882
15.408420256152365
14.214228240790426
13.657981241545627
13.87444732551312
14.55836779714034
15.400433136473767
16.98731860962657
18.784020307609893
19.60531772867513
19.961375843228584
20.51491341566584
20.837451497667384
20.363931099566436
18.79300994075371
16.553338664143922
14.324531213637442
12.119994061751077
9.751039405872904
7.189159074443601
4.311228421682229
0.725637575746603
-3.5627086591521135
-7.958942687361143
-12.201717874000229
-16.250249579559995
-20.079889730139787
-23.063731920828626
-24.479499795783465
-26.040735285030042
-29.17894811503028
-32.6231591455973
-36.02597920566582
-39.79288778308795
-43.571863989117325
-47.152346823984715
-50.040545095857155
-52.39680512433475
-54.76810806877958
-56.847691208938514
-58.36919204692645
-58.73984430608403
-57.90248683639012
-56.693894875711244
-54.32614534525956
-49.64518556939403
-43.40825934440152
-37.286282679731094
-32.12288694870244
-26.7813985848213
-19.808422829511592
-11.835481071971174
-4.5583661098765065
1.8620215651464664
8.973030262269038
17.248071452791855
25.10164650082061
31.421690362189178
36.693423288245796
41.167227652233564
44.45367600065369
46.771960740123
48.38041441907529
49.44278696405246
50.481790719457734
51.18352006364034
50.819445912801434
49.48977284974514
47.745936742137474
45.78762401547224
43.13818013940303
39.89315574356083
36.801749052721306
33.99400497839581
31.182157209065355
27.430319725853455
22.332984468802838
17.00861919515323
11.605648283782738
5.937153909783734
0.6416117781582705
-4.516614383087083
-9.696469832693957
-14.94915752055719
-20.402944161355116
-25.40295378078179
-30.087723612795774
-34.43392804283127
-38.4466480558795
-42.758759445478844
-45.09203629427169
-43.761567737316916
-41.298993130246444
-39.85178324581412
-39.184797407718214
-37.457973152837106
-33.59463264636895
-28.627383215824914
-23.357376116555976
-18.27445562727169
-13.047073567119867
-7.192932428933478
-2.542721397494874
0.30000191092861167
3.5247127199961326
8.536530368166233
14.495691188439976
18.927875150396513
21.354802284858252
23.75863401655915
26.18738179745815
27.77011077289395
28.217071842943554
27.06797225454678
25.439931021908613
24.05966016086671
22.07752897110694
19.996335925494822
18.279057409990084
16.68956771250229
15.561020469238914
14.41605922957489
12.565489398213964
9.882685478860218
6.743677063310618
4.907647059791846
5.566243327644371
7.8947088781530725
10.839896241912257
13.787542486801707
16.15541478657339
17.11888529241224
15.5036480505163
10.92792429989029
5.109101248537758
0.9745563981340494
-0.6513727389117232
-1.4564746475061552
-2.0126178115044633
-2.039275428023993
-1.7895183239201178
-1.24940179473695
-1.665887509664596
-3.54406951810434
-5.378271023808483
-7.380561504095983
-8.832892694991763
-7.679787594959336
-5.106906970122256
-3.2166356405638523
-2.9808289563179193
-3.7860124012475938
-3.2465987553869993
-0.771916937203298
2.0757211246896365
3.6720470619933736
3.8131693110027793
4.221197677712047
5.97541959623086
8.4308530557847
10.257945584259954
10.977130711672809
11.48527477803416
12.012422316026893
12.038591001025928
11.054534704765215
9.165905487422975
7.897298011445693
7.727159716203523
7.594333410124471
6.718595255005419
4.763644645958104
2.511454232467644
0.5127498883862937
-1.36112348652748
-2.5391006984163993
-3.6863857612813513
-5.8011192832971705
-8.218056825904773
-10.657220028469489
-13.125678544523375
-15.42102636804481
-17.904597595468115
-20.683870800273144
-23.178154049677083
-24.52906582652394
-24.877634569534372
-24.469999682400463
-21.85507512898534
-17.067817817152516
-12.081606982359997
-7.543622670274189
-3.926767021179354
-1.4341722211612986
1.2555032069179008
4.657531389924767
7.725742215132103
9.383610202733777
9.956208384713072
10.777974071191883
12.341700654115845
14.52587427933819
16.499743404383366
16.793025199539528
15.865542764145713
15.660520449851534
16.761756635298124
18.50617595511173
20.523539098357073
22.708216829674203
24.70123229037745
26.18159583174629
26.22905411580601
23.93666621008587
20.583969018055576
17.90856815190515
15.909948836335131
14.036922254458332
12.26335476372896
10.866995148160433
9.46904774323218
7.6784429170634905
5.872388446849362
3.930341421460335
1.5446552662786048
-1.401209723887712
-4.562038730787749
-6.740201114892649
-8.127360665624368
-9.291514324478248
-9.655842634168897
-9.926636244812208
-10.731949045428497
-11.583422505735626
-12.673393536192158
-14.033099959756791
-15.902953079730962
-18.711272271517913
-21.55626419845625
-23.525875539245316
-24.295260201491555
-23.66565917609682
-21.760685589658355
-18.805476679557867
-15.520382842709095
-12.472379178247497
-9.505011352547996
-6.62552483877929
-3.4651683319083815
0.3728092580491515
4.383134471808328
8.160346422663649
11.341768814996016
14.000033785686243
17.21712523715293
20.890819202469924
23.659841550991256
24.892825895275184
24.761592651716064
24.22279200981963
24.356321865455023
25.041351008318486
25.501611268761856
25.311859354568057
24.47932992538837
23.370430795276114
22.27720559037392
20.559979374770844
17.31904453023704
13.00320165937487
8.86207728424843
5.550627481730758
2.947724114330334
0.3752788607092287
-3.0260375126996997
-7.087421635825812
-10.368465509934088
-12.79126993678596
-15.5878186096189
-18.306533108807322
-20.042456745033405
-20.719385618199187
-20.08038151952623
-18.241768414950855
-15.526377393438295
-12.105761994323878
-8.269616053521926
-4.553710481141516
-1.6768939451108837
0.5821924207606614
2.607798066987184
4.232053942678491
5.705633180080485
7.0842865456112705
8.767879160036681
11.181544522586925
13.119290495764625
13.80487215785158
13.781139594282935
13.353539798935577
12.414077510209383
10.88415808756948
9.571196210508973
9.295146928278916
9.535705629070215
9.938855824390721
10.97009882148787
12.445888584339096
13.399201109777382
13.363544696727024
12.873341742208813
12.404544197329175
11.550532319295208
10.195228981171175
8.985378360851366
8.017441108586901
7.09348282855468
5.892942898789182
3.8554172447097885
1.4796673916698404
-0.6861807027308058
-2.6247536490739054
-4.189710226893687
-6.399630922587907
-9.675630741046984
-12.353406380463362
-13.368440719561939
-13.331092139605287
