AAD_Filtered_TADAS_FILE
AAD_BASELINE_CORRECTION: BASELINE REMOVED
AAD_FILTER_TYPE: BUTTERWORTH
AAD_FILTER_ORDER: 1
AAD_LOW_CUT_FREQUENCY_HZ: 0.025
AAD_HIGH_CUT_FREQUENCY_HZ: 40.0
EVENT_NAME: 202302060117
EVENT_ID: 13194
EVENT_DATE_YYYYMMDD: 2023/02/06
EVENT_TIME_HHMMSS: 01:17:32.00000
EVENT_LATITUDE_DEGREE: 37.288
EVENT_LONGITUDE_DEGREE: 37.043
EVENT_DEPTH_KM: 8.6
HYPOCENTER_REFERENCE: AFAD
MAGNITUDE_W: 7.7
MAGNITUDE_W_REFERENCE: AFAD
MAGNITUDE_L: 
MAGNITUDE_L_REFERENCE: 
FOCAL_MECHANISM: 
NETWORK: TK
STATION_CODE: 0128
STATION_NAME: 
STATION_LATITUDE_DEGREE: 37.250287
STATION_LONGITUDE_DEGREE: 35.062788
STATION_ELEVATION_M: 236.0
LOCATION: Kahramanmaras_Pazarck_Turkiye
SENSOR_DEPTH_M: 
VS30_M/S: 494
SITE_CLASSIFICATION_EC8: B
MORPHOLOGIC_CLASSIFICATION: 
EPICENTRAL_DISTANCE_KM: 175.27
EARTHQUAKE_BACKAZIMUTH_DEGREE: 
DATE_TIME_FIRST_SAMPLE_YYYYMMDD_HHMMSS: 2023/02/06 01:17:42.2346370
DATE_TIME_FIRST_SAMPLE_PRECISION: millisecond
SAMPLING_INTERVAL_S: 0.01
NDATA: 13501
DURATION_S: 
STREAM: HNZ
UNITS: cm/s^2
INSTRUMENT: sensor = ACEBOX/SARA | digitizer = 
INSTRUMENT_ANALOG/DIGITAL: 
INSTRUMENTAL_FREQUENCY_HZ: 
INSTRUMENTAL_DAMPING: 
FULL_SCALE_G: 
N_BIT_DIGITAL_CONVERTER: 
PGA_CM/S^2: 7.062
TIME_PGA_S: 
BASELINE_CORRECTION: BASELINE REMOVED
FILTER_TYPE: BUTTERWORTH
FILTER_ORDER: 
LOW_CUT_FREQUENCY_HZ: 
HIGH_CUT_FREQUENCY_HZ: 
LATE/NORMAL_TRIGGERED: 
DATABASE_VERSION: 
HEADER_FORMAT: DYNA 1.2
DATA_TYPE: Acceleration
PROCESSING: Automatic Paolucci et al., 2011
DATA_TIMESTAMP_YYYYMMDD_HHMMSS: 
DATA_LICENSE: U (unknown license)
DATA_CITATION: Turkish Accelerometric Archive v 1.0 - Disaster And Emergency Management Presidency, Earthquake Department
DATA_CREATOR: AFAD
ORIGINAL_DATA_MEDIATOR_CITATION: : AFAD - Disaster And Emergency Management Presidency
ORIGINAL_DATA_MEDIATOR: AFAD PROCESS SERVICE
ORIGINAL_DATA_CREATOR_CITATION: AFAD PROCESS SERVICE
ORIGINAL_DATA_CREATOR: network: TK
USER1: GuestUser
USER2: 
USER3: 
USER4: 
[...]
3.9971277080152525
4.295414223202018
4.377950463073342
4.496647840038178
4.593499902397837
4.522945906516689
4.5271103593210436
4.613182956115933
4.515792684998362
4.35939213018367
4.2584121133855
4.02368007029435
3.6839982407005167
3.2443659031892547
2.4965058370117106
1.722706357220871
1.351363488211996
1.1255777418955293
0.7383093286041487
0.34872716859269726
0.07763389665616419
-0.11622812958851693
-0.21770513491406174
-0.16541715368295518
-0.016688789906260798
0.09710291828518731
0.30968726898885873
0.8152262570855727
1.4301695425736982
1.9294728951216746
2.3719510278501366
2.8165319005156975
3.1817503674505523
3.382605785760203
3.3819473711258485
3.20196700255039
2.842738201950354
2.2806642144668343
1.662602301842116
1.0915832791398663
0.5479000660040403
0.26229527875951586
0.3294888925707896
0.42960934475965196
0.3889529533146845
0.18420863705848128
-0.16003503583984588
-0.40342560772135183
-0.45346442650026664
-0.4415889744034751
-0.3652957309112151
-0.19338539147357778
-0.05974993110658935
-0.0792577551469395
-0.15997648386507074
-0.16035224613355678
-0.037583149729421915
0.2645716807333459
0.7317215904163784
1.1510670356852812
1.3740022149199287
1.492610445621277
1.6096775097935994
1.6507167448527296
1.505480297876055
1.2749154757006163
1.1568881718684425
1.0341088017904128
0.6636260093997022
0.12319734494491312
-0.4984662052961533
-1.21877444941333
-1.8399500413854526
-2.18417900894653
-2.325084383119706
-2.4588365648679034
-2.628709497984889
-2.559202692479771
-2.238622650341825
-2.0304353108009154
-1.9237677492839396
-1.7433300093664899
-1.5657424470060854
-1.3998229848092103
-1.265219698078342
-1.2497381848275557
-1.2253844782406098
-1.1227183168694668
-1.1287186796400115
-1.2951148679156912
-1.4599628204750883
-1.525395819297355
-1.5109104124203387
-1.4729110325086563
-1.4035784503935524
-1.1625360072989726
-0.6729178644328021
-0.08461747472893752
0.4711502629895312
0.9996447552258687
1.3938600360836877
1.5570496138465837
1.6541143314822715
1.837303769052929
2.1145157969875257
2.4661701439640042
2.753035164024993
2.8399204943173317
2.759546555475185
2.5803142427997403
2.4450789225461698
2.5685332342138203
2.91195137858021
3.1936602991952676
3.2994051004885745
3.3009317381764243
3.1905704557513417
2.9261076006417146
2.538898247744117
2.1123944558469234
1.703533763510282
1.235882093584642
0.5948513862866885
-0.2684459217667907
-1.262668681971911
-2.1033083031805178
-2.6641927943185264
-2.994276988917963
-2.9951457284807113
-2.796807847533139
-2.7829509420580734
-2.9959072596755782
-3.271301652945208
-3.48713458794942
-3.5135472314760925
-3.387047364804288
-3.2449695420442866
-3.149240983280903
-3.1125223015695616
-3.040768789346254
-2.8263502424033407
-2.525220438464843
-2.2382165869475
-1.9503528688633633
-1.6244599375286577
-1.3350779881826795
-1.1808829541804864
-1.129186141327572
-0.9928634060506045
-0.6706491245719692
-0.29119251523878115
0.0850600707210698
0.43771450870641976
0.6264219240715846
0.7054851438714904
0.7870389244105024
0.7477472799951693
0.5933036666071969
0.5699104941605934
0.7497388858381469
0.9818618549632865
1.175377569064351
1.2388788240072066
1.061329311799458
0.7343292285998748
0.37089111964115473
-0.06044621235683701
-0.5295920827612217
-0.8572491424099231
-0.9264914752499042
-0.9074328778008272
-0.9798786516525292
-1.1438745107304407
-1.3928322932157355
-1.5417396708714357
-1.4674841365255058
-1.4123692188289731
-1.3792173612917629
-1.2085355649621616
-1.042596347728925
-0.9040883189047157
-0.7533700593638203
-0.7346003992008965
-0.8711464079102617
-1.1509334448876793
-1.5150431601254515
-1.8331164766475576
-2.193774853965383
-2.657127099889532
-3.1801951815498812
-3.7171532620889733
-4.063609476581726
-4.19592960755643
-4.2024689178079475
-4.037711160235757
-3.890269317115481
-3.8987254711028174
-3.8996541530495654
-3.764213541067632
-3.462844765647918
-3.1435853071659423
-2.831535409786641
-2.3010636130414155
-1.6773051002776247
-1.1685952027222428
-0.6967535161003174
-0.2862841755537028
0.08159170969631353
0.431460190064838
0.540303282155897
0.48965794867698864
0.5809018803005132
0.7237444449585183
0.7968041635395111
0.8646185727944852
0.8993170950968199
0.8864077739432139
0.8383113337399348
0.7260452976763337
0.5378724769029588
0.21628057936917655
-0.18800531089450864
-0.44294330286008476
-0.45368693962820583
-0.34910895384201795
-0.2633943298704073
-0.1899806534827927
-0.09285071140277212
-0.0928335703789319
-0.2393514933066185
-0.34891850841035227
-0.4272863001853169
-0.6373701680447177
-0.8693816010804641
-1.03008685648059
-1.1582510683813887
-1.1631699675916065
-1.050702839102507
-0.8255551662248211
-0.42282110405898615
-0.06744029500137193
0.08051852726375325
0.08654698764020802
-0.06521734374165962
-0.25400066589945597
-0.3938848754036778
-0.6574108434114444
-1.002391880133239
-1.161410314671917
-1.1462225558195573
-1.2930211451134206
-1.631842559250053
-1.788798762921754
-1.7636500537037443
-1.706491183429187
-1.4913404491820528
-1.2799814707721127
-1.2241426008978236
-1.1426050442255442
-1.0879078095754733
-1.1025737054349163
-1.0470153228741934
-0.9059731706538002
-0.6121112704914397
-0.23883193999350968
-0.046313121706777406
-0.020496724822938347
-0.07767276316904873
-0.17539136735176314
-0.10871543462409718
0.09392847498281351
0.11443922481650648
-0.0893710208468095
-0.2971273686092949
-0.44119227901623925
-0.5942034224548882
-0.7481215929310251
-0.8237986125128968
-0.7680295267999993
-0.5900182656760025
-0.47124308443349483
-0.6174759720410605
-0.9273254294262879
-1.3101836180324657
-1.8565698573703988
-2.4295987417453637
-2.944340440236564
-3.4130848890142746
-3.4921652288199123
-3.2375343767638602
-3.2602533735338763
-3.5229594747259716
-3.6658216601527536
-3.7465534492306642
-3.6768776248704205
-3.3486209375678992
-2.913338693048689
-2.3603428692477806
-1.7680026131013646
-1.2579136898402579
-0.7417695667650785
-0.39816236395258736
-0.2751751088124194
-0.06091830973465804
0.1864778067931132
0.3875140783144323
0.6650818895262799
0.825833386210278
0.7336536790973117
0.589034116072007
0.5514859641368793
0.5447513177103069
0.39451210306168455
0.19663298502907345
0.16558457910317217
0.18291142098584906
0.08654166473107437
0.015948584204811163
0.0676713354241649
0.07558519787271237
0.0034784353251464833
0.04471438344512157
0.16946700905605605
0.19643256099487272
0.23109199361982827
0.5049380254026604
1.0083094349690318
1.5381922389147793
1.9067940835264068
2.044936969960948
1.9885224191317834
1.7677205196776038
1.4365289911932988
1.1104142302683837
0.8687239342910248
0.8197420283492747
0.9465662185117676
0.9512381152182834
0.6917779571461451
0.27187457608961735
-0.21374955087176267
-0.6173645623313151
-0.813784489732932
-0.8262505575425747
-0.8288958158059312
-0.962264059421359
-1.1739713089028596
-1.5084580878553127
-1.9414240254080486
-2.163513634560651
-2.1452665288684476
-2.0369621927925112
-1.8124733757608418
-1.548671628451237
-1.248527133163221
-0.8906885700729451
-0.7397371143060385
-0.7480989066966673
-0.5385796434187652
-0.14180450690929278
0.20465343816502843
0.442384163841938
0.5181147520301852
0.3877237496596204
0.2072774976468595
0.18708901805895017
0.3351572448355816
0.6540695410714797
1.219521034600021
1.8730473008056625
2.3386297592549465
2.5548103057109017
2.6539505738628177
2.637793689654905
2.3762872642336386
2.1001512787652192
2.022210706839173
1.8225027525020003
1.4164409984711068
1.0392173067048347
0.5628702598106201
-0.16243283567866676
-0.9563914782257013
-1.5920523613787512
-2.010446055369074
-2.231494763583356
-2.162828796072921
-1.9046588249481633
-1.7942576295636687
-1.7729743465885914
-1.6309459416504202
-1.4616025365966827
-1.213617040617725
-0.8298660421492047
-0.5617395421318853
-0.4010375623460752
-0.13300782077171114
0.13658936709579958
0.2777822063194955
0.3873010853306967
0.5930817949103251
0.9691487450447168
1.4398923983706762
1.7984187238388798
1.9336534375806804
1.9045510979161457
1.8578670841714677
1.9477331346367492
2.1813234524452465
2.363842545970857
2.4562184879533886
2.6575245632345745
2.8740257019152042
2.820413547509482
2.514213563990033
2.0680854152784667
1.6014156176938563
1.3827777993665227
1.4571694067960215
1.562594886271982
1.642818231467728
1.8679270677434037
2.126217759290543
2.1070876362462374
1.7732273772414264
1.2610972294489233
0.7498435181757217
0.4386267720664667
0.19289234451471768
-0.2649036709133549
-0.8338539455811211
-1.2802104535466128
-1.580469371547181
-1.774087717893907
-1.8312000297359934
-1.6604520510913434
-1.1347889066970498
-0.34699628632817975
0.3095066367269858
0.781865569366435
1.3626209263543552
1.9307859539941061
2.31002574645234
2.656415566037258
2.9917088485400893
3.273127606291023
3.4627719084831075
3.416130720614241
3.129132911611202
2.689416987448227
2.250813690949363
1.9983767136785624
1.789767799900691
1.4189935704364511
1.092593607475786
1.0371351216627582
1.0036170459644425
0.7574578021860576
0.5281419002955995
0.39255561220829327
0.18511279128809838
0.011529363106828124
-0.09650734974952999
-0.17501813721869636
-0.08478177699089967
-0.031373224231649934
-0.1066112292214276
0.07526230085672665
0.36296182393340626
0.35791987551957793
0.20197266992847562
0.06987930783457787
0.012377454609785973
-0.0871528168134773
-0.5285228889224692
-1.1745045428977083
-1.587404883187484
-1.5740068789839632
-1.3175183666675285
-1.1408189711377237
-0.9384235418036286
-0.5820469431489284
-0.4122143106297697
-0.509252010988277
-0.6114232259995112
-0.6869354810003147
-0.7650684396259603
-0.7859581454195295
-0.8747051692525177
-1.14422761133227
-1.345163792711808
-1.396397518522616
-1.5788348249758424
-1.8207346555412116
-1.857768830531975
-1.7126875427958423
-1.4135019257210328
-0.9937692397073583
-0.6975262763543301
-0.7304977986497778
-0.9414352338317924
-1.0409147793682878
-1.0959683909490285
-1.2632439142781204
-1.4014461848551965
-1.3983922958489046
-1.2575043009622033
-1.0182809218312832
-0.840036067333637
-0.7560564029066055
-0.6458524898586073
-0.48664377023861666
-0.32945567255917163
-0.22680842920346003
-0.18166695741830788
-0.21072722077698536
-0.3270133307402419
-0.40554446218641277
-0.5083796845651471
-0.7962948041269933
-1.0116276044324908
-0.9628670936755633
-0.8074583634462354
-0.5107328283507419
-0.08659922661298658
0.17986151998699482
0.22714364792417163
0.1669291375322713
0.01903524993663823
-0.171034901231584
-0.257734844032463
-0.1298092344748708
0.032038030369195204
0.019479636509323096
0.014699866480546097
0.1893752850432506
0.46847409092515435
0.7562345228757864
0.9593758374776991
1.137350879165474
1.415170016078428
1.698339868576321
1.9245078953215529
2.2147491936470374
2.529560019617317
2.6196914283721036
2.439257210179619
2.142199934156871
1.7007682483886182
1.0863896934187505
0.45402292002897937
-0.17898421806556383
-0.8456106791511782
-1.4313099291939062
-1.953789868915009
-2.457627591061521
-2.7930527067214928
-2.995715839698463
-3.1368569649762157
-2.985178583189925
-2.6008039088990693
-2.255438057628618
-1.8258054087720066
-1.2652843942114642
-0.6950611195488616
-0.03660297491125472
0.6239195068259192
1.1202940345500387
1.500401633806846
1.813352263622841
2.078946613754154
2.157789838707097
1.916826368462231
1.6380330532679814
1.4930577929850026
1.2950113567787973
1.0344870305829794
0.819049841749426
0.6524384802922905
0.5209968445825122
0.371628662516018
0.22943859478337533
0.26133910929512205
0.4072539364218664
0.34336126249343196
0.033446989734533604
-0.363470976343327
-0.9199414340304072
-1.519866181019031
-1.8931200438257902
-2.219402807180794
-2.6352814490183243
-2.9465940339783674
-3.2108850835190186
-3.496168903779681
-3.5953430282452747
-3.503598053945848
-3.3620866134751557
-3.096853924680233
-2.6022563929771985
-1.9690648568629667
-1.3808733049329103
-1.010668914998808
-1.019142513891954
-1.3227969038966765
-1.6219886188659998
-1.8941727116047657
-2.209776671958316
-2.335728975308626
-2.2259449804188254
-2.225368602665018
-2.4080302017512176
-2.468859981660071
-2.4135681227933192
-2.434211714618453
-2.3012135431324636
-1.943348404054776
-1.72819422546273
-1.6187331658536912
-1.34309732334793
-1.0942501886703382
-1.0587981572361718
-0.8842273148669924
-0.34612414111743817
0.17036493884313295
0.4398616778287388
0.5823262700101003
0.5825523733921334
0.5073336598868186
0.37913600837413086
0.15209668027443923
0.14074312973323383
0.3043547655784785
0.14706091124616194
-0.2013000075647802
-0.46489674969189804
-0.8727251860671768
-1.4416621116880763
-2.1091335812863696
-3.0441005572343314
-3.9363995945699912
-4.496648070461242
-5.115270783342287
-5.825830839826923
-6.311431065495453
-6.691612208042883
-6.961910877182576
-6.980605770126093
-6.847874883021265
-6.45370340314009
-5.780592179063344
-5.149352379694298
-4.5471635249354
-3.9173449404961103
-3.5286157115670806
-3.296478808733365
-2.8999084656655647
-2.3413666623188196
-1.6300374313937447
-0.7191132489623681
0.2041864003853048
0.9811021432862792
1.669261911447679
2.2709582856938666
2.6877125048071724
2.9776256282572096
3.2338355824576754
3.32053276161805
3.1805663420407124
2.920071693576253
2.388193677399178
1.4564955701658058
0.4053230060574047
-0.45139973937982464
-1.0572220811925819
-1.5826992191096287
-2.102469131755292
-2.4436838005584445
-2.6112544617337514
-2.6835091938337174
-2.6432362043802913
-2.6428255920181547
-2.664820224105051
-2.54451988950183
-2.411868393062299
-2.3859761372014043
-2.4712668188843363
-2.6708707349552245
-2.817864771424941
-2.799929217182061
-2.71883639265805
-2.6106247600436467
-2.4120637556761246
-2.0932728182997358
-1.746089869650022
-1.6815080240017164
-2.016158832820139
-2.34573420384078
-2.3836696856655357
-2.3005449887946896
-2.29804961705866
-2.439367261437752
-2.6881473916706407
-2.9474659808507804
-3.0898888035453402
-3.0671079841853897
-3.0834252857239597
-3.261810185174698
-3.4552265692272854
-3.594514254672939
-3.7378972483182182
-4.075836450433001
-4.697763675560668
-5.195842007593473
-5.289286506148812
-5.160289186703464
-4.810894870090705
-4.264745289902057
-3.8398744559064713
-3.487829398105851
-2.9179488515394723
-2.2399402088820257
-1.568266521144527
-0.8598702008451197
-0.29527052189724623
0.1309127750493434
0.4827544213156083
0.48290067528920944
0.25153914929279786
0.061569826500164244
-0.17686059514641014
-0.2796899619581204
-0.2077000815338497
-0.2849160940153252
-0.3779491053009419
-0.27208885156959134
-0.1187872635619432
-0.08379057443433871
-0.24000799857545474
-0.5185189359104359
-0.7622174400937672
-1.0043486939046002
-1.3717328239044937
-1.7029426802983396
-1.8586647304786503
-2.0877405819149484
-2.5110413884540765
-3.0151470109954115
-3.4797873156652415
-3.7355570842606087
-3.885853180540758
-4.141627889941565
-4.340687912441884
-4.254928079271011
-4.00331400013598
-3.838402725501888
-3.646720333946712
-3.27636064883482
-2.974818253621382
-2.8239802745653466
-2.6418290779730675
-2.3871558420398378
-2.1662628871360394
-2.100123208618521
-2.0663645385054203
-1.9747779520845798
-2.0031042309196105
-2.152019395465264
-2.3570578570543725
-2.655276888977283
-3.007683642599841
-3.3980048992283636
-3.7062225874458754
-3.756732190371068
-3.633979662124012
-3.4740704512683154
-3.2831766340009985
-2.988400504548501
-2.4249675806287803
-1.5886057777837996
-0.7560002640582614
-0.14459587191019305
0.2653639219358644
0.6362466304271321
1.0515155888662124
1.291394037519851
1.2007231274479226
0.9983263715198741
0.7082692265546401
0.13424074022910246
-0.5624161980426553
-1.1978825842662548
-1.7642063342909626
-2.109000111444935
-2.277483407633326
-2.4593995901773122
-2.606543809443307
-2.835388319651003
-3.2349920656088953
-3.5386992023002
-3.784646177360292
-4.151082772797044
-4.393479946588226
-4.426280398727136
-4.531732353229759
-4.745296696855802
-4.852235606541089
-4.78371820014902
-4.491751099357698
-3.9139803548023693
-3.289468937869328
-2.771502120094528
-2.1676053171547456
-1.514493031700205
-0.9040036899325089
-0.1727692060787472
0.621416035471644
1.3083467511513303
1.905528331742002
2.379406162640835
2.65052289744278
2.707391206424812
2.550188452828894
2.251457229136984
1.9576897609544062
1.7232866062569039
1.455017911746627
1.0319647305111115
0.47983431357030726
-0.024216478937585283
-0.3982781290392616
-0.6656204451002854
-0.8887281993112623
-1.1780640056593041
-1.3746640842159634
-1.3890614041389966
-1.5304684534119815
-1.6531539546711178
-1.5106755128527039
-1.4825708249111818
-1.6257952998987415
-1.7981185376329223
-2.1920674917347838
-2.6760575177842374
-3.0905389805180925
-3.460206370423993
-3.5989074149026723
-3.5112128591492
-3.3609239565348363
-3.258869088275682
-3.23375014650899
-3.0075046870576143
-2.6892134720425394
-2.7694138999815126
-3.023803705151692
-3.096779984142863
-3.1269340521638864
-3.034013023739652
-2.8212060886813157
-2.765625783125127
-2.649972998715403
-2.245252180081908
-1.730850847905261
-1.2006139158149662
-0.8244670258333849
-0.6138561392616751
-0.27477111808227495
0.0366199513830853
0.07162002609823506
0.08749870171058362
0.4132043633901372
1.0094528558003395
1.4446637059024743
1.498181521339916
1.358951177429656
1.2022109413819633
1.1455650559658765
1.0564918288161298
0.7906685005812506
0.6144773731395305
0.6821536800331475
0.8385033019411725
0.931753926984274
1.0609281270293065
1.396015290408096
1.6834357748676687
1.8665645237880497
2.2310278505851797
2.518283374283615
2.527756025333713
2.5654320582330437
2.6939540869495553
2.8440426751441876
3.0806804787235023
3.345045099680529
3.5691133247487845
3.834657397285217
4.176351676785329
4.503198858974262
4.8089589644711355
5.19296409487784
5.588995719691209
5.776409642294717
5.698261227671873
5.446211603747469
5.1005001727541455
4.741694080027092
4.314921689947649
3.7401473542990513
3.1508290809499626
2.6168594373425043
2.136246160605995
1.797519633923363
1.5124703775087438
1.2790974639964034
1.3589348644052128
1.5847352719315
1.6001630671551779
1.5779334212120255
1.6583181582227429
1.712251138428416
1.7454738760796291
1.6754068807388531
1.4718105125683936
1.376279556559205
1.4630290090546514
1.58384483704796
1.5621977886535836
1.3644020719979
