AAD_Filtered_TADAS_FILE
AAD_BASELINE_CORRECTION: BASELINE REMOVED
AAD_FILTER_TYPE: BUTTERWORTH
AAD_FILTER_ORDER: 1
AAD_LOW_CUT_FREQUENCY_HZ: 0.025
AAD_HIGH_CUT_FREQUENCY_HZ: 40.0
EVENT_NAME: 202302060117
EVENT_ID: 13194
EVENT_DATE_YYYYMMDD: 2023/02/06
EVENT_TIME_HHMMSS: 01:17:32.00000
EVENT_LATITUDE_DEGREE: 37.288
EVENT_LONGITUDE_DEGREE: 37.043
EVENT_DEPTH_KM: 8.6
HYPOCENTER_REFERENCE: AFAD
MAGNITUDE_W: 7.7
MAGNITUDE_W_REFERENCE: AFAD
MAGNITUDE_L: 
MAGNITUDE_L_REFERENCE: 
FOCAL_MECHANISM: 
NETWORK: TK
STATION_CODE: 2104
STATION_NAME: 
STATION_LATITUDE_DEGREE: 38.2644
STATION_LONGITUDE_DEGREE: 39.759
STATION_ELEVATION_M: 919.0
LOCATION: Kahramanmaras_Pazarck_Turkiye
SENSOR_DEPTH_M: 
VS30_M/S: None
SITE_CLASSIFICATION_EC8: unknown
MORPHOLOGIC_CLASSIFICATION: 
EPICENTRAL_DISTANCE_KM: 262.22
EARTHQUAKE_BACKAZIMUTH_DEGREE: 
DATE_TIME_FIRST_SAMPLE_YYYYMMDD_HHMMSS: 2023/02/06 01:17:54.7016190
DATE_TIME_FIRST_SAMPLE_PRECISION: millisecond
SAMPLING_INTERVAL_S: 0.01
NDATA: 18251
DURATION_S: 
STREAM: HNN
UNITS: cm/s^2
INSTRUMENT: sensor = GMS+/GEOSIG | digitizer = 
INSTRUMENT_ANALOG/DIGITAL: 
INSTRUMENTAL_FREQUENCY_HZ: 
INSTRUMENTAL_DAMPING: 
FULL_SCALE_G: 
N_BIT_DIGITAL_CONVERTER: 
PGA_CM/S^2: 72.837
TIME_PGA_S: 
BASELINE_CORRECTION: BASELINE REMOVED
FILTER_TYPE: BUTTERWORTH
FILTER_ORDER: 
LOW_CUT_FREQUENCY_HZ: 
HIGH_CUT_FREQUENCY_HZ: 
LATE/NORMAL_TRIGGERED: 
DATABASE_VERSION: 
HEADER_FORMAT: DYNA 1.2
DATA_TYPE: Acceleration
PROCESSING: Automatic Paolucci et al., 2011
DATA_TIMESTAMP_YYYYMMDD_HHMMSS: 
DATA_LICENSE: U (unknown license)
DATA_CITATION: Turkish Accelerometric Archive v 1.0 - Disaster And Emergency Management Presidency, Earthquake Department
DATA_CREATOR: AFAD
ORIGINAL_DATA_MEDIATOR_CITATION: : AFAD - Disaster And Emergency Management Presidency
ORIGINAL_DATA_MEDIATOR: AFAD PROCESS SERVICE
ORIGINAL_DATA_CREATOR_CITATION: AFAD PROCESS SERVICE
ORIGINAL_DATA_CREATOR: network: TK
USER1: GuestUser
USER2: 
USER3: 
USER4: 
[...]
-27.876172028552133
-26.615720227006094
-22.343254979925973
-19.21077245639625
-16.830510917695626
-9.912881819834872
-4.303340605214024
-4.682700146948974
-5.879417628861724
-5.192246085488198
-4.8214761374431605
-4.574005236413352
-4.823812833781928
-6.232636593135027
-7.121410920812742
-6.032029634992142
-1.3269397283913478
4.43947612448492
6.292417208821585
6.728704497284536
9.923470540167845
9.290043719599081
1.3091638109627197
-5.552457853062351
-8.538678663505697
-8.268316014784174
-4.808829023709824
0.16385646910493032
5.501652777081887
6.2245608848049825
4.167530506336609
4.49170412755904
3.122376191751601
-1.6905147795702444
-4.368544650223605
-4.515785763568512
-5.7927320831477935
-3.5417701752726996
1.6858906135413707
2.184063214227321
1.9492583748020058
4.164663746523249
3.658502321584974
3.0396365623735955
7.079706640124028
10.303149422467687
9.476330281650954
10.08830083206118
13.333105888907605
16.06698887935309
17.409147139985496
19.834020244075944
25.257977142365572
27.030779445052726
23.06149997077996
23.0456415766574
27.964463291918058
30.543400552004623
31.041674145781375
35.11089824165817
42.42315311431802
44.61396073351884
42.48340900060633
43.095275907181964
41.83436360083984
36.70882283863777
33.10557908162998
31.60560807524251
29.832353051227265
30.264685237377428
38.063241794742495
45.49384720920525
45.46582788872589
43.74644992393869
42.023861692915034
38.97424135925391
33.710778607509106
29.96219767505178
31.46791241583787
30.419731718365433
28.340769625850115
30.395144767511475
27.932112747728596
22.916531210885832
23.032413125275415
21.554992931370684
15.036797623704091
11.860047453409678
14.23724533635355
15.560767986308324
17.339787370883094
21.786902061480433
21.23637408401183
15.217843489159312
9.370691930990668
6.593627433646093
4.055871752936654
-3.0399928606284536
-2.7839701602051443
2.076620892758098
-5.0935065856788695
-9.471813104952133
-8.275588454719658
-13.255386729205586
-15.696120512303224
-17.311080188473216
-19.26828062804985
-17.179441198392656
-19.4453520254688
-24.222381644252405
-24.29124897938588
-21.58546882149479
-17.620447300639178
-14.50387124029484
-12.50816166695069
-9.31078501852391
-10.436811881752616
-16.31724287930907
-15.32371570901916
-13.319941630645483
-18.748220241563466
-15.951335207069006
-7.936659129095864
-11.633864340081773
-15.730934118983074
-11.509520042777432
-9.6125149279829
-13.371770050671447
-11.9246572895908
-2.610631961927144
-1.4231475877004722
-5.465635719784605
0.9071723163072692
6.714247382517366
4.2425083623111846
5.080117658777933
12.118209144899954
17.30410775693295
15.3371205040946
11.956595944130838
11.901209080975638
8.504446269787566
0.1792251401229973
-4.025837435772235
-1.7168056968652132
-0.6870061051575014
0.22302121407867198
4.608705577897211
4.809437705523026
3.1760958267489867
5.173029707267257
4.3562790971382395
-0.38648784332662933
-7.3313439789973325
-15.565960444368628
-19.356364881405938
-17.131344149329728
-15.239722308002918
-17.107610954903798
-17.23615330341394
-14.217554889001441
-12.499125626888917
-13.30968067585979
-15.673678334970482
-14.52623971189204
-8.74898127105406
-4.751652965349769
-2.690680163900581
2.0935429930068588
5.970215212961928
4.366514071928432
4.151671744442497
9.405348435280754
15.948909860125703
20.531365539677918
20.901322437885398
18.777384594743765
16.636292001340724
14.3892821116738
15.412242172214258
21.363668993811487
25.33428926377634
24.585827695455375
24.492795438597298
23.673433150355848
18.82860295397021
17.223448670879588
21.31569101621389
22.169377471928268
22.16293928525352
24.343422294418644
19.375738117663115
13.43146121693117
14.70553513365176
13.0266376742727
8.025385950217304
7.444709175494119
8.853492710982357
7.808475236745228
3.5086561895466044
3.28734539725556
10.523536447469965
11.16162212236825
3.69296000399875
1.7498358732659736
0.21216136200860822
-9.236910053890952
-17.251767801144698
-17.005520306870906
-15.668342303876528
-16.327272774900557
-11.56023304621728
-5.9964128847465625
-7.564086448572779
-8.4966734903677
-7.125861183511202
-8.686215017212772
-11.499661920932098
-11.451215829739557
-5.975860181900862
-3.0365747212879852
-4.963002255168799
-2.0702268457765856
-0.935169989588459
-7.535748440387921
-9.906054033003684
-6.060280394608943
-5.292636883441445
-6.761036513963213
-3.9358644036317996
2.5482152781312988
6.721459033832622
5.94836064838347
6.980659533952866
12.043867650144092
13.185202041790244
14.123190905433914
19.716867053208905
20.27243113688668
14.31010861655622
10.188965373196101
9.464777553408815
8.42516859562144
7.9026772961247955
12.14848602253096
16.0501960589464
13.795224262511551
9.116260030213722
4.673970382862393
0.7178855644008492
-1.3049232580407455
-0.6348510064631393
1.8397185265433964
3.0880512182715374
1.3647445878970088
-1.8994796935189906
-5.8046371815767035
-8.49407015242067
-9.647140499857548
-9.939388872457016
-6.105189354935861
-0.09225975395379014
4.4965197357541635
7.983711537498011
8.634340411306283
7.220259884585456
7.797059129740976
9.939144481372477
11.890679349161918
17.38862364287021
22.7721426651917
21.03360399816924
18.49778662798186
17.61682647448997
13.966834441765654
11.886475887159635
14.41867067806685
15.668232349211907
13.399762891942911
11.475408279985531
11.53786101836261
11.88140303357486
10.99257309003582
12.423277032830745
17.626210959011864
18.89290877542309
14.45750230934202
10.506664637798673
3.281783057305367
-8.197824501259444
-11.542272524063748
-9.092118436263348
-11.864638006169756
-14.5927452123092
-13.321681719455547
-12.987574141218811
-11.68618251689836
-8.258167531041964
-8.999053380066538
-11.498043416421535
-11.020142235474635
-11.472759074274334
-13.179832287007857
-15.515362919009862
-18.249938766571628
-19.28580508916491
-19.768031596666386
-17.374152573204498
-10.184324138539138
-2.3723185182423503
3.7449838819596413
8.02941503818189
9.61019796056703
8.289389290479651
6.4183733680099815
6.639090203372049
6.184295373381014
3.9344944625590346
5.342802642069851
8.682745363882626
7.39415390166063
3.883205617578335
3.5127897390891043
3.3681731882896773
-0.06017225069922764
-0.07294591012439802
5.114044076705167
7.809445795095971
7.575459704504405
6.4711076217843395
2.912935529478978
-0.36607168573892535
-0.3623670886147006
-0.69275474002265
-1.276856262523777
2.0247339330583136
4.948363329882512
3.3524854397087864
0.05695441540319402
-1.7027989072091103
-4.11065087410372
-11.213640940310082
-18.446953661153557
-21.749671082886785
-22.044921140333358
-17.561347739924162
-9.567091624059453
-3.9274752844335477
-2.7806209936625184
-2.942646043442956
-3.673259635566955
-7.0034226508700295
-8.8785233477539
-4.143931822034725
4.13760155574891
8.4479201854694
7.462104156431097
5.903712621592007
0.764210125631986
-6.825509849057936
-8.351598274147387
-6.676765370381913
-3.75677871730066
1.2177713057325739
3.8985780856168635
2.597960580085033
-0.6243302200018374
-3.390961929721277
-5.508102936697732
-5.820314195988562
-5.067386104362342
-7.091560259437738
-8.84509332662269
-5.4222703824886525
-2.478766818926545
-4.959826322876824
-6.992756398946233
-7.025878306697309
-9.078886987509556
-11.535653365156927
-12.00198774392939
-12.272270651900968
-14.090941771917553
-14.243629228380332
-10.915950136551686
-7.61028131862654
-3.977766283189119
2.075080716261689
7.1276716464796435
6.7174045995028955
4.832822425304211
7.080363749070513
5.927093513921829
-0.5133663515994021
-2.5383420621623327
-3.919795014361531
-9.370716536026263
-12.036818088151092
-10.349559571039494
-8.437817704467152
-7.132642364055222
-4.355503503654065
0.5647717469035969
7.498491311551507
16.203333599242995
24.131854443837206
28.304108360581548
27.841662440831925
25.415690537454882
24.447581691706596
22.89870645567238
19.87720215430164
19.913781720154024
19.387732160462736
13.948156741673976
10.348125669921794
9.197694161871818
8.096663651414387
12.06781508793412
18.532710426039582
22.68820848532745
25.999155832976804
27.217701689052145
27.594700293070733
29.528914696262866
29.99047213058933
27.450625088355334
22.002066470738722
14.281898535597085
6.545509723507274
0.3132495868143425
-2.65346114603985
-4.24052639746424
-8.18656418520166
-12.215030631950048
-13.365281454093013
-11.096533985877844
-5.98736922652164
-0.6603120329393491
3.147473597669278
3.4952709081560176
-3.4705900528267377
-15.913723977288617
-25.93854323445832
-31.63797054906657
-34.7593566466417
-34.610668536365154
-32.280066917924096
-28.987468099367813
-23.444096157100546
-14.920322282787975
-5.121907526962101
5.211842820921328
15.138943548308873
24.45891042638319
34.07043500415008
40.292095553994145
42.376187552282644
42.01728635274113
38.99327820728455
35.658262695640786
31.34074092575286
23.001515518725625
11.895490067999857
1.2629230879555307
-6.7719835936563255
-9.518195942733024
-4.698244642630233
5.757020095921793
15.332225579916459
18.356807398846314
16.76872505203428
13.878675230134162
10.237243322373395
6.851744794460523
3.4467893729574546
0.8717521512557458
-1.5372999119611679
-8.981807703541158
-19.778704510167437
-25.483546588579557
-28.528596125607393
-35.686803061103696
-41.863172926254194
-43.18948956975113
-42.28351693363344
-36.89313402004152
-23.84370582432411
-10.42463557370648
-5.237706605438073
0.21633526421903534
11.60029217603271
20.238725105006697
27.163579849721543
34.06506279748372
36.39444328224695
35.91851635854928
33.05370627504137
29.514264697296365
31.09416242956627
34.24250863959406
31.157408540962187
27.14883852937691
28.205435508826753
27.933964861882977
25.30504750376724
23.264994484807954
18.665312764780126
11.208119492639485
4.409208849017027
-2.077045548989225
-9.857843902911593
-17.931558483892587
-28.523050449450114
-38.10766080190165
-39.16153983341285
-37.2443129450472
-39.28467681323141
-40.363320810359724
-35.53532415478529
-33.72780392588177
-38.92992668656135
-41.478695897724485
-39.17803976584185
-33.38978834094564
-25.407824398323037
-17.12866765127709
-8.969715823123872
-3.937238477199713
0.015186934040846355
4.812169277003045
5.172205289979592
0.21192183308964627
-5.084866221835026
-13.059796946470799
-26.475946814251444
-35.51811999695613
-35.339998241467065
-31.227873453252933
-24.912896149700224
-14.131932036992678
0.28428390048331675
9.289671905471529
9.777296405927537
7.518980919046145
3.7492713965648905
0.2982172607669796
-3.0333763442597363
-6.298499688496502
-5.845961225978961
-5.873156535221717
-8.637668631691426
-11.970199512892929
-14.376826053898702
-16.901211996003713
-23.611317398201127
-28.29860267603113
-28.608393849184576
-28.285075275949033
-24.16182105636419
-22.20097569572446
-26.04201562930255
-29.328579828915185
-32.989446927840135
-35.550578582162544
-32.40576239052705
-25.829831445464404
-21.379164583780945
-21.935775306037467
-25.15576193701504
-28.87389686485974
-31.041817178308005
-31.155413534418834
-28.576768782980263
-21.877174614236644
-14.44375009775866
-5.657892256149571
4.693397266185144
11.071874864062439
15.497282519148543
22.279302098640517
29.805778221867165
38.529957294577876
47.447700282259106
51.94941513260501
52.116872905382216
50.9486979957282
46.826353812895576
35.664512637698174
21.81985660003638
9.676807708521338
-2.529630115532284
-13.940733518017435
-22.23181271937126
-25.57153117096212
-23.665206654771964
-15.947035656983568
-5.557620426192132
1.2648564168474454
5.0041515101646015
7.910327181779387
9.40501994291842
6.261025035784152
-3.658105063635234
-15.531598791520553
-25.914996199617097
-35.566351157301455
-43.07853436154764
-47.772043067766525
-48.68575932894958
-46.15928687662885
-44.13996471313798
-40.05865473167591
-28.907067439508364
-11.983709092641334
6.00768947658513
19.068454927528116
25.581506345089885
28.972613677885775
28.946186711102253
22.106193375846864
13.096407502495525
9.303687823417038
6.004586801821031
-2.3363544328714148
-9.504295714771345
-10.58155604604225
-7.0706051822279985
-0.4135099154050686
6.441448926512597
10.84027498774058
11.93594212990484
11.087915443703427
9.99203098897854
4.9513063684829515
-1.0887704545683035
-4.429096868446975
-9.27119016905401
-12.540649449489624
-16.558799510663675
-19.665111073695243
-15.267915841395103
-14.566065143124577
-14.933323136151303
-7.914382120908405
-2.187891534936097
1.0737803670738224
4.031719975836602
4.54861428986148
5.007184943115367
5.665182988281905
4.6437152427622275
1.6543392898624398
-2.7009466047964916
-4.553789421396199
-6.562503438863254
-9.521137357792222
-7.348976474862298
-1.4332758166852901
6.3746274592338645
15.714829153900379
25.845239831908838
37.54342430720994
48.345683000157514
54.45112201619564
58.89277223689984
63.05825886965131
63.014945239469014
61.75315479119591
57.17864634114441
47.55397870190095
38.00255372651927
26.886872363206837
16.682757341136103
9.48360005733637
5.185629129320474
4.573609564969937
1.8530854112552442
-2.3398092032960944
-4.162839502010829
-5.738557849430699
-8.62817992093447
-10.410945217660515
-9.986351737319328
-10.08768576451936
-10.259706082742131
-10.61775830826607
-11.712883719263749
-11.545156065575467
-12.079205240531516
-12.539214392934356
-10.43671183106806
-10.941566430699867
-13.645524623432843
-16.230678453416697
-22.49746076811915
-28.523585527846052
-31.03399775080338
-33.24275927512672
-34.763436285064955
-35.08920233273117
-37.17845540369303
-40.416219224552904
-39.7758359405676
-34.509678268818156
-26.271508151375844
-15.590881107696061
-4.34957700312883
5.589116587961703
12.254644934435195
13.936313841337297
11.765898636678942
7.7817358056847175
1.701790915936701
-5.245748401878669
-9.788222409144224
-13.017395488173069
-15.369276575198757
-14.155245067976404
-12.233652745377857
-12.592872813299113
-12.254751222846089
-9.362032711212564
-5.271034117827477
-2.2587644111001013
-0.6236543339016726
0.29934206639122857
-0.6059120317566042
-2.1438269971877184
-2.6221985872837967
-2.0380546205327423
0.9336010320467695
4.9388934134697635
7.816151755509069
10.549581201107356
11.684424743455198
10.493975586438925
7.931700679329085
3.5976833499888063
0.7308006185403545
-0.5468905528873871
-3.19087205107836
-3.7694849000760247
-1.9184168204217278
-2.0444241087885175
-3.905843961012187
-6.830077674101467
-9.881308508773333
-10.834367811049452
-10.902417784764333
-9.339343658654734
-5.736470810632806
-4.182830926376044
-4.959272947223465
-5.863469512912746
-6.916082721150827
-7.198879944029034
-4.879584630154698
-1.2127728674409786
2.6141655114234146
8.146539904544934
12.900607544994076
14.709098742655042
16.43925186825053
17.852851140725537
19.156040809382255
21.70141703362307
23.827726052698182
25.89328278946662
26.498086713252665
24.159163502187557
19.94270687942073
14.198357599297411
7.589944401499182
0.5739022336821258
-4.300995250242592
-7.12293597427417
-9.76112710431156
-12.058195051301738
-12.06137174391034
-10.731138270580502
-12.446489938193313
-9.87079608834695
0.2107048921782905
5.396420567802484
2.370900666868244
1.665513764800196
5.662122612872619
6.5498188273824836
4.488551615056962
6.818531071057874
14.05679297183665
16.13556326688442
13.088682123037529
15.520756697667363
17.50889841763007
13.667621396786853
16.347710539572343
22.57926754136898
20.164618346734105
15.44086036514718
12.412974450956446
5.718973566722751
-1.2640010317884964
-0.8746415702827769
-0.6763472335565215
-5.613599881947995
-2.914352403888113
6.184569202925598
11.322469072521347
16.975566722114355
27.563955820446914
35.56711645955475
35.99602700710536
35.488431832507054
39.375413483378146
40.346323213911816
32.6852797453614
28.931836539718102
31.919226072770147
26.36257815815863
17.378590102509662
15.521164993182087
13.796174433680848
10.54860260642373
6.765943334726993
5.081851386331149
9.59863609105527
10.116661117948476
6.47563353554814
10.410345055990122
15.15250991519602
7.966157908267404
-5.014832348361203
-8.643142147293272
-6.911543636680726
-11.120735987568441
-14.01425136335735
-10.430706180935783
-8.550060679129698
-10.598097449450798
-10.419253269977943
-6.834652009610493
-4.4448197877391165
-3.670461589627181
-0.7949984118790383
6.569706192765676
12.533155936074634
13.511778665295513
17.764660966322417
23.399160170472157
22.45415973874666
20.13881575392666
19.832322360437278
17.068387799941327
14.10765116675171
15.361979911620164
15.998111683627286
13.706547156742342
13.398699359762617
13.376154456205954
9.696250404916428
5.119350376156277
1.6840577591698502
-0.4418848010610135
-0.6983407600051355
-1.2040318301668214
-0.4976723726370443
3.4895448453759332
7.171397821071389
11.171060473418487
15.4908334166514
16.423858426924543
16.516287182278376
17.641996672902696
17.330047866462472
15.944010034392663
15.71271313453259
16.656189750173176
17.629748920586128
19.991730190074236
23.553588759983864
24.552170573755586
23.629759635561403
23.135854159128204
21.391260725244845
18.147215712761646
15.390848110058073
12.491371490543557
7.229020592667905
0.6721990341264074
-3.8968575011763
-6.10937915685117
-7.063701326367559
-5.14366779920489
-0.43067158632149516
2.175638706581991
1.8790294205609814
2.5928428934178185
4.067446044824008
4.070497337746862
4.066746633247766
5.720937008393451
6.359774802944916
5.374227368817545
5.868362411619984
6.988233055071782
7.471981459006422
8.173250251729826
8.759887262184304
9.245700970564116
9.542791959542772
9.66143024247071
9.723389871245955
8.962493890325264
7.96135740931427
7.863213510536228
8.343963860990362
8.877166011280416
8.488380682087099
6.035161225499531
3.492357905099905
2.477310631387873
1.4910821208633183
0.8144559749226317
0.49396715096907684
-0.8740772590234563
-1.6162251496871793
-0.40402221666633525
0.5185767417792599
1.151484064554669
3.271383515539404
4.7834851818225825
4.969346233215126
5.629550747173785
5.688604529458224
4.3131300630573906
2.9542842788772745
2.2746025996891257
1.2893603554638333
0.49534665292842084
1.492427119321951
3.532519570195637
4.844174624672894
4.815979445998532
4.821062127227861
6.291063304955361
8.310683471924227
9.56813060984263
10.361596883773942
10.38790743870133
8.53653406034611
6.096927486255737
4.67132897043374
