AAD_Filtered_TADAS_FILE
AAD_BASELINE_CORRECTION: BASELINE REMOVED
AAD_FILTER_TYPE: BUTTERWORTH
AAD_FILTER_ORDER: 1
AAD_LOW_CUT_FREQUENCY_HZ: 0.025
AAD_HIGH_CUT_FREQUENCY_HZ: 40.0
EVENT_NAME: 202302061024
EVENT_ID: 13207
EVENT_DATE_YYYYMMDD: 2023/02/06
EVENT_TIME_HHMMSS: 10:24:47.00000
EVENT_LATITUDE_DEGREE: 38.089
EVENT_LONGITUDE_DEGREE: 37.239
EVENT_DEPTH_KM: 7.0
HYPOCENTER_REFERENCE: AFAD
MAGNITUDE_W: 7.6
MAGNITUDE_W_REFERENCE: AFAD
MAGNITUDE_L: 
MAGNITUDE_L_REFERENCE: 
FOCAL_MECHANISM: 
NETWORK: TK
STATION_CODE: 4413
STATION_NAME: 
STATION_LATITUDE_DEGREE: 38.313533
STATION_LONGITUDE_DEGREE: 39.039342
STATION_ELEVATION_M: 930.0
LOCATION: Kahramanmaras_Elbistan_Turkiye
SENSOR_DEPTH_M: 
VS30_M/S: None
SITE_CLASSIFICATION_EC8: unknown
MORPHOLOGIC_CLASSIFICATION: 
EPICENTRAL_DISTANCE_KM: 159.28
EARTHQUAKE_BACKAZIMUTH_DEGREE: 
DATE_TIME_FIRST_SAMPLE_YYYYMMDD_HHMMSS: 2023/02/06 10:24:54.4735450
DATE_TIME_FIRST_SAMPLE_PRECISION: millisecond
SAMPLING_INTERVAL_S: 0.005
NDATA: 21762
DURATION_S: 
STREAM: HNE
UNITS: cm/s^2
INSTRUMENT: sensor = GEO-A200,/GEObit | digitizer = 
INSTRUMENT_ANALOG/DIGITAL: 
INSTRUMENTAL_FREQUENCY_HZ: 
INSTRUMENTAL_DAMPING: 
FULL_SCALE_G: 
N_BIT_DIGITAL_CONVERTER: 
PGA_CM/S^2: 50.934
TIME_PGA_S: 
BASELINE_CORRECTION: BASELINE REMOVED
FILTER_TYPE: BUTTERWORTH
FILTER_ORDER: 
LOW_CUT_FREQUENCY_HZ: 
HIGH_CUT_FREQUENCY_HZ: 
LATE/NORMAL_TRIGGERED: 
DATABASE_VERSION: 
HEADER_FORMAT: DYNA 1.2
DATA_TYPE: Acceleration
PROCESSING: Automatic Paolucci et al., 2011
DATA_TIMESTAMP_YYYYMMDD_HHMMSS: 
DATA_LICENSE: U (unknown license)
DATA_CITATION: Turkish Accelerometric Archive v 1.0 - Disaster And Emergency Management Presidency, Earthquake Department
DATA_CREATOR: AFAD
ORIGINAL_DATA_MEDIATOR_CITATION: : AFAD - Disaster And Emergency Management Presidency
ORIGINAL_DATA_MEDIATOR: AFAD PROCESS SERVICE
ORIGINAL_DATA_CREATOR_CITATION: AFAD PROCESS SERVICE
ORIGINAL_DATA_CREATOR: network: TK
USER1: GuestUser
USER2: 
USER3: 
USER4: 
[...]
-10.69253449988706
-11.179518985041833
-11.513189936312626
-11.686806112210373
-11.668661076322298
-11.469296815436966
-11.11610000412448
-10.632440878780157
-10.091087829844346
-9.536142917171487
-9.033995011258343
-8.705950765199225
-8.613317499826149
-8.754369546291315
-9.070476979066438
-9.488585817803246
-9.969428346697848
-10.456825625451163
-10.925173945899546
-11.387184373250983
-11.853630850187175
-12.386321242558083
-13.030377571737537
-13.784962031562976
-14.65538809181033
-15.61666124497457
-16.646828598674542
-17.7265268837217
-18.790196835319612
-19.779413734533986
-20.695477633565506
-21.589394691216487
-22.449839299099665
-23.273771787839546
-24.14308541434884
-25.008213436899947
-25.769009871878453
-26.389110278009138
-26.872069111895144
-27.256001432411036
-27.518741225388236
-27.685165331321755
-27.75492482824612
-27.662726487460173
-27.417477009402457
-27.037206381310714
-26.5388119173284
-25.910252345814076
-25.130081102337492
-24.180265103249244
-23.03184588370109
-21.70747806290075
-20.277027918805803
-18.836794907614326
-17.420221410244253
-16.01024392159285
-14.582497833092676
-13.09312677553112
-11.55907397531131
-10.015865532236813
-8.47635467256115
-6.967023441813871
-5.505762070408207
-4.085489594640163
-2.704560401580276
-1.4074000321980316
-0.23638444169805492
0.7765331253828438
1.6137050994826534
2.3003258972812355
2.827847184577294
3.1825264506890942
3.3952000685274806
3.50166258749357
3.5505512252394604
3.5739111714677536
3.584450320881094
3.566149128573449
3.4576163372166184
3.223341940461625
2.8513175302866447
2.352771955014072
1.760116844772256
1.127052651233433
0.5343279451248176
0.04483783952552629
-0.2804252923120507
-0.42794258082072717
-0.4144204109850592
-0.2067082459180649
0.2192485072953306
0.8348964949557317
1.610269334207544
2.5181445548443087
3.4932118282953977
4.49217151550446
5.506444604407841
6.525973644240896
7.56616104609053
8.650909267135916
9.777013160814429
10.939967476444524
12.141088181682578
13.345877176738803
14.50883360340792
15.612888120628586
16.639337472702614
17.58278398098996
18.469963443345172
19.278711855373707
19.948216106751403
20.469602589348174
20.848090187608392
21.041944039839844
21.001797534297797
20.709096329311507
20.181155544742108
19.49140784181933
18.7156483547141
17.892422690035353
17.061016349532817
16.26805741288492
15.582965702037317
15.030022906117951
14.5738393124353
14.202707248121326
13.890238777427792
13.596265880996018
13.280976492478255
12.900920798304282
12.434666942029049
11.86703789839103
11.199422343106624
10.463491198110825
9.742559251992814
9.148528279159084
8.738544460308258
8.505306496389323
8.43950160027194
8.555234324503033
8.82696746984878
9.188301491819916
9.586137256335991
9.954168818224499
10.191057146395824
10.238023676544056
10.134466110172356
9.919124881820325
9.579134446326746
9.130387838858473
8.618331596090217
8.097956667772104
7.640398543608758
7.285865923025561
7.06427389643768
7.009634790265863
7.073360043261959
7.155580789064495
7.211687071261897
7.208849076304682
7.123948084009325
6.956505728052661
6.670560682917854
6.271895871485357
5.779500974591659
5.1809226238241335
4.500501718505707
3.774530073356204
3.03313600668623
2.3061361933120392
1.6168661960201824
0.9162573389836791
0.13198307124730774
-0.7229482540560077
-1.5985183564794667
-2.466666991540537
-3.336354766903566
-4.194852512633404
-5.022025278301116
-5.798888626272619
-6.460282544912641
-6.971075855897428
-7.347004933957276
-7.57861212063398
-7.609610131800559
-7.411566781640494
-7.009606031803151
-6.440088077140032
-5.745824475580714
-4.963758490599788
-4.10887164514857
-3.177092484219776
-2.1818602950817705
-1.1949749825093503
-0.2885750885153801
0.5124218108498083
1.1873773824990248
1.7295067409645284
2.15322835942517
2.4646299217464502
2.6775745513548177
2.8365623487842364
2.9819489763843037
3.1381693152483616
3.342668011968334
3.593867641903154
3.876656263313634
4.220840585044914
4.6501808395547215
5.181691039739572
5.833112249645607
6.593894487325305
7.439667545835786
8.349064216027122
9.286454443625647
10.189984636231125
11.033481550112986
11.854014421499036
12.647347013390554
13.422445007157854
14.25789299862695
15.195444033920989
16.254286514508898
17.457933854906866
18.82356145657447
20.35075306618234
22.015187261747823
23.754684066480046
25.515988064015232
27.289195637683306
29.03243639712552
30.70599184036183
32.279264064361506
33.71442470183666
34.99197390521379
36.105155922954815
37.066318363398175
37.91251299811285
38.682703465949004
39.3414505410143
39.84649011482436
40.22518550836916
40.482919444297586
40.63020341562975
40.727121757992386
40.75939670294837
40.69218133885476
40.563320198120174
40.39526368842252
40.21184731947814
40.008976233418714
39.741368640331984
39.389412013819666
38.93096258673068
38.33420776026119
37.57818569402815
36.660439132897324
35.57017216916636
34.34559969571092
33.06118466829219
31.733893030195905
30.37739370395676
28.990486674159396
27.519874301927338
25.90318759997321
24.078023637314974
21.949828782706323
19.426417434152192
16.46504637327599
13.057237793120919
9.239968730528522
5.082414134432742
0.7226192390037462
-3.6420784087914937
-7.826492288181983
-11.644489697418285
-14.993252770498067
-17.828341932774027
-20.093846181590834
-21.786342433923238
-22.925620803899992
-23.58389999057897
-23.8305363138755
-23.69586847838459
-23.29979081774189
-22.738920785065908
-22.07123311346562
-21.374572373755036
-20.648483982915874
-19.92558624110847
-19.29724542306844
-18.825978034204496
-18.54052399592979
-18.406473067564225
-18.379349836090064
-18.424164428216518
-18.515924562410028
-18.63846141878056
-18.766542080664518
-18.888481354973962
-19.00224542772146
-19.13179431774573
-19.283194809338056
-19.448339300198974
-19.652625550664492
-19.870437503123533
-20.074107951967523
-20.29336486792271
-20.532941339825776
-20.770850480525255
-20.953465367725105
-21.010171148137413
-20.888571083668374
-20.557669126708927
-19.978500237879786
-19.06190903309064
-17.801652376016037
-16.284821195493535
-14.577825440970024
-12.788509788788778
-11.028073394428798
-9.357803927238047
-7.82036641517781
-6.448084516387239
-5.261239769389136
-4.225817866600038
-3.3365623244991567
-2.6108912118233367
-1.9987199734513732
-1.507493188167224
-1.0931847615776544
-0.6096681915956179
-0.022037214670241334
0.7687267111468944
1.8575695257334104
3.2063332862744875
4.8126773170836135
6.551640252684099
8.341560244458034
10.198631622328108
12.019815740606148
13.75052366958023
15.339891939793167
16.723916283290492
17.895146567853683
18.821830097905053
19.467778970080154
19.86679985757675
20.105629152818764
20.244237737212153
20.325523758246405
20.351778452371942
20.296752643789738
20.158716734001022
19.925784938078696
19.54314362760232
18.947043134138898
18.12725976589263
17.094670699888148
15.816549894318682
14.300710693715487
12.636254172738026
10.863809762258393
9.00256944151665
7.0784970656379045
5.103752424628309
3.085943791457427
1.0312484248428717
-0.9641274116411395
-2.8622416105190096
-4.70801058329183
-6.488661789548257
-8.232862720713607
-9.93784037066912
-11.547566823530742
-13.0426392800571
-14.368562524138632
-15.474254377873589
-16.359402015658922
-17.087191205561865
-17.71908417214203
-18.234529962750685
-18.690067484046004
-19.18670989632542
-19.74579437107799
-20.351881798780457
-20.950208929361565
-21.53401858527599
-22.104649885556622
-22.557397995176103
-22.823268235867737
-22.928025105480238
-22.865517210046942
-22.58812906751729
-22.1037157460653
-21.46257681381314
-20.704493837524023
-19.883558626280923
-19.100438216539867
-18.44963282130779
-17.882594761496605
-17.2931232049729
-16.70331696426548
-16.134078904233466
-15.496423025546017
-14.739878525507738
-13.912943801155404
-13.055756487305565
-12.17354728349507
-11.292303771023958
-10.41443344773102
-9.552199385750066
-8.75543907459409
-7.988886877479988
-7.227079136108639
-6.4715892458773485
-5.66513607169131
-4.826315918360598
-4.002747146605172
-3.2184767453884295
-2.5114344117903005
-1.8598396468693572
-1.2849359869657486
-0.8123167834318318
-0.36817480642641387
0.02635895536037316
0.3825047326364951
0.7750850469658366
1.1400378452327795
1.5139143694878707
1.9535703669483993
2.343106846291094
2.628472912249791
2.8528489859487145
3.0054301039595295
3.0233407961886565
2.9376316998931173
2.800055355644501
2.644789782553714
2.5592609820065886
2.549450467806706
2.6407252294878107
2.864337337512815
3.1479687794603506
3.498245085910349
3.915013566426817
4.35149299497286
4.800708285870301
5.245756033495295
5.667186352627566
6.002854745996261
6.190100413970592
6.22154363447346
6.128830553763929
5.957598885674128
5.728508228821964
5.46688078058734
5.226325192979024
5.056594660546897
4.961696045275359
4.931423626053519
4.959450401648304
4.9843981983747705
4.9249098016995285
4.763251854099588
4.493946931352823
4.101745398340298
3.5817314422062707
2.9193061522793426
2.1201003449067155
1.184416071195439
0.08951683644500992
-1.1686375757730605
-2.5632804670790423
-4.0926065131610105
-5.76520452398967
-7.507827587672808
-9.26078357953654
-11.01587184051909
-12.70392241020095
-14.240767140859937
-15.62055917423133
-16.839896415167885
-17.8243574345164
-18.51042143707241
-18.891501510352768
-18.99919346498861
-18.850039027367533
-18.47476669943534
-18.010816254495143
-17.542100150435374
-17.06768476082999
-16.618600208219664
-16.211679140680427
-15.859213669318505
-15.516824453984047
-15.123778122457216
-14.643249290485084
-14.01426669130571
-13.198226909368255
-12.154654917018743
-10.947466454299848
-9.634216266139818
-8.157122275037194
-6.564779133562552
-4.9224182788721595
-3.2740500373960937
-1.6276723664005035
0.08417842842156892
1.7767877929684663
3.3549580301498243
4.82990512467205
6.154796121302806
7.328234013427315
8.404558402213073
9.386373602886284
10.240795121778682
10.947027355615155
11.537836706037663
11.999497157997643
12.284604517749168
12.416263730761079
12.359827158555868
12.08346386305896
11.612761557939551
10.914570267519363
10.036828238949543
9.052712082678621
8.025053656496224
7.045057457583045
6.08860280212858
5.1410881666786405
4.182217267499625
3.1289381374095084
1.9697295408943143
0.7082146997354727
-0.7115416631088508
-2.3253525979013374
-4.066248603890352
-5.836408081172484
-7.556060760985085
-9.191137677639313
-10.772125953459806
-12.344733635754395
-13.884316088677208
-15.289484934463331
-16.555831186938356
-17.674028941798056
-18.614190451160656
-19.476459258514918
-20.289820244916193
-21.03467807867572
-21.732701881958256
-22.362683587430723
-22.901832635081796
-23.36497273156343
-23.784165205866536
-24.14889252273876
-24.452557246251004
-24.698481137471685
-24.872860237796697
-24.97240715444328
-25.021700134814775
-25.068021974578627
-25.075792119049648
-25.012234574588504
-24.939288418899785
-24.940540491076657
-25.064932701857828
-25.322265132863865
-25.72677076525502
-26.26234029951253
-26.915191915260436
-27.674299205098958
-28.484645265201916
-29.28157424300548
-30.01809288568957
-30.70563457061927
-31.32749254776482
-31.807441439752367
-32.15954305550691
-32.42507103758054
-32.5935409612647
-32.6401500097172
-32.46788592200177
-32.050957696674296
-31.43360349079289
-30.590250541257195
-29.525205444722324
-28.171813578974632
-26.412480319174506
-24.18740147493512
-21.377871245044044
-17.950466060287997
-14.064812598373418
-9.919778827951783
-5.771401831304621
-1.8543852242344787
1.7146550580520097
4.810469235088608
7.394882989529193
9.48177379874007
11.041470299044406
12.146955062625912
12.889150305292228
13.310574711448767
13.482169770134853
13.462915847836609
13.296961372152676
13.065725531345219
12.821357954849482
12.578742898535905
12.30313978587799
11.895453731479302
11.282627814936367
10.393629927396196
9.299684509357991
8.152389429365597
6.973861024067787
5.845616122740725
4.914657375586225
4.235206965747635
3.81727133857057
3.770383638486283
4.133315884006135
4.777419047242116
5.715954777260863
6.980190976153542
8.462717830209844
10.104175184277167
11.87701934288776
13.691423301459826
15.443457812165834
17.077097571060815
18.50693750747534
19.68544553805337
20.673968921785185
21.48011442625565
22.109501750730708
22.67297934976593
23.25976040163857
23.902550881323293
24.623295653269746
25.407809609655185
26.276827116609425
27.23789319721467
28.266000693073263
29.431771327554674
30.75525310715393
32.229428928836
33.895154844763915
35.70314428291792
37.59644285230142
39.52319630296589
41.39995964707414
43.17553065116316
44.81812304324239
46.304796168625494
47.57052140617328
48.55229726683027
49.31035707025167
49.89787823167959
50.283251676416036
50.49492797989153
50.546550431343555
50.41415931164121
50.18530794571068
49.92881021501366
49.615597938177075
49.21122468596093
48.67731227171624
47.95981593177668
47.01278678107501
45.8375851890562
44.476676331909175
42.9646607913889
41.34023457963176
39.682535472512434
37.973594489361304
36.123055511010506
34.147371478504766
32.071677242143835
29.94433426581618
27.804617624856842
25.604882579757717
23.382108826329368
21.135656934147555
18.81405828950751
16.459823366097115
14.099887456910169
11.74737846792133
9.365416959571386
6.898427015133431
4.355516522032389
1.774673392849808
-0.7791641722347832
-3.259356719336468
-5.620899542464386
-7.835289255946549
-9.919501218811288
-11.89308839018831
-13.731809184948194
-15.39806013569002
-16.908176180437533
-18.279790173043548
-19.5184685761205
-20.613527754014676
-21.548545281016608
-22.32248562732526
-22.93430438371504
-23.405336483167954
-23.7797565102793
-24.106534252954464
-24.369758198458847
-24.552277372624943
-24.68129445684081
-24.75837437435098
-24.788526309332127
-24.713735125777852
-24.471239865477408
-24.071691678197315
-23.495131412481033
-22.693175727967763
-21.646748349514162
-20.407858847082323
-18.998636190638024
-17.365613803772238
-15.55071698102497
-13.656287100205214
-11.745000206445292
-9.88126405517267
-8.056715402883253
-6.33642154496487
-4.8614157545971315
-3.5647227168887943
-2.428130787524061
-1.4962122462024745
-0.7293013915482279
-0.1794959579796772
0.1654745938061665
0.39982571018649404
0.5865308324111917
0.6911932812602227
0.6801828415074406
0.7056492847072993
0.7856635276779216
0.856037313657477
0.9460624791398196
1.0081238381715611
0.9956525598685729
0.832360793181165
0.4689722706527194
-0.09224158731167574
-0.8723872985432322
-1.8630538417228975
-3.0475984909914144
-4.370989440959023
-5.788969081144677
-7.219054228666552
-8.582061869830298
-9.869232614493184
-11.05750017964431
-12.114970597119163
-12.964240332562516
-13.64676217695482
-14.255139175993104
-14.763231355124695
-15.205166346387427
-15.609913814750524
-15.952885496185155
-16.274786851441466
-16.62120141276795
-17.010973076475462
-17.47507811554568
-18.031148944290358
-18.659169565124326
-19.341447051682792
-20.052934630626414
-20.74450759355549
-21.384196306937373
-21.915578746342682
-22.285746563101007
-22.476707465458176
-22.47584009668668
-22.325886024449048
-22.058199895324
-21.64610798409151
-21.092685080037356
-20.470746777930806
-19.832565507046272
-19.13863522578232
-18.408111801502823
-17.730956719738696
-17.12220043780687
-16.605110135174925
-16.24541119763116
-16.02155839369884
-15.901215613741948
-15.90946085693833
-16.037674378259773
-16.311796629530296
-16.75060673295377
-17.282015785407335
-17.853858747244985
-18.4332602506808
-19.013127313681323
-19.62139177940174
-20.25266046888885
-20.836996765306836
-21.319872782484264
-21.729614439942015
-22.101353403244023
-22.453537744681405
-22.72533839889746
-22.83175028872819
-22.76223563784897
-22.494337257589095
-21.99697499650483
-21.27406853791945
-20.37707334862104
-19.361383022081906
-18.283099258893582
-17.16924090394682
-16.010946335573735
-14.895751589219245
-13.910971316884895
-13.00194944466761
-12.07608876011816
-11.164892065418455
-10.307172014613725
-9.450925587079904
-8.582464637284247
-7.645209308433681
-6.569190646708993
-5.391918368967242
-4.1648740653286795
-2.886853855390542
-1.5514878355643118
-0.1278818314786205
1.4408469208919676
3.0909792997577914
4.755111161343379
6.439075771312689
8.154598095183882
9.962761586150844
11.848086171628532
13.725038113462626
15.562379514023826
17.3769776448575
19.178774784119458
20.914093448948336
22.518940683545186
23.92797331979205
25.079000022562422
25.948679874605347
26.571744534355336
27.077076929983694
27.479319350561045
27.701308602445085
27.8015349919377
27.777709898836587
27.577309726374313
27.24344535323858
26.793575476821374
26.2261981045478
25.625101064144122
25.072229736052606
24.529172190874288
24.014550509723055
23.570499187140154
23.123397617998535
22.701102787630035
22.318865653626947
21.890883484182044
21.46036677022548
21.04778555547916
20.590659646861774
20.095476398993636
19.595250692601446
19.083326731941565
18.5089589891973
17.815710438364327
16.985508115834005
16.037810911772365
14.976851630853146
13.840165760459568
12.661050545580785
11.443981011140275
10.268096608225534
9.177932225146748
8.146552706621693
7.122348960837047
6.116278173499385
5.291946831796191
4.721094510450699
4.350480280819595
4.214695212745914
4.341581134001583
4.700732205283078
5.252723658025439
5.911849996441666
6.589688346140601
7.209526562893172
7.734336478004461
8.20270679082942
8.630305463896674
8.997363575256971
9.277145091999447
9.46480837026742
9.601033183672575
9.666319327412795
9.599014560883614
9.453337436747075
9.383551272209738
9.428222088338568
9.512420622815895
9.597626378860145
9.643053662691809
9.61147269325003
9.500336115631251
9.299763356255388
8.968291264497852
8.539034692638475
8.110448168458937
7.686443850147671
7.286150718625881
6.919140065699938
6.533233374057351
6.134589054958988
5.681751734677039
5.120465385279875
4.504502427134053
3.904309870281674
3.314388525803
2.697735758502046
2.0283086556531154
1.2889334911614174
0.5043137069937388
-0.29041852109333083
-1.0610788114076217
-1.8623962331387496
-2.739446371696249
-3.638230805279871
-4.588110990471638
-5.521298271179315
-6.402698328770963
-7.339063308867316
-8.285388079601871
-9.227778786996089
-10.11382492079586
