AAD_Filtered_TADAS_FILE
AAD_BASELINE_CORRECTION: BASELINE REMOVED
AAD_FILTER_TYPE: BUTTERWORTH
AAD_FILTER_ORDER: 1
AAD_LOW_CUT_FREQUENCY_HZ: 0.025
AAD_HIGH_CUT_FREQUENCY_HZ: 40.0
EVENT_NAME: 202302060117
EVENT_ID: 13194
EVENT_DATE_YYYYMMDD: 2023/02/06
EVENT_TIME_HHMMSS: 01:17:32.00000
EVENT_LATITUDE_DEGREE: 37.288
EVENT_LONGITUDE_DEGREE: 37.043
EVENT_DEPTH_KM: 8.6
HYPOCENTER_REFERENCE: AFAD
MAGNITUDE_W: 7.7
MAGNITUDE_W_REFERENCE: AFAD
MAGNITUDE_L: 
MAGNITUDE_L_REFERENCE: 
FOCAL_MECHANISM: 
NETWORK: TK
STATION_CODE: 4410
STATION_NAME: 
STATION_LATITUDE_DEGREE: 38.86677
STATION_LONGITUDE_DEGREE: 37.679
STATION_ELEVATION_M: 1243.0
LOCATION: Kahramanmaras_Pazarck_Turkiye
SENSOR_DEPTH_M: 
VS30_M/S: None
SITE_CLASSIFICATION_EC8: unknown
MORPHOLOGIC_CLASSIFICATION: 
EPICENTRAL_DISTANCE_KM: 184.16
EARTHQUAKE_BACKAZIMUTH_DEGREE: 
DATE_TIME_FIRST_SAMPLE_YYYYMMDD_HHMMSS: 2023/02/06 01:17:43.7646880
DATE_TIME_FIRST_SAMPLE_PRECISION: millisecond
SAMPLING_INTERVAL_S: 0.01
NDATA: 13501
DURATION_S: 
STREAM: HNN
UNITS: cm/s^2
INSTRUMENT: sensor = ACEBOX/SARA | digitizer = 
INSTRUMENT_ANALOG/DIGITAL: 
INSTRUMENTAL_FREQUENCY_HZ: 
INSTRUMENTAL_DAMPING: 
FULL_SCALE_G: 
N_BIT_DIGITAL_CONVERTER: 
PGA_CM/S^2: 33.704
TIME_PGA_S: 
BASELINE_CORRECTION: BASELINE REMOVED
FILTER_TYPE: BUTTERWORTH
FILTER_ORDER: 
LOW_CUT_FREQUENCY_HZ: 
HIGH_CUT_FREQUENCY_HZ: 
LATE/NORMAL_TRIGGERED: 
DATABASE_VERSION: 
HEADER_FORMAT: DYNA 1.2
DATA_TYPE: Acceleration
PROCESSING: Automatic Paolucci et al., 2011
DATA_TIMESTAMP_YYYYMMDD_HHMMSS: 
DATA_LICENSE: U (unknown license)
DATA_CITATION: Turkish Accelerometric Archive v 1.0 - Disaster And Emergency Management Presidency, Earthquake Department
DATA_CREATOR: AFAD
ORIGINAL_DATA_MEDIATOR_CITATION: : AFAD - Disaster And Emergency Management Presidency
ORIGINAL_DATA_MEDIATOR: AFAD PROCESS SERVICE
ORIGINAL_DATA_CREATOR_CITATION: AFAD PROCESS SERVICE
ORIGINAL_DATA_CREATOR: network: TK
USER1: GuestUser
USER2: 
USER3: 
USER4: 
[...]
-4.096576518296323
-5.61013248448553
-7.489956994984637
-9.182062448600911
-9.959036179382464
-10.001276442890575
-9.993826426056367
-10.235622232751137
-10.316235218177372
-9.88504477305381
-9.585179873824504
-10.417688928232415
-12.681832412221791
-15.81643571508458
-18.986428970190758
-21.796207309604338
-24.02157610109473
-25.106759635708837
-24.860252544665858
-24.21548057471892
-24.404147887172137
-25.49800467779689
-26.373890963421697
-25.933672564386246
-24.147623546947973
-22.04786176525805
-20.494928728793727
-19.369803495994077
-18.281434910275973
-17.07714231904034
-15.714928345188392
-14.240507964701333
-12.483826886654164
-10.122029310456087
-7.0502181631586955
-3.5493191423331636
-0.37473716698481363
2.332589192963692
5.222796002000349
8.191789661984402
10.660119072348625
12.160770007718263
12.57642985225754
12.849823081723608
13.422579142445722
13.679325635207986
13.699034704316142
13.816138278864246
13.974959296647542
14.258026803471234
14.665047777138172
14.96839163210201
15.077914269006007
15.476548225260983
16.770828299246165
18.630788994639357
19.99252362053012
20.223256183089426
19.90227608719931
20.22589578044725
21.639824817918868
23.56212726862903
24.951890697573965
25.079727774459577
24.068080370580905
22.305831074700563
19.855168906440202
16.917112165620175
14.075695062238617
11.716496960037363
9.728173178773611
7.6864557048192435
5.050526094527194
1.779571953641851
-1.3996445769622834
-3.789857437764895
-5.183391941595403
-5.686809356390392
-5.346605975742835
-4.038856760766233
-2.142242196314668
-0.3233307334139723
1.29571593659491
2.752453512821525
3.905960202249155
4.52389347084729
4.345475663764401
3.4549508635245783
2.0968455803298407
0.31668041138315695
-1.8942898131906036
-4.468700748194987
-7.087785618028671
-9.45239704587372
-11.66271568982782
-13.623370263224931
-14.868697398580665
-15.55290691485624
-16.505854705674484
-17.994579579250857
-19.45666642916008
-20.360118973829557
-20.537875542585883
-20.063387811451484
-19.22091658145281
-18.394403540994553
-17.692230138407172
-16.773658116351797
-15.539318477466646
-14.524737934336237
-14.144985805871475
-14.233506457274899
-14.36918759064908
-14.171606210945352
-13.418130158355597
-12.214475458377006
-11.121456147829496
-10.725646234389911
-10.775241547957368
-10.405468758742321
-9.352235294356674
-7.819884515779265
-5.861702366950019
-3.8411481908267335
-2.187750186214704
-1.0371916242482762
-0.6495763534813308
-1.031724056778443
-1.7402993693131423
-2.2907174766516523
-2.2681321689253076
-1.3884526756502662
0.8435406126526868
4.723356886573397
9.12938120963189
12.071264369311079
12.458013706138376
11.161922622945282
10.37199732833749
11.299321646349691
13.101220092068216
14.200862008913104
13.857703451253373
12.566030214685565
11.06849808981656
9.42720343186765
7.528025953048802
5.436666651808584
3.031113979839384
0.40325662517593275
-1.7291753020362817
-2.8174666498630394
-3.2850932801628328
-4.083818780340709
-5.66313224042389
-7.655052004342677
-9.22980376714323
-9.58527187683505
-8.63231108773514
-7.1876954120482095
-5.990708318694675
-5.142355560963099
-4.975761369978369
-5.941875870184592
-7.266954602869081
-7.518973703606264
-6.1533803814764285
-3.448111238891946
0.025735984525014563
3.6270676821402854
6.791054769931467
8.96762276583071
9.971351823527149
9.849584922948285
8.236157672982191
5.224175989380091
1.9803976305640087
-0.4407197216219981
-1.6363748627798052
-1.7171451798171837
-1.1921601223331995
-0.4387902571175825
0.11465166983637082
-0.16829666110519936
-1.422780020127597
-3.1873399886430316
-4.755689436311086
-5.492346531369171
-5.183534926923311
-3.9533187837153423
-2.17001702934128
-0.38723169490254333
0.9706531742576843
1.7418454665851102
1.861176226375745
1.2525858581725309
-0.06926742214800988
-2.1297212867984943
-4.894565195535586
-7.703417421188137
-9.737819077669256
-10.985360371355268
-11.991543545495215
-13.056537511946726
-13.960896048439817
-14.278564691165629
-13.848984272165493
-13.036319309000922
-12.534665417622149
-12.841357113580269
-13.706503867117162
-14.168158876175582
-13.75925794389466
-12.881974505742955
-11.74466670933589
-10.413578606496058
-9.040291279390408
-7.420675489345924
-5.401833813633147
-3.020318671311822
-0.47407237760636695
1.3905499827120567
1.8601995599178311
1.4347946123490116
1.0841301727137838
1.0357538278578746
1.0714820382790478
1.5512460570399416
2.9531341354238902
4.61213252457664
5.339541695918807
5.000885143796936
4.4606324825020645
4.59624504373421
5.844450500125276
8.083330329186317
10.555878122951977
12.124112255374932
12.335141630304612
12.114121826529459
12.471144696141913
13.035775324377349
12.77206032663083
11.47377366934322
9.780453425405293
8.345115842748204
7.442402126524641
6.731937369393735
5.63547812686898
4.314680292719336
3.4484469016647314
3.301139301504483
3.631689822093135
4.064086709200872
4.366426794104062
4.3437592856185105
3.726373251486098
2.5463229246787265
1.0836679431597587
-0.7846493910039847
-3.5022597316293034
-6.892687820062294
-9.9470345500332
-11.681101074467707
-11.62738081986977
-10.001580456851874
-7.923158647513032
-6.5937093366201
-6.140174860363477
-5.83921082362789
-5.084521202795177
-3.89224258592383
-3.003616730651434
-3.482074321276778
-5.66654626058753
-8.733264357629643
-11.429763009535263
-12.854168487772155
-12.67686804616575
-11.091498178610951
-8.823991340993564
-6.752508397302057
-5.533580010540198
-5.989554887029872
-8.565361261091399
-12.393103966002885
-15.922696876608812
-17.589962744647238
-16.48596521368369
-13.180017672648669
-9.068221373043047
-5.534509553919702
-3.433687173813907
-2.5694278058768973
-2.607121312905374
-3.7401853110239394
-5.758683165684412
-7.938449727488045
-9.707796331414693
-10.613712414908267
-10.269995494445762
-8.56528396890873
-5.926587273706472
-3.0737791721015197
-0.18742806461503553
2.777128486950484
5.3457237354564
6.879050503802881
7.040378276047076
6.2687176157287485
5.619595111356902
5.475060835229581
5.362769163475722
5.220239272083402
5.951700281093416
8.2473141934478
11.150884914845554
12.674862913065745
11.563160337276848
8.037031647479335
3.4140286798168846
-0.8179722881619187
-3.709510707899333
-4.973674798736816
-4.611919658772393
-2.337446269870009
1.8064060260917858
6.367049715321665
9.467863730447373
10.194374249682207
8.408330695620425
4.802146518010075
1.1730886155326636
-0.7239463180281787
-0.7715041565373327
-0.29122036062782486
-0.3242110553328413
-0.8871925953023192
-1.1574537988947744
0.06408415958485522
3.013566929744014
6.703243957828988
9.935986700076665
11.72008928044569
12.126848131264492
12.430875006332036
13.136471094170203
13.520675773437004
13.212660211200797
12.517622765893394
11.756882363559203
10.938599028145177
9.813638883419156
8.411728162949826
7.080090126284439
5.806689795631085
4.141480272522662
1.753122165737975
-1.050446707072014
-3.3637661628003057
-4.584210900766099
-4.90091241793276
-4.614847316509221
-3.7630782003773273
-2.707593213660323
-2.171384509756686
-2.2992500334618167
-2.649005092414344
-3.199339992430887
-4.094638987865199
-4.886631712426525
-5.390698021659082
-6.114760550345943
-6.9527173368630715
-6.854858725333359
-5.290502907992865
-3.555978506950084
-3.951012318852689
-7.072280494112045
-11.031418114849753
-13.57248566184422
-13.751258512632354
-12.375516965908833
-11.359576485484354
-11.77222793558078
-13.0540459424839
-14.27402202050901
-15.176740724336407
-16.07800591795625
-17.160392676557834
-18.02272500053063
-18.039123958541925
-17.159727286678734
-16.143851325193772
-15.768150923454716
-16.181058894552773
-16.864887532904813
-16.74820238030277
-15.245270564309356
-13.092818438049957
-11.361653871040065
-10.250411815327453
-8.798511212831752
-5.902494944763032
-1.9091467166257154
1.5618482590332134
3.057184180780963
2.4891322371428077
1.0241711603707442
0.03237175855624433
0.8777182891906073
3.7714584598173406
7.516077830984497
11.546016644524704
14.96933415669976
16.33351874962772
15.869469315334365
13.89050307411938
10.150411256485503
5.805260845145928
2.5159350153163125
1.1791947819797877
1.5176009470278593
2.2081268336010207
2.4687732355834977
2.5054885171833137
2.6242520644357796
2.695719140094675
2.2867190328228038
1.6310187959287112
1.5449574980078227
2.105637621043807
2.69108146354434
2.8825191809764297
2.75982075349209
2.522240370338627
1.9868970038321547
1.2242206272502385
0.7692368471082326
0.9799240621200179
2.1539081978145163
3.49459524724572
3.1558081720256537
1.1503294470946845
-0.8168346130141172
-1.8010563152267607
-1.8184309144417703
-1.223692744383299
-0.18653364018961913
1.2518535228068495
2.546453275373654
3.0762846040344263
2.987366990825951
2.9602595765690354
3.1664790343938285
2.920613665835442
1.7161325470782531
0.4623795905592603
0.902770077932098
3.2728425561413235
5.905042110664653
7.187263951177867
6.526287533440122
4.697120918924458
3.6081392899137006
4.065028664590125
4.564939883318965
3.2778004323890793
0.03034737926308347
-3.9156664964879306
-7.040347947194723
-8.62438591476589
-9.088368903781614
-9.389887957062605
-10.176614667589252
-11.140252798246294
-11.444336202133588
-10.948673486118148
-10.347366304168078
-10.438346367956651
-11.47849000363814
-12.955067748112043
-14.247468261894811
-15.378114602289516
-16.677040929798714
-17.819595308242018
-18.07329238449193
-17.476972739534983
-16.80292736699905
-16.782807480368998
-17.61206152587019
-18.845055203682165
-19.872454533704175
-20.17667247993735
-19.472435573565228
-17.843721549833663
-15.542573900226575
-12.977623016070057
-10.471081408528617
-8.179372994552114
-6.299481015699549
-4.759177112270706
-3.461069478613999
-2.2663038313375767
-0.6576621618873083
1.1840853104812095
2.3664799922853867
2.5076426700784804
1.7598023475336864
0.6514597277122806
-0.10815997193904901
0.051437969282962355
1.452698109652264
3.745127288015284
6.243930776792205
8.560619046898632
10.261161613054147
10.610885816337227
8.935228237764049
5.774774565872266
3.591321113819019
4.453172433273557
7.431091269584158
9.796697826384916
9.602636526868466
7.367554705158699
6.00888099840258
7.208619520959591
9.34635348588594
10.041283751442158
8.202007250226744
5.187336969997102
3.7707225121983363
4.387315514162204
5.098687626659059
3.938168331736966
0.7702440022952867
-1.4605027767100403
-0.21504977967206623
3.156037940485682
5.885385743980998
7.160397149169949
7.980929581735234
8.810027965066615
8.826199675673923
6.971350792552298
3.34801342076227
0.352215718627543
0.10822502675045094
1.7918303018193835
3.607107862157001
4.359001176074526
3.874255386778218
3.2982800206610197
2.8970331619780274
1.834581055643774
0.5035589125246088
-0.10966935088249144
0.33523210308683815
1.3711822784614183
1.8150760864574957
1.7520408836594172
2.5131935573504958
4.588127687463556
7.657916643978864
10.187175597164297
10.277176032614344
8.667552830825882
7.965919533377412
8.970612538828194
9.442015691363547
8.007919929729459
6.671739721442308
6.380866717065565
5.8121624819196605
4.442290464135815
2.0952468744323807
-0.6751223057367456
-2.2911316462727283
-2.863378400141788
-3.740924884236964
-4.788431942163566
-4.519658572082629
-2.2589587452564546
1.1981438664763182
3.9016167574282488
3.189259548670198
-0.4619083578437154
-2.883089356622207
-2.5401240364577413
-1.201810241214024
-0.23105828604672377
-0.5028554235733641
-1.9434996253222192
-3.374617780274845
-3.6775161098105276
-2.4588013365124888
-0.9973163738817116
-1.0934467435940824
-3.2081976332440356
-6.060143108090821
-6.904881745220517
-4.443650448723683
-0.922696358299031
0.22053425723610198
-2.0761459824257664
-5.394098330562646
-6.8327890203571275
-5.895567376849233
-4.006276769496948
-2.895891094285906
-3.1466763455184212
-4.138707031674059
-4.958466050292582
-5.392868334387966
-6.019387256937342
-7.072586636379269
-8.699510706484343
-10.177185919426329
-10.067313397199296
-9.5545896784824
-10.127206106272038
-10.784372622339017
-11.000207159819173
-10.421918623338748
-8.038875291804896
-4.2832412447905215
-0.7361672744785028
1.4872121538520677
2.48204522951238
2.8038441610467837
2.4529778395767656
1.2289369197435926
-0.8164410439898446
-2.8725722421410294
-3.3353048233393037
-1.2108210535644395
2.522213972194902
5.677746622791479
6.8389765895002945
6.514749335134401
6.927301580362366
9.188094088459929
11.892177878602588
13.932904222925082
15.75029296105569
18.0793711789231
20.616733829589343
22.52828974244719
24.258557581577982
26.31992080905933
28.276975506203037
29.253281720447912
28.099348957256726
25.40637123305275
23.0354725673159
21.786323043127798
22.083365287973198
23.783094513685686
25.830606818328715
27.973797650248414
30.65260091520667
33.13838084922991
33.69338810349456
31.560248562723835
27.62584274904175
23.631527954047062
20.913682520080748
19.45574333822702
18.51138527458967
17.62180980282844
17.06164465578261
17.368676786017698
18.24144298978875
18.514780775537663
17.14861823554941
14.481951195567934
11.941576694101133
10.046090966393733
8.348955745721469
6.965154748499079
6.361864398556443
6.087161454833864
5.405828512053073
4.558514876228373
3.979781639981586
3.726980958193216
3.2176836861323896
1.0515323931138152
-3.0327220731466378
-7.477389246268953
-10.215896766326418
-10.23661914428864
-9.216393682244755
-9.333870452088359
-10.997296684918215
-14.308413311429275
-18.429658495190747
-21.222033240797547
-21.76698446324668
-20.68755554987721
-19.05048719584964
-17.718690359338478
-16.684137358814766
-15.410235937235232
-13.71757278187417
-12.055655941367984
-11.233440979292373
-11.837257556392368
-13.424303800711412
-14.732597276363185
-14.509021083333847
-12.094793465323347
-8.886432552930845
-7.363797830836489
-8.01185011014614
-9.682281234189999
-10.544566699376366
-8.900959255571314
-5.657974475650322
-3.3825610810792175
-3.305889657221906
-4.639178114878286
-5.386665427291949
-4.516929246005175
-2.877681906697114
-1.6936027631684656
-1.6299062354172589
-2.338419769855215
-2.6291029683009635
-1.3815236717467807
1.8930233363629145
6.185038719670146
9.653023288707114
11.515675685402822
11.879800415841375
11.248007998688399
10.353012464145017
9.452557589580096
8.66088127818798
8.456956431085366
9.368033833285333
11.233913344281586
13.059148245663621
14.210861154240645
14.440776258935895
13.401202380841013
12.04030053770576
11.916098152705445
12.509155089385207
12.265563107481592
11.351320287728367
11.240909916455612
12.381044405222305
13.32656801723597
12.554571284324528
10.371326053896336
8.471825961654528
8.257888930075964
9.478373912890685
10.703811840127017
11.236959612551491
11.346563733150335
11.243304067630813
11.248714664200614
11.618376669121073
11.696648844552172
11.176797965414181
11.094782606868597
11.729524905184402
11.587555637256113
9.886643738163738
8.598285211216803
10.136154963631514
13.728843108665805
16.229092546720427
15.368667461107995
11.998469841814089
9.468356364787782
8.98604504628099
8.531268519982921
6.844841153736514
4.176067546610472
1.4280623862460795
-0.3940526990787978
-1.6279729238553193
-2.8083932233808255
-3.8368774401804258
-5.184604336736745
-7.073054644265889
-8.783802856955235
-9.618897645156508
-9.446694039308719
-8.72131276718906
-8.068404097756806
-8.024379104342911
-8.666997557817998
-8.771101309022763
-6.996511218360373
-4.390718966620459
-3.4820791321347637
-5.044055713772378
-7.464373742123868
-8.94939420843705
-9.605977014376078
-10.720208454178703
-12.711105200541693
-15.0194529070116
-16.38461988129669
-15.653659223937431
-14.05693275848262
-14.47268458485324
-18.0794030304766
-23.475430628623904
-27.96937242613175
-29.440037366404013
-28.231760457095355
-26.549048049606302
-25.609415657371567
-24.323047953182417
-20.591854130369708
-14.326994299647726
-8.641368829442563
-6.52499351575069
-7.889797861976786
-9.763680457541241
-9.191781028524678
-6.7191731866654605
-4.342389763035609
-2.885886674939096
-2.903057908213299
-3.6236842235604296
-3.774489378511835
-3.078163194746829
-1.0712815914590532
1.7033596562450843
4.586221352118644
8.130587193619654
11.081682062419553
11.635386342025559
10.300077016528284
8.301245640450787
7.1859592121811735
8.645863291790787
12.151941561845994
15.455439064519737
17.27036357648864
17.613377467687165
17.56613942493566
18.40204535662439
19.599107153474588
20.019617200149412
19.312524028415805
17.267887176140075
14.704196650912737
12.721085441792667
11.100966830774388
9.918891159209732
10.0212625849025
11.517049578909493
13.53264091200922
15.388625319488854
17.36687407469888
19.23187963243051
19.96677206320598
19.50958063608495
18.25685993012643
16.355881658153372
14.09991117738918
11.721209239176664
9.653387882668019
8.482513367853462
8.335003825169215
8.891264919875494
9.506783265072434
9.369454277630373
7.788886560664039
4.802344911767595
1.462338114832058
-1.411376275244159
-3.9935987725621103
-6.272309674142835
-7.710489263143834
-7.857737022083777
-6.375503368105215
-4.153486639010294
-3.3047125298148967
-4.761188815628921
-7.673341945529738
-10.300001821907552
-11.500725754504348
-11.831164877839399
-12.008930965732503
-12.272203426526982
-12.628213388966653
-12.3341742559723
-11.278061481723025
-10.27870040846486
-9.444182946530242
-8.910837925716564
-9.321765107174663
-10.490880698104808
-11.846017420183156
-12.793326557167934
-12.276672130905705
-10.108123416410248
-7.192713345112407
-4.848301012610417
-4.6898536788879905
-6.742670937857064
-9.557070326300988
-12.305510771251361
-14.603963519739171
-16.57137195911828
-18.320500131917672
-19.07502954626504
-18.72616868341519
-18.37476590979241
-19.435725973152955
-21.86968766091991
-23.213813666201943
-22.475426289677436
-21.544533304605213
-21.54997520822938
-22.012465893681522
-21.743433267971614
-20.398010811568106
-19.132141434321966
-18.016978053822616
-16.22453873083055
-13.48832874456256
-9.668891115104676
-5.574546085177336
-2.5780942297908496
-1.6914842530455947
-3.1842511456100326
-5.206482874811528
-5.608796713814445
-4.71532553540446
-3.831328828802429
-3.15463677096573
-2.238163732671402
-1.0976934403134482
0.06741623938801204
1.069808833564823
1.2980007584603768
0.8156124852288139
0.7770193624693112
