AAD_Filtered_TADAS_FILE
AAD_BASELINE_CORRECTION: BASELINE REMOVED
AAD_FILTER_TYPE: BUTTERWORTH
AAD_FILTER_ORDER: 1
AAD_LOW_CUT_FREQUENCY_HZ: 0.025
AAD_HIGH_CUT_FREQUENCY_HZ: 40.0
EVENT_NAME: 202302060117
EVENT_ID: 13194
EVENT_DATE_YYYYMMDD: 2023/02/06
EVENT_TIME_HHMMSS: 01:17:32.00000
EVENT_LATITUDE_DEGREE: 37.288
EVENT_LONGITUDE_DEGREE: 37.043
EVENT_DEPTH_KM: 8.6
HYPOCENTER_REFERENCE: AFAD
MAGNITUDE_W: 7.7
MAGNITUDE_W_REFERENCE: AFAD
MAGNITUDE_L: 
MAGNITUDE_L_REFERENCE: 
FOCAL_MECHANISM: 
NETWORK: TK
STATION_CODE: 3116
STATION_NAME: 
STATION_LATITUDE_DEGREE: 36.61618
STATION_LONGITUDE_DEGREE: 36.20661
STATION_ELEVATION_M: 33.0
LOCATION: Kahramanmaras_Pazarck_Turkiye
SENSOR_DEPTH_M: 
VS30_M/S: 870
SITE_CLASSIFICATION_EC8: A
MORPHOLOGIC_CLASSIFICATION: 
EPICENTRAL_DISTANCE_KM: 105.38
EARTHQUAKE_BACKAZIMUTH_DEGREE: 
DATE_TIME_FIRST_SAMPLE_YYYYMMDD_HHMMSS: 2023/02/06 01:17:30.2162110
DATE_TIME_FIRST_SAMPLE_PRECISION: millisecond
SAMPLING_INTERVAL_S: 0.01
NDATA: 12501
DURATION_S: 
STREAM: HNE
UNITS: cm/s^2
INSTRUMENT: sensor = CMG-5T/GURALP | digitizer = 
INSTRUMENT_ANALOG/DIGITAL: 
INSTRUMENTAL_FREQUENCY_HZ: 
INSTRUMENTAL_DAMPING: 
FULL_SCALE_G: 
N_BIT_DIGITAL_CONVERTER: 
PGA_CM/S^2: 168.863
TIME_PGA_S: 
BASELINE_CORRECTION: BASELINE REMOVED
FILTER_TYPE: BUTTERWORTH
FILTER_ORDER: 
LOW_CUT_FREQUENCY_HZ: 
HIGH_CUT_FREQUENCY_HZ: 
LATE/NORMAL_TRIGGERED: 
DATABASE_VERSION: 
HEADER_FORMAT: DYNA 1.2
DATA_TYPE: Acceleration
PROCESSING: Automatic Paolucci et al., 2011
DATA_TIMESTAMP_YYYYMMDD_HHMMSS: 
DATA_LICENSE: U (unknown license)
DATA_CITATION: Turkish Accelerometric Archive v 1.0 - Disaster And Emergency Management Presidency, Earthquake Department
DATA_CREATOR: AFAD
ORIGINAL_DATA_MEDIATOR_CITATION: : AFAD - Disaster And Emergency Management Presidency
ORIGINAL_DATA_MEDIATOR: AFAD PROCESS SERVICE
ORIGINAL_DATA_CREATOR_CITATION: AFAD PROCESS SERVICE
ORIGINAL_DATA_CREATOR: network: TK
USER1: GuestUser
USER2: 
USER3: 
USER4: 
[...]
-21.030822941512053
-22.807669945833112
-28.94334525623474
-19.849481975637126
-21.723769770571163
-15.68853097880941
-1.3943736576648784
-0.20714813075300692
4.491860653788884
6.5897755021218645
3.5655168654672362
-7.139200602821939
-15.415165047738778
-12.89662164196065
-9.325921866942549
2.180585444429303
15.711214800849637
22.32147538886023
26.975123355491867
10.830024841724901
3.9788094666230016
9.129973855127675
8.004372126450006
11.178426651037928
7.571979021626278
2.391851131466074
7.941111548269111
10.71846788323177
7.144859571003446
2.4301797285560185
1.3247144850286947
-0.8035612685368466
-1.5410668189113428
-5.34890818627589
-15.105675271831071
-19.573613289481788
-15.095884159024921
0.8969487986486885
0.8899110608262205
9.97260192085766
14.466000744327886
8.862470055342557
31.561974700777373
47.14096941702123
41.013830335290706
40.71471908677291
53.9107864367087
43.100477297722634
28.455123397519678
33.041404058242435
38.89885437906234
50.02597889452026
47.948170122857334
42.580592152459765
36.52480032099721
31.6862236825524
13.305290402722086
-3.671768323493683
-1.7337158221541211
-1.054788757119262
-3.3967395119243373
-21.159658547668183
-31.644988936635734
-24.47370526431516
-20.85980719277576
-15.550946165980394
-3.885061983244314
1.2050973495862494
2.9623275565506306
-6.98885801947615
-13.101763746843844
-8.153259840697757
-0.2572065313785977
11.812436387502618
12.05931876313217
13.302312318626903
9.68424911508182
4.930781398550652
3.8087023479566824
-4.587886091898585
-21.443391640160968
-19.18551355185081
-6.812586641804655
-8.352954557868804
-19.780177051411332
-27.239354408116018
-23.993822964056864
-24.805334900354712
-19.601464979229323
-18.460064243528404
-25.992490830582014
-24.09388612412678
-23.962155928191798
-29.89892306652663
-27.10083444308147
-21.32622613989106
-22.38644293505677
-20.848502613447973
0.30618074631931375
-5.296818967522359
-10.640318238961399
-4.0429594254524215
-5.950852245453401
3.9052317935035794
-1.4218882664923818
-1.8084766300869148
5.478275258300606
9.831682255447168
9.874249605908496
2.4705674744430426
-4.212909651309944
-11.1103979975953
-15.849453758906144
-11.527955167823777
-7.596912759131076
-7.611666972502431
5.307642834487064
20.38780699055567
12.934857246476072
19.844615804369077
33.15728748047208
30.925138704121334
38.3967547114867
27.140489786455174
15.589142543741884
7.823750515954526
11.955515205043596
23.25630212423847
22.57252523057603
31.217869942825057
43.487529031025545
52.18174568049144
43.58182686719193
23.51214113108037
9.220466184727055
21.134616851283702
10.259568451598833
-6.96189252960942
-11.02146441734517
-26.702709613914166
-8.541553392671034
4.416405503015752
4.920142261568526
11.93699172219367
20.58733061433277
20.458636561692906
19.488372758685415
18.977200514123712
19.1284148843312
25.925468130690103
17.178089556511402
21.366291602361024
23.249818155368267
5.631814372460202
-9.567171889358383
-18.043799385220414
-8.742588044413727
-3.2458834029159735
-24.57372867503509
-55.501478337133804
-78.59242762463785
-93.00184348241258
-90.74820973582376
-94.912293925203
-97.45960471104884
-94.03724114578675
-86.78558586783525
-62.07646918577629
-59.36513992035008
-37.506681850158266
-5.851204751899516
14.941474526791504
33.4177841010866
39.723503569491506
34.86398214328439
46.634976653410234
45.9414928716599
22.44215660971551
14.904559773678177
1.1393624612640416
4.262056941409488
12.864492994705733
15.398155545393392
17.428228427639443
20.02118592115362
21.62433109931388
18.670798634396917
15.325584353433937
9.167451366753747
2.1447098494578323
-3.4803103472307217
-21.167118183034464
-37.4933564655009
-35.96474364295197
-30.209396379880594
-22.524764884367833
-12.766773061664676
-11.983265320430021
-16.302455843209092
-12.125995595588014
-18.004613882483813
-16.141678911205442
-22.89838325437073
-33.227994180957225
-17.09497139614173
-13.558906368465452
-13.81847131722333
-5.122173059679674
4.175193619820483
5.041811616503081
9.05919201443491
-3.9306522094254452
1.541569066680183
26.674352769977347
17.400822902364844
-2.680707120596108
-26.213565865602348
-35.42350296070874
-47.36426988085164
-59.10400905817439
-53.42865352993494
-60.126853274847925
-61.130900081530555
-53.815753876318375
-41.63876024824523
-25.873743119648807
-30.145850257542843
-19.60726506469445
-8.691922449393266
-4.083131963028235
-11.806798934838449
-12.238667326174275
-6.589502185917396
-4.020508649272445
11.834635506879426
25.97168460500935
34.201696598160105
33.8502868092374
50.5279773374335
46.25678250287228
41.213395572918834
44.38447687171017
44.21448693770418
52.614434070974106
62.80463818390471
70.48478685762169
64.76830120978717
59.779878262574094
48.766527924902526
34.03624630768306
28.13355184746497
24.55309663426132
19.186963469558076
19.586575100078694
19.40344832613493
0.8803643515001939
-10.10898945394734
-15.332056323050425
-17.907556745686286
-23.895623439999877
-31.078539920324754
-24.649554510735012
-33.37289081878544
-35.59625634545792
-27.000769693661827
-25.26826208349473
-23.60769054043154
-27.578707692048628
-28.239111001371015
-6.953909633872325
14.691325537967325
17.61544576131057
18.53412599138878
18.874324235804664
16.56661417687894
17.470565356755944
-2.4422894062536202
-20.993454919223993
-26.606490678459597
-25.464864693503454
-28.2166537633821
-38.783069094631834
-58.861016394599915
-73.17475230898877
-74.31617771200018
-79.21403405025393
-76.11339509260988
-78.60956329556328
-69.86281439606957
-61.706308888532185
-62.272789926906526
-63.35925424540724
-83.6404130232135
-98.195821561907
-99.54244740820594
-88.37803906074397
-66.63376343000022
-67.17440509280762
-71.2118424745805
-67.4311556698368
-58.683163298149594
-48.068905688599045
-40.014800663571656
-29.735556095965016
-6.642746079857187
5.291582538516893
14.718917333731088
42.48002046819371
68.2580129997727
91.53283266493455
100.42394488590234
96.88388811551735
88.56582519944232
66.85429645953089
49.59848343880767
35.380208028329
7.671115826659183
-5.4902696799461195
-8.267099116278622
-20.30239207886549
-27.036012019879532
-21.56770335551072
-28.484185882679874
-27.551515715064653
-12.780442382471756
-14.351059418495085
-17.10708111846514
-13.132888998254602
-15.51085072939128
-19.390469042559666
-34.26577113179765
-48.616640694779555
-58.392692516766104
-90.80341025659526
-111.82737781967836
-120.5290896434497
-134.9715286851223
-142.8897510504638
-153.1520004541323
-154.75278615256062
-155.42269576872428
-155.23379061394573
-144.66106395248042
-147.5314927552702
-144.62181924796428
-132.30142586933061
-99.52701524055003
-41.898859555136276
-5.258315705567757
35.58558932957175
60.14665014927712
49.140239322662865
38.9969824893389
31.028101982656654
40.902768193617604
58.543731074045816
42.65535165830948
15.06229579173481
-2.2639055749387866
-30.081438054854626
-47.78404550966679
-60.63172367855073
-79.08223251154259
-86.69490329326715
-96.70694890701047
-92.89363003206766
-100.87807341219349
-77.60436153729862
-17.634392668805795
12.98292647386705
41.94686099822065
55.21064504443657
58.50956326900885
80.12139881485805
96.39260295713197
100.79860297225116
106.14344662950528
128.25188300194364
162.07626669364595
125.33565154216949
42.182772825911236
-8.802105460693154
-9.509133503557011
31.179865470578164
63.03514715457959
77.41076567663876
94.08044115548734
100.45053517860153
105.63642776196065
122.75568574540516
133.4437719690912
116.79699836399527
85.03713911863001
60.76895008422004
45.410298592522516
18.201299735685666
-11.105707581606913
-46.376035139369456
-86.21656317029016
-104.46575412631701
-116.77199246236452
-119.91670093984719
-121.43456537596778
-128.21257354221925
-123.44369842422695
-106.93201525822498
-96.00104431305563
-88.18094467839154
-88.86287690315257
-102.16963619682862
-96.55532012827808
-88.98554474455598
-88.17951690251134
-77.74570763012021
-57.50837544289373
-27.82704949371086
-8.074469966691092
10.593151419828946
14.514231836614575
19.068539978379935
34.175722733417636
41.049139564496826
47.293202406111256
46.6797247921818
42.059511709168035
42.52169683595669
56.32083315890189
66.82584855067462
85.2113956365589
87.99585399976951
88.68869833415776
111.23315130844027
133.39198519354323
147.9192964646581
152.76954628464125
157.35042526050134
142.1086951032785
101.14628552187003
50.242087453761975
19.41044036819038
2.4204481576973476
-0.4209988953377102
-2.4137596390080285
-6.046662597996247
-17.756724888241813
-2.0928879283562525
43.07560903855799
41.80367178231364
27.55742730548188
8.404686523310485
11.018373677398852
44.94646074429319
76.97323635642753
128.98003526114172
125.8305370241056
97.28925250560819
91.96941718633602
64.16635526347471
38.36325991621993
28.424262625731558
34.65766688948865
54.92906251074733
56.41367674965807
42.69865905221341
42.595597072967934
18.06090487728901
-0.8864732197101889
-23.770268631979157
-44.18292066922965
-48.84519480655959
-69.82652644202759
-79.11676152860029
-85.19329277757419
-88.39426906990107
-87.92475513742887
-101.64816932625418
-121.06193455884231
-110.48863370211411
-90.23260118541347
-77.10690354613028
-70.5913448634805
-89.83025445942805
-113.66925177484966
-122.66033044257033
-92.77802060120757
-38.23935599152861
-9.739415134908276
1.8961083410320447
7.068574179102579
11.523191274624946
2.9401703341413863
3.59303030139844
34.098529544876754
33.92541059067401
12.287636955345604
9.031188933794983
-5.6932330781215255
-23.040868923349976
-28.908409087230275
-34.49829439610892
-40.214765936693254
-64.31552393425551
-51.12578323571559
1.3836333443651287
34.22382384115183
64.52184199577556
93.5055689297489
78.03471763598789
46.92754433467781
15.279262994335129
-6.247925484402492
-8.764789832604745
-1.8484117879653417
-13.521707719470943
-26.84187898919958
-30.601452521734256
-64.27596377914338
-71.3661173094454
-56.760350212684244
-24.498358428691
19.088046453444214
54.52278502661876
67.61006880622979
83.7503089126365
112.80712082661312
114.50228569606654
105.40356952692575
97.77509975740499
77.13423983167593
51.02747704584805
59.070502041947044
59.18916788055643
39.38523292701448
50.363324595590996
67.86056217628844
73.04631085504549
80.09070404450638
57.31030675782275
40.75253273917191
31.452792851928614
-3.0360230318948926
-31.037394902696406
-41.52185516297825
-29.5418926348416
-3.566780969880045
23.974582119588934
20.980370991325984
-14.017643983162387
-58.044077643404805
-64.98175583341009
-52.769258349153894
-53.12416179390677
-37.128192375207234
-22.12264699763048
-0.12348833853252676
30.343972653290596
50.800543859740515
55.20401366914117
39.84729106862039
29.09261952576427
37.124092586900545
59.749021610403375
66.07858184152944
40.16855619858079
3.4645297215282427
-11.931817868831333
-0.31470155121552756
11.849509075882752
29.721317371252468
45.085123478268876
53.018863218881535
68.77808064617717
63.55811064872978
61.788093763053354
61.690942165229245
66.89639445054956
92.47473194645305
103.10850613511182
117.03006099014267
117.50105715683429
82.2323696144893
29.743467738870642
-6.117636071244097
-33.06366026600824
-57.380670720252375
-66.18151037733519
-67.10256159566455
-70.07635978213791
-58.88146454619281
-33.27502460347945
-26.71811907772061
-26.77444250075454
-41.0723535016323
-32.84042687244162
-5.163228549349697
10.29227382075679
23.79649543429221
14.705115875924069
17.10554815385641
41.44412440612793
53.65019575549718
49.046318749630146
44.93146116287643
61.998864189216505
85.74358709283538
87.46544977823783
80.85537076317135
80.37153379897035
79.49184095552735
76.99925405606078
72.8544891573567
53.11421575749668
34.05379081959819
20.900369252174574
-4.621787019239227
-22.20892702850803
-27.31278199804896
-13.547378629132366
10.278113770885339
23.465105872936434
27.86419402367306
25.600788725545346
25.8736768693583
31.449490793397285
39.40472667551231
16.633625000959615
13.055383479155994
26.606750993961025
32.75738098383601
51.56842324979288
42.65060977224179
58.587112626577984
75.67734248116314
78.19673055922495
108.22029250848145
117.87613215489849
119.57504613865687
131.38203238085944
138.06383022383727
126.12237594840728
108.09036112497516
78.33831039952834
45.580804445018245
39.317187517469854
29.383915171176188
21.019886754996662
12.825864648490738
4.742285222720685
-20.0750593684218
-20.3410763159214
16.66926634950483
11.682158727068087
11.850754308610366
29.052829961037887
13.236264078767762
16.828575061913803
17.564783139344954
16.279334063702674
33.70334085749165
3.7627596614876384
-24.782930054552814
-26.06582115987864
-52.92612910257248
-83.22025458505833
-100.15182874022346
-113.0364463556588
-119.60947465527305
-151.14706660572003
-173.01874673200822
-144.2101497908549
-104.43325151108148
-65.51093356994429
-22.918279975584767
7.490963756479171
-4.524084844249492
-26.856283290495558
-33.41285942529365
-29.493512770694895
-2.9906933486803546
22.782617856809637
47.88448781799226
54.97745197480269
46.96823978949256
44.560087358231215
28.635809517388356
29.4294845336214
44.52018750362052
63.78781061371508
90.49405896207183
90.80347003300895
78.54891759393227
41.08775034363177
-4.6288362989202865
-24.783590634123403
-45.50386810700014
-62.177028908695604
-56.904147905886475
-59.238960836531476
-71.26043337142421
-79.14895316478557
-98.17132537348236
-100.18858200762594
-88.3293728948436
-51.14027974972184
-19.45201133340637
-15.779451893051206
-13.441259381830948
-32.83120030815113
-21.303081256448607
-13.334820888533192
-23.753539073595082
-40.79963088057207
-34.58232203449988
-16.317353611816127
-35.850197353068666
-18.955434895768935
-21.4447777756888
-44.67612673185174
-56.702243746871886
-62.4244365132665
-44.44405317510564
-34.69222015489165
-36.68572796004003
-23.07228521765201
-20.653464022885803
-39.06282988395271
-26.466482850470012
-14.04742293583798
-12.328281134409904
15.792653662460085
41.264135471020836
62.86808402731468
65.86809109520298
22.47602104984277
-6.4094589907990365
-11.809349745835222
0.7771417513409884
32.97371732330473
51.10087793620219
39.893877473659394
27.74506702636359
18.90070945795082
30.477363922433987
51.64132249597489
48.06910002045103
54.72975587301062
67.76959989617066
77.13528016793985
87.79730681620305
88.06110776340851
104.14403324519404
115.30997074401228
113.64889695664503
102.73760733966726
89.3764422678388
108.38276912324133
93.22019615777253
68.71743253215539
76.48587388499293
70.05301658762691
62.1215015803786
56.4272508278292
57.96191150091831
46.99496954983622
21.033245295824944
0.9389865115402055
-5.986819414510879
-25.572771833231332
-48.70514692834327
-43.53332755411334
-40.29382120014807
-39.98130388697088
-49.909856947843835
-55.9711192383721
-84.73136867510516
-72.51549314567569
-46.9572475187411
-47.77671829937952
-31.812265113215446
-15.647204212398389
-32.067342074309856
-47.960655222234074
-26.090396170467653
-17.06386684412145
16.107748403399285
47.17140078333045
60.78253901123833
77.92079244512338
93.52932515454718
76.34704679670888
55.04311787965317
36.00802013908682
-17.539024333131277
-30.91094486704225
-30.219684647160353
-32.9628915929757
-20.97736740538797
-7.301371201801989
9.145754209191056
8.439688998738513
-5.505056313931887
-29.38115707345143
-36.7881511435846
-23.358251735046032
-15.219760596141674
4.3009083256704
11.539841413970695
-2.1262132448688695
-4.347989320369324
1.9312614929980847
15.386661951141313
14.43991337840447
9.257653093279163
4.868536483072884
8.861754449163982
-1.3951011650888727
-17.03822845820125
-28.304933109987925
-49.72262859469043
-60.88910522049759
-71.05328896637366
-65.85602755211436
-47.457550713814705
-27.105841921451116
-14.859273759894066
11.076636473602115
36.50643165270223
61.14881847324391
81.79165694909047
85.16703232160269
87.68489144986265
86.29447214243663
95.35262238684449
85.59722292188067
83.11061773442569
84.63820662022358
58.70256249591353
35.452363013888466
29.62912612625957
35.18487593997555
46.83326838802933
66.45428914382188
43.646094267759054
6.182758621302432
9.191889569148406
-23.05634256284997
-29.67112365273921
-26.642479329372883
-59.4736298818902
-40.37342562426337
-7.807315818826758
4.613369631280916
14.683495266063538
47.644050174576
62.074845016502756
60.55613566741034
50.25863200102487
37.40328111978688
47.53184164500985
28.261517422651938
21.117483520923354
37.64980454421153
26.030456057144022
10.734010095816851
7.4712053100478055
26.44272559526827
24.69447033587456
9.764876331400522
14.294899434280083
22.15424914891536
29.842881285682378
35.187393269122836
35.97694615505387
10.176780423135165
-11.038076473377213
-30.93069709278597
-31.283098104710938
-28.49513605250137
-28.567851527881533
-20.53348422028932
-24.00023781781809
-0.28733853443490087
33.781075728967565
42.73540642754599
43.89477928511879
33.76842601330461
3.4922780977421346
-12.598189319327139
-46.00279600357744
-68.41316729604098
-85.83088122967182
-107.51216294437931
-88.1918643316174
-60.71257562023114
-50.115041744676375
-48.77394458386826
-64.51991165806338
-82.07511878392793
-82.64207637095241
-99.09904460107893
-114.13071925021323
-115.36259517613546
-114.8829999129479
-110.72588829266469
-106.27482104190472
-85.43976718717146
-78.66607401270996
-75.73487065481712
-64.34898458305202
-57.93164428498418
-56.71574613064175
-65.59906970408672
-57.68339967271621
-53.08456427070776
-41.938627779722175
-46.78130470426621
-44.67410782131725
-33.04062058108745
-30.97410244664661
-26.065601526817318
-23.77710928875846
-17.12189301624217
-29.317240070449795
-27.09248235830427
-24.373627169090813
-27.12463124208409
-23.283116985864535
-9.988475370579494
3.169358035226132
-11.116106439999085
-33.040189820646994
-38.03441266019846
-26.66689755651622
-17.684872377068796
-8.692760134612133
2.9965433555640115
-15.236638886724585
-27.36988250347817
-24.1593634083636
-19.674482487140207
-17.72131509191831
-23.027505058364344
-17.669346107751654
-16.202699276541665
-33.854255403385096
-33.595274250459845
-33.10695768217803
-26.13193254883009
13.155455458145967
23.270200499439227
30.724302408565453
49.70816736681812
48.859853197179326
57.67749016555182
72.63166184259629
