AAD_Filtered_TADAS_FILE
AAD_BASELINE_CORRECTION: BASELINE REMOVED
AAD_FILTER_TYPE: BUTTERWORTH
AAD_FILTER_ORDER: 1
AAD_LOW_CUT_FREQUENCY_HZ: 0.025
AAD_HIGH_CUT_FREQUENCY_HZ: 40.0
EVENT_NAME: 202302060117
EVENT_ID: 13194
EVENT_DATE_YYYYMMDD: 2023/02/06
EVENT_TIME_HHMMSS: 01:17:32.00000
EVENT_LATITUDE_DEGREE: 37.288
EVENT_LONGITUDE_DEGREE: 37.043
EVENT_DEPTH_KM: 8.6
HYPOCENTER_REFERENCE: AFAD
MAGNITUDE_W: 7.7
MAGNITUDE_W_REFERENCE: AFAD
MAGNITUDE_L: 
MAGNITUDE_L_REFERENCE: 
FOCAL_MECHANISM: 
NETWORK: TK
STATION_CODE: 3113
STATION_NAME: 
STATION_LATITUDE_DEGREE: 36.57752
STATION_LONGITUDE_DEGREE: 36.14766
STATION_ELEVATION_M: 2.0
LOCATION: Kahramanmaras_Pazarck_Turkiye
SENSOR_DEPTH_M: 
VS30_M/S: 221
SITE_CLASSIFICATION_EC8: C
MORPHOLOGIC_CLASSIFICATION: 
EPICENTRAL_DISTANCE_KM: 112.13
EARTHQUAKE_BACKAZIMUTH_DEGREE: 
DATE_TIME_FIRST_SAMPLE_YYYYMMDD_HHMMSS: 2023/02/06 01:17:31.3769550
DATE_TIME_FIRST_SAMPLE_PRECISION: millisecond
SAMPLING_INTERVAL_S: 0.01
NDATA: 12501
DURATION_S: 
STREAM: HNZ
UNITS: cm/s^2
INSTRUMENT: sensor = CMG-5T/GURALP | digitizer = 
INSTRUMENT_ANALOG/DIGITAL: 
INSTRUMENTAL_FREQUENCY_HZ: 
INSTRUMENTAL_DAMPING: 
FULL_SCALE_G: 
N_BIT_DIGITAL_CONVERTER: 
PGA_CM/S^2: 0.048
TIME_PGA_S: 
BASELINE_CORRECTION: BASELINE REMOVED
FILTER_TYPE: BUTTERWORTH
FILTER_ORDER: 
LOW_CUT_FREQUENCY_HZ: 
HIGH_CUT_FREQUENCY_HZ: 
LATE/NORMAL_TRIGGERED: 
DATABASE_VERSION: 
HEADER_FORMAT: DYNA 1.2
DATA_TYPE: Acceleration
PROCESSING: Automatic Paolucci et al., 2011
DATA_TIMESTAMP_YYYYMMDD_HHMMSS: 
DATA_LICENSE: U (unknown license)
DATA_CITATION: Turkish Accelerometric Archive v 1.0 - Disaster And Emergency Management Presidency, Earthquake Department
DATA_CREATOR: AFAD
ORIGINAL_DATA_MEDIATOR_CITATION: : AFAD - Disaster And Emergency Management Presidency
ORIGINAL_DATA_MEDIATOR: AFAD PROCESS SERVICE
ORIGINAL_DATA_CREATOR_CITATION: AFAD PROCESS SERVICE
ORIGINAL_DATA_CREATOR: network: TK
USER1: GuestUser
USER2: 
USER3: 
USER4: 
-0.007733150238397224
0.0019658537305688576
0.011048838551569613
-0.00422516992066902
-0.001875120679250724
0.003718484273269236
0.005613594435404014
0.004183598449381879
-0.012737318570081998
-0.002971218427429888
0.008124362459688906
-0.008844280988762917
-0.007203955278056271
0.005772614764308561
0.007074011820602401
-0.0021975848135002032
0.0029747328801110096
0.0007895327180459837
-0.0030758816703937205
-0.0040426681788821245
-0.0021849094245921393
0.00931226238995754
0.005026269156838611
-0.006374236041067897
-0.004631984336542773
0.008965496795504856
0.0015764709741157075
-0.006880923772886151
-0.001432716710422357
0.007333183913574921
-0.0014386892284822042
-0.006925167389495394
0.0006297951338062316
-0.000952020958119647
-0.010999673072643776
-0.0015673364604284535
0.012182222147453882
0.0008644828865345079
-0.0035583152008258827
0.007292251700875022
0.003792427775860921
-0.012075736380875087
0.004389124733817193
0.007312573361747684
-0.005724601729570079
0.005893599761401284
0.003363648737132471
-0.005986546190870374
0.003757311721731012
0.005577540486172085
-0.0050857598568907324
-0.005078388938589742
0.002392228626028165
0.0017527391591208516
0.001395300011323177
-9.092580500588937e-06
-0.006079176483989487
0.00968585455808965
0.008656324474200425
-0.012097829462673076
-0.004454694756391614
0.009533492468136432
0.005788933974213495
0.0006688862631358698
-0.005548274744224348
0.0005662646948737351
-0.007745626499114144
-0.01774663480462033
0.0011749620796759664
0.002404125561231599
0.004939368023345793
-0.004955384192175384
-0.006469807260666564
0.009693285343051642
-0.003524769859931168
-0.01262478292594334
0.006505325768710155
0.004902715553462809
-0.0074095394508540465
0.002939636409943613
0.00038318809044617856
-0.0028406692847078173
-0.007300692748877412
-0.007503284587041892
0.006411933291070765
-0.0022625203442791933
-0.008474679699027059
0.012795237080178299
0.007601970030389033
-0.011936642999770129
-0.0006157281174294264
0.011945632408832537
-0.0021592536484132626
-0.009453836215582573
0.0021930191935573434
0.001691524572383789
0.004203434512221099
0.005855805705955296
-0.005627164749659828
0.0006778381853953205
0.00945482420749976
-0.004980962525351922
-0.0075779902707346514
9.233072409104334e-05
0.0045581651052181114
0.006346700900092733
-0.0015876993539332993
0.003807518463810163
0.01055216793785151
-0.003305264055795501
-0.014567476792599239
0.0038580553590767865
0.016414077448295244
-0.0008651051944330364
-0.0033828474265479714
0.0012978260103591365
0.004567289756810897
0.008999216758071546
-0.003452150905151747
-0.011585300335184115
0.0009448531791315937
0.013566411325817035
0.00779416605443666
-0.006475320681258632
-0.006213994769679526
0.00293889731996581
0.0034783771063073574
-0.000648372074348182
-0.000357376338073631
-0.0059318800572118816
0.0005348348155382842
0.0062897826483436624
-0.003435270189273966
0.000613640254180675
0.004884085679487591
-0.0011433284684487285
-0.0030502666954225657
-0.004108714306627902
0.0032235171511625837
0.0069494898263965
-0.0031030022987009295
0.008574364962013883
0.006233488988765471
-0.010907925366632982
0.00235790112290948
0.0032940012098125852
-0.008044932297868245
0.005428998388917169
0.0073833928640746425
-0.0038042321096844168
-0.010769719770326206
-0.006749837997691212
0.0013980804716428677
0.0069748680930957225
-0.0010787548422018962
0.003019706791057941
0.006128600488831384
-0.0020249312770590265
0.008006101178433256
-0.0018633060580741624
-0.003850516272616098
0.0025964820931113157
-0.008829435612564109
-0.013853097861084608
0.004790149477246418
0.004795357270890982
-0.015797016236964865
0.0021747185089950076
0.009311502667613068
-0.01446568157739714
-0.004148975617563436
0.007800780545391435
0.005097689319111625
0.0014846610565763987
-0.006857747171778245
-0.0021469254719943404
0.005186151657838258
-0.001042514011767142
-0.0010386161586143682
0.007102267443798593
0.004528292376208746
-0.0009577826683626876
-0.0051762258859491045
-0.0055059608873960185
0.0012327204384932383
0.007300265026294849
-0.0062051341036905485
0.006330388904756392
0.009664225306079561
-0.011275491317608771
-0.00467060095965745
0.002835901375268261
0.001046450085918759
0.0017280301982430736
0.00273459405975059
0.0008588944330743791
0.008594194289825345
-0.007119315904920431
-0.010644724567594306
-0.004077483215556713
0.003221232122739483
0.01352185678314398
-0.007578680760539541
3.5971070868361836e-06
0.01016840030584703
-0.0015828990842124914
-0.007814447150523958
-0.0021397946837496953
0.0010848943964291912
-0.00010540459279261786
0.007058102022373892
-0.0029332764114662056
0.0012498729027417234
-0.001558877700767495
-0.00397175265628895
0.0024657134666333947
0.005517847621235964
0.015259466030682449
-0.007368897490393956
-0.01800565522016864
0.004405506733370719
0.0045305143445251534
-0.007528780973701435
0.01105912236666362
0.017635972784158977
-0.00678132273737323
-0.008595199534676723
0.001619397382030669
-0.010815050398405123
-0.006049672668364403
0.021842852867165738
0.0012749659015318011
-0.0212840289092741
0.00674598878111849
0.005591263332054639
-0.01644815063085382
-0.0013572311456361138
0.009514968223825342
0.0017017897058301788
0.009288848650157937
-0.0006969312647048544
-0.012125480147461891
-0.0017627323600422843
0.008801018409326636
0.013131711758308956
-0.0035742940634232237
-0.007055196183335341
0.01508369289927871
-0.0023167144642212523
-0.025799889832481264
0.010399820113498054
0.018423342816050677
-0.008313962094441239
0.004624132697929918
0.004139059569033063
-0.010774726680884692
0.004522852699830829
-0.004624595089965214
0.006596119292438216
0.012181156368525676
-0.019859657598274922
0.005752383088172676
0.007186568292483972
0.003047833137626045
0.005823727083931579
-0.021155242083832532
-0.004445592015112441
0.011263981573677749
0.004153091279484185
0.010021023661038691
0.005429582428535022
0.0007410372737333149
-0.007278958673119988
-0.0025048259847850027
0.0047968940678728275
-0.0014156664533064062
-0.008881059651062164
-0.0064201815979317125
0.021967052631248096
-0.0029234966459030483
-0.009028448222230432
0.011961962891870594
-0.002358674540367657
0.0008590284924310882
0.0008034584404499289
0.006708911069209745
0.003689447383945468
-0.0069950625943913085
0.0111187213658397
0.007081856593415968
-0.0058071660028522825
-0.0030837923426138836
0.002548326916498302
0.009176224373740811
0.003522225993356662
-0.00785790130091089
-0.005896241585318596
0.006461984809768236
0.007171803285479903
-0.006096279468105061
-0.0009174049224829573
0.005722917293033593
0.00120143289950477
-0.002155740721827777
0.01515973663935923
0.001117146612323619
-0.024308026514233163
0.0024728507391852134
0.022768461723000354
-0.011803161984974296
-0.014094537783060558
0.023737747177749704
0.008739024438773372
-0.008076414646515597
-0.006516602269152507
-0.00932982043311654
0.000942149771611353
0.01946018298878898
-0.011260253559595996
0.0005439680050824392
0.016927564541639427
-0.007273715917390962
-0.003543045724321561
0.00022173762781051878
-0.014582681436292327
0.007904749551825012
0.013862188720116611
-0.013396842636723784
0.0023061861587330298
-0.0027451340890399293
-0.002883377497954841
0.002168484043333905
-0.005155013085516916
0.010340085456703828
0.014646928444433686
-0.014035871481076793
-0.014115205884254455
0.008120076333420422
0.010813286421699464
0.0073826163355525335
-0.007398605187744841
-0.017276989672064993
0.011532170327454747
0.02285955831426692
-0.02072014749399082
-0.01773061114705705
0.02330427306932776
0.02069827427610366
-0.007875381601012248
-0.027472875775767555
-0.0009342317777397298
0.012934272402600745
-0.006360304821398373
-0.0015080613233713876
0.012761735617356046
0.006831272703144131
-0.0057722856248953805
-0.002741609034965624
0.0002458412984191389
-0.010771391593953572
-0.007178642200472111
0.025609183072491725
0.01430196007104812
-0.027243929221058782
-0.0033383263694651737
0.017980673983089807
-0.005340995675933752
-0.017891298963040453
0.014086818250576902
0.027641123519556048
-0.008037201795716343
-0.012262288123912463
0.005971063619854599
-0.010099735642133484
-0.003486095416113144
0.011249581875208926
0.005085783878032442
0.007303445944793739
0.0018616284305630554
-0.00509912587380794
-0.004261531909394882
-0.006260265989025409
0.0060778042231050084
0.004537478987497938
0.0025964997979214853
0.010813420997130903
-0.004019641318271468
0.016874858398922842
-0.010072823659858812
-0.024159898245249743
0.026931229836130957
0.006312972150047847
-0.027991406190557646
-0.004374662988693429
0.016414845152317847
0.007160208351264163
-0.0010398123230865503
-0.02151650480684441
-0.019646172636034118
0.03010397472124368
0.013099517262711725
-0.021702522601320457
0.0019268666246212843
0.014102382833299435
-0.013379961194864445
-0.002086763992457212
0.0023513308913956786
0.0030285267085170893
0.004486023810232892
-0.005085139702494654
-0.005859476751597455
0.0024630456609621813
0.013828012881194226
-0.00012551692770047262
-0.015643492662909948
-0.004775254922000126
0.014358218312535259
0.012282690447335272
-0.01247075772420311
-0.011838925744791418
0.018170116599945836
-0.011606227094866304
-0.013849078807884154
0.025088585462382507
0.0038705294384973584
-0.031254446010376094
0.0029639192534816547
0.009752093835327201
-0.0007336621812195831
0.006409519030080922
-0.015555329825851118
-0.013394154854890249
0.0076992740208508235
0.013914284241220189
-0.003072997163230463
-0.019302511500321053
0.0034690021274287612
0.008614390688280148
0.001454323793580997
-0.014129424366959412
-0.009563412153508349
-0.0007822123477697399
0.005834597149079744
-0.004780255829334559
-0.004346477375175063
0.006522994430032431
0.005502917687868315
-0.004845738687301486
-0.012461713092881075
0.012245367474188956
-0.012559398512166323
0.014330679448601875
0.01441649818849717
-0.02139068743522682
-0.0013224291074852737
0.012897275026252637
-0.004314526238277117
-0.011380984063008833
0.007164563638168042
-0.004318962749550139
-0.007967119582321767
0.0036305712760297576
0.00790026334300807
0.001187210344364676
-0.015980158629982807
-0.006533647270759749
0.018527668472536524
0.008678855739924244
-0.021837082538283686
-0.014408113027352655
0.03091963287519662
0.0062126352824594605
-0.0352844591404217
0.005575099095542226
0.019834465496055064
-0.02251448946800904
-0.0165291239014538
0.024110059440727208
-0.003849734010035319
-0.004320900655087237
0.0038430408766685987
-0.013885950677799854
0.01890672471222645
-0.006408183076178587
-0.025630590227463466
0.021291630002476494
0.011851957327326348
-0.024759087546602172
-0.0004287972181342926
0.01953667777449487
-0.003100374754196517
-0.02075302657946562
0.005911301046829539
0.023770437375293826
-0.006850685369370753
-0.005508796504108683
0.013721276913994974
0.011371845833999958
-0.027938587168910362
-0.016022836741386003
0.03833352284736255
0.004042416367689604
-0.027374233443180587
0.005852721784086812
0.018791450831028334
-0.00818501667452115
-0.00417156831231447
-0.0023586055444364358
-0.001013367467892855
-0.0019210396468466477
-0.007561148803743238
0.009571148124023687
0.0010618984768622248
-0.012478643581362298
-0.015286924030180773
0.00268564637719526
0.01864042000698812
0.018396743938968403
-0.009111504335121612
-0.01726256084268199
-0.006744898898655649
0.0017168386021138794
0.0177616409932192
0.0025495580169731216
-0.010977819882648693
0.013113676043372623
-0.008892531276072872
-0.010344350375290915
0.018911262261499463
-0.0005341491683677052
-0.005117527547750646
0.013054798448856889
-0.004132420354252903
-0.01641325220348512
0.03848983346184738
-0.00761243885137605
-0.04678911619187631
0.02141167997165729
0.02308565989822949
-0.0072183918453828716
-0.006489438921414417
-0.001643771001983062
0.009011448538093802
0.0008572153439051437
-0.021229727071605097
0.003620692554908875
0.01652817033060038
-0.0050000841329341066
-0.006252380963791996
-0.007409907109605451
0.016035848744249175
0.017869180018927764
-0.020418081793555778
-0.012884987055206541
0.03623069454304985
0.014107389376378874
-0.019450861757050634
-0.0009826831976203153
0.0047791934623543295
0.0034205000871066742
0.006364184262524915
0.00598308110895749
0.0016396620439150312
-0.0009047603450226414
-0.007297391028560377
-0.009682899588730762
0.013035787505647115
0.0021299980598090203
-0.009741791874993928
0.02322811549099288
-0.001734611236944672
-0.019112185237944956
0.03183156509159777
0.01195470923308293
-0.023192649593962143
-0.005942500409497699
0.0047468548521937
0.01965164514278425
-0.011040539459390247
-0.02073354548094846
0.017033943520795503
0.016330654569614016
-0.017271054995059744
0.002118422325354995
0.008082519304871819
-0.02640267338545766
0.0020511093741286046
0.011094845810714559
-0.0037068077675640357
-0.002050814102376632
0.002086614058971215
0.005631176874998308
-0.028069591446278887
0.011973801706134336
0.02866805587397398
-0.01471455128489048
-0.019076709535084977
0.012132168761648998
0.017489646876895096
-0.023719525480759774
0.010408581979023671
0.012249840287433193
-0.0009268446732313579
-0.024073688802720594
-0.007270913738597241
0.032141577430539234
-0.006294402097066283
-0.014321953714633675
-0.007492301739932198
0.015736377152632024
0.005242920319464859
-0.014760475211517458
0.0008742272949047693
-0.005044101735771866
-0.012199502328236128
0.010689513060706179
0.019376995518083157
-0.009057181272954578
-0.01176310831333331
0.0004950544938666175
-0.012071626336649037
0.007011310777387105
0.011989045691165646
-0.00798347013357565
-0.002330842208271802
0.003845597600886316
0.0029571315331261873
-0.0011211090667969496
-0.005828862841674928
-0.007717751135062781
0.009994849394202806
-0.002881307412525126
-0.008085981149650428
0.01583703677559918
0.014487988363391649
-0.013580286771087625
-0.014651325347571364
-0.004800173959473959
0.0017338373108982427
0.021020203676580928
-0.011224580770826878
-0.02736405258329212
0.01414997054634297
0.02782989665884792
-0.025098787815558583
-0.00920454152346469
0.018463699825362365
-0.013514923028323002
0.0007439342356279867
0.030124618073454287
-0.01880859218324413
-0.03322730370809358
0.027777966893460078
0.018397608212743242
-0.01599708006742002
-0.012262725048391187
0.029284769466475298
-5.433769557166489e-05
-0.026516834681559836
-0.011640368395820413
0.005017707199965117
0.025253632965614604
-0.007032266670974794
-0.011401726316945075
0.004415399979148723
-0.0013770617855472325
-0.003855539823322433
-0.0057521289996449645
0.0040451881379417465
0.013525745479622195
-0.005574602984926655
-0.021401726045116077
0.015869289886193134
0.009993512771401772
-0.024128449971038104
-0.005815088907684334
0.018353611296987364
0.004436525980747846
-0.010206453836758176
-0.005449336505896651
0.009783267788034624
0.007214715772826273
-0.027000051398820404
-0.0023006082187266488
0.029919440699871264
0.0010258614172494716
-0.022274575614929293
-0.004945404239865295
0.006605758911105108
0.005464323881950494
-0.0018831658060817305
-0.009901740295423143
-0.006705363329266589
0.006836333510545059
-0.0005185873720577704
-0.0065016017492440644
0.0033405698558759346
0.001945309753343489
-0.010692475067448609
0.014076585347584257
0.010266443902444562
-0.017896450243047028
0.0014425187934237885
0.001328090004291652
0.0040965267302131465
-3.460110172973644e-05
-0.003812920611856094
0.017338838832659565
-0.002278823685699176
-0.02418277113147117
0.003069149091079146
0.018826699054147775
-0.010713993494007748
0.0002634262774194729
0.016614793560306908
0.0007977042412181606
0.0002462922649389466
-0.00490130371648213
0.002024655185242696
-0.0015027122108815462
-0.00468097419281994
0.0005641424405683538
0.010559170489421964
0.00545159457201924
-0.008472319058669712
0.0029244272076847534
-0.01305446553122007
0.0009821365349839833
0.004695892062347518
-0.002857525581643585
0.010940276921965851
-0.016907034606090082
0.0022691011295063596
0.004496813247174495
-0.00863175351679451
0.02135715317363633
0.002437385397799028
-0.01191811114076205
0.021190100006237438
-0.004516232155874674
-0.01743904725089865
0.004325284282650413
0.001613704899912343
-0.006056835469349171
0.008938758047318977
0.008527745982390398
-0.013896882636581447
0.009072092897247289
0.000535976773156753
-0.016833429968021705
-4.648446136111591e-05
0.016517675879632137
0.002175054980354904
-0.01518480068526873
-0.004737948108733566
0.024332966153632098
-0.0049809445866475805
-0.028053397154175957
0.015179187471346155
0.01011786761184667
-0.000900494693473198
-0.0025312853440180175
-0.010516097401405092
-0.006431072880580185
0.011858736986533886
0.006599908697877013
-0.00815342674857101
0.0027599832829042084
0.0021782571977573854
0.009253096217010828
0.006989808641570484
-0.007931619000413972
-0.0007770052723303431
0.0005611368485089374
-0.0007999993991790083
-0.0007844736024032856
0.01074253566948468
0.0030459619216757438
-0.0016403637884208411
0.006852022664850909
-0.017383237953016224
0.001087810022463615
0.01792349935688137
-0.012842173963277992
0.001928894640959316
0.018382868585137744
2.182573113567772e-05
-0.0028522856410295107
-0.008846382446927582
-0.009169613876623142
0.004131993848830948
0.007081400839363271
-0.009360443458203001
0.0035458958202823276
0.014838517611394894
0.001597433428929814
-0.015417615573873526
-0.01871333978558685
0.013987353036124932
0.010440200710117491
-0.014238629471598579
-0.001655267130579507
0.014337274139827442
0.005944500500618712
-0.01580769210149072
-0.010362154002993207
0.01515963541712136
-0.001925564087826501
-0.004313226586811104
0.01160991640518499
-0.004881919402619848
-0.01525333290328973
0.0024937187387005983
0.004769545082248119
0.003826705412740735
0.008819221746837557
-0.011605123081362472
-0.0016433722163783913
0.018169147057756588
-0.0028037031014574187
-0.009091794133750669
-0.0006723159967231962
-0.007665913000462622
0.004276133352761581
0.027590161520477732
-0.018930783706745016
-0.021459976376701162
0.0119880625974217
-0.011382459746956643
0.012062323988142155
0.024985741794504728
-0.009007821825540578
-0.01092099660033224
0.012691048514002216
-0.0007032705058823247
-0.013112352034136805
