AAD_Filtered_TADAS_FILE
AAD_BASELINE_CORRECTION: BASELINE REMOVED
AAD_FILTER_TYPE: BUTTERWORTH
AAD_FILTER_ORDER: 1
AAD_LOW_CUT_FREQUENCY_HZ: 0.025
AAD_HIGH_CUT_FREQUENCY_HZ: 40.0
EVENT_NAME: 202302061024
EVENT_ID: 13207
EVENT_DATE_YYYYMMDD: 2023/02/06
EVENT_TIME_HHMMSS: 10:24:47.00000
EVENT_LATITUDE_DEGREE: 38.089
EVENT_LONGITUDE_DEGREE: 37.239
EVENT_DEPTH_KM: 7.0
HYPOCENTER_REFERENCE: AFAD
MAGNITUDE_W: 7.6
MAGNITUDE_W_REFERENCE: AFAD
MAGNITUDE_L: 
MAGNITUDE_L_REFERENCE: 
FOCAL_MECHANISM: 
NETWORK: TK
STATION_CODE: 3140
STATION_NAME: 
STATION_LATITUDE_DEGREE: 36.08155
STATION_LONGITUDE_DEGREE: 35.94982
STATION_ELEVATION_M: 3.0
LOCATION: Kahramanmaras_Elbistan_Turkiye
SENSOR_DEPTH_M: 
VS30_M/S: 210
SITE_CLASSIFICATION_EC8: C
MORPHOLOGIC_CLASSIFICATION: 
EPICENTRAL_DISTANCE_KM: 250.80
EARTHQUAKE_BACKAZIMUTH_DEGREE: 
DATE_TIME_FIRST_SAMPLE_YYYYMMDD_HHMMSS: 2023/02/06 10:25:07.7314320
DATE_TIME_FIRST_SAMPLE_PRECISION: millisecond
SAMPLING_INTERVAL_S: 0.01
NDATA: 18251
DURATION_S: 
STREAM: HNZ
UNITS: cm/s^2
INSTRUMENT: sensor = GMS+/GEOSIG | digitizer = 
INSTRUMENT_ANALOG/DIGITAL: 
INSTRUMENTAL_FREQUENCY_HZ: 
INSTRUMENTAL_DAMPING: 
FULL_SCALE_G: 
N_BIT_DIGITAL_CONVERTER: 
PGA_CM/S^2: 14.875
TIME_PGA_S: 
BASELINE_CORRECTION: BASELINE REMOVED
FILTER_TYPE: BUTTERWORTH
FILTER_ORDER: 
LOW_CUT_FREQUENCY_HZ: 
HIGH_CUT_FREQUENCY_HZ: 
LATE/NORMAL_TRIGGERED: 
DATABASE_VERSION: 
HEADER_FORMAT: DYNA 1.2
DATA_TYPE: Acceleration
PROCESSING: Automatic Paolucci et al., 2011
DATA_TIMESTAMP_YYYYMMDD_HHMMSS: 
DATA_LICENSE: U (unknown license)
DATA_CITATION: Turkish Accelerometric Archive v 1.0 - Disaster And Emergency Management Presidency, Earthquake Department
DATA_CREATOR: AFAD
ORIGINAL_DATA_MEDIATOR_CITATION: : AFAD - Disaster And Emergency Management Presidency
ORIGINAL_DATA_MEDIATOR: AFAD PROCESS SERVICE
ORIGINAL_DATA_CREATOR_CITATION: AFAD PROCESS SERVICE
ORIGINAL_DATA_CREATOR: network: TK
USER1: GuestUser
USER2: 
USER3: 
USER4: 
[...]
2.465905244443536
2.1411562721061372
1.8137430984195821
1.5008044066865271
1.2247437850252283
0.9298007082098326
0.539550254746966
0.1383438105050997
-0.1364281072305286
-0.28733650535726446
-0.41505645528879737
-0.5691566195290211
-0.7167262574971844
-0.838856112556371
-0.9346424092870308
-1.0065667792292203
-1.1088738118531865
-1.3338174449360591
-1.626942478707666
-1.8941049817734141
-2.249272273444359
-2.759873181501057
-3.289167358968894
-3.736184087183286
-4.101327046690388
-4.349317687511659
-4.458598533962952
-4.527063941679028
-4.626704089309351
-4.725537557905185
-4.781637428270544
-4.78468448687938
-4.782374169939719
-4.790239886296254
-4.713753881792097
-4.523989055978628
-4.3048939276112455
-4.115144600683455
-3.9869443057525933
-3.9437415777089173
-3.9571477394190446
-3.921357124603299
-3.7697927514607117
-3.5338425825772823
-3.223216343443421
-2.8701855910715706
-2.523292307251705
-2.1611681761628265
-1.833316300700194
-1.6443844104971799
-1.588242361981061
-1.6214531553334965
-1.7147549185791602
-1.8223415948714403
-1.9028152407454877
-1.9175333201959432
-1.9149084536315442
-2.020644079880997
-2.277147236123003
-2.6360428553251527
-2.938099083622566
-3.0710390166772727
-3.190913851187456
-3.397481979434453
-3.5839656347889486
-3.658153212947352
-3.62116029730561
-3.581425950777467
-3.6601525784242157
-3.829125011366194
-3.9523919832975363
-3.990061428071515
-3.9506706681565733
-3.882768324480925
-3.9059410242471855
-4.008925350978587
-4.138283757116938
-4.3001637897479
-4.475100089512637
-4.6811896237725525
-4.913465472505889
-5.129131561335157
-5.331572149713909
-5.515178387289871
-5.652086652104485
-5.718369084543132
-5.753987857655697
-5.820791001159252
-5.902143382477222
-5.947297743748221
-5.959418351163884
-5.9957544830971505
-6.036540364566474
-5.9721003617231325
-5.800070042825227
-5.606551559154086
-5.3979678374856
-5.195971602898872
-5.034994279916405
-4.852559096497069
-4.555286134966909
-4.108838618244839
-3.5621844153679936
-2.9584534727917595
-2.360883371132887
-1.8554494693510322
-1.4319124798232519
-1.0270994898746628
-0.6315543006881629
-0.3074733893291967
-0.04265030735302739
0.2056355539602078
0.3510395071470216
0.3262279480503135
0.2103228586355426
0.1357271945479699
0.14786869248863072
0.23049401987849427
0.3599611657305031
0.47940775064678814
0.5646758998269678
0.6690825185328216
0.8236604470259822
1.0013417394131634
1.177433860751581
1.3172766689173636
1.4730671766908476
1.7236362585717369
2.027886449985492
2.3411482542675843
2.685136589017646
3.1067329927709406
3.577405789634332
4.121932823749055
4.75829992884287
5.332150735278521
5.840033961596529
6.350282685833565
6.887704490799891
7.524264147964445
8.234690633478277
9.012848655957445
9.814086775494388
10.5411451149967
11.22053911253708
11.851437383335597
12.402440434754142
12.86874129229282
13.282373794755019
13.71651924765558
14.080423973959258
14.254645007600729
14.358957822825086
14.474866118657287
14.498391607234206
14.422673983656694
14.36507901985346
14.366590385466347
14.397408896284007
14.36211121783452
14.147734587189445
13.835661202631526
13.53501872309337
13.200081842916042
12.79775576368346
12.374027215783434
11.957876287667379
11.516718191320793
11.001544066600005
10.353396487088007
9.57180980209545
8.71827367004343
7.887675071532173
7.1768929795015755
6.563220559173012
5.95648055689568
5.315912150148656
4.6237242083287615
3.847940432080384
3.0455785913362154
2.311536547034931
1.6465731365663379
1.0080128495726481
0.4165161214998764
-0.06897882730327852
-0.4973100688357834
-0.9376292412405756
-1.3904020908702475
-1.8422342115848953
-2.270549314892671
-2.671601779316947
-3.046575815142238
-3.3867027069049374
-3.737474994928914
-4.140587076995369
-4.558448993646936
-4.984081683982903
-5.452757708869126
-5.916851487392805
-6.2918503719652685
-6.590572693914764
-6.825489842622153
-6.9774797171572835
-7.059206433335303
-7.10456265786923
-7.184961346005367
-7.298488487680342
-7.390588873554232
-7.3914806921162395
-7.258689838688479
-7.042739182079298
-6.78847239100877
-6.567029239511496
-6.369193762845199
-6.112993086253247
-5.8621971853391965
-5.685858225333765
-5.513023128557296
-5.2367331763244
-4.873223934948673
-4.524169159164578
-4.173880775286157
-3.7982070833367714
-3.4288877910205273
-3.020964547543805
-2.572312396654397
-2.098018707765404
-1.581655890402012
-1.0581291213355157
-0.5494781429098409
-0.05778458527244987
0.432157408709526
0.9051753829807724
1.2694896953533308
1.502081213032659
1.6737498518331768
1.8234832163576946
1.9510995487001594
2.0440078816075786
2.130049799139949
2.2376019699606706
2.3267111976799453
2.4079416657830195
2.489459279723191
2.535564935604013
2.5760575359262265
2.6659412404164016
2.800444051602504
2.8990056874063255
2.9566341224644375
2.9965391800139716
2.97560941837574
2.9076844597952007
2.828943416532715
2.7999733440546333
2.827858401035577
2.818928360705968
2.759575662783941
2.681136250785977
2.540681637009352
2.3094408373500883
2.034982551351689
1.7179067462071846
1.3266581683588186
0.9027366607395008
0.49937469824111097
0.12040957002797814
-0.27280653260096605
-0.7103541379063927
-1.1158952978636656
-1.395090300321937
-1.514509955533248
-1.4480357863819273
-1.264839123701337
-1.0720733268932967
-0.9567342006770397
-0.9633523104221506
-1.022949619718438
-1.0903404222235362
-1.1583103264698242
-1.2279795776189901
-1.3207191433769696
-1.4128713586890362
-1.4980506802679425
-1.5769729992249961
-1.6261685038181923
-1.6625418822101672
-1.6547992622270231
-1.544698557143449
-1.3579868274019786
-1.1393573124867897
-0.8714464477629117
-0.5153940158532732
-0.08117822529652388
0.41825979641289673
0.9809213186143052
1.6202133802783778
2.333447024912909
3.059702698728478
3.668675096501203
4.068787693047877
4.334536767982131
4.4640170056808355
4.421488005023306
4.307629585523652
4.114909342267587
3.748005303149723
3.2951883900843506
2.903397362310368
2.5157893499788306
2.0842593757055514
1.6811824686160468
1.3572684564709792
1.1327823225064775
0.9387950103486119
0.74504070721237
0.6629179239970736
0.7350466066027913
0.8686550852761709
0.9881208435943657
1.0939221121151392
1.2367913599375284
1.4698034962910336
1.7416539528948327
1.9492199999512796
2.050263040296021
2.048489168535969
1.9773308723627057
1.8656030527762417
1.742245580565867
1.591002423339244
1.3614255818068657
1.1032588902438631
0.8265423851122321
0.5215121994850683
0.2772563821296817
0.09123592433678779
-0.08751445423727501
-0.2305478679417174
-0.30676165866402466
-0.3470218054005819
-0.37235789162821364
-0.3717180049998854
-0.3566627822338305
-0.37072253981668213
-0.44635710546183305
-0.5124447963517165
-0.5593272642089305
-0.6074392374370944
-0.5635062436360619
-0.49046291026295485
-0.47628573832102883
-0.44944914733370916
-0.4067770410042334
-0.3738271382074728
-0.3622658075268782
-0.3808049875575505
-0.4120125736525568
-0.5074361050366717
-0.6577560319641119
-0.8119361826026166
-0.9992520145891748
-1.1898458308574695
-1.3979145517836715
-1.7049556243108612
-2.0479329270688815
-2.304421002485084
-2.472223773911036
-2.5640327893441954
-2.5028417923905133
-2.242158675364047
-1.7998282256708218
-1.287902759337306
-0.8133667113821945
-0.33896703030855835
0.1410392695658848
0.580220484286217
0.9623154118442757
1.3290380153328554
1.7489499691522206
2.1999895074140077
2.677823726216251
3.1593177810052584
3.5349430814535925
3.80049846333057
3.9695504654682883
3.989579034789976
3.920954241211547
3.9128585615994322
3.9437532712641654
3.8601101848391552
3.69756277002593
3.541237325697644
3.368010472480003
3.1685218658500087
2.9438700064531376
2.7825097831719234
2.7776391763906747
2.8589604379830362
2.898804400486015
2.86794874469815
2.805718150319579
2.7560641544204616
2.8106392795278246
3.022906258209732
3.324549705493127
3.627638670664249
3.883425202035571
4.056464035240785
4.15243680186099
4.186466994979534
4.1180928065803055
3.9430538444382224
3.718043619311011
3.508398808080252
3.341204399531779
3.1626151321667106
2.9438073349062117
2.699729579653373
2.4708445163134813
2.2859160627711974
2.099253588017694
1.8809975798281497
1.6640423668647844
1.4916129284343982
1.3267314832859871
1.084535411021438
0.7719189728401046
0.5130974035034336
0.3970167197329765
0.3994618933756221
0.4864219134371001
0.6307114766155236
0.8007587981682623
0.9641621179885912
1.0345490644262199
0.9867026113788113
0.9124919946522156
0.8689108765313382
0.8408142683569797
0.8270506069718332
0.8865601934799703
0.9991878497010784
1.0972718952518963
1.1386449645274068
1.097272690375458
1.009515099274793
0.8981385746831438
0.7712136788038805
0.5786287820207571
0.2711770665684396
-0.10135465329336743
-0.45029259984041303
-0.7234067464766387
-0.9985763233154886
-1.317701270552982
-1.5686524003021713
-1.7286712114196676
-1.9255396455080818
-2.239376919674886
-2.5362891911020378
-2.6667224015607687
-2.7545419201967833
-2.8383522679867585
-2.7890030876895917
-2.638984583525174
-2.5062274030284115
-2.4363259528548613
-2.3164041346109863
-2.0985693656817848
-1.8951868189094292
-1.7080566789731615
-1.5424959509918406
-1.4472797193727873
-1.3137731490180022
-1.0650568722996283
-0.7679492354683795
-0.5126134686022972
-0.26642266091118855
0.05358839061933723
0.3592041734291167
0.6810171842871292
1.0947373126842428
1.547145420665621
2.090293860491515
2.6769236138453043
3.166379450432705
3.4883679195587978
3.6713912505568027
3.7968999664434855
3.8455545024481514
3.8248254847989216
3.802789582300024
3.854162358959129
4.012290172348187
4.172183424787958
4.151127924436301
3.916091752421105
3.688739208467366
3.5689166877228566
3.4673878299576644
3.3399462677107192
3.2079580686374762
3.113275341334715
2.9099114132515287
2.6517907724643512
2.574173119651091
2.5630665920893447
2.518359161517845
2.488493175819723
2.564205570472562
2.743775347696266
2.9063513489044044
3.047010219452583
3.166348778577551
3.2978140076233924
3.4327933281239917
3.479650430522727
3.540251653409662
3.7230368839591197
3.946511660451025
4.134853664437623
4.253815873271377
4.304324350679836
4.389721200790085
4.548479313193461
4.661520541744744
4.66411097946073
4.568074869056084
4.3944758158066906
4.2282070176548325
4.121304667659342
4.0303138873657804
3.870315224893096
3.652915770551607
3.549473765020713
3.641277573764267
3.824022369960919
3.947743607251732
3.9902879265101787
4.125151471126882
4.362050540258477
4.474787260274859
4.436241489479466
4.3826303880107735
4.327401902181202
4.231000935720854
4.04153676676875
3.751916842288788
3.450825470048846
3.185279241704958
3.000841364312042
2.8651370409220425
2.6875336440575057
2.49462610532245
2.3036882813262882
2.11043862327383
1.8972694437944997
1.6923842704933396
1.5637138753883488
1.3952184423327483
1.0851408119661943
0.6883070716239387
0.20643184563520905
-0.31138787415567637
-0.7769802521015262
-1.3281807309468427
-2.1000310192005838
-2.944373158484586
-3.591925863705839
-4.0302044873569
-4.486285202431848
-4.940069498169896
-5.2648251204173295
-5.540784970225717
-5.916144185195429
-6.381137813908326
-6.802190208907576
-7.287304556886595
-7.885053979159283
-8.348084859414696
-8.652026833255936
-8.92231298459089
-9.166164148922965
-9.3903556895334
-9.647329427017032
-10.005563185052843
-10.41157651197217
-10.749420277553153
-10.994360127165647
-11.141364438058247
-11.228689041875528
-11.37221519443019
-11.653560671157374
-11.977403501134637
-12.087047071302933
-11.960710358526125
-11.987594709294509
-12.366964519485508
-12.761726701387406
-12.871458281942946
-12.858426791513937
-13.01268012927057
-13.268224059095695
-13.403663340606746
-13.428023316025657
-13.432790740281202
-13.507467177716475
-13.620479192572658
-13.645150985917361
-13.503273924357076
-13.131366182767183
-12.70019488306302
-12.410494214829118
-12.202757759655498
-11.812368116562824
-11.132345254759722
-10.465047671397505
-9.928251608269964
-9.408852112616577
-8.884971650678278
-8.390866199793683
-8.010539863611086
-7.594219783102058
-6.907010775346541
-6.09878997116648
-5.403595759174589
-4.763666569404297
-4.083630357327282
-3.4173720383577817
-2.835228532117636
-2.2775234145061125
-1.6273992237633579
-0.919421882188537
-0.22118668417727133
0.451545298528751
1.087256722202152
1.706586977972581
2.2769382171120878
2.858696979970319
3.572585289115923
4.314380307155492
4.933832978022872
5.633822708039361
6.5707962302051195
7.339185813792892
7.874658630895077
8.633896865806824
9.501103999868675
10.026068686601922
10.405830122778504
11.110112752694674
11.882424994180806
12.373001234934163
12.766255102508172
13.196312834590735
13.657186944028547
14.028604826958777
14.227734485274018
14.36588080300097
14.468485679814576
14.544836011472476
14.690198270117337
14.836368773567983
14.79486054589847
14.470346068728324
14.022285387678377
13.695523330756247
13.267291717464442
12.571127904336304
11.84710644775108
11.153270138348402
10.400663603634614
9.635250774080113
8.939100427302565
8.232693539782169
7.698545603407414
7.408409858724345
6.89004749239509
6.1719533591296205
5.682922236019893
5.504917219745712
5.351776582679257
4.867176805028902
4.21096700921932
3.8099311213381335
3.625904975356088
3.282190250863326
2.7553980277127286
2.2898428796785697
1.8665502895809263
1.3904394897880088
0.9191965768817333
0.6366518580053588
0.6624424483010252
0.7141788583193885
0.4878908118679521
0.25774954591608484
0.41061822717825375
0.7004596230249834
0.7524339116162176
0.8290452263267162
1.1635315741172816
1.537137691593397
1.8488183637215603
1.9559335156398012
1.72753873778944
1.3660174575505568
1.002908063597113
0.8001740246662162
0.926651022984224
0.9416461180447533
0.3908135111104074
-0.2636226485256491
-0.5074161291519238
-0.6545840956949182
-1.0674404954106367
-1.498798623403671
-1.6781386894610026
-1.674853047399281
-1.5093399327662982
-1.307981559734556
-1.172744638119845
-1.1192176790774488
-1.401439200217174
-1.846907434962102
-1.8438646042876259
-1.4417263619358236
-1.2746494151471695
-1.4185074425467867
-1.6554828467630427
-1.9154721059329118
-1.9501605261245962
-1.8716638051386136
-1.9263470423214706
-1.8653660068571272
-1.5469146215095657
-1.163431914759703
-0.8877967001120709
-0.8589264650206019
-1.0667221322313978
-1.2933738178511673
-1.3000535865484548
-1.0200500625578932
-0.7293594100206169
-0.7404581703347004
-1.1023951249188264
-1.5356605235296368
-1.6659393985033861
-1.6574583237333813
-1.9180430262797987
-2.4450019638371323
-2.89755870438382
-2.9842332748111904
-2.9469934088478897
-3.1625213566446244
-3.466288653956863
-3.675283979465238
-3.9935023533561
-4.502103746963602
-4.897596051674551
-4.917635246731437
-4.725913573842306
-4.621368820323988
-4.610480664918059
-4.654073181627597
-4.885581459179099
-5.146572946026483
-5.068855690215105
-4.777773015182746
-4.678960241514424
-4.87231997990505
-5.159013056304689
-5.306648979016684
-5.417278266545981
-5.711833358771634
-5.883354812122441
-5.536090350493393
-5.0992209378234685
-5.146084532017346
-5.3649659829731835
-5.26229738167841
-5.111977470365134
-5.319335675638029
-5.525942330397128
-5.30118859008709
-4.8049258167826325
-4.554304112114101
-4.693491609472563
-4.66331168612118
-4.374291288406345
-4.2495229968435
-4.3058389555575145
-4.344192694407004
-4.300479644404756
-4.14734245082408
-3.7404417004223625
-3.114594232799927
-2.643110869307683
-2.5145250214185455
-2.347258431414513
-1.8638347352201756
-1.1722141008121076
-0.400011344218355
0.2809868158375702
0.991860220084682
1.740521645645456
2.1160980595403505
1.989057322648201
1.7914899452938864
2.2654768206751315
3.338884287606598
4.270092961621922
4.71887230794409
4.635039661899632
4.2577700384197295
3.6389453925440653
2.7564759496655045
2.5131353446765368
3.174057924232451
3.536384733115125
3.1103882143858694
2.4154124743781704
2.3483151724400404
2.8443717715706214
2.095139152315379
0.5326077396256568
0.6380234797300093
2.015970611551341
2.7956414329427726
2.8782468542273367
2.601545357929644
2.044246604004431
2.4378223524417053
3.4198491309379904
2.5612323857291424
1.3980674828559896
2.2274614292437778
2.9664126465279095
2.5365742443751595
1.855885401279806
1.3627644567484964
1.349515848632039
1.4090926393357464
1.9863803499859047
3.433683430673623
3.877883176358245
2.9862234425555645
2.6184785472248087
3.0342102474213677
3.613058847998513
4.194774946981035
4.2068153889156115
3.6021338055962624
3.371291258574857
3.971313471297474
4.797695888541462
5.32772665359426
5.2342447232161735
4.872610883315932
5.4417339614120666
6.3538192962439455
6.5755935401572865
6.844388082595208
7.246557396910697
7.37715497279838
7.469989709995696
7.5390939809795885
7.567592375646522
7.9781724589240754
8.70447402368223
8.813341790329972
8.80272744877383
9.240066696927837
8.896816822322672
7.931497766097319
7.287162684516785
7.000938024570378
6.864017126918946
6.256490081175582
5.438290093920424
5.062841271360934
4.771920098867899
4.3113448737333195
3.6697060928429743
2.5654077997490123
1.0553604154112832
-0.21400827687313034
-0.7492707008754217
-1.012547061705161
-1.783242231089227
-2.8258363586241124
-3.629918246909125
-4.319440372653938
-4.83732180511099
-5.319193555037437
-6.09705067435301
-6.795432692620341
-7.298041707392294
-7.91057707578089
-8.4396998244553
-8.54503396988742
-8.237463003308767
-8.037733538737111
-8.472542530636089
-8.82208704871062
-8.629494385314969
-8.638207226374101
-8.46497855260526
-8.08725603098154
-8.505482730665602
-9.431983993601316
-10.253386175481676
-10.63076938142307
-10.6158628866096
-11.067739969091598
-12.069023830634746
-12.330445985013625
-11.461932010896378
-10.69925956124143
-10.832502452490026
-11.991874252481827
-13.3998329702303
-13.296502374603975
-11.767493673440253
-10.393030546759112
-9.939561158601954
-10.68797539272233
-11.887143443088583
-12.055026290178079
-11.368360946825863
-10.957617662507715
-11.13934744354727
-11.372230658303554
-10.902181809500732
-10.83421161426799
-12.238740103864943
-13.274368408528424
-12.57047493212664
-11.061551656489911
-10.408403962695967
-11.191024390315468
-12.098080176905459
-11.610092573099456
-9.906849892311644
-9.312348032806137
-10.253292785769876
-10.14196240165791
-8.903706284176915
