AAD_Filtered_TADAS_FILE
AAD_BASELINE_CORRECTION: BASELINE REMOVED
AAD_FILTER_TYPE: BUTTERWORTH
AAD_FILTER_ORDER: 1
AAD_LOW_CUT_FREQUENCY_HZ: 0.025
AAD_HIGH_CUT_FREQUENCY_HZ: 40.0
EVENT_NAME: 202302061024
EVENT_ID: 13207
EVENT_DATE_YYYYMMDD: 2023/02/06
EVENT_TIME_HHMMSS: 10:24:47.00000
EVENT_LATITUDE_DEGREE: 38.089
EVENT_LONGITUDE_DEGREE: 37.239
EVENT_DEPTH_KM: 7.0
HYPOCENTER_REFERENCE: AFAD
MAGNITUDE_W: 7.6
MAGNITUDE_W_REFERENCE: AFAD
MAGNITUDE_L: 
MAGNITUDE_L_REFERENCE: 
FOCAL_MECHANISM: 
NETWORK: TK
STATION_CODE: 7901
STATION_NAME: 
STATION_LATITUDE_DEGREE: 36.7088
STATION_LONGITUDE_DEGREE: 37.1123
STATION_ELEVATION_M: 640.0
LOCATION: Kahramanmaras_Elbistan_Turkiye
SENSOR_DEPTH_M: 
VS30_M/S: 463
SITE_CLASSIFICATION_EC8: B
MORPHOLOGIC_CLASSIFICATION: 
EPICENTRAL_DISTANCE_KM: 153.88
EARTHQUAKE_BACKAZIMUTH_DEGREE: 
DATE_TIME_FIRST_SAMPLE_YYYYMMDD_HHMMSS: 2023/02/06 10:24:53.5432270
DATE_TIME_FIRST_SAMPLE_PRECISION: millisecond
SAMPLING_INTERVAL_S: 0.01
NDATA: 13501
DURATION_S: 
STREAM: HNE
UNITS: cm/s^2
INSTRUMENT: sensor = CMG-5T/GURALP | digitizer = 
INSTRUMENT_ANALOG/DIGITAL: 
INSTRUMENTAL_FREQUENCY_HZ: 
INSTRUMENTAL_DAMPING: 
FULL_SCALE_G: 
N_BIT_DIGITAL_CONVERTER: 
PGA_CM/S^2: 49.814
TIME_PGA_S: 
BASELINE_CORRECTION: BASELINE REMOVED
FILTER_TYPE: BUTTERWORTH
FILTER_ORDER: 
LOW_CUT_FREQUENCY_HZ: 
HIGH_CUT_FREQUENCY_HZ: 
LATE/NORMAL_TRIGGERED: 
DATABASE_VERSION: 
HEADER_FORMAT: DYNA 1.2
DATA_TYPE: Acceleration
PROCESSING: Automatic Paolucci et al., 2011
DATA_TIMESTAMP_YYYYMMDD_HHMMSS: 
DATA_LICENSE: U (unknown license)
DATA_CITATION: Turkish Accelerometric Archive v 1.0 - Disaster And Emergency Management Presidency, Earthquake Department
DATA_CREATOR: AFAD
ORIGINAL_DATA_MEDIATOR_CITATION: : AFAD - Disaster And Emergency Management Presidency
ORIGINAL_DATA_MEDIATOR: AFAD PROCESS SERVICE
ORIGINAL_DATA_CREATOR_CITATION: AFAD PROCESS SERVICE
ORIGINAL_DATA_CREATOR: network: TK
USER1: GuestUser
USER2: 
USER3: 
USER4: 
[...]
8.533148512085791
11.12900653007617
10.244693056890297
5.768240620123552
0.10815657294600044
-3.7186591451272224
-4.903666617679917
-4.122793348930861
-1.736961456987405
1.044730624877602
3.0326973212808563
3.917054143836154
3.209517038545248
0.7902155907295964
-3.1417233122066794
-6.736377825140636
-7.624735337305449
-6.15131198028773
-3.20492829855783
-0.9113282711330472
-1.4937614473224339
-5.143827324995475
-9.31169836274342
-11.066500443921315
-10.046772096430184
-6.141924202500397
-0.9899662243195376
3.2677684122490103
5.885358315445921
7.957884077004612
10.132727054508521
10.85608732797398
9.030462564958448
5.974367187242811
4.301098402272404
4.383669691305649
5.125756931295322
5.25606294700241
3.577719349338302
0.12235128206863158
-3.6526070875994137
-6.520493029241779
-8.482507961848187
-10.042931963719392
-11.449255083848909
-12.264794869469247
-12.74577694879761
-12.660152934765891
-11.182073178499515
-8.707515095053093
-6.050793270416976
-4.015450780352228
-2.9614042176199846
-3.606717262931327
-5.191256421707442
-6.461990906827843
-7.254574109171395
-7.949237913091752
-9.587162845411095
-12.016423238738478
-14.471648281281851
-15.716740425172858
-15.12512089145723
-13.283021659323033
-11.310470773931979
-10.143349858254862
-8.987172013142223
-6.662694632241897
-3.4300916194729987
0.09213449076949533
3.4311936947648927
5.93663683938762
6.544546670778551
5.097616265055056
2.4523936523332646
-1.2233275928262943
-5.540784153052361
-9.949159717964784
-14.134931467581358
-17.42490462297793
-18.477763006237762
-16.605373378533837
-11.810694592712785
-5.5917155769875375
-0.8775330418709931
1.4171172837589379
1.6769829078052187
0.702236719258338
-1.1857172671181078
-3.2107956124101618
-4.639370360036499
-6.826734162657218
-9.951824594721897
-13.22830979714303
-15.428080702762971
-13.426872929845963
-6.397076134742268
2.0181264603486695
8.427544329763746
11.4148830546642
10.664786002929798
6.571505921357072
1.9746069784923002
-1.2501044699263055
-4.182990760570336
-6.380731493137976
-7.401137608252023
-7.492044853447438
-7.042099064246402
-5.673830438811132
-4.2201286408113905
-5.878918759351991
-10.82435198179557
-15.788135074146217
-17.545113520967202
-14.987160254168938
-8.9866336947926
-1.381099264503651
5.267247012745341
8.77742905358411
7.909406504833806
2.620544236933935
-5.448121815715925
-13.632141617108648
-18.9988817168516
-20.046046376081037
-18.2312268073361
-15.289540491169838
-13.063653079122233
-12.367526247033355
-11.720200514800004
-9.934677080344443
-6.656184524347235
-2.6196060961600733
1.2079857567185133
3.616717075508472
3.855131409613072
2.9571041104096936
2.3117976213619977
1.6394343692181357
-0.7543932362708426
-5.836413448720474
-11.958356300497607
-16.83956431905288
-19.06259166389922
-17.863183338833586
-13.840339498819171
-8.61311765545289
-3.2146254889480206
2.7410071894111323
8.79275277181574
13.269246456867709
15.545611586884249
16.563651564576453
15.688370724298137
12.519644163196048
8.599678834017503
5.276360145546628
3.1766539106690934
1.6294199122363717
0.7356181243508413
0.2975640765297477
0.17188046414248168
0.7386054124709607
2.876684724261906
6.844433847053495
10.177816836855616
10.599836909420183
7.366420994061471
2.2344693155372917
-2.58993191120851
-5.239981331204042
-4.230507453200141
-0.029213752493265906
5.007112544106642
9.194074738730635
11.589594106317646
10.806305778920054
7.3676129457316755
3.8190855986608914
1.9121308201620895
1.9658631232175587
2.772496849716033
2.4772534234360792
1.7715095304690978
1.9059292031907493
4.022767614137937
7.242349267218637
10.144649728917871
11.947882912481662
11.832864509095264
11.1198729475255
10.848436850268747
10.492906679944628
10.078678166764814
9.464323259026235
7.143744212339601
1.939054159846535
-6.0627984705726625
-15.105377711783019
-22.773611158058557
-26.089197350670783
-24.314205186894302
-18.892725355038255
-12.576460336712094
-7.564305478613746
-2.9462088456588473
2.8668228199673678
9.996513399666961
16.797449182790817
21.010228884356355
21.792053458430367
19.78236020727839
15.565297397960984
11.70266766822019
9.711498170607788
8.389814573653839
7.077361695164515
5.427924972320667
2.4089789252520633
-1.4321632704659053
-3.5925470708000646
-3.280105567387733
-1.8895188293679057
-0.9054728688973737
-0.8924618410742666
-1.4991657041429234
-0.9812853117259906
1.8534241176355521
5.523931296555479
8.562265973713838
11.347811779571584
14.646251671212449
18.434673863260155
21.498990552870023
22.357387191826902
18.892467311629144
10.111675100160051
-1.2437429225292032
-11.544709568938504
-19.227560369818676
-23.773444845675588
-25.02425379912643
-23.395056920220977
-18.310834206718727
-9.668431408082068
0.6425804601847022
9.504751481758303
13.575306662449195
11.026614293543837
2.7700756574924092
-6.998268202705494
-14.572521940302458
-19.383578791044187
-22.035265605997292
-24.036509207809356
-25.632929313148665
-24.52985358123181
-19.442665825886483
-11.780603176455013
-4.375591521340336
0.4816990223820596
1.1040560851966228
-1.1268107790380064
-2.4511645372380273
-2.540469743192012
-2.6964942294696614
-3.845545924011334
-7.195720336591184
-12.797290951613048
-17.449076278655685
-19.099675421020436
-18.69473603611862
-16.904718544560765
-15.221580039318193
-13.917714034636889
-12.278558647133913
-9.142016250722179
-4.9283774030889935
-1.9589357669407514
-1.2637297032096177
-2.584869209568799
-4.516751464825034
-6.496404031406914
-8.8425260184735
-11.095231551210953
-11.827988146287627
-9.620717780228048
-5.886168728940573
-3.719986058355987
-4.390951766271157
-8.766032972472784
-16.191904200728963
-23.803119846798953
-28.44176360312388
-27.981546670099476
-21.451228389757897
-10.704981605597794
0.4954624794309552
11.001627971543805
18.73878734473952
21.72267877530232
19.79677147054178
12.57851898975908
3.8053696138526845
-2.9877044992191006
-7.920360471404146
-11.280577875870527
-12.811699589678165
-13.294931817729296
-14.46609662414356
-14.701908808594206
-12.308294828079212
-8.111683056304846
-3.543983168054118
0.27039996086632745
1.5821758139076858
0.8268358346569605
0.175020226223115
1.3499170979491315
4.33229943291795
5.6082133152812625
2.961915348238432
-4.164127391598054
-12.787110948170934
-19.086942996144515
-21.619093786975263
-19.769110362147295
-15.054758351634753
-9.64390020840848
-4.5407244516157546
-0.9013406214599518
0.012754543972893799
-1.9221450773907969
-5.412272692209487
-8.679565042307065
-11.810081428054968
-14.035698884137089
-14.286046688500868
-12.998805308848869
-10.274776206546472
-7.126186214021943
-4.12476909531437
-1.0266638033366122
1.5995359746068383
3.965767907992902
5.917158885230444
6.373199141662294
4.991325205994563
2.015612088132242
-1.6187107400477205
-4.893351771938555
-8.053554833339719
-11.70596608101009
-15.006128864780356
-16.339158218388445
-14.892633262059313
-10.91134887862112
-4.745863787651995
2.3064256655241078
9.14216166638393
14.983017287601708
18.329879420252347
18.859359925926995
16.442559195343613
12.152514368287415
8.428373060374149
6.327301603737159
5.813199732407464
6.98872813917672
9.436165109937829
12.254992813316164
14.926221624127185
17.880995606078088
21.155984708970806
23.490350653639812
24.33402128830664
23.49410266326699
20.623105552832275
16.483629707934238
11.454483239382759
5.61716016579117
-0.429585983209396
-6.206197161301328
-9.830848360989075
-10.430529022307104
-8.406282563851201
-5.616697079045584
-5.179308183560939
-7.833871479343112
-12.619588676177598
-17.384280908748277
-20.100839662541244
-20.360360613283774
-17.74806114676683
-11.635702706249006
-3.138649238514476
5.485438430652085
13.640423092304097
21.928707760960517
29.460896186937163
34.4083074621792
36.23866319962969
35.28320587181819
31.449401509851484
25.31499803425618
18.364303343051752
11.052152713703709
3.704490765818202
-3.3019670642767234
-9.482869048411064
-12.914570761769857
-11.979334042190123
-5.983442332422608
3.5941265072207855
14.073922863146796
24.143885236063646
32.171888084370316
35.87826936579699
35.58729822539895
32.76263012461615
28.19411906586968
22.472388771416174
15.696698235919296
8.806991974265346
2.503835587406167
-2.854523472379476
-5.679135044532884
-5.02799946616935
-2.738778565959696
-1.0959799352880137
-1.3664837168068098
-2.91597906724875
-4.316031025848573
-4.158760351867053
-1.8096339387459521
1.4072382836961708
4.195618905884688
4.701274397495685
1.5209612659251452
-2.996303528456669
-5.3304062609363525
-5.270161207928942
-3.934364607085026
-2.5124226241352754
-2.1975047493376563
-2.997847126297457
-4.255044082266831
-4.521630842765604
-4.113767758094124
-4.39284974389773
-5.8470187667808275
-8.279609447384328
-9.58958000132119
-9.724349489966565
-9.55111269240219
-8.724784295919479
-7.16912878484611
-5.207111550743914
-3.6643281560182683
-2.901115452890392
-3.83851490529647
-7.24293172510909
-11.386192664975097
-14.505623307306607
-16.914923912062715
-18.439633813781775
-18.751852355276696
-17.82323836522763
-16.214717879138302
-14.7210110304056
-13.442581483880904
-12.090699665813254
-10.221324595003148
-7.872075267966954
-5.390977691418688
-3.7877233508461865
-4.095826916963223
-6.332546806341113
-9.600578854781855
-13.666849818340696
-18.382379902522388
-21.739678595508163
-21.25431958167045
-17.03430850029055
-11.11006243687385
-4.868054919446111
0.17783369395642018
3.3416783455050605
5.1365073261307295
5.719827900198284
4.029099929052717
-0.2990626577909307
-5.633505673753325
-10.95415234435389
-16.13509049327742
-21.277949843082133
-26.66511463471107
-31.750776371472153
-35.081855293432895
-35.43249202550312
-31.36591226997347
-23.895260316987542
-14.634261560158135
-4.464411474393498
3.8549990841654034
7.631271738025704
5.714885246887735
-1.0482829680020502
-10.92635602331758
-21.565900383660367
-30.935619349978207
-36.122904050086525
-35.928750808610474
-30.46222605709226
-20.8933092575193
-11.475720028619925
-5.014265771613653
-3.2736434744640994
-5.922529337880163
-11.279174263564935
-16.355583849837604
-19.05871990604635
-20.307152766622014
-20.946759847086494
-21.99154446319198
-23.830208062055295
-26.21738810162678
-27.267244686571885
-26.36893203263027
-24.35445355176089
-21.367811082875853
-17.937906732494383
-14.51011319702655
-11.279976679017512
-8.038160830216164
-5.288975248300436
-4.40194671811252
-6.9383187637171355
-12.238685598354635
-18.975240578721955
-25.816198459190826
-30.617462829208502
-33.35503178084162
-34.77092149053836
-35.58020181444605
-36.170991067654406
-35.027620080770504
-30.41860977051217
-22.45863982482927
-13.60440850337242
-5.482997865154189
0.7779034586598287
4.495992987750237
6.147703432015037
6.254513126636437
6.164244306342874
6.102963759585391
5.612168411403916
3.5118062085931316
-0.53014655658918
-6.4529920037408965
-13.800809445116087
-20.281705154997105
-24.50228837561032
-26.613471775529018
-27.149982887660748
-25.962547983890648
-22.72574060049514
-16.602995980722294
-7.891516610239883
0.008854834153345778
3.8207689752894627
1.1409348068815868
-7.233416492852861
-14.67786439888419
-17.24248653454319
-14.034081795745616
-7.10664776609277
-2.2945915759195663
-1.3376342819370748
-3.5220890156711517
-6.034589825616876
-5.655030125510194
-2.7396144260910464
0.8041276036146517
2.663864005438156
2.234012565546206
-0.06498593182236607
-2.84811431040525
-3.122033701252743
-0.671448947666664
2.418020295428016
4.694839562145302
5.750471725724255
5.578850953674627
4.637680938281833
4.8145308633421715
6.243253466549593
7.629420326439112
7.327983353511493
5.5075214293921535
3.562332274617646
1.7903367806496264
0.6249676572679502
0.055152477810554046
-1.277139596151752
-5.493485416108411
-12.629473686260667
-19.89760343030489
-24.026150571903333
-24.074119943990592
-18.900423430084135
-9.078733019737083
2.008850498509981
11.412368232099038
17.29075315286062
18.538942967461576
14.224729903305168
5.907548315375791
-1.9474739802509593
-7.59609386820728
-11.214414602101554
-13.00846841977845
-14.326933159888776
-15.32322775839611
-15.933151565529785
-14.729984996823665
-11.122377637606043
-6.114136942370613
-0.7706687660750545
4.175790604222271
7.6076463041043985
9.08302994636888
7.845260259817605
3.818904546747642
0.34169302828579545
-1.0530393850660658
-1.1082072760998556
-1.9624332521823515
-4.972328023682529
-7.955076269298107
-9.746091608223804
-10.392826368027352
-9.393429559769258
-5.701967656847633
1.4113009029957657
9.704781313518296
18.410021968830407
26.18167694262398
32.387777848318294
37.406822623830095
40.52123923129551
41.94972519638441
41.3759407187785
39.26315958955561
37.2074055490513
37.382751907401044
40.13385113717494
44.29425617867815
48.08511788846526
49.8236662214907
47.40532189025241
40.86530222347341
33.16968045804024
25.95392282175331
20.343953851233064
17.12683167540091
15.589246959673572
14.972198983918851
13.470245209060172
10.068360280219673
6.893015305480618
6.012626047190751
9.101037574154613
14.202893429048762
17.78166900783153
18.081999977487406
14.449567253736138
8.71615578048714
4.218097131519977
2.5659064511382046
1.7377381408432242
0.6871277082203644
-0.5108753982437666
-1.0993811113112761
-0.10984747480111319
1.6690096506988987
3.7909079422915393
5.537737106233305
6.261775317015247
5.132923707617128
2.0602476469160567
-1.8479299621427516
-5.775095511811117
-8.57479095731886
-10.655391065826304
-13.188606801258157
-16.19252656017538
-18.948532146828207
-19.48031313166647
-16.42781606461756
-9.143163162051353
1.3118357811860462
9.323954883767616
12.089690182320687
9.229638379263132
1.3975129354940068
-6.864155325986475
-12.382391298269996
-14.363480063978308
-11.802592257851565
-4.323288777321699
4.127818732905509
11.042593830833312
16.497652723907724
19.595849462365468
20.223148902607612
18.351299452445243
13.416667258407388
6.312968994665499
-0.38246988072937155
-4.5802817995243865
-4.128303846186721
0.3061695971031864
3.230419806930432
1.2331661784203798
-4.529261192336314
-10.340572490559394
-12.203334975466415
-10.299735429895192
-6.462794290210274
-1.5582481404010669
3.901924539186895
9.475820533803537
14.530522764029799
18.00550865879195
18.26883952941936
13.358041747790422
3.942983206638313
-6.255636792803254
-12.98880104760163
-14.688865706287514
-10.766870133008483
-0.969527214886203
10.240108037899075
19.63848025689024
26.895467086521005
32.31291421071258
36.5133642258841
38.50353311770631
36.87086599530616
30.22781736483729
19.825720627070044
10.502520901904111
4.96192837610893
3.6888367261902464
6.0225460190331255
9.635304168755958
12.664301287227392
15.81397774517981
20.533366459767027
25.87155334936227
30.379899032936205
33.74836712322696
36.08747762846261
36.6916553908006
35.75576706534945
33.03767375871761
28.4257070213512
23.621114024945896
20.33392913975106
19.043699094031837
18.432008755562983
17.79477867885018
16.536851901911454
14.76439266567149
13.367694498585761
12.643913332036304
13.143896115115997
14.219545343568193
13.720724263172507
10.581459548469226
5.63493560209944
0.12187877349657467
-4.509169671080803
-7.748146512287031
-10.038612078225512
-11.135646413150035
-10.76310447204739
-8.97588735180347
-6.552204179149761
-5.384139387414166
-6.929808016048089
-10.602682050262922
-15.087113645639924
-19.186426034986802
-21.75689037249957
-22.380642556470328
-22.104394421354396
-22.23165257420499
-22.811868751874385
-23.281421029330023
-22.517469665434266
-19.62368895104746
-15.367144908147237
-11.67816799168931
-8.96379302011448
-5.556570250076853
-0.5721317777930811
5.460094344188837
10.706630581749566
12.732297738445665
11.192272051434903
5.634927136851381
-1.7690880618280502
-8.227372906214816
-13.47547432309239
-16.628878690693636
-17.84469922872872
-15.832309059636307
-9.68336940919677
-0.6541068164815351
8.513073628466001
16.482968786396558
21.5748984904486
22.535191220038183
20.066483568527826
14.378586128770781
7.58802032278842
0.3821013259211206
-5.9232908580267996
-9.078421066097475
-7.7163592960765985
-2.5640723974224575
4.105791776824448
10.256328813457246
15.758898149201322
20.85515689349029
25.4160548148636
29.268984784643614
31.45020199355738
31.347636046954186
27.67810359310549
23.881465554249687
21.866560493162424
22.39241963771388
26.722664196572463
32.091447347808824
35.91625557953938
36.35113026769941
33.98228233010617
31.418402973934956
30.715350359301237
32.14014962276051
34.9367093947815
36.53983575456807
35.28263893840649
30.711678475122483
23.675433049650017
17.326102600424534
13.159070101693517
12.065530338940633
13.909949494968977
18.350763417672372
24.13178557093817
28.619394963910317
31.988101876901315
33.92987457412342
34.6092503525131
34.6652467770812
32.56665229607105
28.849201353804983
23.55808941884015
17.776161181160536
12.535967445562887
7.360980942504619
2.9778466682663134
-1.0197317269554882
-3.602149229981916
-3.1322716922578127
1.5822258263378481
8.778931561744768
15.566949189579935
21.324980073560102
25.283327743465986
25.263899804828043
20.75850896341157
13.365004309608947
5.0866717908369505
-0.7355443830347145
-3.774117536562209
-3.7531051430280615
-0.8687467820793533
3.1458981678262856
7.661954174047252
11.525411637174681
14.332714836223607
14.97681055281323
12.967858083567126
9.406037876559587
6.074566181147147
4.735501761594313
4.794016828150718
6.283201995945361
8.576602909478249
10.240301829477794
11.897463877552871
13.995289646444142
16.433731000144622
18.677747952173796
19.441335132577997
17.901282676826845
14.141536663828065
9.930322713643653
7.986032860014492
8.342961065376201
10.108262077189872
11.39030054505849
10.715609939922379
8.733460836833626
6.422058244258861
5.56630510409674
5.887647282853444
6.99229683524368
9.39150358856693
13.27154641755704
18.863414111297246
24.50934147367973
28.650787688559063
30.931237472290704
31.386860843935946
30.72138940267028
30.52056040709186
29.992295768563775
27.682297845780624
23.970942991651164
19.996662945719244
16.8681175252532
14.794275150836059
14.85557891476203
15.702580334165338
15.25836557169952
13.734779364669173
12.280897831837326
11.87954710445806
12.633478576878208
13.224669122151255
12.213571416782845
9.15609098348496
