AAD_Filtered_TADAS_FILE
AAD_BASELINE_CORRECTION: BASELINE REMOVED
AAD_FILTER_TYPE: BUTTERWORTH
AAD_FILTER_ORDER: 1
AAD_LOW_CUT_FREQUENCY_HZ: 0.025
AAD_HIGH_CUT_FREQUENCY_HZ: 40.0
EVENT_NAME: 202302061024
EVENT_ID: 13207
EVENT_DATE_YYYYMMDD: 2023/02/06
EVENT_TIME_HHMMSS: 10:24:47.00000
EVENT_LATITUDE_DEGREE: 38.089
EVENT_LONGITUDE_DEGREE: 37.239
EVENT_DEPTH_KM: 7.0
HYPOCENTER_REFERENCE: AFAD
MAGNITUDE_W: 7.6
MAGNITUDE_W_REFERENCE: AFAD
MAGNITUDE_L: 
MAGNITUDE_L_REFERENCE: 
FOCAL_MECHANISM: 
NETWORK: TK
STATION_CODE: 6303
STATION_NAME: 
STATION_LATITUDE_DEGREE: 37.7524
STATION_LONGITUDE_DEGREE: 39.3291
STATION_ELEVATION_M: 800.0
LOCATION: Kahramanmaras_Elbistan_Turkiye
SENSOR_DEPTH_M: 
VS30_M/S: 986
SITE_CLASSIFICATION_EC8: A
MORPHOLOGIC_CLASSIFICATION: 
EPICENTRAL_DISTANCE_KM: 187.12
EARTHQUAKE_BACKAZIMUTH_DEGREE: 
DATE_TIME_FIRST_SAMPLE_YYYYMMDD_HHMMSS: 2023/02/06 10:24:59.2651230
DATE_TIME_FIRST_SAMPLE_PRECISION: millisecond
SAMPLING_INTERVAL_S: 0.01
NDATA: 13501
DURATION_S: 
STREAM: HNN
UNITS: cm/s^2
INSTRUMENT: sensor = CMG-5T/GURALP | digitizer = 
INSTRUMENT_ANALOG/DIGITAL: 
INSTRUMENTAL_FREQUENCY_HZ: 
INSTRUMENTAL_DAMPING: 
FULL_SCALE_G: 
N_BIT_DIGITAL_CONVERTER: 
PGA_CM/S^2: 29.431
TIME_PGA_S: 
BASELINE_CORRECTION: BASELINE REMOVED
FILTER_TYPE: BUTTERWORTH
FILTER_ORDER: 
LOW_CUT_FREQUENCY_HZ: 
HIGH_CUT_FREQUENCY_HZ: 
LATE/NORMAL_TRIGGERED: 
DATABASE_VERSION: 
HEADER_FORMAT: DYNA 1.2
DATA_TYPE: Acceleration
PROCESSING: Automatic Paolucci et al., 2011
DATA_TIMESTAMP_YYYYMMDD_HHMMSS: 
DATA_LICENSE: U (unknown license)
DATA_CITATION: Turkish Accelerometric Archive v 1.0 - Disaster And Emergency Management Presidency, Earthquake Department
DATA_CREATOR: AFAD
ORIGINAL_DATA_MEDIATOR_CITATION: : AFAD - Disaster And Emergency Management Presidency
ORIGINAL_DATA_MEDIATOR: AFAD PROCESS SERVICE
ORIGINAL_DATA_CREATOR_CITATION: AFAD PROCESS SERVICE
ORIGINAL_DATA_CREATOR: network: TK
USER1: GuestUser
USER2: 
USER3: 
USER4: 
[...]
-3.792090328310076
-4.642123128247316
-5.052161094580433
-4.742842995743915
-4.42293747768071
-4.506976133727928
-4.897669346210519
-5.272563035249032
-5.165127176440601
-4.259918256708513
-2.6871807919789767
-0.8798114085917207
0.9835012455042039
2.6526902300963444
3.64692391820591
3.7784221827887032
3.3777043451558346
2.9944693689596127
3.1962743750207667
3.9553011075443334
4.706791487598097
5.1195298922596955
5.15352197274889
4.861828866172048
4.163852473385075
3.019370601148519
1.8921084186866566
1.5299032491342666
1.5601391479838935
1.2213995288724737
1.083687556957112
1.5567907359809898
2.0741540453215994
2.389425154262813
2.50320347511079
1.9651365714527205
1.2466076187972388
1.3518463774441034
1.7722504113237787
2.057746615342202
2.7569629673092306
3.2973287566356375
2.765112900097153
1.9141776653525415
1.50093248924386
1.2634135606722396
1.124714089553936
1.3861400636314472
2.307707823922925
3.5815420303046395
4.075207844377638
3.8175903399290028
3.793730068719787
3.628489828348253
3.026588817241754
2.9438523476765495
3.4710376793891937
3.264779270580855
2.328596254827235
2.114941612570802
2.5805215817775076
2.939688625433954
3.4841659585368796
4.368441645216876
5.420524076428565
6.1061978089578695
5.718336894774492
5.083147267769277
5.120524286507432
5.215252243684208
5.4392366272832335
6.59846988208846
7.904906461984823
8.648663017981981
9.332196016074812
9.71248186651675
9.384213974793447
9.038483880598442
9.033282259336474
8.643314846779155
7.563375293805988
6.16476413311111
4.42019963505036
2.5455336062397835
0.8184204965542541
-1.1575179042161812
-3.1345204885339673
-4.317579529076229
-4.282113228428085
-3.3141364437857277
-2.694186060343089
-2.8909699093255186
-2.658410528378733
-1.4558455943121076
-0.15947992799329688
0.7735703615962726
1.6621244716789807
2.135636927821828
1.3665783940749718
-0.1445657212815692
-1.2685752777324337
-1.4957459747944517
-0.8209396308407052
0.10819764479080364
0.751662884277255
1.2735962151349325
1.9083447888563427
3.157275917581706
5.146572086603519
6.621416580364289
6.758187520767098
6.13588183863427
5.09501528427026
3.929614873656552
3.48103960583112
3.7398560848066675
4.081962529226545
4.454762330217527
4.672374219619097
4.841329539707724
5.381368939729372
5.479437852651286
5.000728023851718
5.070821760732713
5.529733185525172
5.553285080210337
5.408924418187739
5.458830270862956
4.936264158688795
3.3117335547130895
1.152559001939128
-1.028853475868054
-2.8978699616274026
-4.009108463622873
-4.448123382442756
-4.5617775104631235
-4.772221551780309
-5.489393430235958
-6.01604958293273
-5.3834248045528446
-4.206615684113675
-3.2231236262795586
-2.0358319642896245
-0.5766658357932518
0.7780701595169582
1.7815742760799924
2.1614352489099216
1.833706499158861
1.079060526843048
0.44522043162605696
0.43638062759073165
0.6509748678930294
0.5958773176869038
0.874940612581566
1.6859160793241108
1.9608550707863606
1.1331225857243425
-0.037463186162828566
-0.8867622304100483
-1.5730182373864847
-2.343885832012494
-3.1537328810090015
-4.058447821551942
-4.832264013866613
-5.127901909214295
-4.920280264788706
-3.991314862143861
-2.4388951607302034
-1.0744448009640108
-0.2916457801811885
0.06073254954668695
0.06568690429317328
-0.3345518356776457
-1.473724076168175
-3.0908237822396862
-4.110506142742055
-3.617841063164975
-1.7864829955730999
0.20405025422579692
1.5508096324259188
2.329495533623834
2.6433160050529976
2.421888547693892
1.7659228120401838
0.9544006523591726
-0.24775395740982595
-2.195533951919437
-4.153284541658846
-5.626811254477805
-6.897789807416343
-8.231710114096073
-9.700981769008546
-10.79917266526115
-10.981972320992265
-11.151298571338064
-12.050957023324239
-13.29383873122332
-15.165048701896673
-16.877116070621863
-17.108333686651264
-16.646682543423
-15.970864437873846
-14.590244160669524
-13.050015718296727
-11.805736282271358
-10.571363191370173
-9.536035398716487
-8.877639392772616
-8.254264134416362
-7.505310368148442
-6.761669680451784
-6.1778732787258
-5.768054602387473
-5.419166458668427
-4.942273153318797
-4.749149280156156
-5.100907435567363
-5.621940560041024
-6.211927783150367
-6.8336111413106595
-7.185245729576734
-7.147091132002755
-6.940321637076028
-6.48278501978298
-5.92348773628152
-5.508938133835394
-5.167582792013852
-5.246990154477885
-6.195206936353134
-7.343438161115332
-7.719638633691237
-7.239523652479234
-6.343886554364981
-5.284777909591918
-4.17997688376829
-3.313349689315178
-2.4839280491067
-1.6024022722238607
-1.0608171539220559
-1.1026365822506434
-1.7432630880622109
-2.9765318436459873
-4.417058589207719
-5.520541704173272
-6.514941185642775
-7.67194104956676
-8.750872004102188
-9.736325398313973
-10.768404630771249
-11.13760583548155
-10.631099306307373
-10.690582189603438
-11.384048946843892
-11.615246150945131
-11.374432120849324
-10.626118686583716
-9.257034595027609
-7.881751237179818
-6.868407509510043
-6.1039823958668755
-5.826568896717437
-5.774525313235017
-5.337253158316392
-4.52669719432908
-3.5224386696212315
-2.471106506058841
-1.8226330266576287
-1.7626326350753625
-1.7208056323603935
-1.2487596392380682
-0.7641076068070725
-0.8710124228914033
-1.322581238773191
-1.5883054941649528
-1.8123002944833633
-2.340789885168679
-2.854250911898842
-2.927411559030085
-2.844793781698973
-2.8028787831325697
-2.296725557800409
-0.8501230512278398
1.2108318916041776
2.8687451088108658
3.3903627188386056
2.7947873841305104
1.8914556310646904
1.3396148717110015
0.6583090450406086
-0.6953373368468622
-2.3151735868478407
-3.4103510043298164
-4.076259020440011
-4.753930556320851
-5.043787053656711
-4.577586621421793
-3.4071149400414
-1.9050337749678514
-0.8910148306759949
-0.6761741640646531
-0.6555784829396282
-0.12443706174159598
1.1744001137922186
2.784639229936164
3.7327779901199016
3.3835522590405738
1.8422227289670217
-0.23014570136692122
-2.208994011141328
-3.766173201185715
-4.589108440851561
-4.602663231010635
-4.414814234218777
-4.779407989067639
-5.586318159590921
-5.781879140123062
-5.01632907744873
-4.051433480409675
-3.0550654279052996
-1.9675803218649972
-1.290711696456781
-1.0656788253929408
-0.8733601988529733
-0.44161646730316795
0.7045128978854156
2.881572522983272
5.475619183914461
7.300716429412147
8.23766019456694
8.969033632576622
9.110206982793617
7.959025538786531
5.868024527004701
3.8262486937925813
2.207679868647334
1.0484144393712542
0.6562731179547177
0.9702710869925543
1.7440181017168794
2.755219602887147
3.701218229183621
4.342079016255542
4.5870347080464136
4.513818263574565
4.583339903468561
5.219204508407252
5.994232944864595
6.123107404585038
5.403487110251243
4.472742207341544
3.859850075106166
3.4693734562970726
3.3540681400177452
3.7030485888930023
4.224059859202115
4.917832937382933
6.339084071633676
8.048199882513043
8.926218054344893
8.928795304289492
8.914397348207453
9.185821152886936
9.543994621872711
9.851266170039704
9.79563066917056
9.448740532412693
9.37808257131996
9.768690622538152
10.231831812073786
10.442532181650256
10.359793883226326
10.299892413470348
10.544386747561571
11.36783513307841
12.567969442236805
13.004666307922975
12.348740135517925
11.032851466588012
9.212832152390108
7.140509371378151
5.381661255836092
3.7625358219108826
1.7361026964142399
-0.5890082258297349
-2.480038887224632
-3.538560767821032
-4.030673127926518
-4.283610452870331
-4.543818014806793
-4.296462349803846
-3.318408835809923
-2.0017790170887464
-0.584005217651426
0.861145753296069
2.5188433027534542
4.469450718687986
5.976261875107657
6.6747023507518115
7.118066078047423
7.53406232802012
7.889366570043499
8.167107715290172
8.455846981608214
8.938754213432853
9.557843968540748
9.531477485838872
8.397287808184837
6.560225325238848
4.422820677335412
2.4128178173745756
0.9355753339637864
0.027597040315132472
-0.40322917502643524
-0.8142028384276238
-1.58317589514469
-2.0901351463227007
-1.5480805049544841
-0.3898775836248003
0.9341210824647735
2.285615112732542
3.1235620997151203
3.703655914396483
4.22944524825307
4.106172011526195
2.816101569709369
0.6708865008762664
-1.5924811605392366
-3.478332827381678
-4.94656171623838
-5.868219481799244
-6.2966389508919
-6.274978848885404
-6.065925326364061
-6.520273210445212
-7.2736147162089955
-7.764823623760988
-8.100804354923605
-8.37528271450266
-8.333408216322775
-7.610594204937655
-5.968983986585623
-3.6046254640654976
-1.32462291788703
-0.039511444855242696
0.37506653602815504
0.6559128695785237
0.3683297497691649
-1.1499397150072503
-3.1252955888189677
-4.9240852675290006
-7.107168218936706
-9.072550373095886
-9.975989501423253
-9.696918905130719
-7.989999553453405
-5.341521270480601
-2.933281714215623
-0.9023285542018968
1.174840787488942
3.00556445030478
4.446188647473226
5.322510535625258
5.583385346250455
5.632945782751307
5.59557974138716
4.886225741945188
3.3062155451932527
1.5412155252468847
0.43495844850198223
0.5454998109871618
1.6191759918056547
2.98210972310006
3.9370343109665926
4.0220498463625205
3.6080564019621284
3.006832193740233
2.217491568280822
1.8976012714970583
2.4015712703271848
3.3073497990038767
4.117556236678252
4.31349929438732
4.066360932550939
4.164827774679572
4.9185368801117
6.098174870180852
7.296622685265321
8.354892153598493
9.025713915064083
8.709496304705356
7.398337927729254
6.021990368778361
5.255841573762304
5.230685442896504
5.939049984694738
7.0896923764485305
8.021717120748878
7.735830768690933
6.068614733055952
4.067346688953626
2.5914774620719534
1.7669850368365012
1.8282170031951095
3.1592850831710004
5.59746874234229
8.207132963856262
10.59421049876264
12.819030915253851
14.209590942617055
14.549120734525676
14.270250872007843
13.606626231289836
12.747896954422394
11.960734391850114
11.456097684513749
11.138860823626908
10.622103185543198
10.15388581226356
10.251316019129263
10.630135494182731
10.218977859131574
8.103956770345478
4.63677103419845
1.147248083323855
-1.1320887814120086
-1.7892435935186517
-1.4206525304257305
-0.7319365854138036
-0.018841317529856603
0.9798835377177373
3.1058546192311347
6.617850740256756
10.92048936547009
15.270172403175836
19.26381719246039
22.208812280588134
23.56094712259088
23.6337593855601
23.203237516994918
22.672270997338185
21.29971643176129
18.592627975945756
15.361296063174885
12.149152153589942
8.711856937726813
5.258747732889746
2.103058584213031
-0.4670571667109577
-2.262995097906112
-3.4554122477135256
-4.278620936695577
-5.15653809310019
-6.551025791035974
-8.600751640836931
-11.089961463417318
-13.56993425550809
-15.750671974049974
-17.469953695116253
-18.303368752556317
-18.665966393830285
-19.437178476072965
-20.21274863224545
-20.016239401915954
-18.85513484853866
-17.095793100826555
-14.686559556669588
-11.972534848340457
-9.143497298606366
-6.054286950718935
-2.483185225497712
1.6463845348197985
5.918440503469553
9.470952925540255
11.608306707634107
12.662664149987826
12.992298511722538
12.734025246997685
12.110591731046972
11.283655437540578
10.113780157705184
8.600726171915957
6.790314542244755
4.520539996158697
1.806953554846399
-0.9765985379284652
-3.181712335169088
-4.9905868084972855
-7.022087346493947
-9.038632336584529
-10.578503481893902
-11.93771699127113
-13.184422576858386
-14.153845964705477
-15.096446524129108
-15.921732151589527
-15.962329667025188
-15.26261618115749
-14.238530503684679
-12.562235561174926
-10.502692944187823
-8.756449222895046
-7.671523474295827
-7.305200352755567
-7.1250576327783035
-6.538832761852621
-5.8515257714169655
-5.891971917761661
-6.534770049619038
-7.044996691264603
-6.828914974924396
-5.56889931090641
-3.7450522882509287
-2.2352938772281967
-1.1329617858206011
-0.21601627325803566
0.2201974172507824
-0.2049735966864761
-1.4284336700937383
-2.2608475273334263
-1.870411632201666
-0.9770444343667437
-0.5735854282004154
-0.7902231616329908
-1.1092322370910708
-1.1612066484778676
-0.9151912293597533
-0.5845162328329951
-0.05187127010169039
0.9916740565029784
2.430316969156536
3.8470225722644074
4.957559778951457
5.511769516810561
5.602798178282512
5.78119605943515
6.542436680920167
8.182020779682887
10.644490647964954
13.56375796101886
16.441401956492548
18.443265992552192
18.429353731764987
16.354576759862102
13.280796357488402
10.099622409107491
7.251345138086023
5.4507974521402645
5.395948181218327
6.480961149815079
7.417405086036493
7.6422650269674985
7.485815733174588
7.582071049027303
8.215520079579973
8.991561361183836
9.675438600655795
10.195331935268943
10.429507065988853
10.67329059676692
11.442645875376908
12.625225310473677
14.087661867162417
16.003511319191862
18.029558863379435
20.192596239240522
22.71379317093503
25.339232252145443
27.53328535675309
28.664271942895628
28.278152703574786
27.02574574696562
26.026375377487035
25.781322437216897
26.218887084910012
27.089633423214725
28.098542533398568
28.5075629595648
28.015398516944362
26.741306797544162
24.69394171184524
21.674802751831486
17.822525237447266
13.512220724383512
9.340796514564783
6.063595453494265
4.286865916954572
3.8186867089724914
3.4896120499559724
2.8628210347884813
1.982326225465143
0.8189845441927117
-0.4894041567607062
-1.7216427767735687
-3.350201176557572
-5.372315616794955
-6.707149560036174
-7.212495090623144
-7.200605568670775
-6.107088043496736
-3.7693315314032736
-1.0234591037730079
1.5247496525033295
3.50815530686061
4.808433199830065
5.994898638654745
7.8724385109195705
10.184708830954422
12.062614569315606
12.865943406887416
12.461126066682889
11.404388220891803
10.069659646699494
8.57879517497521
7.297211897093379
6.4527749014435605
5.780137127647882
5.120762132732265
4.569489692274847
4.252392886590065
4.211199475792161
4.129544195822077
3.461150762797245
2.1759930102663496
0.4997971172361705
-1.7109865759770655
-4.056249860009657
-5.774443567281131
-7.43625002220576
-9.722464566178669
-12.17353766329653
-14.270159118332948
-15.69397256185559
-16.008083815330597
-14.748093915388424
-12.523675412737422
-10.744152331897078
-10.182288449427107
-10.666176373093844
-12.004077201868837
-13.929295988546572
-15.531092477980735
-16.126044642393627
-15.755817564060258
-15.096654902133915
-14.690723572514358
-13.878634657986696
-11.795905508286577
-9.130737456325468
-7.278689589531571
-6.7310466247550504
-7.177170797541168
-8.217891893627787
-9.113605216987635
-9.542301468839323
-10.205339273041654
-11.680510278409264
-13.819781814890222
-15.819558352051262
-16.58264197179749
-15.677680923755265
-14.06611765385616
-13.502401745581306
-15.091782634054765
-18.04575275083662
-20.482598308121204
-21.47808918996076
-21.514434477590488
-20.964982617971298
-20.228582293614227
-19.96020008920351
-20.024435137625257
-20.187737804560562
-20.053992492573265
-18.490390263060192
-14.885364586714243
-9.907435735237176
-5.082316428379029
-2.0778124953643218
-0.9014331231297423
-0.13621335043149682
0.9158425905006581
2.002170749933916
2.4904362728791725
1.9384161584784645
0.492952062608968
-1.538759004159766
-4.030118859579081
-5.936509381680815
-6.1774865525862275
-5.068711989354726
-2.8157484432470397
0.14435414531434096
2.7114729501507284
4.635900418602988
6.430172673443907
8.071924992180863
9.461506344783956
10.739012497134334
11.602860572434919
11.829068798047702
11.628760531526625
10.8668474049539
9.226717731854748
7.221289044012558
4.988392462463836
2.3404410381913086
-0.17186144624910848
-2.335852998510891
-4.198281467700175
-5.465820732863052
-6.255086928832473
-6.838975789395241
-7.0651846065163815
-6.8830538944953
-6.534245464473956
-6.088155414751178
-5.303104146116365
-3.9964307974878817
-2.5149548934637425
-1.507773682617501
-1.1970339364633085
-1.35364366718502
-1.829140942521786
-2.2641287809868795
-2.1961999789659314
-1.5643559114260275
-0.38361559491110386
0.9322317713361625
1.9235607377938961
2.5519953805030537
3.0034446182287837
3.4654543736747208
3.9901099987913273
4.1166362354372845
3.5399995880253794
2.8613388870110126
2.78667919998392
3.472099436485391
4.459998832033584
5.338283904837121
5.960063719317016
6.339608758249024
7.031434329388334
8.772845170676058
11.211343250843269
13.607571273820737
15.421369232222712
16.076680164232034
15.905533571491855
16.0543794083851
16.806061041888977
17.73150943936258
18.64572095764651
19.284662437128354
19.43746556362662
18.983810622061725
17.852137691327034
15.71446765087984
12.600565150874218
9.241674447945782
6.341172102669526
3.8228964862799604
1.3415948428946343
-0.8818851260712599
-2.1228230772579955
-1.8451066333781838
-0.8866407161803349
-0.1386482197962779
0.26241644886759813
0.5416136303288296
1.268288116756727
3.1025339332180537
5.853765902035612
8.696440594550138
11.25360621489793
13.464228520013238
15.220994731321317
16.060629303403964
15.810984694039517
14.98231271232865
14.370026028855676
14.13648801684265
13.9963631563379
13.605771508899618
13.258929720078044
12.998009076932254
12.19765075096615
11.014705136576564
9.681432447909778
8.283371095142323
6.971919004373007
6.0603196981135
5.716783324973068
6.072442184897545
6.862308945293772
7.764358666985562
8.674194194774756
9.72112224609213
11.161340667791078
12.75177106406934
14.214307398486094
15.525146665959966
16.42363483957509
16.090952449626815
14.813182549703967
13.50701624265707
12.745384623776813
12.487146862257328
12.697884014652685
13.02207094041472
12.947229663117534
12.54801281878526
11.310575622471461
9.242907449724335
6.763039905503106
3.948158368069094
0.6833323077035134
-2.762456088094017
-6.29899656080907
-9.422388604684636
-10.826441660062546
-10.044493633666942
-7.869551529013201
-5.195984940983171
-2.4096966536649798
0.22431700138415075
2.6571192133355908
4.0906821266401785
4.405965444652583
4.013133801289618
3.6516939519263314
4.251483081461369
5.442577305593072
6.286212010425799
6.342218109247748
6.017988128802438
5.541149686523983
4.992001683298737
4.125161613407511
3.2799129880915627
2.99258521338968
3.2330197742345748
3.9122294484052547
4.603951158250716
5.09031395895324
5.83694008054436
7.123924906330725
8.523032154042195
9.712421290048722
10.609738055050551
11.545873164941163
12.324202912866491
12.413594891057828
11.31796507212339
8.897210006783327
5.772666829352749
