AAD_Filtered_TADAS_FILE
AAD_BASELINE_CORRECTION: BASELINE REMOVED
AAD_FILTER_TYPE: BUTTERWORTH
AAD_FILTER_ORDER: 1
AAD_LOW_CUT_FREQUENCY_HZ: 0.025
AAD_HIGH_CUT_FREQUENCY_HZ: 40.0
EVENT_NAME: 202302061024
EVENT_ID: 13207
EVENT_DATE_YYYYMMDD: 2023/02/06
EVENT_TIME_HHMMSS: 10:24:47.00000
EVENT_LATITUDE_DEGREE: 38.089
EVENT_LONGITUDE_DEGREE: 37.239
EVENT_DEPTH_KM: 7.0
HYPOCENTER_REFERENCE: AFAD
MAGNITUDE_W: 7.6
MAGNITUDE_W_REFERENCE: AFAD
MAGNITUDE_L: 
MAGNITUDE_L_REFERENCE: 
FOCAL_MECHANISM: 
NETWORK: TK
STATION_CODE: 3123
STATION_NAME: 
STATION_LATITUDE_DEGREE: 36.21423
STATION_LONGITUDE_DEGREE: 36.15973
STATION_ELEVATION_M: 85.0
LOCATION: Kahramanmaras_Elbistan_Turkiye
SENSOR_DEPTH_M: 
VS30_M/S: 470
SITE_CLASSIFICATION_EC8: B
MORPHOLOGIC_CLASSIFICATION: 
EPICENTRAL_DISTANCE_KM: 229.36
EARTHQUAKE_BACKAZIMUTH_DEGREE: 
DATE_TIME_FIRST_SAMPLE_YYYYMMDD_HHMMSS: 2023/02/06 10:25:06.5389320
DATE_TIME_FIRST_SAMPLE_PRECISION: millisecond
SAMPLING_INTERVAL_S: 0.01
NDATA: 14501
DURATION_S: 
STREAM: HNZ
UNITS: cm/s^2
INSTRUMENT: sensor = GMS+/GEOSIG | digitizer = 
INSTRUMENT_ANALOG/DIGITAL: 
INSTRUMENTAL_FREQUENCY_HZ: 
INSTRUMENTAL_DAMPING: 
FULL_SCALE_G: 
N_BIT_DIGITAL_CONVERTER: 
PGA_CM/S^2: 21.308
TIME_PGA_S: 
BASELINE_CORRECTION: BASELINE REMOVED
FILTER_TYPE: BUTTERWORTH
FILTER_ORDER: 
LOW_CUT_FREQUENCY_HZ: 
HIGH_CUT_FREQUENCY_HZ: 
LATE/NORMAL_TRIGGERED: 
DATABASE_VERSION: 
HEADER_FORMAT: DYNA 1.2
DATA_TYPE: Acceleration
PROCESSING: Automatic Paolucci et al., 2011
DATA_TIMESTAMP_YYYYMMDD_HHMMSS: 
DATA_LICENSE: U (unknown license)
DATA_CITATION: Turkish Accelerometric Archive v 1.0 - Disaster And Emergency Management Presidency, Earthquake Department
DATA_CREATOR: AFAD
ORIGINAL_DATA_MEDIATOR_CITATION: : AFAD - Disaster And Emergency Management Presidency
ORIGINAL_DATA_MEDIATOR: AFAD PROCESS SERVICE
ORIGINAL_DATA_CREATOR_CITATION: AFAD PROCESS SERVICE
ORIGINAL_DATA_CREATOR: network: TK
USER1: GuestUser
USER2: 
USER3: 
USER4: 
[...]
-1.9127131484664344
-1.14531999125877
-1.6715692986554418
-2.454114697613699
-2.1175462945372505
-3.795707888579522
-3.2989134456985187
-2.361848897570194
-3.7575897204049515
-3.142738853805886
-2.8948354874629767
-3.312250053171093
-0.7036799533674101
0.028558344226792827
-1.6642784342578814
-1.8300766807765003
-2.7265793618905176
-2.6119916872091595
-2.734212640874229
-3.455189676135689
-2.779396136002161
-3.776573218831904
-3.4672271603232443
-3.465448593365595
-4.07336918091838
-2.4077044411931476
-2.40437015592402
-2.4036929481938283
-1.7147185565276646
-1.4201156603985838
-0.22362502925671016
0.2574555958894595
-0.046577021759155596
0.38010734517908185
0.9114805293346396
0.6530139874385663
0.3945681455013601
0.7033676346592687
0.5364404360134029
-0.12899617704015642
1.0618334817418205
2.414067787405754
1.6619100829213702
1.6589907637586812
1.4320068825528716
0.26126310874454234
1.500444153653292
2.8885738241784478
2.1558316269340154
2.248848257879243
2.7130964145991165
2.2965934205123872
2.288609370584147
1.6814201322594104
0.4022813637644973
-0.23762496854228432
0.6120925783698241
1.8210552100055142
0.836327908914956
-0.11283717379258418
0.13010078741067976
0.31054135838051045
1.6538587933706752
1.7491846892220737
-0.4032654129572559
-0.7903431722723012
-0.27165972708225283
-1.16314249237998
-2.4116611266753347
-2.7485408615993667
-1.7201535852765157
-1.0487408765299495
-2.0495555512530363
-2.651982064399885
-1.9449188453177981
-2.7979375494052445
-3.7351264722298176
-2.197504191597534
-1.6977133044883383
-2.8217152275476094
-3.226626230315612
-2.371571432225306
-1.1053489230242133
-0.43819197994985576
-0.08202996373431716
-0.3146789966183995
-0.49990385280472127
-0.9619548844280877
-2.463816461654434
-2.1064663720738412
-0.17454529746308037
0.35309785610945954
0.6470571115447707
0.7058850751211699
0.34630566349120373
1.3461810079104417
1.183678111006942
-0.19639349044374174
-0.6320949055548504
-1.195307894208668
-0.6017692951106361
0.49777948023545177
1.3422956484192445
2.561381579080206
1.9283125969268093
0.9260654942419353
0.7895175004650102
0.3766588359382415
0.7103389084688112
1.427927386510808
1.1103750519431164
-0.16970883526103855
-0.897516263370407
-1.3331060025088046
-2.8381393917225965
-3.82063842140581
-4.000259915870698
-5.233744314723548
-6.593575536557532
-6.90038063432941
-7.374975348261862
-7.442960554955726
-6.797058957693066
-7.351191815313066
-6.950667944401656
-5.5129825087824145
-5.757843538309681
-6.33326484224351
-6.877550079963103
-6.722001033149449
-5.9720367724048975
-5.4683308547734715
-4.525328964022858
-4.448862744735703
-4.648641803063396
-4.535239922279388
-5.048478559917435
-5.785549918666102
-6.3655095901265515
-6.224382067746218
-5.290158765375472
-3.409126790980451
-1.682322683706092
-1.663206878090659
-1.6313609244876746
-0.7384656073136935
-0.01928690256796628
0.5180979446222788
0.7224596857501178
1.5553546217711667
3.158979162936317
3.8378344548627394
4.892094406467346
6.1209145602017045
5.9750717524210915
5.742942345722707
5.639298681134747
6.574849707101881
7.77775703763076
7.1340853190384985
6.485607400771893
6.535698944512656
6.408919740191722
6.262663618608102
6.27204258152541
6.478716646385876
6.702521555254813
7.0626633976900255
7.139638848038905
6.525750743677986
6.470770465623647
6.624079514635392
5.780774747221064
5.15904289331583
4.4762663461259535
3.721913968767053
4.047533269399882
4.427046670602524
4.855843496427682
5.1545208150074995
4.772345464556589
4.640522184811019
4.578808089072547
4.366965564447992
4.702606439182398
5.690314148156592
6.106607901697977
5.118448743131054
4.137955868170713
3.7229223789609898
3.178651681375363
3.048001763468772
3.243005331167319
3.34463185351556
3.0888985548395804
2.4905923060534145
3.2778118791635897
4.4757949671783495
4.507848164676788
4.414250775172276
3.687441570570553
2.9148337854635145
2.826471614171438
2.5355425724190326
2.4149334795301183
2.1938892593445267
1.6915506095708976
1.701612467260555
2.06062894749492
1.9519421651265685
1.6714621717080274
1.4437420263302756
0.7559320217833057
0.2715914427887924
-0.4584968966924955
-1.765484110925302
-2.182513899700512
-2.0930105260854153
-2.1341478286066833
-2.161066606159785
-2.374628845275418
-2.212974813071253
-2.1525806959386737
-2.4050782935567105
-1.8361892636278798
-1.4531920641984846
-1.5688801376566648
-1.7122521051689819
-2.4054974544722536
-2.6262370581001724
-3.1167182927706127
-4.112899995610817
-4.365791344279649
-4.867148781340852
-4.995065563435139
-5.177392329490206
-6.163751879237862
-6.462037817307806
-6.688071636506084
-6.850581689934105
-6.86984548574333
-7.09494967817641
-7.0622092331963975
-7.607204923379616
-8.12495184647515
-7.75069844930361
-7.488061038958771
-8.010628588704238
-8.495131582962719
-8.35674480456349
-8.46020922833984
-8.439458448864341
-8.491525902437049
-9.046043487222917
-9.030628945741402
-8.850709536627438
-8.79229632969203
-8.64009864561839
-8.336885034553402
-7.481060944577176
-6.746250013959747
-6.384068403588954
-5.768003142210931
-4.986646221599969
-4.084879355831675
-3.166149379380691
-2.927340009264099
-2.5788464235497064
-1.4281753237164632
-0.552972335069403
-0.01979862235593743
0.03240742006744701
-0.05651992680567621
0.36111796978148836
0.4788168421120001
1.0401216772278354
1.3841073415900933
0.795811542163102
1.134834120462475
1.5546016432636955
1.2955252583330503
0.8826465378422544
0.5405353596662834
0.6329021220777645
0.1500477656780994
-0.6504567410467303
-0.7630097707746832
-0.5579874162979396
-0.6207546764099775
-1.2323756907055012
-1.6298564602014154
-1.5016407769509896
-1.2725112672781587
-1.010207758533929
-0.7646124683104374
-0.24267129320621983
0.13867518820632183
-0.15922688592649312
-0.4824916098909962
-0.7877816496578086
-1.2827282221028817
-1.5195838131972441
-1.6233990625477523
-1.3937418492646827
-1.0322768057836071
-1.4750203284622199
-2.1460995962784293
-2.4992257895750964
-2.6364238632469728
-2.805709373776149
-3.2880337979855505
-4.324793543247643
-5.382608137681853
-5.552359712943203
-6.225243758408501
-7.012947572584839
-7.3504843816866385
-8.465940461760532
-8.513055084773452
-8.174226718732577
-9.081306254092102
-9.520757432860261
-9.596237670432606
-9.06936628064939
-8.058680965554606
-7.824667962331417
-7.3808135636956225
-6.915994505938071
-6.482728196725392
-5.4276335123378745
-4.936375880705876
-5.3661168801622745
-5.862947377669966
-5.244882047594244
-4.353902912911928
-4.357387520840431
-4.1818730043631085
-3.802920153110155
-3.7769620900703087
-3.6695221816809553
-3.183297523012573
-2.886149096379169
-2.4590684069875306
-1.978574899643431
-1.8526142180471485
-1.0748485456048908
-0.5994348095691497
-0.43340510034892976
0.1564265470972572
0.2254467117166482
0.673973445599762
1.3677299615102574
1.5481625221859165
2.127541196368836
2.935878910803717
3.57943013223563
4.0315357735827755
4.760578682475717
5.912724378768967
6.468038429467889
7.143523937856336
8.143267377019033
8.802929279788604
9.942372977064403
10.742257082228205
10.694847140612431
11.016905404746463
11.402283853811996
11.538040821379937
11.98126555061537
12.217117668567548
11.980447804502628
11.722473326134933
11.463992342849032
10.87485956629705
10.373763187464297
10.655929507853553
10.253240146333283
9.445038942338384
9.649087291093593
9.591817316654785
9.098186443865158
8.441444180691505
7.39308535138145
6.474258413287249
5.62850000304118
4.574577917079286
4.11982938083303
3.784675467812745
2.600468979162426
1.9717354282008401
1.797356747628721
1.8130073362437693
1.7964460328425411
1.3587825465840275
1.3996384384919878
0.8300674473618818
0.40866552433058334
0.023420118065493177
-1.3440813688457114
-1.611227758237915
-1.6134063960645362
-2.2162582845503005
-2.4794953206780543
-2.4257625293856093
-2.6456184046726614
-3.1794123697319403
-3.302084004202529
-3.351192629395668
-3.1054847334831632
-3.054957991119432
-3.4321627130744967
-3.000800962330191
-2.3111593035671962
-1.9629707262855505
-2.1257781297645684
-2.0112938047736266
-1.5633437798333434
-1.9933591068481222
-2.172400074949367
-2.0193753761114777
-2.4611511305337364
-3.1617346571857854
-3.769406846241195
-4.209318735521506
-4.541484600491757
-4.793244591697217
-5.138591515903884
-4.970770791291
-4.673617966954218
-4.6627778306992695
-4.581798045147627
-4.5978107067126235
-4.425739205660802
-4.989645929308401
-5.874884363333225
-6.1535663567068415
-6.319175811144087
-6.346351711991949
-6.577489395226999
-6.401246209796143
-6.052671429045669
-5.5927065714157385
-5.195572177618763
-5.962041347769392
-6.164348951354738
-5.808595057878619
-5.589352064560692
-5.2171522834431165
-5.479681972534728
-5.562230389981498
-5.1945463373746374
-4.8744742894294575
-4.693770062203392
-4.8154839792524795
-4.810353847737873
-4.611891082151298
-4.302368938178002
-3.923679773873602
-3.7489788491598026
-3.577545192508722
-3.1652283294277024
-2.9204713729549607
-2.63281862170437
-2.0618074691897585
-1.8797942697638284
-1.4053655603526218
-0.5983737981426084
-0.40914570881732076
0.07537155316702146
0.7085505831471003
1.1090565496040259
1.7298023434717804
1.7568402660691005
1.5357472124443214
1.5793009397386923
1.4683791411220875
1.4819287894886926
1.4893615557966116
1.4732405751828208
1.8566946254784795
2.340719677357406
2.5645658108982956
2.7585461473043327
3.1745538814446013
3.582275418520635
3.66877629776293
3.5874901467955564
3.253540285272237
3.1395887947538985
3.4963471634521746
3.4355658484352514
3.5662979010264837
3.827984219340799
3.6975956847375397
3.885441392654895
3.8788747896642137
3.561293738887759
3.3924397344293786
3.016292506545091
2.4511788526933453
2.2393925169628472
2.289672983869836
2.2582899405753545
2.169759851955769
2.038200575622019
2.2092176748252745
2.2874824393986817
1.838052656905217
1.598867734381142
1.421052384531983
0.7821767352741131
0.041098399842331275
-0.6248917619986128
-1.099421123307236
-1.7205462672009026
-2.8430686620878327
-3.742828227593083
-4.7229761354642665
-5.945005221090569
-6.716665822426052
-7.591695018638215
-8.409927804218183
-8.831298261661322
-9.224636441884215
-9.162621858983488
-9.032929848657732
-9.63705673566592
-10.341720234359112
-10.800394749255071
-11.203012293949262
-11.71194853998391
-12.390152693052084
-12.58370734738063
-12.54577191531881
-12.367013500103349
-11.747727898182251
-11.394884283016767
-11.12408502934977
-10.532018542037846
-9.628217996555943
-8.332356245002304
-7.104532799838952
-6.225524546979359
-5.426516915020551
-4.6931528249887
-4.056874276894583
-3.3486326685804855
-2.570313439288483
-1.7808845480914768
-1.0074016122967309
-0.07677264153033435
0.9124168824520327
1.6016387145359499
1.9476246917927431
2.0870297360240953
2.1697071931065706
2.1860079891441337
2.153929795463029
2.1708258551480237
2.2740666925850106
2.312972152572041
2.111173571313792
1.7642218162559902
1.51757585390095
1.455234375170046
1.227994504464675
0.7287455187244372
0.45012346177435164
0.3358408264600617
0.2660061280010393
0.5277870809530599
0.7112223459208902
0.7845669980608987
0.8862924353933588
1.019192294423448
1.420812457083552
1.5860762922818683
1.7933580711093982
2.2601425672524247
2.459834932190185
2.7854751246902736
3.105466756537709
3.004745488730452
2.6887221862143766
2.225870184017357
1.7917581437230172
1.5013963108021755
1.104332182695273
0.6288427678823739
0.321523822212704
0.0005369401238547906
-0.30235372348217615
-0.434643897935011
-0.5465930764426776
-0.6523590260936544
-0.8092179355710942
-0.8117773991366103
-0.7960062255227194
-1.0233442304541864
-1.1227911794609957
-1.3199559597627446
-1.695812110546315
-1.8776290406177696
-2.053257337479892
-2.0198111836683936
-1.6254616558752923
-1.5782056456210474
-1.7666026251745097
-1.8398084791981824
-2.1947857043815215
-2.627036918231563
-2.906696387872361
-3.063046078974508
-3.0285851980178022
-3.0156096641551375
-2.890635925596286
-2.7149536528447293
-2.776888778890461
-2.539539250383414
-1.9784367198265904
-1.729274872506712
-1.817589156215571
-2.081663862942166
-2.275129574600313
-2.3359319179012528
-2.442109635040269
-2.3309854796068707
-1.9603135938021512
-1.511488147535518
-0.8019275727615174
0.13368236901720537
1.1991937525673335
2.3926423583927074
3.6500664410860657
4.889609583354566
5.991687640964372
7.091110987388033
8.1459774571133
8.978435078176453
9.60343253416629
10.130833029353186
10.858268276961235
11.804567534798581
12.874404368929097
13.914737746571477
14.525580542958954
14.88569106161721
15.434957765673802
16.232554221851462
17.055000648194873
17.8056478313943
18.60964144281198
19.264101178401468
19.82729289157528
20.302131283271574
20.710659478220904
21.139793045522243
21.09561279551963
21.03457961216899
21.18407419769271
21.06215660825889
20.835396028900654
20.6058642310867
20.40610918724611
20.11233149091128
19.78143953141596
19.329916442865702
18.6547451127301
18.149769088328856
17.68189790277582
17.03187750629872
16.239534052001513
15.148385516122236
13.751330451876225
12.426743886091986
11.15210818029378
9.577843894106639
7.932007150028528
6.369966492213489
4.700240645731259
3.257542430579907
2.1667856629395033
0.9115912659203151
-0.3835792711972158
-1.6302712334761937
-3.029349692650202
-4.315093136931556
-5.554909551401522
-6.864321958771552
-8.00631386455397
-9.098091325571374
-10.238483919349239
-11.056177570347062
-11.578921330574563
-12.074273097235087
-12.53692462725578
-12.954369124619696
-13.155360754616273
-13.360928886799122
-13.792142776212547
-14.182628387792528
-14.45672544316502
-14.462346145672822
-14.478497377230736
-14.804709768879505
-14.993828642336538
-15.073524138965912
-15.296846714536654
-15.574937586727138
-15.764953077880838
-15.948560571444679
-16.096001186273643
-15.939368213955602
-15.879154253156807
-15.853713856085948
-15.477170022711581
-15.076099885852717
-14.667683357778598
-14.400928538992352
-14.122917967416761
-13.594616577131164
-13.322794416462001
-12.935490657387238
-12.29472795217676
-11.754594840733128
-11.038386590699844
-10.461224330675778
-10.284178932309063
-10.30084761404836
-10.377281727303064
-10.345550945031714
-10.021509342155642
-9.416221963083089
-8.950102557462712
-8.4631035305378
-7.708670109694904
-7.117105188961159
-6.39415357578151
-5.459347805526047
-4.959745846968958
-4.493158522625671
-3.7338354160635006
-2.8592963223541306
-1.9795875639914913
-1.4470864724247223
-1.0124130947907775
-0.6222855321488127
-0.3481709316127647
0.10812127776104981
0.5482773236177438
1.0204800028138505
1.6088942561981845
2.1899142377363
2.713948883964331
2.8760067633787205
2.611422409933449
2.239372662084936
1.8934647687689856
1.50843511903169
1.2845022876795256
1.1719766279345258
1.006785375079875
0.9528236967942962
0.898855443713643
0.8330663168998794
1.0422671929187701
1.4160042364262626
1.55019801085929
1.5637150491080212
1.6056508054113259
1.5078334654650454
1.538922507997694
1.68777930895754
1.670197633832487
1.6569635836294196
1.708364568589087
1.7436247999704046
1.7685911450932872
1.6690246361275625
1.3559718420072524
1.1639826532945696
1.1105410820167525
0.9322994159615027
0.705871170854237
0.27014667077294
-0.13530887849403614
-0.3612211076671401
-0.7386419309725762
-1.0343974611356122
-0.9828353201575898
-0.7843346952987635
-0.7341114612682219
-0.8807571168263484
-1.2132008139021317
-1.3884550801770308
-1.4177103461803384
-1.8085786497270644
-2.35339761061485
-2.7216473595184625
-2.77186053389721
-2.4352669933594537
-1.9513311784282523
-1.6149872681459947
-1.365638943939112
-0.9049213435545475
-0.21930387987768352
0.29643682114891046
0.4847053545389734
0.6215712420818357
0.7644631178628953
0.9607731683078863
1.164917770578224
1.1555315534411918
1.2167444608697373
1.4915306069299668
1.6035652142319867
1.7649870058685606
2.2263589106226425
2.694572250097497
3.141933175782062
3.6456667244703946
4.2188781764685634
4.854541476639818
5.422650795198544
5.69929913773095
5.711067382742877
5.634731286018307
5.479353806238917
5.323590058367555
5.11313876829728
4.771897592038393
4.455458564738716
4.331124484369911
4.287693440200079
4.277874627394199
4.385984976368005
4.379398311213958
4.374921166063626
4.697376178937467
4.963513912099444
4.810145331098169
4.590091168331207
4.418969936010128
4.09287793268178
3.73644762240085
3.439592053242671
3.12803568107097
2.839388314420132
2.7047516112054075
2.614965421086962
2.5104215214094916
2.3037107336646714
1.9707525495438944
1.8070225748411377
1.538420539837837
1.0629974152866228
0.7673527621440211
0.6413817176388863
0.5810772007551862
0.49026506457022817
0.32583707351570845
0.11419896036221582
-0.2816000324729298
-0.739359756791479
-0.8780691923475757
-0.7576351126135508
-0.5798012599903603
-0.5158305572221247
-0.48678484646447506
-0.17161759655099013
0.15992565761752464
0.45041806291554576
0.8482881943075273
1.1429981181042137
1.5290489741212936
2.0928640769360243
2.5535786459490173
2.9486581838948593
3.3342493411631033
3.6735929167563826
4.132246130592882
4.659631113471966
4.918435482682664
4.952689621505581
5.077933985548591
5.250462488142583
5.393050558286394
5.387900197043003
5.1530179549767094
5.145831226405213
5.419441673511095
5.629157640528554
5.811109295801945
6.027517633414587
6.222951174144859
6.591605687927337
7.266693699696684
7.981851111306468
8.627128912069418
9.040529515546792
9.244049141110642
9.521489839275851
9.655856192474541
9.641648423477433
9.9279630609424
10.483011827295242
10.94260123668446
11.280161815614852
11.358233386821293
11.225194480480774
11.26605456157713
11.227200449111084
11.0491079192121
10.948319453681366
10.677965001100945
10.48958362983531
10.631062446022254
10.67754403958622
10.704039925607885
10.893073338831988
10.963342891508471
11.006845861693957
11.18749263747341
11.29444240317575
11.229944965562758
11.211053152714099
11.281676781360868
11.193165426161345
11.16600083556778
11.38495070392592
11.405139350517222
11.228144708448232
11.04035836019056
10.715277081307322
10.403572293119563
10.039758816860115
9.3870685412865
8.59970453342569
7.883672299286107
7.1422712605411975
6.190987324121259
5.112198734940242
3.8799890523402953
2.679736508577168
1.7968157834822738
0.8559104148869859
-0.1684866980541918
