AAD_Filtered_TADAS_FILE
AAD_BASELINE_CORRECTION: BASELINE REMOVED
AAD_FILTER_TYPE: BUTTERWORTH
AAD_FILTER_ORDER: 1
AAD_LOW_CUT_FREQUENCY_HZ: 0.025
AAD_HIGH_CUT_FREQUENCY_HZ: 40.0
EVENT_NAME: 202302060117
EVENT_ID: 13194
EVENT_DATE_YYYYMMDD: 2023/02/06
EVENT_TIME_HHMMSS: 01:17:32.00000
EVENT_LATITUDE_DEGREE: 37.288
EVENT_LONGITUDE_DEGREE: 37.043
EVENT_DEPTH_KM: 8.6
HYPOCENTER_REFERENCE: AFAD
MAGNITUDE_W: 7.7
MAGNITUDE_W_REFERENCE: AFAD
MAGNITUDE_L: 
MAGNITUDE_L_REFERENCE: 
FOCAL_MECHANISM: 
NETWORK: TK
STATION_CODE: 4624
STATION_NAME: 
STATION_LATITUDE_DEGREE: 37.5361
STATION_LONGITUDE_DEGREE: 36.91765
STATION_ELEVATION_M: 466.0
LOCATION: Kahramanmaras_Pazarck_Turkiye
SENSOR_DEPTH_M: 
VS30_M/S: 280
SITE_CLASSIFICATION_EC8: C
MORPHOLOGIC_CLASSIFICATION: 
EPICENTRAL_DISTANCE_KM: 29.73
EARTHQUAKE_BACKAZIMUTH_DEGREE: 
DATE_TIME_FIRST_SAMPLE_YYYYMMDD_HHMMSS: 2023/02/06 01:17:07.3320300
DATE_TIME_FIRST_SAMPLE_PRECISION: millisecond
SAMPLING_INTERVAL_S: 0.01
NDATA: 10501
DURATION_S: 
STREAM: HNN
UNITS: cm/s^2
INSTRUMENT: sensor = GMS+/GEOSIG | digitizer = 
INSTRUMENT_ANALOG/DIGITAL: 
INSTRUMENTAL_FREQUENCY_HZ: 
INSTRUMENTAL_DAMPING: 
FULL_SCALE_G: 
N_BIT_DIGITAL_CONVERTER: 
PGA_CM/S^2: 357.602
TIME_PGA_S: 
BASELINE_CORRECTION: BASELINE REMOVED
FILTER_TYPE: BUTTERWORTH
FILTER_ORDER: 
LOW_CUT_FREQUENCY_HZ: 
HIGH_CUT_FREQUENCY_HZ: 
LATE/NORMAL_TRIGGERED: 
DATABASE_VERSION: 
HEADER_FORMAT: DYNA 1.2
DATA_TYPE: Acceleration
PROCESSING: Automatic Paolucci et al., 2011
DATA_TIMESTAMP_YYYYMMDD_HHMMSS: 
DATA_LICENSE: U (unknown license)
DATA_CITATION: Turkish Accelerometric Archive v 1.0 - Disaster And Emergency Management Presidency, Earthquake Department
DATA_CREATOR: AFAD
ORIGINAL_DATA_MEDIATOR_CITATION: : AFAD - Disaster And Emergency Management Presidency
ORIGINAL_DATA_MEDIATOR: AFAD PROCESS SERVICE
ORIGINAL_DATA_CREATOR_CITATION: AFAD PROCESS SERVICE
ORIGINAL_DATA_CREATOR: network: TK
USER1: GuestUser
USER2: 
USER3: 
USER4: 
[...]
-84.18462611744162
-82.5575318366276
-81.19436167371096
-81.3695706110198
-82.28817818736782
-82.86437836295777
-82.14931536988674
-79.47648184681672
-73.50403091259754
-63.23535895562421
-49.8081803325342
-35.157025615954154
-20.763326675620522
-11.255437438027394
-12.313169345578906
-24.727429201749146
-43.33903607338192
-61.43965012223012
-75.82579020659797
-84.59559152573904
-87.22201243112171
-86.13625387202062
-83.11678980700789
-79.25134628523072
-73.79127863231608
-64.00806812849997
-49.36563779605005
-29.443538885620576
-3.7454910078240395
25.57460725700878
55.41148461168073
81.99463053914695
101.2004989136316
110.47658151836254
110.45182750668504
104.47870213212684
96.85069093762965
90.58313885623573
85.82523024423222
83.28929247915508
82.94110078107335
82.44871183002851
80.99412903967536
77.93952544659544
73.78782551886289
67.22841566002606
57.64287590326673
48.69923572269426
43.25855103222397
45.866297207476336
55.92940642934802
71.89530918204139
86.3208753876086
97.11721052841796
102.59584716893599
86.44064481298676
78.80032178222842
77.58774854682058
44.1599510856905
13.019304387067772
-0.4720257421892915
-11.928676367810498
-24.058223729685114
-31.240186303122044
-29.45897410139753
-33.400998856835756
-39.58569243332089
-46.998793031831624
-56.678872322631904
-64.57106630058911
-69.57261157163587
-65.62425132284616
-63.97198926225642
-57.775336799336074
-39.998091170010326
-30.296640817653138
-24.778224742162653
-12.5543253690003
2.6901928323173565
17.1609169474287
31.963413737688807
43.265114354955934
44.3588887474296
36.95925005258369
20.997195341269578
1.7775922441640029
-12.96230296328598
-22.212793763764047
-25.374517582625163
-25.327570590592323
-27.29825741999398
-34.76089893240111
-44.05390213797862
-50.10320507660764
-52.76198435182396
-49.98489478271137
-40.26781036065428
-26.790519196718762
-12.791536604095683
1.6584170515788696
15.640818286389957
26.407608749937303
32.95978047794781
34.43812982910083
29.625586233979913
19.757113716637416
7.797181528141935
-3.3798084881257227
-11.0757971313664
-14.360439701085475
-14.070771486749532
-9.698100279605914
-0.9278869190058765
7.373525193755914
8.89566003417214
2.5668444612237136
-9.038448961208832
-21.30538135445714
-30.075342527956458
-32.40612262319845
-23.508336817824407
-3.0076298478526517
21.482373095748738
41.5636051315403
52.114331718083065
52.183769269987124
44.94125865889818
33.757584909438464
20.652641318113826
7.528901822895992
-4.317238189734486
-14.222180091205667
-23.193187321116337
-32.85867599805382
-43.32134303286189
-53.846592589633076
-62.73152563339893
-67.59663551943785
-65.18323157606106
-54.01744988720202
-36.915108795910726
-18.321873913530137
-4.775415958991497
-1.7569741859663652
-7.5406431037344275
-16.407676134552528
-24.646160779318492
-30.429524960273344
-32.68903415573879
-32.530437910821455
-31.402936965503375
-30.692458154937253
-32.44923642885544
-36.58841085512099
-40.467886637369084
-41.258667839713276
-39.179975179967876
-36.75578929872392
-34.737390984061484
-30.30257273726699
-19.79207734942221
-3.0557944580756558
17.396760484014944
38.118966037521886
55.49979179890708
67.6266473470089
74.40245987759629
76.05033494515465
73.82993270847794
70.97739363705242
70.75570448237733
74.306634894024
78.7832478566965
80.165717057075
77.16864130283385
70.0375589554659
58.35487906316964
41.15814901363428
19.394065398476393
-2.7831340908440905
-18.193828303529592
-21.085005775329368
-13.533385266095516
-4.40233415371135
-0.8283395317331173
-1.9730864911175374
-4.0369520983474425
-4.498564795903244
0.18624981617271527
10.302391540889827
21.90703976316641
33.63165735434623
45.89995289075253
58.190881048705414
69.46110157378568
76.45991563669524
74.47071767737062
64.06904369494593
52.58030354018507
45.99490599349962
45.454748103487255
47.06977048426116
43.6200420956163
31.77450826613758
14.014508106743065
-5.79017251737297
-24.807505885292922
-40.556347310460275
-50.89987049383519
-53.86117154251921
-48.29701789803241
-36.91156630461672
-24.034571982063497
-10.821153870869308
0.514619958690278
2.835473945855969
-6.675267527936905
-21.396063271465263
-33.10799732838351
-39.02998971516472
-39.12308182317126
-31.766428870437103
-19.967220518838214
-10.741637315169143
-7.57277109366603
-10.314763643985012
-14.963310356395402
-17.839123137451534
-17.824945093862507
-14.4882948171218
-10.678587079310631
-9.546499689414667
-10.967263705918716
-13.29364593932002
-13.397223834725759
-8.828328062801644
-0.5257764643652383
8.636945970903094
13.548597918097158
10.625209258299103
3.0385215387565334
-5.3687245004558735
-14.006112928449754
-20.672436374530957
-21.707819073273548
-16.170814253140104
-7.023558274260771
0.8599497692183102
6.0618203412379845
9.856899252346595
11.898819458455296
11.798686916892203
9.911194107456549
6.463437440641709
-0.7070242905131159
-11.87792509579488
-20.595521997456316
-22.06783530033825
-16.113611051957523
-3.4966572561124667
12.070615263734668
23.528023158813518
26.442933566917493
21.926876294631334
13.028201343764543
3.200495314139365
-6.28488818232881
-15.60720196451269
-22.487477298732024
-26.293719125598816
-29.70562714810737
-33.94735695939297
-37.033059184489126
-38.6919792041707
-41.881161263163584
-44.7646298615413
-41.14082819161739
-28.00578026976075
-7.3318999294904454
14.71104063501924
31.76313951378584
39.53638753866791
36.04567360396892
24.240304385910445
11.306349598039512
3.8296926304373122
3.666173559294816
10.691728840650486
23.776801902463276
36.815556332657216
44.1677929606666
46.32228813837406
45.03506408120005
43.07369581361439
44.90903820715997
48.4675612209754
48.06027593937369
40.8277893619545
24.816230539933827
1.9317199508561778
-22.43402636961267
-43.06815537265184
-58.05928192519553
-68.35242715576076
-73.4904928370868
-75.74176226373196
-78.27856119786807
-79.12390301417842
-74.9912981972729
-62.73229112126369
-40.681226784470525
-12.817844624106224
11.64654458029295
23.414351970310076
20.084969040623484
8.264188951599966
-1.6011827645532666
-3.914799774694417
-0.42759943875273554
2.7353571757628345
-1.4468286095088592
-13.612283709699122
-28.58856874713587
-41.711996043751995
-49.54660247584344
-49.24953458326356
-37.73360942910239
-15.513411567390195
10.209494787604209
31.38451505769738
44.26848119789867
49.01607606467215
47.89229614659579
44.14600637403711
40.381275715907265
37.36274363892434
34.47525324498893
30.777145274754226
24.361548854565285
13.209364908476797
-1.6398260696758602
-15.267955044757544
-20.467038351995424
-15.05923179893881
-4.53928337061945
5.503659709062626
13.398481963803393
20.40058974099282
27.03517892978154
31.649997454409252
32.189642179581
27.854105089608055
21.73275706912469
20.01034189308459
26.944453379913355
41.09633529956715
55.503034988990876
61.09235160912531
52.509391699363896
30.74984299007299
2.3072068200782727
-23.369298165578236
-41.113135447504256
-52.098226512450516
-60.183097062156705
-67.68928316921983
-72.11579530880617
-71.87721144436321
-69.75174809401169
-68.96863142430506
-72.41701781863114
-80.40123017288686
-87.41594927091332
-87.68647800659059
-82.45317408639144
-75.52918302691747
-66.60897656980836
-53.43737151075347
-35.724309933600914
-16.944843431860694
-2.4929792931419215
4.957785546927824
6.393510763451608
4.033647036910754
-0.70295047274683
-5.428973058397483
-4.952396099120816
4.030333848184098
18.35289942243553
32.17475817611777
40.98193345110134
40.89891739792464
31.6073526052766
14.567083989767509
-8.814528040229218
-30.753783340776902
-41.89001328583049
-38.218257235728245
-19.981232787669075
6.531705874482451
33.3376936653923
57.14571155785908
74.62347892800588
80.93754358177975
72.77523326872732
50.2640925687113
21.32821929657265
-3.689148677460345
-19.685214648866683
-26.284788290736536
-24.694719374466146
-17.03262420323744
-9.063943053791558
-6.474477436623581
-10.813438639149286
-19.675396249639395
-29.07767081546044
-35.10690995565772
-34.244845631766815
-27.523822132529506
-16.674429940760504
-2.8194332065199843
8.655649615241657
12.735786492512219
7.208612376226464
-6.811538271613706
-22.675120174316326
-30.94105684055031
-27.831854091977984
-17.31516157144402
-3.3309940217468315
10.049148493353119
18.319284917728265
20.60041597979935
18.964126270351915
14.702746897863804
8.740421099136402
4.878285191484083
3.804262417285174
3.1900229410451537
2.8802837070221115
2.8651199049293488
2.42588113125909
-0.7153023034376045
-5.794529271246968
-7.389347836828774
-1.9268482451806752
12.272590926155337
35.04437744520384
61.142258923352315
81.77015577422789
89.89966817212805
83.35767811923643
64.90229456062639
40.91288025958465
17.99727382313713
1.5988876668376222
-4.525599359047799
0.8641754381902547
17.424822011177948
41.6828326238904
65.5678841993767
80.89177521107669
85.25519591211327
80.28868648983087
68.22470524583112
53.07181121923655
40.94520494527488
36.37347847194624
37.716055716855024
39.95122188809944
38.786000534225984
33.81858661135026
26.815694910150906
15.880133584363762
2.3604461079776544
-6.839569280455892
-7.626178952640831
-2.5794130706117357
1.506250293553012
0.9324009059265768
-4.262289348695413
-12.731058276992567
-21.636738948704103
-28.874875651725265
-34.10594499746369
-36.14620715598259
-31.390839138492044
-19.0175622884998
-2.8030833997377265
13.858371887524832
27.702550201414894
36.61595264467915
40.60976823859678
38.250630449599306
29.54658662153357
18.56482369617269
9.814076213547363
5.799734781090689
8.304436665412107
18.30245025706629
33.044752695854825
48.712093105565714
62.45194356446819
71.17732979384087
75.27849723331407
75.59915608317901
69.00414388702737
54.06897160378398
34.1976243048878
15.331602621465587
0.9951920419029016
-8.605849517019358
-13.59188804259933
-14.437168201393536
-11.40546105118602
-5.409684994280421
2.270034754311318
11.234601174304908
21.495827171313906
33.55719736423667
46.24436883731399
57.23343297070385
64.28056509871459
64.89747122615461
61.30370069725188
58.1092501713046
52.64102320104384
39.68291766335804
20.977120983786804
3.2615910296655852
-7.472172566494333
-10.724346409361972
-10.416909739174594
-8.470767483099804
-4.17217500131777
1.54760256703083
6.1866452864794645
8.527150793802319
9.730138290559152
12.593634363168908
17.95776833919365
25.815339165811913
37.02386137084068
50.13789189549748
63.33004754147711
74.85864801066829
82.52129926441343
87.15051685047696
90.02456936921088
90.06083270770593
87.80502552104896
84.58114783359652
78.91192047863858
69.80723906781517
57.49092334570642
42.045255170055896
25.918691379506917
13.292952775072278
7.174314834261543
8.029038156340935
14.246832812189774
22.46752305091549
28.150498457281603
29.696261107944512
28.91553161372502
27.63726693385502
28.044586571829814
31.816740889377908
38.02282405740727
43.867370246350625
46.850809110903654
46.82522748839214
44.97060291031194
43.38080434478461
44.5017410512679
48.05812547142858
52.40371956068538
56.86845857902648
59.34774407040377
56.077155931823015
46.37383677139468
33.89003553192124
23.705838906593204
18.58826157846376
17.269036762903927
18.045053451161976
21.039548071077178
26.473596816050097
31.461806589911426
31.30786702794224
25.742015119834402
18.24417220506033
11.708380535937998
6.765561773284813
2.6815892035645477
0.9132354746997461
2.9819390028473944
6.007023871121041
7.536573817848679
10.051688973255366
14.83212278465818
19.067402759416524
19.811847084529745
15.422066551785502
6.587245966884959
-4.619618019083363
-16.235776682055356
-25.924757421704918
-30.528383373307946
-26.232271006233024
-13.957245928468245
1.3100406945512406
17.005068459159187
32.11992655015307
48.16154601775837
67.63390300298188
90.25261354270387
113.80734570057241
133.03675503556576
142.72188981643004
138.399539176324
116.32743678922586
81.13758464087034
40.27659951741444
-2.5279849100853586
-42.66368503218011
-75.58142624100438
-95.69866865065508
-96.88755225236646
-77.64828677680335
-45.21355337740037
-13.130207568597287
10.36334037013675
21.46580062293101
19.337379206278083
11.959022384581337
7.829878217990189
9.844819327966736
18.68123268170016
32.25032916707509
47.526108354407576
62.28121454590626
71.97883087336955
72.70794732653981
65.01468697637138
53.212250599489664
43.282144699572676
38.239356307535914
38.35381796170611
43.2438519559825
50.285276653654186
55.634220722261496
57.91169751215391
57.224928362605716
52.54419146549609
43.98937941079259
33.428080715894076
23.116298975683737
14.419242225591484
5.630936336452674
-6.746081794670368
-26.427935864287804
-57.587185152273356
-102.42251859739473
-158.7110566002472
-218.5454225133416
-272.5343133359182
-315.7594283516363
-345.68622572192464
-361.11560783896346
-363.4644890173696
-358.46429574821485
-352.0769948959311
-345.54654804071595
-339.162175041833
-332.7384402104772
-325.9010610075388
-318.4820109953912
-309.4160199265335
-297.4518028045131
-283.6093358266594
-272.06838323541456
-266.09122583017927
-265.1432844615289
-266.3828456959811
-268.7354080959841
-271.90674595723885
-275.01235868231794
-275.6331300992319
-269.9230062674741
-257.51711292619507
-239.75427269439314
-218.06793899495185
-190.95000672588657
-153.15450115891272
-102.81921316301074
-42.148396923458456
18.12463974189358
64.76165851329652
95.48550447491564
113.79296844350024
124.18770682163702
126.00153429242076
114.47500826406178
94.081556480093
74.594549558452
62.13731015032444
57.90430466277977
60.53228815558367
70.35948722487286
88.24881032011808
113.47860040232678
141.44521879880537
168.09661051443817
194.36910164552128
219.3064139681982
242.81413020958868
264.15638744414326
275.1374485557021
270.7864264450845
250.27590921292696
215.39026882766012
177.57516256962762
146.60869858404004
125.27700379240162
114.70517959122824
111.85559201563643
114.69964729069545
120.37184262491475
123.76024591262453
121.90905203554018
112.56834245543706
98.15793467568454
80.94260634766877
63.53394078503409
48.450703246298175
36.25063620640803
29.161622162656986
25.459011214646253
22.723649925725454
15.218386178755795
4.985667868809696
-1.834705197794294
-9.807570801435165
-15.00822075397889
-13.777550954517
-8.412068276972667
-2.8390041821064997
-3.311737176475166
-9.115614924580587
-19.212447830520613
-31.922610548082908
-46.8545760373675
-64.38381554083061
-80.28599092340748
-90.97112640727597
-90.05168597754452
-76.09418060098835
-56.21873074085039
-36.906415582854564
-24.192796734141563
-22.39397271613224
-36.54385680717707
-66.61263828049647
-104.72918925525312
-143.6620854384653
-177.1958561210315
-205.00587229123954
-227.75984088480922
-242.69335226046894
-250.1131337419561
-252.02336282303287
-252.3873920294044
-253.68909908707502
-255.05185293504184
-254.67178188621872
-251.62425498733248
-246.84899189984964
-238.1938292897036
-224.85675749095066
-207.47205635480967
-184.89756859651533
-157.65412493755852
-127.44551369609246
-99.59484788557342
-77.57010516503595
-62.03993251703849
-52.55720787875411
-45.99683524107415
-41.81561497043321
-37.76246459521374
-32.66040342088611
-30.50188981657726
-33.49260167679255
-39.5072366173399
-43.85032040573021
-43.90475985926732
-39.62321456289101
-32.706461297266074
-24.93644916070478
-16.146513697779266
-7.436025911342163
-0.5342442308864096
4.940524315627454
8.716440195323592
9.807578138054273
8.705223279539616
3.8674541066131276
-6.325296646853099
-20.15991920923614
-35.72883560434716
-51.43792524340403
-65.32720495857434
-75.56802167934745
-82.37243290007439
-86.86377027299844
-87.26597200509846
-80.15980608987118
-66.78832905085298
-53.111387681233815
-41.05585762239208
-29.314911506823897
-19.51990024560751
-14.775681779816114
-14.110111151360476
-10.917212431369883
-0.6626608440465076
16.394521381197723
38.110805098156604
62.15575088366168
86.47093581073247
104.40030876945268
112.85625654017691
116.94313609552519
117.07452766728126
110.89890566861241
98.46555500707946
83.24091072705436
70.51243644974404
60.84315260127716
51.86238858453282
39.999548076928725
27.912902280535768
21.363584361663484
19.524032860733925
23.6009923293181
32.89387924341954
42.80199365841684
52.04439099637738
59.939938234699746
64.5739873904741
62.496284667065176
53.41941741105697
39.13983929049351
22.21338968271294
9.368759725455346
4.307884950701131
4.934398033184068
10.798667963417033
24.114292164096515
42.88324601544158
64.14550339112397
85.65063663932939
99.67879944215385
103.09343871141576
101.20911126003523
96.05893191027074
84.83117609924052
65.33415212642363
38.6257971556823
8.670737691317704
-21.582536839549483
-54.03910305068062
-88.90740321792725
-122.89041014805073
-151.08954926672297
-167.97748596680185
-176.45849953326928
-177.60686455296528
-168.09080798837917
-150.4365978598149
-125.77686804604907
-98.49116339332004
-78.88876998643364
-71.75283256407009
-75.59970091023696
-85.21905280987322
-94.72329499340974
-103.56171008422311
-110.31737679289303
-112.11392159276542
-106.17405659619558
-87.95285311933903
-60.65318859999022
-27.943930610405587
9.252241524664614
47.61099795364261
82.07703359135029
108.08405556544929
130.47554324252334
151.0805041479498
166.1566902368409
176.92882218663698
184.4593313208512
189.66259425701875
194.17896546369826
200.13548614579767
207.54214452874965
214.68108927826475
220.11235954171104
220.33499253659787
213.32606934381624
198.41879203034534
174.9534841747126
142.92890675553298
105.15432363413966
68.52140182900304
37.826876061674625
15.248664455249934
3.479725219999599
4.675307444490047
17.719240453833883
37.71327908602938
58.10145140184596
70.9123221182409
70.38012829845171
58.142706473560146
38.768409748738755
18.230200672013797
1.77356842914209
-8.30723254028249
-7.705699782293777
-1.9739339726400935
0.9162799913837398
-0.19643004633812242
-12.163372787824267
-33.135620044613084
-52.89259831312398
-67.29334066837008
-76.12475202100258
-81.16757472279579
-80.94446634735563
-72.17196305977563
-53.45901655967595
-23.681868897516498
13.383722380027592
53.35108913221814
97.13254731075284
142.39059650972038
183.09534179200185
202.47679075098853
186.79648040364035
152.54711280201553
121.66001664570952
104.91001492870016
103.45500162918908
108.62657604919643
