AAD_Filtered_TADAS_FILE
AAD_BASELINE_CORRECTION: BASELINE REMOVED
AAD_FILTER_TYPE: BUTTERWORTH
AAD_FILTER_ORDER: 1
AAD_LOW_CUT_FREQUENCY_HZ: 0.025
AAD_HIGH_CUT_FREQUENCY_HZ: 40.0
EVENT_NAME: 202302060117
EVENT_ID: 13194
EVENT_DATE_YYYYMMDD: 2023/02/06
EVENT_TIME_HHMMSS: 01:17:32.00000
EVENT_LATITUDE_DEGREE: 37.288
EVENT_LONGITUDE_DEGREE: 37.043
EVENT_DEPTH_KM: 8.6
HYPOCENTER_REFERENCE: AFAD
MAGNITUDE_W: 7.7
MAGNITUDE_W_REFERENCE: AFAD
MAGNITUDE_L: 
MAGNITUDE_L_REFERENCE: 
FOCAL_MECHANISM: 
NETWORK: TK
STATION_CODE: 0143
STATION_NAME: 
STATION_LATITUDE_DEGREE: 37.621415
STATION_LONGITUDE_DEGREE: 35.611477
STATION_ELEVATION_M: 449.0
LOCATION: Kahramanmaras_Pazarck_Turkiye
SENSOR_DEPTH_M: 
VS30_M/S: None
SITE_CLASSIFICATION_EC8: unknown
MORPHOLOGIC_CLASSIFICATION: 
EPICENTRAL_DISTANCE_KM: 131.69
EARTHQUAKE_BACKAZIMUTH_DEGREE: 
DATE_TIME_FIRST_SAMPLE_YYYYMMDD_HHMMSS: 2023/02/06 01:17:34.7371460
DATE_TIME_FIRST_SAMPLE_PRECISION: millisecond
SAMPLING_INTERVAL_S: 0.01
NDATA: 12501
DURATION_S: 
STREAM: HNN
UNITS: cm/s^2
INSTRUMENT: sensor = ACEBOX/SARA | digitizer = 
INSTRUMENT_ANALOG/DIGITAL: 
INSTRUMENTAL_FREQUENCY_HZ: 
INSTRUMENTAL_DAMPING: 
FULL_SCALE_G: 
N_BIT_DIGITAL_CONVERTER: 
PGA_CM/S^2: 32.280
TIME_PGA_S: 
BASELINE_CORRECTION: BASELINE REMOVED
FILTER_TYPE: BUTTERWORTH
FILTER_ORDER: 
LOW_CUT_FREQUENCY_HZ: 
HIGH_CUT_FREQUENCY_HZ: 
LATE/NORMAL_TRIGGERED: 
DATABASE_VERSION: 
HEADER_FORMAT: DYNA 1.2
DATA_TYPE: Acceleration
PROCESSING: Automatic Paolucci et al., 2011
DATA_TIMESTAMP_YYYYMMDD_HHMMSS: 
DATA_LICENSE: U (unknown license)
DATA_CITATION: Turkish Accelerometric Archive v 1.0 - Disaster And Emergency Management Presidency, Earthquake Department
DATA_CREATOR: AFAD
ORIGINAL_DATA_MEDIATOR_CITATION: : AFAD - Disaster And Emergency Management Presidency
ORIGINAL_DATA_MEDIATOR: AFAD PROCESS SERVICE
ORIGINAL_DATA_CREATOR_CITATION: AFAD PROCESS SERVICE
ORIGINAL_DATA_CREATOR: network: TK
USER1: GuestUser
USER2: 
USER3: 
USER4: 
[...]
2.2923256318301277
1.453706656628445
0.8528660002908051
0.24062996344567086
-0.5193681424603723
-1.2957088730880495
-1.7555858207204984
-1.6660435692428188
-1.2346709086152583
-0.774473604791183
-0.17272506355068284
0.7546829970500759
1.8590403108267277
2.9510324556814966
3.925573921548967
4.519843673015776
4.492251090011346
4.033785479732463
3.675782629865033
3.9247800471530883
4.966667160714732
6.5600770573948655
8.335675723387267
9.945112525040704
10.873772276810064
10.6584240489017
9.301222536065785
7.224716694338186
4.922699456781148
2.805009006044114
1.3041616617085945
0.6680002050717065
0.43884769401622153
-0.21593850295731618
-1.6384960059793883
-3.5987006951041285
-5.641473021872577
-7.295127947835144
-8.058216885987303
-7.563061243583609
-5.882881715356675
-3.3135472415073015
-0.29464141523488163
2.372802632113438
4.092505958258869
5.3247769594518495
7.1042615419634085
9.732861611351264
12.557564829607617
14.822990656766276
16.306915759255666
17.20126473275072
17.64631402245595
17.65608611455039
17.226421738294306
16.213404329235914
14.304171981759799
11.057906512598372
6.331975258012689
0.7873580737533658
-4.557565026935733
-9.001894254101344
-12.321903763130397
-14.682526119052339
-16.327872175654672
-17.262643491274527
-17.10963432001844
-15.33934666674226
-12.060527843842468
-8.160845771621343
-4.311392422748191
-0.4236529497071243
3.7589972951372284
7.861997676056902
10.918127720941557
12.23669273717714
11.934105437913026
10.611014901533713
8.926531026781761
7.244128899040972
5.449678133438056
3.425138120961627
1.3987877008905065
-0.43685338413403013
-2.11348051271354
-3.5564522677167267
-4.663910269819825
-5.632346257493107
-6.736196080194501
-7.9011790946367055
-8.52866861129433
-7.911959892882334
-5.952419851219105
-3.172293501165124
-0.017737217833805365
3.486837310722688
7.251969154489687
10.79561212653812
13.655401448161136
15.653146303354731
16.688935735473713
16.720455284440263
15.915502275839874
14.440257544963327
12.126449306330777
8.683551460337673
4.145948201718094
-1.0372851544987973
-6.165234284171112
-10.53710130194313
-13.652783782650305
-15.434698723686736
-16.431574481479025
-17.341768278959922
-18.14928188365813
-18.104383085710346
-16.580074235977317
-13.588873234105135
-9.465768601345136
-4.557314692515862
0.8158597197795036
6.323699930523888
11.46061885528273
15.442225268294129
17.516671527271907
17.71989140900115
16.68682202996
14.796540396329178
12.17942971501355
8.952367695398774
5.507927878467809
2.5197219044528385
0.20665610504261242
-1.9771197272126178
-4.573807302509632
-7.25132620701763
-9.234556058877272
-10.389577290365677
-11.266822232296956
-12.146226185986535
-12.5546023761503
-11.868370254883535
-9.907826941256372
-6.946193434898416
-3.483330868690288
0.05325145533232849
3.3184155707261977
5.922073524047799
7.798237855445052
9.292734981992977
10.427582831373584
10.77661259944511
10.230230142212585
9.252767835914337
8.397911595941071
7.8423013697911514
7.496458251679885
7.251790660843627
6.872662766325251
6.124592156160768
4.949763537566484
3.224110183381681
0.7305817106799543
-2.4835187835887154
-5.864592316367476
-8.612064014306094
-10.410128560850449
-11.551954248922307
-12.158936520889952
-12.023007044663045
-11.176262680900384
-9.842661202635487
-7.781614361663909
-4.4216865150925635
-0.00523554787715437
4.2688860868840806
7.370306961693265
8.981090652474387
9.232947220543666
8.628365522238585
7.907550021117779
7.327084449572745
6.527609149142609
5.2333626781058316
3.3967102611972932
1.077724372947064
-1.3440546492860561
-3.3625343252219304
-4.729923823361674
-5.516817733933186
-6.017401382653669
-6.681972544743291
-7.924282537387328
-9.755807936702173
-11.848189975027578
-13.672814540189865
-14.393800216128167
-13.28483127614068
-10.337637960744788
-6.192982478823664
-1.8527393720813776
1.5466353470885343
3.0073583445827694
1.9990525150701073
-0.9611194960471742
-4.337912961601993
-6.856287051631802
-8.380002831819581
-9.07451546062723
-8.502666788387629
-6.10326656973742
-2.108014670918378
2.5297126530608147
6.797278248857827
9.832202805978412
11.061139966515606
10.480501666693957
8.84181631153995
7.24177979255239
6.087731126406628
4.942217170937433
3.506399277859474
2.0151134301082103
0.6936490908042535
-0.5868955126664338
-2.030170923720062
-3.542808567961562
-4.934233687111875
-6.124596909173697
-6.862599580567168
-6.6692443928905485
-5.223198969510058
-2.7075940029797776
0.21481450303295027
3.0004854133570835
5.833571450679823
8.949549188563326
11.721534171658169
13.589169818143333
14.728111499273187
14.803169127525072
13.128869161900225
10.020560984690984
6.322039953619845
2.364772219874452
-1.7851806067780909
-5.40778198176739
-7.8390014661546585
-9.605567168588285
-11.40950848776906
-13.044858947581448
-13.996550468435293
-14.529192644820483
-15.426918938294929
-16.505421448645812
-16.335252042161986
-14.158468083504319
-10.933100718190374
-7.66209457864538
-4.203734228577614
-0.2529746885091752
3.582268533254928
6.423198820439159
8.265158222347692
9.369642200993894
9.319738866098566
7.912436492345429
5.884451060508757
3.9448413967972105
2.1865533285763963
0.37954939808699206
-1.8135160909994295
-4.547825843475114
-7.630672002489287
-10.489113644611848
-12.201431682613412
-12.21679412539291
-11.02108016484426
-9.498157362199663
-8.084932076097227
-6.853105711466241
-5.9066858605863075
-5.283804553974171
-4.593624298289608
-3.5116654576480952
-2.3377120412745422
-1.3231866884977879
-0.11466184859610205
1.6328311182760478
3.7558116789964586
5.963730089847337
8.175066656000471
10.18985188224441
11.40732876115534
11.330756499481199
10.196416347916916
8.860085493971432
8.080205338639109
7.722465815809105
6.895727544118965
5.1496248100082
3.046542202172539
1.6098192184592788
1.3083569156878403
1.5017649006089908
1.176773251212258
-0.07592056313455106
-1.9295850339283585
-3.7643871899576284
-5.2579127619446275
-6.427858331852113
-7.0852371359359
-6.946110002490793
-5.9691264869336536
-4.19264326715123
-1.6591828358502854
1.452342707187163
4.738659405517671
7.822315413007482
10.58202010431377
12.89100176286876
14.145565434086853
13.784062325674522
11.896847399513259
8.76042108145979
4.770227125022019
0.5607794160680697
-3.3788859854843873
-6.922307426802205
-9.928586153609272
-12.051651446754668
-13.164682416548624
-13.43719939631789
-13.048096433965709
-11.978505206331555
-10.089740373728796
-7.471727651437135
-4.5714121811940265
-2.105978962381912
-0.7859199415643918
-0.5226612075558436
-0.4726047533585882
-0.15518192781436252
0.3900306541929221
1.0958557589445486
1.9941355557881906
2.867716108053806
3.198413116932326
2.8792916360617227
2.376276592461666
2.098466350720293
1.7780341154409876
0.5245940327206157
-2.073412460950792
-4.959337138771212
-6.686127570407702
-7.219310855263206
-7.758471347109227
-8.999578664183666
-10.370314632540719
-11.272105002266002
-11.899712714200911
-12.65556638440879
-13.627974906606095
-14.631497355832165
-15.268359558613131
-14.822245170737109
-12.84615825679795
-9.942248298905508
-7.2019228721066115
-5.280740007005131
-4.310171674588012
-3.9398344992094483
-3.8708839453503954
-4.31806352893206
-5.279396697328448
-6.50954935369755
-7.968292899845282
-9.38562966966156
-10.170299867269273
-9.831630409549225
-8.528168143102354
-7.133664683711037
-6.549167752935149
-6.975662437353398
-7.949680718212779
-9.153828057555497
-10.438244908269846
-11.185911034280872
-10.683955412948611
-9.049918563497709
-6.838454862250508
-4.288032254796796
-1.6014261476306297
1.0049719043063787
3.472457033963436
5.705477806049032
7.394316342475902
8.334845377859006
8.788711893133536
9.130653572848527
9.55286186149486
10.00784579388304
10.289722545222943
10.362172283649766
10.30147443143806
10.126641767281383
9.91397985420644
9.470648517824532
7.874747864600833
4.5064244405692815
0.3931252478627419
-2.821584704190447
-4.859908102971612
-6.606204048526645
-8.340624638200936
-9.331735168114903
-9.118085365421836
-8.266961934222017
-7.582794116219649
-7.133825614809466
-6.5687825345795785
-5.794121841309201
-4.768855477579721
-3.096657051078356
-0.32848036294770105
3.4008285958451543
7.361542045571913
10.498800640083495
11.958562408346792
11.954980333023666
11.444220649681053
10.897739666088986
9.921567118399519
8.005513419221181
5.366288367423461
2.704476091526182
0.30540339207670986
-2.045425765000359
-4.431969622315326
-6.643566433231188
-8.4322462651297
-9.574361951823864
-9.814851877580187
-9.064776353586957
-7.752091307345477
-6.977977895176816
-7.6279103373562265
-9.002920253686783
-9.427351820646884
-8.15683952884621
-5.750282718708656
-2.830807594265264
0.5705561733096456
4.386269354969189
8.3319205362117
12.483589141564332
16.789224602388785
20.05232609036653
20.717243949500798
18.617158041272905
14.842455049689768
10.182654559919591
4.784675157174979
-1.1385898744427392
-6.943455912769539
-11.800887694307585
-15.365858429868728
-17.881961731629147
-19.398509604825712
-19.632156092183664
-18.977975270183194
-18.66221223038294
-19.53172822833307
-21.323581241992734
-22.93734836377686
-23.053385726552097
-21.056361185006313
-17.40527809544073
-12.75413022562802
-7.216394450083678
-0.7720861031999398
5.773455259640868
11.019696986758522
14.25688961007778
15.412861474821833
14.39504877637501
11.60307679676233
8.121371394031742
4.92019969610148
2.2307908915818664
-0.22295763685007783
-2.3415797055855645
-3.6987307335137305
-4.433847300161128
-5.249008268749404
-6.562208477434978
-7.918107427933448
-8.330669626870858
-7.536991148828149
-6.151346871832606
-4.2073385720891325
-1.2485146855696019
2.1555398808216433
4.692733798329996
6.061055359532215
7.329977705496664
9.312499434767798
11.513251364883978
13.181455951618174
14.096542923087279
14.117820629291863
13.18669499754729
11.383363331114735
8.56471291804588
4.663441009227865
0.23497215266606203
-3.875751852216478
-7.273870194751327
-10.108264188437772
-12.312845534562724
-13.328783378618322
-12.812468188463685
-11.139071143104593
-9.014797171565187
-6.666522748459981
-4.106548563054594
-1.9669649854942686
-0.8585559864386572
-0.3037414497640566
0.5700768644690043
1.7141155716682313
2.481898269295196
2.7177706438960207
2.8199240725530963
2.892316248034362
2.328074248893332
0.8714297928111796
-0.7686077599963296
-1.8827993194441155
-2.271227404540422
-1.8953182484256883
-0.9022346727043317
-0.043548817786075895
-0.042781125739509436
-0.3553786311807952
0.1049246806898126
1.1679718544869833
1.910695987461214
2.310911899480754
3.0622898033789494
4.288786064271803
5.0942380672514025
4.5207284761866875
2.59063973609754
0.03786914359763016
-2.6360571127760384
-5.40674082193757
-8.139111024059975
-10.16111832905572
-10.812270261253373
-10.129267680809157
-8.39234183412474
-5.6385338099468925
-2.0926577229194594
1.388889725580683
3.9433364183819197
5.692092718539154
7.481567180872601
9.717290211121218
11.8482781433466
13.181898332994258
13.60319028153959
13.288107139691052
12.251373202331514
10.46058315781211
8.138211891193068
5.38822944043031
1.9672657923735826
-1.8520771352998524
-4.803417274295409
-5.724210968048938
-4.608246359074174
-2.3653417554615084
0.05956001518159675
2.158851993674292
3.7793225166687523
4.983796664721874
5.758240383901517
5.952098898426852
5.704326699684716
5.636934908747234
6.20169624580788
6.999841174491823
7.499477608117686
7.865638641638475
8.281702865877842
8.274449291434367
7.327243668821134
5.595354076297215
3.7400416413736686
2.175321812699177
0.8879999913046447
0.08057854751830894
0.2441076100503455
1.5483873846817011
3.4836026765037897
5.341496146983133
6.9879524162295095
8.601538151710923
9.931754481913872
10.515019637695719
10.390110927741974
9.961865437667353
9.468812420726064
9.104230422587806
9.150256223610226
9.778803984074809
10.605865872737809
10.804680734115452
10.084210610281605
8.305783258719233
5.111613015907354
0.7852271592758991
-4.123775646695799
-9.224977903123644
-14.037886663250044
-18.351679367143273
-22.0599607957788
-24.92941817117186
-26.82004809129027
-27.173696412176053
-25.20072714318679
-20.93418404462813
-15.24777967076815
-9.194214178002117
-3.6496115986975326
0.6962267228406953
3.081542761777084
3.0974031555363006
1.3231232366988466
-1.1071361408817195
-2.8959650963724144
-3.423159480042232
-3.279912870722339
-3.1711071642484687
-3.110117124439797
-2.631351291401634
-1.7181034205923864
-1.1522946629148187
-1.647678349881145
-3.1445529552606954
-5.126879347172042
-7.351229639951048
-9.379512307834121
-10.062654385405361
-8.702805718956636
-5.577866398776334
-1.1920663500342246
4.013045498627662
9.545692932987258
14.712794725557599
19.336873971533684
24.03074830565545
28.616459304158436
31.755478384084682
32.64674005498737
31.723928300264365
29.63189549499295
26.296775464883225
21.4661672031571
15.702783611721499
9.64655154141945
3.205162157234259
-3.6398346825076366
-10.248015736988885
-15.67381600931529
-19.146190456649833
-20.54835427176662
-20.2960617188426
-18.620732515617515
-15.810122909468802
-12.51273379241306
-9.106198415983155
-5.445290871269481
-1.5265214264068074
2.149546475805176
5.194733517019333
7.790127849331752
10.062140055722953
11.327220316099543
11.099485233864463
9.851052680988776
7.801694565892581
4.8590054960399724
1.673963493774675
-0.8018695740848523
-2.4238196391205906
-3.984855873244562
-5.8962342034236634
-7.225674143308152
-7.21740654320221
-6.367742988444672
-5.71889961381648
-5.77466544468874
-5.791871530565399
-5.0352650199846565
-3.5164297759345984
-1.1559822662641075
2.1968127510483937
6.344620727808221
10.80167481642635
15.030062527493234
18.365537876631123
19.97019656661933
19.18336962228256
16.092762445837902
11.733357351729389
7.066489474585045
2.163030396577625
-2.8985797469664902
-7.191832724632942
-9.670494506156272
-10.467435072314972
-10.609769534225581
-10.645380969279463
-10.723012701082896
-10.992116543772413
-11.41662123682431
-11.9942227451647
-12.951098454756306
-14.507974955439192
-16.38224308347739
-17.76989061445023
-17.92287701023924
-16.431331025790804
-13.45944312658176
-9.84880750373597
-6.268946988263441
-2.8769599132739208
0.01935186230979479
1.8419776592006267
2.273189168770012
1.471687104138656
-0.33593745661289215
-2.431058989659915
-3.155051637394393
-1.5952339694646545
1.366552430737705
4.721285507960781
8.203648945375624
11.246583341213315
12.940348369656132
13.147675695189706
12.49932434932142
11.510673562578358
10.537827426005187
9.902948828402197
9.852994978882775
10.41000520333225
11.272127000787819
12.305224112790805
13.572167041407667
15.236350004774003
17.456039161139564
19.688818679396913
20.876614604534463
20.642622160918737
19.52323623948235
18.319079807456013
17.40865219412924
16.225628631307504
14.17551253686896
11.749432374937612
9.755010216249916
8.04997390993431
5.7567181359333786
2.553006101287283
-1.1503666857328627
-5.246519682297011
-9.782702401897996
-13.948752332439298
-16.469385265163808
-16.722754656927982
-15.142798508181269
-12.60088895712301
-9.495940759177818
-6.06341253437691
-3.05936802558578
-1.0195356735020131
0.5045070825757139
2.201002169264095
4.105036095808352
5.5849439509738295
6.185800659035792
6.221977063669638
6.057808067430333
5.627525011438523
4.958501980309396
4.162414641180999
3.0688536051317903
1.4828531917994172
-0.4919217814575279
-2.4858009318027996
-4.492572173009762
-6.855888238055369
-9.123633844698304
-10.336323756228005
-10.278302595716534
-9.39378117642315
-8.283415027881455
-7.410446055677133
-6.699739983435152
-6.091424895757838
-6.051632246824871
-6.733986998252031
-7.479180968176792
-7.532705927850256
-6.666388803386849
-5.049761555569532
-3.1450619029641462
-1.8784393601136358
-2.035099273478831
-3.020498577600793
-3.550727630149862
-3.1931383865877074
-2.437368831689331
-2.0558768312987103
-2.2065629339906554
-2.7288639996508866
-3.807066471077336
-5.255142184764192
-6.5943978657928835
-7.737170641022889
-8.448292310352375
-8.205067471396365
-7.261990255582306
-6.644777471175098
-6.725467918257524
-6.788055072528859
-6.350942346802076
-5.915925068618758
-5.844321953053535
-5.604303479526323
-4.4306908462171855
-2.31627647213452
-0.10001470850405135
1.7370175024683532
3.7413866534212823
6.44734820294506
9.450701854109179
12.090787853475996
14.226540769163874
15.556157340217231
14.846654462281677
11.196908159769063
5.528525492148131
-0.14313319660056018
-4.481673758653911
-7.580866707934979
-9.791683884863698
-10.679930217657766
-10.384193802316226
-10.42532749193324
-11.411498195378801
-11.827454897265268
-10.187353140172352
-6.70200167815299
-2.3359925399382964
2.396590606104617
7.023063928298149
10.692475116489577
12.586366558173452
12.64867510526303
12.077546096530629
12.121044482308655
12.591649758477766
12.64361101220975
12.02696808444954
10.789301046849424
8.757286185037731
5.925015347726889
2.9126600263034383
0.37146674572631017
-1.953095073903991
-4.859151561140841
-8.186685219760225
-10.428076869460673
-10.45192461387068
-8.822091408353488
-6.721362286478119
-4.37325118972109
-1.458178907012025
1.4475199240565926
2.952323713029722
2.69924135685443
1.9819633053760382
1.7637899789556217
1.5395578482103953
0.5890427164507839
-0.7088405307421792
-1.3790789454242123
-1.2143124964161942
-0.6998799975341541
-0.07316147811305188
0.7810029027683328
1.8183241378809303
2.7923168736187205
3.6154515421899567
4.090473805935622
3.7947732631497932
2.8683796838773516
1.9631846346731425
1.2678467674945626
0.46902468512161083
-0.632908029399513
-1.8634137184037376
-2.8912428854782006
-3.6017650050450674
-4.12526962793277
-4.4946963545272975
-4.6513358897783785
-4.880721133749066
-5.659448383973882
-6.987381810585172
-8.066911193099823
-7.983937891902915
-6.548651881700975
-4.2755498495328785
-1.836435939089543
0.7159767433129152
3.8060627343270155
7.433289604807444
10.769593783451743
12.741175875366215
13.20412050132216
12.83970477245327
11.702328664902446
9.010165087944577
4.902966964782723
0.9463331451821745
-1.8591167639939918
-4.2762549643787615
-7.1750475524400015
-9.68571540431146
-10.239562262941648
-8.793564349594405
-6.895853100028554
-5.461954840925222
-3.8096971982943324
-1.2344275258075659
