AAD_Filtered_TADAS_FILE
AAD_BASELINE_CORRECTION: BASELINE REMOVED
AAD_FILTER_TYPE: BUTTERWORTH
AAD_FILTER_ORDER: 1
AAD_LOW_CUT_FREQUENCY_HZ: 0.025
AAD_HIGH_CUT_FREQUENCY_HZ: 40.0
EVENT_NAME: 202302060117
EVENT_ID: 13194
EVENT_DATE_YYYYMMDD: 2023/02/06
EVENT_TIME_HHMMSS: 01:17:32.00000
EVENT_LATITUDE_DEGREE: 37.288
EVENT_LONGITUDE_DEGREE: 37.043
EVENT_DEPTH_KM: 8.6
HYPOCENTER_REFERENCE: AFAD
MAGNITUDE_W: 7.7
MAGNITUDE_W_REFERENCE: AFAD
MAGNITUDE_L: 
MAGNITUDE_L_REFERENCE: 
FOCAL_MECHANISM: 
NETWORK: TK
STATION_CODE: 4412
STATION_NAME: 
STATION_LATITUDE_DEGREE: 38.59685
STATION_LONGITUDE_DEGREE: 38.18385
STATION_ELEVATION_M: 820.0
LOCATION: Kahramanmaras_Pazarck_Turkiye
SENSOR_DEPTH_M: 
VS30_M/S: None
SITE_CLASSIFICATION_EC8: unknown
MORPHOLOGIC_CLASSIFICATION: 
EPICENTRAL_DISTANCE_KM: 176.60
EARTHQUAKE_BACKAZIMUTH_DEGREE: 
DATE_TIME_FIRST_SAMPLE_YYYYMMDD_HHMMSS: 2023/02/06 01:17:42.4632560
DATE_TIME_FIRST_SAMPLE_PRECISION: millisecond
SAMPLING_INTERVAL_S: 0.01
NDATA: 13501
DURATION_S: 
STREAM: HNE
UNITS: cm/s^2
INSTRUMENT: sensor = ACEBOX/SARA | digitizer = 
INSTRUMENT_ANALOG/DIGITAL: 
INSTRUMENTAL_FREQUENCY_HZ: 
INSTRUMENTAL_DAMPING: 
FULL_SCALE_G: 
N_BIT_DIGITAL_CONVERTER: 
PGA_CM/S^2: 68.897
TIME_PGA_S: 
BASELINE_CORRECTION: BASELINE REMOVED
FILTER_TYPE: BUTTERWORTH
FILTER_ORDER: 
LOW_CUT_FREQUENCY_HZ: 
HIGH_CUT_FREQUENCY_HZ: 
LATE/NORMAL_TRIGGERED: 
DATABASE_VERSION: 
HEADER_FORMAT: DYNA 1.2
DATA_TYPE: Acceleration
PROCESSING: Automatic Paolucci et al., 2011
DATA_TIMESTAMP_YYYYMMDD_HHMMSS: 
DATA_LICENSE: U (unknown license)
DATA_CITATION: Turkish Accelerometric Archive v 1.0 - Disaster And Emergency Management Presidency, Earthquake Department
DATA_CREATOR: AFAD
ORIGINAL_DATA_MEDIATOR_CITATION: : AFAD - Disaster And Emergency Management Presidency
ORIGINAL_DATA_MEDIATOR: AFAD PROCESS SERVICE
ORIGINAL_DATA_CREATOR_CITATION: AFAD PROCESS SERVICE
ORIGINAL_DATA_CREATOR: network: TK
USER1: GuestUser
USER2: 
USER3: 
USER4: 
[...]
1.58829842855417
2.4478364905984287
2.9194666058658303
3.0509760898469174
3.2905956691926312
3.9453365504973803
4.7103106428328845
5.166649952065295
5.295495948293964
5.235065845730973
5.131366452451159
5.153784142204261
5.261554790868909
5.298331739584749
5.078214143503095
4.245608109873008
2.836607085856177
1.464129193590439
0.48809889750538016
0.004226728619271987
0.18381023866281485
0.8334168275917476
1.5209100131514712
2.0734110899461986
2.324336180924993
2.1102892673469933
1.605224709801036
1.06789078126924
0.6101388838660754
0.1881244516027938
-0.46408999344895024
-1.485288639506346
-2.5100530773970307
-3.0087679459927945
-2.9113088969705503
-2.533905222804477
-2.0225411627269967
-1.4339698713575006
-0.8758291806119628
-0.20672221187691422
0.738368233882687
1.9122552945678735
3.1357708151054298
3.9438935662423718
3.9924992936550607
3.493303803305626
2.693161843291194
1.5788784834184855
0.19106151631731616
-1.1107947683206083
-1.882624280121911
-2.118377890944026
-2.0502412154107033
-1.8274942553649434
-1.69395235383075
-1.7534303628113355
-1.8322318095624188
-1.9050754951565743
-2.113917426421794
-2.3726671044264167
-2.2883540761841363
-1.6740226486819754
-0.8667147750333108
-0.24886314311584132
-0.011911626864626252
-0.28032606830464124
-0.919075554944566
-1.6295028056879866
-2.342530433704449
-3.239649426510214
-4.263397479540475
-4.763939924432811
-4.217880426912969
-2.927195422142563
-1.6029448051021211
-0.6900378859478096
-0.012034196393477352
0.6639042924495963
0.9793691730908141
0.7161151205810059
0.13304330878640683
-0.506615855506687
-0.6608340420742826
0.22101263919052844
1.8190708205282067
3.3020005579393326
4.208291458554403
4.607359408216322
4.659261558321353
4.261383117641548
3.2765200385119098
1.9677008442590092
0.9237179628598929
0.2818580226041092
-0.3688178247638066
-1.0538509809897758
-1.5432663487845837
-1.8384432020675294
-1.846029114367752
-1.6919476869551897
-1.629086100920589
-1.4028907604076064
-1.0289277176541565
-1.0850988652221756
-1.6954979973590052
-2.4731688212453955
-3.008218463867831
-2.9404242454086207
-2.2558357804502416
-1.4008755900257055
-0.7543214050381732
-0.34419406754753323
0.08379433937437622
0.9577159267567743
2.164454173432635
2.773030570755996
2.307091008806346
1.4563460139853832
0.9341532964366148
0.5993382712742303
0.19612762568552855
-0.0616576874502618
-0.05473133738726441
0.2000562649638765
0.8843886353600834
1.8986835325691729
2.7023928237568615
2.8671077096402473
2.5123927048432315
2.1248190696191993
1.7866165167573973
1.2472341851363284
0.6924042445584175
0.4858580331924499
0.4885308129452169
0.3525303982493649
0.22759169113789784
0.30946782956013535
0.2753961336179222
0.1425390355309365
0.23269929265537836
0.33902410033200603
0.39896259380684257
0.6920234336581049
1.1522235402811358
1.5787113430227064
1.8259412973872566
1.8757716054225264
2.046148761822003
2.525322232026713
3.0142062684303608
3.084520267888969
2.5494584803469507
1.5428371220133548
0.45181407089674375
-0.3549289980061146
-0.878628212462954
-1.3207124410801052
-1.7198407636578976
-2.04887353513104
-2.3401184309779235
-2.7981960102975205
-3.63396057855282
-4.471420492962972
-4.821081789523584
-4.809231941857737
-4.558198563161907
-4.071058987224441
-3.5705909978580768
-2.8985668216193297
-1.6801800877852697
-0.15776342884764108
0.9438555802069732
1.1823789971008376
0.9844010928206427
1.1587627936703764
1.9228117004475176
2.7288703468448
2.8463021237829538
2.292076360547093
1.5638560138427406
0.7182855284049902
0.006522216591980184
0.026717645834466654
0.7007937895367332
1.4953693656875169
2.1209752791212875
2.5615693295506867
2.7947114479923445
2.613283530164274
1.9509516082158758
0.9942464764204899
0.023744452554786032
-0.5805175255287743
-0.6245327927989933
-0.2740654491209331
0.17069439693554936
0.5056096184690151
0.7601576443096095
1.0329285153594985
1.3453390538678016
1.7486545835398168
2.2426877864550243
2.676367191420419
2.989817337941085
3.3668394861452904
3.6566767234452433
3.292540231337117
2.5908408244553396
2.440905193412532
2.5933795038320993
2.5469144559183676
2.6921929133262155
3.116645492327968
3.3125945646183927
3.086074220409686
2.725766811200446
2.6611295906965786
3.0185287079894922
3.6946114961559005
4.568186016805339
5.203648338781947
5.15984621267456
4.768716175599548
4.848405421346239
5.563681617217728
6.265998830931442
6.559533683092196
6.397017188630881
5.4191343463613535
3.6077439522786734
1.7041191591798976
0.38906081616360977
-0.025681780888681525
0.1740167598861883
0.20679048089602006
-0.07646084995163176
-0.21331933563125235
0.1396547807005833
0.9995702849441317
1.6352712270739085
1.35433293370634
0.6253221713466007
-0.05291382579477381
-1.1235734623197904
-2.633327291458447
-3.4698750173950903
-2.9956641627389247
-1.94061771206798
-1.3017754013760334
-1.7286543846578797
-3.1739303426254657
-4.690410079809974
-5.598370447406755
-6.083738237888018
-6.292969662561749
-5.9178784204094566
-4.7203246721945735
-2.87643924957737
-1.0099179508619096
0.08396735594499953
0.4288038307776791
0.8791714424126341
1.6925672029044339
2.2508235398670293
1.8861313886372004
0.6350275031807172
-0.4744702832587893
-0.6518818082344457
-0.42273067595785824
-0.6930796745022365
-1.451014517807238
-1.823763516666284
-1.215106527184149
0.024108863728914454
0.9825780735149063
1.3112660903270463
1.9079479162170896
3.2236196998247313
4.027700854876712
3.4198670016491453
1.9641215514037351
0.4473124417644083
-0.6301344438397829
-0.7681035404732826
0.23517417052709866
1.9987582926599143
4.013770659263521
5.8952640923013195
7.282591618347851
8.045550164328676
8.200162242394939
7.951865713614179
7.73464578049261
7.42895349751642
6.657750762600396
5.849123546637516
5.649028709365858
5.999457767082592
6.45723212854385
6.878200491539405
7.432924155055186
8.040698113459962
8.394682684189576
8.358080327225075
7.941778067600374
7.485542087868939
7.496850967560466
7.8807029277579845
7.972265276125403
7.378133943101073
6.601017699903608
6.29229873600632
6.085932600011384
5.701389455106628
5.910424091523003
6.936197777248251
7.885956722246138
8.007850067878437
7.265421899155909
6.261730854561211
5.872412071051514
6.653066260904361
8.458749419699128
10.541262047581917
12.143003514427072
12.814854607498324
12.388694616899734
11.225604847920401
10.210249555824834
10.041286856646062
10.47939253920228
10.496645691525657
9.487107808057488
7.9304697157565975
6.4083280722457046
5.129716478348147
4.666511196144165
5.2525293302067535
5.936848035848811
5.91425385494568
5.19207132690499
3.7606511674237306
1.7241000222935652
-0.10799381342866665
-0.7303502156470961
-0.07000365669191509
1.0107746887390487
1.9811701905569243
2.9165216802510483
3.634171627333351
3.847498058641219
3.9459309585409272
4.507801574763445
5.428361627371806
6.576276702068694
8.362199687978276
10.522177508465255
12.029374863515498
12.671630220333284
12.879129016812955
12.684371988444566
11.760887440288432
9.8558401280272
7.371352307501667
5.026944827293189
3.169173327302155
2.143337226915351
1.9543858825234883
2.034569695597526
2.3605446145219764
3.376529743734629
5.085471230850355
6.887297472891189
8.0050649737422
8.421968659193197
8.614650691387059
8.542462677147887
8.146466056981616
7.6513811878532385
6.974907041722675
5.922140937119225
4.589563696665082
3.1225784597741835
1.4283384644485575
-0.25882663090272034
-1.1414531525592977
-0.9473510024115633
0.16293436531881758
2.2468318994967156
4.581730157716405
5.939283190341592
6.041107547755325
5.071777498455068
3.271322964909877
1.3923865627719052
0.03676961547761517
-0.6113302927155662
-0.4806140502892686
0.07885787563850086
0.8700589711808006
2.1365329648487474
3.8323052874539894
5.663020913214279
7.061380778496454
7.555617486636511
7.281800462572128
6.36900305051354
5.111613261863636
3.979890198777827
3.2318636707964403
3.3478566466909694
4.339023631631166
5.543551811565798
6.416643412292518
6.497244088890028
6.0453256647195985
5.813085435168583
5.798567142542663
5.824668418162595
6.072349427650264
6.547639215214778
6.87325498646351
6.52192160933891
5.469062263123529
4.197387864754505
2.898220992584383
1.5878994432874391
0.8049888036705336
1.232799113769029
2.5775804189429947
3.737835682927507
4.238121793965197
4.231670783683042
3.851434902757386
3.7556471828739313
4.174261917216435
3.745881937394288
1.6768281390581765
-0.8367767504692105
-2.328322989669621
-2.6514563286622743
-3.0354404855007693
-4.516712264346849
-6.511113515838084
-7.943758279997944
-8.617535155382717
-8.719126662592561
-8.616098652919762
-8.912398086665288
-9.507332418317928
-9.99148910644902
-11.016841700610028
-13.412850805700002
-16.681979010957676
-19.467250847963303
-20.838736729925095
-20.791443509643287
-19.827863053253207
-18.384673250357956
-16.666466918861605
-14.925188763837088
-13.571331503851786
-12.824628232049731
-12.738368337674169
-13.071390600961944
-12.734196124381295
-10.739749494059332
-7.436799190579369
-3.4375979751021086
1.3825709935486983
6.970681624729674
12.655137701316882
17.826033611632585
22.0944749319775
24.842828382708614
25.491715116429358
24.319761373370625
22.096890799914664
19.586304327211018
17.915202387073418
17.542463854516658
17.40053700971952
16.423138161991144
14.584365282180698
12.692634981535315
11.615118496451064
10.922652541922
9.672566174605057
8.18244488497402
6.951769203492555
5.617994856665153
4.136308195908635
2.937209111010191
2.238086698942172
2.261556895760736
2.941723841918405
3.408355921103174
2.7584547784288223
1.0823151549463685
-0.747608328572809
-1.940735357662817
-2.0938315621904806
-1.4592129130020701
-0.839424559016895
-0.5653730533616105
-0.6644107780813985
-1.4576827680979425
-2.820611571433035
-4.160957429643408
-4.838085586515981
-4.180531026200239
-2.410362181760152
-0.7430538048404238
0.03004269144816435
-0.03639246572344923
-0.7443932051929715
-2.157490036553142
-4.507282007569473
-7.988725389546733
-12.30530985119705
-16.479873613018484
-19.900283662667036
-22.85951675112025
-25.559193937191488
-27.662859026710013
-28.79335497693757
-28.993657579094013
-28.746702369255104
-28.418645591373096
-27.746764295853243
-25.95676765864105
-22.814272505061833
-19.363436525517695
-16.77414831056003
-15.104206700600637
-13.709767084930512
-12.216973284164364
-10.767859522462391
-9.646310952410571
-9.188255997024967
-9.582270885101803
-10.59218301767515
-12.02485517953315
-13.957928657204368
-16.499569195980545
-19.527727910169105
-22.37060064931631
-24.491885704617165
-26.215751314861656
-27.951234756434413
-29.67810787217612
-31.19717906058143
-32.04240278945971
-31.964604179319366
-31.388418268261812
-30.492511742701183
-29.125415092760246
-27.565424793205693
-26.018700005258555
-24.67257561089017
-24.12575827589342
-24.32953070425773
-24.527792599898675
-24.510599448226554
-24.421201206035125
-23.91305617219071
-22.69430579056035
-21.465607566359584
-21.072471889189952
-21.211324091827453
-21.014592661127985
-19.984165964894093
-18.280629621913686
-16.654151297000585
-15.46494838723951
-14.543613822616111
-14.168231600767292
-14.694621668511182
-15.910426039068797
-17.735604660757847
-20.46423621090878
-23.87973382916492
-27.230044532972297
-29.964900814647944
-31.593901451655334
-31.78517391807694
-31.008214213965275
-30.222362457695535
-30.01831219025087
-29.947574903791434
-29.32161477485496
-28.58394583475421
-28.161240036377972
-27.644613082416594
-27.26708615554956
-27.5824130538373
-27.922559829411743
-27.011506222473805
-24.497008678499995
-21.094913348734377
-17.57648841843826
-14.3280055822771
-11.89780566525831
-10.9369102812809
-11.043226882667295
-11.012875366161905
-10.655318965252617
-10.369779308228493
-9.72205339776889
-8.32382725976194
-6.499910096993546
-4.788518711474904
-3.7365740068433557
-3.335427730905536
-3.149714492609168
-3.0936585222715505
-2.8896224174855574
-2.2275237879854295
-1.4876281974981644
-0.5097177140687543
1.3634100921400556
4.124306265147945
7.555632516578032
10.84086196986397
13.226578013664872
15.099639543533192
16.153431335102336
16.018546777042314
15.501811988727518
14.969576775202235
14.84749611289617
15.748549901841631
17.51306908695223
20.210151736817927
23.905259124930847
27.981677413635087
31.833185727437396
35.472341127359435
39.326190078610026
42.754000990094085
44.32762614195538
44.127361602361276
43.31643515549569
42.39192398517321
41.47463897026179
40.70010339568625
39.978605371103335
39.411719298692596
39.49197895930126
40.6466640100788
42.74287974166124
45.07340499957438
47.31416731267523
49.88041742042424
52.91572746288881
55.96118704785776
58.56204322728167
60.6005614430929
62.26914807380277
63.8369289254257
65.35473865215582
66.54484489533247
67.07489155848867
67.04985812153815
66.84249105191914
66.25432117965164
64.73787410477155
62.51856493434952
60.1244449328628
57.35246655113434
54.05037653506933
50.647961287659335
47.56879464773818
45.28992471623993
43.9502339359006
42.91820557695856
41.75279802199309
40.38693689260533
38.869492165109044
37.50838226293841
36.09374449212464
34.57495244426517
34.12459927985437
34.9269983227599
35.36993368414974
34.64134090834242
33.387974729452054
32.40920669638905
32.08808244716881
32.19562766626685
32.11649002912175
31.336977700450053
29.418832102076493
26.29118529936525
22.963196744048084
20.911329514576654
20.69532318539231
21.785465702438525
23.08682629183095
23.718144666477937
23.923543217000788
24.42105533396616
25.105129094462228
25.24126340866342
24.117104782577844
21.60042655347806
18.528522786368587
15.802506643424115
13.549307133961182
11.778554899805892
10.995082350339487
11.397970771457132
12.031771224067713
11.85677716601267
10.613075245820397
8.089384317232422
4.424573817865715
0.3793779394335919
-3.5209841614689563
-6.940493557916162
-9.641339980938103
-11.465772599710242
-12.158740504400717
-12.049253881620595
-11.69192098003837
-11.081625163188024
-10.410786758565912
-10.117611646486589
-10.124904747299563
-10.279522177410291
-10.844862305006576
-11.687415171326261
-11.745628039795282
-10.544211620828214
-9.676018251197005
-11.189329870195374
-14.901851591153322
-18.94839682677096
-22.28521601390857
-25.077271000675452
-27.68512136471222
-30.199357994337472
-32.2533602939839
-33.20283694996126
-32.81427377720093
-31.980399065130275
-31.753396256531275
-31.307370640282162
-29.10716240681348
-25.71383034709314
-22.985899651296343
-21.299259530774993
-19.31315809785024
-16.16709950072252
-12.329819588172432
-8.850325155648337
-7.100431042221987
-7.584625965521071
-9.350846398995474
-11.947872318695165
-15.749033430094313
-20.533233224851408
-25.513682227412993
-29.81275236638152
-32.85344375107511
-34.65741703480745
-35.45306871573384
-35.50983996816165
-35.29291778708379
-35.16525871040608
-35.26055447474948
-35.978134198174594
-37.70032979082056
-39.927367943194255
-41.93101593702376
-43.719216253425834
-45.488418145046055
-47.181087010718414
-48.88168279612345
-50.86236601098913
-53.12726177595745
-55.10188595085519
-56.117809851043226
-56.37280043001379
-56.685441168220684
-57.11368492995975
-56.73036269764503
-54.78082493349007
-51.54903574069707
-48.22045472882332
-45.78204294299966
-44.12744477506634
-42.700671846679306
-41.56895811563923
-41.28923029434727
-41.93405742381617
-42.590726456523065
-42.229708466624494
-40.89642510570639
-39.19893232875194
-37.06165095389202
-34.227091415162114
-31.477332322933933
-29.87706854064219
-29.317184622654665
-29.035281007564745
-28.675813908856213
-28.272172927225732
-27.984711084998477
-27.909010784810725
-28.04569262423573
-28.163807349686095
-27.770510829496114
-26.795813280579715
-25.586349192317986
-24.26018996838085
-22.82581477025521
-21.44828412682324
-20.5196581033252
-20.454942536457267
-21.097298225634226
-21.782392028585303
-22.165501412019083
-22.51187759328063
-23.251200006935115
-24.637871481735832
-26.23484891160092
-26.87833613264764
-26.131154963353037
-24.699112470609577
-23.297791770634095
-22.34090516610464
-21.919092102135874
-21.902284602024984
-22.381060233055738
-23.349094621887467
-24.346066532968578
-24.802917559568993
-24.552873817858178
-23.863528765713696
-23.202769192925395
-23.092463808695594
-23.409640659298333
-23.63582087847026
-23.943185433228503
-24.334624266782154
-24.197076704617604
-23.404635010611308
-21.934178156990765
-19.529262519519186
-16.669209555493023
-14.440287809827403
-13.262376330518467
-12.370495417664928
-11.009384554565571
-9.404111384847083
-7.810419618041954
-6.3144272219330055
-5.728268605321151
-6.785150885063812
-8.891234916866349
-10.56581087166923
-10.996593639412076
-10.490978970845816
-9.034176946280839
-6.5387969458262
-4.290748260577865
-3.4326535011369517
-3.444341816039018
-3.2933701203050827
-2.5624149172539328
-1.5851667153404536
-0.9407495884666804
-0.8532082525379738
-1.1335754943761231
-1.0821081933178553
0.18056953427338449
2.4234134969603836
4.4291264544753375
5.921825948255798
7.496938360400046
9.142443334404657
10.365932716956898
10.466723347660162
9.086424502203052
7.067160423592502
5.210443586388359
3.661135791095922
2.9735121855522806
3.4535382405475805
4.772326787973316
6.7376864068083355
8.67148687841271
9.882449284396204
10.710247648723868
11.131360740546912
10.997182064014881
11.387124725113402
12.71863547157505
13.797594270349215
13.715808112568334
12.541805237137686
10.56991743992766
8.304660670733199
7.006034264102059
7.429591077295565
8.16880149944318
7.1565095353784205
3.930282214499499
-0.30397534920093977
-4.257699741782413
-7.951110001060253
-11.57592837223353
-14.403678144668632
-16.192139092601472
-17.45738351602725
-18.472361594161708
-19.42986144109707
-20.385752917798694
-20.713640312689016
-19.56314935377298
-17.169019633654035
-15.095930757612981
-14.624425665343782
-15.508628040154264
-16.503858361039605
-16.90276586783401
-17.04108373184822
-17.011452404925404
-16.632959495437355
-16.134572584088257
-15.09876127717288
-13.099169176612296
-11.646633406308988
-12.280613070705298
-13.868888059512509
-14.49726152833979
-13.958871199913782
-12.71948558774759
-10.846869052273505
-8.40064297997423
-5.439314503134994
-1.987608127125841
1.7775493939276834
5.309486374576491
