AAD_Filtered_TADAS_FILE
AAD_BASELINE_CORRECTION: BASELINE REMOVED
AAD_FILTER_TYPE: BUTTERWORTH
AAD_FILTER_ORDER: 1
AAD_LOW_CUT_FREQUENCY_HZ: 0.025
AAD_HIGH_CUT_FREQUENCY_HZ: 40.0
EVENT_NAME: 202302061024
EVENT_ID: 13207
EVENT_DATE_YYYYMMDD: 2023/02/06
EVENT_TIME_HHMMSS: 10:24:47.00000
EVENT_LATITUDE_DEGREE: 38.089
EVENT_LONGITUDE_DEGREE: 37.239
EVENT_DEPTH_KM: 7.0
HYPOCENTER_REFERENCE: AFAD
MAGNITUDE_W: 7.6
MAGNITUDE_W_REFERENCE: AFAD
MAGNITUDE_L: 
MAGNITUDE_L_REFERENCE: 
FOCAL_MECHANISM: 
NETWORK: TK
STATION_CODE: 4611
STATION_NAME: 
STATION_LATITUDE_DEGREE: 37.7472
STATION_LONGITUDE_DEGREE: 37.28426
STATION_ELEVATION_M: 1097.0
LOCATION: Kahramanmaras_Elbistan_Turkiye
SENSOR_DEPTH_M: 
VS30_M/S: 731
SITE_CLASSIFICATION_EC8: B
MORPHOLOGIC_CLASSIFICATION: 
EPICENTRAL_DISTANCE_KM: 38.21
EARTHQUAKE_BACKAZIMUTH_DEGREE: 
DATE_TIME_FIRST_SAMPLE_YYYYMMDD_HHMMSS: 2023/02/06 10:24:23.6947120
DATE_TIME_FIRST_SAMPLE_PRECISION: millisecond
SAMPLING_INTERVAL_S: 0.01
NDATA: 10501
DURATION_S: 
STREAM: HNE
UNITS: cm/s^2
INSTRUMENT: sensor = CMG-5T/GURALP | digitizer = 
INSTRUMENT_ANALOG/DIGITAL: 
INSTRUMENTAL_FREQUENCY_HZ: 
INSTRUMENTAL_DAMPING: 
FULL_SCALE_G: 
N_BIT_DIGITAL_CONVERTER: 
PGA_CM/S^2: 139.037
TIME_PGA_S: 
BASELINE_CORRECTION: BASELINE REMOVED
FILTER_TYPE: BUTTERWORTH
FILTER_ORDER: 
LOW_CUT_FREQUENCY_HZ: 
HIGH_CUT_FREQUENCY_HZ: 
LATE/NORMAL_TRIGGERED: 
DATABASE_VERSION: 
HEADER_FORMAT: DYNA 1.2
DATA_TYPE: Acceleration
PROCESSING: Automatic Paolucci et al., 2011
DATA_TIMESTAMP_YYYYMMDD_HHMMSS: 
DATA_LICENSE: U (unknown license)
DATA_CITATION: Turkish Accelerometric Archive v 1.0 - Disaster And Emergency Management Presidency, Earthquake Department
DATA_CREATOR: AFAD
ORIGINAL_DATA_MEDIATOR_CITATION: : AFAD - Disaster And Emergency Management Presidency
ORIGINAL_DATA_MEDIATOR: AFAD PROCESS SERVICE
ORIGINAL_DATA_CREATOR_CITATION: AFAD PROCESS SERVICE
ORIGINAL_DATA_CREATOR: network: TK
USER1: GuestUser
USER2: 
USER3: 
USER4: 
[...]
7.232555003098635
15.475011246284039
25.451495720659604
30.43162171133003
32.419361185528736
25.544405426532748
1.6502129692402083
-26.761382944026355
-50.93267795551506
-71.32733889881136
-79.00565755791871
-63.4938460317005
-31.40985157993703
-5.360200409300066
0.10749931155672204
-16.80210306605042
-41.32954568037254
-48.58620183937104
-30.37285457083942
3.1850627813412586
31.793013179994194
42.97312409708075
41.78185438448525
36.52089313274549
27.9662391643665
17.71153126297573
12.522691012630819
14.692017454100593
20.383019865483135
25.005912217894828
26.325776631231516
22.86864267864506
14.985903147727154
8.026674642082368
4.962213436205539
3.0615246762043213
-0.7501920211302706
-5.715120452637557
-10.559275675893655
-17.94399082755759
-29.175464285903033
-39.44375567479343
-42.460904599234915
-32.404607795609294
-3.115933926199544
38.70084819020747
70.79697694310123
76.41460561690641
53.28357705781123
15.309128807893325
-18.90644692379092
-35.87849294160836
-25.172759555505685
10.872925543529572
50.52089680010639
70.1884732670279
66.7896721248975
47.678526515979584
24.572309478550924
8.723725903473834
6.402469842938739
15.550704571938008
26.300793907363303
27.492480226655694
15.902338701363673
-0.7564791632663693
-14.213271451283063
-21.648068635489658
-28.873929645931124
-43.264697140083
-63.439156976254274
-84.5720824243153
-102.12239739988736
-108.22315239190132
-99.64590116753588
-87.00733060533415
-84.62924759578796
-90.98828197433404
-96.08987121857521
-94.62101225905081
-86.92985959098299
-77.72787383339471
-71.95889238236367
-73.40493462245048
-82.07606367786252
-89.23989645181247
-87.31120870474317
-81.1010807984825
-80.31370806780512
-85.48317269692704
-89.53998500586408
-92.3516212078332
-98.50177331417065
-105.15865572445341
-107.4648077874673
-108.12616681235201
-112.65250399304027
-120.08525307419933
-123.95260488375989
-118.38475682328324
-104.42021494908465
-88.82992993356484
-75.74702271845389
-66.68920179167843
-61.575944992304535
-58.166156557628504
-55.48981065357188
-56.44932259044524
-59.995267714345374
-59.28875658586635
-51.56022746293971
-37.77116426906963
-20.39550796762874
-2.000960775240302
15.3909850044998
26.967286554071286
28.891648062360808
23.70936817081504
20.46286955562791
23.283617637082617
28.060549159850773
30.718539797608496
30.737078310317347
29.706058884949456
26.682419716901414
20.664044478297097
13.34773678278963
5.688706235151995
-0.9329810502417804
-2.799602799592165
1.406377647704226
9.270293939392332
17.244240689803398
22.534085994844034
25.2145371973746
26.636129875736295
28.732024084142914
35.2851760273545
45.50520981652578
54.04943354094944
59.8044392281518
65.96206587397135
73.51607504867086
78.91155005202528
78.23683875626087
70.36863266809151
57.9999845083179
46.5090015469174
39.3052100647704
35.17179221064609
33.12613071479984
34.379482043660914
41.498149586270706
50.77208224825872
50.08674077532553
31.685965585374518
1.5896682703726066
-26.839468291052853
-45.9904117825192
-52.29035956064211
-53.282837991713016
-57.8441793832887
-62.75388187672445
-59.46752626687298
-42.50354272621806
-19.6190912122025
-1.6689866722492699
6.113403910651047
2.00040762007749
-10.107675112620594
-23.368393094883615
-29.360920399463257
-26.56499270842032
-19.668423457470745
-9.13304722993191
1.4298561783310495
3.023155194893314
-8.698224935713469
-28.343228284934405
-43.82586297725593
-46.30433364728831
-33.65364534504593
-10.963476217845864
5.447824708552043
8.029521854006596
5.17324865052273
8.819179896818447
23.042362436228352
41.02186573657646
55.979786665208884
67.04286513650844
77.25025797788528
87.95768593171337
93.73507124752861
90.24676031236638
78.55059639909302
63.32339574554052
48.11633662891026
35.48251496737612
29.468922148564207
24.22952756374668
14.666340416298098
4.840592594545714
2.354697131902596
9.2306134115747
18.40587241421329
25.490414263340618
30.784649595169256
29.450588166569176
20.50690333071186
11.960951883579366
7.123912700036663
2.7912674995148046
-5.578768690242503
-16.32302456081938
-24.493908251829094
-29.76319404385182
-33.55657690288749
-38.156285221710206
-43.15586039894806
-42.901951332382076
-37.06345036186427
-30.40463093523553
-25.681766229393393
-24.34077619474083
-24.97750714715264
-28.12340154342076
-36.29897991311501
-48.25031209318037
-62.06231815106836
-76.51290883676003
-87.53053818349372
-88.81369447898453
-77.86224685064593
-61.48869852498711
-47.548836185043584
-35.65720579526935
-24.249489121156284
-13.638288962119434
-8.701034747699662
-16.085381575531173
-33.10328504904287
-52.09786375409353
-68.44193757709478
-75.07913842478477
-68.21946903914657
-51.28437647816543
-31.014798602605996
-17.471811014613515
-20.596320947473895
-41.79890020815462
-68.9818071279913
-87.38517336675454
-90.00899238694714
-75.81868218291342
-46.54372182565747
-15.326262044321117
2.809840454572359
1.8146125095632777
-15.637189678316174
-36.98790452932453
-50.67750960560498
-52.71239606491815
-48.427073319119245
-46.83852559033048
-51.05810482637776
-61.02508675534999
-74.11544100370824
-81.64982464959438
-73.29526559686138
-50.148689943969956
-26.502681082883196
-12.64538697943403
-11.430097831539314
-18.44663571102678
-26.37386473905319
-30.79225874388775
-24.271686684116023
-12.176390870244868
-8.528621037570689
-12.32887047383063
-11.138340867156954
0.9575630510243024
16.650693958856902
29.35584482845764
32.86296467691763
23.080906389024715
11.06655221177811
12.116562753752374
25.777493066707354
38.82089976975635
39.45978481813266
25.907425980275463
10.591349946278859
8.254158197292433
19.06773702282815
31.840683218976306
37.20063016799889
30.380158450567272
13.177847886052044
-2.305097302896714
-7.924656432145658
-6.754500795992102
-4.192081838610844
-4.262624428621129
-5.559203439465478
-5.192979522468479
-5.854108297920786
-7.50332412641075
-4.801365104577821
1.6364591022808415
6.722999294382433
12.976196148074708
25.822050960020402
39.7995613773896
47.31889682770159
47.46561732000241
41.37714799860386
29.983539367445758
14.192198673596375
-3.741845946135131
-20.153556896009693
-30.499491563875893
-30.06988235152524
-24.888810295605307
-27.12619533715629
-43.307784071579675
-70.0253607443254
-94.25429620050599
-103.5191278760556
-86.95470638001358
-47.601961019197915
-9.294901489810922
6.498257646266098
-5.961429969273843
-29.31654238575442
-37.653017498523006
-25.882702664115286
-4.77051909029428
13.698876926321864
26.420847770814035
24.531988402734445
2.807456837224797
-19.384933249773795
-29.97309303144411
-28.478476563504064
-11.98776425299942
6.56827668920552
8.395466280794816
-3.6480203449463326
-13.32049518327179
-16.91684752965853
-17.69641753084546
-8.519015070823803
13.707440440785835
36.00565747763145
47.60778752765391
51.11831403693826
49.73801637910047
45.00950198881468
37.40677442122545
26.103393349288652
12.52533591039196
-0.9213889361785935
-8.83321177323405
-8.377259316914328
-2.559262241817379
2.0500199162723107
-1.2873323086226125
-10.374272673963253
-16.012675305659318
-12.058626394665016
1.4994624407578978
17.29127483344202
25.864964772664173
23.624302568757578
13.335448948828887
2.619756430181612
2.1483355243014457
14.508427609573173
29.938284206598006
35.090110937774895
23.502400511496813
1.3726860530483267
-19.50537867381194
-32.75936143017966
-37.12982780608504
-30.207517482047024
-16.359945481267253
-7.85878421997444
-10.310320083190176
-22.383096877797133
-41.288389212443285
-58.28433039801437
-64.49412142255399
-56.966770409456764
-43.035768285727166
-33.71208012360619
-31.838886822096043
-35.51794297896346
-42.717212173739355
-46.111081013815145
-40.16247050311185
-27.719329871476226
-14.545671279997444
0.6422640242543716
20.292190546975046
41.40125295784673
59.0699253583745
69.06349229279262
69.94383887408884
61.73284741991736
50.108925743978006
43.01124780179434
41.209583777042376
45.571142841515524
52.286146943557796
53.9093208748275
47.941920702981236
23.859445223523213
-19.86750948260422
-61.65063607800635
-75.51244054779148
-59.45589956581137
-39.194213057183184
-30.916991653000807
-32.21169778618909
-35.85869688359206
-35.51591557171264
-32.135293935474365
-25.473091606761535
-20.02644658979011
-17.126695091982985
-10.241891310801996
0.13328067449218156
3.602874552875453
-9.289244750840764
-31.094893384247484
-33.22841061026384
-12.964801999347916
4.128257242719377
4.976544574451372
-10.603521980100137
-43.000722829605756
-78.11293823537075
-93.47515542937334
-81.84856092247284
-44.99923446157175
2.065697964972649
36.08608984639631
46.51042015604968
36.803856010181136
23.352831714347637
24.586198979329357
43.10694301438885
65.6999133205629
82.96268855737745
95.26920075565062
103.42069941783133
102.14444341168556
84.99884354467824
55.193671842923635
32.691908555666586
23.126621942779153
16.827621765906038
31.029765386645565
54.24271071618123
64.16089573343204
53.54320079021235
30.20157025856123
6.295297315648108
-12.593161047029943
-21.803848060218463
-19.268608447213854
-4.081560708335457
13.793854827055657
22.488157941292993
13.693998477771345
-5.399733472749291
-27.05846629376543
-44.731540661546276
-49.48673754310546
-38.20564206437838
-7.525617932293322
24.304219755273397
34.14110485436044
24.322873626660428
3.6124688543550327
-17.565451110010287
-29.583486149672844
-31.870769396558174
-27.009275816781326
-13.825860571811388
4.240986911247701
20.680823692067605
31.88750519088887
35.65639104672421
34.21203559924221
30.88865485854648
26.601424372231783
24.117995551438998
24.393643576809783
33.044883165929484
55.69968572729899
83.64349716327409
100.92437151927273
94.73621597778471
57.305027640788744
2.163272510455606
-42.5105576627589
-62.866339254358074
-51.84389664584654
-10.789134271214689
38.241071752220435
73.71919774916874
83.26143398074511
62.87055765882592
26.431857438160787
-2.743548180306712
-12.023188908561204
-1.2226917660690089
23.67316606695558
50.92386781018569
66.24254033031285
62.61495266929028
52.437226076616255
50.92172766484687
58.22597651421849
64.34123441177275
63.6231741128836
54.381134083273615
36.67085898248616
20.119560396133892
10.8372146397246
7.009524534093944
13.295088390864533
30.238940734696822
45.11529638669
50.569892612281755
50.987856101638386
49.5182403553609
42.85794213519776
29.900014858977997
13.13981635875577
-4.822836486832382
-19.538309634817065
-23.352553822153602
-16.274673857915822
-5.739326005226005
-1.2792061199936702
-9.805390411173127
-25.90505062664934
-41.079595457505505
-52.70181146858474
-59.388964282873815
-51.956827497498104
-24.890323426576593
8.99485097901405
33.06061225939908
39.228201222987444
29.960397037985008
20.842176926013423
24.22897255289624
34.114966458094514
38.43565855808956
37.10519222884298
35.07438205482297
31.88834642113481
27.541627979861445
19.00191872891592
0.2977399413096353
-24.405455810670023
-47.7125944878014
-67.11768454580407
-79.17467621570772
-69.06987182009016
-33.75054959732896
4.091017156835908
26.087802241189436
27.201586823486295
12.069437299452503
-7.284899233840505
-16.78914747648717
-17.31454948552204
-18.605894146447273
-24.948591172535515
-28.2568273585604
-18.36386055012135
-0.10345411265897644
14.857726586026354
19.68756897296848
16.13443926703499
9.525890057770916
6.7494924242429475
10.97872633302219
20.425220202392993
30.77006593959532
33.309839398097296
29.24146747463078
23.037488134987196
11.991290539129759
0.9674110290400214
-3.6983238914378784
-1.8129215501778173
7.04852211603672
25.52101933247997
50.78968316266108
74.97185023213929
91.62605109448802
94.90076024636491
86.39992841511423
74.83789448428979
65.01747954631803
54.33761861560176
40.47668401106269
29.57659922391159
28.73419428764506
37.5130846362534
45.63699011829242
44.17790210851468
36.13847587711309
25.818047748058216
13.015200689401324
-0.8323602211701105
-15.02390224236187
-28.036309830752398
-37.79476349156074
-42.258134026611756
-36.439697109597994
-15.738982525094402
16.569559069003105
51.959982174669165
80.72984156719667
92.28951781586338
80.06661153033461
53.103924557003566
31.004806932344096
25.681661468465265
38.13533889115588
63.05119017529091
89.74639825158626
105.48028927093803
106.3359533897355
93.43474161960319
75.09118053441472
56.76223315356217
35.41510170249197
14.256992406482595
-0.38920572924079283
-9.134192926395638
-14.837168389846063
-15.76614017074529
-8.403027684658612
5.502526647459145
15.801034320945009
12.939568752446496
-4.0206366118075465
-30.400606566310124
-63.262595560916324
-98.869197180353
-123.37699524515293
-124.47507788962132
-95.67957946651435
-48.289093212523966
-12.283773048440413
-3.7484078015083457
-25.46533220296547
-69.04893972081176
-112.71976252940054
-137.48123319004063
-130.51937763119489
-92.5714307342651
-45.97583568179088
-12.758447999674267
-6.100178466598238
-27.608689266779024
-56.54716192849938
-67.97610911118329
-50.69218177911024
-15.049996611895958
15.209584380127998
30.92348152812409
34.63640471791788
32.183046294964534
29.57984045226545
31.480320082797
38.602873675534646
46.14439419214221
52.7105207309901
61.24739092089753
73.0163445793837
84.2061466196772
88.7429201327866
85.99596690436034
79.29953247671943
71.38097945729277
63.872485868817506
55.5496938859495
46.07977380882135
37.5017589934532
34.56754181803818
38.8467765820595
46.0577176983202
50.395616617694486
46.30109303631595
32.466529844397456
13.904716212291722
-0.8901825287529719
-5.059103655887606
-3.618100000982387
-5.497629282160706
-14.162894146491793
-32.583267861339856
-57.8605230102057
-77.69406165543741
-80.1405376226907
-58.25878397453204
-18.56732767047624
13.966802828582141
20.90441725891164
-5.984110580862934
-56.156075917615944
-102.75541210080537
-130.11418837191775
-132.83225854200467
-112.69204146410344
-79.23942063125968
-50.63616219725755
-40.30362071412463
-47.71728935227171
-58.74143326046026
-56.29653460548754
-39.96771186096003
-23.553669321826174
-17.045291398746862
-20.139865081892687
-25.12651216151945
-23.045985207360882
-17.268776417718176
-15.148138516013532
-14.122235592804422
-7.396049446210487
4.565369203967517
14.071330209121728
14.347599974868501
0.47968725867423945
-20.487701851066078
-31.308974089452207
-29.23314940497874
-25.585912039417774
-25.92721208928393
-24.39914091757468
-13.874882545178224
2.035899243138979
14.191882714666587
21.960586572641468
33.84129721853939
48.558766153216204
56.90545225617417
55.416351992846906
45.241022318237114
28.03043333856131
7.4500317456834955
-4.697998217597215
-4.968840442248941
0.9682109963329435
9.087500457141909
12.946110558004097
11.949451960628638
14.170061466835987
19.4483168800343
21.57999948379791
22.93182136809018
24.217760426758158
22.657894364432913
18.61914374614104
11.822847532057684
2.091834026120623
-8.685683238234898
-18.829796648244816
-30.049386875162188
-44.617288972799344
-59.89923393013338
-71.02431591193843
-76.66531204844692
-77.13315920817172
-68.90965433181417
-48.95258876548288
-24.18918974605338
-6.10184028534017
-0.278514608127372
-4.930831789530776
-13.312474488401826
-11.448705247560158
12.523037419476971
51.00138907024061
87.388509567567
109.72229892987437
106.55601405284969
76.66199447563913
41.20328534965185
19.758790560826277
15.514016895602724
20.79552810801687
29.761352494987833
42.74641420664331
53.78630004414427
57.284503158190645
50.1203846886547
31.71983459859784
5.784462941283074
-22.87012989278507
-43.57290755892439
-46.041583154090276
-32.42387794100551
-11.48551145903616
11.283625847937948
28.13879993167261
28.381229637014652
16.06163047299547
0.9828038791255186
-13.72017517642781
-20.283340134946002
-19.326901001034706
-21.349092213077753
-23.756303313211518
-31.642498509035633
-49.035511299261
-63.30253464647262
-75.66059191098758
-85.71482610774619
-85.51311185949187
-78.98735670366463
-72.71932391920583
-69.99875901397243
-72.53822683461983
-74.80420830843642
-68.31923120676171
-51.36651494471698
-24.113318093279904
16.774945826809255
61.56657012822495
96.08091851338071
114.00822546087106
115.95094631151632
102.40323721380403
80.22720701512524
59.79527321142664
53.942158580083834
65.76232222304026
82.93440937272018
101.57525425633952
111.6802030155701
101.02670224278368
67.01171977145808
28.292160460944803
3.1728246131832973
-8.279167727410286
-13.34179133768347
-22.54722122112574
-36.80869624570136
-42.45496331601213
-32.011336311009224
-11.550254964577197
10.938631083853952
27.889191653797077
32.381623743698654
21.279510146120316
2.021859119437891
-12.638486462348732
-22.745720897156776
-31.10829297533722
-35.97013129324914
-39.13609324349816
-41.821437780544834
-43.66631588366243
-44.30896051777939
-36.62702945588773
-14.449028826344335
11.275415474299264
24.869747275898156
16.54094501369016
-12.753452623759063
-54.43354648446379
-94.09872468345024
-113.35516854953575
-110.00014417046896
-97.52873382926985
-82.10308832176422
-66.7794610500606
-60.27926251129751
-63.410367364793956
-69.43097119454286
-70.62508978441929
-64.2819652369849
-53.299626644341565
-41.87853362025176
-35.74069459165045
-38.961344487461865
-51.33977145422078
-65.51264413997914
-69.65042233170232
-51.09501091310861
-14.225725149350732
26.304586137051306
58.641190115171476
72.26692015390897
67.82026016707177
55.43429844932944
43.86230929475318
34.719627335007665
32.76089994421869
40.827629916003445
44.9304325895791
33.14226891853706
1.9720095377871687
-37.94459366324245
-61.07787874225637
-54.3697371262515
-17.255439117696216
30.710456022698192
65.76574233244855
79.91795266661619
61.075219350553105
20.041653681794283
-11.148492306513331
-12.22286761043827
18.925124195914364
59.65960374202088
88.11965343660253
100.37134862903615
92.77339161106707
61.24183771404132
18.549488771359297
-15.841059537200476
-30.849782460053806
-22.89827474380657
1.6666226612152797
32.452414451734384
54.10690532189367
48.2150735421248
19.030240746873503
-10.972483102802332
-31.17604908074845
-39.96705558757799
-36.76728065285506
-27.88464331150806
-18.315914085381856
-5.910952069108366
7.080452922010752
13.721708119714624
10.599125923320342
-6.800857497379288
-37.868893633296366
-71.696241458276
-94.45197848507787
-95.32496642114928
