AAD_Filtered_TADAS_FILE
AAD_BASELINE_CORRECTION: BASELINE REMOVED
AAD_FILTER_TYPE: BUTTERWORTH
AAD_FILTER_ORDER: 1
AAD_LOW_CUT_FREQUENCY_HZ: 0.025
AAD_HIGH_CUT_FREQUENCY_HZ: 40.0
EVENT_NAME: 202302061024
EVENT_ID: 13207
EVENT_DATE_YYYYMMDD: 2023/02/06
EVENT_TIME_HHMMSS: 10:24:47.00000
EVENT_LATITUDE_DEGREE: 38.089
EVENT_LONGITUDE_DEGREE: 37.239
EVENT_DEPTH_KM: 7.0
HYPOCENTER_REFERENCE: AFAD
MAGNITUDE_W: 7.6
MAGNITUDE_W_REFERENCE: AFAD
MAGNITUDE_L: 
MAGNITUDE_L_REFERENCE: 
FOCAL_MECHANISM: 
NETWORK: TK
STATION_CODE: 4615
STATION_NAME: 
STATION_LATITUDE_DEGREE: 37.38676
STATION_LONGITUDE_DEGREE: 37.13803
STATION_ELEVATION_M: 581.0
LOCATION: Kahramanmaras_Elbistan_Turkiye
SENSOR_DEPTH_M: 
VS30_M/S: 484
SITE_CLASSIFICATION_EC8: B
MORPHOLOGIC_CLASSIFICATION: 
EPICENTRAL_DISTANCE_KM: 78.59
EARTHQUAKE_BACKAZIMUTH_DEGREE: 
DATE_TIME_FIRST_SAMPLE_YYYYMMDD_HHMMSS: 2023/02/06 10:24:38.0959290
DATE_TIME_FIRST_SAMPLE_PRECISION: millisecond
SAMPLING_INTERVAL_S: 0.01
NDATA: 11251
DURATION_S: 
STREAM: HNE
UNITS: cm/s^2
INSTRUMENT: sensor = GMS+/GEOSIG | digitizer = 
INSTRUMENT_ANALOG/DIGITAL: 
INSTRUMENTAL_FREQUENCY_HZ: 
INSTRUMENTAL_DAMPING: 
FULL_SCALE_G: 
N_BIT_DIGITAL_CONVERTER: 
PGA_CM/S^2: 73.751
TIME_PGA_S: 
BASELINE_CORRECTION: BASELINE REMOVED
FILTER_TYPE: BUTTERWORTH
FILTER_ORDER: 
LOW_CUT_FREQUENCY_HZ: 
HIGH_CUT_FREQUENCY_HZ: 
LATE/NORMAL_TRIGGERED: 
DATABASE_VERSION: 
HEADER_FORMAT: DYNA 1.2
DATA_TYPE: Acceleration
PROCESSING: Automatic Paolucci et al., 2011
DATA_TIMESTAMP_YYYYMMDD_HHMMSS: 
DATA_LICENSE: U (unknown license)
DATA_CITATION: Turkish Accelerometric Archive v 1.0 - Disaster And Emergency Management Presidency, Earthquake Department
DATA_CREATOR: AFAD
ORIGINAL_DATA_MEDIATOR_CITATION: : AFAD - Disaster And Emergency Management Presidency
ORIGINAL_DATA_MEDIATOR: AFAD PROCESS SERVICE
ORIGINAL_DATA_CREATOR_CITATION: AFAD PROCESS SERVICE
ORIGINAL_DATA_CREATOR: network: TK
USER1: GuestUser
USER2: 
USER3: 
USER4: 
[...]
13.209788506554391
11.864525435275775
7.632742109003303
2.6252495850078605
-0.8116528901667771
-1.3428041042886703
0.19133862718063338
1.3569471272442548
0.6761471206968335
-0.7618471906519493
-1.3830586660963506
-0.15119704296269065
3.217049759387172
6.325565508940321
6.29138898416265
3.105226061821114
-0.6210634540371146
-2.3790045333965946
-1.8888818496306086
-0.46427522357707113
0.5219018579323202
0.9286971308488224
1.342121469576365
1.850728791531251
2.1700247963926005
2.209425859192406
1.813063260865545
0.03963046175064591
-3.118560610396157
-5.669302768197818
-6.546319669674147
-6.367335580765715
-5.29154893022726
-3.0639813304833465
-0.09917468691174908
2.7623109184008494
5.066469475118033
6.460439604597364
6.323861648941319
4.971918951752966
3.934796188789817
4.08610587853549
4.9911108963249795
6.204102411078271
7.515838350949583
8.226808187801808
7.494846560315768
5.353898601089431
3.2462273628539378
2.8651573557187886
3.70580329178726
4.139677710839144
3.782074109806477
2.0442203208279843
-1.7379418841430243
-6.621525952539388
-10.51196593099999
-11.621031182675102
-9.885217083184646
-6.5064330029093345
-3.094947737061725
-0.7311537303642519
0.4986928279543676
1.283222464348545
2.775330882452727
4.323960605386111
4.200399653797313
2.682677831549806
1.2119446311882673
0.44478107791769794
0.5916939826601239
1.5712883263749051
1.8770587072410956
-0.034922373042067405
-3.439305937471045
-6.396639787683772
-7.688041707682503
-6.740929868852249
-4.078876350174023
-1.5597039221445217
-0.09106209336235734
0.5448223477990302
0.6833616338165825
1.0115953374232456
1.8356792463241507
2.7546119194530183
3.3372632955171166
3.9604240842306724
5.039000648119491
5.903410299562249
5.738261523495304
4.41653994303352
2.9184382948990657
2.302221197783309
2.644433539528814
4.283403690151673
6.992278758466166
8.711361646796203
7.685624965291602
3.6284682110290665
-2.091204965771447
-6.401294335559625
-7.494596193645494
-5.760707014101521
-2.206541469427002
1.5301552460987926
3.7720756648132485
4.579260001006225
5.652917115066692
7.560354504975581
9.602967042964547
10.831755526283011
10.05875103603555
7.721380179517892
5.412516267174598
4.062545811654968
4.350899524940156
5.802192705823353
5.925853048709144
3.5133920047234506
0.22442280706156603
-2.2742019432875225
-3.419910661144832
-3.0875964731338925
-1.7922896392374033
-1.1972645701457776
-2.3589232036504173
-3.9452867456573153
-4.1280754196451905
-2.0700916652207972
1.2803397339591478
3.8323368524732353
5.0583291561595995
5.530900617662568
6.099234135198344
7.81860153925695
10.531115104050349
12.615371017282662
12.899064231942477
11.95127200953454
10.23849360876265
8.296118152661345
7.484168903776273
7.469648538651645
7.029263560961527
5.899900385449818
3.7790810801249766
0.7526351351007063
-2.1186092195119497
-3.8971414606825254
-4.235662050778699
-3.024215662330267
-0.8678738780642071
0.975070452262738
1.9725773556900064
2.5557242054129055
3.085458273126321
3.6093580066006763
4.764324807943719
6.5994061166146905
7.653414918492219
6.967813453843246
4.681492667099922
1.6853445984363693
-0.974077745628063
-2.4580450000155807
-2.1677986084879866
-0.993959196134171
-0.3739318067807168
-0.859782970329029
-1.9849450685180956
-2.2872007267134893
-1.209321479326762
0.7284972905044271
2.991300298267014
4.557192758958545
4.625134569420241
3.7845311844724825
3.6489479245368606
4.856066435256738
6.736514529778839
8.535975464375616
9.68913249916554
10.26555416564768
10.37053888512241
10.153469493846751
10.173969570363115
10.042259415224482
9.167299965097703
7.609632618935872
5.27229665378486
2.706865140777124
0.8299555918385505
-0.41394984932110424
-1.0425956131461345
-0.20609399753332008
2.196157518429142
4.631156485376336
5.793666084834692
5.386269803472109
3.848629846209547
2.798098959879288
3.5896371695788876
5.857434544333956
8.131506978557313
8.882031618984527
7.556862336014379
5.104553383759271
3.439527002100319
4.132730189972005
7.090345972401039
10.668306981227657
13.176395466179173
13.929583970396697
13.637387888679253
13.979191098591496
15.552317767211202
16.487901339796203
14.687528437617342
10.457915803661434
5.663248480960637
1.6820167047846912
-1.3328768805663533
-3.5106590808957847
-4.952182580209118
-6.17121762673311
-6.943073132635444
-6.435336060613226
-4.864896742985449
-3.209848350322559
-2.152717645029603
-1.421216444660977
-0.11831056952461401
1.595899314619112
2.9869635401655454
3.671071987396082
2.6933774679877285
0.10626259486709778
-1.4164478288816926
0.00805674914619605
3.460966436307967
7.373662234831692
9.886075257332749
10.05764773170136
8.774490225640292
6.91551698496331
5.594184953376189
5.566329580590458
6.502511550282074
8.073046594729183
9.771640149928048
11.234344455740047
12.581161421814766
13.634368445183481
14.058881324391393
13.882775672218672
13.262877795560728
12.738269586474361
12.486799362889558
11.505106480033
9.576681399394623
7.536085974679472
5.804247958575547
4.934442225631097
5.615492752674704
7.58356129975535
9.924653879596699
11.461144496652862
11.043520520334603
8.92867859058132
6.426005492482131
4.695877146141698
4.66211926450968
6.165190657230001
7.6187046564518415
8.037887314078317
8.21537914048895
8.998338755032403
10.355596829296594
12.010876250805806
13.434851744809396
13.394823561661209
11.065144876188231
7.366437671202391
3.7482546030835584
1.3542266573485464
0.6493004505521127
0.8771355051749221
1.4126505042465014
2.4164407238612036
4.222677382551553
6.787661365958411
9.349645208098943
11.3316216251067
12.655335821540877
13.008677487654065
12.235054297921282
10.992231750501391
10.332278446055907
10.793499331342815
12.181977538334607
13.879162717623542
15.193735446957968
15.71852361712101
15.238458222037774
13.776141439733808
12.019935065114543
11.219109422048259
11.743596941189725
11.998064821257605
10.390905675679322
7.38951043544059
4.331090980478253
2.0285880062356125
1.3041270994392478
2.7083108415917594
5.461749465500927
7.871867879467861
8.794041270088146
8.867957189542606
9.511985207418032
11.378747671005502
13.546443533544064
14.301787458320815
13.190762217927222
10.19983972933644
6.02769278951718
3.0080858536035833
2.931650145807727
5.388473860027508
7.841841813811322
7.778290067630904
4.956619558575425
0.7974322341281935
-2.7843827898822044
-4.044019792555811
-2.5715103965199835
-0.022522478013298087
0.7895489849316808
-0.6735267029560934
-2.7518948039050377
-4.157404726687054
-3.723158705210997
-1.5905944446150722
0.7722558508031815
1.702376920839155
0.6455849803135225
-0.5015924314438538
-0.31259955213490553
0.5227359113881951
1.8526799931550106
3.496155938620609
3.926671724298807
4.337977185585716
6.705080182295944
9.680602314428343
11.716791482184432
11.728455849753912
9.768701909218818
6.982770594156032
4.021280337315493
1.9221918311922461
0.4853793594726526
-1.6100709136536486
-4.837279530924438
-8.099864104045595
-10.007308250343948
-10.265983548615742
-8.458752354845675
-5.2717091599806505
-2.5086238845353064
-1.2583633741296212
-0.6303293385518047
0.9991963855132476
2.8994990799924008
4.352723205577136
5.290401982642402
5.34416448122755
4.788864272114209
3.622150605888188
2.7898971707521283
2.4129949348291984
1.2325105592628776
0.2696960133356585
-0.17277525137607158
-1.1119737544352897
-1.9583801396229485
-2.244530216038537
-2.314299720111796
-2.087964671782964
-1.3706684034604206
-0.3911989258116455
0.8031516813878746
1.9884582411085518
3.1963241483971507
4.3855442772385445
4.559627337411234
4.139562218152323
3.580415098569559
2.4900381912235914
2.211411424942379
3.67631429406483
5.922615345818987
7.36338156727227
6.395186613602095
3.1425932266605914
-0.04468259888918609
-2.06672872226481
-2.701914212984924
-0.30086196826002753
3.5915640139083194
5.176103131671751
3.790431281106454
0.9542084133338806
-0.03138623735294047
2.6445931876058353
5.82319187454211
7.671596813835425
8.81935356314807
7.624045743053846
4.097848212219079
0.6340241366099395
-1.3575438469281822
-1.6964143077140803
-1.0972226159378982
0.35860933644591203
1.7895634641282763
2.236387809325959
1.806373626199117
1.8669771208985682
3.3645456730783394
4.375084946448465
6.477535685735917
10.107801860109712
10.87619329071131
9.424943701472136
8.230858493064442
7.179216132838145
6.033528623170261
5.41450332695202
5.918687107075381
6.279187982064289
5.726546708986892
5.198140689866003
3.9029431186368067
0.04214269348755522
-4.425356576541298
-6.74116065590701
-6.287149104289038
-2.75684155009107
2.5233506182830245
5.676555864802584
6.272679289518584
7.369717112001744
6.061585230486962
3.3202496493058398
4.648076880723818
5.160751310508439
1.9264642908281264
-0.2536672540974786
-2.025984932482081
-6.074675634954963
-9.224385601442243
-9.894766533842919
-11.552822691415974
-15.693271870535984
-17.361419329092822
-11.970339793135974
-2.962110784777702
4.834446481836241
9.510842172540759
10.996365963237407
8.813942200998826
3.8798772231946472
1.8974508158269519
4.885728600317248
8.919258088579804
11.03073029591176
9.065396498941661
2.3366703354470117
-4.694874538003334
-8.01051688329842
-6.919251911323046
-2.4622321758019683
2.3773440036371114
4.435931628804036
0.7328610321829303
-5.007377065691617
-6.75999460521261
-3.2806508422996306
5.205348963382805
12.377190350885789
14.165737108410507
11.874997607920221
4.746091181910182
-1.7002952855799338
-0.1489126829878039
8.742676069897229
19.474166332009986
24.962214509707987
23.02368052098593
17.438741217876572
10.5515377340316
5.878055938829931
6.706804100245912
11.44881340770605
15.03284972549254
9.873709614905335
0.3128556014298733
-6.084625708590471
-10.566051899709898
-9.762686487837826
-3.1582959589196644
3.0928051285304616
4.831787789342354
4.23187714872519
1.4636968172532059
-6.575499770167995
-10.975825975894857
-7.117159472286138
-4.53175250306631
-7.211426050173528
-9.365483340632263
-8.333866520213906
-8.232489290738005
-8.247075583266072
-6.373801687544503
-7.174935375537481
-11.774467870687989
-14.582736363181292
-14.208857562344589
-12.445133878667793
-5.454967726519358
3.431166481961493
6.611022330565057
5.525542139124953
4.060448360099383
5.78673670555214
8.199987668054709
8.453810313726173
7.358935204121613
4.447492035540691
1.14300606801531
-1.507823398899365
-1.9182301559718042
-0.9061342273558789
-1.6173349626618954
-7.354591183932494
-16.804178216933845
-23.016837690085765
-25.4256400523498
-24.78952686906661
-21.865990150811523
-18.92702091921864
-16.064389044108378
-14.018315148503154
-12.018565814407822
-8.014787094798919
-0.4976581643746267
7.008180253991546
8.397233278314815
3.2250089943616187
-4.2296661122036605
-10.460113462435634
-15.042366379549321
-15.43795656534621
-12.863654772434604
-14.746341229999128
-19.30341551726933
-20.91121495664746
-23.31318002781307
-27.426778367543623
-27.817185675865495
-24.835672405501377
-22.525956928173077
-20.51941735460938
-16.338472875431165
-13.177390018316364
-13.50320992177291
-15.846180974153272
-20.057637762728223
-21.322728721040274
-18.1784669835609
-17.06766345825925
-19.4834337832251
-23.807563247875525
-29.443409493021967
-33.863548040118886
-33.338259979810196
-27.785072760475487
-22.80260117350193
-23.26319847548195
-27.202670002442623
-29.496709569002586
-30.441516912142102
-29.96274491913491
-25.813255035789698
-24.482152300376374
-25.992719872497005
-23.427913835394023
-19.253779486145152
-9.97640995718986
7.856768383788669
24.83512253174847
30.368981415337288
20.608675909232126
3.8874248929018806
-9.6510658126634
-15.98109621229721
-12.173179707066298
-2.120722984572916
3.0635541069272456
0.4481307761960894
-4.688132159881085
-6.883647235832425
-0.9445363489096746
9.691567076285944
20.9669230723036
29.71598706257275
28.67536980415468
16.423389908440353
-6.3399744300976195
-31.48883845753517
-46.41546690456262
-47.666171537073325
-39.192616184003015
-28.75819092491165
-19.95855513111799
-11.194863707628906
-0.913211797334078
11.353817652692397
22.54412330731413
21.958596210789953
3.5907284408685722
-22.47831837290433
-43.8250847799737
-53.81825066383472
-52.046848094122915
-41.15089321462928
-22.01040288707543
-1.822392161423495
8.86768521531777
10.408393406234058
10.558943587167274
11.94804588034152
8.782569734238693
-0.930569314255024
-10.822292001350222
-18.673714554990227
-18.43371898923354
-6.101943493182953
10.155843910663657
25.835546682083173
31.018774978952425
19.396537984268885
1.3874462408798223
-15.620703351282303
-28.00109775978431
-30.235267624921164
-17.253908206231813
4.685388290053203
19.45873001690376
22.901184757845552
19.351314503188654
8.997238362961522
-6.7091568994603
-25.23238418425926
-44.32931047242411
-58.41539976593154
-68.29122857273983
-73.9901228789862
-66.80945287800826
-49.36395749677594
-31.604723989056996
-18.914148721189623
-9.979862455363127
-0.6338896246566071
10.033552431539938
26.65959737722671
46.00593741899594
57.601416094663975
56.68521363541493
43.99301869183257
26.533616412713812
10.305703144700699
-0.9764156232301228
-10.860741744948353
-22.029286366062195
-31.048972556993267
-40.090430856060735
-45.831000103534066
-46.483304313353585
-45.60425939762152
-43.40621264882118
-44.92014534750821
-49.08418709019984
-47.643404775846605
-40.08679643775329
-27.43915083753495
-7.70581488874192
14.564249913965226
26.741458678188636
25.23440865091998
20.594536327458975
16.431995880339574
12.2203673488041
7.127885759765713
-4.008044321980195
-16.873075889288955
-28.74130829604669
-40.36081472907503
-46.67597470274839
-43.46747574553049
-33.10283262309724
-27.389035871968805
-31.393429644259182
-36.80239855476557
-36.58315925319605
-33.16985564323523
-28.332359029731407
-21.277454737377766
-18.211680458203976
-20.434094208666057
-24.466346533619962
-29.43847791258853
-30.742016664964602
-29.215050635924552
-31.08439242848003
-33.88922002831471
-31.898168260552342
-24.362262602271308
-13.850008697432035
-4.157171969626919
2.6128073148482014
4.156660072698063
-2.993420403190187
-15.495248119522284
-23.53459116697393
-22.442565543058688
-15.472717927241707
-6.750398694377049
-0.8920466092660954
-2.138799740939988
-10.09906972880886
-20.346129214022124
-25.69870438150161
-24.31809789891781
-20.37667648219762
-17.61186608904314
-19.579980576226124
-24.18109983502637
-27.52873432930411
-28.89445997626671
-25.052907244841933
-17.70072222214766
-13.72519189031938
-12.366210913367235
-10.075627969951135
-7.664079937931213
-6.1620867482517925
-6.065429807956665
-7.605553484968537
-12.232472966047618
-20.32458334764887
-26.74290597781361
-27.282711714262362
-24.016838752631585
-21.74864850892484
-22.391070993673967
-24.218488825884236
-25.453068923743835
-25.58252654297665
-24.809452208683823
-23.264751590305494
-21.752261669926707
-23.42227924868123
-30.029615594892086
-38.098538839319374
-43.91870562842273
-47.10592235048378
-47.201506871086075
-42.62012683833143
-35.068610342295116
-29.67828498945761
-28.235058341401416
-29.79766677392774
-33.832507338364785
-37.777543912236716
-39.38044778665736
-38.614005283276974
-36.58726471643791
-36.6398898581474
-40.20826862516895
-43.981773864536926
-44.793913597172086
-41.251643277443506
-33.78547834354743
-23.992303426641193
-12.937912400090541
-2.649065195873548
5.373299413017729
10.085048435243605
10.365244943341192
7.523110510545203
3.7387655630662477
0.5205203296012211
-0.6406739675562838
0.8661935816696719
1.204502826406542
-5.30063253090755
-17.8694703711215
-29.904971272310956
-35.270394662808734
-32.14633438446116
-24.03509513308843
-15.765155915039756
-9.032508050019933
-4.952718022684194
-4.593143791250011
-5.101121114508362
-3.119587167196975
0.2874998310066286
2.629848129331442
3.9090800318530974
4.397671901242036
4.507551313812294
4.89107256235558
3.571948057140736
-0.7414366719845298
-6.649416295933316
-11.992489062136077
-14.331401652086923
-12.428879959351654
-8.990700770459563
-8.270781833488444
-10.925765535507765
-14.123788379139317
-13.67250530285237
-9.100521214395279
-2.988947413699114
2.846584968257967
5.085707273573843
2.6400654181349656
-1.5947337315551058
-4.623578348070051
-4.790079634214385
-4.0870282682764945
-6.089124519726571
-11.141088126025679
-17.132978809772805
-21.807403583780314
-24.511872808263394
-26.46496765013335
-27.907166449339496
-27.806879955578804
-25.72758272996426
-21.95884923985868
-16.96031500468888
-12.119966279367697
-10.17082947267473
-12.290788854644141
-16.72380896974787
-20.38581976672613
-20.070905881861815
-15.84095723811501
-10.897885397820355
-6.52766003553521
-3.5877733019983857
-3.420011893130924
-4.951817268007678
-6.520526365800782
-7.473851781706378
-7.8955396373326785
-8.42650601082538
-9.500985742873718
-10.33335851554457
-9.843819344980954
-9.349158614977412
-10.997685875822027
-14.907603019996564
-20.723847846871607
-27.462921416795204
-32.6771007420099
-34.61186162252535
-32.30485586559696
-26.893882665180296
-21.772621475957095
-18.178088095451574
-15.277154606619185
-12.52197565845609
-9.318308357095916
-5.203305691560929
-0.1599828053016931
4.358743092619547
6.571101300562113
7.6527745206359
8.256276423946176
7.194090970666815
5.208864317397683
2.2493943070875586
-2.61565968835679
-7.662017084843144
-10.435412271460999
-10.32676177624491
-8.127976210882679
-3.849032717442109
2.3336740386815578
8.096709634826258
12.520045238894223
17.007568806220142
21.7535530799868
27.28009565289665
34.59028269192435
42.6973808858672
50.67018420214869
57.873965384347485
62.83680245056883
63.96327699612087
59.908144941566974
51.324883231589034
41.74672606682874
34.80390198702206
30.89926940496278
28.332830519457275
26.39609540085132
24.032431854129808
19.978569832680044
16.24816561717258
15.763147244285976
18.864844829125534
24.03451080014179
27.808568715793083
27.258653880683255
23.527201813279298
18.759573369161835
13.361232655532179
8.528413909232443
5.971902949220596
4.4169924377371395
1.9067463624246204
-0.27435311990757166
-0.29309641646454143
1.7811279728042742
5.4486419152801115
9.13346682190157
10.497934419914037
9.6863188339451
8.307807525394267
7.727146570264274
8.481241454414581
10.052501728852056
12.222752063471638
13.61868951029259
13.332291380851448
