AAD_Filtered_TADAS_FILE
AAD_BASELINE_CORRECTION: BASELINE REMOVED
AAD_FILTER_TYPE: BUTTERWORTH
AAD_FILTER_ORDER: 1
AAD_LOW_CUT_FREQUENCY_HZ: 0.025
AAD_HIGH_CUT_FREQUENCY_HZ: 40.0
EVENT_NAME: 202302061024
EVENT_ID: 13207
EVENT_DATE_YYYYMMDD: 2023/02/06
EVENT_TIME_HHMMSS: 10:24:47.00000
EVENT_LATITUDE_DEGREE: 38.089
EVENT_LONGITUDE_DEGREE: 37.239
EVENT_DEPTH_KM: 7.0
HYPOCENTER_REFERENCE: AFAD
MAGNITUDE_W: 7.6
MAGNITUDE_W_REFERENCE: AFAD
MAGNITUDE_L: 
MAGNITUDE_L_REFERENCE: 
FOCAL_MECHANISM: 
NETWORK: TK
STATION_CODE: 4614
STATION_NAME: 
STATION_LATITUDE_DEGREE: 37.48513
STATION_LONGITUDE_DEGREE: 37.29775
STATION_ELEVATION_M: 771.0
LOCATION: Kahramanmaras_Elbistan_Turkiye
SENSOR_DEPTH_M: 
VS30_M/S: 671
SITE_CLASSIFICATION_EC8: B
MORPHOLOGIC_CLASSIFICATION: 
EPICENTRAL_DISTANCE_KM: 67.35
EARTHQUAKE_BACKAZIMUTH_DEGREE: 
DATE_TIME_FIRST_SAMPLE_YYYYMMDD_HHMMSS: 2023/02/06 10:24:33.6674480
DATE_TIME_FIRST_SAMPLE_PRECISION: millisecond
SAMPLING_INTERVAL_S: 0.01
NDATA: 10501
DURATION_S: 
STREAM: HNZ
UNITS: cm/s^2
INSTRUMENT: sensor = GMS+/GEOSIG | digitizer = 
INSTRUMENT_ANALOG/DIGITAL: 
INSTRUMENTAL_FREQUENCY_HZ: 
INSTRUMENTAL_DAMPING: 
FULL_SCALE_G: 
N_BIT_DIGITAL_CONVERTER: 
PGA_CM/S^2: 89.207
TIME_PGA_S: 
BASELINE_CORRECTION: BASELINE REMOVED
FILTER_TYPE: BUTTERWORTH
FILTER_ORDER: 
LOW_CUT_FREQUENCY_HZ: 
HIGH_CUT_FREQUENCY_HZ: 
LATE/NORMAL_TRIGGERED: 
DATABASE_VERSION: 
HEADER_FORMAT: DYNA 1.2
DATA_TYPE: Acceleration
PROCESSING: Automatic Paolucci et al., 2011
DATA_TIMESTAMP_YYYYMMDD_HHMMSS: 
DATA_LICENSE: U (unknown license)
DATA_CITATION: Turkish Accelerometric Archive v 1.0 - Disaster And Emergency Management Presidency, Earthquake Department
DATA_CREATOR: AFAD
ORIGINAL_DATA_MEDIATOR_CITATION: : AFAD - Disaster And Emergency Management Presidency
ORIGINAL_DATA_MEDIATOR: AFAD PROCESS SERVICE
ORIGINAL_DATA_CREATOR_CITATION: AFAD PROCESS SERVICE
ORIGINAL_DATA_CREATOR: network: TK
USER1: GuestUser
USER2: 
USER3: 
USER4: 
[...]
-2.0639970654592146
1.5195419626618754
5.02868494809562
0.8477118393196371
-0.5067464934245988
7.23708962344221
13.883350474139041
9.821444917217116
-1.0827895026080174
-5.610769527359307
-3.348122862673878
-5.15289014603149
-7.563378873647582
-0.9531764109301014
4.6380450535025854
2.202226765577399
2.169969529024888
7.9681601940796085
14.96160977810258
20.297094872392577
24.33796066587558
21.521547743313914
7.933373265517012
-0.9132160552138836
0.4193013898963647
-3.31473379414867
-9.961319179949543
-6.768895973062361
-1.26898224976653
-5.379172044969808
-13.859262810035215
-11.107124263361356
3.6942429030505095
8.132410936467748
-2.651713080647485
-7.020154569866626
-1.0012488396239747
2.572679310483682
3.7668932933640895
6.203716435063779
4.295571778852268
-1.7953520734827801
-8.05304988871882
-11.982739315751205
-7.3725490649435015
-2.059248341397182
-6.52703898964861
-9.417893435556044
-2.9250175434637704
1.8165073121153197
-4.668014269541385
-10.521438430047366
1.9567561857948284
20.285258791192746
21.102325323380402
10.987798160831048
6.722046655372654
4.12614200054347
-7.523039595762635
-14.864764665670911
-1.0039891951882243
12.411139393992451
6.987413748959578
3.273748304918036
7.792979203553459
2.248876855942239
-10.918294771040959
-13.72042383331075
-5.9079740485123216
-1.8308227404857715
-8.033107089317424
-13.75188849932852
-9.254776478047006
0.9175591924807157
12.234398108355105
19.502170662534116
17.343757557965944
8.549074870232262
-4.418347062008099
-15.470712275137508
-16.76978295510063
-13.321230979812722
-6.346223489109303
12.156391190431714
30.645873349137858
26.57159727083216
6.759482234584374
-1.0737206989848989
1.8942157701568325
-7.376438593382837
-19.18862780023832
-9.66641113300892
6.222834398635312
6.930188454732501
5.364329615769464
13.031683989695319
18.952674353826755
14.061782720794728
2.5304174428614155
-3.8458201856087175
-4.275377386482477
-5.255128851805301
-3.683057085541147
-0.046052466284084166
4.756684377247946
10.728625683972115
7.876483085518944
-5.478568569704461
-15.311064654942543
-8.260971487363651
5.090379512881681
3.5638126746651944
-4.072155685456084
-2.458840244967554
-2.3358960431910565
-8.501538741299065
-5.817550042434172
1.9432745015070336
-0.6891596235440917
-5.988673959046251
-3.9378251011232765
3.773728745717324
12.509963082353579
15.912623647665901
14.466253162537875
11.285441171046388
3.3267841194110863
-9.689362678744248
-19.93874259461562
-20.092388907931767
-10.703623310765238
-1.607450904278538
-1.3253286659294412
-4.017120438355576
0.24151415788175587
5.2358985654951535
-2.2356728262962844
-14.655180939573956
-14.90610453675694
-0.7900733231895629
13.735399493687016
12.155158295461344
1.1160736404557057
-4.300000082134511
-9.1856125373337
-18.479497414099853
-19.323535686603705
-4.98064531496541
7.53197007885164
4.904906934188097
0.3676546306881447
6.683944009267953
7.531282453681489
-8.745078072818309
-19.33278643616305
-8.381092180553836
6.591635460001671
6.20063852770097
-4.00995109465495
-7.579791139970307
-3.4175529498826207
-5.732423482955285
-14.210823486190854
-13.227609434392653
-5.450738901847264
-1.8897159711875802
-2.284243369359111
-3.4844225572736813
-6.70615057177251
-10.081730495881402
-1.8363940542209056
12.444491004288583
12.251943875395835
-1.167129342130567
-12.308075870591926
-15.117871796357448
-11.831551828039753
-5.390065815855626
-1.2374821291501392
2.209241334184171
9.404847294097506
12.229337273948676
5.9886722485879735
-4.102197555386307
-7.714086286436997
-2.0529950664856584
-2.151979547956492
-9.588106488260719
-10.092052403384477
-1.890218397356085
5.817363470294005
5.32185649502595
0.9005257959093961
-1.1780679254769164
-2.9606611884656138
-3.6471347366649867
-0.5696252921199928
5.043981200253514
7.140913968076624
-0.30751448540638904
-8.577790056847249
-5.598063477775556
2.7240696148566332
6.854461801995171
5.173320826452096
0.24648567335820548
-1.7639393220537467
-2.4524016844379837
-6.743465295006658
-7.253530367278454
1.397492144422578
9.694912950175835
12.630262975218141
14.541739970973607
15.96950821401941
18.170271340186346
16.01307761405158
1.6685306937252058
-12.289817921785895
-9.62438028051387
1.7097440692493855
2.881684483105646
-1.9064828454062164
-0.11339619243235727
-1.4264492395431982
-8.051942658526775
-6.740265971760632
0.6901961354103479
5.464994621053008
4.969903490771242
3.636734596044452
5.912155002862469
2.565934294163381
-9.38512916327973
-15.021429831868268
-10.187450435855146
-8.172863463095572
-14.556392271555309
-17.57395512859113
-9.092631403370838
0.08068419752163548
4.992226229472828
13.728561509801793
16.8827755660194
5.888133486998921
-5.751233120105681
-11.446304735783094
-11.491435170154396
-4.77868544933455
-2.250291341875907
-8.19183092614348
-6.91904065826214
3.5323597444908046
7.603547848031838
5.886080656913129
9.80974550305679
18.014451282858918
15.572764032938789
-1.1579320695418545
-9.602619822855335
-1.3396957082835599
6.790866471826222
10.763142034372274
13.749381019244417
16.08375988130326
19.83369378983577
20.093765947069265
16.373929201076724
14.274003959566995
9.988235963004065
2.8584884953604925
1.8616193461087576
7.774103139034019
12.920613609183432
12.609711678571948
5.658610999042138
-2.3314691559875573
-0.9473944734713355
7.527011046436207
11.699271417075838
11.06025359863636
10.618171768305537
8.222270842952867
-1.254906017297501
-11.575647767032383
-8.30924431783446
2.997316095996118
3.397658791254982
-5.843243923618748
-8.65493157902145
-2.023667731217212
-1.0676172283745893
-8.921554158942048
-9.170130656848043
-3.6627814052161916
-6.97460466487308
-14.055293069044218
-10.766625185067507
2.513770148022515
6.408781629976928
-4.558428429883568
-7.299190490293091
0.06418714655518558
-1.6114432769281655
-5.895657654255084
-5.7918652996012865
-8.376112287589503
-7.189615686370924
-1.1486583954363363
1.886165263503809
2.3159432129125435
-0.727409724942025
-3.362020062432564
-0.28101931871858904
1.3367824603395662
-3.242031939391982
-3.2355182778614884
6.979777646158519
15.170510702509922
14.431822665373073
9.862553053942817
7.709220273860181
7.133481508994411
3.5843189703642793
1.56330483221725
5.062208588452043
11.139234082596767
10.9696900088147
1.0258733944426037
-5.029458743533643
-3.85089634403397
-2.052080535287691
4.301904879078074
14.027431242298313
21.499458928310705
19.89254441175793
6.50177906088046
0.22564841278191994
9.779341959906267
14.80323800551841
4.884768598051083
-8.79702251451325
-15.464354499832611
-11.175986964286693
-0.7779297219305464
6.751229301854981
11.13876543819735
7.149273494876947
-8.958716061370193
-27.37468404537735
-36.90991288050569
-27.05839579037017
-14.76304164517399
-18.12709527471715
-17.14693764202123
-5.607269630949699
3.5021887357387076
9.924846532107027
12.85824725511063
7.854659651762639
-0.5095029781833251
-5.296809505980931
-4.825149358639226
-1.8811919316576948
1.8664285370201814
10.39854117251233
14.679836785254446
10.30453070086308
8.417714546869629
8.258474389661444
9.168863072141633
4.971788900608439
-7.3818749210157
-8.439243117864692
5.918345407648002
17.803383379319726
13.83741718053054
1.2750684278302922
-5.36802418625411
-8.442500815365717
-11.570061841824598
-9.117870405693061
5.569351538562269
24.497394350385466
25.96064818000277
9.187298092940958
-8.476791950897638
-15.813645282485474
-18.590305945985445
-24.23899933540266
-19.35296603244542
-5.573720254148306
4.353355767320262
11.20092292257787
6.369771513178219
-2.32093303282286
1.0936718285980853
4.754978920777058
2.2826301094988777
-2.916455769201004
-6.585492769694647
-6.635570507611612
-10.11297354780195
-4.6411612246991645
13.332003642419979
17.615227441171747
6.757124951692043
-3.1909122863898247
-9.547207763321518
-17.50629885662514
-27.086898327200508
-23.96457689413943
-11.899095167890934
-5.604356632331187
2.0285106956457457
1.7657251551366715
-18.050586739272926
-26.11322647694845
-6.674746488115443
4.526125379104335
-4.0889157225992205
-6.9167885782096725
-3.8215621266646607
-1.0479599477036021
3.0215951380739714
4.489373586482466
5.127954815370143
2.073833822947909
-3.8753924059388996
-3.670890132634338
5.085750350410649
9.72766805555611
2.875538033295068
-0.4666201746853338
0.216996586087638
-6.130879933084397
-12.880500819212234
-8.284061767675798
-0.4687300263326691
-5.57705212721913
-11.529785206979442
-2.439899742972607
1.5399785002967619
-13.023684934242125
-19.575225071393664
-16.424416521259197
-21.16624306929181
-17.046293009817575
-4.41847333597327
-4.696561998731921
-5.539362168260538
7.710808235962866
16.123991323773502
6.667014462304283
-7.627137873410983
-8.162263656767701
3.6051069660332065
7.480869176775187
8.325581763702997
20.714901190261997
32.867885047772724
26.93283971472779
10.933053808738803
0.1208287863208229
-17.77623910437119
-33.01686835567838
-28.442671801181394
-23.347387242082394
-12.037070951226456
10.841708996536397
11.917265943517565
-3.9345790587626612
-1.705021807953936
1.7747657915514696
-7.430648863572663
-6.283064949577938
-4.774855284607133
-7.007082737159513
-1.2763127842289255
-2.410075696313727
-17.95264309330463
-30.29399304336304
-14.315778077539505
8.046384956170089
8.550531043208947
7.526786818715258
-2.6294878237941615
-20.123363041771462
-7.1523470224583585
9.49486000862309
3.6335369427776514
3.929935933511981
7.657038119986217
10.841544984773847
17.328482857891334
1.8660839917663792
-20.533146635869567
-12.707864901959761
11.379305003486337
22.796137858497804
25.84910113469855
35.462151048193434
25.456338792683184
-11.96728284641028
-29.089529910769567
-25.85863944510059
-19.51893239598981
0.414247550684928
16.19926252154917
16.008223706536974
8.0709423377068
1.1348706054229174
2.444383113725652
-5.033530332508587
-21.38088172396684
-12.228735964173351
22.521475507482545
44.17177057811866
26.36005829332365
-12.770192765346037
-31.542569359997277
-24.441677616937508
-24.7828528121767
-40.4491472744175
-27.08929828877472
18.60463735106529
39.69017302486367
30.29973655038558
18.77990457210545
9.503735115318488
12.203668117662755
14.804672455671623
-0.3894460842163145
-3.0762774464203133
2.6580866874576783
-13.794424130030261
-24.560771599099557
2.466559164305175
21.33710223488095
-6.888754338804875
-14.408373715428443
17.188448401036023
33.71014136148733
33.94647012409358
20.02432319686422
-4.671318202667403
-20.49784014657943
-10.897681834462997
5.486220108695662
-0.6952829910497488
20.23585636743469
56.33794309569693
46.860721786777276
37.093312345461435
42.04575621789198
33.58364985586837
6.732093735051165
-14.358684435837617
5.509978675295795
26.647500175638086
26.39582089719871
15.183829926058849
-4.5990399363586745
6.14344334067836
32.087786982574606
23.854781333775502
6.960445543147835
9.703336674032995
11.026014783376437
7.1815177156395364
8.185541004277614
23.48100542489738
43.94080050958651
26.054566414224155
-9.83235564736685
-19.11020722674898
-3.3883556691509273
13.116571702314793
-1.6361761001529713
-3.246046371312853
23.0214647111185
4.225602199575787
-37.83621219235261
-32.81390423024006
0.09212276854011008
1.8802810133678285
-22.701257615019696
-32.7516325500193
-14.686782313653262
20.776309876374764
25.514868168332004
-7.946331143529436
-14.257659537170376
5.322316869841231
4.036197395102741
0.6632226748610258
7.240812648285249
3.561485373487201
-11.221126296249118
-24.518999490405086
-6.3624337432878075
2.946952887068209
-47.47108266136041
-61.19823346940195
-4.518579043893423
35.15351045723905
29.93170551444013
11.624700619977041
21.754736189578143
35.23738269022697
24.48337755443441
0.5055116970884992
-14.958054398930416
-17.813082319087474
-37.00811435219221
-25.668743968301975
12.799285361791323
24.12817893421768
23.672956614457735
22.58358331032527
24.08644171502406
15.847983689014331
-1.2846069385679202
-27.37368056784072
-62.319864478884845
-59.5784332380767
-23.923707364852252
-6.518880061334341
-16.71538347899271
-39.54459789969539
-33.401812216235506
-6.35521635806433
-13.962168291664886
-18.224870645070503
4.036257733206243
16.523326627532665
16.322432261723662
7.081945234500216
-0.5694146974271196
-10.401904706657911
-29.01247825790553
-17.91893767119594
18.27101469664225
21.961476422730218
4.372605466172175
11.370008444314045
29.91133285582576
15.313077545675934
-31.028491563517193
-50.348035341109664
-19.463094315012658
0.9908149945188276
-4.112866342854171
8.922285158115113
27.695008974114096
37.76967920869046
16.050886147590806
-10.727975129765513
2.4767823810528147
3.0114660230467734
19.125297368718993
49.17661949241015
19.793219341591353
-18.424555200795066
-24.197032332172455
-27.573807025051124
-57.98703424091226
-87.8533363956663
-61.7736612282553
-2.690323006071878
25.02666714010365
14.607739709637308
15.975554217371407
23.596170997271855
-2.7667050169465943
-32.71871508632621
-19.182879936624282
9.20112447190001
1.649357230230624
-11.899098668078468
-5.339376656508785
5.03854457647766
13.151569877875627
10.119879547105988
8.682137734005
3.559333877672553
-2.6665193933954514
11.273464776459047
13.17838901737748
-0.9793711698556319
-20.68541779359812
-46.67202989889046
-17.202030962214785
56.552983809487976
55.70247808203502
-6.455337928850572
-15.60237463120045
18.763456694082052
21.916163146576437
-6.86150806052899
-29.6534788636612
-41.51382320274635
-40.964230355282474
-7.5256027441847415
19.33353998886279
10.051496123114665
15.29184403394852
24.96141841344395
13.908789542618946
-3.9855036121919967
-29.341070933775722
-20.211934048038124
15.74940680437824
16.781592873338656
-15.77746229989036
-50.41423350388462
-51.503929906690466
-40.4445384885362
-41.58188675042927
-9.737026146608798
23.421668368729016
13.489208061101689
17.60244667583481
48.55844434073126
58.67752830655248
25.058798557809826
-16.687594964535496
-17.019101962276697
8.215970269078648
34.40313638487781
41.46200305066469
22.050863945719776
-0.6059142874739942
-8.788029700161765
12.754104554752097
37.87889257593524
42.43984569182915
27.004878501436586
-1.1605731286527412
-2.173019100588729
0.8296841390270848
-22.158232895942845
-37.30089539878326
-16.10466522464065
27.2641663435513
1.68979453472104
-59.46254898073484
-25.820859116559312
46.925070378557855
54.766127566269624
13.718102439658335
-3.8306549138393096
6.027615022389883
-12.504371453681165
-32.969184883253
-11.596041971058684
11.07371726190312
-6.729878142410692
-37.744471112444835
-36.638015588809424
-20.68433429833171
-30.46080903604027
-21.126143034142526
33.206745413512415
51.245982819490145
38.140956167290625
50.12234350806367
29.51073847605646
-12.947888192080008
3.0573106011163573
29.719809642809565
19.241924480784434
-0.18560209874286773
-5.909405059539144
-8.227849893344137
-24.29647337456232
-26.008544477318512
-27.52386586662826
-45.36413847873964
-35.47862692280124
-4.3342308952773285
26.10188303687088
32.21978054803719
-5.797899353842362
-27.394078692164804
-1.9472670998863175
15.376280371566322
3.773179360300179
-11.745145480241671
-0.09350999728491118
28.715555631465765
23.70990435811579
0.904288019411011
-7.246078953294816
5.168622781411952
35.64721902957348
38.924116589423505
24.41047763530146
25.616643799484304
5.756815300736127
-36.43511296218301
-56.81911863243765
-33.063452429942316
16.039073324692534
42.38236893802968
59.936527654356794
68.96602134054446
26.00522422939973
-25.981046988739884
-58.35916464938856
-80.9677990243124
-60.989947659941784
2.405409201557901
64.05373941658057
81.53496809726104
48.30938200275265
7.904819169261691
-7.467445991478079
-20.657162679085943
-27.130456473495137
-0.5894896092767293
10.323419386066996
2.888739710843641
34.027917919692754
40.348285947535835
-21.564185915823906
-62.590779232474056
-46.02348855457106
1.0945640907357477
44.676265575744516
35.40716357140993
3.604034288351324
2.7288860613802313
-2.9400199782984213
-21.444512961038352
-12.028932235779521
1.3077432484179932
-16.894464547793536
-27.415359065052737
0.025682388467718118
7.660892202160488
-36.43233198027797
-59.63061340967578
-23.31723986087924
21.1283758478068
37.303084395477505
23.083176327285713
7.148718986000503
20.12888820830138
26.68550193271057
-7.19241411044824
-39.78143836518368
-19.75533536856103
18.022333500402684
37.302767778515204
62.10095994071679
55.02469359930023
-0.4727572035184599
-32.16265829371307
-25.582335850860442
-20.824329332732322
-33.36223337453068
-34.91835909788155
0.5435151709559567
25.04403071536713
-8.983862231137165
-45.099137710091775
-17.21948305775901
25.13402775122433
19.451333361307903
-2.0474502176944727
12.027232571370915
44.070104073089816
34.110657823116256
0.021054269672721046
8.914180980064188
38.84822060738142
25.182182011322872
-7.1996073405649605
-5.368589818194752
1.0338985381376018
-20.22301501331462
-49.51786997642472
-58.62804835999846
-39.89941025746375
-9.165363474498003
17.316881864381166
29.097545432584848
22.67069253801495
1.841315193273981
-23.803188162145123
-26.74207607077738
-11.034737214303622
-11.00298790384019
-8.664372321272623
10.504912900135237
32.727475341990385
46.06137727818538
25.675637740699823
-27.247631408195357
-59.997193701726474
-37.20582216318195
3.141925107109305
26.707946516444938
22.13184026175705
-3.2878922661906844
-7.889002888859966
10.87298390877253
17.350168073242834
6.786539217402185
8.87444877381226
26.51985641399867
27.478682765685523
3.4169230754954922
-14.308410571537385
-5.7127352239912925
2.0320825223037575
-3.647044544194236
-2.5654971740791686
7.261399418178946
11.904080178842094
-1.8389383876105265
-14.280321606301646
-0.38628035237552105
9.094710992847643
-4.847289414667334
-13.108045451579612
-21.043627571240943
-38.84921911020001
-29.58811643210128
-13.281002192495047
-36.66981902084237
-54.229520350069166
-15.872337353944372
41.719586566019096
56.877877528583085
32.300911099595794
24.724167695139737
40.05995282364937
26.165497037898103
-19.401727978823725
-41.060420581296235
-28.23286783268471
-31.561330145812825
-54.21361398398302
-51.93167419246583
-19.027464372842573
16.204396351589754
27.515084543611806
14.13782722768052
-10.231390676561134
-23.841489944093475
-32.33926074661565
