AAD_Filtered_TADAS_FILE
AAD_BASELINE_CORRECTION: BASELINE REMOVED
AAD_FILTER_TYPE: BUTTERWORTH
AAD_FILTER_ORDER: 1
AAD_LOW_CUT_FREQUENCY_HZ: 0.025
AAD_HIGH_CUT_FREQUENCY_HZ: 40.0
EVENT_NAME: 202302060117
EVENT_ID: 13194
EVENT_DATE_YYYYMMDD: 2023/02/06
EVENT_TIME_HHMMSS: 01:17:32.00000
EVENT_LATITUDE_DEGREE: 37.288
EVENT_LONGITUDE_DEGREE: 37.043
EVENT_DEPTH_KM: 8.6
HYPOCENTER_REFERENCE: AFAD
MAGNITUDE_W: 7.7
MAGNITUDE_W_REFERENCE: AFAD
MAGNITUDE_L: 
MAGNITUDE_L_REFERENCE: 
FOCAL_MECHANISM: 
NETWORK: TK
STATION_CODE: 4405
STATION_NAME: 
STATION_LATITUDE_DEGREE: 38.8107
STATION_LONGITUDE_DEGREE: 37.9396
STATION_ELEVATION_M: 1147.0
LOCATION: Kahramanmaras_Pazarck_Turkiye
SENSOR_DEPTH_M: 
VS30_M/S: 579
SITE_CLASSIFICATION_EC8: B
MORPHOLOGIC_CLASSIFICATION: 
EPICENTRAL_DISTANCE_KM: 186.63
EARTHQUAKE_BACKAZIMUTH_DEGREE: 
DATE_TIME_FIRST_SAMPLE_YYYYMMDD_HHMMSS: 2023/02/06 01:17:44.1889160
DATE_TIME_FIRST_SAMPLE_PRECISION: millisecond
SAMPLING_INTERVAL_S: 0.01
NDATA: 13501
DURATION_S: 
STREAM: HNN
UNITS: cm/s^2
INSTRUMENT: sensor = CMG-5T/GURALP | digitizer = 
INSTRUMENT_ANALOG/DIGITAL: 
INSTRUMENTAL_FREQUENCY_HZ: 
INSTRUMENTAL_DAMPING: 
FULL_SCALE_G: 
N_BIT_DIGITAL_CONVERTER: 
PGA_CM/S^2: 91.118
TIME_PGA_S: 
BASELINE_CORRECTION: BASELINE REMOVED
FILTER_TYPE: BUTTERWORTH
FILTER_ORDER: 
LOW_CUT_FREQUENCY_HZ: 
HIGH_CUT_FREQUENCY_HZ: 
LATE/NORMAL_TRIGGERED: 
DATABASE_VERSION: 
HEADER_FORMAT: DYNA 1.2
DATA_TYPE: Acceleration
PROCESSING: Automatic Paolucci et al., 2011
DATA_TIMESTAMP_YYYYMMDD_HHMMSS: 
DATA_LICENSE: U (unknown license)
DATA_CITATION: Turkish Accelerometric Archive v 1.0 - Disaster And Emergency Management Presidency, Earthquake Department
DATA_CREATOR: AFAD
ORIGINAL_DATA_MEDIATOR_CITATION: : AFAD - Disaster And Emergency Management Presidency
ORIGINAL_DATA_MEDIATOR: AFAD PROCESS SERVICE
ORIGINAL_DATA_CREATOR_CITATION: AFAD PROCESS SERVICE
ORIGINAL_DATA_CREATOR: network: TK
USER1: GuestUser
USER2: 
USER3: 
USER4: 
[...]
8.255273669033885
2.118020523899454
-4.323336101894204
-3.909835967655733
3.339807603581502
3.4758093725536554
2.0341358295897893
-1.741829388135519
-8.012153380902554
-2.3415101226058774
-4.907072138182099
-1.9129683367802197
7.655701453909461
1.6278183525552508
2.3799822083173416
-4.433419679847311
-8.682200187489983
-2.3111146542454883
6.270931729527987
14.26815092386526
5.971490359099208
8.135851777161658
1.3140711384177326
-12.39872145044555
-0.9241737640892165
1.1098980974669654
1.5436766998437377
2.2294611893374667
0.2679817675819493
12.11021229457916
8.364145131898292
6.865460528737925
14.729904502103855
3.774751923454101
10.602763562523077
10.409801825667998
2.813620230302129
12.9218597200367
6.13975461684661
3.815079426013974
16.31836760048986
10.268085115796639
9.862695118724632
20.741104888888177
13.048432011929203
7.665096922236566
18.50343005952629
19.23107387518102
15.23727298527692
20.05818125201459
13.744456949158977
12.780513508026939
19.16258026566055
19.435797740472786
22.88506581333343
17.093417917846065
17.09566963463801
19.031296201254897
6.428292010911004
13.981689037507735
17.993480755386603
16.07740143847508
20.157318528864042
7.993086279882399
2.568668302749203
5.323804422748433
6.2368844056112716
14.653675324829617
18.445361009293936
15.070249336266388
17.23792108865365
18.993366002549095
9.66756298078205
5.514542412689964
11.785636561763674
8.968555266563
6.978370891183854
16.227159633766842
12.247671911927716
5.312055804370428
4.297309102738417
2.8964350546904596
9.25425613046054
7.139454610847284
2.973900534393281
8.401414192392535
12.293907781527993
18.90703559250407
23.0561796472737
7.957784180103808
-0.5811770271688764
5.7158880150951585
3.1164686481905353
8.027707188521433
12.268685597826092
-2.019975158226794
-0.24826378749306247
7.540723578253783
-4.174728542633075
-6.824325429512762
-2.5197892417174135
-4.905971590385037
-1.3721930447078357
-10.494735026355412
-15.001476606866623
-4.360658028733516
-1.8983054321719943
2.724580229065317
-0.9846164721273108
-6.698924699809646
-1.9210683023615815
-0.23487742616474022
-1.9032286223547386
-3.2703248030496406
-5.704884615787568
-4.594685339900033
-0.48665207753481704
-8.530457710853721
-6.184560639695746
9.248131902337231
0.21789038244811898
1.0710135372765084
14.660742709582168
5.078417560017797
5.839970717104146
15.610128060190295
5.09191809253827
-2.6115577769972846
0.29689830738841516
4.172868699268002
6.442376376027172
-3.997993896375342
-15.667316818190072
-13.184512353733933
-10.437065902982793
-13.667820276191444
-13.319417338850489
-13.158740307623018
-6.842374985450358
2.733974015639712
-8.11820950483274
-14.928335836683845
-8.568661628308856
-22.950218503651488
-27.126200116175056
8.326508092051427
13.62982409532063
-8.58668261254105
7.526758163278566
1.8192310732447097
-27.094434545257553
-12.118903999422468
-2.0711789492775887
-8.660069707782485
2.7187318451182665
0.662726212524341
-2.1515242907756704
7.806255971169033
-12.545510735050572
-26.602890973131085
-19.426664124063826
-23.474046694712765
-2.5834299737781636
19.022130378300524
29.553917214764887
36.85709670466226
1.16818364187121
-18.754714276841103
-12.59735606722628
-21.760026291908872
-2.1652251311184862
12.133930739169433
18.942432381426208
30.57739277432991
-11.691814297506927
-27.484407925316518
0.29274344650553524
6.107163640585494
13.721987948619885
1.943143802710088
-12.89203818043616
-5.109820044895685
-1.2019424572044457
-7.071544250872574
-9.47809655937545
3.132720519454105
-5.917682204884119
-0.9116679556054949
11.46506972665023
-3.5070611164661076
6.718567001418729
2.439491361998776
2.2302734582665167
19.622827758975156
6.4833497040834915
-7.545115032857254
-26.13203985438505
-38.777906598666995
-11.21672992474792
19.105703037641952
9.211208266857438
3.8247225250081778
8.095815884523182
6.55677701744999
-2.3300523767043
-19.33677752022448
-2.4262555539021613
5.848536836267399
-13.061596901494324
-14.07992438745382
-5.564544029568411
1.4099547194290205
-14.148055404507405
-11.368202486131858
19.126814620934603
25.335446148476382
2.603437620294995
1.576680587516462
47.67357193022581
28.852728479455752
-19.498775156493608
-9.09987115991033
-19.153574859586588
-24.210672525284842
10.201533061546835
-6.62420701915122
-36.405142025038735
-8.590812241899814
8.881425547595299
-1.9010825044131991
5.075402499343742
16.098388219653927
17.827932745562418
15.361351248567233
1.3750676537935091
-7.175236078696041
-3.406154681115148
-5.268202885249793
-15.678314490772683
-28.088165059756548
-22.556755778714006
-6.749174724622572
-7.394546757753055
3.953771597626336
13.166975140279577
-20.926631992622724
-26.50555782157033
10.06087571405818
8.326155913347216
5.059130647553429
6.633208582110644
-3.181606329209619
3.4458295311727807
-8.039530737555056
-24.217079413046758
-18.522230094352242
-26.653196329765816
-24.576752432016676
11.478881240210374
10.83934563290744
6.715350524012532
29.3977517427443
-8.055942630558176
-31.533718284359324
1.7125708286950962
-6.953564339983147
-1.5243141421888773
31.598759669725357
0.1424410701470639
-13.969239157282994
-0.4587650478767789
-42.9643852849511
-38.73107552418638
-18.11434860815016
-52.72580498738642
-35.1303973992353
6.8848907245012825
-1.498842497943657
-18.28879360745087
-20.909264848828077
-23.654522615568535
-10.603056059205569
-13.109602296091131
-47.36082321121266
-16.101019118911204
23.91276326072431
-1.8035620252911557
6.0850820113835065
9.14590601537173
-33.54498035203908
-19.969718567211217
8.01713363030125
-3.3339795403379715
9.158912719979735
6.158925247548045
-18.36949665044395
-5.155411436295544
10.8002041479045
-3.1023257132481277
-20.449093985305925
-27.81082382083278
-21.290761227963262
9.23313907479377
20.009783857969392
0.8542709590570992
-12.693160702897144
-16.28521661672028
-4.900810461658663
-4.92494896461356
-17.312666121507174
-26.65467868385867
-33.81356550681584
-1.7074289312985635
12.362518764833997
0.2573951324588691
11.08684386947176
1.0165332879804938
-22.12804814208634
-10.830320055359072
21.65703998874547
21.57310073982615
12.906482374430661
23.4564338643118
15.227405407620713
1.17978187102827
2.95275994527512
-10.188370190283768
-19.889131977897193
-5.113934486308666
6.284706208197893
16.091810894699673
23.574418787116354
17.28907130810612
2.1768718884454743
9.436515278270669
38.4066746771125
34.60146318557904
19.533389022262757
36.66615683831652
39.489248318461065
22.479356332538654
41.54361211982924
49.33850680228795
28.574622761272035
49.832522149534476
51.08083936807939
4.757314877893989
15.80290514775657
28.190597500308872
-15.08302332881946
-0.9665352049625348
35.40729682157142
14.603437690542906
-4.77962127680824
-6.115005324316373
-1.0116978143228466
5.140055247608638
-16.069004427978467
-32.499281947736584
-24.629895719281485
-32.04932821501252
-21.90807515217016
3.5844178940973794
-3.3212361096420135
-27.47424619018947
-39.50752453679676
-12.510402491962317
18.925341050713552
14.276887895454658
2.4966851355924797
-20.049241811713586
-43.94033974257505
-33.04146878537523
-21.925611412628836
-26.840375436779805
-33.71963516801594
-53.86801970436727
-51.76324303832775
9.675164645929147
63.74176910032965
47.10816681533491
30.26212763892526
38.18491092385087
28.901238823946425
19.32139850073348
19.49371498662322
30.920535974320092
59.2730872445548
63.711127388466906
45.719186231502256
38.087835683899435
3.0533678931238777
-49.92981536195845
-50.47849094569076
-23.29007084061695
-20.738809409381155
-9.774926011462318
0.4406315568343494
-16.093472217098753
-21.31267610260478
2.880530065452685
-9.263393919436167
-12.055377353248888
30.29530503434235
41.462563815801985
42.75911965632103
29.385659774553943
-27.74632853797711
-48.019472542176594
-18.345603116683947
-5.409584927417154
-2.007965604524144
2.030983762519108
4.303670362338889
-23.11682748726644
-63.18200130176648
-38.67455121645579
4.594462307853409
3.068613644538293
9.924808005347597
34.44833829852148
37.177150786636595
32.55226563039648
22.07288643847262
5.919305518383669
6.293788404291801
23.455658269894233
14.820561190277596
-23.136918966939525
-54.65178943778126
-81.239654409537
-77.13739068423503
-58.182168037108084
-57.119712044459014
-37.91046038120148
-13.712314868479845
-4.672684553286091
19.115306577671657
21.621350125335525
8.52555321228428
21.292820054619458
23.53705661851731
16.929961461152757
6.468645267094219
-13.311322224419994
-12.558187856206056
-25.36357595103618
-40.41391308787509
0.2150613977011031
44.54840623537547
32.73628520865919
-13.305812196595916
-35.97321403862313
-6.019690909479375
38.60627378771636
64.20318576646959
66.30091545991701
46.9874733086287
19.61042321141994
-13.152113762087694
-50.39014115892283
-59.89660254036121
-38.64765448567187
-27.540628952997864
-1.81448827224342
42.13973004487787
60.16046131767186
18.409345799069467
-52.11057841973305
-67.42964249816545
-36.089916314808384
-12.654172065161433
25.194781458177566
64.02625338143612
42.31329572823031
2.1783202520720626
-36.08167920582285
-56.21465766181743
-48.35919498545216
-31.13493164633666
-15.137237570103432
1.0291639548778837
40.05229740383506
54.592192938188276
30.18286738248095
5.758081532033558
-12.044042703058816
-27.63219426590405
-37.2958870745917
-41.74576732848408
-10.947788728273975
27.43507418687726
33.38140439119096
34.00175906671437
31.453984832113772
12.989185861326387
-11.583451247915045
-15.302434966062021
7.37480896533278
20.64187648710341
13.624697974154559
-2.2607738298181643
-23.48771548955623
-25.451235108232552
-25.03392477293143
-40.74843956333002
-53.66943390608398
-43.785273729969035
9.89635280733102
62.674589158666194
72.47911117770933
56.475971039358214
22.90819295509607
-16.095307072331163
-33.55538757247443
-10.658196681897373
24.946034667258747
38.39882203629775
42.69289198251112
56.91134130088668
42.639667984393256
16.68304645835222
23.910820033521308
9.538792468589552
-14.630676342275905
-4.260527091030676
3.501784835644926
-3.4530248406627546
10.007594319002035
41.15790062376428
43.58815883923298
44.074928345759126
70.03582599261297
51.790001255848765
9.180139946039947
6.380591371627137
1.6154272127205989
-4.773064686973275
10.922662522930345
1.7868104849870958
-9.65138784381486
22.775300281185714
36.33624087537603
10.608351953524743
7.439186683759901
13.2825292442841
-6.460463239084817
-2.031177940562009
6.853396798565294
-35.577853060559114
-46.188993577307556
-27.14993637011441
-28.33003466715432
4.60465231721332
18.28262782980849
12.644413545341441
34.95582125312448
19.929614198952066
8.487316239941173
13.378920632816401
-0.8222636238469857
-5.04944737520496
-15.725645994866522
4.194284945493706
14.37585077253147
-10.71679687874011
17.82913970998451
22.23381415191618
-15.29570107434431
-15.38923184081072
-7.648460405167242
-1.236269397045301
9.731682302678902
10.786087644418279
0.8789213022505465
8.298558196392788
10.764942452579268
-22.46668370345625
-51.23042016565089
-53.44910641095975
-5.306126958169718
35.38587378664563
13.67732233457984
22.686608316019598
33.3265256074661
-27.960080717560544
-47.1498755469124
-41.788221327733815
-67.19122338953525
-51.602013274713634
-29.459525257772242
-24.598147418785206
-18.671017582382103
-9.908125606722315
8.911624616530197
8.82641804206003
-1.6703697923922758
-13.574624747845476
-37.413729358221346
-43.33630750394093
-26.891226641476717
-32.14088943234099
-24.153343193777985
4.274494493018826
-18.053467917439185
-27.410815921701484
2.232628463408256
-8.436811402872012
-27.690604483059552
-19.138949408501308
-6.169519430757252
-5.288586321148668
-18.398559109775366
-25.820944005522446
-30.855319789518
-19.845491359947438
13.931416111099688
20.37926069895316
19.633037137501518
27.335430819942314
11.024818247795514
7.106416106065316
18.446157437761002
23.811635588814923
41.43029013519432
48.57166698107436
24.85918639869742
-3.894067749882286
-25.76731367938243
-48.24671230984964
-46.92226832627519
-22.06972875070323
-30.35289238841996
-23.712239765494687
24.2545066857029
31.139380578394956
14.383359699030105
0.08423306284563324
-15.840313418876084
8.20927479670266
37.42639770921911
37.938184049423086
39.14589861931451
31.149342237283005
8.910799533364713
16.61947318497417
24.928629341977032
-12.173082188460597
-39.137006059304824
-27.81068544746921
-1.9945501352956232
19.690155329674518
26.341334470782424
3.687950995280319
-52.25321410157653
-67.39712366870123
1.8168269616613308
57.89563417379754
71.5785465305911
47.901592731132745
-16.89322961149658
-41.364837115225555
-6.6985826420602965
16.912641973163673
25.409269031572133
36.500918944694355
9.639366343496862
-34.17110547161853
-81.07532205712265
-87.28300176564821
-2.3637767851332976
75.34543156431829
45.768122759221775
-31.514182608091456
-52.5639119692414
-12.626593684342403
37.30440584440376
35.3773968910874
-12.465820647649764
-21.715550815156213
7.051193847458678
26.44756860580861
42.715939718221215
26.600286955056102
-6.639720758820798
-7.618374216813547
-17.04138030245447
-37.24387811354574
-19.648625763240677
25.758928670483808
38.91489438331756
10.537503368120332
-6.183185298741201
6.178975137771872
27.460563145065148
29.368316365469344
5.7460500171408215
-13.160429943717677
-3.1628511681767657
4.5250526630339065
-15.974828312954214
-33.144194791292335
-24.758986996983282
-2.1876284916277853
30.795907303259344
53.04150893656618
65.00942702252333
77.87802911318875
32.91649054678647
-34.672601961388736
-27.558803534343568
0.4025758569604032
-1.954891390320797
5.697599913994012
11.694384866643151
13.609519046242946
16.511334082433056
4.855770332882554
0.346220724461613
-3.397281986299942
-6.887635874688103
6.1935430115908545
21.840125846768373
33.706710372374566
29.383347191189618
-2.452838271030727
-3.380317210734705
18.251286904730094
13.933445665038931
-0.42229823561463503
-18.383275892377295
-21.03054280321909
-8.061141637185344
4.134761664381749
14.52123799328534
25.121913342485833
33.39859988447411
30.52582706680914
23.692795900405997
10.403649099356892
-0.8839745221808606
10.039158416944915
22.925344506622025
36.97512515547833
42.40314342464016
16.444492768215056
-2.706004344260477
-0.156138998961863
-11.697500248297894
-21.35541719134475
-14.730310843356348
-6.647042218517385
7.84117539941909
18.20138029921337
25.559908149246592
26.006810002122823
10.982160472469914
4.3398574636174105
-0.8043902531929739
-11.53122655022506
-12.75127242989409
-13.060197764731507
-10.59308882878269
-2.121157103416534
-8.905713437093587
-22.51752788534599
-15.816676413550837
-5.592538361286098
-6.211015441368877
-4.852528825393167
-2.9981010837714392
-2.3281843003412552
1.5665409210253962
-1.5816358325697781
-2.5423710875948524
6.447966446881557
10.5024157273911
16.80443229152539
24.977938735579222
24.027536406824222
18.790967052828535
6.492027438214981
-1.2821290241956373
6.1688295986596
8.023746997941867
1.2795165385559348
3.444821112753563
17.003612988170282
28.341589186659075
29.326811452001007
15.944222204201694
2.2167052995341803
0.03859816167986908
0.012838911889702787
-1.0311752117377415
-0.4215857915747902
6.896286473818705
10.593129557168044
-2.456172716615162
-14.75618465053713
-13.641203382325244
-5.472024632829782
10.91693084229564
25.79765165412103
26.141861224940353
16.965279012715666
5.5005058005206
1.199595494677543
3.5718960897029413
-4.141748936405521
-2.427703907350663
11.263873298181084
8.097441865111145
6.969903901742756
11.159921957666427
1.778462239832947
-0.30592316154156113
6.130422961344481
9.71342877708658
17.352367700568735
16.33764225242284
1.9344279447632
-9.635221975675417
-5.740029586954539
2.0552427497700063
-0.16566871493263127
-8.1317496204842
-10.242386028801521
-6.375523412104041
-1.6199746710550211
-1.0042103406828036
-3.0101887051657057
10.88791913810349
24.166607231043272
21.004024189606145
13.234550469540265
-0.7635879311610435
-11.178071277808275
-10.713059200250363
-11.565225874147897
-21.342249814687868
-28.762800087802418
-12.213468720055742
9.487426849414565
8.49781781948886
2.219295459605025
-1.396815128472759
-1.929333028701806
3.2893940397607806
6.7708479286384335
10.638904218266315
13.2963690936195
6.769653171021322
-4.429612682903764
-7.49673842935574
-12.191340102845494
-13.886204251743326
-3.1829551988872726
-0.24458925177458168
-8.055406768454848
-6.441695283619395
-4.108408302194681
-17.080477693565854
-18.598758044334467
0.8324217041523895
10.232881137120524
7.315409329797075
-0.5053244037847953
-4.063171666360826
1.7261766725203689
-6.781340216691455
-19.438983133842513
-10.031831394681044
0.41657397672198004
-0.6296953628843553
-1.5952333039226365
-7.258547107697041
-6.669135983266541
7.755066894833633
18.95446596332578
16.568237388957325
7.812076347580393
-0.34262684328635407
-7.574096362979701
-6.938166799742669
-0.7054062848386343
1.7192490137966738
2.5972003745485384
0.8092539773748816
-1.1139930097899045
0.8430025046213443
1.7583951631926313
4.8465325350335835
6.192889322378038
5.684227517094314
7.131046770416928
5.813758808469668
6.556273444756302
2.760715350207446
0.42346419191692736
9.345359477457329
13.519135125801286
11.343078036711576
6.907352362406831
0.5846752221931687
-2.9915337116612823
-0.93847585060848
-0.09847630088176088
-1.968636138817402
0.8747857050649821
-2.9502868405328178
-7.4699633235370495
-9.508828260928393
-17.924015758219902
-15.134224078408359
-2.9926858296931904
1.779021512914121
2.4248860257794114
-1.427775418292434
-10.536095428345332
-15.939654251279066
-18.350457195336734
-18.887948548720228
-11.097475438575742
-5.691147327416347
-14.409088646748517
-24.98990826941435
-30.3973718334955
-30.030036176291066
-25.675317040474656
-25.923864822279963
-27.782774041373404
-18.515866415047057
-9.952425527422195
-9.630309984233097
-6.540800512157227
-3.9016042941566313
-2.2804220182415245
-0.169814987512532
4.139009401661594
10.757904043830663
9.694596898435924
-3.8866134965102073
-13.650871777612224
-13.197136121173443
-9.156307659210853
-2.8917055468984514
1.430694819500541
3.758138256901979
5.608150761066462
2.4134481638065153
-7.517910016696855
-19.55808559028979
-28.57046050241193
