AAD_Filtered_TADAS_FILE
AAD_BASELINE_CORRECTION: BASELINE REMOVED
AAD_FILTER_TYPE: BUTTERWORTH
AAD_FILTER_ORDER: 1
AAD_LOW_CUT_FREQUENCY_HZ: 0.025
AAD_HIGH_CUT_FREQUENCY_HZ: 40.0
EVENT_NAME: 202302060117
EVENT_ID: 13194
EVENT_DATE_YYYYMMDD: 2023/02/06
EVENT_TIME_HHMMSS: 01:17:32.00000
EVENT_LATITUDE_DEGREE: 37.288
EVENT_LONGITUDE_DEGREE: 37.043
EVENT_DEPTH_KM: 8.6
HYPOCENTER_REFERENCE: AFAD
MAGNITUDE_W: 7.7
MAGNITUDE_W_REFERENCE: AFAD
MAGNITUDE_L: 
MAGNITUDE_L_REFERENCE: 
FOCAL_MECHANISM: 
NETWORK: TK
STATION_CODE: 4409
STATION_NAME: 
STATION_LATITUDE_DEGREE: 38.56063
STATION_LONGITUDE_DEGREE: 37.49076
STATION_ELEVATION_M: 1055.0
LOCATION: Kahramanmaras_Pazarck_Turkiye
SENSOR_DEPTH_M: 
VS30_M/S: None
SITE_CLASSIFICATION_EC8: unknown
MORPHOLOGIC_CLASSIFICATION: 
EPICENTRAL_DISTANCE_KM: 146.86
EARTHQUAKE_BACKAZIMUTH_DEGREE: 
DATE_TIME_FIRST_SAMPLE_YYYYMMDD_HHMMSS: 2023/02/06 01:17:37.3461730
DATE_TIME_FIRST_SAMPLE_PRECISION: millisecond
SAMPLING_INTERVAL_S: 0.01
NDATA: 12501
DURATION_S: 
STREAM: HNE
UNITS: cm/s^2
INSTRUMENT: sensor = ACEBOX/SARA | digitizer = 
INSTRUMENT_ANALOG/DIGITAL: 
INSTRUMENTAL_FREQUENCY_HZ: 
INSTRUMENTAL_DAMPING: 
FULL_SCALE_G: 
N_BIT_DIGITAL_CONVERTER: 
PGA_CM/S^2: 28.491
TIME_PGA_S: 
BASELINE_CORRECTION: BASELINE REMOVED
FILTER_TYPE: BUTTERWORTH
FILTER_ORDER: 
LOW_CUT_FREQUENCY_HZ: 
HIGH_CUT_FREQUENCY_HZ: 
LATE/NORMAL_TRIGGERED: 
DATABASE_VERSION: 
HEADER_FORMAT: DYNA 1.2
DATA_TYPE: Acceleration
PROCESSING: Automatic Paolucci et al., 2011
DATA_TIMESTAMP_YYYYMMDD_HHMMSS: 
DATA_LICENSE: U (unknown license)
DATA_CITATION: Turkish Accelerometric Archive v 1.0 - Disaster And Emergency Management Presidency, Earthquake Department
DATA_CREATOR: AFAD
ORIGINAL_DATA_MEDIATOR_CITATION: : AFAD - Disaster And Emergency Management Presidency
ORIGINAL_DATA_MEDIATOR: AFAD PROCESS SERVICE
ORIGINAL_DATA_CREATOR_CITATION: AFAD PROCESS SERVICE
ORIGINAL_DATA_CREATOR: network: TK
USER1: GuestUser
USER2: 
USER3: 
USER4: 
[...]
5.929913583015955
4.812260659881023
3.9226579763014384
3.5662040352118205
2.956575395975381
2.1200402743690985
1.6964328977684808
1.3422916665374465
0.8741321960468145
1.1177195627916348
1.962863377648258
2.272604785711154
1.8663466829927486
1.3363327073197535
0.7738717549772387
0.1558850488785216
-0.15394982282417166
-0.0249423384543605
0.19854322694940454
-0.06705875336104782
-1.0428094367708773
-2.103734501685234
-2.7449783511051
-2.880221308374385
-2.2189726345298486
-0.9850879639490784
0.024674729834019304
0.4230001078032702
0.22578357188656312
-0.3902471357168915
-1.0983247790850061
-1.406281064598111
-0.7716168300518537
0.6453516691152192
1.875920554392051
2.497741300480634
3.001783171287978
3.516912035831837
3.678486156476742
3.480207211385323
3.173368125759949
2.9041230793540485
2.69786979107624
2.5695824578326536
2.6885130120432503
3.155459979397538
3.6162580825301784
3.684957840488959
3.632646898044248
3.770555037740587
3.9143884793730614
4.055573014676512
4.228454367112782
4.20440560569098
4.031207211352639
3.8594960050070357
3.5022724460088845
2.626375668117435
1.4215040306565063
0.9985279323916099
2.072710231373431
3.6898854979803155
4.313777660708338
3.4660619831628248
2.017383196189801
1.1244573597445358
0.8443954240557616
0.20236995953754613
-1.3463481434095506
-2.889337178099104
-2.97038076103645
-1.6266893835706784
-0.28046478379889117
0.24215445430641702
0.07932572538878929
-0.5159304662935554
-1.3540133606323241
-2.12605161317842
-2.55123132209764
-2.708460265426859
-2.7527560015014836
-2.596735961755704
-2.3955281087068845
-2.6244307476143067
-3.1424686587590207
-3.058680981294455
-2.1918536089345277
-1.2824813497040628
-0.5102907797587369
0.34940621035418123
0.9774022717008074
1.3478851723816152
2.4123983695574114
4.315839277486492
5.393834409239479
4.838846854435498
3.92227299635465
3.711090056328631
3.9511185156987056
3.9200318080215895
3.6565646425873006
3.6485640362763454
3.569744112146897
3.0941963507841055
2.542546643932832
2.0580625124729166
1.4051371668369455
0.6692436682463029
0.677379683346944
1.3706726176671598
1.762566394297834
2.3768127059921893
4.141457748688377
6.453096956473686
8.275118765693433
9.37578728754898
10.407576136400417
11.507745588149405
11.769923612769423
11.114579400491658
10.68067375048086
10.672865576381108
9.951094665731809
8.381203517307407
6.9056327592037166
6.013033618463547
5.407323866604593
4.073097450113034
2.7093845564124934
2.6787340718276185
2.975063374548335
3.4064898161149997
3.9563531271408876
4.223545790913826
5.291623713925402
5.475873014258961
4.629603041801856
5.226922994266204
5.169298735372693
4.856937092054122
5.535603634220215
4.5576779339872076
4.313409381222431
5.187632658943875
4.428153469089111
5.2394560682190825
6.391346244375452
4.4623591401500695
2.412115382860024
0.6609950674761934
-1.2761804754040693
-2.023450302827141
-3.190659908849747
-5.160121185655401
-6.539536236490991
-7.452164402227888
-8.17730664636983
-8.884446415164565
-9.109352583596685
-8.671307342923786
-8.498781242179607
-8.482784676505696
-8.307339729386442
-8.596242915799364
-9.156200080871816
-9.393236602222327
-9.873636299100987
-10.302321912546585
-10.001353397980953
-10.203002227215025
-10.038004878160562
-8.587011542714547
-8.925749901293713
-10.871055076744337
-11.863726083449723
-13.065686774457625
-14.697103981591896
-15.307941761614552
-16.348866451579436
-18.260189835750467
-18.3544989213201
-18.436735236973217
-20.574407794952023
-21.373247596687516
-21.530032014480124
-21.894272350632907
-20.548814446069343
-19.91780746818214
-19.005384997100663
-17.0646533751544
-17.692128794118652
-18.59250135230278
-17.33068562227037
-15.094764029311877
-14.077766954920286
-14.481870555123963
-11.44396317804772
-7.786150320119063
-8.924383093378099
-10.0615793675912
-8.502042775653448
-5.983828728269474
-4.480560213441871
-4.299949871528915
-2.2947275019429654
-1.3487558217075883
-2.4403028566040676
0.05914303510749617
1.8972744644216284
0.29848811981321427
2.611702422433759
6.571227986542525
6.243827722737504
5.803354845627873
8.088129438339427
10.8870181308121
11.646609051561938
10.45539265979461
12.593170604775977
16.160812728904403
15.32574856057921
14.997415011334665
15.842862440063962
13.583698156185644
11.94919919692607
12.523888294715624
13.24151312855415
12.431659467116326
10.819210702735926
11.51356926922759
10.466057197834433
6.699149576071729
5.753542143910975
4.747411989415595
1.6362509260564984
-0.7677292435743858
-3.7797532947725885
-7.297197949793057
-8.196650051793565
-6.776719636124096
-6.839080976101273
-7.576954037262699
-5.519053573688207
-4.4324591695080935
-6.401516062299423
-7.210713048134159
-6.705404763071482
-6.208470966963348
-4.924598810953951
-3.2093120060344678
-1.3598513906095198
0.33887225782932573
1.6818811612514801
3.568694712460756
5.103775917685152
4.67448326614344
3.6412992820426533
3.4519923878542347
3.7405861103095552
3.9316566457295674
3.2053166115611083
1.7061129141891664
0.13123790677373182
-1.5375620794565983
-3.478060542914184
-6.297714399801112
-8.711745876168509
-9.15956782127599
-9.467904720907548
-10.278315424716688
-10.469797193995785
-9.731981575407229
-7.964971983903447
-6.750045530946734
-6.602938805561027
-6.224582208327219
-6.306127362064869
-7.159126473783905
-8.070294907386174
-8.9428450365598
-9.00872487216994
-7.807268510598353
-6.29576521766623
-5.684403440246215
-5.727185451421626
-5.36067594444569
-4.411558215157004
-3.095967796783777
-2.47949981769377
-2.7359778952437575
-1.8628197136253146
-0.10075853440893616
0.828235247605386
0.7102409901895901
-0.49424922676303423
-1.9240459040625857
-2.6659270973291456
-2.7067977161262666
-1.3531229553915476
1.0029527033664274
2.5846337980385283
2.8059654086173014
2.865399458509929
3.7266904338018563
3.6182678014547327
1.312904590667924
-1.078620530669985
-2.7600688323036278
-5.2675354558253416
-8.60740294705683
-11.53297678950485
-13.92570334938999
-16.214639588869087
-18.02877067297567
-19.228836497818012
-19.896457516628878
-19.612420989243308
-18.6657049265839
-17.26132248147336
-14.985203670662058
-12.129869717118732
-8.945419289704056
-5.719683988578385
-2.7608323971392905
0.17154080075252304
2.2921843397786446
3.4315201713300607
4.977249684502781
6.410874043483902
6.456835309987754
5.507861933802056
4.037062153610362
2.383318629563643
1.0712967547780485
-0.04371316233742703
-1.1010833895123244
-1.6891981930432443
-1.9135666985259465
-2.162435330115173
-2.1007594059004364
-1.4944147486378707
-0.6688431060874156
0.2977535590145749
1.2913898686733176
1.756106230071908
1.7921294906956644
2.197202440035227
3.014803156117904
4.029449445027401
5.532068942187434
7.537029523009216
9.914331131218118
12.34371034580968
13.936710585126935
14.451090383423024
14.517472699659692
14.071220790003595
12.577175848717046
10.12991930350027
6.559465074879993
1.6814075029727686
-3.3016884529599793
-6.90683887656845
-8.491981391209706
-8.39317696172054
-7.790269646928988
-7.009748498369551
-5.650757169365615
-4.7060777763195425
-5.068989995218252
-5.38294110230626
-4.713583284673023
-4.148905709422072
-4.263463147421338
-4.612864105680436
-4.643973491292913
-4.0747050672759055
-4.063569255232346
-5.900650493804154
-8.426453699743806
-9.351557431329953
-8.753487573657349
-8.871995902840922
-10.174310298823892
-11.116826383252508
-11.134743445650168
-10.551861871288844
-9.69042159729863
-9.184471382914571
-9.594930202143086
-10.74159741200868
-11.994521680119481
-13.146000679782453
-14.121498475534791
-14.992136536787863
-16.167091507060086
-17.21095826089584
-17.923646917122927
-19.024023144612034
-19.924461453001427
-19.647520902909104
-18.519003128362527
-17.418859141020953
-17.114734547143435
-16.926922674232284
-15.743833279450648
-14.613300204389331
-14.71077583475596
-15.38233166428046
-15.90284306955587
-16.168460279104366
-16.304546991377027
-16.328425999548877
-15.2558317945024
-12.210344574949621
-8.263422902101794
-5.003818765987856
-3.103799326530117
-2.6989889717319673
-2.7573743964493604
-1.9655044877119776
-0.24703676235794722
2.1097732893821552
4.01840095362716
4.4520352716686435
4.8762662938166965
6.297629949488237
7.1313069588970714
6.445505638810993
5.302088422306693
4.769888798334593
4.200048388765006
2.88430116682482
1.9196045404759303
1.9497855151598729
2.3195418185490793
2.763324573271601
3.6309653331032505
5.277356009813776
7.299919909989608
9.318256809400678
11.505719876058652
13.145608521280584
13.5108734995969
13.011299356060254
12.287359495843312
12.146902648397846
12.986799394777233
14.056761378585527
14.212753165159617
12.864789285483162
10.767380259319939
9.071934844214855
7.44519886681715
4.946383296010965
1.9164916515485204
-0.649749131649828
-2.41865271499231
-3.0576281277192594
-2.219148848191757
-0.7978232213746909
0.3641176688071101
1.6306989243779169
2.9578057861077363
3.714719497528626
3.456783660427305
1.980304080703366
0.23151420456943395
-0.454301841311299
-0.18769682158366915
0.6315543257703958
2.2675158955912633
4.396157495160213
6.010331784836834
6.24652170783088
5.0722239829378495
3.4257192294987253
1.9728166656080748
0.86841374082205
0.30325147014031284
-0.531796609775948
-2.920538340352033
-6.071877039004397
-7.773742470109744
-7.781283765636374
-7.88227027941327
-8.500685426772908
-8.179099186111468
-6.396847957672208
-4.04661164533375
-1.7227412311063617
0.27591184536109464
1.3806640924995246
1.6701578521736389
2.093869247979146
3.112617168541877
4.094398450507531
3.9675646726779537
2.2932378127984485
-0.11714291503154735
-2.118579336861751
-3.573059446963539
-5.129773704109651
-6.639802317354775
-7.192860529380869
-7.329253236712291
-8.395821785735041
-9.942804103254227
-10.979232902658595
-11.651927382923839
-11.778985767721332
-10.728012130703586
-8.990924110752049
-7.629264077186565
-6.968872831357195
-6.862488268122698
-7.096242096321858
-7.38148691266281
-7.37588046524676
-6.906099556541237
-6.547746790302169
-6.831202345402679
-7.170626527579839
-6.96990991269839
-6.266841585649173
-5.111464788834749
-3.5257819720840775
-1.6336454045011826
0.007169302973300437
0.7475076732255387
1.0525882263414128
1.8378708536092634
2.870154800918118
3.317118996275562
3.295868089480031
3.8952652550470765
5.701601194737471
7.941610055648403
9.51014487823886
10.000197314331514
9.253621319737196
7.207403738390932
4.581420622221645
2.6351083623034888
1.9671556112343473
2.0808585751053044
2.078944447418544
1.2428152067668632
-0.5011595518863802
-2.4385087905667646
-4.012289205914475
-4.948806413460355
-4.753732981203047
-3.4845089094152173
-1.983678017701045
-0.9695736107733642
-0.40145445080412634
0.16586612573610357
0.47213797551767045
-0.1744431805628162
-1.7012587871212295
-3.2139852029133564
-4.064408646622074
-4.956182653168937
-6.460365667784469
-7.456628125204704
-7.431728528739996
-7.1968200659680415
-6.719042969362146
-6.0901008972778765
-6.672191287977958
-8.560628696435828
-9.925573942505714
-9.946282169213923
-9.819946808307177
-10.25681339261198
-10.153708230773706
-9.178312404448498
-8.513033758472387
-7.775743548105054
-5.488474201814598
-1.961579790416174
1.2623230188157812
3.47672050958653
5.38187694942551
7.3163353553957915
8.744239588112011
10.167309523750315
11.910943846853165
12.4991836421581
10.91924391729209
8.165495269015066
5.661448004259631
3.394336087302855
1.0353856444750686
-0.6953246694371755
-1.6360802505351428
-2.183299792078865
-2.2225558929501847
-2.0208018367960277
-1.7237715344092535
-0.8708543794026392
0.31491558725268604
1.2457251983759534
1.9287201957455404
2.475303731537638
2.777301171368878
2.9492022910656486
3.1230172078060834
2.8436485136430556
1.5392915481013374
-0.6155225359072531
-2.715234701457146
-4.000172125616082
-4.491788235033026
-4.599875304917634
-4.5548143404910215
-4.493396167402156
-5.01621098306499
-6.410737678373806
-7.708355562337041
-8.166922728670114
-7.8321888932936705
-7.211805920772894
-7.085381546452968
-7.030773750871551
-6.910500879988068
-7.424539801522881
-7.666811498155637
-7.293715948952256
-6.970627821206674
-5.841839887221212
-3.791751263775392
-2.170244626100713
-1.6140207845022994
-2.171150977233691
-3.501360806259187
-4.636137136011883
-5.035256497654362
-5.067238336718033
-4.357385968577241
-2.353472475160401
-0.39817407999053156
0.7600260895193862
2.0571975343761615
3.217843183480029
3.651080876759353
3.705498342699629
3.2050776172340636
2.3205299028394424
2.0533006373094436
2.7454631864684593
4.102282941128559
5.400214428396167
6.039207008061115
6.649565602287085
8.004698028754637
9.710413863840168
11.013017438250616
12.365344440355525
15.287755776707453
19.968334245820145
24.743431432979055
28.14677872196736
29.525328481627337
28.832603539352032
27.1303580919565
25.637801285387017
24.117800167698338
21.963584432295693
19.65539565758665
17.758982054570943
16.159893172091575
14.428207053752214
12.361579253819658
10.422037198885079
8.998232942003927
7.774912938841556
6.401928244017152
5.073391188922016
4.229925317714992
3.778743667409284
3.0270360086033588
1.5171728312246102
-0.22200678807235893
-0.9319149141311734
-0.20577102725836666
0.9432556328223235
1.4840786471842085
1.4083315309153694
1.4588563647926611
1.780987318252117
1.6027244024879845
0.9230047870882672
0.4029147044895285
-0.05480929421346859
-0.5697917562801861
-0.751648913572071
-0.6794281877828507
-0.947673029890338
-1.5062848899012031
-1.40485978569306
-0.6345099066233186
-0.6045238903124407
-1.460389904962933
-1.712963995944566
-0.8715495157124797
0.24794631054828803
1.003823271372537
1.4622800744560294
2.0315739742756036
2.557966889687008
2.4753743238108616
2.0237369354407115
1.8805821356853158
1.9224736748902724
1.9757938432182385
2.724150450108247
4.172888611354769
5.348785316237942
6.174635762405879
6.780291283303649
6.6029437780736675
5.724332808497327
4.352671772243018
2.4721243810677396
1.0683760570384278
0.8108579933549409
1.4080927982262668
3.2235393590558177
6.203148801557619
8.929138235397696
10.52540988792745
11.149373850750582
11.208413916846988
10.935624829047997
10.316417922558049
9.7274200362432
9.147380283614119
7.896866965169123
6.577099581788489
6.261348604746663
6.630863582905479
6.880797976638803
6.629641971430084
5.915471052507922
4.958792559138467
3.9183832903250275
2.785116546387349
1.500900186451085
0.5818187037408296
0.4069864630461974
0.2826115990921126
-0.4069229959514627
-1.2641547105790982
-1.4343218469261352
-0.9497224916234396
-0.715833669756508
-0.6817723707138131
-0.34302136018237234
0.10979019098563815
0.9470342758018344
2.3972813207828296
3.7538474487619773
4.781337576128825
5.730205896013425
6.4090839100109855
6.354090830062839
5.193944886627542
3.5974439638535736
2.882812008158848
3.151752835806362
3.459139877571107
3.271346916779955
3.1996768038141283
4.021921568757697
5.23091456449841
6.053086853726169
6.263593194287185
5.504031253122029
4.088399448599674
3.288913931398069
3.7816802088194197
5.22862765725643
7.067756853796423
8.868500720039048
10.400226655880976
11.581410761957137
12.349945768993564
12.650749093008942
12.230787204522477
10.97303244862552
9.520042269383522
8.531995038660735
7.7866885571365945
6.608102757906172
4.868438361232649
3.1720474717993286
1.9353930686769474
1.263725056605627
1.2053444112762695
1.3217615888631087
1.5406992291745278
2.7844555217502753
5.365260061290437
8.340833854980396
10.846727432137365
12.84593633554249
14.649449932690779
16.234311511298355
17.244326762450225
17.470861151349876
16.987307141798347
16.004731862562394
14.726645326395511
13.302431698071093
12.0613597224246
11.55574583738193
11.88864319654522
11.981087945049502
10.555046959962203
8.180810905919868
6.522585929966104
5.748469498560175
4.840658409902494
3.343278212621247
1.5507458949552624
0.2712456450814997
-0.13256615726615956
-0.6178204673296627
-1.7345018940252663
-2.78313501165519
-3.541174774789941
-4.2161208735563624
-4.66209056829993
-4.942351424657636
-5.177837526559966
-5.356179264707842
-5.279064655969191
-4.277140963165798
-2.31508173561777
-0.15695291455231655
1.955604435650583
3.616366655704695
3.995543223505852
3.654288450409635
4.143291948146919
5.621275005552559
6.539036570549154
5.957011822116438
4.822817844508833
4.055345388753716
3.5877984622704946
3.5763484312743943
4.005038139893571
4.202359447797606
4.058902529543586
4.183251947573525
4.801024860010957
5.356157895503032
5.070328644088188
3.9133443225183497
2.7531398050864504
1.936612282757581
0.79470834636262
-0.6241199655557746
-1.2129498165447217
-0.7020145829957616
0.004256431241530486
0.6366754824495582
2.0542693655245605
4.236094084804943
5.856403353389489
6.713749652662409
7.669968070854425
8.291134064987164
7.792301688091238
6.7789796115893015
5.739606820340028
4.3494983919915695
2.8014049777342325
1.7917656250701546
1.969780969729038
3.392218155878701
5.021383902141626
5.877088032104786
5.724792540921847
4.676107120252215
3.3611491774223192
2.405149154409688
1.9402203758605119
1.7775706261098079
1.266195524961213
-0.15362429690045273
-2.4488593734450603
-5.076448582107816
-7.099745965316639
-8.11512646683361
-8.518045426039349
-8.545835582234181
-8.348503001594837
-8.31637968195751
-7.995226730672438
-6.599035852969674
-4.958941469902979
-3.8631206134903033
-2.838398506274224
-1.769368016317405
-0.5356570395156326
0.3964187902731568
0.3939170205490525
0.7652887436375807
1.7584295211817083
2.125829450984598
2.1868360503640285
2.5109044828427134
3.4435499463284316
4.931241416842337
5.5813591065366115
4.953606179445732
4.194032845259438
4.06478095264142
4.300220808326502
4.366043596523357
4.139881580631974
3.701760587511332
3.5782629833392794
4.3466108933041205
5.569369842045663
6.516351218423951
6.778149032419375
6.243988016293161
5.713445493117034
6.2070669435085195
7.559834233786231
9.033091231730806
10.210217125365345
10.56453897563839
9.985285448221168
9.459461079265841
9.82100676866729
10.592590451256651
10.945385487149702
11.046170904428601
10.811436782979328
9.334823974054274
7.33642295156256
6.292505072665289
5.7840691199054675
5.01739998970499
3.8671756565512303
1.9111445724255307
-0.8719431679570999
-3.396785372773089
-4.298676927753344
