AAD_Filtered_TADAS_FILE
AAD_BASELINE_CORRECTION: BASELINE REMOVED
AAD_FILTER_TYPE: BUTTERWORTH
AAD_FILTER_ORDER: 1
AAD_LOW_CUT_FREQUENCY_HZ: 0.025
AAD_HIGH_CUT_FREQUENCY_HZ: 40.0
EVENT_NAME: 202302060117
EVENT_ID: 13194
EVENT_DATE_YYYYMMDD: 2023/02/06
EVENT_TIME_HHMMSS: 01:17:32.00000
EVENT_LATITUDE_DEGREE: 37.288
EVENT_LONGITUDE_DEGREE: 37.043
EVENT_DEPTH_KM: 8.6
HYPOCENTER_REFERENCE: AFAD
MAGNITUDE_W: 7.7
MAGNITUDE_W_REFERENCE: AFAD
MAGNITUDE_L: 
MAGNITUDE_L_REFERENCE: 
FOCAL_MECHANISM: 
NETWORK: TK
STATION_CODE: 4630
STATION_NAME: 
STATION_LATITUDE_DEGREE: 37.344912
STATION_LONGITUDE_DEGREE: 36.806037
STATION_ELEVATION_M: 531.0
LOCATION: Kahramanmaras_Pazarck_Turkiye
SENSOR_DEPTH_M: 
VS30_M/S: 347
SITE_CLASSIFICATION_EC8: C
MORPHOLOGIC_CLASSIFICATION: 
EPICENTRAL_DISTANCE_KM: 21.89
EARTHQUAKE_BACKAZIMUTH_DEGREE: 
DATE_TIME_FIRST_SAMPLE_YYYYMMDD_HHMMSS: 2023/02/06 01:17:06.0526130
DATE_TIME_FIRST_SAMPLE_PRECISION: millisecond
SAMPLING_INTERVAL_S: 0.01
NDATA: 5370
DURATION_S: 
STREAM: HNE
UNITS: cm/s^2
INSTRUMENT: sensor = ACEBOX/SARA | digitizer = 
INSTRUMENT_ANALOG/DIGITAL: 
INSTRUMENTAL_FREQUENCY_HZ: 
INSTRUMENTAL_DAMPING: 
FULL_SCALE_G: 
N_BIT_DIGITAL_CONVERTER: 
PGA_CM/S^2: 124.037
TIME_PGA_S: 
BASELINE_CORRECTION: BASELINE REMOVED
FILTER_TYPE: BUTTERWORTH
FILTER_ORDER: 
LOW_CUT_FREQUENCY_HZ: 
HIGH_CUT_FREQUENCY_HZ: 
LATE/NORMAL_TRIGGERED: 
DATABASE_VERSION: 
HEADER_FORMAT: DYNA 1.2
DATA_TYPE: Acceleration
PROCESSING: Automatic Paolucci et al., 2011
DATA_TIMESTAMP_YYYYMMDD_HHMMSS: 
DATA_LICENSE: U (unknown license)
DATA_CITATION: Turkish Accelerometric Archive v 1.0 - Disaster And Emergency Management Presidency, Earthquake Department
DATA_CREATOR: AFAD
ORIGINAL_DATA_MEDIATOR_CITATION: : AFAD - Disaster And Emergency Management Presidency
ORIGINAL_DATA_MEDIATOR: AFAD PROCESS SERVICE
ORIGINAL_DATA_CREATOR_CITATION: AFAD PROCESS SERVICE
ORIGINAL_DATA_CREATOR: network: TK
USER1: GuestUser
USER2: 
USER3: 
USER4: 
[...]
-0.4957864771938983
-0.4316317801201538
-0.12123415375745218
0.4682703401062948
-0.2314542260386246
-0.4110971758989071
1.0502694885644948
0.6492660934300113
-0.4139178709978117
-1.281032250053578
-1.5007383580880613
1.1421763566788516
2.2468975634488997
0.29835103572270416
-0.8069031898335652
-0.3680703774199299
0.7693296824854592
-1.1147411428330412
-4.886333930438157
-3.721508470055511
0.19977324059554347
1.4538909990081101
1.2100510219239238
2.3207236299127123
4.622612405118312
5.592014223250673
2.8903403267956222
-2.110573281854154
-3.4936389790434204
-1.786660371235287
-0.8402348702342131
3.613273111131703
6.864915631734786
0.7700803898699993
-3.32379762767243
1.3008234806978807
4.19530009147833
-0.7250972572945864
-9.516419980508697
-9.758861487819964
2.5170411845839453
10.489626273175713
6.000116452941309
-0.09046375684920088
-0.9199515789588525
0.6438380299961224
-0.8007660688493747
-4.411804520254455
-2.5506585487266915
4.5655237207561346
6.97347722672718
3.0779416637430965
-1.430216104170913
-4.691566618211133
-3.0587273646215625
-2.43732753365035
-8.262536020746753
-6.464547291707319
-1.2695246290290123
0.7045400507285026
11.499052117853209
13.259892839761216
-4.1212321258960545
-14.20936752591039
-8.626093357348422
2.5090073385567315
5.5403599992516295
-2.1332922569447463
-7.180687380526833
-6.970792427002991
-1.0491448124574716
3.5206653862471935
-4.180915259936649
-5.247469156624532
10.65760917198142
22.7265240804975
15.685068056417993
-6.596536153754949
-13.182620368866491
11.269866780546302
19.95227313267386
-7.381987017603619
-21.128219425924783
-6.316942548005878
8.776371972670038
11.02744218840192
-3.323655352750312
-13.052496939164984
0.8711118468284104
12.910679193887987
6.468014092667746
-4.2481020676931776
-2.6511197027892615
9.082344699560036
9.156219438901587
-3.427077837376953
-10.31966094827455
-7.347620648552967
-2.2322739775320657
-0.21805827274255815
-1.1724845442552758
-4.129559145028989
-1.41854735565725
7.758052261993268
10.812902702005635
2.478192600842776
-14.254880948181325
-18.84184408189605
-0.1979973522653286
11.399187928291823
3.529889529141107
0.3884500172126798
9.79054046726587
13.81783535403775
2.2440609666021802
-9.130429912574012
-3.30058365372452
8.748754107650683
4.147096094210342
-7.180202856618098
0.6020907771797909
17.81134064410816
21.930569962743252
8.474805093142754
-11.216785907851916
-18.694098196900956
-8.980399475565974
7.632467947350792
9.42862742547811
-9.927286879949046
-17.967731281142814
-0.26747643606153326
12.16206060170346
4.041194489462783
-1.9266155046827733
-0.7080943154662357
-9.21433001276146
-10.417368930854398
5.166767914523861
3.8590162033973163
-6.063498663283319
11.218712029737969
25.24667393043264
8.197889428017971
-1.0101051640437673
4.007001012101666
0.3094475642806489
6.080177059771768
9.781897534046951
-12.780674661425868
-23.705692546709145
-2.5385681992756024
15.171989399588423
2.9844850465366126
-12.421472212026174
2.224067677498536
16.3686608994172
6.283948042489623
3.6330402599684577
18.9499116644735
19.244519744985237
-10.55263208774291
-22.72181714093092
-1.2630814427505137
0.5472374253849949
-9.585168524536643
-3.6119137282195686
-3.3942179696178307
-3.1333815230454447
3.999315026331969
-0.9793440864384987
-16.601008137090965
-18.52030250992534
5.187274239978631
10.66703438437239
-14.553479651348479
-11.73416434016348
6.396623854415969
-3.6750659110924144
-8.466761156407173
9.047397658237134
16.983894292219272
4.7388185390830415
-7.843413380113152
-2.9703350932151005
5.936625123958257
1.2476010557025885
2.0948459391419862
12.170696506492128
-0.3658190893396566
-14.263054328380038
6.292004954459925
21.35267121444826
4.1693801045829275
-14.18391004454769
-13.654499576333526
-6.01958758704199
-12.683339821622189
-16.8930155989335
-3.056223230385394
-5.823168494220474
-20.66114034027816
-11.092633833095915
4.9763919358989455
4.989158185756041
2.3595566326689723
3.9721767607041447
2.58106877154493
1.4203898346426214
6.340486097335665
8.472636204951597
-0.03520484983167027
-14.796205103515192
-24.33597159508322
-17.25840071579255
-3.084372256308644
0.735529208758688
0.6466054325989607
1.4262293259448704
-4.112645364689985
-9.301581588061076
-9.009581453159731
-4.489257090632492
3.7263650250190454
5.0485000364346
-4.2118277673615605
-11.946130986296131
-5.031862211212895
4.9739816713223695
-7.639141046302906
-21.26786281338407
-13.26090414449278
-8.319789924585939
-2.2289533695134316
14.260579891470103
15.890360327879035
8.55239536154405
7.872601673879487
2.9013727263610063
-10.730867177412026
-23.776691211078468
-19.781109259007167
-1.5533186752421444
4.020058357814915
-1.440667187122679
-0.17328019723909005
-2.2887701160629668
-14.581570157315522
-24.686624916901806
-22.995389780139288
-3.497142707515237
16.928514686381742
12.606155201005384
1.6884736605255752
4.204461871058853
5.427817114302188
1.1687877240089273
-7.2177849690474
-15.867376241093842
-6.322001733905569
8.428054284663256
6.251336785295925
0.8932973894073141
-5.251925333388643
-18.980261178607442
-25.182106306358126
-20.82385400115784
-10.782717066239904
5.899789693511533
13.084441872000331
4.147171791651112
-0.24749197086667007
7.945825209974726
12.719328026111462
4.64880654741437
-0.9483991511229779
3.023065008724453
1.609810347318091
-4.9065136900676825
-13.588798903255489
-21.984385572137967
-14.7805808156159
-5.496863638193205
-3.8116636401224424
5.828944877745409
8.325263282119204
-1.319520251405039
-4.224633628748539
-4.872598475403088
-5.912816060287803
-3.3319228670378855
6.2006915448945215
26.225510547892693
39.53349378543333
35.512282368296134
26.710164179174487
17.821146900976945
5.608374121166708
-0.8911436198846947
9.191631802759385
18.5433422300151
10.628061062171952
8.82404527546776
12.32061792175304
-13.762454853906634
-40.7911400304344
-24.13451389237414
3.580727693959748
16.811671143073475
30.812574105072823
27.882943438937154
1.2562604876765082
-13.883756982486323
-18.444808361815657
-27.811591731202398
-25.38041319588446
-11.4095135906634
7.639724231577133
24.76261840378934
11.065712356810941
-16.46260779726053
-17.396336895278168
4.084819770801873
29.417803389619657
41.92317999891287
47.639499993016386
48.937842017021886
26.379211629208232
0.14811429181871438
-20.403231489038404
-41.38075846219248
-39.390833188888266
-28.001325940494446
-19.072386792085563
-4.435901448552285
-4.228181634420149
-1.7914341621829726
27.122286104045735
45.935716033362034
29.14505732234485
7.756497851536117
1.2803885635379173
-16.120817705951616
-37.883042254624186
-34.7950377803421
-29.444734361147496
-39.41197409096481
-45.96359539759757
-48.34300021710387
-48.44853627071756
-28.177808785541913
-4.511614002332088
-0.3673919057718026
19.056263428204094
43.98207605051627
30.74085278184006
11.660462242429261
-1.3837634809591954
-21.747654683777313
-18.58352452503005
-5.032684991784784
-14.072413211621686
-16.14701861090756
15.973645047921604
40.66059457372512
18.465314951367446
-3.814658609629307
7.349481983386512
11.282849717339518
-4.851087805794996
-22.098147729654844
-30.151985184094148
-13.91905824599751
19.27357440160189
39.62036241899398
48.61165278263484
58.41457791418815
52.41439137006936
37.9499199255233
25.279283559478102
-7.572313863408756
-29.57805926074045
-13.447408280911436
-1.0987513441275683
-0.48602946406504743
10.635884326203868
37.5382282460581
62.42452801923132
43.38911723258066
-5.650328335430368
-26.396823663837097
-19.681122783432873
-32.10639760140728
-63.97808724894084
-61.63041222130335
-35.30207917089131
-49.733443359283434
-81.72717007109208
-70.93385442578797
-29.05570218999965
1.6233202973210599
11.98608034240007
37.19727598138769
80.51232089028139
90.29342333352241
69.04892033842675
50.994069853706925
27.762326305529655
-10.731605490017952
-52.7692691993949
-59.64776010499272
-36.173892477241246
-42.27128110679298
-53.150477741789224
-32.80662773455075
-14.181400609748001
7.051053471335526
33.96961098176059
45.85590374632021
38.708564176361385
8.565586453927747
-11.256801964290428
7.849770984250962
40.76880672371232
51.3245276008598
25.3056288376881
9.063626680413776
21.160443644514757
9.085793681831312
-7.759779885166851
16.54469585633508
46.25612420673507
52.21665443596611
55.88476389937599
61.09421626225256
42.10057645063035
4.60575941390824
-29.50857069009738
-62.11354699043791
-81.24699815870467
-75.79665142865643
-53.959483358983064
-26.6996671544677
-11.349884567783224
4.004693355971093
26.571251602828596
21.4744649361182
0.5137010301167979
8.323129118677263
27.05032840192898
22.00420520747676
11.295621546264115
11.835615585768803
5.296858873499109
-18.51687973060698
-46.734375839857606
-47.15454835515161
-30.381662435648142
-38.68195535961511
-46.25513450731056
-50.842253715107624
-65.2367395983528
-33.476855172230785
15.265255102841628
20.65775480437633
5.606083052451678
-19.636072011876752
-35.235629454183865
-34.919642813414114
-38.62991847436567
-21.44416507185134
-0.4142157130199676
-0.37018929207064266
14.083491882596093
30.714860887261512
26.496606599852516
25.384278700967002
23.204396545144043
8.556836653718308
2.476418973205406
1.9087963818353653
-15.74142597081897
-31.259433276772572
-21.61344962062716
-13.402073231404469
-21.1295978609497
-17.82094109459822
-11.614218626848672
-23.623795338729565
-26.11746999616788
-16.672692152676355
-15.08719096428592
-12.722798111385474
-19.1617500306125
-18.35779919838628
14.453014589548646
34.746157084679844
31.904490296453453
29.886727457908297
15.536074003402417
7.013086748988393
21.253008073507004
22.641755295204263
-3.0983951649661234
-38.90616655028238
-66.6010166787367
-62.43252618297682
-37.17056544307093
-29.69127425288247
-25.464653321712817
3.6503750518011766
37.640986587965635
50.60609351520708
35.13295135821619
26.71922226339466
43.098228511987024
29.516764936950107
0.24508856494763417
-1.3323511006542623
-9.20038699350792
-1.9624196402913663
25.05112161394632
1.3876600807854618
-34.84403683478275
-37.884345956892616
-30.075442397441147
7.0764734114714045
41.83235628628523
45.57171915620147
58.3545361623966
48.88482878246826
13.463868464038411
7.944444942487598
7.709360161261225
-3.5299758234705365
-1.5656752668059606
7.7636515418008925
16.398483634075532
29.932501860946314
55.75149312777585
59.80362882370448
7.623408906834872
-37.71580400251368
-20.30945535788302
10.158272083319503
18.989915167496154
28.973493371936396
29.730290568252233
15.89720419603041
20.859135354842365
32.252799222295636
13.332148632141681
-33.11995799327542
-61.033344207193394
-32.96305258044032
-5.41367781276952
-25.30276592552725
-42.326099130496786
-33.25100396310037
-15.712047412883221
0.6913556892918991
4.683568077187421
-5.069312424125573
-34.86717424035154
-63.95945368536422
-44.70293595116619
-4.06720576242308
0.6709654666805376
2.125353837483061
41.581400695805
56.71434138949259
27.151057642562982
46.376303052362346
90.87400922610738
59.09094715511601
11.798177635398789
22.885708823246073
31.150658589517757
-1.3738027395135965
-25.786809877769834
-19.379716707382695
-22.576319452176058
-32.85116750882328
-15.577272199425991
-3.7344301306592347
-20.166071938013182
-36.23368930206167
-36.424148013351235
-23.235620746524564
-8.760976671822855
11.879709258050028
34.99334269493128
34.85912263495939
22.56562436824193
1.6640668601287805
-31.121900200837825
-44.07525791147075
-32.75021576357509
-8.77464027418714
11.735181646701303
2.2788488913140488
-14.343146719588681
-14.19405972704594
-16.133530911797816
-22.132847333431666
-18.339468205824968
-11.706501342814276
-23.08793406657452
-40.35986332274067
-28.59788639263904
-11.527278172066362
-25.245983353391793
-39.92402284283604
-32.341262439268654
-6.787517666523453
26.35188560762697
21.561669955014814
-1.9237206577857184
21.399566508999925
42.06959172455966
37.71358468033073
52.35183401652556
27.680590209927544
-25.837632732437225
-3.723468412541983
57.8412436384201
76.4460229731561
48.839801165429755
18.040273954027494
13.735239126238218
-5.740214351327559
-43.696645545786815
-54.59516904845579
-49.21549438428606
-33.3281604180249
-11.265362043728258
-8.57010163108385
-11.931999901538799
-4.995566502895441
2.6859281663371277
1.8287895804610066
5.089637729803468
30.095155329635936
54.66947558854837
50.06317026059649
31.040486299276594
36.4194563688255
52.73690317190583
27.652028428550153
-7.1285343937651335
-3.115412173860988
3.8899391323538763
-0.565600819859557
6.512085507076841
16.074130220855533
10.35161288659648
-7.929604785206992
-2.819460653351273
36.6997438940678
41.555148920566815
-7.8965106444591004
-43.34412110544064
-63.20992893090743
-97.28620501154143
-121.15375274663873
-124.02936702474136
-96.15903513497803
-39.219512086083604
-3.4921831513753814
0.040451655626770416
0.7499339034072783
19.45405019838654
55.295926178186654
62.16670424505641
33.22074210424742
11.799706633661044
-8.649320568258682
-27.384650718503696
-21.061066373354862
-19.51319597270118
-24.111307567872934
-0.39404993051373993
28.592229996235954
47.746679334121886
61.94952106325999
52.902092358766616
30.16043092152922
4.589184113110247
-14.866653470302388
-11.065960954403502
-13.540534316549271
-24.284400368597865
-13.94330874068737
-0.15406348883278104
17.319764070853545
49.291115424507126
66.67745055621495
58.745772999413965
54.05997159831619
51.01836612552884
9.243351222797175
-39.70175002316096
-43.57204608885665
-44.551722275782616
-49.59187539251739
-11.184090955976613
42.70862099114664
71.40910250660993
76.70482493913242
58.13534204351502
25.011287205377297
-5.898587916690708
-25.739882451404682
-18.931313223486942
-4.124742011193798
-16.685850173167484
-18.218598037089127
13.686053819148194
24.398031153969793
5.837707007046462
-15.630150219880559
-26.460627335408578
7.024447016568567
74.45648299798651
103.26300402135146
72.1337940331624
33.25820157281894
0.07718866634683012
-33.92749108790355
-36.94250833262269
-35.78320196410119
-40.38322279112027
7.461355297802997
68.68459986622995
89.55434845548464
79.09602649661113
29.42151461265923
-32.55661942275289
-73.91947432176869
-100.42382765489866
-108.29475461125072
-92.12943405771483
-66.45355078655562
-50.63630848907754
-29.647509054113144
-10.910038927915277
-20.143065168493976
-22.83932387910442
-25.758860332326584
-39.664017223678975
-15.225125134996354
20.488800797219504
25.414794784368365
18.74029016757734
21.67144892244157
31.57696565433336
22.22244465365538
25.3847367737959
64.49798835029478
84.01795897871699
87.11531061150545
88.18768631690301
59.47191307322928
28.712890229121662
15.68202805168801
-9.911070782318701
-45.355152146247995
-56.86819857089689
-42.41030845702927
-21.21016778612819
0.6959068847622987
3.2303594194095857
-21.768462124235686
-41.65996316800433
-46.76995253061868
-50.082525602095586
-53.33421860911808
-59.67740539803144
-61.58578728171605
-43.18745015618384
-11.779495286648197
6.074946090926573
5.5849920722131206
10.582065738704086
18.15213965998913
9.441853110698135
15.075447556601954
51.28815225097618
66.95813523658434
58.0757237339754
77.17397631781527
103.88969931426375
83.47982553462397
40.62950793366721
20.73174416731136
5.283559514890718
-22.559943646677894
-30.623934432903248
-7.829990963172822
21.918364743729427
39.184150180283496
32.550925577354
17.90292541721897
13.978420395374235
-0.4714777784570256
-28.34257134232335
-46.38380942773612
-62.72248349506409
-64.51688399707386
-26.747538264809542
-2.6988548131996453
-28.64057781381266
-50.186655909425205
-44.232713457324444
-35.96918361534476
-16.370904958913183
21.12895686088548
45.50716463400747
55.0740571149698
66.89120638511349
67.7682111236154
73.63541640121514
84.87864455703017
50.56182610924171
15.388991924326751
27.919349042401915
8.557157021913685
-54.11042354439901
-94.10257151285562
-118.68202911427676
-119.57222605138786
-76.2870505749875
-41.22564182182157
-22.612364145640893
6.684130326196049
18.32003830040583
29.767121610401038
63.54376381154064
77.06959869857018
74.70708992823118
58.52024595694466
17.681559866455405
12.508388092923305
46.1281798673333
61.9931351455099
62.578459865077924
52.36201822894995
27.340435349323872
9.171222848100243
-5.807061514731141
-32.712939850799984
-45.52776539084103
-27.39808448901177
1.5335295762565586
33.05215774859802
48.3593247446981
31.83429836270182
14.72610372199183
1.4803513305000493
-23.98074914607638
-43.82732013241703
-48.84587160113501
-38.58701420389205
-17.6446024432007
-7.141183263640213
-0.9887065973796504
26.003850946461363
57.12073521085207
60.551541585741546
53.535528299047144
44.011218277465666
4.887485940503194
-39.224357551301885
-50.97544320097732
-44.70472936095839
-38.98431416592291
-34.458636615239314
-30.161415923936538
-36.33348666634068
-42.32026655283765
-22.28595681889925
1.1743173539993605
10.535046324685572
11.127097415904398
-16.249890481734358
-46.80753159830425
-46.9682768266604
-52.46520223605619
-61.73168527262393
-29.538553138613793
25.585241802008
66.80503072568943
87.56827549348166
90.75255245529138
99.16327387679068
100.17473722008498
46.680161147253614
-28.681206435424986
-71.87300412779832
-96.62137367520054
-110.33499167847215
-93.98694737893572
-51.84636582091857
-10.600652373749769
25.14134285671357
65.44680217048665
85.09747038478463
79.40900957938817
75.00893946542695
47.09451558172862
-14.72811313582909
-57.58182428319427
-70.94619560643318
-87.49010329826102
-100.96712059074102
-91.88015469977721
-63.109626673800854
-23.441290132619653
10.939550049712164
32.653940467306484
57.35527031991417
85.31713357486625
96.70012714813181
101.10903787968883
112.06905974208631
90.25607685116259
24.852192161817733
-36.87256524550512
-85.95438984270042
-118.4160237143489
-114.93433208747449
-93.06015483032662
-60.63859905661375
-23.568340216512823
-11.21488005240294
-11.48744616701161
10.291138985733676
30.158024631724043
13.057497825231017
0.44893120762308264
18.395952239945522
15.030032938048423
-21.559035295307574
-44.014356773113946
-29.936689957670332
-15.854269980389846
-27.811253911422927
-9.892124914248937
54.12223443716272
89.04388252640483
67.49845720317323
31.056963980604827
4.068184545224867
