AAD_Filtered_TADAS_FILE
AAD_BASELINE_CORRECTION: BASELINE REMOVED
AAD_FILTER_TYPE: BUTTERWORTH
AAD_FILTER_ORDER: 1
AAD_LOW_CUT_FREQUENCY_HZ: 0.025
AAD_HIGH_CUT_FREQUENCY_HZ: 40.0
EVENT_NAME: 202302060117
EVENT_ID: 13194
EVENT_DATE_YYYYMMDD: 2023/02/06
EVENT_TIME_HHMMSS: 01:17:32.00000
EVENT_LATITUDE_DEGREE: 37.288
EVENT_LONGITUDE_DEGREE: 37.043
EVENT_DEPTH_KM: 8.6
HYPOCENTER_REFERENCE: AFAD
MAGNITUDE_W: 7.7
MAGNITUDE_W_REFERENCE: AFAD
MAGNITUDE_L: 
MAGNITUDE_L_REFERENCE: 
FOCAL_MECHANISM: 
NETWORK: TK
STATION_CODE: 3121
STATION_NAME: 
STATION_LATITUDE_DEGREE: 36.66408
STATION_LONGITUDE_DEGREE: 36.21825
STATION_ELEVATION_M: 5.0
LOCATION: Kahramanmaras_Pazarck_Turkiye
SENSOR_DEPTH_M: 
VS30_M/S: 271
SITE_CLASSIFICATION_EC8: C
MORPHOLOGIC_CLASSIFICATION: 
EPICENTRAL_DISTANCE_KM: 100.90
EARTHQUAKE_BACKAZIMUTH_DEGREE: 
DATE_TIME_FIRST_SAMPLE_YYYYMMDD_HHMMSS: 2023/02/06 01:17:29.4475900
DATE_TIME_FIRST_SAMPLE_PRECISION: millisecond
SAMPLING_INTERVAL_S: 0.01
NDATA: 12501
DURATION_S: 
STREAM: HNN
UNITS: cm/s^2
INSTRUMENT: sensor = CMG-5T/GURALP | digitizer = 
INSTRUMENT_ANALOG/DIGITAL: 
INSTRUMENTAL_FREQUENCY_HZ: 
INSTRUMENTAL_DAMPING: 
FULL_SCALE_G: 
N_BIT_DIGITAL_CONVERTER: 
PGA_CM/S^2: 0.146
TIME_PGA_S: 
BASELINE_CORRECTION: BASELINE REMOVED
FILTER_TYPE: BUTTERWORTH
FILTER_ORDER: 
LOW_CUT_FREQUENCY_HZ: 
HIGH_CUT_FREQUENCY_HZ: 
LATE/NORMAL_TRIGGERED: 
DATABASE_VERSION: 
HEADER_FORMAT: DYNA 1.2
DATA_TYPE: Acceleration
PROCESSING: Automatic Paolucci et al., 2011
DATA_TIMESTAMP_YYYYMMDD_HHMMSS: 
DATA_LICENSE: U (unknown license)
DATA_CITATION: Turkish Accelerometric Archive v 1.0 - Disaster And Emergency Management Presidency, Earthquake Department
DATA_CREATOR: AFAD
ORIGINAL_DATA_MEDIATOR_CITATION: : AFAD - Disaster And Emergency Management Presidency
ORIGINAL_DATA_MEDIATOR: AFAD PROCESS SERVICE
ORIGINAL_DATA_CREATOR_CITATION: AFAD PROCESS SERVICE
ORIGINAL_DATA_CREATOR: network: TK
USER1: GuestUser
USER2: 
USER3: 
USER4: 
[...]
-0.002811024769267645
0.00521855576842318
-0.0016008215687866101
0.002324180144718214
-0.003535428053329632
-0.0012275838007651486
0.00441047201248282
0.0022132004676210172
-0.007341524666057485
-0.010408406339701142
0.0016157019820458318
0.002760012787119682
0.010795085943301315
0.0064563259176686144
-0.008600421796350111
-0.008867094298804931
-0.000767275849233733
0.001470188961519463
-0.005571779306744403
-0.008332195296426759
-0.005774264642447603
0.0022440177562401634
-0.0025192509118242574
0.0035400536303234263
0.0009035901428479729
-0.005019918699062319
-0.0072152464118893
-0.01833785579584624
-0.008325996417647615
-0.0011423177761881614
-0.002296909864889754
0.0007923043322164412
0.0014890311169478733
-0.001365447411253125
-0.002860557774459288
-0.004589343297068779
0.016045155407698797
0.017769069076194778
0.0018712557782187597
-0.007751246959976493
-0.020314378080530257
-0.006388297939633301
0.013098173102583576
0.003611604403759974
-0.0013314220243556528
0.004136130662004647
0.0022532514299270115
-0.004737785636301914
-0.005937589578632918
-0.011668092393151683
-0.0016904621221592747
-0.003129407620087686
-0.0051139067101807845
0.00453169798061082
-0.0003841956403412362
-0.000607046252806549
0.0076779441256747535
0.014340412022058883
0.00706022158867069
0.0014403125635327589
-0.005236870348775692
-0.005005854331279565
-0.011012874478146998
-0.005663153441530127
0.00048106893603018925
0.002121578298599881
-0.0018946972038312799
-0.0037058757076803162
-0.003911225278873645
-0.006521199800981848
0.0004951202089848508
0.006004254501445888
-0.006343271067232615
-0.017751754500824425
-0.007368871864275629
0.004617115558854683
0.0028230011839307763
0.007359720346670514
0.00707773734850097
0.011516502094209936
0.01195483004957232
-0.00032473721787922895
-0.0004340788994582483
-0.0015126294359222108
0.0067555927229297355
0.009116622500300701
-0.0007292147502203621
-0.007975879052777152
-0.003818475548698602
0.0027006770023330355
0.009818865837211125
0.0009554333695875508
-0.0011212066585655019
-0.0032394896053280133
-0.014182913003110973
-0.004272023908396273
0.0040885672215864345
-0.002896462191646743
-0.0013800225202111396
0.0010290516095452543
0.011148712419798612
0.010515246989648416
-0.002804350909579991
-0.003513341154019196
-0.005414069336634442
-0.0053427958648406
-0.004004932995797275
-0.008306849825830034
-0.0026954759493343985
0.003989002646063856
0.002849829743785944
0.005010865376001909
0.0032196632997880813
0.0025344250616463814
0.0010605989404977824
0.0027157088587790317
0.004137171736219868
-0.001361730930231481
-0.012178925167662074
-0.004152501664650523
0.006980895407841737
0.013103881691483143
0.0013355016664968026
-0.003576918727537432
0.010049872123996065
0.013309113477680216
0.0029958117192173733
-0.01491510102718446
-0.012126115235152293
-0.002395507461501869
-0.0005294291585726414
0.0003383708352505768
-0.007592878438229487
-0.0019530722167818058
0.003807048997499983
0.008584948224451735
0.012716599131884092
0.004684712417001449
0.004445955335244035
-0.0022512007661581596
-0.004059662297531057
-0.0033574155409997137
-0.0105153651124164
-0.01456653649066617
-0.004074582884307823
0.0005852810568861624
0.010696558861771933
0.010748778465824371
0.011604121292834379
0.012957158275983614
0.0011181917468444475
-0.008296249779137673
-0.007120809550941513
-0.007928730250916432
-0.009767928703564934
-0.004951404263432504
-0.007162776041213486
0.007822595050290456
0.019474600949338006
0.01191447286635449
0.01936187255167493
0.012805033837331984
0.00022266759410047925
-0.012670441836529668
-0.0176580489350269
-0.0041859278986415465
-0.0021764977120691093
-0.0011506585165810249
-0.002577002017349539
0.005416539394278828
0.014728454167589571
0.024937099978762187
0.01582843283352384
0.0022670053534937376
-0.007409398365555679
-0.011776448612269815
-0.017243905050830982
-0.014875956511017089
-0.014910475559238018
-0.0032833430593604994
0.007152075941041317
0.01204111524407818
0.027682302452440948
0.02102401928620503
0.008927830179113784
-0.008090478953849744
-0.019162114774845796
-0.010082361649547194
-0.011271092869877248
-0.0115480129746365
0.005186921346101318
0.013458829729246273
0.01217105006415581
0.0032653878017806044
0.003701376716260006
0.003470878203333366
0.009480499934795116
-0.003357569446698082
-0.019970240569874804
-0.016013197903208962
-0.008455110804944706
0.0004300230556613759
0.004080813327936371
0.00879631649152314
0.01613617548172042
0.012138298975678955
0.005745317187277892
0.0017206604228565577
-9.482416887258223e-05
-0.01233485813649466
-0.015386534125098274
-0.0006346952500383124
0.011383150950922735
0.014095231362327253
0.007916400442304771
0.00037292728287043514
-0.0012384050996697214
0.005711617984629145
-0.008276096663157128
-0.0034128187687133484
-0.0024738805214421784
-0.006576557799644792
-0.011510432111010133
-0.008065964590574267
0.011535230638475424
0.019922982978593174
0.01992242547927074
0.009435652538501064
0.002717870234600445
-0.0072628674906633425
-0.008751837004450518
-0.008881291595204677
-0.006297789653456085
-0.0032845249545435957
-0.012753057542258322
-0.003596346767583815
0.006053555716104664
0.010891347717661358
0.012490446971840097
0.0025692597623837767
-0.0028313797119118075
-0.011426221261367211
-0.012020858283777332
-0.0032927118821049913
0.004304818387612916
0.00043098441026045346
0.002626974923658857
0.005135045626149882
0.004527770020486283
0.006188059756859185
0.006918309171694306
0.013338569417430767
0.009133869436385895
-0.0016852458299381364
-0.0063921371671489
-0.014196161419740543
-0.014960112030925728
-0.0038700577846512182
0.004797317780854617
0.002420819616573635
0.003396574411986249
0.009247018278424914
0.011243183607604554
-0.0011458087491642967
-0.002786045499103644
0.0019127518139602983
0.0004260840402523648
0.01139388270591955
-0.00011129903086206213
-0.011054775929108777
-0.012725519504773224
-0.003221428474108755
0.010789362241315041
0.017709656029558776
0.010063332504775842
-0.0012781417993387703
-0.0002730337962715988
-0.007818589641106382
-0.012360144386259124
-0.01773822904924137
-0.012691648560652358
0.004517288890050037
0.005286887905895901
0.017138329915503327
0.009935634750937651
-0.0007229990533916812
0.002203137091505395
0.0034327678933606873
0.002345241221545337
-0.005277512949680943
-0.005020365387008588
-0.008543256294322255
-0.007411846773240681
-0.00524598806786603
-0.005427596107888409
-0.004415001064882245
0.004385920957767873
0.0005810306435158828
-0.000890196260591524
0.0039451947744496675
0.0064701182322527044
-0.002092090859566305
-0.013392308049843437
-0.016691619234311245
-0.010208777847511495
0.007397548890508825
0.018398061422327045
0.009583305098656302
0.010866229954052306
0.004060376636841105
0.0016111286742543564
0.006937950571735586
0.0028504056322991196
0.0060567265992941465
-0.0048928223344778185
-0.007710256642861204
-0.008301780315295075
-0.012066417332176648
-0.004222729611507837
0.003373469796527544
0.008807173982064346
0.012150729044536079
0.00565613401216441
0.0012285396402394414
-0.003785636275298
-0.003723408174916422
-0.0064698992700715835
-0.002561253532745875
-0.0020462523863826556
-0.0032106923128630673
-0.0014757566250276142
0.001956852147005591
0.00565316987063069
0.003987084470924227
0.007094484485915697
0.009809586021930399
-0.0027153328023678943
-0.010637435611668387
-0.006356517406278577
-0.007157008526661668
-0.0055985547182662914
0.0047431074582638885
0.01218216428617376
0.010185773237533259
0.006410639176020846
0.006045636785035449
0.003721042473556216
0.0005822040472682403
0.003084414664135778
-0.006819673222548115
-0.014022277633257793
-0.008510738810945844
-0.0017617055244190437
0.003888704758168596
0.011445866571832304
0.007121566845162161
0.009530778267748136
-0.004199377522052914
-0.01127802091095098
-0.005836025210018164
-0.001780874748109536
0.004104345133642972
-0.0016219032672262182
-0.005968155490845715
0.00011429247013925904
0.0022404028375767686
-0.0006616440414222593
0.0030853062196111642
0.008207584344744785
0.00921430441312373
0.002099511884919516
0.002308646826049802
-0.0032505114395494847
-0.005182001185176307
-0.014173251349909549
-0.014105718732362427
-0.005028263149497876
0.011246329000679931
0.012702162869940163
0.00489664316433939
0.011804364315214519
0.014844539524933323
0.0037316185050810372
-0.009916318816525525
-0.012484036328501277
-0.01205681534624145
-0.012019223152753139
-0.0004348591498474126
0.012739221732588374
0.00941353029551916
0.012443900172142268
0.017001019199393137
0.006700054548975928
-0.008048932260160376
-0.009834117153615027
-0.009357053904750752
-0.015024813206233136
-0.008021829472593727
0.012946604665670885
0.021316071880247322
0.008385811347005603
0.0038212602123384905
0.006359716693545406
-0.006747544313637403
-0.009370691272419527
-0.004837544580133312
-0.0005496122519224918
0.002490648752245016
-0.000196520022089217
-0.002914655501731525
-0.003341007492919498
-0.004250700341144686
-0.0028698820498471783
0.0021083217440908213
0.019089164038618194
0.024025337187612284
0.0035292030548348522
-0.017374863650287044
-0.008745765996249408
0.0036805271056233623
0.0007565842774066028
-0.0025237519055588413
-0.0026651307413063153
0.0005900526980150053
0.0007487904033022252
0.01564529757794473
0.018472616096191018
0.008366726197867642
0.0064502874800357515
0.002189279653381091
-0.008358459290847092
-0.010463874649087228
-0.012545378079745616
-0.008506432550008634
-0.007589532125962138
-0.000321663965523126
0.0016567201642145061
-0.006616144090804788
0.0016917006694679845
0.0228816814511549
0.011370455584164402
-0.011625476868713215
0.0030462855625525806
0.013733921821424754
-0.00013020608060041925
-0.007150363993758548
-0.001294577924979229
0.009347406807883532
0.005275614266001634
-0.014226246612205326
-0.00019000909861129165
0.005608194837865617
0.0015111223350757106
-0.0011744227481104426
-0.0029829268170364397
-0.008637918735669818
-0.00846534528123357
-0.007398628601732027
0.017041207034466564
0.024543774039822285
0.005918284279283113
0.00017069730683842642
-0.01665133732823639
-0.016000457479220034
-0.010846965532821476
0.00902614087147164
0.026813253184110774
0.020427204527263185
0.018633817744582216
0.006338911342199727
-0.01987836665659666
-0.044627075418624894
-0.03170864976772235
-0.003025428927952158
0.003501957593411418
0.004713421678850912
0.020426636565378
0.04166363848049594
0.012155026889305759
-0.008498461997555782
-0.011138762266623647
-0.02247909966635183
-0.014842572878105203
-0.012109108248320065
-0.01188199216902302
0.005505553789131409
0.01367111241777155
0.01652203115478542
0.008678356592269848
0.004929656208719186
0.015675653886358807
0.007223816250005706
-0.019814726181652174
-0.02281221885293302
-0.00784329721909882
-3.874823272244784e-06
-0.0010405624902917704
0.004027522339667964
0.005979849111510418
0.012462722786052084
0.011178956570131035
-0.0054433119655193
0.008015115275894965
0.010229627105959439
0.0022711878947206817
-0.01002751319957066
-0.009196739623987132
-0.0007460891928714994
-0.00526807306940128
-0.007268151496609558
0.00012013724285037688
0.010433505094781217
0.016284975277174207
0.002150505734446599
-0.009503800117579496
0.0007575108517390476
0.015508971923539285
0.005019850738856918
-0.003955862430657945
0.0008450195609765932
-0.0013713796371142635
-0.015674099441004327
-0.013129721174904272
0.006033067376672855
0.00830209849736529
0.012802134383896383
0.005717883906114269
0.004541457550532314
0.011936967482893503
-0.005015709661303673
-0.01816981164154117
-0.010302237135360536
-0.009285518931720044
-2.1832818451962284e-05
0.008202989826387085
0.012625220522527115
0.011027527408170704
0.007727996939682444
-0.004683269847795967
0.0007320214619604568
-0.0015702788911653451
-0.006069366083270497
-0.005809595640031141
-0.02975828723624902
-0.03112578110478113
-0.014243159765682753
0.010340167811941447
0.035261288941678466
0.052234642751189365
0.037351582633005594
0.01963981856775144
0.01180580309960211
-0.016918484335096518
-0.03222831400965817
-0.04365749054138773
-0.05612489247049396
-0.053282789617113406
-0.02623303434337316
0.026115568845047524
0.06297883248978732
0.08402702078794021
0.08401722174792867
0.06112788162313812
0.00658083344812346
-0.04512834998758263
-0.08862644161548298
-0.09943102125570998
-0.0905238542313148
-0.058299902632429255
-0.0005626086711125457
0.05881459347440846
0.10450843988346173
0.11574722964686471
0.10045213472846043
0.05874371179108929
-0.008695637276057084
-0.07650682983748454
-0.10629551655426898
-0.11608675094647314
-0.09993851068224008
-0.062296976012004755
-0.00571675807041439
0.0706022981245731
0.1387443458211598
0.14688352736443624
0.12015519617110586
0.06083800910847978
-0.00695701141572753
-0.08366982580102851
-0.13750979911421057
-0.13726568410526913
-0.10801534986103953
-0.05749936483565015
0.018394509351989687
0.09118867279123183
0.136564515823902
0.14448502976332814
0.10380270943228664
0.046400858233739385
-0.036404836053910344
-0.09996780549881362
-0.1316342266039268
-0.1313321333218462
-0.0878266831884784
-0.026451805242202617
0.039307149465981135
0.08089373941688055
0.10948323955563337
0.12555034117054126
0.08984768119442085
0.03108174088383797
-0.028979880856359098
-0.07416936801447
-0.10820470948601368
-0.10244131468960123
-0.06518638014305174
-0.012488584429965702
0.023608252349928267
0.0442313745864774
0.06926979806663293
0.09200428748583786
0.07750123016685986
0.026139018231556448
-0.019746243490780382
-0.046747972585290475
-0.05537395387490758
-0.0694661468630768
-0.05487301398041089
-0.010873104506473098
0.028053853088999
0.041099543092291496
0.040722622224674127
0.03764004047243948
0.03843732050881547
0.019104422006305445
0.00029480078396878833
-0.008297270428478687
-0.005042647836885255
-0.019394462749054427
-0.04132700083112814
-0.03506881240990203
-0.020693328550009698
-0.01569939540559643
-0.013435567211182184
0.006551721234954282
0.03449942623297791
0.044034817235191454
0.027961167245357816
0.021543981411792576
0.02702512382414968
0.0030670120248187196
-0.01539506557598368
-0.009373953917815522
-0.01445625578606161
-0.03226304631506556
-0.05399583641463092
-0.03895786107677615
-0.011790149175721661
0.009372544273315474
0.037851000770316195
0.07388883640649715
0.07785528505497316
0.03525656129170526
0.0010058141779970009
-0.037636037451474244
-0.0741795431732953
-0.0728949075686809
-0.06520518783728312
-0.024024861023793767
0.018409688540719293
0.03400589622595394
0.049369575421257625
0.07162462269007269
0.06626502179456967
0.04432280481809778
0.021560808365414838
-0.014347908959483778
-0.04530145083676734
-0.06621912850506484
-0.0704037915597148
-0.04473334386622974
-0.010475803558991555
0.015021537103008405
0.05580722206232196
0.06920335456066277
0.06540387707859122
0.036316365573807
-0.0007219673128578662
-0.03453812163741915
-0.04699050735664241
-0.05348234376164936
-0.053004192646302475
-0.028611023220442736
-0.0032745958569003167
0.031053785910381614
0.05891329535746641
0.06003915695424082
0.04593377917616835
0.021224449607608897
-0.003933703101136082
-0.031754680236108127
-0.041361789216156214
-0.03183900665111275
-0.0354710567267429
-0.0072137331783261585
0.004532667985168346
0.016250366473507187
0.033855528627846306
0.017787349487757204
0.006853063790518494
-0.0037161345773997615
-0.010134544533830026
-0.02114444282118557
-0.02207638703599005
-0.0004442048096994716
0.02691062858624282
0.03494998020987723
0.013530224606338502
0.010547037890388819
-0.009747946259808161
-0.03185800730632311
-0.031432625649109126
-0.02363125256215321
-0.007116945909879305
0.003565919028303227
0.011514604357285053
0.03467871976987957
0.028718113871555075
0.019425875151717908
0.011622883279670905
0.0012655259575575443
-0.017754051734789777
-0.041174077337461104
-0.044372601435731275
-0.03855650579612194
-0.010330375056906324
0.0066595667909998
0.04770552367402164
0.06235070994584255
0.04681210837340963
0.02941128886662023
0.004602204410924968
-0.02840977427118366
-0.027441797945756782
-0.03195412917383627
-0.03798098027312575
-0.017804516987252245
-0.018717383516311692
0.0013086467014839214
0.023121402484817928
0.03466918883032389
0.039381400465323825
0.03462212758523496
0.025612358265692005
-0.0064055749996975615
-0.023923464138263243
-0.04037712014319924
-0.04961606028390952
-0.025054891956753682
-0.00639407147795469
0.016585269970185855
0.017796574033616078
0.02871264107815711
0.03602906236577233
0.02314461982957144
0.005812369008970335
0.005308016430083438
0.004417491977132118
-0.035310185131276844
-0.0345417226159841
-0.02168791272649089
-0.015690759824700206
0.0067154943708020364
0.001432848057171039
0.020002263428043728
0.035249358550959106
0.014702679217868135
0.007187605757509083
-0.0030786210120752177
-0.006474881479152478
-0.0076831150741437934
-0.01567478246710969
-0.008168813538093112
0.008004998589322982
0.008838663718679998
0.0024931188914969708
0.01070740162199468
0.0074128934295841845
0.00430447447391006
0.0020161746813573034
-0.010441730561655756
0.006585175088365088
-0.0011818576124588086
-0.0008602892703573366
0.01690717196546608
0.004880992201404479
0.003269005309151222
0.00294658645413112
-0.002797081881729874
-0.0003236618424392941
-0.004531422031513585
-0.014636238043003784
-0.0067392215083489585
0.0024243148881449923
-0.0004259059982421475
0.0071522150728070355
0.01304022889567996
0.014780512238496971
0.015222684834361466
-0.013180011594017837
-0.007102237094027072
-0.002460014629176945
-0.016162895108547605
-0.01709937464413779
-0.015220408270047983
0.012682992425505786
-0.0006295884357892055
0.0031911349461853354
0.021212103878845628
0.013132673980765643
0.019933889647299117
-0.003544299378670126
-0.01043348259253169
0.0021730160681642206
-0.0008389922136608965
-0.017461284142837586
-0.010328313786780702
-0.00371842241829642
-0.0057095312631642746
0.009160387812549796
0.020186834411289857
0.026786982051779824
0.017693463912750736
0.0072968942127254995
-0.003773838331015244
-0.008347819030342454
-0.014853339936788666
-0.010374670683094684
-0.010131024685036714
-0.006599872597396117
0.007960513330156625
