AAD_Filtered_TADAS_FILE
AAD_BASELINE_CORRECTION: BASELINE REMOVED
AAD_FILTER_TYPE: BUTTERWORTH
AAD_FILTER_ORDER: 1
AAD_LOW_CUT_FREQUENCY_HZ: 0.025
AAD_HIGH_CUT_FREQUENCY_HZ: 40.0
EVENT_NAME: 202302060117
EVENT_ID: 13194
EVENT_DATE_YYYYMMDD: 2023/02/06
EVENT_TIME_HHMMSS: 01:17:32.00000
EVENT_LATITUDE_DEGREE: 37.288
EVENT_LONGITUDE_DEGREE: 37.043
EVENT_DEPTH_KM: 8.6
HYPOCENTER_REFERENCE: AFAD
MAGNITUDE_W: 7.7
MAGNITUDE_W_REFERENCE: AFAD
MAGNITUDE_L: 
MAGNITUDE_L_REFERENCE: 
FOCAL_MECHANISM: 
NETWORK: TK
STATION_CODE: 0144
STATION_NAME: 
STATION_LATITUDE_DEGREE: 37.731023
STATION_LONGITUDE_DEGREE: 35.45968
STATION_ELEVATION_M: 649.0
LOCATION: Kahramanmaras_Pazarck_Turkiye
SENSOR_DEPTH_M: 
VS30_M/S: None
SITE_CLASSIFICATION_EC8: unknown
MORPHOLOGIC_CLASSIFICATION: 
EPICENTRAL_DISTANCE_KM: 148.09
EARTHQUAKE_BACKAZIMUTH_DEGREE: 
DATE_TIME_FIRST_SAMPLE_YYYYMMDD_HHMMSS: 2023/02/06 01:17:37.5577960
DATE_TIME_FIRST_SAMPLE_PRECISION: millisecond
SAMPLING_INTERVAL_S: 0.01
NDATA: 12501
DURATION_S: 
STREAM: HNN
UNITS: cm/s^2
INSTRUMENT: sensor = ACEBOX/SARA | digitizer = 
INSTRUMENT_ANALOG/DIGITAL: 
INSTRUMENTAL_FREQUENCY_HZ: 
INSTRUMENTAL_DAMPING: 
FULL_SCALE_G: 
N_BIT_DIGITAL_CONVERTER: 
PGA_CM/S^2: 15.879
TIME_PGA_S: 
BASELINE_CORRECTION: BASELINE REMOVED
FILTER_TYPE: BUTTERWORTH
FILTER_ORDER: 
LOW_CUT_FREQUENCY_HZ: 
HIGH_CUT_FREQUENCY_HZ: 
LATE/NORMAL_TRIGGERED: 
DATABASE_VERSION: 
HEADER_FORMAT: DYNA 1.2
DATA_TYPE: Acceleration
PROCESSING: Automatic Paolucci et al., 2011
DATA_TIMESTAMP_YYYYMMDD_HHMMSS: 
DATA_LICENSE: U (unknown license)
DATA_CITATION: Turkish Accelerometric Archive v 1.0 - Disaster And Emergency Management Presidency, Earthquake Department
DATA_CREATOR: AFAD
ORIGINAL_DATA_MEDIATOR_CITATION: : AFAD - Disaster And Emergency Management Presidency
ORIGINAL_DATA_MEDIATOR: AFAD PROCESS SERVICE
ORIGINAL_DATA_CREATOR_CITATION: AFAD PROCESS SERVICE
ORIGINAL_DATA_CREATOR: network: TK
USER1: GuestUser
USER2: 
USER3: 
USER4: 
[...]
-4.924477712754329
-4.925870375240937
-4.734661628738664
-4.264470911143228
-3.334517060711011
-1.9508851699047314
-0.20343196833060634
1.789026580811535
3.7537442167329886
5.2519547215762685
5.8079752619225005
5.144486810534623
3.3336343210664796
0.7616812116556235
-2.0211131933727815
-4.385012398745749
-5.878859201824564
-6.250428964941182
-5.406687566751385
-3.92668878693865
-2.7501268158602414
-2.181390085244267
-1.8277663378542768
-1.3192087344433232
-0.6114906015941375
0.22851540144751056
1.0100145755502405
1.5351441620498372
1.770933597330014
1.7648145612794695
1.6135077609652837
1.3910830938806262
1.1291698073864027
0.8368193305085353
0.5922063393758796
0.62809327353867
0.9732248312452106
1.3165183128700157
1.471419334180998
1.44983263548682
1.1062796878289662
0.23352836174796418
-1.1104533439884654
-2.5628932510893163
-3.551316413468783
-3.684254180173116
-3.1113172048559137
-2.309882536524131
-1.7265356792424804
-1.5708149839770058
-1.8317865836722942
-2.174557877064313
-1.9185469340341554
-0.6857876274334621
1.220742893072491
3.0991267247046177
4.312496514566398
4.735911645786753
4.62593932523615
4.075566865060269
3.0247950687250205
1.6337020026435436
0.1087798509401018
-1.5001843375260793
-2.9730128059620307
-3.8696822091583485
-3.9511826090936126
-3.3062513266448232
-1.988298844547657
0.11976523934359481
2.8826345726253786
5.55108277262823
6.993825060348255
6.49803881885745
4.293970486744602
1.1751738255531439
-2.045768787435114
-4.7123057545750315
-6.477349951319989
-7.324505146869368
-7.236598841354117
-6.037124893049807
-3.769276853634892
-0.8983965005596365
2.0302223961499846
4.66666048321079
6.878129504899651
8.503033386228218
9.218991980330188
8.803434111158564
7.397798489035287
5.433151372193132
3.206005191192165
0.8390014825868688
-1.5355625162569735
-3.820239566008613
-5.774886138198358
-7.033928524226301
-7.401193584066767
-6.823901060608783
-5.196931785572381
-2.438327782635537
1.1079389138494853
4.591411853614933
7.153875597130126
8.491885094051074
8.751545082646775
8.023526202148222
6.327192378718345
3.635592431354697
0.08364860361856069
-3.5625066626515833
-6.3067078341125935
-7.6666160550202855
-7.680946805368919
-6.667905431644608
-5.104011942555744
-3.3458803026769814
-1.5284551716219026
0.29647988181548524
2.0469649299302493
3.567700132325212
4.583927389388488
4.613714159461724
3.381965510674491
1.2424766203795927
-1.1824369813876745
-3.460509831842381
-5.384098583445274
-6.807815399880279
-7.651947690429714
-7.8734074654012005
-7.259455706453217
-5.5844955574012065
-2.9747599705290417
0.14801274169626236
3.289048062330511
5.941274371438133
7.742623048956859
8.509615107801059
8.14191253975412
6.779991568820524
4.851890768463384
2.7948168534500053
1.0055370899948384
-0.1397637641238969
-0.7400991284534972
-1.315476246439321
-2.030561254611405
-2.491797436034113
-2.2347480716277928
-1.281804247235589
-0.14468376591669835
0.7031587315262031
1.229842373634096
1.771526175602342
2.559998663141936
3.665493481863599
5.0855769401023005
6.445476713030167
7.258047907017064
7.427562369874028
7.111444024864211
6.373274661772716
5.0531657444925715
2.986216440418385
0.3800858179952494
-2.106854663717078
-3.6458099940352127
-3.7583148407557783
-2.607480040827505
-0.6434466137828267
1.7583732841240065
4.356686664379923
6.873782593317809
8.830341834601185
9.701518198172352
9.148394947829527
7.376149167775468
5.1075706192307715
3.0696142469173444
1.6032543519186997
0.635490536661943
0.017452073538788887
-0.3868930027875925
-0.707438104455111
-0.9590933545266849
-1.0582593526403963
-0.9113184938287279
-0.47370367254001877
0.3114689473256732
1.3298025776136804
2.3326066543505335
3.3021354359270574
4.189473834357527
4.620091751169103
4.249090813548518
3.101225008472509
1.5150874656694988
-0.06660876603277299
-1.3524930988646802
-2.3133308765782474
-2.8797594183699093
-2.804599373437972
-2.0440167064802193
-0.915719238934605
0.22694010156693525
1.2012289427483247
2.0022471070617818
2.7683321040404563
3.5586547689000603
4.2384931051187404
4.551086152850852
4.240268786116035
3.295299880886598
1.8642215920840761
0.04960066570176475
-1.7921020972392179
-3.1472933351621997
-3.8871715574524046
-4.187147913110119
-4.212119087260314
-4.088908418145372
-3.8953313942189536
-3.5942750000991865
-3.260239651379828
-3.205994435740049
-3.544098196157594
-4.041269022073421
-4.395707250083739
-4.4272283020884755
-4.1615695434859905
-3.639073330982105
-2.8759841843632215
-2.0439553028693043
-1.3373065806670945
-0.7860067908791222
-0.19915933256730825
0.7374877616526501
2.1070076510704667
3.537419240455166
4.612877600306484
5.280825278244756
5.572482503436989
5.397741678309539
4.719943260105131
3.576732100117548
1.9096847721774977
-0.2248519710370315
-2.398394621597276
-4.173272264553801
-5.284876761662127
-5.492316087150411
-4.683050007505768
-3.0283455729752817
-0.8148484419028227
1.6668413772867097
3.8443777109080823
5.184241187739253
5.81742130739476
6.219303957867965
6.565743821436236
6.531316322566048
5.66555654440687
4.093352548314665
2.450493599474952
1.3421098400120386
1.1555924026374895
1.7409546427863918
2.4427458868438343
2.701171372250357
2.2875569065793235
1.29633057674624
0.09066920500845196
-0.9200279251923812
-1.4841546201326232
-1.599341841799324
-1.4859988315048742
-1.434649836393299
-1.595076940303093
-1.8611588758020186
-1.896182138489649
-1.3940286731188118
-0.2515337509190848
1.5579123981396552
3.7456841588064145
5.533961939001993
6.152186395222968
5.349385279303543
3.5508760385434264
1.5440211300939153
0.007620266090583007
-0.7045431343648706
-0.5962260996541161
0.08494868592247926
1.0198616168370411
2.006923068334718
2.8102946415166357
3.184072999753318
3.2104167201694307
2.9411270601397383
2.3355723267468083
1.5626369901349049
0.7387507146533391
-0.024118498656079828
-0.6285771798327524
-1.2142891208661635
-1.7471304238316283
-1.9640137287854567
-1.7471264489390597
-1.1020356203769774
-0.2810396232193704
0.33163862199470634
0.6627809597027805
0.8814899913368086
1.1741388796826577
1.4097999823284875
1.1127502923503825
0.051276361562312626
-1.6181201521658573
-3.647697516364517
-5.722780710548668
-7.230362788730667
-7.5069205960949965
-6.575022958300189
-5.074481917511781
-3.4372707561411384
-1.7487651010432455
-0.27674447123242246
0.537947262995829
0.5468472603393878
0.021521900511584244
-0.45925274998718946
-0.3889490626490445
0.23029868998007805
1.024245937597087
1.4680661170172407
1.140850742296436
0.15866386401700242
-1.0316158867005778
-2.073574063903561
-2.795238179139083
-3.290817369852626
-3.7451862133462517
-4.081709456920122
-3.993294094843064
-3.418446930176725
-2.727647942866158
-2.3423961254582926
-2.366276097302645
-2.4306893063071358
-2.034002177976963
-1.0689564200106578
0.21510361378122234
1.4164195140881226
2.062681508803901
1.8178585605877287
0.7151039434317517
-0.7870953702823439
-2.1460856720617265
-3.16326702080782
-3.83816461674896
-4.192111207994471
-4.330524659653979
-4.180909476272705
-3.7185644398983606
-3.313010534680051
-3.093622226209822
-2.7739097241008572
-2.255738989541814
-1.7199803545858143
-1.3021828892014253
-0.9807492840334572
-0.652161005864064
-0.16557563580740078
0.4624097387976501
0.924947181745222
0.918562429252347
0.3528680887386054
-0.6648865733472901
-1.9017851476773804
-3.009673501181458
-3.618527995509581
-3.67857631735042
-3.4379219247328145
-3.040916420092593
-2.4688364271326457
-1.7824078384613187
-1.2141272243942065
-0.994292909562924
-1.1305224028266507
-1.2948563087692417
-1.0420883591473875
-0.28977024616925656
0.6567608780594739
1.3428672530010703
1.2873992510134635
0.3045738537933628
-1.3191852013846324
-2.987186230904081
-4.094936411963018
-4.342425315830819
-3.738418175091605
-2.496147470715396
-1.0206227021395071
0.2015861112787333
0.7598653171640031
0.5637539266166661
-0.0010775257445675345
-0.40034005325221517
-0.37797557156207334
-0.035044181294270435
0.22182248097797214
-0.07261332109814118
-1.0490186345906047
-2.4495805826406225
-3.822458986234517
-4.63056803924425
-4.399257503081489
-3.082984692080385
-1.2866009504704872
0.042878373818558906
0.300098752301099
-0.3724354519165946
-1.2782377902747324
-1.7331479731325534
-1.6828532535448937
-1.5264964458955466
-1.43467455894952
-1.3056674977335663
-1.0974743882592197
-0.8935409231220227
-0.7030907070798545
-0.4654978946431627
-0.25279495428441034
-0.15914070053352017
-0.19438657189444
-0.5327383603399084
-1.374093696574185
-2.40769332014518
-3.095783508624261
-3.299471503140855
-3.17659345756565
-2.8372304570418083
-2.1400358845150813
-1.0392324447745969
-0.0008024676781012608
0.5186258969267209
0.5228933679935065
0.22464580721773578
-0.23206943691103954
-0.728264620495504
-1.13231606475655
-1.5230159798776104
-2.163288950545757
-3.283697359488584
-4.865841852887438
-6.546599660106905
-7.909764615299986
-8.66498348283123
-8.621004734928103
-7.728145041246811
-6.122134679744874
-4.104556543353195
-2.0779806354777968
-0.4561508916612723
0.46036349627885
0.5866067777494218
0.14858677469021345
-0.46682326081704667
-0.9498295619646232
-1.0191863589301782
-0.6056956153738737
-0.03771929541146712
0.3602368133927373
0.6052907473882561
0.9208185255913456
1.4611048201278385
2.233743738590058
2.9631021358032554
3.047387911176983
2.1402738007305135
0.5011724907117894
-1.379188999796663
-3.148804073846152
-4.474130020573688
-4.938430264885228
-4.296819080545722
-2.486350554376827
0.18309483884295502
2.727519692948172
4.213751216596343
4.642715906400744
4.631896008015035
4.6033304014847785
4.487042741594457
3.7772693998599736
2.1148759142868365
-0.05637137701762207
-1.9090344975033735
-2.950827087932818
-3.200534449932235
-2.9026547359050814
-2.238875486624532
-1.544074408804289
-1.2403732097812417
-1.4258988634966019
-1.8277482805737855
-2.1193426832882247
-2.2672195025468724
-2.4636722502075896
-2.8746111382826727
-3.4022817786857877
-3.6268639884107956
-3.181334696319137
-2.0962727139616537
-0.7609461439525219
0.48203728524052397
1.5281460535096854
2.3012141800346138
2.7619721973533737
2.7466724904477093
1.9036107237122808
0.2663551217178888
-1.5233933577340129
-2.6799180893728076
-2.7463634824370797
-1.7135771516123106
0.052669164942378124
1.984000976862329
3.4972127803127195
4.208123998240122
4.084933331087323
3.325308763555924
2.3125436700812227
1.4905147948345994
1.025236363843385
0.7637218061412955
0.4498163665135373
-0.1525378783287857
-1.1702024784313374
-2.4856574443744863
-3.7874575505668466
-4.6293263552285975
-4.526688818613548
-3.2852259781866757
-1.2073140056028708
1.0555781395475028
2.8007460439705825
3.563407696256296
3.3122646772434647
2.3227497659917944
1.0111528509725003
-0.1674031811870328
-0.928868647451306
-1.177969887422409
-0.8814894346292079
-0.0757755073396104
1.029139998362909
2.1803153037844303
3.2953616531061147
4.273952314961171
4.877869954468783
4.9748538571089
4.72665211422669
4.4397882211609705
4.109075636410436
3.358465327108889
1.8566156645291976
-0.2923231465414751
-2.3386422977446872
-3.295042312818455
-2.6931081739104887
-0.8306414521180193
1.5045927011293514
3.3674440301490165
4.019539589605151
3.3202523970040825
1.7287326619700352
-0.05405829300943129
-1.406470148968613
-2.1039205696592598
-2.441337652760956
-2.822437738371577
-3.3514753524026033
-3.7904483022784676
-3.7527276455487475
-3.0604408895020563
-1.8489751408790314
-0.34415219962620053
1.28972180750057
2.9094691084592093
4.430809675085396
5.7822108311371725
6.626423534831121
6.4385291575726304
4.8095118535224755
1.722771591486205
-2.272293421545882
-6.384791734473663
-9.931057075024498
-12.37643178891073
-13.358632464077862
-12.706145744295027
-10.536872930046654
-7.337419559989024
-3.7476729353472886
-0.23353544703408424
2.856807938087559
4.965006458348831
5.530517305666815
4.525336227511896
2.407763061134076
-0.2841121616396732
-3.0768005100450724
-5.470549482492261
-6.979618338774837
-7.3801614787662855
-6.797104406712991
-5.515768417701449
-3.8720203437966534
-2.217725935551302
-0.771457891152393
0.42765309523645256
1.3768155066195986
2.043124774902838
2.539916861013419
3.0901710041329187
3.6334467630231666
3.7832643049707184
3.250556840641261
2.059617838144406
0.43701551864461263
-1.1473866204156684
-2.115436320623412
-2.0194843220717074
-0.5916974378431766
1.8672070471226248
4.562321604776972
6.8898625867425105
8.541241571514904
9.253874929092014
8.750343454872704
6.942713771261057
4.100988810081937
0.6980007829231694
-2.7446159705126725
-5.71876105949018
-7.774316886210204
-8.581582343331785
-8.00469107780085
-6.105436715028265
-3.080370553036996
0.8221551151972716
5.199434734601592
9.456463747842477
13.013850942977642
15.368871933475342
16.11961487552381
15.142035049288667
12.735733456717295
9.699772920360308
7.01378506418513
5.149192898079614
3.9993948646309168
3.264921462295138
2.5720981931327453
1.652882900194901
0.6391832178701247
0.08294116061848363
0.44392373445041233
1.54875211297719
2.719550003234821
3.2542723079552442
2.8663693926729823
1.9335278109846443
1.2082453368072652
1.153994867332945
1.5992697296786695
2.0696752404350662
2.371883018593192
2.63740713918455
2.9840891501634075
3.371736215957271
3.536244887006727
3.2428301879831687
2.615148193996529
1.8244132916292735
0.9532349201800215
0.22766240010976066
-0.14224482608590958
-0.12589679678445262
0.1764696059483783
0.5195943252567842
0.5468579171953774
0.03829432173633564
-0.9428718187989172
-2.212706675388146
-3.655269590630216
-5.179217753271932
-6.428740684145883
-6.946530028488258
-6.5859719266452545
-5.398312047057781
-3.65059729752199
-1.8349098446663448
-0.28698883515992407
0.8090222285938915
1.2383505818890297
0.8941860338425858
-0.1447497122315367
-1.6221675005298868
-3.0892990402492657
-4.122081271973866
-4.628589410777882
-4.935621147363106
-5.395916816538343
-5.920197981999889
-6.139301240977129
-5.750030585010562
-4.719148479635569
-3.312843238213062
-1.9417237507772462
-1.0853508335581201
-0.9878139342303097
-1.4484154346450913
-2.04908464908229
-2.3831209002079254
-2.254145350853625
-1.689408875627225
-0.9042780509060436
-0.32672611708613525
-0.2604283523290804
-0.6368587233595906
-1.2478684761475163
-1.7891014610170874
-1.8675935352879713
-1.4038879399369224
-0.6592266083830792
-0.0013647192356619356
0.23652281913283704
0.08466946944178297
-0.24071605830515377
-0.7632930099575145
-1.6395011543360591
-2.9649396338280734
-4.600873828974799
-6.213815950147732
-7.43379261419811
-7.900563982707807
-7.529301128660036
-6.498270150400145
-4.90177883246937
-2.7452303619076477
-0.23652824984207207
2.1880145255782115
4.029400328321017
4.872655334738321
4.717267967181796
3.9189096888459316
2.8648313217422
1.8736369250119471
1.1056935789466602
0.6050068667402118
0.36690341158943185
0.3666867394088015
0.5780850218708031
0.9261359086151779
1.3512937528877278
1.8122375326326248
2.042805333378867
1.701879651053707
0.8494838676847631
-0.18412431805134946
-1.1573400959637603
-1.9521065899352086
-2.4347275562062864
-2.2549332283821273
-1.1600192733907568
0.5325851054902896
2.3990077833552577
4.283887876524438
5.963578910235852
7.182150018981187
7.839124841180545
8.016380783857967
7.839888006417469
7.2564759166493715
6.2338384050957405
4.871974382379707
3.3022951381789047
1.6954749884292906
0.18753194474334028
-1.119353763995307
-2.0781736783071443
-2.5246818039480976
-2.3826136747224425
-1.7320016344777454
-0.7894053801960644
0.1243263860038156
0.6768937424520127
0.8496273717716953
1.02747839094849
1.528192376429178
2.3474252184395237
3.175027790598837
3.4435677596221645
2.860283703594962
1.912190778720969
1.4412469967480077
1.8249376886498396
2.807374588936763
3.8497977359235067
4.526304122875992
4.7924746452315645
4.907115582846302
4.9964393446192155
4.79105499329849
4.080372810357919
2.992082050795756
1.6085095858444134
-0.08470574191402333
-2.0243309971669845
-3.99558381780513
-5.561470137935094
-6.361296880785304
-6.272405527183511
-5.186636662232368
-3.0024687432788344
0.16820206186116954
3.850551604589599
7.384586948771092
10.076605350932585
11.201787059603008
10.400961309350306
7.8590516248979965
4.015887341703572
-0.4934867254997018
-4.802922590775528
-8.045756542325774
-9.677886268225889
-9.475829358391056
-7.411039179850952
-3.7763120558255006
0.7436448988296547
5.165812589673549
8.438657572575709
9.92324285045302
9.694616050165084
8.222670915559297
5.866032673797873
2.886876458606803
-0.25465438120487355
-2.996678870654621
-4.89545583485749
-5.593703733967004
-4.924677955685468
-3.0566525036807652
-0.46220844475772477
2.199480337566468
4.372040281993942
5.585512200103377
5.560057922960303
4.401950367025621
2.343570380002979
-0.08957646148935054
-2.2722344781772863
-3.793773137072474
-4.343831737865206
-4.173713318404666
-3.855128048371243
-3.5274472188726116
-2.9780349234950716
-2.0048282722208537
-0.6066626050655136
1.0663788205517832
2.640461890125014
3.5382970669107223
3.5071527646333602
2.7288942496037136
1.4148878762644257
-0.1409552778081302
-1.475078043749167
-2.300346655021512
-2.537556143285839
-2.230849181094378
-1.7613120374628253
-1.5799012189393786
-1.6509386369939907
-1.4805673627721236
-0.5389393946461976
1.359935490460192
3.920464199047594
6.391505024484729
7.894732765630003
8.03810927494683
6.967086833147192
5.044738871036011
2.752036486443008
0.5344267059121935
-1.363246388831192
-2.8967850367615857
-3.9454526895207085
-4.160559917974617
-3.359365541052566
-1.7976840753494119
0.016869780949620158
1.6493277516069405
2.9227769279181417
3.7665015761351035
4.083283111351317
3.9319211031391674
3.494003926133375
2.815770073875283
1.8875005232594508
0.8002576232545213
-0.30443432744615023
-1.3300934917513623
-2.136929476842196
-2.4914713288804666
-2.3461678272674975
-1.8388934074341716
-0.9502964788084758
0.394581131741549
1.8832027111041605
2.888719453336817
3.0741634766691677
2.6650381429397036
1.9986396663782655
1.2505695280390248
0.6637806006344487
0.441991320004823
0.647384814793394
1.1693808501520369
1.652578478124266
1.8088995807705555
1.4216389855119662
0.23972139550206556
-1.5822477697755353
-3.3472163876706005
-4.465463476370894
-4.873203645400368
-4.732233891477901
