AAD_Filtered_TADAS_FILE
AAD_BASELINE_CORRECTION: BASELINE REMOVED
AAD_FILTER_TYPE: BUTTERWORTH
AAD_FILTER_ORDER: 1
AAD_LOW_CUT_FREQUENCY_HZ: 0.025
AAD_HIGH_CUT_FREQUENCY_HZ: 40.0
EVENT_NAME: 202302061024
EVENT_ID: 13207
EVENT_DATE_YYYYMMDD: 2023/02/06
EVENT_TIME_HHMMSS: 10:24:47.00000
EVENT_LATITUDE_DEGREE: 38.089
EVENT_LONGITUDE_DEGREE: 37.239
EVENT_DEPTH_KM: 7.0
HYPOCENTER_REFERENCE: AFAD
MAGNITUDE_W: 7.6
MAGNITUDE_W_REFERENCE: AFAD
MAGNITUDE_L: 
MAGNITUDE_L_REFERENCE: 
FOCAL_MECHANISM: 
NETWORK: TK
STATION_CODE: 4616
STATION_NAME: 
STATION_LATITUDE_DEGREE: 37.37547
STATION_LONGITUDE_DEGREE: 36.83836
STATION_ELEVATION_M: 499.0
LOCATION: Kahramanmaras_Elbistan_Turkiye
SENSOR_DEPTH_M: 
VS30_M/S: 390
SITE_CLASSIFICATION_EC8: B
MORPHOLOGIC_CLASSIFICATION: 
EPICENTRAL_DISTANCE_KM: 86.81
EARTHQUAKE_BACKAZIMUTH_DEGREE: 
DATE_TIME_FIRST_SAMPLE_YYYYMMDD_HHMMSS: 2023/02/06 10:24:39.5078300
DATE_TIME_FIRST_SAMPLE_PRECISION: millisecond
SAMPLING_INTERVAL_S: 0.01
NDATA: 11251
DURATION_S: 
STREAM: HNN
UNITS: cm/s^2
INSTRUMENT: sensor = GMS+/GEOSIG | digitizer = 
INSTRUMENT_ANALOG/DIGITAL: 
INSTRUMENTAL_FREQUENCY_HZ: 
INSTRUMENTAL_DAMPING: 
FULL_SCALE_G: 
N_BIT_DIGITAL_CONVERTER: 
PGA_CM/S^2: 57.546
TIME_PGA_S: 
BASELINE_CORRECTION: BASELINE REMOVED
FILTER_TYPE: BUTTERWORTH
FILTER_ORDER: 
LOW_CUT_FREQUENCY_HZ: 
HIGH_CUT_FREQUENCY_HZ: 
LATE/NORMAL_TRIGGERED: 
DATABASE_VERSION: 
HEADER_FORMAT: DYNA 1.2
DATA_TYPE: Acceleration
PROCESSING: Automatic Paolucci et al., 2011
DATA_TIMESTAMP_YYYYMMDD_HHMMSS: 
DATA_LICENSE: U (unknown license)
DATA_CITATION: Turkish Accelerometric Archive v 1.0 - Disaster And Emergency Management Presidency, Earthquake Department
DATA_CREATOR: AFAD
ORIGINAL_DATA_MEDIATOR_CITATION: : AFAD - Disaster And Emergency Management Presidency
ORIGINAL_DATA_MEDIATOR: AFAD PROCESS SERVICE
ORIGINAL_DATA_CREATOR_CITATION: AFAD PROCESS SERVICE
ORIGINAL_DATA_CREATOR: network: TK
USER1: GuestUser
USER2: 
USER3: 
USER4: 
[...]
4.766227615475322
6.569636752510658
6.366630214722387
4.6923472205422865
2.3303066972081288
0.717050679269308
-0.6883009698300413
-1.3909524609312967
-0.5565581062593058
1.9482965487596624
6.735814975411988
13.2462993294394
20.307043948901562
26.016509722172856
28.951167116907968
28.77111713359669
25.486915414758606
19.897417846171997
12.298388187466488
3.511708327430618
-5.461742715109009
-13.777380964259667
-19.44079255229256
-21.884836861345597
-20.026763598507742
-12.173746562481414
-0.4857995141987417
12.04628982279155
23.586848682517378
33.02774229385851
39.60061150677946
42.793463729471135
44.222708525749276
44.1436571095514
41.33457804466002
36.03646271145126
28.4177424669785
19.261159855737297
10.066800100895472
2.6662759301419703
-2.3107847980409844
-5.757936545512377
-7.58981925909157
-8.63936880180805
-9.053854726277004
-7.842916572325853
-5.680977583846645
-2.56099918082198
0.6780535559521064
1.968293779305037
0.2588550077502741
-4.720505974586224
-11.265165844068886
-17.817700395819703
-23.09671794305702
-25.567888415344918
-26.32457176061005
-25.82055119901257
-23.068410848946098
-17.806964116538563
-10.208093887532549
-2.1863107762713314
4.6401362980360235
8.75657910369028
8.893756148741573
6.780482339046827
3.6214013829262117
-0.18650825578801225
-4.456224759890702
-10.3913393897144
-17.686586402559637
-24.81423213222335
-29.830049550728656
-31.291111338928403
-29.51209446735478
-25.34932550696411
-20.285892172469804
-14.809011078482014
-9.453281962707127
-5.284985113104085
-1.6054508057792451
1.1565296561191423
2.516214045266647
3.3369065106390035
3.722622841786053
3.9835854312699697
4.503892904677907
5.971465248132615
9.058766998440904
13.584766730189523
18.76953789496371
23.003335881358392
25.786624722032
27.414493851745302
28.233374174549695
28.872734522527704
28.1084577021376
25.009480991250552
20.63654844989765
15.592221728368678
9.698827376771927
2.8318324122147356
-4.632764172410869
-11.780664810601381
-16.813351776050073
-17.72847636600783
-14.83459394048856
-9.974712070562981
-4.1485632346811565
1.9870908233434144
8.056808476018366
14.167223164376573
20.721323525561168
26.918853613286768
30.209003686097937
30.02094508457845
26.532318022760585
18.61823739828361
6.689009535506494
-7.630548136971511
-22.100744349076646
-34.37215852248884
-42.56702579529042
-43.67264050781422
-37.75896243005187
-29.6634901403654
-22.707308021292025
-18.65275991615163
-18.063324172237774
-17.796522691370473
-14.186653808600155
-7.792630642749567
-1.782139410480414
1.9148966879176534
0.9531360652552003
-5.01294201261517
-12.784838281113535
-20.22601563505848
-25.790794121604314
-28.229583527400557
-27.136416694467208
-22.40752489168299
-14.470301401210055
-4.7714374958439745
4.8309167595795595
14.197821310207686
22.85814352070036
30.406365029161197
37.81725154794574
44.38949804995006
48.56882044297598
49.82109959336593
48.69959303758336
46.15885037873108
42.61164509938063
37.929021434553846
31.63886282974899
23.194275040907563
11.469121660804113
-3.506129208865335
-19.353175317531036
-34.05608146844829
-45.64513156072283
-51.852370436853754
-52.949842925168255
-50.761257383442135
-47.32657418493226
-44.46808016496504
-41.75420802847245
-38.25923700042913
-34.220267058929295
-29.691024630716285
-24.160607339085765
-18.08595956344079
-12.731568246835359
-8.303828110853868
-5.4091786500191805
-4.040855420500341
-2.7219207002624155
-0.8480536883884295
2.442625333152327
7.8435094313614355
14.553581643679562
21.01068530492019
25.54967690850372
26.86974223311296
24.3680145562787
18.872501243775165
10.455928350947824
-0.6970205088835424
-12.898022228085825
-25.49505631876292
-36.455395729934956
-44.080016209079716
-47.406891787406
-44.11769704739726
-36.36734218753938
-28.140948499612538
-20.858577036502894
-15.066082422103813
-10.577177445309127
-6.724063628147215
-2.1290342827297857
3.7040701821157413
9.906333353151881
15.33188039575715
19.73646796412159
22.596612000361073
21.995747269350808
18.18568826379136
11.924164791266914
2.8986632300221715
-7.415126091643892
-16.061424544763558
-21.026163603284772
-22.415135135867562
-20.964598771168742
-17.862002784612894
-14.170299606430783
-9.832923016738473
-4.444801968314761
1.8204554804887407
7.880697084079346
12.868156065780639
16.213880082845883
18.18033212585601
18.649064606326757
16.06975163942979
10.506395994001789
4.35978275965432
-0.20815284874603365
-3.2125497425786502
-4.688797755010301
-5.147823736165009
-6.35523818179203
-7.052438802895404
-5.417780050628025
-1.7667515920801729
2.955347502011309
6.942883487957439
8.628828431895895
8.233994507124617
7.470080767587649
6.766547316053258
6.270664434187009
5.8259313537308
3.7864124575116076
0.20877487110795506
-4.009888865047907
-7.432317532854782
-8.813140681646127
-8.729775522280534
-8.616475680674819
-10.140614075176492
-12.825997069364561
-15.212692610489803
-15.994360821737516
-14.506966805842834
-12.548781487675496
-11.475358453968994
-11.975220596597401
-13.422542388660128
-14.165364411661924
-14.692756699047157
-14.99889041185144
-16.235235381991195
-19.50494018339938
-22.470551297729536
-23.89129157104201
-23.469938688369297
-21.382579871721354
-19.37599798918566
-18.869027177345124
-19.704597825899363
-19.99221826044143
-18.0843301928686
-13.803748719923831
-8.26232040241827
-3.481213461697257
0.17533265610690985
3.3070663236452966
5.898457728921039
8.610756028598914
10.675957046464875
10.990975029062696
9.584252800778044
6.528091426686844
3.2752093070735566
0.44709885990813736
-2.3260043233740455
-5.289403626212467
-9.071858277322113
-13.180825312402163
-16.85047822657039
-19.147769622389788
-19.332902646347723
-18.457977434519574
-18.504317824922285
-20.44247713929545
-22.526304480103313
-22.978527877520346
-20.680466275712547
-14.25151337520593
-5.721797245518513
1.9807648949075198
8.260772141216615
12.650437513009074
14.317818710082333
13.810589005641463
13.97232147417217
15.877439914068363
18.63332697809854
22.715015293744596
26.651043031520917
27.35834888859352
24.196608980865303
17.74652085051063
9.394246425986822
0.6565767663236587
-7.461945584755555
-13.679263697833758
-18.175343873007915
-21.675876977618522
-24.14648578719405
-25.164085356759724
-25.149870990210243
-25.087884108837194
-24.247789986939544
-23.132151077488132
-22.861119388373332
-21.81970189039967
-19.26862453139195
-15.74514144841424
-9.750028761890839
-1.0105537888196403
6.596900103158727
9.933185681590952
8.87645747042013
3.3548836654303877
-4.705605864874364
-11.09318410462865
-14.054584084928658
-14.012816520098779
-12.783888882787286
-12.024629816074558
-10.718357908834985
-8.348267021371713
-6.274575683006506
-4.718504183610079
-2.754178497312458
-0.6719700797750108
0.8084943909143891
1.8770798459183289
2.806176028134624
2.8641064786871504
1.3285698896232438
-1.4501090545605297
-4.130210480478412
-4.790113845374074
-4.86913305712518
-6.249098812689016
-6.739869869535659
-6.029739733918941
-5.173531383903699
-3.7954502422249363
-2.9268307427112457
-2.9634746024512144
-2.689954779369638
-0.3979779932105173
4.74866832134649
11.2732491906537
17.167259143972004
19.843885755904168
17.542035304559175
9.926078361179682
-2.366728450533214
-15.117398676003658
-25.097042234096424
-32.74277218245818
-37.00040757923729
-37.210832548629774
-35.31941555144511
-31.484146005092086
-24.65314176373884
-15.218926376589971
-4.606281174191564
4.556854729847459
11.43838344240758
16.90575790497728
18.68666261932822
15.829296403082774
11.035490324387043
5.007080270313444
-0.8335719119125686
-3.347186665576998
-1.8264504899928407
2.7327817886641927
8.424637082397469
14.024107470397638
19.328116829011307
23.667282061854536
27.175038417064364
29.86250230107091
29.642786788637174
24.90483008363085
16.27837900325065
5.243831715880358
-5.614069932214132
-13.72420752458362
-19.65311109439982
-25.14107145681934
-30.526568816255264
-36.41949517690296
-41.76531567893749
-43.138817416444105
-39.46333480804161
-32.52765391288855
-25.03288349986861
-19.02461991440919
-14.372526112889679
-9.945251842149217
-4.594939713911333
3.0022713897394873
12.14862268251028
19.775432662018254
23.484061226205764
22.527981803868297
18.810502398621608
15.499591056488507
14.318455912341648
15.012726176159536
15.433688037978563
14.48609718490349
11.767737901278402
7.3772337978702325
3.252233193783293
1.2309447300034673
1.314856132000011
0.788052201086115
-0.6717047286638845
-1.6453319662861383
-3.4222804345656006
-4.799626243825468
-3.632658965504688
-1.4687224319616936
-0.5011137171359095
-0.9866958408972858
-1.8718785421557034
-2.318785360969785
-1.9394572081449974
-0.5726239390314851
1.8366709150125446
4.694892802543013
7.21870566609379
9.442035159649604
11.765876818684557
14.318769453737602
16.852779692702565
19.08570781632298
20.072183758324876
19.132063805472416
16.586206907885355
13.437143445112639
11.109767444550577
10.196553325285523
10.448107502153414
10.394957683724877
8.97878553944017
6.8875741151449885
5.763558513768596
6.729636360134164
8.458802595765457
10.19591135721682
11.63605593200173
10.827326457365182
7.749594114449871
4.251247001334213
0.48074678563403295
-4.40619550948588
-10.13060707670061
-15.526858389608636
-19.76835691946594
-23.127126576376533
-25.38482944561639
-26.27656121368215
-25.814483722084244
-23.37372383319994
-19.826143731142935
-16.579636680007056
-15.443906254217666
-17.629533164159547
-21.363862683377047
-24.28158798363131
-23.657039820970443
-18.90205299675754
-12.606591943740025
-6.156413629984212
-0.5884487616587312
3.1717001988855387
6.483862747090521
11.26801496971626
17.208703739972144
22.586750211428377
25.541132173830594
24.56971394227329
20.615763784811833
14.620332992464874
7.321557008615841
0.6489966489017983
-5.246013529001059
-10.488124585811997
-13.853013884962627
-13.843615567984497
-11.019589725924833
-7.408564290889486
-4.073864021426416
-2.7052026720133715
-4.405236003306067
-8.306952593853644
-13.268180399283057
-18.566041099497472
-22.971654603716466
-25.465431391093674
-26.552570544316314
-26.593554252946557
-25.347390862179054
-22.832312646009505
-18.710730258954342
-12.440026107977694
-5.16276015748156
0.9770059906778229
5.637668788147046
9.750212557029764
14.067872841949923
19.58610362455126
24.93646505148998
26.347162267195802
22.991765743808475
16.62224642574105
9.383956842237414
4.064926037451672
2.342673758985382
2.8297053773640672
3.019121106729868
2.2012665578245887
0.9625842422098814
0.47398285149186686
1.6906251332267481
4.188959648728499
5.942001881991396
4.870871423395866
0.8117225747210324
-4.531715383335952
-9.136492368408014
-11.610762352810607
-11.25586689912059
-9.094300446469388
-6.4539194714424895
-2.828315167267033
2.902226931455762
10.536360781537846
19.049064488608625
26.684127721933017
30.901992237791855
30.573213134794223
25.862454262352994
17.882357572434245
7.4256275323436975
-4.3453459355729045
-14.534845541504595
-22.081647721820357
-27.280891476957017
-29.652023265365866
-28.613207253147852
-25.471008038158537
-21.814129896604076
-17.03259698710981
-11.256855481516308
-4.212491156899685
4.353924233601433
13.127243105440975
21.73281498034747
27.970373602190392
29.821263729171918
27.84730115155703
22.547553039853437
16.707609793751896
13.022495092106917
11.42033320287501
10.537683154290441
9.031810111727046
6.259563125211126
1.9635967110334849
-1.234412157301754
-1.9291588676633866
-1.7286137519269948
-1.3674211655685178
-2.558878068367413
-5.650270685563351
-8.264844019425741
-8.513883570724019
-5.703320712908492
-1.3513418841964118
2.391809380192693
4.895652805301579
5.87968176461663
5.205649236926015
3.5020870135521194
1.7238132381953248
-0.6176904200633299
-4.623825577049131
-9.10688229489356
-12.794434391078825
-15.67710140440599
-17.047379457282943
-16.608345536768766
-15.143841689980782
-13.20091599147262
-10.638684057255443
-6.5637121124893145
0.1353121718603878
9.02045712296309
18.709242550833718
27.982645760888722
34.811551398886024
38.23000506718504
38.84017971429019
37.8886240678351
36.98211114065592
36.784305886049815
37.76151749589104
38.81367321690587
37.85608000347935
33.967257364142846
26.195767582914474
14.602813781372259
0.08878914136703453
-15.177029668764684
-27.90864683883691
-36.93246506542063
-41.81661558973309
-42.72861496190181
-41.659997254974364
-39.769727480762796
-36.82305857682959
-32.24238461363074
-26.158180730272967
-19.60959690329593
-13.345409670848152
-8.091979651207799
-3.401899739757719
2.0527971478132447
7.576365084378896
11.6959494460929
14.594491809788904
17.864541106230053
22.6854563844657
29.308090540466996
37.36567860002645
45.163886675461015
51.075806315192274
54.666336573308925
56.48005077046852
57.568351900641545
57.84442539338206
56.25044751787051
51.59535976754334
43.53125052943121
33.63504554799161
24.24255094918104
17.22562160811542
12.77607356728578
9.747511556359202
7.554523743012365
5.534516255459717
3.18092479427798
0.51036352422928
-2.792874400307748
-6.858095911907812
-11.644580548777853
-16.789842608178773
-21.797866001007954
-26.163343890696233
-29.33536019973509
-30.87390455887601
-29.95698836547024
-27.07780381988131
-22.955566264411228
-17.597006575644755
-12.177828337205009
-7.035876074810115
-2.329816222896715
1.6748770893337748
5.568066355159464
9.186026449583167
12.127928113348089
13.722011157358722
13.6770805117779
12.574396857795296
11.52807861215296
11.491679366389736
12.380925769887245
13.315390895596689
13.202453867227877
12.194063690118428
11.315635303506639
10.89889120996816
10.235616488106468
8.697469107859087
5.820359708158695
1.7141520307680511
-1.966735948179519
-3.7843563250153998
-4.080741491530177
-3.5002583517015142
-2.568636204130896
-2.038999502128865
-1.4490303955050035
-0.24357591281443577
1.740907587706521
3.5731634889605335
4.250174538052795
4.542992434655727
4.9440865954991
5.524876478942384
6.098139489368585
6.379773942051176
5.743354840668131
3.7407713976590253
1.4511481358605527
0.862961401389785
3.3080673829189613
8.535779047078993
15.264875263031795
22.000602546186705
26.814466295552375
28.230792686372578
26.531162934184504
21.71143625457995
14.291720102205206
5.185372733181512
-4.374229256271936
-12.121232077324354
-16.555719106224217
-16.358856546256785
-12.131766639702915
-5.658940166602275
0.7991960301471596
4.399233502919675
5.199456605026244
5.13091817196883
5.513744151522406
7.509480670265539
11.032851312170257
14.194036115932153
15.087431342846907
13.303791208877232
10.50514179906148
7.984768853898935
6.233094648059396
4.73379914892163
2.4006266511517844
-0.8966421713991901
-5.280145999942618
-9.245273716158591
-10.459263043785741
-8.161069319450982
-3.562496128866941
1.220623550345846
4.360665692610934
4.196763862025565
1.5476589143540904
-0.37702889160397934
-0.050601853739914014
2.4797805747937645
6.755775782757757
11.070300114402642
13.763231590225363
14.413185009242259
13.461677870941829
11.733486788446056
10.594028579603298
10.490626480762957
11.527609908318382
13.262445396033478
14.075953045173483
13.782705291257088
11.584593005737172
7.1433316980784465
1.7037206536613436
-3.885984082056118
-8.673693468750027
-11.885227924890684
-12.873494626419781
-11.314100878487915
-7.111579796690212
-1.4050474253730016
3.6128536364895414
6.578651786007909
7.153111938945401
5.162909140664977
1.9262674220821168
-0.6318114804473018
-2.287066363095488
-2.754016921990852
-2.8086274298766694
-2.874316557956691
-2.769043420707612
-2.773687972312403
-1.9553403072755242
-0.8225032060475294
0.16574572243498734
1.783201910708608
4.02654567037276
6.654589453380455
8.231588584002777
7.08898454550838
4.217332104820493
1.7491835077902487
0.6389779189493832
0.7263192026037113
1.7439156490511862
2.5197814351610113
1.743847040930792
1.6074418079834547
3.7826331630055465
7.436558468447239
11.680606748109286
14.17731614634508
12.760996237495698
7.989913594640983
2.369021886228033
-2.3606359825814365
-5.246142535210564
-5.869872423797998
-5.257402951093239
-3.774570326332949
-0.8014406628727905
3.4062854567519634
7.957049924651085
10.802911804796253
8.994843079103394
2.6404739685876653
-5.207012815830366
-11.87845475844282
-15.626285718262418
-15.815299270976164
-13.379259818662115
-9.776161148292537
-5.702940199599033
-1.2978937380508158
2.534921773546241
4.665030681794534
5.6362834653087095
6.373588915161031
7.58844208096765
10.467536269105322
15.09470817621463
19.39114176664756
20.951432936274365
19.239538906993044
14.485066368775616
7.250519523609008
-0.9924258561786361
-9.318065624769815
-16.809348174436337
-22.128282949161253
-24.854776729073574
-24.319063625717
-20.669426887957272
-15.251900386947437
-9.161922668182543
-4.638829906396668
-3.151150317791447
-4.247412500951939
-6.246595777317081
-7.004990207272302
-5.678290149263464
-2.6263434112970305
0.8765094004504221
4.034582016531441
5.957022120359684
6.238264157512432
6.658272909309715
7.141325678911516
6.213360525303829
3.5534173528858584
-1.583645741720777
-8.46171457001367
-15.202653530496665
-20.785690280011554
-24.95519976476369
-28.479748378124302
-31.39402357213915
-32.84303513047303
-30.98534937814869
-24.387768500423476
-13.303267630648989
0.909994500001387
13.806684119525977
22.239799793194194
25.996918238565655
24.688303840819962
20.65416508513201
16.67953843878093
12.853943953662863
9.03549638320546
4.861356667840824
-0.7114297736107719
-7.613727200106007
-14.072592798855508
-18.180392611126255
-18.843926588921793
-15.971692623249071
-10.733078509511419
-4.513451868345384
1.4627454646726223
5.71168303576998
7.677706256524145
7.642527297706972
5.755652621028909
2.195258301788039
-2.415230717015286
-7.052322639025413
-11.451913910205892
-15.415000686140962
-17.909748799950265
-18.072444021715672
-15.167533382465699
-9.507569887788625
-3.4839584936167753
0.17301758105740617
0.3196696345775175
-1.7367564525128696
-3.167988189945696
-1.7184588706392105
2.396493114222044
6.794821329325568
8.739520230654346
6.551705266835701
2.0673692846057214
-1.6489556178936562
-3.2047808375519167
-2.4130390522829903
-1.27185704232939
-1.980838348832218
-4.608889500761748
-7.490162956456043
-8.397966973969439
-6.714541654208176
-4.172087964766309
