AAD_Filtered_TADAS_FILE
AAD_BASELINE_CORRECTION: BASELINE REMOVED
AAD_FILTER_TYPE: BUTTERWORTH
AAD_FILTER_ORDER: 1
AAD_LOW_CUT_FREQUENCY_HZ: 0.025
AAD_HIGH_CUT_FREQUENCY_HZ: 40.0
EVENT_NAME: 202302061024
EVENT_ID: 13207
EVENT_DATE_YYYYMMDD: 2023/02/06
EVENT_TIME_HHMMSS: 10:24:47.00000
EVENT_LATITUDE_DEGREE: 38.089
EVENT_LONGITUDE_DEGREE: 37.239
EVENT_DEPTH_KM: 7.0
HYPOCENTER_REFERENCE: AFAD
MAGNITUDE_W: 7.6
MAGNITUDE_W_REFERENCE: AFAD
MAGNITUDE_L: 
MAGNITUDE_L_REFERENCE: 
FOCAL_MECHANISM: 
NETWORK: TK
STATION_CODE: 0134
STATION_NAME: 
STATION_LATITUDE_DEGREE: 37.74427
STATION_LONGITUDE_DEGREE: 35.864475
STATION_ELEVATION_M: 494.0
LOCATION: Kahramanmaras_Elbistan_Turkiye
SENSOR_DEPTH_M: 
VS30_M/S: None
SITE_CLASSIFICATION_EC8: unknown
MORPHOLOGIC_CLASSIFICATION: 
EPICENTRAL_DISTANCE_KM: 126.52
EARTHQUAKE_BACKAZIMUTH_DEGREE: 
DATE_TIME_FIRST_SAMPLE_YYYYMMDD_HHMMSS: 2023/02/06 10:24:48.8350730
DATE_TIME_FIRST_SAMPLE_PRECISION: millisecond
SAMPLING_INTERVAL_S: 0.01
NDATA: 12501
DURATION_S: 
STREAM: HNN
UNITS: cm/s^2
INSTRUMENT: sensor = ACEBOX/SARA | digitizer = 
INSTRUMENT_ANALOG/DIGITAL: 
INSTRUMENTAL_FREQUENCY_HZ: 
INSTRUMENTAL_DAMPING: 
FULL_SCALE_G: 
N_BIT_DIGITAL_CONVERTER: 
PGA_CM/S^2: 56.973
TIME_PGA_S: 
BASELINE_CORRECTION: BASELINE REMOVED
FILTER_TYPE: BUTTERWORTH
FILTER_ORDER: 
LOW_CUT_FREQUENCY_HZ: 
HIGH_CUT_FREQUENCY_HZ: 
LATE/NORMAL_TRIGGERED: 
DATABASE_VERSION: 
HEADER_FORMAT: DYNA 1.2
DATA_TYPE: Acceleration
PROCESSING: Automatic Paolucci et al., 2011
DATA_TIMESTAMP_YYYYMMDD_HHMMSS: 
DATA_LICENSE: U (unknown license)
DATA_CITATION: Turkish Accelerometric Archive v 1.0 - Disaster And Emergency Management Presidency, Earthquake Department
DATA_CREATOR: AFAD
ORIGINAL_DATA_MEDIATOR_CITATION: : AFAD - Disaster And Emergency Management Presidency
ORIGINAL_DATA_MEDIATOR: AFAD PROCESS SERVICE
ORIGINAL_DATA_CREATOR_CITATION: AFAD PROCESS SERVICE
ORIGINAL_DATA_CREATOR: network: TK
USER1: GuestUser
USER2: 
USER3: 
USER4: 
[...]
-4.90376062274587
-5.699856832146069
-5.629254363889422
-5.153283465795806
-4.418503400796041
-3.60793231237623
-3.0178740669221433
-2.7454199682717237
-2.660910442585722
-2.629507526085043
-2.632188165541548
-2.802339773771133
-3.4134919897657907
-4.540288936990046
-5.892785135180291
-7.087092291316838
-7.70512259216487
-7.404308216004881
-6.333349101975118
-5.002684876560516
-3.825759919434
-3.1610265179594204
-3.127947749040791
-3.318812707378565
-3.271017928446375
-2.9419296521155203
-2.5062583731272015
-1.9886242032896662
-1.401565638793249
-0.8367432889236618
-0.23796828845754206
0.6177498115335267
1.898027371718458
3.365843841955855
4.5046798713966645
4.825868587697409
3.9972063533961197
2.184008323755691
-0.0412190037516213
-2.228867519199501
-4.336800904854789
-6.621705929563879
-9.201098831055065
-11.743653522181592
-13.660720719661313
-14.310915791688663
-13.15948974630074
-10.319356897170561
-6.525364937949455
-2.499245602612224
1.2040713018296465
4.188092271857414
6.2766563667907
7.39041506106298
7.54734327168606
7.110716842428684
6.704162016281065
6.625565998789459
6.6776962086525895
6.683856805246038
6.75746625609379
7.100797425727846
7.865344102783642
8.953669519211434
9.845489659757416
9.958686748526722
9.098071540445822
7.438573924904635
5.375610455917405
3.3481308398562586
1.4961019537131903
-0.3628150142497809
-2.397574936985505
-4.60437182845024
-6.806448525053351
-8.675762887879726
-9.876457765670434
-10.188720459340201
-9.640735042629725
-8.522818019961514
-7.058657563794631
-5.350637925480149
-3.517797448384831
-1.5988279712954812
0.4955757497962826
2.9368423520263214
5.804500234238838
8.80721261832108
11.203502331502104
11.976098506599667
10.472940201474975
7.0361321872933
2.474474996954901
-2.4504392395974572
-6.851476293625925
-9.995797834898916
-11.390906900956685
-10.672076287451112
-7.904234317579135
-3.4692235446176487
2.0627818950932277
7.546855503415474
11.3802454916403
12.338956395226893
10.282145602577204
6.068032155574421
0.9472808886123709
-3.9695544690166944
-8.052618558350463
-11.120372532832226
-13.23615239899144
-14.467171453631517
-14.717862603662246
-13.905478875731937
-12.122586021659014
-9.671459166669305
-6.8646357120712205
-3.6833361471488146
0.10853445878867078
4.4458966052625835
8.733113850958592
12.152706224068758
13.97249724323248
13.8083902782908
11.916140095248482
8.979385765373616
5.713668213672043
2.7721699013267527
0.6364955505538519
-0.5890725645965232
-1.1440042492260956
-1.0925692276621193
-0.06423022375342766
2.2276336423992826
5.585950426790131
9.35788359682084
12.437754555036197
13.596396602302937
12.367625870145476
9.210902496405666
4.8439443896362935
0.07574664408301313
-4.261432756609726
-7.487924599953031
-8.902387769116821
-7.995859792335589
-4.99475462583934
-0.8002403492290813
3.465012762760741
6.7096955978040285
8.06244386776736
7.29316446288652
4.914504663371182
1.6093272810107473
-2.009522946829869
-5.304215988380779
-7.692580545068089
-8.632354889187168
-7.9567539234640545
-5.968155216839068
-2.9465359432803537
0.8221590952695152
4.910034068226878
8.622049177714496
10.687698435197598
9.896356840122055
6.177051832632335
0.49545675438584774
-5.905787285036696
-11.775291774319935
-15.982826283401518
-17.814478322695763
-17.268956707752285
-15.165683819832859
-12.704504263823452
-10.933222883984227
-10.486531323197559
-11.305513717774048
-12.568906571641795
-13.097546454653704
-12.02139301856892
-9.175129013551215
-4.9847215798278794
-0.2516077381573711
4.083909152978409
7.164071439608231
8.397667149393234
7.837905165030242
6.05291195280323
3.7010095511151504
1.6757758018032465
0.9641766091744881
1.9702523782956192
4.259621965363315
7.003353033738059
9.423288241055335
10.851140113815637
11.050694303548338
10.488684693307444
9.786605453829091
9.116507796144628
8.111313903669668
6.15893898663602
3.0230490609375993
-0.8839829081406401
-4.904530381308543
-8.37604398783561
-10.488568480023572
-10.572867143987818
-8.654185907977658
-5.52275131537695
-2.3241919654012517
-0.05948344168288029
0.6347854449638799
-0.4794749061370659
-3.1709176505939918
-6.798515553032947
-10.449675158225837
-12.820560188862864
-12.618756767483998
-9.501196566357065
-4.032276029079568
2.7322176943805476
9.2552894547647
13.85222740613458
15.497258546517099
14.319951295558633
10.973894460256666
5.948336464825433
-0.2384939157969804
-6.777316427010358
-12.716749244364188
-17.227014555423754
-19.52162399064832
-19.03870590140689
-15.879593640161739
-10.611195633512931
-4.212852959560973
1.8596962736353941
6.048322785155308
7.337021272660063
6.003339417648003
3.1959709593114054
0.14356465885146394
-1.8663453882052927
-1.9673618202609913
-0.09972456122554485
3.3243065566986165
7.529326873006589
11.539010607895786
14.77072787611712
17.179090284628384
18.930383586745968
20.150749314787777
20.803220991058
20.65188898049041
19.239331755152865
16.218506141897
11.75383840465842
6.4657556827007365
1.1760138117962935
-3.5161121957817785
-7.432370803394318
-10.41042791487803
-11.969695283586796
-11.638442707541737
-9.565815283207536
-6.445434877273548
-3.0383856542182426
-0.10226366320583784
1.6065916106314215
1.6093280803659622
0.1628502823403399
-1.6914077834425407
-2.8142088603687245
-2.669479168704089
-1.475347309808825
0.05432477134179893
1.1753735257606124
1.4567156865573554
0.8359989889922669
-0.30076676285984
-1.2129676054828484
-1.5090744346465823
-1.4584285608599343
-1.2735175791488702
-0.8663525332082008
-0.17357760338832842
0.9009969777121577
2.4366357252998836
4.327394182177413
6.192144416876385
7.43050220817182
7.574054497896189
6.445661312312572
4.143004020792371
1.1387071780681923
-1.7788749624388656
-4.017498651424112
-5.575225615955716
-6.736984808975471
-7.741489191207487
-8.592568989501633
-8.769301445462377
-7.570055893199942
-4.728164192641433
-0.3372797933006164
5.201278092340412
11.051432268287039
16.269704700939478
20.097674580222925
21.94366303474403
21.432915664595193
18.61540472018067
14.147470227728483
9.084448235205574
4.330231980302419
0.34001267553969133
-2.9154692932149717
-5.746316737808156
-8.312202522642862
-10.630074520409043
-12.715708932481112
-14.439778379060824
-15.47159974814402
-15.433601248671625
-14.262333185869123
-12.371362898829599
-10.32042202787249
-8.314780936487903
-6.097934071323108
-3.416920033816498
-0.5621307121096057
1.4838490357992422
1.6358571217811448
-0.4091060837644733
-3.9657073992518237
-7.820865105417889
-10.74954176997322
-11.95750121530157
-11.633874363012715
-10.766935602677659
-10.120856808074254
-9.848592498096355
-9.681901184030067
-9.109931157320059
-7.808490959407218
-5.831310121114155
-3.347001062345539
-0.6953081770655256
1.4271125417134682
2.1602382628390155
0.9155603889692825
-2.100475242532373
-5.946802734149614
-9.56845691970111
-11.97988895636659
-12.331876208965959
-10.47604617563963
-7.0189477011984325
-2.5856191056589317
2.420871837894598
7.465780553012044
11.830770872309303
14.947416623186003
16.570768736360463
16.57975588807899
14.929909953885769
12.089346147440144
9.029390724905706
6.602657848571107
5.420497539035646
5.783454539068326
7.383019419187798
9.489655441128981
11.21387125537434
11.801120453101854
10.971223949384155
8.797720085713186
5.568933739833247
1.755660378022873
-2.1251947889676015
-5.472595507079621
-7.478596032210875
-7.612031397640924
-6.185019331035553
-3.8681858613179942
-1.2891532511124242
0.7573530732871198
1.4994576852221102
0.5963598838662381
-1.6763309160592916
-4.587022995847792
-7.29316240986826
-8.969354571740874
-8.984823211698222
-7.291658290036661
-4.471470576344358
-1.5191910057134665
0.45285274815121346
0.863396433492847
-0.04451883598377478
-1.605918128025901
-3.0984593995028087
-4.118660327774918
-4.807577233246963
-5.448894331053678
-6.06898788593905
-6.5534486042182625
-6.680389091920835
-5.87204253897723
-3.415390264851801
0.9168218121725447
6.542907185144697
12.220693889774154
16.532609749531442
18.549890259411043
18.148240764624475
15.85104436338125
12.711823390050556
9.920423085449963
8.28011830236843
8.079780547943704
8.975466873017558
10.069948951253659
10.40085604517756
9.471508629529808
7.518251687892427
5.173850648819112
2.901304969057645
0.8730573619250689
-1.0012811084483966
-3.026332514526148
-5.365837647811211
-7.856780197774966
-10.110680806521028
-11.762055941954666
-12.838249843735705
-13.637618334306469
-14.400051073781123
-15.371676838215377
-16.590659125027216
-17.42684784670871
-16.896645868413085
-14.419664498405105
-10.14418641925354
-4.782571745915548
0.784625999149968
5.651435223308231
9.005431764596675
10.53627404312233
10.547532422701456
9.70297461517462
8.702404923914468
8.039069509031085
7.923538131573901
8.269649197525112
8.841851889119141
9.30265992834407
9.219624361529156
8.336758714514318
6.574697729652115
4.036901949447984
1.1945803759227243
-1.319848279050219
-3.076830124847277
-4.09733267663774
-4.869734656966844
-6.106645308441999
-8.295091727430865
-11.232408439890229
-14.099709916371882
-16.016395699258574
-16.53811081198515
-15.770336582300077
-14.108820475549148
-11.923496301739332
-9.330618889797497
-6.235708837062984
-2.539164799419051
1.8365505156470292
6.825707320068359
11.93758932681879
16.190205653979195
18.374240213142915
17.75453595778679
14.689549068962906
10.382516707471357
6.333766222702831
3.8068108826427522
3.091190446012318
3.3663137991676155
3.45173365429526
2.582930158524486
0.6182101157116068
-2.0706295228417777
-4.6857014594836395
-6.342788170827778
-6.627253473481978
-5.855666712707817
-4.919329927503987
-4.723765853072798
-5.649484063580211
-7.520250875035493
-9.73746247349988
-11.358473645932916
-11.451713288326404
-9.624273298975671
-6.112962085317232
-1.5816755488117125
3.178992676757739
7.525871792411828
10.997518277250775
13.466159823957229
15.10072569699259
16.192726929494757
17.055997038327217
17.766199324099137
18.053323027076896
17.489964226808993
15.768921754002234
12.720276724496118
8.524755710696395
3.8329422179094546
-0.6687272101039414
-4.2847562081261445
-6.4350618373704975
-7.14548052062663
-6.905697908638387
-6.231110852224078
-5.524240427234436
-5.1036842730038146
-5.166844209448461
-5.737745448324918
-6.765405787021212
-8.08104071595991
-9.318178867049458
-10.03558007167833
-9.777638032910534
-8.279650628042072
-5.664531150823126
-2.3243964330317968
1.0821049714483317
3.830806924224148
5.618772959011274
6.614150097079884
7.274514376709798
8.194320910634918
9.671463501263618
11.696676809849901
14.271433579596918
17.176777406809865
19.815772195895804
21.681245934373983
22.69718425592348
22.807972966737264
22.115988206771693
21.01810665679838
19.426679748783
17.356059405630788
15.420995826221654
13.212260162866986
10.454540642126098
7.963667073519011
4.396371694698496
-1.7042957655647368
-8.974912531022694
-15.88709592823558
-21.860365561809157
-26.391708331920434
-29.107261707040276
-30.0258110748451
-28.49452107962039
-24.386516739717816
-18.971754763609805
-13.215611491665685
-7.7463506585644755
-2.7215190685812765
1.7208555647907287
4.7852549564683455
6.239359901307322
6.120835934533722
4.48038668500011
2.631830954442001
1.5888176978701645
1.0349944424152067
0.6715799357416088
0.5714134851939153
0.6927739876754101
0.7921864608470683
0.9875231738908599
1.4670862183738658
1.883855892396728
1.6503462818089103
0.6626722820740275
-0.8757139748806151
-3.0392831046288094
-5.874562494788365
-9.074322769490959
-11.868473610209563
-13.375143816580785
-13.212262350333361
-11.489382288983037
-8.406839667758241
-4.442805637268438
-0.5283733746276905
2.5419658664118936
4.401141265699829
4.903811679410401
4.058680144646257
2.300443260803988
0.17360787862343888
-1.2868995166032782
-1.0410647767336068
0.4247382098776822
1.9618232610479054
4.5481276612715105
7.092207203528856
4.974155304491758
2.247511215352491
1.4218179333086791
-2.410706792183953
-3.9691726782077503
-0.37284768617001934
2.18207664705733
2.758011473279465
3.1262398247394887
1.3929583737000661
-4.147539478682683
-10.07220461635096
-14.283057027853687
-16.671658043512494
-16.994862392587528
-16.511236604652492
-14.398561898691321
-10.757702567722562
-7.899259347804988
-6.879773622613898
-7.453329523817764
-8.336613056010984
-8.389827641927397
-7.164356891655812
-5.043027844287368
-3.1049115088993364
-1.9994486332911807
-1.2825983775853498
0.3602478599992083
2.9701008267824633
6.3917301167104545
10.846932270921679
15.367128974658653
18.680558796080003
20.896318842222463
26.407210025303268
31.480342320375424
31.148685665599857
23.71143532766958
1.2186015645635584
-23.97782771259263
-35.410085158293384
-24.931671397912513
4.213898035281137
23.63221948999614
31.31735339363523
46.36637856153885
56.74596710993564
44.704230053820275
16.152507465073384
-13.363765607050546
-21.55607955703765
-11.270654965484782
-17.116703779678943
-28.962631770609526
-18.148409380125827
-1.9253862232329824
1.859143468866602
-5.123727297615109
-16.50602236374691
-23.313234356777073
-21.96919123911231
-11.258750783591205
5.528522355240071
20.41519758273651
28.635250555556592
27.572520519268732
17.12933089275334
0.7431490622335432
-16.002898583227402
-25.042485109585126
-23.786995206980148
-18.360617414516962
-12.522245858333063
-6.821345360980332
-3.7619631603447092
-2.2725270608672203
2.2502877038737497
10.939928514719764
21.76355610755528
31.62780038331361
37.17263475017181
36.908734448695924
32.330084391917445
25.820302387195717
18.830222857458093
12.520309899771192
8.077615155737488
5.9851051064424
5.331892278445997
4.252136618106748
1.4386457162959656
-2.940008569233018
-7.740414195593473
-11.127276961910004
-11.35574570269512
-8.084089454514281
-2.586320741243868
3.0520945825381607
7.133133188270036
8.144030255625836
4.944656070293287
-2.118569634753029
-11.707544405323517
-21.960550494711182
-30.44820999997741
-35.160961855228
-34.95269992281282
-30.46924153105807
-23.571403251945327
-15.63650497808099
-8.17196812422077
-2.19965624979583
1.2191537622691897
1.8907948398197554
0.9100944020632816
-1.4577228549489172
-3.436535225049279
-3.0357710820047754
-0.40819643961682744
4.6025388041299795
11.494924004832948
17.14991993179534
18.894500384791527
16.801123231838144
11.732232718544788
4.7748102679734465
-1.7584015780655629
-5.916500207462291
-7.247481338392992
-5.380041725203927
-0.602812470443938
5.526936439547707
11.575794030990588
16.47346021621987
19.03787850286751
18.71939955903725
16.113331315664862
12.10352374855751
7.446512498023523
2.781030445993866
-1.2328295119563826
-3.851293276913823
-4.492880454797657
-2.9687969816365327
0.18406553733239933
4.013503274804357
7.383640979884318
9.145365091401331
8.756300268927502
6.0697228279202715
1.307475533295332
-4.677604378657634
-10.867813861743072
-16.2091397678984
-19.686343485247612
-20.473024276756167
-17.95184583479717
-12.453404700350594
-5.193016877848025
2.6218756429731247
9.646017389875853
14.617478261280068
17.09657073602391
17.38421882084046
16.210084202269073
14.416656635597983
12.568029644937498
10.804758834934542
9.126938138058767
7.84168685246848
7.446136368141877
8.120061531191004
9.651881770249709
11.701181683164387
13.802534710472754
15.256460735115182
15.488393032323291
14.263849685432321
11.338021076685754
6.614064164967581
0.5692483451514578
-6.128705854975368
-12.960416557625733
-19.276220475107472
-24.246656192329628
-27.114853456487644
-27.612745998378788
-26.061263553767237
-22.89475779933034
-18.653755504167382
-14.09031718584881
-9.886652980544048
-6.596285183820226
-4.5630000847741705
-3.922180532205524
-4.752455684696
-6.886734403999805
-9.703805954843057
-12.249858117467888
-13.297028939709737
-11.660448238723852
-7.229535630196372
-0.9063782362137173
6.466964555012663
14.06980907588471
20.93958184165946
26.50504077164551
30.79084651782392
34.042487512064206
36.401918223595935
37.722177251352676
37.52779468971709
35.45646683110301
31.394806432028314
25.408366514522772
17.952267122756563
9.859619408465488
2.102630631158621
-4.547558971851832
-9.77187643928867
-13.611813615369448
-16.13984133518236
-17.431196990137487
-17.565528426806452
-16.47403680857669
-14.17380556185251
-10.937639559643992
-7.464199265514689
-4.608660849926922
-2.6659782590139787
-1.781664946739114
-2.185525564367061
-3.606515353251813
-5.414894483587845
-7.034858835228584
-8.065222909799136
-8.287818185402848
-7.676017569080274
-6.3758348028809655
-4.607734195108178
-2.8729841500267828
-2.0002374761738504
-2.6079027172622284
-4.768946008640386
-7.962036765496702
-11.285257278419925
-13.982286619527558
-15.66030580185251
-16.23316706727545
-15.734603310740548
-14.231118159268165
-11.880139720234382
-8.768679835742988
-5.0331066835636165
-1.0942047951829303
2.496538767921164
5.186814168835864
6.500633186842559
6.310872374572952
4.838282647507806
2.4876928292131524
-0.027336163646923695
-2.0685232351037306
-3.474512770066711
-4.322870622210699
-4.73436078980011
-4.700274719338821
-4.150445538160005
-3.1242468042708147
-1.7156458815295665
-0.08108989416239336
1.5979822658105536
3.1356354352306615
4.353070372379225
5.174620245588638
5.634765294224052
5.828982827961421
5.862065392267025
5.80454686289747
5.64299216468115
5.275674650691307
4.587461220679104
3.6060957268273395
2.6474023389712964
2.156291012567317
2.5342498072404576
4.065289438066106
6.742793613268154
10.217715741967142
13.786762145443891
16.723714353917117
18.63932794688815
19.213572642507724
18.20766165786944
15.707093815252245
12.016511651432
7.610370963073953
3.11300893017321
-0.7631732080022656
-3.2966984575212903
-3.90502615068348
-2.4768410021506795
0.6146415746704283
4.968041101897458
10.125479778652865
15.503180355809892
20.488959349556
24.4861768897725
27.271199276361287
28.904370738049888
29.5818694994529
29.74087882969892
29.69075144749778
29.53407081504347
29.47480001512035
29.68690543513346
30.06205532704338
30.529571879293098
31.00649656381823
31.269065931144326
31.328770157021154
31.00143176635399
30.155554541371696
29.04140299873211
27.52758190218178
25.32370108507915
22.26129465921001
18.125105404781227
12.78325871685565
6.371099787162443
-0.7085823038665182
-8.05046906677391
-15.324672631960805
