AAD_Filtered_TADAS_FILE
AAD_BASELINE_CORRECTION: BASELINE REMOVED
AAD_FILTER_TYPE: BUTTERWORTH
AAD_FILTER_ORDER: 1
AAD_LOW_CUT_FREQUENCY_HZ: 0.025
AAD_HIGH_CUT_FREQUENCY_HZ: 40.0
EVENT_NAME: 202302060117
EVENT_ID: 13194
EVENT_DATE_YYYYMMDD: 2023/02/06
EVENT_TIME_HHMMSS: 01:17:32.00000
EVENT_LATITUDE_DEGREE: 37.288
EVENT_LONGITUDE_DEGREE: 37.043
EVENT_DEPTH_KM: 8.6
HYPOCENTER_REFERENCE: AFAD
MAGNITUDE_W: 7.7
MAGNITUDE_W_REFERENCE: AFAD
MAGNITUDE_L: 
MAGNITUDE_L_REFERENCE: 
FOCAL_MECHANISM: 
NETWORK: TK
STATION_CODE: 0118
STATION_NAME: 
STATION_LATITUDE_DEGREE: 37.03616
STATION_LONGITUDE_DEGREE: 35.31843
STATION_ELEVATION_M: 76.0
LOCATION: Kahramanmaras_Pazarck_Turkiye
SENSOR_DEPTH_M: 
VS30_M/S: 946
SITE_CLASSIFICATION_EC8: A
MORPHOLOGIC_CLASSIFICATION: 
EPICENTRAL_DISTANCE_KM: 155.36
EARTHQUAKE_BACKAZIMUTH_DEGREE: 
DATE_TIME_FIRST_SAMPLE_YYYYMMDD_HHMMSS: 2023/02/06 01:17:38.8092230
DATE_TIME_FIRST_SAMPLE_PRECISION: millisecond
SAMPLING_INTERVAL_S: 0.01
NDATA: 13501
DURATION_S: 
STREAM: HNE
UNITS: cm/s^2
INSTRUMENT: sensor = CMG-5T/GURALP | digitizer = 
INSTRUMENT_ANALOG/DIGITAL: 
INSTRUMENTAL_FREQUENCY_HZ: 
INSTRUMENTAL_DAMPING: 
FULL_SCALE_G: 
N_BIT_DIGITAL_CONVERTER: 
PGA_CM/S^2: 38.238
TIME_PGA_S: 
BASELINE_CORRECTION: BASELINE REMOVED
FILTER_TYPE: BUTTERWORTH
FILTER_ORDER: 
LOW_CUT_FREQUENCY_HZ: 
HIGH_CUT_FREQUENCY_HZ: 
LATE/NORMAL_TRIGGERED: 
DATABASE_VERSION: 
HEADER_FORMAT: DYNA 1.2
DATA_TYPE: Acceleration
PROCESSING: Automatic Paolucci et al., 2011
DATA_TIMESTAMP_YYYYMMDD_HHMMSS: 
DATA_LICENSE: U (unknown license)
DATA_CITATION: Turkish Accelerometric Archive v 1.0 - Disaster And Emergency Management Presidency, Earthquake Department
DATA_CREATOR: AFAD
ORIGINAL_DATA_MEDIATOR_CITATION: : AFAD - Disaster And Emergency Management Presidency
ORIGINAL_DATA_MEDIATOR: AFAD PROCESS SERVICE
ORIGINAL_DATA_CREATOR_CITATION: AFAD PROCESS SERVICE
ORIGINAL_DATA_CREATOR: network: TK
USER1: GuestUser
USER2: 
USER3: 
USER4: 
[...]
1.4342178850446716
0.6920899064522354
-0.09586264718985499
-0.6372897485909307
-0.9695868940143082
-1.3149793816202011
-1.8193826249660068
-2.5834548085412274
-3.3371121391854186
-3.7854239550773174
-3.8903790868690793
-3.7009737003456284
-3.4824516684272395
-3.6297312312514918
-3.9735138446403724
-4.138038578421747
-4.085423620919041
-3.755514344037701
-3.06580762183564
-2.1910728468523546
-1.2564218930449962
-0.16786567964005905
0.7232544827183858
1.0833678766113217
1.1290082808444715
0.915166058858712
0.3026328902260626
-0.38593959667614874
-0.7024169213034367
-0.7308417741196374
-0.6871684053984441
-0.3759015398398702
0.5363928427759267
1.9617347747004028
3.3453312276197824
4.225654624181226
4.555287743362222
4.576274319525271
4.2759880191250685
3.4646145077505026
2.3441861229790923
1.2189834302987301
0.41411526256392567
-0.13694545912377848
-0.9224269508647066
-2.1371455057609743
-3.5946940766022606
-5.228242048225401
-6.8620659779669655
-7.925485695652079
-8.294079914032183
-8.500307509072098
-8.734223101998216
-8.626439594255046
-7.725199983436259
-5.785358210476619
-3.3107692950227077
-1.0279017482585113
0.8825874356731293
2.658183568096932
4.160935127353791
4.880587867299875
4.763950957521439
4.346143671781391
4.131672437710003
3.9736992253076666
3.295707670604382
1.9352127137734751
0.3995420094428515
-0.9989452083637138
-2.5095235580706468
-4.203103221297642
-5.807882463528241
-7.151073489118186
-8.122514344761408
-8.683565881633319
-8.843026317992816
-8.579635920476273
-7.864295265655613
-6.911762165486016
-5.921294768404939
-4.760909715781537
-3.494107859250087
-2.4450015808614425
-1.5570370015570016
-0.47500574908066434
0.9577012762089441
2.4865557482148244
3.4610622715512216
3.7252212947673864
3.788802711015609
4.081702049228964
4.592633018433249
5.094585162583451
5.51335759361698
6.005600137077315
6.81688592756834
7.790358951556743
8.585396570288157
9.07056942730447
9.465275258223539
10.054039705044245
10.419276209824403
10.023254237607137
9.167484557053172
8.545650049058166
8.232714964953495
7.634311784444586
6.082113282815204
3.7924370241400043
1.2212884129311257
-1.1821806628910843
-3.1201160009874775
-4.919384055838894
-6.472975684544393
-7.665382119984584
-8.113255832917098
-7.773980689456732
-7.051841339614954
-6.121244703454218
-5.000413040616278
-3.6150216091924032
-2.3362359955986993
-1.5944173859769848
-1.7114709315936087
-2.528519708222668
-3.4076639752890245
-3.8546621933170226
-3.9986680469789952
-4.331178723843314
-5.131776171308909
-6.120246443280868
-6.663903406270325
-6.544931139494608
-6.1154683089805575
-5.852249913643523
-5.938361941279046
-5.967233079644111
-5.4788547478135055
-4.244628296322832
-2.504837686865801
-0.5376815026074102
1.6419285883255987
3.491234719963503
5.017671477448833
6.949684078816403
9.202021490405507
11.04372207517305
12.017166233883609
12.18543713579167
11.929381242675214
11.603329076440025
11.55155292531091
11.692214446822463
11.653802316989584
11.32934698361933
10.888620651665153
10.344652514399186
9.788022641966908
9.459795656218828
9.311334576362654
8.891838696885332
7.868828704475748
6.453253028351864
4.760119238736306
3.1331600139154356
2.004485416951995
1.1354340322666217
0.01675145010813705
-1.330378889604354
-2.3888157635138074
-3.002459496074101
-3.640062892977862
-4.879552377760693
-6.658073900919724
-8.500225813633866
-10.285787886046485
-12.153835663315016
-14.272065933461535
-15.961964362351097
-16.583435010983525
-16.448204613858334
-16.349755866864754
-16.74719983454386
-17.078822093337852
-16.613290395756156
-15.132943871721775
-13.065879147079547
-11.229006412299038
-10.537312806812404
-11.023427446922641
-11.885658895965614
-12.419541625962523
-12.348654983156495
-11.775034480047626
-11.27018635456996
-11.09622837998661
-10.975767330445095
-10.619329878325097
-9.775252796529081
-8.378987816800448
-6.4764928026184885
-4.616481662004838
-3.191677842339846
-2.1727905701242176
-1.4320970598847558
-0.7966903690466633
-0.1352614746602652
0.5849144118019425
1.0516818242595125
0.8875530240157452
0.09821685368733617
-0.9376997299064789
-1.7582646562563138
-2.0970671716069056
-1.9126528070764999
-1.660827572959122
-1.8806760969517944
-2.5386278708045036
-3.0547629323535603
-2.918609490869936
-2.5100252218451544
-2.1454087478339834
-1.8425413108238475
-1.808149468448438
-2.17343054282336
-2.8447038800113806
-3.6659777882364297
-4.446862942380943
-4.77487690695818
-4.664332384035078
-4.6238274401819455
-4.987435116452037
-5.8073176974204515
-6.999110109270435
-8.487061368790563
-10.041049925402824
-11.34233116549868
-12.449778349162944
-13.705673182652088
-15.214421604532925
-17.063277912955925
-19.34138935567137
-21.558040299090788
-23.31565321214512
-25.106961332671077
-27.36547474552883
-29.320503442557804
-30.207548212163033
-30.137676107373387
-29.644823302417137
-29.44462529430345
-29.43827557169598
-28.73575444213784
-26.708197820089868
-23.83226429692656
-21.678129299348846
-20.687868009607804
-19.888494992352378
-18.468227800011746
-16.35442766248976
-14.178319271165893
-12.172198157790268
-10.260098534119216
-8.30660931420958
-6.476705419830579
-5.293974702573151
-4.552343705334299
-3.9639369209172512
-3.742185541689875
-4.095524818163748
-5.070548420257084
-6.318334425979257
-7.398440050295251
-8.208888695272448
-8.997044293516781
-9.757775844175425
-9.994293267729066
-10.00233308952705
-10.069549032921426
-10.18289868324621
-10.298769780665737
-9.548242239741018
-8.46582277550263
-8.031747285712848
-7.7232898081131465
-7.5150965600355315
-7.238435276652911
-6.527343615038974
-5.915413782677705
-5.760594535975994
-6.060685911449016
-6.291432035918895
-5.798711391615435
-5.237325266821569
-5.347635520276047
-5.67161620373348
-6.226950418025785
-7.160890066788203
-8.181266548394007
-9.258850376160282
-10.336005720829924
-10.935718317569492
-10.745713516855574
-10.058154756126333
-9.074938897265644
-8.529611319006559
-8.608579661567768
-8.436810506920843
-7.6101787894202895
-6.427742610333958
-5.405872209134994
-4.949676436474045
-4.9941684979542265
-5.065359047489574
-4.956788489347143
-4.6298528976408635
-4.5074428942722085
-4.9153416288957406
-5.086646629895742
-4.760862404978045
-4.334376675754605
-3.900516698126648
-3.499577624334813
-2.7311878843859003
-1.6728273475098407
-0.6506848820054785
0.30893907112234875
1.1992293395130613
2.3932113664189
3.6117851767394598
4.30722242919823
4.689538409616558
5.101532339269116
6.119424049090273
7.7476711433357535
9.450695367911278
11.083514429705208
12.483770107205316
13.454102547599234
14.136572390108476
14.834689360839782
15.533599656040812
16.059468663257988
16.061474220175917
15.83727141694562
16.097085497977137
16.772313358227912
17.43191981469707
17.76682238437983
17.898550577784373
18.478089074613603
19.627150579648905
20.896302227707046
21.810493457293344
22.14649940623793
22.234413301028244
22.445209067620056
22.774875409610836
23.045911072086852
23.177976433792466
23.308507936762062
23.693972296496405
24.257025352969666
24.931341497851353
25.816367135723354
26.883732676531736
27.981889880815036
28.858641493423793
29.148028693004942
29.048425147553274
28.746732879021266
28.288623962812185
27.58502600802039
26.300359838948197
24.684934944534596
23.03272193192733
21.647899968114263
20.552515242098824
19.589466249232032
18.74657293864965
18.39630381227265
18.608924490917296
19.002803339873346
19.062826384647074
18.38507543013748
17.497386491322004
16.9559980664911
16.436545567651315
15.227498687110549
13.318677883752462
11.022936388834625
9.179132551101281
8.165559563367509
7.5975009054576175
6.824330364384647
5.592798891550691
4.737044105858033
4.903755834398506
5.960060756539348
6.59126874770056
6.697183093149675
6.851698224476725
7.698640114102912
9.363727237096413
11.008241325113222
12.40438459106743
13.30723287279859
14.230351506813356
14.998607327242643
15.634975708769062
16.25720862008348
16.48477821282129
16.138953485362318
15.401140766434546
15.089317974996629
15.09204803292072
15.095386186684205
14.735395985608703
14.146222502330284
13.733407123198848
13.88435941006538
14.588030338859243
15.367473846344174
15.790587395277237
15.870553592292845
16.11206271859373
16.61896185814953
17.38865641386547
18.098562063034812
18.791310822761748
19.5585416917378
20.18935285583807
20.41861235668219
20.367911950928313
20.593317934271727
21.16045385246772
21.73195887657277
21.65521815652896
20.880297364404875
19.928743042872597
18.971598523418077
18.01034303160094
16.79260866682166
15.283927153783353
13.765966543576594
12.504872843062099
11.409624768492046
10.244932456674633
9.337540711136807
9.369201146596035
10.460897764920148
11.973214806282334
13.542137781577111
14.85034374598841
15.949143412314315
16.961455921754776
17.913897323957816
18.764458108050555
19.52717630459083
20.347656940042167
20.897964433284518
20.9763471207165
20.622432235840726
20.24892241782326
20.12937387299195
20.23545639066627
20.3036418659097
19.99127137934777
18.94447433869329
17.40477919312575
15.927833926112735
14.56177171962362
13.234079940280377
11.914617496641425
10.834134376603945
9.786744513446708
8.55828309850685
7.1351163046945185
5.613085175662677
4.147774522237372
2.7339524769012624
1.7109172608354097
1.2495250744817343
1.420953073038839
1.8618581261748968
1.9939340078929686
1.8197017285445756
1.9392879348336192
2.94901656418883
4.803427268264261
6.883932249431683
8.195365558345447
8.964916811659162
9.97959472522115
11.878439650347069
14.143298001392173
15.38326897801558
15.579718599494264
15.28119028138238
15.108325367716443
15.1883888427816
15.070584466223206
14.000121943208446
11.7562677765805
8.846389104439025
6.052474325640424
3.8442581986630406
2.0278257438474347
0.3995747784818463
-1.4581499001857627
-3.5750505097811964
-5.8171637117954145
-7.932346818601839
-9.5813498977237
-10.716444526113026
-11.544743695937662
-12.298648064025697
-12.899406381080269
-13.904632032117572
-15.501122947586378
-17.25974245407939
-18.620052271362038
-19.052349198843604
-19.13895196209633
-19.64047462125233
-20.618937042009883
-21.375714637515763
-21.291800208082932
-20.744752335174457
-20.30137791243572
-19.81153557084791
-18.803033080780718
-17.51604408747362
-16.797986895752008
-16.819381799171907
-16.752495218623732
-16.10987685880865
-15.173650133153545
-14.81652584093924
-15.342760220930197
-16.2102931004611
-16.885889132935752
-17.062956886044642
-17.297785144017496
-17.597279270177037
-18.129937605006493
-18.68465459557139
-18.489229641718875
-17.992051829184494
-17.402136460730397
-16.544830335471786
-15.143735986397239
-13.537931865861156
-12.338249007327004
-11.492760819302868
-10.57344758752183
-9.551252571492638
-8.656165511665675
-7.739000280237472
-6.561618107402567
-4.801375207292244
-2.693020846829418
-0.8253407508641637
0.7282389934368464
2.123573412005689
3.2444146612845235
3.8237021646556526
3.8244723712264177
3.3482461631466442
2.811830179804209
2.331652667696438
1.4023538712586066
0.17344319589170393
-0.8247506972581571
-1.6467884275168654
-2.5503107947006805
-3.3790367950195286
-4.034070190543229
-4.4816867553758675
-4.69979853935886
-4.779406614637504
-4.861623441775978
-5.006407405455849
-5.039097686241075
-4.940705295536766
-4.75785269655448
-4.694534001877928
-4.807777282984434
-5.124447445417797
-5.694725291248349
-6.3080286053998025
-6.8093143798119256
-7.5357034402138785
-8.928677913498383
-10.457548884001973
-11.321990702002186
-11.372932704810426
-10.939498746452514
-10.416180882676276
-10.14863330875191
-9.98908668092819
-9.628608892917724
-9.204914295983501
-8.623051840782507
-7.959115233821663
-7.731535413038314
-8.298550250781712
-9.627687653592723
-11.235135194369061
-12.563389411637102
-13.267797019920923
-13.452031192522224
-13.423357378801803
-13.32541922766973
-13.243781246898275
-13.0968166601467
-12.730377934804029
-12.159286257503961
-11.793420422262928
-11.817137166622013
-11.959812045952887
-11.922227116849575
-11.590449934957483
-10.975581868201415
-9.89859274905305
-8.1579009215797
-5.916003936540092
-3.608656320563896
-1.4814824005601694
0.538353730479985
2.5377501678346936
4.059417825864001
4.568447669122173
4.061621290888971
3.041030271769328
1.8674323767471437
0.7673311079643849
-0.0023986358064904748
-0.6126644186069575
-1.4574780404058334
-2.789972360397118
-4.288944770783551
-5.638926668227788
-7.244754827012523
-9.571578429830225
-12.334318234254422
-14.633760465720224
-16.11381686196657
-17.414646770918207
-19.23181922266674
-21.544547053348126
-24.008437946727405
-26.47688126231305
-29.000065493138035
-31.622101990007106
-33.956603234953946
-35.600061015994065
-36.43839641770518
-37.026975177682715
-37.738094097555354
-38.0642950950888
-37.64376833255088
-36.621364215926164
-35.46877156610647
-34.60221368080652
-33.97181571750612
-32.884163087600456
-31.26775956894648
-29.414679060618596
-27.38056851375991
-25.12975408532125
-22.698156062433622
-20.556995412166646
-18.68990497318253
-17.00452512038249
-15.437424863550469
-13.897842527294227
-12.407511686141996
-10.877220657251454
-9.676894384036187
-9.057738422764373
-8.485048217154604
-7.1922051739975466
-5.340666663277516
-3.2807700704879093
-0.8185320444956017
2.0689476226657795
5.117390776853742
7.819452916973064
9.98037148974189
12.065375162044214
14.615635514083515
17.654712667659936
20.457870542697822
22.263331330270343
23.43341889878639
24.691374377093815
26.55319209053553
28.714126522696173
30.203226281900456
30.68789980830949
30.726796235381478
30.65080323995681
29.993948714268935
28.753355256617375
27.152275954609163
25.452159749849866
23.90150655506093
22.630180822649958
21.46056602731118
19.811588626944566
17.44825480739299
14.908692278030253
12.62463420120337
10.853158228737643
9.734752473221095
8.81756879745013
7.711310338460701
6.388585757473518
5.912193584488971
6.753012349443942
8.243253621936928
9.904612565091664
11.1805855444992
11.823222956983546
12.356237951843703
12.91015507653516
13.053172438167564
12.822572104465038
12.39372751737291
11.790494767036359
11.06358854390711
10.91187776751788
11.479956313889243
12.15197262021712
12.506090657780666
12.908699842541811
13.66549648105382
14.24511211905903
14.433620915528994
14.019112203696658
13.299735849902453
12.99865777354184
13.54528106852443
14.591999367535541
15.30624366325702
15.247115930555555
14.868165131675596
15.010325690004407
15.755533450098245
16.713762229531703
17.386152453186003
17.47439495161561
16.828867922642814
16.036323876345875
15.721035617658616
15.598223279109042
15.289373244967923
14.523424079187695
13.409032799785944
12.149541159248656
10.451040650987027
8.089909674140063
5.487455001255266
3.1044654186985023
0.7420397283633795
-1.9813966523776518
-4.667799376172111
-6.5654417207076845
-7.406473668518355
-7.6122150859129265
-7.894115583721676
-8.491825032768071
-9.330258923357048
-10.396420767103788
-11.846313437647199
-13.555945182051282
-15.111228372787503
-16.00488951921558
-15.952775273024224
-15.641534910891828
-15.757235959959663
-16.43359704672863
-17.457266988963784
-17.836243842875263
-17.02556671794416
-15.538602222098817
-14.253874787362513
-13.798987646911193
-13.91288163424424
-14.062905187368587
-13.99484004264821
-13.84628529857015
-13.606816966697535
-13.455535039165817
-13.764906663460744
-14.189526534391891
-14.480984064062694
-14.63679755156141
-14.494899212968319
-14.050911678916275
-13.617578378020609
-13.354619554645799
-13.006588189630442
-12.508249669995934
-12.182360871654627
-12.282019991469822
-12.66071794339446
-12.894489054375207
-12.799847809202893
-12.616085134577373
-12.764468381008092
-13.292247071373687
-13.762529113586377
-13.418324433015822
-12.043945533094357
-10.186896339952309
-8.541866343533291
-7.356469691517835
-6.268862229781182
-5.304139439981072
-4.62141133194019
-4.377477472299547
-4.619737604540633
-5.108202211041556
-5.53770497265784
-6.061918247952679
-6.979668546229304
-7.889510158032011
-8.213304955722874
-8.00404414680893
-8.015040176627958
-8.257147532091206
-8.297434730117603
-7.831536193271964
-6.76499074935691
-5.7015888710315075
-4.879618598804986
-3.841987872762003
-2.3441829341159695
-0.8434344985915875
0.33985715398567634
1.337455309166563
2.478911967733036
3.7819404434323727
4.707177639415741
4.7117895901995634
3.921000680302825
3.3812025398905923
3.7310029924060792
4.469483140700609
4.702538676880006
4.448545755345096
3.9365138601704706
3.2740770523279004
2.873447831268782
2.5811392255986125
1.9449759564203581
0.808351128471402
-0.4726355072615591
-1.8862294344138204
-3.979890127067324
-6.576712516857553
-8.699136521421032
-9.881480875158628
-10.551745221369202
-11.382926000806554
-12.763859231627837
-14.509220928989272
-15.704711556302518
-15.660156348959195
-14.954846661851809
-14.600233849265468
-15.04363789202387
-15.899605015242663
-16.450799718466065
-16.185833204887853
-15.222914432451168
-14.092679707885123
-13.010479811742083
-12.04310823568709
-11.142609512601936
-10.237906679841702
-9.452183916828627
-8.679237154019404
-7.74081310180357
-6.385515246539718
-4.823764425448236
-3.809628692160123
-3.6514888362132005
-3.9043402786306953
-3.8165726575176775
-3.629085614343552
-3.5994104624754475
-3.586513706097701
-3.1207515012980656
-1.9049613736357687
-0.5851192790754527
0.05907908440153618
0.1402951134253538
0.3406539402301788
0.5780925461241596
0.4278985581214626
-0.5821571552155602
-1.979786903435975
-2.6413610181959664
-2.2174853303868787
-1.6229481465605733
-1.7116145238155416
-2.1346717685975
-2.1707617167463824
-1.6117864032875546
-0.8229927167533477
-0.23287324435492865
0.08913939985477337
0.41760850886039513
0.7479284514199269
1.0074687403393285
1.0966416360669684
1.0168331725853275
1.0567293679878944
1.5989737830391115
2.4094767190934
2.884880169906132
2.9128035050683874
2.8983864667012913
3.3846615322867053
4.5273034439710225
5.85538231149655
6.472085798471516
6.19664133398822
6.07070432095733
6.525766640513178
6.894766531784558
6.564791125950306
5.467019119013862
4.1235435844863835
2.9406004434160233
1.8968684216287324
0.6845446647259876
-0.5463007909903692
-1.6860582699115092
-2.9893358301918327
-4.56796083822002
