AAD_Filtered_TADAS_FILE
AAD_BASELINE_CORRECTION: BASELINE REMOVED
AAD_FILTER_TYPE: BUTTERWORTH
AAD_FILTER_ORDER: 1
AAD_LOW_CUT_FREQUENCY_HZ: 0.025
AAD_HIGH_CUT_FREQUENCY_HZ: 40.0
EVENT_NAME: 202302061024
EVENT_ID: 13207
EVENT_DATE_YYYYMMDD: 2023/02/06
EVENT_TIME_HHMMSS: 10:24:47.00000
EVENT_LATITUDE_DEGREE: 38.089
EVENT_LONGITUDE_DEGREE: 37.239
EVENT_DEPTH_KM: 7.0
HYPOCENTER_REFERENCE: AFAD
MAGNITUDE_W: 7.6
MAGNITUDE_W_REFERENCE: AFAD
MAGNITUDE_L: 
MAGNITUDE_L_REFERENCE: 
FOCAL_MECHANISM: 
NETWORK: TK
STATION_CODE: 0133
STATION_NAME: 
STATION_LATITUDE_DEGREE: 37.745495
STATION_LONGITUDE_DEGREE: 35.864025
STATION_ELEVATION_M: 546.0
LOCATION: Kahramanmaras_Elbistan_Turkiye
SENSOR_DEPTH_M: 
VS30_M/S: None
SITE_CLASSIFICATION_EC8: unknown
MORPHOLOGIC_CLASSIFICATION: 
EPICENTRAL_DISTANCE_KM: 126.52
EARTHQUAKE_BACKAZIMUTH_DEGREE: 
DATE_TIME_FIRST_SAMPLE_YYYYMMDD_HHMMSS: 2023/02/06 10:24:48.8342950
DATE_TIME_FIRST_SAMPLE_PRECISION: millisecond
SAMPLING_INTERVAL_S: 0.01
NDATA: 12501
DURATION_S: 
STREAM: HNZ
UNITS: cm/s^2
INSTRUMENT: sensor = ACEBOX/SARA | digitizer = 
INSTRUMENT_ANALOG/DIGITAL: 
INSTRUMENTAL_FREQUENCY_HZ: 
INSTRUMENTAL_DAMPING: 
FULL_SCALE_G: 
N_BIT_DIGITAL_CONVERTER: 
PGA_CM/S^2: 37.955
TIME_PGA_S: 
BASELINE_CORRECTION: BASELINE REMOVED
FILTER_TYPE: BUTTERWORTH
FILTER_ORDER: 
LOW_CUT_FREQUENCY_HZ: 
HIGH_CUT_FREQUENCY_HZ: 
LATE/NORMAL_TRIGGERED: 
DATABASE_VERSION: 
HEADER_FORMAT: DYNA 1.2
DATA_TYPE: Acceleration
PROCESSING: Automatic Paolucci et al., 2011
DATA_TIMESTAMP_YYYYMMDD_HHMMSS: 
DATA_LICENSE: U (unknown license)
DATA_CITATION: Turkish Accelerometric Archive v 1.0 - Disaster And Emergency Management Presidency, Earthquake Department
DATA_CREATOR: AFAD
ORIGINAL_DATA_MEDIATOR_CITATION: : AFAD - Disaster And Emergency Management Presidency
ORIGINAL_DATA_MEDIATOR: AFAD PROCESS SERVICE
ORIGINAL_DATA_CREATOR_CITATION: AFAD PROCESS SERVICE
ORIGINAL_DATA_CREATOR: network: TK
USER1: GuestUser
USER2: 
USER3: 
USER4: 
[...]
-12.324194425169868
-14.499551818394774
-15.77064285246582
-15.330577314203683
-13.660932118268116
-11.924140271946232
-10.201100056488064
-8.212042971156789
-5.955619739681078
-4.127249015773207
-2.5129942577609627
-0.2087402582327528
2.383176962083518
4.250422070354286
4.072878959992395
2.3734768051201085
0.9004143168856301
-0.632766312623849
-1.2798135564374538
-0.4074094503900716
0.1270384050636844
1.1778972644371368
2.3226914940100034
0.5208750710956935
-1.82505796866505
-2.5391529677727838
-4.419282936951678
-6.462035704977909
-6.774057062095127
-7.802535216085204
-8.269016010913969
-6.071508285903457
-4.052956627575593
-1.7522639851826431
1.6504949635515451
2.6168920504958773
2.31992223910711
3.125858598583045
3.3118800495228307
3.6800982984343635
5.088694377826121
5.8245092986920985
5.683927657213371
5.696978119869666
7.180186762624386
9.705687976141851
11.543678154000743
13.036013081569843
14.039645020882284
13.07504671020198
10.86294912540484
9.334227626039917
7.324587426847115
3.9942680810526205
3.138480125064953
3.597805697363236
1.6708848677299102
1.7966701041264284
3.507774997627983
1.9702968742263267
1.7867576480924316
4.228488527501586
4.748856085577751
4.988785611860934
5.35524037138057
3.6184555035303787
2.1854352626795794
2.1306075434175193
2.2899306709895466
3.02031432083543
4.381909727669222
6.3181179677793535
6.546934324916185
5.093695222724382
5.0059292692993385
5.5195909864358335
7.898239279685736
8.937696662796213
7.631915160150279
11.656825812817422
9.18842552311474
-0.4404574383813554
2.0305289689387562
3.46686814322038
-1.5033755721333675
2.693676617865297
5.9586428683282024
1.5680859694705545
-2.4460445583315065
-0.7112238551878395
6.765800427859195
8.969987151647247
5.984473040266925
6.8201800772312
9.018748518676135
9.973073778591136
12.346850862019796
17.489568292568844
18.408443273605034
13.187155001819312
11.735584654764937
13.676662628461868
14.343708283988944
12.597640394466495
9.024854210650071
8.539145564250056
8.811579326822509
9.203055004296209
10.500146930964412
9.867838636818776
9.519164096039388
7.433264494818937
7.668385114011541
7.427302993817198
1.5555833772421321
8.0073079670372
14.427750814656303
9.805577134998924
11.115011159515346
1.5617439502657788
-7.986115055037754
0.7733236415325289
0.7302267106269258
9.051893661628933
25.69607963899146
6.961276945564604
-9.03614391593913
12.877286236951171
20.438144808479347
4.636974821466152
6.322350951373838
3.5660341082084988
-16.87499309450938
-2.8229568722167016
33.029116478845616
30.558478344060397
5.978327149392567
-11.921741059892492
-31.95754512590809
-34.26596779329453
-1.3366483568847554
26.14477138426695
21.333910698699007
13.578846082370344
19.252971715761582
19.96990413144751
10.256093126126956
8.530955064242024
18.85180697652618
22.322805979229624
17.633678387192578
13.855333853160865
7.144061187113003
4.260908277723267
9.19277390655399
10.343994024117636
9.221400854575213
10.531355526005406
8.513231348677621
2.0565624696158324
-3.8244409668754833
-5.156607817050549
-2.520072193582552
0.7211241390220986
1.8821002533693854
-0.2697176288377287
-4.261321372020098
-7.244028341571605
-7.347943909441528
-5.9764273871607045
-5.642036924484591
-4.665869153000756
-1.7183023190168487
1.2755321848793915
3.937013444152595
6.055816814197173
6.827949383597172
7.3373401070231745
8.612748290775897
10.133252310820696
10.781332292904594
10.62865017212516
10.305132335195355
10.139619422114368
11.327839542205504
12.560888390334732
11.978659560479507
10.95761642859199
7.681665128916046
0.6045101958193663
-5.400845034218927
-9.032422803086602
-14.121773991874074
-19.221486002683093
-20.466908489946483
-19.01054409450338
-17.0958289596818
-14.9979791898045
-11.773509676481734
-6.896895350123636
-2.355851754100283
2.1694381791281807
7.330032478707904
10.41584421482263
12.725499549615861
15.406044378383275
16.042991800490082
15.72725757058116
15.703116922534246
15.885026551889702
16.529730939107157
16.45419542226904
16.047836014848016
16.062497314714687
15.351968750192796
14.713885616194334
15.283888740399554
14.926933759444433
12.310443528357313
9.260687495266467
7.204537685143541
6.213222507510225
5.92916210810784
6.621048773189494
8.965175793978785
11.318446005288084
11.970684861896169
11.761752069384023
10.900023926922543
8.152819851491898
3.321764017458209
-2.227155737313548
-7.262605706856329
-10.869131393159188
-12.099780991087767
-11.623558018337034
-10.215979709723618
-7.513442627848943
-4.603991569379649
-2.6827462081251716
-0.7551675616991398
2.2547919453315477
5.938081159637814
9.513761058356257
13.070088141800685
16.342852223045938
17.701864360658842
16.95557309728361
16.161525689841955
15.913866419571386
14.706829898248827
11.591347124454337
6.864830287493644
1.7574665828300418
-2.795835187587333
-7.291749063138467
-12.056953802117201
-16.797539056288144
-21.460404474591417
-25.477394545202692
-28.034514811086588
-28.885580502508684
-28.321715614070172
-26.8210802564892
-24.401431813073504
-21.72515108020055
-20.358420696487865
-20.575974666840207
-21.239048662973016
-20.87214332430526
-19.07562516980372
-17.393341062110803
-16.545559356605068
-15.7055200098605
-14.458644006866326
-12.318571239631982
-9.059851287423246
-5.46848868116481
-2.3037998531183796
0.2688749535728899
1.9482943260198493
1.9785890324545268
1.0131025785698118
0.6402358915934058
1.0778632528892642
1.855460576200945
2.382498827635015
2.3192133225073532
1.4199067368319116
-0.6424081914778547
-2.5924725261389954
-3.403428697029047
-3.740543571850245
-3.869554345588798
-4.2580378047404706
-5.3881477706581355
-6.328888453176572
-6.517946360952627
-6.5088121939304715
-6.297878177555579
-5.538469443509212
-4.701621097097886
-4.252656272019101
-3.911170295542017
-3.4259008598199046
-3.0736243156473684
-3.2320836530322428
-3.9400432054751193
-4.579027792489926
-4.044662693651499
-2.3197555405179076
-0.3277558104411505
1.8756822037905894
4.281856023698201
6.328288366619639
7.9100312899204495
8.984741964675779
9.334443142631612
9.033964340025799
7.909420458021729
5.476126939815631
1.9150671688462018
-2.258431637800384
-6.561330910362306
-9.695940492140918
-10.544388190883213
-9.408469270979566
-7.072636120708341
-4.758606910156523
-3.950434422584827
-4.615694289343327
-5.634184068573734
-6.097305923714028
-5.430459445271006
-3.95639011696218
-1.9671504707901877
0.6427638124666123
2.880244915266581
3.709062724022087
3.252687268653913
2.41122658186489
2.1206338060081458
2.2422218852306526
2.2741808218025525
1.4129545740771208
-1.4784893665620553
-5.724358727267049
-9.79778218180016
-12.94160601065394
-14.333164228171158
-13.870337508160494
-12.443744150291097
-10.684991207076152
-8.900404273831224
-7.444435025430963
-6.589791315452914
-5.943485460479444
-5.110233548353548
-4.873437103943854
-6.029624674236845
-8.412377354595945
-11.352712915023
-13.553021819069878
-13.594588861300899
-11.136048141024286
-7.177989496695683
-3.5882162270313724
-2.268226381734788
-3.7128577236848073
-6.148221394510329
-7.61319685764104
-8.11120840481959
-8.356831608129937
-8.679433431246249
-9.40757314882567
-10.64442644692872
-12.256257155375023
-14.149711128664373
-16.0088521578314
-17.402610445114945
-18.21536401589876
-18.329178079498192
-17.511539912871466
-15.544313475948243
-12.505531853613688
-9.408368486761281
-6.895436563087152
-5.2353134709244555
-5.557675930013714
-7.727911122008496
-10.671605226556357
-13.760074829152037
-15.911441881405697
-16.480183726374722
-14.80302717075082
-11.207959053843325
-7.6760380277054265
-4.616789157422435
-2.9785449355246385
-4.259565541814952
-6.784946891245722
-8.885800110442197
-10.489356829581945
-11.464861621553677
-11.759500949984234
-11.85266212596992
-12.851492974036276
-14.411959619146089
-15.7995034261885
-17.820485049733428
-19.682255009488536
-20.145972858337352
-20.777993605102786
-22.850789056000277
-25.444918294058862
-28.052403246527287
-30.875284343763656
-32.82082908186592
-32.83747891218609
-31.890437376016408
-30.742673768791718
-28.76524742854231
-26.12301750688597
-23.285685785902544
-19.465183435587168
-14.735012231507499
-10.625547633860393
-7.87875606441822
-6.63872045114306
-6.916945475891643
-8.000362834557967
-9.357375418590099
-10.977633371164856
-12.473936675729327
-13.799421378759636
-15.738021884465965
-17.877457831217587
-19.361431203240375
-20.29648308856218
-19.606222634139048
-17.362753929035414
-15.320356662221872
-12.977221541320246
-10.990613237505485
-11.060826730385642
-12.660082988305506
-15.116580888740843
-16.06865701338448
-14.401745544706868
-12.762855406411823
-11.632409011474254
-10.67812691718064
-10.267662961667796
-9.503675921146161
-7.949612608455997
-5.525153278921846
-3.37289944888295
-3.002259774757429
-3.683745497108567
-4.2227048239527285
-3.9652446157325554
-3.03434312040401
-2.0626261344473815
-1.3188820611718448
-1.0235113441693264
-0.8556342771110378
-0.0740021920618471
1.8515116291537295
4.4847815779489855
6.8478218794894525
8.614198565313004
9.127441467113679
7.896944144107169
5.544718570643113
3.0477828623999184
0.6601576976601556
-1.7881533239944054
-3.624207684048312
-5.325166592156882
-7.115129805413466
-8.108411095210272
-9.290749008851597
-9.329469462617197
-7.680451053766041
-8.749129318683224
-12.158356125865927
-14.424443729643887
-16.488450766075957
-19.406855318377975
-21.54755826518801
-21.68372361479685
-20.565144046438572
-18.096530478749408
-14.603053515605014
-12.549687273733358
-11.679193874833562
-10.438479696292195
-9.435708512498584
-9.03926880657348
-8.304037404082562
-6.343180202975407
-4.488085839753688
-4.201577499843275
-4.471342893329176
-4.606066355059174
-4.857463432853605
-4.934835952338519
-4.3614576909257075
-3.27602451310083
-1.9617337543921134
0.172100032255582
2.6334024785925094
3.8649718721994173
3.9080908433988686
3.2866698693966745
2.3073926485502114
1.1606091638241232
-0.8378440167568755
-3.4729300478283447
-6.066344387083887
-8.962776210122215
-11.632647201613285
-13.291255778972115
-14.371084907856478
-15.350667760839976
-16.702325861059748
-18.525861771617937
-19.587181050891605
-19.025902084721597
-18.028995925008577
-17.48576376869564
-16.372233671556156
-14.60685115767291
-12.995154652208155
-11.372255508664848
-10.1967662367578
-9.523083993579183
-7.929929699529092
-5.0226343096918145
-1.6148210242897625
1.4016509139110667
3.7028615574391477
5.328967601403922
5.868426193511131
5.603458657001901
5.604477183307735
6.347726511894435
7.586086339722486
9.03228422975259
10.453124831291163
11.089407509632444
10.797743145218757
9.813724874472394
7.892744993710163
6.088995764659703
5.3687474826285815
5.57980571228618
6.982347559976355
9.420782883984996
12.356507958175277
14.745999634107346
15.534990798693334
15.453508823138593
15.221306910085902
14.442037857191194
12.59641892074298
9.659728527445964
6.39024550975979
3.3035682395820567
0.7172414440553005
-1.3405981740493365
-3.428480848513565
-5.069027125108647
-5.427177965478285
-4.970838731698102
-4.4555849552501625
-3.784761847462851
-2.3797473292073046
0.04611453486581347
3.487292913852571
7.538422485344916
11.424246981519708
14.726625982900764
17.117141736369096
18.329569634660626
18.881584192834545
19.36324497751206
19.736349037058105
19.798913893660714
19.242447444541703
17.81952499162431
15.977033432381111
14.60656617349261
14.067256698749693
14.074513670256769
14.470920018091453
14.742555492140005
14.286615797724737
13.347359459255967
11.582344005008036
9.339431630491047
7.706548687480455
5.875766975172121
3.9921334711445575
2.3590387864838007
0.4713820344994
-0.8213776720767159
-2.055971398908974
-2.4390163163496017
-2.2162243219493263
-3.631522351039209
-1.9020700425827821
1.9511322156235968
0.1390220909303288
-3.1401664969215553
-3.429983200892627
-3.140449449759196
-2.752619250519563
-1.8794274798761854
1.9321457794092376
7.814940583918843
11.580536776473856
14.546025719730649
16.822081014879153
16.18217967886435
14.480936213459119
13.75850165392937
14.60062140190439
16.97481674834607
19.166313189467886
19.910258090551224
18.8700006351769
16.237897795931076
14.300748322159913
13.500319263497909
12.48964092777239
12.750220281138724
14.139151225184886
15.230667029917562
15.481718149617414
14.588339347637042
14.443240280130333
14.310327136412953
14.507647554404645
14.57253851664991
10.917593764976782
11.728992990184723
15.510285519574873
9.22800680942569
4.909023959356894
10.529494070628164
12.790681926258856
11.134686182399953
13.021199680186028
18.804065764952234
22.00314529109836
22.57396308855526
30.031892281734148
33.106407771884896
22.163424248965274
19.25739918755758
27.504459169176613
31.58085104398836
36.255118098312806
36.87820130248551
27.74286997837211
22.82547903383525
19.361465256887257
11.722531569726463
8.500723130190739
6.480612921949627
3.927190463663007
4.418424123629411
2.0476323560196343
-3.8713752576338094
-8.267512412443875
-9.65880149562147
-8.120548021895972
-5.5733723838321705
-2.8363975276432956
0.11481702975334343
1.7239554032990154
1.980798628251597
2.2759482700151388
3.330542639849457
4.662490861727456
5.633861331643025
6.8924559009807815
8.542151489145741
9.857317854835578
10.87023064298999
11.771693463346146
12.788535287147143
14.134194177138415
16.045339358154713
18.86529929774188
21.72745976639934
23.940285663026607
25.83494418120015
26.673122831156608
26.200232572238164
24.996943683858074
22.75047277894752
20.294760982373074
18.1692402941914
15.286910575790012
12.505659572077294
10.560445803640253
8.516165298715908
6.676474703262077
4.911861790551849
3.001447954756254
2.2836845980112024
2.6046599121634655
2.5114382567684546
1.4699508369491703
-0.21298465073971654
-2.0937116951239823
-4.244660341030036
-5.927735086257543
-6.164881479659785
-5.602563622271099
-5.159633030854204
-5.700126136553692
-7.275908813045751
-8.630960807623635
-9.961557249798494
-11.641783408089397
-12.695483866002577
-13.276679646355117
-13.782005745159923
-13.814900663394628
-13.26425464623758
-12.075621758940223
-11.081281146372643
-11.131450841800293
-11.145685845594919
-10.500991982630662
-9.765629401787141
-8.608509961456573
-6.607010245364829
-3.9817530117893525
-1.3386922230421205
0.36129418993803425
0.8361594639216217
0.6538812311951024
0.7205127902113164
1.6199045722982588
2.984222046528835
4.5760143113480405
6.325217670720469
7.372486075799673
7.433121702713279
7.286970825077756
6.972283345455298
5.795837750052241
3.8847177481635393
1.9771772183726501
0.26455539084112456
-1.5239086773686799
-3.4593141690439326
-5.27502373976064
-6.400297799158646
-6.589866384118757
-6.798618986211268
-7.686456608500825
-8.296507751143972
-8.457911748248122
-9.262204232879961
-10.304609868829676
-10.459349354487873
-10.129970584513508
-10.071900049249827
-10.189010793051459
-10.499263780744636
-11.150720800804313
-11.554640620966106
-11.162253946357332
-9.934097480379583
-7.75590556708998
-4.773741229107896
-1.4141145051220623
1.455859464913444
2.4831002702492793
1.789058174679578
0.7862474151662681
-0.2828886485984113
-1.754863597415085
-3.0779201620697743
-4.014895432004393
-5.396926852609252
-7.509734120686525
-9.696118788874372
-11.844842667631397
-14.393116939735766
-17.20106823418216
-19.549359396269
-20.97835744927405
-21.347833922562547
-20.375745371943047
-18.26125311885309
-15.872511630870804
-13.275147408238393
-9.793853820989789
-5.910812952095224
-2.9270882532426383
-1.2094741281247239
-0.22562558727865126
0.5227605741454143
1.295826981495552
2.5897194063620366
4.46038346628494
6.008968493784017
6.817778668537743
6.976129236481823
6.745572233421152
6.635565824903672
6.169842012774509
4.901402783339627
3.4093351662815876
2.015481239091361
0.6922556445371798
-0.9280923317010719
-2.981263445320114
-4.755147629105484
-6.005733527941411
-6.916016231787182
-7.470981973476959
-8.283445065768605
-10.21614979350599
-12.85979806720931
-14.93971913971695
-16.18194276418079
-17.071829516849217
-17.708675323453118
-18.040820857717957
-17.81610429064973
-16.78987294029747
-15.230046964965696
-13.444977149249775
-11.59105051835697
-9.79328734218929
-8.467991191283916
-8.244033657082513
-8.921384703450565
-10.044671708540408
-11.343940755069779
-11.73503687632338
-10.691679850076582
-8.834243214801303
-6.07877617277429
-2.4265425624354524
1.1916318104110777
4.188643936620374
6.046284128991574
6.24180934534313
5.059101674084119
2.871464555138013
0.351479243533974
-1.1692817447834876
-1.3916196588833027
-1.142114830244394
-1.39996174726409
-2.8221252496772244
-4.5672302666470435
-5.427301952100175
-5.454606556676619
-4.675326513756432
-3.254228788105208
-2.3030821990213375
-1.977709978612421
-1.469431479064021
-1.1123323117863961
-1.4203810484167958
-2.1052346436538087
-3.396927726518735
-5.235763747245584
-6.434016654301298
-6.383948247371341
-5.549407088102738
-4.377064032602465
-3.017246829231784
-2.017863781118099
-1.930899835793561
-2.597635129044386
-3.9375819795761253
-5.660132320899693
-7.032374297848552
-7.9490721026098985
-8.563398553233835
-8.717586563815733
-7.902374835579727
-6.059324320101481
-4.441079390416231
-3.615414731075786
-2.845739874923907
-2.2148289903164255
-2.1757911149808686
-2.341087476759948
-2.545626175527627
-3.025984651782566
-3.2829391135705377
-3.160536735082106
-3.4724061883897
-4.109894617099099
-4.608144833687877
-5.1465721636444
-5.605274218288674
-6.184550806505969
-7.244459897749849
-8.627211090865524
-10.39129611612542
-12.1912894349193
-13.346430837688791
-13.767454879442672
-13.270660050643567
-11.775295045497742
-10.290285987735178
-10.19772056473568
-11.531932019679054
-13.147875212095403
-14.430496104947425
-14.770897379344884
-13.294679634643543
-10.664191410499148
-8.142504706730554
-6.310707119786998
-5.7937717637290485
-6.078367001194688
-5.836176248994643
-4.983541380841426
-3.5381775560945057
-1.3649823686417908
0.9721994081229124
3.3736923310499396
5.8923255502896055
8.160255903805943
10.302536542364997
12.454612577672398
14.086613965872155
14.713237635665568
14.420364071263844
13.48498003538826
11.799669645629068
9.344300438550047
6.838082578505975
4.940138547544173
4.089759791632194
4.861853867589769
