AAD_Filtered_TADAS_FILE
AAD_BASELINE_CORRECTION: BASELINE REMOVED
AAD_FILTER_TYPE: BUTTERWORTH
AAD_FILTER_ORDER: 1
AAD_LOW_CUT_FREQUENCY_HZ: 0.025
AAD_HIGH_CUT_FREQUENCY_HZ: 40.0
EVENT_NAME: 202302060117
EVENT_ID: 13194
EVENT_DATE_YYYYMMDD: 2023/02/06
EVENT_TIME_HHMMSS: 01:17:32.00000
EVENT_LATITUDE_DEGREE: 37.288
EVENT_LONGITUDE_DEGREE: 37.043
EVENT_DEPTH_KM: 8.6
HYPOCENTER_REFERENCE: AFAD
MAGNITUDE_W: 7.7
MAGNITUDE_W_REFERENCE: AFAD
MAGNITUDE_L: 
MAGNITUDE_L_REFERENCE: 
FOCAL_MECHANISM: 
NETWORK: TK
STATION_CODE: 3140
STATION_NAME: 
STATION_LATITUDE_DEGREE: 36.08155
STATION_LONGITUDE_DEGREE: 35.94982
STATION_ELEVATION_M: 3.0
LOCATION: Kahramanmaras_Pazarck_Turkiye
SENSOR_DEPTH_M: 
VS30_M/S: 210
SITE_CLASSIFICATION_EC8: C
MORPHOLOGIC_CLASSIFICATION: 
EPICENTRAL_DISTANCE_KM: 165.82
EARTHQUAKE_BACKAZIMUTH_DEGREE: 
DATE_TIME_FIRST_SAMPLE_YYYYMMDD_HHMMSS: 2023/02/06 01:17:40.6088120
DATE_TIME_FIRST_SAMPLE_PRECISION: millisecond
SAMPLING_INTERVAL_S: 0.01
NDATA: 13501
DURATION_S: 
STREAM: HNE
UNITS: cm/s^2
INSTRUMENT: sensor = GMS+/GEOSIG | digitizer = 
INSTRUMENT_ANALOG/DIGITAL: 
INSTRUMENTAL_FREQUENCY_HZ: 
INSTRUMENTAL_DAMPING: 
FULL_SCALE_G: 
N_BIT_DIGITAL_CONVERTER: 
PGA_CM/S^2: 218.709
TIME_PGA_S: 
BASELINE_CORRECTION: BASELINE REMOVED
FILTER_TYPE: BUTTERWORTH
FILTER_ORDER: 
LOW_CUT_FREQUENCY_HZ: 
HIGH_CUT_FREQUENCY_HZ: 
LATE/NORMAL_TRIGGERED: 
DATABASE_VERSION: 
HEADER_FORMAT: DYNA 1.2
DATA_TYPE: Acceleration
PROCESSING: Automatic Paolucci et al., 2011
DATA_TIMESTAMP_YYYYMMDD_HHMMSS: 
DATA_LICENSE: U (unknown license)
DATA_CITATION: Turkish Accelerometric Archive v 1.0 - Disaster And Emergency Management Presidency, Earthquake Department
DATA_CREATOR: AFAD
ORIGINAL_DATA_MEDIATOR_CITATION: : AFAD - Disaster And Emergency Management Presidency
ORIGINAL_DATA_MEDIATOR: AFAD PROCESS SERVICE
ORIGINAL_DATA_CREATOR_CITATION: AFAD PROCESS SERVICE
ORIGINAL_DATA_CREATOR: network: TK
USER1: GuestUser
USER2: 
USER3: 
USER4: 
[...]
-6.304885144765212
-6.712630613945843
-5.650721605544668
-4.968190129673873
-5.816615050148143
-8.057592746983012
-10.178581056807406
-10.608020382514988
-9.78487184477179
-8.017312393043802
-4.6996240148994
-1.4386389904560388
-0.7025234290755226
-2.1428032982448
-3.6048073386879143
-4.8618503670145925
-7.268198352709008
-10.139879602340208
-12.274164707566852
-13.729740650150521
-13.395637635145176
-10.773613789240512
-8.57948676410579
-8.957387191231604
-9.357798228649308
-7.064250991973067
-4.3938717703946795
-4.112592749758209
-5.336609492355312
-5.902342015132756
-6.1024001506186885
-6.938396425025943
-5.452438904437027
0.5160210453717367
7.885166882873729
13.5754392704851
17.388771000536117
19.382722043410265
18.985284458953515
17.130584936144754
15.434527157108143
14.202594454638481
13.754262494191016
14.29062701429566
15.423767526620557
16.67846503883156
16.877139523587086
15.154956598812436
12.362637052421364
9.848985906277745
7.861054754573058
6.218669187890544
5.497378036145497
7.344610888349321
12.354466597208164
17.576127263509044
19.278625677021722
17.644587228720017
16.85552552106918
19.532638259585653
23.934833337989083
27.403870158451003
29.163570797831984
30.629994512330086
32.81245013827523
34.72063325393234
34.790121139475
31.309346419227577
23.91175748647516
14.61562808833849
6.241959318440497
1.2908986736166792
1.0051853107611841
3.7336982788591517
5.3768803625013755
4.813060913224979
5.621364185765298
8.85141222771762
10.951002283197921
10.533739669028611
9.841656318536835
8.229199876501129
2.1387102937795945
-6.104290946019487
-10.524130732513754
-11.672707169334206
-12.85194080300734
-12.865003222997133
-10.061616068641461
-7.563266908368895
-7.984445533659353
-9.17083723451892
-9.170763597923893
-7.513355981454887
-6.332766814289617
-7.141645641574364
-6.424716266219831
-3.753301832565561
-3.4205764717239826
-6.73284412749069
-10.233713812855877
-11.656332411760246
-13.046966940337864
-14.970973303170782
-14.551285937386295
-11.006437859683906
-7.136738828167342
-4.463013941158241
-1.9609801595597778
0.40533873238559653
0.270867347561481
-3.6586092044387324
-8.183876140256016
-9.128421088598262
-6.456425983605693
-4.216629851909429
-5.891286685348128
-10.486941162128044
-14.351785594716459
-16.738698559541184
-19.744766326471684
-22.522895188563112
-22.806382133801865
-20.246907578018362
-15.45273749533024
-10.451662714258083
-7.744103480101815
-7.787285992811836
-9.07486772169413
-10.499929402987767
-10.897889857608721
-8.531009188516622
-4.685920409866425
-2.943624527828676
-2.7371442499526704
-1.6511878291300925
-3.971314329358074
-12.427656136775362
-18.618312768664513
-17.490721542615134
-15.430228045008755
-16.8668198640304
-18.517401799301823
-17.455195705849295
-15.602927139569925
-14.928219910289958
-14.147878522172215
-11.060329239304279
-6.326647530722996
-4.380077554584196
-7.514441461463833
-11.255385775749227
-10.64411226043957
-7.389152077800005
-3.6259176745622046
2.715479588037818
9.837055066389446
12.916487166573772
12.914431552673642
14.097749069411444
17.726747553001626
19.795809411074814
15.943859168787553
8.543770927976492
3.807903349047497
6.617181224426966
13.752119984600762
15.054807361956025
9.278666610487807
3.8061347917218105
1.1323743470926162
-1.0313088370362293
-3.6855544772682864
-7.020215961260525
-11.115237788367502
-13.356520067780755
-12.728760447606286
-13.874997162410033
-18.33680852679707
-20.155785128598353
-18.39489992305219
-20.16252720881334
-24.515038473612673
-23.95966674778649
-18.47297704209944
-12.259234530398126
-7.458805648768712
-4.88358746055849
-4.587433177784028
-5.533585832308841
-8.36722155930229
-14.34401709410624
-18.001694298171223
-12.35147020636344
-0.734728236674064
7.750926247499298
9.679408910384428
9.380194442648332
13.134961408260638
20.27464080001241
24.964215876222447
24.809965093179276
21.24482728677128
17.355002069281884
13.103434655632826
4.046433101142364
-8.946157061513272
-16.39972233877416
-14.137872300192837
-11.589590350852236
-17.10152208932652
-25.073322097769623
-25.292599164892206
-19.71936979353015
-19.308728314797296
-24.858378747056097
-27.399117160570615
-24.86881333684526
-22.34579691428785
-22.269339429971854
-25.256522368838212
-30.224679033620102
-32.44395120143998
-30.15588545559699
-24.877698326281386
-16.787951441482736
-8.23346656650398
-3.084656346164493
-1.7720641066652816
-2.5587568804159146
-4.686802055833047
-6.6159468811685604
-4.796840615357321
1.2022662958270651
7.858634905106208
11.58765930981605
10.898676371930021
6.701483541452937
1.538354879839868
-0.5637865099531257
-0.5955202245272977
-4.240923427823712
-9.0133121948741
-8.191225549033499
-2.5127135883221174
4.307068714084059
9.223816828404482
9.04033238413275
6.402287308676751
7.438130967157725
9.612769592010459
5.077824206261234
-3.6344149342210197
-9.399540940581286
-16.336025237354352
-27.407300547009065
-33.67826843835134
-31.719595386112083
-30.16811909641307
-32.87076073533387
-33.49825788466193
-29.73648842416125
-28.932858924910263
-36.11063873114863
-45.18583279500302
-48.08939652267208
-44.28238601171497
-37.29377555912062
-31.736309263705646
-32.89426575726933
-40.8208885757552
-47.85942908379745
-47.78942306089082
-43.331388722005094
-41.00469115992677
-41.50952276960385
-39.43248979970544
-29.73167618238686
-13.709892600801467
-0.38818886969926053
4.080938599416598
3.651161773738426
4.132481782179562
5.904714068294303
7.046835700433236
7.955519623052584
11.325120709755005
18.66907678973414
25.64623560017361
26.136701641706505
20.89468308010367
16.596036203932417
18.136152695716724
23.302866761453867
28.042225544746145
32.651060491554354
37.55438812396143
40.72963991537865
41.24697943207028
40.899696746226354
40.76858340556382
38.910605368282056
35.804023709911206
36.075798610750724
40.71111596752306
46.02350928584557
49.22400634604013
49.021819029586624
46.12002501833782
44.31189299581109
47.04422222165228
53.69905763863077
59.66319832842334
60.65461562295887
56.146617848979844
47.77046330674596
39.5259549847581
35.15724142155238
32.68291471494077
28.86372497378259
26.124666178651676
28.674026038225993
32.7441127975415
31.126374312495468
25.201396885356438
21.156971532006974
20.31099805241912
20.607489460750582
22.016540183572058
25.014695096424596
29.695205324108148
34.63727485700022
36.43799331891854
34.096926867916956
30.92863757691106
31.645797917785895
33.353776788789325
29.049446569119468
20.833210649429255
16.869640718802476
20.19746953765653
25.18591561665624
26.53793678618641
26.274233773000894
26.586912347877103
24.766303926541894
19.950018953603045
16.2388758333604
15.803479277198145
15.694561950120532
13.67507791100706
11.941304348356173
11.210211919239399
9.193874996653474
5.197651064514829
0.15709884550392222
-5.784662278367985
-12.971606409136125
-18.178486001115253
-18.37495208313026
-17.140476486646588
-19.823295362453855
-24.898565313046436
-25.594331027328444
-20.63489487281489
-15.05683891336901
-13.596168416407876
-16.98218768810681
-22.029880709374112
-25.911401928312944
-28.46385377550414
-31.63147052259202
-35.55697427265584
-37.03632429251511
-33.929420690458265
-29.12747132006298
-26.56847926366414
-25.603709486564032
-25.940330243313074
-28.285330856875674
-29.463541613486775
-24.62363291015402
-15.283733935381154
-10.897344783624682
-15.504069954026168
-22.749094553846984
-25.127456362013863
-23.15084631229866
-23.346363363083373
-25.96030506580284
-26.62636297862446
-24.85510264062647
-22.331714366911935
-18.7758731042161
-13.697949997012461
-11.11170786693267
-14.775641400596625
-19.839671447547317
-17.907632658212414
-10.648568274504093
-6.686454390370623
-8.73108992218791
-13.797452980151638
-15.729057651672024
-8.96933319551241
4.2202649801151635
13.884430266050298
10.840886388078731
-1.6600539339926859
-8.92222557269108
-3.3436307065396726
5.80236419261049
7.773503286762672
4.973252261099935
4.2369235145229345
6.800550260142139
11.784001062054422
16.792573663859333
16.84893734343836
9.936779695474984
1.130323156755502
-2.4650402302990773
-1.0481161515637385
-0.3342505931234883
-4.536756855549503
-14.48132895532906
-24.82531767721892
-24.5426331875102
-11.34693125199868
-2.431143158445919
-10.342932116786807
-25.15913637566294
-34.04650959924173
-34.529735218346175
-31.968646376026527
-31.14771521273866
-31.80794359359702
-31.815465243247118
-30.28313079947983
-30.561063807924466
-33.64011837027272
-34.618285580068914
-32.36546784153395
-31.26711223011323
-32.5283894977082
-33.35027480065499
-31.730710265056675
-28.37599268403561
-27.21791131190189
-29.83094061456282
-31.561422203081097
-29.289871880972427
-25.56987538267449
-21.800769339666772
-16.186948811146692
-8.703862969848997
-3.293195183666573
-3.546728224873571
-6.9892656133619235
-7.971350419793635
-4.860373534792653
-0.9485970117703948
0.3116452858564969
-1.7106755620180478
-6.060082502137445
-11.49057431749122
-15.78864477776767
-17.973390217306463
-20.057342977222746
-23.00446450526432
-26.1257815960388
-28.93989795021735
-30.559258847501134
-31.250932754332617
-32.72759700492022
-32.99098302507332
-27.80146786879595
-18.376715721588155
-8.314452938093734
1.0615790094582982
8.44586656212945
10.976483920432713
8.686282635961904
7.669038331574933
9.759989527827896
8.483523927419792
0.24537427307927515
-9.162450989985645
-12.929584934341996
-13.325955537459764
-15.34306216059512
-19.066187957795325
-22.068487666284664
-24.37023055143824
-29.378500442377455
-37.613381916955476
-44.69556138123117
-47.86317995984702
-49.914888868809804
-53.1215259181528
-56.89728728637431
-62.57659378987309
-70.71738151063614
-77.7869731309007
-80.57043495633211
-80.12738556402608
-78.37795563315609
-75.17347320434652
-71.30737172974271
-69.27775823463918
-69.64816002944183
-72.27130733496426
-76.94851759233065
-78.5059030054276
-73.14669036519307
-65.19828710874675
-59.569209606620184
-55.778474758879625
-52.31486208273945
-51.34880469383112
-54.364422076051234
-59.36962397698041
-63.867082173760465
-67.08967385655706
-69.7704771561754
-72.45299486842325
-75.49683618308143
-78.2680120904429
-80.46513107332561
-82.69072949559833
-84.15221426117517
-84.3196536331708
-83.39800765578171
-82.1837933268166
-81.96845990662983
-82.41500774819811
-82.56603224234456
-83.06605268960064
-85.12456829990764
-88.18237437604009
-91.26749609841025
-94.02967468183161
-95.378922634594
-94.64241634994306
-92.39787015507513
-89.79009663944147
-87.72080638939146
-86.2703629066458
-85.45560320923099
-85.2374597567407
-85.33637055022358
-85.40254192813653
-84.60251942941004
-83.1897762107197
-82.70035006093383
-83.53828501032416
-85.2759084346203
-86.93650834553662
-87.07857907973923
-85.11053814979228
-81.95522575645735
-78.76418564991076
-73.834878148424
-65.90780844879123
-57.86717424984242
-52.725397700330454
-50.61559220335038
-49.34678245685859
-46.488275284536016
-41.23535649879578
-34.921076822323
-30.156264776670955
-28.007983422237178
-25.90279564412108
-21.07188607558884
-14.378986320101234
-7.772031978746271
-1.5743573602101042
4.728002660063558
10.380850486307525
14.793507258372982
19.694719507285793
25.563789655785243
31.578631869661645
37.26369574440311
40.4249536401819
41.6047523889222
43.45435093572511
45.71388368100159
48.34916135603437
48.8189493592761
45.96112249902813
43.047295390979144
38.31668223357206
30.66303362959915
23.079754253365902
16.331175233961133
9.980191319424975
3.001411830551645
-5.46846457143738
-15.007260706916052
-24.276116340221357
-31.00046352752089
-34.48302675141649
-36.15705853140801
-36.705970730867755
-36.031964360141956
-33.6707964416351
-29.164043693060986
-22.307103036383232
-12.923724621003169
-0.3559615823985145
16.639355875266205
36.22531460839685
53.39602966684234
64.24567606045099
69.9749021468984
76.14741708446435
85.44994997485061
96.45940693175517
107.24463701972576
116.44896753553363
123.94235396387414
131.56878084487963
141.1893220648477
150.48128525671402
157.40878649439486
163.84939258044173
170.27232504644678
175.60589377991246
179.2638009960137
181.6187091185177
183.238150071588
184.4561737555385
186.60961360584866
189.3130684947657
191.5027362597463
193.27624143450544
194.42994074076145
195.69075975047085
196.91449339218204
196.98602337597993
195.16866610207123
192.36291182391025
191.51655696326063
192.19021140680553
192.53660767665747
192.00192266841793
190.62183007286816
190.76315055168416
192.62508241692422
193.7733683665174
193.73435619137084
193.57093121347165
195.00533014179575
198.70308743274978
202.44803804921426
204.27796382567553
205.32928331245765
207.31719194821557
209.69522381714373
211.51536916969698
213.00006355105432
214.25623614796496
215.2155511523851
215.63660851091112
214.85833445367942
212.0860722730851
208.03294777484064
204.29673510824514
201.0945760445253
197.14759685204947
190.85584385069617
183.10316769990217
174.34250972774683
164.21307785290722
153.57991783970084
142.2952797567106
131.1711869099165
119.5004138606305
106.10092009657437
91.92510881074064
76.71718580097064
62.75496715359676
53.03468635244349
47.11277503393034
43.40261407169441
38.37350316786512
30.086602779809287
22.51734093245426
18.295619186176065
15.525525501712156
13.916716841408244
14.479730516371285
16.43590984168245
17.887255336646344
19.141629871892626
21.774414898793772
25.53550318719668
30.09915241533172
34.45801041025973
37.26600414756291
38.53477553238221
38.500896837519356
37.23289456594617
35.125201038282796
31.381426420999908
24.513989710807095
15.982548151364938
8.41040747502614
3.673009658381941
1.1136035628326744
-2.1952298886089365
-6.117707030512693
-11.903694616019399
-20.12306966069385
-27.487554786160228
-35.77287981526301
-45.59958156899496
-55.370946644022844
-63.87528443606252
-70.1758696029938
-76.99812858940157
-83.0988576590608
-87.82547440211616
-90.72504807036985
-90.47965440932413
-89.24568061554018
-87.22869865019767
-85.86038699618223
-85.06733282939567
-84.95467217384936
-87.53091055407441
-91.74711450706062
-96.35921722382187
-100.72418268431237
-104.95760329650916
-108.48021355127541
-111.13546979763105
-112.56927788410434
-111.50900373408318
-106.88292585917293
-96.01863737795468
-77.32681968082731
-51.51238134623615
-24.55517438514957
-5.647569145179048
1.8110862708612454
0.9871547196216279
-1.3795822538542644
-2.071491566704141
-1.8238053117129893
-1.1379417664106726
-1.4706560711236987
-1.9147239786584962
-0.9389736142078429
0.7576487632606719
1.9284798998609498
2.679520343614411
3.993765944929347
6.063013410964787
9.759186975324488
13.335586097448068
16.663854257711314
23.377432364616784
33.45176476402335
44.63361822223945
55.12994174536659
63.15362359404715
66.47595548326524
64.8993076990723
59.400845958271745
50.139525710535004
38.85602219845384
28.42933123223671
21.064771603478626
17.112907363156214
15.527417981713535
14.258833261418411
13.293523637890733
13.64539402377619
14.347023913192777
14.802507584406486
14.193546281474715
13.510339286950513
13.761734219211585
14.297088085115522
13.194335138573148
7.208291140453621
-1.8532034326661688
-10.590472941079513
-18.03159758331326
-24.72367360614345
-31.699689571010747
-38.28710119612371
-43.88757266644097
-48.48403368653507
-52.302681762336846
-54.82611840780836
-55.902403983389654
-55.63300417578141
-53.45263437464956
-50.08219293712014
-46.708132933990036
-44.23247379780958
-42.607210692984616
-40.95363703088699
-39.31975164214006
-38.40703590375916
-38.75560835307176
-40.1465903394387
-42.087495140844396
-45.26185444493303
-49.937316494975455
-54.473355602819446
-57.88178970263719
-61.1327694757081
-64.98474695350482
-69.7014921217737
-74.8096146950474
-79.33275696440661
-83.9345792895606
-88.8981216937851
-93.47099661100043
-96.68264118210477
-97.95965419784011
-98.4076226464596
-99.41857308457692
-101.65246626746251
-104.71240149605582
-109.04650868760703
-114.76303935707634
-120.45465746104719
-126.14134040254143
-131.47887069596462
-135.3558322730569
-137.66451673743998
-139.91195919860476
-143.56675440947603
-146.41549207630274
-146.20110601844746
-142.98416633407734
-137.10621032604465
-127.7957938993249
-105.87195748272278
-65.43122759604474
-26.545763596191488
-14.392415663331406
-25.196823459140774
-38.53424529698373
-45.045375340333074
-46.717203643903524
-50.883651026485005
-62.097080419195194
-73.20457567496919
-77.91961782280904
-77.99515851867586
-77.30510943720367
-78.38756215773665
-80.45135102961505
-82.09486642280525
-83.5187228579396
-85.46785799571198
-85.53623345782701
-79.31090653001289
-62.98675760940839
-35.191875214573436
-4.5896055399035625
15.408365798196051
21.85586402790745
23.053768103888803
28.210044825120082
37.89337525481804
45.7529794965807
47.296881043623344
42.718674050660816
36.879811853475694
34.57690244335755
35.25876585594809
35.534447784608936
34.27574292104393
33.941973850357996
36.17424825946148
39.0864137642452
41.546980947776916
45.790618595084965
52.87919153687877
61.34761385162202
69.64111396056826
77.97158163710645
87.05508165778458
95.02893824808314
102.0024606174694
109.75971188513638
117.06200996493428
121.6695142507966
123.21386123809788
124.90272056415634
129.26030777684625
135.5360505011192
141.4249449667426
145.68186041766694
148.62135171264453
150.62774967280131
153.10919455736496
153.38441990957264
150.2070367892973
146.52051192318078
143.09204024944333
142.14541751969998
142.16709717819074
140.06221325084286
136.61945320264292
132.89592308663683
128.06962658209972
118.35075174506791
99.29891086394127
60.2792875052893
4.236892001389295
-37.5053051863619
-47.76732818053535
-39.19997341094628
-32.63940825695412
-40.874042077473916
-55.492689618492676
-61.50683346263019
-53.38364396737641
-38.681721133958476
-33.1273132417404
-38.35957667841185
-44.10862884051092
-44.704042076088854
-42.32374702746123
-40.96859485082632
-38.62234549698691
-34.12173715968719
-26.089396507852868
-12.572758622335071
0.15040915267234384
6.312212066716088
5.197212267179812
-1.182163869962257
-8.343606077954417
-12.647059244460042
-15.194286746481636
-20.83598175066927
-30.412094801906225
-41.0222765516901
-48.62521055136257
-53.142986971677445
-56.50449116896732
