AAD_Filtered_TADAS_FILE
AAD_BASELINE_CORRECTION: BASELINE REMOVED
AAD_FILTER_TYPE: BUTTERWORTH
AAD_FILTER_ORDER: 1
AAD_LOW_CUT_FREQUENCY_HZ: 0.025
AAD_HIGH_CUT_FREQUENCY_HZ: 40.0
EVENT_NAME: 202302060117
EVENT_ID: 13194
EVENT_DATE_YYYYMMDD: 2023/02/06
EVENT_TIME_HHMMSS: 01:17:32.00000
EVENT_LATITUDE_DEGREE: 37.288
EVENT_LONGITUDE_DEGREE: 37.043
EVENT_DEPTH_KM: 8.6
HYPOCENTER_REFERENCE: AFAD
MAGNITUDE_W: 7.7
MAGNITUDE_W_REFERENCE: AFAD
MAGNITUDE_L: 
MAGNITUDE_L_REFERENCE: 
FOCAL_MECHANISM: 
NETWORK: TK
STATION_CODE: 0217
STATION_NAME: 
STATION_LATITUDE_DEGREE: 38.029958
STATION_LONGITUDE_DEGREE: 38.556268
STATION_ELEVATION_M: 798.0
LOCATION: Kahramanmaras_Pazarck_Turkiye
SENSOR_DEPTH_M: 
VS30_M/S: None
SITE_CLASSIFICATION_EC8: unknown
MORPHOLOGIC_CLASSIFICATION: 
EPICENTRAL_DISTANCE_KM: 156.69
EARTHQUAKE_BACKAZIMUTH_DEGREE: 
DATE_TIME_FIRST_SAMPLE_YYYYMMDD_HHMMSS: 2023/02/06 01:17:39.0367100
DATE_TIME_FIRST_SAMPLE_PRECISION: millisecond
SAMPLING_INTERVAL_S: 0.01
NDATA: 4032
DURATION_S: 
STREAM: HNZ
UNITS: cm/s^2
INSTRUMENT: sensor = ACEBOX/SARA | digitizer = 
INSTRUMENT_ANALOG/DIGITAL: 
INSTRUMENTAL_FREQUENCY_HZ: 
INSTRUMENTAL_DAMPING: 
FULL_SCALE_G: 
N_BIT_DIGITAL_CONVERTER: 
PGA_CM/S^2: 17.472
TIME_PGA_S: 
BASELINE_CORRECTION: BASELINE REMOVED
FILTER_TYPE: BUTTERWORTH
FILTER_ORDER: 
LOW_CUT_FREQUENCY_HZ: 
HIGH_CUT_FREQUENCY_HZ: 
LATE/NORMAL_TRIGGERED: 
DATABASE_VERSION: 
HEADER_FORMAT: DYNA 1.2
DATA_TYPE: Acceleration
PROCESSING: Automatic Paolucci et al., 2011
DATA_TIMESTAMP_YYYYMMDD_HHMMSS: 
DATA_LICENSE: U (unknown license)
DATA_CITATION: Turkish Accelerometric Archive v 1.0 - Disaster And Emergency Management Presidency, Earthquake Department
DATA_CREATOR: AFAD
ORIGINAL_DATA_MEDIATOR_CITATION: : AFAD - Disaster And Emergency Management Presidency
ORIGINAL_DATA_MEDIATOR: AFAD PROCESS SERVICE
ORIGINAL_DATA_CREATOR_CITATION: AFAD PROCESS SERVICE
ORIGINAL_DATA_CREATOR: network: TK
USER1: GuestUser
USER2: 
USER3: 
USER4: 
[...]
1.7247884462378098
1.8358558723103395
1.9829904995926935
2.7215918141306688
3.7156185991173682
3.7235289066614814
3.2196141376785006
2.9494892317230232
2.607668730363385
2.1578091119433815
1.8503664623749525
1.6486320755053707
1.4197191666109552
1.4194297040537613
1.6202999334918684
1.6106504302936158
1.5449603514408061
1.6542910599967342
2.0376302542684477
2.677496474265467
3.2358275075312535
3.5107032766903146
3.1686720521350193
1.717883522954187
-0.6885455340771972
-2.624277321836055
-2.6495410616215214
-1.1125513740660922
1.1868175251271975
3.694907012247589
5.455358679484235
6.070150790564886
5.8489799041593535
5.156732998466489
3.888499059886668
2.0996996232749594
0.4463730739404081
-1.0033531984128872
-1.8153503447135972
-1.7467008185723225
-2.0909620415491963
-2.7314206804399936
-2.7765774464585755
-3.1592766309556928
-4.4752813359274555
-5.809255100812951
-6.277239368551542
-5.891004904378319
-4.907405175514651
-3.650622820680792
-2.80537631567164
-2.184723692186304
-1.0737707729947887
0.17511411322145232
0.7126991394944919
0.3570897030442294
-0.3571150542943563
-1.1115808724628438
-1.7974043771657673
-1.869496734184404
-0.9621425932052011
0.7280690324561683
2.592813674733027
3.912054819919655
4.291259835154144
3.5631414524671094
1.9453616522036812
0.215655048224216
-0.7377732444434258
-0.502237946938018
0.8129158273896535
2.951777053373267
5.061168608317232
5.837320933699887
5.019710026574023
3.3736252123107984
1.553705220158881
0.00037719367219045397
-0.9235565070032474
-1.1838297956120893
-0.9202373069732623
-0.10948497820806828
0.8037652838081455
0.9162539921549394
0.5114641909279876
0.25271364655688605
-0.600792838962916
-2.1117879104190274
-2.9099326771912053
-2.5457735064401423
-1.4641841206128114
-0.28091696830215224
0.3990384466174809
0.670449632073879
0.6121801922628767
0.15933681995008014
-0.16407995345596427
-0.3270025975496037
-0.9547077666114377
-2.026848011693644
-3.3335209560543104
-4.872989261833508
-5.998571068294121
-6.166844079861708
-5.757121475117151
-5.1471226136194055
-4.362496018588982
-3.217617937527888
-1.825196996913237
-0.9225880555436718
-0.5687036100426105
-0.4046335450013065
-0.6052164549878407
-1.0085515807147194
-1.6645709307619236
-2.969808586150112
-4.356215272283505
-5.172900041020107
-5.362137706433347
-4.766964050217292
-3.342973076630443
-1.3892808183728085
0.7547274663070607
2.585255999997305
3.236805411903069
2.5026501370739593
1.159551663249043
-0.2018709457580727
-1.0194183578958502
-1.010152080609985
-0.8089236049079703
-0.5417906761761251
0.026780940755144117
0.28411708553901716
-0.08826662444530653
-0.38941454335102504
-0.20620744839665786
-0.13925096899010342
-0.12108283183162205
0.8792349513889055
2.20619511063088
2.2296438468807596
1.0947966755124043
0.010469434911277012
-0.3185885335625048
-0.19506935175647877
0.22827740774477784
1.7708347772731512
3.7453952061801963
4.358508542892304
3.7611524441261515
2.8170499632382957
1.6339320066768395
0.41310420505073187
-0.22646138114882924
0.24272763362995925
1.475905239858714
2.7636214437695394
3.492924019889666
3.3014401331870875
2.6156387252246174
1.7035339128055225
0.9187258047577002
0.9596491934897469
1.2596685397481944
1.1586423428354606
0.9230418253355139
0.5518742584518993
-0.13249633275569705
-1.0993029892548791
-1.8172028748095284
-1.7667885705636555
-1.2549303069508007
-0.6814502469699313
-0.19603883746150585
0.0337491135746336
-0.3381441544401991
-1.1715183215426945
-1.5887170463834557
-1.7587733728188997
-2.0782676436543683
-1.7535288180107118
-0.7765162376764101
0.07526824394642023
0.516110380856413
0.5647818360676632
0.6066226408909924
0.6625951786633204
0.20707516361665168
-0.5217572918866206
-0.7665278226663017
-0.6400227842360385
-0.6202716165811382
-0.5803139710360208
-0.719136873745187
-1.3754609402559008
-2.1506126834922443
-2.883779055022954
-3.509061132496697
-3.8509036120981404
-4.175071509760438
-3.905061473341736
-2.2560426463781256
-0.12222766388785931
1.4367513960673186
2.185373343314077
1.9853956023598993
1.1853501896751575
-0.026605195890604103
-1.9608502518582909
-3.6205430006537656
-3.782253774799105
-3.2233495050193395
-2.5680871462922816
-1.1468977829319351
0.6585776301737585
1.8568144110101639
2.473112823159389
2.644116819576363
2.4352383023304163
2.08991982046347
1.3615962930905454
0.31201938618326824
-0.24369821602862546
-0.09591855721592565
0.17571070522362203
0.31987649975536336
0.8503515041995771
2.1045240492783073
3.2158882347100963
3.0263286636625404
1.6191150786461856
0.22500731701486382
-0.16711342665365658
0.05899776201013607
0.18109014123426603
0.7157121311234413
1.8076188600276106
2.0259529913911205
0.9236732696004283
-0.29849885824963707
-1.1663630597931458
-2.0991347163220895
-2.7159453788979557
-2.1427496253832654
-0.540290456622265
1.1867269112663459
2.142159731544046
2.0490773583853747
1.4976537952892095
0.4376751642186515
-1.247132859578414
-2.7442219730541306
-3.6617004148749244
-3.671900020170779
-2.7400993773851328
-1.3155909953252627
0.7582240523757899
2.8406256296188723
3.806802178959832
3.384770450678294
1.5979826113315336
-0.792679735689622
-2.7233353105689755
-3.3738250771262854
-2.404212136822553
-0.7942867968947097
0.5214691532998988
1.2389935905696428
0.7546336547439257
-0.8997038562326685
-2.6243768146671345
-3.475782517925254
-3.2309941091779817
-2.0945017011554103
-0.7668021176103518
-0.03783874552771091
-0.1805868598204133
-1.536292207205768
-3.8368444816144374
-5.546529374613775
-5.860777516031056
-4.9520434087072065
-2.9534887703864765
-0.7046326299468265
1.169658297316259
3.083442992032293
4.801905263871022
5.6153892584691505
5.583258247463053
4.965124461321293
3.492628927232839
1.07872042721612
-1.187897570654578
-2.5578471179850024
-3.2820801460064164
-2.8313819346778692
-1.0115803653006954
1.2458052135218713
3.435434854455706
4.862537007771138
4.447840001349767
2.2119936806284803
-0.46316935350722793
-2.1086779194407113
-2.300592696688034
-0.9089605365042265
2.1436290593217544
5.6004380898588515
7.743270834030161
8.421440184397454
8.038643020246905
6.410967458665604
4.1283059395401525
2.0908518503384403
0.8768042335845757
1.2948065110873326
2.933644853514423
4.7391990686746475
6.478793498420728
7.792482979715103
8.31782624028341
8.06307306373725
7.545039977116362
7.19844915645545
6.577157295325775
5.864962439440264
5.2772171170990285
3.774063495767921
0.9280373511611162
-2.2735450819558563
-4.505161347252289
-5.602193038908293
-6.40456990722229
-6.960402501934494
-6.954308661073188
-7.086211748445236
-7.982094685434649
-8.052473023537662
-5.865554133740971
-3.424497112343737
-2.2770568099564668
-1.158002063560708
-0.043564024063692586
-0.2468994136456885
-0.372492241804312
2.2173754266352947
6.343302929173536
9.09160615969874
10.046608740584315
9.961098439665024
9.945724978330066
10.25323120248499
9.048177065269835
5.755900157359061
2.153125432892572
-1.0495526010274672
-5.113279879130008
-9.300860850891649
-10.507589062994292
-8.576913602391294
-6.009351027998992
-4.278043591882271
-3.4458756317098787
-3.163076497467271
-3.7351249556740993
-4.456564716441672
-3.8080614964331834
-2.312971844614793
-1.027281272625172
-0.052034671483688566
0.6700027345406356
1.2025532820779135
1.6905368675679657
2.4419742875499937
3.7455804882689336
6.151553333356174
9.47006541349625
11.977892288211057
12.722278245669504
12.385895312903877
11.252461266222205
8.234723120617874
3.5691062543637506
-0.644400476836275
-4.1172795824021415
-6.91247945016369
-8.201630223953705
-9.199764037871034
-10.556197658145226
-10.879513603334871
-10.0382244362214
-8.757433912490749
-7.573391023396337
-6.814327374786296
-6.2387820336257835
-6.163620925306926
-6.446447145240378
-5.588819072295747
-3.6095094868896735
-1.4094586051951443
1.9934246839311525
6.798891619140939
10.427905048910192
11.479944983149483
11.25139562853452
10.082386441371924
7.302944673937571
3.5124127446148883
-0.29122678720226547
-3.3819133181096346
-5.874864330614277
-8.710492711029904
-11.421390281929694
-12.406083368601738
-11.589879659968146
-11.054471009977862
-12.027076402157185
-12.634857328842953
-11.193833074110417
-8.436845992196444
-5.428381573020845
-2.4020416771905038
0.6355443948087314
2.7155267500212
2.952787536921558
2.1952377584067873
1.3770186910523516
0.7735797596041335
0.5450059816078485
0.9586936230528866
2.0989834926814774
2.4156213447199493
1.361159941861722
0.6304830138094719
0.3175882169803254
0.3230726759127175
1.515153566094141
3.1005096278076207
3.968947497515773
4.349037064599159
4.735149947447277
4.467979426950376
3.4574222918641495
3.3450511597383707
3.905151981183529
3.6747346221750554
2.2498826029432353
-0.13065808263195072
-1.7416331772761595
-2.2625405157527236
-3.1589721938793556
-3.0870948313162203
-0.15423895794219933
4.492741565721559
8.144856721475035
9.262150321784125
8.84307669042573
7.496269392707764
3.937106523357521
-1.0471585128605039
-4.323051891143011
-5.0175030352135295
-4.37646761637853
-2.397640328094262
0.8948851359629142
3.9217231280001226
5.2583726081344615
4.093398258351461
1.2906479405918403
-0.6427877982845877
-1.2730098574308608
-1.6005634664865769
-1.0586286425998546
1.0424379514948094
3.425591445987322
4.091401098925652
3.720020259382523
3.8103103757707864
2.7852912588974026
-0.6189777538466186
-4.857203711246101
-7.583990226597943
-7.478653819642362
-4.762612198893082
0.3952702291906952
6.213220327430601
8.87410979999662
7.315112458449766
2.839712095934603
-2.951172432897941
-7.579875118013209
-9.168239007460942
-7.784683371583207
-5.389582276172108
-3.5396077155345766
-1.7229376940958379
0.24144406057334716
1.4174955481394151
1.294501552688061
0.9111802407601794
1.9941520362808804
3.8698029657785824
4.595133099262654
3.9074890109921023
2.1139620928079994
-0.6721818355831247
-4.031291254674199
-6.565025580752107
-6.679490995131295
-4.560892399144438
-0.02178178281046203
6.8863334881127685
12.842452843919533
15.631445906254804
15.39094048376851
12.134662443842894
7.771371077981856
4.186116076975693
0.7420305869235476
-2.3371614902624462
-3.1522261661236763
-2.097180881468368
-1.6888140243135856
-2.115027046898317
-2.2893402881296643
-2.15347365681311
-2.655856773762652
-4.732074165713057
-5.299750680367792
-2.1210681681474455
1.2919306825679961
2.9685255541193643
3.3801577218537733
2.0578335507739167
-1.2534848212043372
-4.911629603265436
-5.952215594220566
-4.770030420067689
-2.546839255384609
1.5461680424479396
6.316328714133885
9.869023728759004
9.92744467754074
6.019460662229073
1.4083199994005822
-3.0781964068281633
-7.257356692355381
-9.374887335310865
-9.201994863093809
-6.8281857769279615
-3.7399620418743487
-1.9952645785110064
-2.0512464296840593
-3.805006239416549
-6.109047185428614
-8.386135798957657
-10.350408396262004
-10.028829401857923
-6.748896883015297
-2.2174769713066698
2.0198204188253737
5.356205048052086
7.225949420891932
7.776148595891516
7.890567629999648
7.250604052002086
6.175075070359096
6.3405820833706406
6.815743150562772
5.309420580337705
2.807331822857463
0.8933857821598703
-1.5754018889888308
-4.124391265018346
-5.016163695402909
-5.193736094994387
-4.847946028885864
-3.150799030815791
-0.5189808851955695
2.205466957161997
3.900454416052183
5.08490622629597
6.051981681873415
6.005219977802605
5.853052863504224
5.295115514703666
4.311238488085708
3.381062446494353
1.0093726343762646
-0.9939595608675728
-1.3848426263249034
-1.9430141031814887
-1.6238790519668695
-0.5486114579985616
-0.6677257973651025
-2.076828566732927
-2.8634411246476077
-2.179599778677037
-3.413450339225285
-5.859198399134886
-5.879543334709756
-5.301718482300039
-5.288682171914283
-5.957306024988467
-7.499067628707248
-9.05059291028211
-12.036161578244876
-15.202212597023973
-16.34486794643549
-15.514143007261886
-10.179701686437562
-0.9004513622616885
8.278009215309892
15.085727031209816
16.939557906913265
14.123367140448202
9.036900521131694
2.221233340610605
-3.5070537358443272
-5.736592802616587
-6.321447732603
-5.514931656191489
-3.4556900521691563
-3.665705564177792
-6.060684907846626
-8.136819093717941
-10.399625823717317
-11.572486751106544
-10.125441963944631
-8.237459930404688
-6.219850863899953
-2.5038426045138804
1.512888623453117
3.272358709695878
2.621660273410185
1.226791399820395
-0.43563863900130356
-2.466115571699079
-3.576835534055121
-3.268574574076234
-0.971506893385062
4.848054468239019
11.42974871406107
14.109568396538336
12.863223011109888
9.598742395063168
5.1020730399718826
0.2956976023514391
-2.2166441415159595
-0.0793880326090061
5.080967899707005
10.061766882301724
12.945434286289242
12.304271058597264
7.345867776984066
-1.3453426815112408
-10.754232158860528
-16.92381248948603
-17.755301410952956
-13.741603502258481
-7.737354466707857
-2.831201506591128
-0.27261947683117693
0.362100802953577
-0.2733285605816741
-0.693205048234953
1.2012888266501556
4.7535187002902575
8.770378760111186
11.856509605923385
10.342219175841313
4.648142453396698
-1.5328302767049227
-7.375367405692646
-11.919899231842082
-11.995480452008989
-6.903828239531658
-1.2410657435223806
1.5714096880157404
2.0631208422957386
0.8287383046348009
-0.44475722407318913
-1.3586997608627827
-2.665641734311586
-2.6004583649401987
-0.6310470697930897
2.496642960379125
4.992271467172244
5.098970886245468
4.500749786244357
2.102716676982535
-3.664328183510991
-8.365559118399295
-10.152735907806353
-11.24535208878934
-11.001663335505505
-8.279228352859699
-4.802679708778241
-2.4962561984396476
-1.3340808128543096
-0.9303512925253694
-1.447898383049722
-2.57318979501749
-3.3200954802727756
-2.863815932369516
-0.9461254594141599
1.9444453311730059
3.8031478495555575
3.401565420785794
1.9291200404696882
-0.3919214452844417
-2.8044277870492857
-2.426933810896687
0.5532967828290573
3.858411949734157
5.661888265039955
4.142321215213114
0.9155907862435052
-1.9100588755661332
-5.231000460909458
-8.540845089518896
-10.29399842263603
-10.042194020995625
-9.55605695085056
-11.418721551512172
-13.069175176776577
-11.641296229554163
-9.319576299317463
-6.7655771989705595
-2.899769173729719
0.35696115026653985
0.2473637237116782
-2.3067221053557034
-4.0736689122170295
-4.61574445042534
-4.388763793609751
-2.4653041624500607
0.3538049199530002
2.420849480572184
2.9609112171250276
1.6068714854190431
-0.6879193273235069
-2.0916813770935083
-1.6871290222304156
-0.11801606197118944
1.5626559092649608
2.5504118853614917
2.1041085643565793
0.47795691900353166
-2.2384997000899376
-5.785602940300552
-7.470132712195096
-6.015273955592706
-3.290856916320664
-0.7455548077884401
1.4779703533611814
3.8914266543150635
4.829900048008718
2.436998753343923
-0.11725989606713556
-0.7476476625983166
-1.053114457639231
-0.7131348725338664
0.6676602302669833
2.6180506641055237
4.4794246859965074
4.829282501948769
4.46090606678511
3.7562650908548654
1.3449787303621763
-1.4114264904988831
-3.1000075016831534
-4.115941569615339
-4.816232586526948
-5.974815351885409
-6.877667023232597
-6.440171857432218
-5.598509227230706
-4.598105134016587
-3.0323740792214227
-1.2295119220333717
0.5904457072528624
2.234099815313082
3.530761673737164
4.073758293106955
3.235803994990127
1.2462362193570322
-0.5033775283485463
-1.4886112761041395
-2.973791485520405
-4.193275664052344
-3.616290759239209
-2.3789461309125777
-0.14435525618588502
3.482867332434241
6.782306807500405
10.016656664388389
12.214309615869006
11.56504049702142
9.987579764501751
8.22387403445223
5.562530747821629
2.5730661724058073
-0.8859378141450932
-3.2037154895549564
-2.4862022139458473
-0.8020758376051614
0.2591786228661622
1.4320493665361922
3.075828065408594
4.819758334877124
5.325166807252581
4.754827790223521
5.124208764802724
6.0184170280393845
5.979845984565035
5.673302922404576
5.6173262932424155
4.755481087467616
2.9636768027566935
1.4770998249590677
0.6895194200274506
0.30715684831075984
-0.6753824458967443
-2.8334499015205488
-4.703204132560953
-6.0917622094827495
-7.256005314967215
-6.833350507805619
-4.936425965935647
-1.9981639488512664
1.7286385568154536
4.830816796484431
6.688445312288802
7.669986346825996
8.510665488333279
8.11496833770305
4.910736486506331
1.5077918797608822
-0.04356084021234444
-0.9159236854591286
-2.015298497057471
-4.330327732292677
-7.387463331825678
-9.985547163408862
-12.155969209200682
-12.73929497216972
-11.418957051314898
-9.038503837486076
-5.680935803358163
-3.427799999267731
-3.8028140689633796
-5.050042944585017
-5.66418833709018
-5.399143233353001
-4.782098922954994
-3.6854592739320573
-1.2607184085158387
0.316593679476955
-0.9710851333613383
-2.619883583332148
-3.4376457347299727
-4.907977306570543
-5.623970303890279
-4.285832948574387
-2.682397530796581
-1.323660198651433
0.020685317543116033
0.8425941011387843
1.5236953981521344
1.4605991379047358
0.3963738264320348
-0.21776296475092566
-0.9170198773593639
-2.332441548898611
-3.356857802080506
-3.6837897176786303
-3.7680651861381835
-4.71919111829606
-6.175097170045093
-6.508168856238351
-6.450015647704614
-5.396562692190987
-2.093880470651268
1.0917798115928627
3.7372300085246266
6.869090320519506
8.113912383700189
6.279384088715528
3.571365555153569
1.5513278769441183
-0.7171477965489321
-3.0639345228820996
-2.484196085456885
0.6900935072453946
2.6520598261396215
2.971303919827954
2.7304565466801307
1.346076589355649
-0.5156260129490551
-1.1731501722780757
-0.0708670504320318
2.2507316714616574
4.867110166604233
7.2675998649955025
8.137813755311466
6.305391847848986
3.4883148831062765
1.4994209032374284
0.005258300267097879
-1.432226024513593
-2.1782802854710077
-1.3417862021012494
0.2651790052660125
1.2412768265114138
2.0796737656251927
3.307764042220499
4.148372287213742
4.584108393484551
4.725998299767307
3.8067214127695435
3.353965283418493
4.878709594899282
5.989728289033436
5.852420381338355
6.0224306489415955
5.819201890533856
3.9780830701859924
1.1199784070963619
-0.935550889226866
-2.455834531468127
-4.349985366972191
-4.636286140632005
-3.8487788473930484
-3.6656386867242765
-1.6375019167377252
1.4392293381764065
1.8098925375546533
0.509436678138155
-0.5167019625703506
-2.1428168914543266
-4.553488617736807
