AAD_Filtered_TADAS_FILE
AAD_BASELINE_CORRECTION: BASELINE REMOVED
AAD_FILTER_TYPE: BUTTERWORTH
AAD_FILTER_ORDER: 1
AAD_LOW_CUT_FREQUENCY_HZ: 0.025
AAD_HIGH_CUT_FREQUENCY_HZ: 40.0
EVENT_NAME: 202302061024
EVENT_ID: 13207
EVENT_DATE_YYYYMMDD: 2023/02/06
EVENT_TIME_HHMMSS: 10:24:47.00000
EVENT_LATITUDE_DEGREE: 38.089
EVENT_LONGITUDE_DEGREE: 37.239
EVENT_DEPTH_KM: 7.0
HYPOCENTER_REFERENCE: AFAD
MAGNITUDE_W: 7.6
MAGNITUDE_W_REFERENCE: AFAD
MAGNITUDE_L: 
MAGNITUDE_L_REFERENCE: 
FOCAL_MECHANISM: 
NETWORK: TK
STATION_CODE: 4616
STATION_NAME: 
STATION_LATITUDE_DEGREE: 37.37547
STATION_LONGITUDE_DEGREE: 36.83836
STATION_ELEVATION_M: 499.0
LOCATION: Kahramanmaras_Elbistan_Turkiye
SENSOR_DEPTH_M: 
VS30_M/S: 390
SITE_CLASSIFICATION_EC8: B
MORPHOLOGIC_CLASSIFICATION: 
EPICENTRAL_DISTANCE_KM: 86.81
EARTHQUAKE_BACKAZIMUTH_DEGREE: 
DATE_TIME_FIRST_SAMPLE_YYYYMMDD_HHMMSS: 2023/02/06 10:24:39.5078300
DATE_TIME_FIRST_SAMPLE_PRECISION: millisecond
SAMPLING_INTERVAL_S: 0.01
NDATA: 11251
DURATION_S: 
STREAM: HNE
UNITS: cm/s^2
INSTRUMENT: sensor = GMS+/GEOSIG | digitizer = 
INSTRUMENT_ANALOG/DIGITAL: 
INSTRUMENTAL_FREQUENCY_HZ: 
INSTRUMENTAL_DAMPING: 
FULL_SCALE_G: 
N_BIT_DIGITAL_CONVERTER: 
PGA_CM/S^2: 53.503
TIME_PGA_S: 
BASELINE_CORRECTION: BASELINE REMOVED
FILTER_TYPE: BUTTERWORTH
FILTER_ORDER: 
LOW_CUT_FREQUENCY_HZ: 
HIGH_CUT_FREQUENCY_HZ: 
LATE/NORMAL_TRIGGERED: 
DATABASE_VERSION: 
HEADER_FORMAT: DYNA 1.2
DATA_TYPE: Acceleration
PROCESSING: Automatic Paolucci et al., 2011
DATA_TIMESTAMP_YYYYMMDD_HHMMSS: 
DATA_LICENSE: U (unknown license)
DATA_CITATION: Turkish Accelerometric Archive v 1.0 - Disaster And Emergency Management Presidency, Earthquake Department
DATA_CREATOR: AFAD
ORIGINAL_DATA_MEDIATOR_CITATION: : AFAD - Disaster And Emergency Management Presidency
ORIGINAL_DATA_MEDIATOR: AFAD PROCESS SERVICE
ORIGINAL_DATA_CREATOR_CITATION: AFAD PROCESS SERVICE
ORIGINAL_DATA_CREATOR: network: TK
USER1: GuestUser
USER2: 
USER3: 
USER4: 
[...]
-3.178123656172678
-7.522227150736836
-9.586817844818016
-9.131954583601901
-8.423276173854612
-5.632269059775167
-0.027898585462019607
4.322938490704804
6.636806905971265
8.208443022346344
8.300264412219427
7.62375869570377
7.931300802770952
8.975017764604855
10.248894771776058
11.317867535232066
10.606555768044604
8.41637282926841
6.553364137637246
5.428907470130984
4.217011515979003
2.5204912972967857
0.8859527114534286
-0.826391195571417
-2.8080170784528176
-5.3692422153888835
-8.580716735307673
-11.076141372719498
-12.640538472037058
-13.896828120373275
-14.166484264334684
-13.586466666701655
-13.003175302341207
-11.54240077152872
-8.409739932977846
-3.5434835900225385
2.2371396039347853
7.244778948062726
11.50094143552339
15.032915111657259
16.861209284374077
17.20876135599914
17.860594754990917
19.824284442911996
22.080582976851247
22.85507735882378
20.67048078374925
16.256650220177267
11.539362284876134
7.70998546941236
4.6425608766839295
1.587579377136655
-1.1859101987165603
-4.339129925840334
-9.787977812031174
-17.30255005759213
-23.868726929000488
-26.942969653283654
-26.37202585798819
-23.37556028999515
-20.377045675942234
-19.694007193019708
-20.522916148139327
-21.237949063002837
-20.75521425677868
-17.852014488126066
-12.815535082544194
-6.701360067098138
-1.030987614160347
3.80553927189273
7.687214731694742
9.48244031842025
10.874341876132826
14.192471046091768
18.085561425003792
20.275906837162566
20.70477467746719
20.156636738880366
18.77800814326909
16.140335917200154
12.423588372553336
8.684824316123942
5.55176669632452
2.524088574934762
-1.8647246743104486
-7.789306791630444
-13.318558185268818
-15.86140694707992
-13.839029007834311
-7.903683522277412
-0.31301708800557815
5.163688258417131
6.587172737455054
5.200496548127664
2.5175891191516975
0.46338625257095906
-0.4420350317372235
0.7369679253418407
3.4700748525373326
3.6568832068795536
2.1509140052537004
1.48290283556158
1.615914758381443
3.4738151462077824
7.567463725044248
12.610167642539107
16.267178581856346
17.12354672669169
14.979476626368166
11.98101162024426
10.695172662270542
9.947671549569554
8.577063559892926
7.423711217947309
6.266846984375907
4.914656748063493
4.186776024947782
3.2912633037563954
1.3982304311979683
-0.6088557374688232
-3.6790256113911592
-8.028196706334006
-10.690922384912026
-11.633901322452921
-12.490098886381347
-13.117420162953113
-13.674880202541114
-14.213251603543537
-14.742028718412882
-14.579843261714885
-12.731308357925785
-8.621918018548076
-2.588766952911471
2.2668192314841558
3.6248845030113044
2.166618531491782
-0.8872898169139642
-4.331042133560571
-6.64474593641137
-7.496773945977459
-6.539812155816083
-2.8114902435591134
1.78580267478385
3.8004848087411016
2.375462747905018
-0.3288601328187018
-3.422689624624291
-7.2265148762390075
-10.168665095260073
-11.501766523438368
-11.216067565280643
-9.912871303152876
-9.338084592676177
-9.259093439142829
-8.993209709790808
-9.504850368777888
-11.313342280211655
-13.03331524972458
-13.577081277162439
-14.014689198740477
-14.5305199494502
-14.207502783856391
-13.895866910156943
-14.671517712925784
-16.152852955512113
-16.79255477056223
-14.624056192983355
-9.485529013286527
-2.7614367839325795
3.2081938024023433
5.89433995866313
5.839082923910273
5.041784252554345
4.99816147489909
6.681587457947111
10.175878369910393
14.669973082418483
17.076522710862008
16.299325671060203
13.548599822561757
8.98556660369355
3.8200199735232903
-1.302171451043024
-5.658563832051602
-8.062640815612102
-8.131574470984638
-6.526615228010782
-4.923204274882783
-3.910807524114929
-4.787869103173676
-7.927665266334484
-12.582669655517515
-17.15774417569944
-19.051277295455503
-18.27066881703279
-14.817317286562925
-9.643015658145513
-4.615511611533769
-1.0670822000993994
-0.4141906642949595
-0.5328325524103867
0.6261969789848837
2.7086400208860653
5.183372626135406
6.231680724086588
5.785891981537191
5.407549542951392
5.119243965021957
6.062936846044045
9.290249849415467
13.531714220509052
16.538304799751415
17.154231187586632
15.702923543324287
10.645229306801212
3.182110607450405
-1.6998797775045111
-3.3977552659893013
-2.9624177757114083
-0.9797625047059626
-0.08688696251873558
-0.8961636905119315
-2.8305717215468795
-4.979604949631271
-4.430608539948863
-1.078808171814557
2.0386439929963545
2.282229234563909
-0.40987573975972497
-5.627584253410465
-12.28224493222757
-15.72827505643297
-14.77147962509252
-11.884303074212005
-8.25710359899832
-5.227615913193007
-4.705566778006911
-7.685539151740925
-12.599126996505271
-15.90369487393007
-16.021607478182506
-14.595622652169606
-12.176902979465632
-9.646860918558737
-8.561747397426855
-8.324816114453276
-8.950871134289837
-10.760097137150535
-11.341256648961458
-8.782433280251217
-5.5267853833463505
-3.551756657760517
-2.6355831631993456
-2.7411869694741173
-4.456347881377369
-7.697790212301437
-10.501400337638794
-11.672571455755852
-10.136263651986482
-6.242994843013274
-1.9034737952101437
2.110459810149582
3.746821038647379
3.1015321933901987
4.140045501430168
7.688135583240091
11.000443144038918
12.527764106043163
11.826983020489148
8.51054872324354
2.2417482932058386
-6.108364894679162
-13.898706249993307
-19.622448651072695
-22.71919464189751
-24.082457674038498
-25.19348562456983
-26.039260482045897
-27.394116639447663
-29.143452013064046
-30.5359885997376
-32.211299637364405
-33.826421309626824
-34.47806861907734
-33.491654187234545
-31.034637024795142
-28.49955579942548
-24.038686578352493
-17.081653809553085
-10.439644640947554
-4.918327421529349
-2.0964228019780924
0.4047414540328614
5.242074642997856
9.51748672120568
13.099038207004106
16.804918995545286
21.466076311900473
26.94864092344503
30.953811333216805
32.804883372476574
31.438402091787886
27.693173898708572
22.9540072920987
15.57364837153847
6.215981165626319
-2.648286727911293
-10.128149204470601
-16.18506703923134
-20.94546468606704
-23.742685394162805
-24.29458599246574
-23.72102098883606
-22.911357585230213
-22.473299230553994
-21.649998397295498
-19.3222771729443
-17.502964858046713
-15.419623746581074
-8.810676019263887
0.9073865267354772
10.276278083719847
19.591271463019876
26.994766805626693
28.279734288990525
24.352783893259026
19.74823538368014
16.42595570965474
12.761797287713948
8.144151680353037
5.602743951712252
4.221660369022133
0.7104053067507633
-2.6064420644186854
-4.6127710210221755
-6.58933749962651
-7.495578487606767
-8.477842380192788
-12.57640923771974
-19.43064963568363
-25.486633393664267
-28.94835723150605
-30.410246952369633
-27.50980036755345
-20.470088517198597
-16.495847308665716
-15.979037795238735
-13.292584561710067
-10.513390441379869
-10.578251072161253
-8.701525607975057
-1.0298298726441644
7.871102413101387
12.462826145537015
13.26257483121081
11.990738583088135
9.57504737334488
7.415447991641606
5.701689187537246
5.062354118035777
5.670168388380277
4.582706824763319
0.16555825684625672
-5.659296585297639
-10.007767731485837
-12.082859705769025
-13.951498066852116
-16.935442340100625
-20.186679600585443
-23.484339244463776
-28.207154041621923
-32.51536467204265
-33.85848782040651
-33.72533240104204
-32.2232206530363
-29.682500119441737
-29.498165873223737
-32.23646647276246
-33.64972994819096
-31.583185489250173
-29.245785824477277
-27.046179508017584
-23.03299632798383
-18.99269107049491
-15.298264021594067
-9.7036588397844
-1.8478636662598766
7.426142983913078
17.527176540502747
26.924865710978697
32.137939228962956
31.131036420254336
24.97413716960163
15.835695853013405
6.902584718960939
0.8080078603950726
-2.3141445474235023
-2.955564049071316
-2.370006845436299
-3.5103649330275903
-7.285006579991329
-13.27747497853921
-19.010579483628256
-21.107883509978155
-21.35872364978859
-19.34305886433978
-13.153193737402882
-6.093723660659721
-0.7373962714905925
2.0911006748844256
1.7804513220885199
-0.9699341533039771
-2.3839549232915314
-0.04177958316515816
3.4541941579511963
7.170417863206834
11.319539542173962
14.741400212714082
15.436666380050326
12.11846450614641
7.012328889482289
1.9593393659955336
-2.3041924270583354
-5.199593951576592
-8.334989331432203
-12.42246712931207
-16.396398406643183
-20.644369480023595
-26.094666309982042
-29.976213238035637
-28.30215593845663
-23.80359875682142
-20.781064858473666
-19.32593643083173
-18.455770485509078
-18.177972760254637
-19.43432451274969
-20.0148997252461
-17.7056175629567
-12.274974557756956
-6.912907689568598
-6.337893335881121
-7.0140107583842015
-6.082599661898971
-5.194198077109529
-3.4378284547929376
-0.5375932503239733
1.4233476618368617
-0.04669283999528686
-5.075360875224335
-12.712305476348321
-19.88096559885761
-22.306964184599206
-21.11678025143399
-18.302097689643706
-14.909473609267993
-13.36648273321599
-14.305995573511188
-15.754634565695943
-15.067795229446483
-13.637346892765622
-12.393290292998936
-9.774806661612919
-7.258584601184411
-5.8972068597743945
-5.703823613050702
-5.893273794076876
-4.860695381357922
-1.925432881543834
1.8933366642831968
3.6292645762614155
3.817482543771353
6.190120111771154
10.870822995855768
14.000298193719239
13.054774116744305
10.634028523665538
9.100305168446711
6.000542672680224
2.0541575592637296
0.26601156915808855
-0.9693924137617035
-2.800175822716034
-4.957304818867305
-8.951300632809549
-14.94191174106539
-19.648845447532615
-22.05546032365876
-24.123151153599405
-24.74007188720763
-21.908526851032892
-17.524107897567905
-14.352217011838473
-11.914361636970735
-10.875352080341
-13.165851382959229
-17.73855022440019
-23.14110557016303
-27.29884900404242
-28.169501538503614
-25.147109585880013
-17.46357198849685
-7.197158814065018
1.0305756582980339
5.2490434238676995
6.54823629695307
5.741929948074579
3.5461430854034415
1.566252047012652
0.17271565887824142
-1.443987713829158
-4.599411087742534
-9.525726842996638
-14.277300578566601
-18.02863825496786
-21.173884969522106
-22.57786494689598
-21.859944709004914
-20.610834873579922
-19.18240113044722
-17.218615668971946
-14.25619667782409
-9.285394019786626
-2.86227731537147
2.7034112102119585
5.492915475510651
6.371012198225605
7.03873756418983
7.3790423049443685
7.87230998652249
10.172492592070093
13.831763752858226
16.021780379936814
15.710860492960313
13.500704304806819
10.230362698311973
8.252054878457594
8.030407123519057
8.498131619977254
10.562354930607773
14.497639581966974
18.572659376227875
21.40957389932399
22.359854116041337
20.93445545164784
17.915750160709447
14.638968240671877
12.616258579984716
12.321811263870337
12.750355325571213
14.091041327775471
15.731580048544577
16.490393903639205
15.489574391469437
12.39208254665672
9.797409090253442
9.508760336800762
11.130347318107637
14.152178227636815
16.948918348092857
16.31491629532061
11.478888735791315
4.944812278783519
-1.853143274651161
-6.5745603679879
-6.789168797439323
-2.8588860477602087
2.3860486572289044
4.491219128699317
2.6370579705136667
-2.2598451712654413
-8.240562838688769
-11.892337459891168
-13.479637193479542
-12.599142613862567
-10.18519636861864
-9.319365937583209
-9.711326034892252
-10.215113290824858
-7.585055199171875
-0.8916099273967408
7.700199680978905
16.76479562868262
22.014984772965974
20.97420978725899
15.984842333888192
12.26017163119221
12.69649045913236
14.70285928339473
16.807147979961236
17.69907168770893
14.742020945423093
7.4382655268412
-2.467118256512974
-11.30364047266956
-15.999724070088126
-15.558095365827592
-11.83161314503302
-9.085532575834206
-8.954328088426449
-10.562795152308112
-12.366085584610824
-10.635210647883545
-4.7502559778829125
1.9251286293426437
7.2040354170255005
9.625943222308429
9.628422963085768
9.343553705395836
11.270443592743451
16.56176816043264
24.14607892392337
32.16750989220782
36.80249272357893
37.62404770945271
36.63841459100126
33.372173461273924
28.722180857553337
23.42495565890287
17.763670664973855
10.435252450459013
0.7302620955692332
-8.119738155949443
-14.831701773627673
-18.304855391760366
-17.55211299583717
-13.512009421685558
-8.867058263564813
-6.729882138788588
-6.264044889726139
-5.979207517780137
-4.188155105957173
-0.6489646091887853
2.1946579386008853
2.8629944055654764
0.9825605483885522
-3.1844458650652614
-9.250046210846131
-15.301135276614673
-20.272127081961045
-23.514033138872435
-24.284913045795896
-24.965677125811766
-26.92641403881666
-29.03453108283054
-29.437817068564037
-27.52435287654505
-25.42418849924278
-23.674742280451724
-20.698724714658542
-15.50501787614258
-7.15004288503425
2.599212982912517
10.341175738732732
16.107167065050294
21.61310642750881
26.989600725935293
30.8189801586794
33.45278903493062
38.073996957628886
44.89729978776452
50.40589204118347
52.838625925325005
52.057594142841076
48.35137116964408
43.06728364139915
38.26758081803786
34.57370821676263
29.977667297671275
24.00853987700288
17.3838095902777
10.253511902139447
4.49856259909154
1.722602068699636
1.0076387725521263
0.6671961565104464
0.26348065757544564
-0.5536364916853997
-2.9182760779190438
-6.742217747487102
-10.181972892862946
-11.798069526709977
-12.014927321845406
-11.145917760618937
-9.546035307325704
-7.737343915481065
-4.779461501823496
-0.79829797739162
3.1652265653049008
5.879243449325532
6.16037650895357
4.632052772568648
1.4323706071425466
-2.97728368933793
-6.626172200741172
-8.284438876260971
-7.799468650255869
-5.8631139224532935
-3.3102318497115304
-0.1877755215488387
3.578704733250405
6.9703451259120905
8.574051088952206
7.500324142352263
4.358721585184836
-0.2774611196702761
-7.071241612417979
-15.466769945471562
-23.637404661898486
-29.13389478009106
-31.45626003773851
-32.73138454870974
-33.85576182380451
-34.17046855609759
-33.706460784387716
-32.747271047113145
-29.70251645808264
-22.581103410171625
-11.94244040687753
-2.398170274700248
1.8787817872161487
1.8579576978852506
-1.3809243002319707
-7.044997262429725
-12.280177413719272
-14.886077609675368
-12.611169450637142
-5.752243449621685
0.8444225489932348
2.936918573045521
0.10909935440803274
-5.496959516596521
-11.344102652334005
-15.09191286721104
-16.354165387813005
-14.338987060973073
-7.877020835084063
0.3014233057424727
7.741792174119737
13.84287358990892
18.92298528015827
23.722795104751413
27.93900185960564
32.02269881694414
34.46907099612763
32.868800806361634
28.1990514082641
20.989818164645165
11.64887128974175
2.187371498226055
-5.982263631375377
-11.558923668026068
-14.403361724470024
-15.397374442258702
-15.901872297909188
-16.784994231988044
-17.0030401713272
-16.217612031980707
-14.990145844094092
-13.846369821987679
-13.237813741818641
-14.03356695778365
-16.18216637617889
-18.132240440801187
-18.54318274676757
-15.724680489291071
-10.180710817663746
-4.530123473625817
-1.0981191538032813
-0.4035813780050058
-1.558172516335222
-4.797651931882307
-7.876585394772775
-8.275022706152345
-6.314453561165975
-1.7133456640760758
4.512057991333783
10.940240644090508
17.167185369704526
22.173843550326353
26.648267900066802
30.570794081481825
31.634627001487065
29.838928321101335
25.580420520853114
18.444726831195005
10.17807481074857
3.349452979293894
-0.8136176980067079
-4.181568133643796
-8.848946297179149
-14.719746506764393
-22.72458385017128
-31.14684131844689
-36.492282655010705
-38.96003602144395
-37.38526703585472
-29.9861762437772
-18.97486766526418
-7.667794370562223
1.9441648113092442
8.349905543758657
10.727435714914003
10.471253283023811
9.5897923004822
9.906380913345336
12.2277157997103
15.938957366266308
19.49926711655797
20.65049462144937
20.163845156655317
18.605608395278338
15.541239214576786
13.543174308234608
13.12682039401598
13.25787003053203
12.975235406853336
9.594894112086436
1.3649341657395258
-10.452502372806194
-21.218155561110798
-27.498003189413843
-30.40614124946173
-31.638427768117104
-30.94715708544345
-29.09415723896064
-27.549091434602595
-25.986090980191914
-23.606523704189293
-19.281351213022315
-12.41765289574344
-4.679031618562175
2.0253640360200715
7.452885500968612
10.786333610832138
11.208724722502637
9.454155468548835
6.2426927935043155
2.4651995806677633
-1.3235021896413663
-3.739304808215618
-3.2876135467078704
-0.2280054200449629
4.959904342314763
10.741567700953942
15.3860276250645
17.41482940354085
16.294614851813186
13.960121173215084
11.783909317548114
10.36430174149193
9.009833120706466
5.956869885291873
1.1493637530664236
-5.423521185561985
-12.549834050521298
-18.53980456841747
-23.828886776648375
-27.650640196447625
-29.067516995794694
-29.39079737026281
-30.338414031747526
-32.14640214140187
-33.341327811574914
-32.62798868051925
-29.63738101699978
-24.02667385202289
-15.756776524526005
-6.315543249189099
1.9082809975201314
6.659207462754369
7.214823093542959
4.662317133170752
0.8761708176613285
-0.5743088086432226
2.835855109103223
10.76255771399623
21.24811063508658
31.42797013249075
39.62443441457987
44.78618844914267
45.93421330751915
43.26533288569472
39.4454980123359
36.66263603706127
33.27027364751071
27.50003866385425
19.406493003219705
10.77979395835804
3.958265395761484
0.9626176433403075
2.9347773315484895
8.092738007862785
13.197022039399982
16.012704334881875
15.956741166382942
12.40899789057162
6.860686737072477
3.21714840356087
2.104960180071746
2.4596351075503677
2.7158629965412415
0.5555133829683213
-3.1332804333849245
-6.587225494972684
-9.060077320940094
-10.262969863385687
-10.691048264109465
-10.228760201127919
-10.749179787537528
-13.59850869582434
-17.688689779179864
-21.927382435734337
-24.338842176597616
-24.692654429309354
-22.264432132282106
-17.10742174761822
-12.94767726847984
-9.914749361497664
-5.551445085886712
0.8237765575480666
9.77849248675344
20.555157263949642
30.422073514561408
38.532011139065325
45.42402351417388
49.70808251815932
49.85536370285871
48.137145202167595
48.47439460656247
49.49821488155497
47.91309858487196
43.49290719254068
35.93555338035793
25.909761617908785
15.966450534060764
7.978413532016654
2.7183429474667133
0.33936684512647963
-0.40412718852363644
-2.4511355089150006
-7.610575903328383
-14.935772938705016
-21.650887415868507
-26.685313643337196
-30.803004955950165
-32.623462915856706
-31.71304293382985
