AAD_Filtered_TADAS_FILE
AAD_BASELINE_CORRECTION: BASELINE REMOVED
AAD_FILTER_TYPE: BUTTERWORTH
AAD_FILTER_ORDER: 1
AAD_LOW_CUT_FREQUENCY_HZ: 0.025
AAD_HIGH_CUT_FREQUENCY_HZ: 40.0
EVENT_NAME: 202302060117
EVENT_ID: 13194
EVENT_DATE_YYYYMMDD: 2023/02/06
EVENT_TIME_HHMMSS: 01:17:32.00000
EVENT_LATITUDE_DEGREE: 37.288
EVENT_LONGITUDE_DEGREE: 37.043
EVENT_DEPTH_KM: 8.6
HYPOCENTER_REFERENCE: AFAD
MAGNITUDE_W: 7.7
MAGNITUDE_W_REFERENCE: AFAD
MAGNITUDE_L: 
MAGNITUDE_L_REFERENCE: 
FOCAL_MECHANISM: 
NETWORK: TK
STATION_CODE: 2718
STATION_NAME: 
STATION_LATITUDE_DEGREE: 37.00777
STATION_LONGITUDE_DEGREE: 36.6266
STATION_ELEVATION_M: 527.0
LOCATION: Kahramanmaras_Pazarck_Turkiye
SENSOR_DEPTH_M: 
VS30_M/S: None
SITE_CLASSIFICATION_EC8: unknown
MORPHOLOGIC_CLASSIFICATION: 
EPICENTRAL_DISTANCE_KM: 48.30
EARTHQUAKE_BACKAZIMUTH_DEGREE: 
DATE_TIME_FIRST_SAMPLE_YYYYMMDD_HHMMSS: 2023/02/06 01:17:10.4534030
DATE_TIME_FIRST_SAMPLE_PRECISION: millisecond
SAMPLING_INTERVAL_S: 0.01
NDATA: 10501
DURATION_S: 
STREAM: HNE
UNITS: cm/s^2
INSTRUMENT: sensor = GMS+/GEOSIG | digitizer = 
INSTRUMENT_ANALOG/DIGITAL: 
INSTRUMENTAL_FREQUENCY_HZ: 
INSTRUMENTAL_DAMPING: 
FULL_SCALE_G: 
N_BIT_DIGITAL_CONVERTER: 
PGA_CM/S^2: 644.970
TIME_PGA_S: 
BASELINE_CORRECTION: BASELINE REMOVED
FILTER_TYPE: BUTTERWORTH
FILTER_ORDER: 
LOW_CUT_FREQUENCY_HZ: 
HIGH_CUT_FREQUENCY_HZ: 
LATE/NORMAL_TRIGGERED: 
DATABASE_VERSION: 
HEADER_FORMAT: DYNA 1.2
DATA_TYPE: Acceleration
PROCESSING: Automatic Paolucci et al., 2011
DATA_TIMESTAMP_YYYYMMDD_HHMMSS: 
DATA_LICENSE: U (unknown license)
DATA_CITATION: Turkish Accelerometric Archive v 1.0 - Disaster And Emergency Management Presidency, Earthquake Department
DATA_CREATOR: AFAD
ORIGINAL_DATA_MEDIATOR_CITATION: : AFAD - Disaster And Emergency Management Presidency
ORIGINAL_DATA_MEDIATOR: AFAD PROCESS SERVICE
ORIGINAL_DATA_CREATOR_CITATION: AFAD PROCESS SERVICE
ORIGINAL_DATA_CREATOR: network: TK
USER1: GuestUser
USER2: 
USER3: 
USER4: 
[...]
25.608755782858967
23.234318361950468
20.066794664171546
7.9075774995158135
-2.5870800856529823
-2.0449927071537557
-5.215231897333796
-23.68454917553823
-41.777428308792814
-42.17449504628088
-33.540264481419065
-30.405456072332573
-31.584837998566694
-33.598806552332725
-31.667927372145062
-14.437480700240123
9.331791233181905
16.501346154411557
12.922476263051621
14.557069905764864
18.542684486536732
20.433532805135872
13.30216887571316
-1.1021211800463258
-3.9094903533885947
2.8359098555401476
4.685052742355944
2.33111598044005
-3.8483852427436256
-9.856880342028264
-11.223319893751434
-12.489566735689825
-12.604643426598553
-10.833731851176363
-13.096408262781937
-18.559814089902716
-17.911353549070814
-15.620924933163238
-19.62359239852637
-20.642220489786705
-13.910959033284279
-5.79851328186541
-7.203774812362327
-14.937016757256478
-15.319683841031363
-13.456809557587611
-17.392955218243625
-22.137994537766843
-23.482032704721696
-25.88467251468889
-27.03360409043759
-23.632937699056875
-15.896107333102323
-5.628944551646484
-6.706504179699017
-13.05635878608307
-11.939194363963813
-2.8926917798178744
12.877987331497804
16.8604574656891
11.809827820977489
15.128737035826406
21.973926595827603
27.14308069081516
27.01582950629033
24.485053845951022
27.832282593993586
35.016208421715454
35.47334038113225
23.6664194483381
6.560528329023926
-4.189225203149165
-4.354180373558144
-3.491105117295048
-6.7874554020445075
-10.549854493841988
-14.508949077931899
-15.635140745638497
-9.038174898362278
-2.9786161842157175
-8.704627013802044
-20.75286400172894
-27.31890759844047
-23.514375891297234
-15.489845459057026
-7.849899936165397
-0.7858557086220349
1.8191576225842032
5.284643227274425
14.618133424022272
23.428095543828743
26.078890992815637
26.20520008516371
32.06370094237769
39.59461672758237
35.6967102730797
12.628153278522701
-20.530000283425522
-39.36982518703476
-42.56435177649425
-47.88178592534401
-58.18238722201175
-69.36369373703167
-73.6917777114605
-69.42494291654167
-66.0461236638392
-62.40359348806891
-47.553894436774456
-24.6215273730727
-6.498667883380804
7.036683933976085
17.18958766278714
20.36449595662332
20.736862943175435
20.274022712309534
15.410945702962307
11.530162839720873
14.664911074719546
17.062885278829597
15.37860816195679
14.274221119763943
9.47456263557164
-0.28990246537368036
2.4752584588725486
19.34059986466749
23.358273107590595
11.223625312879534
0.5730174394148175
2.9117246844594553
14.541603286018228
18.810930183296485
17.299246015132944
14.27975535188265
10.45731308378456
10.782466038207774
7.81655088783838
-0.6553953182280989
-5.652822055206952
-0.5209041942528154
13.082411875302887
20.583232648696683
11.97232684346455
-1.6627037969469982
-11.259177221717527
-18.5030124693864
-21.500256589642245
-26.222413655708507
-38.63911752913613
-47.17613235472307
-50.781318401239176
-62.051792861318994
-72.21677868348084
-69.67838968840562
-55.86876738448626
-42.900655431586586
-48.081541379450364
-57.696568935344224
-52.23895587953639
-35.16361845779775
-22.210483135178016
-29.06551714216605
-42.574137153482155
-43.90435951745333
-32.79472642558184
-11.356449762111472
9.06772703048894
15.831133253817864
13.401455822270194
7.014383242044751
1.855319734733878
0.6467276644263076
-1.0187032457564151
3.5749698652469886
10.173899254212516
7.711955550203571
4.327889131625453
3.9830146859218467
1.6743127616519178
-2.399971777719758
-0.5776505928389974
7.6665630680199115
13.155276216092926
17.730019915894115
24.61969531000425
29.24953591247304
28.598006903475355
20.092504729473717
6.500419222761172
-1.9054036764241031
-0.10066601955236129
0.5212685777256038
-0.7847221630818109
9.414300797140568
18.190849914497974
14.717908892056068
6.513696915683346
-2.679403515403359
-10.901098067686146
-20.825223301040975
-21.37982789050435
-6.799713288139232
4.221715062717002
0.17812085148737167
-18.51977075625936
-41.02966572177514
-48.49762947432218
-33.862801514877575
-20.48694895849231
-28.88242275056745
-39.94991512742534
-35.93377785164702
-20.802700317966888
6.814475030828753
41.07736613265691
55.74129658209526
51.291114049537576
53.460064799846975
62.155444457675515
66.25573763147041
68.02179492183413
71.01322780815686
67.49461798944118
55.31020426633142
43.880131303216956
40.151942421224305
45.60727709195271
49.91340291761265
46.367369349809124
36.71222830639853
31.65990855843057
41.98312880727776
54.762752866516585
59.52805169401887
59.754532005784455
60.704693546386196
67.90169187996771
80.3193031578934
87.75625413079158
87.69067648676223
96.35578279077961
115.07708474066877
131.3416178121127
141.29051766256023
135.3204059235674
117.40396797195379
103.4994287527947
93.54935450001479
85.42633081903014
68.40811855896446
30.880595935728486
-13.948310252640152
-49.035816244917264
-68.10678766568259
-60.90276622961142
-32.320169432949086
-18.806625517414638
-17.823040622302468
2.629173014425474
18.908752220242604
4.784337227061045
-8.493919972617752
9.143081290174008
32.28231756210455
25.315084092662524
5.02953876979814
1.0538437905621338
-0.6100422558297316
-11.070226996511417
-15.17393955859156
-14.99631977662102
-11.967866803004034
-4.2206798257364095
2.2272832066107116
12.560642708728837
25.262987919948003
38.552898359879784
47.28541532182149
46.679644685606874
50.41740999818405
46.88725238921381
31.23895524738897
17.133288555712127
-14.483095571703007
-61.358392610061856
-77.41186363694388
-55.534524736366045
-42.566091831508295
-49.289167074793326
-57.28925926320605
-55.94871326265741
-22.231970878485555
18.755651388010303
18.44103259795534
-1.1905441224349227
-5.270300500660048
5.441162670346945
20.219979014396237
23.216977593007318
16.26553466701226
2.8170272910642757
-19.952990842137005
-30.230045076085197
-26.414966998288303
-31.619040484867824
-43.80943841179829
-56.40502088930382
-75.71940007413974
-106.84161364893806
-132.1375143262635
-124.31199273631097
-108.5744885846993
-110.67771021301907
-111.54909913718953
-95.36801732794905
-52.99250095235259
-11.33952737561202
-10.978530143547005
-34.3529775176532
-34.328774241267446
-3.8678901770282064
37.229499078286416
65.76031179444327
54.67815306108552
18.687228145608465
-9.148589037212464
-12.224207249512085
-10.213043096952687
-34.7882119865083
-69.21586206853499
-85.94826086406232
-81.13049398615432
-80.65864116009014
-86.89111579651215
-79.88505367068663
-59.39389688782705
-31.45028816740478
-35.03089102060792
-53.109197629361965
-35.505131009952756
-12.191599737379361
-6.890657574457446
-15.585243328419415
-14.70357624354962
14.35776393982562
31.112999640698867
3.9340030250784057
-20.979126858288378
6.863250545729948
42.34992218857285
36.07554557085198
-6.43379014287001
-39.87784338273735
-29.495970452152683
-20.14649707484139
-23.022089899431588
-17.93446554493032
-11.837892090907225
-11.468768250504963
-30.882039109984504
-57.806890174574306
-74.86455667808501
-71.84054857794699
-56.55697251400589
-53.67838369649082
-60.46416365017511
-68.92628926686353
-64.54602890642475
-41.538376907773845
-24.736481354799785
-34.431147174590436
-45.018789819762034
-32.61432921605431
-19.05574491442723
-15.323379452754967
-25.012893791745867
-33.879113391290865
-26.444655005708622
-24.95120048775824
-33.64528352442349
-41.27205143262114
-51.18966649744114
-65.70415893439255
-74.40438798253294
-64.20325100660146
-39.87458442995876
-33.928598043819555
-62.83994430004566
-77.46866672604669
-45.40766183681177
2.7534595415415284
42.309232730549205
37.60319056300243
2.707875237263841
2.2107653256482553
23.540501841457772
44.36447865227399
45.99640842812238
15.991161703663119
-3.7599731072433746
4.532830722726525
26.681814405483472
36.27475327312536
8.958570810635099
-24.322488811516752
-23.335534597664456
0.6820798491113121
30.413108956409722
48.38541539990981
43.95055811226528
32.9744347615104
25.17151936408807
30.608798865757677
46.662821121817174
55.87062777997425
49.572857419925704
36.461254115134054
21.0463395889841
-7.488446112461247
-36.3418196473449
-53.231829146017475
-50.74720132601048
-34.39367703079241
-39.57468881888788
-66.37606725335552
-72.60615357319284
-42.35283863703663
-7.293717286444248
9.790102004368265
-6.856015311587839
-41.037238675288854
-28.44222952755991
19.10376566014993
42.66513745045061
27.97527524794096
2.9679706757677025
-10.21020734889195
-26.86081050054022
-28.843959929106212
-16.502223700448216
-17.671686126548046
-28.558993190510506
-46.068741500105496
-38.20710965621106
1.810352535936422
45.780095253110886
55.0606166391365
14.482905528977938
4.024641963649801
39.2513614424626
64.39259351517416
59.16358130181382
13.37027904662969
-19.46995740693774
0.48017474995175496
15.870806483025248
-8.401873320545757
-50.008833079787536
-80.59262747614756
-92.9213786715765
-109.83161435987834
-128.28336071599338
-133.52399252742347
-131.77254753503146
-115.81793250469079
-88.06069211357172
-62.4908223386004
-41.52995087879221
-28.225067981383404
-29.04125756139556
-28.900257385779412
0.9054465827484242
40.833042492395506
44.27215868774498
20.024725200219333
-5.254879538014471
-34.648183928009445
-50.60126419744855
-44.33599481370294
-34.866440570041426
-20.743649026863036
0.5734665603310528
20.38300214125169
30.818863250629665
48.379411162448434
88.07311224845122
125.26053018121705
146.08623473033168
165.37559512247907
189.82551226236527
183.87975044678961
133.0014690393485
92.33727888862376
90.77810192954327
104.17798925241922
105.31717640791554
92.72547796451968
80.04893914862949
66.6467655687755
48.73289507326214
39.52921012664149
50.308235286737755
62.64899903783537
51.01917351452639
10.993487846765206
-30.279732301739973
-49.196963494653716
-49.79876022271928
-28.717896153056362
15.368830150958171
45.119675670883545
31.281517255186476
10.017432490572286
5.877016059138993
17.252796350803624
43.98888666935542
59.60447382885359
62.22952830990665
75.19628638271764
116.12016011274588
157.59029194292745
156.63851513759263
124.82506054333743
73.31300575738345
40.45641310412848
46.28464879086717
53.643014819083284
73.65868968750483
99.33836653540634
93.5079782433319
75.90955065729501
87.81342570716293
103.9862431735796
81.36429808172048
58.44063165639227
72.63824596627798
104.78763983569338
113.30953087556303
84.38921162380605
43.82661279573078
13.944318066907964
0.2829488542772221
-6.590685908837155
-0.4785528788144124
5.321905720892866
-17.506680595146978
-38.324174767542864
-33.25160984130402
-28.1795205585428
3.155044289556629
81.05903532355981
111.39742893548647
79.14499033443997
65.42421975174503
55.39116883409466
15.225146984199785
-30.25380632357059
-47.508259881566296
-35.6398094957097
-22.037981224398724
-13.669454938119026
-10.817767887637393
-26.236967318368094
-56.928396296710986
-77.71955686068657
-75.88614380668466
-68.70623600096405
-69.03442009025633
-79.71466461800043
-104.80486023677808
-133.0165582959153
-149.36285395749456
-162.40004459700597
-187.4660330844114
-215.8458206383034
-222.6138001990879
-210.3810617866585
-216.15123081501966
-239.5025725640711
-253.57908348942436
-265.27380696242466
-277.2405495851512
-282.1084272391463
-273.0378591157249
-234.30064329398277
-197.4746864884105
-198.46254583467558
-203.0147715961782
-199.88514869193565
-196.45253801728785
-179.82997820693836
-176.02091850852733
-190.42995014787357
-198.83471042281982
-207.5371045296567
-210.08210088103058
-182.23828455544725
-135.69722917533952
-106.06348562653623
-119.25863514047451
-154.28612358777997
-156.31463690899662
-126.13957435360025
-84.30197720792458
-37.39290378157662
-7.550558189155449
3.567217973467499
1.7529080898436558
5.373315140250587
61.0166843249652
133.60242232232736
166.5431345979631
198.71945783550353
184.9116093701391
88.92975375897299
0.4993585831738118
-91.0966789127886
-207.48447955435512
-264.0237419197005
-244.61288845576865
-250.1883530617951
-296.7083107505278
-317.70803211294094
-327.76052575855397
-328.805168252696
-290.1588646160069
-235.6927788393815
-213.89197720659828
-209.23192952622256
-170.55714625167903
-104.56064254605816
-9.918526785303198
88.46872120581264
154.23059821674187
201.98835639619932
234.65245513185334
295.989546469689
348.6085256617534
339.97847282822903
361.54519354708947
407.6474908170501
407.25501415927965
277.62814030005813
33.90125319965591
43.66096019471252
245.71822887596824
138.17146383542112
-86.48540833692984
-177.76800288322977
-330.15568458278875
-413.9525168931272
-204.2845565387045
-54.741760340655624
-217.34230817439058
-339.5336863421376
-343.3754865637312
-237.13012456256803
42.14796627783654
273.0460017500403
429.9413262856352
510.62149126399805
434.4247354030471
406.12856853183655
514.8121638731938
586.5126262876752
638.1374429619947
630.9510104826734
480.6679660656603
271.49135339455773
156.16218265788746
295.1479935279312
348.43896205643034
179.13812898548971
91.42047657277368
3.907958753831557
-95.30279710857727
-109.58208861748727
-25.450958935818733
92.32882786821443
82.71778623644455
7.344862203330277
-33.53635854126492
-43.52270738424274
7.926084582158605
109.49428247080425
198.09071735232052
259.90242298691203
297.0456352202466
319.0727288072833
294.32619268945524
231.40774652264489
210.00570477196834
194.98713888490428
140.6168039283495
39.856542787188516
11.424422133584756
91.53967116944838
54.164201141861284
-56.97596060769148
-37.217201959912025
48.33345804214104
84.34912932546372
75.46878416935613
21.174163583599235
-49.94854953280294
-95.47285429949548
-130.58369952367252
-143.24194911488902
-157.19125410688056
-190.89085592717254
-196.35619909312942
-142.46237554517504
-65.01133015391007
-17.238563003515914
-14.23231898881449
-68.89055814199781
-115.66911898686904
-80.80136475771437
1.9369963258000547
85.26235524815772
160.45573811636143
194.77350439700933
175.65988273844263
189.27756827730434
257.6447307536353
333.75974873499706
344.80135545685
270.98608925780235
222.74358727222238
171.31421536167514
106.29313925518474
120.33230227017287
171.77621329985993
220.3520218937953
249.63656326580832
257.30932107236424
213.03650684556433
79.07519444110554
-23.241971420425283
-29.733885740242044
-38.050550089678914
-107.40427745337999
-206.27283697412153
-218.4491184406699
-62.85713640652912
82.11587900052375
18.200978159136856
-146.5654348382652
-277.6645635740294
-327.9783411527298
-239.55757444621295
-102.77750717293448
-8.262951262486574
106.09532573269325
211.1393472853072
220.15711656549277
149.1209001241534
58.4227434013314
84.01174101012842
204.75706465141772
268.4146419420363
281.51218833205985
207.5747625229195
97.28877825654664
36.403924010850204
-27.962904114479166
-23.161864103049826
26.872063816175384
0.8632525830564642
-65.74481520209413
-88.32133041871181
-81.98613152211956
-105.97010854415211
-28.0643765986302
167.07164801947397
312.22990186847903
306.19735270334735
119.3479249209297
4.41446043441882
60.56037343740739
124.56047429589675
215.38868580564187
254.39560381971475
105.31228750694103
-131.59069506644477
-301.32816820251793
-377.9862088541126
-359.178719672786
-196.47667853214753
-17.34526044490441
27.835126346724035
99.7702345170959
291.25246450062554
457.4885870259621
545.8811811385689
582.8524448846123
571.7638022053765
500.5147192770094
389.00451072356464
285.3135122348205
194.95862589393775
101.99858211297003
59.20469099728097
51.52063161994122
-47.41677610370141
-222.7239809885342
-386.12995163228413
-451.17223746521387
-367.5046141165466
-157.65613899121357
117.75616137083925
312.4218996420379
373.318491324319
315.368534480372
189.11906516932115
104.0212604015092
33.56287230539522
-57.42602082176744
-82.96266080574426
35.480884070487825
198.264144104832
289.32154869001795
338.92261029134727
280.7443777074297
111.12443214974971
-13.214996095570706
-49.48994388306336
-54.12715187938049
-103.52617638753006
-194.5293606460157
-276.1713900667511
-227.6078901363212
-32.59200939717134
28.401928679447394
3.3644497167330645
89.03187264906953
181.98275324418782
241.55278894360072
247.22830551770292
220.02583693406874
220.4965723842123
200.78940198989332
149.7785114386529
113.64591688397695
104.52044885555364
100.3147139051684
113.89808845206878
158.89609210950277
214.56233178590387
266.38822308650504
254.43902469100257
161.9193004542779
82.41357544405217
58.577549453903465
110.06549337205387
206.87360312071306
254.41024710103542
244.98534839389114
202.7567123204639
127.93550057733802
37.367632821029815
17.727359210241726
105.77463046501958
201.65722367935143
179.744464292684
50.145935657542196
-41.847516065481294
-66.37160420420165
-14.050875125666986
82.23702309263531
67.43564937587642
-22.176833339828704
-103.64887668429986
-160.02353613606923
-80.9861091352013
58.18017026645267
83.04769619995565
75.69720941783592
87.23968811401127
68.13226453645446
35.884300997963464
-22.547871849601204
-57.956470383496594
-25.04086393843473
-9.67522161610351
-40.18455931803306
-67.8421115337673
-85.26306774798361
-105.8134378086968
-109.14706438540163
-87.99839159119986
-84.62592341871525
-99.38912111248322
-96.01256659539324
-80.72562349374273
-84.54635251207394
-125.41696043183732
-200.07276425595356
-273.94923428961516
-306.5009266627397
-312.6416320183797
-318.0355950459112
-303.15910934857055
-270.9513504705609
-263.8283035417633
-300.32097451328264
-342.9230106682202
-373.5965737576927
-369.55473335557093
-236.3622601051586
-94.98888447294671
-84.8430144522788
-84.63490648192973
-78.42407737251354
-72.65720318392349
-31.238932673636217
17.85154306178528
73.25452857083124
156.4226484632355
190.3204815177753
21.969803322663967
-187.75088496607478
-269.5351648733215
-285.7283026229916
-224.9800203606977
-183.15053096541325
-227.66778781462477
-255.22920396385499
-225.68357800922945
-173.64273724413843
-166.33839137989142
-176.95355209668656
-157.79831649818337
-157.512761826246
-158.66876732208314
-165.07416444534732
-202.0073722736996
-215.38455580090078
-235.38460658406026
-263.7069472550372
-212.40600795174961
-126.19537143718955
-71.31114181758333
-56.2114845645311
-94.02952533803206
-103.15035574339652
-57.61373525395079
-5.101433387987716
65.3033919096426
128.37445266709818
172.0999729253857
142.46229496714224
