AAD_Filtered_TADAS_FILE
AAD_BASELINE_CORRECTION: BASELINE REMOVED
AAD_FILTER_TYPE: BUTTERWORTH
AAD_FILTER_ORDER: 1
AAD_LOW_CUT_FREQUENCY_HZ: 0.025
AAD_HIGH_CUT_FREQUENCY_HZ: 40.0
EVENT_NAME: 202302060117
EVENT_ID: 13194
EVENT_DATE_YYYYMMDD: 2023/02/06
EVENT_TIME_HHMMSS: 01:17:32.00000
EVENT_LATITUDE_DEGREE: 37.288
EVENT_LONGITUDE_DEGREE: 37.043
EVENT_DEPTH_KM: 8.6
HYPOCENTER_REFERENCE: AFAD
MAGNITUDE_W: 7.7
MAGNITUDE_W_REFERENCE: AFAD
MAGNITUDE_L: 
MAGNITUDE_L_REFERENCE: 
FOCAL_MECHANISM: 
NETWORK: TK
STATION_CODE: 2715
STATION_NAME: 
STATION_LATITUDE_DEGREE: 36.855364
STATION_LONGITUDE_DEGREE: 36.685618
STATION_ELEVATION_M: 431.0
LOCATION: Kahramanmaras_Pazarck_Turkiye
SENSOR_DEPTH_M: 
VS30_M/S: None
SITE_CLASSIFICATION_EC8: unknown
MORPHOLOGIC_CLASSIFICATION: 
EPICENTRAL_DISTANCE_KM: 57.62
EARTHQUAKE_BACKAZIMUTH_DEGREE: 
DATE_TIME_FIRST_SAMPLE_YYYYMMDD_HHMMSS: 2023/02/06 01:17:17.0371780
DATE_TIME_FIRST_SAMPLE_PRECISION: millisecond
SAMPLING_INTERVAL_S: 0.01
NDATA: 7156
DURATION_S: 
STREAM: HNZ
UNITS: cm/s^2
INSTRUMENT: sensor = ACEBOX/SARA | digitizer = 
INSTRUMENT_ANALOG/DIGITAL: 
INSTRUMENTAL_FREQUENCY_HZ: 
INSTRUMENTAL_DAMPING: 
FULL_SCALE_G: 
N_BIT_DIGITAL_CONVERTER: 
PGA_CM/S^2: 263.919
TIME_PGA_S: 
BASELINE_CORRECTION: BASELINE REMOVED
FILTER_TYPE: BUTTERWORTH
FILTER_ORDER: 
LOW_CUT_FREQUENCY_HZ: 
HIGH_CUT_FREQUENCY_HZ: 
LATE/NORMAL_TRIGGERED: 
DATABASE_VERSION: 
HEADER_FORMAT: DYNA 1.2
DATA_TYPE: Acceleration
PROCESSING: Automatic Paolucci et al., 2011
DATA_TIMESTAMP_YYYYMMDD_HHMMSS: 
DATA_LICENSE: U (unknown license)
DATA_CITATION: Turkish Accelerometric Archive v 1.0 - Disaster And Emergency Management Presidency, Earthquake Department
DATA_CREATOR: AFAD
ORIGINAL_DATA_MEDIATOR_CITATION: : AFAD - Disaster And Emergency Management Presidency
ORIGINAL_DATA_MEDIATOR: AFAD PROCESS SERVICE
ORIGINAL_DATA_CREATOR_CITATION: AFAD PROCESS SERVICE
ORIGINAL_DATA_CREATOR: network: TK
USER1: GuestUser
USER2: 
USER3: 
USER4: 
[...]
-22.624500635597997
-19.790919633846396
-9.321811709219654
-0.195158298316283
-4.970619635524979
-14.38515027008153
9.505604181658981
22.992118208658994
-2.444088284676793
5.520508964860615
27.59675050723097
9.878061890376532
9.731638213272149
29.440530375664625
12.833184593627653
3.0814597571924076
14.703418541014143
-6.291458411590634
-7.899076676828431
19.9331346181189
-7.570935342633172
-28.136604301201082
2.4397605527568307
8.208396374966544
2.3055183422369643
-0.35012470527186756
-13.493497117068138
-5.143729608655536
-1.4092801329857203
-31.78960592118932
-39.63105035592938
-8.58029663380364
-4.643166125798867
-19.80766572398249
-14.838924014801325
-28.951671750833334
-33.65692512586565
-2.1916273112094617
-2.3604078644240762
-21.46011067855454
-20.536680474601376
-8.823357327047043
-6.416816059197379
-20.838070601023507
-1.884476197545071
24.390415052132752
13.859826671749119
18.91171744920483
16.63876491566528
-2.5114494615170524
10.650915038031966
24.081473592012177
23.609468013734382
1.1028365882503532
-33.39112363423925
-2.7947644370633116
35.375977605015265
2.646933022145303
-12.363085087890797
14.120475241385822
19.80371226506614
13.560228960474067
6.386617817390866
11.664377731628907
33.75168575658752
17.816654195916446
-13.667510162878907
-9.04346464615164
-6.841358553106811
-8.180160378863976
0.7278036579366058
-7.867756707006298
-17.920067411589525
-18.096655881515503
-17.454416335674402
-11.951893704962226
-14.214015620046101
-21.190097779521782
-20.861823474196925
-19.172038269588484
-15.698508062952769
-15.300193186257493
-22.649671109011813
-21.306806975157958
-6.25667555879612
-4.570659271227602
-13.65760304012598
-0.09757481436470916
16.550207322070456
17.494029626845304
21.351180264404803
13.516047191915877
-5.217986262053989
0.8017287216446981
25.324107530316816
24.134807764303414
-10.787352662887905
-21.700666268612096
-0.21161152226426144
0.2868184318791594
8.101117923338135
34.24654694765676
9.0901941025867
-21.843708898364167
2.15690238990914
3.669937726926591
-21.74537308717901
-19.55319451319454
-11.06254634020802
18.535943033470538
39.98258732210597
5.100589281335464
6.061821783215433
35.04270740881943
13.176545374527183
14.617104569557338
42.27535479715359
24.01933480737773
-3.7933187542383506
-10.929645393251693
-13.520718217152382
-13.011899789412304
-7.304428561607568
-7.273407054678834
-17.362694489420363
-15.513542370103774
-5.203715835973469
8.894371790127394
38.173922268880595
27.126348315085238
-24.813424867037057
-24.299157315631675
1.9952871917356374
-4.289967946240457
-4.594269863719202
-6.3267003309513115
-14.751694473843077
7.5097631181736055
15.14137116874953
-9.698079108057911
-9.630594068449017
2.415860496653797
8.610240828608902
22.044965174015267
0.03436997123124291
-39.01562273570878
-19.727558377267634
8.117452129150651
-2.4839866308870584
1.9803767405194301
11.70532451866504
1.9202667622592302
5.1314418693161326
10.459652564028184
-2.075020333099432
-13.488577544131058
-12.556620675405393
-6.148390782023716
-6.831433758734593
-10.364295527096996
-6.67250742301507
-3.649540489553247
-9.923865665867607
-16.371122737309953
-3.491516974408538
10.575626573194441
4.228510117134107
9.69124824200366
20.14915347112015
10.56070448208397
12.427235252899287
7.565761109062975
-23.126114616212504
-22.172052149193924
5.639018052095405
15.400284637155233
18.510992128154292
21.948241137879684
9.623722141181219
-11.505467137102842
-1.4710947519625714
29.59434816363733
19.81565850611497
-3.1587252179915644
3.8934440143805475
-0.19604338300583546
-15.787748144171763
-11.829746002078812
-8.620608002278805
-14.971636756215357
-5.520763200630975
14.85055945667187
12.127523982990137
-5.781737967001848
-6.184630673854977
5.185416138863452
9.086513902424782
16.082855099599545
31.163961794283246
23.709107381459763
7.410009467085008
10.787868532665543
11.188528351661386
20.951055474875382
30.234371043242934
21.519149282318796
29.156362674538794
4.05516091882342
-27.395261918905856
12.792396380657603
30.261218251022957
16.525384442857867
2.4789891525298864
-41.441386543918235
-19.263230137553514
35.66686359555631
29.12234260151841
22.844474203717112
-0.6954632259235847
-19.501077727561597
19.131656016735587
16.084019971061664
-14.007217524329251
4.7726806946811555
3.9816593569084873
-23.54953389061677
3.9178227146896636
33.43502554381779
-10.005220625552463
-17.888927191012552
26.291887097494424
14.235542569914758
15.140211250069974
28.30066779175646
-9.282653066677014
29.638375514857017
85.17168149469205
19.189820331215444
-18.174522221498634
16.464485493752143
16.772323594997754
15.294168290990456
15.025784996238528
-19.588610920317414
-30.940449525522546
9.81496637117097
30.10406546867313
-29.650053756539368
-77.11632406343439
-12.452381917085457
44.05995554614441
-0.36462225544897325
-20.700451515010492
6.021525833454653
-0.26119176087008406
17.42212493984759
40.80430310798733
4.3677909603601135
2.46448891691213
-1.4464044129444926
-58.47638285323702
-28.354573490450754
-4.397711522808083
-69.7106251775957
-31.719755064863282
19.46805963725812
-42.8448395484683
-27.19652453465311
48.94448501776273
25.8872617122015
-15.147302058657369
14.052211351592655
36.28101127109436
5.800385882001826
3.07364291100274
28.88063499116352
15.21421372863446
14.079627056056657
36.551162368538016
18.68691964432708
-7.679446756817234
-7.23201192949465
6.552603762613741
15.803490716175128
-6.4972856078327075
-10.325533156619287
50.97751495077011
76.26562162141633
35.41204520536425
23.762202033151873
27.538998715016906
18.13618865883399
13.66189501876945
-12.165314783923561
-38.87381132273341
-35.1419461853544
-2.8061488336187725
27.646791437048904
-2.6370662202549817
-30.752840459019527
-14.532673377018867
-14.928795530099185
-0.35924308748709777
11.77038542913997
-11.156115483334226
-2.7043217026353266
9.875797591052143
-1.7549802801945784
-20.24377946790982
-38.99087438527414
-3.2589425732808044
36.04753827056243
11.433866078979209
-6.67647565690185
9.047334695510404
17.145877402249596
-19.999493196724103
-53.969724020984366
-3.0263749276456196
32.551809789888864
-13.728866222782255
-27.089622588523365
2.3722000567654775
18.46658426768588
28.721623507110422
17.795470440838564
2.6899245413842863
-1.0045740856083873
-23.152061197059563
-27.33406685610118
-22.59979010977149
-34.383814827395526
7.5282336977699025
43.12090657673616
22.58905579492751
43.50514735909543
49.250304529913514
-8.72554607050412
-23.64313469127812
7.224559987042905
9.681529977637682
-23.66565707582608
-31.671365020229565
-9.944943439348526
-13.869244175361954
-7.163082254579987
14.670965745344281
9.962064152162037
12.764332675058247
21.259228781336397
26.242326448606093
28.66579266770845
-0.8722369378022241
-10.10072098414445
21.08071066376654
19.55545190895239
-0.8472309354497398
6.325978519867508
26.603402667731466
30.896880720506875
7.665226492915659
-16.950438442279406
-24.067482818716684
1.8152667146653894
34.28737747920384
-6.175657738419174
-36.55360776036632
19.50780209849687
35.24339326782577
-1.0584047018796192
-19.958304777052152
-16.25447624920985
16.692579150600366
7.530209250241484
-28.532661430068362
-10.075580928921775
3.5576067860329363
-3.9192780679253656
-16.87742107901764
-40.477556920321575
-29.57245023024194
-6.208138766442217
-0.28094132827665536
-9.889720035418911
-32.8962083254556
-20.329537541281674
-0.45030382341343383
-19.924369007167712
-15.911345222958884
10.177408143338399
-24.339224067163567
-80.45197661427781
-58.02435665602088
-14.20119909084963
-29.404049736823218
-55.55263304043958
-60.309376370916524
-43.847776970612266
-33.34341359482317
-47.61423802229173
-47.6660936674571
-45.25813365164699
-17.409258176106633
0.29507035657205005
-78.23247746418451
-76.36400265641485
36.75229902571282
50.61202411133148
-18.58584425681671
-82.2406307834474
-71.46534407517218
-8.703861792184426
8.853915328706135
30.09890592516818
14.464065429732615
-16.56203271803687
30.991492540361833
14.651427672467385
-30.39536880789187
1.9610340422948012
52.86425965159161
113.99651750077362
75.0284157707538
6.322530320660369
67.27752152213627
72.08448182529581
49.65817699175375
96.2974156802087
26.52012007160124
-21.25124185996056
61.53656512253983
38.73920869751799
-11.113281745048958
33.14122591486689
14.403330421755697
-41.56048749416183
-18.809989987859414
26.303839225462415
12.712042486764108
-23.169031590286608
12.957351469238173
64.90817915929941
31.93526394786445
-17.734319685830982
-14.01633371914753
-5.822006352805699
-14.891015253667419
13.95573975819037
63.20163243932358
58.09794111638362
8.823484898492227
-33.28665290897023
-27.12917896067819
14.148233141324722
18.384946352272785
-20.704401998813196
-32.34556701176312
17.048139697056865
39.78207178167357
-9.591387110862229
-23.64753738191626
-2.0065585591855997
-9.621586280666168
0.6207364295967035
24.384605126977547
18.237025585334063
-12.997933599561243
-39.95660583086247
-26.962602905873855
-6.151890260976662
8.338038888930532
28.593908716458024
19.1041553394405
20.04867281551638
20.264974851935122
-60.385275439130865
-89.41123899928148
5.878134651037438
33.82234407670258
-34.59469381102293
-57.840939341000386
-34.93123295367005
-17.00769352354035
-48.413921856803064
-112.886653919598
-72.0452973321006
-7.208549554025742
-65.75924401258187
-49.22082755990059
48.527651485348514
-21.645147435395586
-99.36601305191154
-19.690029263784638
-25.208021271863863
-128.29978210196822
-80.8185389060375
20.26402089578206
29.16316487811436
56.116577431470375
22.9462493780317
-92.2198973487733
-28.250751401101823
107.87482786029629
61.26423328187575
-29.057903758396986
-33.185720260581945
3.2398416045057257
30.118532927898364
5.718931422263287
-2.0839702161276343
47.92815721967537
42.985975059528485
-18.970999414912505
-36.509997857246226
-21.40303817775534
-3.617680442804885
0.340952271161049
-25.96109097104556
-18.3012850405294
12.993932275250948
9.115005272148128
17.12291924718599
7.59389954158002
-37.005703894777795
-3.020463989868272
51.09210693458463
15.363974219990702
-19.45916536139434
-24.381756846174593
-44.860592045397595
-26.96701023911219
10.627441846058632
-9.911855864298046
-53.848017934667865
-51.7734059521353
-20.62557526885016
-31.17602776579427
-29.481194588505666
24.19809473125601
10.601542714920948
-8.833972434174177
24.495011875642636
-30.25464834135853
-87.47716169024321
-55.9333070121177
-40.21606385944704
-26.45949302607838
11.597746453707048
33.63335643563635
10.223779027994352
-37.56226453137992
-40.46073913112331
-44.038560731552266
-66.91670414593413
-31.987491062452744
-6.564229440898357
-37.68396840221952
7.590004030803863
124.12330775321787
117.06090401477391
-7.618285841658522
-64.61793906719127
-13.381869826568867
42.60356355468125
25.362007616387864
12.039513786392002
28.585333420780838
-25.590765273476194
-48.35223078253931
3.633341345751429
-8.928456643371934
-16.447465586443226
12.147208313571715
1.2732117148768753
12.692814138524643
11.628973499091584
-39.99739164081873
-25.4052974280017
23.557434586611514
0.6678243024535039
-7.886541349568114
43.806383912872356
21.14861058895035
-49.00209795932892
-3.9403419392491053
65.15610967665135
34.20385903452888
23.57864302460383
45.65021024842902
-1.3978372130683296
-13.242184917152224
60.835111536422204
89.01755435208526
54.83180655265228
28.332526816987784
49.29944357350307
64.79836431335148
-1.4058693513378597
1.599989873465869
92.8347375796658
48.42603167413082
-4.00252061473331
40.24858273708355
4.726062726620388
40.09039162225
131.7550877721479
-7.793788812577138
-74.15777769150725
68.8809006894858
32.37789307551025
-31.412321550812408
47.78975036955757
13.231485695741224
-30.85310047082403
16.491648008724656
-1.8110404476662094
-10.894456764467169
19.767848288027203
-4.356564884849592
-21.66006194132357
25.855851192784876
64.01074212150161
15.960895513423884
-18.68008279316868
41.910437034457985
65.0103984236759
25.082364312970423
5.7119109571698505
9.633312048359958
49.727925911012925
59.765581911859805
22.62855172991013
18.970594173469078
-36.08829265596018
-51.88461656468303
91.7429613952253
84.10593204118177
-36.29170926636826
29.000567378891894
42.34152980555483
-34.31719510562878
18.822132004534417
24.90519744299233
-30.33433168291714
23.061397430144037
74.07538332477178
51.55908541935913
33.81774877972596
15.500058401184981
-41.492348689660666
-31.660246902766403
54.95037100361892
39.022258615238876
-17.120351027436
-44.871460152621616
-80.4367817954955
14.043308659359916
60.51240571419074
-66.42609890146296
-23.45721885069708
63.48135867412463
-18.40899022375999
3.3802614544270124
20.643522306545943
-95.12874812841494
18.628398040553513
243.26064827836723
87.55971267567308
-164.48306159282782
36.056105342816835
217.21972402953702
-78.92279153722117
-156.86663507052722
98.29348696664425
77.58634352089967
10.959135211120879
34.55933721057876
-19.762946874635283
8.034226883251335
4.5200979127830045
5.114309298440386
67.16480766546131
-18.33032561640651
-35.19726847076491
20.6261659495893
-2.5845293867195513
23.87175345922486
-14.336316054023676
-22.053821614682548
92.40103354290808
95.57295364355832
35.76736098183411
-29.773361967090214
-17.472630003206188
110.20550866003178
52.037308871551716
-81.11838290718791
4.8248159657582725
106.4979727068355
38.35028810500151
-62.57973733840629
-52.19487923544073
-14.627250751714046
-46.159533504426996
-56.2189986345635
-22.47643201007495
-36.13570632437723
-64.14046430682167
-6.6608395844048225
36.35758751432671
11.196864070689557
75.51376256905252
75.27641415396147
-117.37151323923172
-165.4559670672663
-58.591301521987404
-54.2382697696352
-71.33578245325535
-50.69674253680104
-30.7435127924653
17.95100925259747
24.131533414759936
-40.80056123664385
-43.4745580834434
42.72260674560697
53.47436765887931
-35.246192978976794
-64.08070352199114
-31.859791685698617
1.7247404329427103
42.56683437367372
8.583104444160313
-77.46402691279793
-58.75993231975601
29.50832770872351
30.49372535135771
-41.948065021434054
-61.439545568258545
-38.12575348773188
-41.82865078640565
-42.347266820752566
-43.343371197075676
-67.76872546421846
-44.855217984489165
14.018527085531755
3.8836462996335914
-29.756633814964193
-14.3687554078778
-10.458972095776717
-6.849266519465656
3.7653960815991336
-41.76373207889815
-54.05001905450552
-19.799295129013306
-41.70630442301896
-25.17572727415497
30.478697714120216
-13.675150387431225
-57.97764003484164
-15.066502560633838
8.142809249207257
-26.072950659030262
-57.30896448345513
-12.241181598077489
60.94046023596566
7.133364949698161
-88.78452588033092
-30.642262528362117
78.87577210165361
56.05282847048283
-34.51418202845464
-31.03719360307855
31.537406387054
-0.7873729866829535
-58.31689389104377
-0.1904595018672255
33.34885257269448
-69.8964034401961
-115.81910774435372
-7.176148321580004
56.58568971610535
-25.498482310603546
-75.22494984910168
1.4506464626035926
22.67923829947151
-71.36457098214383
-80.60361049988158
-5.70895276417488
-18.112158791167055
-47.68236697777632
-8.04481208332262
-7.152967140543903
-33.03663528344944
5.437410245918348
21.203510423466543
-32.360405533577186
-48.12404900656626
-12.4785517326293
3.72552612652216
-18.438790633596405
-53.40712437214186
-49.00650557491112
-17.485864633233625
-22.099176610419732
-27.75555194441933
7.145320551617424
13.876906762686971
-9.027385719882446
14.3728957370612
3.834162908563527
-68.13692053491101
-31.92765023172143
43.884445900978925
4.54685357937091
-22.123092768178683
0.24295976961615806
6.112572592019284
34.733560148150985
26.499700129107513
-29.44988152741351
-30.353457595902306
-12.499743583333096
-25.616455556749933
-37.90661373088814
-41.03584732327692
-15.016293835331245
12.071316959957056
-45.03177347137635
-97.67401068777045
-33.24400747451105
6.2128635048164815
-31.22502605321577
-17.960465450050407
10.206866406653099
0.7819549347314988
-21.0774322808521
-30.199063152708675
21.112883784905513
26.79309827471841
-56.2584656698108
-54.58093716921838
8.819817670404216
22.37390973820947
7.630470559829475
-23.636922008140775
-32.1741919612978
6.08735525578667
52.90500469942921
30.609206528913614
-68.29965309982565
-43.7801725233923
68.28031093596137
32.11661128742313
-4.331558503980215
54.91509784595817
60.871830727433405
51.366119717998124
30.530807547003757
-4.443787620676783
59.79100713278042
117.76500078708487
45.781680464331394
-22.124294030214678
23.73232862759688
71.67023804105554
9.604444388011846
-41.88379418326276
14.046061276373855
50.07155548680655
21.721800411628802
22.597997511245712
26.02186736457628
2.469431019608801
40.73386472743646
96.40973567375524
58.14679000469748
-6.269850135961218
0.24729201934572498
62.70900193505906
71.63538642784218
-12.530631042752288
-42.92032607541222
22.15450006391112
60.55701332414281
31.995537392864176
-12.883048433531808
2.484741098731274
43.7697722114257
24.244997994296597
17.574501118284147
43.88953163462537
23.73927106450065
5.327587450643117
21.21779337853705
37.84874272421349
39.3991854915921
0.17255919410714748
-8.092862959857309
44.717669426020784
35.45916772169545
0.0926132097515503
43.374254011799515
68.10006110304325
4.708481762918577
-30.912480765744508
23.798733679399973
42.59617097465866
-18.93924233300754
-49.247054959465814
-28.205790580555856
22.60980267070218
53.242335672011805
18.798676344414996
48.803981694113965
118.89522502932459
58.489878938469914
-20.109277444332548
-9.549070783996854
11.300418421555763
40.55157148111255
47.91918852772976
-9.852969812808885
-16.208490782535993
29.758321991233437
-20.516518343943282
-76.07059832076037
4.2643850288195075
73.28515873920735
23.18582368844591
-15.508797294307234
9.543104768925977
-7.727195731326399
-54.744824015514396
-30.873062240971063
17.98429791555324
25.224075093467754
11.688230932394122
11.134004571598767
38.253869734000546
35.793209339568655
7.542809980621255
24.40304797062582
26.64506051912368
-19.842735587161027
-51.6976712365597
-64.04827714036945
-33.30410197777609
51.39086876211661
46.00348807378894
-68.68358996227984
-64.45625234773493
21.342912364157982
-28.274361495211267
-68.29640823844422
