AAD_Filtered_TADAS_FILE
AAD_BASELINE_CORRECTION: BASELINE REMOVED
AAD_FILTER_TYPE: BUTTERWORTH
AAD_FILTER_ORDER: 1
AAD_LOW_CUT_FREQUENCY_HZ: 0.025
AAD_HIGH_CUT_FREQUENCY_HZ: 40.0
EVENT_NAME: 202302061024
EVENT_ID: 13207
EVENT_DATE_YYYYMMDD: 2023/02/06
EVENT_TIME_HHMMSS: 10:24:47.00000
EVENT_LATITUDE_DEGREE: 38.089
EVENT_LONGITUDE_DEGREE: 37.239
EVENT_DEPTH_KM: 7.0
HYPOCENTER_REFERENCE: AFAD
MAGNITUDE_W: 7.6
MAGNITUDE_W_REFERENCE: AFAD
MAGNITUDE_L: 
MAGNITUDE_L_REFERENCE: 
FOCAL_MECHANISM: 
NETWORK: TK
STATION_CODE: 0134
STATION_NAME: 
STATION_LATITUDE_DEGREE: 37.74427
STATION_LONGITUDE_DEGREE: 35.864475
STATION_ELEVATION_M: 494.0
LOCATION: Kahramanmaras_Elbistan_Turkiye
SENSOR_DEPTH_M: 
VS30_M/S: None
SITE_CLASSIFICATION_EC8: unknown
MORPHOLOGIC_CLASSIFICATION: 
EPICENTRAL_DISTANCE_KM: 126.52
EARTHQUAKE_BACKAZIMUTH_DEGREE: 
DATE_TIME_FIRST_SAMPLE_YYYYMMDD_HHMMSS: 2023/02/06 10:24:48.8350730
DATE_TIME_FIRST_SAMPLE_PRECISION: millisecond
SAMPLING_INTERVAL_S: 0.01
NDATA: 12501
DURATION_S: 
STREAM: HNZ
UNITS: cm/s^2
INSTRUMENT: sensor = ACEBOX/SARA | digitizer = 
INSTRUMENT_ANALOG/DIGITAL: 
INSTRUMENTAL_FREQUENCY_HZ: 
INSTRUMENTAL_DAMPING: 
FULL_SCALE_G: 
N_BIT_DIGITAL_CONVERTER: 
PGA_CM/S^2: 35.326
TIME_PGA_S: 
BASELINE_CORRECTION: BASELINE REMOVED
FILTER_TYPE: BUTTERWORTH
FILTER_ORDER: 
LOW_CUT_FREQUENCY_HZ: 
HIGH_CUT_FREQUENCY_HZ: 
LATE/NORMAL_TRIGGERED: 
DATABASE_VERSION: 
HEADER_FORMAT: DYNA 1.2
DATA_TYPE: Acceleration
PROCESSING: Automatic Paolucci et al., 2011
DATA_TIMESTAMP_YYYYMMDD_HHMMSS: 
DATA_LICENSE: U (unknown license)
DATA_CITATION: Turkish Accelerometric Archive v 1.0 - Disaster And Emergency Management Presidency, Earthquake Department
DATA_CREATOR: AFAD
ORIGINAL_DATA_MEDIATOR_CITATION: : AFAD - Disaster And Emergency Management Presidency
ORIGINAL_DATA_MEDIATOR: AFAD PROCESS SERVICE
ORIGINAL_DATA_CREATOR_CITATION: AFAD PROCESS SERVICE
ORIGINAL_DATA_CREATOR: network: TK
USER1: GuestUser
USER2: 
USER3: 
USER4: 
[...]
0.257161441029778
-4.013486439331675
-7.332773935190902
-8.822273622985502
-8.468891422061688
-7.051641824208546
-5.263002958230201
-4.066186080092608
-3.8774370763965034
-4.33191440578163
-5.139963354540224
-5.890793245948838
-6.053670536305601
-5.481946148946805
-4.673405420574935
-3.6406917271299992
-2.4186417989970717
-2.1891409454819213
-2.634485362997145
-3.1910918418163403
-4.516507176160121
-5.378509924629962
-4.797082655478637
-4.253974914563603
-3.6868483941893975
-2.82255969639479
-3.746868994164944
-5.484434598956973
-6.095047912198712
-6.167742520002028
-4.917004570339304
-1.917136688917422
1.107883961276531
3.536645657007129
5.62449821123429
6.742983355369617
7.413793074715412
7.5883592038748775
7.623733955522925
8.658622255222989
8.26048016677392
5.544949934304317
2.7158975163508527
0.8628131749180199
0.10403629779027102
0.33641047514586625
1.6832289094493327
4.056049307059559
6.350286310959961
7.318010143683157
7.104978901668321
6.049871541463405
4.482922400139217
3.6141418650200543
3.5689555755481828
3.2235524556872406
3.111348049359208
4.349428120531547
6.1416719402708955
7.728444287024355
8.895901565471354
9.857124201982488
10.888146280185548
10.916970229537903
9.88748880817494
9.023370122469121
8.496380615165604
8.061953060550689
7.624865037967628
7.058788255232788
6.210836572463716
4.675533768204878
2.4831273342191347
0.8390478398535148
-0.06493165530852621
0.5539923419027866
2.8665447657746603
3.829332479048687
7.546014591185539
8.9454267054728
2.5141313578444593
1.8862377856256567
1.314934941280308
-3.745694124318446
-1.3884952030536972
2.360458288122277
4.572759881676014
10.557025005099549
14.306667696435138
12.97537818772577
10.499253289782997
6.929024135463703
4.651957788002934
4.883491815909843
4.307312033005942
3.7725707969320763
4.693334265162932
5.099753295124336
4.330610481636983
4.628070569642867
6.716886150469143
8.837111092215169
10.327944305155986
11.985771397299668
14.571556801826437
17.75960733770784
19.89740767438603
19.11755142207098
16.155461303511423
13.411303279456686
11.655461346511526
11.134665982770432
10.642516681458384
9.220144169035663
13.545878254528905
23.291563691408943
27.247859401174562
23.289744416644787
12.074529103101765
3.1016168960354085
-3.1442177851240585
-17.22390905170974
-22.248224847673136
-15.546927683891797
-12.191749644066277
4.355555279540246
28.747051597808042
29.033569404355283
19.285791486757454
11.143707877650384
-5.41183353582097
-20.31046606243834
-23.776218477243333
-18.427840423775574
-4.197202361343223
14.185419672238888
21.282023664110778
24.621688918751243
22.180766402661956
4.1063506566012355
-6.186108065482652
-6.0993503845467645
-6.130071843694604
3.264044725537797
20.932468606154863
29.227850685278653
21.991037060530417
13.479095991037847
10.561471286740499
9.906298707671299
9.60971956875944
9.235177035671672
10.79530078807804
10.81556300580103
10.4223467399928
13.124114722490937
13.297883329781644
10.491014435477055
8.655833276741031
7.630884499057631
5.998649132328937
3.3956651364993036
1.868456830304659
2.144783509191638
1.8850812644521953
-0.0807206811749891
-1.934653465043132
-1.4746961376414156
0.2225301956987882
1.100491691480258
0.784371906884718
0.04214336291729377
0.82685167228527
4.080077395294943
8.005480293279415
10.214658929924525
10.132834035598815
8.80032347657742
7.211329470807516
5.987546431987583
5.6078032241835665
5.699098074544317
4.721105799419212
2.169173772782
0.005756189743577455
-1.2826858337034919
-2.3037684368852904
-1.627217345993454
-0.9130400395482476
-1.4375351140827797
-2.3200001306389164
-3.6450655466571575
-3.781532938470055
-4.411201224708136
-4.527221483485982
-2.982181566830127
-4.62156759383046
-7.025922667836526
-8.594170181974953
-11.535101854315526
-12.678540292135477
-11.378556045566206
-9.018147839475079
-5.110078174711341
-0.4480579872550594
4.040815221727229
7.928344968706057
10.75442592296551
12.90051110024456
15.018749676564427
17.288439409102633
19.6695350057284
21.894164822036164
23.252284761550797
23.049662536137053
21.190889278527447
18.09979365767731
14.455545352199541
10.817316646757268
7.6422676932072235
5.399908430533226
3.9772924608632634
3.299418992642012
3.5904717480958275
4.678422459828672
6.251029190632243
7.895627399572895
9.340476149919796
10.822993923051563
12.664807721372103
14.784916856325934
16.40631420792456
16.42249990638738
14.205054919612879
10.049750055294226
4.943084763515009
-0.04364466743263769
-4.093243965021252
-6.670181771681996
-7.879407146309396
-8.278831212403949
-7.785926062427189
-6.246562509306767
-3.9456330329097478
-1.0617199082568092
2.0026060161832278
4.712044375256558
6.496722862704021
7.0257806264681815
6.89861651212019
6.907783453485238
7.241908920401917
7.591448750620108
7.283368518845129
5.8104441058830725
3.020906077887075
-1.1103996136313166
-6.010601298136907
-10.8024975305488
-15.194603505458236
-19.100851770732394
-22.269372875595113
-24.450327204640598
-25.110929167555764
-23.860723392336784
-21.29146586228659
-18.317555351385344
-15.9158666984727
-15.317338827989088
-16.703969319014664
-19.04686530037379
-21.06297247949433
-21.822664413803864
-21.396425391450183
-20.197024445761432
-18.39112080290993
-16.173497651780377
-13.612195019576665
-10.73232520474525
-7.797676984556263
-5.214029822413396
-3.230757425729701
-1.7122142228629216
-0.25155581072530825
1.5583187334059854
3.710060869731857
5.727290739535468
7.401489820715496
8.695964907503823
9.24972262693378
8.843030003433357
7.523775282448973
5.314207727813274
2.371418037822368
-1.131802484396194
-5.363996468132353
-10.19857797569779
-14.894179580126716
-18.7060536643332
-21.263793130313484
-22.306056701465405
-21.09589681132172
-17.57995782396509
-12.934265161909947
-8.200640527895093
-4.617002486191845
-3.3177305610524614
-3.9795888132007526
-5.641452275132235
-7.179503724863121
-7.164541958482126
-5.061238986291878
-1.5132253686884045
2.2959799013336997
5.163778779706025
6.612034592006921
6.79150605863056
6.06322649296001
4.994336698962858
4.246325673561311
4.247911210788374
4.846133656067095
5.411805293553052
5.258737387983483
4.1097944908596
2.537850455191137
1.317179722788605
0.7781595062072301
1.0292639771356678
1.5736502532322876
1.44720486754779
-0.024016415800267577
-2.7878944500113945
-5.949813740031055
-8.497282640641236
-9.753667168764144
-9.438681001123564
-7.939120605156124
-6.16590119385825
-4.904437182223023
-4.346448646912387
-4.092102102846453
-3.8377195472886667
-3.9237757142952225
-4.655099930947777
-6.070714110560419
-7.908968365146957
-9.22109528405529
-9.106686704161081
-7.366776096445878
-4.473196389716383
-1.424040596645629
0.706948287906748
1.2270385199564628
0.21969665222868415
-1.5571714609558338
-3.2118320713914112
-4.207696022591967
-4.5761943695555205
-4.6846189854878135
-5.066649936339153
-6.117887988068022
-7.846478027665247
-9.911263847022063
-11.610263857386798
-12.32736962701137
-11.860999983943309
-10.410463791442718
-8.798496711421572
-8.076051815113935
-8.74489765495495
-10.61869357591114
-13.12575524089079
-15.70813934812703
-17.896404596202228
-19.163108776736276
-19.397576335427853
-19.187044688579416
-18.958719307748527
-18.486574623008156
-17.50169685489566
-16.004856899099778
-14.01839093258119
-11.638613194615349
-8.998582452198812
-6.227700993806336
-3.751596853446966
-2.118464868119648
-1.6961289681235927
-2.682451807268872
-4.820407502020431
-7.674370666582116
-11.006029322121549
-14.391592282603444
-17.130150940492058
-18.527067190649824
-18.57091323141739
-17.251310059602094
-15.095576537302067
-13.773811112530188
-13.453657690455252
-13.853508737505816
-15.344466939636566
-16.83903698516642
-17.14741632879244
-16.569750458808773
-15.582061615060498
-14.389931391925352
-13.522908844190667
-13.264125296973248
-13.076139113167999
-12.971100048041796
-13.554553406248736
-14.448326209062373
-15.390083593757009
-16.680470455915547
-18.049383434360006
-19.56328043100746
-21.665388115729378
-24.07971518185735
-26.36234568903998
-28.210301532019756
-29.143666189524595
-28.762531430349547
-27.15329001999443
-24.50099351592436
-20.93655781365132
-17.10783016605917
-13.89024847473882
-12.054135614726155
-12.257792897261274
-14.387690687276544
-17.423580833900978
-20.34335464455708
-22.54832947212391
-23.43805728584066
-22.73324397445764
-21.354035775812875
-20.08386609841575
-18.8037561634828
-17.614265114320983
-16.614286634466353
-15.847778868992155
-15.535190481434968
-15.53600621268207
-15.543208857157833
-15.425114897711214
-15.163106208804644
-14.889729446015162
-14.52244141791791
-13.699432228459273
-12.333496808409285
-10.61258053729937
-8.545463477727063
-6.126384738450828
-3.6768828976385337
-1.6226877169699474
-0.39196544594715826
-0.6779682768676802
-2.3560994368783703
-3.969317779401226
-4.689610425105352
-4.413952588714282
-3.3307674183303244
-2.265438967924332
-1.849561503297534
-2.229310618327417
-3.185800316438563
-4.146517723052999
-4.442922157028394
-3.7984728685002516
-2.4413824440351926
-0.9933533308057519
-0.12262849386167887
-0.2231996722515432
-1.347049479591966
-3.056370563818007
-5.052196691999571
-7.24023470571914
-9.186378739151568
-10.663337145613056
-11.659252880225457
-11.974088555381401
-11.637825417191095
-11.054347198804946
-9.678678993968292
-7.7288223367216435
-7.4389124034287075
-8.492940631472985
-9.764624967385208
-11.842076417620575
-13.687006690382631
-14.244036722958462
-13.973033377368642
-13.056335244688599
-12.00267681792986
-11.667472690244105
-12.028422730237573
-12.928042073173017
-14.007274460231978
-14.817497369609614
-15.529294542859958
-15.920014076804755
-15.540570288454157
-14.356469742563803
-12.525945424058424
-10.25045166173655
-7.699993276313523
-5.146397085965193
-3.164403461652933
-2.2114377015167954
-1.8970821521513004
-1.4879650988827133
-0.7456899604370715
0.29818566321417606
1.3831908807876323
1.8546557502768504
1.4274541663937186
0.1986312961239909
-1.7939116210104207
-4.164336608892288
-6.646287440821678
-9.191199078732279
-11.44694384792176
-13.113968854680854
-13.86422779927867
-13.699716111036297
-13.123644040556398
-12.351048956568357
-11.874909912884675
-11.96369372050392
-11.813654602037259
-11.151281559186495
-10.067679103331631
-8.370796152710879
-6.634120425818227
-5.55099860783427
-5.34447067917469
-6.059861537692561
-7.0825884073212455
-7.3494929368648245
-6.246897906504642
-4.020646433238701
-1.270517298134449
1.5595510897928275
4.146868657661177
6.282785388930714
7.8963682179103065
9.055612383115983
9.80319779399581
10.213622997812884
10.492453021212834
10.881805086411218
11.52016617894192
12.218898299308908
12.607704941281304
12.450636786497254
12.008995114169704
11.804639168545927
11.833672181921772
11.729136489693229
11.162325675540266
9.96908183726804
8.344409488447486
6.632616543321361
5.223298645627092
4.588435800098304
4.6080283620541165
4.449238659805422
3.7424620446353645
2.5813754641176576
0.9471037477850007
-0.8442024655682525
-2.3353819426784344
-3.2792621773167587
-3.562829979623043
-3.2622285695778164
-2.3431176481579663
-0.6396156970882927
1.916715711102438
5.466279149807737
9.635004173704045
13.424843793386687
16.477323437912823
18.6477796196671
19.402241308809987
18.9621768806289
17.94521897672429
16.729040003714562
15.845775360884458
15.407400626259296
15.117322978686705
14.817590618020565
14.418023456810792
13.87954300408983
12.96735512504735
11.439886024495019
9.414036236209165
7.064667316418047
4.790161822032802
3.138454576900343
2.120394082741915
1.5563194026751006
1.3425389502887122
1.0840932122913247
0.7465164335191539
0.8335330113684711
1.4833421236759348
2.671589934991864
4.580794021832692
6.9799378313778435
8.795710807225232
9.894089123393515
11.555013826250592
11.934157143816451
9.045124428212521
6.670919195319957
6.425786971011476
5.617509172597801
5.10563941935348
6.3165128960982
8.196049870630723
10.183067020001618
11.471109498090216
11.490582418086742
10.92722721252246
10.171531231085524
9.46059511841158
9.2013649378405
9.330251150001693
9.53215154700323
9.968544539694252
10.900631335227361
11.792867435884457
12.053418978814564
11.569282515009604
10.618535153557426
10.011902461381233
10.134955773269438
10.905748598767406
12.221401637830033
13.709710854249252
15.235952459910987
16.546011335264343
16.702910341885534
15.712734687103247
14.507272580281409
12.267018286562797
11.516214405621232
13.965540997940652
12.786149023788727
9.948250000580435
11.668513899680088
13.416693395701156
14.469011762158818
18.245969606813983
22.726559662714603
25.233078114412706
26.18423114781294
25.52225911265797
24.194888260524017
25.39273429478243
28.981621276533076
32.88609814167837
35.44954347498454
35.63192066808309
34.635239315821
33.56846087858109
31.707681214453803
28.650695634644375
24.82477907767298
20.694635089999373
16.686668424326026
12.59785417473936
8.34117605802292
4.488910911346336
1.3162032773379284
-1.1825157021213817
-3.7933944655053513
-6.751228445452095
-8.58110402799336
-8.806610743286477
-7.76287987003146
-5.2872534511379765
-1.5668884429198149
3.074087946614478
8.559904531215803
13.95172133213607
17.77275525095624
20.08186754550525
21.24296105534914
21.055535398010996
20.14832016744546
19.02788266910531
17.771471582629516
16.658252392188597
15.797389877259
15.157461083367522
14.607201807766842
14.116690298256962
13.49626341903131
12.385239407534929
11.007701968235168
9.63617246705292
8.366767316725308
7.533564205873305
7.142160689087087
7.092554938918123
7.507622042871097
8.141257074434346
8.710735402243841
9.05278953334998
8.934270258331134
8.659291940355125
8.249564814317392
7.514142199941346
6.708024069531037
5.312858538806339
3.0138170174739773
0.2671129948110224
-2.808500604834499
-6.067367831202562
-8.88567797366955
-10.738948270412022
-11.743469530491021
-12.193749174732499
-12.325589776898397
-12.183833936963982
-11.767487785480117
-11.107157982508006
-9.893183703553905
-8.046107116700298
-5.918029599331783
-3.843374186086442
-2.2776225040500906
-1.4446751304855787
-1.130355956757162
-1.2277401523519529
-1.387453100515149
-1.0685830884754972
-0.15091177552585072
1.170216450868782
2.3793253483905827
2.5521882476848625
1.0566331405874572
-1.3833611264615018
-3.5732412270800764
-5.094210916442851
-5.5684846248644195
-4.959295250456238
-4.0632997974985825
-3.3921657514827377
-2.9726026246490984
-2.7773825371586462
-2.4976359370363017
-1.5750226011004937
0.13969043653799942
2.2624216918903057
4.308591589938617
5.865275088206741
6.662900539544947
6.592765543774968
5.726489595796795
4.159857286353687
2.0750694317568033
-0.24597727748431905
-2.633594087718342
-5.0275481253010605
-7.389327054228256
-9.412530189309573
-10.818905616333142
-11.65971720197595
-11.991002193456485
-11.73803460129823
-11.00456636002559
-10.126228859915761
-9.270565150621387
-8.409455548578697
-7.397442234416277
-6.187527938196678
-4.695982089883794
-2.712467276719119
-0.5241047072126221
1.2984917027238299
2.396708873115524
2.6754761488867964
2.2785455901718605
1.4615371902256724
0.5916921352008759
-0.23546775517022694
-1.486735029782889
-3.5687962501461206
-6.44674497565664
-9.875629824168847
-13.280382216929022
-15.779745151796481
-16.907899086480693
-16.912387247874044
-16.248225324407848
-15.296468313353456
-14.45848044554993
-14.085548595859592
-14.174802672085866
-14.31360488839705
-14.153545568482722
-13.575016654686024
-12.576349823827
-11.305403563130326
-9.804019907581957
-8.106487691470207
-6.596492203375908
-5.626905446119921
-5.044509409958981
-4.485438803895212
-3.8186651328938153
-2.934024799479439
-1.8243954119413983
-0.8663748253778064
-0.2073801574020582
0.46033609106076673
1.4724343197124268
2.9586001149995846
4.503830354704858
5.251608449480038
4.4943798263805625
2.0989391583611794
-1.1873328764094364
-4.150345326941207
-6.136291828358076
-7.2373200320922875
-7.826606226660635
-8.455185058915475
-9.531372480517417
-10.812604879566438
-11.749166190665468
-12.301709355152605
-12.85301495150849
-13.451432118088139
-13.957462255801783
-14.43538630442616
-14.789802417408465
-14.743103030757206
-14.215215590151258
-13.318892598343778
-12.13292545157274
-10.624279530133078
-8.83397444199319
-7.002280974097863
-5.4435658227674715
-4.43218461990129
-4.006486827174053
-3.756386509614275
-3.113384856416229
-1.7277331298918819
0.3775443182927177
2.550800386319542
3.842989487253118
3.875964776281568
2.9021481648437875
1.4528009038699625
0.14890128991139562
-0.8243340147688075
-1.7195308238473386
-2.652996499024566
-3.4677987017904517
-3.9169021401712887
-3.999302333070342
-3.947745771849278
-3.773979069919505
-3.3934927485849506
-2.896484379932644
-2.426227142245892
-2.2376263562074574
-2.554311067585832
-3.4851424470938825
-5.111207823392645
-7.308151943482012
-9.817792434595125
-12.24834800850577
-13.942728861833046
-14.384730405020164
-13.671068445366279
-12.216618151061938
-10.448058621684446
-8.87728532349572
-7.7318138756061945
-6.923328383219829
-6.375673148877468
-5.880426075039615
-5.227266199769624
-4.473616790181463
-3.7894328434952476
-3.2937409501899007
-3.003156550823361
-2.824803685804165
-2.6201311095863353
-2.2341137526515
-1.6171083798794337
-0.9296352792219074
-0.2671061969267852
0.39260616099963286
0.8843060074120213
0.9855572945306789
0.6014330556240398
-0.20294686771430487
-1.1630892198701384
-2.0711953532007366
-2.9157911967865884
-3.706212727334637
-4.429199766624214
-5.245605359447209
-6.314473326814858
-7.469679436591834
-8.577006630545359
-9.604835360033615
-10.305267126274082
-10.479079988785804
-10.158118868355263
-9.455036412947903
-8.567389086635254
-7.855059464312326
-7.666125017377895
-8.081034007313692
-8.965391909538008
-9.940980837014319
-10.512526568963084
-10.649639916515214
-10.807552636893778
-11.38991217498737
-12.397825316341011
-13.515295542774467
-14.259097339955714
-13.95691560048613
-12.218293283873203
-9.219626280071742
-5.293724432136055
-0.8339661190544325
3.6026122957212827
7.506839232669282
10.52734283667743
12.485157910439577
13.332559508782175
13.122548613207291
12.332206636011188
11.662511836400924
11.315369074752837
10.95209212084341
10.172005327508705
