AAD_Filtered_TADAS_FILE
AAD_BASELINE_CORRECTION: BASELINE REMOVED
AAD_FILTER_TYPE: BUTTERWORTH
AAD_FILTER_ORDER: 1
AAD_LOW_CUT_FREQUENCY_HZ: 0.025
AAD_HIGH_CUT_FREQUENCY_HZ: 40.0
EVENT_NAME: 202302060117
EVENT_ID: 13194
EVENT_DATE_YYYYMMDD: 2023/02/06
EVENT_TIME_HHMMSS: 01:17:32.00000
EVENT_LATITUDE_DEGREE: 37.288
EVENT_LONGITUDE_DEGREE: 37.043
EVENT_DEPTH_KM: 8.6
HYPOCENTER_REFERENCE: AFAD
MAGNITUDE_W: 7.7
MAGNITUDE_W_REFERENCE: AFAD
MAGNITUDE_L: 
MAGNITUDE_L_REFERENCE: 
FOCAL_MECHANISM: 
NETWORK: TK
STATION_CODE: 4617
STATION_NAME: 
STATION_LATITUDE_DEGREE: 37.58551
STATION_LONGITUDE_DEGREE: 36.8303
STATION_ELEVATION_M: 544.0
LOCATION: Kahramanmaras_Pazarck_Turkiye
SENSOR_DEPTH_M: 
VS30_M/S: 574
SITE_CLASSIFICATION_EC8: B
MORPHOLOGIC_CLASSIFICATION: 
EPICENTRAL_DISTANCE_KM: 38.04
EARTHQUAKE_BACKAZIMUTH_DEGREE: 
DATE_TIME_FIRST_SAMPLE_YYYYMMDD_HHMMSS: 2023/02/06 01:17:08.7199070
DATE_TIME_FIRST_SAMPLE_PRECISION: millisecond
SAMPLING_INTERVAL_S: 0.01
NDATA: 10501
DURATION_S: 
STREAM: HNN
UNITS: cm/s^2
INSTRUMENT: sensor = GMS+/GEOSIG | digitizer = 
INSTRUMENT_ANALOG/DIGITAL: 
INSTRUMENTAL_FREQUENCY_HZ: 
INSTRUMENTAL_DAMPING: 
FULL_SCALE_G: 
N_BIT_DIGITAL_CONVERTER: 
PGA_CM/S^2: 145.326
TIME_PGA_S: 
BASELINE_CORRECTION: BASELINE REMOVED
FILTER_TYPE: BUTTERWORTH
FILTER_ORDER: 
LOW_CUT_FREQUENCY_HZ: 
HIGH_CUT_FREQUENCY_HZ: 
LATE/NORMAL_TRIGGERED: 
DATABASE_VERSION: 
HEADER_FORMAT: DYNA 1.2
DATA_TYPE: Acceleration
PROCESSING: Automatic Paolucci et al., 2011
DATA_TIMESTAMP_YYYYMMDD_HHMMSS: 
DATA_LICENSE: U (unknown license)
DATA_CITATION: Turkish Accelerometric Archive v 1.0 - Disaster And Emergency Management Presidency, Earthquake Department
DATA_CREATOR: AFAD
ORIGINAL_DATA_MEDIATOR_CITATION: : AFAD - Disaster And Emergency Management Presidency
ORIGINAL_DATA_MEDIATOR: AFAD PROCESS SERVICE
ORIGINAL_DATA_CREATOR_CITATION: AFAD PROCESS SERVICE
ORIGINAL_DATA_CREATOR: network: TK
USER1: GuestUser
USER2: 
USER3: 
USER4: 
[...]
3.10954620217269
0.9499814417924334
-5.312592194740715
-8.56876990567953
-7.747453527505834
-6.798745311442767
-6.60793513062217
-4.699410075348807
-1.9157059788358004
-4.134047719137472
-4.0892768520679965
8.62692203082441
19.936163788225887
22.605049734959167
30.392971053977096
33.74740935550066
17.00800997270561
0.795835526247353
3.075143497773759
8.661225027076053
9.817790455375302
9.579800202360145
5.242731257857905
-1.1231693394615472
-7.609429019236924
-11.056182994838352
-17.57933812715968
-24.913169343557094
-21.566056352414773
-18.344581242687372
-16.381572283948504
-16.590005034818965
-20.986665842402285
-16.72233133008872
-13.264204145461463
-18.097714393554313
-21.014020779529815
-15.748233291359314
1.8058295308730756
15.689287565529927
17.95242344458429
21.19336349371663
18.625419284196884
17.735395089843493
24.242069056865947
19.884478938420347
12.547750109130543
5.206891865920735
-8.076368664300931
-15.154605954603882
-11.365155198411596
0.4522766616217822
13.618505096812902
19.281416053969554
12.119597728652728
1.705153348951339
-3.6122514827620154
-11.457356873658442
-14.791379929327242
-10.041315530645523
-4.7350344530289155
1.2929099411215963
6.142120017623799
8.109655255688219
11.406099789662234
17.223051668820496
17.734642780034598
16.64810236840946
21.300684709577222
22.800123700999727
16.18740630288605
8.542819029314714
1.7661494921109995
-1.2886717920139872
6.1174849438731185
16.0309361066285
23.815468546060078
26.208721405408077
17.112125403363255
5.289537036405192
-2.6264731596457107
-2.8276568078447664
7.070236471914664
19.229358450923968
22.752860136888238
20.392169138034944
19.269906816325832
16.036900463100665
15.33192517794581
17.46549146323618
16.436265579198814
17.986967501457148
22.429703986026674
20.010445963959878
10.659244310518952
6.393049420959263
10.512229656867401
17.32638201080897
23.841329206323298
30.078393482289957
35.43743111541447
29.143455891077654
11.737204896967398
3.211849136422542
1.2525216054909398
-4.688203095491478
-6.038307084415265
1.6151128357727391
9.711603637053607
5.817497006857869
-7.207955791066367
-14.880390682028576
-15.075883245621059
-12.166512069165046
-7.088472578083169
-2.716988542048306
-2.227374027433847
-2.595908219367199
-3.1008661357974825
-3.8491379834157935
0.5226691591891771
3.732438944834922
3.7251903529951162
9.065521595125396
10.84788968119478
7.719333743946589
8.142653439283347
7.079847718667508
0.6539177602065637
-4.0247849873108175
1.1945018968549852
7.8036003718466995
10.054695366991655
8.993455481973987
1.617004910311898
-7.4168626382690075
-16.158001682602716
-21.827867347293633
-23.86367654501801
-18.676225313596355
-4.782470534666237
-4.168532649305751
-9.1376518780836
-5.497283217869068
-9.73690569477586
-16.273604439511022
-20.128741643955628
-27.14042442683675
-34.942617585218166
-34.403458261720026
-19.316929857492926
-2.863033949654241
6.558578311561264
5.608953516621113
1.3688787558969473
4.883596817141417
4.671125960081985
0.08465964406618864
5.619576486967676
12.742468258288831
10.135310382191623
6.5207130943385305
4.467807140952227
9.035840448539311
20.66800589881267
23.17348612128164
19.12621272679804
17.19664686182132
13.867512170061387
8.76355574027132
6.229906739190545
6.690447994064509
6.019308130155293
5.509486419242548
11.361365808383708
18.516368346750784
13.816394787619757
5.162012585757073
2.9192247188265874
-3.3711368796808348
-8.488178639484445
-4.537240745584582
1.2670082125098658
14.45028149809317
25.639863766464853
20.342352841513346
11.21007119727257
7.853432741372218
2.8255253263202036
-7.317748152344217
-10.480196237648723
-9.815069219351603
-6.603434662830095
0.34895448783442184
2.3939626838074597
10.411857469175636
17.970823893489644
19.000204258490147
20.375543366777062
17.188826356953992
14.18473869218686
12.263452290118103
10.353509391866245
9.290133719985068
4.990044267504497
-0.2899708429623048
-1.9357477097055105
0.719921421398104
6.939785956346907
10.177545460899308
4.593091332821338
-2.0117777953052927
-4.9185118946268815
-4.735966086070743
-4.472155792023751
-5.194114145417046
0.6952024228288423
2.315806407923442
-10.610452258327781
-21.933013343176246
-20.303766778279705
-14.202572138202193
-13.515734184459124
-13.019868910538147
-6.762414697232811
-1.4102856550374006
-1.6863870048683094
1.7642024172897894
5.787678285492084
-1.5194677104460717
-9.37144391138024
-15.724312718100053
-25.513482671781958
-31.049472543757844
-30.14408890458883
-28.417767141405825
-30.771115719857434
-33.1013437907104
-34.28120309465579
-36.31875411079802
-36.61861310818801
-29.988348850431652
-15.16603840523346
-3.4895105175789856
-2.8279541694280095
-5.240871820055768
-2.71960486901484
-4.954236322192049
-10.76140909427331
-7.394025537489655
-6.062155211494846
-12.604128562890466
-21.51295085849554
-32.94486731944882
-39.14634109083449
-38.796204089925865
-37.897947387496004
-29.253701310281034
-13.200735703140179
-8.028037619079898
-12.076712880808516
-9.559913554968048
-4.485918509902679
-4.45085862895069
-4.946424060442304
-4.087454097175429
-5.53012994281061
-6.566196250247218
-5.826466294356661
-6.193947300748466
-2.489093607383063
8.101040615875586
14.35192034747675
13.038280307746176
15.83381025353735
13.799762395891252
2.7692702033892385
1.739512264451915
3.4101585828938012
0.5370896893036203
5.675534483932122
14.191588959458183
9.536246547124865
1.6814615671533837
8.306246691119133
16.09449572099266
17.811529441216564
14.83508448486904
9.988763763806743
5.334022880095208
-8.399729304982008
-22.462621441447915
-27.47227649927902
-29.824571765136394
-31.11540143586548
-23.795558289896352
-12.167703443410984
-7.350899771680962
-7.203338369138352
-8.961839757626713
-4.111004415863833
6.953741226938319
7.1379043642868645
-1.0534239111901358
1.5526541385314971
18.23634036612741
34.521613926291316
40.162941559481546
38.283211571431636
38.423996121571896
37.013991464607166
32.481382625295865
33.529848156522384
42.97567912846179
60.8047500423694
68.12978746042431
64.42800564793998
65.25568908988517
61.74518899431699
56.83453072038099
46.380768748983186
26.419322894825275
18.928941188349533
19.875650912358953
16.764472559219314
19.85827870838812
28.4621446743431
31.834337326655337
24.81742430198574
12.85123534407598
-0.3447778017746871
-9.536559433769243
-1.032800692964588
9.48858364888923
16.205719205774653
24.390295299762563
21.407443227300888
15.204494520575345
14.224303854583328
18.53621341997766
18.05703205583127
11.118624298745324
5.961745142184681
-0.5516814277945118
-4.45807325508961
-7.627583507022725
-8.854829861687897
-12.576164339756074
-21.814183427345732
-30.3987661968718
-27.870933478886645
0.6062608411658152
27.063864492192632
32.82540841303959
34.011418399045745
34.114336031810424
32.90211089910802
31.1875159537096
35.63303268135429
50.70468207384876
61.0173121839495
56.091119032109766
42.82242386943968
26.562582459345187
18.582164239062543
14.867793901642756
11.220367387663266
19.530516709730517
16.392067578577674
-2.2978945705763905
-11.689757664525395
-16.61960638876
-21.762680768139482
-31.275759377998465
-44.69535318305804
-40.614557710433374
-14.270202786220317
1.1579644846985027
-6.094159477578075
-8.07406417283529
-2.429517150210467
0.17645827557981766
0.6770957490055801
4.595074169766988
15.26243568039577
25.366356852992617
21.879101120505627
13.45767029998244
19.291317247873277
15.540082926142977
3.1064624435402286
2.515922078299225
2.4407202233454472
4.7134785813682045
7.652711919524986
14.760974934806121
28.16766778285997
30.974024701987204
22.878490874197283
15.423295651177236
15.58628189351863
19.943545247711167
21.499197349717996
24.75567824079978
39.12600876210472
52.56385592739789
43.29926688694712
24.643108315469924
19.777995896181825
23.087285870939336
28.60354641823325
39.81704201979718
48.46526734024065
33.353742833961746
-3.081986401437082
-34.372973784817994
-55.022029222462514
-69.7626140978296
-83.80170582590056
-93.56762835923662
-98.7629058382917
-109.52703653616261
-113.34570694938421
-112.24177694025198
-101.5430545156653
-65.73806654594878
-34.37588017861654
-29.190641538099822
-29.780197619431345
-19.945977244906633
-14.92670287549358
-15.465864695847147
-10.28371284601031
-3.1198790341642137
5.549518073078241
13.958817709372012
23.707201811758928
27.93895919901156
27.315429706389676
23.38650952414443
4.588980617270543
-9.735759140107623
-15.749843666697835
-21.52352548862434
-11.43376673145073
-1.7132753331370207
-7.126031261695123
-17.579032229628137
-36.19289008349136
-59.30694187228722
-73.13690448251583
-76.96596521137549
-85.60491122518603
-97.6123143226115
-100.67101195588141
-104.98620202934886
-105.08872836221306
-92.29022247559064
-73.47684626212349
-47.393668325449525
-25.37747890957005
-11.678660082538258
1.4667445816663043
14.424508629955243
21.807196866303393
19.06916500509272
15.699211375114904
8.87431669773153
-8.376723902769001
-20.50973231595627
-26.763478879892116
-31.194369305784853
-18.474020203462988
-4.190282567639277
-4.155987361782085
-4.25490046816013
-8.175925917326097
-16.486183622356183
-23.951862142677378
-31.413767901133436
-29.116660650759382
-19.897123450383575
-15.556021585869763
-14.074554359640926
-13.960694713849374
-12.301073628904888
-4.839239892091498
-4.243066035419121
-16.83678729498959
-31.17748066038025
-38.06057783755881
-30.47908344066889
-14.718819743244953
-0.10147121650446597
12.433784887618978
15.977069102170992
10.574024746133
-3.0935434888560884
-11.3193390742456
-6.720479771434459
-6.635022778296494
-1.926246426581571
13.656218864854592
25.623787610378102
27.60054280178695
28.008181117676774
24.095971993611222
1.7097119514950307
-26.911176523909834
-53.41698438395788
-73.239248628245
-82.7496536383737
-83.82208240716436
-62.209442496376255
-34.867113552571155
-28.79169698293585
-13.400864194249156
25.344057820288143
53.98192254228863
70.94674540729
92.29001262029598
117.36403878180998
136.32034124788797
141.28237341130915
137.23909939956243
128.01367194914084
117.84198988040166
104.07392534056837
85.18211723829852
69.04434679714979
56.41876143523477
45.894393293867545
28.414683094889558
6.577113741526311
-8.762335492673895
-15.50807173702537
-13.846025299914992
-7.637312193088607
4.749867724648005
8.821641627838856
11.001249435439876
30.206532153210848
39.95043661404145
41.70619154488918
49.8377634577571
49.634584633637346
43.36992908624736
32.44437453944115
18.129980408657755
8.835959696563027
0.3308422358101219
-4.820199158887201
0.033188300552145764
11.258647760424841
21.9096031334642
30.842846700327215
40.957999026760945
40.242285421728134
35.003910095954154
39.53908417274196
35.2235911248107
21.955756516452926
5.351890487853162
-6.350606391324657
-3.885386553800236
-12.414505526207657
-19.514220157821207
-10.960916937052176
-14.453859333656998
-23.617828269780073
-27.10857546108292
-41.47159636639913
-60.262139479052394
-70.4519976585164
-90.90732289539753
-104.20910417940932
-91.45111431579406
-97.75382387538319
-105.7172515688797
-81.5337459269602
-70.36480055890326
-75.52732882096194
-77.29885595380878
-81.39371946366992
-73.10480176950719
-61.129689093369585
-56.84171401657285
-37.52229001517035
-23.836754462963224
-36.5622645135875
-43.50394037895933
-48.47678943396393
-60.30281030397436
-57.45135280802242
-42.95608178265651
-33.8171080858737
-35.76090931503637
-40.02944044396487
-37.92336705374069
-27.211719092915473
-14.613184475547254
0.8507574061648967
22.47232814649261
31.585172419678592
26.448547495309366
31.77126197718585
47.56630143117985
48.171042400052755
38.79176855657447
38.442412427544056
37.469715445134504
24.450483977390437
6.158951128656223
-7.329005482709762
-8.353404602626222
-9.883121269959819
-23.159118080011773
-27.48631641567805
-34.380399405724845
-55.03956325820849
-62.45504210158534
-56.57350513937915
-45.43028672205559
-16.947271890135212
18.402873829145104
34.05514628675735
21.41998885171227
-7.901135997158343
-21.878593110466277
-25.92166551199098
-38.79809746071364
-46.69030069237987
-50.227421699876146
-58.2284378512184
-73.79516832081656
-85.04376012208591
-73.65824726812522
-49.65104483897641
-44.866455133433924
-46.48379008914428
-27.71914127930225
-9.050732755343645
-3.6408422605907798
-1.096647851207717
15.652804747446421
32.59927098938919
40.97881822148395
54.47354416927024
60.81442366386347
65.15983809883329
68.601120968657
64.59649091653976
62.181646610079454
60.44924698918371
59.196830993503866
61.01988125413189
71.89937839947761
80.92492882767743
62.87281762961808
28.88333685883046
2.627915891076825
-23.46912474658681
-55.72015624700069
-82.93714658536163
-103.9097567560845
-126.37327347805869
-142.04230541000177
-142.06381975607272
-124.22469351711743
-93.86475215227036
-71.16140373224104
-45.697810447722034
-11.949134009294013
5.452184910371582
6.478665460714542
12.407134080769247
27.94746834344023
36.05012021329091
39.61649803831039
41.17797073035217
42.506030477060754
46.709577700986515
31.187594063060846
5.884584725519098
-3.096447893124892
0.9729371596024236
7.66847632457456
13.2481630458909
22.71316277163683
40.06598592167526
53.89526007165459
47.35533257889105
30.454207729741857
21.315880085001293
1.4747526747385182
-36.034301042791924
-52.79646291142121
-53.58691286414471
-59.73540117956483
-56.324267397176094
-46.650604689294724
-33.06569982220708
-15.975666268360069
-4.3673140792866
-3.2048397548514127
-0.8995616416907929
12.616911268453645
14.337629644475143
6.960971551350253
16.383150620025713
41.80803552849415
58.509788539570266
67.98964584777987
86.95809363261279
98.35944248904616
101.0589435526015
98.18928617657966
86.13325502538741
71.95828977585198
48.63318194868596
16.85756654954868
0.648211030961726
4.628713855586942
-3.6415410089515663
-26.747356423247872
-49.16832106676749
-74.30852007329679
-99.14468240834287
-118.9401627056384
-119.45181136277645
-99.02819305769518
-72.14309291917856
-49.07570406654988
-40.04535334913466
-34.84257970895977
-22.69601663027043
-12.642647460687522
-7.411007388345194
2.515270526834068
6.750679281036831
-3.5432401797206645
-6.892938549515263
-5.800166883346838
-13.295287472981261
-20.39461586380942
-26.713609878809358
-40.78591063718139
-59.22472068422254
-67.18160034266921
-61.777095877742596
-51.252432448236355
-42.86882142015041
-28.460305432885992
-0.6687773745548969
17.469639523900042
19.288584421541582
23.70370125820355
34.013000958137596
42.56070986670073
40.1489490174828
28.659495722126692
22.233304640937025
13.88976486554476
-4.089981459866426
-13.62088879855409
-18.402368548732635
-31.24930657287089
-38.1714122351948
-36.54504385813955
-38.7463995163728
-45.696183115858766
-45.68767448863467
-40.08188450406705
-39.95623409736351
-28.836913375064942
-11.132209264822023
-8.08619020741769
-2.445824581637416
3.9581575313357646
0.6154872395202577
2.9106967704940065
15.132833012183585
31.773966396988815
47.0761710969446
61.828974250972514
73.05485052529228
78.11527342058578
80.48861662454546
79.14888852669726
80.69140981035883
76.49199322202658
61.30390186862127
54.19344655580215
51.046947519601645
33.925769143878036
6.544379592686593
-7.599664193495528
-7.182746876022894
-15.72849580106424
-25.07710057625886
-25.760522192785025
-21.190481036164858
-7.836946851554063
-6.838968430298952
-11.98060021264378
1.2039681296300548
14.991814643368949
18.798441094198115
16.377008109886685
15.50519142262963
22.148178230196837
28.988947123459052
38.00281162505463
51.90521192727608
58.73337520691045
56.297187933814094
64.50721569371588
83.01460773427544
96.37556722746655
102.89284549576885
106.43397692657794
112.8386098466665
111.10068196888571
107.75600092247957
117.42445860365325
113.1147839431484
90.53390850143208
60.52494148394432
21.468920098972472
-10.076231363548276
-31.87919691362656
-46.20362863416872
-47.03654484067642
-37.17893560725878
-25.31277072575255
-16.83914314804777
-8.424957884602616
-2.7402424584213043
6.081270347512581
16.984378496434218
24.6017507745319
36.06880497183012
46.31570814492129
64.6225564049185
89.01228549250685
102.13679013961686
113.05300055408489
126.2701590605743
131.5805956946768
125.94086305634782
115.91115876481491
86.40441543862185
51.149026845271536
43.92929562244052
45.74440861497487
48.9131668312789
57.77213618326007
71.20936257281188
87.30480772202645
89.28610691856025
70.23194203893382
47.910322543113445
35.68668805275235
14.073307508171236
-9.590927670502406
-23.058499938702017
-40.64185672952316
-53.90583802323867
-48.686558361817035
-30.068933108762295
-14.083456121809206
-1.7507497938315209
4.834281232785783
5.393553201774573
6.560952610852579
8.248072192434265
17.476265600791756
27.278737491357177
38.14511869216353
48.516811805811784
51.783611996032846
56.31081998711665
57.96306351754491
57.50152592680313
47.360964757790796
35.694657083358926
43.45588448053622
49.95375129140025
38.98411181284873
17.942163312034534
-3.494279278247185
-20.588768769039167
-32.28064976797746
-43.414059006709664
-51.874291453691505
-44.43926731462472
-41.800158286480425
-58.26006303585985
-65.74019405181812
-52.521580181332276
-38.933479308427756
-31.852832234226426
-18.352375029275265
-19.816144249672078
-38.95450895987086
-44.41626973831917
-47.06023834681708
-42.50917571673309
-21.63348408848269
-5.204942838863618
7.494093399393785
6.274335690688088
-2.6203539026555167
-0.09765070434803073
-3.873006801944658
-3.3139155113020693
1.8830376369235808
0.44247681016791596
6.664665267851974
14.064721084441722
30.294260955459226
46.78621326276467
40.64367535205838
25.103667493665984
8.425777052501275
-5.965740444537885
-7.828026744700168
4.918906171800171
13.844616148101084
13.738868200206413
17.56726929232397
19.482925296529807
19.51687089994093
22.6940897018591
38.687278444454876
65.7050207109093
74.31011491238755
68.25807976219002
54.42467366485157
42.363773781434865
48.876595516274215
52.74552477181653
50.536414496716624
43.64875663712666
34.638382375865724
29.00678039314351
22.17012599380601
17.24703736745127
16.621778954751072
20.016082617788385
11.45982139806309
7.782229679631147
2.351062325372323
-21.333186630798718
-27.057813471903813
-26.552079183027264
