AAD_Filtered_TADAS_FILE
AAD_BASELINE_CORRECTION: BASELINE REMOVED
AAD_FILTER_TYPE: BUTTERWORTH
AAD_FILTER_ORDER: 1
AAD_LOW_CUT_FREQUENCY_HZ: 0.025
AAD_HIGH_CUT_FREQUENCY_HZ: 40.0
EVENT_NAME: 202302060117
EVENT_ID: 13194
EVENT_DATE_YYYYMMDD: 2023/02/06
EVENT_TIME_HHMMSS: 01:17:32.00000
EVENT_LATITUDE_DEGREE: 37.288
EVENT_LONGITUDE_DEGREE: 37.043
EVENT_DEPTH_KM: 8.6
HYPOCENTER_REFERENCE: AFAD
MAGNITUDE_W: 7.7
MAGNITUDE_W_REFERENCE: AFAD
MAGNITUDE_L: 
MAGNITUDE_L_REFERENCE: 
FOCAL_MECHANISM: 
NETWORK: TK
STATION_CODE: 3124
STATION_NAME: 
STATION_LATITUDE_DEGREE: 36.2387
STATION_LONGITUDE_DEGREE: 36.1722
STATION_ELEVATION_M: 84.0
LOCATION: Kahramanmaras_Pazarck_Turkiye
SENSOR_DEPTH_M: 
VS30_M/S: 283
SITE_CLASSIFICATION_EC8: C
MORPHOLOGIC_CLASSIFICATION: 
EPICENTRAL_DISTANCE_KM: 140.11
EARTHQUAKE_BACKAZIMUTH_DEGREE: 
DATE_TIME_FIRST_SAMPLE_YYYYMMDD_HHMMSS: 2023/02/06 01:17:36.1852460
DATE_TIME_FIRST_SAMPLE_PRECISION: millisecond
SAMPLING_INTERVAL_S: 0.01
NDATA: 12501
DURATION_S: 
STREAM: HNN
UNITS: cm/s^2
INSTRUMENT: sensor = GMS+/GEOSIG | digitizer = 
INSTRUMENT_ANALOG/DIGITAL: 
INSTRUMENTAL_FREQUENCY_HZ: 
INSTRUMENTAL_DAMPING: 
FULL_SCALE_G: 
N_BIT_DIGITAL_CONVERTER: 
PGA_CM/S^2: 572.632
TIME_PGA_S: 
BASELINE_CORRECTION: BASELINE REMOVED
FILTER_TYPE: BUTTERWORTH
FILTER_ORDER: 
LOW_CUT_FREQUENCY_HZ: 
HIGH_CUT_FREQUENCY_HZ: 
LATE/NORMAL_TRIGGERED: 
DATABASE_VERSION: 
HEADER_FORMAT: DYNA 1.2
DATA_TYPE: Acceleration
PROCESSING: Automatic Paolucci et al., 2011
DATA_TIMESTAMP_YYYYMMDD_HHMMSS: 
DATA_LICENSE: U (unknown license)
DATA_CITATION: Turkish Accelerometric Archive v 1.0 - Disaster And Emergency Management Presidency, Earthquake Department
DATA_CREATOR: AFAD
ORIGINAL_DATA_MEDIATOR_CITATION: : AFAD - Disaster And Emergency Management Presidency
ORIGINAL_DATA_MEDIATOR: AFAD PROCESS SERVICE
ORIGINAL_DATA_CREATOR_CITATION: AFAD PROCESS SERVICE
ORIGINAL_DATA_CREATOR: network: TK
USER1: GuestUser
USER2: 
USER3: 
USER4: 
[...]
52.389898057773124
54.76581524334027
57.01782104104756
57.896395314428545
56.91594621694958
54.0715397201122
49.57015222034854
44.22174713453793
38.60786590217669
31.808372244854652
23.94307969319195
16.61726608592219
9.985929431416336
2.707762907038231
-5.7217451016688905
-14.076365852651318
-20.8862961154741
-25.75819151899759
-29.192536573895264
-32.097178231221065
-34.98020324539095
-37.642651379809585
-40.04240766755584
-42.42507157903368
-44.61954841276205
-46.47758328464742
-48.65337224158943
-51.92090300863298
-56.66263235479114
-62.111381673871605
-66.19153902113318
-67.63455991538756
-66.59980430267653
-64.11404234765958
-61.2861918033968
-58.294750693796296
-54.72231947632449
-50.33619988993609
-45.79625888358854
-41.63528539631326
-37.48327656821713
-33.800719297842214
-32.0428506013235
-32.86462948802775
-35.57477637005203
-38.78751023016567
-40.67919483561939
-40.041718895049755
-36.680944669843576
-30.512193197015673
-22.71690076378627
-14.929423396124541
-7.642740561962483
-2.032742730641281
0.6652483766302488
0.8968718912790441
-0.2180650270158523
-1.6630732982666117
-2.73753777690551
-2.595389987007607
-0.10640825062674261
4.853863632295786
11.308513533003676
17.45365511856475
21.762686356953214
24.398903189894472
25.861039564587447
26.54777689623908
26.897152643903297
26.63234666633481
25.83073285761554
25.2926415013949
25.100091588950413
24.607074221150466
23.627709779403265
22.438133254008488
21.227391510414247
19.716983727319185
17.168912858347348
13.603747075384153
10.27976411032314
8.082451875951481
6.857049747581844
6.642727109354427
7.344672687548811
7.6444410795939035
6.2599928515402645
3.1924711320183317
-0.8215274287176711
-4.222627039138002
-4.731260385029625
-1.3265030177187784
5.236887498947872
13.200145937644118
19.848367581992637
23.108618866780628
22.563981431761295
18.270317688933016
11.608255993094014
5.843109349855509
3.9182536241944144
7.084182374520747
13.551978887257027
19.22995495748852
21.107042423716816
18.248636128725565
11.643225451867366
3.9909410087010926
-1.5551111815366425
-3.8822510028363544
-4.294195805476768
-3.675091859609381
-2.645800870786015
-2.0095677884990795
-1.312308525150594
0.010016769630415312
3.2187388647849158
9.8492946412443
18.523181619380146
26.27083251557181
31.563081401157987
35.549978841239636
39.06971473583778
40.99589691282381
40.74576747131928
38.69940827722052
36.36968069672665
35.33383701529774
36.369283480265295
39.53759006636143
43.942042304874896
48.202948502781595
50.539584190959495
50.09278290355821
47.5043453287048
44.620006879350015
43.326047913900766
43.23824718049866
42.7712242356375
40.57153051259307
35.155892691394456
26.41588930399791
16.77182581122275
9.615564036009665
6.855613291998151
7.4577115835255
9.216357906373853
11.367261571828458
13.989955755397812
16.45330968197192
17.782350529570735
18.330780041445497
19.181026825998334
19.967665604931774
19.704402290374485
18.433866833146972
17.263000444716386
17.364431582295097
18.033995023444046
16.979009522518474
13.008852721832286
6.801351744708969
-0.3348827620193998
-8.199250321927376
-17.279988878152025
-27.00537961015777
-36.82093864383078
-46.362431495968586
-54.41147007027288
-59.18334511327232
-59.10504305785407
-54.83732133743646
-49.65106007288075
-45.794754517078836
-42.569717518336184
-39.12358701154088
-35.88799248554943
-33.85792673000028
-33.55907845438636
-34.315798515765785
-34.991045286469124
-35.285844070662726
-36.02577979115428
-36.83306295378828
-36.35216145680951
-34.44724944466278
-31.693544116434317
-28.59603339038772
-25.44401277102603
-22.28623277273816
-19.052263541124816
-15.731273069707896
-12.121677521785426
-7.9845715532250825
-3.830647161171747
-1.5551295663132254
-2.4777055142167335
-5.967492948600016
-10.670261953610154
-14.438205019583688
-15.84174594125846
-14.718647636465512
-11.422108932318299
-6.306102651694872
1.1216965557233889
10.562142791970478
20.679758185126726
29.488540769100197
35.15011004348892
37.329706327081226
36.291834646223016
32.98215820985521
29.399813516118286
27.358500084039317
27.434856696547048
29.2783083541933
32.661475515019774
37.8834576568441
44.573049440343205
51.17505543493995
56.391500844434
59.47970963986022
60.231074356825495
59.95614207344683
60.24119460848211
60.728675943575
60.95335141981721
61.56742362877241
61.59818194578866
58.89674544298649
53.361098162562065
46.41608875128257
38.69614360392098
31.101143549122025
26.278342531648843
26.62395950723236
31.5702218785969
38.476903255839495
45.24433444418085
49.77645464463724
50.69980777346748
48.52487688430651
44.11643081635738
39.24563422617106
35.86745305086258
35.42552476276214
38.60005736141497
44.07805564628376
50.60082268237995
55.864603076694976
56.23999836837312
50.93014478531021
41.64966399508344
29.33137026232048
14.995236929336684
2.5253034619924737
-5.072862242940862
-7.3411065207700075
-5.384028337674899
-3.3035588144530403
-4.271132431022464
-8.396837959698505
-14.73824190069249
-22.377043114649837
-29.536054685434475
-33.15524418898204
-32.22357865726067
-29.496903117663884
-28.76931481758514
-31.190651287867134
-36.32467758140238
-43.53351006944582
-51.02561813378881
-55.773100303992685
-55.56815262833041
-51.022509224958355
-43.0033348583095
-32.758018423404486
-22.54047655100003
-14.618801936602749
-12.035180800789389
-15.52997646429815
-22.155920009197317
-29.19492129906177
-35.94370087074473
-42.676534262314185
-50.41842024829406
-59.710230971852546
-69.57277246575828
-78.02309428482559
-81.70987257984108
-78.48659931993951
-71.78090266826814
-67.3454109258435
-66.13333396083642
-65.78013385159545
-65.8919085954898
-68.02099526975245
-72.24686500112206
-75.15777888774711
-72.86009671843551
-65.47289068782216
-56.797984718871724
-49.8400721238097
-45.50901988643996
-43.45111113951432
-40.88770903163945
-35.54261906697264
-29.63840228712516
-28.186332004969017
-32.33256499184549
-36.79773891082753
-37.186137399750145
-34.5438819290973
-33.43066910593782
-35.51960326306996
-36.65938187459175
-33.43230273590758
-25.596438398575753
-13.529287277983624
4.41433304961147
29.1261098332424
53.87937207301591
70.37886238978687
77.18478956865778
75.63874960624331
68.69387051859486
58.64761320667725
43.77195025184566
26.675833245930114
15.038822490095434
12.755145042156022
17.966679435380787
29.803078104749066
49.77926672101531
75.95640159357954
102.07988158234856
118.86574911211159
120.54096524727446
109.76776467452085
94.2988764024557
80.26922558728229
68.27205675859038
55.494665585693156
43.326550842475974
39.81617436024125
42.78414984094433
40.126238269123235
29.645201962890898
16.48774360112408
2.992425852484688
-8.781969834621492
-15.956820457185184
-20.035519272562997
-21.915935094484148
-16.426809289487117
-2.349394755872465
11.61267911213853
15.048447080846795
5.286410164602085
-10.95240745671663
-26.377209428333217
-37.022211308393956
-38.46237801436312
-28.099862497900684
-7.352121706165333
15.576920793653995
27.742328336162565
21.732673864545898
3.2492212555488775
-17.700544825318627
-37.626632465081464
-48.55086285626669
-44.71369055610422
-34.156885891944235
-22.423121045675796
-12.347683414316418
-12.206486512557646
-25.536387357280763
-43.96731910303188
-54.45243726350456
-49.73342199659015
-29.88775554296368
1.7105900203691375
39.71842962767275
68.95363960435958
71.65187801767455
53.81722668136189
31.46874981538182
10.185316989733735
-2.5167238206992746
-1.3314659484791553
12.829377060324667
35.78991325087009
55.59495685046973
63.13062981317633
59.58075697239843
45.850076734632296
20.950483965990834
-6.285151984580252
-20.69382029855192
-12.575152575674815
17.240239412023723
54.674709635876184
82.62521630786846
84.19075061254821
52.530784217440115
8.684608810930579
-30.9730776586972
-62.1860245074739
-75.67221467538053
-73.17671086707705
-53.24707447783666
-19.470009639583544
14.954667472179521
36.06493999437454
16.143616066924498
-28.6864968629138
-50.204387948212926
-43.09507273162522
-30.244903125102624
-24.92048448229388
-8.161861737489616
27.619178787205698
54.607969566420955
52.165264109692856
22.4484870868347
-12.691827537656193
-46.17266337443661
-81.01290657368462
-103.83045513693166
-102.57392792383861
-77.78779668113977
-50.100163527790066
-33.74237779697273
-31.407825107181893
-50.01747741651569
-76.54043787844805
-100.81458676861924
-130.69403765736365
-167.55549014974633
-199.2491122574724
-206.58087863908352
-194.9289274805034
-184.94712914610992
-177.5577367180778
-158.99790346777027
-124.65018394261237
-91.29271758005379
-76.57498611009876
-82.0059539896852
-94.28652161021802
-107.56355986029641
-126.49196464523516
-138.97240288685325
-130.88759948724137
-100.32254733603565
-55.95249476356561
-8.731940308871884
36.21841091289854
55.67773772108028
31.765741696217706
-7.641774289583249
-18.574807873011775
-14.214652744706338
-33.594589368879284
-38.212531604787905
-2.1183762671144226
35.52946420946348
56.35515102661284
44.97739108585781
4.7852216749390095
-31.205081033724834
-48.67961629629493
-47.648541220150896
-36.26420821853973
-19.855710525410636
5.437170503628629
33.97495724186119
35.97864379678791
-5.5670182895848574
-48.51415229908814
-56.3727198255005
-53.34087757446381
-56.381652838301854
-50.01777884027303
-28.416685717442963
4.85279292543206
31.393277731496443
27.410395351437316
9.514134046553675
5.073651196295857
8.593616435257882
13.05457051154153
16.497400447602793
10.916815982437235
7.350680225647174
15.825665072503986
26.127640694306095
30.07888885760175
24.43817801663881
13.201685722668909
0.43404921913864836
-13.52870256362715
-33.241402731312995
-65.51192986414809
-99.5581249806102
-125.34577291694647
-150.0406157730157
-175.96075028968295
-183.7603105028691
-157.84019317483714
-114.24459298481487
-76.20629081131263
-54.447718163307435
-49.15788196851418
-47.93239624348919
-38.779794774208874
-27.332418059242823
-18.80651155822291
0.27740662448757203
29.318034762183537
44.72683251206112
42.63947991211092
37.162542660425366
23.682009242579326
-4.549288146338353
-32.84304621978437
-52.90923638273465
-67.09060842071533
-67.62064820056888
-56.10105352460813
-52.05312392284978
-56.30140678246481
-50.10681926005491
-35.62649905862929
-33.20386057471425
-46.60399426984906
-54.41663039484381
-45.56413776522136
-40.05456823907615
-55.53338708337598
-78.5003740626048
-72.19728058703463
-40.67032819068885
-19.469794054416834
5.665525396143713
48.034564824235744
85.91618907110816
98.33464110473605
85.39461303328788
80.07564459766088
76.60636827628055
39.65385124802029
-18.593885619192466
-69.74191697022809
-90.24245188015291
-73.08016581035481
-29.61309049503901
45.58339801697872
132.54294461786148
207.0654879242026
275.0892659842972
292.8587846405977
247.24948162287143
204.35986757640094
187.0113307493974
187.8248746971484
207.93261596695447
227.51306675337372
221.72422219642277
197.29208960678938
174.87182840202567
140.50749059118442
89.37404644805169
68.55517828929386
91.53344050933538
136.76738854932756
194.68311803769467
225.3262276076544
215.70450804086138
205.89690409099586
210.38255841459954
218.84812828965545
225.71447274723795
234.54322612124807
253.83624133045714
285.4398863037958
310.58105668696305
306.6251055993982
279.26664605593027
252.934243662274
240.58716590316982
243.64904130758086
253.23690588886805
259.39183931347713
261.2408152047747
246.8988213621369
218.2430463453053
188.61018262334034
164.40362116881167
158.3161582013902
162.68918302828502
167.29488837113615
179.6561557859217
195.90484164208016
202.48706575985386
191.52982067780408
169.6014406146101
152.60085188323933
142.21087959286663
130.5940106308429
123.49340953167912
132.95168053312665
151.041471632017
162.36967091315162
179.10238784920085
211.40397702478649
248.24149241402864
279.13232201938973
291.36107179374454
281.7294563890508
257.9689417126112
223.27843026527464
186.4919623341345
157.17118064345175
131.96502047275203
116.0086763658375
104.71316569755736
69.80649135295543
15.203794236837089
-38.44815949285694
-86.61170345537874
-122.19118470640034
-132.29342561239451
-113.13407567026698
-86.16661848845462
-62.99651086840503
-38.60876689754388
-19.468216777218228
-18.653982209340874
-43.04479125374622
-69.36551682529286
-76.8725180343887
-78.00832342969593
-90.7012016934577
-124.99466133622721
-174.07025205062155
-229.86233137436452
-287.62822725142854
-330.84446130095563
-354.71272675209366
-370.46591244881546
-397.4016070373871
-438.0712751573562
-453.6092474831358
-441.87875540119677
-450.3611886782096
-484.31944008119666
-516.7796291413916
-531.8748033864885
-531.5436923513563
-531.9606568329258
-538.7063851288822
-546.8200282645365
-556.8145484216138
-567.6303075952902
-572.3996567750816
-558.977526623827
-504.9223086065561
-420.05353682709455
-350.7398932496733
-308.0294987364516
-270.2422694712188
-221.01389072259002
-162.37032342382437
-109.32068369816301
-64.02869490174899
-25.016684881556777
1.1019155288903886
15.898253233544473
30.452856727830383
43.54507022931128
51.96701634472339
65.67146293266576
81.1093063031247
90.6192086231097
85.24034066448694
44.35202228206413
-18.951768545316845
-71.37280352891514
-110.03655666980211
-148.48977217951844
-191.6476296301036
-226.21851327800016
-235.03275452029914
-219.94985331160916
-200.46881098112536
-201.19329329179334
-228.60820339159636
-268.28607661572397
-322.1116599453975
-400.54710439877084
-479.0548062863568
-515.5905042893968
-486.1447601989299
-412.7622270025093
-355.93871415087045
-336.5752650644579
-323.87965687520693
-297.56219901938465
-269.73722768223246
-256.470254434801
-259.8998757743147
-271.53475730593
-267.60086346298317
-244.91766275496823
-215.33973127368355
-170.7147310682193
-119.8616671065668
-82.41185490973737
-64.52528108446114
-61.65478664083966
-44.98292818196333
-5.991222179485049
4.6231665055082045
-26.099535580933065
-50.12116392900728
-50.466364377813605
-22.883139782873954
15.332051727446098
34.725382404868995
59.89435671479929
106.19257652831743
159.62620253676855
210.8209034336275
252.26661789097557
288.70904792290366
322.2900228846033
349.1558272241916
375.89796166191826
400.98179820955954
406.12351285722167
385.05530847828817
355.1628126778534
335.5352412697914
328.8921549916137
338.1031099844278
362.82628983382205
372.780870728087
350.6526278728765
317.8648891429949
284.4779237988505
248.36807978293504
215.9286575914281
189.429204188369
165.94964085944514
144.91026547802105
127.43164083337787
106.1553565382367
70.378527297577
26.196308016352827
-0.7924167657819781
-2.126074690814943
1.7703467968270183
-4.071674127217995
-19.761920768931994
-26.579015461825307
-0.21657870198717125
53.12893741228654
94.31567651782927
103.07544305784423
91.84365084594336
72.79048562989936
54.089489863370915
29.808898607230432
1.7568030454477794
-22.67147005598478
-50.34401137961505
-83.3796666066147
-123.38956580484304
-159.02459204336972
-172.47699620117803
-155.9603858699288
-108.92489787435953
-48.28015099190928
13.885908667037857
81.83057333174446
144.6356866795635
178.94379141662034
167.5004022398295
119.1257967859943
69.8093128098923
32.29479305433083
-8.407480052274218
-57.73891537743421
-97.20930496968981
-120.95285312560566
-134.77756616678485
-125.5298891946865
-110.00188711604933
-100.79396329469417
-79.95339812514216
-56.47514409662038
-31.015005678191624
9.531154574347264
58.08333725214997
99.90487424402819
119.7560703245877
121.09722422635686
124.40212510436994
140.5592136668075
169.4703743168135
210.9285750123849
267.4889143705098
333.621078227975
400.6208253760561
452.37915445772444
452.7189370452893
394.3671821128678
323.8604560642343
279.8383016121714
261.02832824882745
256.9443892131128
265.6531995215285
286.68000432737756
311.90765608350324
330.3629774990527
339.01841235497324
331.1993246608918
298.3384499536567
255.48626553361152
230.36425499466407
228.56088651169443
232.25107700878493
227.91934133567437
224.71772194338865
237.52741216649787
260.5123174273397
278.76967239848926
286.522616769572
284.59810478596296
282.6711492370694
289.406202653193
296.7129561595108
288.42111231886224
259.67221857223666
218.4561550210562
167.0576323887085
115.41335182365188
100.57767480594258
130.87712137439564
159.59479010541776
159.8247311032282
145.71781119411173
130.15981766308653
118.45142693536486
101.28825835146448
66.66302929194337
25.982157126246676
-14.414772980788275
-53.376142854159696
-87.61207687923421
-126.38280812634652
-161.19765765620917
-182.0886229803867
-194.842003696917
-198.83795060996982
-192.35100787108004
-166.05059411433473
-109.08283529284002
-34.31702538261022
25.374314955851506
50.04208815233759
44.27985452305482
22.91415061569248
0.27532451528683105
-18.95733926375494
-36.608777109686514
-53.82513152998289
-66.7989056439716
-65.30043637333783
-43.27054769622218
-10.528230522127176
21.150643946942033
51.34705380628202
78.05354571951005
98.87862641599658
105.35480531246064
95.25125533011966
94.33761077366138
112.62443266172447
145.93046236628882
180.87032575446298
171.0186964611095
104.96491347271635
25.26120263044608
-44.83960705073453
-110.4313200586489
-166.362790537839
-201.04729281894137
-207.26456607679927
-191.1011472813975
-175.72210335007597
-171.07954515208024
-173.31513210945403
-174.71175603150758
-165.5817057305216
-146.96954912107418
-126.52939663652316
-108.268374628444
-93.88746709744316
-87.43062207754555
-83.19600823664048
-75.8073473927296
-80.14861406441018
-99.06980878466324
-115.77082861187289
-124.31729952900798
-126.64955374313014
-126.48626788476686
-124.66380661860617
-124.68907532435988
-127.75780254279734
-123.26653996071809
-111.13085033772278
-88.94536566038681
-57.47688776135637
-30.764942375463885
-12.416439355653655
10.991653623457188
52.422404115434574
99.96379208352765
137.75431458378102
158.72553280684483
167.93376974236614
168.87350464671476
154.82717817500534
122.98828003873724
61.6997468672965
-21.325560090055458
-106.19053429180094
-183.94261807785736
-247.44368747614695
-301.56761022506043
-340.3894391235578
-355.6920551922987
-350.2950648182283
-330.4700016694997
-318.8310903755273
-318.4529656521882
-314.0207353901941
-315.0734615300136
-334.8125580362227
