AAD_Filtered_TADAS_FILE
AAD_BASELINE_CORRECTION: BASELINE REMOVED
AAD_FILTER_TYPE: BUTTERWORTH
AAD_FILTER_ORDER: 1
AAD_LOW_CUT_FREQUENCY_HZ: 0.025
AAD_HIGH_CUT_FREQUENCY_HZ: 40.0
EVENT_NAME: 202302060117
EVENT_ID: 13194
EVENT_DATE_YYYYMMDD: 2023/02/06
EVENT_TIME_HHMMSS: 01:17:32.00000
EVENT_LATITUDE_DEGREE: 37.288
EVENT_LONGITUDE_DEGREE: 37.043
EVENT_DEPTH_KM: 8.6
HYPOCENTER_REFERENCE: AFAD
MAGNITUDE_W: 7.7
MAGNITUDE_W_REFERENCE: AFAD
MAGNITUDE_L: 
MAGNITUDE_L_REFERENCE: 
FOCAL_MECHANISM: 
NETWORK: TK
STATION_CODE: 0122
STATION_NAME: 
STATION_LATITUDE_DEGREE: 37.4339
STATION_LONGITUDE_DEGREE: 35.82021
STATION_ELEVATION_M: 119.0
LOCATION: Kahramanmaras_Pazarck_Turkiye
SENSOR_DEPTH_M: 
VS30_M/S: 501
SITE_CLASSIFICATION_EC8: B
MORPHOLOGIC_CLASSIFICATION: 
EPICENTRAL_DISTANCE_KM: 109.28
EARTHQUAKE_BACKAZIMUTH_DEGREE: 
DATE_TIME_FIRST_SAMPLE_YYYYMMDD_HHMMSS: 2023/02/06 01:17:30.8869570
DATE_TIME_FIRST_SAMPLE_PRECISION: millisecond
SAMPLING_INTERVAL_S: 0.01
NDATA: 12501
DURATION_S: 
STREAM: HNN
UNITS: cm/s^2
INSTRUMENT: sensor = CMG-5T/GURALP | digitizer = 
INSTRUMENT_ANALOG/DIGITAL: 
INSTRUMENTAL_FREQUENCY_HZ: 
INSTRUMENTAL_DAMPING: 
FULL_SCALE_G: 
N_BIT_DIGITAL_CONVERTER: 
PGA_CM/S^2: 57.343
TIME_PGA_S: 
BASELINE_CORRECTION: BASELINE REMOVED
FILTER_TYPE: BUTTERWORTH
FILTER_ORDER: 
LOW_CUT_FREQUENCY_HZ: 
HIGH_CUT_FREQUENCY_HZ: 
LATE/NORMAL_TRIGGERED: 
DATABASE_VERSION: 
HEADER_FORMAT: DYNA 1.2
DATA_TYPE: Acceleration
PROCESSING: Automatic Paolucci et al., 2011
DATA_TIMESTAMP_YYYYMMDD_HHMMSS: 
DATA_LICENSE: U (unknown license)
DATA_CITATION: Turkish Accelerometric Archive v 1.0 - Disaster And Emergency Management Presidency, Earthquake Department
DATA_CREATOR: AFAD
ORIGINAL_DATA_MEDIATOR_CITATION: : AFAD - Disaster And Emergency Management Presidency
ORIGINAL_DATA_MEDIATOR: AFAD PROCESS SERVICE
ORIGINAL_DATA_CREATOR_CITATION: AFAD PROCESS SERVICE
ORIGINAL_DATA_CREATOR: network: TK
USER1: GuestUser
USER2: 
USER3: 
USER4: 
[...]
-15.364387473534412
-16.569982284037206
-17.257267043786683
-16.673044064097354
-16.182325704839425
-16.54441556465024
-18.03595414269527
-21.821256755439748
-28.184995562845867
-35.397038460384216
-40.06230607452594
-40.04794679932678
-34.54492636667504
-25.133680410310806
-15.164386415238873
-6.479511726255524
0.5801134460803011
7.244996262976109
12.034452311670854
13.99172486285771
13.62238371144573
10.507659893226071
5.786158355232923
0.9898170245350578
-3.098950608104485
-7.08185440750675
-10.12919685642801
-11.7775040364948
-12.036309062365795
-10.885589902991859
-9.848197886262797
-9.634147306444937
-9.96881190939811
-10.391247773083737
-10.601848228863423
-9.139258484287849
-6.512747972498809
-4.783516202415586
-3.7937886799925673
-2.3567224727632214
1.485728018007149
7.694845408991335
14.59489957062602
20.51857654604422
24.173965526766402
26.469153714473677
28.244381793077164
29.624629574406637
30.8053146357037
30.143732153469017
26.46234343284916
20.343736891638176
11.828587755051311
1.3999944189027016
-9.0351570002942
-17.29840053177422
-21.53600829173849
-21.27853524082444
-18.494227608095
-15.395659371739619
-13.13470613410074
-11.823861575248502
-11.901031090478865
-13.860181457126775
-17.944739830858218
-23.211873643320867
-28.64122664618066
-32.621744740043894
-33.59962430397491
-32.451677435916196
-28.248798101747674
-21.053861370175134
-13.717342167628521
-9.170507399648947
-6.37676773990232
-3.377212155877278
0.4159209246575394
5.843574625164939
11.908656780960762
16.898762857543595
19.237371310029232
19.31046492010976
18.503919624887786
17.184632110037708
15.267696037353536
13.431476079233034
12.85761865150059
12.86613901927584
11.637671697464837
8.67991915248293
5.393977608863178
3.661799007494878
3.8645598489513975
5.5396372110785945
8.02970078960129
10.712500241441651
13.63662089078319
17.0463942742254
20.44314775803781
22.547293028918908
22.766983970872634
21.58518633972525
19.550229662965705
17.052547141292568
13.391411790082502
7.698273441016655
2.0011091371428726
-1.1537938778203687
-1.9315272877326002
-1.446706695446001
-0.6943224438227825
-1.210183603211291
-4.262514677889789
-9.582744514353603
-16.482654753465546
-24.293075129527622
-30.74615045968181
-34.640826913791784
-36.79240296768977
-36.85318635476414
-33.48084378114122
-25.534260986052153
-13.311084096518506
1.283579295731263
15.890184797208638
28.0192556952402
35.7467168998365
38.60605700217352
37.05213902395028
31.599567924300807
22.625720253740692
10.917878253690905
-1.3827576419946273
-12.038212173885274
-18.929537635355832
-20.679046326488145
-18.328972478031222
-13.97658611930672
-10.030320848871195
-7.2420761857330875
-5.047491666263651
-4.117493407159376
-5.029248159844886
-7.611191472634611
-11.539856437504938
-15.65434292137761
-18.533198879548713
-17.159421018149516
-10.172440298329594
-0.6520069067096058
8.573412135400059
15.834857830778176
19.602055151723967
19.56236045742932
17.19860315607744
14.765857635425634
13.699610388050484
12.195568010939981
8.261255864845534
1.8512713107881358
-5.434790420306592
-10.793794588511016
-12.042277858365702
-9.760639524319837
-6.757079954186834
-6.374029499595134
-10.617542660754273
-17.207181306010565
-22.89317739243107
-26.75655946375751
-30.491707276293102
-35.269817824065285
-39.79281864471257
-41.869955933321556
-40.12197236154541
-34.62014896790091
-27.070277429526836
-18.772060001261725
-9.625735686512154
-0.23582646316681477
8.853081745343301
17.159056091657664
23.50514170695913
26.695377280242905
25.140039935141484
20.02099966897754
14.005633379395
7.286361479105046
-0.33050319133757755
-7.296069412140483
-12.845407572850963
-17.32211696129771
-19.239438221367934
-18.43618366639271
-16.429093835746016
-14.425128911465986
-13.75268311176391
-15.544996112578184
-18.830658047130374
-22.541061807194744
-25.630998825129005
-26.508093878021477
-24.88553776538759
-22.133651919139027
-19.521860765047553
-16.13220916671158
-11.834301110537675
-7.618941609638095
-3.5936849457163103
-0.16677147420412763
2.3589304373745303
3.984704086090023
5.77373111837065
8.746977313797979
11.391895361086071
12.301863130578049
11.227187722102434
9.606488348993565
8.392629722025415
6.918616892145546
4.491117676566245
-0.010620859401627592
-6.2168383844243715
-12.256825596169174
-16.91039259245981
-20.44899605200796
-23.344411446575076
-25.035207165202863
-24.766267280985762
-22.52219213032711
-19.089610576059883
-15.73822111104462
-15.08357508183057
-18.307761929373175
-23.84462622615634
-28.85117175705397
-30.28115106974494
-27.036193322289535
-21.459710508384614
-17.873461932939538
-18.040333147007708
-20.262108015970725
-20.518422739579137
-16.06797966929366
-8.901003608296154
-1.9077717092159359
4.921114843664621
12.217006235162982
20.379155339405692
28.62533533907132
35.712081031655934
40.843702199443726
42.0635413205764
39.07167409375776
33.4921685907858
27.148925128123697
20.58912227708396
13.809303440164419
7.43517703391279
1.764858675162245
-3.1251987776118786
-6.81061329937148
-8.893026262630261
-9.312407219516638
-6.855135606874817
-1.5779088985989749
4.157764308679104
8.65123780300753
10.63556880414498
10.140762441899852
7.840203496458081
3.364708155381403
-1.5908815812980939
-4.87087436287525
-4.893906676499201
-0.1665209657819798
9.068688710105404
20.457280278406994
30.380820487504213
36.326022622189704
37.04779340810621
32.73864369730576
25.003885715304637
15.824952965224918
6.5611042937138535
-2.876683920511861
-12.831017403556118
-22.48208574044226
-30.736458505019012
-37.72531850987218
-43.328568705792236
-46.78548426692321
-47.041958885393946
-43.461249790209905
-36.914742311145304
-28.959486372460923
-22.014267556899277
-17.565659898912596
-15.044066364160454
-13.782940520138734
-13.683925452604408
-13.868250786724374
-13.335342669668885
-11.414118434137835
-7.207696887813254
-0.8666155310873497
6.880897125144101
15.723009732901284
24.605532590692764
32.224461151961826
37.29019875619741
38.7578050522514
36.59276761376707
31.83936851526621
25.300797411061268
16.94142553404714
8.27627388064136
-0.3160051480647189
-8.702148111821542
-14.648993344242434
-17.590183511210956
-17.308718448045404
-13.919633812076192
-8.666914829692313
-2.4959589382939993
2.190806153580638
2.970868331602952
0.23744015038237
-3.867930310590764
-7.172815963509532
-9.006410089360532
-10.23137622253341
-10.555484920482348
-9.345023648882728
-7.406763539330233
-5.837300869589818
-6.165309622554768
-8.712464404310294
-12.154165859648613
-14.601949085145133
-15.198710036368624
-14.908908379026137
-15.396392697557227
-16.327546488935116
-15.875605906057478
-13.501413886201917
-9.138015173553654
-2.6242429242904803
5.008592677852141
12.09586298167206
16.470667329559408
15.411920748105516
8.949751633203784
-0.549469811980475
-10.305970098021373
-18.28813481733853
-24.591773391240626
-29.704716935756533
-32.35324631346644
-31.513190866794396
-26.98680590892177
-19.067316020734403
-9.478025842552126
-1.5852104663317415
2.90456591367594
4.245021309261238
3.198278748091322
0.7159579344959295
-1.7242836119121425
-2.4989492953483685
-0.6734263602341525
3.4702750439441306
8.808440711011853
14.114991620367464
19.049556859325357
22.510688275567233
22.13469345902994
17.586429899604997
10.112105626808036
0.020302894785202596
-11.933608517144153
-23.26974742881235
-32.03924027364159
-36.33433886851494
-37.070066864012574
-37.097011663863164
-37.39544950973451
-37.161164547906196
-34.89002954822058
-31.471193196961906
-28.19278732533407
-25.386020238608314
-24.47290967760643
-24.55346522043647
-24.253839737001442
-22.893768915640923
-20.437110138096326
-17.3541931868989
-12.795958691050272
-5.725530537002667
3.4442490365613705
12.34805740968066
18.95650798557936
23.260622893713204
25.130576060509767
24.230909963958926
21.41268710333712
17.687799482771847
14.74231169938811
13.118682351304157
12.334047165222852
12.970278347111496
14.704714252176583
16.88187861808293
18.87946058235598
20.541857334734637
20.994150512593173
19.882690031131627
18.352762854683505
16.235851904301903
14.298858489973703
13.281755041875737
12.205282018138305
10.898835150636199
9.998049945005944
9.356738886579233
9.365760001857655
10.71809222650904
13.182734289312142
15.913771651277008
18.01190187964928
18.635171602382435
17.535180263144547
15.760980577006096
14.789106952472745
15.355679138891299
16.361773518157058
16.03644216684285
13.38753703850486
8.757187036886341
3.110686707790382
-2.6862335282347978
-7.516623010913672
-10.660342221527127
-12.802028947260746
-15.439099502793598
-17.896297184871656
-19.538469461363075
-19.585018397153846
-17.40576446063028
-14.403911995974681
-10.780567818420359
-6.388645384393043
-1.8166569733991693
3.706501004170666
9.33733330775314
13.56579565658009
15.498185310624578
14.837297242138364
12.468982751723543
9.17396383717811
5.5203765666205875
1.5776647160364379
-2.9601355609534887
-8.440032602502592
-14.332216648809993
-19.476569849864365
-22.72232628666585
-23.097664892410418
-19.210655366165323
-11.088353891814858
-1.11266753807962
8.636013157956095
17.579556742690347
25.094239237039066
30.575829974481476
33.72555062303379
34.15844492591643
32.48568769983352
30.858496209592065
29.703691124511725
26.769813374147088
20.965425264122704
13.42113527126662
5.624020193635474
0.10351400663928109
-1.6808245179751529
0.49617314862946776
5.975327558402683
12.758234233711084
18.04239199192094
19.20325192123036
16.500665317983405
12.005467181351143
7.6278854850703945
3.668438980967597
0.3382102298279251
-2.8227457143266568
-6.817201839116563
-11.237632627614472
-14.766413561454383
-15.656606425779234
-13.35458116533083
-8.826056193533574
-3.9479344442334687
-0.3607475450046867
1.7111348517994658
4.161636136869902
7.959557934751718
10.620561871292496
9.700427135784912
4.957047027424438
-1.424905017539123
-6.433515479647298
-8.658914490313299
-7.562298659628158
-3.829099225100281
0.7236520113306677
4.5836621480960185
7.553243909314961
9.945804183925876
11.092671791382338
10.568142573902044
7.832829440550406
1.9721023701941611
-4.217681333224269
-6.352167605914134
-4.497434457891218
-0.6180529024267625
3.860135961498104
7.604620803316302
9.526664706140012
9.165390951862982
6.360969032307641
0.8454194581924014
-5.636153762056096
-9.581020814180059
-9.566735064427817
-6.424041916932773
-2.4938335960097087
0.8064579479451441
4.105331842311222
7.994191697459405
11.999027240352161
13.953566312017639
10.736205571018926
1.747908065533677
-9.756103221782345
-19.22938220103893
-24.600394281646196
-26.19833226373602
-24.92569460127737
-22.27153011572636
-18.721843321288475
-13.006591359287809
-3.874719153818156
7.676634090128911
18.23317650614661
24.314676452354057
25.566099458595527
24.353565053077634
22.964900223868142
21.91580768879464
20.691346302592816
18.333039054588383
15.021248437791266
11.131869858476174
7.317188411710392
5.452186786126287
5.775377389548228
7.537836666849053
9.152910260073021
10.093305951550215
11.046359546379746
11.039569077902906
10.27528245672174
8.385737337396181
5.451300783881675
2.1899675844907702
-2.228217052366797
-6.085299599478027
-7.356025762477849
-6.1831548643361245
-3.3013266522766807
-0.806403337290385
0.22353097067732267
1.4188848946832482
2.847616125949454
3.029300272328653
0.43875956444157854
-5.83040397669653
-13.951861824571763
-21.265998084212406
-25.82222541445629
-25.750315553739348
-21.961596048386173
-16.155366887265576
-7.569263304614591
4.056149224249877
17.576663440915837
30.61600228796395
40.625426895214424
47.05691680476376
49.987121607900484
50.03439749818162
48.453880279921165
44.857857838516075
39.04201065339408
31.299184280146118
21.754141034916092
11.106557557615313
0.9121803409050716
-8.234014558501217
-16.263808600050798
-22.33996544617222
-25.932622716307804
-27.433338108890624
-26.565217403163853
-21.860220839380986
-13.708357657381075
-4.009379669606815
5.560150785792915
14.283726996454671
21.51477555081941
27.42411898939614
32.01518225805387
34.07302126426621
32.24236526413308
26.19317487586069
17.31813687343005
7.496349333957079
-3.0458929100549206
-14.106800230468139
-24.200133075613987
-31.505081572369345
-35.55025720123611
-36.597138509665676
-35.41511678267842
-32.32240153963467
-27.20700472353403
-20.92669962159212
-14.509354580092644
-9.671466731139647
-7.029962018360632
-7.366261893399756
-10.336989514213334
-14.392396848135304
-17.723841252874276
-18.520249277284865
-16.384700154592135
-11.516881144866346
-5.770307244195597
-1.1052000851230934
2.4939525281668136
5.5479608792241795
8.897809681483766
13.566594123884826
20.054442772410713
28.43461560530928
38.28151586750155
47.7849067222373
54.42771002815863
57.34993911960491
55.16636118918841
46.75450264676746
33.16382341916896
15.570349685283844
-3.245698771228796
-19.081447930671867
-30.38108175027468
-37.089202054380706
-37.68875242471167
-32.1004727140315
-22.905062197397374
-12.580632484532288
-3.40512264753787
3.8455912822396767
8.898944070436473
11.087458579605908
12.164016858884827
12.244920666165758
11.184254334785335
8.655618319738034
3.0241771387956815
-4.861492088748822
-12.914164625474482
-19.726764088018975
-24.655935282635674
-26.678116641721225
-24.103750376000683
-15.910239471568888
-4.155032806962831
8.479328829382814
19.78941806151435
27.339540509452043
29.147330648202328
24.771710374713347
16.310110257105283
6.220386167778517
-3.114719476662949
-10.088993359090965
-13.309607900505716
-12.7526408976613
-10.703451512656677
-7.251970482838096
-0.8703423358812752
6.785652039804609
12.436001179564277
15.06547949084957
15.137201516039962
14.091091942756973
13.149087623606798
12.57347075935609
11.49773488107991
9.279609564544051
5.541521023226463
1.2571375873600252
-1.4813408274709714
-2.036957026816011
-1.636027862077333
-2.743069544117836
-7.240025559950007
-14.282964075858635
-20.33063046778921
-23.012072236833028
-21.897464390024616
-17.976436887576998
-12.483059903621136
-6.550517662737323
-0.7588499278512234
5.3889029968352276
11.928483595491798
18.613032473310813
25.099432209622492
31.029574682185245
35.747771230959756
37.62943843958819
36.4866313243484
32.323114297309246
25.48687072564685
17.84154536111306
9.897469504475067
3.3276723537352275
-0.33528798660687176
-1.5652105157337015
-1.1132753098918433
-0.8568429861860944
-2.4240846054030425
-6.039962344993239
-10.124887761235753
-12.630537637912733
-12.55842847361213
-9.224574459797672
-2.693014460240038
5.6627088617063
13.805448434725834
20.00834461616837
23.31096185334315
24.03254326767702
23.180004694177494
21.03120423531943
16.50932147612825
10.342647054061285
5.842013995732906
4.257938796179226
5.988594461881174
9.63611889487635
12.211560778765218
12.828679826460098
11.739919411662274
9.939031192199442
8.986406695450878
9.108579905996617
9.670494412623714
9.656342183319264
7.670195123067472
3.970608803775991
0.06949292907748118
-3.1860858695215395
-5.237879179084819
-5.7706212800151215
-4.832267279756754
-2.482923208545391
0.32615441747215296
2.84553872668088
4.948829250641595
5.892949711227319
5.855397792589702
5.286227855211739
4.054102640676163
3.2999180741587946
3.97532060454082
6.057838647857794
9.46076973997331
13.366751491338642
15.752179093600793
15.720107156334144
14.439292376256459
13.050990564951224
12.511745639329625
13.395054741931908
14.96984580196833
17.029363690626084
19.059835962498166
21.583596942116152
25.841456362994652
30.050920847203923
31.523263171694225
29.11887120939383
23.37032936535768
16.344953444392612
8.886173526535663
0.9543901065774795
-6.823436343446406
-14.423025114288421
-21.668542267242557
-28.687178509920127
-34.84380486670554
-37.758476549312576
-36.98028767320754
-34.0561983257054
-30.045350938774273
-26.29824832135277
-23.73431658853648
-21.99448112759701
-19.946792453870877
-16.48297934820454
-10.809628915405868
-4.520269063761926
0.6805930901308451
5.047775952914469
8.221485398666763
10.906058496762597
14.183875286431535
16.80506680374805
17.341991579203135
15.288093802774224
12.829111893507951
14.164215246897788
19.706468372486874
26.965937811626272
33.4184023861844
37.217512588767065
38.185976494432715
36.87493967321908
33.13559198212326
27.37215880844539
20.133613921742235
11.334608705645493
1.3681845310116942
-8.86684132125293
-18.387511819983168
-26.22964129474482
-32.358650289394284
-35.76058213362253
-36.22675423355102
-34.21717186197183
-28.208408336771843
-16.633505417303017
-1.12267118696778
12.737877343677798
20.917396217620446
21.683893932250758
15.559251491324556
4.779014737312439
-8.398097078792084
-21.480097115399342
-32.61905279296932
-40.47586541329029
-44.65297290976825
-45.590502217252215
-43.051627637861785
-37.62373250164859
-31.067695834012483
-25.455702044955693
-20.802790739504196
-16.309412133934384
-12.750872217736877
-10.867728888317165
-10.181660200197934
-10.061700078437566
-10.782318311257736
-11.995365640074155
-13.389205508055069
-12.870698136873925
-8.758534155133447
-2.4340399362214873
4.458441579791004
9.178657167648469
9.79884049994591
7.278271220520439
4.264298864570961
2.0286470885449366
0.8064372698487694
1.8429601151906592
4.76205639623982
8.70485681287314
12.830036131730953
16.30657571276245
18.17313486809393
18.00794518298835
16.322816740827246
12.205886619273572
5.781679527530262
-0.6444413730775205
-5.0848426296732185
-6.259751063261048
-3.945758148143154
0.529023435177869
6.4230394698650795
12.46799146383741
16.870425927411848
19.023155306558493
19.120133997508265
18.447911090502743
16.45352467053405
12.815116540897748
9.905654473830307
9.68503033133157
12.647704266781355
15.745498649624285
16.813479967934093
15.483287827259257
11.791089331873321
7.322796181689407
1.9735126399141572
-3.647826668741616
-9.6611466151464
-15.9350970237117
-20.442246889088505
-22.944110029387588
-24.362009747382686
-24.58454531791123
-22.690998798725456
-18.525512295020864
-13.100486978178933
-7.494893946649244
-3.7435607371626514
-3.4667314130078575
-5.877768371349468
-9.354284298378575
-12.327013841893901
-13.44518642369471
-11.286560705522083
-5.2732584563004625
2.6341574256937297
10.618598496264479
19.539427766079392
29.281187010371017
