AAD_Filtered_TADAS_FILE
AAD_BASELINE_CORRECTION: BASELINE REMOVED
AAD_FILTER_TYPE: BUTTERWORTH
AAD_FILTER_ORDER: 1
AAD_LOW_CUT_FREQUENCY_HZ: 0.025
AAD_HIGH_CUT_FREQUENCY_HZ: 40.0
EVENT_NAME: 202302061024
EVENT_ID: 13207
EVENT_DATE_YYYYMMDD: 2023/02/06
EVENT_TIME_HHMMSS: 10:24:47.00000
EVENT_LATITUDE_DEGREE: 38.089
EVENT_LONGITUDE_DEGREE: 37.239
EVENT_DEPTH_KM: 7.0
HYPOCENTER_REFERENCE: AFAD
MAGNITUDE_W: 7.6
MAGNITUDE_W_REFERENCE: AFAD
MAGNITUDE_L: 
MAGNITUDE_L_REFERENCE: 
FOCAL_MECHANISM: 
NETWORK: TK
STATION_CODE: 0129
STATION_NAME: 
STATION_LATITUDE_DEGREE: 38.259195
STATION_LONGITUDE_DEGREE: 36.210863
STATION_ELEVATION_M: 1456.0
LOCATION: Kahramanmaras_Elbistan_Turkiye
SENSOR_DEPTH_M: 
VS30_M/S: 965
SITE_CLASSIFICATION_EC8: A
MORPHOLOGIC_CLASSIFICATION: 
EPICENTRAL_DISTANCE_KM: 91.84
EARTHQUAKE_BACKAZIMUTH_DEGREE: 
DATE_TIME_FIRST_SAMPLE_YYYYMMDD_HHMMSS: 2023/02/06 10:24:40.3723390
DATE_TIME_FIRST_SAMPLE_PRECISION: millisecond
SAMPLING_INTERVAL_S: 0.01
NDATA: 11251
DURATION_S: 
STREAM: HNZ
UNITS: cm/s^2
INSTRUMENT: sensor = ACEBOX/SARA | digitizer = 
INSTRUMENT_ANALOG/DIGITAL: 
INSTRUMENTAL_FREQUENCY_HZ: 
INSTRUMENTAL_DAMPING: 
FULL_SCALE_G: 
N_BIT_DIGITAL_CONVERTER: 
PGA_CM/S^2: 83.747
TIME_PGA_S: 
BASELINE_CORRECTION: BASELINE REMOVED
FILTER_TYPE: BUTTERWORTH
FILTER_ORDER: 
LOW_CUT_FREQUENCY_HZ: 
HIGH_CUT_FREQUENCY_HZ: 
LATE/NORMAL_TRIGGERED: 
DATABASE_VERSION: 
HEADER_FORMAT: DYNA 1.2
DATA_TYPE: Acceleration
PROCESSING: Automatic Paolucci et al., 2011
DATA_TIMESTAMP_YYYYMMDD_HHMMSS: 
DATA_LICENSE: U (unknown license)
DATA_CITATION: Turkish Accelerometric Archive v 1.0 - Disaster And Emergency Management Presidency, Earthquake Department
DATA_CREATOR: AFAD
ORIGINAL_DATA_MEDIATOR_CITATION: : AFAD - Disaster And Emergency Management Presidency
ORIGINAL_DATA_MEDIATOR: AFAD PROCESS SERVICE
ORIGINAL_DATA_CREATOR_CITATION: AFAD PROCESS SERVICE
ORIGINAL_DATA_CREATOR: network: TK
USER1: GuestUser
USER2: 
USER3: 
USER4: 
[...]
6.643989572176763
26.170991846970093
42.26719677672636
37.250605556436845
7.612139228426133
-15.304803649446963
-26.88643632247525
-24.88599525733123
-3.286850387099985
16.787787984175534
23.37645945225662
25.363657257911044
22.511884015844778
3.1182854363522123
-28.164184961827033
-33.76965181218662
-6.6376734382574645
11.223604765511261
10.343951018592966
-2.805336393672256
-35.91270209708845
-60.834622049991026
-52.362414964845435
-27.583335457069044
1.8184891562389587
28.914768112873734
34.13911949545096
17.70905478991899
-0.5846945136948428
-18.369814869713924
-33.82341562402318
-31.885223484678395
-15.976304684716157
6.010754935592577
23.96543143162516
18.603489350810232
4.117458861247972
-2.031425223710001
-5.442286054955105
1.8683434852945817
13.420741809707877
11.331297355184736
-0.016713370667658812
-15.179636324668111
-24.4989807824417
-27.138015024202236
-33.2050083900822
-26.06406640694438
-4.424902590978675
9.163363423834758
20.33059522522557
27.099681863959187
15.02765096512087
5.890586708575067
18.99851413766755
29.144699753857335
12.676686910083012
-11.132795697132899
-22.26196278610849
-25.932619488329056
-19.415795378521494
-12.057394090562633
-23.354056733816435
-33.462802517479574
-25.693213316574962
-8.721896606006435
17.06079748620128
34.16669203632224
28.122390069324517
20.952033821704273
16.316759763939388
3.7026764814989113
0.9402249865574053
5.545244700787477
-10.505620814492291
-27.716657253153148
-16.628422486320265
-8.095425563185648
-16.80711980715811
-9.530172153356272
7.501174523975292
13.616515561531365
13.336283642031322
-4.235722551314783
-20.744671433011856
-4.036355447337397
12.558798439469788
8.66314192239479
1.5746807674795549
-17.011969480625336
-40.9553613552251
-51.91841186917647
-48.03854489448486
-24.370969263275203
-0.5356571147385212
-0.8609749312210795
-9.970525714752787
-14.117363846326933
-15.696687309722725
-11.991248033220014
-5.771771647059437
-0.9733679564022168
8.39918588820812
21.62848453094314
32.35390485387528
38.766679956612016
29.257077112550583
7.080886133475013
-1.4996953238696886
-4.094384420721929
-10.776402395325224
-2.021345084538255
5.692694795591877
-3.1321535260089046
-1.679996168737782
4.486099984057856
-1.877825556454297
-5.518983656182872
-8.844628239490975
-13.079541293180396
5.297144191884715
26.096277924315842
8.383543058738109
-26.993317212963994
-46.06024446441889
-51.237363676908075
-41.792075593754944
-20.662155136630272
-2.060064630857661
13.430154520144775
21.043117825187856
21.531298963676694
28.803769395562725
27.185073531514885
2.1969565852108612
-16.578792491450663
-7.588274385851998
12.147935090423177
22.84675364471559
20.667516570102453
7.656291414834561
-6.641451997130849
-7.356126516242607
4.020087621192419
14.618625546970817
17.01693429976246
7.333460277728169
-5.065398823733239
-1.8394634284045408
12.606955869205104
13.892121953179736
-0.20387556803384185
-8.7584129192261
-9.81634271707092
-10.773946986494066
-7.700715573514529
-2.6818982990415496
6.786119731444502
23.398329423738
35.18460382947252
38.93768069035751
26.520944145692354
-10.03268805492102
-37.79477969193716
-27.879771681855345
3.6258912164494066
26.923640089167282
21.026167163136083
-4.418035843348388
-15.961287166981984
-7.470000849323651
-0.3167615607375809
-9.295034624471619
-29.250687717912882
-31.03034050021704
-7.792518200215221
1.0266744625602149
-9.133864328152018
-10.323992601803864
-10.427721487802655
-5.741986607363014
8.857106538575913
1.5616578590280443
-12.530629759240915
-0.03793838084209537
20.739618622093055
37.63320904317654
39.87163215650257
13.842111087650771
-8.23295895455782
-4.239689182584512
-0.7522022115052732
-17.069822645519945
-45.31297140823425
-62.82339581310315
-49.39166249037357
-16.301039688410384
14.469754534663265
36.63155827920366
40.06600810022016
27.9930891655231
15.304118128314894
-2.3921787392841054
-10.592127366799819
2.028404278114045
3.3725720769374465
-3.928952874899672
1.9263541834450217
-3.6155100978485843
-20.034030158922842
-23.22834189304084
-26.450924414628513
-24.023943199872875
4.124400798679306
28.443536970059103
26.392017182756245
19.78492463231655
12.1763492575067
-6.568240135779375
-20.13189910257445
-25.989628221279844
-31.438448357571154
-27.093187679420343
-27.07669529140432
-23.25856659016487
12.15328571762528
43.001798941921656
50.544951967100594
38.92889248937139
-1.4653264925385467
-13.652530626769302
6.3322672417341614
-0.3763136501069019
3.556532741226374
14.424175141755198
-11.692009350205112
-23.1007804187014
-15.555915418095035
-16.05839399208458
2.2854288983200113
14.568158804216898
6.542116679650135
21.83538099054154
50.621308966322744
54.0338352612947
28.632429152524153
-0.33866655339552665
-7.675040628081181
-1.1325406671189535
5.0930524895037035
10.355833525278292
9.021651137926963
-0.7283037163343173
-11.420299640161604
-14.03577520995127
-11.335036153333814
-16.08718663403527
-19.355720117515634
-12.138277304966248
-8.856326254379521
-2.4738901013030428
12.57651053916394
9.845166419323318
-0.8097964372772992
13.315168055240049
41.002389870378614
50.959758540201975
28.419504059085106
-1.7641405446711236
-10.467223025614668
-12.95208485081155
-8.91768163493097
7.530919184975066
-0.6056432223918787
-30.104441815985
-45.10942200639637
-47.085758384105795
-32.05031422279837
-3.099899621263198
14.51388437559262
36.11770701383696
68.04117943147791
74.3309619131268
57.27246310223727
25.32733686542872
-29.282180759323843
-57.94411248929852
-28.742205581854
11.817774049864871
30.937986707355186
22.12093067414564
-14.525710899647391
-35.94806267209877
-15.882060725688447
5.543470872252177
10.7454459130147
14.517553888864377
3.3427059600107523
-11.79932204362704
-7.5609655451558035
-4.8056889437597325
3.7483317983418
31.060778458022835
38.584464485427546
17.547285222757985
-14.362495000367026
-46.37407983480914
-47.639792965721924
-19.026037496118526
5.668896002609698
24.717229862110017
37.70249853856168
26.063149838378614
3.3841211875262265
0.6539440496632019
9.227587153071847
14.549663912368294
31.435647967607068
46.265029963031296
40.93956157623268
50.24710209215957
70.69970625366408
56.94607664622472
31.46243619542229
22.83990783689636
15.262182996628123
17.58714250014323
31.22714566817662
38.66682237144693
50.22843689216476
61.49096583136617
56.29550792188755
34.57864268582097
-4.334514714424033
-30.63828274974653
-21.765588972613422
-8.797828673216495
-4.077309973614373
-1.8557004687439043
-8.969778132171568
-13.289944753364939
-14.307481392947883
-27.223296433930187
-36.13902249591203
-22.81020079298815
5.83853340490556
33.70221392906039
41.513498742880806
28.321641192569746
9.459386924027806
-11.725959432148146
-18.82374920415802
-0.6995888869947667
8.95092644100617
4.903799775139339
8.724855842722064
5.43085128341124
-2.1680552192937053
-0.8459115742510748
-2.668509737554796
-5.206519852644266
-15.444287864449825
-32.139004504523164
-24.35046481914208
-12.2398926448184
-14.914935459370986
-1.348189341363238
7.994627072982343
-4.645272900801386
6.023243094783908
25.912367390709566
15.046384577185481
6.611495388545842
17.612691227845673
23.879603578939292
23.887866716184217
13.514691339279512
-11.415685483140678
-28.88357368263058
-23.92999167574422
0.6663335610357828
24.49198141842819
25.799886920243924
22.11400462855529
28.369329131212613
31.408814031034662
34.07917334044179
29.163410476772807
-1.1748090513747342
-36.90451095806425
-49.33753324695055
-26.008246927575964
8.626052142355755
-1.879654405792391
-40.95330417924737
-51.94337362883808
-45.61701708173306
-20.290310185672375
28.90294334674354
36.40041179294035
3.5997219493746595
-4.371208192049274
2.58896465368178
10.486054891641741
19.16806572418249
-2.507722686096903
-32.059029506747954
-32.71603547628172
-23.503135672672432
-6.633496609573778
18.10931024822822
23.724098450745416
16.880910923955373
21.377397754380347
36.5872179961157
44.90227594260576
27.70854863152148
3.27140408898423
6.377300273656975
30.323950809848675
50.16521895804046
54.95081795868593
45.2248090962725
30.875100832837795
21.13233042255431
20.53057335110086
27.368095008173622
36.05656275420085
37.14532944275234
21.007216384036305
1.5095097438492913
-7.927440818236454
-17.009198537210807
-20.86057699750567
-12.726488311914009
-8.940270851046508
-14.529435177659924
-17.3028254689487
-11.115853311196704
0.91917820668771
7.953028465875689
-0.17682192270613367
-15.45281915078271
-16.831883181670936
4.860613474266443
36.726138947791775
53.80458506234695
48.40662688724891
37.02203975148809
20.58054663802642
-8.995571135724127
-32.41167545656687
-37.39032310883755
-33.3906759330699
-15.43146866750366
10.750534760951998
15.62954315948176
3.0462259186257565
1.117554592802958
6.357984454297866
7.591607080246412
15.4484330475204
27.945406636929956
30.980195203705346
28.970388519786855
26.340962580523076
18.528055943797483
7.757273392738043
-2.693701070363805
-13.218172404486197
-27.640698021232627
-43.71226124967266
-53.865936109507125
-58.86946729437432
-45.841008898698455
-5.625094031469692
32.42119728647259
45.245846920375335
30.457277789092732
-0.5166216404446881
-10.630625284673698
5.7767853681427255
20.219609139163765
32.060140640425566
41.20279289236134
38.530998082140634
36.6849890469621
34.47684631085484
17.012138581108623
-6.515907278486178
-26.050361854438762
-32.05378840336461
-9.64072890702165
19.398146701760208
27.625130085878165
23.652616294528308
10.52839414963672
-8.020122668019
-15.104996433954861
-14.594300876315229
-8.762113696458046
3.140917597276924
7.394109107168807
14.95273181524861
30.6437884525842
28.85283885476338
18.619987648985607
15.578668110131192
12.4723357389778
22.749459561911916
38.13662614580995
36.795117688987226
46.80239385239135
71.15284758774297
67.11490571491403
41.53969784673091
29.631248457236808
32.59362321437609
45.94867915315281
60.99412585984483
50.68000061181849
22.08712954062234
8.405104054989783
8.509059862501937
5.139063067774211
-5.318575768850643
-15.20211862382323
-17.740275174259747
-16.401134521199207
-12.198690819631638
-10.179676023163115
-18.403125858447137
-33.83873617100697
-48.855612758725236
-42.08472638644095
-8.153115445722635
22.65123539540758
39.35235962362454
40.24912786264392
21.73263040440243
4.767233845932308
-10.749120963712945
-29.578682492749067
-31.055365705924995
-23.510447829910827
-16.8979426109228
-9.011873156146196
-8.650240029847732
4.94062886811057
29.41796012163942
23.407072012456208
-0.9940360123480302
-17.517831258569647
-31.669610940113234
-36.50981402888176
-23.48973692245672
-10.059743899865387
-9.94555580336964
-7.909399718817538
-1.2171545218632425
-2.6006543680969973
-3.8409640486788694
-5.566446201153442
-8.45575665439347
0.10225133366794091
7.443089489629164
0.46223499304423527
-17.85043880550831
-40.250947519039634
-48.470189433322204
-35.92165375542967
-15.771313913292254
-2.2112830933456773
5.962530750246765
18.660252983170658
26.8566654401435
14.076996905103647
-16.820543704094884
-40.0367038520761
-38.965648701248554
-30.471409568215602
-24.42286588543559
-18.247270438548604
-17.588370476778614
-15.584324706331621
-8.943616603119125
-14.657736088737092
-36.30047472791239
-51.139618133344364
-43.768598743230214
-22.901923115332245
5.061350733905088
32.02269331329129
42.07210471989696
36.66826294808071
21.255537001454716
1.8874141744987591
-3.926822015149013
6.057095862812651
16.181377191121957
13.308818030043206
-0.2998203481643042
-10.856435365848789
-18.466552674726703
-27.881687085240937
-29.943066500604132
-23.90869860912476
-21.270077004607625
-18.590367005483376
-6.497228299977225
1.2118702683729337
-8.099962582925723
-18.204260827807424
-12.962046195285529
3.986378325124125
17.69699910077076
16.116444932809973
7.8127226328523856
4.538121481861881
-0.20415114202409512
-7.011410814943383
-8.197225463833503
-9.047608781216178
-10.616577834536821
-11.546415195564393
-17.252509455521633
-12.831730455344816
5.856885275560005
9.684835520753426
-3.0321720587858008
-6.241779587869936
9.804560575469873
35.82362504411782
48.902517140499505
33.94830285793283
1.9318035127261575
-25.74965444990256
-36.01027506162572
-28.03767728467176
-11.876831727939575
2.07933158853281
14.894741776480053
16.838499504404382
-5.476240650777131
-26.943064504758166
-27.93536654584449
-27.350425993661485
-26.448455650081268
-14.27434465603126
-4.105923312639607
1.312486315931158
14.34145451960522
21.801591191767596
14.344599726782665
11.985666130341825
17.19024218476077
21.2599997158266
28.20557566041311
30.06207689888373
27.788671356636772
35.635430069473976
44.91439153342112
44.15683601509065
24.837458176260277
-20.745773112837874
-66.0831902045849
-84.39445759468745
-77.81458078162225
-47.547956472831345
-13.556616335660568
-1.6146802754013583
1.6145991835133326
3.739720349670451
-1.0968437899584411
1.9537902560939018
9.536746828554046
4.8370405861420345
-2.8453379784392836
-9.15212593316296
-23.238602756994297
-37.31520918515557
-37.44449125034853
-26.15058168379122
-15.344334573363376
-8.428796859506097
-3.3374043883204356
-3.0757832362964903
-5.656448937129531
-7.604012993521727
-13.914466553426067
-18.515020808285605
-12.730582058113404
-6.754177115196421
-4.116334836508607
0.31055566935682133
-2.066271179511737
-12.205818738565227
-10.042774748272526
9.520207103342763
18.01238434853571
-0.6755838839516736
-27.47849448920682
-47.70446712220532
-52.275752596798476
-33.34131467080277
-14.260160101333337
-17.6945897541533
-32.02994949755142
-44.19357801652938
-44.726532196987336
-23.482313722702347
3.763949430741925
16.45963716038101
21.584535337618327
23.214320237468357
12.015492309176743
-6.101565022295619
-22.05363887354467
-36.02320728797693
-41.13232716565545
-37.28106791865491
-35.96887421868247
-33.40843710079968
-20.512727462583648
-3.588506257325948
5.014188007995605
0.6176420800775995
-6.81142029092834
-7.470237539597579
-6.846280291084468
-9.400354253714783
-11.264217726418039
-17.69109050258312
-34.384653180584245
-44.69222245524875
-41.97736240980385
-44.0679027228494
-42.87494446474793
-28.68543860625369
-23.703382368123126
-22.79527140978946
-10.037245955394479
-5.13730016601175
-10.678819648709263
-10.87282644599105
-11.55024252236754
-14.142573821564044
-12.11306254377853
-6.546493308108186
2.6184496513794397
7.365756643643868
-0.08662509583237438
-8.696724891755418
-11.495472407572327
-13.502399139331436
-14.613741919832597
-15.540926302286683
-17.081018660382682
-15.299430952152855
-15.600986067275636
-19.14002050739672
-16.115174319563724
-11.49584710870927
-11.266502760970754
-13.79282443817153
-20.867530760629567
-21.555788810698203
-10.746937576998631
-1.656756033686203
0.934556080225888
-6.102570473956005
-21.347970907099043
-28.252832758887738
-19.135295241480996
-1.800581233258513
10.125035432399073
6.180260127836881
-9.42552902592128
-21.591489559611443
-17.864468244515095
-2.103148049207928
10.588220918160413
14.664455300650184
11.288854778644883
5.100284839480351
10.432753956307005
27.19183238759624
36.6560677449465
30.992520374062277
12.014999975592671
-8.165696625521825
-10.344143936062084
-2.296758117822413
-1.3008891716617244
-3.5809278386138255
-8.855402314359512
-19.672412527662466
-26.13374210600694
-25.25288107730429
-20.817037764645747
-10.704495300490008
5.274180104813833
22.04161558654586
31.257930166635756
24.059202586333722
0.3216239063112952
-26.971636598718625
-40.40578425393872
-33.18834838012248
-13.72508852478919
1.2174682992206078
0.8346385055252833
-8.228699774891313
-14.32939330054719
-14.381515393036105
-8.52902123021837
5.331854757525811
21.635221412184087
24.98692870941743
19.69402748992361
19.77438271648207
19.94605250054847
23.612432132504527
29.30553233320019
18.53320820158738
4.9858833747950895
2.100161070515699
-3.3160466584053303
-6.8444582445462
-5.799428056892945
-9.760978856952994
-13.898883937334999
-14.201587486191602
-11.92552911452135
-4.874039845352122
1.9159459164768622
-0.8356404715431531
-8.434895628489727
-7.69006768630373
-1.4773231775641102
-0.20271843314776747
-2.72427377902609
-5.725657245924917
-2.4775130054611374
12.93995852634339
24.98967241928955
25.33598168695418
28.89425102815358
29.80816082438328
15.512835807411161
-4.002908421734038
-24.12657610315415
-34.87489155961095
-25.81792061374929
-15.777315751340609
-8.44741160510833
4.911130948882858
8.035511334154053
2.170612598960949
3.0258350463909838
2.542661071798122
-2.7843657165437405
-2.7564677819258057
4.075979210282713
13.228006077934188
16.7880906196002
7.845586537491624
-4.0483344107213455
-6.567533914212955
-3.763636084894265
-0.4374269499012183
2.9861388382986096
6.92767332034005
17.55012963434001
28.16397139553679
24.324362462439787
11.392128024280092
0.2142946589012351
-4.903414532498331
1.1218057932577417
16.334759024656442
27.138262385466714
21.88398113000171
5.617991314752327
-10.670996402194257
-21.29341784277892
-17.293445073041706
1.0822385298701824
17.687608436599714
22.553095663811536
12.888819568674833
-6.101149209462929
-12.252053418420973
2.434965407725476
18.107816386511562
27.39085583881613
36.02931960428454
35.8617209328654
26.114254896855225
19.353543150815284
18.672501398583154
22.839724919929445
24.906285986825555
20.05479831772004
21.017275473967036
27.007561634301435
30.66912382054091
42.64155478198356
52.003300605661245
42.62595744719195
32.069882761786566
26.233889207112153
13.481774346696064
1.5815387840856139
-2.844039855347277
-6.616703315488543
-5.69365297645699
7.141446751744883
21.415381978416185
23.739048090324076
12.424179499547
-5.641360434722053
-17.11632209856975
-15.776991088609496
-4.5494463678535215
13.744277055205295
25.731354564860784
21.398265916032525
12.366695634791416
6.151300872245511
2.1923234445595523
2.4771584227088908
3.010481555794001
8.684507614108764
25.70996234561693
38.66333349624511
38.535677438342404
29.412277496691875
16.10896242475007
11.470157228505473
12.98072735468456
9.212642986868568
10.680786102047245
17.45346892619605
11.72834921420558
-0.4033403182888902
-0.7845806211579286
6.867054614745549
11.456512516641949
10.581867840188679
-0.8488686171448575
-18.621404322182897
