AAD_Filtered_TADAS_FILE
AAD_BASELINE_CORRECTION: BASELINE REMOVED
AAD_FILTER_TYPE: BUTTERWORTH
AAD_FILTER_ORDER: 1
AAD_LOW_CUT_FREQUENCY_HZ: 0.025
AAD_HIGH_CUT_FREQUENCY_HZ: 40.0
EVENT_NAME: 202302061024
EVENT_ID: 13207
EVENT_DATE_YYYYMMDD: 2023/02/06
EVENT_TIME_HHMMSS: 10:24:47.00000
EVENT_LATITUDE_DEGREE: 38.089
EVENT_LONGITUDE_DEGREE: 37.239
EVENT_DEPTH_KM: 7.0
HYPOCENTER_REFERENCE: AFAD
MAGNITUDE_W: 7.6
MAGNITUDE_W_REFERENCE: AFAD
MAGNITUDE_L: 
MAGNITUDE_L_REFERENCE: 
FOCAL_MECHANISM: 
NETWORK: TK
STATION_CODE: 0138
STATION_NAME: 
STATION_LATITUDE_DEGREE: 37.704858
STATION_LONGITUDE_DEGREE: 35.723358
STATION_ELEVATION_M: 477.0
LOCATION: Kahramanmaras_Elbistan_Turkiye
SENSOR_DEPTH_M: 
VS30_M/S: None
SITE_CLASSIFICATION_EC8: unknown
MORPHOLOGIC_CLASSIFICATION: 
EPICENTRAL_DISTANCE_KM: 139.68
EARTHQUAKE_BACKAZIMUTH_DEGREE: 
DATE_TIME_FIRST_SAMPLE_YYYYMMDD_HHMMSS: 2023/02/06 10:24:51.0994140
DATE_TIME_FIRST_SAMPLE_PRECISION: millisecond
SAMPLING_INTERVAL_S: 0.01
NDATA: 12501
DURATION_S: 
STREAM: HNZ
UNITS: cm/s^2
INSTRUMENT: sensor = ACEBOX/SARA | digitizer = 
INSTRUMENT_ANALOG/DIGITAL: 
INSTRUMENTAL_FREQUENCY_HZ: 
INSTRUMENTAL_DAMPING: 
FULL_SCALE_G: 
N_BIT_DIGITAL_CONVERTER: 
PGA_CM/S^2: 18.880
TIME_PGA_S: 
BASELINE_CORRECTION: BASELINE REMOVED
FILTER_TYPE: BUTTERWORTH
FILTER_ORDER: 
LOW_CUT_FREQUENCY_HZ: 
HIGH_CUT_FREQUENCY_HZ: 
LATE/NORMAL_TRIGGERED: 
DATABASE_VERSION: 
HEADER_FORMAT: DYNA 1.2
DATA_TYPE: Acceleration
PROCESSING: Automatic Paolucci et al., 2011
DATA_TIMESTAMP_YYYYMMDD_HHMMSS: 
DATA_LICENSE: U (unknown license)
DATA_CITATION: Turkish Accelerometric Archive v 1.0 - Disaster And Emergency Management Presidency, Earthquake Department
DATA_CREATOR: AFAD
ORIGINAL_DATA_MEDIATOR_CITATION: : AFAD - Disaster And Emergency Management Presidency
ORIGINAL_DATA_MEDIATOR: AFAD PROCESS SERVICE
ORIGINAL_DATA_CREATOR_CITATION: AFAD PROCESS SERVICE
ORIGINAL_DATA_CREATOR: network: TK
USER1: GuestUser
USER2: 
USER3: 
USER4: 
[...]
-1.664605937484711
-2.9201611395771727
-4.029209334839229
-4.839630412777876
-5.27606887951338
-5.4502120755877765
-5.691199531238678
-6.026355523238438
-6.111971114990648
-5.917277262902471
-5.606011801507552
-4.9689206027275
-3.8347383576208407
-2.2942074186391634
-0.5753056323880837
0.6144745512853501
0.7454500815263844
0.31556830166022565
0.16187048986258012
0.5988646732705688
1.0636719682776865
0.6322090238601525
-0.6308273236294557
-1.6455641892304664
-1.76964805240733
-1.5612759672134566
-1.6787066691839623
-1.735630660546626
-1.2574718067065669
-0.401133941120764
0.5983823762693558
1.3186855699500315
1.600504931188247
1.8688669170677803
1.975907377467684
1.5484035745584024
0.8775837010034274
0.20053548548416014
-0.5835435691711718
-1.7550220978860906
-3.376022996998361
-4.75082764284985
-5.302888701225147
-5.157354652405487
-4.606161668305978
-3.909346706408647
-3.1138317589657323
-2.424709757337528
-2.3098492405933446
-2.4405536490442814
-2.1988324519530025
-1.6928090981900341
-0.9425436845675066
0.2661467490525209
1.4107841722957295
1.5600072611194467
0.8891364351445827
0.3935463224717282
-0.02318276522581894
-0.8579948403510579
-1.6750199288146068
-2.178204384142139
-2.3992833374819726
-2.3183782658410848
-2.3166415091825097
-2.56826440777923
-2.6287264923159492
-2.3041292504459485
-2.108048417968072
-2.33608350056086
-2.349310887447045
-1.8920953540453092
-1.6737896994923867
-1.9302040168205548
-2.2997589184707796
-2.530839971368379
-2.486683668045866
-2.376099729182643
-2.311197138271957
-1.908264732331916
-1.2186303198540527
-0.7362099745329583
-0.5239397072607063
-0.294353459756668
0.0683701211959572
0.32179300412261636
0.2755673234025696
-0.02605446525696858
-0.4303895848319936
-0.5900211330265386
-0.6241849840335404
-1.04866565205894
-1.6840064844091718
-2.1661721041951805
-2.5977688465874125
-3.10925458151937
-3.5880711567142125
-3.772879467448039
-3.759891553172079
-3.819482618522253
-3.878879188867701
-3.6846481385013803
-2.8225970703071916
-1.4141224022099694
-0.28051456237086414
0.24071659822331495
0.23430968246611167
0.028747983056250124
0.018590381136119404
-0.14187691528628238
-0.5574092189234064
-0.5823130786607764
-0.09283994680390283
0.3744289299943719
0.37715908201659226
0.013897068581378309
-0.367297872285741
-0.5563049147177223
-0.4161933394251249
-0.10361148423045945
0.33883745397220716
1.283616037985005
2.5459427507939507
3.416306853610755
3.64012032006432
3.3496176627354046
2.73641252988354
2.2245770835376835
2.06024114032076
1.8832268169771917
1.4247543917257668
0.9105242414026137
0.6223169352083179
0.36674787201877224
-0.388176950752063
-1.5243332461129702
-2.534641392297712
-3.2827821167065254
-3.599222229119472
-3.4112531687631513
-2.8864846750327886
-2.2727141639807624
-1.8495569893671762
-1.3939526828157158
-0.7250925451800508
-0.1511008126840895
0.26944611592162077
0.5474776493984667
0.5268218658967201
0.11020270291732435
-0.46046266795842805
-0.6190260100110653
-0.4649743961250148
-0.470792789569541
-0.42210283813062077
0.09304911112736351
1.085026848895038
2.157704695615023
2.992291168047172
3.801373872151314
4.7952089186126505
5.556596414511938
5.469952014901197
4.789492835307205
4.2172320682859015
3.875398467064384
3.7654770675073554
3.655150233357808
3.1963032126206508
2.9402912158149856
3.138283647787786
3.0603132289973773
2.5158832572320042
1.8406875540553211
1.2454054617913435
1.0459406653407808
1.4282845605212706
2.0785100433247767
2.3537818395103347
1.9680341719638486
1.33123982819301
0.8528943798678762
0.40197113831341635
-0.27838120020874657
-0.9705908387033412
-1.3578109503738425
-1.684245887457134
-2.199530210717451
-2.6383651424040244
-2.5884682421724157
-1.8003965518055465
-0.44383856980562203
0.9623427292620462
2.0482802724048783
2.756820184816502
3.1621852910736776
3.265088218818804
2.9293910828598753
2.1599393168219896
1.452416291392768
1.3301724308181038
1.5087473790447845
1.3840274832420782
0.8424799856143314
-0.14058460863951527
-1.3489429525223766
-1.982601796125772
-1.950161773131578
-1.8775664947189157
-1.6218841111346323
-0.9437511063325135
-0.27343997163555755
0.1236323619920181
0.29808849073541593
0.4375618479686872
0.5433537433355935
0.05868783843800607
-1.0300959587356713
-1.6424358085292785
-1.1552085778898211
-0.040617298523728876
1.1949233785073547
2.354918004255905
3.1573297863380017
3.18794565846207
2.2934949973058507
1.083328347990686
0.3254377407153748
-0.06601669776438743
-0.4966987237601923
-0.9381539087028886
-1.2963736169278661
-1.538948665884954
-1.5260385124637224
-1.3454105483711678
-1.1679723301575018
-0.8946349491324866
-0.5218769238205409
-0.16546835942791147
0.11341049345073327
0.30796524192697433
0.645281805022065
1.2086347091437113
1.7588666339533012
2.113080278720461
2.245539617187972
2.388703622637756
2.628718622000513
2.673602681963415
2.4806143112037127
2.1401233761949836
1.590475297430154
0.9266509280199653
0.3272237175823931
-0.11783923755999191
-0.446013717667717
-0.6931860706285575
-0.663894871385997
-0.3970039062140113
-0.4584272417213478
-1.1297244622953122
-1.9275074718583003
-2.2945699930023573
-2.2438963941952115
-1.9150063011075142
-1.1677758971472063
-0.15416287177425278
0.763905881085407
1.5843120808844076
2.2621609740622217
2.6254066397022515
2.7074435452910652
2.5845370578127094
2.304445185464272
1.868119005853874
1.498876025409206
1.8017773598752471
2.932910933206745
4.295478607953633
5.271899906147141
5.623249377824776
5.4474706985403705
4.91608422181835
4.000020764930002
2.769996442130109
1.7201821447464487
1.2433908922830603
1.16619240441178
1.2659946145433008
1.7455101261983061
2.6460619551859086
3.3137903790403165
3.3446335388343136
3.140266899704411
2.9313199011109905
2.918825637753518
3.735447584102786
5.330647827510584
6.8386166429931565
7.649539612482732
7.79267740444009
7.632288462233503
7.305331666374635
6.880103846575458
6.538305423890229
6.315188838144244
6.395872224287764
6.67879525683262
6.655756600408138
6.41345318748967
6.020825835476668
5.294864673656231
4.690406952751024
4.617938712772417
5.1173341652178985
6.034348703559788
6.708775988838185
6.649515107361946
5.855168062881162
4.576306906433093
3.4359481115460624
2.972038626001413
3.2471119408998943
3.886562233664781
4.46775386086524
5.097650357268898
6.009890752528846
7.081112645999029
8.064186675362082
8.786089370646142
9.115172379060052
8.837867100657988
8.060514783094922
7.207591078633081
6.257922164984692
5.167485666080586
4.159860841405389
3.1017534059109297
2.1965029315503584
2.018391729776158
2.277002491530016
2.61534412719078
3.2914812650004723
4.248148578480144
5.377664028991428
6.806151333916743
8.508440121952416
10.333385416109985
11.873842470496642
12.810259311115985
13.032883745086052
12.492707370732095
11.440419592631198
10.134183442764053
9.095266522549958
8.566004084842499
7.7705295249093895
6.771794780496504
6.318952515647516
6.1743403771002185
5.974370264022318
5.610455703976642
5.17188807304487
4.9350910744261975
4.812623777818703
4.663343306608769
4.209041916151276
3.650821430096507
3.5343793595716892
3.1387092105340693
2.401376055191064
1.912898034945223
1.3249493241956427
1.2148543610576432
1.555229032417043
1.9545712495949037
2.8271523132875163
3.17256004886444
3.8053402640304848
5.345205499078777
6.063210776518501
7.541686973334662
9.507957965317988
9.722391269105401
10.056028940309455
10.331430003055033
9.870100576243214
9.911840965910645
9.046230749744048
7.2104011388510685
5.349978786806895
2.883971708704304
0.7185454515994877
-0.9803926577948935
-2.9613781226649056
-4.4048647126069715
-5.021220007929908
-5.278173879449129
-5.264960335773739
-5.02677690745611
-4.652094916261631
-4.575202065123826
-4.62232953857847
-4.365917544899899
-4.326548230281161
-3.8023390319728154
-2.6011740809192845
-2.4052353325194136
-2.639548090359466
-3.0431737629028293
-4.525034145424871
-5.6088338833973435
-6.425176461819864
-8.059817519456828
-9.22912849269442
-9.53173135327842
-9.207829869216116
-8.186662752762663
-6.829990777721731
-5.375931096180256
-4.455561601282521
-4.368310047137315
-5.007546507838789
-6.027231736468127
-6.303650232118822
-5.8187273520931715
-5.115846688434319
-4.163079535445741
-2.9978888528696603
-1.428203657357952
-0.015740805513896873
1.140563969557821
2.337455333101311
2.8504538694834864
3.892891820349299
5.36776909217117
4.8966928070236655
3.57121543481357
2.193660695025335
0.48751953747784565
-0.12483743827339362
-0.28627240011147803
-0.7489361909995069
-0.9359919451386289
-1.0994650340740293
-0.9682304348759625
-0.9935251958081803
-1.5667736652846813
-1.5819109738652957
-1.6090837989910434
-2.2448139388804864
-2.3948041994068987
-1.9605135277004744
-1.1417465172965788
0.15108461703821377
1.568688921944518
2.8237256243906526
3.3310442465363583
3.2064113637553495
3.236973541484449
3.3749387119667786
3.905701225833428
4.834324068171572
5.319470190705615
5.806795168355275
6.650016064566276
7.028980350422712
6.901779646391347
6.354057111947628
5.1436336628809265
3.5548310687941984
1.4749940336259362
-1.0377772509082006
-3.2129791762896565
-4.678252407928943
-5.111472289787593
-4.9259577362099565
-4.937379610515244
-4.675806342376373
-4.0479215605522665
-3.2304277619309523
-1.7819278502912317
-0.2068341972481895
1.0190531897011028
1.988453724475202
2.3786661443640673
2.3017355127090346
2.2447591139101255
2.307561016222164
2.5972760125616414
3.1153141405832945
3.471221530924387
3.658499462521104
3.9720000127361303
4.367112451142327
5.090817867523232
6.474531840258479
8.09703605061003
9.683668967231569
11.55371065889717
13.083508010260278
13.617941653607925
14.057006009688925
14.352898466275285
14.074237902724391
14.10517208200633
14.320350144493073
14.474476548673657
14.377308234005778
13.317110702300608
12.08398448856341
10.86942045541817
9.236352027528062
7.790705184895616
6.311896902918997
4.918881983911932
4.160944738746284
3.396797524489008
2.511884481390396
2.268191858475184
2.7025776812970794
3.190882009029065
3.960448497256369
5.291600493357895
6.120632657370821
6.363639821515368
7.397677784201896
8.771705466786804
8.726164953834841
7.9091608780757054
7.589043970020934
6.730086675991165
5.184865718642426
3.749821278818623
1.967652148965022
0.4281302389494063
-0.46368025494465265
-1.6397339104887847
-2.596150145175906
-2.931215788481963
-2.9587896191754672
-2.583828539178243
-2.660110000110984
-2.846026816513314
-2.037941999357234
-0.9816168746467818
0.34468354633254167
1.7638537889664794
2.430046672803241
2.855075666861462
3.027179593353538
3.368762499230518
3.9698686677209802
3.7346591074176083
2.9303609429791564
1.5391686380157266
0.5350823559303622
0.6903251133098295
-0.08100553337420775
-1.4058201117740095
-2.2003777067434696
-3.229201738627518
-4.177719462253572
-4.949861990993829
-5.567215739385223
-5.941754275852088
-5.885688542928462
-5.3738582034631275
-5.238735262029255
-4.872862083394332
-4.388192590847005
-4.6418988608220415
-4.82459086995081
-5.345043880634206
-6.255219833496918
-6.622057184762865
-6.86896477373311
-6.91175694219598
-6.205263195080927
-5.100094515185333
-4.118638058116233
-2.7649931184175784
-1.0095415830362753
0.19283590869301256
1.0458300622170293
1.5311553253422663
1.7235240035174226
1.8667327015597797
1.380006118749071
1.0264397648205794
0.6597799551125181
-0.13774734566939914
-0.6313897069768525
-1.5400957795025967
-2.18266934198477
-2.340437312851668
-3.279934854983885
-4.1328578267870935
-5.203072947842127
-6.470442510545586
-7.02192291736182
-8.046368696381267
-9.059055409440697
-9.491969168900663
-10.398388687009344
-11.45194219992588
-12.087652095886673
-11.961795746410722
-11.336678981515739
-10.86553749515893
-10.296401904571269
-9.712142653377562
-9.00822667945122
-8.032476911263267
-7.385967307489462
-6.867705181716173
-6.27398954816159
-5.874707178666316
-5.57888289294024
-5.51964913740028
-5.387148038286259
-4.921364510323931
-5.109712306877382
-6.257050438849932
-7.624837082751967
-9.04498042502639
-10.182076940623917
-10.654517003559972
-11.146416139237154
-11.534496827673934
-10.9384211854522
-9.925299215131675
-8.902173515242222
-7.959919478282357
-7.710961162754241
-7.460250073751369
-7.110330512904626
-7.452179127017671
-7.762730536585945
-7.93980291406489
-8.063536987624733
-7.660375822348632
-7.3446568748286065
-6.828975783834111
-5.79141142571294
-5.085364023093076
-4.568444146997607
-4.067493159259667
-3.7551754456275206
-3.702126630063599
-4.251836641427712
-5.138438692236629
-6.2848992647712265
-7.972428673528327
-9.961159383642336
-12.118067904181668
-14.229837001488177
-15.842509437069426
-16.820793371218517
-17.48805104163669
-18.139958433387317
-18.702546726036026
-19.043117747590447
-18.862350946614487
-18.38987929150463
-18.089971801440168
-17.48417431240929
-16.742105658760533
-16.300168268465264
-15.598550427444136
-14.708997880026477
-13.732667610960691
-12.318182584321493
-10.86552552325889
-9.635699568733028
-8.6947178181166
-8.483577947971675
-8.72179528872693
-8.731109186898115
-8.819950965577751
-9.469831961761251
-10.369660550026383
-11.235650986711917
-12.010284297405226
-12.450749494322435
-12.405158152466322
-12.097389423718596
-11.800059173410322
-11.47290786023474
-11.057476046987398
-10.237711337880075
-8.772346557623033
-7.400876049905694
-6.546040147582663
-5.865195911405185
-5.357946710136765
-4.985639243433024
-4.463238148216028
-3.646842501291183
-2.6884498372441517
-1.9129926556002277
-1.4085580481186777
-1.1723838739527093
-1.1064856215375167
-1.1225620368374898
-1.449428808653103
-2.1438650983306693
-3.1288644693488386
-4.211886052770298
-4.901969309882566
-5.197718195630122
-5.336904004567852
-5.384499238532193
-5.563205065914912
-5.689272873227862
-5.413465805259549
-4.677327653765859
-3.6580438845848358
-2.8627582577215835
-2.260701016528778
-1.8945713875066374
-2.2704293013405508
-2.802925485076673
-3.031248900797528
-3.4149488491354094
-4.039673397152817
-5.056865034552214
-6.311339403688333
-7.022116940535505
-7.21238017265269
-7.449458564970899
-7.7656835910440565
-7.879200305530915
-7.878803364672733
-8.002642837836012
-8.041848279394813
-8.119768850063625
-8.558370664455426
-9.104717591620748
-9.947492810270269
-11.095319934291492
-11.990775298832997
-12.893591670681728
-13.491265130601384
-13.098742607355277
-12.40973928561423
-11.75058007050824
-10.909924367848353
-10.228101528853847
-9.869367673533652
-9.760359892346196
-9.524262651152428
-8.936649333269216
-8.540826667760339
-8.385759132123816
-8.126436894991164
-8.046657389622466
-7.856894918272623
-7.268540223247602
-7.148973375798699
-7.283299598468792
-7.205839509441845
-7.617171083502534
-7.921447358565562
-7.567182404548873
-7.053823028880662
-6.487857597832368
-6.390145010493161
-6.500871802160049
-6.667046191249669
-7.726213415821219
-8.81123273435544
-9.356609803766544
-9.625980777156647
-9.401109235438641
-9.100108458931402
-8.325016199721398
-7.159595920517284
-6.502275607874409
-5.922124923793799
-5.662440496800287
-5.918805235300145
-6.390559562732017
-7.286341916462944
-7.6822136743398435
-7.441705988834757
-7.466843503760716
-7.257196078916502
-6.643166249022767
-6.415048655475799
-6.4978632728121415
-6.487962185668677
-6.701050808602867
-6.81945772413457
-6.262008921364624
-5.362888360937546
-4.081693594245744
-2.7853372415346063
-2.0166328681748036
-1.1928589165397057
-0.42302584386650494
0.2375088186696492
1.1035413163187293
1.3066470699370811
0.7121365811183615
0.14268698872792768
-0.33005629746144377
-0.9802954906969105
-1.8607387665703337
-2.4603189368274587
-2.3426783006934015
-1.9731915480595468
-1.5561321075752435
-1.1813589325256675
-1.5461969298686884
-2.339423086665993
-2.833914531059203
-3.073555751848392
-3.290924919307527
-4.0941689670217185
-4.830170867950491
-5.0046899150060575
-6.307616126755917
-8.023623621328221
-8.542368540791248
-9.268959939536293
-10.40940945571297
-10.247934794757525
-9.240632758597723
-9.288352993163132
-9.168711368422054
-7.188310505521376
-5.323692822820887
-3.9812656133562156
-2.3218009518661757
-1.4030873785145523
-1.0072762155285973
-0.6267011498996602
0.19435409406096837
1.7792915130142857
3.0811687545650526
4.462715196196757
6.2663778607812075
7.616739966350423
8.454474349614607
8.890850628780084
9.230510171031144
9.466890938727335
9.174525847247823
8.537880588282476
7.891601309213783
7.384541272292035
6.6608132467005445
5.619582286512622
4.527314647809212
3.224994506844451
1.96574555198027
0.9281134047662702
-0.1058401842364101
-0.8902132189961576
-1.151929131929198
-1.069716942148368
-0.8157274838150577
-0.1553974093892671
0.5065802551022757
0.7007742975520955
1.0819582228907891
1.7371205857159833
2.442032019479449
3.191217853635929
3.5939286249586666
3.89325341786634
3.9779854514391224
3.695687300568234
4.038397834660903
4.799229334655061
5.147061309878022
5.506234547528991
6.277434312493203
7.328751551475748
8.53879462748896
9.88568364410095
11.029822631747457
11.488381629614565
11.412590675339992
11.090611979399746
10.65423224928575
10.3509528100059
9.98546753877184
9.400131471376822
8.97312940048586
8.366985721596915
7.161749473623382
5.89987641785151
4.771724193294362
3.82812628485475
3.3228317569507615
2.878347496322776
2.4064612319353027
2.601755127215324
3.6832573657433887
4.9881658696781495
6.389925683650063
8.011036382606145
9.219966533938141
10.232866160869172
11.190162000977569
11.399659322829407
11.390425057420273
11.601075400159075
11.718628870126137
11.637067287324044
11.273051854055584
10.88160035619169
10.193249113013001
9.085623800106326
8.486045013492916
8.560457851992762
8.837734973495566
9.103419894797813
9.380365822035502
9.780895152767966
10.295561861056067
11.02994461596422
11.626693877098091
11.706728563788388
11.529121458662114
11.258996740919743
11.081352328152185
10.963964836915242
10.689948976156552
10.418289264174845
10.364920912884733
10.444731522184911
10.095999618940315
9.398013791136556
8.84014193233311
7.993494366467078
6.893109052566828
6.114467293810797
5.634667761768346
5.245627650735901
4.6909113419650526
3.9801678362800517
3.4095302712928355
2.9592739929509237
2.5918826841833504
2.6803409104503637
