AAD_Filtered_TADAS_FILE
AAD_BASELINE_CORRECTION: BASELINE REMOVED
AAD_FILTER_TYPE: BUTTERWORTH
AAD_FILTER_ORDER: 1
AAD_LOW_CUT_FREQUENCY_HZ: 0.025
AAD_HIGH_CUT_FREQUENCY_HZ: 40.0
EVENT_NAME: 202302061024
EVENT_ID: 13207
EVENT_DATE_YYYYMMDD: 2023/02/06
EVENT_TIME_HHMMSS: 10:24:47.00000
EVENT_LATITUDE_DEGREE: 38.089
EVENT_LONGITUDE_DEGREE: 37.239
EVENT_DEPTH_KM: 7.0
HYPOCENTER_REFERENCE: AFAD
MAGNITUDE_W: 7.6
MAGNITUDE_W_REFERENCE: AFAD
MAGNITUDE_L: 
MAGNITUDE_L_REFERENCE: 
FOCAL_MECHANISM: 
NETWORK: TK
STATION_CODE: 4615
STATION_NAME: 
STATION_LATITUDE_DEGREE: 37.38676
STATION_LONGITUDE_DEGREE: 37.13803
STATION_ELEVATION_M: 581.0
LOCATION: Kahramanmaras_Elbistan_Turkiye
SENSOR_DEPTH_M: 
VS30_M/S: 484
SITE_CLASSIFICATION_EC8: B
MORPHOLOGIC_CLASSIFICATION: 
EPICENTRAL_DISTANCE_KM: 78.59
EARTHQUAKE_BACKAZIMUTH_DEGREE: 
DATE_TIME_FIRST_SAMPLE_YYYYMMDD_HHMMSS: 2023/02/06 10:24:38.0959290
DATE_TIME_FIRST_SAMPLE_PRECISION: millisecond
SAMPLING_INTERVAL_S: 0.01
NDATA: 11251
DURATION_S: 
STREAM: HNN
UNITS: cm/s^2
INSTRUMENT: sensor = GMS+/GEOSIG | digitizer = 
INSTRUMENT_ANALOG/DIGITAL: 
INSTRUMENTAL_FREQUENCY_HZ: 
INSTRUMENTAL_DAMPING: 
FULL_SCALE_G: 
N_BIT_DIGITAL_CONVERTER: 
PGA_CM/S^2: 44.473
TIME_PGA_S: 
BASELINE_CORRECTION: BASELINE REMOVED
FILTER_TYPE: BUTTERWORTH
FILTER_ORDER: 
LOW_CUT_FREQUENCY_HZ: 
HIGH_CUT_FREQUENCY_HZ: 
LATE/NORMAL_TRIGGERED: 
DATABASE_VERSION: 
HEADER_FORMAT: DYNA 1.2
DATA_TYPE: Acceleration
PROCESSING: Automatic Paolucci et al., 2011
DATA_TIMESTAMP_YYYYMMDD_HHMMSS: 
DATA_LICENSE: U (unknown license)
DATA_CITATION: Turkish Accelerometric Archive v 1.0 - Disaster And Emergency Management Presidency, Earthquake Department
DATA_CREATOR: AFAD
ORIGINAL_DATA_MEDIATOR_CITATION: : AFAD - Disaster And Emergency Management Presidency
ORIGINAL_DATA_MEDIATOR: AFAD PROCESS SERVICE
ORIGINAL_DATA_CREATOR_CITATION: AFAD PROCESS SERVICE
ORIGINAL_DATA_CREATOR: network: TK
USER1: GuestUser
USER2: 
USER3: 
USER4: 
[...]
2.008105899480086
0.7700389430581576
0.12992428030496236
0.39890580149560556
1.0221847889162077
0.7539427341401443
-0.6056297923692908
-2.251477176355308
-2.805200835687289
-1.7355744746867712
-0.011965745717618721
1.5364341079185553
2.6087150908218275
3.0451414462931954
3.0930383694048076
3.3832723405275593
4.529450311735814
6.436557303518911
7.57755613737233
6.60355480590844
3.3765275180177
-1.6974537027726746
-6.397976689891564
-8.422506724470296
-7.932780065525875
-6.646093821817429
-6.050670165401003
-6.362242553709052
-8.027758553258906
-11.012458514359851
-13.169145047668492
-12.152662847661446
-8.217353176770597
-4.4055301371750994
-2.3740895549180228
-1.647319463021779
-2.0492504429711773
-2.9264537263330412
-3.4995362674247024
-3.3132523830626663
-2.6081617780496784
-2.4869693005663205
-2.7178698890467166
-2.9004468689357417
-2.8651863549683734
-1.4587373259056833
1.720558145552717
6.047879696288773
9.940033827958143
11.304310123503493
9.073273086539437
4.255585665251793
-0.6685386586989613
-4.151992057934707
-5.020115185094828
-2.493556995484574
1.400771267726406
3.9872208281471306
4.6098624679780915
3.6163197715795263
1.4396692775519322
-1.5383512061048175
-3.7865279842232784
-3.665280015529491
-2.107666946655657
-0.7443895033977456
0.06809515842292277
0.7994076026818443
1.8353653772030882
2.635766789933952
2.2103394739581406
0.34395127453775254
-2.383274467590191
-4.999945732858752
-5.6651631954861115
-3.4314936664735494
0.7305835414037888
5.019741347858316
7.223426231337864
5.7939060960305335
1.1246156884584948
-3.6028461521353443
-5.452777233318788
-4.137790256843405
-0.61545392789896
2.6422440002298595
3.7941224779642964
2.7536067784958993
0.07268933194783378
-2.27376846687222
-3.1363506199755973
-3.191461316652992
-2.789276187661014
-1.2408235677524284
0.49498259450904114
-0.814283939661131
-4.961834015328261
-8.462257811868048
-9.670487055825765
-9.013542710856436
-7.57420897916621
-6.174856809034237
-5.165250348593723
-4.399709590558359
-3.3249457384639762
-2.3229855034960476
-2.338937830760343
-2.7559445861779457
-2.3465071251707847
-1.2177821120430719
0.5041318820957472
3.1856531842331126
6.353280070971028
8.032786917703664
6.413342603655321
2.1469813200468213
-2.9188876152920167
-6.924484331716214
-8.434149886551607
-6.765319279803833
-2.288309907368719
3.1233844102612047
7.6354672826194685
9.470945373939628
7.7290011906803855
4.274206590860956
1.6214490074229087
0.6069894321293076
0.39276100539925074
0.07402941566077098
-0.4850973946074457
-1.4614293812915649
-2.3878682846735217
-3.0394663599164797
-3.9386185550679507
-4.438576232117249
-3.6782885817233915
-2.240475948982135
-1.485665673705746
-1.4931269725776832
-1.7152312129254688
-1.9510950121721236
-1.522824815889321
-0.48929260738584923
0.6617172353372496
1.645236732986133
2.2942588864327
3.1098880126117114
3.5819876091892477
2.7587424235993456
1.2644109219191781
-0.06360286153191441
-0.6287657168343278
-0.2665882437247092
0.5015199224808188
1.3147197946902383
1.3933862569294846
0.17525652837386094
-1.3721436599957924
-1.92530847099469
-1.4846501044902585
-0.8199876385674582
-0.44833186832831934
-0.6999470731824787
-2.042583952262229
-4.133903182107294
-5.63399736911963
-6.4726827513909395
-6.190327949734117
-4.111841466046202
-2.2363221923637457
-1.8702639994464685
-2.4315091599784764
-3.254807114582551
-3.6534948686325905
-3.140346468615218
-1.7386000304609717
-0.49247655466702256
0.12388120386392198
0.513750015991679
0.9057982059230538
2.0370305624612097
3.9805702947234236
5.680600882320327
6.487061588023279
5.923243208785958
3.0923222113493543
-1.14494545306139
-4.009230918297577
-4.551463065832168
-3.48863553126236
-1.2644422403667022
1.1127447522076261
1.5135691950227104
-1.3995131763227193
-5.340413519176924
-7.075810926372116
-6.647944092498355
-5.179624315260608
-3.0978707151779337
-1.3455445310610352
-1.265949785919623
-3.161865028904197
-5.603801261134131
-7.174277573425157
-6.61843577754991
-3.7028455986408644
-0.6181349424534484
1.148668864126604
1.3909390859592816
0.4973560948213311
-0.27340592740248976
-0.4329393394754964
-0.38663837207219043
-0.8260186304604897
-1.6051758474609614
-2.404456152894879
-3.7915604414392114
-5.228149496517857
-5.613977569991176
-4.516681898782847
-2.2256794606181844
-0.17291520667974133
0.4958643645712568
-0.34425753046791435
-2.034653134753853
-3.5968522221214987
-4.486569515527225
-4.148682228597653
-2.8701637437064407
-1.8984425435353585
-1.5467526346504987
-1.3322179282841051
-1.09860287367796
-0.8613328640031449
-0.2551870560994267
0.7138831142065345
1.5595783211929017
1.9802873652351296
1.5937337310776645
0.5164866108483627
-0.7383395371971153
-2.0143123261074365
-3.009839929117733
-3.2208124474238566
-2.3893562752031627
-1.0297814096849862
-0.1855431111060961
0.11268645665031903
0.772713894336343
1.7926717812709945
2.447502387371373
2.8818561348553957
3.22215729306737
2.986604044962541
2.461350700233828
2.2322048034947675
2.54800109724418
3.4192361785030316
3.7931594625488914
2.723870701793805
0.6435016694857605
-1.6286162657725902
-2.4431452635189475
-0.6753003373294056
2.643019089652351
6.117831366182881
8.310995103859375
8.614546913840018
7.312550999474745
4.200872826824293
0.5585180467347513
-1.2552957387551547
-0.944575004157035
0.35838671547683165
1.6076498396266734
1.8782699054447092
0.5970352512810938
-2.0611803516198948
-4.573615564833307
-5.26189353123328
-4.020638183326054
-2.0407094953766336
-0.692696186499487
-1.0009596110636172
-2.885812717755861
-4.219943428989638
-3.6551201545092242
-1.4153393512569725
2.459253556226633
6.650295148563327
10.12421140377073
12.623593383888302
13.113686473374317
12.049637054329354
10.688659244395305
9.171742011377118
7.63230756991022
6.368565634831275
5.100463310511922
3.018773064483001
0.1137266243736508
-2.4474328888360666
-4.383474042485181
-5.9141332189648095
-5.855492847337395
-3.9210987068680674
-1.5808855259253884
0.8460112992150624
3.7174169727756823
6.3988781447818015
8.247137329674535
9.253889291550975
9.53488014448384
9.360375702602921
8.783091740848489
7.388833224364268
5.574936930038411
3.9997059832146644
2.4161697997998144
0.5935362969044734
-1.145509449764294
-2.4503456383303432
-3.301039826580082
-3.746033220386675
-4.142942692078234
-4.887831189129116
-5.3740529687610135
-5.0791758268585445
-4.443736529804105
-3.604054064799463
-2.388422991378375
-1.151524544349721
-0.35139685781741103
-0.22608156319017356
-0.616482365187163
-0.8007139991351544
-0.3869276145423329
0.34503246227146306
0.8760309179549663
1.0631954916990674
1.5035345153974056
2.0360746063509536
1.8415517550991571
1.2946209346702087
0.9736555192324883
0.6331757261440446
0.2136884039988238
-0.03295834104831258
0.18934229008592612
1.165244123997102
3.058565123735002
6.092224833100883
9.285496962501513
11.13604930598925
11.651417311012521
10.499999142862261
8.08401179713657
6.656385470854904
6.4717770703148085
6.614194353142062
7.118601503873345
7.742406401168517
7.61843908261669
6.161195021796842
4.348733679234563
3.8501851474705693
5.0664279411005975
6.875500402264802
8.395072212954766
9.964607246170573
10.562764002372617
9.035404852063111
7.35426126545107
6.239265482863031
4.542752432066646
3.46476946147476
3.417145004254809
2.947152809323378
1.5670267276467573
-0.8016110086458219
-3.5894948947523377
-6.067439144315252
-8.226294174233155
-9.644919922229017
-9.945554458428603
-9.252415741947432
-7.565234211327529
-4.959587107638942
-2.432771799907827
-0.32387838314022493
1.9461077913476075
3.3967807474667344
3.591694351440471
3.443504321003646
3.138428889875167
2.766711332615666
2.3349321407937276
1.4546801830732807
0.30377091145244967
-0.9514944227326435
-3.1270585965336912
-5.658264189069355
-6.9459373385331435
-7.323873061855895
-7.168591691568751
-6.155862819503809
-5.0474599855757205
-4.4550954834975105
-3.180450318240736
-0.9577231886728789
0.3782856310922629
0.6686422779171785
0.7337552500068444
0.6162216529406231
0.28521113153302663
0.30258567748428844
0.9935014955684855
0.9848345625947424
0.5597724422173785
0.550654012654277
-0.23523664113641488
-1.5192780765532659
-2.0143970724666476
-1.1598411914540632
0.7383926557136011
2.1521260764255534
2.618199390708435
3.207115106906322
3.239584945904753
1.2311657460712562
-1.801933196378354
-4.536391429631422
-6.141487044047702
-5.774456028060358
-5.39311679514739
-6.229070071085912
-6.2478741185916675
-5.308094106080526
-4.056838867675252
-2.1385338096399336
-0.4785678280908088
1.4618629889721884
4.006086847651764
5.080627027220152
5.41834923484254
5.3883574327140975
4.2348252324450675
4.258279654257789
5.051154141699481
5.208107624869809
6.229642032994116
7.2861845241308085
6.748084763553155
6.6111241003608505
8.338388526847574
9.253233435538784
8.832689358984661
9.597356047423597
10.857268550445982
10.701627159057335
9.26435060456962
7.634037189405022
6.8767574804120155
6.735350696407974
5.114294021257735
2.2619746237463683
0.05921215530780403
-1.252094952105058
-1.5611673733837386
-3.157824151014447
-6.662853686719119
-8.582680165171537
-7.675379197005794
-5.077869900589388
-1.6300534208283488
0.9269205557483481
0.9314910353269372
1.438350716011743
2.615152199772745
0.10151768610334719
-2.938454874546981
-2.326037119518151
-1.9220870353053485
-2.3772756757101154
-0.5276159647633756
1.3262621882792796
0.519861986882035
-3.2384229136473115
-6.236893091674996
-4.736267406497039
-0.6362310569328826
4.900161237917628
9.587382766138159
11.591920070349358
10.354030968931685
4.60288184941058
-0.9363711382950742
-6.014384808913959
-12.181539121141824
-11.002631043027124
-3.127951738596416
3.1898853407414016
7.1261868834095505
7.876298486279172
5.888318661839735
3.6367277185017595
-0.04569195257940123
-1.6921196617220913
3.312578934063919
8.115241977793179
8.520400222855237
9.33262371629802
10.262733679861572
9.6409976058684
8.696604875909912
7.173197783765626
8.126449002884463
13.484401658490377
14.878409537113995
8.979200393306435
2.9356781460538026
-2.0733744201655036
-4.754391696064765
-3.0129349403425167
-2.0758542894331193
0.25772552618436606
5.136152791182564
6.665465974808868
5.054322426710871
1.5810849153196254
0.9122545156179963
0.3485279734736796
-5.679028027694301
-7.512611007899215
-5.7596137445140325
-9.119524442779937
-11.347150327841621
-7.342451823824588
-3.0068322821857225
0.5677124059957538
6.985678010662016
9.749350642843211
5.242486406932459
2.855979548553236
2.290413166174105
-2.8785017065285974
-4.697277857334821
5.05426618898455
16.19615880346914
17.3061268146644
14.473460390171548
10.67055220441864
2.279089682757777
-2.967655969403108
-0.47487280490545525
3.281174168370519
7.011522236313473
11.551781157567413
12.740381342802708
9.073453978396227
2.2844214766048547
-2.208773144029521
0.15802861730286955
2.512812843329652
-1.4911290734418325
-5.032445101382661
-1.4086014429722236
4.977613602556895
5.930398840448165
5.676932828296017
11.687071420304337
16.714498652854836
15.73510714857109
10.247880728599927
2.6124631054931053
-5.6740718598279525
-15.913257626771891
-19.381361485209187
-14.085497035247881
-10.710069192943052
-6.991649142822816
-0.9046125997237837
0.8753416797919461
1.5414530870781484
1.6820392299971625
-5.443952515163969
-11.48110369914497
-9.82722720193608
-8.304548501178195
-4.300338315363332
3.519092384899702
6.346349267622227
7.878023656740037
12.412804228193405
13.28375563327888
6.903498364334023
-2.693761732075297
-6.257284803813827
-1.73655940148747
1.5315833399042995
0.9355932604362983
3.4865753389602356
9.975720405704456
15.809902438638645
21.813831400749276
28.141602359037428
30.108050524149373
23.912399389464586
10.959583574534742
-2.640307067398409
-13.34095965536981
-19.68860010521986
-20.64415484013366
-15.877293349977876
-6.445000283977103
3.358011974419546
11.884947755416716
17.005329525192966
11.086076081963256
-5.087948870993999
-17.61126122771718
-23.205677565701947
-30.6067786363362
-36.64835316377297
-32.87075529158219
-21.73262692143168
-12.696788798911692
-9.424749267618308
-8.607378683197938
-12.132303246420795
-21.850174467979464
-27.183620062362277
-27.487419683764838
-31.210370814994544
-27.966034155854185
-17.64834040331282
-8.642679606658637
4.909912264829594
18.166990099963503
26.02873574164835
31.79459744942748
28.273152408405217
13.485703974055506
4.066690625279779
6.444807294116167
10.345434944896912
10.863686723465404
12.067216921217588
20.577709136445044
31.915984707743807
37.45449606112295
36.78872176559417
34.70847460475616
38.90290842599863
43.51874037634293
38.47057243220137
26.210516514322013
6.33023206308881
-20.063642060545895
-38.29548206684397
-39.15291216949566
-38.55020728570051
-44.226030086173765
-37.89082161451104
-22.208456977476015
-16.981497296119223
-21.779706634807958
-26.24467814407751
-25.439375209528876
-21.385949181296436
-19.360317794757947
-15.295297605582986
-5.224934348383782
2.024102751465518
8.038140926005903
20.51050337364545
29.26068215151949
27.45817978421778
21.328389786969495
13.591025908684786
5.041309130860129
-2.122004879240709
-4.588700114401131
-0.4016383834957969
8.770967941835695
18.51107230249446
20.84587778941573
11.619116459667286
-4.761229611290127
-19.7052093865169
-30.077488580789517
-37.89558197700189
-37.83135136246855
-25.708880851329774
-8.298538562071256
7.002575058565696
16.874784441637438
21.898778173058837
25.521148113119764
25.73523568193241
22.22664149628159
26.301981898784923
34.809965152030905
33.72937905685038
27.573225900836352
21.783822195272123
17.513335125098784
14.472417794194852
9.067648120759106
5.519480375747238
3.3427042570961514
-1.90711775021842
-13.880359125499728
-32.7005257206487
-42.980400077162905
-36.36804884822816
-21.071426003471498
-7.343758209156285
-1.7992900606447813
-1.8681704313158856
-4.221858321385363
-9.400424703969817
-17.104501942566756
-21.643057500664707
-19.662084707789514
-23.854622528313975
-35.34931664088603
-38.51299430801305
-32.36631991259669
-24.278285847404035
-15.252023007329095
-0.7037922877256778
16.18371850175557
27.594904189001305
33.84368651613506
33.987164958128346
27.834518623036054
15.921319923920565
-0.16484221897839108
-12.207251365872866
-12.751358008726486
-4.267491213768781
0.42990240244315014
-0.7684308385814477
0.02971092009636739
2.9499464780516775
4.989634062319844
6.195958769191167
10.57727794900065
17.900850224147653
23.23469959403986
24.791649048923063
24.452122792436235
23.92651566343143
16.739387335928114
0.255649704533481
-16.7286649994506
-25.27256810022984
-22.158007113676156
-18.72005726570067
-24.19143975083312
-30.02945171972853
-31.804917256368736
-32.89100904139012
-32.6943340958735
-31.68408385891038
-34.036034708981624
-39.15128410946508
-41.478803580904376
-36.524845945109924
-23.933854799006042
-11.54776570235187
-6.4866998414012444
-6.195385174402555
-6.4683476850319055
-5.91665053693088
-6.993372498379773
-12.502825148049263
-18.020011257119275
-19.510188347273452
-17.459008119094676
-12.775287096316932
-7.978366306603412
-3.3667657868757
1.5017442674317107
4.636881559499886
7.192823392035321
9.819565835943994
11.00588754128569
12.987738046954089
16.158967314353724
17.726603068831928
18.02557428794832
16.794124679230578
13.195002400437946
9.784503489803585
8.147350416220926
8.314990064943084
11.562084351024334
17.855411584448667
22.04274621067761
21.153671879962946
18.732832165624554
14.958060901962876
10.364617723006
8.332115704038959
7.6914990680216535
5.974651405806454
2.735598076420794
-0.35043506774099453
-3.1803462156286013
-6.917536318063476
-10.924137562569248
-14.659425877632907
-13.601366184820597
-4.9621315496736225
4.417740039496054
8.817001417580432
10.100832215425124
11.17077716226906
11.84144353910852
11.864191066850877
12.343732536477457
13.179407988335878
12.528245880064409
10.779825270131674
8.738682062503132
3.902027620917223
-4.033513691691874
-13.353731947062327
-21.759015018899063
-25.987358275226654
-27.354436014221257
-29.04729427286722
-30.07945675044022
-28.33019116628931
-23.00436978497038
-15.202161088284978
-10.225270942191521
-12.1594417884856
-17.345612703165713
-19.861367916443157
-20.35810776637986
-23.09501304146017
-26.58150157944996
-27.11159581070144
-24.629728674938235
-21.19490980214525
-20.469844071843408
-23.16281515425558
-26.01059752057549
-26.919752445710827
-25.28285181687612
-19.875762649909937
-10.21369732999559
0.28277348265589297
8.38499611901004
14.534163942390753
17.466406565784855
13.56010950848491
4.874625407164901
-0.523828186381278
-0.16121056164381592
2.1019945367949795
4.698438132579574
7.46410908225361
11.122522227641985
16.341101226016086
19.974090641060705
20.301143238794324
20.25893684755963
22.291658652925783
25.448274413813735
27.149255848214366
25.555091607444112
21.148213071641237
15.153781021623749
7.721954359555
1.5634238835354548
-0.007934134130360284
1.69875035415535
4.287805846960128
5.806184506178271
3.9526268995939526
-1.1957542468165514
-8.208298829585068
-15.258040820753942
-19.191279809466145
-18.43504000875821
-14.367779105349692
-9.401325070454769
-5.91082330334258
-5.986819585853438
-9.132221776274031
-11.295695896949585
-10.943636275938294
-8.641472423534069
-3.765945503527894
0.610734410105516
1.1129586555762518
-2.0047425612809135
-7.547917564641513
-13.804642560182144
-19.249480046360635
-20.922641485555427
-17.740524227341325
-12.506004907715878
-6.459376665431057
-1.5571885737201692
-0.5111869126040821
-1.8624766148896408
-2.9315475390098755
-2.826098139203138
-0.9793131637132061
1.9619895505003082
4.00702132018845
5.5221427612533915
7.644470278878561
8.41080396089858
6.5953315628017695
4.046844643992822
1.2572252267151465
-2.353441259642819
-5.895010180742258
-8.498345084278636
-9.540204901992452
-9.313997151112199
-7.823800890912084
-4.400831939790956
-1.0640354309833706
0.7098470280702612
0.9611189043870375
-0.8755283550203827
-3.411214761741531
-4.930785987534513
-4.942616961469237
-3.646212639918852
-2.0130210801068498
-0.38391769191299663
0.38736393976501465
-0.5702641367187649
-2.354959051528868
-3.714046467438297
-3.9459597454818525
-2.3458257642960434
1.7839572557835632
7.501299579293458
