AAD_Filtered_TADAS_FILE
AAD_BASELINE_CORRECTION: BASELINE REMOVED
AAD_FILTER_TYPE: BUTTERWORTH
AAD_FILTER_ORDER: 1
AAD_LOW_CUT_FREQUENCY_HZ: 0.025
AAD_HIGH_CUT_FREQUENCY_HZ: 40.0
EVENT_NAME: 202302061024
EVENT_ID: 13207
EVENT_DATE_YYYYMMDD: 2023/02/06
EVENT_TIME_HHMMSS: 10:24:47.00000
EVENT_LATITUDE_DEGREE: 38.089
EVENT_LONGITUDE_DEGREE: 37.239
EVENT_DEPTH_KM: 7.0
HYPOCENTER_REFERENCE: AFAD
MAGNITUDE_W: 7.6
MAGNITUDE_W_REFERENCE: AFAD
MAGNITUDE_L: 
MAGNITUDE_L_REFERENCE: 
FOCAL_MECHANISM: 
NETWORK: TK
STATION_CODE: 3115
STATION_NAME: 
STATION_LATITUDE_DEGREE: 36.54634
STATION_LONGITUDE_DEGREE: 36.16459
STATION_ELEVATION_M: 180.0
LOCATION: Kahramanmaras_Elbistan_Turkiye
SENSOR_DEPTH_M: 
VS30_M/S: 424
SITE_CLASSIFICATION_EC8: B
MORPHOLOGIC_CLASSIFICATION: 
EPICENTRAL_DISTANCE_KM: 196.09
EARTHQUAKE_BACKAZIMUTH_DEGREE: 
DATE_TIME_FIRST_SAMPLE_YYYYMMDD_HHMMSS: 2023/02/06 10:25:00.8099670
DATE_TIME_FIRST_SAMPLE_PRECISION: millisecond
SAMPLING_INTERVAL_S: 0.01
NDATA: 13501
DURATION_S: 
STREAM: HNN
UNITS: cm/s^2
INSTRUMENT: sensor = CMG-5T/GURALP | digitizer = 
INSTRUMENT_ANALOG/DIGITAL: 
INSTRUMENTAL_FREQUENCY_HZ: 
INSTRUMENTAL_DAMPING: 
FULL_SCALE_G: 
N_BIT_DIGITAL_CONVERTER: 
PGA_CM/S^2: 25.774
TIME_PGA_S: 
BASELINE_CORRECTION: BASELINE REMOVED
FILTER_TYPE: BUTTERWORTH
FILTER_ORDER: 
LOW_CUT_FREQUENCY_HZ: 
HIGH_CUT_FREQUENCY_HZ: 
LATE/NORMAL_TRIGGERED: 
DATABASE_VERSION: 
HEADER_FORMAT: DYNA 1.2
DATA_TYPE: Acceleration
PROCESSING: Automatic Paolucci et al., 2011
DATA_TIMESTAMP_YYYYMMDD_HHMMSS: 
DATA_LICENSE: U (unknown license)
DATA_CITATION: Turkish Accelerometric Archive v 1.0 - Disaster And Emergency Management Presidency, Earthquake Department
DATA_CREATOR: AFAD
ORIGINAL_DATA_MEDIATOR_CITATION: : AFAD - Disaster And Emergency Management Presidency
ORIGINAL_DATA_MEDIATOR: AFAD PROCESS SERVICE
ORIGINAL_DATA_CREATOR_CITATION: AFAD PROCESS SERVICE
ORIGINAL_DATA_CREATOR: network: TK
USER1: GuestUser
USER2: 
USER3: 
USER4: 
[...]
3.279773605464226
1.8559319764462348
0.9959632173818224
1.5780510351507493
1.971857909116446
2.0518935068188364
3.043162705993468
3.8005503806070196
4.778356113261875
6.39180476514635
8.35772522389927
10.397366101862637
11.561242283846644
11.808406081128643
11.367501162928198
11.071223056461104
10.764698160983555
10.662300685316685
10.54311898165356
9.320672578129134
7.650203232811656
5.733115027393565
3.5421464226673733
1.9955320663397316
0.6760881228543559
-0.6296513303397697
-1.450002990879513
-2.2460976018914316
-3.14145296809564
-3.2863601797680406
-2.7856692776434597
-2.136286612846255
-1.5532104272804907
-1.0724851608161488
-1.2784724545004391
-1.8396069753633404
-2.0972248868866186
-2.1696012456638267
-2.3683240240466126
-2.135998542036409
-1.3769923142226332
0.24909398016426873
2.9788479471929317
6.067649681915266
9.469363031859134
12.336657535649048
15.084975500907307
17.274631911149015
18.246259281448705
18.04178802302703
17.39906130402681
17.05010525165373
16.158687694888343
14.485816618279603
12.871033237558072
12.024204992740199
11.133932919063277
9.5103543900769
7.641621150576663
5.8366767500330585
3.9676396595911347
1.4606027159466768
-1.791292918595283
-4.274322746893024
-6.008912314794584
-8.021243419634342
-9.911065400377241
-11.46006713064977
-12.756573366476019
-13.633555057735013
-14.307566595114015
-14.61540491148183
-14.51754415388731
-13.860809529427732
-12.43176683902349
-10.554343943118516
-8.370862223006666
-6.420965937135776
-5.014526951135311
-3.9185517838085238
-3.5888676416887417
-4.370833559485352
-5.274892278856952
-6.512456510365145
-8.231945927542963
-9.765559543940517
-11.204076094335358
-12.325738248766156
-12.561586426629406
-12.08870835280704
-11.021439383651032
-9.340782947221317
-7.264406700398117
-5.040068470789312
-2.9455114930411743
-1.336808786410626
-0.03354136713780662
1.0850145670814857
1.5642359047770067
1.355023773998992
0.8014907229887579
0.201998325159205
-0.49247441665831254
-1.4409529002331565
-2.676314939720591
-3.7603720701213326
-4.750442856528945
-6.161101553145357
-7.770800960071027
-8.496487464522893
-8.26391422261201
-7.609152764479294
-6.277088402122975
-4.097593421033657
-1.3652941116351263
1.337258256868933
3.421417938987114
4.925854098619777
6.032726683412715
6.630681500699852
6.37032302807741
5.0596181327008365
3.411137327684826
1.7211617164714297
-0.7122886930122604
-3.592390884241605
-5.766666695161999
-7.428292017106807
-8.914593340299463
-9.921110614675415
-10.717029529624659
-11.002344121773465
-10.613090099298379
-10.306786944712684
-10.07405366261071
-9.242654381528675
-8.189763651337039
-7.131554377168798
-5.5318944786835145
-3.5071969736612685
-0.9712479499151395
1.8788095029420322
4.010063168604127
5.5377421103510285
6.966935197827618
7.66972210620294
7.613476152097101
7.0113878497059545
5.419163543149424
3.2219253784862527
0.5298880237783031
-3.043120428975736
-6.788802092868941
-9.855426043245293
-12.098759501636067
-13.356136625862915
-13.469453349655614
-12.351655582997001
-10.472753184683338
-8.184228769006928
-5.678252905488565
-3.0311731258202426
-0.3405427170239804
2.2094729518019296
4.879641262235529
8.119662989243633
11.103795203731806
13.128052705450175
15.0171172832617
16.379046752386905
17.41666649109122
17.596644606847317
16.9621778072553
16.33164081635281
14.935859347827346
13.283957738887695
11.578422483968215
9.048391228324162
6.573476065135504
4.283628351248186
1.6194470672590133
-0.6446688079159495
-2.83861967373544
-4.881809517622443
-5.710505509385141
-6.4854779535291085
-7.340848437512071
-6.797158216555559
-5.380477653183982
-4.301498177671052
-3.147806566458569
-1.8732624366430437
-0.9786743932390031
0.021591702575180057
-0.09842791381736789
-0.532292552982138
-0.10428924347481092
-1.3298210994638815
-3.6166363419334613
-4.481273606834495
-4.983709054118265
-5.897393341988368
-6.188479731281497
-6.036173376841674
-5.014576013117157
-3.7124990797839197
-2.6051819557936335
-0.9383993667421967
0.19811762717637615
0.5550538005134249
1.8599022422115685
2.6619826434788
0.28034696041489077
-2.356820564597501
-4.298245302394605
-6.394530554114115
-7.213431455486637
-7.047230271277232
-7.031651697546172
-7.130019990140971
-6.4748460438899516
-5.426807588602897
-5.266006018952427
-5.784103030642314
-5.806575277705735
-5.679232820966917
-6.707693346460408
-8.52582538239004
-9.57807408055676
-10.36284867008484
-11.38053988140057
-11.793986690499795
-11.14402571303553
-10.226901008261041
-10.106113054453377
-9.75849698418894
-8.530000059935933
-7.718928515672965
-7.173884073175738
-6.306599736075067
-5.051347915611796
-3.1484630554558497
-1.5719752914128373
0.014445294573598529
2.30255789601922
4.415075965176949
5.6823983719833695
6.558682790344126
6.9707345353532775
6.764787360971078
6.391120576131484
6.17210574978564
6.361514418678459
6.984578980343317
8.102919609437269
9.770805606461916
12.007246877865045
14.229480423634634
15.79672692427585
16.79007262176795
17.475403964560474
18.072584972670427
17.931714790984692
17.026399349435135
15.815033410217303
13.66546140713748
11.224089692530832
9.123335390141044
7.391289395642151
6.4362915531581475
6.225794190895063
5.941142817518013
5.924930240215853
6.614951381946705
7.419216711798204
8.17116215326693
8.853017047890932
9.242574293928959
9.325617561747412
9.308519934158426
8.95843692596427
8.36880417070998
8.044308118137726
7.5245066763201685
6.4611943133485035
5.528323453084222
4.649746524689771
3.583383370315676
2.557643310562586
1.5846361938369544
0.7866648781173284
-0.12938762769268283
-1.2040097035390909
-1.6067496957422105
-1.737334033304719
-2.402843313274641
-3.0376833008517212
-3.4710232925803868
-4.074053989099858
-4.475012116887146
-4.6446759393298755
-4.554160343215464
-4.193460917665911
-3.9391514649795814
-3.96693213559428
-4.23740557610076
-4.803930626852867
-5.539912809908045
-5.862553911023187
-5.977231597732876
-6.142704738589928
-6.022069684638454
-5.568576488233786
-5.40203781345686
-5.3600214477677905
-5.2518426475675675
-5.701856634836838
-6.12886146440758
-6.871864138453879
-8.511159066594004
-10.380032061833814
-12.462639059232249
-15.030258389211598
-17.22469481763297
-18.698176373774366
-19.570058076888678
-19.419264313173198
-18.727433679427513
-17.835547284852034
-16.956212370248466
-16.233028984287024
-15.173847237423848
-13.713358876419859
-12.406852173211082
-11.01383716840778
-9.525744623003824
-8.74285789043786
-7.990094429584689
-7.1691081675168515
-7.046225458172628
-6.975399714880882
-6.87261950204954
-7.287345807441764
-7.445375596187375
-7.387584504973504
-7.606009906787686
-7.696558331191562
-7.781188480761125
-7.614166242965572
-7.154273588301862
-6.628589010627585
-6.123144916009109
-5.3134666610303
-3.8979409537704606
-2.233417425953597
-0.6111033904712004
1.2367385085458396
3.382006349643163
5.2437067725513495
6.865766582130641
8.438617455568671
9.698077199233113
11.003867321092468
12.35893394632426
13.151721519987616
13.556709531814748
13.592754307251964
12.972273122620816
11.726006724699708
10.103757972670873
8.130117866232577
5.800646532782642
3.5412661238988186
1.4897875022968674
-0.34233049963504797
-1.7415500064061646
-2.8814425438620788
-3.9261051655663484
-4.960674458774719
-5.892388722441652
-6.851601535851518
-8.065063796463608
-9.270195804994037
-10.047557649248601
-10.274517034974592
-10.155758021907243
-10.10981500977808
-10.496778210783665
-11.339733196625051
-12.239873085955633
-12.813434172976192
-13.013637679173412
-12.711711183911603
-12.179753777548818
-11.413270352681895
-10.23521651682743
-9.041684735255531
-8.003033615227006
-7.008080638877376
-6.221284382312259
-5.809364519627745
-5.464052078659323
-4.851337654745822
-3.7484928822118575
-1.9671213599308304
-0.14542627052618926
1.4627451962997928
3.1022449180129126
4.3682567637875
5.17916999678783
6.036094826251462
6.698325400084523
6.897320734910783
6.797635134140415
6.46228177271605
6.070621374554272
5.6823096421125365
5.100899591674027
4.288897798946143
3.286708241656133
2.015478815444152
0.9453218887448157
-0.0998065959469828
-1.2530377600114826
-1.8502600597737633
-2.098539759804446
-2.301083656962428
-2.0784994336426794
-1.3503811004795652
-0.37440725474930947
0.7873315558110736
2.181337803801027
3.6708714082568212
5.201627759059245
6.809035039852632
8.138625656076869
8.887027804486955
9.030687318727466
8.640415535140463
7.814348025998284
6.804854118845074
5.857359908041135
4.86001797735714
3.7676781941117934
2.623186218061701
1.4046530593550635
0.08225531344439921
-1.2476924871585298
-2.501948289646954
-3.8215531902157487
-5.0934990057538325
-6.220340468396022
-7.556379803645913
-9.004560702855889
-10.348213655298139
-11.666810328624296
-12.82892249589392
-13.714414978084628
-14.333510976289935
-14.324809274579703
-13.559009238933042
-12.3443358942714
-10.883073883017977
-9.21643958608877
-7.553562776244271
-6.08638695737877
-4.819436578459128
-3.67332745007679
-2.8499485443989667
-2.457842786939957
-2.223391707352892
-2.1319205480705987
-1.9430972581085877
-1.760838595990303
-1.6963504589252443
-1.773027679683429
-1.967338846450511
-2.3318749391900786
-2.9283008802812005
-3.513862285693857
-4.211808856123169
-5.1454109893896804
-5.937300065650155
-6.789208666189155
-7.849929720322187
-8.76149647040361
-9.462687300505593
-10.062421881626994
-10.289733026620459
-10.260023455087232
-10.024142757848846
-9.512651850260896
-9.109310907244074
-8.88695473152146
-8.571732041490229
-7.890021898891967
-7.221385754207178
-6.589267864453437
-5.921772019983207
-5.4763340869457044
-5.24806408081251
-5.21723973999262
-5.528111498890288
-6.004817874740934
-6.558094810200674
-7.341175874430164
-8.474912184664824
-9.661989182751068
-10.392688478441245
-10.828772901116006
-10.680544143649996
-9.5493670119966
-7.723908535601441
-5.326811980043199
-2.8419176480435158
-0.5381810643032913
1.450641303304309
3.2843877790528104
5.112424925238668
6.8129318138044965
8.35279444866476
9.824939173930757
11.087807003348614
12.349022622484872
13.538258951994823
14.346368227543232
14.775987908286526
14.590065172132089
13.941794228063898
12.90984642031209
11.558626090540725
9.878284090723628
8.141273919005636
6.498441475503678
5.033529376667044
3.847709622076283
3.2224280864755785
3.077184316988525
2.9918953003796616
3.0686350374518936
3.543921202281246
4.1308834034031685
4.86079244431768
6.0123185165971895
7.035972952629706
7.7920619109721745
8.113162747250978
7.788501393966082
7.337639406591344
6.652816783480564
5.651988187839474
4.854909286563009
4.133957398669898
3.248770224973081
2.549539576750313
2.225193975906383
2.3053196937937317
2.8462293277951085
3.3492704049492716
3.648909975407213
4.146868628724952
4.783922769799475
5.539690675806546
6.49001820907867
7.520168677635079
8.548640372019523
9.39044499094304
9.859647011179723
10.044905978336962
10.04372837887174
9.967194423923154
9.749051612669335
9.38332855906375
9.107081020869408
8.684066179665123
8.158613052319446
7.442659126042975
6.619630553229638
5.595604021181558
4.3110238781058525
3.14865704790417
1.946782373792005
0.9466023707817804
0.28938516685118204
0.05095104660500037
-0.08576187026900846
-0.6169284488748015
-1.0877102414737239
-1.626501196834031
-2.7470534816615215
-4.163900781816532
-5.617898145331511
-7.371363359606686
-9.245215950528772
-10.863802303553394
-12.534241025237268
-13.956500097498743
-14.627251773266725
-15.115422525337623
-15.433592657591813
-15.068651883717738
-14.622586688040188
-14.2396248958531
-13.370342870177613
-12.859131942717532
-12.985113784675766
-12.90608268101623
-13.159742329352962
-13.712764929009008
-13.700717010995776
-13.450184587167753
-13.241298579787383
-12.76404685915454
-12.030504609314422
-11.465192218205706
-11.110356036330359
-10.473959424755293
-9.58135384242457
-8.860704092599924
-8.079853112668777
-7.06163776700676
-6.449254564839621
-6.11013185128753
-5.674431283712163
-5.813392677210093
-6.268371711095748
-6.630266091081489
-7.461009518969339
-8.177909673385367
-8.218805704445323
-8.239086391852448
-7.962912022550557
-7.4980395940587945
-7.106952148182728
-6.654863440341319
-6.490910799349735
-6.555053012864159
-6.62530796865812
-7.1727371288815425
-8.064226737989182
-8.831742536696963
-9.875624312721445
-10.625530417171495
-10.801579680413866
-10.766217213226255
-10.160035376006547
-8.962641469927489
-7.446143672246809
-5.20806459536728
-2.698855879633484
-0.31697648473461526
2.1228790795091594
4.439107658048894
6.608648606417996
8.644028592111724
10.540777791281936
12.607258603297826
14.796988550444476
16.752976785839124
18.70975015987186
20.730186565469268
22.59730107052379
24.07310437957063
25.34689432437765
26.28446695334991
26.365040310649306
25.911527469794216
25.312616083312275
24.454829590143795
23.528916945796176
22.645041210479505
21.562675790157996
20.576809419326064
19.33629769758011
17.70596661106199
15.965423315765479
13.839631350085352
11.442929805746804
8.678719201069418
5.63970692544205
3.0525015719425808
1.2321694310990823
-0.2698809119442307
-1.2506860904628923
-1.3586531878912247
-1.4207460107915737
-1.6124604792377593
-1.332382493272332
-1.1130066126692153
-0.8696082597552642
-0.3162939597954671
0.0503089927101759
0.4050050506166329
0.8537275701173267
0.7898449915010906
0.33188223432287633
-0.4206323929489647
-1.6647330409109378
-2.748776800865961
-4.110062228189059
-5.622498269645122
-6.6083855152921105
-7.61767343899842
-8.52024024869755
-8.608503863457733
-8.371457179366207
-8.0201810327231
-7.0396970788893976
-5.927503834582768
-4.767411463299852
-3.6751048955212147
-2.784361038001717
-2.0689310875531475
-1.661972317726039
-1.5985412026870662
-1.6853074799619707
-1.9833944544023168
-2.972853826333223
-4.303290216649541
-6.2736647967805474
-8.3903179745386
-10.736943689929843
-12.633828485390431
-13.360359595448157
-14.336383925581847
-14.410342380947347
-13.093832180318746
-11.484163790118208
-10.645467631221232
-9.190703974900686
-6.949637816566679
-5.112165308052042
-3.551090994042091
-3.1471604501476578
-2.7812694355061103
-1.4235752847864471
-0.5357274775547525
-0.9995133532932183
-0.9884023187615483
-0.5166777506126726
-0.7164657093237058
-1.669425639260473
-2.928632075575653
-4.073409282658884
-5.8591969967216855
-8.400417210963463
-10.189192217558086
-11.455362926694466
-12.947459728370582
-14.280449829744336
-14.7409165925177
-14.380508314541938
-13.425297769881757
-11.945231407750867
-10.246320079061377
-7.819341871587716
-5.322039294662854
-3.098055651300333
-1.1030601553132835
0.4389138529342592
1.6663715149801688
2.7794522888815756
3.3186853895044064
3.575586351954358
4.302684102297007
4.872560640796043
4.765112278646857
4.443497033384073
3.5321250663767967
2.4371799023665957
1.686995652464997
0.8278984683276999
0.05402002805385574
-0.045885500901460874
0.3702314096789715
0.46373646500240834
0.7301189653051408
1.8143906951475615
3.127845519651671
4.316440788027173
5.35938817222183
6.212011923933635
7.019062903455919
7.759467967316875
8.313254855281146
8.866168267388383
9.773692941446873
10.556359904806984
10.434571783803147
9.92669935680468
9.698175857478278
9.162938804804364
7.776364294360214
6.180140842181285
5.174537922061691
4.703955357911058
4.16534665060751
3.7715337304068783
4.110439257497852
4.915695754923127
5.870359414244109
6.893898331085881
7.9292506958428355
8.735126556549725
8.863026405911823
8.54828504791988
8.374417587287653
8.188758291803632
7.49405888610801
6.750268575120912
6.304390059111377
5.524794213950616
4.374384209906323
3.2211504632868753
2.2542320826156432
1.269885149827368
0.09831732555688177
-1.212777261054041
-2.2206585927299978
-2.8788813525028423
-3.5305340769562417
-3.8859063332038373
-3.7120146182192255
-3.613787649832666
-3.9216056205797885
-4.349887351131879
-4.7317130064160375
-5.16179401711091
-5.808800458881631
-6.4795513931375766
-7.053700486547771
-7.179572778355443
-6.9930022238926695
-6.9219206404482785
-6.62934013838125
-6.007610974879909
-5.556095734460055
-4.965305314897028
-4.52222133415857
-4.5639402101549935
-4.405347388970848
-4.416340370373478
-4.5767717794564
-4.235294005849465
-3.6883989104955166
-3.199805232356892
-2.2549274092968807
-1.036984344795616
0.1879077523363032
1.3401478156590225
2.151238422964184
2.643953307759387
3.1414754132923846
3.1162809374290545
2.322397216509261
1.556558723962807
0.7421152950778748
-0.305564985715945
-1.2192711865815375
-2.1245934482545343
-2.332377211669274
-1.7545126698471516
-1.4073804578597253
-0.8156008577897328
0.23793065310485273
1.0607011922039076
1.6000043605761691
2.3999225561221222
3.159197477982213
3.6620884940568703
3.931006824797252
3.819065758537643
3.667626418379259
3.753353979091122
3.536802418484127
3.0385547645689646
2.999767000162098
3.1197328137075733
2.966367262396074
3.0762052545492775
3.4304630677124615
3.8618433526853697
4.383827517512134
4.726748787164674
5.20285476576747
5.799028329856184
5.946970137112076
5.81584040451511
5.871232451523878
5.39299912634847
4.749757025107555
4.338843266251591
3.5079331370055944
3.044440317766288
2.980733372114651
2.6078834316722697
2.309060765980624
2.070474690355324
1.5681508063062424
1.6063337840292795
1.9840173844988378
2.098666411148058
2.6225110558550533
3.280748487469138
3.91473194202201
5.014233250747596
5.937898272933134
6.560095372832261
7.5327670228854515
8.394056947153869
8.572551069202946
8.795477678243415
9.129064927036238
9.043555104707762
8.793297165817997
8.426510459425836
8.067423819983022
7.704141879691347
6.972557605631714
5.800854549240459
4.973032369019998
4.236927562173496
3.298186474224649
2.519859137498777
1.8376187725573192
1.4227053427378202
1.1367829957472442
0.7369029155232739
0.6099316001192181
1.0364496568218584
1.672687984284285
2.7307077113787126
4.115905107912204
5.693468920474463
7.06709591987897
8.211235381930123
9.287220567958606
9.924582346205417
10.038635982607746
9.654704439282808
8.904591440890256
7.93501880914386
7.10533582652095
6.465461397905032
6.067073937491751
5.818913740718394
5.908728961524718
6.120467699720367
6.211397073478167
6.689872775832081
7.279960683399195
7.4631928541127
7.473911908618085
7.040135158406343
