AAD_Filtered_TADAS_FILE
AAD_BASELINE_CORRECTION: BASELINE REMOVED
AAD_FILTER_TYPE: BUTTERWORTH
AAD_FILTER_ORDER: 1
AAD_LOW_CUT_FREQUENCY_HZ: 0.025
AAD_HIGH_CUT_FREQUENCY_HZ: 40.0
EVENT_NAME: 202302061024
EVENT_ID: 13207
EVENT_DATE_YYYYMMDD: 2023/02/06
EVENT_TIME_HHMMSS: 10:24:47.00000
EVENT_LATITUDE_DEGREE: 38.089
EVENT_LONGITUDE_DEGREE: 37.239
EVENT_DEPTH_KM: 7.0
HYPOCENTER_REFERENCE: AFAD
MAGNITUDE_W: 7.6
MAGNITUDE_W_REFERENCE: AFAD
MAGNITUDE_L: 
MAGNITUDE_L_REFERENCE: 
FOCAL_MECHANISM: 
NETWORK: TK
STATION_CODE: 2104
STATION_NAME: 
STATION_LATITUDE_DEGREE: 38.2644
STATION_LONGITUDE_DEGREE: 39.759
STATION_ELEVATION_M: 919.0
LOCATION: Kahramanmaras_Elbistan_Turkiye
SENSOR_DEPTH_M: 
VS30_M/S: None
SITE_CLASSIFICATION_EC8: unknown
MORPHOLOGIC_CLASSIFICATION: 
EPICENTRAL_DISTANCE_KM: 221.13
EARTHQUAKE_BACKAZIMUTH_DEGREE: 
DATE_TIME_FIRST_SAMPLE_YYYYMMDD_HHMMSS: 2023/02/06 10:25:05.1223730
DATE_TIME_FIRST_SAMPLE_PRECISION: millisecond
SAMPLING_INTERVAL_S: 0.01
NDATA: 14501
DURATION_S: 
STREAM: HNE
UNITS: cm/s^2
INSTRUMENT: sensor = GMS+/GEOSIG | digitizer = 
INSTRUMENT_ANALOG/DIGITAL: 
INSTRUMENTAL_FREQUENCY_HZ: 
INSTRUMENTAL_DAMPING: 
FULL_SCALE_G: 
N_BIT_DIGITAL_CONVERTER: 
PGA_CM/S^2: 21.223
TIME_PGA_S: 
BASELINE_CORRECTION: BASELINE REMOVED
FILTER_TYPE: BUTTERWORTH
FILTER_ORDER: 
LOW_CUT_FREQUENCY_HZ: 
HIGH_CUT_FREQUENCY_HZ: 
LATE/NORMAL_TRIGGERED: 
DATABASE_VERSION: 
HEADER_FORMAT: DYNA 1.2
DATA_TYPE: Acceleration
PROCESSING: Automatic Paolucci et al., 2011
DATA_TIMESTAMP_YYYYMMDD_HHMMSS: 
DATA_LICENSE: U (unknown license)
DATA_CITATION: Turkish Accelerometric Archive v 1.0 - Disaster And Emergency Management Presidency, Earthquake Department
DATA_CREATOR: AFAD
ORIGINAL_DATA_MEDIATOR_CITATION: : AFAD - Disaster And Emergency Management Presidency
ORIGINAL_DATA_MEDIATOR: AFAD PROCESS SERVICE
ORIGINAL_DATA_CREATOR_CITATION: AFAD PROCESS SERVICE
ORIGINAL_DATA_CREATOR: network: TK
USER1: GuestUser
USER2: 
USER3: 
USER4: 
[...]
4.6060721940553835
4.418752209395582
4.2147177811786705
3.8964239429257956
3.390111563933343
2.7878135189729685
2.2077372063883933
1.6998320449255353
1.3151353889392206
0.9372718242756619
0.636574756402386
0.486033898444139
0.2692863603855392
0.04165579961340448
-0.223790186169997
-0.43665558153709183
-0.5188112319714393
-0.773831514597855
-0.829244707326634
-0.8038141679829962
-1.2182832343600627
-1.6230057189352833
-2.042306304540475
-2.603089272170859
-3.0807969242158135
-3.4174000064578616
-3.650972029507941
-3.8495865764606196
-3.990856089628914
-4.021447885363714
-3.8255171551415814
-3.7244762827707367
-3.48215542987462
-3.056559534935819
-2.753389370663928
-2.3269603246037605
-2.196993865854471
-2.0866450603066347
-1.9587439188473867
-2.2417386553916074
-2.5016368642379048
-2.8069527793459086
-3.255189285158101
-3.874209274168684
-4.497980831384873
-5.3090902352839935
-6.4389789096645025
-7.108020772920546
-7.994747447700209
-9.055323836813695
-9.47714417153301
-10.166758657552338
-10.79790905810302
-11.355996404875267
-12.201104139072212
-12.506182813830133
-12.762850500266708
-12.845438891883896
-12.564923892038225
-12.49441307984352
-12.109583058435032
-11.611395574562696
-11.260010155209592
-10.828925374986742
-10.477795217763031
-10.027469018510345
-9.459760011205475
-8.9215450423905
-8.137423583448262
-7.270758837534519
-6.76906570561566
-6.0902095696644505
-5.438594306763803
-5.239428019723535
-4.9564221352827325
-5.036487034067633
-5.2879373902951405
-5.440468301776661
-5.885116268067212
-6.322014880091344
-6.760447530763901
-6.866323313028168
-6.731365809058479
-6.5632361430902035
-6.297557266537878
-6.026078599738701
-5.378862243556076
-4.940519059490046
-4.630157634125616
-4.060297362541606
-3.5320552869475415
-3.050713975009076
-2.6865607076593103
-2.1431765295345198
-1.9296980774642642
-2.024686327420131
-1.980216892028543
-2.0694715019063503
-2.025460646700558
-1.9021772949355644
-1.6997831698707273
-1.5008718251918751
-1.613176803722603
-1.7219347593823826
-1.657268862308574
-1.7377699050952118
-1.915700374631408
-2.046013751480786
-1.9419914542352015
-1.589418724072736
-1.3309662757257292
-0.9075057033856613
-0.5284022240854924
-0.0888458259311569
0.44863470139294276
0.7522365583766537
1.3664632132805254
1.8308702781934412
1.9910355172447114
2.2575353128988236
2.3274716882532718
2.144128240245452
1.8715536202644338
1.8519094625784733
1.8535771723603736
1.595173962419301
1.4904083106098536
1.4915479228360105
1.4398079218304576
1.4156685824099444
1.2968256960574356
1.2405325309378776
1.44568166559425
1.726845845680959
2.0286432004942667
2.3053207755488345
2.6538775585991172
3.207230152619011
3.6033980578344864
3.957277790173076
4.478187320806562
4.9405480049387505
5.344983441663819
5.641154962881844
5.989917918707516
6.523307096247622
6.883363687369651
7.003698296128945
7.276024923506144
7.757064688565462
8.050101968083684
8.235845820129525
8.568780447622645
8.840769461292128
9.07511787866987
9.385461317298489
9.606067217901247
9.81927439579932
10.04181286185139
9.874066840604733
9.4496444617991
9.168317266734627
8.869945548598961
8.468482107824984
8.188973435249732
8.061677589181148
7.9468198701476185
7.9336737071001755
7.849827844213657
7.705930183999367
7.78688804116762
7.720585841930902
7.630772948207967
7.595842425601811
7.385154129783053
7.251804740392245
6.947185331166895
6.527788530206571
6.367804324263012
6.4134824481554285
6.39776651816961
6.341596138436104
6.517545304858782
6.414566332766483
6.070428349802885
5.8756073111627956
5.519887236344229
5.117124070820543
4.721408511741893
4.294637391785115
4.117440892591222
3.9943975838550076
3.551381545191224
3.0961836956496422
2.8146074799451584
2.325886615760992
1.6995299704364917
1.2957155859012748
1.035970454725245
0.6011031049829161
-0.06677432848125639
-0.9315973457386657
-1.7369299925437636
-2.39485331095611
-3.228262167392307
-4.062348128926654
-4.962494016572291
-5.991106136448177
-6.996231293769005
-7.943908135135891
-8.612699840314619
-9.121165824213469
-9.322791476859084
-9.375691859525443
-9.303070013201538
-8.88005116873833
-8.589788129450701
-8.204879211554317
-7.816502857291396
-7.605584128022953
-7.198724440902507
-6.809396381727119
-6.587829206162682
-6.613388151024149
-6.589432670910469
-6.5769982601708135
-6.941198996401466
-7.176290653423952
-7.331098087707666
-7.662344796678943
-7.877217467359308
-7.9865676626415425
-8.222992364663078
-8.571163378344053
-8.725703350398216
-8.770067139980775
-9.039446264118554
-9.218054127541862
-9.002721858761618
-8.911818771292916
-9.03079086673194
-8.979856368472907
-9.107927904414478
-9.31434421975867
-9.277245324204769
-9.4798690365439
-9.741344142991098
-9.718535576885568
-9.875226328627793
-10.132671539340171
-10.126072451671197
-10.091727245518396
-10.174046748409333
-10.159615213534304
-9.743181355525754
-9.105422037207076
-8.692625746002877
-8.185998829965165
-7.514328773148458
-7.3231854529625995
-7.6215131238214076
-7.769167747781113
-7.58496286024577
-7.433194106794299
-7.142047971174284
-6.453403044336723
-5.818054238155539
-5.171411515187864
-4.102164733109603
-2.926677483360137
-1.8422918353702218
-0.7315866062348593
0.44167140408610545
1.38440340235719
1.8227825314167632
2.3093058998555316
2.8436677724789288
3.121232622137382
3.329073171802461
3.5812826578014323
4.0062658800592885
3.923472258908533
3.515996528793929
3.517753526864814
3.288863542955135
2.7959330193216076
2.628109626697398
2.889428903580715
2.984992282806769
2.9961177924524645
3.510015928452869
3.8250149506898308
3.8632399512473348
4.077588231319179
4.231253390828552
4.235545814586948
4.151400551151337
4.150439865489511
4.215139730175045
4.192412781130143
4.162276346327653
4.088955224735712
3.929416725517935
3.632274116839764
3.1763731498295327
2.774463732818823
2.25885984407747
1.6786606989817197
1.3921035357825107
1.1483266464470565
0.7515072663624874
0.34097528817037803
0.047721644634627886
-0.43105176816850466
-1.1229436103709174
-1.6207613678523363
-2.112443684041178
-2.5124232246577307
-2.687503506580616
-2.6865545959343424
-2.5292269761109742
-2.52605652784605
-2.393164304025753
-2.0281464418234663
-1.8055501784843626
-1.5659166393667594
-1.1192030964982929
-0.6023188738237558
-0.003216516988468111
0.7529003103892447
1.3756511673849685
1.8178693952091993
2.4842784692413615
3.350945588621449
3.9742142934687745
4.532861445673486
5.28116566539502
5.776068551063706
6.00777251608792
6.19114198310043
6.157265937193486
6.023512643704952
6.061171120958408
6.035671560409114
5.6683119807092845
5.379662877797497
5.411994529345952
5.3850605974434815
5.1528157304306115
4.876815640902138
4.783994560329884
4.707571441359226
4.395315365114002
4.335788620660204
4.466862417258006
4.435648587081912
4.530142842870412
4.7299692888226925
5.171814666339693
5.696444398322656
6.026861520674497
6.40941148835607
6.578013476578406
6.648892028863375
6.698762361310569
6.333432345563628
6.027283696143644
6.030731438990524
5.856548718915677
5.449426751263704
5.226582107191727
5.205827289130191
5.02513883591991
4.865274915583255
4.974798057964153
5.111653540348012
5.038351137022571
4.670037254231773
4.147354514547269
3.606641567217579
2.9362852149600664
2.2117706063840554
1.7812228792423757
1.6140580960647943
1.2400694867941702
0.4879897744820692
-0.1391991101559055
-0.6046555312342261
-1.3599254271557506
-1.9638694975312858
-2.456415561513761
-3.221147692661533
-3.9208889564081932
-4.606173730872466
-5.2013742182817975
-5.648762671104198
-6.082283716464586
-6.321388560121167
-6.293572450967674
-6.202882551873035
-6.130078046989658
-5.6809738151485
-5.2648054462406355
-5.088569084501502
-4.581478100065892
-4.004800265371419
-3.6047738971737258
-3.227152733277971
-2.3930852156095828
-1.4020291913013094
-0.7394462896473446
0.20577551704942346
1.0708587721121186
1.4305346966535462
1.6556818309058172
1.7016347208469345
1.5519533908913807
1.3087263810237177
1.1514624971350444
1.1311155182523316
1.1031051262926495
1.2726419472525392
1.618367977272669
2.0051486344067513
2.5556847477824625
3.0235991667481703
3.5573054910362827
4.205003771687776
4.584134987001622
5.173594425183369
6.037945358829583
6.671892810056692
7.33176869546041
8.216522984285817
8.902332283627132
9.303459584563663
9.90385659801896
10.576268368630174
11.002969561350637
11.303990868401842
11.448764686126557
11.432632675879972
11.072012228067402
10.356056266810377
9.667905793215505
9.000751614827598
8.220262971605758
7.515717845170863
6.9458616000261575
6.2726139350564045
5.661965490218113
5.031706639969281
4.074927374590823
3.210048511533384
2.344374231770104
1.1269066330813702
-0.05513905905461118
-1.1215119973946375
-2.1779549782302308
-2.923840175939701
-3.3781771971966115
-3.813939243982632
-3.9467744374618996
-3.712157614959517
-3.6142125021314255
-3.5310534007775596
-3.365332417530464
-3.429108090098484
-3.532381215679671
-3.5342066465484376
-3.5850704565052296
-3.688269869182113
-3.652927880365712
-3.4314478043341965
-3.2263854930377223
-2.871995675452603
-2.3030286082578315
-1.7638056870038303
-1.0849447870645852
-0.314118845719695
0.29113905086740016
0.8086966305701495
1.313981663951507
1.916790927825852
2.5444025981501057
3.1506652399135446
3.903697653770026
4.6091091550670615
5.226363202649228
5.720245453655019
5.885981581392747
5.9916984379770755
6.054603391021502
5.923993731868904
5.668346187530852
5.286638048167432
4.8484608616054015
4.519197757809361
4.3340055555308075
4.093424897654481
3.967205290515686
4.091724862434246
4.156624349185699
4.043410632288246
3.9603026037383717
3.9886554650961683
3.8760074128362967
3.814365581247015
3.930703679111674
4.1945127225313925
4.6385929000084225
4.887472666507571
5.101205283507995
5.127552753261265
4.730491324339412
4.349248389298427
3.8139137174858724
3.079002438458474
2.492194198188998
2.113019539540909
1.7406404608911923
1.2933885571831045
0.8927176742865954
0.6623036813255715
0.46302349957143296
0.13924713257007412
0.15150649332458904
0.39569220108788966
0.6493011234925208
0.9609998703263959
1.1740378105224791
1.518252669026033
1.6967799099855543
1.6462340102573343
1.6964294100766901
1.7752163172170479
1.8443717292067703
1.8814249865119057
2.0072112698595115
2.051523656786559
2.0834769054969633
2.06736610868423
1.680927661558837
1.0438568716749401
-0.0007177686355244882
-1.2280438086090173
-2.5601619425508257
-4.219275668551403
-5.7873259416390805
-7.202621525496925
-8.306056296153717
-9.231400645080546
-10.30899168615383
-10.929234637568792
-11.155945983283793
-11.447638472413232
-11.820215936525516
-12.033020241068145
-11.942930954951965
-12.024134131813515
-11.923988170103442
-11.657668184139387
-11.646751262889913
-11.184058244393455
-10.772730697509864
-10.70833665748263
-10.154759448953657
-9.488782404008107
-8.908973772112494
-8.244789857103722
-7.867067942824363
-7.732123045636108
-7.612171448783964
-7.4889940641153085
-7.445339144778926
-7.5141767096070335
-7.350478601653256
-6.977427831305701
-6.813022233096337
-6.7494175067807864
-6.557896989763936
-6.247505435138433
-6.047871114793586
-6.1415411867334475
-6.3897279352986525
-6.779763997012466
-7.134751391287199
-7.484384028413016
-8.059080941725671
-8.377672930363154
-8.383131821913777
-8.279779125738354
-7.907537967113673
-7.413109502051598
-6.767441062964341
-5.922574693748131
-5.113217393023767
-4.370600540853684
-3.5664130807779673
-2.897329185054693
-2.5038157890241663
-2.1100155551157913
-1.9878807872022517
-2.1558042238646453
-2.0913765835133122
-2.329243299109067
-2.913040170173505
-3.3630331011845307
-4.118847231866113
-4.939734873060822
-5.565898454381264
-6.3197752009887145
-7.076866876668508
-7.73373846568
-8.46470591843345
-9.226404312825348
-9.795896515559296
-10.2854416512166
-10.431038132826172
-10.19180673127407
-9.93781977516997
-9.397644209137944
-8.589688461480364
-7.735645020401537
-6.638828735133403
-5.274830225721033
-3.918659991039536
-2.618936720297064
-1.5126433225723264
-0.6209661962694448
0.3056334009522928
0.9955731094825804
1.520514224184814
2.146537400923191
2.823322122958373
3.39196380576033
3.624538544443061
3.943015715371069
4.107526197371431
3.84051465949208
3.8411923783654176
3.796064600070014
3.5115889453325275
3.3794823281119126
3.341647267542044
3.4085943160657823
3.5782563223346107
3.8651581752366257
4.35901460606217
5.243346582465438
6.372370622901052
7.374479883805351
8.464421725270244
9.75105274642014
10.857412688605411
11.923507716065219
13.03772654878598
13.968671795017357
14.92614827541528
15.812610056706278
16.58632933777442
17.36166650609086
18.154916620323633
19.010064374783365
19.669082509283843
20.318709241650062
20.875563538936987
21.133236117981706
21.25872930181629
21.100027431816894
20.97454303930435
20.788770507767676
20.349011509279777
20.141929601260173
19.90440096668966
19.639029980232657
19.57830746054159
19.295900515221987
18.938800396715997
18.663244336786747
18.085299810512666
17.322162797073073
16.65344434638144
16.028425377644208
15.133240591994618
13.861866002370672
12.802837347242697
11.925965796988377
10.83039717877931
9.765172647629864
8.963113827705618
8.473506079263512
7.9590099965973575
7.275975493321129
6.866993760355247
6.743421535211307
6.538679372187966
6.266957504252286
6.074418229311201
6.050542531506996
6.092409645162367
6.063320364401387
6.3151070366605
6.543373287075379
6.4550651707538265
6.420387527073958
6.210979612163911
5.818380476157286
5.363906726928853
4.538154011730133
3.4728958342933924
2.9267679624171143
2.5578104488641604
1.7438128240373074
1.3083456137736518
0.9904030080031339
0.415554831525798
0.04148769963031408
-0.5262789103486165
-1.3198397993467008
-1.7310071683624269
-1.8262312996263246
-2.439283551846499
-3.1578645335025914
-3.3318277956737927
-3.3346257329579987
-3.3935041925671396
-3.5785127844743174
-3.339008046980935
-2.9940305926855357
-3.0064231943136646
-3.016135106362475
-3.2817067688858024
-3.4322093961231848
-3.375771712950582
-3.5986953526029133
-3.811869175267654
-3.6007901584240836
-3.305787152615905
-3.4248703152989317
-3.3389720530908673
-2.8749303137348465
-2.476538574117171
-1.8699528872873128
-1.0781490485402112
-0.5087898079834015
0.19428656537987937
1.094951039623163
1.4021832752067296
1.4436306359927598
1.6771577174557977
1.499544285362891
0.9428438343778534
0.49030804983872905
0.05151200844691284
-0.579369489933971
-1.2135465812038218
-1.5900250887795968
-1.7620051648722368
-1.7973562052319452
-1.8464581817416663
-1.9840680126524113
-2.127285489706086
-2.420336266529243
-2.6537385711905808
-2.9133941426509358
-3.3411073309358614
-3.497184789556895
-3.5392535133413388
-3.49812708530686
-3.313071486089427
-2.976519046211669
-2.2473666111064112
-1.6500375170044614
-1.1473617060966552
-0.3716334350637166
-0.015612342978354482
-0.047342658015982295
0.01630218172493142
-0.08509144856277202
-0.48282163210628687
-1.0014561893906453
-1.5237988097888178
-2.300475853708181
-3.234390019023558
-4.048314559857527
-4.95071911124243
-5.884363219312452
-6.963709372683728
-8.099441791365244
-9.109759617504706
-10.433628415436527
-11.734412183409708
-12.755632929189211
-13.787284913037771
-14.633865327420125
-15.317643838502114
-15.83689099734167
-16.136054219588534
-16.313070561513758
-16.20576217550682
-15.824781346400027
-15.444959364855208
-15.243356837149436
-14.97001802225772
-14.561777120164063
-14.514461462115367
-14.434975998694984
-13.984284230182736
-13.831588712822816
-13.836309936740069
-13.927120292066686
-14.519417482709736
-15.370398863543175
-16.152276423820865
-16.849881591346023
-17.602207640047695
-18.075498511091403
-18.10450617047638
-18.039417979143867
-17.661816134088134
-17.09115477617937
-16.799499704729563
-16.20069466531814
-15.311598783798397
-14.735447605386133
-13.966838470578713
-13.209164494825117
-12.839986432703293
-12.385997389754836
-11.974646518955655
-11.590591472164961
-11.04112818377576
-10.474414649001336
-9.947599016731138
-9.437597412280718
-8.932206215210114
-8.400197464527762
-7.568902351300872
-6.606494788979338
-5.611353366638682
-4.198869798428383
-2.6475228616056388
-1.2508033908408884
0.20772052037624145
1.5919742353555373
2.7172061577621998
3.827872861454708
4.851812196709558
5.7534310750687565
6.56189679288003
7.205188639749251
7.760488815263996
8.092944981677192
8.296937443301545
8.304006075235035
8.169025730398502
7.93065273504048
7.393133617363987
7.037817746473856
6.72157143130791
6.116796083778891
5.681930299232901
5.386818719916596
4.92865954389623
4.336622511095247
3.8512981678160694
3.609893712517725
3.3100696082595786
2.9738515831049765
2.8509132657884146
2.845325982030598
2.794965406852537
2.8178487462645765
3.126527479203807
3.2427006413470627
3.242141319563251
3.462592527169387
3.4131856622974963
3.2726682672079663
3.188026568000977
2.8645404751044254
2.40758676921313
1.9476818768349111
1.4141497771466576
0.8393824989866914
0.42860775781584814
-0.0847707709423365
-0.6648628903751038
-1.1130576603261462
-1.6817342302106197
-2.205427567008643
-2.609682965097301
-2.838401389728167
-3.0427896708600604
-3.300800703486509
-3.1308324888022874
-2.905581512054515
-2.783433071262337
-2.4706161018570145
-2.0603514224933948
-1.5052684561072256
-1.0229916087693467
-0.9196265381914535
-1.1348138860920054
-1.1608488687964054
-1.160553817571965
-1.468726550553742
-1.5720815072124867
-1.6343573433895862
-1.7871282833884221
-1.8997865443412782
-2.210877277067608
-2.527497501614639
-2.5586053251070835
-2.370002403895282
-2.1816983592343284
-1.7744379529975487
-1.0776280929299384
-0.5471542344071173
-0.23940016952308327
-0.08695657339638128
-0.12314861220118756
-0.1667806915521639
-0.2457123303492302
-0.5565185568636027
-0.93422141055687
-1.1047830592043741
-1.0387647520417436
-0.9785908611643102
-0.8842386073338953
-0.41111467012279873
0.1263151017992792
0.28864607022131494
0.2500625283422788
0.3688006113826503
0.6441381946016771
0.925201837160903
1.381771787539154
1.9713741799049398
2.6906045034478594
3.497585798060272
4.200229461176989
4.906263305356726
5.425308500938864
5.918889516221485
6.492827415109105
6.761204366324452
6.851440822126307
6.903717103131262
6.7839417070992365
