AAD_Filtered_TADAS_FILE
AAD_BASELINE_CORRECTION: BASELINE REMOVED
AAD_FILTER_TYPE: BUTTERWORTH
AAD_FILTER_ORDER: 1
AAD_LOW_CUT_FREQUENCY_HZ: 0.025
AAD_HIGH_CUT_FREQUENCY_HZ: 40.0
EVENT_NAME: 202302060117
EVENT_ID: 13194
EVENT_DATE_YYYYMMDD: 2023/02/06
EVENT_TIME_HHMMSS: 01:17:32.00000
EVENT_LATITUDE_DEGREE: 37.288
EVENT_LONGITUDE_DEGREE: 37.043
EVENT_DEPTH_KM: 8.6
HYPOCENTER_REFERENCE: AFAD
MAGNITUDE_W: 7.7
MAGNITUDE_W_REFERENCE: AFAD
MAGNITUDE_L: 
MAGNITUDE_L_REFERENCE: 
FOCAL_MECHANISM: 
NETWORK: TK
STATION_CODE: 2107
STATION_NAME: 
STATION_LATITUDE_DEGREE: 38.14594
STATION_LONGITUDE_DEGREE: 39.48379
STATION_ELEVATION_M: 714.0
LOCATION: Kahramanmaras_Pazarck_Turkiye
SENSOR_DEPTH_M: 
VS30_M/S: None
SITE_CLASSIFICATION_EC8: unknown
MORPHOLOGIC_CLASSIFICATION: 
EPICENTRAL_DISTANCE_KM: 234.92
EARTHQUAKE_BACKAZIMUTH_DEGREE: 
DATE_TIME_FIRST_SAMPLE_YYYYMMDD_HHMMSS: 2023/02/06 01:17:52.5013950
DATE_TIME_FIRST_SAMPLE_PRECISION: millisecond
SAMPLING_INTERVAL_S: 0.01
NDATA: 14501
DURATION_S: 
STREAM: HNE
UNITS: cm/s^2
INSTRUMENT: sensor = CMG-5T/GURALP | digitizer = 
INSTRUMENT_ANALOG/DIGITAL: 
INSTRUMENTAL_FREQUENCY_HZ: 
INSTRUMENTAL_DAMPING: 
FULL_SCALE_G: 
N_BIT_DIGITAL_CONVERTER: 
PGA_CM/S^2: 112.266
TIME_PGA_S: 
BASELINE_CORRECTION: BASELINE REMOVED
FILTER_TYPE: BUTTERWORTH
FILTER_ORDER: 
LOW_CUT_FREQUENCY_HZ: 
HIGH_CUT_FREQUENCY_HZ: 
LATE/NORMAL_TRIGGERED: 
DATABASE_VERSION: 
HEADER_FORMAT: DYNA 1.2
DATA_TYPE: Acceleration
PROCESSING: Automatic Paolucci et al., 2011
DATA_TIMESTAMP_YYYYMMDD_HHMMSS: 
DATA_LICENSE: U (unknown license)
DATA_CITATION: Turkish Accelerometric Archive v 1.0 - Disaster And Emergency Management Presidency, Earthquake Department
DATA_CREATOR: AFAD
ORIGINAL_DATA_MEDIATOR_CITATION: : AFAD - Disaster And Emergency Management Presidency
ORIGINAL_DATA_MEDIATOR: AFAD PROCESS SERVICE
ORIGINAL_DATA_CREATOR_CITATION: AFAD PROCESS SERVICE
ORIGINAL_DATA_CREATOR: network: TK
USER1: GuestUser
USER2: 
USER3: 
USER4: 
[...]
5.077932979969487
3.719611883599405
3.2143867125594596
2.382792155765347
-0.15969985939135356
-3.920325542897676
-6.796399380892834
-7.662390134270515
-7.012179001281262
-5.68195607821973
-4.1978390707888265
-2.593171047569448
-0.6567799199096452
1.1333680002136814
1.5835051902416193
-0.010901715435742225
-3.364763860545771
-7.152298892730234
-9.950812250200968
-11.574354410726041
-12.788694412404437
-14.140649130321433
-15.21447885750802
-15.07232987946291
-13.190435363010664
-9.576695310526357
-5.257312726975687
-1.9678447769373622
-0.4456856490920516
-0.43523311876863485
-1.1183683302685397
-1.3041400228888087
-0.031969650486006314
2.6395574206935786
5.345755380670835
6.725457586560962
6.655918146939629
6.093430671071161
5.7751307052896115
5.243035007723385
3.7260208204996923
1.1614876788052455
-1.48240098319397
-2.9117091174601115
-2.6243502052028833
-0.6887794364149084
2.678037137090711
7.125964053820656
12.059367103009027
16.589504828934345
19.998484426392245
21.849938995355913
22.149824281820948
21.367253824747998
19.866340552351215
17.75229138441527
15.006029346678192
11.898485025418351
8.291787007178431
3.59782331965361
-1.5757677955936777
-5.937672775928679
-8.822697482082166
-10.290827857226416
-11.210810647354158
-12.69556055554651
-15.006074082856022
-16.93008010790111
-17.180523169349513
-15.976120650547768
-14.414531159517464
-13.289240448161719
-12.206845979632856
-10.505567723286767
-8.588404173208799
-6.931209658484982
-5.437966194958056
-4.0100511361287605
-2.83598724521182
-2.2621488696202467
-1.5974363420866304
0.6805796813028828
4.79412593123869
9.35920774504095
12.689989964013106
14.446964037452664
15.824089262781003
17.988142647860162
21.22106618249506
24.831632265733585
27.46856859377338
28.889645091871643
29.919234802203757
30.057682664589073
27.93496946028782
22.75929116372642
14.91326786578253
6.2162906666919735
-1.0306288021088426
-5.351109035024213
-7.352259668761353
-8.813906267217423
-10.344590961270422
-10.98096894313874
-10.0293062462151
-8.297305660706046
-6.833647790394522
-6.108222126439115
-6.250824781225154
-6.820756599470668
-7.106795941494793
-6.674789837108386
-5.22135606717248
-3.7661194540540572
-4.140007857674128
-6.400736421787553
-8.632084770104074
-9.42570781147829
-9.573316248753033
-10.68312571417332
-13.572390769155136
-17.288307365974152
-19.9493080693346
-20.785570741310508
-20.37435890937424
-19.054117420022003
-16.906554671122016
-14.225104408271969
-11.760551844914453
-10.29877678476492
-9.276222759404336
-7.989325820613236
-6.1724340123994565
-4.264798576828522
-2.5942680989466194
-0.7637132044860978
1.8291054559694215
5.0502221512556424
7.725258462744703
9.64791277757705
11.503167232418313
13.436451372820219
15.098948170900698
16.751468106814254
18.75524825044521
20.884244144479908
22.748117700585354
23.794082787201972
23.583399732848996
21.654764348428966
17.396485579370665
11.09787581924713
4.269197911342226
-1.486004191775881
-6.17191025800802
-11.174873745939337
-16.798643667028724
-21.96837794502304
-25.63825792609966
-26.938045367264884
-25.39629290351949
-21.418405100311347
-16.02081409824875
-10.070718542143753
-4.188222485208045
0.9957632638796458
5.200067471204405
8.661557151621357
11.95035781190415
14.916657692296637
16.213036684914336
14.887735734030407
11.382110023515223
7.020798390900178
3.0425882768697092
-0.25856456869557143
-3.0918647534454737
-6.045361673506895
-9.629990978360304
-13.305483810045525
-16.428417722573244
-18.528899680436044
-19.415901711161812
-19.016290370663203
-16.963512003033014
-13.782576315671179
-10.40559400538361
-7.309941503972077
-4.413007686689209
-1.145786854495626
2.220458269761622
4.714544188006091
6.383405252027022
8.3244637003533
11.477132503053694
16.047736739846915
21.627937811344708
27.67843626847487
33.55939853552272
38.99032813851889
44.1656952028325
48.95068184130993
52.763904507655184
54.63052070940951
53.422052552024184
48.798387804123216
41.67802727580019
33.516350870665036
25.003402403193075
16.27701699032277
7.493656758001505
-1.6400634358042019
-11.170278647936426
-19.850071986834635
-25.826176440079905
-28.435936772206258
-28.40549334034422
-26.575847869092396
-23.160695530856405
-18.278562411084838
-12.317633544983451
-6.297746075832015
-1.0590817468882712
3.5122391142627056
7.998659481978297
12.907573272749033
18.238020612043893
23.231646250250147
25.997806962487022
25.159259030660863
20.65759217626488
13.686818252140961
5.354122427507407
-3.863997308181856
-12.770579961471615
-20.11448692692408
-25.479670549521146
-29.030924232929426
-30.72645807001249
-31.210533060449634
-31.39537372501811
-30.97718554840427
-29.56206534524874
-26.689725365395127
-21.916936134058766
-15.739259818516201
-9.36725390155828
-4.563431055095379
-1.8070739806973604
-0.5533377582854287
-0.8586989999824116
-2.3892646406088813
-4.515181116665834
-6.208535289590072
-6.305662747201596
-4.516656115430462
-2.2156910706585715
-0.9319691205432891
0.05219164438575889
2.6214004620302225
7.548843730173255
13.793407311635997
19.15649233667266
21.364437942948218
20.051751071157984
16.580366376623317
12.719457135176437
9.371296100329918
6.070848849730112
2.1851611640800033
-2.0035339195987496
-5.734086687251855
-8.63894428997753
-10.445866505128791
-11.22663833284871
-11.428222013077358
-11.482442042546188
-11.998105241063186
-13.409316563785747
-15.524979251239996
-17.563684964605084
-18.506923024483587
-17.970808048504704
-16.518874796866445
-14.704732871958704
-13.056553422923622
-12.167797952126893
-12.02377622624136
-12.22909258058109
-11.558436435221276
-8.909255738031012
-3.777878703449658
3.2686399400212274
9.773788601434173
13.701472289189313
15.294584708217599
15.748500287271451
15.782774591161584
15.819027631279862
15.889768075328396
15.91932011260088
16.685846444128053
18.9904340454897
22.70645450228114
26.927192938801703
30.43034767477964
32.494533598399485
32.673105577652144
30.05579964873098
23.97098851174854
15.498295039286017
7.052675214380248
0.6650613656588713
-3.195788041294524
-5.126005591070516
-5.512986640089785
-5.291021386763511
-4.806659221780975
-2.9385837196513482
0.31489777089501153
4.972886566964047
10.882631388400501
17.014216772290546
22.629924610841424
27.161616146214833
29.993264070118553
31.01924749414878
31.07153183322808
30.521341437197325
28.827663349864018
25.676524797743077
21.458044686989965
17.219988578821813
13.9220207796592
11.788801529923084
10.741510792325263
10.31147792662969
10.045095491831779
9.840101470062075
9.813345856873154
9.74819621400764
8.942270978057481
7.246199178327842
5.030752591338314
2.487416086171401
0.36851796307568135
-0.06741751841707364
1.6378710640124239
4.920830046941863
8.234569737326872
10.060820895977754
9.942726446137586
7.660145136438479
2.9983190608334005
-3.023942138861833
-9.303119409176848
-15.640277660612563
-21.313845531179126
-25.55924930649754
-28.59505967822512
-31.23877378607127
-33.811142651738294
-36.398752563261944
-38.89135636048195
-41.29828017793495
-43.10216345059063
-43.13770738550533
-41.1807607847913
-38.14488249433254
-35.995529169475816
-35.90215996287049
-37.27277849303086
-38.83519478291901
-39.48136215101917
-38.566517239660435
-35.93100963522289
-31.951383024925942
-27.432009134140298
-22.985062816106712
-18.626152833865866
-13.994896401681487
-8.43457939024713
-2.0171287232920205
3.755200242778172
7.409694531843711
8.326692958195531
6.603179454647848
3.0682666924691633
-1.0772263938938755
-4.600202098218279
-6.776949953753772
-7.2858405352126026
-6.101783417675903
-3.716893521362499
-0.6264232590659925
2.8469776448008535
6.245735300601254
8.927698330328107
10.46399014677158
10.749517641485172
10.241551735361478
10.175075507603923
11.581389060937989
13.829130062044158
15.233296240039381
14.840110238538779
13.060350260444645
10.96595195135085
9.414378112587713
8.717833748098634
8.763676337590733
9.123072718692384
8.402312417982026
5.313610043089635
0.45792814224408024
-4.676741101914104
-9.345687617966387
-13.357793989407078
-16.348798167755763
-17.679016142462025
-16.865287292279994
-14.68023252230637
-12.930167564453814
-12.515260891285111
-12.580120409690556
-11.745471394686284
-9.894155513440692
-8.38396977381496
-8.754219069002879
-10.99234065197654
-13.628249336669132
-15.415899765153158
-15.591024334562738
-13.755998761986524
-10.614248099369357
-7.34724217763716
-4.659278799316086
-2.9799790300832223
-1.9032235635510193
-0.4431430242952384
1.5564630292480188
3.3637744209472054
4.00293850109648
3.5365385072282756
3.036912938656926
3.1891592723385918
3.631000782781852
3.837948133027006
4.076331197040522
4.964687280594434
6.912987889293823
9.575507087069424
12.233081858952966
13.994061286518487
14.197520057568841
13.619223820475536
13.89503130495384
15.437020284904893
17.150022247930064
17.501332466431823
15.706689594781933
12.511569143986328
9.154789993012686
6.853807305487928
6.3812427170542785
7.65200706509949
9.810533008126539
11.617324608685603
12.324242050194107
11.751006094228787
9.910259130726272
7.119030200998456
4.775313369113576
4.359056671345315
6.076579466226231
9.149481333428007
12.44758825524525
14.856020023060783
15.659419606266328
15.171532264349601
14.025260724312476
12.55212884982538
11.05491865722209
9.642288876260329
8.154415506378824
6.3390174330207785
4.429768557054648
2.9712620531393936
2.3157181711644435
2.3852977355961
2.3715461910569875
1.38903211102677
-0.6051793240391637
-3.075457840879597
-5.707898286661764
-8.343192391908017
-10.87448639676998
-13.19863024685716
-14.585345872213024
-13.527016058859882
-9.137868550084457
-2.2887323330201292
5.114851387652027
11.355532183114398
15.278755506801547
16.345717834921
14.765556773226837
11.235174172399606
6.480482297083888
0.830692602071977
-5.269418364026417
-10.839057083565937
-15.241363540059274
-18.69552186050873
-21.179841505876347
-22.2918446492419
-22.41830546387075
-22.48918563901968
-23.188746446569127
-24.926319046845975
-27.36129947534953
-29.0864604812065
-28.49718585005549
-24.851363100637386
-18.676896186366072
-10.663665979108691
-1.3039308222897055
8.198513049137656
16.40303445970615
22.501168756065127
26.793527659948094
29.39338529470348
29.971762847457217
29.476621421572723
28.022611974489724
24.18151706141906
18.49767185993122
13.154332636657381
8.587902367384796
3.2090681255500817
-4.512446628197342
-13.947302262498946
-22.705297438586786
-28.811815016528495
-31.087024870047554
-29.861050488317552
-27.473420829728912
-25.7626047886949
-24.1566413543282
-22.279383241494685
-20.732160603160676
-19.365655499991686
-17.874908237713555
-16.074680961916407
-13.734709937596536
-10.181608291952456
-5.5538570317893265
-1.5291143187105427
0.381630244725619
0.13368776260941045
-0.6969123695252751
-0.6189324654597587
0.7928740359620293
3.152579251946016
5.245955666667869
6.234959478729864
6.533915052902011
6.771065287622759
6.542629605701421
4.9129447558065955
2.286196292959708
-0.6095602105538924
-3.7729529703102367
-7.285166033383229
-11.522977995714989
-16.305398654252638
-20.97268489963551
-24.8131486876026
-27.538614777458424
-29.552312650668792
-31.386420507552778
-33.43488402133215
-35.202972297290735
-35.87721110729489
-34.81526272748795
-31.845985525907135
-27.805257552725266
-23.769155717574105
-19.83965312952247
-15.918624429032803
-12.886139762139807
-11.613733636753555
-12.236109554177279
-14.252370898207795
-16.86315490498582
-19.52951242270573
-22.2246203335871
-24.808584589050767
-26.755783893241205
-27.804653117159194
-28.207986928652847
-28.38004257788873
-28.647482079187387
-28.582331270768723
-27.668655075716686
-26.32027214802606
-24.890402257465475
-23.132723364964505
-21.15382588908751
-19.49468283288232
-18.827984463747455
-19.634974042742552
-21.50755715028975
-23.760538041179274
-25.566150788130294
-26.646434963701203
-27.42648972476139
-28.405761792360675
-30.01481776073595
-32.2723000534064
-35.01253926131521
-37.88504370226792
-40.201018597004385
-41.02834855314448
-39.48614935822155
-36.22914208834947
-32.054415543062
-26.681902512385914
-20.296715159006908
-12.96343048134984
-4.973333855679856
1.3601758973385516
6.5400375887265465
12.006099533806628
15.54915217812404
17.8237713515609
20.14149320230785
21.197190330095562
20.772576766204015
20.16696762535013
20.22268613262572
21.70244128786511
24.537580898930976
27.734163395714617
30.16463412286565
31.364338211622872
31.32342894263141
30.836875863342573
31.36512304585152
33.61258730028626
37.403172960668364
41.56135871183125
45.993823585507464
51.06095032583479
56.71435515358428
62.62311764476052
69.19092972831952
76.7849534780011
85.20323299577791
94.21135747094789
102.4505812499089
108.36364620444408
111.6217761964148
112.36145501070797
111.2526599280733
109.55895931303185
107.46414069545544
103.96153407264978
99.24286658577677
93.39853551414494
86.11554544923885
79.0650494210854
73.22331071387272
67.91831884728266
62.92957156461533
58.93772692895494
56.04045035864221
53.397511331124406
50.24723773419188
46.563548891683325
42.162674203078105
37.51359126770318
34.1376891749857
31.77440876832287
28.571120836528667
23.75701076172561
17.367818886324624
9.57411692342569
1.5816585748565943
-5.778434559584804
-12.841842864474389
-19.270154553420756
-25.090380677045474
-30.796406050996584
-36.01660941768595
-41.07869852012446
-46.27632315195062
-50.672335870131015
-53.56539074181774
-53.972225584277304
-51.28606522755295
-46.44023170766361
-41.246105445575104
-37.038393172745536
-33.71856506116778
-31.53292054118054
-31.118717473261967
-32.4617361525791
-34.732481516810275
-36.770612182659185
-38.0353244226324
-38.11844492258636
-37.4644581522179
-36.824904665188434
-36.693297033078956
-37.76198025309657
-40.54820138683658
-44.91364932715103
-49.914694052484904
-55.16677502796153
-58.81429001162934
-60.4593021838294
-60.78853535083825
-59.57922650574623
-57.59727711183281
-55.65287625987683
-53.732652273700374
-51.54898559055781
-49.40674038459542
-48.35645684707669
-48.200263306373074
-48.311553526195645
-48.60653415320808
-48.41650128657108
-47.896227112092944
-46.74197648550958
-45.168537112610906
-44.10564937533948
-44.65594693935402
-46.80541259022782
-48.349788080155996
-47.769550404490005
-44.87351870238834
-39.96625860210098
-32.772888605298256
-23.042969169497837
-11.080653037414582
2.5397533552341742
16.939602733488865
32.00384807685335
47.364126076927455
62.056418240568306
74.72169582697715
83.9464833626802
89.53124685177924
92.10957960974785
92.36571408199022
91.01106380744486
87.75692909226572
82.17515306769185
74.42731490803462
65.00826215105259
55.00478041462276
45.37914016040805
35.902012610179995
26.228556473717916
16.436401794116577
5.225886190890797
-7.816289583648088
-21.31832121631482
-34.24044805413841
-44.83665532243681
-51.853495982213616
-55.76870509845734
-57.22953683170688
-56.75233401516122
-55.22738185968247
-53.4774600899646
-51.86981149730722
-50.606819466564495
-50.02522381956927
-50.077404457202725
-49.880694362712745
-49.45332767150865
-48.87125629131593
-47.54995811867031
-44.062826452713324
-38.2566791596551
-32.284932893714455
-27.00786797823671
-21.85162498268717
-15.821900400081214
-8.599297783337128
-1.2857610937523964
5.247387886853734
10.003175220739582
11.60234876071164
9.618328582113591
4.535558580018726
-2.2824706992070234
-9.087592057940233
-14.211618610950053
-16.254681161984788
-15.038650879373938
-11.807736205416916
-7.929053354876398
-3.4885766197336974
1.7949406513638715
7.109002962074697
11.884251691235118
15.846261750684913
18.805150734752658
20.577831451348786
21.393526838908784
21.464557701576183
20.773902350853202
20.593911604102672
22.48725312244437
26.246620680237687
30.71990230615936
35.80342386231611
41.69742148151296
47.71250648888671
52.59053636489086
55.25931918870502
54.727794525163326
50.030274393328384
41.84134873305576
31.52741819238008
20.799802990758575
12.581523287283163
8.005943409787443
7.209151178937747
9.26927428970002
12.523297226810985
15.632826699542326
18.666147792139917
20.580627830579797
18.84075182218959
13.647071007386979
7.664388199922759
3.025749893859071
-0.9729779058753576
-4.74612413431691
-8.021139550169321
-11.351004042133214
-15.362367533610277
-19.653344355251424
-24.006383467509075
-28.079872581031896
-31.472755550531627
-34.20558430521501
-35.754753201229924
-35.295386621655176
-32.45426769207475
-26.903579063063287
-18.49670821997746
-8.325917184718215
3.0310101950087165
14.582086203845774
24.68586219471587
32.729096928756974
38.17580548162301
40.45649241894362
39.702233285069724
35.850481383387915
29.386316645465183
20.96561729842812
10.449241502771866
-1.9706205388740556
-15.609661493397843
-29.716423427354496
-42.97645510358044
-53.25298107241413
-59.01511393888746
-60.21547079870851
-58.59108774674535
-55.37731838887312
-51.280619849290666
-46.260010323891464
-40.41489837940723
-35.18841832607135
-32.3716057317931
-32.305087105498274
-31.86170925017696
-28.126601464372296
-21.051897161566465
-12.354191414407511
-3.739630392027174
3.6785493673604046
9.536171812374713
14.42702760084896
18.45752461204348
21.631332468958934
23.981822981504564
24.00342879819563
21.660361021389892
20.007568348297262
21.37301798113708
25.579479963059732
31.338636884982186
37.25186913468758
42.227124958062525
44.938392160371826
43.59495291121791
37.37698512281336
26.64368974582932
14.067570840984855
3.6152137678113196
-3.3901378870658743
-7.931287574311458
-12.138871827854326
-18.164122572264297
-26.295881031749598
-34.33169695108769
-39.36658706332985
-41.29051493904464
-41.715947543395885
-40.69410471732028
-37.380480467858874
-30.731994607037127
-20.57445520558944
-8.936021071041802
2.0263426403526
11.6364236891624
19.540150940263445
25.468817802764637
30.22244915202279
34.49378777926339
38.06120191873502
41.141063798105954
44.11217175594656
46.33598297794956
47.57375147794541
48.19685775013985
47.60802119725125
44.942337484436216
39.82125215404347
32.8347061127017
24.55430868296882
15.80869224646571
8.61927706713488
3.9497121205224732
0.8824754270462742
-1.9714369188353194
-5.287845194837704
-9.26491805626148
-14.141877939711076
-19.058204021376184
-23.069735380348245
