AAD_Filtered_TADAS_FILE
AAD_BASELINE_CORRECTION: BASELINE REMOVED
AAD_FILTER_TYPE: BUTTERWORTH
AAD_FILTER_ORDER: 1
AAD_LOW_CUT_FREQUENCY_HZ: 0.025
AAD_HIGH_CUT_FREQUENCY_HZ: 40.0
EVENT_NAME: 202302060117
EVENT_ID: 13194
EVENT_DATE_YYYYMMDD: 2023/02/06
EVENT_TIME_HHMMSS: 01:17:32.00000
EVENT_LATITUDE_DEGREE: 37.288
EVENT_LONGITUDE_DEGREE: 37.043
EVENT_DEPTH_KM: 8.6
HYPOCENTER_REFERENCE: AFAD
MAGNITUDE_W: 7.7
MAGNITUDE_W_REFERENCE: AFAD
MAGNITUDE_L: 
MAGNITUDE_L_REFERENCE: 
FOCAL_MECHANISM: 
NETWORK: TK
STATION_CODE: 0210
STATION_NAME: 
STATION_LATITUDE_DEGREE: 37.7672
STATION_LONGITUDE_DEGREE: 38.2866
STATION_ELEVATION_M: 741.0
LOCATION: Kahramanmaras_Pazarck_Turkiye
SENSOR_DEPTH_M: 
VS30_M/S: None
SITE_CLASSIFICATION_EC8: unknown
MORPHOLOGIC_CLASSIFICATION: 
EPICENTRAL_DISTANCE_KM: 121.92
EARTHQUAKE_BACKAZIMUTH_DEGREE: 
DATE_TIME_FIRST_SAMPLE_YYYYMMDD_HHMMSS: 2023/02/06 01:17:33.0591560
DATE_TIME_FIRST_SAMPLE_PRECISION: millisecond
SAMPLING_INTERVAL_S: 0.01
NDATA: 3540
DURATION_S: 
STREAM: HNZ
UNITS: cm/s^2
INSTRUMENT: sensor = ACEBOX/SARA | digitizer = 
INSTRUMENT_ANALOG/DIGITAL: 
INSTRUMENTAL_FREQUENCY_HZ: 
INSTRUMENTAL_DAMPING: 
FULL_SCALE_G: 
N_BIT_DIGITAL_CONVERTER: 
PGA_CM/S^2: 42.133
TIME_PGA_S: 
BASELINE_CORRECTION: BASELINE REMOVED
FILTER_TYPE: BUTTERWORTH
FILTER_ORDER: 
LOW_CUT_FREQUENCY_HZ: 
HIGH_CUT_FREQUENCY_HZ: 
LATE/NORMAL_TRIGGERED: 
DATABASE_VERSION: 
HEADER_FORMAT: DYNA 1.2
DATA_TYPE: Acceleration
PROCESSING: Automatic Paolucci et al., 2011
DATA_TIMESTAMP_YYYYMMDD_HHMMSS: 
DATA_LICENSE: U (unknown license)
DATA_CITATION: Turkish Accelerometric Archive v 1.0 - Disaster And Emergency Management Presidency, Earthquake Department
DATA_CREATOR: AFAD
ORIGINAL_DATA_MEDIATOR_CITATION: : AFAD - Disaster And Emergency Management Presidency
ORIGINAL_DATA_MEDIATOR: AFAD PROCESS SERVICE
ORIGINAL_DATA_CREATOR_CITATION: AFAD PROCESS SERVICE
ORIGINAL_DATA_CREATOR: network: TK
USER1: GuestUser
USER2: 
USER3: 
USER4: 
[...]
-1.3004086269694888
-2.0624530206638725
-1.1570334015648642
0.006959741173906853
0.8695237046751632
1.5990614178160365
0.9874544379580309
-0.056951507551927946
0.330416358501032
1.271849155254043
1.2630527685168562
0.5076674040846361
-0.5919225742454415
-1.3604446517966273
0.06505930993199503
3.56435985683874
5.878205270966807
4.7117682972631165
1.3469904399018264
-1.524252690484687
-2.300266453762742
-0.30706418643387734
1.70844505001488
0.24916151533540054
-0.8410249133115848
1.040792682975113
1.892080903408851
2.697932551762396
3.958085522248429
1.4737057742086581
-1.1364665339545468
-0.49714266304332005
-1.080304215675908
-2.023357059050301
0.08428708471450302
1.769624661229356
0.6364569386833959
-0.012274383684074713
1.5677813319791638
2.6968337786669014
2.5412772690359247
3.030014510983303
3.3394874869180633
3.3865206400287415
5.20021753452351
6.414693500843782
5.4563558071776885
5.262428120910434
4.929229290150548
2.4058323107009976
0.06458180727749654
-1.343939331008951
-2.9497613632298663
-3.478189995626822
-2.519815566558836
-2.080681626756902
-2.168212570047306
-0.8303503387031174
0.8364934193429825
1.2070009483022153
2.316806514632834
3.865384941942147
2.8576318169139436
0.43018012945675743
-0.710709174491423
-0.048600573058290714
1.3414129419828424
2.3904132855506197
3.854760126773037
4.481210503702477
2.107640952695952
-0.12270119163353921
-0.6982241582449614
-3.5830565496428033
-7.363861102422462
-5.563924061222406
1.096170020633006
6.220472877276149
8.513536026197894
9.135678624323647
6.0508800844726585
1.6996242121944183
1.8551729963730794
3.4210361930298845
1.1185709296677677
-2.7141850296101815
-6.035629460175126
-9.268345677038168
-11.221394746475516
-10.730992212734048
-7.050648922878803
-2.8238887357578446
-2.717015071524272
-6.155351697987505
-10.139708491767921
-11.661901008896793
-10.03310992333656
-9.297250090960963
-5.911248185845423
4.107677013902512
9.301722629288179
6.505875054589646
5.423296905654914
2.8950204987364634
-3.3381052026032023
-5.27092820677786
-5.392149830326279
-9.050440305116275
-12.754726802203079
-15.165440819959928
-15.725392892470222
-11.459747082735813
-6.714991907199557
-6.311766657283167
-4.825346358429314
-0.8112968887715878
0.19323478557808604
0.14519070904233533
3.0885027268846854
6.322454865327643
3.239415830334625
-6.951589678757789
-13.69370382629205
-12.905516542641449
-10.622633424392635
-7.857621619879045
-6.8658559154186065
-10.036335897212627
-12.184632496652258
-11.710285882026296
-10.326420499908897
-5.98671965687021
0.6849431078809486
5.879275375459002
9.4361355294705
11.502211360525857
9.193899811888096
4.604315075967068
4.043227624326453
6.370928570850533
4.564233260832496
-1.5968243222448713
-7.199451439554946
-11.904137220654322
-12.208675978175428
-3.5426441984237846
4.894963068934152
7.087512628637522
10.873291229665893
14.063488741349468
5.93503751990296
-5.612346030214742
-4.23260200133133
2.4235710806688076
1.0857502205722265
2.455300292332277
11.235118858185002
12.978149900665821
8.142928590881786
8.218409410873525
9.756814988077005
4.540401536248353
-3.5920158576509715
-8.107170629242173
-10.833575058105339
-13.160672359697639
-11.66392528737069
-4.755143805227345
4.090128974174111
6.304756252113267
3.6037996743471714
6.56047569910663
7.866041324130783
2.3526357600818395
1.3032988514633368
-1.7867360647838801
-13.796100784875739
-18.30221588222641
-11.871695529504825
-5.208204915754846
4.086826754795192
14.851238015869082
15.024669574270114
7.3412505350529305
0.9572232097766129
-6.231877837171172
-13.031033536673716
-16.58174309256944
-16.65526015016026
-13.374916771848863
-12.991542480434882
-7.919137498199858
8.35279108983864
13.831245051797719
6.908881387824239
6.440571648066886
1.8659502275675097
-11.358427626512782
-13.267848687964893
-5.262010588512982
-0.5675400351731367
0.9631166955424586
0.10694303973937593
3.4235567199578667
12.912657183733124
14.62782838049486
11.192814798099093
10.197544645790618
7.465052545033986
5.616658523125537
-1.7915104165641156
-11.028994999099677
-1.0096102674947398
13.004258570159347
14.039348372747252
13.898314195107268
6.497568270857537
-7.830108243320799
-6.173429496605192
6.10630961877946
9.00616814092963
6.990423484525213
6.417970829121994
0.39971195908876656
-2.625921044712106
9.30675335592886
15.99431387317797
9.283060584865202
12.90690439785138
18.190427408533857
5.522628487506609
-7.06840591770706
-9.549910072486405
-5.9917374574076385
10.191791177698263
25.194009090204343
17.280251604863967
2.5474112716998314
0.6969036215739997
-4.833500527201748
-21.982942016305472
-27.79760437038123
-17.192257301797987
-8.610773406739645
-2.9506416336148695
5.305893773127818
-0.7685536481101962
-17.18999790376502
-10.408414930832215
8.01891280971774
10.619193059117903
11.910673284204504
11.935970764144438
-2.022780602131801
-14.641471819322538
-17.050053278691546
-12.664731210231613
-4.283381321969391
0.818961705543055
6.7720395513952605
16.387941753982567
14.116210565314685
0.4215780024006526
-6.998703919855598
-8.667271491208341
-9.309514836316934
-5.018664094621749
-0.542555146924466
-1.8718221973168976
-6.247800801736815
-5.732340899017503
4.56633043950201
15.710278562507051
15.356591478381466
4.096442497683216
-6.743861478874976
-10.300204399400279
-7.336739898740103
0.07940518405519215
0.3341318088957593
-8.923715871402836
-8.18764310567123
0.09535965679968168
-2.9239529321663387
-10.663589767518815
-13.261644591641724
-16.42931315932338
-18.1398016984929
-11.436325916665345
-5.28442988586267
-5.2385220884568096
-2.8018058968848143
-2.227167250080125
-6.500975142754899
-7.409023427963352
-9.0546898951805
-9.55830144392643
-4.407846773315404
-3.908886819690979
-1.7759024649578596
9.372097504224529
12.560754504682743
5.232824310679101
1.4112933691378924
-1.437901363430699
-5.988952683561677
0.20931505440378675
9.11209161725715
2.9750749148164894
4.080479790377696
20.45899526396592
11.139881185311703
-14.478762572200276
-6.886715287203116
13.251949519246107
12.065650555185965
13.302820910887462
21.460455893876375
14.50533838642275
3.604625496451266
0.6275912922598434
-1.856002577292018
0.876084128499474
13.018440858371894
21.963995127409078
18.65819096100259
6.725058709322027
-5.8229202189078135
-9.708488312579243
-2.7316734879576634
2.7881503453164296
-0.6580845946938267
-3.903082614038475
-4.722566915265118
-9.428987183077554
-9.419004013450815
0.2734181719375858
3.6313272342669216
-2.253052559920691
-3.796062755379123
-3.656145765638392
-7.39354724834796
-5.077271596140707
5.739862253540499
13.55052835980248
11.596202464670148
2.339220532499552
-7.722001071402734
-15.067945170672498
-17.099430731227468
-7.242603636232767
6.268577397139097
7.503648480908767
4.059130950567776
3.624314687004262
-3.102410539096446
-5.703405325546317
12.119870862101578
22.543154668348965
5.633464431059138
-4.745501498703587
-8.481773521279282
-29.178218530826516
-31.7856355990818
-5.8042329141378675
1.9071948689733866
-9.96259165211951
-2.679670517665647
5.964390386741406
-20.41636909318176
-28.14269268231516
8.001460409825464
15.286598849048701
5.0182931099798695
25.686107827115308
30.160138673681303
-4.414868228700808
-27.297758339571516
-11.856729984444959
11.238421347182465
16.157789026138566
8.822037675137047
-4.0410556383219545
-5.564522213977112
1.546588021923579
-4.214755279979536
-5.184373413161235
-0.8034966228188607
-8.973745186083184
-7.504742158267325
5.2482988265944766
7.4917085293727546
6.071699971761847
8.146768977742838
9.696891155852505
10.24695242282625
7.583907863265048
2.9684624147609187
6.267817932585741
18.250864155646937
19.716535283398773
1.7287414838770838
-14.925770379818886
-14.629036252337103
-6.273485079520223
-0.6070111336862649
1.3663322728022707
-0.5045718795917902
-12.360712611595467
-29.0864263122156
-28.394915749174622
-13.908597857327473
-8.486354516494906
-4.2984254431407605
5.955829047357958
8.577382576728098
-0.0506020965225524
-17.682847296092476
-24.904341124531683
-3.5523203082276678
18.008189680325575
19.450808248015218
15.626766424960934
8.151148852087145
-7.688430823518848
-18.093836707596353
-8.074673953405513
7.0373708535369195
10.170472227791752
17.057643696527002
22.719855079907493
7.456931563399788
-8.444028921496999
-11.03534577258639
-17.116687287728073
-22.17221154146163
-4.1134220564577175
21.205435346223222
21.778826254303493
7.779685238682505
-1.9470139402530378
-8.464729778786456
-11.261245980779048
-11.147068860437235
-8.281937846096591
-8.351653426087239
-14.595011096524937
-13.39425908537457
-13.038213470415409
-17.497796705996457
-2.7180492877513514
9.451429718456623
-3.5348665539033783
-5.438637583142469
3.2720967087131076
-4.617065297279375
-9.855764752700738
-5.218187983059179
-3.1579058976822867
1.7427038276981819
2.407370699960405
-2.9873036939070206
0.8321119592637315
5.24256297858101
4.627390422792151
9.2636013637615
6.648829579447625
-6.796376765230735
-8.475271591951978
1.8896422786256715
7.0977465996458315
4.281747825486471
0.6673111970403376
-7.235667819985982
-24.90427748093415
-26.70016018206771
-5.768371062756623
-2.0409117057678987
-8.587043908711873
11.123735641148727
27.28940366115936
7.674483159306929
-12.147336578888073
-10.703245237741092
-15.096710318763085
-22.510085281477938
-9.51472554580656
9.203540722175939
8.794454139220491
-11.787556504395901
-28.534536602617962
-19.370695623674084
-1.6052985126301391
2.928079303740364
4.695796147272562
10.37216669430637
12.067202357600955
7.543643180427849
-1.38686233113791
-7.143928881034249
-8.93109907983991
-8.066230398191193
7.650057772604672
20.899629385482758
10.729641591825589
4.539204454799547
6.4277338024664115
-2.982757028038923
-2.5609116691146223
10.352634858257888
6.89909042265594
1.934251461591519
11.364862199765813
6.7984498498414485
-6.663336425441505
-4.121220056910352
-3.844503970051953
-9.81393718426113
-2.189303104259346
14.307413063894229
23.267539061438022
15.758403107187714
8.241346322317924
20.459132562075887
29.199117741636854
17.799810199664027
9.551063915822793
2.2966348953381437
-16.677715112972223
-15.01266989460105
6.92295531174212
0.7072526883574977
-12.573781570490475
7.5387629236331275
17.203360920447142
-2.2355764576994814
-0.30149217669480777
10.823853664283872
-8.226361084839565
-15.229565824755687
11.717266547751299
19.292781017401964
-3.7783002495841718
-15.474003965471692
-3.650546680224194
6.7936765392981595
3.99802492454252
3.1340665973408277
6.2823473302545505
3.8532326951999796
-1.278658526767015
-7.573709876963081
-12.946495865149803
-16.19102866224282
-16.786975544733526
-5.773516559308823
-0.43744157772021086
-20.8650725388024
-37.73994668463166
-29.89332456159875
-8.521145745261395
16.14120367309429
28.849685640317116
27.429177222630123
13.16390187766734
-8.309021598470538
-4.721148372549179
7.038384524277929
-3.5874331877728656
-5.433966395213026
1.1512303824737056
-7.032621619898449
-18.954799791924216
-25.64327600758666
-17.51266295739277
-1.1038041456793264
4.0850674361446
3.001464966759004
-0.9479724862911326
-14.761946773820538
-29.191107123872253
-17.6824406528559
15.513455522145758
23.739549970415137
5.939990504017156
6.8513605285502415
12.260642746792975
-15.434167047250563
-35.038051816551956
-5.658819627027376
23.431080366281424
17.835225221756566
11.435955519106042
8.608368869421277
-11.360180419634036
-22.65117979631328
-6.955811053454361
5.811551456881464
0.815776176207796
-1.1576936563408187
12.769054043533393
16.26840694389697
-3.1852552305662702
-4.394506926759651
10.407743041953957
3.4922881343249386
6.031488761415597
31.915362258920297
28.983266674702147
7.348516046135353
15.801803486758994
26.660297743829286
14.607241057518639
11.493346148091092
13.425691388006456
6.255760260353156
5.733894904208923
-0.48276264956046877
-10.87231296031767
-0.9046383518243668
5.561332844514832
-6.4914605719861775
-8.984827286995543
1.3468338061071161
5.406228456076987
-2.149033909237831
-10.834627749969485
-10.163428535892377
-7.906638520270866
-10.705291565675878
-3.5440670637771117
14.564355022821164
14.255864165718261
2.521542226569639
10.424726319714797
8.583956989064353
-14.191390768325961
-10.875467552402785
5.440998662950544
-3.211796616500582
-12.65862655106491
1.5569416125794322
12.952846502651251
1.9787538602077608
4.073101449949234
20.190788415083155
8.182655692202099
-0.8425695245961942
14.342967933150389
2.6656034720661514
-20.253682876756745
-7.2349369860794335
4.6382462505027275
-13.887965101389215
-19.661881190666456
0.9358851010199928
-0.7095684440287552
-27.336194080328998
-24.234044515479958
-0.3676840044230927
-1.6865938726111414
-3.1981378513191405
16.56570901473071
22.5085462805601
11.11683185293219
7.464504095858087
7.839151493081295
2.0165101067924414
-1.3244748878185248
2.865643717793299
2.72063341476588
-2.7757048320951325
-1.4131168262862235
5.589943779202286
8.77885256362783
3.7343815958218034
-2.703085584326385
2.6787762164676843
12.384414637664024
6.866269390715334
-4.261494159961186
-6.214815685782185
-8.93338980351785
0.3651829510599679
27.730146375482043
30.92079588377422
11.791646600886395
0.42148918095034765
-7.512945564515965
-1.8431976763177293
8.99609313575616
4.410881966419699
1.3722172303769997
-0.8169900781759327
-2.51845965822707
-3.6955898779777083
-22.038444919776246
-26.855904653088178
-5.0306867747179895
6.627831703000621
10.385786376971131
12.4967946823266
-0.42621128871027203
-16.30636727733284
-17.835478074369526
-7.309975687034748
7.202546877229058
15.532628673808574
3.4909945025229514
-12.783348849516539
-11.876704341311083
-16.7793823553146
-23.958597745330675
-6.771497160267253
8.791941530430792
6.515888096136264
7.753198586254831
13.703479222220356
7.029162755630547
-12.369066580262633
-17.80154180609922
-11.398328935434526
-22.267341947810184
-25.736391523321466
-3.31328077683414
4.612123485781424
1.2489536807113373
12.364937621477692
9.030507542674645
-11.202241887262236
-11.060274484654554
1.9243622069890125
0.4880496389783374
-7.311059690609111
-3.4777780174958557
1.294126559026556
-4.034333842930401
-5.856598675060098
-2.645508571893242
0.4856842618790351
4.009654766154874
-0.37690372291504937
-6.00865669139735
-3.516417851505109
2.285300736824194
6.411085230234124
0.6503054500018945
-2.6547236188663366
8.363351100195922
10.727733475582472
1.8425305349533572
3.2491117988742095
10.15860261462975
2.9177747909557605
-12.521859654184517
-8.58676555976425
10.188066665615525
16.157831829709302
9.590872592499068
3.6176672096039426
1.7030701194838826
-0.022354427552675166
0.3355117973501681
8.98313410641363
15.56666767386135
15.761158740929737
11.739177965097594
-7.63806779919421
-26.58201202107861
-16.542616983252778
6.785054581085534
14.02142298512511
9.433088603386034
6.117107421457783
-2.474890263189737
-10.579085578106652
-5.346380000514754
-1.8456651815786147
0.03876338105400637
13.222487714868713
17.27211539544136
4.396591872827492
-5.265930690346316
-4.6359571736162835
0.9143467717502736
6.15153348518059
13.611658763407823
12.393336055461257
-8.771501759418179
-11.466026099915974
11.998512894982973
9.72829082847277
-4.488303336635849
4.078172094515228
5.3376313346196556
-2.8732737932892825
3.0390922918311354
0.9012022442425915
-14.706227861577915
-8.243709561001419
18.3982472159109
27.63126108725655
20.2383626959936
14.979471685586677
2.3436366424486197
-6.761390898198116
4.4084925477712895
10.320128259113385
7.607568088269887
10.61045543262344
4.739573832701063
-6.051780726082291
-12.384683246613006
-19.197761672284027
-13.048312611397073
3.631227056260952
14.671352573344933
23.111477432485742
24.737827538014518
13.920038128509615
-5.200621894017383
-19.166276502644607
-7.295501713006407
11.902226320720127
9.137823118006056
-1.8341842801641752
-8.822165903705592
-4.58255902348131
16.21037095124827
20.775771894965924
4.707420168666467
8.144764072257995
15.906344400322379
-6.1183573292038265
-24.888759577719068
-5.203470688850493
19.33044725427349
5.937491205820362
-13.947909345738594
-3.6200042921628666
-2.5838152422818577
-19.782666653142513
-9.480667388736823
16.158321744574668
19.507797089276636
11.09081778522657
13.4342141447888
5.558952914797181
-23.50234930498423
-22.022179662843406
12.321677185741361
24.304683273865287
18.738972848533766
22.889008341500894
13.731717628030248
-30.33817023165329
-46.85077881148697
-0.43705429247559135
18.66134050638802
-6.833590187975184
-6.672233652591646
2.979639295129994
-3.864048298104751
-8.331655538304917
-6.3977257733853
-2.3572378398194274
1.6410885071322183
5.79809803659464
5.764517305910108
4.387894460702312
5.880328962527243
-8.03522535009594
-24.01548095890494
-18.94482717263554
-25.712908752124655
-41.20466750328038
-27.858750024659344
-18.797312432040314
-27.921090611263764
-14.989087911299562
1.3435561606940025
-5.702165559059329
-7.343071972423082
8.12702661088177
20.071846282112485
21.75535822578048
21.72838050901659
15.68818062672933
0.7643445117104338
-5.0175931063524875
2.5228347441791743
0.35460138516413636
-15.234354606736341
-3.80404336322031
27.128300463232826
11.449321165094819
-14.79702160224016
6.205925829947486
12.552378553183331
-7.65351261371254
5.5036064439624965
26.989670169314603
13.354279147593752
-1.1583276586174212
12.967761661564488
12.481203639389522
-7.724050647413541
4.71183235556217
17.4727434874355
-0.8698435199339082
7.11426103195152
31.318343100876472
9.277732998130503
-22.854594584590547
-7.236367926442756
3.1871004406157946
-2.121634264001358
0.5826138682409528
-0.7944424041739562
-0.09274249123566286
-0.4498294077452385
-0.26763832373273067
-0.36012180776239977
-0.31270419685499645
-0.3365439610530867
-0.3240904067248917
-0.3301230147506071
-0.3267406011292789
-0.32815425313753
-0.32712574587598353
-0.3273417696533103
-0.3269245579195344
-0.32683052448842287
-0.32657253198360525
-0.3263986961805744
-0.3261826416711796
-0.32598873503598697
-0.3257841910214242
-0.32558570733987563
-0.3253847782301234
-0.325185734978764
-0.32498637049839874
-0.32478780793500717
-0.3245894742271027
-0.32439166025495836
-0.32419421686344274
-0.3239972190250376
-0.323800627557442
-0.3236044614231042
