AAD_Filtered_TADAS_FILE
AAD_BASELINE_CORRECTION: BASELINE REMOVED
AAD_FILTER_TYPE: BUTTERWORTH
AAD_FILTER_ORDER: 1
AAD_LOW_CUT_FREQUENCY_HZ: 0.025
AAD_HIGH_CUT_FREQUENCY_HZ: 40.0
EVENT_NAME: 202302060117
EVENT_ID: 13194
EVENT_DATE_YYYYMMDD: 2023/02/06
EVENT_TIME_HHMMSS: 01:17:32.00000
EVENT_LATITUDE_DEGREE: 37.288
EVENT_LONGITUDE_DEGREE: 37.043
EVENT_DEPTH_KM: 8.6
HYPOCENTER_REFERENCE: AFAD
MAGNITUDE_W: 7.7
MAGNITUDE_W_REFERENCE: AFAD
MAGNITUDE_L: 
MAGNITUDE_L_REFERENCE: 
FOCAL_MECHANISM: 
NETWORK: TK
STATION_CODE: 4404
STATION_NAME: 
STATION_LATITUDE_DEGREE: 38.19588
STATION_LONGITUDE_DEGREE: 38.87385
STATION_ELEVATION_M: 1255.0
LOCATION: Kahramanmaras_Pazarck_Turkiye
SENSOR_DEPTH_M: 
VS30_M/S: 1380
SITE_CLASSIFICATION_EC8: unknown
MORPHOLOGIC_CLASSIFICATION: 
EPICENTRAL_DISTANCE_KM: 190.02
EARTHQUAKE_BACKAZIMUTH_DEGREE: 
DATE_TIME_FIRST_SAMPLE_YYYYMMDD_HHMMSS: 2023/02/06 01:17:44.7714990
DATE_TIME_FIRST_SAMPLE_PRECISION: millisecond
SAMPLING_INTERVAL_S: 0.01
NDATA: 13501
DURATION_S: 
STREAM: HNZ
UNITS: cm/s^2
INSTRUMENT: sensor = CMG-5T/GURALP | digitizer = 
INSTRUMENT_ANALOG/DIGITAL: 
INSTRUMENTAL_FREQUENCY_HZ: 
INSTRUMENTAL_DAMPING: 
FULL_SCALE_G: 
N_BIT_DIGITAL_CONVERTER: 
PGA_CM/S^2: 96.942
TIME_PGA_S: 
BASELINE_CORRECTION: BASELINE REMOVED
FILTER_TYPE: BUTTERWORTH
FILTER_ORDER: 
LOW_CUT_FREQUENCY_HZ: 
HIGH_CUT_FREQUENCY_HZ: 
LATE/NORMAL_TRIGGERED: 
DATABASE_VERSION: 
HEADER_FORMAT: DYNA 1.2
DATA_TYPE: Acceleration
PROCESSING: Automatic Paolucci et al., 2011
DATA_TIMESTAMP_YYYYMMDD_HHMMSS: 
DATA_LICENSE: U (unknown license)
DATA_CITATION: Turkish Accelerometric Archive v 1.0 - Disaster And Emergency Management Presidency, Earthquake Department
DATA_CREATOR: AFAD
ORIGINAL_DATA_MEDIATOR_CITATION: : AFAD - Disaster And Emergency Management Presidency
ORIGINAL_DATA_MEDIATOR: AFAD PROCESS SERVICE
ORIGINAL_DATA_CREATOR_CITATION: AFAD PROCESS SERVICE
ORIGINAL_DATA_CREATOR: network: TK
USER1: GuestUser
USER2: 
USER3: 
USER4: 
[...]
15.767249790959497
18.485317569257976
20.502349444340087
21.842666414466315
22.679379838423547
22.813647859574548
22.053280569252244
20.64822738428903
18.258197171501376
14.83207428135142
11.123156684268777
7.816695066895998
5.353406304983738
3.8821783650787443
3.0376818120731497
2.7525468869982874
3.3034390028039837
4.584411975294506
6.121605784497504
7.5033195779220705
8.764479098442404
9.539129583746275
9.193091178790958
7.691254330844243
5.434207335909772
2.542659385585815
-1.0462168273401202
-4.888894820874078
-8.654160482970633
-11.866272460345241
-14.084663142323084
-15.816874016793891
-17.2154236539618
-17.84712724723262
-17.54185357418815
-16.151636941551388
-13.45116122304306
-9.760353934236448
-5.458025284109593
-0.5427575058252662
4.069337051812673
7.397424080500716
9.740189208536927
11.440074685968268
12.194771740815305
12.443891520974892
12.663848508845055
12.276200695369333
11.348006107838735
11.046966542128327
12.070804241405185
14.132300760802543
17.057638236250742
20.871946261432665
24.54437229848549
26.80198210522307
27.475161984785892
27.36335367982253
27.326105257534145
27.418579586528537
27.571833457773057
27.701978156772412
27.667625625648256
27.053602023902343
24.863727627678195
21.253049851676685
17.644531947088137
15.02678628216658
14.007724052896057
14.363515714341162
15.039348147368113
15.308680526167606
14.564980659411557
12.490378391559037
9.698823221030311
6.977386527124319
4.794468058123704
3.358834292749201
1.884859703070493
-0.3871045881013148
-2.7915700894855138
-5.088038966232953
-7.348054950545473
-9.577039664899486
-11.857559229680358
-12.939272940658206
-12.514731649890713
-11.6362535536028
-10.179243442940335
-8.173290909355996
-7.432526809950997
-7.939445262259817
-8.502189225691195
-9.57255379147555
-11.64012264463633
-13.745037596807151
-15.044441060984486
-15.400460896746788
-14.832164631618909
-14.180688117754826
-14.413308529697945
-15.348465321738177
-16.58505115455857
-17.748399917229435
-17.71669175757149
-16.165857941763935
-13.730677558945583
-11.455565094512135
-11.126401889687365
-13.014814162401745
-15.401429968961558
-16.673364458772813
-15.92263228722849
-13.510342724896146
-10.299063504827485
-6.472594286492274
-2.6841783672782995
-1.048145195919196
-0.7752967654373031
-1.5518136648546912
-4.52128970606489
-8.596126196254259
-11.30949580837717
-9.586106711867236
-4.428339947485097
0.1528531524561006
0.6552914122986464
-2.777999446286049
-7.103577121100289
-10.06956817481292
-10.526924038241717
-7.988967582662998
-1.7974865262880564
5.720041629390284
10.057526773885174
10.791925424021269
11.060814240115528
12.349138300475618
13.741983078330124
14.755287628167466
14.896075218916758
13.910146510494936
13.540115984482197
14.116547304544046
12.858098037959751
11.046135505885204
9.912641853735938
7.181191026631834
3.555906521009356
-0.552371969153081
-4.886181906895915
-6.605560360372702
-5.811218740666077
-4.697742284897182
-0.7169424821742217
5.686249171412085
10.438814128628305
13.70054861355933
14.97246440195001
13.845318556387527
10.95553262810506
6.578120381769941
3.2745845591272684
1.499622336530326
-0.5480800326995424
-3.40652703580205
-7.2287177407010565
-10.536332920469238
-13.460457022580883
-18.840399003111852
-25.31056169201785
-30.728948235884918
-34.2447339011443
-33.448993076804
-28.315004687850017
-18.677549400617465
-6.328378290249403
4.5111696048310685
12.429713742692776
12.650596339404483
2.810688848364147
-9.127893974957711
-18.197690325748304
-24.224962097103358
-24.494529881096962
-19.115490956192794
-11.31040408383442
-3.7084821939761476
2.078080377429803
2.17089045732502
-3.8452975048878124
-10.405402194180866
-13.201704057653448
-13.71571011061996
-13.811104425198556
-10.322598470478106
-5.483690576980866
-3.214390374727571
-4.4868566334447
-10.566112262803067
-18.302317748778258
-21.271957845795466
-17.57196995271004
-12.125104659899305
-5.228335492178979
4.008002162546748
8.361518663628411
8.919017921597046
5.972989786476761
-2.7158205165502074
-10.008997684818924
-14.165643197445469
-18.509928578023306
-19.02358826692022
-14.669972743156542
-10.261380871175982
-5.205571187170533
-1.469888786888274
0.738310118446902
3.580206238760347
6.626825490242352
7.601374437123928
3.1458750101640125
-4.337377607385116
-10.296045744436526
-12.861568143682641
-10.677329651037454
-2.38012275797444
8.75939452373956
15.892956144123762
17.476123784739016
15.549242918686
11.123364933698824
8.60503074545654
8.45119644313469
7.882263992888605
9.200156151975847
8.96727372817859
6.086378873604054
3.7578942987656414
3.8838081152599755
6.30298489424776
6.048602052088184
4.019461963339773
2.438310899473093
2.026557096138601
1.6425577237084927
-0.818320609923168
-1.3096058968496904
0.8299316849644874
2.664940987155784
5.775260464306294
6.4761544372837445
2.2790237486636187
-1.1973727531568945
-3.3470100512416163
-3.710344467695453
0.9769560135797916
6.593777618718704
10.423174734949265
9.864724144151019
3.493322901221202
-4.833441759126169
-11.85815231634214
-14.065127990464225
-12.02749619306284
-7.502367849885569
-6.1418159308158895
-9.151725739220744
-9.822906049449573
-7.092404965686017
-6.502283369869539
-3.336632322997092
6.342028716544725
14.301986044881739
18.504780695398622
17.249824721994823
10.165143042906868
1.1350915088701485
-7.406418778263646
-16.270897279729287
-18.422410284470185
-12.05855462614309
-9.292411171575202
-6.773959171216652
-1.7011418237768205
0.7839606171195207
1.9826356379900199
0.6863668011077219
-1.3371170477745427
1.2039361479653659
4.3134982497775
4.448022731593651
-0.12467465284262032
-7.011394239894023
-12.07540283044739
-17.420166731751348
-20.872528942817663
-20.520731430746963
-16.081303535776396
-12.004349775456335
-11.401908731878923
-10.195957844869055
-7.89247346814258
-8.069340305898386
-6.433037665045132
-1.232789611867933
-1.9574049536789373
-6.994222058049348
-6.555870007690207
-7.136219824354255
-14.19600075543257
-18.50381102422121
-20.030007498441083
-21.127925047885828
-21.272935212130772
-14.507015653250384
-4.069365162348311
2.4355611609305883
7.337039748102905
11.434134176031378
15.025933406974547
22.278656752842643
31.802044359887354
29.39694865346533
21.188992251700327
14.90601567802692
8.355515642438869
1.0530785695978158
-3.3617812529142586
-0.5139920090163325
7.036929683407102
12.513341923484065
17.656862108290856
24.66042954996963
23.894905766611842
14.839000889804815
14.93370877003624
24.372932828782123
26.044044843685494
24.413990322687734
22.105195879032436
17.00618025016543
14.873351813734685
11.880390444919902
7.0163639025758675
8.617596016271431
7.038308749514002
3.3849687818372676
3.5078148206899513
0.02772265690385826
-1.1137741878891458
4.122259209324103
9.585890325592095
11.922357655427778
12.551253272873215
7.651261910630049
2.473118561028847
7.996519969327357
4.38854216238154
-7.424058164919374
-5.423287359423372
1.2257411931828148
-0.7538638948867611
3.3821019905557073
11.655143549031685
5.323367545026723
-0.16272981302240372
-4.162277553985265
-6.355131092820153
3.352179307363221
8.427707939444865
4.5692067966104455
6.979911948706033
9.385706780772223
10.902698759420339
25.98631465717988
35.87632346200065
36.87080354686003
43.240483764995304
29.263438491689683
-3.246407302605555
-21.483562707391055
-24.195806193035093
-18.14369172787366
-13.610925035437102
-26.04703620831808
-40.06407459299049
-36.10128391454114
-34.051194614777536
-37.82173656262214
-33.17530034367191
-19.518336621666812
-0.1809055644002837
11.403324402788877
18.55568005008538
22.187106338267117
19.29382818371094
13.305666876277042
11.625384206833047
13.517931287935209
8.674530824269896
8.942695545441888
9.086672200116386
1.778122778336023
6.047865985175266
12.26541169955314
5.135775775850835
-8.877429275711474
-9.808467883405028
-7.5698078698378035
-22.376494393511045
-10.541217448329455
16.90718616191529
20.974700816328507
21.9127908927268
16.10240428576025
-5.055359508485702
-15.437568811544077
-22.501029117689153
-33.00982204207531
-29.166410670779534
-19.37487480637567
-8.290232279210949
2.788688325423992
6.325518637519911
3.351069936509075
-4.833237328307871
-9.776709316349809
-10.818951882004363
-17.054237707190808
-18.806468504760907
-13.628523336328833
-12.39747572388206
-18.268037878734916
-20.662217168970916
-14.84438948008759
-8.825650106416496
-12.952869150352024
-15.870059424009089
-8.674638200069381
-3.5100635773414455
-2.2408776241609782
-8.959563447491105
-14.9077024483901
-18.37365267642755
-29.96533085092182
-31.724353472829357
-20.24059792599647
-16.947108442089284
-15.433010744600724
-7.116350042225868
-7.380577281442987
-11.34949200481249
-10.336547915385632
-11.441148571317948
-13.998602916499252
-13.594678146849846
-10.62587840209238
-4.953782702687338
3.2824586158120392
5.40038218590368
2.5701765064752298
3.7553040876196984
-3.5878225376620017
-17.929546244166673
-28.00984212446051
-39.7923521724019
-45.94881204269668
-40.2303099806138
-32.96226472217961
-30.182180799760722
-20.199150749346334
-12.587043586048631
-20.934004859455737
-28.735798991363968
-30.78964482525761
-31.516417020491925
-29.603615222081544
-27.65054803963948
-21.29527607921845
-10.688481274024081
-7.451648149361655
-7.776354043901754
-9.717918557836098
-11.931144656123864
-13.947920627878153
-17.599979239653475
-16.49732902868581
-13.56477390694186
-12.058114433970227
-16.473930135682192
-25.75216288908394
-35.179785514841896
-40.38763865906512
-38.38629077490675
-29.79663218569235
-17.397493946417836
-12.552477664502412
-9.470767909270592
2.5364751730472817
6.2931094249601145
-9.346720731146528
-23.699505168273227
-23.382498255626167
-27.075346747987382
-35.86923230353934
-23.03438156271034
-3.653485917495785
11.768065537109747
41.44451559686433
56.96315896564589
35.601813787602566
15.890352038276216
10.670971982178095
3.49463334871928
-0.5049427472802424
9.24232029026924
26.049144809063513
48.582002870538794
67.24468603305458
67.26230623840206
62.338532060418466
48.71833259206593
28.17680929381492
20.145402725309115
7.455540227070074
0.9003138371902899
20.360922708917567
35.5059040558007
58.425231323931826
78.24587360930391
72.22137595088465
76.68554569639122
73.13736029450739
29.01566719108252
3.875884995621097
4.077787542404714
-4.378811491707181
13.037135160057055
40.4148902944662
42.32003797112401
30.274100110042255
22.689568665208956
17.17134601831434
9.561806521117887
10.344192168289796
13.462603792693475
9.507756466014019
13.923294267619324
38.547869847439685
31.290215541143134
9.478877204170734
28.68847005471637
17.04036208802099
-29.108936876878733
-37.16310946314557
-34.551996623542024
-33.12120507883066
-3.2414444940861826
26.281511968334605
37.03542776244122
38.96361431165156
35.5050773716521
28.467024162304426
14.273724411799014
6.618833401602615
-0.2890442050338324
-17.84774341097379
-19.266902311146026
-26.221206456340525
-46.95585373592914
-43.63396682806481
-36.913004728414585
-31.87598985129701
-5.714462745022834
14.186317454413214
18.123308447160547
26.07987950162564
26.758300373829073
15.257451607050568
12.87481781261578
8.032255974570363
4.991520110853803
11.982436805012007
12.062360328894036
15.971285075268916
12.207274720745176
-4.195600155747693
-22.797800256724535
-23.677742137643353
-25.77833515114867
-36.597327879164986
-16.9572923668448
-1.9948990716265402
0.18827812458686272
12.032590593266235
14.932233542019945
8.44763240560356
2.9774323114063934
-5.30102818067068
-14.286810233328962
-15.280349533391517
-11.639291218579723
-11.319609413543462
-14.270402737894566
-15.782308368226502
-13.089218170429215
-8.833002335293193
-5.228967135612521
-4.411384820626444
-7.342447818596738
-18.19024246519381
-24.653542253365217
-25.154494497658995
-31.919239464900006
-33.385806271817344
-31.38007836636239
-33.15347266241307
-35.99387344066777
-36.742502005975126
-28.718562859287083
-17.574905096514808
-15.84788754045858
-14.427652266508739
-8.450816524824164
-1.1269166589064838
9.20657691714103
11.812430315227795
10.798441144112397
15.720565005776166
27.46950046342525
37.067027091761844
39.18008310202125
45.84449954260748
47.12456589368085
39.09551410555612
35.782789772723746
44.057928447051225
52.852637011999384
56.26204239747611
58.755757103334304
45.999041683255456
30.759697563848967
26.22522935923701
13.434929683222975
6.625035250655762
21.84433225740482
36.345294229850644
41.13564744677447
43.833586183484535
34.230409913599324
23.678393165520305
21.875908758008904
16.3168111747382
8.307916382482283
-5.229849915751717
-23.064227558365065
-32.09874388187692
-24.571290937691067
-6.93614215870232
3.993238792336581
21.476267547098892
55.05668079808192
82.24983116032611
94.91155082345048
91.35199394691085
81.40270397667693
62.53549267719889
30.542251264280086
-2.2090837947926185
-34.492512081091206
-57.749461070399796
-64.69692606432629
-53.44192398619862
-32.8989613289894
-15.734036968429223
-1.6600223828519074
7.223653952809875
8.237786237960595
6.159425692064079
0.6858208654279533
-7.118190921616159
-13.527930956665175
-18.315948563133475
-15.795486386054698
-12.965276671556252
-14.738619713325077
-15.159978375481204
-17.088852834223356
-23.00077880582922
-29.38462644600879
-38.330897860317954
-42.71226077023254
-35.19972497804551
-28.975646706807453
-20.767732223148784
-6.7042228745531585
-0.6411979202511184
-0.5961519337038105
1.0571861066816939
2.461444495594305
0.15507762582578807
-1.024946672789393
3.5310127225795105
9.253236557834462
14.978480709900268
14.796422232205789
8.462253821024149
2.0673301325396074
-4.434353970510584
-5.233062440455525
-6.887233642135612
-12.540643010594192
-19.15058095003302
-26.280283003581886
-26.014735817278893
-20.912382626277942
-16.325383334643742
-10.639672000933333
-0.4993943103158809
10.157519571511887
12.461745473825406
11.774186437056274
14.337806648942179
14.641632919608181
18.686555844492414
20.143985496165214
9.025825022757044
-1.0494943252363789
-11.824655549538287
-27.564845422671315
-37.85250565718955
-38.15103646594769
-31.52619197970955
-19.1454093750819
-6.925298375901897
-4.4237226701126495
-4.536781791813997
-6.941002565608295
-15.4219591587798
-22.410272913991825
-19.97212747592034
-9.78771576651564
-1.3876239513825301
8.208753227798919
18.562283543751562
26.715084989293977
37.582014442045335
47.836953828349415
52.93439596103608
48.74500212940773
42.534019089198146
40.588968913538515
33.15305161470631
20.537412536430224
7.505205193090067
-4.1381652873688495
-15.550581150264856
-26.95522352561525
-34.78578008742445
-38.63082911614227
-40.64279913203587
-43.62912010780908
-45.955521905220294
-42.66969920706045
-38.99622496890743
-36.92115361808642
-32.763265969342484
-25.763143850825493
-17.229241394601395
-8.878397319669373
0.46421861432669825
5.800070632945963
8.651703153913148
14.514763865337455
17.457857208374307
15.116055248344077
9.853364086511483
2.3679252769480814
-2.466445483143686
-5.690064107723725
-10.745442964775386
-15.078835251153407
-20.229142777383544
-28.2690632429911
-36.41072118433526
-42.14106197181278
-43.41814133506286
-39.1376854530775
-30.314054947695027
-19.90884465390034
-10.701020148697536
-2.672993440921009
3.7727672422950795
6.750625855801596
6.288158092339763
6.579851329734242
6.71610282070464
3.7047449124252796
1.1188148032728231
2.084306005218492
7.535665958888597
12.259337430091342
12.527988589475248
10.220229724776226
6.567944553327728
3.067538372649657
-1.6864586181570025
-6.992439983970198
-7.63542035456676
-6.685211629610338
-7.234208222106316
-6.221875503196652
-6.282769043236831
-11.890140290041193
-21.292015639824278
-29.443230679303174
-34.637905343665224
-35.580767185838695
-31.536688849772993
-23.538864337871484
-13.118824575316955
-3.367135826371854
1.9094328418093098
3.0466960672956387
4.321657531600244
5.090749965774204
3.9842593469693597
2.512598941237374
1.646853782137657
2.6130718749328405
3.9311520269808202
3.3456299228947253
0.8414914396029117
-3.3530092101484135
-7.286948005723979
-7.426442111261327
-6.872888065231629
-7.913058909727412
-7.9904299125318605
-8.274507271126431
-9.935365940472622
-12.862634075066895
-16.380054683188277
-19.476567297079974
-22.370770571244197
-23.881598019821006
-23.50492692746616
-21.023653793232093
-16.736594986551864
-14.197171681970815
-11.60666740912611
-8.871885780870421
-10.262229961930615
-13.018620080489766
-11.141655672085768
-7.26199760181437
-6.656168598462331
-7.347523136891203
-7.020931609863576
-6.131285980827504
-7.810734899867906
-10.585757530034096
-11.59631442902445
-12.795062009645234
-14.64573473916751
-14.487470382173667
-10.750216162268273
-6.44558249980526
-2.4906990818368877
-0.41581279786545994
-1.4402849353296368
-4.6360403259264995
-10.35108640980768
-14.541079463665678
-16.1807957613391
-17.23237587171852
-15.065594229861237
-9.084856765877218
-2.7479302430053116
0.9995043089930817
2.2152766532967445
1.78991737923372
-0.6539053567917046
-3.504513063500795
-6.255316785821928
-8.970773166248621
-8.67254278864592
-5.589108353395848
-1.9287158035914067
1.187904872320282
5.027121145706515
7.351372403213283
6.324970541963715
3.6924412249387775
-1.8222561709087675
-7.738220523609455
-12.687675920743976
-16.11943461313073
-17.831743014391662
-20.518011539339184
-23.198245396457327
-23.663240322305665
-23.35481908999648
-24.0947760401242
-23.379326240951258
-20.580673146320716
-16.331362773766404
-10.640555387298981
-4.102848808773751
3.3721752904989972
9.807768695230278
13.300460905383053
15.679975483021456
19.544537244515514
23.1213190583779
23.52438659993198
21.596295955856448
19.334191260127078
16.88363537388682
14.661462585272577
14.525633077454028
16.219240260855038
18.590984607032215
21.544100824014276
24.442834587868933
24.75271849327439
22.036786026090173
19.016158996717184
15.721869605811358
12.965207057602637
11.745293838697938
11.409372450207652
11.030773734576066
9.002886177327694
5.833302234677818
2.6088250767124523
0.9646012197322881
2.8955934577446323
5.292695803644797
3.8482354943384594
1.8930705538597077
0.45686780801618965
-4.027458464027925
-10.693439887103661
-17.40703093408925
-22.439897512493346
