AAD_Filtered_TADAS_FILE
AAD_BASELINE_CORRECTION: BASELINE REMOVED
AAD_FILTER_TYPE: BUTTERWORTH
AAD_FILTER_ORDER: 1
AAD_LOW_CUT_FREQUENCY_HZ: 0.025
AAD_HIGH_CUT_FREQUENCY_HZ: 40.0
EVENT_NAME: 202302061024
EVENT_ID: 13207
EVENT_DATE_YYYYMMDD: 2023/02/06
EVENT_TIME_HHMMSS: 10:24:47.00000
EVENT_LATITUDE_DEGREE: 38.089
EVENT_LONGITUDE_DEGREE: 37.239
EVENT_DEPTH_KM: 7.0
HYPOCENTER_REFERENCE: AFAD
MAGNITUDE_W: 7.6
MAGNITUDE_W_REFERENCE: AFAD
MAGNITUDE_L: 
MAGNITUDE_L_REFERENCE: 
FOCAL_MECHANISM: 
NETWORK: TK
STATION_CODE: 4615
STATION_NAME: 
STATION_LATITUDE_DEGREE: 37.38676
STATION_LONGITUDE_DEGREE: 37.13803
STATION_ELEVATION_M: 581.0
LOCATION: Kahramanmaras_Elbistan_Turkiye
SENSOR_DEPTH_M: 
VS30_M/S: 484
SITE_CLASSIFICATION_EC8: B
MORPHOLOGIC_CLASSIFICATION: 
EPICENTRAL_DISTANCE_KM: 78.59
EARTHQUAKE_BACKAZIMUTH_DEGREE: 
DATE_TIME_FIRST_SAMPLE_YYYYMMDD_HHMMSS: 2023/02/06 10:24:38.0959290
DATE_TIME_FIRST_SAMPLE_PRECISION: millisecond
SAMPLING_INTERVAL_S: 0.01
NDATA: 11251
DURATION_S: 
STREAM: HNZ
UNITS: cm/s^2
INSTRUMENT: sensor = GMS+/GEOSIG | digitizer = 
INSTRUMENT_ANALOG/DIGITAL: 
INSTRUMENTAL_FREQUENCY_HZ: 
INSTRUMENTAL_DAMPING: 
FULL_SCALE_G: 
N_BIT_DIGITAL_CONVERTER: 
PGA_CM/S^2: 41.670
TIME_PGA_S: 
BASELINE_CORRECTION: BASELINE REMOVED
FILTER_TYPE: BUTTERWORTH
FILTER_ORDER: 
LOW_CUT_FREQUENCY_HZ: 
HIGH_CUT_FREQUENCY_HZ: 
LATE/NORMAL_TRIGGERED: 
DATABASE_VERSION: 
HEADER_FORMAT: DYNA 1.2
DATA_TYPE: Acceleration
PROCESSING: Automatic Paolucci et al., 2011
DATA_TIMESTAMP_YYYYMMDD_HHMMSS: 
DATA_LICENSE: U (unknown license)
DATA_CITATION: Turkish Accelerometric Archive v 1.0 - Disaster And Emergency Management Presidency, Earthquake Department
DATA_CREATOR: AFAD
ORIGINAL_DATA_MEDIATOR_CITATION: : AFAD - Disaster And Emergency Management Presidency
ORIGINAL_DATA_MEDIATOR: AFAD PROCESS SERVICE
ORIGINAL_DATA_CREATOR_CITATION: AFAD PROCESS SERVICE
ORIGINAL_DATA_CREATOR: network: TK
USER1: GuestUser
USER2: 
USER3: 
USER4: 
[...]
1.8711211522116002
4.612820832694138
8.996718135633087
12.756709689484033
13.752420574192659
11.190246234780645
5.820184134036643
0.08189491916686155
-3.4901161882125837
-3.3106107603413637
-1.725274233284538
-2.612423540618089
-4.217296961707253
-3.8218296632117035
-3.518167348801692
-5.5191673872118345
-8.753219998256984
-11.891766991987852
-13.247879594138933
-8.88207069266198
0.8960996365596569
10.321247040939443
14.581601788491612
13.512799464873268
10.242951058674926
5.463472662331717
-0.03039032794145898
-3.029103410891989
-2.84264890304688
-1.2110121503497773
0.6861902989868947
2.522219872270961
3.1175044920335204
1.4707238257471298
-1.0461900480784496
-1.980378165452012
-0.7680173945433172
0.6963351757850972
1.1164060288225177
0.34231104969777154
-2.047510167080688
-5.45414882400957
-8.04289797228159
-9.355028352745574
-10.361012679818256
-10.189902589992068
-6.908946377277299
-0.7085826821323624
6.118154899029497
10.702949249740977
11.300739794543812
7.555401118873485
1.2996752196899584
-3.7941128004395424
-5.9028588625678315
-5.298494331950773
-3.2287383377664067
-1.2832775795096711
-0.5794420346895325
-2.703522976762462
-7.63625362300031
-12.617115434386989
-14.617580878998625
-11.680537611636819
-4.688337539907302
2.3413838388397323
5.8904388813600015
6.3846611583003225
5.377171625626356
2.9073804594689
-0.593577630289456
-4.58286765572609
-7.387009086226382
-7.413591100373088
-4.587494086848297
1.279677222154089
7.258356499737256
9.461817205318317
7.62602395721398
4.026984053304233
1.3486283260610203
0.24359350559068385
0.5825796366643684
0.902174173397478
-1.4136576470119349
-6.102435012975681
-10.586156403531295
-11.576159599594826
-7.067403732198246
1.3662697889088338
8.891020923983309
10.51873029810394
7.08774342259374
3.851327630330076
3.3141377725411796
5.789213429640368
8.866770280037729
6.781069046141576
-0.6150206588938409
-7.241035773687242
-9.89653729099448
-9.069516087036614
-5.817152514567191
-1.842998388589624
1.0963388525084639
1.4031449292696836
0.15674999825108252
0.4498762435134118
0.9471109431254945
0.009366221331535642
-2.5000203162900445
-6.46472080505735
-7.695712881874063
-4.670274902471689
-0.10202820297202105
3.9108364125113533
6.186527763931193
6.895760448960173
6.379826259466782
6.120387174092596
5.962329468990056
4.479906531246408
3.6750729388266157
3.4653120541214104
1.833077485349291
-0.37820610529203974
-2.62404544878248
-5.045273882308739
-7.579654743243477
-10.050094983443413
-11.459953643535442
-10.987001242153003
-8.540877441969885
-5.637997487258691
-3.569524826583141
-1.481922975263759
1.349466442043753
4.925072997514806
9.40397319204007
13.261834025664228
13.340153183003022
10.49035038031742
8.245248589429456
7.338124775430966
7.299253533817343
7.687122424533906
7.218507580059727
4.53575631225198
0.5522159262140588
-2.6167636123944065
-3.2751938842191866
-0.29355173039176097
4.575008541801519
7.836851173654491
6.619171425172356
1.5701951356018724
-3.0657550953541697
-4.588871877652608
-3.405296743407754
-2.1549807864564428
-2.5807578747396667
-3.512957762195554
-2.5066462907068723
1.5782975745199557
6.811455208750711
10.711780915852307
11.91645711496161
9.871129395447074
5.167345520422196
0.6878603389189967
-1.4211999025202786
-2.4180914922362446
-2.9644326706512185
-3.509944584506672
-3.418777056344821
-1.1022943013989988
1.2630363622460616
1.2079090970285795
-0.7652586889731366
-2.8154244730960682
-3.2488061188681066
-1.612925950687948
0.6608326743226071
1.7082210758174377
0.8004351816050166
-1.7834704786863942
-3.870970827749822
-3.541448331275889
-0.6217125719943747
3.054320270515928
3.98385947830296
2.041017139777781
-0.5179231281930315
-2.024497988939682
-0.8593315993610082
1.5640419110657984
1.2261235692181605
-2.8383051963537094
-6.78828867281424
-6.859403021333925
-3.021915581154993
1.9077197159325685
4.71847152099835
4.365158200719713
1.0429266817414353
-3.6749799581180835
-6.294923253614745
-5.782349440614209
-3.26623740961967
1.1828691025896394
5.697067852124705
7.685559805120842
7.187692092930147
4.183078975521531
-0.02801269620168365
-3.876373775896308
-8.558219522532717
-11.6324417248095
-9.280703332349018
-3.7186133012178626
0.6356268649288617
1.37373963279529
-0.6444571741553881
-1.9548883696458168
-2.1559591477809956
-2.5570498073986836
-1.9357546080003536
-1.795489423522616
-3.5295776329878388
-4.858326370212281
-5.880037527849714
-6.0816718116512964
-3.1489426794405886
1.7312743266031294
5.3068366599277494
5.5450233931898385
3.5740605012518833
1.7117546418730032
-0.1978662781596954
-1.8557304362427292
-2.1871887267443775
-2.4611581020110953
-2.1049806752121527
0.45353818636164395
3.3745377205132803
5.952626026309424
7.934057513747727
7.293807567883081
5.2113140087353305
4.448724026720522
5.602863859589722
8.247926141595656
10.20141848123707
8.43123012190537
2.603234570865972
-4.59781493705997
-9.1339986778587
-9.50375184905457
-7.2736951060412665
-4.043710313162673
-2.2872181184700646
-2.9487346723927668
-3.0269931487703507
-0.35782834307654154
3.487716885136732
5.655915239322101
3.177761193478738
-3.3885104458430404
-8.258400453641228
-9.161386449693016
-7.902415428522741
-5.695993734904336
-4.365153686978439
-4.306827255242095
-4.164635720000542
-3.7060849607010047
-4.130933247997351
-4.7405583512163885
-3.215484024619923
-0.583169415771252
1.1790739605657015
2.2647353749753725
2.6767522082451403
2.6797394509948496
3.3797793234484677
5.055255603457517
7.4586386951592
10.223852031724396
11.173816489223375
8.390416229659358
4.149926529222744
1.0108028714818753
-1.1352372855392863
-2.29739623868109
-2.274649007773499
-1.6520730820982044
-2.100152265864226
-4.230871731995381
-6.188587370390684
-5.99716136808401
-3.3440678099876764
0.10839978890825713
2.9320177847432976
5.612403913993153
8.408063185515486
9.929949968278653
10.519498583995956
10.710065506991064
9.055167501644867
6.002433520891915
1.5648195144759984
-2.937442716517388
-5.00164025585402
-5.511071681333056
-3.546070054335287
1.1751427193544557
4.8669747277238296
4.75474176780898
0.8238544924000875
-3.4125664394195807
-4.553955456146823
-2.3013946358855826
2.2524112619654515
4.5872908661282015
2.786154051826775
-0.9503153564276028
-4.332488008792532
-3.253549201018601
-1.0196916306731938
-1.7894242159737812
-2.466882163688608
-3.821352310874669
-6.197518152942864
-5.949629848242249
-3.9605819867576706
-2.727085134794038
-0.1122355151280961
3.1268923989903676
4.64738581531265
5.251731116061914
5.005818264248488
6.151975246319632
8.17045363592913
8.095080875474906
5.137973331142718
0.07635917635104689
-2.30715102269156
-1.4171846429636046
0.9033253910114973
2.2441696728300395
-0.40726486869002265
-2.660993199983539
-2.0278118411827513
-0.14544017620216518
0.530763775475338
-0.7803281101515633
-1.6811786074288693
-2.664294689901376
-3.659674598905037
-3.8200061464917194
-1.7677208377998186
0.2607511551203513
0.2738907002250922
2.314271468944336
2.1383838327557383
-2.238086458655486
-5.250205485331086
-6.366195456750197
-5.836880163965683
-5.101577592025447
-4.233925573058539
-2.8382299942086706
-0.3381257675816869
4.157050757203476
6.9958995306641105
8.539336198480662
9.051469396452855
6.341160815418798
2.1100927911993113
0.433273261282903
3.0838445578790323
5.411409547961108
6.196417870725354
4.961949865998847
-0.05046094113822306
-3.389579278408237
-3.337172300281638
-2.0321798808518414
1.937956386448492
5.2957489460490175
3.3019144481347253
-1.4563748544950386
-5.203144859076226
-4.828430390220747
-0.17520595527022687
3.3145777442759403
6.28031934572566
10.119976393308152
10.194818159690708
6.998421493730445
1.9292745992754197
-1.8672908525445877
0.7780887304123808
3.0667348897793114
-0.5496607714475099
-5.945354301039997
-12.769347609747435
-16.0585590552222
-10.503575641205055
-3.915969696474686
-0.5820161957904257
1.0007361855703607
3.410134737671925
4.418864002133545
-0.6588931811837044
-3.1433507589420135
-2.867812475094083
-3.2131399664225078
-0.17808509058212574
3.362229275807299
6.867432482313576
6.640025717234506
3.5591264100579467
1.8047705183578981
-3.0445187877523603
-9.237454875201504
-10.333685505446288
-1.1819295732435204
11.913065788208316
16.87013926415989
12.082893043986736
3.538735684405045
0.1047879702054759
3.078552387570101
7.574181523502848
13.900763592456693
14.840187699004982
4.473919552394803
1.2168747552552892
4.055720449924655
-1.9257979128600442
-7.576172492955394
-9.842972259179039
-9.886782598065672
-9.015794474028409
-7.054006865404064
0.4864661279902539
2.2663898196823355
-7.585424286961072
-14.698924915640294
-11.122438329200603
-4.991252576355195
-5.196934689227863
-4.872134484591997
7.94942690384897
15.977899397864551
8.507555269521657
-0.6571142643217902
-14.345449579429355
-18.933502844768558
-3.1617312428643563
7.880084633779641
6.721387229501497
-4.740986854756826
-21.4310507452131
-22.47395603051923
-13.16555827583198
-5.92677459107188
1.046711097434672
2.8444264414833387
1.0358947657163784
-0.3083362924576582
0.8058638548565493
2.7086646759239446
6.3684548369702405
15.072695866947642
10.841943301600013
-0.9453912028830176
-5.725662517684916
-13.579675063656172
-9.43332999457567
6.655362907280133
12.755645789995414
15.67933920881
20.92902747151937
24.540998912601356
17.342645646125643
-1.8587428049949208
-14.277180790516091
-22.151796867466015
-23.143021819600282
-1.421188398224815
13.361201316552116
14.726390556318943
21.28620236465631
13.187221990431302
-1.8372713698423322
-4.316164437594945
5.909671575381835
17.512135085037638
16.451670558400192
17.29464990173859
17.87282886262124
6.0133236402723345
-3.2720477968464747
-1.8193513709679614
-4.823497682436086
-18.013543697914177
-26.715227524879005
-30.289693930042972
-27.595060293545526
-15.940462250665343
-7.963367650124075
-2.7304881519381827
1.3399382292820061
-1.1121380828512712
-0.49501121693094285
6.240883821879776
6.689552785344793
5.377490255923981
15.397261525862204
27.08927891453253
25.52324685335663
17.995587764475392
22.03867624330848
27.020668704906903
22.540948358246226
19.677588836795948
14.289899562189746
5.32031175259093
-6.4918769925049284
-16.392783452411322
-17.150758747653356
-19.686596345654714
-19.760121180619137
-11.881810615654699
-4.554822460712348
-1.6057425522516025
-0.023518885472144174
-1.8295063222844288
-9.900947678395038
-11.028611599329073
-6.857321332314284
-0.8396540737552084
12.855331298395814
20.99935378867966
19.382627975301375
16.07321837379402
12.82245071610311
10.247094171732089
8.532119125547752
4.304023114845338
-5.096200507547569
-14.878368602496053
-22.788450467829012
-24.31305927910596
-12.797950719929952
0.9844973818181394
9.453105214519127
17.061618615618933
19.951687535202208
15.313058657572006
2.2528405142748045
-14.425368749470525
-26.779097249607688
-34.82039836787185
-31.429765424121296
-17.947103834925294
-4.452165262083629
5.449700449880564
10.712972741212504
14.259958102277224
10.849225813948523
-3.185558394579556
-20.7440609679976
-32.74311222389314
-35.13843646925867
-31.38217700553391
-27.592902296613133
-30.011921991687544
-21.416568280477065
6.5116413167972125
20.29001616815964
12.922795277353304
-1.4557088484560432
-11.149748709105168
-1.0281235031097884
3.969262747994435
2.7914134973994744
12.041149409170325
8.29295886582559
7.035424956884982
10.870403176583936
-9.86614278195088
-23.99778085250098
-11.610378627825076
-4.286987357200982
-1.7146710027290761
3.487090456125137
0.16559568004447123
3.914555945270384
13.084778156805887
14.410463207241204
7.712618328346137
-5.107675243800188
-3.096784700918728
3.5799461184449513
2.2925842687165723
6.1312442232209925
5.113914625712292
3.5416450800423362
14.36329058488272
17.493606507033675
2.6117435686948007
-6.998586964750312
-6.56582996247475
-4.789442608084778
11.118578311967077
27.441740245969466
18.125292519471905
-3.7688430234929964
-22.564178885145424
-31.00777091470214
-17.878595220136187
3.583953645834221
11.91449045127652
10.799908893854948
0.9287519528155749
-8.896444980347797
3.280957104842157
12.352654768829986
-0.040308128194448
-10.236817443787036
-21.42836454702807
-29.98205413983517
-24.706069397840988
-17.372162033081104
-6.167159581301363
6.367702760047326
18.174823931785173
26.592466398489346
18.143139783088383
6.860283834218317
8.077031968755065
13.323044510027339
10.10954199166267
3.1192075589484363
2.6701726305054994
-8.685196880999202
-23.193922054779936
-11.907872624860243
-1.0143367078886818
-3.3610952300731425
-6.157569803101452
-21.87749783182962
-30.28804388266521
-27.41026458352789
-33.82252768907063
-26.140951895344028
-7.792811811133183
6.343442747346083
21.29785895169773
28.619562294773957
35.27737389442107
41.69115870041683
36.50791501347423
29.806781004073706
29.21325673599449
27.571139460511276
23.792436563369854
13.753244660286366
-8.468743210287197
-20.798669635172036
-18.04967487466761
-13.244868782915495
1.9746791698855306
7.816217089348182
-6.458197934628049
-9.663986259284393
-6.869893691602709
-13.111550685019692
-15.454844198050031
-9.701453221620307
0.7496590485925292
9.610943132550604
14.549439505396839
15.803699622995206
11.389772499098676
5.474951708631081
-2.640602240898166
-1.1061674888872346
12.547315286136932
12.825430122644844
-4.312193031290011
-21.59563082308247
-21.71821986818718
-14.156730257048789
-12.089058782921072
-2.589808760278391
11.602054110005907
21.14398187682863
22.040916225843095
16.13200028047515
12.10692780194166
13.17484285070905
15.355382095370553
6.808275634618857
-1.526370536121827
-2.6961948392889745
-4.824278638318312
0.9719906726444264
8.141901467804466
6.805319545975508
-1.3663950325651737
-14.41041366227357
-21.15815738405168
-18.827260833358437
-15.243802781524941
-13.816859831630257
-15.876410461978244
-21.824305364853085
-24.875911099931965
-22.205288410159636
-20.462024902794894
-15.339315615742967
-2.395502586153566
4.3235088138512765
1.0004373577507244
-3.5507896437043605
-7.257213044635532
-2.644797702474833
5.708239915660703
8.248168840745224
12.082215317500689
15.697562936346126
17.593169458732092
19.01511356096039
16.457263301003476
10.363233642729796
-1.131999023298705
-9.73062189048884
-5.438300009252058
1.4173212767155743
7.136948399280051
14.648244992676743
12.025204313603233
2.299487885297609
-4.3801858110512
-13.380512688415365
-19.284681248460714
-14.707414301665116
-6.922558724769462
-3.0429317239910048
-1.3736730091204108
-0.8346273457574144
-3.6359009337508996
-3.617188524527129
0.8758255166426525
1.4873481479528818
-1.6190347978017214
-0.6640487884739207
2.5805150278010154
-0.39246012485527076
-6.136106876846603
-9.367167441508398
-9.4395998103304
-2.4215767967988895
2.710821654359863
-6.2137358209259
-17.097654041378252
-16.531723587408088
-10.430878332378231
-7.6590292532318704
-11.011967414668003
-15.916498104475284
-16.626380829897485
-11.065249446450348
-1.0043419496315518
3.1582258575637234
-4.074685669597108
-12.502061016098885
-13.582844001319023
-7.09203525087087
4.670764074412027
11.400113651140792
9.352295849816548
5.6332281717230455
1.9656160049232212
2.719234943121807
8.879250329696728
12.570588421953676
10.41340246531584
2.0214918883637707
-8.29971669791138
-13.144308766867464
-13.388866554348736
-13.543128432640216
-12.816760089173167
-8.439423903526215
-3.0341790642261874
-4.034482498953186
-13.061581893884295
-19.58928815925103
-15.023378560817424
-7.129916611770298
-1.1940277236019352
4.992257022506473
8.907713356934325
12.408264306684005
13.576116906169958
11.116875781354445
11.273098490802075
12.175015396926305
10.88867258619096
6.330035418026021
0.934596735541645
-1.7308576728515281
-1.3362544587976746
5.012811124151393
10.226385507619915
4.234264881854553
-5.970219995070785
-8.517111588177666
-4.3205191038605095
1.120637398283191
3.907268174340684
-1.304556574517771
-9.724508722287492
-12.698975023188401
-10.982458890350669
-7.217038262278193
-2.242966811700116
4.257797848902598
10.100598832676438
10.870655639512
8.734546202456887
8.030840470566794
8.14453442562081
7.033463580285988
3.7077903838244906
-1.495507304893382
-5.410886380006687
-4.820031628271886
-2.214341202570645
-1.7821351686273543
-3.7863939721439035
-7.105974123118471
-10.664791907323867
-10.843348857679082
-7.033478144029121
-2.509583884229579
4.823636152759837
11.447545041478909
11.911431676336312
13.137572604251485
15.99521931211899
15.023118458524952
11.867253762500427
8.945530721817104
5.285652953135876
-0.03553433779307155
-2.7862163128554136
-3.6883151311482534
-8.663107184642893
-12.919876223385444
-16.437205237709524
-22.92737729859169
-23.68345302427175
-19.35646382533302
-15.672753300756629
-9.33803993237775
-1.3310530753785725
4.079966720444792
4.9049818483330645
6.229965801768473
8.39518312129863
2.635828528045996
-5.501309426404529
-9.105336078353991
-10.780153201071437
-9.575295368915018
-7.070331625409486
-4.510829980228525
-0.43606904429635657
4.002531932610774
7.296674813194572
4.920961680211407
-0.9489527249783014
-1.484153766500898
1.2477682362817493
5.037999087947156
13.2521176844749
22.428609294854645
27.654118202802184
28.539540629717752
24.847482413351734
16.87155318246738
8.387566769820795
4.28375210911366
6.319977212450613
10.200393004937881
12.165659905536634
11.622546775411948
7.48773862613317
2.718502041140028
-1.4125142608538905
-3.7555258118088712
-1.2746864150580977
0.5199854410237711
0.12042350647124672
2.0199261928793444
4.280524699474697
6.515348541735749
9.31757211031284
9.61662195520092
9.345740240734347
12.42250083387811
16.05300805598988
17.208638143091942
19.034446028037184
20.87269694916641
16.854746584652972
9.533733115626926
3.7661800540149755
-0.22740821848843254
-0.6769112599788433
1.1370199889050407
2.0577738103323258
3.1730996992651668
4.750538926406376
6.61982929600797
6.919076672568652
0.7613600468635425
-5.79388002896999
-6.7924022533434805
-8.846236915570232
-11.109752106763363
-10.006796826479782
-9.273925482974514
-8.461962343929587
-5.434389051593318
-4.451414740384548
-5.765041898303798
-3.5164623994352473
-1.2305953257017443
-1.5542708134067353
-2.41386189166643
-4.141182220327623
-5.173711201626444
-7.056557648186231
