AAD_Filtered_TADAS_FILE
AAD_BASELINE_CORRECTION: BASELINE REMOVED
AAD_FILTER_TYPE: BUTTERWORTH
AAD_FILTER_ORDER: 1
AAD_LOW_CUT_FREQUENCY_HZ: 0.025
AAD_HIGH_CUT_FREQUENCY_HZ: 40.0
EVENT_NAME: 202302060117
EVENT_ID: 13194
EVENT_DATE_YYYYMMDD: 2023/02/06
EVENT_TIME_HHMMSS: 01:17:32.00000
EVENT_LATITUDE_DEGREE: 37.288
EVENT_LONGITUDE_DEGREE: 37.043
EVENT_DEPTH_KM: 8.6
HYPOCENTER_REFERENCE: AFAD
MAGNITUDE_W: 7.7
MAGNITUDE_W_REFERENCE: AFAD
MAGNITUDE_L: 
MAGNITUDE_L_REFERENCE: 
FOCAL_MECHANISM: 
NETWORK: TK
STATION_CODE: 3138
STATION_NAME: 
STATION_LATITUDE_DEGREE: 36.80262
STATION_LONGITUDE_DEGREE: 36.51119
STATION_ELEVATION_M: 459.0
LOCATION: Kahramanmaras_Pazarck_Turkiye
SENSOR_DEPTH_M: 
VS30_M/S: 618
SITE_CLASSIFICATION_EC8: B
MORPHOLOGIC_CLASSIFICATION: 
EPICENTRAL_DISTANCE_KM: 71.70
EARTHQUAKE_BACKAZIMUTH_DEGREE: 
DATE_TIME_FIRST_SAMPLE_YYYYMMDD_HHMMSS: 2023/02/06 01:17:19.4420340
DATE_TIME_FIRST_SAMPLE_PRECISION: millisecond
SAMPLING_INTERVAL_S: 0.01
NDATA: 10501
DURATION_S: 
STREAM: HNE
UNITS: cm/s^2
INSTRUMENT: sensor = GMS+/GEOSIG | digitizer = 
INSTRUMENT_ANALOG/DIGITAL: 
INSTRUMENTAL_FREQUENCY_HZ: 
INSTRUMENTAL_DAMPING: 
FULL_SCALE_G: 
N_BIT_DIGITAL_CONVERTER: 
PGA_CM/S^2: 746.664
TIME_PGA_S: 
BASELINE_CORRECTION: BASELINE REMOVED
FILTER_TYPE: BUTTERWORTH
FILTER_ORDER: 
LOW_CUT_FREQUENCY_HZ: 
HIGH_CUT_FREQUENCY_HZ: 
LATE/NORMAL_TRIGGERED: 
DATABASE_VERSION: 
HEADER_FORMAT: DYNA 1.2
DATA_TYPE: Acceleration
PROCESSING: Automatic Paolucci et al., 2011
DATA_TIMESTAMP_YYYYMMDD_HHMMSS: 
DATA_LICENSE: U (unknown license)
DATA_CITATION: Turkish Accelerometric Archive v 1.0 - Disaster And Emergency Management Presidency, Earthquake Department
DATA_CREATOR: AFAD
ORIGINAL_DATA_MEDIATOR_CITATION: : AFAD - Disaster And Emergency Management Presidency
ORIGINAL_DATA_MEDIATOR: AFAD PROCESS SERVICE
ORIGINAL_DATA_CREATOR_CITATION: AFAD PROCESS SERVICE
ORIGINAL_DATA_CREATOR: network: TK
USER1: GuestUser
USER2: 
USER3: 
USER4: 
[...]
-28.615451685039442
-29.53637567224884
-30.893434648568572
-32.23004190737296
-33.249022083444096
-34.511952221639625
-35.7534404364148
-32.67234107921538
-22.976933166354723
-11.586360542789917
-1.817244297801097
6.967733958656627
13.233776317730284
16.56705673690225
16.86990900348904
13.204226671548623
7.587315403005638
1.9130435058244268
-1.7320273183989447
-2.0241803909940814
-1.8033297044726178
-3.1076624762220626
-4.73699190777867
-6.335125212094352
-7.5142790401418385
-5.9754600623321785
-2.1518364768363676
1.648798822445364
6.1623803830829615
10.551345264678977
11.823447408187898
11.126256900462089
9.727935577567376
6.908432998083069
6.530413097747786
12.353305395550558
19.339554744841628
23.35662275495751
26.201165402352178
26.06138876471384
22.716377238682558
19.566605275744397
15.504634016275133
11.910299059797378
13.679825114710509
19.377649821472293
24.783221139579123
29.145270691248495
34.03705511473836
39.31814793025932
41.869808849498725
40.74264066545791
35.9941707431175
27.009456933406955
15.701662381489818
4.540662631352692
-4.41371745966701
-11.568991108692098
-18.38959151029107
-23.87393908838421
-28.848429599964067
-32.43376834147348
-31.267707263334046
-27.156370387100022
-22.490346250017534
-16.212190804315618
-8.52431131768031
-0.544265263982971
7.704047835910668
14.366260442855232
18.436851164436113
18.933818718206815
14.134104785318604
11.021441933818792
11.54180379593743
8.657292848405403
4.804870516578407
3.6662925816708185
3.0961515251289957
1.8689543015480161
1.3042499297155654
-0.6401537164419834
-5.557779210972058
-9.124767308213512
-12.848179218673954
-15.696541805581203
-12.077036593936704
-6.444643253379448
-2.4601519871430377
2.4451990227829947
10.785212333599901
22.318305373801373
33.45228748442251
42.54878040119869
48.090260850759655
49.896399356519964
51.76249448186199
53.4576976260391
53.232159085130114
50.90049781305279
45.70770435769116
42.18676514612502
42.313619109625904
38.48020951940617
30.998887227736198
28.378594525194487
30.116317976177463
31.541724206084258
34.75216637623982
39.223881752696336
37.04250576346199
30.85839559132322
25.193642339734897
13.152108426863741
-1.1890697419421412
-10.61540812378753
-20.28904289875927
-30.286975761788398
-36.40762807210775
-40.90715706023427
-46.03839796999103
-48.961133166498016
-50.835164124944946
-55.563802484899796
-59.465957389229565
-58.65429226124115
-54.188101272727515
-49.02519191646508
-44.57621915349399
-41.04654033144349
-40.761878969617854
-42.838073282635435
-44.901420303659805
-47.489164085256014
-50.41423996826286
-51.414863029616875
-49.637463618586224
-48.7620874815182
-49.57791068348054
-47.79460610820087
-44.363383369585165
-44.71636089855494
-49.03918476944252
-53.75803491328261
-58.31172296783833
-62.131553134375295
-64.18277454165147
-64.56571081435662
-60.89893113367985
-52.60655355070159
-41.883561224031915
-31.06558544166048
-23.72043157415546
-19.05769409786233
-15.448764118836493
-15.084231150973064
-14.674784506091624
-10.228794329191981
-4.0165290979031525
2.5926200835741464
8.649814223614287
13.316321239453213
15.099647214877423
11.478612777410635
5.982579796476321
3.159082738064904
2.7469046116222704
4.057297602373445
7.548702105973656
10.914724511817226
12.804909110885454
14.330768103268921
11.754366857692101
6.263698597250658
3.4083952962285475
1.5509114670192043
0.42557488724562703
3.4754826739276434
9.798580615272922
15.484526950627934
20.427078928726004
24.740219422691133
26.80509130179951
26.766264015792018
23.938402797440574
21.231232530088388
22.246723624581854
25.016570099487414
28.72262634368578
32.12758876511931
33.37418925575727
36.114167451766974
41.97849829342725
46.573170502947086
49.209423914934135
52.768347106924445
56.96821468353723
59.68204704583218
60.86016007801062
59.14776837555781
50.587231872047234
37.628842401043336
26.57456885751923
19.38152314365094
14.399293584712664
11.790074796864793
13.500737690161591
16.90022327230403
20.386633168352102
22.40220470911412
18.678474061360735
12.601773663445755
9.332524021324272
6.284088549343101
0.8661689050435176
-1.973761163000703
2.091702056320843
10.656667562760061
18.68598794284846
20.185413165655397
18.158562752138597
17.746557401361045
15.194112951674173
11.833683434788043
8.227694887237051
3.6065593890937473
1.4619697382259629
-1.1151997925904027
-5.687198599150078
-11.655083013051875
-18.5926224032184
-24.707705274606987
-30.670480991400602
-35.250775731502245
-39.166799948431205
-42.6086039498053
-43.217422671357156
-42.27374833603279
-37.92312537045728
-28.686508929347937
-17.140612304053345
-6.415146670575169
-0.14001811773440154
3.0198795746918345
3.6226664323462474
3.9118661872056584
10.626625478973569
21.171051142557324
30.811195891757674
41.33782503451165
51.746862132379015
53.98861337712995
44.79533602862523
32.86507152371819
25.31257587986507
19.265080420798053
15.01960101264407
16.474319607205217
18.509962063549082
19.205140361819346
17.986170635442946
11.094265128363885
4.960259723523309
4.243283986646038
7.093711887843224
7.765843345488269
2.3903535314219173
1.7267521410055866
7.766979722569121
13.814761096765883
19.40214127651567
19.14642617719963
14.855531984552979
10.758410669905498
9.356300232802054
8.938413969477661
1.0833479048968866
-7.975390973575953
-17.941181648499523
-29.495071094565308
-32.75120877174906
-27.050567543521122
-18.540169526339128
-20.017054474865876
-29.083813287247605
-33.627275430165405
-31.06339858161393
-16.554102999585183
6.992852427184804
30.527749695051234
48.01543511734428
58.52757518789597
63.85438891381746
58.60891011279277
40.688061822502604
14.850458653401263
-5.133397323337377
-4.411912022801941
-0.5020163401039099
-6.550819956904547
-2.092553494562272
14.500264753329317
28.776506470005508
33.599453733834515
34.503726634411585
41.437447884997226
50.25293751160688
60.59619733889576
67.85557146989977
82.12220125515707
107.99512373551565
105.2168263429658
70.45181646496341
28.966267408160267
-6.522779131857834
-25.563351926588858
-39.427266659535746
-49.18203645237872
-47.690160672742884
-32.616684458310495
-4.259728421534032
19.633150222625257
33.41348816212842
35.617765114183356
32.25814196301292
33.656480842838036
25.18031419604555
6.011443787609828
-18.572053231626292
-37.876929009462195
-36.868433303938396
-32.795188181594185
-35.72144474929283
-39.23272781957966
-27.98290199287401
2.4056992029196165
24.127494205877284
28.397659843831526
24.20344292988213
25.454353612267152
42.210629649645774
58.38675743348582
62.42297801442606
62.385041735726325
68.2566303729614
77.86844891852432
88.57714606400499
84.47329242556836
63.10479306651828
57.068345202663814
54.748116218980265
43.57846676124508
35.10042118793295
24.406680317738427
21.358715325653268
22.779967654292186
24.882529277161716
25.838729138813342
16.876076235293976
22.66538586359808
40.61521665463989
44.33528392324055
48.292526307355736
57.77641181136292
57.52042428683814
51.329445414671405
48.15229431412689
44.60898640055291
29.875886605515102
10.166564087191926
0.207129193952526
1.671322169049588
13.68757099827427
24.34489983346803
27.066103925411493
25.866224398140012
19.351507459813934
13.123667880693207
8.457381707835452
0.09058035823644042
-9.987969807360034
-17.069570103961563
-26.087933548224928
-35.443138377477304
-33.85922660773347
-24.02508662793083
-16.393826213060795
-20.084236069770295
-33.91361135908265
-54.510893260246995
-74.31486448079109
-78.1192824762551
-70.54691687458104
-71.99192716478252
-83.64228854126934
-89.68435174915072
-95.89823137038434
-102.22729982335058
-90.75167865593156
-73.00983148469274
-68.95563582754738
-69.49622245166245
-63.73201868792589
-63.56869235048698
-63.13698294008616
-51.01420185104075
-45.28616282212729
-42.751688514764474
-30.800977003347423
-16.1477055982542
-2.891759283553455
5.762133427646301
16.747779094266722
29.572113103227544
37.52289612363129
48.369167062335634
51.63232166525585
33.86091412975821
20.560912236007017
35.701543255059924
45.432009850691465
30.92261915337159
22.165789807236024
14.469458449330475
8.375019858721028
18.278279500722324
28.509171812727516
29.987050535329352
23.497250734142415
16.89736172389695
6.6669138569448565
-4.310309757163703
-2.734976147539756
0.5723307320041996
6.015867361237202
15.468756147372483
22.96085197922285
23.155063191040195
15.298878081139831
19.680843570775245
30.130047915314996
25.828787604245676
24.590959211618333
40.38867784483048
52.70780620586723
51.27475625220297
50.52322052448958
55.9767931214644
56.90604705953456
50.11103549129648
46.940826948248166
43.64196745514874
33.493193638752814
28.92920553993543
29.08200051457307
22.158423357393637
14.578474304609058
21.94702324598553
34.718853473439374
46.179217789613155
55.56427981614825
41.39344227611019
29.86132021604804
24.174102459167287
-13.030249668507842
-40.262729820912206
-47.214195998943325
-68.65366987697642
-87.27029439693248
-94.5439313615411
-98.64931359057903
-106.09917338492461
-120.3776498113498
-132.29256989176406
-150.72669417781535
-173.78209693611535
-182.58282995740046
-196.87280298071525
-216.68679181934206
-211.85005294307308
-203.3403162754666
-216.59010475826906
-234.8407742050995
-246.80796316057217
-257.9335380383911
-261.35922655847435
-254.79364615653103
-255.57153177206257
-270.0435036948953
-283.58689619473535
-284.46198089828744
-282.0297338147239
-285.32767577076123
-294.84767083526356
-315.06430564266924
-348.6389780550941
-383.6776505501435
-403.79245071220504
-392.0088215824575
-337.8225656276524
-289.309973472618
-282.6445674478841
-261.4488040254294
-182.1782028763477
-103.01607578975506
-85.72073879431825
-95.68790279734272
-107.0299940502137
-133.5018218243668
-158.5557608415323
-170.90587539816093
-171.16811310252075
-169.72751616511056
-176.09903728066794
-172.9167915657729
-166.29818709827092
-181.89346955315023
-200.40201863553844
-177.155490751661
-123.77067162872443
-97.34703304508018
-96.89993701713726
-87.46607651176475
-70.82274365251243
-50.37065103905182
-30.41325682223938
-25.998866487385488
-24.125451908059915
-13.147679381697984
-6.124966751237405
1.8654989789082004
14.329858814591699
14.538796779013637
0.698955626255772
-16.155503975400574
-44.942359048325535
-88.61652154269557
-130.82696897015018
-166.92706885181005
-204.9760007431034
-267.45596245692394
-370.67210906763137
-503.3092461607698
-536.3804232462618
-384.14367206650115
-223.673548611773
-186.87866608857047
-233.93513228020512
-294.9487544093389
-318.82432058867914
-321.77283270538686
-326.0574668181791
-324.9367225326979
-294.12459966289197
-229.51332615444807
-149.184215409954
-61.20570183729835
27.96412886439354
111.28929162113869
175.92786689339874
230.89020083761355
272.3520893282845
274.4203293699563
230.32023687842457
124.06526091069206
-11.905062639290959
-110.15047270424283
-168.83299036361396
-209.7195807655684
-243.8379272436369
-277.943505829179
-315.8822668501218
-361.75428038116075
-405.30854587211775
-435.2462705350954
-446.17161722340455
-439.3118349521849
-426.2015781989304
-415.54037106314144
-411.5138289127071
-415.34031912099294
-423.04134887887585
-432.73909214632044
-443.51356259372056
-454.9601051788647
-472.04529835777134
-494.4807925310327
-519.0747460739975
-520.2118557976638
-464.7211028265796
-368.4174301934217
-253.39737330833225
-136.86266659970462
-42.37764718177929
34.02096057836679
101.07132564157413
178.29593047857534
273.0381168625016
359.9750671937792
416.4579537662045
422.985601728651
407.1754787509256
396.0283218554553
390.25083477801263
379.23625600859094
368.7502691178396
368.4548306149462
363.4063341151845
380.46345385489906
369.2853811403439
382.2243106863261
368.82418382388965
362.6098660610998
378.6864209632416
333.4761537073262
383.1253428573524
275.54055297537207
356.87318704601455
234.34193401953667
4.298667095117847
442.6479764718716
212.71833535793903
75.58270595662744
487.94295873246597
415.0679282565548
308.22332325150177
187.51720944064647
303.171020821084
351.7276211093887
-172.28237411103558
-483.4209698730611
107.22091427450455
508.92726104838215
127.43189738418913
186.90934880864214
387.96618272499995
369.0695010206552
374.7791805481689
425.2183267127306
449.51317039792957
410.4325513570287
567.0111303051211
-141.98017440332535
-454.6968060297573
259.84678063305716
163.95351484683883
21.912008604840885
-13.160474482562499
135.93522125846778
322.90610381463944
77.61750184404976
248.16490281719973
396.87498385225365
334.70495149228356
326.9576465383342
282.398100368288
286.98641445010117
356.9570088479526
423.23361803873564
318.8602648143903
527.0057299383425
740.4407629088279
501.4628302688277
560.9334395440508
617.373651505711
616.5208832239626
750.6672706394396
539.8150043924194
582.8642494241763
722.5883391858109
478.99618378405023
488.36035458439983
471.8797661150153
182.77090127419262
158.1014593147849
175.68025432525033
54.7037525118825
37.68672624636682
17.171165683313568
-62.51992621520386
-120.71512107859603
-108.5510073057312
-108.41443003905987
-170.64287351757912
-105.83541193017334
-73.85718183398978
-137.9242959424042
-94.31121590271947
-108.3593578626255
-136.53064592919566
-113.88185064391749
-139.655456601663
-105.54158921853528
-117.91596336779507
-190.26710944077476
-166.17581094117196
-162.48991641060434
-181.80099713087452
-172.1270957065796
-191.2718143415518
-211.6104492024639
-224.61490048488838
-223.44330262356448
-238.26061185300586
-262.6039770937415
-245.2460154951369
-265.89786247221963
-290.66297543240125
-271.78494346774
-283.2635613890817
-215.10791179688138
-199.0719405997931
-338.51790526723556
-396.2803127399608
-432.3917264486226
-393.3061433948584
-333.9871717749377
-405.7071942496022
-459.3868640366566
-534.1591538545342
-591.1613179363515
-629.1740244881464
-703.0100878192503
-731.3723475957306
-732.2084029893188
-717.2563274524282
-674.4838768440966
-611.1033079640367
-534.4724236712524
-426.77205273358334
-314.6480241407154
-219.24696126429606
-123.34873956849634
-13.600564317137396
92.11403620531284
179.9341313830591
272.77715733278393
335.50857976097546
392.02004910204533
435.90899208174915
448.04398773642316
444.68948920547734
376.31202504190065
342.550205614535
323.65740476258713
221.28386467535222
256.17288222150216
92.65202690801243
-130.87230331525933
274.6850989906263
397.20812524045374
148.3597032964661
220.00053805737377
209.73480634819026
220.88526018562519
251.32993599581536
183.92908068317394
226.85483245890856
236.23945571482363
195.62162523718237
250.50778982667276
284.3463084063438
238.26218634843298
267.7282922245704
281.8777031440973
259.2955056735722
291.27050661807226
279.1277382990498
271.524358920164
294.5272085498086
288.78509276691784
307.51096214698003
331.48559156292407
326.9817281749349
339.67851659486604
355.0857022126442
361.31960663843427
381.5421279185743
379.9096555924388
364.94559988073917
367.87514864506323
362.28443804673213
354.4282217717335
346.0075215389657
319.4426693073656
290.00960556917056
244.68414414550767
208.30996817929432
194.6705858937854
113.59992839839737
9.450408767271606
-13.755612045424442
29.575796585880255
93.08455928543681
119.18677163756698
97.56000767448116
62.88698158665528
39.7851161868858
25.98176775952275
24.26724732744583
41.6724119822687
61.46258748261144
76.7414549988682
68.2779331637477
44.44476435556376
34.292009598227615
24.842687487308186
18.279990654157807
22.268050268785657
20.72446452926461
16.533158680159733
13.900257583103903
7.746626552741098
7.0905858604529035
14.169317643217154
19.62889197010946
19.75362995885739
20.26391545439131
22.15655271550906
24.138201664378983
31.030562502247825
33.94371893777709
22.727541967679876
-1.8467763460115798
-31.560361732114686
-58.155627050678646
-84.86368968927655
-107.22653993669671
-129.18521818689328
-152.5327538249185
-166.72619549398763
-179.98624192648333
-190.74521385751456
-195.43045261469507
-192.92416851152197
-177.2985819538249
-151.50699550617855
-127.2874385629315
-110.00982341109867
-95.04416373428562
-84.01199163302765
-65.74891355787203
-52.025506046190955
-34.332573310927394
-14.6377152148852
-18.821639557809128
-9.453243785716776
-6.863905017428791
-22.38749351673552
-27.607898219040123
-28.517570205870385
-30.207891966079327
-32.659307514618874
-19.591710235296155
-24.793402218772858
-38.72148749370323
-32.51800664332914
-38.630842430697236
-39.89778256148196
-36.02043790179974
-41.110355361439176
-38.465446243006916
-32.98737240734239
-31.75139714727343
-29.543360353394853
-23.048396809571237
-21.089326075360166
-18.81932029822326
-7.476650976106013
1.902603890408604
12.745777839160453
21.716074160489327
26.38823443645606
37.90694741824243
46.61396712566374
55.3639459435038
65.6985771271294
71.45756664518876
79.19101577599396
81.648504240261
78.24043397216963
77.89911901973956
81.00499103240546
80.47734535053714
74.98157090529949
70.091421579639
67.89229711021142
69.33113356393278
67.32494580268268
66.31618731010295
67.978299752474
65.93035155641178
63.37591364157349
59.63126322525616
60.34891318815868
62.41433671019277
61.404163255561656
60.1766480965584
54.84448612933859
54.17730735752649
57.658338479523316
56.33396580393904
54.70631647178781
52.167144716298324
51.65697808189434
54.65502398906489
54.51525027336127
51.80573661780189
51.18652825298381
50.606944061439755
41.34435105562562
30.275683288234777
24.27769853591731
33.20051657901665
58.84813010520574
53.902608197712645
24.863474179293654
23.8413916022207
24.51156187506189
12.619723056501355
8.826801416171174
6.329133001815284
5.9872293718379925
2.738630235271095
2.0531407273888718
7.488043673314393
10.323902330005895
12.697032293422435
6.740836336562333
-0.3961974064508241
-6.926396679042553
-12.511799954584339
-12.066841324321931
-16.852324578640445
-26.431119168680247
-35.43805459267105
-41.171756816019595
-47.6921600123521
-58.31588471880149
-71.06169306812782
-83.38978386252516
-94.74702388318951
-110.29224962598168
-126.85188595133167
-140.53399382400553
-147.4718217924802
-145.26918591181462
-138.25697192914902
-125.38333121372969
-103.69472619488597
-72.2621056990488
-41.86347893337789
-22.336105594434137
-10.802191986837048
