AAD_Filtered_TADAS_FILE
AAD_BASELINE_CORRECTION: BASELINE REMOVED
AAD_FILTER_TYPE: BUTTERWORTH
AAD_FILTER_ORDER: 1
AAD_LOW_CUT_FREQUENCY_HZ: 0.025
AAD_HIGH_CUT_FREQUENCY_HZ: 40.0
EVENT_NAME: 202302061024
EVENT_ID: 13207
EVENT_DATE_YYYYMMDD: 2023/02/06
EVENT_TIME_HHMMSS: 10:24:47.00000
EVENT_LATITUDE_DEGREE: 38.089
EVENT_LONGITUDE_DEGREE: 37.239
EVENT_DEPTH_KM: 7.0
HYPOCENTER_REFERENCE: AFAD
MAGNITUDE_W: 7.6
MAGNITUDE_W_REFERENCE: AFAD
MAGNITUDE_L: 
MAGNITUDE_L_REFERENCE: 
FOCAL_MECHANISM: 
NETWORK: TK
STATION_CODE: 0120
STATION_NAME: 
STATION_LATITUDE_DEGREE: 36.77006
STATION_LONGITUDE_DEGREE: 35.79005
STATION_ELEVATION_M: 35.0
LOCATION: Kahramanmaras_Elbistan_Turkiye
SENSOR_DEPTH_M: 
VS30_M/S: 439
SITE_CLASSIFICATION_EC8: B
MORPHOLOGIC_CLASSIFICATION: 
EPICENTRAL_DISTANCE_KM: 194.62
EARTHQUAKE_BACKAZIMUTH_DEGREE: 
DATE_TIME_FIRST_SAMPLE_YYYYMMDD_HHMMSS: 2023/02/06 10:25:00.5568450
DATE_TIME_FIRST_SAMPLE_PRECISION: millisecond
SAMPLING_INTERVAL_S: 0.01
NDATA: 13501
DURATION_S: 
STREAM: HNN
UNITS: cm/s^2
INSTRUMENT: sensor = CMG-5T/GURALP | digitizer = 
INSTRUMENT_ANALOG/DIGITAL: 
INSTRUMENTAL_FREQUENCY_HZ: 
INSTRUMENTAL_DAMPING: 
FULL_SCALE_G: 
N_BIT_DIGITAL_CONVERTER: 
PGA_CM/S^2: 20.675
TIME_PGA_S: 
BASELINE_CORRECTION: BASELINE REMOVED
FILTER_TYPE: BUTTERWORTH
FILTER_ORDER: 
LOW_CUT_FREQUENCY_HZ: 
HIGH_CUT_FREQUENCY_HZ: 
LATE/NORMAL_TRIGGERED: 
DATABASE_VERSION: 
HEADER_FORMAT: DYNA 1.2
DATA_TYPE: Acceleration
PROCESSING: Automatic Paolucci et al., 2011
DATA_TIMESTAMP_YYYYMMDD_HHMMSS: 
DATA_LICENSE: U (unknown license)
DATA_CITATION: Turkish Accelerometric Archive v 1.0 - Disaster And Emergency Management Presidency, Earthquake Department
DATA_CREATOR: AFAD
ORIGINAL_DATA_MEDIATOR_CITATION: : AFAD - Disaster And Emergency Management Presidency
ORIGINAL_DATA_MEDIATOR: AFAD PROCESS SERVICE
ORIGINAL_DATA_CREATOR_CITATION: AFAD PROCESS SERVICE
ORIGINAL_DATA_CREATOR: network: TK
USER1: GuestUser
USER2: 
USER3: 
USER4: 
[...]
-1.0903969049249898
-0.6589791737236154
-0.16681240444883355
0.3481586910674754
0.8315620138729004
1.215051435665919
1.4607006377089424
1.6302559206478233
1.808011315703573
2.050391523597848
2.370912825190296
2.741913649129417
3.1713229617698597
3.6440898338024774
4.1258650895363385
4.586175770727987
4.949823349948039
5.114298609738569
5.02363393825191
4.683977959212238
4.123118635819036
3.420973057338587
2.6745106583195817
1.9704106868434526
1.3853329811623607
1.0114989209462069
0.8885516771965946
0.9413357496370598
1.064822679617731
1.1752111851072977
1.2193094912956772
1.1680728619649232
1.0554802402500834
0.9060655605113512
0.6875307854626742
0.3650731619901383
-0.04637129535555295
-0.5039529114701663
-0.9675444437858853
-1.3552183086089988
-1.6148312646634522
-1.7706564228657269
-1.8913872012252868
-2.01254840566391
-2.1341297820967977
-2.270024645173278
-2.45619196930893
-2.7189044725072473
-3.0485551070365813
-3.4156096226571373
-3.7183261307438733
-3.846087986499489
-3.739816237618098
-3.4301093989331686
-2.991708211263073
-2.4621445521203884
-1.880653220670375
-1.257499516946854
-0.5817744088152877
0.13321062793647356
0.8459816872702324
1.5248543370217313
2.167964432722093
2.792781738878338
3.374724020699324
3.8898163800963115
4.327260883913557
4.639490428603749
4.829461576707402
4.921192368326758
4.923769069629662
4.793428348929652
4.470327641803485
3.9631329545410616
3.3141728968210535
2.5561955614486607
1.7556802123549538
0.9944359699925923
0.301835491344821
-0.26731012978544527
-0.634448550684071
-0.7835204194709644
-0.7563134469761532
-0.6123236895587394
-0.4167146735096316
-0.21494780088730253
-0.012624070417173162
0.18592815649517805
0.40884541238237215
0.6820416805474577
1.0116653720225273
1.3951492228606774
1.7744097711384805
2.073433991011687
2.21832849073215
2.1537451630704694
1.872446507753393
1.442980887785423
0.9692732610050426
0.548586970984309
0.23805278218635603
0.0588216025801352
0.003067297699244212
0.04855061359651992
0.17902448955924838
0.36689921441946305
0.57514016453677
0.7824854075898017
0.9712751546386033
1.1155782253202922
1.216649647860898
1.2753430247423267
1.2860003329984953
1.267122003818512
1.262614449098941
1.341554780494947
1.513989227047498
1.7609305322179718
2.0640781125418353
2.389314789656253
2.6960660523198676
2.936718641467352
3.0766110092189174
3.0826804484026735
2.931545993285615
2.6704261342978146
2.354740246804407
2.013613700960434
1.6934085595734065
1.4214281336011652
1.2299726383374567
1.1438611005287287
1.1800861945803558
1.330642802615133
1.5312709410115124
1.71035848871588
1.8286755182185352
1.8766852453245733
1.901072912758656
1.9742229990299884
2.1318986078273237
2.350619731439587
2.6424136815904475
3.079004146006874
3.7189487705897184
4.560229681750774
5.518668877834063
6.470584194285201
7.32216688730721
8.049133473669958
8.65070238300068
9.108585621488471
9.398625860370592
9.508040955992621
9.420147600866068
9.146212378132084
8.72793995281397
8.204883239420488
7.6222261004823295
7.039776576471437
6.5092993921270095
6.039302162428033
5.595915235393887
5.151158801538959
4.708847663410384
4.285554853263708
3.9448022077269407
3.7163633026097562
3.5764963150945377
3.491923448200735
3.3944796123389938
3.244549997602962
3.067728210277526
2.9022232147036
2.7623762942994596
2.6026359134960484
2.370053114192002
2.0755230830511913
1.7754590524246072
1.5742961964267803
1.5367528373405233
1.6584647702275699
1.8861798670397683
2.156444636190857
2.42943173883029
2.682099415056701
2.904915884184415
3.065297694393704
3.1181534370315394
3.0477777741150702
2.8818953184750455
2.636727257889255
2.333843878108854
1.986718992995152
1.5575855004457686
1.0396857059240445
0.47648285231222226
-0.07438419436871983
-0.5644752438137866
-0.9729633865602696
-1.2937331482182441
-1.5439929864051871
-1.761688950254705
-1.9681130191505267
-2.169825907306011
-2.3889657608745933
-2.6512730700054647
-2.970640558278348
-3.3169495820388732
-3.620726514424741
-3.837768662146041
-3.914828856972959
-3.8186670588276255
-3.5478465059163145
-3.081981988303792
-2.4034303064309825
-1.545047838712781
-0.606066829925138
0.30521131718704
1.132116265180685
1.8951014632666148
2.6316049454750607
3.3545971489470183
4.032974792974737
4.633353507056891
5.139329644994746
5.562939956774115
5.946641077702646
6.310605646721345
6.63374084537929
6.871312778692933
7.013864425014542
7.055548415031153
7.021569627175139
6.968739047435154
6.934880668574288
6.926177982528922
6.909564598252789
6.860900618644148
6.79068554729955
6.736920802487389
6.756635328448701
6.886861067842636
7.123781693686189
7.441769233051318
7.790003304753699
8.134299454269694
8.455012716171005
8.720288812871862
8.902705366624014
9.005523733263328
9.059915017989747
9.072134556991521
9.033545298974058
8.911156954856423
8.658516986045875
8.30210258500872
7.887031715590043
7.431011021348071
6.941105471527737
6.384171910457215
5.73902681481899
5.027995300689897
4.278308100934493
3.5250546738560455
2.8293379005904256
2.221757627042551
1.7416393373364192
1.416368822828523
1.2654519017687902
1.3260121951777357
1.5724183644510916
1.9487421329179484
2.355102730097744
2.683416833733044
2.896698371566672
3.0237520365128905
3.0920343244441746
3.101612508769033
3.060461554650084
2.964876945610916
2.8430311150230554
2.7415418676882406
2.688971652779725
2.6815605468503874
2.681528064379901
2.6937157488319143
2.7123921975740224
2.7267991229618707
2.720424672798179
2.6440738021744417
2.4720016542392633
2.1747007107373366
1.7433971982120076
1.2136597460771086
0.5963396573486661
-0.09720669694628681
-0.8070610492426629
-1.4636514703068115
-2.023543866442926
-2.4808116806551235
-2.832231352472652
-3.1007597752678286
-3.335338150814788
-3.535464853251031
-3.6894400222344723
-3.8049430213474604
-3.889733293022837
-3.9424848367553804
-3.989644322245994
-4.009672801760125
-3.9311765720698513
-3.725415054048558
-3.392720242250082
-2.9806804606417994
-2.5710762851610824
-2.2311152211506147
-1.9669664762395234
-1.7396633562277892
-1.5279596476842152
-1.3590583583670168
-1.2850001598097984
-1.3270158426560033
-1.4819036897835156
-1.701021654152526
-1.8851051679711526
-1.9844799570113654
-2.0280806335628436
-2.0580407803769973
-2.0937088167698783
-2.1405110479379283
-2.2208941455333
-2.3870238052301036
-2.6797653954235394
-3.094010425334601
-3.5681762038476816
-4.037367359636819
-4.464918802769069
-4.823738637570212
-5.094663665396544
-5.267738491086826
-5.331359095954126
-5.266221880071205
-5.084994267813023
-4.847022294526994
-4.614163891827897
-4.4267140211821205
-4.2747215996026755
-4.119641795566254
-3.9322384774732093
-3.701297122199542
-3.4356334492410046
-3.155616812281012
-2.850227234755123
-2.509156531705128
-2.136805876447658
-1.79096728224028
-1.5644169784920554
-1.481455470120408
-1.5305425286598242
-1.6871392495171949
-1.9153187641040248
-2.2012360077142628
-2.5654531411071337
-3.0135311580202218
-3.5276287389529433
-4.068512897276642
-4.651440343473874
-5.3544360796312365
-6.2018933856434115
-7.1634716756687835
-8.208030506449472
-9.266251489048331
-10.253438851096893
-11.111437831507839
-11.78169879702611
-12.233326767409178
-12.466114160863402
-12.484158643617924
-12.306719786448255
-11.957338495730452
-11.479777986096353
-10.911812099740475
-10.299495341455922
-9.693126753920279
-9.132396010600187
-8.641225742717108
-8.199877122210367
-7.809011333739169
-7.4600701360961414
-7.137397426601658
-6.831761702807453
-6.566336688747022
-6.359337695152589
-6.199279045725421
-6.11943699975475
-6.147842189304854
-6.223452635300523
-6.226958848438351
-6.063410100340158
-5.715743976087997
-5.23821518143991
-4.693592352235209
-4.125348858998035
-3.5544910486001977
-3.030068601344333
-2.6212450592117547
-2.363642905133173
-2.2774468901910847
-2.3485149198479665
-2.5686191195749624
-2.9233009203141416
-3.3464436101811477
-3.759695712342856
-4.059862441373748
-4.1816283115279544
-4.1009895459260335
-3.838735787665466
-3.498849769924496
-3.1596626819380185
-2.8549544238909883
-2.6121425326054597
-2.4412122160315177
-2.394788752667798
-2.5215142760388374
-2.7855933248729476
-3.111611217261571
-3.406746816829686
-3.5872515651755625
-3.6288534705799838
-3.565752527379108
-3.435901236481644
-3.2407611686133464
-2.97511335677039
-2.6721043103818896
-2.4001556934947708
-2.2072741962053892
-2.1019633368133075
-2.047281051392503
-2.0010114570443394
-1.9804363552206423
-2.015134122679468
-2.1022009933698214
-2.195996336550817
-2.2465621788653873
-2.2453768710443307
-2.2256025861160436
-2.2458852561416505
-2.320521544237027
-2.433778335162284
-2.619029805461075
-2.8776528731631603
-3.178910429669414
-3.4637925575830355
-3.6449781007993174
-3.6444273009173527
-3.39391916537911
-2.907440739943273
-2.285619921102093
-1.610944835286077
-0.9140498044046654
-0.22825448120802347
0.4085477384166761
0.9618054308206918
1.3759037611052405
1.612090288346571
1.6580843339841507
1.5018307585421538
1.1346617062724638
0.5311589021910138
-0.2817646420629013
-1.2284052725385266
-2.2237902199581407
-3.2063805967727266
-4.166526632403731
-5.108725664899619
-6.019158925017007
-6.8088586578531185
-7.36663402867606
-7.651425665049773
-7.663232461839853
-7.391358571624658
-6.833812502164883
-6.006869388398677
-4.94178132886435
-3.692436879202288
-2.369144536986754
-1.0706207360946758
0.13672166511267012
1.1201969653698707
1.8022005688432081
2.1439730991733557
2.1148725346030686
1.759602576675834
1.1571329951693345
0.4044713269529522
-0.40151602287746857
-1.1754654212726188
-1.8914155892311257
-2.5772892789517186
-3.202291726302865
-3.70236253004624
-4.046249987946604
-4.209474364848944
-4.198894403402924
-4.052409004557853
-3.8360243233268134
-3.6205107304455257
-3.414788237188134
-3.2098993465928927
-3.0076178188184093
-2.8190735736349444
-2.697836938029994
-2.7074827318547894
-2.8709292638496082
-3.1340252794206154
-3.4395770856929193
-3.801753044852894
-4.168073122573525
-4.424699858217073
-4.478617081019392
-4.242415348912752
-3.708917152735382
-2.90307850227767
-1.8346144980054733
-0.525135105138429
0.9737385568514445
2.5139567613231306
3.9107425982124484
5.04681677064278
5.884748218591337
6.43432534043864
6.749125825382215
6.882556432293168
6.837057573963556
6.616672816281792
6.247307005932485
5.799478799339358
5.345619863577352
4.93340498343756
4.574142327635892
4.243435468126076
3.9455208471444037
3.7117328011928876
3.5213549830116464
3.290370802142809
2.956734584321901
2.5024717371873058
1.9337678173895412
1.2736749559102873
0.5308273840122899
-0.25591141587965216
-1.0131408025407656
-1.734968663232803
-2.3561845665103873
-2.7969882889116646
-3.0284779115622418
-3.0084368593038286
-2.7427245298393554
-2.230796734725809
-1.4443454874263284
-0.4132316947017515
0.825757281419476
2.212129311326897
3.6610144079367695
5.099907706285984
6.422409884680436
7.551184626610281
8.386892404127003
8.840229219687679
8.913763633328674
8.630933578105129
8.020248665733538
7.196930716748305
6.342947909639651
5.635294026751108
5.146586159969146
4.86460869872151
4.768693394817204
4.794600799916915
4.905031727100623
5.050230827852418
5.135272977048131
5.090511813044047
4.8780576420806945
4.505539612490504
3.9699197747912596
3.3057705821786163
2.6310065939972325
2.0347709852486777
1.5657644862998763
1.2359570256667993
1.0102255845351578
0.8795644294789072
0.8733296990346032
1.0267621260747013
1.3315161439241765
1.726429018615201
2.1750245780027404
2.6232677764026513
2.9916890375344036
3.248200397863213
3.4089233971667467
3.4955173565586755
3.561498344304575
3.643592897826981
3.7311876336778567
3.7944801937154216
3.8033115137540565
3.7157372893253178
3.4283090897980752
2.916094705196073
2.208511319507803
1.3658336531073472
0.5216272253522225
-0.24850059550999284
-0.9095594262208135
-1.475666654109336
-2.003529123404575
-2.5023645645020003
-2.9488031155073626
-3.3161941307881055
-3.6548545281052887
-4.074687247688212
-4.633273181452888
-5.322068180308157
-6.071956679481945
-6.78622077962839
-7.447692046402769
-8.037679000290975
-8.500110580501019
-8.693656220827597
-8.554013552907067
-8.110272760065675
-7.423828000560277
-6.599921578095121
-5.686520700207366
-4.753893882546569
-3.891592044669202
-3.2022950294207426
-2.696110327463415
-2.3561212096846518
-2.143774916970413
-1.9975832128661226
-1.867867129289067
-1.7273020700831563
-1.507166393503534
-1.1840279877063833
-0.7422673754101978
-0.13779198940381263
0.6980290089042174
1.8197980815776271
3.1555495994706866
4.656877382906974
6.279020670964633
7.989129256299316
9.778235322565331
11.591217673038729
13.399567479284071
15.168716283096318
16.80383042209652
18.227522847228027
19.33612136793091
20.125915105268653
20.596769594983986
20.758537006695594
20.659951990072155
20.374769654357586
19.942318150679206
19.3908661532717
18.727616828927108
17.909355019293198
17.00703947663087
16.057010019849248
15.138588670250382
14.32456369996451
13.567949653311189
12.78532199991351
11.910828250847961
10.96405388881769
10.014842927407221
9.083241555200027
8.224296487554863
7.4642423380234915
6.761029073180149
6.109978729359389
5.584878370896088
5.2273093808248765
5.067582702853633
5.1189827408630855
5.349252499403256
5.739416826315239
6.248975150146263
6.905416611181746
7.693024471108966
8.580821862179604
9.491263318377682
10.35284413889491
11.17843127313657
11.940037640370454
12.605284971637458
13.158458546155384
13.5886020362582
13.903198910224216
14.12719104786545
14.243478891039544
14.253374996856053
14.184474559275587
14.029181044890503
13.803832020188253
13.500053721398915
13.078769127871556
12.553648174150648
11.962199764691267
11.355648884479148
10.729279071594128
10.051737787279643
9.295569705298957
8.490200928194161
7.658518356513979
6.847744517299955
6.071548496342844
5.2828492334049075
4.496127845809881
3.66327215894117
2.7660309672658183
1.7969404107808191
0.7967747247675627
-0.26276836254803376
-1.369701030236084
-2.421899437175496
-3.2934099025356955
-3.9137515221770434
-4.311027069815225
-4.45202893515648
-4.370225717263467
-4.066486497850738
-3.53395080383197
-2.8889248271022576
-2.1778575285407964
-1.4298335620783096
-0.643808957470322
0.2164028562320512
1.0718046946554582
1.8262310837668316
2.428356480495647
2.92941295442419
3.4100735208043815
3.883067509565165
4.313929256074526
4.686951540528238
4.998683394651341
5.2410709546658
5.4253195673522905
5.556053590314572
5.655356013092074
5.702348055648101
5.655916891985669
5.491355200463598
5.193033923818623
4.756255192473883
4.143224468987734
3.374968018791694
2.493478690838951
1.5457298614268025
0.610078848807025
-0.21653763066906612
-0.8707056067375933
-1.3457281926120226
-1.667889424178141
-1.8656239666194556
-1.8990702593064903
-1.7585626498812643
-1.4225760781371641
-0.8279795877957824
-0.038047453042335526
0.8504570886773217
1.7439068372789948
2.5790164371567146
3.292270510309916
3.812085779574603
4.136431112850569
4.279535522347392
4.2589004178447984
4.124348897942541
3.9436434067621033
3.7606784331669805
3.6130941658734406
3.5006480033089638
3.493290141682055
3.6954856246508276
4.121904169751256
4.709689514127038
5.344813910018922
5.966628223048808
6.593043447606964
7.212161559054876
7.75273190134844
8.115055942046748
8.224092318228905
8.085268517984968
7.745719216932346
7.258343516279283
6.628073827028366
5.87426960584876
5.047103888810373
4.156190790134373
3.208135716560217
2.2103637752609755
1.202506586215521
0.2956901827062459
-0.4066435678207296
-0.8522527546823309
-1.054422939267837
-1.0504969629942587
-0.8386401833066431
-0.49157789370716387
-0.12172896834410091
0.17014278035370037
0.30721602124992975
0.30531325373382984
0.18889464532341851
-0.024113471046309475
-0.3118091225858978
-0.6603838219960134
-1.0165270482965916
-1.3209840873499283
-1.535488378338771
-1.6496192771638964
-1.686738081633291
-1.6478800555438433
-1.5602477047705174
-1.4973950224990482
-1.4764900331551856
-1.4560632931654585
-1.4400722097939165
-1.4246413005138792
-1.4587324839960771
-1.6360859799986944
-1.9665661497068414
-2.4385430415721743
-2.9788876399411843
-3.5336490997930032
-4.085088533170173
-4.614687300915658
-5.12033957383487
-5.569374994210248
-5.886638763264603
-6.013897846650138
-5.849264529691266
-5.354730583538415
-4.613836705374632
-3.7066801811487533
-2.7468650740931637
-1.8411047146976667
-1.0405647068002155
-0.40810117012256336
-0.06483111096009884
-0.07278836467226049
-0.42413258653025526
-1.0243471698997095
-1.7708992688255119
-2.607707529433567
-3.465156073755575
-4.32095626240511
-5.12209166672218
-5.76694129004416
-6.208937501851979
-6.450483317930128
-6.52740629479653
-6.4998909686015205
-6.414203449144096
-6.298113363174341
-6.194287349566172
-6.115259168262707
-6.076124493274454
-6.087863930270824
-6.145235978425725
-6.232278424740621
-6.33064797450145
-6.452191671238966
-6.620924482598475
-6.820124687817682
-7.032527267400671
-7.275213978194503
-7.557020404594512
-7.909935829935559
-8.32562709546065
-8.794988710180384
-9.302382713398252
-9.780899312525419
-10.16972118826065
-10.456699046308666
-10.671865006687552
-10.849193313200686
-11.043722971400248
-11.28691752902871
-11.585346648807787
-11.945262526267522
-12.382785745359454
-12.932359544102509
-13.5701836331361
-14.28060552616758
-15.033447673301858
-15.727051877085735
-16.24241293434277
-16.502732621393026
-16.514799885863187
-16.29519499170666
-15.848766674387766
-15.185857229902922
-14.333666606707547
-13.340619032263588
-12.2810396829424
-11.17169002945135
-9.953466829753602
-8.568023077053418
-7.031304539382663
-5.447141177892516
-3.915398646475495
-2.5254522096804544
-1.2720261875451273
-0.06789241442673868
1.1454906158539035
2.361480487161163
3.4945538905760327
4.46223564662385
5.182548456904541
5.61095609132648
5.706443803466602
5.400607600050145
4.639133298253557
3.4368317522320146
1.9437055011037885
0.31588763162854155
-1.3168956407229828
-2.8590199476386093
-4.232238977385151
-5.385535797480587
-6.303706093389016
-7.000364247699152
-7.554301955160733
-8.079731419910816
-8.650590070082753
-9.246995966859718
-9.877147521788668
-10.523368829208861
-11.108494327242896
-11.613574471487267
-11.958384941491987
-12.08363407472938
