AAD_Filtered_TADAS_FILE
AAD_BASELINE_CORRECTION: BASELINE REMOVED
AAD_FILTER_TYPE: BUTTERWORTH
AAD_FILTER_ORDER: 1
AAD_LOW_CUT_FREQUENCY_HZ: 0.025
AAD_HIGH_CUT_FREQUENCY_HZ: 40.0
EVENT_NAME: 202302060117
EVENT_ID: 13194
EVENT_DATE_YYYYMMDD: 2023/02/06
EVENT_TIME_HHMMSS: 01:17:32.00000
EVENT_LATITUDE_DEGREE: 37.288
EVENT_LONGITUDE_DEGREE: 37.043
EVENT_DEPTH_KM: 8.6
HYPOCENTER_REFERENCE: AFAD
MAGNITUDE_W: 7.7
MAGNITUDE_W_REFERENCE: AFAD
MAGNITUDE_L: 
MAGNITUDE_L_REFERENCE: 
FOCAL_MECHANISM: 
NETWORK: TK
STATION_CODE: 4412
STATION_NAME: 
STATION_LATITUDE_DEGREE: 38.59685
STATION_LONGITUDE_DEGREE: 38.18385
STATION_ELEVATION_M: 820.0
LOCATION: Kahramanmaras_Pazarck_Turkiye
SENSOR_DEPTH_M: 
VS30_M/S: None
SITE_CLASSIFICATION_EC8: unknown
MORPHOLOGIC_CLASSIFICATION: 
EPICENTRAL_DISTANCE_KM: 176.60
EARTHQUAKE_BACKAZIMUTH_DEGREE: 
DATE_TIME_FIRST_SAMPLE_YYYYMMDD_HHMMSS: 2023/02/06 01:17:42.4632560
DATE_TIME_FIRST_SAMPLE_PRECISION: millisecond
SAMPLING_INTERVAL_S: 0.01
NDATA: 13501
DURATION_S: 
STREAM: HNZ
UNITS: cm/s^2
INSTRUMENT: sensor = ACEBOX/SARA | digitizer = 
INSTRUMENT_ANALOG/DIGITAL: 
INSTRUMENTAL_FREQUENCY_HZ: 
INSTRUMENTAL_DAMPING: 
FULL_SCALE_G: 
N_BIT_DIGITAL_CONVERTER: 
PGA_CM/S^2: 55.572
TIME_PGA_S: 
BASELINE_CORRECTION: BASELINE REMOVED
FILTER_TYPE: BUTTERWORTH
FILTER_ORDER: 
LOW_CUT_FREQUENCY_HZ: 
HIGH_CUT_FREQUENCY_HZ: 
LATE/NORMAL_TRIGGERED: 
DATABASE_VERSION: 
HEADER_FORMAT: DYNA 1.2
DATA_TYPE: Acceleration
PROCESSING: Automatic Paolucci et al., 2011
DATA_TIMESTAMP_YYYYMMDD_HHMMSS: 
DATA_LICENSE: U (unknown license)
DATA_CITATION: Turkish Accelerometric Archive v 1.0 - Disaster And Emergency Management Presidency, Earthquake Department
DATA_CREATOR: AFAD
ORIGINAL_DATA_MEDIATOR_CITATION: : AFAD - Disaster And Emergency Management Presidency
ORIGINAL_DATA_MEDIATOR: AFAD PROCESS SERVICE
ORIGINAL_DATA_CREATOR_CITATION: AFAD PROCESS SERVICE
ORIGINAL_DATA_CREATOR: network: TK
USER1: GuestUser
USER2: 
USER3: 
USER4: 
[...]
3.903691180264474
5.093681551499047
5.072861427106393
3.5647314596491095
2.5453077005127454
3.2855329566405094
4.735492110496392
5.793226265894717
6.460153583421213
7.183868870641654
8.595246533320832
9.524844260541105
8.175319738549275
6.55361357386337
7.552706888444727
10.14170842212787
12.081811834575745
13.400328179201905
15.584839552218128
18.55115026562469
19.988475743972668
19.014251077502696
17.196103462943636
15.510585719853562
13.759852392152084
12.255931945191017
11.707535717670734
11.618499886118402
10.699495611064325
9.074008499048324
8.055709584446673
7.908861663198636
7.597999571275527
6.833249861987724
6.677982497450944
7.419696804410408
7.930462949945622
7.427087451099797
5.764641503057612
2.849048213388257
-0.7223853876918979
-3.7287573182991585
-5.39562121907156
-5.310735621611966
-3.622995902430799
-1.9705089117030385
-2.044722236751273
-3.923771401660264
-6.576636245488806
-8.091516190169576
-7.152595849553501
-5.147268761516817
-3.836955765880234
-2.6152329662721128
-0.6228694309699934
1.16826374433241
1.4804227361352937
-0.17406427329712976
-3.6317676716061134
-6.388585997942094
-4.683169779267032
0.8671371590486604
5.524378528916738
6.88638279600981
6.093495918138498
4.3417836145058315
2.0761211764177485
0.2866900261931649
0.13687394437361766
0.8599310578659698
0.8330135648999295
1.1425814030517807
3.0141323670597724
4.630948415333155
4.993215393401399
4.30215680756676
2.1068346605560118
0.5959851491273159
2.543535757526124
6.217631311658893
9.230906868366716
12.01266409173766
13.524775113915295
11.142466868413242
6.723633874650194
5.39371249564488
8.230004427137894
12.242096667772692
15.778296178700161
18.03789689827381
16.7887467377431
12.147254247363763
6.6827619370245674
0.9244366973520965
-3.561598961862053
-2.066452938889737
5.061654975076119
10.567587139676345
11.55693838639141
11.2925359135801
10.09456909087737
8.004691016467856
8.06960675866724
8.834483959024695
6.556550327703031
3.05024483303147
1.7483403823098047
2.603422927366274
3.473724329125047
1.9276318594782742
-1.7517080713753335
-4.288116992976767
-4.003314522408353
0.08553598335036731
7.868856049714719
13.876633795100684
14.837827087761777
14.512427406700274
14.764133963419855
14.21935451340419
13.150330821434201
12.3991097194068
13.279200720327593
17.037940436300865
21.221177598985385
23.24164510926026
24.105411030432027
24.07228524631819
24.065056537929397
26.790909565203762
30.459657088981793
32.18095089972602
33.07250678816662
33.657004175420035
32.56738332149003
29.96301772127057
28.587102970215003
29.665737574627748
30.508105523206428
30.455873367796656
31.01758922706126
31.27651532194924
31.003879734448347
30.274606267262428
28.115984844437094
26.24937193807109
25.357424538566423
23.688021830261025
22.459204902253433
22.82102383979558
23.45673388424686
23.84249582333161
23.257932918454745
21.119061722834477
19.52333165826697
19.992464750018765
20.62403989555819
20.03725379734372
18.989910287723692
17.81140284119733
16.350933025088267
14.085750020051654
11.695367686724728
11.29578397665995
11.650151591444473
10.769575061276667
10.731243897623797
12.954494669007484
15.014324557932401
14.003369524999778
10.959313894348682
9.402181986518624
8.563134333755483
6.200370311655847
5.090679144992096
6.708948248849073
7.270112516207459
5.740675276594553
4.701888971164703
4.149296938846244
3.0257612096143873
2.032114666509147
1.8314579756184852
2.4091770689664327
3.469484144241125
4.461384067264642
5.06672298499366
5.601453919579103
5.820072076880324
4.294745031893234
1.765233149872231
0.38105422845963244
-1.2278320121338626
-4.354769833239622
-6.54201360321905
-6.355190141392604
-5.292230629394239
-5.165992714561343
-6.2945305794356985
-7.8181497075376924
-8.98100213048039
-8.91591109599143
-7.629616333651746
-6.455641143693306
-6.170779980345816
-7.138653577841689
-9.074740655836889
-10.55971656843273
-11.082185124279434
-11.085068423443428
-10.561085099785318
-9.660849558326973
-8.955320501385339
-8.86770660265564
-9.377775368961936
-9.403877307140258
-8.299653257012444
-7.512924850184374
-7.966612423524617
-8.891999976132967
-8.765008590846897
-6.581560062343171
-5.551527156541826
-8.14358280429238
-9.60490508698068
-7.323481589267838
-5.163699975382812
-4.7938720182000685
-5.105832677646049
-6.083799237546634
-8.026599994438762
-9.523519120709993
-7.80083788706264
-3.611723381471023
-0.7136138366443414
0.46952780399402066
1.3173705304040588
1.8171985667162622
2.3658511006345457
3.455678952551636
4.1739003724594665
2.474942770581489
-1.9377375604327864
-4.965398671167554
-3.70156758651387
-2.0934311310217346
-3.869989922446441
-5.732874705746478
-4.420126444723215
-2.5152718105523157
-2.2624403527948784
-3.0663417835136695
-5.895195621280004
-10.510878472432347
-13.074637508590625
-13.294718958694657
-14.730107183630016
-16.90157549136232
-17.137497530310565
-15.87702878578057
-14.262131011449792
-12.905719365273395
-12.986495003225874
-14.229113499537245
-14.546593352261107
-12.920847110522878
-11.344939622911859
-12.292445878284356
-14.128626727704136
-13.847176867263254
-11.833921748773133
-9.412627802899703
-8.09988287143633
-9.187182903448551
-10.150205708754248
-9.190254717196677
-8.469123242020075
-8.673630657754744
-9.75509692199906
-12.409310308646319
-14.913086995436556
-16.405020590113843
-18.37835178350257
-19.78018981091314
-18.85817653404812
-16.863414425413275
-15.383995715524811
-15.61420926517392
-19.0455874378543
-23.80705992740732
-25.430342948005745
-23.844999110773202
-21.87049037600962
-18.99375930082368
-15.328664569888335
-13.770144748743371
-14.113536430315683
-14.822097147229213
-16.825815806054553
-19.928904455332496
-22.04833426306968
-22.23785802755948
-20.82154222851052
-18.322087800668317
-15.421110032458822
-13.128856762632054
-12.849486755218614
-14.590177901425932
-15.2566160812587
-13.29337017030602
-11.087424300062288
-9.48978984766136
-8.161480217715022
-8.189480036194386
-8.705142367481576
-8.082981037079373
-7.221616479341728
-7.286134612022885
-8.425854813836816
-10.647117017341284
-13.121480403499044
-14.08559337709931
-12.705932322609756
-10.129480940955517
-8.395939701068526
-8.446060040283639
-9.696866005593803
-11.686334503031977
-13.830484061224738
-14.896652593802312
-15.069857375622833
-15.415660904620939
-16.125552172433835
-17.681113942548574
-20.209468932536424
-21.687812544920583
-21.04261602767218
-21.10710992698854
-23.644778365801162
-26.081203836191968
-27.25309024075013
-28.6575519373531
-30.263124655002166
-31.881829361772613
-33.92929684673977
-34.693502176719186
-32.225170148104354
-28.11646694331703
-25.1001619664329
-23.24004139533769
-22.841097694072214
-25.02768380201974
-27.453324873974672
-27.995243543616393
-28.31970884600858
-29.45496352761842
-31.618777525661862
-35.47477326799019
-39.31531336774274
-40.78452217706884
-40.5603818362283
-40.344212042766074
-40.272455547666176
-40.17839408746943
-39.770539561452914
-38.18546732736676
-36.42124578274704
-36.18582529534387
-36.453958922298106
-35.9506279456662
-35.02679555702471
-33.721004011296635
-32.38153413747537
-31.935806896870822
-32.47191507788401
-33.998456954548125
-36.17859336918483
-37.59231328089597
-38.4454561517834
-40.13396525633845
-41.3388143810976
-40.563751631726035
-39.74054200335334
-40.14433002026096
-39.63697922582912
-37.50712557288099
-36.311994621541885
-35.873838654614715
-33.30189200008001
-29.77395319835383
-28.171580084320244
-28.16085123882459
-28.739337471244998
-29.576183536559583
-30.014613075097426
-29.325670554000773
-27.910238281099105
-27.4290930638091
-27.81631399329022
-28.05781068631831
-28.477414341383813
-28.29351786519907
-27.62922171333358
-29.295561417296142
-32.365022324680616
-32.818128522007704
-31.365784326820933
-30.673905406717065
-29.363107520522334
-26.544627292596083
-24.21191842405559
-22.88799850907522
-22.66283770055988
-23.397612416762414
-22.799373505641928
-20.79373816437712
-19.417751442621455
-18.39441258092945
-16.789450964514966
-14.654185445821826
-13.016208227311767
-13.602299281932154
-16.329488889707186
-19.098112905771863
-20.513336254677494
-21.48607902970833
-23.377218751331057
-25.582810849695043
-27.330001431135177
-28.787179128573506
-30.229673537096847
-32.70554697417852
-35.31116173761227
-34.97759141402787
-33.10229023886742
-32.90812332141438
-32.78531368847251
-31.71568089345136
-31.491763496956363
-31.108284691226743
-28.952756833854174
-26.479297236641735
-25.29970106550365
-24.306093728723383
-21.69345742268395
-19.450086210085722
-20.03976072236632
-20.95414036634234
-19.93635897456458
-17.587084376680142
-14.02230474877688
-10.956252384981354
-9.798616382853854
-8.02044989196236
-4.889419271871238
-2.6684034025654673
-1.3941184083904778
-0.2462730703942597
0.24612831686032186
-0.07115940490715962
-0.6486976105620513
-1.3489275113120784
-2.489101288037457
-3.628214399815586
-4.043912256094808
-4.056406042236477
-3.861264606250025
-3.4307698361741426
-3.072662772628123
-2.21762466405744
-0.436685762034063
1.8039874801610347
4.255240068868604
6.197345828150042
7.286669785819787
8.370097207120299
9.396818709162657
10.243971892262447
11.620064742016657
12.76182486444422
12.667648555816024
12.945984096791593
15.1382071099963
16.985210372445493
15.684916283781474
12.595678084658031
10.31099656603352
8.8601788319757
7.594674455920889
7.110666886864511
8.157846238843375
9.721784673668902
9.915829697519696
8.838564971796936
7.6159234743756645
6.204002695093235
4.349243571958978
2.673292953150358
2.1596182285802317
2.762776532231518
3.1769330612387128
2.864274253782545
2.43507719094587
1.7092371063188847
0.10258523271692851
-1.4427631775533412
-1.494112371066824
-0.18259420379523497
1.3278791780907326
2.1289063412320015
1.8861596056994794
0.9066824312778962
0.40205276438222437
1.5156513468364976
3.3750998949919806
4.584919096808596
5.10524509346618
4.453987577259015
2.8117195316657133
2.479329319355403
4.185869901653893
6.290653755672594
7.797145710179925
9.484580927113646
12.257164813862852
14.119706263842327
12.501408613793746
8.719982709179696
5.213080481142282
2.675459734284043
1.2429892619021474
0.3207368277810974
-0.7293557220469147
-1.3363314120466943
-0.3924653402774775
3.237162415867079
8.871871436403623
13.531233240446563
15.650161436908434
15.273175735894913
12.54526115891123
9.667301578407717
8.74367281145742
8.900801545749239
9.331663903667017
10.08556249158651
10.252989686088728
9.422825279886037
9.258712722033367
11.051947235831662
12.556574966438761
11.638571417393052
10.844467179257764
12.644830091360296
14.94654778406091
15.032882111702216
13.373470245993051
11.991555304097806
11.599882092660922
11.842288402119186
12.37429404745272
12.877505464125155
14.051407794336571
16.7223315810157
20.031286692602503
23.069834162622755
25.20989100559567
25.718969465385207
25.408829683155517
24.87906671377324
23.6730986661006
22.60947842838111
21.84032056361739
20.301622005211957
19.33972264697822
20.870046239865207
23.481457328837816
25.09322084101427
26.27418279522059
27.821493930137624
28.616468331030372
27.90295608770076
26.90670531588215
26.85191882021088
27.04697831183353
26.71297966374027
26.121896807122504
25.21803143154675
25.18375060264362
27.488133306535953
29.939221376613734
30.819066983197818
32.19713117497679
34.21017139574077
34.43662231266786
33.1856524654008
32.23717248666338
31.40692200243436
30.174817190645822
28.842442729681828
27.89292641629412
28.13051695049733
29.78407494243776
32.23074598351034
34.27587359399423
34.328551561847206
32.917207983898976
32.44716824635825
33.615881873440735
35.08254024821847
35.10000438144535
33.319952888003264
30.98044388330789
28.842635644223833
27.724120515209293
28.467756028980833
29.852415734407128
30.70994887373597
31.776200284321977
33.52734018772517
35.37924757757931
36.4916522148541
36.703032747885246
36.572211431516784
36.0316645057292
34.87651825094846
33.175383614409846
30.510934070679387
27.55653098182061
25.6555940212128
24.052437828265326
22.212065361276167
22.216765978103584
24.29921187779207
25.32628471746178
24.915895311438096
25.7132618118277
27.523809817795478
28.568471294531697
29.16584638586265
29.868293731315994
30.192400628120385
30.269391221630254
30.726333737017605
31.38010863131609
32.0461568864268
32.97825077579714
34.805522996376205
39.0369131200327
44.53980323200546
47.260900282667514
47.09246637411875
46.75155474107873
46.093919670136884
44.418449513611506
42.781368884342655
42.104015196515384
42.099509023981426
42.32208998563661
43.65691022538435
46.28869148645115
48.17391575459033
48.76856015080195
49.49982254246203
50.011569957374654
49.49083760227112
49.37506687392582
51.09889227813818
53.203255606855556
52.54116514281191
49.04795606247136
46.15117973922364
45.14077016241909
44.68722210605585
44.07994409872794
43.14263137145392
42.619966841806274
43.21379866517892
43.97909676303242
44.67301811745382
45.13583881434131
43.25841202419477
38.90542623792376
35.2078096787198
33.518910397460964
32.38657161930132
30.841097192256854
28.468939013595346
24.745765053086068
20.485271060465873
17.75188946517873
17.90545400859308
19.870393343757172
21.455668113926514
21.890030391241936
20.838873231114395
18.838091440063057
17.40714752455145
15.235897742004735
11.597986016347184
9.626785040096689
9.217325406825003
7.705852142803918
6.623117942859827
7.60031186070359
9.147729949963114
10.535875662417268
11.843721379189164
12.723220735970429
12.689322654333143
10.660681287360521
7.153485683234438
4.294875306182017
2.155062298346503
1.023229647362398
3.1750371300773628
7.9378033390504275
11.956503064831857
13.944524817286705
14.02047109654392
11.919412937582058
8.588724289578757
5.915224825915732
3.8735317792059982
1.4391994715554222
-0.4474038484950699
-0.2171780570720232
1.4664031031174762
2.17748372791646
0.7637535273389503
-1.3254850349794172
-2.562078450888275
-3.048529836473409
-2.8893222699951724
-1.1992662648555432
2.28717327157026
5.918714651385283
8.232379568981912
9.954814598384983
11.31570665315025
10.316262529976292
6.693328593472828
3.502120012110127
2.9678973950125536
4.917878104800108
7.721722387568608
8.6517141265211
6.7602092859638585
3.4697352125783674
0.22184825046020262
-1.019073836501764
-0.054949097328990185
-0.2597773909386324
-2.5637006886725326
-4.270654295195573
-4.637126148477437
-4.439235600838218
-3.53298804925089
-2.48441189462365
-2.8341756944376866
-5.172388014421081
-8.622706312721952
-11.909304495250465
-14.71640998920615
-17.3953129390293
-19.109727384063806
-18.370164798467947
-15.80640755322408
-13.702025965364953
-12.481060215256063
-11.04245970915471
-10.46600259363536
-12.456003039228873
-15.335359501847034
-16.5557637158128
-16.23536237952898
-15.731667108353014
-15.973621640338756
-17.244992315485714
-18.935421146141255
-19.84319561941589
-19.178630137069838
-17.730411919452226
-17.41968137109175
-18.98367470586094
-21.50147904825891
-23.848865115646195
-24.825143516118878
-24.415837185608662
-25.140818135985473
-27.647291733697333
-28.50403833533995
-26.441181496894693
-24.27518398103782
-23.42094201782852
-22.921104568554416
-22.345915711894374
-21.307294075427766
-18.867672367242506
-15.752455574871853
-14.020515802096655
-13.692863491549929
-13.319854374149326
-13.218032029712715
-14.199914167278447
-15.513445214598637
-16.613236822552537
-17.05077761591634
-15.530329514715863
-12.55692840544837
-10.053649596681524
-8.2571535746875
-6.51161518284383
-4.598461738070013
-3.1482290732295706
-3.0573670227436827
-3.268786926525565
-2.7722578573192704
-2.672721915029754
-3.2458592693219073
-3.791042477115625
-4.234348050391351
-4.8148203684938595
-5.789715775989046
-6.228075121742022
-5.651271909061245
-5.434077472336962
-5.097302128154605
-3.551741077091376
-2.7007361291931336
-4.139673283969549
-6.954293471280396
-9.347103202072844
-10.01052996950077
-9.451735595109207
-9.142133224328774
-9.6228348277828
-10.709549657319926
-12.212405502701937
-13.503604062141601
-13.740608904098373
-13.528432691777686
-13.85290846787785
-14.237882805520787
-14.449396872255981
-14.702946530458993
-15.210853065232785
-17.002323228816635
-19.492202659394085
-20.705250020050965
-21.159260872805884
-22.13662579077295
-22.766525912347735
-22.371774049936207
-22.350019078293563
-23.548518161763397
-24.59006774314717
-25.230008116889397
-27.28645277007568
-30.30865948887925
-32.0035757132129
-32.50600343137994
-32.91092685533549
-32.93736533205665
-33.195186102637784
-35.03646726717329
-37.68699179914823
-39.34322903388117
-39.69856517753321
-39.2818053256063
-38.40886162943646
-37.86096656222025
-37.94597807015932
-37.104419125781654
-34.83609929855244
-33.09115636797845
-32.275233174449525
-31.608130061847362
-32.68346664820979
-36.09182252056953
-38.3074377878758
-36.941606582525395
-34.38867427998056
-33.24591126529504
-32.49689083344055
-30.790420987516512
-29.302968820569497
-28.926037042329657
-28.985139872149546
-29.148073469262073
-29.110746630577175
-28.91947079807551
-29.83344635384573
-31.874527578895854
-33.75959158628969
-35.15557448823236
-35.728308647287825
-35.45093964367175
-35.69576727667708
-35.99152878701611
-33.77650347724508
-29.987985925680277
-28.416219080496997
-29.198772195118245
-30.34305026255597
-32.19473919751668
-34.2141536579708
-34.45973707562805
-34.083697114634084
-35.09843617440962
-36.76807296491745
-38.0100710094088
-39.153404898283505
-40.64222739080746
-41.78271223661535
-41.5994023219443
-41.07273744739325
-41.79146674665493
-43.10905643680326
-43.869099232196085
-44.231059839922615
-44.20278487480923
-43.98277285103455
-44.95589612907962
-47.2280218847876
-48.8884860980748
-49.352365978747585
-49.678239310218146
-49.74957396238895
-48.66867618902252
-46.62056985028448
-44.31089183797016
-42.38394585355254
-41.51687334791401
-41.03145720221436
-39.230134942229505
-36.56576674401557
-35.27700528091014
-36.242724189188266
-38.694274758299834
-40.89564138050714
-41.08964246772114
-39.530435079936936
-37.67227906463375
-36.01640327319338
-34.68446285534648
-33.75260853490505
-32.61156884403331
-30.90473580251988
-29.0093093510493
-27.16331845129091
-25.398137440458168
