AAD_Filtered_TADAS_FILE
AAD_BASELINE_CORRECTION: BASELINE REMOVED
AAD_FILTER_TYPE: BUTTERWORTH
AAD_FILTER_ORDER: 1
AAD_LOW_CUT_FREQUENCY_HZ: 0.025
AAD_HIGH_CUT_FREQUENCY_HZ: 40.0
EVENT_NAME: 202302060117
EVENT_ID: 13194
EVENT_DATE_YYYYMMDD: 2023/02/06
EVENT_TIME_HHMMSS: 01:17:32.00000
EVENT_LATITUDE_DEGREE: 37.288
EVENT_LONGITUDE_DEGREE: 37.043
EVENT_DEPTH_KM: 8.6
HYPOCENTER_REFERENCE: AFAD
MAGNITUDE_W: 7.7
MAGNITUDE_W_REFERENCE: AFAD
MAGNITUDE_L: 
MAGNITUDE_L_REFERENCE: 
FOCAL_MECHANISM: 
NETWORK: TK
STATION_CODE: 2104
STATION_NAME: 
STATION_LATITUDE_DEGREE: 38.2644
STATION_LONGITUDE_DEGREE: 39.759
STATION_ELEVATION_M: 919.0
LOCATION: Kahramanmaras_Pazarck_Turkiye
SENSOR_DEPTH_M: 
VS30_M/S: None
SITE_CLASSIFICATION_EC8: unknown
MORPHOLOGIC_CLASSIFICATION: 
EPICENTRAL_DISTANCE_KM: 262.22
EARTHQUAKE_BACKAZIMUTH_DEGREE: 
DATE_TIME_FIRST_SAMPLE_YYYYMMDD_HHMMSS: 2023/02/06 01:17:54.7016190
DATE_TIME_FIRST_SAMPLE_PRECISION: millisecond
SAMPLING_INTERVAL_S: 0.01
NDATA: 18251
DURATION_S: 
STREAM: HNE
UNITS: cm/s^2
INSTRUMENT: sensor = GMS+/GEOSIG | digitizer = 
INSTRUMENT_ANALOG/DIGITAL: 
INSTRUMENTAL_FREQUENCY_HZ: 
INSTRUMENTAL_DAMPING: 
FULL_SCALE_G: 
N_BIT_DIGITAL_CONVERTER: 
PGA_CM/S^2: 116.465
TIME_PGA_S: 
BASELINE_CORRECTION: BASELINE REMOVED
FILTER_TYPE: BUTTERWORTH
FILTER_ORDER: 
LOW_CUT_FREQUENCY_HZ: 
HIGH_CUT_FREQUENCY_HZ: 
LATE/NORMAL_TRIGGERED: 
DATABASE_VERSION: 
HEADER_FORMAT: DYNA 1.2
DATA_TYPE: Acceleration
PROCESSING: Automatic Paolucci et al., 2011
DATA_TIMESTAMP_YYYYMMDD_HHMMSS: 
DATA_LICENSE: U (unknown license)
DATA_CITATION: Turkish Accelerometric Archive v 1.0 - Disaster And Emergency Management Presidency, Earthquake Department
DATA_CREATOR: AFAD
ORIGINAL_DATA_MEDIATOR_CITATION: : AFAD - Disaster And Emergency Management Presidency
ORIGINAL_DATA_MEDIATOR: AFAD PROCESS SERVICE
ORIGINAL_DATA_CREATOR_CITATION: AFAD PROCESS SERVICE
ORIGINAL_DATA_CREATOR: network: TK
USER1: GuestUser
USER2: 
USER3: 
USER4: 
[...]
17.38539654470552
17.979635789350137
22.169541256070083
20.55487882526235
21.567491853010917
26.256587157346797
29.585540956745067
31.57075415259488
33.73359858488191
35.29037897075688
33.91052256184547
35.269550122059066
36.708314849694986
32.188438742257496
30.20355873839865
32.599109131626044
32.66497262057531
31.081803790737382
32.94612817513634
35.618426290226
33.973034241252115
33.3273410545406
31.022307667013813
26.469041182781414
27.934345518817654
28.098730303794532
25.37042740552828
26.08308994047873
25.6939257917748
22.42538959737225
21.428672139510944
23.313310135820988
20.796239862088658
16.75221391886698
18.794123276891035
17.842272710928444
14.208005261340606
16.29503337330242
16.0321145029747
13.490539191265231
13.557022644053172
11.691813115012481
10.143460648433333
8.901617747988212
5.100964239522264
3.236775630972272
2.5273427805046964
-0.35138417724280724
-4.54109145972401
-7.008092188135658
-6.580223912066457
-9.266860784756691
-12.978822419560103
-12.733477494671925
-14.040310034854297
-16.430388803804792
-16.464272330325716
-16.323373103203977
-16.89358770721364
-17.440769859849247
-17.33277745900086
-18.356067347705146
-20.651845213511898
-21.83443277255633
-23.275636932022387
-24.84426552241366
-25.815351999572144
-27.117202753421754
-27.410141929594392
-27.341782474639647
-28.358030323171786
-29.88775877393708
-31.149603057821672
-33.212823019243686
-36.79495194753994
-39.268959135418996
-40.37046991166153
-42.09660219803483
-44.53357624178097
-47.012592585356266
-49.46768394435567
-51.946953099874186
-53.97464274649927
-56.09765788525432
-58.5741216869175
-60.784640847112996
-62.37767201148347
-63.11983330587453
-63.091658387574604
-62.29555711462593
-61.846796870422985
-61.92880900383416
-61.30534218168596
-60.52210428676248
-59.81237193157963
-58.19130923647544
-56.204810848011356
-55.02174198206697
-53.3939128186551
-50.961780173321834
-49.19855721591289
-47.706549488099576
-46.16832546388073
-44.56966816682849
-42.74983786741213
-40.97527879956296
-39.09588848616438
-37.45667849557397
-36.12889806427573
-34.31476163184906
-31.684606998908883
-28.56632845119883
-24.592720053808712
-19.34456127097141
-14.185063446993823
-9.999615540478922
-6.132472174781714
-2.5042994209200993
0.8270994260993965
4.181611232102705
7.435497442879146
9.9896617732118
11.28223965551049
11.498692915496331
10.946375362396495
9.85699687208358
9.067415930183957
8.773440639964624
8.516152675678603
8.555097144707421
9.021507490532928
10.017509073814823
11.876099038589864
13.84749309665637
15.64340381592716
17.558781179601016
18.729168004894344
18.954448817906982
18.89351625488749
18.724346120022847
18.508733156812394
18.44343141091359
18.786392161012248
19.310833556073696
20.14869952521017
21.44454101687519
22.34629428329906
22.75349289199794
22.856142856688017
23.18258928147274
24.766974891993907
26.905254265773692
28.76168922290886
30.835033761384057
33.25164484069456
35.297516253375804
36.86794832028439
38.21305095021432
38.93264336296096
39.47996399915459
40.255842827597085
40.51316166066855
40.121697132550445
39.68489543431195
39.733022959205485
40.367547132697645
41.39146573696524
42.48650138251177
43.50437238167966
44.901565468515955
46.46385208036038
47.326183529313525
47.62074649186817
47.456244105261185
46.83040649756649
46.26098609327677
45.082887185328126
42.41216472838763
38.92367353102195
34.924707540671264
30.77551502803961
27.57133459298692
25.015313884996385
23.709682245048892
23.62638668257302
24.213678895287476
25.794051522246146
26.48260852865204
27.818792996650732
29.761974951674762
29.616702638802614
29.013768959812403
27.328516378434976
24.954843046825545
23.481189312075518
21.583117117624177
20.007458716523733
19.83631057016843
18.217939196653475
14.886658890066295
13.497689198911722
11.556311542660218
7.863713430878372
5.484045995342156
3.278594576509199
0.007162895712467965
-2.4802826685777277
-3.4662215643756045
-7.205854574591594
-10.138573362839182
-10.232358598017383
-14.487041146653702
-16.635069136280467
-17.083698530612555
-20.381855975215796
-20.04607676432536
-19.733755299957046
-20.70145420833104
-21.40093479821003
-23.690363050185642
-23.755283919539643
-25.801847090755878
-27.75612805126136
-23.24610561947197
-24.99605177041074
-26.72532078566508
-20.46569457899799
-21.27782398963696
-24.30771264989519
-24.343579797188458
-24.177901050629753
-23.607637509895874
-23.315204781520467
-20.975929429968637
-21.039156401078316
-21.64800065919867
-20.754126929833625
-21.071722735170997
-20.581844917338426
-21.496363036334532
-25.10966884018769
-25.271340562550737
-22.17257097431064
-24.116524869063685
-27.173467083416973
-23.475233229178535
-17.040258767325042
-15.239705399944352
-11.968353651988688
-7.252363538823115
-8.116695007531346
-5.088227899291858
-4.282866392839125
-8.4171767319335
-6.543418569729242
-6.37100871721928
-7.53239236582033
-3.71981136703155
-5.073586472447979
-9.220540558153917
-5.305037729459253
-9.111513513870657
-15.759244491501208
-9.761404278270497
-11.039278423288472
-15.72619487779082
-13.010177484752372
-15.22264621657334
-17.89020286807191
-14.337729846850854
-15.570507073799435
-22.79012058670908
-21.078873908408024
-19.21738486771689
-25.120682424679167
-24.246708344499076
-24.304907010427637
-27.171025666384452
-22.511398559265277
-20.574868285584277
-21.01949235947593
-17.23887870189133
-13.085025330138391
-9.88752352648447
-7.247559732782491
-3.5814615654054944
-1.991020829354912
-2.402052924456324
-0.45370281763695425
0.5174808784264303
0.17167540047016652
-1.013837895037281
-3.4390791619602217
-4.33956089084875
-3.707936814902873
-1.6497369260118968
-0.6383157323070842
-1.2293244877243141
-0.2798630076225462
1.044483575158349
0.9923866793181063
-1.3076483308380373
-4.264219603989261
-6.676334249601097
-11.068942598201216
-16.015577985543608
-17.745008145863366
-18.18835061118096
-19.702788945596986
-18.346336357466594
-15.439184345771784
-15.731628704887171
-15.24133531312
-11.147700766033452
-6.367661593589114
-2.8152210726766334
-0.1515044716428055
1.3654857613310722
1.8189241115914254
2.756693440566084
3.4527978654198193
3.6022062987913803
4.104122288956794
5.464235698023517
8.261166949651138
10.737548094730064
12.279518990079533
14.047313962716805
15.98449544403118
17.538808263614076
17.251708822249686
16.168083979010973
16.154349440812435
15.084788309506388
12.035751695370681
9.52112542244829
8.722179793894847
8.98945612258912
10.530788654969985
12.403568419522898
13.54337468689928
15.436667529948126
17.559687868751215
17.932045249833767
16.22205459180783
13.492085819512925
11.570409700365754
9.95466045433204
8.51437650499663
8.753255274904298
8.662953332409655
7.0413165396436295
5.941866309251737
4.49227990655644
1.558152572172956
-0.7386911204773643
-1.4418493295641006
-1.3898378435584733
-0.5918299450802024
0.517744895029776
0.44483916896692216
0.09820150016882541
1.6667562482447162
3.307073375622417
3.721212351602847
4.9352470607324905
5.911854642282991
5.349279968009619
3.904932209793077
1.4145014766929678
-1.3188546518051938
-2.710536143407516
-2.3190939600161777
-1.7779031472106204
-1.705625775759939
-1.190700157816209
-0.7627882519616203
-0.5712391311144331
-0.5526711438435938
0.09361893946452038
2.6371384714624586
5.454984497593689
7.179302236500284
8.581567148538634
10.431132255969924
12.700915967815202
14.88623077138393
16.586959745753365
16.383426160663753
14.96115103674039
14.596017017973017
14.455359590645704
13.684789529644949
12.638386537927598
12.10034906291707
12.125443538531119
11.89545425700571
12.292619575220158
13.596464338547454
15.19264300908428
16.553886886894986
17.694369442083705
19.31962929370015
19.679764954183995
18.034742471444137
15.850540008246385
13.007572545571776
10.747740325179725
10.167430210355322
10.226440144312262
10.356176658870435
9.70253966789033
7.936797936865657
5.541079096181767
3.1794616868555265
1.4470024861432225
0.5650993369718881
0.4071952146153582
0.19478505304766483
0.4647725131275805
1.356597925889282
1.7604035206330724
1.8982750819774303
1.7607690357906605
1.575922791497598
2.0447361270204256
2.5121380934848276
2.642141380208116
2.7026121739888014
2.657227150047448
1.840700009783963
-0.7836520907050721
-4.48704709662567
-8.15157092073275
-12.062297733585856
-15.537008456053409
-17.194153841599665
-17.635002062362744
-17.996006114495987
-17.69256880398148
-17.19460472887352
-18.20884598429236
-19.879447888237657
-20.699153897356243
-21.12219639491448
-21.558836719960418
-22.09646684430906
-23.637749745867573
-26.033785419186785
-27.713592327754952
-28.660525966958716
-29.59446442488959
-29.648348835482793
-28.95032844887451
-29.124015540553714
-30.308223568580107
-31.85646382402454
-33.55938414084197
-35.6132109007969
-37.97336170312649
-40.25423830573209
-42.850601327291386
-45.447506324231135
-47.156470185881645
-48.12321907367055
-49.221180591818026
-50.40969629346855
-50.26616858202574
-49.46566593682108
-48.87027276481971
-46.81788049413081
-42.643981510500396
-37.48918064647506
-32.739421098757404
-28.0714053745869
-23.29686215633256
-19.286511563985023
-16.354800387508455
-15.616171134440611
-14.603022493154231
-13.54593615204665
-15.110617760255897
-14.210134442756946
-12.73910440693625
-12.654629042974175
-10.205477372976482
-8.492256048776012
-7.478846878496433
-7.286979878743398
-7.666862954847107
-6.367283717781605
-4.920295603245121
-1.818657720415271
2.528525298097363
5.944562811840893
8.998788935835401
11.397439707098426
12.239680608536297
11.949101224525961
12.203549971293556
12.975920076797845
13.264414439546812
13.101548752327162
12.223217404347585
10.86104063388958
9.598255133057929
9.44354056828778
11.677455373210206
14.2768735950379
16.73657259271613
20.39752376612028
23.160494042326178
23.957500983151554
24.198228363313387
24.120538198484812
23.766849196617667
24.100619226527133
23.99406719685274
23.328732219444213
23.196405279966932
23.823954245315196
24.356317358489335
24.925636243149064
27.00388612454271
26.58015217986756
25.961830203111717
27.279836736397616
26.001989665205187
27.113142939891517
28.731581734597853
27.317889499072674
29.360841157784126
29.416579712939605
24.67329265010415
24.961992340401522
23.113297220333422
17.596477873596957
22.114088018640004
21.797127003578563
13.499092575040429
14.931914095811793
15.972439876734946
10.479835310308932
6.5938533086490185
8.510696571619428
9.757626244951702
6.705872630388372
8.507006914978843
9.43130206930079
7.736656163252766
9.205729035184994
11.35332215862049
13.695079078478313
13.399893570751432
14.710509163968226
17.558701030715227
15.317265464714
14.874496626283642
12.73395972687529
8.058095315512361
9.372904874140177
5.991290539861315
-0.7388113345779063
-3.904819619386378
-5.228471069087005
-1.180124485875633
0.8928736021374781
-2.5115181363465386
-7.780735130995824
-12.695157836082508
-11.902864048795868
-8.076132490831608
-6.8645393597205215
-9.17491760225625
-11.8354289375462
-9.07914213593787
-7.216182304830941
-11.138774351175712
-11.400621514161047
-9.472716589140695
-9.384186009695938
-8.72726629254793
-9.593378606839892
-8.119753919307454
-5.008599182032016
-8.328362515944383
-11.059105200484591
-9.624812109717181
-11.011673372486198
-11.352456917578781
-8.18579571751406
-6.279124897860489
-4.07460120961543
-2.332821402818042
-8.631232122109047
-12.092505608360579
-5.4554496252313855
-4.176597638912394
-9.787707598113338
-15.218880265440648
-15.831100785240967
-13.884980151907232
-15.456976570292548
-16.995454250266143
-18.38979897373021
-15.45050329751305
-6.033264909911717
-6.817566671022885
-15.031720167126092
-10.332387813974657
-6.669356159869959
-9.833993014374883
-3.985226601249988
-2.5488094112312365
-7.077113303207523
-4.652900470982323
-1.7465234713188569
-2.564587990507713
-7.254428478156986
-6.172093545558608
-0.07058200440076047
-5.6012775592057835
-6.414338443554577
0.139452262126674
-4.73200222014141
-3.2858453557123624
5.495623780330595
-1.0752893038676554
1.8013095458644717
15.331615770600408
-3.0197340603072202
-2.0119741748010207
23.170095645033786
1.4887835975336787
-0.5033789277610601
33.930505838690195
16.51769225581874
1.8018373318946306
32.77662836929722
15.72312453502162
-6.813063044868862
28.13222915726046
30.820712228348928
1.2193627846569355
-0.38088493188926187
18.878705030766383
11.993274691415763
-2.0194582464817863
22.858297918865084
17.23924236198926
-1.2377176180913456
17.210671532528366
12.775522223618504
7.034560974091598
20.089342157070043
24.125029110952187
21.968922337029387
12.994974489646669
16.03551732330478
22.887252846143173
21.655779790175608
0.09556627957147201
-49.030736864206084
-9.157937183689924
102.18438241652028
53.470450480931746
-65.05589575539163
-4.642394023838694
49.60420865362214
-24.062301144728504
-11.179396763143474
44.52002984997474
3.9895642687714337
-11.550194966853494
41.28814761601945
21.862761774235285
-36.421358398770934
4.758917331003453
41.262444036292884
-9.962296409861622
-20.922060086120037
2.848638936500729
-8.46969542005831
2.5229292033068322
11.577228997799464
-12.827010572074045
-22.509146542800497
-22.7362954316139
-9.114993422915088
-3.9850287071531523
-15.429437114645658
-8.832331309679644
-9.069516733362994
-12.735588452805557
-19.86327429022852
-18.71102845718035
-7.228320725329803
-13.758278654571042
9.387595406564639
10.009833438895239
-32.32677026165937
-5.750161677959957
25.847171179613603
-7.783376664297956
-13.21856777119114
14.434405687615746
0.6248875448830522
-3.320608297411255
13.497342630161903
-12.139583766037704
-14.539796746871898
13.663730596849293
19.17658628899651
4.900734336335256
-6.325378737369256
12.214396938239288
5.1186993830942065
0.020779548473007253
25.23249999795295
5.565611746638475
-7.3182926240582615
16.99424927600147
16.02216083145081
-1.0252973285170162
8.703457629792261
22.87783089944307
15.929503752532739
23.411127097991535
31.574296968274183
20.101741504813365
19.311175840248524
12.993313458121417
1.5945089432810962
15.660783002212478
17.843770556654743
-1.2623433572427578
-1.3348333061992221
11.483077429493576
8.276408796156192
-4.546224204208588
3.3937091134428785
4.8346799870743595
-2.9001223462773242
10.061603916506332
11.499750014588905
6.532271393826632
9.873305452018764
8.691255268634816
-2.654968631777183
-8.24350540415388
7.277154816057528
8.095779997695047
10.337347798070386
20.75678456890703
4.747332768073606
-8.308554810105312
2.044100722279962
10.045799086129005
-7.693038379137359
-8.325488849192649
13.735231625111629
7.692723800810881
-2.786665188577069
-8.675026197730825
-17.15805311492374
-3.495967726880884
15.271871250754096
-9.154429450328248
-43.14856787488977
-20.032253877353384
3.3692771329426825
-13.737584669005063
-20.81925142745408
-17.96274133109093
-20.57897860254219
-16.22722302525155
-13.708366282427512
-21.19967477654698
-23.379312318172406
-20.272975033497545
-21.473283128117107
-17.348839004193945
-19.534856858824163
-36.693643706897525
-32.23623271863359
-11.747922839326723
-12.773255431427195
-10.857070056079225
2.32306546717661
-3.562094130110452
-5.824420387848682
4.064246142153182
2.106742954258228
6.9044198515315145
17.229867111832547
13.129054593122879
7.124359942322501
5.9228176373808115
7.418953439675619
3.0465005941711225
-4.351290236928473
0.27123247595351374
5.572490562717017
1.4887226594158811
-4.893229187615423
-4.676296645535863
2.9707492159749926
7.326305711316216
6.924796288643621
2.68111105474987
-6.48867199619801
-4.128616557330103
6.35733314115947
3.783233658606579
-0.4158118532639666
-0.906157383498181
-6.589903441211459
-11.820862010683335
-13.23421007370974
-5.381468675152846
6.2403580944660035
8.819598889277032
10.636904181101926
13.413813849800158
19.606417049322868
26.296079738750574
13.272749605005112
0.36373046991360886
-0.13743572767813303
-0.9024793554570221
7.764604281296458
13.833719776226507
5.330867148713294
2.447717967769454
12.969692895241904
14.289700032267195
7.561135192374375
15.762397193917574
17.23669985041934
10.407598222203294
16.297517018251686
16.993660129051662
14.287927463974484
19.037724207726445
23.75816377796099
28.938088091448865
37.96318728586921
39.75886526416909
26.61703030905503
27.979139764824897
41.61801206957309
34.85487443824569
26.299518926406417
27.281302438170812
21.936170159745075
14.785848827218045
10.097987001615213
3.507118347544787
-3.3845361173498003
-0.950475261497342
7.882270545036774
0.8934378034613013
-14.953900091623785
-13.001665304599817
-7.002069994414477
-15.066521812160769
-12.584017928418847
0.895320132556071
-4.002580949939113
-8.053015603872893
-0.7755934734379172
-9.886697305457846
-19.71754071383543
-14.258235375694309
-20.451301145024924
-30.492928922433777
-20.050723850928208
-11.32683820621668
-17.839763552295064
-22.823027223377053
-22.296188072383654
-25.145010724378384
-24.939449624791813
-6.5109725419085205
3.1199600654528683
-15.036374007109044
-26.943217140477568
-31.28700726952766
-39.33433413453324
-34.591896006584136
-17.83521613636141
-4.478186491841156
-11.603777830907674
-26.287630918325956
-30.21728727514743
-35.19623748815468
-32.92764027506663
-16.627572610910086
-2.267063375307675
-0.4986332251195665
-4.506048737271676
-6.53994545546965
-21.467431708687073
-38.56800947224186
-34.84641220333427
-20.71788153025806
-10.055527636268007
-3.7428715407094324
2.087786446285747
-2.1454542372384875
-14.500884656876439
-13.430456331593026
-3.6891233645659827
0.27181431159298536
5.592881492504782
16.765831798636874
20.782587735231015
18.35248016055412
18.220458753478738
15.43176881937226
16.15363225512654
23.577215474603
25.178264613586055
21.600105665882968
25.61237916937548
36.82034708236756
38.19913912560251
31.219228472913006
26.054837293060054
24.78198387071303
35.298158947055484
45.36899086883359
47.69296270904067
50.397712847900685
49.2247180534405
52.49917356165147
57.56512033580769
49.42918519254815
37.995099989819344
34.41358033004934
34.179893566824234
28.72880569490661
20.418518132051783
17.912875755807605
18.681049305017694
15.659398054365132
10.625264541920991
7.957469319266359
9.294693914946603
12.612629576217573
