AAD_Filtered_TADAS_FILE
AAD_BASELINE_CORRECTION: BASELINE REMOVED
AAD_FILTER_TYPE: BUTTERWORTH
AAD_FILTER_ORDER: 1
AAD_LOW_CUT_FREQUENCY_HZ: 0.025
AAD_HIGH_CUT_FREQUENCY_HZ: 40.0
EVENT_NAME: 202302060117
EVENT_ID: 13194
EVENT_DATE_YYYYMMDD: 2023/02/06
EVENT_TIME_HHMMSS: 01:17:32.00000
EVENT_LATITUDE_DEGREE: 37.288
EVENT_LONGITUDE_DEGREE: 37.043
EVENT_DEPTH_KM: 8.6
HYPOCENTER_REFERENCE: AFAD
MAGNITUDE_W: 7.7
MAGNITUDE_W_REFERENCE: AFAD
MAGNITUDE_L: 
MAGNITUDE_L_REFERENCE: 
FOCAL_MECHANISM: 
NETWORK: TK
STATION_CODE: 6306
STATION_NAME: 
STATION_LATITUDE_DEGREE: 36.727695
STATION_LONGITUDE_DEGREE: 38.947
STATION_ELEVATION_M: 362.0
LOCATION: Kahramanmaras_Pazarck_Turkiye
SENSOR_DEPTH_M: 
VS30_M/S: None
SITE_CLASSIFICATION_EC8: unknown
MORPHOLOGIC_CLASSIFICATION: 
EPICENTRAL_DISTANCE_KM: 180.18
EARTHQUAKE_BACKAZIMUTH_DEGREE: 
DATE_TIME_FIRST_SAMPLE_YYYYMMDD_HHMMSS: 2023/02/06 01:17:43.0781870
DATE_TIME_FIRST_SAMPLE_PRECISION: millisecond
SAMPLING_INTERVAL_S: 0.005
NDATA: 27001
DURATION_S: 
STREAM: HNZ
UNITS: cm/s^2
INSTRUMENT: sensor = GEO-A200,/GEObit | digitizer = 
INSTRUMENT_ANALOG/DIGITAL: 
INSTRUMENTAL_FREQUENCY_HZ: 
INSTRUMENTAL_DAMPING: 
FULL_SCALE_G: 
N_BIT_DIGITAL_CONVERTER: 
PGA_CM/S^2: 29.889
TIME_PGA_S: 
BASELINE_CORRECTION: BASELINE REMOVED
FILTER_TYPE: BUTTERWORTH
FILTER_ORDER: 
LOW_CUT_FREQUENCY_HZ: 
HIGH_CUT_FREQUENCY_HZ: 
LATE/NORMAL_TRIGGERED: 
DATABASE_VERSION: 
HEADER_FORMAT: DYNA 1.2
DATA_TYPE: Acceleration
PROCESSING: Automatic Paolucci et al., 2011
DATA_TIMESTAMP_YYYYMMDD_HHMMSS: 
DATA_LICENSE: U (unknown license)
DATA_CITATION: Turkish Accelerometric Archive v 1.0 - Disaster And Emergency Management Presidency, Earthquake Department
DATA_CREATOR: AFAD
ORIGINAL_DATA_MEDIATOR_CITATION: : AFAD - Disaster And Emergency Management Presidency
ORIGINAL_DATA_MEDIATOR: AFAD PROCESS SERVICE
ORIGINAL_DATA_CREATOR_CITATION: AFAD PROCESS SERVICE
ORIGINAL_DATA_CREATOR: network: TK
USER1: GuestUser
USER2: 
USER3: 
USER4: 
[...]
6.484159383762906
9.040729350121953
10.893366457470105
12.062598114217348
12.580445806649328
12.373571761364781
11.189423994742883
8.858484860601951
5.798177330236272
2.7834520776317953
0.581218835364177
-0.5201918370481223
-1.1176618970472294
-2.096592732394937
-3.9859898417440873
-6.76593467682853
-9.852437944285487
-12.625863073267466
-14.70297848518634
-15.696305495948604
-15.296376416808378
-13.451321665776431
-10.636813920335827
-7.84947334591533
-6.134707913981518
-6.163138442523845
-7.545204785687335
-8.86687219957886
-8.779074298716091
-7.02139583525338
-4.704889398547755
-3.2302910055959577
-3.061790691933402
-3.296844875731518
-2.383417889857513
0.3959972437509433
4.6388933172646505
9.222554271894019
12.954053966996955
15.326227446243145
16.15149808749883
15.318149969338105
13.247386275333952
10.870763249102948
9.211986574598694
8.72271648687078
8.67366253583328
7.781683049401183
5.454249778213748
2.275221638755105
-0.2991329786706667
-1.0336058021960275
0.10712133694550903
1.9180486471553704
2.756519374577499
1.7740144145579055
-0.4450238830560782
-2.473719249468714
-3.3695462755222896
-3.139686079172967
-2.391675927623539
-1.767771074245398
-1.4325724389962295
-1.3132312035280285
-1.2621455307953144
-1.3036092021331813
-1.7370327948027637
-2.706649880872618
-4.2546806997792395
-6.249258047965925
-8.354193389224063
-10.236255133176144
-11.433650085042647
-11.569345859062269
-10.43274090997933
-7.888018759829054
-4.430904828437609
-1.2030589576268638
0.6331099463246574
0.502396115822415
-0.9869281776795621
-2.4814326325202534
-2.8503796198799236
-1.8054648470575672
-0.19076132005098537
0.9139027404712563
0.9284781663827505
-0.2905515793687471
-2.0944478885434967
-3.397944922501309
-3.09512054942224
-0.635820852989046
3.1231274778698133
6.653145954290796
8.641975978239676
8.716687110109246
7.655659322745827
6.657814106117156
6.6680817650342314
7.670008676575418
8.806637499514467
9.08260899733422
8.115109722003135
6.2851883171338985
4.073201732656095
2.138349733698907
1.3129589827721
1.8599132464586217
3.511584731417683
5.4147145064293065
5.918696603508976
4.378230108563808
1.940818746020098
0.5210978840762113
1.5236321983663976
4.092746033561456
6.340136149213408
6.7147986207618615
4.618323360395272
1.1750244758467763
-2.4230860572605817
-5.062086767724537
-6.000101155232897
-5.426661025302327
-3.60640669168131
-1.2227447097440964
1.0956847746188025
2.964847254652535
4.089066820461971
4.720795616692685
5.317191414883377
6.279593484796475
7.3909643030302306
7.64176265230627
6.335168972599951
3.652376521024489
0.683013262672648
-1.1168326618340494
-1.107694002027901
0.24901626960669926
1.6031613042034565
1.6550797036959228
0.12998785453010134
-2.4537962208078863
-5.364214645022387
-8.391773645084745
-11.725654312437864
-15.36250264107064
-18.757643609826413
-20.94211843663261
-21.69666344981325
-21.823354369867488
-22.11738989494951
-22.700293820220345
-23.29579162289793
-23.524256279420058
-22.952090163756893
-21.643656888315892
-20.18732337186862
-19.041911653943572
-18.120205500189034
-16.957652017069883
-15.28908356580239
-13.249304662595659
-11.203371872931314
-9.330733090474576
-7.456086985813591
-5.282732725919287
-2.6502773138477287
0.2380586179702048
3.0780293943903887
5.425181679146786
6.597918911138878
6.180326928382615
4.2117141692286415
1.432025131771602
-1.0506020981794613
-2.6620194338567753
-3.374693128058744
-3.4220977104182078
-2.9365614509576368
-1.7025412041539134
0.2738740051206824
2.419768693606715
4.1137531169298205
5.099178714412346
5.69184407370595
6.661114964356386
8.408393426558874
10.65437408038141
12.865334323636878
14.630385841170172
15.957821781321094
17.17668852726736
18.22147955693727
18.34906584501166
16.86968983883204
13.899099563047175
10.65902731557586
8.57935796061404
7.889586938630458
7.876639481831673
7.818200046831693
7.554859761175982
7.612975096975401
8.29570014945876
9.097404522919682
9.03054972141598
7.253261046045874
3.9249732258143117
0.19278429957776289
-2.773815626619115
-4.570779954305365
-5.527986727041092
-5.931401819342024
-5.3510302206099905
-2.933237972279731
1.3327587281747029
5.962936786762047
8.898277650298235
9.213031953966295
7.83236783800869
6.718048398126313
7.399477219346799
9.802243591161146
12.727617198421072
15.035636079692955
16.36708052913822
17.169562707384017
17.697738534840358
17.56563985578281
16.23030146176242
13.373712978152044
9.409971235803768
5.4067566695619895
2.168763649210641
-0.09941409623336263
-1.629303770612526
-2.6609366396810046
-2.9837578221137284
-2.2654457268708907
-0.6925586392238138
0.8225430870683867
1.08229464503652
-0.4391699306546456
-3.0426263719196363
-5.284293711960061
-5.940504430976521
-4.905188174474753
-3.132652196059427
-1.8541055345543442
-2.08475713148003
-4.03810917456393
-6.961553465805817
-9.711819856541613
-11.2946299343668
-11.192751634278272
-9.569510362143697
-6.986827543063874
-3.9396712958156956
-0.7552358270564645
2.3074486555294316
4.6465136359719725
5.4057950319106025
4.204603239823562
1.6652088240324092
-1.0179440460023053
-2.8637752856877405
-3.3287380078672233
-2.642266246087235
-1.4768566441480402
-0.3564064913415794
0.5670878395689273
1.4280321697250673
2.095898542202058
2.185259800857282
1.319418090123894
-0.3591145753272566
-2.1550404880337872
-3.420720018481479
-3.811116541740833
-3.6864861121955164
-3.688045423505639
-4.111073625179485
-4.92710983782341
-5.855291464032953
-7.060555450348789
-9.141644377093238
-12.47811774426641
-16.88232688438819
-21.254628376360973
-24.2898551078968
-25.290478367701606
-24.430481140026348
-22.52464017642316
-19.994234959568967
-16.873505530321673
-13.355433684095983
-9.878719203533352
-7.114041961228674
-5.139481723593627
-3.4235515308797115
-1.5442971511736132
0.8797610892560277
3.8264642413024963
6.838308974058223
9.268842445254641
10.388113103711596
10.070584634750636
8.857607484421068
7.585444175863428
6.889392965552221
6.599322661772023
5.952197150652839
4.389397758144128
2.1746209660102473
0.46551432430210105
0.48211157898465823
2.5418820197326197
5.926305927649406
9.055234163268395
10.3094036084329
9.138437890383816
6.410925167761037
4.003783538626073
3.689730501514718
5.94928826606438
9.487900893592709
12.277299176309148
12.994572967499948
11.43150124713492
8.395617060162243
5.190607401775663
3.017640985634783
2.1878458041344553
1.666723364712264
0.38223148163793114
-1.5542196958231
-2.9565488304520366
-2.4251684639268585
-0.01248199765633628
2.815513383310756
4.88864474067755
5.897120854262777
6.25119536791953
6.209548775080632
5.511770014680965
4.47420299280014
4.028817034862673
5.149923433748931
8.296664387540618
12.63216988223305
16.35002777930577
17.712331729956322
16.042669026761235
12.24266408799461
8.316205256453852
6.063946066541214
6.201610325543594
8.395786191440623
11.542258715939077
14.613568349232771
16.971993720129724
18.03669502012254
17.770872575800148
16.8255118031282
16.014348503618155
15.820496065910527
16.017763339176128
15.904862369481016
14.925222567480104
13.256152850748022
11.693577995528281
10.989692414503445
11.343604327382224
11.900267585545931
11.13901403098193
8.17212555809003
3.5194815504354016
-1.4426668932298519
-5.566943546259603
-8.460068766046735
-10.460973398422057
-11.89198308680662
-12.72015900627895
-12.910766412969854
-12.414793003781563
-11.270688493746814
-9.507136523893303
-7.270650463103223
-5.044515720450309
-2.8839158920701857
-0.2792489542792824
3.0778509952533106
6.61523122279071
8.940802584371559
9.125180503079116
7.547338393718137
5.5699556128091885
4.277385620482483
3.242110808069139
1.0423436879829977
-3.3883068989526306
-9.566355906292829
-15.471330046967287
-19.241461382219526
-20.48263068899655
-20.41125683115473
-20.63144110092401
-21.516092104698323
-22.047600578738425
-20.73565902321324
-17.02798670405968
-12.085810176401532
-7.8928743755974455
-5.722638644016506
-5.254225645451448
-4.745038435384513
-2.4444803133684228
1.8915177971796102
6.987997076794705
10.831744987084685
12.134230073704552
11.296072667814645
9.546431214832255
8.008408272635993
7.203109726527657
7.073859685486389
7.268238473917662
7.323504409390139
6.861104603470802
5.889748985776259
5.245396102142071
5.9864354486742375
8.36205908293374
11.309976140999572
12.9727796023076
12.43611077400337
10.529916682274237
8.885216131509836
8.59766918085482
9.440700718141047
10.206111667593497
9.992434493225776
9.017328920084942
8.170903135748647
8.099338183262489
8.47964825597057
8.106861022084939
6.033655548787158
2.4238802553496903
-1.6863144812256416
-5.159750262769169
-7.421872288240631
-8.624968856205276
-9.24598364284633
-9.419307712933529
-8.85729843498931
-7.367579501230925
-5.1277770173604456
-2.765644668084824
-0.8575282594326064
0.8353409757332656
3.1368832172392214
6.554626448645656
10.421377477755916
13.25175318683693
13.936999940840094
12.58951999739117
10.673746105031757
9.71259192590354
10.328564038219962
12.109023228077273
13.91101013935325
15.020183689591619
15.376359498570876
15.031637315046167
13.752721385215837
11.144278850777601
7.300587938011567
2.861507357377046
-1.4072156529364725
-5.1355869578133655
-8.278477478375752
-10.62494807289067
-11.900612023093709
-12.094480886201147
-11.428675328107412
-10.351966921342926
-9.480908991633617
-9.170547123181926
-9.466817129224788
-10.044655223392928
-10.293621556924798
-9.867751507090876
-8.835909783952163
-7.54699208075937
-6.1665295487206375
-4.481824282594809
-2.2906656186533607
0.3077086595846382
2.73616614739915
4.0292995768047435
3.5535504335876906
1.715559175227258
-0.12547151645843593
-0.33834289081193236
1.7051142175935399
5.128227886330565
8.361182628634616
10.087384037620964
10.110040697092709
9.012163739703322
7.345499044119372
5.2239454882124505
2.0506788556389455
-2.5031038867698205
-8.001813565044275
-13.622939494519043
-18.21442265085729
-21.1427307066184
-22.573281711248157
-23.021240705593176
-23.13379125833919
-22.91927724230834
-21.81525078490998
-19.579454624905207
-16.51568928932196
-13.45762857972761
-11.420839955130495
-11.010092871503605
-12.059767855618201
-13.60617961152032
-14.545800486276752
-14.09103418931603
-11.901347755869853
-8.298566441336027
-3.945934274153907
0.26577948857489464
3.189842641780084
3.875621203921419
2.1500620410428795
-0.8903966682049567
-3.4147849756436606
-4.161424902039799
-3.280373238472016
-2.28857872989155
-2.531299434557346
-3.767011752093384
-4.627109238689634
-3.842272210366117
-1.5316805614391649
0.8352930069985323
1.7843830274776427
0.8997468262901389
-0.739823915607427
-1.585856971514883
-0.9199674809557428
0.720779460204362
2.232823914004131
3.1811669449119666
3.917448250798251
4.930822693330388
6.030477219916112
6.414753847500924
5.516403798421815
3.760997542148394
2.2999916636661912
1.6040075512803806
1.1920117618322985
0.12571493286833887
-2.191345612541792
-5.178896547002896
-7.544411811078031
-8.275403885098875
-7.4502686358109536
-6.3260450908896715
-6.272827888670429
-7.555346749096485
-9.021725931392739
-8.996519441997775
-6.890960217691232
-3.570500933411425
-0.40393810867940766
1.6522077166405693
2.6638518752798555
3.0106608415536096
2.9361754482713707
2.9074218484504017
3.2818174281900703
4.338854137471204
5.976864993320479
7.495954981512629
8.370886487147537
8.52492069443352
8.251469135591393
7.583629722121404
5.994823878678774
3.409474310777636
0.6619221356784115
-0.94667982081151
-0.40803446481144395
2.2996375000935902
6.215819329869341
9.691752293642791
11.320179953084429
10.851964059760697
8.80124812804888
6.069300704099093
3.3807607729382116
0.9222716157191689
-1.041343936556271
-2.2453405542908436
-2.301974140923486
-0.7962327920445846
2.0180680634562274
5.245181553775733
7.461169758601806
7.602502388358125
5.768005198458575
2.9450118508571075
0.46057686978814794
-1.0638329678170337
-2.0726038600356884
-3.302672455741925
-5.155078092656951
-7.310937212303756
-8.949926857879394
-9.607041845113088
-9.526052934068085
-9.525671041243609
-10.410665088748127
-12.31782926234039
-14.680298286282117
-16.628061792482345
-17.540732163000182
-17.067003899301188
-14.933355123899043
-11.083763160222755
-6.163568114776224
-1.6828145894979476
0.8080746477905082
0.5824678756385082
-1.9121177638720028
-5.470068383480003
-8.778736608239585
-10.711929496544856
-10.714339525393063
-8.882230295567243
-5.834385947536186
-2.495410985241979
0.5316958686379352
3.2231577001164498
5.570908669394952
7.2835071789860955
8.122861852250084
8.152279997956343
7.723966136072941
7.246753992552135
6.968134185247225
7.059380566162442
7.860453075096084
9.720964449978077
12.60302161240417
16.028949376005656
19.50737829828387
22.893154790987712
26.091802534969524
28.68303425688936
29.775603071138583
28.624697365513036
25.437896774506747
21.28711604202838
17.592888724019332
14.98994808246226
12.887638031579252
10.227998588758025
6.220741715991438
1.1207310730920488
-4.0017185260482835
-8.296415744629439
-11.59750010367407
-14.215407614528669
-16.261303994477046
-17.47989602153256
-17.620668884810133
-16.530887005681997
-14.271428895279373
-11.03943959527109
-7.048243951523493
-2.9193594768867737
0.35215351707496045
1.9370966699792096
1.8387134566956123
1.0910075391682965
0.9679078530562426
2.0896977445958713
3.989721792766823
5.617507600327109
6.483165716979012
7.164351849238756
8.55424665735548
10.628797315065702
12.404061041475007
12.832380536058636
11.448776193702905
8.656474931607034
5.113006608939621
1.2913940508716457
-2.1073273425153425
-4.318260306503843
-4.80967455013204
-3.853919923486398
-2.7717956759262075
-2.82030248526863
-4.260812758925772
-6.09626486602792
-6.918950295552672
-6.232051510788031
-4.575724866859122
-3.003293602051677
-2.419859614220579
-3.1242080486168193
-4.710264112362757
-6.341899347956912
-7.608756679194011
-8.795493064447513
-10.41862138545793
-12.597985533883703
-14.615390061057894
-15.660955070895316
-15.622352261947889
-15.04101421640228
-14.65501828803399
-14.670271207760447
-14.825740621562511
-14.7783147717122
-14.31817248805396
-13.738549756848172
-13.466635693412593
-13.421363904263544
-12.855025774563941
-10.795501756744516
-6.952470687688985
-1.9160331649192797
3.223917756065842
7.460574559566828
10.47031767500702
12.423290843779979
13.601794713142743
14.169518524704992
14.074500057954783
13.182971447917467
11.492398970404217
9.51309653640948
7.888983467842597
6.764267463945543
5.748362141595096
4.03638330879899
1.080432552736801
-2.915510635902798
-7.253662349094481
-11.225500509605396
-14.241863924913904
-15.674889040824889
-15.09509208699747
-12.57880357509324
-9.072142396134312
-6.16319826209026
-5.0137675500748236
-5.559965340260895
-6.392146167550699
-5.889887510153253
-3.6290841316934035
-0.5952439367739837
1.3241143146473662
0.7893509617092098
-1.736728829752684
-4.5695228290600785
-5.893848105235508
-4.718645851899317
-1.234919433084972
3.4115278155073256
7.5996823840867
10.123966759829019
10.585011794748752
9.73877297821697
9.040314451172645
9.326479702411756
10.198491015189223
9.912153296068004
6.754957641217144
0.9360430500339236
-5.376220652548913
-9.3942911164215
-9.667965483602815
-7.223622002224622
-4.6517503965482
-4.146678551622187
-5.934278601425234
-8.581854822294114
-10.337115247999577
-10.23965979615991
-8.736642836865997
-6.908762671826355
-5.671075949441791
-5.4196402044006176
-6.014632321608228
-6.871884028840398
-6.936382945185827
-5.4328815082692525
-2.356793997623128
1.3907066814634816
4.526331519204038
6.277380420756735
6.534015619261088
5.595883727571553
3.5176368810964815
0.39528557067160086
-3.049543202923546
-5.846336273014535
-7.357650043677272
-7.988291590358018
-8.98964909506874
-11.21407544372824
-14.02225985499047
-15.620269113962244
-14.64684640470436
-11.13588086405569
-6.716160147547564
-3.1616499656020185
-0.7900108613748379
0.8488075651426473
2.2567644656459405
3.4430066187686106
3.8133545538593063
3.1480806101894014
1.727226726913357
-0.11643316633499184
-1.9424271224184009
-3.11696756052037
-2.8681379668576943
-0.7699034755275879
2.1784237699522664
4.198973622045251
4.255653325637766
2.5056977831621494
0.36854223609823605
-0.6910606915620462
0.0344374800593878
2.724878440617919
6.873614149711811
11.543896613207798
15.8039990628951
19.106103315281935
21.279689584550752
22.279908849645686
22.114238112057535
20.753581929340566
18.38674391280565
15.461851591280121
12.495100354869027
10.227870694610715
9.306222331460289
9.50460686566988
9.857415937564483
9.306237872034703
7.487287037717808
5.239169758644166
3.5910695236195997
2.8072939211159813
2.5798545969371682
2.449674572706487
1.9739836444311856
0.9661016316746976
-0.39520812827729823
-1.8988634601636676
-3.1097577569557084
-3.4245216306386586
-2.38236334420432
0.054044936313065235
2.9348078066960084
4.670078844728154
4.012358483607724
1.058007973889687
-2.754559683593208
-5.723372914235245
-6.972774280100276
-6.897097210337897
-6.451711990036973
-6.339754201371419
-6.36373978344194
-5.559437738872956
-3.2495254862646883
0.2572258851213193
3.558984021017326
5.048143039429792
4.104859382897236
1.2203981722319293
-2.4395195645195322
-5.379280193594861
-6.488722503486609
-5.37930279503954
-2.4564729059145085
1.1420929757414497
4.410156393688874
6.940946032903586
8.829958149540316
9.87513409324346
9.43331608634304
7.292277373054064
3.8267689028275966
0.17577914312132564
-2.4527920405928065
-3.499071785086552
-2.8308700933876754
-0.9374661834021087
1.5148908097870004
4.253568775083305
7.365216576072255
10.935219114452243
14.470002212276569
16.711154634264773
16.091871677424965
12.16333263321539
6.265555574959589
0.6825079537137971
-2.5605348525097194
-2.977298133606995
-1.497056556721142
0.5999415086092535
2.2004039539941367
2.843723999254985
2.7649846110055925
2.428589740412431
2.1851323669998712
2.1389662917480923
2.07568130891202
1.8266386295966595
1.6374928552481687
1.7047509021678835
1.9578826546823611
1.9871553657076435
1.1740012379009035
-0.6270464551997336
-2.738074975797002
-4.1122125061050365
-4.194027883880658
-3.083483689156159
-1.492735071486286
-0.3498997948636596
-0.018450357813945738
-0.3029233189933082
-0.7747738284007563
-0.8950539485171046
