AAD_Filtered_TADAS_FILE
AAD_BASELINE_CORRECTION: BASELINE REMOVED
AAD_FILTER_TYPE: BUTTERWORTH
AAD_FILTER_ORDER: 1
AAD_LOW_CUT_FREQUENCY_HZ: 0.025
AAD_HIGH_CUT_FREQUENCY_HZ: 40.0
EVENT_NAME: 202302060117
EVENT_ID: 13194
EVENT_DATE_YYYYMMDD: 2023/02/06
EVENT_TIME_HHMMSS: 01:17:32.00000
EVENT_LATITUDE_DEGREE: 37.288
EVENT_LONGITUDE_DEGREE: 37.043
EVENT_DEPTH_KM: 8.6
HYPOCENTER_REFERENCE: AFAD
MAGNITUDE_W: 7.7
MAGNITUDE_W_REFERENCE: AFAD
MAGNITUDE_L: 
MAGNITUDE_L_REFERENCE: 
FOCAL_MECHANISM: 
NETWORK: TK
STATION_CODE: 0213
STATION_NAME: 
STATION_LATITUDE_DEGREE: 37.79667
STATION_LONGITUDE_DEGREE: 37.92957
STATION_ELEVATION_M: 602.0
LOCATION: Kahramanmaras_Pazarck_Turkiye
SENSOR_DEPTH_M: 
VS30_M/S: None
SITE_CLASSIFICATION_EC8: unknown
MORPHOLOGIC_CLASSIFICATION: 
EPICENTRAL_DISTANCE_KM: 96.48
EARTHQUAKE_BACKAZIMUTH_DEGREE: 
DATE_TIME_FIRST_SAMPLE_YYYYMMDD_HHMMSS: 2023/02/06 01:17:26.1896220
DATE_TIME_FIRST_SAMPLE_PRECISION: millisecond
SAMPLING_INTERVAL_S: 0.01
NDATA: 4104
DURATION_S: 
STREAM: HNE
UNITS: cm/s^2
INSTRUMENT: sensor = ACEBOX/SARA | digitizer = 
INSTRUMENT_ANALOG/DIGITAL: 
INSTRUMENTAL_FREQUENCY_HZ: 
INSTRUMENTAL_DAMPING: 
FULL_SCALE_G: 
N_BIT_DIGITAL_CONVERTER: 
PGA_CM/S^2: 171.695
TIME_PGA_S: 
BASELINE_CORRECTION: BASELINE REMOVED
FILTER_TYPE: BUTTERWORTH
FILTER_ORDER: 
LOW_CUT_FREQUENCY_HZ: 
HIGH_CUT_FREQUENCY_HZ: 
LATE/NORMAL_TRIGGERED: 
DATABASE_VERSION: 
HEADER_FORMAT: DYNA 1.2
DATA_TYPE: Acceleration
PROCESSING: Automatic Paolucci et al., 2011
DATA_TIMESTAMP_YYYYMMDD_HHMMSS: 
DATA_LICENSE: U (unknown license)
DATA_CITATION: Turkish Accelerometric Archive v 1.0 - Disaster And Emergency Management Presidency, Earthquake Department
DATA_CREATOR: AFAD
ORIGINAL_DATA_MEDIATOR_CITATION: : AFAD - Disaster And Emergency Management Presidency
ORIGINAL_DATA_MEDIATOR: AFAD PROCESS SERVICE
ORIGINAL_DATA_CREATOR_CITATION: AFAD PROCESS SERVICE
ORIGINAL_DATA_CREATOR: network: TK
USER1: GuestUser
USER2: 
USER3: 
USER4: 
[...]
24.50817600839834
15.115775970001737
-4.826495562107318
-31.37923658498725
-56.798992852202815
-69.88451790928089
-75.43741357828024
-84.89488202529468
-93.92649185013308
-102.44382095460335
-111.66363929660936
-111.93183937649209
-104.93116685756884
-96.74080885521961
-83.50816591291489
-53.43828928068533
5.597371528546109
75.62512222018994
120.04117412383452
131.3660356943787
124.3190695911344
105.96663814993481
82.05344811484622
65.52354423590687
58.7955861701448
58.85890276369717
72.67487504312648
91.41321322903593
93.3982160068063
75.01574244969326
40.36354426947046
-4.471308003486994
-48.39396077216
-85.24359403782397
-115.0137366016149
-136.9950923176221
-138.2132114821806
-117.18962491410808
-99.1586262346747
-91.70811309052897
-86.93060245555755
-84.8136145644473
-80.81381492395614
-76.77933210770166
-71.41436411613104
-53.23837902413556
-27.449016865115766
-3.6676484216691225
10.494564551624787
8.897425005440763
8.284545279828485
28.29493932670209
62.428832473668685
89.05367863494757
98.58237847745944
94.92408498833144
80.21597719139915
58.99727370992549
26.378530224223113
-20.830853822423432
-52.70851525483236
-50.398592559184905
-31.42792526773645
-11.090459795283367
5.585738126055297
14.994197531015006
15.087512458784486
3.3771595827022645
-22.177020629618987
-45.92885269907494
-41.02805857353315
-13.698848939862978
6.613529298573938
4.742433463599051
-13.322215123648347
-22.28232490416305
-11.844522782555167
3.308602660073832
18.61541988516859
37.37950603377991
56.76872201000832
64.65836757781409
44.9346821054931
7.456125417029061
-15.363636310063892
-10.830660179248097
9.01014845601711
32.43032425655303
52.58814150818465
67.47583959701157
81.0447483799343
85.29407356364763
66.68671466632992
38.59546511885176
24.397392746443074
20.711022325515902
17.056476156801853
18.376177694896043
23.274957592762632
24.024495419191236
23.098444244553153
18.406070740484964
11.401129162188969
17.85137657571644
32.14018983477271
36.21090961698975
32.100885033241624
22.8820179805342
13.855808669335598
12.915539381344033
10.566591215849396
5.523402463202986
3.706863055780283
-4.478835564478216
-17.961250284317458
-27.589522536978624
-32.64884266210933
-28.584680522399672
-18.37141490719959
-10.78530166562511
-6.309388141574944
-8.681362750876367
-16.350160073342817
-18.38510370621004
-6.747821240070933
20.39050291967806
42.83823429594096
45.36765760108303
43.64614528054483
35.51300555017442
10.700511657763927
-10.656926045404383
-16.84852367974516
-15.473333723345238
-12.452691908985067
-16.26539383393723
-28.139417791035857
-33.40569462445101
-25.73617163188113
-20.42327070006166
-22.934221510803507
-22.227965729312267
-18.807589118834425
-16.137707207586057
-12.587798729150743
-10.930520676809227
-13.18413929385339
-14.736904165281398
-6.343447939345471
6.452978029954304
11.185276682955797
17.133352538932993
30.807678770680777
41.73694615246675
44.02476274979591
36.7876078828676
22.08129951405202
2.1203771136015868
-24.817272578270725
-53.816201908094484
-67.99573630714292
-59.684963542821144
-48.69673688466264
-52.367223024912
-62.627167927714005
-65.49835983870327
-53.94546570938552
-32.58292346714499
-12.015817765101549
3.4764767431912915
14.34537589833352
17.54950835905183
10.114723480783121
7.126296987163116
19.209444906171434
35.3578940223526
51.43662508206343
59.141562059371914
54.38930813140249
50.318142227159896
42.494976651996815
31.24734271393281
25.096185380361252
19.999528433344278
18.925600262449912
15.205585070518353
5.975401874213998
-0.49373831837700444
-11.82547465805168
-25.483603142604956
-40.557031916246935
-58.37035443488062
-63.253193025900856
-62.240719280748486
-64.13675091410805
-60.05256582132192
-51.73913537485601
-43.98168944756478
-42.19707019427578
-42.222797087386844
-34.91131686761224
-23.2692963261214
-9.877864223828274
-3.1420521358594296
-3.4333456498694885
1.3661647906748162
8.424295704024793
14.607898865528409
20.031063018145225
31.747484517582542
59.79024608668098
85.27530001452843
96.48854889910737
100.54366046429132
93.82857761731628
80.82142925941388
64.46450953677105
45.1108966848656
31.978910032319465
26.223631355726862
28.147826762435372
26.084398121012693
11.459857464737974
-0.5971570479135846
-12.073472560971918
-22.736718288304175
-18.30711679250564
-4.534970785097916
7.496001497517656
11.050978411671409
15.373733302525897
31.731003350089313
48.131595246345086
57.680026532092846
57.130636789831
51.0834742312812
50.988063120317165
40.728771856642354
11.126796231121995
-20.211262200317158
-37.59214263300288
-38.30751816901075
-34.57500400844626
-37.03059898095846
-48.48266709020074
-63.39844047055625
-75.96918139143011
-86.79330921497706
-87.19051396307763
-76.82079159405065
-58.11051955350207
-33.85038038505465
-26.654786498292715
-24.874935984698244
-2.392311401375017
26.35734282278209
48.99821031229277
55.00241006501377
44.14180929678687
44.015514537377186
55.83289327460143
63.87376258926669
67.1253276951552
66.40283722874004
67.29000783920827
70.64006277268109
69.65335613954306
65.6684826305349
63.20133021687321
61.42376657597968
58.21979132843289
55.75178880743109
53.10670167127975
48.70471839777306
50.33457411349799
58.741894462429194
64.1316746820502
60.75765979917699
50.93430543442262
45.3265479695664
40.48865635797439
24.11667330088981
9.12802183862744
3.592967753881197
-0.936276326461507
-1.0954287700949596
1.76497134373613
8.952357335542999
21.42790832827193
16.868729877135635
1.7358703983438584
5.923673370669418
19.710304657922194
28.55221811811734
40.25948095865368
48.52530144188153
51.61980343150165
63.97637206263591
61.40234943201231
30.7666946133506
13.386844046046017
-4.269652901145291
-45.147180904077665
-61.98895321596438
-55.28901898203586
-50.58784896391037
-29.17531116921473
5.335644191538211
36.78605422590919
52.54469984832472
46.57193495566956
32.405282137631566
12.531457843422166
1.9360949242689107
8.309380356279709
12.608145612928467
24.53450446041277
33.77981722222046
23.498561086602205
28.19291804891314
42.76600218214534
42.43017049646857
41.861742184438526
31.97914532692601
16.117632372586627
19.637738160724908
11.726757690390233
-19.448003983443087
-32.00331937036413
-30.59292450719107
-30.700076579747556
-19.452908500798216
-9.741914839331569
-5.689258905571866
6.2102106501299215
17.6966507593069
18.562428429571547
10.847857890053708
11.15547673833155
18.75286476031038
8.90171820969481
-10.302543593347599
-21.684788411117044
-31.705417620043843
-32.81350517834521
-17.86223695176199
-11.013894090571387
-14.261048311177115
-5.758899199161348
-3.0626338243711926
-7.236195799929207
0.35990374777828316
-3.9199754736012
-14.293871643870164
-9.093603223498611
-4.7856137996201085
-5.9307328682783
-8.334651264615065
-12.157384701187354
-16.400902028622415
-14.662510332809699
-10.793626679685518
-18.36620373504083
-13.411341344038744
2.3178036642906643
6.48770595350166
12.203430767184319
0.3557092551699723
-11.974892737371814
7.925101831644841
8.183639998140741
-12.990636941263853
-25.18831480431549
-35.49667394301052
-26.05672584306434
-21.94753242815922
-54.7116756638177
-78.38083797909682
-74.70184080815663
-72.97491893745683
-80.70012289507358
-90.98086964624962
-92.57963217055136
-83.6837259347354
-91.41644615791694
-119.82895376571675
-135.23699185887713
-127.25618900588842
-101.87635126903047
-76.57084606785327
-76.69084688433162
-86.74788659392728
-95.97115281543901
-111.77060835477484
-116.81871512322564
-114.20429527156068
-109.53560904972085
-94.46017869259039
-87.47197426865424
-87.57030466636564
-91.39163575578249
-111.82623894351337
-119.94606510522236
-114.22001754339952
-121.05824966580393
-112.05408294285147
-90.07552895628054
-96.44355672365343
-110.62777909381731
-106.47422734721634
-107.55890647816966
-119.3872284665202
-119.12176833003397
-113.93395953005866
-112.15166006401746
-92.14072535224409
-62.390686485235044
-49.956041659342155
-36.9297479104032
-0.3447498903648041
34.741301483379374
48.086905383669105
58.40492069965761
64.78762042845473
60.87236667125916
59.9328242140665
50.4134252280051
35.91579325083408
34.6849797962946
26.369543858175373
0.3632679701141337
-30.368298918039386
-43.075805654736996
-32.15825891744919
-35.78702092241405
-49.560145960512685
-48.78687634503044
-56.39435544412456
-64.78477674600586
-62.605455571554664
-70.9639890560289
-81.45757259525065
-88.88803255990535
-99.6008894217426
-99.44615474896213
-83.28899489431329
-61.27558092600332
-44.907496853663154
-42.199746581475125
-55.56653458609856
-66.98002352128356
-60.84999514911519
-65.59546867424147
-77.94498401396552
-70.19052482793867
-72.81965790053108
-80.91058089208887
-71.24732892541792
-80.1082231872027
-94.94477153529009
-89.73808426387778
-94.98986546883654
-104.35647651294494
-100.97804185095188
-103.44492293209638
-105.83411445217276
-93.53315454496233
-84.98377575191101
-90.27866002050929
-88.3787232918485
-77.75911420775594
-74.37145902381604
-73.36825146146197
-74.55532091611458
-83.40300436196097
-89.5686144117399
-85.06804239498908
-76.74095029522718
-75.45158135179285
-75.21241150690767
-71.78221291924066
-77.97665838573147
-89.72841897372199
-93.32403743407421
-82.8119735906889
-61.86451251256677
-48.19635836867539
-46.158046483064915
-50.82138809446043
-49.01256633148542
-23.3565630873053
0.2834475060052235
8.968071211609534
21.36473844965221
20.739460029578517
16.43461523557677
29.24004208367697
34.281350499018345
43.183923807322245
62.70329952372302
62.548382073558834
59.7302407357507
60.90067826765551
52.57087349962308
60.1880650141551
79.18741861914293
72.40613100893921
46.701687432415234
41.22958836748639
53.2038457510426
46.227130647686124
35.072526282927946
35.50294298710229
25.028828806912294
20.602612758770924
24.630573546190988
-0.6749833796946851
-38.560081576511124
-61.258912060964704
-86.9708318611196
-110.917783047341
-102.44070266965115
-73.41185112357901
-51.642320868278695
-42.478975283542205
-48.69301348455985
-52.70202804683696
-37.93370868769456
-19.531880722764527
0.9842541809983709
26.218720231044344
48.81582035479919
73.00069702110419
93.71758941902391
101.20824696872981
100.09365156773671
100.45248426266583
101.6059621005139
94.91203852325475
89.30455893983896
98.09912822992204
117.87333373920342
132.24196330958688
134.29392399776722
142.01902777759426
152.04884138998798
152.50360185450745
154.559388597002
147.40681972641818
138.46781038295842
151.76262442901253
160.31119814326746
157.35109558250656
158.40566066055834
151.80549971434615
151.43634067531778
154.24851970107693
130.07837582326417
115.12036385346553
137.88512867834146
157.13763759344974
161.04747119335352
159.65384569060444
145.40311647604537
142.14299195157523
155.58805938358924
147.68694824239859
123.05733859369066
103.11795751001442
82.34755944209569
61.598429147084
33.617803321417426
-6.912147266509449
-39.40552337281185
-56.849316306017386
-74.71240881191922
-98.81298846571786
-102.21916276013823
-62.31331568613181
-8.801187849822663
33.55277976965059
57.723376881541405
45.81172972136154
31.122475398825557
37.81944891123325
17.144644063740973
-23.062560875106726
-31.65591361399163
-22.264422848815105
-19.112214765317347
-24.031510924784655
-32.80991220177557
-24.17704141582266
-0.19286004170974969
7.923960196466947
7.147363643300128
19.05246431788805
23.531146918747357
8.20666461572101
-19.634098093364905
-60.79973804746763
-85.60597720183355
-69.40932428772955
-47.18386486148526
-51.56869149706515
-69.6950549533905
-68.34371547539875
-47.72710289928261
-52.050071327674075
-89.66828489043081
-129.46602474713927
-154.2346714645003
-147.53760462950407
-125.51486989207648
-130.5313044205552
-146.14709607537944
-147.5295326943721
-147.25745617800234
-145.4389779915201
-152.30745143103482
-167.745933955958
-157.83589528944913
-133.20025163874283
-116.39489678881198
-89.18219499288557
-53.211435758398956
-25.50926732689522
-5.28430933106892
-5.029898334391579
-37.74466088946179
-65.14975434915887
-53.18288304892206
-44.231627018385964
-62.659309681863874
-67.65833263028537
-58.047391963837924
-54.77760082412918
-37.1262218012888
-10.517901051070382
-2.7867308246399647
8.505563898905578
38.495076493300814
60.501747179548644
74.07109575399097
87.14679907271115
86.70361543177728
76.23446081634447
60.78513238954977
32.615657889837216
-7.783529832600424
-50.278523521525
-74.93314960426679
-72.64683801895849
-57.141912621631455
-40.32841643516809
-33.20152314730653
-44.778771220971166
-59.78196475474847
-57.34751518195818
-33.89624522481484
8.434371331206727
54.01941802045412
81.32345618386725
90.06670155144447
77.4768729132013
47.19468033372977
28.649235389944106
22.592510497551064
9.773118058019136
-1.9834198970258288
-3.544521139697025
2.0686444372128228
19.360631001681565
49.43078463864147
61.565303470194785
35.32444166346417
4.658799813630661
-13.66949262687567
-38.41420577676646
-61.105035599287724
-77.91471382602869
-109.03288654117416
-137.12879206075448
-135.60244216140018
-128.51794610760854
-131.47308546649575
-134.1253575404423
-142.19863327675125
-137.34499972964366
-110.86328016047823
-102.60528832596214
-112.17170258757524
-120.51293315870156
-129.8048468423241
-119.1078842614831
-102.85154992065043
-113.59417549116206
-115.1614364907162
-93.89973071013175
-88.66728273593344
-99.31443327670215
-112.9799519369884
-124.13997083815603
-111.39053020627507
-86.77127869479673
-81.57289366330559
-80.93517313918164
-55.76523681046061
-11.16850573488512
33.85016011949888
78.37931680301193
122.86564083041998
150.90993327572798
155.8590360153708
144.0493069232962
125.65269390116863
118.24139742920471
118.32651903269239
109.53317110623756
98.99178242711473
98.1165409276212
103.75799365085011
94.6642829577664
45.11166055002431
-34.20581223213047
-106.14950290763223
-144.89152676606162
-147.24465952420988
-131.53692053698737
-118.19046728646337
-115.67218742827141
-119.50273913323767
-122.30433209891495
-126.6603445353723
-126.92846766153836
-113.28216814496382
-95.4547206499118
-83.3592170127574
-77.36776854847227
-76.32211548158618
-70.79069101777412
-50.23357160684523
-12.398364466727378
36.840750722427586
82.34507607094838
111.46926359452792
127.50870932113911
141.93784881528583
156.74908906528103
163.83885615089523
161.19441370824447
153.518739271168
144.941928574212
140.25670297747126
134.42692709369254
122.52061520328492
118.56348138589313
122.15144230439162
114.3257062717716
98.7418757979749
84.42946666362612
70.38790798882134
68.61114356273758
81.23466385248267
88.60159113030011
90.49362398743735
98.44803231428494
105.59420112591305
108.08584442019387
108.48425634399489
103.48083995574908
98.71650266763478
99.87625463250377
103.2274284092399
107.9058603452103
112.24123582197205
116.46692603848025
122.86987018362022
126.68110972604283
129.46171080540017
136.41037283818235
143.3306382930467
151.47560267934045
164.41026126322498
169.99709655075924
149.2156681038471
99.00188043964128
41.60188011656045
-1.9222232124364245
-26.18787138097374
-27.14753467299666
-17.091865074271304
-15.537578522560427
-20.14853251129377
-27.470460558731023
-36.18408119908002
-42.55593456527037
-50.49222770007618
-57.43056054845921
-63.4579992435045
-69.32439534770785
-69.4483645163699
-75.02160358950286
-81.76997487131096
-76.23259874454
-76.43499807475807
-80.11797701717305
-76.99531067139549
-80.92978152241217
-78.63239065408354
-63.02353036401465
-52.9174872011247
-44.412861018300134
-36.91521193579952
-37.03903978403355
-37.54182417146109
-37.722677628447094
-37.53672210820122
-32.85840731676875
-23.836466149254573
-16.12075032161597
-17.204497115596254
-21.946720988414437
-26.958427889635193
-33.28153523181492
-28.222094991721463
-12.477573452568228
1.1831260624615192
16.028093402222435
26.766730946786417
22.775069672296883
15.753446755191245
13.421037158436938
11.425068085809297
10.473175482712424
3.6963910206745263
-13.361078817130746
-31.29108340176553
-48.868898491374964
-63.41751074550211
-64.70789654174808
-58.751174761396754
-53.95037909902292
-49.744775529088706
-48.79595438846454
-46.68766315923212
-37.36258674884444
-25.10676870673815
-10.551268000254574
6.882313074465185
21.656955541271483
32.41146221125812
45.88689609564735
63.82977123718151
79.1970919648698
94.13266367407427
105.44984690534504
100.04263472557072
91.49974085747779
93.9037490774088
97.02911894891506
97.19571589607665
96.09334573691801
95.74770877778094
99.42900229034299
107.1149114828641
114.87689553661852
114.0537080136245
109.56649552408548
101.91976840059078
81.46751075481015
57.88895425944771
32.655983434182886
10.753665876276505
10.025834371456162
19.059441751134134
26.98525698603446
33.45464263269627
42.76989976953719
65.83996073991473
84.78592000398328
91.29512425007186
95.44004926762709
95.05769260264869
101.45665606866235
111.11932057373099
113.18878507038279
117.6394534245332
122.63404191374129
128.34800396816587
128.71598833212622
117.03734371254853
114.14625579051581
118.50294312176777
122.84934867507417
136.78389431768466
141.36345921737836
125.85296771915206
105.64340061297086
79.45051735368135
45.308739348890214
14.932732937770949
-5.255466027635393
-13.82929808965108
-12.5857177276058
-12.891800738999116
-24.076316815810404
-38.57843656916419
-45.62729273345624
-50.24408959065959
-60.064745327675396
-71.03965583570242
-76.18314787329649
-70.00615305272751
-17.991756135925694
4.267729442373172
-7.066132173104556
-1.2896867141629265
-4.22815033473336
-2.727800687335221
-3.4883072009274834
-3.0972844312073073
-3.2927844466058156
-3.18955407198243
-3.2384849517523824
-3.209921553012469
-3.220835784595084
-3.2116495859096483
-3.212708220255303
-3.2085557298875056
-3.2070643856088843
-3.2042245425533564
-3.2020784478909183
-3.1995858999734343
-3.197276700519563
-3.1948809914196907
-3.192536210430408
-3.190172344719587
-3.1878250436057485
-3.185476138846071
-3.183134873456959
-3.180796528919882
-3.1784634978509207
-3.1761345509233303
-3.1738103036144167
-3.1714904317923995
-3.1691750899193156
-3.166864188708649
-3.164557763040558
-3.1622557845692354
-3.1599582571687748
-3.15766516831909
-3.155376513866809
-3.1530922854136243
-3.1508124767398398
