AAD_Filtered_TADAS_FILE
AAD_BASELINE_CORRECTION: BASELINE REMOVED
AAD_FILTER_TYPE: BUTTERWORTH
AAD_FILTER_ORDER: 1
AAD_LOW_CUT_FREQUENCY_HZ: 0.025
AAD_HIGH_CUT_FREQUENCY_HZ: 40.0
EVENT_NAME: 202302061024
EVENT_ID: 13207
EVENT_DATE_YYYYMMDD: 2023/02/06
EVENT_TIME_HHMMSS: 10:24:47.00000
EVENT_LATITUDE_DEGREE: 38.089
EVENT_LONGITUDE_DEGREE: 37.239
EVENT_DEPTH_KM: 7.0
HYPOCENTER_REFERENCE: AFAD
MAGNITUDE_W: 7.6
MAGNITUDE_W_REFERENCE: AFAD
MAGNITUDE_L: 
MAGNITUDE_L_REFERENCE: 
FOCAL_MECHANISM: 
NETWORK: TK
STATION_CODE: 2108
STATION_NAME: 
STATION_LATITUDE_DEGREE: 38.48776
STATION_LONGITUDE_DEGREE: 41.002003
STATION_ELEVATION_M: 920.0
LOCATION: Kahramanmaras_Elbistan_Turkiye
SENSOR_DEPTH_M: 
VS30_M/S: None
SITE_CLASSIFICATION_EC8: unknown
MORPHOLOGIC_CLASSIFICATION: 
EPICENTRAL_DISTANCE_KM: 331.38
EARTHQUAKE_BACKAZIMUTH_DEGREE: 
DATE_TIME_FIRST_SAMPLE_YYYYMMDD_HHMMSS: 2023/02/06 10:25:12.1658630
DATE_TIME_FIRST_SAMPLE_PRECISION: millisecond
SAMPLING_INTERVAL_S: 0.005
NDATA: 36501
DURATION_S: 
STREAM: HNZ
UNITS: cm/s^2
INSTRUMENT: sensor = GEO-A200,/GEObit | digitizer = 
INSTRUMENT_ANALOG/DIGITAL: 
INSTRUMENTAL_FREQUENCY_HZ: 
INSTRUMENTAL_DAMPING: 
FULL_SCALE_G: 
N_BIT_DIGITAL_CONVERTER: 
PGA_CM/S^2: 4.565
TIME_PGA_S: 
BASELINE_CORRECTION: BASELINE REMOVED
FILTER_TYPE: BUTTERWORTH
FILTER_ORDER: 
LOW_CUT_FREQUENCY_HZ: 
HIGH_CUT_FREQUENCY_HZ: 
LATE/NORMAL_TRIGGERED: 
DATABASE_VERSION: 
HEADER_FORMAT: DYNA 1.2
DATA_TYPE: Acceleration
PROCESSING: Automatic Paolucci et al., 2011
DATA_TIMESTAMP_YYYYMMDD_HHMMSS: 
DATA_LICENSE: U (unknown license)
DATA_CITATION: Turkish Accelerometric Archive v 1.0 - Disaster And Emergency Management Presidency, Earthquake Department
DATA_CREATOR: AFAD
ORIGINAL_DATA_MEDIATOR_CITATION: : AFAD - Disaster And Emergency Management Presidency
ORIGINAL_DATA_MEDIATOR: AFAD PROCESS SERVICE
ORIGINAL_DATA_CREATOR_CITATION: AFAD PROCESS SERVICE
ORIGINAL_DATA_CREATOR: network: TK
USER1: GuestUser
USER2: 
USER3: 
USER4: 
[...]
-2.103250569843492
-2.089699559624954
-2.0689052285877674
-2.0415448980957858
-2.0152804063517458
-1.996333602941409
-1.9888033028885763
-1.9753071340212516
-1.9577746254395025
-1.9265336235283506
-1.8877767894386095
-1.8637651841489389
-1.8633863472462726
-1.8753169414919826
-1.8759880792516346
-1.8685328423700094
-1.8458733098538975
-1.8061402506960236
-1.767193160644774
-1.72971423612044
-1.684119323262735
-1.6276668476959943
-1.5566273453777923
-1.4796788890649897
-1.400591092468384
-1.3012925964720536
-1.2016752905299175
-1.1139987915882446
-1.0206357741361645
-0.930741108664344
-0.8458646502743236
-0.7579276579795762
-0.6770828841649715
-0.5997472591050975
-0.5186803509400297
-0.43917056799239396
-0.3515984251087037
-0.25963336593338765
-0.1662146398115834
-0.06274727794208168
0.04033688331910904
0.14905348869818966
0.26263882812341394
0.36850763589745744
0.48408681478181437
0.6043974876333641
0.7028395913410984
0.7739920453886793
0.8402088806863666
0.9240503811774609
0.9914501767992674
1.0240800115725703
1.045193513825564
1.068561600035363
1.1017370610814698
1.1328650631805186
1.147381517466831
1.1390595472367464
1.1235487112860691
1.1211422004121523
1.1415534158087617
1.1662932872845546
1.172969812160924
1.1786948589138517
1.1756572003004933
1.1735318031726827
1.1769846893449123
1.1745740496299828
1.1898885893205184
1.206096448211599
1.2122233480673548
1.2144065178036865
1.2175242635072456
1.227084291193677
1.2390281816766204
1.270507047304025
1.3193222953416182
1.3728775244501359
1.415727392470401
1.4454537695574474
1.480539675987559
1.5169005140952914
1.5514625482506472
1.5790439563904375
1.610465155335135
1.6643638738722077
1.7150486716457554
1.7390147170274721
1.7424192489671928
1.7420668587982862
1.7494857469803329
1.7486727025144082
1.7255903562448724
1.6915143689748906
1.6577824210341765
1.634787515664595
1.6157979404472818
1.5893118686000165
1.559597873168078
1.524848139973674
1.4973592586718913
1.488971489798749
1.488646218091424
1.4922123616888534
1.4984072484304036
1.498811771973046
1.4931042038423867
1.4802196075469847
1.4589410057542032
1.4394954297380245
1.421294591792012
1.3969984954346086
1.3715987868011912
1.3505496110144994
1.328935462149075
1.29860410862911
1.26496495384243
1.2384150662345788
1.2136495992290757
1.1892776690297722
1.1734646170578231
1.1575989136865246
1.1401992967559282
1.1252185125726704
1.1042482884397957
1.0869068856030322
1.0752194026655046
1.0592633559061815
1.0362828518035354
0.9998825473251315
0.958673158390855
0.9169884586042719
0.866765782088916
0.8071541436974141
0.7425149096610373
0.6873325306500389
0.6395468705205763
0.5920193266292656
0.556724751675399
0.5321621311133108
0.5213774096323064
0.5350412903607628
0.5634077667630297
0.5927526794099323
0.6225962496784685
0.6767974202178105
0.7539958522904936
0.8294386409559531
0.9132308817140047
1.0021660205567635
1.0875652471819657
1.1754487291138442
1.247299425932731
1.2992553240959779
1.343981592805096
1.3844649173743953
1.4250564260464207
1.4635439089480902
1.5042531772955998
1.541782542965338
1.555980879909558
1.552889455817689
1.5367572430052943
1.5129118435761715
1.4948209482283765
1.484500596524942
1.4841037297981945
1.469605604803945
1.4456208924007738
1.432021955729924
1.4023424131998885
1.3555183524566432
1.2974595989803792
1.2347749231214156
1.1788521358177289
1.1071943978896617
1.0261293255602006
0.9480868136182379
0.8692247104416406
0.8085452960996028
0.7675294269858631
0.7363209276479219
0.7035720814672471
0.6565920264117387
0.6144743461856944
0.5976835471211048
0.5927348225172602
0.5867478369633937
0.5832565909944085
0.5852513756356231
0.5975916934587626
0.6078382701056382
0.5988822529492939
0.5723674428979431
0.5340699560473253
0.49439696003163647
0.4564052684593759
0.41569582054321436
0.37433413379456043
0.3287845405232135
0.2719779998758103
0.2116204214760264
0.1627992403478736
0.13273101009663177
0.11805741569803543
0.10695442663656098
0.09281893728206356
0.07990382957272853
0.06764175953193531
0.05525466766887542
0.039763925745793766
0.01594394740940901
-0.008199972604272594
-0.03194467653979324
-0.051929760430267945
-0.07040478271546433
-0.11020224838232445
-0.1697812272674526
-0.23709360513396835
-0.29623011345571265
-0.33239344776612095
-0.3657706235479762
-0.4038593931447712
-0.4373318124402433
-0.4654370195001491
-0.4878590557603343
-0.5081459099823649
-0.526629168917687
-0.5527342502984713
-0.5780973158827548
-0.5838898155954075
-0.5669490486177725
-0.5220115552127179
-0.4686895650139472
-0.41887000763318166
-0.3709385122427092
-0.32784237817325634
-0.27262316670278
-0.21482212591622876
-0.15953682058957092
-0.10168216743183084
-0.05841060175151653
-0.028956390742785207
-0.01776055019748251
-0.01701522674681338
-0.02622811474066825
-0.061607402706419984
-0.11449184572323512
-0.18658269974729985
-0.26862331231039965
-0.33617590273879044
-0.3828803047499031
-0.4345714227014954
-0.5072209877663247
-0.5843103823569399
-0.653454592835472
-0.7074760693300443
-0.7566303789454738
-0.8074327933723842
-0.8629585761125261
-0.9104468494406182
-0.9400693400889737
-0.9758656933388775
-1.0135869557739348
-1.053257750908626
-1.0945071841662575
-1.122604472204394
-1.1491547841776604
-1.1893917140384915
-1.2483200753573782
-1.30736899877909
-1.3619557914884801
-1.431467205125925
-1.5115128891101692
-1.5927602241661003
-1.6865212624738748
-1.797312531002409
-1.9156946554745007
-2.0286921728179204
-2.1274696828844233
-2.222057909510286
-2.313579454559378
-2.3956123009632573
-2.4625670317254027
-2.512348917218236
-2.5572497057210333
-2.590143898034361
-2.6024311952266515
-2.6020851012756387
-2.596090041499976
-2.5814393287424635
-2.5399734590502288
-2.467850653771718
-2.3791715875976576
-2.2994774326956877
-2.2438140361641388
-2.1890241542309408
-2.1236211419662747
-2.059154190595377
-2.000400426468502
-1.9564595321820697
-1.9208940837473005
-1.884349546518234
-1.8556697265619926
-1.8374415285958143
-1.831520479174646
-1.827878059842723
-1.8229074991050085
-1.828745653307756
-1.8427467178411856
-1.8577128474898015
-1.8632734865851133
-1.8688098516161031
-1.8917471611499315
-1.9219397767558617
-1.951567829493244
-1.9847858454016356
-2.0276413125906383
-2.0688688027249613
-2.0950222770894986
-2.1163498625722603
-2.134932402133751
-2.150071214968627
-2.1647945979580383
-2.171527127141001
-2.165083623290984
-2.1456453469940713
-2.116880023283544
-2.08280525147204
-2.0458293887715153
-2.011126997327093
-1.9757052199580487
-1.9243972906775275
-1.859981581304899
-1.7968796852566937
-1.7350355328677176
-1.6776697368982996
-1.6302368277436203
-1.5926035098833475
-1.5616177529428523
-1.5283899371455698
-1.4866147807736834
-1.4405847900584423
-1.4039305824024495
-1.378043492328716
-1.3529567028764935
-1.3264573647289504
-1.2945247511718043
-1.2625887601201018
-1.239431419695673
-1.2147060302161141
-1.1927894551670477
-1.1742913248875884
-1.144687629000571
-1.123997519976233
-1.1164025418101213
-1.109269156334399
-1.1040487488746686
-1.0767370692738332
-1.0413698186808675
-1.0265188896299193
-1.0181383160436377
-1.0034693658827405
-0.9687721735266465
-0.9214351857037912
-0.8777968650511485
-0.8448114093290447
-0.8162530297821078
-0.7784088187728974
-0.7338339230122108
-0.682843204619132
-0.6375455938934916
-0.601889780815138
-0.5644330996466534
-0.5294020465864823
-0.5083134113211594
-0.5045111911628145
-0.5015162210813761
-0.4855102386508245
-0.4566262371101354
-0.4297427632206247
-0.41859762351556595
-0.4064003183267618
-0.38695427641858454
-0.36999753839041444
-0.3496835265274155
-0.33290126061953385
-0.3189796256835442
-0.29120591069643315
-0.2558046656556338
-0.21850705008737764
-0.1795981351249109
-0.1412455859772574
-0.09204696797417503
-0.03409744095647538
0.021217377809605333
0.08200255078002422
0.14376813125898
0.19814105810714902
0.2586306132305824
0.3243894986509599
0.39139723815739735
0.45814358149068296
0.5138553525587555
0.5624397191495701
0.6028144108512135
0.6316421507138473
0.6611234667511445
0.709912323480166
0.7665239347745972
0.8017994928565212
0.8329259489026789
0.8664438598280751
0.9029278005529725
0.9609005590915435
1.0269853324548202
1.0935823449582571
1.166685954025381
1.2428778817619603
1.3249541542373695
1.4208891938546566
1.509194652447607
1.5716946803186898
1.6267485161462512
1.684216244521448
1.75044173645699
1.8234204238220157
1.8881750143956852
1.9422207297636258
1.984537737645928
2.024017683680416
2.0605859428660454
2.0813245115199837
2.0997643690164254
2.121460307411732
2.1513925051197242
2.2052983348304522
2.2559414283360417
2.2940958271076966
2.33495965533841
2.3716847090379547
2.4134460171264793
2.4573421069045245
2.4938333694225174
2.5183775902079346
2.525678264847072
2.534450412089635
2.5573691257191005
2.5851137984366828
2.5977309404641398
2.6036286927144356
2.6235835613834007
2.643622773510927
2.6507867502854077
2.6401546150322734
2.6014861466608648
2.551952397252367
2.5181829723231743
2.4869528856388996
2.4479357985538437
2.4039154202359367
2.356328566003002
2.3087146317901874
2.25838675011485
2.2056519428367567
2.139172476020716
2.0675886622741593
1.9982369971267961
1.9328867179525604
1.8732919400391492
1.7910237406582872
1.6933135635973198
1.5811366779604192
1.460423836498646
1.3553472556028014
1.244876179873483
1.1276439765716253
1.0001000379347855
0.8585705231506892
0.7214700585582815
0.5861705656274138
0.4453045194001734
0.30476182305835464
0.18693816630387916
0.09104622148933156
-0.008136057947573641
-0.11926062682215871
-0.22333819520630446
-0.30536104744281234
-0.3767417777545767
-0.4407583881082665
-0.5039285660668964
-0.5590334801560662
-0.588811222281645
-0.618791336833373
-0.6592515171046293
-0.6891361574018425
-0.6964502573492065
-0.6894772634919291
-0.6963567366107472
-0.7176615035388498
-0.7335320302178601
-0.7297553439794282
-0.7031297968012771
-0.6791310929350785
-0.6616661352406995
-0.6393208749899375
-0.6156040337769598
-0.5782592716121254
-0.5383443069093932
-0.511550056365645
-0.4989225157309835
-0.5219140250168901
-0.5583443080152957
-0.579685409972541
-0.6033226857923059
-0.6456240388278431
-0.712426688672485
-0.781526851822946
-0.8427244320291081
-0.9102817809145218
-0.9829688150034378
-1.0661922931414296
-1.1575322133800685
-1.239378741283304
-1.3102335904983438
-1.3669776373149674
-1.4117630290788161
-1.4605708819512195
-1.5015355779252597
-1.5217097895234675
-1.5296797842761274
-1.5250151675564247
-1.502993375247328
-1.474757628443508
-1.4540096899639559
-1.4234659402933405
-1.3798646231969132
-1.3327081208496712
-1.2698923538199576
-1.1995618508590258
-1.1378364391143945
-1.0891057956941923
-1.0454241518879166
-1.0014092490422775
-0.950387947034886
-0.898256456342733
-0.8611962406673865
-0.8238397679753772
-0.8083850795181338
-0.8221365057155664
-0.8346763360512578
-0.8644937870250586
-0.904808786059954
-0.9506991422889396
-1.020990697130072
-1.0982392755295378
-1.1719441102581014
-1.238575887047262
-1.3050947910336368
-1.3802139150656738
-1.4429695076734188
-1.4923311320640933
-1.5267237416385189
-1.5239001586374443
-1.5084022036982758
-1.4938824671644884
-1.4625629884050806
-1.4281412050885165
-1.3760241192473464
-1.3039084796205618
-1.2362746079192735
-1.1546248256778215
-1.0637814686636407
-0.9687729525471954
-0.8611928605552808
-0.7575967853704932
-0.6614539878692756
-0.574533651313076
-0.4896990516344552
-0.40720144248532325
-0.334897476855169
-0.26610427724354946
-0.21202472060007
-0.17065596251865925
-0.1403230740542619
-0.12273943422441086
-0.10528444265142152
-0.0858518451749722
-0.05362036288701828
-0.0251326473096838
-0.01735972347684202
-0.009547780065639128
0.008169323876541493
0.06200316941699197
0.13676230367840728
0.17158218039688333
0.188276312095496
0.22089540936976101
0.2733937747040158
0.34833101311920034
0.4157640110424399
0.4872086202701387
0.580237987526882
0.6700601819967487
0.755262526855429
0.8346223236142665
0.9174756917202407
0.9948042227464088
1.0340972029704274
1.0933492853635423
1.2371315688587317
1.4079030223016378
1.5201530282878004
1.566721440284969
1.5991699261943908
1.6658907447235465
1.767939624453069
1.8714900475054395
1.9456211767271554
2.0055938500130477
2.0949983282700138
2.2139707167963776
2.3206425810446527
2.36655206711164
2.3821697211676396
2.4451169804646606
2.5580692234780824
2.6762207221161622
2.7569999799645717
2.8221454930065897
2.925628759734897
3.0653033651532517
3.184644000481765
3.2273904934995405
3.2264183503501003
3.2601098688714196
3.371802140248457
3.5275534799016124
3.651118251191798
3.7396188062597857
3.8365080346722813
3.9411532486695484
4.021008672260798
4.0665815710659725
4.108705558966962
4.20504327818852
4.353487157694874
4.484137053061756
4.540248167111295
4.517292808645947
4.491096119488905
4.487207415769745
4.481749769562432
4.4746176104678455
4.442072938379931
4.433893156295481
4.474425987515527
4.497370801477497
4.476644951383391
4.4147846325246345
4.3604954574913455
4.350072296118559
4.349327733286662
4.342065474679092
4.3500319898087545
4.378823511431273
4.405301739164677
4.4186884687877805
4.4097574385784135
4.386094766131639
4.411175628556471
4.4755099108681655
4.502150933323495
4.482730695902693
4.436883968410381
4.396594780103203
4.380386848813355
4.374522247994646
4.3316274759517945
4.20947040021736
4.087958559199743
4.0186110175940675
3.9555722767749226
3.8745597950911033
3.7622170321486816
3.628251110478684
3.500803999778327
3.399642709250228
3.318914305184876
3.2365096070223225
3.1560404564986455
3.0904031602189543
3.033360335011725
2.9770542477669033
2.919796439542996
2.8608495147245643
2.8062751266536368
2.781569369586599
2.803526308851346
2.8350831708651705
2.8496089991869287
2.8347620207086672
2.78942989309713
2.7359146325739596
2.6820707611606185
2.655688856974334
2.651272543629829
2.6268186553500072
2.5762115809103987
2.5180707348485036
2.4699368111704216
2.422509992830856
2.346957488157763
2.2441593694104207
2.165226560439366
2.115539573230456
2.066901214977032
2.0245925583336875
1.969399032588219
1.8937215199289186
1.8076874170978086
1.7407958050756402
1.7406819076827313
1.7636086717765787
1.7456432875208732
1.6840588880418481
1.6053819977460593
1.5520976946182445
1.5171009728862601
1.4709337431343412
1.4307338046784654
1.4060620678788869
1.3726643771944984
1.3251385557467994
1.2646677543218066
1.1770076045729596
1.068756566355974
0.961112554037817
0.8848438367644805
0.8325752376823109
0.746029737189251
0.6341490076001987
0.5352400962623847
0.44417486544246104
0.353065783118762
0.24976460804193332
0.13923578280567273
0.04915840849766572
-0.004584014576389001
-0.0452471020722829
-0.08855801930785641
-0.11053272444406669
-0.12004470854761003
-0.13853521690710396
-0.1717705143482008
-0.21873685107370838
-0.27015094487878477
-0.32894759439311266
-0.3779906732625965
-0.40382179352367337
-0.43944301658605245
-0.5191870181797605
-0.6251345374521026
-0.7038336251965599
-0.7484374552723543
-0.8061898860658211
-0.9043511660511075
-1.0019734579176929
-1.054714240684194
-1.0791917677945453
-1.1112372460129092
-1.1770022102651345
-1.2615094326402319
-1.3195940287321688
-1.3199513964109661
-1.2610581648519652
-1.1883991723107348
-1.1536318725082164
-1.164489677097209
-1.187455672785925
-1.19994740587575
-1.2188018566113221
-1.267048581950116
-1.3375226665618922
-1.3908443847668108
-1.4067723244134962
-1.4077629408744592
-1.4293102379019524
-1.4890059599507357
-1.5774583819819774
-1.665282454094909
-1.72143303798244
-1.7427742845538694
-1.7400383836857567
-1.728600257786844
-1.7315589142732664
-1.74601052364
-1.750676937025894
-1.7482340925702793
-1.7463937732430688
-1.7328868490339815
-1.7148680469746649
-1.7022057431930218
-1.6817000863797142
-1.6531573366885155
-1.6326757493886248
-1.6395721617200154
-1.6621828169217636
-1.6714219701157051
-1.6766078289074935
-1.6918333618219736
-1.70617888087486
-1.7138342179522132
-1.7183039349378066
-1.7133745158426288
-1.6871343761368187
-1.645691502722163
-1.6134975354235792
-1.604021709028199
-1.609118298829513
-1.6195770489667674
-1.6319010305695432
-1.6380978731835776
-1.6411807307955193
-1.66075551093457
-1.696756322459962
-1.7303557298278078
-1.7636771677457772
-1.7929766211038514
-1.7977937315896542
-1.7841532528794282
-1.763418267585931
-1.7335546422046544
-1.6775077092560688
-1.5866107270117975
-1.4987360574655137
-1.4368787082953902
-1.3923002843517363
-1.3667410572452467
-1.3473738823318373
-1.2984462579363678
-1.223472054397722
-1.1720419637156703
-1.1650495089434856
-1.1727649800607645
-1.154870401344752
-1.1349489739277934
-1.156235579541187
-1.20641154048637
-1.261132558397016
-1.29174996299359
-1.2961970695379637
-1.2917463352900513
-1.2811777416296786
-1.271969050334684
-1.2775387932833953
-1.3251218088408547
-1.4101788571361307
-1.49142555509219
-1.5266518361866266
-1.498189824402849
-1.4540630442496147
-1.4528096526102818
-1.4926150012132147
-1.5219229185113692
-1.5115747240764903
-1.4953154305152192
-1.4900914021652818
-1.4813987273662925
-1.4748458491438574
-1.4745005345038171
-1.4681586903658528
-1.4355825346264617
-1.3730980185424793
-1.2961397871619769
-1.2356028671601422
-1.2219043388969868
-1.2350253655941796
-1.2453086148469834
-1.2413851819391022
-1.2063411230786667
-1.1433461550681618
-1.0849482907541321
-1.0722953541047344
-1.1170241238044125
-1.1816520156169492
-1.2107936144886096
-1.177296024809872
-1.1066585216365765
-1.0374972245876666
-0.981599022807685
-0.9258354717881577
-0.8520241267341104
-0.771407757166984
-0.7075824214872714
-0.6529484864767898
-0.5786769733262082
-0.48899823017016447
-0.41411486713945767
-0.3553238876910395
-0.31352511605674316
-0.30011851137556184
-0.30266905152545154
-0.30988360156589584
-0.33992441977028737
-0.38793859129071845
-0.4030827118707023
-0.3754219461016501
-0.3347911437919107
-0.3148802631579175
-0.35177781544707787
-0.42504327115794566
-0.49384579813615276
-0.5521479704815331
-0.5986053048846114
-0.6305557530012736
-0.629677663825051
-0.5863660591668104
-0.5365030889904935
-0.5080241492560953
-0.5104665325241312
-0.5346452712518376
-0.5429180860895495
-0.5280084381573978
-0.5005973519546347
-0.47410402341026925
-0.4692246207066754
