AAD_Filtered_TADAS_FILE
AAD_BASELINE_CORRECTION: BASELINE REMOVED
AAD_FILTER_TYPE: BUTTERWORTH
AAD_FILTER_ORDER: 1
AAD_LOW_CUT_FREQUENCY_HZ: 0.025
AAD_HIGH_CUT_FREQUENCY_HZ: 40.0
EVENT_NAME: 202302060117
EVENT_ID: 13194
EVENT_DATE_YYYYMMDD: 2023/02/06
EVENT_TIME_HHMMSS: 01:17:32.00000
EVENT_LATITUDE_DEGREE: 37.288
EVENT_LONGITUDE_DEGREE: 37.043
EVENT_DEPTH_KM: 8.6
HYPOCENTER_REFERENCE: AFAD
MAGNITUDE_W: 7.7
MAGNITUDE_W_REFERENCE: AFAD
MAGNITUDE_L: 
MAGNITUDE_L_REFERENCE: 
FOCAL_MECHANISM: 
NETWORK: TK
STATION_CODE: 8003
STATION_NAME: 
STATION_LATITUDE_DEGREE: 37.08417
STATION_LONGITUDE_DEGREE: 36.26936
STATION_ELEVATION_M: 122.0
LOCATION: Kahramanmaras_Pazarck_Turkiye
SENSOR_DEPTH_M: 
VS30_M/S: 350
SITE_CLASSIFICATION_EC8: unknown
MORPHOLOGIC_CLASSIFICATION: 
EPICENTRAL_DISTANCE_KM: 72.18
EARTHQUAKE_BACKAZIMUTH_DEGREE: 
DATE_TIME_FIRST_SAMPLE_YYYYMMDD_HHMMSS: 2023/02/06 01:17:19.5251700
DATE_TIME_FIRST_SAMPLE_PRECISION: millisecond
SAMPLING_INTERVAL_S: 0.01
NDATA: 10501
DURATION_S: 
STREAM: HNN
UNITS: cm/s^2
INSTRUMENT: sensor = GMS+/GEOSIG | digitizer = 
INSTRUMENT_ANALOG/DIGITAL: 
INSTRUMENTAL_FREQUENCY_HZ: 
INSTRUMENTAL_DAMPING: 
FULL_SCALE_G: 
N_BIT_DIGITAL_CONVERTER: 
PGA_CM/S^2: 141.567
TIME_PGA_S: 
BASELINE_CORRECTION: BASELINE REMOVED
FILTER_TYPE: BUTTERWORTH
FILTER_ORDER: 
LOW_CUT_FREQUENCY_HZ: 
HIGH_CUT_FREQUENCY_HZ: 
LATE/NORMAL_TRIGGERED: 
DATABASE_VERSION: 
HEADER_FORMAT: DYNA 1.2
DATA_TYPE: Acceleration
PROCESSING: Automatic Paolucci et al., 2011
DATA_TIMESTAMP_YYYYMMDD_HHMMSS: 
DATA_LICENSE: U (unknown license)
DATA_CITATION: Turkish Accelerometric Archive v 1.0 - Disaster And Emergency Management Presidency, Earthquake Department
DATA_CREATOR: AFAD
ORIGINAL_DATA_MEDIATOR_CITATION: : AFAD - Disaster And Emergency Management Presidency
ORIGINAL_DATA_MEDIATOR: AFAD PROCESS SERVICE
ORIGINAL_DATA_CREATOR_CITATION: AFAD PROCESS SERVICE
ORIGINAL_DATA_CREATOR: network: TK
USER1: GuestUser
USER2: 
USER3: 
USER4: 
[...]
-69.45698303341854
-65.67249422977348
-72.49566271314487
-79.37544319753182
-77.57254178761514
-70.20728576917314
-59.23934839827278
-48.14801480148176
-43.47343337587087
-44.209443449608585
-43.21951098397302
-37.395389820954655
-29.603554388243072
-21.038039681314622
-9.896307271403295
3.9508534365651964
14.364986370530543
15.950347642564173
8.46635396731794
-4.20276001525285
-9.148730698612297
1.1728998985017463
20.052372280832955
38.38151516185352
51.23460116893429
57.66186948980335
60.79196184214008
63.81561326484489
61.37360389680514
51.10602695709784
40.32607825357532
34.203543756386104
33.27367714471104
35.12706139078287
35.20289137344536
29.915913713679338
25.479252704440903
25.100736982875993
19.912986511593502
14.410728527432681
20.39648316562908
32.546766134208994
38.0396506647909
35.678966901865444
25.41526034663179
5.801936643832306
-8.878413926528397
-18.02255986965511
-34.427901474555945
-53.91814778308399
-71.93859893209319
-87.27607166991456
-97.93716499028308
-101.57111692730217
-97.86938230356586
-88.47047574885383
-72.02112527475992
-52.02829154397845
-33.225124032076195
-20.04464634030102
-11.321113931959799
-0.9066265639067848
11.762333862640054
23.560051735148996
30.17814519953703
36.786507908466184
46.000276545595284
52.11070822731363
47.283791304116605
13.910679120853016
-38.58397155077877
-74.58644446053395
-85.42873048860123
-82.52434849192976
-76.69775172050754
-78.55491302219627
-88.47533787716972
-95.22148121496917
-94.7542975075726
-97.06064726447144
-103.89261164935455
-100.04072695853245
-76.6315943854454
-42.672714672037024
-9.877103590463088
16.573449401519284
30.84474869043572
33.5255047077604
34.443850818945066
37.87763010943809
44.56212468888832
53.54044804169195
65.51067396958085
82.9962452103965
102.26202740465307
117.03904607871968
116.75330168627654
98.35103132189252
74.05464258204499
52.727787544747954
36.78262144092569
26.155524129606082
18.11571181261036
13.35665293031033
14.729090836506836
20.786420219254115
26.992538473613404
31.18283157660673
33.84135780306072
34.71716276999818
38.142342863700634
41.950930373247175
32.2454743766552
11.554014666851597
-8.62276349517704
-23.616431033834157
-29.83125773892064
-30.377646994661717
-32.996531066038976
-42.887783213189586
-53.77680528574239
-59.22484313820452
-65.042577799298
-73.45313560924693
-82.61544455310032
-87.07023466378088
-77.79140979199988
-61.393886606217606
-52.10223102064507
-49.45816006793148
-48.37012111446583
-43.59607565315484
-33.14297155079882
-28.922766279420944
-34.59157078608444
-43.32677345397259
-50.68233708481119
-54.38524479845988
-61.17734766433605
-71.39752725780141
-78.60893408371903
-83.08153691754936
-84.07674818074359
-79.08993919847207
-67.54721288478055
-55.23526900155478
-46.71023194602709
-40.82530572084913
-39.134938489822744
-41.45784850711376
-46.027675988496924
-49.65583768492281
-48.74167366549585
-44.968114146296685
-38.51730963210188
-29.14564048303828
-17.58739722513087
-0.16285702481755418
24.28762711460276
46.38254867895828
53.8263431113196
48.85219883920057
42.875294229333136
41.878051884445824
45.73149737477021
49.56196419788944
50.433876075080335
48.23023997763474
45.10356608252998
44.49044308950006
46.51355340409686
45.60868260258905
33.61652136350969
15.29712928582931
-1.557934458481526
-18.782859761682964
-35.015509281770626
-46.72540300936281
-52.953804461138866
-56.28267306976535
-57.951639724754735
-55.84141524034817
-52.460982074289326
-50.17692934191447
-46.31756981434673
-36.310425289336294
-24.829510986699397
-18.651366238527242
-12.669100828528522
-7.060477645922879
-4.033114743232461
-3.210824283049396
-9.224464275076182
-20.02400810908143
-29.259568277479744
-28.549777234475414
-18.225106194736995
-13.651065777228377
-20.929295729833047
-32.11820811799719
-37.40296332261652
-37.51424934840859
-39.77358285465894
-42.687444250819865
-43.4007559241759
-42.802825752184184
-40.03089875855132
-34.637758811057815
-27.993661898343596
-20.165366260911686
-8.66333632364609
7.09633677338631
24.418962179054738
38.97986798043475
46.20414263246797
46.26805922755002
40.33999838885163
30.244704925961482
20.524023094105367
10.787139333390305
0.4459604876361723
-7.769227285703183
-15.901436356037495
-25.895219185152992
-32.90932677670727
-36.26175078306085
-36.8773821330679
-30.1955691982947
-18.81149977877732
-9.762997837696634
-7.92011941641515
-16.136045663911
-29.825916877078523
-42.598247050974955
-52.67175649773009
-59.17332952368084
-61.892205705360844
-63.49893136239056
-63.72883908555739
-58.98938559077102
-51.00153248877985
-45.41694570986252
-41.55443374542437
-35.025286570373076
-28.727160437518492
-24.03581359593686
-15.512856748767387
-4.86730302092989
2.6407780634695
9.487245669875797
13.819941006237169
9.6325975480244
2.7142958631069933
1.7223774677674084
6.811377177168843
7.829203952443617
-5.42913059810313
-28.606210671318777
-49.047676246947226
-54.0939337558011
-43.07712674919303
-31.117867762262524
-29.393796098125655
-33.907511705586
-34.59082261458533
-29.12498003948928
-17.96348610963134
0.8099263595900235
22.505632444078145
42.05662028805944
59.467017677065414
72.45794300286677
76.57112885189072
72.06904151283881
66.32470443717443
62.28591454494643
57.03021576238399
52.14894615543699
45.07207955449695
31.9322383844981
19.84457308727125
17.14773777110807
23.544877771804792
31.789046919313243
37.74399737547712
40.901291676966345
40.48805892882633
37.42227881191122
32.046743363506344
23.4362986030106
10.322915523493888
-3.9757289036243733
-15.167389080749617
-23.223036889010043
-26.195330176510907
-23.05829732578705
-17.15923841406593
-10.588717536440605
-3.7790036419558666
-0.4446196874144308
-0.517800742836203
1.8399821594123407
6.8203622015456915
13.052561956219787
18.10789759537836
16.583025331074676
8.102074107625278
-4.043899985043909
-15.494839989987332
-22.298678682144335
-22.52498201474529
-18.175005165418032
-13.185317008192197
-10.05440115205763
-6.9745352272145
0.6575285356421894
8.960419424460145
14.725460448566487
16.73072849187269
7.489541203709011
-11.051044502453431
-28.68752827337408
-37.705077757364755
-35.382285372157625
-25.603837769186867
-12.203534372245729
2.617411573838702
13.247611942258127
18.985760828139416
24.566888530235676
26.492662805722944
22.762184411614694
17.548987143390736
13.107649537221851
9.983269305575774
11.61749888904071
14.858109370020273
9.098760530827827
4.091901132646397
4.700045797357292
5.010026084467862
7.694169750211625
4.831702482558203
-1.8337564647471087
-8.440618372206306
-18.02219171970413
-24.865462315880315
-27.79597881283525
-22.112003401394464
-8.176659001870995
8.446028296560048
28.957840293375554
46.01510448051807
55.560374960234036
60.62020101246292
59.01971411178275
52.8799681470793
46.92452567531382
39.428192916561194
32.36585014823597
31.42275201599738
38.82260835582153
55.54736090582952
72.15974218010086
78.989239363239
79.61843382395791
79.47915178267792
77.24654719375874
66.71691047859574
49.066382375834614
32.418913952398455
19.818085989373085
7.447995618763188
-3.254147581249623
-10.060832483241525
-15.066306278447385
-18.26435758094012
-22.692362440162675
-29.71535961667611
-32.005925736817424
-28.981964240090907
-27.294299502470793
-19.076745983296906
-3.1713678848198814
14.845855960119083
26.92799811092627
38.44839298470705
43.39471156637198
19.258594719953905
5.032004215874433
1.6024987720735298
-0.8206249212381279
11.54095721285498
7.438080651765216
5.3241625112991455
10.127787750850736
6.060631274176267
11.601872075651118
19.648914829665323
25.2975209004774
17.323112789338186
3.853551988265631
10.019445524299586
6.243767929758299
1.6254557104672112
11.739253247334604
12.404562729585484
16.90175203643781
28.980084662866947
28.566305428194696
11.527371916714904
7.8816902719580995
1.155667653282216
-25.255091472032177
-28.73502100304501
-17.523662960496363
-21.610095282331567
-31.318302135277825
-24.58378454588988
-31.915919786817952
-45.95591185716398
-43.38227312090901
-66.12433709027344
-85.15334636046639
-77.60573679965255
-72.20386562137354
-51.268528569465936
-8.771050045142935
17.455753553177892
17.772989833947268
12.593055815524078
13.93877205223963
33.47972826626542
60.68858532728892
76.34773590959546
73.94702322563745
58.87703708624212
56.40381542322814
62.693536237252516
56.67879899609023
49.16128714772598
46.64585117478975
40.84945841394834
29.976326711476958
20.089510769319556
17.21846580746312
17.78974331730907
11.95665075775506
0.2380161157395075
-21.39289210485398
-65.85874249928555
-107.75655531096017
-128.12121324904854
-128.31980864363234
-88.84640279699204
-38.442341090756244
-14.376916580803199
10.74404835141972
39.35412499167004
54.153769570028985
65.7414762213851
65.53924583656976
52.526512395142106
46.998933691949354
47.796442393169315
45.93491601103183
42.329351229963166
45.41537950966566
53.4844288725429
48.605185177101205
35.06396769112854
26.328133428303286
22.512531813851478
36.97215077952961
51.26755077398666
25.184587855062833
-8.798248008184387
-18.616706769461555
-35.17715845831852
-59.567403227067565
-73.95914061224188
-79.76137861004781
-71.39975776715757
-45.33809733916805
-5.22001028641106
28.011774812032534
43.83769523226279
50.81234649520682
50.968971283208255
57.65431182307345
73.33388745800747
89.79334967883084
95.82237249299081
90.53041266686078
96.42983905997215
91.06499472070986
59.38937707809161
43.924451880321506
57.11541182613057
80.13697029887368
95.1226179405953
81.17075488907074
40.1748703237079
11.915923230997361
20.018715126246043
37.079114467558306
37.405651422264356
21.024398543468237
-5.5542348572788205
-22.166610297040137
-9.516109272870443
21.086704876049584
47.929271536668246
65.9890216500658
79.87963264178461
88.57262839987254
82.6302683928124
58.67191905050385
23.916827801937778
-14.575774601255084
-44.72721609041176
-52.40009487608256
-43.31368269574914
-34.96430395123172
-33.127614186177134
-35.23703656093728
-31.32217036644786
-6.875116568500124
29.17092479486132
51.27062591116915
48.101712898963235
24.323502457420258
-3.685170639271191
-20.408254778209947
-22.52396784234132
-11.481479221063509
10.261809417497943
39.70997540407776
71.36205993413759
98.5550574027825
111.51463984307549
98.06245655520098
65.05498229591848
31.726341986521604
5.623722749843444
-11.97943250866793
-19.65240047556211
-17.512248162391327
-7.083909714195234
5.378499765280965
14.51705984571668
16.862230644252854
6.249545869991989
-11.134309295468
-20.602313756777306
-16.72571000652292
-1.8268019758375995
15.651401473670449
27.71125865366126
30.88059794192435
25.635023564125667
15.406604010575826
1.5203586649024299
-7.856323137694588
-6.690320892473808
0.9311424324112308
9.533856393706552
8.741140885611857
1.6336160870342604
-3.5257926116812577
-9.220455629544995
-13.778480364001767
-15.862033574931752
-13.602916210511687
-6.015837561151051
6.837930785104688
19.316119716824616
19.859308074112317
13.084333677290266
6.175104889679131
-0.5044828217681202
-3.014034874040838
0.4979349990173735
9.179646097528178
19.956336028789472
25.859394696590442
16.744607615173884
-5.167427153343251
-25.926279813831393
-44.34212435709374
-62.040526842766745
-74.69262679626601
-81.9187694276871
-84.22192135910628
-82.61352237710501
-80.2534489454027
-81.52844927871075
-88.01197443369097
-95.06766069234541
-99.12841501241118
-100.80955011347608
-97.13340238836797
-88.40232973433415
-83.6037390568936
-84.44993480993628
-86.27091856699751
-87.79113648338517
-89.70130938016088
-90.9991455903641
-88.40975109062491
-86.08905981137053
-88.45898086570016
-90.49995324860993
-88.78585195362169
-81.39372034537028
-63.81913739693105
-34.83538000652402
1.4823253671967733
40.74744821605159
76.47441546599259
101.1369263200646
108.34082797557903
91.91767068550794
64.3795801040901
45.991494099117524
40.36760638618188
44.249557160927644
48.95290852140145
45.855748115795585
40.420933339788135
46.579180002551865
66.6649404848418
88.08580175781623
99.84957063973363
89.31187362226814
54.17311752918651
16.301192955344064
-12.618688878884683
-33.286709751349306
-40.86613252244721
-39.36378008439805
-33.705723752541566
-21.844241036263345
-8.038126874399163
-2.3323815230881046
-7.486906583418473
-14.773490331995028
-17.724475635806243
-15.895062731980433
-12.262533388894026
-11.858972321647657
-10.90489175233213
-2.0882227727465508
15.049102297194379
35.674249486834654
51.43689910761691
54.67376296182314
46.688222693551
38.29585625981902
32.41447465491268
24.588253135055673
19.771663890410977
24.409893930119857
38.32905899740965
58.689482694259695
77.79373153567745
88.84824290992987
96.2816602187602
107.79608562409845
123.18075164266047
136.11229930946956
140.69594760526618
134.48536023525617
120.26376937716852
103.497595439888
88.03695942723905
77.16855863386633
71.49000010699763
69.47655222762342
67.11743326230516
58.924497107231865
42.650317601777246
19.973822472347972
-4.202526020953238
-27.806110758485282
-45.36315914290085
-52.474933613520456
-54.33566627435427
-49.40319563524868
-35.454399953302705
-19.619352086870045
-7.709505281095178
-0.15851046976304123
2.0563577192216416
-3.2664217828842035
-12.774191615176804
-20.436863675056426
-23.296616705036215
-22.81080227798049
-23.806859163581347
-32.2507554968032
-48.73256818953589
-66.97636349848916
-84.0671197251794
-98.0906934928045
-105.09707032544864
-107.92885204469141
-110.27053253061085
-108.72383072585097
-100.3176053941428
-85.34759963181023
-68.45155223001056
-57.82116609329139
-55.25887260998571
-57.38622831836024
-59.259959298692735
-51.29122379580491
-31.418264080611234
-13.192544597471386
-8.720101236643671
-14.281143795840517
-20.51197561184332
-22.415242579162687
-14.162411945064058
1.0113489139571337
10.196873994283347
10.10351561531769
5.234034593898531
0.14354688890176465
-3.308498419335811
-3.5124778153712266
1.4143499384782265
6.76375002332127
9.881753664353306
13.485427446986808
19.07095644767575
28.590785694297548
41.504910742040735
55.36071526260514
65.68897318104855
67.15874772368628
61.45611144924099
50.464323333899195
38.55137526312949
31.63886159568371
25.463121063924238
20.91274834377214
22.522073516060605
28.678732819761336
40.1152822358446
51.80870587192819
56.22136119104016
52.954044428350045
45.02434865333048
35.518328018668946
20.858881392965053
1.3280544051844003
-11.163498642228175
-12.253002917490477
-6.686828705109876
1.742786327822438
9.448254295171331
19.274375317319866
32.061287605002605
38.34194602053247
31.144375464015805
11.414818738989831
-12.95100961973141
-37.80786739894957
-61.81924180805932
-78.65841391970082
-89.05394220052048
-97.64144916680162
-105.58760852317866
-111.2710076495929
-111.0938238116623
-105.32837251371437
-95.52328661925355
-85.15454254332512
-77.7815164505991
-71.96264174987085
-66.74640177524815
-61.902436974452186
-57.80544918353331
-56.6960408171688
-59.55359251786417
-64.91899666802075
-70.5704888371086
-74.51149278983779
-73.87973181858753
-66.83188821409817
-53.87344116285056
-35.07777827985678
-11.061730387099438
12.051114514822137
28.943740089930042
40.28903311216041
46.17666757875725
44.558591563603095
31.991524858135328
12.9204956679511
-3.1460048419253703
-15.896450333831647
-25.369178060097887
-32.84465077928197
-43.122248925973146
-53.51680524576971
-56.97893663412045
-51.57949145294448
-42.008988260426676
-32.23108744862293
-27.111841595217182
-31.430510766430306
-43.10931514400465
-55.76856554320398
-62.33976701322485
-61.80297953712401
-57.12018344788892
-49.74433582826096
-41.67348342825519
-34.081196287953624
-25.355183304861423
-12.845685893963298
0.6469870197056213
8.879206859744745
12.728288154401584
20.15231690361636
37.35361235675426
60.321974750921264
78.05987659786514
85.78292230040054
88.06927396268546
90.51216834378845
94.15832693917149
99.24046935783987
104.03880380279352
104.00255953483048
100.78674395576793
95.55540420860163
85.2016355814631
71.8019057511854
58.61647043953778
48.01077214536213
42.55399288061432
36.925830724004605
22.248796046899763
3.477576891092519
-8.563426428612274
-10.289682974264888
-0.00698699301327909
16.362441710745195
30.14695079090801
41.5951839469265
48.62316355920349
47.55168848394754
40.411450595956715
32.31161810606873
30.124614431180014
33.8072409822224
41.31807618547426
48.92928087683414
48.50273985620808
42.00607037855403
31.528250130826827
18.214192737769004
7.57412310452609
1.4355637140674473
2.8022562004466534
10.365588539903786
17.805581071700264
22.26993606934836
24.056076084805255
25.883271915715472
31.33944016795102
40.593845987970866
47.33205022987651
47.28447440069661
44.95575846860027
43.10781408719516
38.49807958332551
30.637361349533997
22.414128952215737
14.52660324538373
9.630237998887933
15.651521887347885
28.31422258059935
34.26546036442246
36.042347587008855
42.44893241374844
55.30380753495294
73.35650728291621
89.59249741991384
95.90610964241718
89.46114965978737
69.08406809161255
41.13341815510206
18.426735352874175
6.60839631768092
5.97262630156552
13.040227749481536
22.287381755683295
32.669437843113066
41.33409458619524
46.23946701347424
49.333943236805936
48.44401653106749
44.22732237451651
41.66557675788993
41.391892070884445
43.45390426598317
48.93946324394828
55.46407028735905
58.265191041905474
56.42759590941976
53.05754284350717
49.8889436918287
47.381715933101226
44.99239791300005
40.81534798078643
34.614777940991544
27.21722920394275
16.962594589569058
0.0917231355408877
-23.817490545765196
-49.07241961933289
-70.63804898540403
-89.06078315074382
-104.93721503354526
-116.95015050418603
-124.71721055744126
-125.230170910117
-115.3329962028736
-101.5891523944505
-93.90930202214736
-93.07701233143626
-94.73831346814177
-94.14223919023338
-85.74994105525282
-69.49559528737197
-49.68897073445586
-27.888970049181538
-5.733426038878176
15.777727013206118
36.41956811180808
51.99425271549658
57.40876096043802
50.86118457128843
38.14148167966819
25.245877896979863
12.500269074497771
4.164539783976687
3.736786475383867
9.343921340870278
17.226443398955485
24.316412940452736
31.41936401626575
38.455380146225394
46.37341904178168
55.83483133087713
61.04716760562367
