AAD_Filtered_TADAS_FILE
AAD_BASELINE_CORRECTION: BASELINE REMOVED
AAD_FILTER_TYPE: BUTTERWORTH
AAD_FILTER_ORDER: 1
AAD_LOW_CUT_FREQUENCY_HZ: 0.025
AAD_HIGH_CUT_FREQUENCY_HZ: 40.0
EVENT_NAME: 202302060117
EVENT_ID: 13194
EVENT_DATE_YYYYMMDD: 2023/02/06
EVENT_TIME_HHMMSS: 01:17:32.00000
EVENT_LATITUDE_DEGREE: 37.288
EVENT_LONGITUDE_DEGREE: 37.043
EVENT_DEPTH_KM: 8.6
HYPOCENTER_REFERENCE: AFAD
MAGNITUDE_W: 7.7
MAGNITUDE_W_REFERENCE: AFAD
MAGNITUDE_L: 
MAGNITUDE_L_REFERENCE: 
FOCAL_MECHANISM: 
NETWORK: TK
STATION_CODE: 3134
STATION_NAME: 
STATION_LATITUDE_DEGREE: 36.82763
STATION_LONGITUDE_DEGREE: 36.20485
STATION_ELEVATION_M: 29.0
LOCATION: Kahramanmaras_Pazarck_Turkiye
SENSOR_DEPTH_M: 
VS30_M/S: 374
SITE_CLASSIFICATION_EC8: B
MORPHOLOGIC_CLASSIFICATION: 
EPICENTRAL_DISTANCE_KM: 90.29
EARTHQUAKE_BACKAZIMUTH_DEGREE: 
DATE_TIME_FIRST_SAMPLE_YYYYMMDD_HHMMSS: 2023/02/06 01:17:25.1268070
DATE_TIME_FIRST_SAMPLE_PRECISION: millisecond
SAMPLING_INTERVAL_S: 0.01
NDATA: 11251
DURATION_S: 
STREAM: HNE
UNITS: cm/s^2
INSTRUMENT: sensor = GMS+/GEOSIG | digitizer = 
INSTRUMENT_ANALOG/DIGITAL: 
INSTRUMENTAL_FREQUENCY_HZ: 
INSTRUMENTAL_DAMPING: 
FULL_SCALE_G: 
N_BIT_DIGITAL_CONVERTER: 
PGA_CM/S^2: 203.909
TIME_PGA_S: 
BASELINE_CORRECTION: BASELINE REMOVED
FILTER_TYPE: BUTTERWORTH
FILTER_ORDER: 
LOW_CUT_FREQUENCY_HZ: 
HIGH_CUT_FREQUENCY_HZ: 
LATE/NORMAL_TRIGGERED: 
DATABASE_VERSION: 
HEADER_FORMAT: DYNA 1.2
DATA_TYPE: Acceleration
PROCESSING: Automatic Paolucci et al., 2011
DATA_TIMESTAMP_YYYYMMDD_HHMMSS: 
DATA_LICENSE: U (unknown license)
DATA_CITATION: Turkish Accelerometric Archive v 1.0 - Disaster And Emergency Management Presidency, Earthquake Department
DATA_CREATOR: AFAD
ORIGINAL_DATA_MEDIATOR_CITATION: : AFAD - Disaster And Emergency Management Presidency
ORIGINAL_DATA_MEDIATOR: AFAD PROCESS SERVICE
ORIGINAL_DATA_CREATOR_CITATION: AFAD PROCESS SERVICE
ORIGINAL_DATA_CREATOR: network: TK
USER1: GuestUser
USER2: 
USER3: 
USER4: 
[...]
19.59153317899043
17.035800455195293
14.060889750457548
4.298005934529708
-0.9305826690233383
5.294341270906722
11.732992367188197
12.795861025708346
11.392627599530071
7.129647574262588
-1.2044895472319377
-9.980801943354138
-12.873624598670231
-10.592642525252028
-11.565526806458811
-15.102808396674378
-16.017791535942543
-14.656590784940134
-10.6293393252851
-8.38181924738237
-11.173151935853568
-10.483352241999537
-1.2350092366223915
3.4598007404430198
-4.856702793358838
-9.630769948461264
-5.114677136211003
-5.173204398694417
-9.094024462753605
-3.59689468948631
10.720978098930154
21.01828940821008
24.722506817755704
18.676261631569115
3.1720273572870012
-5.731913746459539
-9.29701622134865
-11.694250293268311
0.38120743609482916
15.062780524794405
8.94086538622152
-5.3628450369039555
-9.156543171841124
-8.238442515465385
-9.788588364585255
-14.213109506041974
-18.226013409458286
-18.65248557510596
-20.27439547701382
-23.169624930340152
-17.750003823181704
-0.27260985775623636
15.827238939997597
16.419556923835298
7.218996852057635
2.4164094892329278
6.017740226392782
14.242656104959156
26.99626401569451
37.76167862590815
34.43331615047409
20.373962698375248
7.360058625794901
1.9370618775865371
4.065950838555981
5.77373486436019
8.030388915962428
12.229764330344032
1.472853245494009
-13.782669295408349
-8.07936672232371
0.35696169498775965
-4.8993041949155165
-7.201681656055695
-3.801533248903472
-4.993838183858862
-8.872632622740545
-14.160287361761851
-14.108019804579186
-1.2904252226020905
7.32247327829134
1.809624514449451
-7.475124052083551
-15.562505201426085
-17.66620931988195
-16.347486580188242
-15.81850863557836
-5.969046679389653
9.410301552608631
15.897049862568904
10.43643058039846
-2.6800001325226126
-13.224619503966093
-13.234499920081488
-5.42426406469936
1.35454899433702
1.2182371152309714
-8.910463947676094
-19.984322137958713
-17.672498432025467
-11.123525079324784
-7.7866035883816975
0.267312013565479
5.532469669472492
-4.632747770849503
-21.752753410769532
-25.405025310244092
-13.16630583840238
-4.242830917830036
-6.027076728036697
-3.2190399841625417
5.232120577513378
3.7698439929758907
-0.36019870495255485
-1.6239159301960657
-9.300201166332824
-11.443820927248094
-0.5379478990920806
8.700307292518957
13.452137366337924
28.06257095281989
46.02443932301199
42.2017532005543
22.628017958922385
8.666962735757576
2.767938858083092
-0.4771787404926369
-3.248291037351938
-7.239827479207158
-11.18163097409503
-7.211276284537584
-1.404142223719717
-3.8925890493914976
-7.367022915945548
-3.38063618124374
5.293228578307202
11.481858954142169
12.013151589809175
5.31422859435835
-3.2794584105441884
-13.310776968725559
-25.82583492768095
-24.774807297975823
-12.008973800695427
-7.943717002902041
-11.95143229452265
-9.199520043480552
0.7462341714871392
7.007536208968842
5.972432093034388
2.860987813668025
4.556144808604066
11.618395041190785
23.24290876663543
35.03578912726904
35.558575037632515
27.299473188803617
25.14702191745495
28.476941847459667
26.53377979124834
16.724910691792573
7.763777008839236
11.957730125539017
15.338366833636176
-0.8656466366163951
-15.884101937456592
-8.76984480597688
4.595676199086772
7.585386030804812
0.9017253393437439
-8.415788877385584
-8.117274616397811
2.150117872097705
17.37312670844681
32.14428094340061
32.93021823091109
21.33195913226135
14.110240080379556
21.88229096456085
35.52073881846802
39.589959178669424
34.27882907250329
28.063141522642496
24.840535652285556
17.455419511829955
9.766777076452545
22.029341136764863
44.80331621725746
50.05794303323618
39.687920454404484
29.410823153064086
22.132142445421298
18.996666252963845
21.803594377945345
20.075397516586236
7.289928252226096
-3.194260053996617
-2.949456760976257
0.9039925275259649
8.834130885446404
24.4637723977305
36.523941826056415
39.82337300254222
38.48974129991408
26.562304877007193
13.88421506615069
19.15308569494192
26.043124932979623
19.255355998100825
13.426692816853718
17.87719661830736
25.305361841104432
25.078516032633637
17.14435442424108
12.126651290850218
15.138393412335281
15.496519051733072
1.5717823204872008
-18.298250838050645
-26.802108023217666
-21.525553306993267
-13.163428006892458
-7.903059793478544
-7.41472290517866
-8.192593380945523
-6.206653437058616
-6.005153877324758
-5.577551417102677
-4.429302856882003
-7.212148381270383
-5.245423359613095
2.3072024036454333
1.286268671342998
-10.018591811143306
-15.428353345085691
-5.166067816609877
3.7513252131461705
-0.26655539122365945
-3.4332333020438313
-3.4862999811869515
-8.876735289005826
-14.893570284987916
-13.670114465774917
-5.546726230560651
-0.2437435314715639
-2.8271246995623085
-5.692881752277065
-5.602854887467924
-7.735637875348575
-13.891749936744894
-18.84094919482189
-17.081853450034544
-6.601555810120324
8.009020510473439
15.429844799124565
12.61833080621576
5.409732843617291
-6.845248670652898
-23.05226690650803
-27.941640893300985
-22.68749637947776
-27.431202767407665
-35.310414148902915
-35.30064239537134
-41.66100027916045
-54.69328329505026
-55.575806893399914
-45.03264941632083
-42.28733935376522
-47.83523482731798
-42.678116378798556
-22.25113922169327
-3.870913528762907
0.9737266801198977
2.470465916038604
7.1429475758149445
7.118684695720627
3.4175900651526647
3.693923695310553
8.84266198672009
17.090242176327315
23.454766901136622
25.83855736002583
27.17525610242407
23.92757200229463
10.710489882030483
-8.441288294255187
-15.912258753138127
-0.8026261881173548
19.743341659422754
23.293890361166447
9.902870233519407
0.3039308183006992
7.220328265456043
16.323903479906146
16.369845907272204
23.428286302633058
41.77611336166461
46.513362233006326
33.97565970778
24.258975564318774
20.24080928178413
15.409603592124036
9.829855540364346
6.330208084822064
7.393990050362237
9.202524752143104
10.887652763777139
13.614744281819185
11.473966675245187
9.411789000898857
17.040139504904648
27.87369693918873
33.82319571677024
37.20346230256493
36.228373061058306
34.86863665534817
46.17505545309367
57.55769150084548
52.34318653454603
45.994404536662955
52.268666657033386
57.96702983527858
50.96564565091494
38.75163734613298
32.92172991207219
26.474623603900937
9.056720838240011
-6.712834930902747
-20.948499965284647
-42.31342803812317
-51.90111013547124
-41.594392914367994
-30.46599985856605
-33.98122392967084
-46.064057414966456
-52.536718032652374
-54.19615660774372
-53.71507631705795
-41.01774316028866
-16.032588180916502
0.2560963075907287
0.6468582075677722
3.5025489125659606
9.923640350470269
4.9142036633861945
0.5231049785011054
3.843067991161229
1.7742872057393222
0.5061316110322653
3.2562762551559734
4.275235452280761
3.5579910352035875
-2.4322705974549983
-6.493700752887211
-0.7137290406584833
7.1218568975381835
14.968413851793331
24.001278122187713
20.323611621827567
0.5888793496578765
-16.831106877993374
-27.726477562204867
-40.997250957666154
-51.870420839342145
-56.08382928440805
-62.49641570391746
-71.94689030148916
-74.03904183342412
-68.38173521925718
-60.73229771871244
-46.55979929798738
-28.19305409453141
-15.629129330079625
0.8906934628588589
27.722142879019753
50.553825332175485
57.45816309941712
50.30338837943491
47.46096318341014
51.49779521380547
50.904391216532034
59.731463329704304
81.14615512664496
89.33751815296849
72.1158070887973
41.92662994700127
17.478822661365044
6.6399275382699585
4.067129635141621
1.3742188735745005
-1.0133635302285036
2.106861139606255
13.522976857115635
31.951874488415214
39.17111695335058
29.61867017610664
29.048742295903843
32.60917997159072
9.028119165226432
-24.352349239104843
-21.878028463146293
8.869113005711947
27.946320593243406
24.81625359534301
5.217578219054001
-13.814580293661004
-11.684444871972152
3.8899053137874846
8.459183842503807
-2.428686900405654
-7.3182520530292985
4.265180701492873
20.699018777134988
28.128730395053495
27.819958766630123
37.93716577867759
50.05988637106454
36.643530403448146
9.144643715668789
-3.0905380749063034
2.807448600120617
8.247755615066037
-1.4455288688671473
-16.15639246970023
-13.285295616252288
5.47147496764749
18.628785466159414
23.26409052016591
24.825625979697993
11.934212767239282
-13.654026040524434
-24.0168893843876
-6.684612542150638
11.520022158064672
-5.085566141788606
-44.051089406971876
-56.27677556221607
-33.54569561476996
-11.214935279494334
-6.682321167007769
-6.876794263491336
-4.2856203829623825
-11.98362849484085
-25.19169998662974
-23.44352499194251
-10.626444075647507
8.300328340041446
22.741903118483847
13.064378582663405
0.06433340358192902
5.139002006448548
6.025527176130016
-9.033242423986508
-24.663122070714675
-37.03022768099011
-40.949750594274
-23.362455619174984
-6.336197357652658
-17.425163459775682
-35.51360482031958
-36.1016437110097
-31.032873737435544
-37.559562032315604
-50.29732981988457
-41.65322128010842
-9.318436172102723
9.482580050560442
10.42250929982676
17.78184567729506
21.971505622889243
9.264152296240788
-8.700934560093748
-20.250836051807802
-23.641527288662097
-24.842591775690387
-28.42906576553628
-32.96982615067187
-34.788324456191226
-25.372409908319725
-6.938627432674416
3.162969272198847
16.51423770266722
54.32759469894399
81.93504921144489
52.29211406967693
-7.059522490548939
-21.070871711300633
12.052918337890969
39.54709926715287
46.923823911757985
30.361911152682843
16.073550140193795
45.16336518973797
64.46265633971821
26.788494524398196
3.60955304760163
21.21381961660171
16.478340258941437
-5.172430746825481
-1.828886536150413
14.910582788351512
25.417212572957393
30.468796074950134
29.412728727755354
16.11305648739306
0.7071673096265639
5.0628449015661765
21.128436304330616
18.283251124085016
3.8354368260764775
5.7167596685105755
11.42683559461553
12.724781814876218
25.772091749833418
37.138558568396775
33.03285029703261
32.444317847476114
43.517721854481906
42.03253442654821
23.518862947579063
7.000658452973258
-7.1832377564425345
-8.722286222460417
4.426457618749927
-5.611383049779518
-45.01086383902927
-66.68355351760263
-54.42576626814209
-39.060603851711896
-34.34603473003053
-35.35277197828916
-45.70158286774803
-60.637034946097224
-71.2962070991727
-88.68414531047354
-102.65920734185023
-88.08283182100115
-66.62970409536112
-65.69460536937505
-66.80781250535107
-52.18026890528396
-33.993591167287775
-9.947783733333448
22.765019794103573
35.51552949486999
11.861306905021994
-9.303878013855533
8.783885350388498
24.778393241283286
24.653437999672597
50.061045646413824
70.31565685911131
37.10875336615856
-7.082289276187037
-2.0319560956635083
16.70832050915096
13.42708226960108
29.406850276916042
48.80409788985495
32.45707386561084
13.238003989641278
7.868913784414225
-3.3534961445412526
-11.254677068974765
9.533398001185885
41.203356290058665
54.72106703997789
58.18174928626856
59.547407039373134
65.87256180529978
87.90725460569648
114.72967049968867
119.86236693976943
92.47249924914303
64.65562390188558
55.68605435647503
38.197141310074194
12.13118635502677
7.843080568115383
17.698089298316013
11.818992087799954
-3.302926734445639
-2.102288415673488
13.996299355058284
23.682638405606042
23.992604665425137
30.432202853947633
40.14842034475493
51.7893430810435
76.62994153668478
99.451540614062
101.159239598806
86.78034285687032
65.7852630600924
50.98581025307047
51.22016425272557
50.05766859819822
36.145800129461975
24.08463357058929
13.447230589983057
-6.569490198475238
-24.868336385355992
-34.85196396212772
-49.37850837011592
-70.41741471200723
-78.9619684519853
-70.98216609493088
-71.7742593368934
-85.51518801111625
-82.80952728494815
-58.66348491386135
-37.01919498714575
-19.706372019228766
6.2286811270293905
36.519126542213215
63.02752661055471
78.80035067349385
76.26949008782672
59.80526370920068
51.63404526163917
67.64701771397522
74.91987328250755
44.40367684209129
16.6754984583891
16.963102266599954
9.739798612931212
-2.6037732048941837
8.679178958927611
12.99671409907877
-14.926201512435735
-39.851727297831324
-32.649648269908276
-14.038361735271174
-12.937178506884253
-12.387144090369809
4.205988395951132
16.519396951232284
22.35869214712024
20.50824198221597
-7.552657507898739
-50.13975106014087
-74.72102821912955
-68.32613374578486
-49.54348688177155
-35.86785161255086
-25.36234169450267
-21.07780085202047
-33.94924054332106
-62.39690073018096
-82.61740840745188
-75.86544042176246
-52.60305193548749
-29.230193580406105
-9.52473449126697
-3.4817760183504753
-18.46847291338034
-38.302304182887774
-53.01139105416551
-67.17264922929347
-79.27885615231756
-89.8013842117934
-106.88734277686802
-132.38249125481576
-157.42974190096473
-172.1711208519426
-176.28048258237015
-181.1679081108555
-194.05093104669933
-204.17285657107965
-196.80502679267101
-180.95473630853272
-176.89843091117075
-182.25923801101794
-181.6251503860505
-173.05650076203958
-162.56697204268076
-152.80307088488158
-150.20857439391278
-149.79965839048424
-143.85860612550388
-135.34575131471823
-108.21164150598558
-40.85009386571086
59.24494727189295
142.20165360123414
174.42713827713766
178.20524680093456
164.2249555067023
133.90135033455383
96.72941490746963
59.076477931276784
39.90662803980125
44.07302727419018
53.00647727969995
52.19753345288048
47.354014395155396
44.720655546830095
34.69027606489133
21.614846039239545
19.89841947608327
35.54850166126053
68.31445438554194
101.8665833114002
123.14196257248591
135.96083631140442
149.5572328778405
167.53071517823574
171.42611624562275
155.18426526163597
144.73590637956517
150.3368990067148
146.60633187525383
114.70890165756475
77.12216156781754
62.87142819315898
76.98130492971816
98.60745005375291
100.93233589693374
90.26128762020642
81.77378294314293
81.52090736120502
91.193219321518
99.65167195879027
107.9920103252345
112.97121948113896
97.45867056231839
55.04482769516679
-7.3508790204184296
-57.50840519268986
-77.98842592719792
-79.4140725471588
-58.22850569433699
-17.732848586824204
14.070159050152618
16.83829290282786
10.611212692147332
19.786530587492578
38.84107746287587
60.76323894827652
76.55599276836739
87.47652862112501
97.07635437914546
86.6582561207377
58.36940923617522
26.711394418029904
-11.830700422606192
-53.81057709321386
-88.86232440697283
-117.87820870773578
-142.70514833272017
-153.11341320929748
-149.84325773049022
-153.31875423914474
-169.8172526041445
-183.803478748385
-183.23983989204865
-175.17505761355994
-170.3748063786937
-161.992903194624
-134.40163061269845
-83.93116380558095
-26.684703889565675
16.217928131635386
38.68408790967731
48.307677498432206
55.89152645446451
62.15208695520169
54.81473565632786
39.35164098429815
28.29863071304487
10.019667170333248
-14.223619558136381
-26.47211592758994
-31.103371765486145
-45.28488804258183
-63.365961522293354
-59.58389912315506
-35.762258620826415
-23.78813715088908
-27.299977253395124
-20.71817206194938
-8.482878777700972
-10.40745190866126
-21.970572361406543
-38.04192714887022
-58.90442248597213
-82.17505611203143
-104.004652095024
-102.47864650832554
-71.54803438991962
-43.376970738991986
-29.549805339221397
-15.730977907534115
0.4340653928025016
12.455283070310445
23.400941820448832
22.68185226066037
-9.232032733008998
-38.48096252741469
-40.564702813921464
-43.744184032856545
-45.370610535168844
-36.64035652046917
-34.77638740976848
-33.782667535720776
-26.22716090673063
-15.967582291500909
-2.3103711307675856
1.222001226359109
-10.322867337078529
-25.78158732573654
-29.021394261331086
-11.012523508759353
8.104064519692866
10.835169326916912
-2.2704455174581137
-15.003436135890484
-17.008628641955124
-25.391121348513728
-44.76745126401979
-66.25806865080934
-84.20687789641262
-82.75549038380798
-52.57235195162562
-17.570322399368134
-0.2793312114894333
17.7818307856436
48.97759006459837
67.02977108271669
53.48708508449047
32.60417075023286
31.877594415868888
38.56719491609203
22.43174368129052
-16.6350798232008
-30.899398180810437
4.330989874728476
45.33328824467572
58.77998812584515
57.96856021990307
60.28913206048335
68.31826400602073
74.01864466716576
75.842883459425
89.38562724781754
114.43532520766136
128.36364832102313
125.77454963723228
118.0872846914491
107.12986412659582
80.69184606165078
31.435814154015343
-22.891476065028613
-53.53274229006233
-64.13850264166166
-83.3090850331854
-109.85496715745602
-117.21937826035744
-103.90273352919061
-94.38399044128245
-95.09263305986828
-88.22778661940104
-60.873180294922264
-29.414491799702557
-21.20609117710012
-32.12554045230452
-44.38905071621716
-64.50997754164565
-100.16914481027676
-127.04516292610492
-123.55385116840061
-91.8957078554661
-49.94692759264657
-18.517522725586915
1.2075642870513759
3.830143839253893
-9.045556683241848
-22.963513109440903
-41.59732903650543
-69.84778950051565
-88.49193143356585
-68.23717153469863
-27.184872809857822
-0.8030572102315254
15.228351479009563
24.27212473198227
23.714819391061503
18.996792621792178
10.801311020163194
13.115896648924407
42.81211443276375
76.30484441427988
76.07275060372736
53.06119486652296
36.82585837007936
21.514184579513103
-2.107880425703731
-24.22773986591545
-37.08112188657821
-34.602042932495635
-15.712542873477732
5.045047958699606
22.459871692921272
47.80618738327712
73.92932223481704
79.54021078129195
56.62759322716275
17.3084195902582
-17.155520425527097
-36.910162041942186
-53.0386628035427
-70.702375304006
-66.67587625892136
-41.171470985196144
-18.703096565771723
-6.441149837902367
-4.796155223655572
0.6256279829496593
13.342254449618398
7.982502513759172
-28.607090988496964
-79.96080128615505
-116.81895150719265
-127.5236340089245
-120.1202732259162
-107.98506556970112
-100.35655533366361
-97.65039932371668
-92.95551893428998
-80.20349092616654
-66.06857509290357
-59.497755421993915
-52.30490912661502
-24.995338339306564
15.638167433039127
33.31733443695155
13.65383890555417
-12.929194566192486
-24.383362919869484
-37.32849360147899
-49.7655068498467
-45.181738988776246
-28.58969127044849
-3.5419766366831698
14.979707907742625
1.9650859102042841
-26.990392535510107
-35.57125010838377
-23.590187098417726
-13.772466561498325
-18.667079918330337
-30.538502449360553
-36.5478540991733
-49.281871224980286
