AAD_Filtered_TADAS_FILE
AAD_BASELINE_CORRECTION: BASELINE REMOVED
AAD_FILTER_TYPE: BUTTERWORTH
AAD_FILTER_ORDER: 1
AAD_LOW_CUT_FREQUENCY_HZ: 0.025
AAD_HIGH_CUT_FREQUENCY_HZ: 40.0
EVENT_NAME: 202302060117
EVENT_ID: 13194
EVENT_DATE_YYYYMMDD: 2023/02/06
EVENT_TIME_HHMMSS: 01:17:32.00000
EVENT_LATITUDE_DEGREE: 37.288
EVENT_LONGITUDE_DEGREE: 37.043
EVENT_DEPTH_KM: 8.6
HYPOCENTER_REFERENCE: AFAD
MAGNITUDE_W: 7.7
MAGNITUDE_W_REFERENCE: AFAD
MAGNITUDE_L: 
MAGNITUDE_L_REFERENCE: 
FOCAL_MECHANISM: 
NETWORK: TK
STATION_CODE: 0127
STATION_NAME: 
STATION_LATITUDE_DEGREE: 37.816183
STATION_LONGITUDE_DEGREE: 35.92044
STATION_ELEVATION_M: 614.0
LOCATION: Kahramanmaras_Pazarck_Turkiye
SENSOR_DEPTH_M: 
VS30_M/S: 583
SITE_CLASSIFICATION_EC8: B
MORPHOLOGIC_CLASSIFICATION: 
EPICENTRAL_DISTANCE_KM: 115.07
EARTHQUAKE_BACKAZIMUTH_DEGREE: 
DATE_TIME_FIRST_SAMPLE_YYYYMMDD_HHMMSS: 2023/02/06 01:17:31.8820710
DATE_TIME_FIRST_SAMPLE_PRECISION: millisecond
SAMPLING_INTERVAL_S: 0.01
NDATA: 12501
DURATION_S: 
STREAM: HNZ
UNITS: cm/s^2
INSTRUMENT: sensor = ACEBOX/SARA | digitizer = 
INSTRUMENT_ANALOG/DIGITAL: 
INSTRUMENTAL_FREQUENCY_HZ: 
INSTRUMENTAL_DAMPING: 
FULL_SCALE_G: 
N_BIT_DIGITAL_CONVERTER: 
PGA_CM/S^2: 39.242
TIME_PGA_S: 
BASELINE_CORRECTION: BASELINE REMOVED
FILTER_TYPE: BUTTERWORTH
FILTER_ORDER: 
LOW_CUT_FREQUENCY_HZ: 
HIGH_CUT_FREQUENCY_HZ: 
LATE/NORMAL_TRIGGERED: 
DATABASE_VERSION: 
HEADER_FORMAT: DYNA 1.2
DATA_TYPE: Acceleration
PROCESSING: Automatic Paolucci et al., 2011
DATA_TIMESTAMP_YYYYMMDD_HHMMSS: 
DATA_LICENSE: U (unknown license)
DATA_CITATION: Turkish Accelerometric Archive v 1.0 - Disaster And Emergency Management Presidency, Earthquake Department
DATA_CREATOR: AFAD
ORIGINAL_DATA_MEDIATOR_CITATION: : AFAD - Disaster And Emergency Management Presidency
ORIGINAL_DATA_MEDIATOR: AFAD PROCESS SERVICE
ORIGINAL_DATA_CREATOR_CITATION: AFAD PROCESS SERVICE
ORIGINAL_DATA_CREATOR: network: TK
USER1: GuestUser
USER2: 
USER3: 
USER4: 
[...]
-16.821748346958884
-20.59651755340082
-22.39641697447518
-22.012595437021236
-19.736133389047808
-14.89709997983992
-7.638045029930053
1.5582938093616545
10.047444201009858
14.24861303703576
14.183972321157032
11.338247279351693
6.989559112092156
3.1948815375858524
1.6375710217870192
2.280339989001809
2.8677167713497815
1.7466271125985653
-0.19167594784271805
-1.282868752481438
0.22841836699858095
3.779815125569633
5.532680448578889
3.8866461410230495
1.2674795123767872
-0.6421652647713695
-1.9688837031948923
-1.7709466726702183
0.5115082924068193
2.91125130063905
4.232730163006351
5.446228559940003
6.611598163497453
5.843358019900724
2.4548589602039685
-0.6487179745832202
-1.2282433782611315
0.05357362312879278
3.4295207477262455
8.016380167667746
9.887228877212335
7.1078616553727
1.611250656091444
-2.9070432757150297
-4.159497850885427
-3.317671968676793
-2.7900394576407286
-3.6435544882859285
-4.438989346288275
-3.044701768974804
0.22390548200620083
3.770963211730483
5.708749724249677
4.569069115335561
1.899226242622461
0.18984905883577274
0.25825599926282283
1.9083793960823392
2.8347007859703477
1.0821192059827718
-0.9092650573977604
-1.095853321420085
-0.9787847665587674
-1.2516599900962724
-1.426457582766848
-1.1061601238862826
-0.15472673268790338
0.1047559940327561
-0.5249109070389163
-0.9978870168667824
-2.044251451693464
-2.929511537926868
-1.1164482389270949
2.2686249876868905
3.9315447291589893
2.8393952124120263
-0.1806383018561062
-2.349252870948152
-1.0283584363695921
1.659637586709728
3.322976212271696
4.696313176990053
3.8250902955713473
-0.6958833453251001
-4.4309338860848655
-4.387456844786491
-2.2103527634725224
0.46085453022028544
2.347539711016491
2.268675188987962
1.4689448370216878
2.1305114320313847
3.3705101503743933
2.977772015951998
1.3523193204229949
-0.1098927645943369
-0.5188068369000908
1.1025581290325068
4.244623735994541
7.574930661365714
9.960798936459181
10.285264327838215
11.188179932160406
16.068004981317515
21.06016510502636
20.792273289163223
16.369364763304727
10.994445742453733
5.77464033328464
1.614646919450659
-0.5659205473855303
-2.029262654371881
-4.674584911673409
-8.075711450611507
-10.698224330411778
-12.282602725411033
-14.563092849469621
-18.743345706425668
-22.635163812272953
-23.86970797110725
-22.78271390157939
-20.06669583460186
-15.784760978228661
-10.311126039810079
-4.121020373065502
2.4430584793583443
8.211876050283266
11.304432586810751
11.643011331255298
11.17184860671702
11.281291283774248
11.89071131832182
12.112170711559918
11.824308733995048
12.022212148488483
12.497070328449349
11.873285214912398
9.674659165779675
5.6824180462222085
-0.2998885647919182
-6.602042375368603
-11.039327766220875
-13.592210797091903
-14.699555333936742
-14.373857543377252
-14.001411312436574
-14.635514759271608
-15.058505121207496
-12.913389811688125
-7.274438891522286
-0.8655843890729101
3.7933290989692203
7.937976957203404
12.17543663681854
15.46352102357253
18.300259223410528
20.431867285672656
19.191348333458073
13.588920036194846
6.314192731839502
0.4254135710372409
-2.9919789486976147
-3.7475927928691295
-1.8126518051723068
2.122248799345056
6.48632932031339
9.624400459059625
10.310438894730751
7.361956839599274
0.2999715243796818
-9.39182227720117
-18.588796272667782
-24.375297854698122
-26.143258078946918
-24.95860440465975
-21.013874702931844
-14.062514478484946
-5.068503446616869
3.5799811029406925
8.47162364004674
8.29808893973109
5.473725472753375
2.057594207537721
-1.8845021643100441
-5.829996143660801
-8.337596827350183
-8.57524049894503
-7.390439772258696
-6.028040441294167
-4.810149304009221
-3.687598406064517
-2.420294363440549
-0.957504832890541
0.5515950529804259
2.21485140471398
4.056057209692708
6.263020214464789
8.409247309262058
8.95483610250899
7.424217545060066
5.381635806202268
5.011487227091192
6.58980294736424
8.308474230037412
9.334132790066015
9.431274518807031
7.565211101897721
4.322321407371754
1.7137478886895026
0.22159455356524008
-0.1048097761164365
1.59547004403933
4.18853705348672
5.595426642113715
5.94630880047288
5.105893636703525
3.3561851351386083
3.7171052222566354
6.670421390365012
8.953534426420902
8.620734516353528
5.22623529623142
-0.8854395233816224
-6.887464053657152
-9.484167048438861
-8.79646088025593
-7.169473745382059
-5.739026229162567
-4.603685197447423
-4.3480015602222535
-5.991514964383775
-9.355477666694336
-12.605776616934277
-14.57493862103264
-15.138096077905923
-14.579516428297046
-14.076364659059793
-13.62028297822098
-12.755500263269063
-13.611538019970794
-16.87964996575911
-20.416383616908348
-23.902652396595624
-25.966457029624127
-22.564471540820044
-14.17942356908646
-5.230171987824504
2.8168406347652413
10.741235056336812
17.47178350568255
20.1866340439426
18.569330922356848
16.294357295606
16.11404252459839
17.005198249139056
16.34701047713361
12.940606207499757
9.01696863462979
8.048412654179337
10.700821687151493
15.250078801193057
19.61855149488227
20.55121116211518
15.395084543786787
6.586624975172037
-0.5238375371017256
-2.8770212214719857
-1.1790381071525229
1.0093000479987961
1.04719314115877
-1.1933324690597429
-4.60364948423782
-6.4744282483736475
-5.040043475874175
-1.6391437003744407
1.6614794850657315
3.467890281889454
3.8103924164503096
3.8901279800332884
3.562800613136478
1.373307987962068
-2.3691853089134742
-4.690372641062444
-3.0579716436317024
1.598921863666235
5.9577102690603265
8.17179336293959
8.618542953045827
7.315154204055959
4.550469960150598
2.082957875296873
0.8497250624083612
0.15262440201971764
-1.1940815388795518
-4.268026064008043
-8.532440402479438
-10.871628546009584
-8.269679531060586
-1.3677052975093287
5.731609404729209
9.442879165908165
9.862367179381225
8.439927391497507
5.438798278242548
2.1045297296570715
-0.5387264103233045
-4.631224209521976
-11.210507522012398
-16.806012479471093
-17.74629634291469
-15.007623955532003
-12.737147443850864
-12.167060562007839
-11.419423256827676
-10.893287354395252
-11.57235484108731
-11.412434485894831
-9.369595024278789
-7.541776798091573
-7.045457700577844
-5.74623001897456
-0.8327675884554987
7.37261904030368
15.686219334848111
21.741039933631395
25.11440983188249
25.948272469885378
24.73389272809923
22.77637935687604
20.821743308935982
17.8254283195486
13.804052044114384
12.18628070249654
14.853425163650297
16.869420480043658
12.611673558556232
4.357242625822459
-2.9048261448932706
-8.847494876385207
-13.462621138158354
-14.174379070786987
-10.621874711138586
-6.709764040862353
-6.184127989475219
-7.325548305854915
-5.5222201928833945
0.025433799725765645
6.396579423123253
10.507787654190256
11.075118712101817
9.289292601716097
6.885887490131268
4.48552319724584
1.8902075140444419
-1.4323457052217727
-4.77714917263226
-5.597716873221156
-2.349319440145328
2.721873686609845
5.637125219892048
5.966618641383766
6.873510573051814
10.117291793363165
14.549892211739259
17.601734507548326
16.557016294788777
9.961015005962478
-1.8643209605184252
-16.00472434707652
-26.43020455579392
-29.06291982248053
-26.6762963684037
-22.92591510167849
-18.077982037302494
-14.51071010209829
-14.78316599500914
-17.278381206034595
-20.412248605809054
-22.795794310782366
-22.444691872034817
-19.825207750153208
-16.154286535053302
-11.81050351953755
-6.960210670751094
-1.2688946866105997
4.55577513223796
9.118893449600854
12.38140190481679
14.316868400688147
14.055918741448156
10.900148267426424
5.126759854381288
-1.673289437566905
-8.111295773477332
-12.384746661453894
-11.781457086042828
-7.035870658720513
-1.1870845057542017
4.990065226198016
11.134601430374845
15.881324554199947
18.046368368410565
17.85292930195916
16.820412623754926
15.100951832333436
12.303679417992404
9.43053094745829
7.205881294306703
5.076951451349395
1.7364521885230433
-2.5956839252996233
-5.779128654766037
-7.543648890931913
-9.246994777266979
-10.755040904373239
-11.176078225251281
-10.73178584089322
-9.736652550615446
-7.04204989966691
-3.1040418427447745
-0.696820739606821
0.2414471692296119
1.648526844614926
3.8717617447694024
6.747746641280657
9.843631508466801
13.344451604596555
17.686655655538136
21.23764897241316
22.281520147519515
20.75054194750433
16.724585115973568
10.411069214282316
4.197646076339386
1.9154784631062518
4.146695109189338
7.88153564647458
10.06924655052111
8.260099952309105
2.134754551208424
-4.279066572647035
-6.76512053010845
-6.617142717933151
-6.935222908231877
-6.668140772418555
-4.197625745017409
-0.6913161230996226
2.8109211204943585
5.071448923562377
3.5933371540481946
-1.56155894020836
-7.282314649565353
-11.487786062588746
-13.910254206540387
-15.855206745036352
-19.128201563364282
-22.432281452637515
-24.221540498880355
-25.87348083889856
-26.14724167807267
-21.447456767130564
-12.504897472543963
-4.375693161877373
-1.6410416847448652
-3.1740026463734465
-4.316831395959882
-4.715777019833903
-5.338119639780295
-3.8158169365930172
0.182017025608793
3.5897031374282733
3.984173737832478
1.682676659531741
0.6269602483862801
4.025506101620834
9.674994694102748
14.28367679103524
16.918603769451995
16.41552503234434
12.703651979249011
8.320295414262727
5.478607628868023
5.232803855507689
6.506296164962417
6.585507917126152
6.093524445436747
7.055828697151744
7.599359558720571
6.893890770816968
8.447990329779728
12.457546016195998
15.06007305823615
15.728003885768347
16.01712657897147
16.16085227125929
16.059873520756636
14.86379071757595
12.706636333146061
11.506771636782464
11.17744678338706
10.671601782971427
11.055392471800126
13.09425225584081
16.495877974747625
21.213821698635055
25.063907569977147
24.685207597036044
20.051429282738393
13.665979857843883
8.181515864940124
6.142938826667703
8.802628321805422
14.721479814818997
20.448793375231098
23.238778594039715
21.86188952317792
16.316485864622614
9.975844675373274
7.482803108703232
8.425862475367246
8.14499097289894
4.169899178025612
-1.132791438666772
-3.7644190510502886
-3.445479286246345
-3.1838469216609866
-3.4997930922409717
-2.8994752278661866
-2.483498588452804
-4.179087029543709
-7.25581517158863
-9.125242707359915
-7.951543816116054
-4.7471125162015735
-2.2389276070628057
-2.355812154107003
-5.246157719494309
-8.254160336518936
-8.123256602107965
-5.076573440741773
-1.5811449172011416
1.109961021650562
3.3889983129590076
5.263968734210169
5.669100905278348
4.103249495922713
1.2615109515352394
-0.8382471133793696
-0.9044660083314069
-0.5963588686969848
-1.1487490393505353
-1.91136490781107
-2.341130422101298
-1.8713692689732342
-0.47584838018852293
1.5741953020867745
4.319564952479913
6.074040318034416
3.6887793902986545
-2.9102650844639144
-9.51474537428352
-13.474135977917129
-15.18133327666447
-14.825073987088672
-14.200640811082927
-14.84955443402911
-15.052889700599243
-14.865125710828249
-15.991024569270715
-17.721894875969127
-19.096220344496786
-19.294974245172593
-16.778068666413933
-12.34465315668648
-8.514043636498876
-5.3611572790850275
-1.2819251532339813
3.754129634604182
8.16311190186251
10.789424033206496
12.65206463704698
15.311999374371165
17.022145436297656
14.725178507998809
9.138015468017938
2.9797001360900075
-2.825248460311656
-8.323531614518538
-12.642844180973205
-14.154870444348147
-13.057010119284811
-10.543092691820313
-5.760897537058334
-0.24076860297765398
1.7176670352549164
0.551553411472859
-1.0674030666229493
-2.8354350982418
-4.210804608005484
-5.063635715440889
-6.07013586212656
-6.89911346552956
-7.163393651742183
-6.223917617405795
-3.576171639645344
-1.2604507525920365
-2.264907684758482
-6.08383569831886
-8.883740407852839
-8.314728576275261
-5.145628975601884
-1.0571656031305634
2.2267790602321
2.7602381047550986
-0.47965778201185993
-5.4184808514633485
-7.700537668392773
-5.531230450490995
-1.291051654034703
2.701738990539657
5.817339831282585
6.931012541763565
6.386166161713365
6.755156684559023
8.642620403998839
11.151481514558663
13.280198760098562
12.649918972867038
8.85806100920544
5.140118114500005
2.808927488578517
-0.7146618424579966
-5.990788411956323
-10.175548448995373
-12.526307433397887
-13.5846624848661
-11.9263635909725
-7.347146544757844
-2.597179073344925
-0.09689910382043793
1.2523568630350947
3.488126230266033
5.204816142066996
4.509591421755324
1.4502205867335782
-4.045418752324982
-11.058965388241987
-17.815130572875272
-23.42829500999588
-25.610946852715326
-21.834235349536883
-14.509453291699627
-7.677766781886721
-1.0797133872962767
5.471970993612775
9.259196954403702
10.297559657423252
10.964725832945758
10.872100659569867
9.05944840546154
7.366091651647093
8.167277907962836
12.561618025636038
19.85018102169328
27.419104279925218
33.48746230202927
37.67750493810471
38.783834557539386
34.852275957921286
25.296312357416948
12.73484889718625
0.46716573127453825
-10.85800206930809
-21.12593375063306
-28.71072586104248
-31.447161358671302
-28.323914523331947
-21.241493351758855
-13.622353499387279
-6.5007142124995445
1.1219136311733902
8.202775702339919
12.585924129471323
14.586393920641717
15.249836239465944
14.418876895348273
12.764671740844703
11.719787262218777
10.704514808060464
8.552562039942147
6.160041842050973
3.546893376706927
-0.5919363605622769
-5.286377373739195
-8.136534064854953
-7.617098977077657
-5.3606615173539245
-5.051329175632886
-5.759371121485917
-3.7660829618501563
0.2645741327963813
3.26846994653945
4.520994893209252
5.550032354698871
7.454212032972063
10.12844465962697
13.390512303209892
16.58468525153726
18.793765018557156
19.76296850432608
19.369805517242025
17.14123476607859
13.778725428454395
11.786809093172362
11.598264067239763
11.039052249434892
8.931774331367157
4.975254841490459
-0.2747748624653093
-5.426453656848568
-9.211695317088346
-10.12083833728233
-8.469035906928424
-5.899232547526344
-2.3411562465195224
1.4543258989095853
2.945032937921583
1.7782688946416219
0.17101950524387746
-0.1589829019014745
0.47883219335379795
0.1577647304118024
-2.7137064003246247
-7.051086254451639
-10.408405610647065
-12.774683053279839
-15.179070155077836
-16.192931626444427
-14.578585871587302
-11.73665805484809
-10.036434237861906
-11.445094176581192
-15.040590857363236
-17.582489758117372
-18.60043288454381
-20.293078886249507
-23.57170548734131
-26.889721843499316
-28.199478892319497
-27.66231374018827
-26.576408360037373
-25.356307686756153
-24.29428058496253
-23.147330602193335
-21.05275278848511
-18.469498004049843
-17.174968165128718
-18.372037147455604
-19.915233118539547
-17.611111624459493
-11.8688898946291
-6.578428066846076
-2.8881900336149395
-0.23115582346763877
2.2897010783038763
5.4206824314775455
8.060448184787935
9.792219873467445
11.018786727472019
11.150845217136983
10.828725925326037
10.590381878463207
9.22071214602317
6.588558087657355
3.9788103677237623
2.9714228077297706
3.7896982593944686
4.220939934388959
3.622024327728193
3.909556620384057
5.253725880930841
6.527508346053044
7.397257870105371
6.734109997790359
3.616121615563282
-0.31604784031458183
-3.277479389382171
-5.8161314491681715
-9.358555772299916
-13.527848103076884
-15.928608856605331
-15.776009836352499
-15.112764956616859
-14.811467490265144
-13.082347415681184
-9.690412295628203
-7.1390701450642595
-5.68375872905246
-3.765519190216647
-2.084421182317103
-1.2830662823574215
-0.7751187347453822
-0.4790884996009445
-0.20207947344980234
0.39202231599005705
1.5281408547826383
2.9650501152675117
3.8990713873019254
4.148809122272416
3.5400849019486134
1.7894799835848307
-0.5526911303203179
-3.200221025810445
-5.2162276874748725
-3.8086659505081237
1.6647930801241684
7.713390291701264
10.939245593143365
10.709729226585686
8.270158150927104
5.772749776958687
5.219794046665382
7.349609717908005
10.483352110086024
11.227927376022482
8.597021516549805
4.53319785821265
0.27359344917649747
-3.7892381698068585
-7.1237328859737765
-9.370971012149715
-11.46710994936527
-16.02319525664574
-22.70158570827282
-27.442473485404975
-28.07248253464483
-24.985166443356825
-19.769411575782527
-14.86331659069886
-11.959445251677282
-11.338569258759362
-11.280725648722544
-9.98971881325795
-8.368147879158522
-8.059659061333015
-9.673084251619263
-12.398370975287959
-13.86808307622744
-12.567225833431175
-8.892066523062608
-4.641715950105552
-1.9791536402998942
-1.1221981610187268
-1.7893303659849544
-4.514057958528276
-7.672384816289324
-8.64440365797517
-7.6060253536549
-5.926529128128408
-3.9196275862956518
-2.280430312262808
-1.4128641576599916
-0.5727144871046328
-0.6333795419196526
-1.9407161498258108
-2.314715312434665
-2.438211295225157
-4.686978905252368
-8.025393643685131
-10.656814222424766
-11.63418543605243
-9.994711320678654
-6.327849914168359
-1.6853998915797723
3.8952544647185254
8.946598028678947
10.883409688166722
10.191518603896233
9.620390788225329
9.481739050993848
8.8053575756335
8.171963491980845
7.519268265855506
6.823444045494377
7.682413103703485
9.404740902580153
9.594648362250071
8.681963492341785
8.384349508152075
8.084846983464198
5.823226753485305
1.870916267524135
-1.920629486510084
-4.786120057697174
-6.646791629326232
-8.099157287597793
-9.082782732821459
-7.785641385351103
-4.007769721231241
0.4432908012376049
3.8041577302257625
4.768954351042926
3.5565307334640335
0.7964688676308727
-3.3854534632638553
-7.475413662041556
-9.446440947377484
-9.133607831147245
-7.851098435636038
-6.513133958952044
-5.451838764068653
-5.815316601145258
-8.446854289370487
-11.842344319378155
-13.393312296423478
-11.717906574697578
-7.782198619801148
-4.1233598513178205
-2.0501800882489603
-1.298400488050616
-2.1717400381611585
-4.101185027995921
-4.919215117552697
-4.367397800044745
-3.49845990194711
-2.24652944342097
-1.0979866486311531
-1.001045427977396
-1.891421364274995
-3.857659344924696
-7.16202011612367
-10.651329170938428
-12.82082254405616
-13.80789167557781
-14.158272076425943
-13.938761310673463
-13.95685419007757
-14.634405304691498
-14.798997696486742
-13.778198355578121
-12.788805091078567
-12.990227732149576
-13.920184483939284
-14.692593024142905
-15.324797907859681
-17.12825870985286
-20.764156418067458
-23.86587684380517
-24.31513352172446
-22.630603366672094
-19.221929569572257
