AAD_Filtered_TADAS_FILE
AAD_BASELINE_CORRECTION: BASELINE REMOVED
AAD_FILTER_TYPE: BUTTERWORTH
AAD_FILTER_ORDER: 1
AAD_LOW_CUT_FREQUENCY_HZ: 0.025
AAD_HIGH_CUT_FREQUENCY_HZ: 40.0
EVENT_NAME: 202302060117
EVENT_ID: 13194
EVENT_DATE_YYYYMMDD: 2023/02/06
EVENT_TIME_HHMMSS: 01:17:32.00000
EVENT_LATITUDE_DEGREE: 37.288
EVENT_LONGITUDE_DEGREE: 37.043
EVENT_DEPTH_KM: 8.6
HYPOCENTER_REFERENCE: AFAD
MAGNITUDE_W: 7.7
MAGNITUDE_W_REFERENCE: AFAD
MAGNITUDE_L: 
MAGNITUDE_L_REFERENCE: 
FOCAL_MECHANISM: 
NETWORK: TK
STATION_CODE: 4413
STATION_NAME: 
STATION_LATITUDE_DEGREE: 38.313533
STATION_LONGITUDE_DEGREE: 39.039342
STATION_ELEVATION_M: 930.0
LOCATION: Kahramanmaras_Pazarck_Turkiye
SENSOR_DEPTH_M: 
VS30_M/S: None
SITE_CLASSIFICATION_EC8: unknown
MORPHOLOGIC_CLASSIFICATION: 
EPICENTRAL_DISTANCE_KM: 209.20
EARTHQUAKE_BACKAZIMUTH_DEGREE: 
DATE_TIME_FIRST_SAMPLE_YYYYMMDD_HHMMSS: 2023/02/06 01:17:48.0738080
DATE_TIME_FIRST_SAMPLE_PRECISION: millisecond
SAMPLING_INTERVAL_S: 0.005
NDATA: 9303
DURATION_S: 
STREAM: HNE
UNITS: cm/s^2
INSTRUMENT: sensor = GEO-A200,/GEObit | digitizer = 
INSTRUMENT_ANALOG/DIGITAL: 
INSTRUMENTAL_FREQUENCY_HZ: 
INSTRUMENTAL_DAMPING: 
FULL_SCALE_G: 
N_BIT_DIGITAL_CONVERTER: 
PGA_CM/S^2: 10.189
TIME_PGA_S: 
BASELINE_CORRECTION: BASELINE REMOVED
FILTER_TYPE: BUTTERWORTH
FILTER_ORDER: 
LOW_CUT_FREQUENCY_HZ: 
HIGH_CUT_FREQUENCY_HZ: 
LATE/NORMAL_TRIGGERED: 
DATABASE_VERSION: 
HEADER_FORMAT: DYNA 1.2
DATA_TYPE: Acceleration
PROCESSING: Automatic Paolucci et al., 2011
DATA_TIMESTAMP_YYYYMMDD_HHMMSS: 
DATA_LICENSE: U (unknown license)
DATA_CITATION: Turkish Accelerometric Archive v 1.0 - Disaster And Emergency Management Presidency, Earthquake Department
DATA_CREATOR: AFAD
ORIGINAL_DATA_MEDIATOR_CITATION: : AFAD - Disaster And Emergency Management Presidency
ORIGINAL_DATA_MEDIATOR: AFAD PROCESS SERVICE
ORIGINAL_DATA_CREATOR_CITATION: AFAD PROCESS SERVICE
ORIGINAL_DATA_CREATOR: network: TK
USER1: GuestUser
USER2: 
USER3: 
USER4: 
[...]
0.5101069855673156
0.3560195973498664
0.2221320617730952
0.13120442348081193
0.11897083060477598
0.1320919419186593
0.10121455250252291
-0.027250584188371646
-0.28867777526890787
-0.659080842069455
-1.1017467710368174
-1.586874624322552
-2.026886094699439
-2.3190446380958627
-2.4250302577840306
-2.3120351664359657
-1.9402638081070556
-1.3488557739552802
-0.6599488295009701
-0.033443067478963334
0.402063005569292
0.5946921927853044
0.5729999080648274
0.4186802591213599
0.17786703818023206
-0.07663185903914274
-0.21933706739904166
-0.2379698268831261
-0.1916273350775449
-0.09267216354310566
0.03575900732609914
0.16629709839256898
0.31978098403100386
0.4777469922433001
0.5623873275496409
0.5156039856378011
0.32588181172272085
0.038479785834421014
-0.3306773679480505
-0.8008572285677651
-1.3044917791322144
-1.7531634482074074
-2.1204063817791314
-2.386134771369115
-2.5217392872111217
-2.4811715853314866
-2.20747305044758
-1.7168459366909135
-1.100113138660974
-0.4157956235169956
0.33835971878888216
1.1281924316797092
1.8584122361582425
2.4835089641637103
2.995801772959551
3.376734146248835
3.6664179259737075
3.880895540916116
3.9931878205889646
4.0588064817885305
4.121725375566276
4.139700799121972
4.0505097169109625
3.8794791468004215
3.713182793168266
3.5086500777747545
3.24076795773303
2.9988105531097684
2.8200642651760437
2.752360590415286
2.7879807263154053
2.888344169974991
3.070252986326608
3.2546535263212237
3.4004163484639256
3.520024870542372
3.5920999014345383
3.6111130101454942
3.546618214249425
3.358896089300426
3.004690505651088
2.5017765105115473
1.9062793226486816
1.2459874298042002
0.5868293739397399
0.02933752889150011
-0.3464546486102951
-0.5266312637883115
-0.5409285599099964
-0.43552414795294786
-0.2800857614845482
-0.12453420921419739
0.016740458861047948
0.06905422240317732
-0.07500645630006704
-0.39551112642576647
-0.7958145552700031
-1.2334285047289966
-1.6710965162803995
-2.0164302098585347
-2.211867212978703
-2.2634192425315964
-2.1602014328516823
-1.9258722021826038
-1.6564953235837303
-1.3963469536207387
-1.1775789047493546
-1.1083946085775689
-1.265168948656603
-1.6538071693298324
-2.2469617709950938
-2.9875612973021832
-3.7954314940599514
-4.573392463120854
-5.2072176796363125
-5.610264195295893
-5.763394634914585
-5.672140031608881
-5.372797182697483
-4.927128717847862
-4.429614070590492
-3.987877348470768
-3.619147007299589
-3.346984847284693
-3.230738884725341
-3.2515772423766527
-3.3594458480804077
-3.522593447790185
-3.704120001112095
-3.839291706398309
-3.8657840974203963
-3.7422137942595546
-3.4574868064579043
-3.0534952820420047
-2.573142450765041
-2.082153813047286
-1.662549644394848
-1.342589847837416
-1.147441126483806
-1.1057370931220616
-1.2258152010473373
-1.4851178563672107
-1.8182545984035299
-2.14732535588379
-2.391919037719533
-2.5077175285684783
-2.4838265699126043
-2.3156413514929137
-2.042779095388372
-1.7426469898433314
-1.4659724842370558
-1.2380433604581191
-1.1108720748860452
-1.0897316935744639
-1.138662963752458
-1.2740100933364966
-1.478378894090871
-1.6972368809724188
-1.8916939157490706
-2.0354183921517937
-2.1380132770990636
-2.195225864371117
-2.203822480442029
-2.166805076331155
-2.0681955245388957
-1.926741305114727
-1.7599994174707507
-1.55572833513382
-1.2854388270899575
-0.9300382746223508
-0.5212782951439823
-0.11913631216047744
0.2135030319073445
0.46528043473881264
0.6311548766849313
0.6654174408332202
0.593932790428423
0.48033027225101776
0.34420177587244655
0.20102918786247145
0.11096469786812545
0.11502903449508306
0.17633437004901623
0.27674834692539235
0.3820740663889698
0.4328024144253814
0.43766201838928004
0.4127445842704507
0.36396384210238303
0.28250909486643716
0.12765962381082988
-0.10811290536147862
-0.4030320255772517
-0.7277250884365254
-1.0539091635420073
-1.3597391325337913
-1.6039913654640086
-1.763205824558954
-1.8534199547808041
-1.9176038103066935
-2.000377549758791
-2.1049318389917144
-2.229235714468041
-2.3460421690163913
-2.385059292530599
-2.3145641286517575
-2.1408277553282717
-1.8926891599549678
-1.6421343612373807
-1.4766816889572856
-1.421050541655724
-1.458859561083348
-1.6062077576479679
-1.8429287450613576
-2.122245498037401
-2.445471022759511
-2.8279922238331414
-3.2790682250774195
-3.7890330510450423
-4.326971404287688
-4.826503568670513
-5.197356962275085
-5.408679898190614
-5.459848504607701
-5.344634705366193
-5.084357049542647
-4.68858164355495
-4.161466923744803
-3.5438256322783515
-2.892358407601233
-2.260169550280703
-1.6622915330227443
-1.0767933358615187
-0.48194844935372266
0.1131258036761387
0.6493198969233239
1.0708891531826081
1.3581546482570426
1.4878832582720272
1.4143761982781298
1.1272617555781859
0.6854135629474046
0.15763064600868532
-0.3944520174953111
-0.885635804326743
-1.2210671668276132
-1.3357099369237755
-1.223562367892213
-0.9283441969434144
-0.486143328400118
0.05854068153657586
0.6043304674809241
1.0594801086997314
1.3669850311393794
1.4727273255012772
1.326576775530364
0.9306528211825643
0.3938491242120781
-0.14035641522279388
-0.5242174662256192
-0.6190797257926731
-0.42138267888738934
-0.027563957798830772
0.5024597001250897
1.109697395407117
1.6879494538100406
2.1730307788537417
2.5534109669372866
2.801287648914111
2.8854779132459663
2.8042923900635914
2.5676841539230195
2.165278184097713
1.630442526829159
1.066913218975336
0.5626380241193607
0.1714780199879957
-0.056450362057082586
-0.10759972919864966
-0.07451074376527991
-0.0882455938246914
-0.19728350855703156
-0.3786979406356494
-0.5807633686439702
-0.7503627587716705
-0.8593612635942375
-0.9214995972608591
-0.9771349606289204
-1.036655992589551
-1.102049923866148
-1.1568448407953762
-1.1453409461873494
-1.0667212134497754
-0.9141027586177973
-0.6473027349237068
-0.3069132598757775
-0.0038649936004069158
0.17770879132749456
0.2533583635637715
0.26408022638129863
0.26233728590681404
0.3116849868185895
0.4178577474495018
0.5584501953760372
0.6323743957380746
0.5189558525239628
0.17027052456060077
-0.41965067589935645
-1.201742984186814
-2.147409196812937
-3.215404082149958
-4.282050735798265
-5.218118610369712
-5.935507727863392
-6.38507314834483
-6.523368042320204
-6.359907125930826
-5.9239502021133275
-5.240150519323984
-4.460629136331281
-3.7914732552888113
-3.388286739706227
-3.345501158855892
-3.692016001878673
-4.396052655581419
-5.301927161737613
-6.209375789589179
-6.93879234200511
-7.328902238322352
-7.303956922414076
-6.82817227474295
-5.924365506288533
-4.7451321655001095
-3.5068648689741
-2.362991633757052
-1.380514413746631
-0.6558447783216718
-0.2847703117806728
-0.2967578224640313
-0.6886992717404757
-1.36609956144133
-2.12685528566464
-2.75268162779601
-3.087488194603524
-3.0570380012041123
-2.6086795242161185
-1.7502907258579934
-0.5924798155331994
0.7480516533323647
2.0992033301796136
3.2256530996969754
3.973084492991404
4.256977982355335
4.0235743634063255
3.3179514537451933
2.290366963941412
1.135251805031313
0.04843826546971051
-0.8111078932180044
-1.2795450832927815
-1.257694528391023
-0.8033680072190178
-0.030600042917522136
0.8981948505170807
1.8122077036195794
2.6232554046779946
3.2492891403719373
3.541942578355004
3.390477776777659
2.820299560974671
1.9233581593614253
0.8244871531826355
-0.3138084149980741
-1.3144715538603076
-2.0432458315690925
-2.468547507558382
-2.6403625137771796
-2.627982800107062
-2.4530734891656185
-2.162000848278305
-1.8834583926157815
-1.7082298083972758
-1.6563144566202326
-1.7328750747416166
-1.9255691934210344
-2.1974282394917894
-2.4656741962819
-2.6159745259197105
-2.5618568771006895
-2.260948750392959
-1.7639720855942285
-1.1544468547674867
-0.46279007559471397
0.22647828428384065
0.751787822756905
0.9822570717585796
0.8810893029645774
0.501697965103534
-0.031134334277540608
-0.5936998523165709
-1.1172604486801956
-1.5265949337509932
-1.7460516742209067
-1.756666775944191
-1.5902409009738432
-1.289796721214927
-0.8996510780533753
-0.4951409966845695
-0.1860796631390306
-0.04744113257956257
-0.08739494046720617
-0.28662563052239887
-0.5629528059841601
-0.7981756311411146
-0.910092863845661
-0.8054916686662013
-0.4103003193651492
0.22717997202561419
0.9871094617588756
1.7504439356401016
2.3818565855574314
2.775930483233045
2.880296892376744
2.6546205580712705
2.1313830087852272
1.438955142680205
0.6758183684064777
-0.06926134986344333
-0.6621259349823806
-1.0353432560772984
-1.1915862548273073
-1.1561121250342772
-0.9584367069738191
-0.6380932929328919
-0.2933499601485905
-0.020606855350788968
0.14196730620296927
0.19806315262333737
0.17801760427899366
0.12180669682095278
0.06707394749799847
0.09091360878731175
0.30397852749841237
0.7358472796833248
1.3246142079304741
1.9998197086002656
2.729437603436075
3.467300218376544
4.120736555137093
4.650419954706933
5.098306874023934
5.509487847466849
5.9079967101045305
6.32177074894043
6.7434923421899144
7.135314308533127
7.448367585060716
7.589430360537454
7.5143377417056945
7.27305301437423
6.882644067297423
6.270860474784431
5.374467201167366
4.192912243688202
2.7766940573814987
1.2269394652756114
-0.33042891092867616
-1.7000039875097872
-2.6655331858885756
-3.104979448404556
-2.9671196479249433
-2.2866503956629196
-1.1924627358617632
0.0903966757341099
1.2769322656362678
2.1816732797940643
2.7342925551449424
2.8985858983949435
2.6393716476800133
1.9643582125306722
0.9867397677254819
-0.1294363264309975
-1.2213365669270246
-2.124119053343096
-2.678615554234265
-2.8197482154924596
-2.624561172094691
-2.21590269120754
-1.6893084407367518
-1.1296481808187455
-0.6824177838164807
-0.5038425552392604
-0.63529474340832
-1.0052826251612066
-1.495290280296333
-2.0234265599268126
-2.515118589929327
-2.8405744742427577
-2.9449133541234707
-2.910726970130837
-2.792583597936972
-2.5764276387156166
-2.3113675720793343
-2.0394879178852725
-1.7287492843162093
-1.3896770666788645
-1.065284687882213
-0.7205233486006806
-0.27755657601990363
0.24741631112229875
0.8097027119722838
1.4074365846178232
2.0423706354050686
2.7323488959133364
3.415250867046376
3.9655365961160074
4.310281349281938
4.399694071143458
4.200392408997628
3.7302155841592386
3.0762640709134876
2.3246589594800966
1.550983221023799
0.8676058013413622
0.29529908383459513
-0.18333338501014515
-0.4891729876410868
-0.5941456224398273
-0.5840312731448734
-0.5498986122435793
-0.560732943838667
-0.7116806789666311
-1.0895074680827848
-1.7101032046918747
-2.547587413839292
-3.5274205679501938
-4.5461850271365964
-5.53226079549536
-6.401045194835971
-7.061777649665809
-7.481733951469719
-7.678303499027835
-7.6932462286651635
-7.6018197873445
-7.480003626630725
-7.3430341588746835
-7.227945993349216
-7.19096384912257
-7.216095121449663
-7.3049337431701185
-7.485993437000394
-7.71543456023454
-7.879065549818362
-7.864648342881913
-7.643918033637721
-7.282698746343573
-6.865575688482284
-6.42921786067358
-5.982012553789151
-5.535345656232516
-5.091772484215245
-4.661527292120058
-4.239729257842859
-3.8016739558957435
-3.4008021239203896
-3.1110620579179344
-2.9576214037628548
-2.9671332644961708
-3.1341813174171294
-3.401483192240846
-3.691747066266386
-3.988823226606016
-4.32097253622273
-4.675161978511558
-5.03825654048977
-5.368793942038138
-5.582995090364092
-5.639573169097399
-5.5593651193995575
-5.411471965762822
-5.295331134348808
-5.290277571898201
-5.41696492775264
-5.641139680630844
-5.906476683753045
-6.160728323513538
-6.351296298176868
-6.439024666011097
-6.384762045704875
-6.158504787177908
-5.734366621355921
-5.050513877722307
-4.096925434079933
-2.915914967141601
-1.5525569991010066
-0.07687571055572691
1.465679831871813
3.008038698143295
4.42591907038293
5.625492558625223
6.553602265605797
7.175775153518596
7.4800805855727575
7.515245529832292
7.383200631917906
7.176868423229972
6.983943886349942
6.875394522941788
6.896256737518591
7.086535609692822
7.465081608844032
7.991322027616655
8.55307415551184
9.048735274238261
9.426432417977034
9.632564306480774
9.630161038318116
9.406022799887928
8.947322692432369
8.283335475832793
7.49022014979349
6.651540948052766
5.844945406963118
5.129953060493226
4.563442054424281
4.20562901746759
4.091097473380054
4.223524400593292
4.564763357625687
5.019898439297541
5.458650554127175
5.737070753841131
5.750997532443632
5.47785266561755
4.905116504666863
4.0633039747618644
3.0813647968520628
2.0780146980601195
1.1506114148679507
0.4243692231427003
0.018739276711923332
-0.01360927683422608
0.2698248196149827
0.7632924114371524
1.4174389469628945
2.2449078501837985
3.255017356911257
4.3754758365427975
5.5113851077952365
6.67705206941176
7.879158489923084
8.976073579819447
9.792542877921406
10.237413735921688
10.275884892498503
9.92661806734016
9.247984931765114
8.278734608879057
7.068036428803829
5.697997911383203
4.293622318943756
3.0666510316747626
2.170718687749337
1.456772420974674
0.7570918742438699
0.18303737354812336
-0.226790051269537
-0.5803038145596621
-0.931430677944895
-1.3124159444642558
-1.757396295400046
-2.2991119141886127
-2.898844100438843
-3.471734877000934
-3.940966238986342
-4.229898753482973
-4.349166681210339
-4.36265987076654
-4.3249693167853405
-4.272734316090735
-4.1811425043544945
-4.033073095026733
-3.8899261734796653
-3.8046324188351357
-3.76043705558119
-3.7240354582224593
-3.6555237270471337
-3.514186899295071
-3.2949784316273276
-3.029237523879397
-2.7755376073799196
-2.6033236081892834
-2.5578797966296016
-2.638428107305261
-2.83565458200647
-3.155440198649431
-3.5541956777855432
-3.9148648067087644
-4.1683297283260075
-4.311462454817636
-4.296573343996732
-4.101943606776522
-3.7861005986780505
-3.3900614798051376
-2.9409223994432643
-2.4832721666542703
-2.0141664542457915
-1.5177279887634847
-1.0164781157461753
-0.46683669517234827
0.19255425562783357
0.9284570375818496
1.6546028335836513
2.276738364741204
2.7432494386614406
3.032809820966507
3.1355532656723417
3.0631543309063054
2.8411662998162264
2.5127052164693646
2.0978242352753607
1.6208013608234555
1.1145406097050141
0.5572274888592531
-0.06602573783424959
-0.7505096480140302
-1.5405576695283465
-2.484578104335361
-3.5673556348762916
-4.7247399833134045
-5.881925408077126
-6.954966026311915
-7.853043954170186
-8.523852412631134
-8.920306217165582
-8.94874223160922
-8.567992679118715
-7.858025551344184
-6.977474908801944
-6.082415519258235
-5.227930197170381
-4.408107001828392
-3.7057751326218447
-3.193775313683771
-2.764830101809387
-2.2573765335248783
-1.6122410223786743
-0.8978396073076224
-0.21946795987578266
0.31332158279904787
0.5362267262123805
0.35383654628700695
-0.16501385681543687
-0.8194327796800701
-1.403536316613158
-1.8682399398001368
-2.2352375874115613
-2.471355577174761
-2.525409537589463
-2.421196800618351
-2.2778584865072444
-2.1437474175401467
-1.9795148982677886
-1.788196109492756
-1.5942359514991191
-1.4578350346317164
-1.4427080337827813
-1.491838849212191
-1.5049799490768097
-1.416001737168601
-1.1614689326790386
-0.7040716937771946
-0.03485324660795881
0.8056147798582497
1.7207209804084804
2.609197299497769
3.4130456332053862
4.083122340281275
4.54671866296174
4.779860141235076
4.775397853036966
4.541970080131848
4.111950370394413
3.483013422330701
2.7241105359579016
1.998118120309066
1.4421360426412204
1.1375041533767962
1.1127563262855276
1.353961694178642
1.8414720396293933
2.5104731441542447
3.236703226854408
3.863923096550106
4.222517000118267
4.25110942343769
3.9793861699619852
3.4664752290600243
2.819604978015928
2.112234599032581
1.4028599124417895
0.7588670404881789
0.21916719588448752
-0.19170487909287612
-0.45066287282299183
-0.5206212525303366
-0.42301738910325176
-0.2535318866784954
-0.06382600580029718
0.1623796930417829
0.4367858065811882
0.7245616253533032
0.971118688754769
1.181408547827279
1.3941949890006073
1.5828343558303606
1.7034005881732095
1.7574409763667473
1.739887478100882
1.5806843426553951
1.19202835494592
0.5289108128462813
-0.3529890571750586
-1.3172181577216673
-2.2944702264672947
-3.2166161131620026
-4.028229650946758
-4.729879792091905
-5.1888952384982945
-5.221529453942045
-4.752481525125746
-3.8121788192446266
-2.567026780451987
-1.2491932926432523
-0.01938733579397854
0.9848536668443202
1.5818613080419566
1.6735691464588442
1.3137092930164909
0.5973053567435909
-0.31288185207068697
-1.1731499968920538
-1.8646375976578307
-2.3228277019685444
-2.465309110307109
-2.269927215080974
-1.690329664298256
-0.729869677176969
0.4744647749509426
1.7165303269949894
2.820335611869356
3.651261784291983
4.10457575569292
4.188266650750757
3.972483032870808
3.569286599913483
3.163980406844086
2.8480708696596055
2.4760833060045546
1.9429662192951889
1.4202509915005792
1.0564906359984851
0.9522663074592005
1.2589494181670131
1.8937940074851443
2.7446841967016695
3.7901708167506944
4.852301453469982
5.783592756491576
6.439351300369025
6.749626881277738
6.830182251313441
6.723906056358959
6.50904613895158
6.271252374360027
6.057048718616221
5.916943895726285
5.847449849476952
5.891545390633391
6.082506751082326
6.474800594999666
7.077007680295283
7.760147469901896
8.39482816317754
8.8663804305595
9.043152798330144
8.84843112029703
8.362948471712514
7.68643910369672
6.860793775559945
5.947631227942519
5.037103063273567
4.2584376502284655
3.7334706970359353
3.5164813934251784
3.5755864756397493
3.868103768145482
4.327110329389983
4.83016432713449
5.281926485289166
5.571546552422292
5.597390694242222
5.344469801411602
4.87504783264915
4.310149574815809
3.731219172716918
3.1469469235420897
2.590570175818132
2.192855160171343
2.061297392981231
2.184105312874906
2.5434108263672046
3.05504944379619
3.5719976838269347
3.986648825991805
4.138223177394845
3.9226613230645495
3.3585935151726765
2.4917075994084112
1.4369233549745546
0.37613723970072066
-0.5034684183237981
-1.0954413760438222
-1.3670578632509383
-1.2852895566156832
-0.8216029089689816
-0.013076082874169663
-0.05134666524638409
-0.30470890207422385
-0.17525550272490928
-0.24078469317630222
-0.20700281051081404
-0.22380432522339838
-0.21484252798071615
-0.2190035749876018
-0.21648133084368126
-0.21736378000806997
-0.2165127438852458
