AAD_Filtered_TADAS_FILE
AAD_BASELINE_CORRECTION: BASELINE REMOVED
AAD_FILTER_TYPE: BUTTERWORTH
AAD_FILTER_ORDER: 1
AAD_LOW_CUT_FREQUENCY_HZ: 0.025
AAD_HIGH_CUT_FREQUENCY_HZ: 40.0
EVENT_NAME: 202302061024
EVENT_ID: 13207
EVENT_DATE_YYYYMMDD: 2023/02/06
EVENT_TIME_HHMMSS: 10:24:47.00000
EVENT_LATITUDE_DEGREE: 38.089
EVENT_LONGITUDE_DEGREE: 37.239
EVENT_DEPTH_KM: 7.0
HYPOCENTER_REFERENCE: AFAD
MAGNITUDE_W: 7.6
MAGNITUDE_W_REFERENCE: AFAD
MAGNITUDE_L: 
MAGNITUDE_L_REFERENCE: 
FOCAL_MECHANISM: 
NETWORK: TK
STATION_CODE: 6302
STATION_NAME: 
STATION_LATITUDE_DEGREE: 37.2342
STATION_LONGITUDE_DEGREE: 39.7509
STATION_ELEVATION_M: 550.0
LOCATION: Kahramanmaras_Elbistan_Turkiye
SENSOR_DEPTH_M: 
VS30_M/S: 936
SITE_CLASSIFICATION_EC8: A
MORPHOLOGIC_CLASSIFICATION: 
EPICENTRAL_DISTANCE_KM: 240.66
EARTHQUAKE_BACKAZIMUTH_DEGREE: 
DATE_TIME_FIRST_SAMPLE_YYYYMMDD_HHMMSS: 2023/02/06 10:25:08.4861440
DATE_TIME_FIRST_SAMPLE_PRECISION: millisecond
SAMPLING_INTERVAL_S: 0.01
NDATA: 14501
DURATION_S: 
STREAM: HNZ
UNITS: cm/s^2
INSTRUMENT: sensor = CMG-5T/GURALP | digitizer = 
INSTRUMENT_ANALOG/DIGITAL: 
INSTRUMENTAL_FREQUENCY_HZ: 
INSTRUMENTAL_DAMPING: 
FULL_SCALE_G: 
N_BIT_DIGITAL_CONVERTER: 
PGA_CM/S^2: 11.322
TIME_PGA_S: 
BASELINE_CORRECTION: BASELINE REMOVED
FILTER_TYPE: BUTTERWORTH
FILTER_ORDER: 
LOW_CUT_FREQUENCY_HZ: 
HIGH_CUT_FREQUENCY_HZ: 
LATE/NORMAL_TRIGGERED: 
DATABASE_VERSION: 
HEADER_FORMAT: DYNA 1.2
DATA_TYPE: Acceleration
PROCESSING: Automatic Paolucci et al., 2011
DATA_TIMESTAMP_YYYYMMDD_HHMMSS: 
DATA_LICENSE: U (unknown license)
DATA_CITATION: Turkish Accelerometric Archive v 1.0 - Disaster And Emergency Management Presidency, Earthquake Department
DATA_CREATOR: AFAD
ORIGINAL_DATA_MEDIATOR_CITATION: : AFAD - Disaster And Emergency Management Presidency
ORIGINAL_DATA_MEDIATOR: AFAD PROCESS SERVICE
ORIGINAL_DATA_CREATOR_CITATION: AFAD PROCESS SERVICE
ORIGINAL_DATA_CREATOR: network: TK
USER1: GuestUser
USER2: 
USER3: 
USER4: 
[...]
4.264154043247482
4.310992276179685
4.13011689320016
3.400434843331631
2.3993933625746804
1.6180780641191455
0.894382240249127
0.2181814887702945
0.07422045204259939
0.05648779576407521
-0.14205423330159617
0.44917142137744753
1.820607249592293
3.078569845911367
4.307383722320994
5.454495250942952
5.876083674111976
5.525159142766808
4.9418476230351125
4.062061934018373
2.6038037744581746
1.126220784776512
-0.028680071708727044
-1.243960057181545
-2.182354792257258
-2.448410243705519
-2.6834283156986847
-2.730527424001735
-2.2035281913139984
-1.714072585888054
-1.4074544080918876
-0.8175552221062896
-0.06827544512768564
0.3760236453010494
0.5749618326327233
0.6035825204080741
0.30271402828129246
-0.12498020291380668
-0.24790450365575467
-0.1581984657399987
-0.28280325330170986
-0.6324278118722976
-0.9765630823458317
-1.3069929483422476
-1.4863195017055966
-1.4008723360461721
-1.235248767247559
-1.005772113669263
-0.7415958082295399
-0.4814352741167945
-0.0466413069233215
0.503599293295296
0.9196966345191341
1.1521209162202433
1.2785299008714257
1.2273694496225678
0.751043184628358
-0.24544488700352945
-1.651252802312894
-3.1219007434334225
-4.174507364487416
-4.861984536919435
-5.36903866300843
-5.480518286227265
-5.243809326560632
-4.882978489319272
-4.37870114278276
-3.5648464262236024
-2.5487280056506556
-1.6865833587990022
-1.3081994330331868
-1.3331068100313992
-1.1837540732634872
-0.5790371704554049
0.1407583363421982
0.6370964115788896
0.8296227218551014
0.503790585288038
-0.11459411360293639
-0.30807566979697587
0.11916656231329548
0.6856845451570283
1.061946973179976
1.1273024074454294
0.6584879013102903
-0.16696662528563477
-1.0329164574817273
-1.9983463054054493
-2.9536664264681147
-3.6379131700285274
-3.8617807253687584
-3.279747017312726
-2.12360585841435
-1.0419064929639572
-0.23996869652523609
0.09670062732647292
-0.3185166975852514
-1.1957605997145937
-2.0215306706559666
-2.7401285497715806
-3.3247726353044422
-3.499767620778238
-3.2366416130699074
-2.8296134210388675
-2.301898980487104
-1.5823419703139736
-0.6997420684872363
0.5143618193281786
2.0880373968878443
3.7602448661961008
4.995136566953129
5.476530040546653
5.274338204488527
4.553971324236159
3.648575186156727
2.7631505731670063
2.0269581750332266
1.5516342030793835
1.4002496658745227
1.475099546393339
1.4081129614766172
0.9325161048396833
0.04000754084108156
-1.0472761783639952
-1.944784209363322
-2.370715177820557
-2.01069133803628
-1.097490405506904
-0.26770712831803134
0.44500289331938886
0.963468128287493
1.1202088492536255
1.0411678577551784
0.8888128806890468
0.7484424034872476
0.4272006620980093
-0.0438877850697593
-0.18651672026391852
-0.12875247086986874
-0.21461218711662788
-0.22913112052204687
-0.0508501631139743
0.2584809944428665
0.5565082123421395
0.5727979224596156
0.2433465581227579
-0.4661941921003223
-1.7790919405170105
-3.3301860788541036
-4.408154161482201
-4.8490972469908105
-4.659703718180025
-3.963755319598899
-2.8275700986464942
-1.2821424397468724
0.471579861537942
2.291992609991964
3.881959850355176
4.9452598468116165
5.317300835757815
5.3098527533897135
5.421275389477438
5.407594959025649
5.056264033250173
4.647716545431274
4.314140227358351
4.056087872229737
3.708444101597385
3.0581539717861546
1.8360245554426797
0.05818134210197601
-1.4756142498876574
-2.3455722925480913
-2.8853051517966475
-3.1200584245209524
-2.7706566716053493
-2.065278877129886
-1.3199707344701517
-0.41853627457636483
0.5950074425375325
1.3405261999058466
1.678142607690396
1.8246535610775898
1.870794901640946
2.0054091780548524
2.2776634541143697
2.350023785006764
2.085022894801842
1.8132996943205464
1.7761087609399238
1.5403804280616844
0.8839348297586451
0.05761167910463029
-0.8260116661488951
-1.3937594089383782
-1.2409719911771022
-0.5734774894712675
0.15358376014927513
0.39339274538742286
0.19233542006011314
0.1551255690631024
0.30245426228294764
0.24130544866752202
-0.13185161040225668
-0.5307833475814742
-0.6652345430449019
-0.3743224798911763
0.37341436691132784
1.314505372319056
2.0457431565816497
2.4685460646560027
2.887056286160892
3.4305457832042703
3.922258263590664
4.486180252373434
5.246554001026975
5.895718069466828
6.228532175634934
6.525652822160326
6.595495299417485
6.09623191177914
5.601733049228808
5.33384021779764
4.684521742823372
3.4867929622256613
2.2999282213427397
1.5886356092504619
1.332632778564402
1.3867147120881602
1.7498582617728713
2.381697723684549
3.1942542537864678
4.3050198342734305
6.0272801182110065
8.065312589699396
9.552311636445848
9.87426449878819
9.028510618537426
7.343967665115114
5.069490346572972
2.7228650011964897
0.5840971881603001
-1.279425417474535
-2.4953812827190776
-3.1365584041113537
-3.391595247430258
-3.301146217858115
-3.2485598488781298
-3.640872434062728
-4.590080210224979
-5.626864510879166
-6.2692878615998655
-6.502247665092793
-6.259551634594435
-5.440794834041844
-4.465965453216891
-3.6146333758598836
-2.801832255248785
-2.348667846213662
-2.3395213479199795
-2.4954454383326987
-2.360821237211988
-1.9484959153987056
-1.759864730760731
-1.6734244792375326
-1.446835376535534
-1.100074773959167
-0.3032247192126047
0.9963137425877725
2.1471443638917886
2.9372546384187572
3.4981254830064863
3.936882889635889
4.133525132749944
3.917993678541144
3.558794965974779
3.283724242525597
2.912113439357436
2.6562920205913034
2.872749890912399
2.8181113344245827
2.3072325651398153
2.019599781393909
1.9006740185048092
1.466004354041264
0.8536420242890118
0.6951936401909667
0.7686539229444926
0.4845077765793912
0.17166651927455176
0.22746682762560183
0.5487666786801113
1.100901608087903
1.6640686503023137
1.9204418426347758
1.9549179043825098
1.9831194472471587
1.707230745276694
1.0594072067209332
0.4373687503820079
-0.4434093063544541
-1.7187013235286661
-2.7159780329988723
-2.9415593707191316
-2.400989872398126
-1.2336864923524118
0.09326871283777424
0.9433785640294381
1.4005307604006885
1.9492761060747528
2.4156911417510023
2.2656731915888133
1.4812370189884623
0.37525721480673124
-0.6624756996941858
-1.1025829234780993
-0.942927156700884
-0.5635613162217846
-0.06991948551647688
0.4055441498718016
0.6474877281390675
0.4920237104448691
0.17027326025017103
-0.13648057610758046
-0.3938230176211283
-0.486793110671111
-0.7707632585360834
-1.41121731520301
-1.9841031123127268
-2.2038948753410508
-2.2365900030666963
-2.2453167588422933
-2.298049289038093
-2.2508209720338512
-1.912872916726114
-1.5577242541283467
-1.3041150895940772
-0.8863739948025439
-0.3159670321069537
0.17164950571296334
0.5662066811304909
0.683070081112576
0.13209166414421886
-0.9708518259540249
-2.1345280701577636
-3.0557127476628936
-3.5767407160892835
-3.6943906048480635
-3.7384296033373574
-3.556777914814964
-2.529721333217205
-0.8898258133449489
0.8432003975185278
2.633577650341079
4.357045407013707
5.741940502936299
6.450356357319147
6.367528305529038
5.61974656816693
4.230374751660253
2.66353381887784
1.5202042611258324
0.8130940210707802
0.3850184045029693
0.11638133816865547
-0.005080025533027364
-0.05497559592582572
-0.2870312615654979
-0.5247426661131189
-0.48221312624336654
-0.4482915895987178
-0.6384050631097875
-1.039646938360219
-1.6205395927740518
-2.021972922346914
-1.639594896952523
-0.3765433619973068
1.0643439249468498
2.2638315762759023
3.228028414169723
3.7854536112773762
3.778123135221661
3.126388050965724
1.6315946291512444
-0.6072760854848275
-3.151008398167389
-5.576446037033515
-7.553535285574585
-8.851068772119968
-9.54166455210384
-9.973078231754904
-9.990699546694186
-9.224597893282851
-8.035825151000724
-7.1320544992000166
-6.683763258776261
-6.452778315612471
-6.255341253335456
-5.8804580933173565
-4.842566545083182
-2.914255663025211
-0.4544441440619042
1.8542258268029534
3.7823747362114277
5.451590716110949
6.752422289939904
7.848560066371955
8.685283461892611
9.056525210702803
9.059152745718446
8.825829160527803
8.411774007618336
7.86821738261658
7.2589884924838435
6.52730976721497
5.6410455252866925
4.780372372196454
4.224492812473924
4.047626545520407
4.237028847990688
4.6802275207432755
5.181251260128175
5.564245020450843
5.8599930830449924
6.037128474496895
5.472270877330331
4.205250921595939
3.048356094413969
1.998816844310509
0.8094978586275448
-0.2743190212684539
-1.0996292943948818
-1.6897306218239299
-1.6752733399960409
-0.6686311781224712
0.9644043912385303
2.71220530886379
4.260882848146188
5.388474862108556
5.881920709157393
5.697348171233037
4.964167634649071
3.740469777841111
2.2421261655242186
0.8150094529336519
-0.4508284497589534
-1.8959493668627188
-3.553686549831817
-5.04828783679281
-6.160892608610637
-6.720012534371895
-6.534753416219602
-5.742208979302716
-4.6597226102532545
-3.3323606817996057
-1.6802870780516013
0.263682386137536
2.4045865091909437
4.4165083186363985
5.86294550264528
6.4879816030673805
6.173516351847648
5.301878436469104
4.415562758350855
3.8410367475573968
3.5933028382836687
3.197314781082455
2.491799191352746
1.8363044944167333
1.4339649682153943
1.3082315418974633
1.3205971043669875
1.3453886157382176
1.3911256832715537
1.3417559579852518
1.4066829596280919
1.7257733070346315
2.070720250748841
2.5535249698878246
3.1618101359348665
3.3244488148671465
2.8921923572548263
2.1956271873983417
1.4034652455424588
0.5738846219448404
-0.3304522969919153
-1.23383328983194
-2.0635673165542423
-2.7527270841118927
-3.1289705201152005
-3.158081270155569
-3.311143540109116
-3.8862207541606644
-4.644014510205103
-5.470086193330063
-6.442190532378137
-7.50190790683305
-8.314976699189167
-8.974271608494544
-9.35879669235977
-9.192632563806674
-8.655414683991282
-7.578026795428594
-5.824884347670635
-3.97761053520565
-2.5708190909202773
-1.4943506125657187
-0.7288353098413015
-0.309522554868941
0.010665155805279224
0.41590499602506353
0.9142633481090832
1.3607599955552785
1.3956295925661568
1.1403134978779084
1.0132146443931365
0.7865243349936335
0.6440428583745335
0.6175536201265805
-0.1260042050671519
-1.486086110386318
-2.9630353208952394
-4.556201079504619
-6.193409378434001
-7.341736620832477
-7.628751244633777
-7.261332689119311
-6.507191834915657
-5.861451803581079
-5.453172819676579
-4.8122457790100235
-3.856581524885274
-3.065375367939614
-2.368234535641603
-1.428417500358631
-0.7522816638787929
-0.7377082848603997
-1.036095598919475
-1.6106156772851838
-2.3600684247906423
-2.675218224056918
-2.745739087442442
-3.131999746025425
-3.6129095577650734
-4.141011084869924
-4.80020163854981
-5.168062710272663
-5.2567153922762495
-5.224837514751258
-4.967073861705441
-4.57127598124794
-4.261580129250498
-3.5096674910211814
-1.8339720044999819
-0.036131042905047484
1.3638843589629928
2.5810706147608014
3.1299349628542212
2.8431566123360295
2.7762537304280936
3.1712553891159514
3.200459012913271
2.883396603534655
2.4744514711969985
1.398270425747096
-0.33894598753225025
-2.0307435020134914
-3.3503048435329026
-4.671421054126309
-6.133550148598414
-7.384359573972013
-8.325534838006492
-9.047010952561703
-9.466507913179608
-9.631572593097328
-9.902349134119712
-10.145099279789902
-10.382281349985117
-10.917541751854651
-11.154064462283172
-10.62933303459015
-9.66161639114975
-8.2402743576164
-6.571376194691074
-5.276812773275941
-4.369465901240138
-3.744215582480102
-3.5788260131332708
-3.6211907340200242
-3.5582795835754593
-3.227584283421131
-2.604986711187332
-1.8773658782078797
-0.8541838104671764
0.545399918108604
2.016599551195464
3.4649996316240257
4.820106742530163
5.84142671029493
6.634943951888923
7.403669701282446
8.06960910563132
8.502548339804004
8.588209629659419
8.34513945493091
7.721916141325482
6.5552750698549564
5.082307317985277
3.53837702415748
2.155842353135139
1.245260611194144
0.871638067804019
0.8300488357968335
0.533697138843394
-0.17316875869824344
-0.9128983102737782
-1.3925247972078512
-1.368424813996699
-0.7839223970456286
0.14431843418794293
1.0269476178232997
1.4457427989049947
1.3657194933893047
0.9491233980568379
0.34899078352569135
-0.22148601464045553
-0.49230080727170406
-0.4106804652317104
-0.2917905215657093
-0.4294952565458377
-0.9408057572917466
-1.7408598520077987
-2.6003160334047375
-3.4215871312812056
-4.08593428146421
-4.292725200751696
-4.295718096571391
-4.3712170085855435
-4.251187217090923
-3.942195072775101
-3.6086165129732986
-2.933360225129751
-1.5743070018799372
0.09882532145211084
1.6519894126474775
3.081430378261331
4.372956947598321
5.665743159657522
6.902553076467398
7.805649312571471
8.079645684436834
7.255879653505789
5.774867576095488
4.640153595063081
4.060498444392952
4.183841167110098
5.4274872162999195
7.3422949658941645
9.25315698643229
10.665153944886884
11.308676470879679
10.910658074144942
9.462268969076339
7.919929490209224
6.766887542052282
6.0446763410684206
5.640153365685845
5.437845964423106
5.208977464417117
4.467404156098005
3.2607934791485835
2.018868196463984
0.9325628953588034
0.013232055099836987
-0.7880620216515003
-1.6940529053332622
-2.3930666931275977
-2.4928647375025306
-2.2290245436770024
-1.9865529749704345
-1.7891496637175992
-2.0204933861374577
-2.755314750938768
-3.1330416447431477
-3.0368876766849833
-2.6642221350215993
-1.9181812938779885
-0.961292585006873
-0.166642484882738
0.3306094952369279
0.7819029646939694
1.1754282519746762
1.242188965959626
1.2147934131443097
1.4087917005934953
1.8380613822857284
2.529676370340252
3.3145720002782904
3.992196832698286
4.6289153332126745
5.171830547367939
5.461313298638665
5.415199072999434
5.205081534415417
5.192435376903432
5.280643341270136
5.332798622980681
5.413143359863405
5.353747725608431
5.184031489865846
5.222643970498387
5.279723947899756
4.920272566683084
4.239374584723782
3.718330736022634
3.536352187843243
3.4408844623066503
3.5561165856359294
3.796059859040636
3.740118228552006
3.6634695747905783
3.5359958936016667
3.205864207532149
3.147079637442938
3.6195196520154798
4.393541418841759
4.963418025754442
5.1900258514009865
4.796371540346681
3.5244352195074877
2.1278786871685544
1.1151986522391788
0.35662495077390616
0.061532701765154185
0.014479043549181652
-0.12272225277641606
0.15475861734364008
1.036373260056876
2.123073836423863
2.888592504347451
3.2406424681781427
3.4887302655851715
3.6862186725907278
3.7818560589946557
3.3861514949036917
2.2960856484088064
0.9575004461596422
-0.13178171725540425
-0.7828680241486637
-1.3466099404025402
-2.020673486344234
-2.5617178153650846
-2.9037288109722503
-3.308842557120247
-3.8305913390381234
-4.049203283522663
-3.677773379347904
-2.866213863138637
-1.8748200510366604
-0.7961790865402839
-0.02368247099197992
0.2283664950264344
0.24766779987887735
0.14222109542134884
0.1406174672446497
0.42146076653646247
0.7887111043162013
1.3192848933071737
2.1371482530968846
2.6663176480318462
2.480703210924665
1.9151042140647678
1.2344916716383427
0.3972917060685815
-0.4257718434849839
-1.180180046535993
-1.7778728717711272
-1.8876492886441802
-1.677192832680946
-1.3193071838059691
-0.924384034112446
-0.7433495876571689
-0.8018168924921987
-1.0949848594343234
-1.45034134383061
-1.453661291198888
-1.0645744864572473
-0.7547876136930178
-0.7979202467126386
-1.0808385190289802
-1.2763104440894877
-1.214514365972032
-1.123553981001975
-1.1441051867088943
-1.3443102691746265
-1.628977649938584
-2.031821512982002
-2.5437341769494535
-2.652313121985377
-2.597230291492217
-2.9141871103786485
-3.306830593920862
-3.3899060270587915
-3.6264097105167954
-4.220320158374235
-4.436238757541448
-4.371286748822466
-4.537233135914338
-4.743842968710785
-4.764866585842193
-4.469649161395203
-3.8935445884196187
-3.1660747946724976
-2.419175965144001
-1.9614427268855255
-1.7797170196912622
-1.832753187306434
-2.309902429240799
-2.992455203111146
-3.8369446032723733
-5.182759695954853
-6.6985938255194695
-7.768929067606897
-8.428180692995126
-8.842534070654636
-8.78336251898299
-8.29748633698218
-7.495636691528867
-6.308946368442713
-5.0805632373287635
-4.125296762760842
-3.552080264958488
-3.326470325882114
-3.241342494862704
-3.3674797893237316
-3.8142710050202995
-4.456187169449958
-5.134209636874663
-5.66158518986169
-6.076855133583058
-6.694273485627831
-7.1447028720496
-6.956924377203309
-6.634392340648273
-6.177292771698648
-5.6419230886361875
-5.763478814829851
-6.406740170997222
-6.902920380389776
-6.7211994516385625
-5.635357484101484
-3.76281611475058
-1.6093092567650524
0.32612098576881027
1.980341861962891
3.0166604713854976
3.1689196836974785
2.6674657379181057
1.8498073470823104
1.181820793826161
0.800214487285605
0.25843420158914365
-0.5375211663310574
-1.2232409539142957
-1.4684781212335263
-1.158528535771598
-0.3912913105610413
0.7887964089832081
1.8476121472614853
2.5545457285305657
3.0633440648861625
3.1675131241376784
2.8943771882034763
2.5063102021671573
1.9623460139510256
1.139464790110547
0.2781362217606127
-0.18001688374562294
0.01727786651299408
0.4602870939019644
0.7739644264528018
0.6591776943039902
-0.21658787134078697
-1.6322994849860033
-3.119816154295181
-4.4838951793055895
-5.5302090060467
-6.095548664009881
-6.26405339698077
-6.101982915034609
-5.958956946458539
-6.13827160583015
-6.634611767526564
-7.19973891878013
-7.527538689678954
-7.473207929508118
-6.817855566887118
-5.744311391238695
-4.715383197440601
-3.7671840965881565
-2.7649719309764174
-1.8650699153539865
-1.6230762455244556
-2.3505472774170038
-3.492809659539273
-4.3259135829696325
-4.733810331810649
-4.744921925407533
-4.204126603730786
-3.323959987928332
-2.360668447965569
-1.32883568052837
-0.6868998197209071
-0.6850278206407981
-1.066418612025098
-1.5190615357289943
-2.000924505634251
-2.4337602637686198
-2.4338395670832593
-2.2624301310808224
-2.1320659866465625
-1.9923047453220468
-1.9816793769227332
-2.375377604959485
-3.1147065371949294
-3.5653215258160396
-3.4496095164880156
-2.9072380719341013
-2.155210338777619
-1.4868723720781436
-1.1235020835304932
-0.8986268077757624
-0.630702939125903
-0.36392163076291445
-0.03304034718556146
0.4072553033798658
0.8728377683070326
1.3981124855238944
1.6589401112922142
1.351054524532101
0.8141969521265982
0.27221459695030903
-0.37540958497706667
