AAD_Filtered_TADAS_FILE
AAD_BASELINE_CORRECTION: BASELINE REMOVED
AAD_FILTER_TYPE: BUTTERWORTH
AAD_FILTER_ORDER: 1
AAD_LOW_CUT_FREQUENCY_HZ: 0.025
AAD_HIGH_CUT_FREQUENCY_HZ: 40.0
EVENT_NAME: 202302060117
EVENT_ID: 13194
EVENT_DATE_YYYYMMDD: 2023/02/06
EVENT_TIME_HHMMSS: 01:17:32.00000
EVENT_LATITUDE_DEGREE: 37.288
EVENT_LONGITUDE_DEGREE: 37.043
EVENT_DEPTH_KM: 8.6
HYPOCENTER_REFERENCE: AFAD
MAGNITUDE_W: 7.7
MAGNITUDE_W_REFERENCE: AFAD
MAGNITUDE_L: 
MAGNITUDE_L_REFERENCE: 
FOCAL_MECHANISM: 
NETWORK: TK
STATION_CODE: 2103
STATION_NAME: 
STATION_LATITUDE_DEGREE: 37.94406
STATION_LONGITUDE_DEGREE: 40.31274
STATION_ELEVATION_M: 730.0
LOCATION: Kahramanmaras_Pazarck_Turkiye
SENSOR_DEPTH_M: 
VS30_M/S: None
SITE_CLASSIFICATION_EC8: unknown
MORPHOLOGIC_CLASSIFICATION: 
EPICENTRAL_DISTANCE_KM: 297.07
EARTHQUAKE_BACKAZIMUTH_DEGREE: 
DATE_TIME_FIRST_SAMPLE_YYYYMMDD_HHMMSS: 2023/02/06 01:18:00.7020370
DATE_TIME_FIRST_SAMPLE_PRECISION: millisecond
SAMPLING_INTERVAL_S: 0.01
NDATA: 18251
DURATION_S: 
STREAM: HNE
UNITS: cm/s^2
INSTRUMENT: sensor = GMS+/GEOSIG | digitizer = 
INSTRUMENT_ANALOG/DIGITAL: 
INSTRUMENTAL_FREQUENCY_HZ: 
INSTRUMENTAL_DAMPING: 
FULL_SCALE_G: 
N_BIT_DIGITAL_CONVERTER: 
PGA_CM/S^2: 43.121
TIME_PGA_S: 
BASELINE_CORRECTION: BASELINE REMOVED
FILTER_TYPE: BUTTERWORTH
FILTER_ORDER: 
LOW_CUT_FREQUENCY_HZ: 
HIGH_CUT_FREQUENCY_HZ: 
LATE/NORMAL_TRIGGERED: 
DATABASE_VERSION: 
HEADER_FORMAT: DYNA 1.2
DATA_TYPE: Acceleration
PROCESSING: Automatic Paolucci et al., 2011
DATA_TIMESTAMP_YYYYMMDD_HHMMSS: 
DATA_LICENSE: U (unknown license)
DATA_CITATION: Turkish Accelerometric Archive v 1.0 - Disaster And Emergency Management Presidency, Earthquake Department
DATA_CREATOR: AFAD
ORIGINAL_DATA_MEDIATOR_CITATION: : AFAD - Disaster And Emergency Management Presidency
ORIGINAL_DATA_MEDIATOR: AFAD PROCESS SERVICE
ORIGINAL_DATA_CREATOR_CITATION: AFAD PROCESS SERVICE
ORIGINAL_DATA_CREATOR: network: TK
USER1: GuestUser
USER2: 
USER3: 
USER4: 
[...]
18.2005762429788
18.73093836894356
19.282470187274807
19.908140551823752
20.22188539559704
19.953857799577985
19.357482193629437
18.6573442688455
17.646214660367836
15.812627624183646
12.955246111121818
9.52823614831915
6.274802339306163
3.7525678758702132
2.0749552197882166
0.9694971059726846
-0.00010412237172589383
-1.0478599452217237
-2.1313694350979144
-3.180609231100339
-4.121546591987439
-5.030685496170726
-5.8509746308697475
-6.159419494711509
-5.719145370468792
-4.74114409356513
-3.614519715629723
-2.6453041444881022
-2.062702948884187
-2.1748105915448037
-3.1730460576650077
-4.919562674935891
-7.134707526414597
-9.714665142632876
-12.555400224936063
-14.995017742479046
-16.405304915093435
-16.84405076931639
-16.69465358284402
-16.579406967198054
-17.135384769446073
-18.65166864975872
-20.799105801279538
-22.914586825658443
-24.622984376281895
-25.70280190920156
-26.18332903656975
-26.33029960440302
-26.541918444764587
-27.625964989923922
-30.129666972711018
-33.5442859095123
-36.56555921439665
-38.03274814224661
-37.761953239012435
-36.21486106424991
-33.776318237207555
-30.735120631566115
-27.349458201551254
-23.69477643449504
-19.54779617999551
-14.78164078545629
-9.777755350926018
-5.083554047667228
-1.0790468665859265
2.0620970532378387
4.445131931341478
6.224843909116774
7.360785532298487
8.165622217734503
9.179447580374731
10.2599529235014
11.033206479838752
11.36249162197182
11.088946691912613
10.271078566975481
9.19921072711451
8.185968258864596
7.424912439595153
6.46766188665504
4.537358389422797
1.660465196707634
-1.6309042606475603
-5.193533813563487
-8.902499755611519
-12.409911826147333
-15.512266989015307
-18.36417363899092
-21.24322151478502
-23.821848079680702
-25.369962798272546
-25.50517270469165
-24.48622405572586
-23.083414871791682
-21.673798018170775
-20.04899022569359
-18.27079900258886
-16.62184840050742
-15.125434307011533
-13.72056154239883
-12.456645999216446
-11.533350997665249
-11.122838478875337
-11.174942081339735
-11.458772765733778
-11.845299313781958
-12.359533755211364
-12.62009563959789
-12.110484174311473
-10.796776974363299
-9.04630695584463
-7.506029104197891
-6.608043218589847
-6.374047255700992
-6.922709083917257
-8.354452966600258
-10.465639132195204
-12.935192362669273
-15.409056535650828
-17.400507054591184
-18.218893940414283
-17.431147707835894
-15.254449834878402
-12.00996121008958
-7.7816122588534675
-3.0927579034308246
0.8731096482398026
3.2418148015132275
4.166419246673275
4.4344242728058445
4.6475524170153575
5.187274880552007
6.276165926454732
7.59753252525284
8.671950929426025
9.506730104754228
10.471388529581848
11.398864954840832
11.650814222149881
11.112410746496233
9.777498462722921
7.254131998206153
3.3392538673606293
-1.4575376327364387
-6.102483778067022
-9.882753120621926
-12.485942455067338
-13.624040300514011
-13.340981747428904
-12.352351876846969
-11.612995716441784
-11.21612719511438
-10.52141768558705
-9.358116712807009
-7.9822798599067415
-6.468557951277288
-4.579265082739663
-2.1197290074460837
0.5295142006282503
2.8808548162932
4.780319789568773
6.029248746576264
6.682207266637325
7.362186260735354
8.670458442135349
10.392834638713715
11.52258211207732
11.31888974064741
9.82013301236498
7.505776431981123
4.6894035083432115
1.3592935476844246
-2.3149452208076546
-5.950268573177204
-9.156695834953302
-11.769908396342567
-13.918763680475198
-15.603687851288287
-16.705064166156085
-17.322529015060763
-17.50766198878434
-16.76501517707368
-14.61712112135705
-11.412789691645841
-7.854341214666446
-4.326876519113882
-0.8359063843941442
2.5616982009940825
5.46813877587725
7.860178473049636
10.192097248544894
12.817100855862115
15.880128382288818
19.071509646542548
22.006071477405065
24.65947839909073
26.92015887071875
28.66552087607179
30.297703535812193
32.240836219259954
34.08648028893936
35.032529126063245
34.71801226527274
33.5044540579187
32.001517609607816
30.329537599044432
28.396369706601348
26.361959189635055
24.384639909110494
22.245428208201258
19.869735318244583
17.856817382236006
16.57880884998121
15.923098372936895
15.92647266308044
16.606868869426606
17.69766982145928
18.710415745465955
19.24318695334016
19.44410306820316
19.863463760017563
20.739737767639447
21.986231583626864
23.37948750428951
24.438133500959026
24.749025284295566
24.381392221675462
23.937053607695503
23.882324026941447
24.095527119908397
24.316766691681394
24.371160226936034
24.023570735928804
23.14235903167082
22.022820042151693
21.161151868227893
20.8469528484935
21.181469188495598
22.05465925445575
23.050180264266963
23.602194333181714
23.298447262389903
22.14742892327459
20.54594966377125
18.96925983285552
17.776353961034296
17.22716093723679
17.014569183921406
16.2284654078172
14.482286586161788
12.056006748503467
9.212681752722046
6.121070198697523
3.1011343323794
0.5779906553537222
-1.347918445319834
-3.017894977844235
-4.953374714580905
-7.319810587641442
-9.882151824592034
-12.537276665829602
-15.169490421071846
-17.341379883337275
-18.80388238958407
-19.883229642284903
-20.850384049848397
-21.663826545682358
-22.39127508398343
-23.129773055426003
-23.822890243072017
-24.508835253227897
-25.51500037605457
-27.100684946722275
-29.17379752930006
-31.47808033444822
-33.77553274986189
-35.9963617870922
-38.008521497438466
-39.31105454125173
-39.52890046240783
-38.74465819020182
-37.182230592144805
-35.1424345015597
-33.080430717675995
-31.38395915689198
-30.162982734450672
-29.36143481527308
-28.94863989327206
-28.968470111950488
-29.2596519064505
-29.42351590739239
-29.26966418327047
-28.755385474194043
-27.957528431786614
-27.280104674715332
-27.21705671010078
-28.095904067160344
-29.803307885154627
-31.684285538109215
-32.81595928918425
-32.56337074883697
-31.128085529437882
-29.182777871520603
-27.33803759900117
-26.098793867805583
-25.643770629627863
-25.723082485131847
-25.776964008013323
-25.076369920431144
-23.27357784640687
-20.700663488765986
-17.956292352651225
-15.468440371742338
-13.257506358040128
-11.133962830048821
-8.856585021026754
-6.126954219885489
-2.7567775834465267
1.2440608824054897
5.6098793237391185
9.928850221233033
13.65067918483708
16.54464868114939
19.0480517281116
21.361870812340346
23.2330858802606
24.339198168332967
24.35618738977681
23.61638772458937
22.85839564746156
22.301116958109535
21.99851382890914
22.09398455864341
22.55480844220128
23.1506655898686
23.534192119080355
23.52476193115113
23.287658637026304
23.077354463187994
22.887425017936128
22.655451867530786
22.536322765047125
22.64086480191298
22.747211631023077
22.504604543039363
21.826753135922893
20.88396870713541
20.02935866238562
19.742858437415016
20.28358909520646
21.38399436446067
22.39330656529152
22.6904389345819
21.906173347386467
20.00629271333452
17.48637562637972
15.284214751411717
13.996466187047998
13.463904649625938
13.273915573217772
13.122755198116234
12.89616968318
12.52606240631824
11.795823016902217
10.587020025340474
9.108945332829027
7.890829081968583
7.398851996690363
7.434977664099941
7.1483808923030585
5.934831305320403
4.1431818120309085
2.304526945294152
0.3628574027280267
-1.6762197033306985
-3.060388364045261
-2.95408775181806
-1.6535073906218711
-0.005223987621195145
2.0046797306100377
4.855167478473133
8.287548304445009
11.157441818953753
12.708339785621945
13.42173656706062
14.055202316423424
14.753286109107087
15.222487268815007
15.39256972888874
15.677917866974877
16.303091653351572
16.864281620125926
16.92941888297949
16.87085983140925
17.45276318866253
18.647879211341987
19.478358777909484
18.856050139725404
16.572048854049413
13.324333305017767
9.952894453240678
7.239384278949391
5.581024263040968
4.594227432313635
3.8019806030597025
3.1489736965959554
2.7545049199017946
2.611371249385318
2.3638835793018815
1.5503088192700583
-0.2080456721035567
-3.1358576271775975
-6.848256177567095
-10.321369652675992
-12.576167833952578
-13.372386197801308
-12.970272644069803
-11.702530710995175
-10.156762163855568
-8.846762213739948
-8.116517429074602
-8.229206633844258
-8.832291556769475
-9.260585598346882
-8.88231055713845
-7.3664338197289885
-5.345419799789856
-3.5410122624734015
-2.2532140194374564
-2.089247373357802
-3.1303085911753534
-4.400188863459069
-5.460958090188038
-6.958446212293206
-9.241320912474135
-11.557300774478414
-12.687103558219919
-12.22375844002997
-10.6474113457196
-8.330195204765186
-5.563878863629378
-3.235099593322038
-2.334992155587311
-2.3569257371511583
-1.6732263944382846
0.10521906870536424
1.6219226582660595
1.729853273529367
0.7944476974934337
-0.581569761696838
-2.441109610244159
-4.5584124250178375
-6.257272676920881
-7.14172866530311
-7.7262164071881845
-9.1233380256562
-11.42586620994397
-13.480384037161079
-14.801878610296484
-15.945961174672531
-16.960652867859828
-17.031046910669932
-15.928578969484827
-14.665528626995753
-14.190735053672896
-14.377783982180345
-14.457846153936886
-13.937898583760237
-12.72269255012091
-10.92716766549975
-9.138480258952024
-8.284968489785692
-9.037363758111745
-10.81094417708902
-12.302990694101782
-13.26927592298892
-13.862676561792636
-13.70478940438151
-12.684952537407852
-11.316053414470797
-10.116545222957363
-8.765552786640335
-6.63425308811694
-4.05230806034673
-1.976237847259104
-0.9368868080344589
-0.8193758910707929
-1.465979320551656
-3.03993540210819
-5.2152295549034555
-7.201827783135311
-9.15545342814711
-11.903388009354044
-15.800710883043896
-20.520898173244614
-24.928609794395353
-27.714313507844935
-28.39824946232547
-27.55560629137327
-26.483394427894716
-26.34673184571995
-27.54252121252268
-29.78190528092786
-32.31407980701805
-34.333385198418014
-35.54341952962934
-36.17148434699567
-36.407654049079014
-36.112308369078875
-35.025011942404944
-32.931318160364334
-29.960693344171688
-26.432234417586656
-22.56745491279052
-18.82565429186417
-15.340152074021157
-11.547807811202377
-7.138320918285049
-2.658904437188858
0.9715887985816405
3.427533667028371
4.820289720463378
5.198808244833931
5.101560305454122
5.548031129477843
6.979741820885563
8.605144596467076
9.275682854477719
8.853724462035569
7.990642118284154
7.239310731201498
6.887694891333726
7.015299618947302
7.404999649631264
7.5864278588723115
7.172873560378621
6.166076523205467
5.177091522364134
5.094056405713774
5.69574667214307
5.5455493930782715
4.264083519199508
3.0305502395603643
2.607700372365481
2.499724671198453
1.8972231095174346
0.8677411788664565
-0.21412300355399716
-1.439207363304389
-2.496858175689116
-3.012508486035121
-3.547456554287207
-4.655208173376812
-5.870317144155185
-6.404682449522715
-6.17360213467815
-5.179447156910489
-2.7184341954930167
1.196627431012316
4.936080776925336
7.3801208512009335
9.327780543087933
11.668243673841088
13.88687259462084
15.30949146954333
16.644485421124166
18.998589846831873
22.126927421731786
25.24658142744348
28.330143981088796
31.18531976512137
32.940758043437405
33.32016033827845
33.20655661231954
33.478932663822526
33.737381889199455
33.0361465366402
31.1573989927141
28.56209684753631
25.975840647622324
23.38014188025522
20.372766507106213
17.77545479205673
16.498375819859746
15.98188863005388
15.365706088710084
14.846551914212728
15.163538604622167
16.506441695206938
18.345657953460186
20.219868696884607
22.29657768822608
24.774228884120735
27.397931525133465
29.72071633870721
31.354578331733006
32.14499840749685
32.24524615766001
32.036130990123475
31.503814312252747
30.04909316583124
27.650876131720644
25.05668449222524
22.478759673234947
19.474082368197468
16.079487158445612
13.09107853622626
11.135425333639082
9.925344125964035
8.968909867090085
8.353646033827175
8.074206033033256
7.5836989380914615
6.747317815815238
6.551214346446424
7.737737800542372
9.187034089136768
9.297989339591307
8.284914105283969
7.502377243093503
7.102328581566594
5.98733698095591
4.163860200537428
3.011634006355125
3.0177245530174135
3.038429110229942
2.121943269977057
1.0384237806194594
0.6758715417478154
0.12799685346624975
-1.5261991536148087
-3.0892071528716754
-3.141708790647436
-2.300512032908603
-1.937143734196297
-2.2662519980768554
-2.585903974986872
-2.926065311994784
-3.9738754307747644
-5.18463784214112
-5.299816501961602
-4.567013975449774
-4.362989449090922
-5.104361590070327
-6.2556904237776605
-7.812614533848592
-10.153956846232594
-12.953741601306112
-15.606432489057665
-18.113873644632477
-20.6909999176353
-23.388422269450107
-26.304536109864845
-29.51144152201032
-32.59421816427886
-34.65810944418803
-35.2821726935734
-34.98386084483234
-34.63393484039756
-34.603812909923626
-34.53143384346659
-34.507558528615206
-35.494196954582776
-37.75134246202211
-40.33475299633536
-42.20788960254105
-42.96004771667021
-42.59897020973145
-41.32085952573765
-39.65784792130975
-38.11947128232945
-37.20556302201898
-37.51708646544057
-38.813123547297295
-39.793916211481545
-39.46279533026031
-38.1657163083304
-36.73907985432391
-35.29804532559582
-33.23115643579781
-30.301247635312244
-27.331242771896267
-24.97157381854022
-22.837710430299165
-20.271173624412878
-17.154653496702007
-13.765421313894283
-10.09988330322125
-5.961452432507281
-1.6692960439464684
1.7742850005523225
3.9207330875817648
5.585311845784427
7.637160752760877
10.100872711274333
12.409841349156943
14.119582368480685
15.176386251931545
15.747051413930638
16.310827232685075
17.295678797035592
18.7032019235235
20.288429043934045
21.760133105899726
23.054484488684317
24.05819586428723
24.488249149338074
24.54635814390459
24.667295132171677
24.82986214323282
24.636020573741035
23.64460440733583
22.0073970201784
20.45991119536538
19.16476014730809
18.0184698257549
17.464002861129742
17.679297655243413
17.93917198357563
17.17492598721342
15.273531216282649
13.233492898787684
11.670461919488012
10.291386939672792
9.294626635291372
9.451095876000398
10.493771791358096
11.428936216143907
11.72941470507774
11.56154200370185
10.997411753703926
9.495594210938217
7.14966683033757
5.283037424636616
5.09823117603175
6.234449452265105
7.323567651910881
7.749656875053766
7.7769599339318285
7.673514756120616
7.691079148447558
8.252501685346155
9.512560854885693
10.934361810144244
11.621213508300057
11.319811659782903
10.63194710576354
10.084442256317057
9.557575175644045
8.461676341323173
6.72470729030318
4.863882354730869
2.9932553567351143
1.101676984050088
-0.6950184006317367
-2.3148886386040064
-3.534726908038317
-4.150988427809479
-4.17515388757439
-3.849078038947098
-3.4861610666869423
-3.25941980055854
-3.077608219955899
-2.7356377298178307
-2.1028641073161984
-0.8847189593982566
0.8859554059359269
2.2109810279782973
2.1020829799799623
0.7390030439960279
-0.6772456233194797
-1.3232495631490138
-1.4835922761564981
-1.5178633127787629
-1.317756281669605
-0.655780064338877
0.3561827920371015
1.2998413019637978
2.160004761707354
3.1677652250730803
4.477408425520012
6.251542615851178
8.116783118603674
9.355614930075923
9.835947937065397
9.845807935977987
9.539813911864826
8.947654315758518
8.206562182146921
7.84627134089419
8.448609697222548
9.593739325520476
10.136050423803502
9.702022482044297
8.676717724784684
7.298735752423369
5.666826568716709
4.067989647393259
2.9937692904525828
2.5711069586707263
2.1073046354187843
0.8831557804909822
-0.8537066783740341
-2.291234415319872
-3.202582125946858
-4.02059513568995
-4.900788388535306
-5.386167030362641
-5.193385637684153
-4.786144106345026
-4.697010892459818
-5.050386299152577
-5.885021096386639
-7.084255980316533
-8.14167248567914
-8.412859204191546
-7.7418609117555635
-6.949481819694094
-7.055780437445404
-7.849075560008915
-8.51155418502808
-9.294632955320564
-11.011441706324579
-13.458066385150044
-15.599074573505005
-16.986970285954772
-17.813878953863174
-18.064740567580966
-17.650220198770967
-16.714507958876354
-15.794086299130408
-15.394742759993864
-15.164374846338827
-14.674436483719829
-14.102719625042502
-13.601572547805258
-13.197785533886831
-13.176892670496965
-13.833047536670438
-14.96999227658804
-16.10779618923288
-16.803768082091775
-16.899461098583764
-16.560146013628717
-15.92009801669426
-15.05301598854413
-14.285810190758689
-14.131107291309315
-14.531910511999758
-14.863033491500191
-14.737989894367828
-14.110465454391818
-13.145884491395119
-12.180024719168204
-11.508459535507562
-11.180231574558263
-10.854523192100256
-10.17660228260407
-9.20425888279648
-8.283234837162286
-7.737023373152087
-7.641227251243427
-7.955549195878428
-8.665219988866989
-9.691190232249351
-10.819762974612
-11.77239567861712
-12.420372862922086
-12.821839439558085
-13.081243197718027
-13.294519887805247
-13.561118225986062
-14.0384215276857
-15.063823192109954
-16.822616052871396
-18.998994611497125
-21.032704660205106
-22.499906489334005
-23.512262662071844
-23.886513964615435
-22.706344145407495
-20.07188443308035
-17.085994443299764
-14.375046760974959
-12.021914542280385
-10.013975519003766
-8.57568963197511
-7.822764192178371
-7.102225457274146
-5.1301849834757745
-1.3020661343351778
3.3756956873575406
7.587567367536391
10.850182054964367
13.140034155254938
14.69122104921157
15.918801458555848
17.07605144722777
18.212637546964224
19.427966413147047
20.776320789079975
22.290911798452917
24.053795749889417
25.832206538116818
27.340068201010563
28.385906684512506
28.54249532739928
27.75744161205568
26.625480538197152
25.560738412940218
24.348146908821324
22.50648829748905
20.222014369632173
18.47105778508029
17.571725538098057
16.74088002556277
15.541539223702683
14.381564936420721
13.506648790199286
12.746105946109388
12.166871166845715
12.222353253940902
13.087626109622084
14.301421823640533
15.66446954931648
17.693918801063013
20.546068005679203
23.33223188321353
24.981103915939585
25.39437751468711
25.231978734075415
25.01806675838785
25.01719257415346
25.404873022730968
26.095632528782144
26.686273400384177
26.95865992615765
27.001355076758774
26.920146926520378
26.824158324035523
26.769615094509216
26.750162263217685
26.37355116159318
25.277769224073705
23.753638952290867
22.08004733425812
20.611435423189928
19.954141036830666
20.445068227465786
21.944847948191008
23.66181005447177
24.71583650269833
