AAD_Filtered_TADAS_FILE
AAD_BASELINE_CORRECTION: BASELINE REMOVED
AAD_FILTER_TYPE: BUTTERWORTH
AAD_FILTER_ORDER: 1
AAD_LOW_CUT_FREQUENCY_HZ: 0.025
AAD_HIGH_CUT_FREQUENCY_HZ: 40.0
EVENT_NAME: 202302061024
EVENT_ID: 13207
EVENT_DATE_YYYYMMDD: 2023/02/06
EVENT_TIME_HHMMSS: 10:24:47.00000
EVENT_LATITUDE_DEGREE: 38.089
EVENT_LONGITUDE_DEGREE: 37.239
EVENT_DEPTH_KM: 7.0
HYPOCENTER_REFERENCE: AFAD
MAGNITUDE_W: 7.6
MAGNITUDE_W_REFERENCE: AFAD
MAGNITUDE_L: 
MAGNITUDE_L_REFERENCE: 
FOCAL_MECHANISM: 
NETWORK: TK
STATION_CODE: 3138
STATION_NAME: 
STATION_LATITUDE_DEGREE: 36.80262
STATION_LONGITUDE_DEGREE: 36.51119
STATION_ELEVATION_M: 459.0
LOCATION: Kahramanmaras_Elbistan_Turkiye
SENSOR_DEPTH_M: 
VS30_M/S: 618
SITE_CLASSIFICATION_EC8: B
MORPHOLOGIC_CLASSIFICATION: 
EPICENTRAL_DISTANCE_KM: 156.81
EARTHQUAKE_BACKAZIMUTH_DEGREE: 
DATE_TIME_FIRST_SAMPLE_YYYYMMDD_HHMMSS: 2023/02/06 10:24:54.0470010
DATE_TIME_FIRST_SAMPLE_PRECISION: millisecond
SAMPLING_INTERVAL_S: 0.01
NDATA: 2013
DURATION_S: 
STREAM: HNE
UNITS: cm/s^2
INSTRUMENT: sensor = GMS+/GEOSIG | digitizer = 
INSTRUMENT_ANALOG/DIGITAL: 
INSTRUMENTAL_FREQUENCY_HZ: 
INSTRUMENTAL_DAMPING: 
FULL_SCALE_G: 
N_BIT_DIGITAL_CONVERTER: 
PGA_CM/S^2: 0.066
TIME_PGA_S: 
BASELINE_CORRECTION: BASELINE REMOVED
FILTER_TYPE: BUTTERWORTH
FILTER_ORDER: 
LOW_CUT_FREQUENCY_HZ: 
HIGH_CUT_FREQUENCY_HZ: 
LATE/NORMAL_TRIGGERED: 
DATABASE_VERSION: 
HEADER_FORMAT: DYNA 1.2
DATA_TYPE: Acceleration
PROCESSING: Automatic Paolucci et al., 2011
DATA_TIMESTAMP_YYYYMMDD_HHMMSS: 
DATA_LICENSE: U (unknown license)
DATA_CITATION: Turkish Accelerometric Archive v 1.0 - Disaster And Emergency Management Presidency, Earthquake Department
DATA_CREATOR: AFAD
ORIGINAL_DATA_MEDIATOR_CITATION: : AFAD - Disaster And Emergency Management Presidency
ORIGINAL_DATA_MEDIATOR: AFAD PROCESS SERVICE
ORIGINAL_DATA_CREATOR_CITATION: AFAD PROCESS SERVICE
ORIGINAL_DATA_CREATOR: network: TK
USER1: GuestUser
USER2: 
USER3: 
USER4: 
[...]
0.002004559852790669
-0.009269724642260137
-0.021149135603935165
-0.007808596272994551
-0.0077171625832744995
-0.007941453712697397
0.003751369785546613
0.0046533279817459515
0.0012442614912502963
0.0029749723656815525
0.009337088946044693
0.013524242516297375
0.017240150470216032
0.012174145084837475
-0.0003660638785019037
-0.008291205151084493
-0.017565452433714865
-0.01319971846414117
0.0030291811520375064
0.013186007456245383
0.010340717047606697
-0.0076343491776135084
-0.005725276186129096
0.004681292984700313
0.0009447185835319969
0.0004908824427930706
-0.007117063420404129
-0.006562851854552189
0.0029673301666895
0.0018361923740886482
0.007500666183365229
0.004601569358843896
-0.011177585709183762
-0.008613335163659586
0.0038179529806621933
0.010614452290404548
0.013794750998455728
0.0015639092947311232
-0.009463266202960934
0.00400376119061088
0.001456467543883757
-0.0074402198871298736
-0.0009394308973061299
-0.0024803392359276214
0.0016392712526019434
0.005418455049898713
0.010929170383672923
0.002418237933091059
-0.01618457411055542
0.0017384482914413768
0.02142233376354012
0.016847406095453325
-0.00026424948880257154
-0.003318470599093439
0.003140826108340764
-0.011712046410703225
-0.0107934793474697
0.0003249244296753471
-0.014147325992397706
-0.022625408065528888
-0.01669372067510268
-0.011441535239154104
-0.009578560820004911
-0.01050397146678962
-0.0019762357803110395
-0.002585871783398982
0.008506541597826094
0.03243168616566741
0.026457515366423254
0.021203100237416606
0.008933419835627685
-0.0024829336946279226
-0.0011781365900730945
-7.536985996466261e-05
0.015233848250039381
0.0023173940921865106
-0.017374901525317704
-0.017508090703478457
-0.007014817365144776
-0.000971319483148031
-0.02010899240398517
-0.012484789589721962
-0.008300147884315311
-0.012759539061685081
0.00971970227529084
0.016290685397732322
0.0027211114259425954
-0.008803157247715429
0.006091005153815525
0.009866181933265753
-0.00931955710575515
0.0006545711604894609
0.021247840159448222
0.03149385961748667
0.03169456477086581
0.016429782349641625
-0.019736541873199592
-0.04577552137553325
-0.017142232615592553
0.01653736465153968
0.014065551122096554
0.002944900922977271
-0.006886634594140624
-0.00637808857628769
-0.00035207207086251143
-0.0008684876774720517
-0.006286434461880582
-0.022914546007328965
-0.025180426268493056
0.005029419255943889
0.03373944184479705
0.02905195891749291
0.001976074898033299
-0.011495368919530366
-0.007948967416337105
0.0026100354603651164
0.005463313903508705
0.000472446773980996
0.005164346733632776
0.007076029552997614
0.004911230266278274
-0.005167943832646459
-0.007280055577427757
0.0010605955712252946
-0.005927434524371456
-0.013920348659340318
-0.005904204065198187
0.01570032065420847
0.012121837440301986
0.008230276648999592
0.024884462815276665
0.014984243549737633
-0.0035294152989086497
-0.009193767390929693
0.00017418014673040098
0.0005041903661481069
-0.026900661042899916
-0.030535285575465355
-0.00921701485448629
-0.002402965406179381
-0.008997916880173012
-0.016987336685864315
-0.010729177166497572
0.009037511434212324
0.02796189065348696
0.027480777955146585
0.012964937424062559
0.010518892737691216
0.017615162490509862
0.012200505227540435
-0.013485843987875622
-0.04408464436282086
-0.06368833580335938
-0.04749477871804926
-0.015254777054308812
0.0016946888100819256
0.00228015167850015
-0.010367295355020805
-0.00038478818845218246
0.01883467662100176
0.014109849455909295
0.005310744782717563
0.002915058118529396
0.006673648860398505
0.03629149982975777
0.05366781178111663
0.020799136042305353
0.010621903555588594
0.0165559492108578
-0.003155926130098943
-0.012913930986567686
-0.015759333350809403
-0.01799801470087238
-0.028768996459691776
-0.03223683287365464
-0.006689454056860101
0.018149154439878353
0.01664329070226538
0.002478154358209031
0.002817252308422679
0.0030296400756075446
0.008987864202626821
0.007307890022244483
-0.015563219241107868
-0.016631311912755103
0.012556940413515629
0.031383881358237664
0.013310175370952818
0.003659869870103984
0.017375414753174966
0.018000157979738512
-0.00019106797298533445
-0.016803525957140804
-0.03868546870221321
-0.05058654862172022
-0.027760979341139826
-0.015790720117454058
-0.009693070992608835
0.007605629238393375
0.020343088451967972
0.013229124212613014
-0.006501169896166797
0.0029595316763898413
0.0065666272897191985
-0.01487685752450782
-0.008639616839898303
0.005450861003804858
0.0066968873839456525
0.017411216954321778
0.03406140405115056
0.04138329420781509
0.009934467225248666
-0.018181626526258567
-0.0034489585741073227
0.010619625140972965
0.0012844142461956407
-0.005924175883230733
-0.0020488996196741153
-0.008913687492441721
-0.004617832003567303
-0.004636493775059569
-0.007751459168205774
-0.007912443800840732
-0.019372444517154305
-0.005465693017120395
-0.017815218604528935
-0.035201673641011975
-0.0029606008955623195
0.019641091341238606
0.029457152269565995
0.03301684244793165
0.026425539657413767
0.006005958703504604
-0.019285173713839622
0.0012627884463248637
0.04136151499382165
0.028317243618227777
0.0066687511621640475
0.016093920652667255
-0.015776981609109106
-0.05694088487171667
-0.05585837001671704
-0.04373746616499993
-0.019232458038639922
-0.022439653257518472
-0.03231535538743556
-0.007623682280592334
0.0033491166184405952
0.03106964727755326
0.05569418836480952
0.03735709660445459
0.02641172901950859
0.008207138306312632
0.004317397691045255
0.00863559149243381
-0.00396554973871746
0.013228273036941489
0.007195803549994166
-0.026002093272528018
-0.02120706590592559
-8.314439088132575e-05
0.008376226536406095
0.015613687756463046
0.013267478974641696
-0.014765489734808398
-0.03574348059777844
-0.03028107070047354
-0.005556605868456397
0.008137893824108608
0.004289244074449248
0.008195899171452447
0.0010947677056780587
-0.008620737593119765
0.00888014869119342
0.03032841801127753
0.02796989066253571
0.01950196682117135
0.008674417807489003
-0.02326365826174648
-0.04223561536494902
-0.024063097710895747
-0.0007225956248926791
0.00876602544546792
0.008034525881166647
-0.00160576869966419
-0.011199518750433084
0.005854098969473808
0.028125323734456885
0.009874423186797463
-0.006143959884576433
-0.0009227920363262441
-0.0039679232202998295
-0.004761710521919092
-3.6055262119970904e-05
0.0050063000063235545
-0.01971127683368919
-0.0353096228234326
0.0032716669557160804
0.014013076599969036
0.004206876789938233
0.018980209645927025
0.015732388695861018
-0.0020514791793854966
0.003861693837242019
0.014168928181499287
0.007130317585017969
-0.004786228137198966
-0.02242374189236036
-0.025354104335018633
-0.021648811242931006
-0.0064360094657281795
0.011706142298676073
-0.00616877918655338
0.002739841323368133
0.02112676783126384
0.00761103957732838
-0.014140078449549249
-0.0314562895292413
-0.011408050658772196
0.00017235685333891171
0.003099588658483548
0.01571002189087235
0.0041648966626562
0.00708681886248602
0.01910292699587002
0.013338543644956765
-0.016091059024707352
-0.03478753813150281
-0.01657664964209491
-0.006009219541456466
0.013123004247467167
0.029224875637661362
0.026844535128773262
0.028579033417989907
0.01606862999233712
0.0014269609566628313
-0.01092027346855309
-0.007750802653449187
0.018673886747292794
0.017339256992316792
0.00720069761200054
-0.0021597793952212526
-0.024041998123732176
-0.012269469262248511
-0.009606555600419352
-0.01975530944345028
-0.01121731685718198
-0.016904562861971284
-0.008877933215225607
-0.0037305560316839266
-0.002029392161027973
0.018075262837854395
0.013098214683511583
-0.010070261031038303
-0.01491931093567567
0.007959344395940746
0.01981796016537731
0.016483030339218954
0.010106247474991422
-0.013909934949113741
-0.017338999045532356
-0.0008593797365776341
0.006828146187698882
0.006820307173507056
-0.0033804640856152333
-0.007002319011841627
0.00915862242879468
0.013262149554872416
0.0003670010334817743
0.011429848333016449
0.006364534390764506
-0.02614730958076398
-0.022092273929268623
-0.004116887626290008
0.0014464486775377882
0.012132675603857434
0.015682398291638464
-0.004382238069008195
-0.01415403160207111
0.006915564322902348
0.0216554641990358
0.010384601547185278
-0.01584628238972969
-0.015205114327626435
-0.0009957675546358206
0.0011849033044156266
0.018686288251770936
0.01855861203934151
0.010742016950453329
0.011360043832188088
-0.009750635733492318
-0.022896176108180805
-0.02281930462033242
-0.018494354309237224
-0.021042066662637804
-0.025770643067699946
0.005105428565442514
0.02328784601726707
0.004972786737850248
0.01231535567957473
0.016976691009753585
-0.013648852213812969
-0.011170265109595874
0.016985135525184297
0.020652398258279442
0.013252031370613563
0.012868758853422894
0.01832367131193918
-0.008594093321228027
-0.02819498336962872
-0.01796420802688957
-0.02390796818073025
0.0003316289718099709
0.02072434862932368
0.002662607384672071
8.539587186181547e-05
0.005314292718683411
-0.003627551101336655
-0.015334407350819106
0.01122803942240295
0.031589583386396995
0.002545603445550452
-0.009729443997920334
-0.00228885289959077
-0.008811198094536276
-0.009196460699361123
0.009635159800579014
0.022371972121052745
0.004476567656632246
-0.017783911312592965
-0.014455133174402553
-0.009844127971328033
-0.007659590247802852
0.005158688249955291
0.003722297229542238
-0.003197488530808924
0.0036592200610555616
0.01368248191534055
0.008356818600719159
-0.017953220548198832
-0.02941504388937908
-0.01097754023327912
0.01944648113102432
0.036649646399815494
0.02781441323310257
0.009904698077820736
-0.02274613291392281
-0.04253198645859841
-0.01826219485011785
-0.00019180922370004333
0.006881290919787002
0.007970232465048042
-0.002399542563398108
0.009932790390450606
0.012063055680878742
0.02349017530289046
0.048972362369442454
0.008466509532280684
-0.040707998812858935
-0.0514608089052184
-0.025885472877588873
0.025436636196067418
0.03748395743736837
0.023430328062981894
-0.005726972670038281
-0.03693083187309445
-0.02332672904291182
0.008213266431311195
0.017626273497789335
-0.011890242272373137
-0.03760713532716145
-0.008374029104497875
0.022824098372504813
0.02257913703641875
0.015204130807371702
-0.0059654348023358995
-0.025359469838273384
-0.013673986110675603
0.0013801370112727302
0.005085176014265681
0.012985487963428978
0.006390024744355606
-0.00868948730939988
-0.01667553507229594
-0.023351721784398396
0.002238825032727166
0.029386161275149474
0.02099696755342203
0.018747147200354985
0.011028755306919585
3.625807082970564e-05
0.008761075119565103
0.013903825388904601
0.004201754782519908
-0.01791327800932711
-0.021712067766064373
-0.015614925024775588
-0.004571376656607008
0.004518143259896641
-0.01657372835455721
-0.00953144737067145
-0.005449296917143765
-0.020836373984020384
-0.008259909218581614
0.0020183989061789364
0.0054073306691837615
0.00837330603988729
0.02820158377451579
0.016875511372512166
-0.008166763173051442
0.010073378227048565
-0.0031453745555645816
-0.01346283795301617
0.014348214949195007
0.01349474467705619
-0.01627764201116832
-0.025591233082297726
-0.006491005530403088
-0.0067844869774763865
0.0016092328248283694
0.03985508848960182
0.02501339746025497
-0.007665314703388659
0.01269356795078476
0.029544691280825996
0.003858870374212292
-0.03011287149793708
-0.02491454313555575
0.00032299059344231715
-0.0007558762583487218
-0.003928427924971701
0.019442894928011593
0.01652447295657712
-0.0016248684068892211
0.012114667031915008
0.0039230748863038935
-0.01523711238794484
-0.01172749148099558
-0.015052506514022079
-0.01842093675375621
-0.011766004440997133
-0.00023154568709892462
0.011732785770012959
0.0018976917748681108
-0.005449572738812126
-0.0011126452696561184
-0.019774298692289086
-0.013568816112609825
0.01152187281988271
0.0095113459081307
0.010902777564761714
0.004486768692634073
0.01048151264398144
0.02269043657727356
-0.016489720110049334
-0.022977444130264556
0.01074620423507229
0.005326381545021944
-0.005645594692692481
0.0034744807433925795
0.021752160160072448
0.015539804815195327
-0.007397701664084906
-0.006687862528492535
-0.006641439392019402
-0.008021234120394842
-5.118807966598086e-05
-0.005672164428671151
0.0013136166819571662
0.01656725201140357
0.009358614203726495
0.009475415826359754
-0.006477667489704536
-0.01970736220684866
-0.00685865950322696
-0.004167489979930846
0.01563415862100404
0.022181570715445777
0.00351574636215162
-0.019526556538316957
-0.028727220898250205
-0.013203939250723598
-0.017736617377998396
0.004203414705410094
0.03457378497099101
0.03766131483470632
0.03933286437075046
0.014876876290618535
-0.004267295275399701
-0.043506026319418384
-0.06988577145908688
-0.021624473887024365
-7.145773710128115e-05
-0.0045668628055574164
0.026335752275848875
0.05542746743909399
0.025806572581768394
-0.01738450362031775
-0.02222262249701369
-0.03714818322453965
-0.033780495039285124
-0.007590237524807944
0.014572570763373012
0.03265683138857639
0.02455816018397478
0.019409651010628026
0.004151793429242952
0.0030830706960749787
0.004010803164392754
-0.03173847472265821
-0.023084424079754712
-0.008621331756910482
0.009122848018514212
0.047297208479442535
0.023069275005355785
-0.015216337354967177
-0.032742102472067415
-0.03217709024281545
0.0038590541945941565
0.03117638962190798
0.014467449478503338
-0.01037888428760069
-0.005165060112270126
0.0014047151859326826
0.0008030262539499479
0.006200769404886686
0.007163528703592961
-0.0033362567307008676
0.003773992816265333
0.017391136837367354
-0.006229050036814951
-0.01693158509775357
-0.003220418121056684
0.010388099767237848
0.010692414513301616
-0.012804285895017184
-0.009838418845115656
0.006506135245070005
0.013461234197293316
0.015574402722219258
0.006233891526484215
-0.004314537038287457
-0.020101706035604183
-0.018688066075233337
-0.0009448422579627873
0.010999300322363766
0.009600645142748443
-0.0008791990036696832
-0.00025049952970817045
0.007658784775268524
0.01223985284781527
0.005962118226445333
0.010119579420332028
0.008176823511686445
-0.0014353750307272623
0.0028687016534864824
-0.018136724828019687
-0.02602620117697254
-0.017250976835182372
-0.013639557850691826
0.007480803660915363
0.023565592149388467
0.018464114735887195
-0.001126810350444221
-0.005464531198805489
-0.017157317180382638
-0.018812591416959044
0.0002954753203305562
-0.0027605811656667323
0.0007590099135102886
-0.002209191366124519
0.0018519904222919481
0.014477093087416858
0.00802255051371215
0.014812961970933647
0.013283611945195997
0.0022731754000509096
-0.0019300960494584723
-0.002335824610087819
0.002969711127606603
-0.001302657980909168
-0.00814032232132704
-0.021690944855228572
-0.02532932300862259
-0.007352272049648691
0.00703531613159814
0.016355614428085617
0.010792795678114826
0.006542293118258802
0.009863571357308872
0.006387821146686212
-0.0006770702216740187
-0.01589330711013117
-0.011644483138461675
0.006403735884925897
0.0036753117522234677
-0.0065064661871514235
-0.0019014677256101492
0.0051655459288480355
0.006066320800374233
0.010099964252559946
-0.001184745193269462
-0.01444920147772389
-0.0125683650042908
0.0047266641069855
0.027465414991857378
0.00956669909497023
-0.01191969137147709
0.00021042657535940722
0.007168705723845567
0.0006738929674313998
-0.0038631091717900596
-0.006445592348172231
-0.008056309739478462
0.00022737787435430664
0.007770408168430257
0.013124293102866086
0.009978422165777538
-0.0021609505722037284
-0.012442053994531873
-0.014434171195433424
0.015219586166717803
0.022831207412316267
0.0018599448338269449
0.003311431238029209
-0.01134692681443014
-0.021304300922294434
-0.008744631421424153
-0.00511906072188893
-9.350647888679248e-05
-0.007155612327117614
-0.008250072253238368
0.005061224179777696
0.016110198782706083
0.019858281839115248
-0.010505742680012913
-0.022471504466442808
-0.0022267857190283397
0.00237418144870935
0.004143432039430565
0.004213027400621344
0.003775534993407642
0.005360431525753
0.00316983924039894
0.012701603853636863
0.009979297278639858
-0.00786201986338956
0.005539570735400523
0.007724099198595727
-0.000851151969450942
-0.0013871727790361944
-0.02383955885088838
-0.019027541099458388
-0.009086576783822724
-0.008046909167111739
0.0008485319552837573
-0.004656824358024488
0.006186197371221514
0.012021374257724395
0.019605708042181865
0.03255203315396151
0.014918964839495957
0.009547581074954849
-0.003027134727295445
-0.02386102317522753
-0.008507458266298838
0.0044737415687180265
0.0017802544878833186
-0.00038107934892706074
0.0077722114206857625
0.001843417633154245
-0.019833790275842027
-0.007195650165610801
0.008338483883393035
-0.003892244148688299
-0.0031496856294159037
0.01685758172260975
0.000569185266975991
-0.023086791772801332
-0.005908460018760669
-0.0011114060931669582
-0.011777961198680938
-0.019453642084826004
-0.0076672121045528304
0.012024234758599003
0.019419952061613243
0.022274737095955593
7.572772125191442e-07
-0.011205012412864927
-0.015864566518747434
-0.006012672830660754
0.021711798205783773
0.0018788830077254258
-0.004302476109267677
0.017661221233058313
0.01624656451070229
0.006738161914372522
-0.004705860508298746
-0.008868192530383312
-0.008886062905114931
-0.014342349711806415
-0.013100892424926996
-0.007823043065121014
-0.006570699320969573
0.0006449708755667686
0.010101406767224402
0.018003698292014515
0.017664847462416804
0.01387623007910845
0.015181773673922382
-0.0076588056717651985
-0.018362171782438937
-0.001120213407636509
0.004221467747057568
0.011683790294064994
0.004138278023067711
-0.01593927339951877
-0.027440538108391227
-0.017215928708691618
0.01015020438378817
0.011295700440657419
0.0003017484108666738
-0.012134284428153059
-0.014794738782609508
-0.00811693685203022
0.003984848638806861
0.028191175120446218
0.026198679792132726
0.007751682788104671
-0.009337038055571997
-0.009441950075669706
0.0021930565984663425
0.0039118846195475825
0.005967269587231678
-0.01938848731491398
-0.021143497450372938
0.010560541752587301
-0.00225618774006549
-0.009448563868558548
0.005007009124453626
0.009007875501088707
0.006952053684393008
