AAD_Filtered_TADAS_FILE
AAD_BASELINE_CORRECTION: BASELINE REMOVED
AAD_FILTER_TYPE: BUTTERWORTH
AAD_FILTER_ORDER: 1
AAD_LOW_CUT_FREQUENCY_HZ: 0.025
AAD_HIGH_CUT_FREQUENCY_HZ: 40.0
EVENT_NAME: 202302060117
EVENT_ID: 13194
EVENT_DATE_YYYYMMDD: 2023/02/06
EVENT_TIME_HHMMSS: 01:17:32.00000
EVENT_LATITUDE_DEGREE: 37.288
EVENT_LONGITUDE_DEGREE: 37.043
EVENT_DEPTH_KM: 8.6
HYPOCENTER_REFERENCE: AFAD
MAGNITUDE_W: 7.7
MAGNITUDE_W_REFERENCE: AFAD
MAGNITUDE_L: 
MAGNITUDE_L_REFERENCE: 
FOCAL_MECHANISM: 
NETWORK: TK
STATION_CODE: 0214
STATION_NAME: 
STATION_LATITUDE_DEGREE: 38.028298
STATION_LONGITUDE_DEGREE: 38.22594
STATION_ELEVATION_M: 1353.0
LOCATION: Kahramanmaras_Pazarck_Turkiye
SENSOR_DEPTH_M: 
VS30_M/S: None
SITE_CLASSIFICATION_EC8: unknown
MORPHOLOGIC_CLASSIFICATION: 
EPICENTRAL_DISTANCE_KM: 132.74
EARTHQUAKE_BACKAZIMUTH_DEGREE: 
DATE_TIME_FIRST_SAMPLE_YYYYMMDD_HHMMSS: 2023/02/06 01:17:34.9180790
DATE_TIME_FIRST_SAMPLE_PRECISION: millisecond
SAMPLING_INTERVAL_S: 0.01
NDATA: 3908
DURATION_S: 
STREAM: HNN
UNITS: cm/s^2
INSTRUMENT: sensor = CMG-5T/GURALP | digitizer = 
INSTRUMENT_ANALOG/DIGITAL: 
INSTRUMENTAL_FREQUENCY_HZ: 
INSTRUMENTAL_DAMPING: 
FULL_SCALE_G: 
N_BIT_DIGITAL_CONVERTER: 
PGA_CM/S^2: 61.676
TIME_PGA_S: 
BASELINE_CORRECTION: BASELINE REMOVED
FILTER_TYPE: BUTTERWORTH
FILTER_ORDER: 
LOW_CUT_FREQUENCY_HZ: 
HIGH_CUT_FREQUENCY_HZ: 
LATE/NORMAL_TRIGGERED: 
DATABASE_VERSION: 
HEADER_FORMAT: DYNA 1.2
DATA_TYPE: Acceleration
PROCESSING: Automatic Paolucci et al., 2011
DATA_TIMESTAMP_YYYYMMDD_HHMMSS: 
DATA_LICENSE: U (unknown license)
DATA_CITATION: Turkish Accelerometric Archive v 1.0 - Disaster And Emergency Management Presidency, Earthquake Department
DATA_CREATOR: AFAD
ORIGINAL_DATA_MEDIATOR_CITATION: : AFAD - Disaster And Emergency Management Presidency
ORIGINAL_DATA_MEDIATOR: AFAD PROCESS SERVICE
ORIGINAL_DATA_CREATOR_CITATION: AFAD PROCESS SERVICE
ORIGINAL_DATA_CREATOR: network: TK
USER1: GuestUser
USER2: 
USER3: 
USER4: 
[...]
-10.525108375248587
-10.182273137953352
-8.5048124037735
-4.061873371426933
-0.9564755777747564
-0.5258867858349867
0.4489032977760979
2.310189373685366
3.492837746909362
5.037099090869622
8.098464445810093
9.696241346379114
7.1408962728792185
2.2226848925872686
-2.12260144699796
-4.475278572969962
-2.849786805374193
0.7622053420488112
1.9622276789429953
2.9694737755138183
6.264338523661971
9.285937808732724
8.053984314339877
1.2628124235832014
-7.175080184558317
-13.202977256379024
-16.36872889894274
-16.91423254536786
-13.459434280808878
-7.075813005832314
-1.4582309275841745
2.391412712952014
6.386366771084464
10.724062841934268
13.618638993168313
14.572011140689819
12.220048290993624
6.141588791263633
0.16176560129521095
-1.964005240389201
-2.7535282792559443
-4.086052029557874
-1.5995436712050957
4.437365082896284
9.669812757861118
12.319512175983059
11.557644815199856
9.090215175571926
6.9964182398751715
4.824221918662779
1.2680592734340554
-3.733242691749523
-7.92563489243193
-9.984945318400339
-9.268927612377896
-4.992061323308349
-1.0118250424084074
-0.7609113376281675
-0.6455126843110385
1.7036622131610992
4.817016302569953
6.878034194982057
7.009206145949628
5.464306269421594
3.084172761579751
0.8620499395720634
-1.3096831082215592
-3.8314780123161967
-5.496688647458327
-4.621175569722339
-2.571671069809755
-1.3462756636359177
-1.3780430091052862
-0.8316306934896233
0.7757010329021387
-0.440781846963389
-4.41798107521459
-6.234143303972829
-6.792675144077808
-8.847059779044505
-10.44215742173721
-11.349380670008257
-12.066334550938828
-10.464141169088524
-5.8252577289146235
-1.8484636845753586
0.06823276354249681
3.435293621731216
7.964869442186267
9.439948444431716
7.6915288271986455
4.940662517643485
1.9358119884633553
-1.017035799221477
-2.6702859912600485
-0.7754829553621844
2.3189140649332884
3.56093972446149
6.070898404176559
10.503466093242531
12.850294609827424
13.10894067351966
12.10084707277729
6.305890697835043
-2.682345415619776
-8.543896355783714
-11.090553325698002
-12.81866846544719
-11.375421220213456
-5.630893564682081
-2.143133108319141
-1.7269038166635577
-0.09338544176322562
1.160647185416923
1.8654790834146386
2.2407868461731435
0.02345184354378902
-3.88186989479089
-6.845376342752238
-6.6800953270566295
-3.046244272671417
0.0785845493864593
-0.4104568562011841
-1.9507742699024002
-2.0909653735090385
-0.992875802469234
1.1799125603732592
2.2515618048317356
0.3934011046035005
-2.8083969089860816
-4.018871284381015
-0.3525230686964989
4.457820632588627
2.8453556512873286
-1.321284029124665
-0.7072191038412412
0.8870748491432306
-0.9692613118973823
-4.709746935169915
-9.129011499032096
-12.644801555891906
-12.775815076140121
-11.53700381854504
-12.250156463700451
-13.175723812854498
-12.150582917310965
-8.850635140945633
-3.720584578868763
-0.898318441317321
-0.1284835652728808
0.7872639254235724
0.923447552654032
1.1139190598757507
2.722971554902276
6.405217719687034
10.920729995576563
13.192374644475207
11.703039011398955
9.003720010089276
7.034176981479567
5.926122651750235
7.199365797413928
10.39178590523102
13.608961481396033
15.448740596688578
13.524866330509722
9.59085958750423
6.802580480971867
4.095081142410257
0.08519689125053162
-1.907461792993297
0.16402296481716566
1.452743413445428
0.6349262973082361
0.04821046588771748
0.4078022736842072
-0.4355391172955543
-2.484217141557745
-0.6397176472133497
3.436443534171945
4.556524448468983
2.944418199582677
0.37937896105574737
-3.189409533777661
-4.538404492998325
-0.267159346419417
4.305290835693532
3.6371858468874265
1.7359875918535457
2.9130632649756567
3.972576198835829
4.065767250304452
2.3435271837763345
-1.6055413462806958
-3.5735630789949444
-3.6786173904074237
-3.717572449954924
-4.539853541610051
-6.236386165626666
-6.974630082377213
-6.308046794812211
-2.4791814464810655
3.102004071298901
2.9049936953910986
-1.843405097129949
-2.826659582194844
0.21964140020217432
1.3296087473326994
0.00808748350951792
0.36972644472700783
1.1392225506426679
-1.1747278549916789
-2.268039644968767
0.6113778548964801
3.1231506246036385
4.7596120094109
6.513388413766713
8.675361094622051
11.025306887341438
10.612696786065127
6.01734954619112
1.457690539772943
0.8826647785977803
0.26041306049862367
-2.216862889188144
-1.9847032733688246
-0.13125066802704202
-1.3624483448416254
-4.800050072320012
-8.311627473385638
-11.732533471621043
-12.874696845488375
-9.658793117016094
-5.728502083579252
-5.268913003490571
-5.687289981106132
-5.938579340325517
-7.80940090640207
-7.827895293723017
-4.569639839905705
-2.265311982022976
-2.3251828517959106
-3.07491594248975
-3.900040990598805
-4.8543713948896645
-3.987108696927609
-0.9051897017607381
1.7720440770921229
3.966253998444088
7.064775264032827
10.067802332785918
9.419279160551618
4.331350243203851
-0.5329321567968173
-1.5535845539941964
0.01381721697217481
2.085869775174174
1.7656144345538602
-0.7056597333274892
0.36572234917616475
3.806711983350119
5.222323708660189
4.810356423167938
1.8855405291297216
-1.3748462467300704
-0.12281983485243975
3.79788059791034
3.7004274220216975
-1.4371302799888421
-6.198704058967337
-7.826456082946687
-7.1504423120001634
-6.400809140240145
-6.148984478399321
-3.1006814832779335
3.166368946718609
7.837273139092733
8.61811021649527
7.451398985955076
5.164275261293692
2.8995822527510717
1.2828400493999594
0.824731172838847
2.200240457492554
2.068433385341169
-0.39839693067863685
0.07250885010666742
4.255316657182956
6.662754193271932
5.809146382966629
4.5986298113009
1.9629346933015517
-4.024839061778751
-9.218721430512323
-11.992659737069296
-14.702919628593575
-17.268696403178073
-17.109344516414854
-12.445581336690992
-5.704528215533037
-0.8437831767949845
0.27377695615145337
0.28595281728316757
0.9626351548580984
2.2701788438065456
4.202775659050459
3.603300588945995
-0.02207062904799075
-2.6069233470800786
-1.1987772390836238
2.9231101813849545
5.796207004231687
4.502800529097038
0.829625603063346
-3.518342229282703
-8.592707822372708
-10.62566338839396
-7.304148466488599
-4.327965072964716
-7.104913687875831
-10.781257362526302
-13.16684489668939
-15.449603394955332
-15.062525383267303
-11.167052601929015
-6.774112067729474
-7.076534464200248
-10.858492710264366
-12.343155361897301
-9.486848937917602
-5.142207558668462
-4.7800690740104335
-9.683243291370681
-12.023140468506543
-8.135184524597767
-1.9364238705564727
0.371806222511151
-3.5879826901510374
-7.943105148504664
-9.800723852099928
-7.010324233719484
-1.1523164109302404
1.0387191473697637
-0.18564912099175432
0.2619418938715947
1.636327915736905
1.1146962661894597
-0.3326136528942058
-1.1364865390041927
-0.23683675343362412
2.7498084441487456
3.833270330648057
-1.9470419595974668
-3.1906324429196204
7.47073012739947
14.154056482047023
9.68468030556251
8.79352707239494
16.251098856210383
16.797622546683183
7.955786096604687
4.056602106124782
6.671513775222596
8.54186310642742
14.320268965411541
20.980511217192543
19.430814452659884
20.191572118839446
29.27938052021213
34.61247915152453
32.839743747308816
30.01316025257025
26.95585067255027
24.19215024692345
23.905414736179495
19.775318963063587
6.910246849088593
0.07453811471025726
9.305016480504959
17.738543919510853
16.997997825208373
16.567921722958456
12.540823947712044
1.282087177999283
-6.607881156154901
-4.231668371542812
-3.574095872894218
-15.014653682719418
-23.757106678830034
-17.349568315134405
-3.5343193250024703
2.113863213825652
-3.656832539209743
-6.3740316154058645
-2.2473253504949073
1.8119597318219116
5.642600698499812
7.803975236085048
2.6276448994606665
-5.910060805241591
-3.8815166595592716
6.940793553246987
12.9046065112852
12.20069579143832
12.123314070503938
14.308384912744268
15.317020927230663
8.724994910286977
-4.6826221642103025
-14.007706573726228
-17.556819079460418
-20.99510126411671
-24.664750428975392
-21.303482707961802
-14.685368524863653
-18.566851900284732
-21.218571439146057
-5.445286184325391
8.570480913724406
4.692254066833195
-5.970537261774048
-20.50735531246269
-33.7522423953781
-24.500023293475618
-2.7328257137553598
2.591788272533552
1.9228601086776709
9.07630694313501
20.36615556608524
31.52584095792492
30.77806547274263
13.435333596335502
-7.8590786719319246
-14.30603684773173
-5.98567382595959
-5.604616103605863
-13.597068612894732
-13.957641936132315
-3.854226356326151
6.250488579877088
2.6288228225565535
1.377215914460141
7.576555001223615
-2.846125663621344
-21.843193384663724
-29.94768065402619
-27.246265233063685
-18.528647386570736
-10.623610008832166
-6.126074885537174
-1.518970130224344
5.422989083236816
14.533962355210937
20.132241880843935
19.9247899084636
18.43062296628337
14.42185208105988
13.800569215601115
19.726431559573715
17.623505871651382
2.560973258573826
-11.536037916221176
-15.504149031916398
-13.217915294247938
-2.762064697018993
8.771092045837902
13.89871360550251
18.828177747130617
20.647169104443332
16.246140259942734
4.070558801938156
-7.663669824927939
-11.205897582133757
-10.467356660276552
-2.265027482789185
8.808579416029056
13.714748237382008
13.434240498497706
11.417248710081948
17.91045178548817
23.967979186577185
17.668003310095372
4.212855450952674
-11.806767134858049
-18.558489491387558
-19.28753866655488
-15.251624840150761
-6.848636137156565
-0.4636761579894838
1.6131332669284937
4.793657184912313
13.591665176585249
15.770163039136682
14.41320409330971
12.597598543109875
6.429364478296036
-2.3210652028241046
-9.306799765209627
-9.211568803276224
-4.555803690377482
-5.148977906368192
-7.611730721006527
-2.6994747401396593
5.155602715877328
7.418805545576266
1.3532874791512708
-1.7425957425036183
-4.228437512938447
-11.641037886374242
-21.071835393099505
-29.487147499972327
-27.780182351107612
-18.203868695708174
-9.45701848855847
-7.074751092047325
-2.919447410504339
3.2239909117334595
7.125191928354212
10.154473685676683
9.757718148460077
8.500921388058739
7.463173419221871
10.856282234981853
13.567747328444574
11.927084315881826
8.22104668756037
5.0649043830249125
2.375575690535358
-2.1773909420362787
-0.06107987611490988
6.244502235787576
6.191944932038089
0.7855338137500726
-7.673171428728185
-17.98212445874462
-23.810235425987678
-21.311299468179786
-14.990550755393645
-11.575399845173317
-8.054043798359526
-6.1212553278815
-1.9814081882793122
6.322444896667309
10.469184792154584
14.113361001922135
13.635123156206308
4.456993584917408
-1.5570177468143316
3.396975716795532
9.507720090820555
9.692940909162267
6.494774265661716
6.6055920280947396
8.347615691155033
6.6508531430438
4.253103887531979
7.557490176859478
13.504267904592492
12.812783002497177
8.31591264551658
4.2148903042041646
0.4931718936815299
-5.574219031369677
-11.077528772127316
-14.813109407081145
-13.544407467211528
-4.319008656173683
4.758424999801549
7.39842183273345
4.636349138785558
2.615152994055024
6.866407870188223
12.626636491836937
13.790197581131357
12.348573394203088
7.266476231831956
-0.1546998287383506
-5.606968060774119
-4.70419618048494
0.4224564193699233
4.4151451101502825
6.296452299666044
6.147979434099529
7.3889684431775216
10.441509826885278
8.194108128143796
0.8768222862138082
-4.043591025430174
-8.986618608985486
-15.29492245259692
-16.635984631588034
-14.081233524413374
-10.94459020505062
-6.645585614501003
-2.245387466869551
-2.389900045776616
-5.89671535037119
-6.967106174088424
-11.652629716108274
-19.843426614999814
-24.048517366272204
-25.46847167885497
-25.580448367273746
-22.988254867703414
-14.884114734031625
-2.696706835950538
4.497456577420809
4.3952573955577465
0.47794116841971696
-4.884449276924181
-6.794309579075184
-3.2113483644547673
0.2839488227514025
-4.672201335008642
-14.613959570411494
-15.868871501877555
-11.606594265448212
-11.971179313863269
-11.448386813152876
-8.053766259756074
-0.09575436709364218
9.47587471945119
14.314901464193614
17.848632341620192
22.495665074476474
22.766596228405668
13.490711507235952
3.549047866178556
1.1718839051378562
1.1306498163496572
-0.42562244972938934
3.537556922783865
13.926754957498623
21.23251461421035
18.300232655840652
10.691899663709298
4.0378465735681255
1.413813390256077
2.5006616506811423
-1.35248882665693
-9.529100934127369
-18.585318150017205
-30.436822376754044
-35.744530742875284
-21.281906154315774
2.3432968492297115
12.578568170528381
9.505730939037742
-1.188179742091562
-18.151656600557242
-22.488990859787755
-16.405725201615823
-14.072491366495106
-13.036377442958978
-6.800704870091969
14.560873164030095
35.64530367489505
35.66466983117161
40.03042050691551
40.793862505080114
-2.360106020399512
-42.21997921736996
-18.05298177197572
36.56084359748709
61.49476092557718
56.49933060636361
32.045725645947314
-6.672360085157983
-8.34462949321688
30.79588276860014
29.282923212859917
-10.316415684571991
-25.57102128659558
-28.71895857460926
-31.701279012707115
-40.27846895571416
-45.331670145839375
-21.269954972910796
8.499276098166446
25.662419252324067
23.435684079847608
7.673246072624283
-0.20792800215744378
-0.9129515500113075
-14.550034829708451
-21.712087043830522
-20.10952465452479
-22.392527101936892
-5.6261625018043855
17.169185373308135
32.29062940634576
32.90412129384181
27.63503288522112
18.160279950699795
6.1795664546310265
10.764445966068418
2.82434012882754
-15.700429345539614
0.37998459345509783
15.3769594171696
-2.822665248894597
-19.59312014626692
-18.574102500561633
-6.925547783668824
-0.6583195202000475
-7.101903607469734
-15.341697942826112
-13.95408459406898
-19.41725985996621
-22.91782546137809
-16.73738443042796
-14.924085744014883
-9.300691616964771
-0.04597929051241859
19.65718345786984
36.78521601836671
33.6092450739608
27.485286193240032
29.513305005499575
27.948172242925317
14.612045268055569
-3.5540595312467493
-7.789954700039793
-6.981714248173786
-15.606467728103436
-23.68305301719209
-38.66203444256667
-41.335271846330265
-29.761819980490635
-20.292170058920206
-16.941920739514753
-17.20413436833872
-4.826760741749989
0.5759009485252022
-4.598271613692995
-6.649250479340532
-8.818622996221468
-11.571221790780282
-9.367677021251438
-8.481572420650313
-3.229899416947446
7.165612139943229
6.9178717122730315
5.114371716789997
3.152630584188998
6.4043462287496045
14.31366163923081
20.184558959198622
21.792322823048696
8.911035595216433
-4.990508929973945
-8.111610309842554
-6.951626660126171
-1.4277537619078708
0.8658682397061368
-0.3024761137938279
0.2924851956170138
-0.01066901268211417
0.1436199142333402
0.06491662689988797
0.10488497258228274
0.08440975689000087
0.09472086577213684
0.08935159822236502
0.09196913558788228
0.0905189208444186
0.09114077819280858
0.09070747140438033
0.09081181534515906
0.09064253110207839
0.09061283220643948
0.09051225363032445
0.09044799253148778
0.09036544915770145
0.09029243281112291
0.09021477886427418
0.0901397015399531
0.09006352603509078
0.0899881237242601
0.08991254111247027
0.08983726351412033
0.08976204340615708
0.0896870065268345
0.08961208849936522
0.08953732177999449
0.08946268950490367
0.08938819993129982
0.08931384852185899
0.0892396372564983
0.08916556479618679
0.08909163149287366
0.08901783683774869
0.0889441807609353
0.08887066296950873
0.08879728328466666
0.0887240414699951
0.0886509373189381
0.08857797061024537
0.08850514113066364
0.08843244866337834
0.08835989299389979
0.08828747390706443
0.08821519118856141
0.08814304462415419
0.08807103400007618
0.08799915910282853
0.08792741971928225
0.08785581563662542
0.0877843466423893
0.08771301252443418
0.08764181307095592
0.08757074807048171
0.08749981731187147
0.08742902058431637
0.08735835767733878
0.08728782838079155
0.08721743248485753
0.08714716978004906
0.08707704005720748
0.08700704310750257
0.08693717872243203
0.08686744669382102
0.08679784681382155
0.08672837887491211
0.08665904266989699
0.08658983799190595
0.08652076463439352
0.08645182239113863
0.08638301105624405
0.08631433042413587
0.086245780289563
0.08617736044759669
0.08610907069363
0.08604091082337728
0.0859728806328737
0.0859049799184747
0.0858372084768556
0.08576956610501088
0.08570205260025393
0.0856346677602164
0.08556741138284768
0.08550028326641451
0.08543328320950044
0.08536641101100523
0.08529966647014453
0.08523304938644927
0.08516655955976515
0.08510019679025224
0.08503396087838441
0.08496785162494884
0.08490186883104557
0.08483601229808699
0.0847702818277973
0.08470467722221214
0.08463919828367798
0.08457384481485167
0.08450861661869997
0.08444351349849907
0.08437853525783409
0.08431368170059855
0.08424895263099397
0.08418434785352935
0.08411986717302064
0.08405551039459036
0.083991277323667
0.08392716776598462
0.08386318152758238
0.08379931841480395
0.08373557823429723
0.08367196079301362
0.08360846589820778
0.08354509335743701
0.08348184297856082
0.08341871456974043
0.08335570793943836
0.08329282289641787
0.08323005924974256
0.08316741680877587
0.08310489538318057
0.08304249478291839
0.08298021481824944
0.08291805529973183
0.08285601603822111
0.08279409684486991
0.0827322975311274
0.08267061790873884
0.08260905778974509
0.08254761698648222
0.08248629531158103
0.08242509257796644
0.08236400859885726
0.08230304318776557
0.0822421961584963
0.0821814673251468
0.08212085650210632
0.0820603635040556
0.0819999881459664
0.08193973024310107
0.08187958961101201
0.0818195660655413
0.08175965942282026
0.08169986949926886
0.0816401961115954
0.08158063907679605
0.08152119821215431
0.08146187333524066
0.08140266426391199
0.08134357081631129
0.0812845928108671
0.0812257300662931
0.08116698240158769
0.08110834963603342
0.08104983158919674
0.08099142808092732
0.0809331389313579
0.08087496396090352
0.08081690299026129
0.08075895584040993
0.08070112233260923
0.08064340228839972
0.08058579552960213
0.08052830187831701
0.08047092115692431
0.08041365318808287
0.08035649779473002
0.08029945480008117
0.08024252402762933
0.08018570530114469
0.08012899844467418
0.08007240328254106
0.08001591963934443
0.07995954733995889
0.07990328620953399
0.07984713607349392
0.07979109675753696
0.07973516808763512
0.07967934989003374
0.07962364199125097
0.07956804421807742
0.07951255639757568
0.07945717835707992
