AAD_Filtered_TADAS_FILE
AAD_BASELINE_CORRECTION: BASELINE REMOVED
AAD_FILTER_TYPE: BUTTERWORTH
AAD_FILTER_ORDER: 1
AAD_LOW_CUT_FREQUENCY_HZ: 0.025
AAD_HIGH_CUT_FREQUENCY_HZ: 40.0
EVENT_NAME: 202302060117
EVENT_ID: 13194
EVENT_DATE_YYYYMMDD: 2023/02/06
EVENT_TIME_HHMMSS: 01:17:32.00000
EVENT_LATITUDE_DEGREE: 37.288
EVENT_LONGITUDE_DEGREE: 37.043
EVENT_DEPTH_KM: 8.6
HYPOCENTER_REFERENCE: AFAD
MAGNITUDE_W: 7.7
MAGNITUDE_W_REFERENCE: AFAD
MAGNITUDE_L: 
MAGNITUDE_L_REFERENCE: 
FOCAL_MECHANISM: 
NETWORK: TK
STATION_CODE: 6302
STATION_NAME: 
STATION_LATITUDE_DEGREE: 37.2342
STATION_LONGITUDE_DEGREE: 39.7509
STATION_ELEVATION_M: 550.0
LOCATION: Kahramanmaras_Pazarck_Turkiye
SENSOR_DEPTH_M: 
VS30_M/S: 936
SITE_CLASSIFICATION_EC8: A
MORPHOLOGIC_CLASSIFICATION: 
EPICENTRAL_DISTANCE_KM: 239.71
EARTHQUAKE_BACKAZIMUTH_DEGREE: 
DATE_TIME_FIRST_SAMPLE_YYYYMMDD_HHMMSS: 2023/02/06 01:17:53.3258450
DATE_TIME_FIRST_SAMPLE_PRECISION: millisecond
SAMPLING_INTERVAL_S: 0.01
NDATA: 14501
DURATION_S: 
STREAM: HNN
UNITS: cm/s^2
INSTRUMENT: sensor = CMG-5T/GURALP | digitizer = 
INSTRUMENT_ANALOG/DIGITAL: 
INSTRUMENTAL_FREQUENCY_HZ: 
INSTRUMENTAL_DAMPING: 
FULL_SCALE_G: 
N_BIT_DIGITAL_CONVERTER: 
PGA_CM/S^2: 59.948
TIME_PGA_S: 
BASELINE_CORRECTION: BASELINE REMOVED
FILTER_TYPE: BUTTERWORTH
FILTER_ORDER: 
LOW_CUT_FREQUENCY_HZ: 
HIGH_CUT_FREQUENCY_HZ: 
LATE/NORMAL_TRIGGERED: 
DATABASE_VERSION: 
HEADER_FORMAT: DYNA 1.2
DATA_TYPE: Acceleration
PROCESSING: Automatic Paolucci et al., 2011
DATA_TIMESTAMP_YYYYMMDD_HHMMSS: 
DATA_LICENSE: U (unknown license)
DATA_CITATION: Turkish Accelerometric Archive v 1.0 - Disaster And Emergency Management Presidency, Earthquake Department
DATA_CREATOR: AFAD
ORIGINAL_DATA_MEDIATOR_CITATION: : AFAD - Disaster And Emergency Management Presidency
ORIGINAL_DATA_MEDIATOR: AFAD PROCESS SERVICE
ORIGINAL_DATA_CREATOR_CITATION: AFAD PROCESS SERVICE
ORIGINAL_DATA_CREATOR: network: TK
USER1: GuestUser
USER2: 
USER3: 
USER4: 
[...]
13.588099525907316
11.29613665085921
10.982399259086753
13.926056891799771
17.54602827645565
17.196536111338304
13.24599847049071
11.676661168490265
13.452986533403111
12.772175103080034
6.48901113179201
-2.3274501794756457
-9.93061086901331
-15.633733134365185
-21.093101383903115
-25.034411453215508
-23.399801260556607
-14.478486357987963
-2.2433672291663562
7.714919670560891
15.989734254108754
24.678883570071072
31.31283280175445
31.496689030508396
25.960075010721308
20.683127339608127
19.85089867137721
21.669163691582842
22.221386599125086
19.904538328549418
16.488638220956982
15.178169980476248
13.91069056234047
7.03447480249783
-6.13090611974243
-18.93009508093153
-24.881445932756854
-26.03110122624447
-28.55296131509321
-33.674980017639875
-38.3579210971088
-39.406626152160484
-36.08225893587442
-31.413263896114213
-28.86697265884919
-26.311779220378625
-22.33315437557201
-21.121265966576797
-23.53273749269446
-27.38084968749475
-30.55854912972584
-31.738868929797565
-32.52184761201721
-33.385195557437676
-32.19212090002966
-28.102024319408528
-19.805555335701918
-5.6114510767043875
9.059302773640683
14.756493750738143
11.114533247134345
6.03075975631363
5.730651073555696
8.01229630670396
7.296233009227705
5.606574952708694
7.539870021274911
12.079383122116186
14.145629586172388
11.377935509093652
6.729093183810602
3.488808985231088
-1.4088305512984498
-10.561379027693043
-17.671550344778368
-17.105672797229936
-10.029277875299028
-0.6721026016765138
8.212329081999968
14.81162802432371
19.005663337544927
21.957324319331626
23.029299824366785
22.098318573097476
19.181745351518877
14.813180439139558
9.123377858408677
2.833733324458522
-0.22640596035019966
2.0196994150856
7.391853251844195
12.576119554131534
17.25656178777041
23.417990405909205
30.34678434599907
33.893870240997074
32.50829734386452
27.21946882271453
20.58525459868892
16.576646119281698
12.781461127582975
4.131922710058835
-6.144496586128437
-8.35264710255632
-1.5070740773212734
3.0026278325217373
-0.9143218077625272
-6.3677051771010795
-3.8712341662592764
5.445184791424592
10.1135333644319
4.022186920394867
-3.1230582921671086
-0.06934502472417411
8.29071358312259
7.71802955709522
-5.842522192891821
-19.00170451304926
-19.690371592617673
-12.23018828690519
-8.47344610033038
-11.616503862978464
-13.523306837244627
-7.763185972480643
2.2655858117404786
9.206381751090197
11.010352744743454
12.531975508613412
17.389793189866246
20.966425832538505
16.85017592730888
6.936152302824266
0.46267743032416725
1.1024598140143003
3.3105528525438603
2.0533434546824743
0.07039019903579058
2.4606876127022357
8.356706806889061
13.721256135627554
15.326319471081739
13.88336809133339
12.871426507784337
12.036619585361667
7.596425425622821
0.24303928420851226
-3.2680985719166404
0.4964703120169724
6.943638162914478
9.38368240075844
7.130581435265911
5.787744891944603
8.554195645497689
11.426526712591738
8.477468996915876
1.4320300214832267
-3.8609601471508843
-6.745011251293005
-9.567729204198477
-13.328083651935541
-14.45274863098555
-7.727007312394916
5.538872582209769
17.537800503020634
23.723839722622362
27.181907821500342
32.35768132914598
38.94237930456348
41.80925036701498
37.334397508360645
29.832044117931275
25.890606966529436
25.57332170401243
23.385298154144927
16.157185676326243
8.200814248642017
5.936154087483329
9.926365214162189
13.040692387344615
10.305272986425928
5.577302900915914
5.425993795893371
10.040829565618958
13.240891433915019
11.574343023496596
6.0966745565152625
-2.3152468409404645
-12.627691638199146
-21.52087883795343
-26.392664573228828
-27.092017821465735
-23.382903394118706
-14.737764828278253
-4.019136742608082
6.868796516353852
17.376436971697128
22.728226665252464
19.49361176003915
11.151773566267865
4.187015324403829
0.7759667953778623
-0.5972570678501345
-2.9465818795044694
-7.786566707890841
-10.582952585623993
-7.5667503713316755
-2.5796333818528288
0.2832835651862977
3.2839678030598907
8.941907742467638
14.942036915814429
18.22547899647747
18.495201115838874
17.632921856464943
17.116269648269775
14.94763770467128
9.583226816678273
4.533743956679254
2.209088640126084
0.025135430683738098
-6.627377703944354
-19.220371595807908
-31.711751071146992
-36.39732644885303
-32.01797677866123
-23.40085362148656
-16.20080153630061
-13.201023125393
-12.552381547981463
-11.04280923670797
-7.972515047143326
-5.185865046464171
-3.6241629373034687
-0.7700064526415424
6.000285384837722
14.4618545172888
17.120704594200365
11.368547990495449
2.1973960633634433
-5.616272652483247
-11.784736326043264
-18.222788184126966
-22.05882008963984
-20.119829504139705
-15.598809808000256
-11.736406030326354
-8.407970328425915
-5.579756063636458
-4.157857028027728
-3.799182007140209
-1.409465390334364
5.11158328378983
13.22787888639843
19.298949025067188
21.95103978997689
24.12291827740431
26.991846904504634
26.78975286928607
22.08894163973626
17.054645689334293
19.460930995335765
29.286652395768016
36.55142376636078
34.5280970630994
27.326267702444213
21.861829253670336
18.65184212638344
11.104402445919824
-4.45208207463632
-21.282941382909936
-30.725865384892177
-28.703555264894746
-19.096404594527367
-8.583529494979613
3.6960646558421852
22.075328190656958
42.55586487933628
53.835601079258986
49.484418318558184
34.77203682027311
22.327299699807586
17.223669192717235
11.261009464691334
-1.5944459040388246
-13.148862529924097
-10.832213277833134
1.4549591789734369
9.069775929557897
5.2437500291669
-1.8698796229424934
0.0874371080099866
3.9266634007852073
-1.416090226034454
-13.170189068706888
-21.022362031939515
-18.04488668679001
-14.272837025839797
-18.879305399149096
-27.511327830470186
-32.417246783410434
-28.723831206132054
-21.152959051063238
-17.834294283498515
-17.949311593662728
-18.219401711452505
-21.412095346884172
-25.163394488823226
-22.168784854820988
-14.38788543157964
-10.219837166245853
-9.86126598090984
-7.789349896029388
-3.709478190724655
-0.08683702650372833
2.013669981008833
4.0574485786242045
4.066401910536344
-1.3995432453500758
-11.74743084879143
-22.76276878545198
-26.121004956448704
-16.723227475671795
-1.6202296728330436
3.684553803450476
-2.493089511795708
-5.314932293243352
2.985015552688849
14.530574628240975
16.722969541620966
7.292063202361897
-0.984398498441101
2.170366434873347
8.906826287633773
8.070550747592165
2.435012687633487
1.8248340267360526
4.757277687045561
2.7519202834761334
-5.591833086946936
-15.07641607191485
-18.639010258858768
-14.630068281248338
-10.408221602027362
-10.720837072461359
-9.168627494653657
-2.519844278199813
-0.811290470704313
-12.994895824966832
-31.8394353278363
-43.05435048517116
-41.64249631900405
-34.948357418786955
-30.565720516763037
-28.917567173339563
-23.031318552865855
-8.076112250058314
7.968282217267174
16.348452453358497
18.17593846465885
19.795102467405417
22.333160658052417
21.94563559601986
16.767079488780446
8.64073328913139
1.2821220403932962
-3.11348151628793
-5.5821498253230795
-8.776666243221035
-12.261070756324553
-12.544504525419972
-8.176785590459687
-2.243118964089028
0.7947342999409664
0.4893321510517994
0.8520848532543693
6.54119892661957
15.758943690874256
19.94164216377522
14.829778410975898
5.216838899726182
-0.9386616423610186
-1.1387895331138562
0.028097701398119724
-3.740454477703351
-11.427032369366573
-16.251969000478926
-15.134227565480037
-9.705259044672353
-5.463313422525669
-5.6099261793138675
-8.737493572540835
-11.400802243385892
-9.553076397809765
-2.9639627410466654
3.618366990256119
7.014634748081181
10.639612533224465
18.365322822889905
27.553756656106625
30.425364089476336
26.979821601911944
26.321396982025547
30.35248024785835
32.28941032922684
28.012693561897823
23.17749466289737
25.797157023583402
31.843480365837248
30.7276319131331
20.382798957430676
7.207430628300979
-3.471424009250375
-11.494006557486781
-17.687763678786517
-20.29667557574599
-16.463854025297987
-5.4277121877502905
6.283810350967225
8.6757073745785
2.969215208443829
-0.9160310865595331
0.009275638344293086
0.3723582403783776
-4.332323116848272
-15.360813755409252
-29.825421396010306
-41.22716203102189
-44.39686489908553
-38.496791436111494
-29.73970610547267
-20.347370935163365
-8.598427385222067
4.278991319528116
17.2214451754765
27.581904653314968
34.89012278504702
36.68391026236521
27.893444237088485
11.00050275428466
-4.878378136941829
-15.504472822694995
-24.00518952222508
-32.82312372348974
-39.89644581061689
-37.325600115116934
-24.0363307403885
-14.783864806446088
-16.92984633419196
-20.87997199898747
-16.200447932384545
-4.448393378822636
2.318952676022604
-2.2874268543263
-12.006743832940092
-14.665603266286396
-6.946777717315112
1.6779640592983966
2.6569585958738737
-0.9859672262455662
-2.363103131246656
-1.6657046434769471
-4.874217270823914
-15.6454424763015
-27.023579643210322
-29.232316680224223
-27.151332988031008
-31.980014982762782
-42.40032863533457
-47.954077289183616
-40.13481941684421
-22.62259163688531
-5.277639217875708
7.760815729132374
16.798974421525525
24.421471390581413
32.82602530786364
42.48071143868348
49.91651705002647
48.714250159005424
37.263482388561485
22.775694701223696
12.258445290030062
4.774910187197149
-4.076311405457539
-16.810655132875564
-29.883934601670894
-36.234238515251484
-26.825544557136826
-5.311007471584085
12.15049766910435
20.54095977539152
27.727922597668975
41.245693688095784
51.40685284535567
44.837935087525764
29.906526350149942
23.14705785504653
23.281461570120566
19.85802928082142
4.61593174091907
-20.665312916693047
-39.79632288116533
-45.07741764564915
-40.802267923517114
-32.8211037782312
-21.980380009390977
-5.3170555956446
14.264072950438397
29.701813900359088
34.42800797387507
28.091336008580598
17.307621853905236
6.967590826943679
-0.9456822881073612
-8.499322631557229
-19.623936830695563
-31.30367246518352
-38.088044275030136
-38.512250050268946
-34.28120614602268
-30.451069193782097
-26.598653128555615
-15.249691156016162
0.8551725976532606
12.995024703964397
18.631800010741276
19.134971095558644
18.40471157473613
19.261176951090302
17.86757110931051
9.67902319556053
1.7323619969953648
3.90590955627338
10.823054074549031
6.93476079437523
-7.862330564728719
-19.724403157339264
-25.456794602766088
-27.382539434870907
-26.092227274654334
-23.912717399880105
-19.51807128495248
-13.382561648774775
-11.321746392615545
-14.084215001595647
-14.826564978613215
-11.910360829616938
-14.271840498648018
-26.905959810370902
-42.90278438814536
-53.20696769594978
-56.32242368292176
-56.37509607567415
-58.05993125490174
-58.43615489520417
-51.08217796788385
-39.07690714182169
-27.26731792806357
-17.59287705505165
-13.4501806895817
-14.100711920081906
-15.738569247185374
-15.921720894496707
-13.63304274889757
-11.895137072419109
-12.03738603876225
-12.676643193688474
-11.011114789983042
-6.9748904979333295
-5.228793992009955
-5.855645699349822
-7.046213053170601
-7.384408261457673
-7.687068067726621
-10.616213927895993
-13.163113717167452
-10.549819440546576
-3.179900172355659
3.170087178270829
0.9991110871674367
-7.843585940126705
-12.944795531563122
-13.507381972741364
-14.570587776485644
-15.936484844816489
-17.731825152856473
-18.655977038090814
-13.518189791368771
-2.476104136498188
9.161803630390185
19.130511049574014
26.772361116634613
29.192888555551885
24.3503457289183
15.247785176326463
7.593978564359544
4.076049915448105
1.8684950459805827
-2.8891227387519143
-11.965800017995804
-20.981873164166437
-22.62351515454936
-20.902349026916262
-23.610817464412545
-29.302704422710963
-32.64167259723851
-29.22085092793897
-20.49476149316395
-14.031420887309043
-14.099453289526263
-17.818756349104962
-20.287763074537143
-20.60959649678029
-20.173528467515048
-16.755891789353942
-6.823283445056654
6.7640648830129
16.60849907700763
20.385298828723535
25.06104331208049
36.36672810868759
48.53859822261752
51.667419939457865
42.478137645407145
26.25201211045083
13.995704899454255
10.799129583060331
11.307537412775412
8.681227537316362
5.473271582462212
11.42575769542359
23.548268480890414
30.360341462464376
29.581655743196716
27.70515049058955
29.25347090865937
32.702851194864486
35.582844738077114
37.97908166424892
39.999137461231406
42.32459492451884
44.451027466890416
39.6471276119423
26.250212441363274
11.941727442349194
2.0813231235906406
-3.363544225000296
-3.242285126016947
1.120885971898869
2.5035533293025054
-1.0206106056448163
-3.966110694758228
-5.065795671106148
-8.567351127031985
-14.677760921367879
-19.792501431120805
-25.21066249961855
-32.61875394668604
-39.385796836959166
-44.4172561769357
-47.39180633717134
-48.34863618713053
-50.92396058982711
-55.48570195552361
-58.49965654849172
-58.14743781461296
-55.060840815919924
-53.57545904259222
-52.166355291779645
-45.74036315737895
-34.05940899883458
-20.73348655315598
-9.287530472688259
-0.28805127789932206
7.361157665315537
13.51114622736346
16.266865210635927
16.53717590595466
14.738576321425963
11.704496297724742
7.640035831546038
1.9338507062832124
-2.8883371496513313
-5.153417633439356
-5.474106215590383
-5.696936910314683
-5.754008637843702
-6.047112252810778
-7.609840555641909
-8.603185603401755
-8.346250586572587
-8.375242770150857
-7.61472531163996
-2.3486810128039
6.651561310523458
14.077955329840048
17.4482878454841
17.338224772226948
11.400404081977324
-1.4767920121965386
-15.556473663402892
-24.616380906732314
-26.84599986137802
-23.440653572755682
-19.401408018468203
-17.5974947526157
-15.209750894587556
-9.149761202452677
-0.4773484372102316
2.3754686127873517
-5.398827636820013
-15.540088058142372
-18.010644593339517
-13.772588525362188
-11.069128367357914
-16.016601037793436
-24.89727134014974
-24.851237201241567
-12.477698739607197
-0.40704727455288214
3.0067240870382195
1.6090988597290135
1.905988666378279
3.6778735259697974
0.12337683909074655
-9.77777388937558
-17.436008972165983
-16.381964221009884
-10.076409443543236
-4.477764239801694
-0.3909716441528758
2.922234741995928
4.410756451341038
6.504973204745974
8.579750520744089
5.2694246276930246
-1.5405527004425952
-8.433642982486699
-15.469835642849807
-20.391445641213515
-22.2628700704096
-22.78234875636164
-23.348819348244643
-23.42351564349938
-20.915685839895797
-16.21172104580525
-9.723791680719362
-0.722796971868249
7.213806102949912
9.73013285055014
8.341777780479106
6.587404371956226
6.653823116161346
9.716980478152895
12.870883037816936
12.093415448236145
7.911065572931186
1.4469224060684702
-4.588312303949848
-5.385555156010692
-2.8999731927448136
-2.1929451016741193
-1.4965075461011323
1.8130341998124315
6.6451211556623235
9.869947490860463
10.99539884201753
12.950388186382954
14.469876139357421
12.070824513573593
6.954757724184948
5.129033385782095
9.644258790209664
16.868823712291714
19.17287504491963
12.184576538688393
2.513882529641225
-1.4772432248833782
-0.06511016872235478
2.419326758491369
0.8547422568558625
-3.418009710888907
-5.214454398146651
-5.957462644816445
-8.687893428407522
-11.328076949630114
-8.527650454801856
-0.1409451850662002
9.046857689974736
16.87408721719998
26.191695274540212
38.479385248581316
48.0790154994777
47.39318688721259
36.22634470901359
23.6692234196022
17.632153194814393
15.831834041305612
11.542846618607534
2.1886649944573753
-7.839425104477135
-10.950087499939613
-6.306903900190868
-0.1454249745070737
2.8392386297765007
4.333668223297209
8.218115425988652
13.263775636264043
15.808780881665214
14.871733496299314
10.17829014922063
1.7636748539413316
-7.4460191777982105
-14.472575004073297
-18.018691316072335
-17.217950501118594
-15.703000951436493
-18.168473287415868
-23.25312804388839
-25.93778819402694
-23.856566050808734
-19.63987914046033
-16.319577441688644
-14.150001929418758
-11.012869574055404
-5.243065122174816
1.8735611287943053
5.829727626036031
5.1049597749939695
4.955046574195877
9.45330203963252
15.101298965152857
16.97897395643242
17.29473662536032
21.68924527111638
30.793331988873863
38.069118735927404
38.72807119499966
35.87620719759732
36.21276526580364
42.266838804128454
48.147424986653775
46.894020484189284
36.99206747930394
22.499680025441634
9.481180849742211
-0.23443605142046883
-5.110051314880998
-4.303097619380419
-0.26783998197148634
5.6108856128213285
10.183915456201715
11.618730071341512
12.485883806677904
14.371021920619837
14.930743315033824
10.80322721731224
3.6429846737521
-1.2515874567031025
-1.5976631661005951
0.9738980489293151
4.210812881685937
6.824767819178014
7.767381039071042
6.967075783922982
4.549810956251624
2.0728119865784524
2.5525334637612613
5.100570034935422
6.940298685033098
6.5820265219161405
6.138298667756623
9.898978024111411
16.905093222123366
21.999759858116718
21.0494827096457
13.982226683144615
4.160431391675572
-5.4323523988461595
-13.034401161778067
-19.54562287535453
-23.98866632588562
-22.951396629842638
-16.257244713055673
-5.956708565803623
4.086747282697079
12.214373078772182
20.39407050763121
27.709920969186836
31.345020329845262
33.11600206733041
35.46839786358119
36.38666918598318
32.97683076360932
27.007498048449033
24.269172421389133
26.61819614686764
30.130797591108152
33.01511335148581
36.90573231573094
40.85535292115
42.080300932056986
39.56412210411179
35.43271365177892
32.90563030202619
32.00837831137522
30.053765936748594
26.450722867876127
22.670314038563323
20.67722656861877
20.851340398585535
21.20674355275651
20.40386503767196
17.639737480293658
13.859378372852891
11.112833431794943
8.718438289193301
4.484304841317572
-1.3056158801511955
-6.445834567748131
-9.035289291980108
-8.671146360825862
-7.576633069044103
-7.600550038361096
-6.474020076019428
-1.133641321287285
6.237422211960089
9.086613236785327
5.663183628811365
1.3176922960395885
-0.04933609424353572
0.23782351523312542
-2.484663724655412
-10.05715821577103
-17.1141904950274
-17.592067759544044
-13.68539867511445
-11.291310548158359
-10.988433684612794
-9.03264768115299
-2.3729993217962795
6.2997091483804875
11.828264741517929
14.067269314491803
16.22087576513243
19.87339802475653
23.683571148493197
25.255063117516336
23.394884059953277
18.946605708060847
14.806041093860614
