AAD_Filtered_TADAS_FILE
AAD_BASELINE_CORRECTION: BASELINE REMOVED
AAD_FILTER_TYPE: BUTTERWORTH
AAD_FILTER_ORDER: 1
AAD_LOW_CUT_FREQUENCY_HZ: 0.025
AAD_HIGH_CUT_FREQUENCY_HZ: 40.0
EVENT_NAME: 202302060117
EVENT_ID: 13194
EVENT_DATE_YYYYMMDD: 2023/02/06
EVENT_TIME_HHMMSS: 01:17:32.00000
EVENT_LATITUDE_DEGREE: 37.288
EVENT_LONGITUDE_DEGREE: 37.043
EVENT_DEPTH_KM: 8.6
HYPOCENTER_REFERENCE: AFAD
MAGNITUDE_W: 7.7
MAGNITUDE_W_REFERENCE: AFAD
MAGNITUDE_L: 
MAGNITUDE_L_REFERENCE: 
FOCAL_MECHANISM: 
NETWORK: TK
STATION_CODE: 4632
STATION_NAME: 
STATION_LATITUDE_DEGREE: 37.256028
STATION_LONGITUDE_DEGREE: 36.773694
STATION_ELEVATION_M: 507.0
LOCATION: Kahramanmaras_Pazarck_Turkiye
SENSOR_DEPTH_M: 
VS30_M/S: 428
SITE_CLASSIFICATION_EC8: B
MORPHOLOGIC_CLASSIFICATION: 
EPICENTRAL_DISTANCE_KM: 24.09
EARTHQUAKE_BACKAZIMUTH_DEGREE: 
DATE_TIME_FIRST_SAMPLE_YYYYMMDD_HHMMSS: 2023/02/06 01:17:06.4080940
DATE_TIME_FIRST_SAMPLE_PRECISION: millisecond
SAMPLING_INTERVAL_S: 0.01
NDATA: 5332
DURATION_S: 
STREAM: HNE
UNITS: cm/s^2
INSTRUMENT: sensor = ACEBOX/SARA | digitizer = 
INSTRUMENT_ANALOG/DIGITAL: 
INSTRUMENTAL_FREQUENCY_HZ: 
INSTRUMENTAL_DAMPING: 
FULL_SCALE_G: 
N_BIT_DIGITAL_CONVERTER: 
PGA_CM/S^2: 299.249
TIME_PGA_S: 
BASELINE_CORRECTION: BASELINE REMOVED
FILTER_TYPE: BUTTERWORTH
FILTER_ORDER: 
LOW_CUT_FREQUENCY_HZ: 
HIGH_CUT_FREQUENCY_HZ: 
LATE/NORMAL_TRIGGERED: 
DATABASE_VERSION: 
HEADER_FORMAT: DYNA 1.2
DATA_TYPE: Acceleration
PROCESSING: Automatic Paolucci et al., 2011
DATA_TIMESTAMP_YYYYMMDD_HHMMSS: 
DATA_LICENSE: U (unknown license)
DATA_CITATION: Turkish Accelerometric Archive v 1.0 - Disaster And Emergency Management Presidency, Earthquake Department
DATA_CREATOR: AFAD
ORIGINAL_DATA_MEDIATOR_CITATION: : AFAD - Disaster And Emergency Management Presidency
ORIGINAL_DATA_MEDIATOR: AFAD PROCESS SERVICE
ORIGINAL_DATA_CREATOR_CITATION: AFAD PROCESS SERVICE
ORIGINAL_DATA_CREATOR: network: TK
USER1: GuestUser
USER2: 
USER3: 
USER4: 
[...]
-9.057945212678971
-8.261013691836451
-4.894725903293222
-3.5473544196706244
-9.651841115995373
-10.177043011284297
-3.8403067348767785
1.8245077276522244
11.481000749511965
23.469531201291918
29.658374621230575
28.914822379775778
19.935435403142282
7.292945639305864
0.44753980456022974
-1.0556985928999907
-2.071912320058139
-6.936309592613567
-14.778737186447028
-15.968643035682781
-10.093284284759424
-6.380347256413197
-3.887729845281722
2.8695633806227487
8.94756203685
7.152461606274302
0.19468442881463477
-5.6158986370609885
-7.082575042613607
-2.8670364003502313
3.5542849954904625
6.576324401960321
4.89170145127303
-1.0406603224968336
-8.088739285576459
-11.487486218740324
-12.469776672772857
-12.723801266669938
-12.18809959578573
-13.783285875832282
-12.77942028096977
-1.853541705773983
10.880867495399773
14.159699321062451
7.745576737142807
-0.4309075552393076
0.7973270910346357
8.193554467663807
7.724697562401749
4.189750434346908
7.17613231598474
9.313057878950843
6.6727554458499165
5.036530530999813
8.225743483628685
10.775138717101271
2.83333160678609
-5.063032104548926
1.2105383491304642
8.245252656784366
5.939015120026849
3.3276864118779645
5.024293691334615
10.038707918670653
12.742972059770205
7.974322885600624
2.8933780054445326
-1.6084700676450767
-9.50787759110574
-7.913905806563954
2.8791625794730322
4.628701231062714
0.5062269700600038
-1.6124652875316712
-2.930357468204095
-1.2152045824083813
-4.038767802936882
-13.782415437011034
-17.853594797681534
-14.579128669663822
-9.116031211386362
-3.300573748474653
2.356123238242341
3.87623845094322
-4.877658732313718
-10.806443940597902
-0.20125618009229077
13.299477065741646
16.691805975692663
11.723307223022402
4.151638839632824
-0.15734051111706215
-2.5591117037146316
-3.091197356706282
5.951670721691817
19.832363617248568
19.22031581037273
2.148780064633627
-13.433968959553207
-21.857047721310906
-24.0328017194099
-15.53353853526229
-3.245002985390229
6.703693953694787
15.202789810525692
13.250579711342283
2.347608339065235
-1.6116983157613487
-2.575162117020872
-11.507748514238623
-16.916770752238826
-5.893067700909635
15.367342112377516
31.32559534075924
25.894961476705323
-0.371272521590372
-20.307289204308706
-14.826890987257768
1.1781574187886934
6.311743191672954
0.6505878351166988
-4.394526425837999
-3.432365659444039
3.2532098775331155
9.384930482983295
5.402996819464956
-7.17161343873374
-19.443066667846807
-24.185661646680185
-14.124650927891247
3.9823062418186708
9.414258748546807
-0.1609140156330905
-4.400491542805951
4.913959276876205
11.16853369093538
3.247694382189866
-7.980732663763243
-10.771687263733742
-4.161293502579924
5.6012920572622065
10.284353163731883
8.5389216167896
0.25045808217467996
-15.27914700066314
-28.792882666971554
-28.982035165251833
-15.393843642132634
-2.4404940565970783
-5.904834825374428
-16.677477516309118
-15.07045156736031
-4.028641491477076
3.1348076773179385
7.230883210591437
12.635527355203442
15.325640748606766
13.041013300851121
3.5855618915799923
-14.436080635094756
-29.09570061629157
-30.916316078056372
-27.519024220443626
-29.759823731099836
-34.58903890035743
-31.564119227273633
-26.657586586278878
-26.91764220037614
-26.596351765715898
-29.48469233158217
-35.10382327416198
-29.83845914181754
-11.794700223673692
9.072503730563872
20.08610694471152
19.301862521738478
19.5999455998531
26.37007007264265
36.14588352715612
46.42374745267566
51.016233953170214
44.57060687853861
32.623649277215925
25.214778260650828
23.695134488188945
25.946892396647684
32.554035658188226
40.185990885571094
41.702293741887225
31.201261793535735
14.165923006283716
2.0268701584864868
-7.5247452865324105
-15.129702057953372
-17.94465587585948
-29.156549284919418
-43.57223667752687
-36.16535646256854
-17.330784127775875
-13.010305171027232
-21.136162471292014
-31.392405271509954
-40.74851857364748
-42.10434766845353
-27.04459227257017
-4.640344910609381
6.530887569379847
7.97629405530772
6.405900088780323
-4.946943873513669
-21.856148829696355
-28.88744644005524
-18.9898702318661
4.907523192226781
27.42199394633113
33.158987634325754
26.08390163725762
19.03453887107423
17.237032141847234
19.25673404941912
21.44061321282427
20.96787663179856
18.672845310592095
19.667878194193268
28.15089363905025
36.93961327113761
35.55710970167607
25.14001975860135
6.121741704466987
-23.41905006378176
-55.2894941546402
-82.55810716533225
-99.81133331345997
-99.18907290337283
-85.15812870318699
-63.10500228150557
-28.981590976987775
8.56923165811259
34.900667780416
52.704712321004806
65.74592484610754
71.27260220555604
70.81846014085264
54.726895293940274
19.41215595471591
-3.841339461582122
6.85738383444273
36.15418512834378
56.19531730473113
44.8935523734645
12.600780962717044
-4.176419659948484
4.370093806067006
12.854531300872278
5.252694517273775
-8.40558360600913
-23.181045666870666
-36.526119520359536
-29.239522936459764
-2.100689054997198
19.544696631569373
24.161380882135102
16.135545620064352
7.549226972881168
-0.9807146043273716
-20.572819290616064
-38.86335213713066
-43.76615944192409
-48.88902721603727
-59.15494230481809
-73.34275105231984
-91.24344498440647
-93.7693170662748
-73.62912477228627
-50.61411574544652
-30.239106441740887
-6.613825793266216
14.609537172764995
28.02611484964346
27.40617125822697
13.054190621723798
5.537833720665943
13.191422413288327
22.705789825148045
26.51044985894188
26.007016226729775
31.250026255396147
44.99471485639714
48.6096710552522
33.43444322334865
14.616804649194938
6.64879366954614
4.268924007452761
-1.6872032106183226
-2.807032874705787
2.5202366064785924
6.674736938719985
9.840665089336227
1.575014449370016
-22.313493334721137
-43.93623563986952
-47.46276558253845
-28.29842782447883
0.7870811257994015
31.156025385318454
60.42487430476494
61.15461481122801
30.322628169856273
-3.715611037811184
-42.229065131603754
-78.82210771253395
-90.41391789805917
-81.84523241129624
-59.95994785633908
-31.769387884415536
-14.320531943484607
-9.467741176960892
-14.867590110774865
-31.047887158554776
-50.56331803347868
-59.02980363954719
-45.26428766808584
-19.85632095547994
3.1100739252273906
24.187308823973257
42.29938755462634
53.326474172166726
53.97086307507617
49.40712308984268
42.21252464474607
28.496908116493056
27.436805155330973
35.256240238488125
17.11890109396748
-12.179985097882591
-21.62341071133748
-8.368154875260263
21.617848015347484
46.27128475629004
52.650775902127315
43.20193243595032
20.914208542060994
6.676430173751155
8.475962408213448
10.01208575290673
3.223443117801451
-17.608723062017663
-48.19476470898494
-68.62878911269682
-66.40804671001686
-37.3325493319584
2.3788837825595586
18.253985193009157
8.797451630405952
1.3918357277075166
3.5581342478305165
7.204489087362579
7.328139016190452
6.917976318901967
18.96398361408144
39.909403323360216
47.696044000297114
41.467404845113954
34.17526129203909
32.451571092992936
41.895011758757924
44.09273862036935
13.421052719760821
-32.28812720038616
-64.357190825442
-74.97247396640807
-55.77641232487383
-17.170373086807764
8.070179619013746
10.747703931131943
-2.249794451632244
-24.35847191812313
-30.174295992012095
-11.111118066880671
3.0738177499975285
-0.5179749493456736
-10.656284996241565
-21.732269256207974
-29.200942827169197
-30.067788935340804
-21.78957486854467
-1.9300743083386775
20.96620680591927
39.593500421721515
48.98050176965978
40.346098687537214
23.131797904854537
13.520052215210415
2.7242069799379824
-22.371569356016703
-44.96999540799388
-39.00779597408699
-9.660672899074083
22.081648690034108
41.392331064734385
36.63676469368001
15.66546526107224
-0.7487201778028023
-0.9678207591600547
10.700279258579377
18.51372570450772
22.87887319048794
28.253485566366734
28.37541117470497
23.043977207515418
2.623820261036447
-27.25808626680202
-38.78557991264264
-40.7682688607931
-45.85801909625793
-36.67109318254277
-6.82327115493721
33.34996460347045
57.89722545050865
44.65628389990453
13.32234946879712
-0.6048847891501327
10.961443128359253
25.165657920876374
20.03885586174564
-4.441085663988732
-38.2547403177965
-54.41008539934312
-32.4397954211673
0.28989902497698256
14.976891639344617
14.936386294667464
2.7153019286376767
-14.466576852137342
-15.39684421925297
-2.902959725207469
-2.845824559364042
-16.562774417564217
-27.675921381853342
-25.212436076647723
-3.7007167842708895
2.525627844730459
-40.52586058857507
-82.2552203358154
-72.27923553643356
-43.31540929353692
-26.078651959535843
-12.56804618831461
-7.995586934974993
-19.61593089633322
-25.056567619926476
-10.825220837852413
-4.60019969526929
-18.1104778365325
-24.639194847813133
-23.842204134913676
-25.473705223289482
-17.000574822818884
-10.900189437238241
-12.024446735048162
3.8739850864229566
25.17057802475588
30.696003605853463
26.781593931707246
23.897871174720663
25.81031823346044
21.600102084114088
12.350589209700011
16.30344930578101
35.24687034038832
62.45463962330076
82.79585871484028
75.63505572607374
39.39465758871163
-8.879715329150132
-44.93777110520831
-57.564771242752975
-52.44229301741006
-38.64233248587017
-25.391536319739966
-12.11789427677718
7.990156718366799
29.18274108040903
35.359941248061794
27.67927024062263
22.671262472157682
12.20500297836877
-15.743324016204355
-42.67599162152167
-52.38300360316104
-42.21300442089611
-8.730246676865038
39.733429029442455
77.07293733666071
86.42484019102172
77.59873475444058
51.38622833128821
2.5101515798470633
-31.817586887764378
-20.836133492581606
4.207355690243488
10.104457877135426
4.81665489457715
10.288151661123104
34.12772430106875
60.35938009996763
74.8385135121235
78.63050099419398
63.00399479400403
24.85089595648312
-5.096696428713178
-0.7961721127367023
13.274856576910363
-5.158848692293405
-46.41944379542196
-61.70490959079001
-36.322059164115444
-3.2013699115393086
4.3295747003665035
-5.196871704990896
-7.434554101658167
-7.0806331858036735
-3.442848950394079
16.54030536045277
36.66939108049352
43.80277897164096
47.829023905851194
52.71973212177228
64.58375090989898
86.74730030007436
97.17307210499132
74.00242476359196
30.20723730820013
-4.349973768359343
-19.78415119409808
-17.313495598981167
5.18331531269475
33.40295460119922
44.735278871755995
43.67831895781204
53.22287531607714
72.17171650540168
75.68072818196197
59.40186095370374
39.92460917124018
25.915862464310397
24.931934559884205
36.8339444857002
42.29937761404991
34.62739531959725
24.5754631220195
19.216494834376864
17.45881093215294
3.092476114937986
-27.00157600340913
-45.63293365981223
-41.12155494659486
-23.343746647316788
-3.228465405483541
5.6719177088421375
7.479543437261611
16.625874496321714
29.10022429192762
37.03616770774757
36.04582664172215
18.75256597622027
-14.979321169538837
-55.68124507251911
-89.02833428667033
-108.4644261489556
-120.57432481524395
-127.17026039054039
-132.66318934932988
-151.2797716176163
-182.89983398078613
-217.66013617646357
-235.94182537246567
-206.8237587862919
-148.02583579430149
-120.23629239851161
-132.66246448924977
-141.62610358366348
-121.74618922573293
-78.7105924564935
-25.661992692962993
24.247657689819547
66.0762782250202
99.24551078061276
104.53740011303537
76.78490171589662
51.123091144130356
43.011379898797834
41.642077778133235
45.83983990702201
49.00837409205362
48.230719051575115
56.356459420229896
86.39522933253198
123.71473055514501
128.7912654220003
115.41730978606174
116.4903597428707
106.61904935548178
86.54920377018874
79.30653250877903
62.36749099965942
35.11936496040189
28.465967971451462
47.534108590452696
69.09160906135136
69.76439337036184
57.0850024448927
53.37697736604269
59.23389961489107
47.61960340398962
0.6357322486269066
-61.782044578763134
-119.05609639344216
-154.7345501924462
-144.04368200414547
-95.14466393972
-50.373868764734404
-43.90222112094308
-61.490144072079595
-50.8186309858106
2.301719810385488
68.06119993398931
123.07012828458289
150.00241407256044
149.43583825583787
157.3776555267347
193.59621636651792
230.90023311759452
244.45053839793562
236.41620447076755
218.547518475976
205.48583269185767
200.09808274134673
194.8635311309268
193.94637932850227
198.9823187208923
197.2786930241617
186.7288691189867
173.88495757119335
146.64050147134395
86.2544308092472
6.704256864379499
-43.293241918610335
-36.730520409873165
-9.194541233697747
-12.201600592455149
-51.59784677208204
-96.69858883688555
-121.19111317527084
-117.8449138464719
-89.90406886573084
-50.827553869261806
-25.45322690394604
-23.22154749017235
-18.35993340694713
10.371431634024127
36.01525356689096
25.469733958200695
-9.373672857195949
-50.01969778927652
-101.91683914066307
-159.89757999355803
-209.86765936607776
-259.1492981271108
-298.2598211355518
-287.9739706314618
-243.70676823690772
-216.26834727320477
-193.59617915700574
-155.54578374024965
-132.58782747091718
-141.5951714635337
-162.4163039975595
-172.58670960468524
-170.44928311424988
-163.789357524252
-148.1771019667708
-127.54429432820972
-115.86038853982677
-107.68324080555121
-92.30242024227492
-78.75599946340077
-80.10641804506417
-92.95549661441767
-106.32322459896419
-109.89135649680976
-109.00844463398002
-128.536603641847
-156.40454679951364
-149.72679818003536
-111.64374372164862
-71.51856357909682
-29.830832522034513
16.358072454091154
42.00972978834241
45.74378599730919
65.96998787319703
86.21117899263287
63.206143175213484
24.722580292001393
-7.0936322669258285
-49.85745064540737
-86.33808651235458
-102.5955153227216
-112.58650591149016
-100.21270212803667
-61.72184421760679
-44.6542355417836
-58.30452545769856
-64.12046219818873
-60.70577030172927
-60.99887025185694
-50.30751542770794
-28.829625865358903
-15.853422641981556
-11.030343096157054
-2.491531479791698
11.550683446928389
30.236410318634796
55.76561671299447
84.24685615514322
103.57914520599837
106.91623064895442
105.02241207282943
112.55887264246589
123.56514621620595
124.00513136260771
120.28627535905245
124.25786603382714
128.60989378830408
121.5298469362424
107.63973698911467
102.87449898149342
112.54973699179068
131.02450979279755
158.26421331879993
187.16051972819733
202.54739199733234
205.10368409421838
204.7997812524983
206.4949631489781
201.03779733702387
175.47542179139913
143.91515021838248
116.48006602133812
79.75609712040867
49.84443453374598
47.03996542715685
53.831788981241914
68.7655802054545
98.8012634018383
114.10894417709662
100.03371196377948
76.48148025566113
57.16310340671807
57.9295134819701
87.1795335119295
121.59461509719448
136.83679600412557
124.11808780850762
92.11085166373769
65.48276407199745
50.783028449968924
37.947135795751734
23.986804546879082
11.526334675920694
9.344758634666626
15.722060154434377
16.011666211012376
9.63054389217014
-0.005667258362241152
-15.42348883266489
-31.837680220940584
-46.93758472538328
-64.76134645626097
-84.15520821895326
-98.4206800303643
-96.03984943314262
-71.45666875308288
-39.52680256027893
-23.071308228187075
-33.072988008233885
-61.910137196769526
-87.37373872642121
-93.21572536976133
-83.31200570581196
-71.75040959785852
-74.25262284685523
-96.98592479979021
-124.77808592281929
-152.45791289869692
-197.99379976756597
-247.33322740738933
-262.8381272033272
-249.15280814544687
-226.25061346878041
-187.32280272191446
-134.6412513641852
-95.22026653122332
-86.10656635462539
-95.06267427660424
-99.45458055199003
-102.29022878223985
-124.49230987563756
-151.0174617774924
-146.30926611493328
-121.21360221283483
-102.40829624235155
-77.84247030376078
-40.68150310465656
-15.133730647645708
-7.001854726893874
3.8716187408074574
26.745037209703266
59.25624789441281
92.8751022630466
112.70335363586092
120.73231833307176
129.7746052655291
135.85257092812176
120.38048325371409
65.19368942812604
-22.810919515868235
-100.17075202392735
-117.78990828671655
-79.14769598542836
-52.4745768407555
-77.65572625268209
-117.51309121926838
-131.2200975452651
-109.74412055616392
-62.69612704537986
-19.16632804339012
0.11812019935977763
8.3929824007696
21.533689967425353
28.48986418309818
20.014209675573326
8.983194069669919
10.75634723433356
34.432750883588895
79.04623591216365
130.23885922476944
159.96708404554664
142.4805197431703
97.49677826292843
71.29060279729944
70.6610158924218
68.72190190027509
56.598003736057656
52.40954134383661
59.645737286628886
66.12204783364528
80.2962555642157
103.6936535651749
120.09103671033935
134.1451121991982
155.08612925648518
173.11115419330758
171.5421633205066
144.94762024581956
114.72260392709745
110.9504552784534
137.1130812009932
160.50427159221508
153.6362260315093
138.45915892783614
145.5972660441498
169.8615148736272
192.2997804040586
200.63815120654044
190.9133155588186
164.8700333522825
140.31798095357976
143.11834700585595
157.95536817757397
144.24903649168138
98.74489809895275
42.380744320142824
-19.13269292915771
-80.82864801920775
-115.85113307242042
-109.70193269177987
-87.91619818527765
-67.4185990639922
-37.84127805797077
-4.1903932253112295
20.177748870660256
33.94583686720693
31.874505648049436
13.59464296790816
-10.26251529335123
-36.49043989337042
-65.56366880609926
-94.5624980693703
-122.40569434319869
-153.24347601072134
-182.92458791360792
-186.43608123590752
-160.1795673540948
-138.85496338459825
-134.8747234014769
-133.41389651612286
-138.22062909207878
-161.75852659658415
-198.05940723937877
-224.684879120793
-224.09904728310488
-205.46815645216802
-193.99827711742842
-203.77730316874434
-227.03728868760965
-239.54118498065617
-226.25621969904813
-196.50920424282432
-168.06647541271482
-155.25805184609172
-155.17876569008396
-147.31071902294292
-127.54436230561281
-109.28388815958442
-98.31634789335715
-92.61933528631153
-82.5127432968075
-59.63958246780559
-32.965456761648774
-15.258965282735337
-8.096476965262466
-2.5480913802674614
12.680286433167762
27.896088866154958
21.277937790696786
1.6605426485267927
-8.634649617850286
-14.538033675230352
-20.649948812300316
-11.709422977941948
11.571623455398868
28.052187878695978
29.63652679057106
25.294520194876522
19.74691241291212
11.460515228790488
6.690867565819592
14.597083021585274
34.55297129315307
62.9636898218229
101.4366263358199
150.7872849910102
198.1242701815682
