AAD_Filtered_TADAS_FILE
AAD_BASELINE_CORRECTION: BASELINE REMOVED
AAD_FILTER_TYPE: BUTTERWORTH
AAD_FILTER_ORDER: 1
AAD_LOW_CUT_FREQUENCY_HZ: 0.025
AAD_HIGH_CUT_FREQUENCY_HZ: 40.0
EVENT_NAME: 202302060117
EVENT_ID: 13194
EVENT_DATE_YYYYMMDD: 2023/02/06
EVENT_TIME_HHMMSS: 01:17:32.00000
EVENT_LATITUDE_DEGREE: 37.288
EVENT_LONGITUDE_DEGREE: 37.043
EVENT_DEPTH_KM: 8.6
HYPOCENTER_REFERENCE: AFAD
MAGNITUDE_W: 7.7
MAGNITUDE_W_REFERENCE: AFAD
MAGNITUDE_L: 
MAGNITUDE_L_REFERENCE: 
FOCAL_MECHANISM: 
NETWORK: TK
STATION_CODE: 2703
STATION_NAME: 
STATION_LATITUDE_DEGREE: 37.058
STATION_LONGITUDE_DEGREE: 37.35
STATION_ELEVATION_M: 840.0
LOCATION: Kahramanmaras_Pazarck_Turkiye
SENSOR_DEPTH_M: 
VS30_M/S: 758
SITE_CLASSIFICATION_EC8: A
MORPHOLOGIC_CLASSIFICATION: 
EPICENTRAL_DISTANCE_KM: 37.34
EARTHQUAKE_BACKAZIMUTH_DEGREE: 
DATE_TIME_FIRST_SAMPLE_YYYYMMDD_HHMMSS: 2023/02/06 01:17:08.6017760
DATE_TIME_FIRST_SAMPLE_PRECISION: millisecond
SAMPLING_INTERVAL_S: 0.01
NDATA: 10501
DURATION_S: 
STREAM: HNN
UNITS: cm/s^2
INSTRUMENT: sensor = CMG-5T/GURALP | digitizer = 
INSTRUMENT_ANALOG/DIGITAL: 
INSTRUMENTAL_FREQUENCY_HZ: 
INSTRUMENTAL_DAMPING: 
FULL_SCALE_G: 
N_BIT_DIGITAL_CONVERTER: 
PGA_CM/S^2: 156.634
TIME_PGA_S: 
BASELINE_CORRECTION: BASELINE REMOVED
FILTER_TYPE: BUTTERWORTH
FILTER_ORDER: 
LOW_CUT_FREQUENCY_HZ: 
HIGH_CUT_FREQUENCY_HZ: 
LATE/NORMAL_TRIGGERED: 
DATABASE_VERSION: 
HEADER_FORMAT: DYNA 1.2
DATA_TYPE: Acceleration
PROCESSING: Automatic Paolucci et al., 2011
DATA_TIMESTAMP_YYYYMMDD_HHMMSS: 
DATA_LICENSE: U (unknown license)
DATA_CITATION: Turkish Accelerometric Archive v 1.0 - Disaster And Emergency Management Presidency, Earthquake Department
DATA_CREATOR: AFAD
ORIGINAL_DATA_MEDIATOR_CITATION: : AFAD - Disaster And Emergency Management Presidency
ORIGINAL_DATA_MEDIATOR: AFAD PROCESS SERVICE
ORIGINAL_DATA_CREATOR_CITATION: AFAD PROCESS SERVICE
ORIGINAL_DATA_CREATOR: network: TK
USER1: GuestUser
USER2: 
USER3: 
USER4: 
[...]
37.56041838979068
35.69200285191898
26.11433915119887
12.84144327314697
18.355668982351286
11.341912561340534
1.4823547433980115
-10.25789374003801
-22.768027388431967
-32.007665535337374
-26.27448179359446
-8.393185708381553
3.1863819773133093
19.216820281335877
23.892819834477883
25.705411416606236
34.10742526251771
13.877484544059667
0.6759673322700974
19.81079578873735
-0.16442865050642919
-17.20277534645136
-4.215411504323536
-32.016423526217366
-41.67002997608983
-9.725245575172343
8.78247454278969
20.78166300229854
27.997566790637258
0.6507823280094591
-8.080764841709826
2.8751956342910026
-10.845463002079619
6.040278940809348
11.059241806224717
-1.1907873702406615
28.943025539650908
41.70325206764984
33.97659419341612
44.82925778725902
42.309192579967764
32.7289977223165
16.891056327095814
-0.5609403859495391
13.048685841073574
12.792934454151201
-24.25203812575803
-54.238280983474844
-60.90632245031722
-61.74057108772608
-57.60846187614846
-25.447274953598075
-1.0980242710342742
-17.224107635009645
-17.87494122750152
1.3867580087902147
17.485128680938583
37.19940180965349
41.29080359422663
44.408384640845384
39.003249946997364
13.540144454576557
18.94776559202763
26.67431890766468
22.90119841622186
40.05731713170965
46.06072362828847
53.48468487143513
67.84136587759795
64.39898818642398
66.47008615953088
64.92948715880905
55.53663472749073
44.75134630336157
20.915882013651604
7.010627001195535
-5.218101672254907
-26.513292815919606
-36.71563726280011
-33.74781047006013
-26.28998944352974
-14.370069180081632
-9.530616708368322
-20.98595340756961
-11.676857188122028
-0.5061460450655019
7.23472514800896
19.626399881159987
15.34689634177385
22.805782914642883
17.63519966406597
13.957703442069747
17.08045111184137
0.868073690055637
1.4277282038512527
2.222416547067506
-12.107174591565432
-16.463864978863246
-21.164341465787984
-15.612445001133457
18.19936006931177
31.963272660760694
20.060240288010316
12.64874226014184
18.872935913362273
24.11731122315448
21.066710351921902
31.479534731841937
29.702398069752174
4.639484265429703
-11.527940596676881
-25.631611171533546
-55.32791756468158
-69.55184186801286
-38.35764232837077
-7.651166990323004
0.3719870534637463
2.613151510069783
2.728124085080564
-1.5088349156570056
-4.78245703047556
11.678092821944631
18.146859561271384
21.501826117410843
35.2334190318279
35.11068498865518
30.478193743898817
26.48922270788865
13.516856248738172
8.09481493696186
12.535623394411358
1.670850151125897
-9.06889503550927
-4.363439654950255
-1.647441015995
-11.436147996117883
-22.093744353147198
-56.88019730577473
-98.50835688875509
-90.94499277453444
-74.48236666643692
-62.51160061131495
-30.69514472211486
-15.782741761198556
-23.79177035587422
-32.26418333443668
-30.257729055399658
-10.464176685184336
1.760736349912787
3.808489532019026
5.619944877484547
-5.109388029542779
-11.212139789905368
-10.127378038721108
-10.85768361576053
-6.106546146942452
-11.544690788515787
-6.805576051958821
12.851457955711714
7.423213615688931
-8.415048022391922
-9.444726526120444
-3.8366574127862947
-16.812329411589396
-32.097909033633385
-6.485229101955216
26.86530802889251
34.212789725865484
27.40478622425316
18.789022038791604
14.744550267065238
2.718065595615809
-3.5136527403995634
0.31008919251004213
3.981065163184489
-0.9290630994718616
-16.715674951080207
-15.735180660076567
-6.512875650860653
1.3015040056646918
5.917940058564545
6.438403396031577
18.25104685652313
19.487945012275457
16.73310924611889
27.99605047686491
27.174433718153125
35.52081662146522
47.26127486189383
37.5898145502064
38.62462291111019
30.33517664322246
0.46154267982073405
-3.2807158030374053
6.484742407766624
-2.6584861673174403
-1.3887344063462497
12.472281691402225
9.801339822604602
0.0025369679198467034
12.181291892722422
24.682358097272743
25.07180049989945
34.26703272941973
35.71539944258651
24.98606384959235
14.000757538367617
4.057422818063847
-10.633535567823047
-9.536875653246323
5.33966433960525
28.685801878586037
36.45683203891886
14.10772841143403
9.817803299876322
-1.689296283261269
-11.595128193414903
-8.372201581367868
-25.24935543512691
-40.98230507180503
-40.10302759568498
-36.64572980618812
-39.47727105605768
-26.47023596908325
-10.258559945089772
-7.722294248377268
-11.935080273928293
-21.105346295385505
-14.352849952188691
-0.189544685556624
-2.630419261552089
-13.048974648122881
-15.311810850576741
-11.356457218452235
-4.678857378621299
10.533513448966538
12.309415436053953
-6.657462209994311
-4.55014423951186
-0.469274028521832
-10.7463595965792
-8.748906872458669
-6.476559498554344
-4.294523524371488
-19.641482154380068
-29.100769229423065
-16.294509912805534
-2.8472611055457238
28.656867532442632
42.95310226589425
28.441222789105314
11.14082231829071
-4.583375904880533
-12.738575306446016
-23.689650466310702
-34.68323168168989
-19.882120772815636
-11.501069762953508
-30.32284022937591
-31.571116505293517
-19.083807728278003
-24.70787790592437
-32.85416847009715
-11.666110913680253
14.644008317456745
37.67821295854073
41.88319453060127
18.027813970795208
9.58580177151153
-0.4643368973678091
-11.2530683891708
-15.599400372114701
-17.521078638955643
-8.176069462544335
-7.390790754948732
-7.437812103574554
1.3269254632817042
2.0190609936682473
4.840944911186308
25.369258520345525
21.96882882935139
-2.3160886584220943
-3.087818680066909
7.804529357993091
24.760355022468865
34.070637764665285
16.662168088803707
-8.295984219230704
-18.980831932254482
-36.101592755005484
-47.20482877295212
-20.764465052952097
-17.96346392999067
-11.279804567018955
44.06475391733622
81.09333204549257
79.73482643634304
71.65684238616535
65.10831653435041
41.947060171295895
7.323061586344827
-27.40487214452076
-24.125941754574878
7.82247398071163
8.132546688274521
-4.310207760632504
5.112020821005643
4.347718969532138
-18.265006203730447
-19.932084435776027
-12.059398550406335
-9.834626183768032
-18.195921774111305
-34.956210216022455
-10.103079619338628
27.305343348747872
31.603198742294456
36.65027389736207
34.9179619444403
13.206218026596918
-5.606768800674435
-32.14004686041042
-54.6519411591904
-32.89397803245162
-4.5644615528555725
2.125479771877364
22.186789430342657
40.25870263723932
43.454244884685934
49.214385038105696
39.38928074601994
21.52191514368436
14.752319304542196
2.389022297191124
-5.76731133084426
-30.688266343029262
-77.64857782779096
-84.52165589039083
-53.09251553392996
-11.966905887016402
13.989384041670146
42.47624022399888
83.54902914414907
71.17096211470307
47.63843709418183
29.432886006458567
5.540672256685088
15.59248257752672
9.798624140741296
-6.282058167749366
-19.86448283053715
-40.68798875154619
-29.34994892359388
-17.914323498661606
-20.168227164280438
-17.157746132785725
-17.85446665763245
-5.105946177088957
0.6506729373169136
7.428449578621506
8.019919357397642
-23.929129514798692
-29.823999225792452
-39.954583957181704
-67.2665474297512
-66.24429446938734
-68.49258224511959
-68.08472403885044
-58.47671063476029
-47.963033014098386
-44.184325843746684
-35.41487882285676
-19.08029343443288
-35.00630211245713
-44.07195952873792
-13.380422656276904
6.880436238190152
11.91297188820811
35.49702951444499
31.120757660144598
11.942231298247412
4.066971427936518
-27.39758143046915
-32.620517312135945
-17.56531001964479
-23.430348084289296
-9.941873083329963
6.473650575234275
10.403623170801158
17.76252418453126
17.430188256952313
14.253971160261996
-11.95188003202546
-28.47659425851336
7.3653108803341745
49.98370746558155
63.484748707141925
38.521466829671425
-4.2353220550883
-10.785182586319303
-0.4854531304494296
-17.888167186150977
-21.644530204036982
-13.846086670313722
-18.445719161955072
-4.344392463165039
-0.11534199119374407
-18.488915961034383
-27.121494267927954
-36.04613045159817
-38.561146750033785
-26.836316452000343
-33.549059780513694
-52.962987479080084
-54.07832297444775
-45.211302055825755
-28.39379634127298
-8.011830436305122
7.556065613992534
25.179742537899468
35.805950368929764
40.76809999980347
41.24629195961864
32.27087941307251
25.83218475223791
11.335120112075925
3.7104617688220065
10.267021103952253
17.334458332040693
34.92125763922749
30.318875741075576
13.7778335022632
6.35855181825639
1.1303508593186322
15.426443489442814
29.070967186134023
15.350908732097324
10.494648335641298
24.617092639807197
16.34221543547775
9.539223882632294
6.403801532316875
-12.939938265195773
-21.764319309284012
-14.45282605763499
-7.415374983169758
-10.138198318127921
3.561312271376635
36.709243308866746
32.15202540455094
24.288152496898423
46.0705143075685
36.89653404358393
23.176432117152352
11.015865628419728
-4.634475993694667
20.702127885178438
37.24449052916224
10.453021070956309
-21.43364828452978
-33.724421682637455
-38.20572626863622
-31.334096865131787
-8.532204661171367
-16.575623303011525
-23.711006911623343
0.3290538645293692
18.112936931102762
14.891296159953983
3.5278883341861462
27.467113568353753
45.37846202954952
21.224219870489247
4.666569792132224
-6.866172254602152
-19.984865668111038
-19.990982131980555
-13.870046497764696
-10.415215376435121
-26.492254984589948
-56.04870784664549
-59.8648356189105
-34.8926118279207
-17.23925744962004
-2.6696488799576024
18.050663150742384
39.05714303389556
28.111312349085924
-1.9000209898507785
0.22337554561594877
-8.055572872936397
-45.9015342545943
-58.32956747932209
-49.96692774477123
-53.39853965296429
-36.08589688321872
2.2126669939008066
24.25699538103503
37.317108315178736
55.38383286755841
43.15134505113619
30.40831027906614
30.08098115143954
13.653294753427998
2.991446706868618
-5.5592159805737476
3.9855335436959183
19.269469479846784
6.527646680783055
-16.738240565157138
-18.84994041200735
-15.903684100127524
-21.522686212976495
-26.26391075574597
-22.679260478745395
-6.2280230319774335
-15.7030473204614
-32.827278102607686
-22.4381932191022
-31.37387538216428
-58.753692573005594
-58.02174562162332
-40.83949594186228
-36.33706845654495
-33.94395449429112
-20.50260933315098
4.7663528955679615
24.76816274946257
40.15301546091963
64.49645694344787
64.38847636230254
48.21760908007802
57.0320899032882
68.31152528638599
62.545166158443976
48.70890922458102
10.365464705294576
-47.48139659145777
-92.38139473630423
-100.29806713708835
-95.93530792385651
-111.32571978345113
-99.29919562036706
-53.547486737595804
-14.724458528113876
8.298975366373076
21.37897940629695
45.02435772960921
54.375783000110985
27.504596464703397
-6.360780950918175
-29.88300334204943
-44.21073899681878
-26.925492843770666
22.633310703704755
48.97202546624702
63.10183828833731
68.92401584772936
46.965156294414705
46.99543033343911
38.75136881361924
15.310116692955399
11.727810205370966
2.4127218251771403
-7.24822365291049
1.3744050193204957
-2.7612659326159363
-27.96747713318279
-26.505398327519046
-33.901131831775146
-53.32091485364401
-37.7734835154854
0.8003050602426691
-0.5582400106795306
-15.250258115705348
7.16559617701507
1.678789435931624
-5.092156664887069
-13.137788324434686
-48.136534761688075
-32.90437598107149
13.10708086901445
8.689450001041347
-8.6559888374727
4.447736457786293
24.100299624600105
45.081502096061705
68.1584921733325
64.78784318737773
22.598507843348873
-6.912317234970006
-7.20577717634815
-29.243551530848826
-57.09528752517961
-56.56813493913519
-55.5275995416271
-44.49597869374108
-29.085103454583603
-26.55022790260384
-19.822519126249627
-14.34742109563631
-1.927008735007982
32.998704093423065
64.24969901509846
84.01915675350752
97.29387971279277
95.03805015056489
103.47534988728383
83.41684315742185
36.1041744995696
1.5608164958321191
-27.787796795863347
-24.247251866273707
12.323343164173785
38.96040028004715
27.798002900918114
34.99607901227588
44.87391005379424
24.48916119766192
19.495598452785373
18.244757108535428
-0.8659170156479186
-14.483577581050024
-16.286743693649907
-27.87916616677627
-10.831801462896069
26.899852986820015
21.748694880502065
-15.781815447054404
-38.26926345943151
-64.10417454080994
-98.21570718638215
-98.45368711627076
-76.41862427057717
-64.5892202460355
-53.812799895442794
-9.994851377275046
-2.035535629249755
-25.097898984508316
8.87320748576214
45.93227612953724
45.65715111031739
54.08474948061066
53.63122261732275
21.142672650351304
1.273179041097039
-21.368310399101183
-32.13773961510913
-23.913913720647848
-56.06089535289597
-69.80997645527823
-48.39820615426505
-67.69760648504509
-70.92124513967308
-42.708494290165994
-26.631100281473593
-9.828396709632251
5.698716307491171
20.540675307544433
-1.8549547317672344
-36.758033494246774
-44.45552730145089
-43.21835658512846
-10.092378633581065
41.38295212952391
90.97867774523402
148.14932092163676
159.9729306976856
104.94287281895042
49.90608583126256
17.251506253350215
-39.212545456741005
-56.56534742991303
-22.466734387916027
-52.547111333181206
-67.80371384434898
-25.691206221157067
-14.282954543223516
-18.043036727470508
-20.092199463904553
-17.157860219430184
7.025602226124076
36.01137394918965
40.16615130438719
10.520058943984406
-21.522722459359922
-17.848595315518555
1.813452762995441
-11.590233363272489
-42.81345553311128
-54.85680644793984
-57.04210327655953
-45.30134270588023
-15.098640367351626
15.072167601205845
41.120757648946395
59.084540606235514
70.23203195968134
62.34590077839984
40.61333478187032
38.22242531056128
52.714420086394135
58.38228672421897
71.53685231717641
108.41613417564272
97.55751751093494
43.52563262463626
15.227404274396298
5.698466209549779
7.456840837320843
15.892718150732868
17.005037693104512
20.40027877115957
14.175867626188333
-1.7272428521791898
-21.8415470886637
-62.289785374528485
-49.656375143001995
-12.724590544014154
-36.29815073663941
-32.2936611354638
-15.951785931760941
-34.05333993887629
-24.568011190674977
-18.66716032109978
-25.32218918979835
-8.740849789439396
13.252143462532667
31.790199312646447
33.386808663633545
10.840337866710916
-8.575019243689878
-12.501501468942841
-26.714784994027433
-63.3525176097162
-85.74966998461062
-72.56440520198235
-45.92250388786966
-6.057947916855706
28.887788170445344
46.451119235685184
41.745561380108384
-14.72606031090539
-58.809249106039
-56.59719249642499
-70.47351396174582
-75.14182661788702
-14.622068753009383
37.484068512681056
43.69457137460248
58.1870114842818
37.88043818749541
-13.527962192924678
-15.541143402149991
-14.036218837033553
-36.494990403792464
-33.371601532296026
-7.299217672378782
21.545254323867876
31.34738719316209
30.717280818141482
11.587965548155028
-36.23667061701752
-67.4168153030751
-53.69200467485513
-55.009422909247014
-83.6557693384952
-61.496762038564
-24.379194341214294
-26.22452900899576
-21.50066745122841
16.921902758154218
42.026095762921734
51.43311246203617
45.87124116969523
44.70375874525778
46.521585693067905
7.390351802758468
-39.268902967347955
-61.31448015388082
-49.842828279992105
-42.864687902765546
-21.80055640100449
7.6186607485399955
-16.12438368062792
-40.78569589119702
-29.440946667423702
-20.28482220982726
-15.923568005793411
-12.529909361745718
-41.57911588021369
-54.59020707944987
-32.48647466283963
-28.434484085506092
-4.325801060028057
13.701170846442764
-5.2710600021584355
2.166509959666526
9.73431020155705
5.524818724550121
31.387072182111822
49.53643799334533
23.09069323321401
22.98188709346772
16.256742259984776
-22.49473411779151
-0.18338457937091468
4.773327739190373
-7.059170872969301
28.843990264911287
37.663831824524834
32.691554709087214
49.84888084811582
44.57167691182376
16.07222074896427
16.286818119869896
25.861371024333344
30.995442399997557
44.87951951494144
30.666197562447977
2.231253671283182
-12.970202937164842
-49.227686547693025
-80.70598115301549
-67.86106233010551
-58.09093986516539
-61.169631597856835
-38.68270026940381
-18.904126585866464
-1.2675748338858657
67.12896160907367
107.4660403111705
99.72093451086181
89.01306881416419
69.16443709010743
53.16939537719019
31.549925287686342
23.937467240571536
-0.535113263635522
-31.758117608412594
-3.155896274736029
22.203477922475532
8.744051974796488
14.225695260089447
22.319912481623927
-9.803226256199142
-47.67174540576701
-54.5471874232596
-34.97833825226126
-1.754977575509765
-4.05295889107633
-37.300359602486786
-32.99508560431894
-41.10157210368924
-59.87112141876342
-31.76889494561747
-0.8768655043714632
28.981256793727596
44.49452811454841
45.50661667013111
80.5561529755002
104.10044667796579
93.54296124452665
59.147203889822045
-0.49217581689716805
-44.10102874906159
-81.31922796571736
-102.64241630236938
-102.1272990763593
-109.15588604630875
-73.54285321513956
-35.41128922977777
-42.118883775467346
-15.09327633529986
18.903902386516265
18.18688408018056
33.14092152073002
47.31110326916997
25.798392851546264
24.22180918058297
53.502501219829455
69.87488600770924
97.81710660183363
139.52116987421218
130.88445455721785
90.63508522259421
95.95854515549092
91.76900156058403
49.07860120560873
6.94595871279811
-73.88292138142889
-128.22585811209174
-90.94048323109412
-58.10229312246488
-58.041915607645386
-37.837661727493035
18.115660987799394
46.506355383186346
55.934749629273995
92.54736552277123
88.02271903983447
45.25921726764639
22.178190721650576
21.87816915418783
-16.68613063441437
-66.94505304684976
-75.80831720133808
-89.66070467955323
-80.1246839725134
-7.612905901076692
53.74896834422639
62.11550734348097
75.18207499524135
79.17703406410251
61.04947105203016
50.67026139458276
38.802653854645726
22.423389971803882
5.0429744561883325
-18.25656028918432
-41.191967340546626
-33.342582406090244
-39.3417913783821
-58.5082028355679
-48.85135928406007
-50.556034795509795
-54.8549091964408
-32.31946697969305
7.64377265244433
43.51905221657696
82.91876078724252
96.32847029267101
81.73609284416459
68.39864248978132
49.43108782594711
30.93283145798705
2.905254149116861
-1.7689230487680758
17.664224130152697
10.015135643298693
-3.607755709884612
27.69371208192786
67.29459723905684
68.78821971614009
64.19958907665031
75.21290257061703
69.88471752050972
53.130917337885094
33.86907427380056
1.646603564236773
-16.818854537671847
-33.511015095743076
-70.52523690491182
-107.21200960893134
-114.62959032140877
