AAD_Filtered_TADAS_FILE
AAD_BASELINE_CORRECTION: BASELINE REMOVED
AAD_FILTER_TYPE: BUTTERWORTH
AAD_FILTER_ORDER: 1
AAD_LOW_CUT_FREQUENCY_HZ: 0.025
AAD_HIGH_CUT_FREQUENCY_HZ: 40.0
EVENT_NAME: 202302060117
EVENT_ID: 13194
EVENT_DATE_YYYYMMDD: 2023/02/06
EVENT_TIME_HHMMSS: 01:17:32.00000
EVENT_LATITUDE_DEGREE: 37.288
EVENT_LONGITUDE_DEGREE: 37.043
EVENT_DEPTH_KM: 8.6
HYPOCENTER_REFERENCE: AFAD
MAGNITUDE_W: 7.7
MAGNITUDE_W_REFERENCE: AFAD
MAGNITUDE_L: 
MAGNITUDE_L_REFERENCE: 
FOCAL_MECHANISM: 
NETWORK: TK
STATION_CODE: 0119
STATION_NAME: 
STATION_LATITUDE_DEGREE: 36.568
STATION_LONGITUDE_DEGREE: 35.39
STATION_ELEVATION_M: 22.0
LOCATION: Kahramanmaras_Pazarck_Turkiye
SENSOR_DEPTH_M: 
VS30_M/S: 485
SITE_CLASSIFICATION_EC8: B
MORPHOLOGIC_CLASSIFICATION: 
EPICENTRAL_DISTANCE_KM: 167.32
EARTHQUAKE_BACKAZIMUTH_DEGREE: 
DATE_TIME_FIRST_SAMPLE_YYYYMMDD_HHMMSS: 2023/02/06 01:17:40.8668310
DATE_TIME_FIRST_SAMPLE_PRECISION: millisecond
SAMPLING_INTERVAL_S: 0.01
NDATA: 13501
DURATION_S: 
STREAM: HNE
UNITS: cm/s^2
INSTRUMENT: sensor = CMG-5T/GURALP | digitizer = 
INSTRUMENT_ANALOG/DIGITAL: 
INSTRUMENTAL_FREQUENCY_HZ: 
INSTRUMENTAL_DAMPING: 
FULL_SCALE_G: 
N_BIT_DIGITAL_CONVERTER: 
PGA_CM/S^2: 47.310
TIME_PGA_S: 
BASELINE_CORRECTION: BASELINE REMOVED
FILTER_TYPE: BUTTERWORTH
FILTER_ORDER: 
LOW_CUT_FREQUENCY_HZ: 
HIGH_CUT_FREQUENCY_HZ: 
LATE/NORMAL_TRIGGERED: 
DATABASE_VERSION: 
HEADER_FORMAT: DYNA 1.2
DATA_TYPE: Acceleration
PROCESSING: Automatic Paolucci et al., 2011
DATA_TIMESTAMP_YYYYMMDD_HHMMSS: 
DATA_LICENSE: U (unknown license)
DATA_CITATION: Turkish Accelerometric Archive v 1.0 - Disaster And Emergency Management Presidency, Earthquake Department
DATA_CREATOR: AFAD
ORIGINAL_DATA_MEDIATOR_CITATION: : AFAD - Disaster And Emergency Management Presidency
ORIGINAL_DATA_MEDIATOR: AFAD PROCESS SERVICE
ORIGINAL_DATA_CREATOR_CITATION: AFAD PROCESS SERVICE
ORIGINAL_DATA_CREATOR: network: TK
USER1: GuestUser
USER2: 
USER3: 
USER4: 
[...]
1.67849565448271
2.6403091387979414
3.7970104135249843
4.217668423647879
3.5177440875303216
2.0259234468255563
0.5493825102139823
0.08427465210554372
0.9971556606865027
2.970710597669559
5.247837712947374
7.0378096422773675
8.255544568260204
9.22506207910204
10.374057310425068
11.972720408750932
13.91614969609128
15.390560271393362
15.461200436827404
14.102565210707446
11.52129400958485
8.454804963280445
5.904711853603425
4.204529091927311
3.449031923672471
3.4908709031825147
4.093910418912482
4.950246768135002
5.727508876564565
6.286200840127224
6.325016329259837
5.693016404546425
4.401890546875684
2.504459445759766
0.7104261268582743
-0.02310108681973909
0.6556623245774909
2.505143664813198
4.748372918288911
6.349701291115935
6.767482483751511
5.81265499147492
3.949578622937803
2.2478723373096177
1.2108278415803662
0.6504212757014779
-0.05058536674280089
-1.322789550566729
-3.182236970999236
-5.480386901866151
-7.691582489462822
-9.288653027699315
-10.241887524958852
-10.488735031935011
-10.470900580114217
-10.911778737122381
-11.858194035271586
-13.003140998074675
-13.811110905118772
-14.039694903878525
-13.305332915109027
-11.223642794153442
-8.26441284279251
-5.011039984199922
-1.8033916508886396
0.894444697359381
2.6996705635313405
3.6001137065531905
4.002163955273407
4.040245751231666
3.4695810827573244
2.1416591565395806
-0.03402744862994239
-2.991715454807234
-6.226423021749887
-9.28375118050588
-11.956486995286363
-13.434017554782036
-12.89397892310558
-10.560563346646786
-7.58578244431035
-4.8501332706495015
-2.7919264578657996
-1.7842163220413056
-1.9373608456756275
-2.988495639217887
-4.229091578315251
-4.951069751472603
-4.8893492391790465
-4.177518771343474
-3.370614054642672
-3.2056164048056996
-4.210358534286442
-6.189285976663683
-8.351947340922091
-9.746633519874939
-9.608718448530269
-7.478778777360538
-3.6495372408563433
0.4869288139782424
3.699773877808966
5.329344266701135
5.52929691138851
4.948896974882754
4.66766902062783
5.3310394437425925
6.711132958944021
7.752785556081823
7.289124989178203
4.896212730013468
0.9081412109496735
-3.2326740116233044
-6.3109510397858175
-7.534883382050317
-6.965475002454893
-5.971985146061301
-5.939438125805461
-7.616109287416767
-11.33505703863613
-15.912983399542034
-19.605943318548615
-21.32821603345524
-20.813778962706166
-18.590162946866585
-15.809982994570367
-13.452740439339532
-11.776903888829668
-10.792188451388082
-9.367578796796066
-6.717759587143406
-3.3116533237048347
-0.5676875033648943
0.33160906198844403
-0.7183387602523995
-3.637983514044645
-7.913775238030331
-12.388243919489316
-15.876721162743674
-17.55983157601229
-17.622869236274088
-16.81268679858553
-15.962738752060563
-15.797823455525187
-16.25029041722174
-16.955023784222732
-17.392230652018085
-17.201428990766566
-16.023526517972215
-13.9231603310743
-11.4140177875025
-8.75562787336476
-6.1789637488433335
-3.8502596264031603
-1.6829743468964766
0.411398814243533
2.1653600047213644
3.049643897297529
2.7818711425464047
1.858917245248776
1.353120525125354
1.831022451756949
2.859178164953738
3.8478302130120143
3.9673480237925336
2.8640158748149642
0.5551464707708283
-2.7087406581234075
-5.723168968532785
-7.781331128908395
-8.958445627160094
-9.379083949294222
-9.122569913997383
-8.66783055697242
-8.541184970463767
-8.728306186515107
-8.724220218861305
-7.916790281474287
-6.283325909316307
-4.4490626299070755
-3.0396575573148725
-2.040858444917443
-1.4059917348364883
-1.3491581676348512
-1.8844417065923202
-2.4837246460676057
-2.565417920237215
-2.208806184423094
-1.784246987296273
-1.6228769987522031
-2.0452102387410718
-3.263888095233917
-4.92045757879053
-6.3643624514585095
-7.298890883099145
-7.716584872237953
-7.88767488369402
-8.369557905619763
-9.564945882446162
-11.474655500983003
-13.568279051077964
-14.899908446063169
-14.831724515721714
-13.368037870440642
-11.053626280059387
-8.539112302319372
-6.386657674607864
-5.133054918092242
-4.919451474936394
-5.2891489522634
-5.515456987603657
-5.335015104805574
-5.040614332909991
-4.593071903567199
-3.676787425617833
-2.419799801485347
-0.8594470373814818
1.2674248315009011
3.770811307988469
6.312930777499285
8.708776035243663
10.507460356393683
11.2872954690589
11.132769845113636
10.643237128722044
10.515273456415814
11.035073085938391
12.210149989136855
13.73351535867259
14.946619079177212
15.493459500791941
15.676734410446713
15.884907850829098
16.003576732568607
15.786916855262321
15.444410621258271
15.086109511407924
14.512606589466431
13.658227529897557
12.915143581469888
12.7736365101597
13.205147359739986
14.197076935247239
15.592586062475998
16.762061075426566
16.985695638927705
16.241524032076132
14.855735435200163
13.364350317362936
12.254269604620648
11.525649775287926
11.18861672978557
11.2210194782936
11.510095324953081
11.487603721856182
10.444569853366048
8.18468869644981
5.314861075529143
2.5005846874946718
0.4284564075191864
-0.08238526407539222
1.0560043397011913
3.077594233966235
4.749021337187385
4.991934135925484
3.680885171876468
1.4367061088856663
-0.7148063106637773
-1.848200691164877
-1.5616923156188358
0.23982761028264413
2.67732561468432
4.472194947277481
4.930965966850349
4.05986058800617
2.4706070559174087
1.1463203898668077
0.8028084628071048
1.8050759679638622
3.943278359160965
6.317552547828245
8.251769024327425
9.275548977173427
8.903639103489684
7.2322359848130136
5.077560211479232
3.075657636210377
1.395555500579731
-0.15347000266340186
-1.8959606433046712
-3.8727714950518197
-5.807049672174065
-7.187999517111222
-7.986421961843928
-8.044810620165949
-6.985977152349931
-5.332709853924219
-3.6620548220635967
-2.2871422837199273
-1.2524978841630492
-0.45714171753375843
0.012684763924919434
0.3252353878608386
0.6196390949786301
0.7403277944911747
1.0417296725425234
1.6741021149964528
1.9149456199095563
1.493210869982534
0.8407019103191941
0.18205402436262635
-0.6985941550083494
-1.6838529251477419
-2.283834691009172
-2.7166675567406418
-3.2471862105964107
-3.69533276355425
-4.481429239448653
-6.167655143907276
-8.56550178895508
-11.094531515790433
-13.282333034348609
-14.369614286926419
-14.152283787638975
-12.974067989744544
-11.041356613050564
-8.353096356304096
-5.193844264075061
-2.4692784113579678
-0.3576665054815912
0.9451957268794697
1.0321159509102167
0.1742685706540074
-1.025100858374296
-1.93472715784303
-2.2350328185589388
-1.8415493305694646
-0.8816076045489817
0.12790208973413542
0.758322108572784
1.1018415919731306
1.4145833078479042
1.8330032357207557
2.6280750358569454
3.93388255077738
5.20591435705094
5.795037483800445
5.579610374961542
4.6881659131199065
3.4949463184733034
2.5182943934955517
1.9550316482133587
1.8652955825421274
2.165142610851321
2.531846629359979
2.602960346380356
2.1259729150548154
1.1686629839362468
0.13026716379954015
-0.9856930304140582
-2.657593023339641
-4.8594902684345
-7.330071773110008
-9.727419419237163
-11.622592417077877
-12.551788157965255
-12.104780236337538
-10.643308207348989
-8.497097265110728
-5.951805484649709
-3.743136359145672
-2.3430923026009673
-1.502161671338332
-0.5984877851635906
0.8467107547234626
3.19804742925937
6.16442209602046
8.894910359228229
10.565517493300243
10.790329306282011
9.610417326978808
7.452136440186828
5.234170272183112
3.4144134011535776
2.0268786167671493
1.1593762958762037
0.5591911642359814
-0.1828397132068321
-1.1800125593394601
-2.303430918984076
-3.5398670337064497
-4.805248776980543
-6.025019338629024
-7.4357567778862155
-9.28402701464237
-11.668906546348518
-14.297400029358673
-16.794831017921595
-18.53466288978556
-19.00313941750759
-18.43168111553257
-17.607784377574887
-17.422657842254054
-18.61810578575178
-21.3598843311297
-24.68733786318372
-27.046508478802032
-27.45877641326512
-25.446645271793674
-20.702968044223727
-14.795427769393273
-9.502975193183111
-5.494458177869376
-2.5039950966961366
0.26740711733037015
3.377652682899389
7.1638901883217745
10.790032276794689
12.994157970949614
13.295042988828525
11.688761219174367
8.672779818369131
5.673832389747981
3.427131288089012
2.329248387233749
2.6324664628494214
3.160391132880125
2.806936866164641
1.3266214126330143
-0.6748611621960179
-1.9723471357021047
-2.1954048251654417
-1.5914528375296821
-1.0168785104316613
-1.2023824486218078
-1.8256315662891247
-2.4985165136843954
-2.8580788085024604
-2.632960983742929
-1.2531826399008736
1.2640401311338405
3.975720374767611
6.077896240402598
7.173871526231811
7.0361454403411035
5.757333443606216
3.93314478261845
2.1133562521244573
0.7674479495553779
0.06542279795945263
0.020708049946465815
0.37128649028433325
0.8403016281539615
1.311087568379952
1.8439140831637273
2.7668037356739736
4.24578122732244
6.4756761232732964
9.082144276891544
11.329488923650201
12.70722953614891
13.430222160721003
14.042442814329164
14.821113038495875
15.788669240139196
16.59192798292747
16.866276524239716
16.294672712716114
14.71651538372033
12.167877556135029
9.342549351666873
6.811649888568889
4.8489834966618055
3.287489774872345
1.4663561340457543
-1.1060136469440585
-4.618211045983975
-8.404801809342416
-11.497797523449531
-13.024378349753356
-12.643571055551066
-10.783615173337957
-8.18826895426036
-5.988648428055042
-4.984304163938945
-5.230515403066246
-6.050667560828877
-6.2155884406301265
-5.130086724539041
-2.6019977202779976
0.662890232119675
3.2981028612795877
4.529071308766554
4.178628614430156
2.563757881334521
0.33395242461536795
-1.958887901695525
-4.224638821592318
-6.292203608339366
-8.245515127585815
-10.225351897817166
-12.138549804680546
-13.603859988334518
-13.758917657865364
-12.098217361815232
-8.521711864985486
-3.9192244521534256
0.45978235294338976
3.650504844996445
5.280082624628541
6.054053408342063
6.192408456803392
5.824229213788006
5.145795519594885
4.1636866784543916
2.666793879731099
0.3538184007676082
-3.0800685323205625
-7.1928344149894725
-10.814229918236856
-13.463372020021247
-15.232285369121385
-16.622521351379593
-18.213143869123797
-20.391853308210717
-22.85112682777006
-24.258232637459297
-23.603088444676708
-20.682593013960997
-15.561670644385984
-9.814433877358713
-5.376497968409868
-3.251180072115355
-3.4645458961293465
-4.346954075113417
-3.7193457907363925
-0.6745498936861111
4.7241028213235525
11.035584795021165
16.008913058142518
18.41805184838446
18.021283403057748
15.633667927525233
12.87117152681982
10.732757404804294
9.321620126420301
7.930926309085322
5.190758938571772
0.8107931799757303
-4.684207435616087
-10.222468323601058
-14.551527844142928
-17.12220791741585
-17.33769214879747
-15.29338309885095
-12.85414091135731
-11.170381124201581
-10.605748753283285
-10.489041213370657
-9.227216098931418
-6.129526102062537
-1.3565828278497358
3.8808396091444393
7.966453351945758
10.356792067236103
11.00132100348679
9.982115220437395
9.24882254026262
10.512247138425773
14.413760085956037
19.749669269930717
23.86151991914874
24.811664699343655
22.38413998203182
17.476578709265226
12.10022709423962
8.39775708905109
7.168230212747572
8.220916424781949
9.42452800689777
8.95253116708692
6.657521519260649
3.3531986962588154
0.5477611749707153
-0.22914468431014
1.4228489622724898
4.984023160690319
8.569989662936557
10.770727524308336
11.400779259753271
10.4681200006056
9.132526014289429
8.386277471055188
8.621356335870956
9.457399773028598
9.24859564267426
7.087800002025537
2.9313294413815334
-2.586385858568365
-7.63255524889699
-10.991924170635462
-12.579257682176475
-12.750098112594017
-12.064249313432798
-11.338678644391218
-10.802854739315727
-10.43371153706532
-9.500365822094215
-7.567432836786531
-4.944494168051303
-1.8137695066280748
1.183676471026318
3.338370099343953
4.236135696526378
3.9005304809611845
2.7810668030424743
1.4388468497750209
-0.0781260177811048
-1.7392468275592574
-3.5103353565194646
-4.972873141692953
-6.070009973317264
-6.999349290680445
-7.889375204511013
-8.96085527907637
-10.384977268242029
-11.60062747387974
-11.436631342791685
-9.767117384546035
-6.521384995779743
-1.9270416272805206
3.3462980532011195
8.456852863238456
12.842910405173184
16.678616714728008
20.171711691657972
23.183562287233258
25.650366677678917
27.48578354073662
27.967470822348737
26.625660788517365
23.148560872039567
17.77401157758719
11.339333407291976
4.797643893180122
-0.7461126153725672
-4.86319448100514
-7.829852332156333
-10.75568091860586
-14.247747375740545
-18.449596385893624
-23.39906285174897
-28.196527952966797
-31.5095354848377
-31.785699067541543
-28.243621004181364
-21.339359759664404
-13.424505314517386
-5.969530100609742
0.9492587777682668
7.798120593142075
15.353215689127351
23.64482212832003
32.48229616420656
40.35559718486457
45.358683203146576
46.15731797384638
43.340697270977806
37.60817474281892
31.259597666048002
26.769646920292647
23.931338840655627
22.479163232674086
20.70869504371707
17.23810471244572
11.700044888912334
4.48052572124971
-3.349816326534534
-11.00319877254946
-17.93988405838771
-23.390796538371443
-26.971704966585914
-29.152140979839196
-30.211002123059693
-30.17741629460924
-28.950284036545508
-27.15563823871854
-25.825927807319033
-25.47719200930835
-25.91322880457111
-26.46798963456097
-26.31244745338178
-24.74142089463427
-21.881918618005553
-18.163120150752828
-13.28064155793077
-7.547566756869003
-2.17058020032645
2.5696524944041057
6.67341568199857
9.814930579830818
12.001649851070104
13.629156786458019
15.533404164254273
17.94220074367572
20.128890626598565
21.22752473658521
21.00217939144517
19.934786753124943
17.81937328651239
14.478808951186105
10.453295453575503
6.166105545663831
1.851013983425854
-2.6486166267640336
-7.319349999888763
-11.603623659008147
-14.724570392271945
-16.476073306681457
-17.44083765574508
-17.997597759451182
-18.667628402335552
-20.023522889071415
-22.13483425888755
-24.358808808945593
-25.750580767058963
-26.282288769163213
-26.39301434118175
-25.951470272987624
-24.914161557490402
-23.672182308135135
-22.463007782708626
-21.170994551291383
-19.22237260452096
-16.466805577167175
-13.420423624734836
-10.98441051215673
-9.548094088661264
-8.797894214542916
-8.61698406527636
-8.39235555003267
-7.445673072572607
-5.420154781674578
-1.9674785715417822
2.100245048807004
5.753131195205648
8.238525043689874
8.89740465000724
8.00754286660466
7.077468719601026
7.794181148354711
10.287471325763168
13.790763248045314
17.04206859685758
18.74476794100494
18.485929881365212
16.201744177460345
12.262278269589203
8.14025206373332
4.397392966938358
1.244240092793826
-1.3560488209960935
-4.213360906964109
-7.038618246297625
-9.338090754055447
-11.1324565868928
-12.460854565754074
-13.2487006839154
-14.232984468282988
-15.974499630476851
-18.01182161991154
-19.9853638385962
-21.702539675213746
-22.688211984676965
-23.021458801304604
-23.258331098540133
-23.45359308052087
-23.632914823632976
-23.618052946945976
-23.23584403884186
-22.42843056310118
-20.47740547414375
-18.032338697220894
-16.36338540891568
-15.102890044563738
-13.48449504941275
-10.862501483427355
-6.9358194263792425
-2.3175688274888797
1.9782312837322593
5.123981789910006
6.870077197463005
7.681711882894679
7.722115475872589
7.393494876862627
7.247405739025375
7.160354812464282
6.504315766511643
4.85732055348667
2.111524498460565
-1.5002335426337015
-5.277869291437151
-8.70809399036585
-11.73743154486597
-14.454539370301324
-16.671355966890964
-18.421116950819684
-19.87074704227228
-20.775099638932986
-20.845057075436323
-20.08543500126614
-18.00929222563364
-14.410698808776727
-9.735529525803717
-4.330675377406706
1.0725153414189488
5.453951251862433
8.281755833996712
9.53698528717922
9.511923685324197
8.793494187952817
7.52003512910253
5.592728909431565
2.811401504949308
-1.0895804915023504
-5.616735127204508
-10.404957078005221
-14.98430019757077
-19.07138333265383
-22.997274275692675
-26.939338251667195
-30.796230611047015
-33.90512935853728
-35.72319733366489
-35.589718536232304
-33.27258050733467
-29.330871684323213
-25.32241479401979
-22.815601592911417
-21.893802910278705
-22.34682051894681
-23.286932632936374
-23.654223245640747
-23.657893848249472
-23.35693616265612
-22.890136568800813
-22.751537564642632
-22.72316044562251
-22.56221338032644
-21.48503478739955
-19.07682238905938
-15.950674258420667
-12.877690241715806
-10.830205373615174
-9.982389064228032
-9.819478185056374
-9.406513551610377
-8.196517350732368
-6.1667404486608355
-3.0815545726274536
0.1807854872253339
2.5234273540663272
3.850163230591389
4.0887016373070075
3.343151442603715
1.998778527187878
0.20547858517280626
-1.7084197299457815
-3.469466317245872
-4.858739786037741
-5.848988903157111
-6.692336885556929
-7.432527658817536
-8.120836750709973
-8.93813955491156
-10.218333537845298
-11.993567734367518
-14.065729155481911
-16.308651381739388
-18.695085933755898
-21.04590259969644
-23.377349541673752
-25.35690394509388
-26.172124280148314
-25.53712887032199
-23.67684876713053
-21.133380475277967
-18.35384744193931
-15.58441637095486
-12.68286075278634
-9.19021284957889
-4.538309446303652
1.3113856535435262
7.649294955847745
13.43576549676213
18.064551211033763
21.121023387867996
22.31297275578341
21.938552509250524
20.320241570359634
18.08270509428909
15.582233204547821
12.61746210852034
8.828124504013118
4.254013750912579
-0.7225912141330394
-5.652434753080955
-10.194899406589887
-14.314455063506909
-17.875819761511924
-21.16066800804027
-24.311245489008705
-27.050123445945363
-28.871219137096066
-29.31454354562358
-28.357271389568957
-26.0488414103504
-22.778133730646704
-19.29280568934214
-16.140928259109632
-13.783559437181541
-12.332295185292418
-11.054806142595691
-8.993721466289808
-5.810443381856202
-2.2201758378198124
0.5688753875486161
1.5862395380892664
0.8741414148770832
-1.0078008034044506
-3.2599843408198934
-5.1840511783193035
-6.511180304582403
-6.742224208494817
-6.165999345775363
-5.934771415132535
-6.675776176973509
-8.023299214976104
-9.16886981666755
-9.490907628958404
-8.787435941229868
-6.930295244548043
-4.1500207973886845
-1.195279123142267
1.499219731008773
4.137193378610248
6.8527347373010405
9.566832115198855
12.000090326223141
13.860563069588439
