AAD_Filtered_TADAS_FILE
AAD_BASELINE_CORRECTION: BASELINE REMOVED
AAD_FILTER_TYPE: BUTTERWORTH
AAD_FILTER_ORDER: 1
AAD_LOW_CUT_FREQUENCY_HZ: 0.025
AAD_HIGH_CUT_FREQUENCY_HZ: 40.0
EVENT_NAME: 202302060117
EVENT_ID: 13194
EVENT_DATE_YYYYMMDD: 2023/02/06
EVENT_TIME_HHMMSS: 01:17:32.00000
EVENT_LATITUDE_DEGREE: 37.288
EVENT_LONGITUDE_DEGREE: 37.043
EVENT_DEPTH_KM: 8.6
HYPOCENTER_REFERENCE: AFAD
MAGNITUDE_W: 7.7
MAGNITUDE_W_REFERENCE: AFAD
MAGNITUDE_L: 
MAGNITUDE_L_REFERENCE: 
FOCAL_MECHANISM: 
NETWORK: TK
STATION_CODE: 3112
STATION_NAME: 
STATION_LATITUDE_DEGREE: 36.58801
STATION_LONGITUDE_DEGREE: 36.14766
STATION_ELEVATION_M: 1.0
LOCATION: Kahramanmaras_Pazarck_Turkiye
SENSOR_DEPTH_M: 
VS30_M/S: 233
SITE_CLASSIFICATION_EC8: C
MORPHOLOGIC_CLASSIFICATION: 
EPICENTRAL_DISTANCE_KM: 111.31
EARTHQUAKE_BACKAZIMUTH_DEGREE: 
DATE_TIME_FIRST_SAMPLE_YYYYMMDD_HHMMSS: 2023/02/06 01:17:31.2356490
DATE_TIME_FIRST_SAMPLE_PRECISION: millisecond
SAMPLING_INTERVAL_S: 0.01
NDATA: 6576
DURATION_S: 
STREAM: HNZ
UNITS: cm/s^2
INSTRUMENT: sensor = CMG-5T/GURALP | digitizer = 
INSTRUMENT_ANALOG/DIGITAL: 
INSTRUMENTAL_FREQUENCY_HZ: 
INSTRUMENTAL_DAMPING: 
FULL_SCALE_G: 
N_BIT_DIGITAL_CONVERTER: 
PGA_CM/S^2: 83.965
TIME_PGA_S: 
BASELINE_CORRECTION: BASELINE REMOVED
FILTER_TYPE: BUTTERWORTH
FILTER_ORDER: 
LOW_CUT_FREQUENCY_HZ: 
HIGH_CUT_FREQUENCY_HZ: 
LATE/NORMAL_TRIGGERED: 
DATABASE_VERSION: 
HEADER_FORMAT: DYNA 1.2
DATA_TYPE: Acceleration
PROCESSING: Automatic Paolucci et al., 2011
DATA_TIMESTAMP_YYYYMMDD_HHMMSS: 
DATA_LICENSE: U (unknown license)
DATA_CITATION: Turkish Accelerometric Archive v 1.0 - Disaster And Emergency Management Presidency, Earthquake Department
DATA_CREATOR: AFAD
ORIGINAL_DATA_MEDIATOR_CITATION: : AFAD - Disaster And Emergency Management Presidency
ORIGINAL_DATA_MEDIATOR: AFAD PROCESS SERVICE
ORIGINAL_DATA_CREATOR_CITATION: AFAD PROCESS SERVICE
ORIGINAL_DATA_CREATOR: network: TK
USER1: GuestUser
USER2: 
USER3: 
USER4: 
[...]
1.4293654634454498
3.0284576292861263
3.8626354151485214
1.0437824274847323
-2.241046102114358
-4.529161720344301
-6.842688322297114
-8.98184754045078
-10.999528558526482
-11.645205284687027
-12.11966133306754
-13.675814446808149
-14.4074725640301
-14.402028983835628
-12.705471372746187
-8.548633520900351
-4.961040040668189
-1.8140980475226074
2.4655431743102003
5.259474538972943
5.4510892921075484
4.235291628018744
2.847377001170436
2.046456937298082
0.5946765125501496
-1.8407605469831252
-5.114541289329912
-7.959440177754941
-9.191930404324673
-9.950095328344508
-8.94734887756229
-6.909142466380387
-5.4421745791452985
-2.1335605619480282
0.3771201113427465
0.4133326959971748
2.2687321424906832
5.669157550534532
8.652933961355348
10.096751221185194
8.295849957544336
5.839969565996667
5.305234456390854
3.7277916612526987
0.3173159779951402
-2.37564825964124
-2.8190130131949056
-1.1358137044244594
0.37463707666372775
1.2841702323518536
2.6544545342563035
3.377474083374131
2.6655135755675863
1.6684053624814092
0.7224660096533146
-1.3308284014505438
-3.258203080044764
-4.827187314155801
-7.955039554899673
-10.687238919273671
-12.811499827301448
-15.940689828883984
-18.292466837538853
-18.384264479047697
-15.878446963957542
-11.29444623364257
-6.533625781409147
-2.2355025193072087
0.7709056386966874
1.5987275779475263
1.9801146807659409
2.1222335394703737
1.9060385365276504
3.6986029661702586
6.98815204587927
9.614341864139815
12.945592940943692
15.437989176250456
14.169100359607903
10.928042747784659
7.1732906678069535
3.38218179853355
0.9923149360081381
-0.0203916547173284
0.7405700011465519
2.7848252775345506
3.3508590382616816
2.296405090818781
0.4822100654279509
-1.9180641404597225
-2.831885330939832
-0.8419620137770094
1.5707090480043642
3.4688663839090825
7.054303195340735
12.035195362556557
15.11463715937709
14.734320701785036
12.28320796290744
10.30697605030932
7.236941766517204
2.363169582818679
0.30400562168852197
1.2366750858333913
1.2068188174413026
0.3801194695218275
-0.42171570892805377
-1.252629593286403
-1.7539598524856126
-3.3640357752394228
-4.719737970675348
-3.7779690144043507
-1.5392498450340355
0.9762652574856875
2.8260179332254056
4.978260874608952
6.451630791166631
5.296242346565248
5.1739226074646965
7.070579247507479
7.876257845467601
6.491594405092379
3.3823828198525057
0.3881449887059144
0.2901707929457948
1.4956284980434251
1.6761560601026808
2.227168506725922
1.6617591113469816
-1.2430447769332251
-3.8261697177648095
-4.665801816404141
-3.7579822219126187
-0.9126129186162423
1.4857677580821178
2.300567596193562
4.516556698762393
6.15870153405498
4.852985778120086
3.6467174275149237
0.6674334819935404
-3.717657260054223
-5.265981235161405
-7.611735928229636
-9.91967365547401
-9.79195118039945
-12.197469092953863
-15.906047754162149
-18.466924619167425
-21.389433855410406
-21.303634368909975
-19.738215421335223
-18.780908817782915
-14.66428537547204
-11.159017351657825
-11.5426344197184
-10.704191770759193
-6.89870584190109
-4.591848395129409
-6.4251576340617405
-8.506441689751481
-8.030129065388135
-7.688022424131241
-7.026993775010421
-3.4702585964095514
-0.11673555277784735
0.8723455853935425
2.1678265601594475
5.369938982742951
7.897057607924383
6.850656344741812
6.08680185802079
7.7606495001203735
7.582192631373596
6.136641326008535
6.560535108217145
8.866520499618293
10.533845221382261
8.656709439240885
7.339051023315016
9.457253699826989
9.867767074324327
6.136877010072696
2.3430935593136564
2.2151850454838673
4.6438958033382125
6.163973561133109
5.680424546540497
5.951194397191185
7.965263251522076
8.186895865516606
6.817359563226041
5.225100856954557
2.9420066317939035
0.28042710955847183
-1.263582679127882
-2.6852606756584
-5.074606962870165
-6.733726188920202
-8.058097567237128
-10.29563771801214
-8.801674548061328
-3.845981486351176
-2.437550974151619
-2.356588773467121
0.22188252039903492
4.159881065193714
7.927534010340699
9.463804486628495
7.3122353036457755
4.316494199684139
3.9946954219303015
3.577393205328146
-1.9802920178464438
-6.506556878123249
-4.307449486098671
-0.5836534588904385
0.25829633037981475
-0.026214525316591963
1.628865596047161
3.466657288194398
2.116257663347267
1.0254314823720685
2.2629840624618023
1.7055392570717065
-0.21085040671616387
-1.4028766535458639
-3.553048902711743
-6.548197103057302
-8.128225265015574
-11.16954613890223
-15.249445698007857
-15.4285168098673
-14.545682209179564
-13.91476771713713
-9.790386749483053
-6.352915494638957
-8.427441762496631
-10.398751397042345
-8.365615630786378
-7.515356028746595
-8.382124787483104
-7.219919977906597
-5.334606574522556
-4.863189334661848
-4.667810237855688
-3.941145665073833
-1.8176694494821006
2.211897132788846
6.157163510980124
6.573976811965198
4.353868699278893
3.7396261967545916
0.7417620922946341
-5.890182363607625
-7.797404879000537
-7.17928521548749
-10.950455499109639
-12.211433594522124
-9.333045333494344
-6.861343222964201
-7.098745448298619
-10.173825703195616
-9.204263888111878
-5.396365067597669
-6.868379079927201
-9.776346523846222
-7.42591044826732
-4.868164267172025
-3.6259038417576717
-0.9260410019980826
0.8566354584577455
3.9716301264625815
7.708927548889254
7.630233885270578
6.971573697206219
5.285666386422683
4.397551426742984
4.904250207277798
1.4578529142482288
-0.528054226569212
2.4762516402540307
6.261157873247255
7.238922886681394
3.457799641126328
1.858297110525887
6.901164394077922
9.960101152146182
7.574688596202103
4.990140245943813
2.283910467708449
1.5048277685804823
3.7339598624231365
4.348569556866702
3.7432789082391174
3.055586000799679
2.2959859850303177
1.7218864906940414
1.654662244574796
3.9768639536799504
7.4941452509291295
10.009407862703716
10.580887696701337
11.070634441757356
11.937831556763635
10.41399392594671
10.131879555948764
9.989042261153855
7.720158366076908
7.853643954009525
9.536422661826805
9.98345289888547
7.014410608959736
2.0259470360199203
0.4448678628859308
-0.907019696372603
-3.182390102379991
-2.789106605960137
-0.39606776008694866
5.69255929750526
13.687966663265179
18.536430557361218
22.60603202181932
25.900851187594302
23.742052441167075
19.48869595458924
18.312265275280012
16.2891858467624
12.030200837313375
9.112338074408056
6.382032795090615
1.7764009168467767
-0.3824504562856106
1.8121683850584076
0.5848196248480972
-3.0132573233587667
-6.265514150519893
-10.633912496670659
-10.50315580560083
-9.466781128625142
-12.394710889163424
-11.109239066855546
-3.1682266232560394
2.1276780352710096
-1.855957507010332
-10.256939405447953
-15.90133557344523
-17.105456841275096
-16.685440097368186
-16.897458674194553
-14.036405230938321
-10.67666811228301
-10.375826899243584
-8.586008767133265
-5.6910829606392594
-4.021219145315966
-5.089442187003045
-8.512563951373814
-9.046369034550391
-6.985556921461531
-6.111007791714334
-4.4507916271647
-2.2379149448223803
-1.3964926816498509
-0.4943379043146433
-1.365220945320428
-1.3332912926390263
4.229564315880588
9.637355773447522
9.790411713423005
7.117997096436176
5.964374890242552
6.3755563206809915
4.986784158349552
3.9550507584664
3.46129785043665
1.5929955690023876
0.931550531367746
-0.6241006678057374
-1.9094322150261398
1.9644268129789455
6.144953697772799
4.844504859262088
1.4179160750612745
1.96198109655692
3.000372152975948
-2.915734054391452
-9.651270931963213
-11.52000390727457
-8.79371294603575
-0.04782071165159113
6.859539414478894
10.00825036599262
13.6391528306753
12.10404014588167
3.5939401965493074
-8.031497847202559
-19.176456329251714
-22.542561099733568
-19.738989184192715
-16.439956335787862
-11.331337076189495
-4.723980669532825
-0.5201523979694108
0.8684032535167214
-2.325376708874388
-9.241134541129654
-11.529856927424438
-10.548868476997066
-8.75140902079008
-4.231111897668976
3.1174250442002864
13.027458738670829
22.96206749820739
26.463524848756332
21.302045335166806
14.807591406990193
12.140324865921201
8.07116826954467
1.194287625350479
-2.3341123302321365
0.812843666062257
6.921284171945139
13.047099992599318
18.325843466694245
16.85724923929393
10.849486051287846
9.78778706573557
10.545164730849283
8.046907801052752
5.471071732216381
4.87321134965264
4.453163721444271
3.1763339609267707
-0.095567266281217
-4.241801874158483
-5.566098788661847
-9.941002283998495
-13.91993578743244
-9.460447299761068
-5.0587870903685275
-0.43284552983090985
5.13512895330841
7.176969688060376
8.189659201908494
1.5628725690092091
-7.6094808403955785
-6.327955782227718
0.44317893836108235
7.059062480163107
10.707053695714313
12.800750927753588
16.33384915021287
15.327163793095052
11.378644164066943
9.57678555372727
6.838749423033038
1.379637488504239
-1.8746707170204688
-0.5475454929659119
1.8521659185897794
1.0715909621292872
-2.8580765136619255
-4.951549062906348
-5.321819473420451
-7.695918799151841
-10.05492882312038
-12.970372067872125
-12.44141143794434
-5.073434760692873
-3.7382860751583613
-7.485243226927821
-9.07847044435222
-12.758921412990315
-16.32331910268697
-17.63033887020645
-18.147763274561417
-17.864217156615844
-19.83393733305477
-23.165695457465446
-25.420703537201295
-24.239916751906442
-20.982119527025375
-17.925853988745068
-10.986017349860797
-4.221496957969362
-3.860639294847723
-5.975981288046272
-5.204083888116426
-0.3682792118955286
1.998270414568782
-1.6226572952354772
-3.3581587916767432
0.1504614701488216
1.098701304504723
-4.012614305957799
-5.896079436074178
2.3893732951929882
12.713799907555874
16.320399671996782
17.441477583555088
21.72347436072414
25.455609873776385
25.919414912785356
26.952913673122993
26.257784143708538
27.11022358582664
31.612529419698102
34.04321929012565
33.127802752185524
25.910338835098244
16.61598625561374
12.515028035614964
8.860776201258124
4.234246336606723
-1.5112250471245805
-5.541812522045079
0.23287832130519925
3.7347019892203788
-0.32461513737400627
-0.0067596828268137454
4.736376214407005
6.51704794828893
1.6717266832342896
-6.92916933126292
-12.3614273801079
-12.86061469885065
-12.46306594263998
-15.711189491067662
-18.51714824532156
-17.351651061196424
-18.370167040374493
-15.314402039883664
-5.2243958274350915
0.8367096708571459
6.940340593739775
15.976112236950977
14.505252753321791
7.499624872021555
5.745906825945664
1.147413411286938
-10.83483000100094
-24.54241841088604
-33.744643718217034
-39.74557644267581
-44.76053647027022
-47.25603499134497
-44.129499095722984
-33.53749321729879
-21.181670319977115
-12.111429639510364
-7.416144263421948
-9.95444569330925
-17.50373479036771
-20.11326928424061
-20.07539580748005
-24.831349606660723
-23.663371154194223
-13.05217286139626
-0.7614564849962444
12.618064006087964
21.11861416069004
23.992375010409916
27.846506527322372
23.557889036583877
10.157094996721565
4.0386382344886025
13.039670734308938
27.35180667990367
33.606318688886454
29.739630255622433
22.880893034646082
11.51576432381924
-9.017757932956329
-22.565249651356748
-14.272570604442437
4.753105216078602
20.47825537313424
33.091730175278286
40.42078821856018
33.55883027424275
14.07319925116765
4.6307161330363025
8.957126787650632
8.075144053592663
3.621552062965584
-2.8928911038248413
-14.334443248625883
-19.085062908362758
-27.94546731957152
-45.38443108072318
-39.8068007556544
-12.198305009275847
5.831694436260854
16.97729981809179
35.08450071529851
49.24796863967624
43.56677618941997
30.664428923179248
20.90102537840867
11.48672849659919
3.0723178823614554
-11.754194337719047
-33.00029367344892
-48.924096080149376
-47.38059947589308
-31.268971598300016
-15.868219546449987
-2.8827563747368408
19.31372123351415
34.27921099583882
24.239245331289094
6.841153307603981
-1.1205305687624483
1.4367634923840678
7.609736117904561
10.773136001553395
9.82251953305386
-5.1329856992546254
-20.260974182230786
-29.98672043337175
-46.37030471425788
-42.00181443043192
-23.723704961051173
-25.585983288959913
-19.157005883213106
5.687230953158468
15.155888431848377
7.899319092080855
6.968079360287747
16.93377711725291
21.496435658146563
18.53307157743173
13.088371473459173
8.079769048333306
13.152638396997169
9.18427345512765
-15.78523538265101
-31.04903714812961
-31.24328005641955
-25.291959815305283
-15.228153658121919
-4.453015969864087
15.037835668810956
36.38599445694491
38.31372001023482
24.031440295213184
17.778983463021486
27.031075495728118
31.400752651981417
23.838885635560928
8.374088831453362
-7.003182993630678
-11.628583918638727
-23.5422040139737
-33.46965076001551
-20.18660537751483
-1.810913848641339
7.055798415535082
-3.672396357136848
-13.56526469818395
3.9506531583344193
6.353083967180398
-21.35762377829343
-41.18079494768018
-58.748439919547266
-80.83064298210786
-84.63247258679083
-78.25178778199864
-62.10575747307523
-17.952189574153056
26.426352003291363
48.17109185691878
50.74837973524438
49.75591925843259
60.2371432649721
54.69231432819224
30.841047717011033
8.370570722644734
-14.66688721413414
-17.054145392362063
-12.692711250762137
-23.238384298091898
-25.366306831396365
-18.592707343207515
-7.855147791468455
-1.2809653246596682
-12.416225021184397
-18.758654044855376
-9.63859826218705
-3.3008323705327056
-9.922220081435665
-14.679008580669988
3.3980326789168807
26.633366747018524
27.441832973327752
24.251405285537583
30.76796806875605
22.635317270407697
3.3018105384714236
0.026443929481668543
9.617737976333494
19.015791639099103
22.808024215936072
19.772014467224135
19.856606780539387
23.150813018428533
15.915016801426415
11.23287661819395
18.912601329747474
19.930470505321328
12.106084155669313
-0.6846090091585826
-12.477459758141444
-19.900981845154085
-37.16642137234531
-52.101129540484436
-40.21191199334385
-21.934906684063975
-11.518004642966552
-1.967047897011173
6.649824116649803
13.488718460586599
13.863231840002875
0.1689015939158841
-14.59101380292391
-12.641965572262169
-4.102906934036678
-7.140605014233933
-16.368706446622056
-16.81275499464527
-12.039615598594358
-3.4736018141122176
10.89628493515555
24.43374878535347
35.22874228388114
34.46140844618708
14.238362812269587
0.5498218928883933
2.8697581453975562
0.21706690812253593
-6.09893893833341
-9.96707569941689
-8.094064884789939
-4.183986032385755
-7.812634089698305
-14.283092054724511
-20.90019241175592
-25.226382861895313
-19.394177969720186
-11.10936867324306
-13.38909503963925
-17.14214653145087
-8.527608594696588
6.994417274981174
14.437969605028389
7.420444848807105
-9.313782530937667
-21.333471439573135
-30.165774142145327
-36.46361391737286
-25.801793136671083
-6.140481213212488
7.118030925531855
11.855677950996657
8.205258216153789
8.415799888176302
16.807773812585808
19.749657150082886
18.967354825302944
15.430715885179657
6.595018373512476
3.8946202419296365
12.377603543322227
25.09180148605137
24.91513384081346
7.287950968273087
-6.629011080527523
-7.771150225397071
-12.130287333749767
-19.878241033413573
-16.563065933616816
-11.788822507020196
-3.8072959515349813
13.383143752157073
25.622958029664684
27.23795663838838
19.54620015300075
3.56410244715989
-9.102201386996532
-10.105321215101146
-4.226253601564895
-1.520069243062578
6.136083737106341
21.02080749402605
30.799666553183503
40.39256140865757
37.62207863025744
20.32089625613166
7.4160092223763145
-1.6554118735541046
-0.26756758419822957
10.615924321313992
18.619710652009477
29.87235682625619
37.16719372080138
35.089499213025746
34.716757024584446
31.374095743082595
23.318709868190307
23.323701316888908
38.13171893181673
51.82615504831703
47.24520136067996
26.87746315276667
8.495539219162016
9.77692507980486
18.55890425966077
16.24462648560692
12.171569495357357
22.460465758214916
38.87883953849247
39.02808260419252
19.306408782739897
6.631612340489665
2.2931762018628534
-10.22494959971613
-21.786127892260744
-29.666456388747
-28.10083539135982
-12.837079747988126
-7.1188647705857635
-20.547570541562123
-37.32250121524013
-41.219853804218396
-28.570423409512333
-22.16949203787977
-20.748017941339725
-4.987894421134121
6.642945296462749
-4.316514398593173
-23.279960152891885
-37.02034246423405
-43.60990651573494
-41.067966209760066
-37.35970890232081
-36.05946786084428
-23.782162386383348
-1.4123735578060261
12.557938905748825
19.51612727358487
28.180963030617487
37.26866099302084
39.7855984292996
31.766364270841233
21.770469257977986
22.499520759018296
20.457424356217025
-8.117907672961394
-45.098861529240715
-52.03794764545214
-40.729502337555836
-36.80855900116635
-34.68858471036581
-22.52173700380595
-5.323565034777307
10.251514652123925
16.734095239668132
16.735440811418847
25.110845856266447
35.825464269969906
34.79764785757598
23.535803643990306
15.825678206637308
25.506973150825722
33.31357662139105
19.066320486069834
16.308194072932448
40.64884301894348
62.6186100585508
59.00275147364259
41.74826614312618
35.9590997075363
23.25845298452249
-11.13447058211161
-29.42087294289511
-27.57259832947359
-32.924539473336424
-39.22898271276905
-40.73420173085511
-33.29582622738644
-17.882760210032917
-33.54647951861434
-68.63870300868588
-75.53517873917278
-58.20237217555306
-39.07274315708628
-18.894635886269565
-2.0047876512814016
8.098969416797413
5.630082347364831
-10.891212845174394
-21.72522481192424
-26.217953086810375
-38.947693923845854
-50.828687223156585
-56.91183224253709
-62.99786540180089
-58.59848888493035
-48.78521633082127
-45.058628337649665
-46.2645348936813
-42.57748949355098
-32.4408492970771
-36.372324011295895
-48.5473952828865
-46.851339885965345
-41.899950627819834
-41.62201572434626
-42.79515391700003
-34.485411258412
-12.776686745728382
-2.6469696623682295
-0.6006496267925052
11.232433155527568
14.790346699309799
15.310478666269079
28.559687594649034
34.09734980535488
31.28868800855313
32.688538907216376
26.452308425595334
14.318890627340428
1.0255416577791894
-6.384510995114876
5.683137913599769
12.834061871377788
2.7562001013357422
-0.9827861885524278
3.8117523179258637
10.811101205584887
26.231058849418616
40.72742533919603
43.207377693841316
41.56673656292028
38.723117478417194
34.5784795254061
27.573641309205843
11.378454116206036
1.514647546944357
6.086422024120384
0.3752276502693822
-14.960818888445145
