AAD_Filtered_TADAS_FILE
AAD_BASELINE_CORRECTION: BASELINE REMOVED
AAD_FILTER_TYPE: BUTTERWORTH
AAD_FILTER_ORDER: 1
AAD_LOW_CUT_FREQUENCY_HZ: 0.025
AAD_HIGH_CUT_FREQUENCY_HZ: 40.0
EVENT_NAME: 202302061024
EVENT_ID: 13207
EVENT_DATE_YYYYMMDD: 2023/02/06
EVENT_TIME_HHMMSS: 10:24:47.00000
EVENT_LATITUDE_DEGREE: 38.089
EVENT_LONGITUDE_DEGREE: 37.239
EVENT_DEPTH_KM: 7.0
HYPOCENTER_REFERENCE: AFAD
MAGNITUDE_W: 7.6
MAGNITUDE_W_REFERENCE: AFAD
MAGNITUDE_L: 
MAGNITUDE_L_REFERENCE: 
FOCAL_MECHANISM: 
NETWORK: TK
STATION_CODE: 4409
STATION_NAME: 
STATION_LATITUDE_DEGREE: 38.56063
STATION_LONGITUDE_DEGREE: 37.49076
STATION_ELEVATION_M: 1055.0
LOCATION: Kahramanmaras_Elbistan_Turkiye
SENSOR_DEPTH_M: 
VS30_M/S: None
SITE_CLASSIFICATION_EC8: unknown
MORPHOLOGIC_CLASSIFICATION: 
EPICENTRAL_DISTANCE_KM: 56.86
EARTHQUAKE_BACKAZIMUTH_DEGREE: 
DATE_TIME_FIRST_SAMPLE_YYYYMMDD_HHMMSS: 2023/02/06 10:24:31.8713520
DATE_TIME_FIRST_SAMPLE_PRECISION: millisecond
SAMPLING_INTERVAL_S: 0.01
NDATA: 10501
DURATION_S: 
STREAM: HNZ
UNITS: cm/s^2
INSTRUMENT: sensor = ACEBOX/SARA | digitizer = 
INSTRUMENT_ANALOG/DIGITAL: 
INSTRUMENTAL_FREQUENCY_HZ: 
INSTRUMENTAL_DAMPING: 
FULL_SCALE_G: 
N_BIT_DIGITAL_CONVERTER: 
PGA_CM/S^2: 124.285
TIME_PGA_S: 
BASELINE_CORRECTION: BASELINE REMOVED
FILTER_TYPE: BUTTERWORTH
FILTER_ORDER: 
LOW_CUT_FREQUENCY_HZ: 
HIGH_CUT_FREQUENCY_HZ: 
LATE/NORMAL_TRIGGERED: 
DATABASE_VERSION: 
HEADER_FORMAT: DYNA 1.2
DATA_TYPE: Acceleration
PROCESSING: Automatic Paolucci et al., 2011
DATA_TIMESTAMP_YYYYMMDD_HHMMSS: 
DATA_LICENSE: U (unknown license)
DATA_CITATION: Turkish Accelerometric Archive v 1.0 - Disaster And Emergency Management Presidency, Earthquake Department
DATA_CREATOR: AFAD
ORIGINAL_DATA_MEDIATOR_CITATION: : AFAD - Disaster And Emergency Management Presidency
ORIGINAL_DATA_MEDIATOR: AFAD PROCESS SERVICE
ORIGINAL_DATA_CREATOR_CITATION: AFAD PROCESS SERVICE
ORIGINAL_DATA_CREATOR: network: TK
USER1: GuestUser
USER2: 
USER3: 
USER4: 
[...]
3.71055139339063
9.147334510928058
10.384355164620292
12.272694816417818
15.860723831233527
13.86939907648405
8.528772074983841
3.4350859786137695
-2.6078083387656705
-7.487438814202967
-10.332209204726698
-11.755417137792884
-12.135591115497473
-14.684066967300227
-17.1207255982376
-13.632992035456448
-6.744836655524816
-1.4257242477858563
1.1427855910837577
2.5095894442411484
2.298986988758608
-3.949579985613215
-11.496945488421765
-13.0096066117516
-14.208057920581878
-18.322915372883266
-20.16141618525302
-15.800782280154769
-7.467840836723841
-4.876565891737474
-7.976910850660822
-7.185328355916412
-3.9005616812223405
-2.7118176431162957
-3.755362522057904
-5.447793319256789
-3.3140528763346624
-1.8314486466472206
-6.9620289472188635
-10.744850914981829
-11.466440709351795
-15.078183047284423
-18.15153972384717
-18.149471041223354
-14.94668490818219
-10.778774647889684
-14.575558901559775
-22.7428678722913
-24.932183595151557
-23.791133884408012
-21.212559115954246
-16.380304827156184
-13.536524293027284
-12.422338140748334
-10.9950079582043
-9.578120338028135
-6.235700409290397
-2.3973368312021823
0.4210835412148738
4.474167247441224
6.227184575063951
5.403479035721515
8.685754489335823
15.451615011068455
22.301820033792037
27.360827904245298
30.333727950692808
31.4156438089771
27.258954553297063
23.769500191290028
23.705345974850292
17.082743092921184
10.815285238878374
12.810880714186846
12.581103642080128
7.568385799057872
4.081086449445771
5.915544526000062
7.478739015763607
-0.8524370642622043
-9.062670817917622
-5.120456194854396
1.5178129108064637
0.4390187112099337
-5.198043517359685
-5.396837672412497
0.8951456192325794
2.287656830909607
-1.7685460983165344
-0.727962667945745
2.147707751772307
0.4839580844760944
1.7020341128768832
6.566444758075286
7.860118773252258
8.969989239254218
12.655942203574135
17.34436683864903
23.427001252946383
24.770817260927636
20.598972857534573
18.801771445823515
14.323635294252162
3.1146110888743466
-3.6880901706041023
-3.7114002933558377
-2.8250704443486465
-0.2080970650860998
-0.35074298800153286
-6.739038660370103
-8.694047811349066
-5.300167678968894
-7.225664226903244
-11.620424641362476
-13.622383740025043
-15.392504800865826
-15.255581114098232
-15.632224572839638
-18.41774174625986
-17.506870554417276
-15.104763355741392
-15.114296383530545
-12.86313113384092
-8.716166460523466
-5.1077166604301825
-0.2693533284050775
6.343439520587639
14.886535163721572
21.904710317068037
22.956955658734838
22.8802488392106
25.97594072524494
26.809821598856512
23.5615212838045
21.65673420198473
22.024384065339515
22.37791400373599
20.902908244022694
14.053208028093051
3.440694743766532
-3.3411218786275128
-4.327966731800371
-5.85054276992464
-9.753721620694925
-8.81276579037597
-4.031331206078815
-4.358147665964955
-9.500213569609203
-13.424599908080047
-11.747136044288755
-6.387545352256391
-3.0267212223750906
-1.487062073920219
-0.8850189995604559
1.482379109654985
7.584137230713573
11.552294729433115
14.36705017185895
17.62025132477598
17.972369932020445
20.893539469459128
24.488394396833986
21.387740303563998
16.556396123551323
13.756521635951245
12.908512066184755
9.872176757110983
0.8609583747467257
-3.0102790403855115
-2.7469758325565863
-12.13975421096655
-20.40939873322722
-18.882975447398216
-19.0000746784844
-19.303382236211966
-15.463081621810552
-13.93480268238192
-12.889051964491749
-10.575475058100002
-10.916464259121765
-8.039198747747923
-1.4400301640892366
-2.6058490711282807
-8.41698571942418
-9.451791870092174
-9.614005765542387
-10.33773107621909
-8.124948325472829
-4.823914648735881
-3.3971914171885063
-5.989945082045776
-7.843633447700908
-2.4208260202585836
1.7410291296804827
-0.89448584899541
-1.9190272937031014
-2.9153295374979242
-7.133477714829829
-7.532031327729745
-8.278053847985117
-14.779822186263212
-19.414001401062148
-23.25433599382389
-27.89098217765071
-24.66089628460743
-18.83730384757316
-17.5527271525593
-14.515254996440447
-12.782518877465147
-16.122505827179552
-18.881197722978886
-23.27765424225287
-27.480661628668592
-23.175575076840786
-15.828176361537698
-12.488238233999018
-9.903483549093698
-5.904079680209309
-3.3064915676877327
-1.215621612949925
5.832532499943091
13.636808575874555
15.701669218395523
14.889316824281579
10.077628600232948
4.093722627472059
4.342903200023566
3.0792159789247453
-4.284149551909212
-10.210316102988765
-13.714172051892815
-17.853443062757243
-21.551494637615484
-22.244905422729936
-20.217176659253152
-14.307604142180512
-6.046931371851684
-2.886004992290064
-0.5066641096715974
4.500920275462315
5.396385265636736
5.145825887669991
4.617559617550226
3.545254935423829
6.207299058449281
9.49454400697863
18.161025432393476
30.265751251336514
31.324575245248745
29.353307286362252
32.65698669733071
35.10961989542739
37.78642933832977
37.43442033464178
30.212342200595717
21.912544493284674
15.975856054822367
13.306535840816736
10.379683513012882
4.10666821408372
1.295462748940808
4.340316192550762
8.267550405757731
11.902871166215087
15.796351458482686
20.128793220474858
23.043928517849615
23.951007214723298
26.331902724879438
25.439269894870975
17.76843490124282
14.800692979377377
18.770461059649033
19.878600589770574
19.71781003753324
20.519591657947423
16.061049021536874
9.982303450933143
11.28239068385086
15.490571088882328
17.40400461982371
21.152448840615723
23.044485052425156
17.330544569139477
9.342359618552699
1.6108826444066076
-5.696370609041192
-9.115046090778591
-12.051718548288234
-17.522216425750965
-21.154585619494206
-20.029297297334992
-13.543270328414623
-5.893569384354875
-3.284283572683927
-1.114593014816413
4.85932218593408
9.257462786837651
13.036632047618626
19.10197797040454
22.113493861031596
20.06405803631952
15.623204347431527
11.264515349665956
8.424100742259174
5.741842799412196
3.519313351900246
2.1970534001244983
1.752047255642311
3.2900867285049378
1.0713823301223733
-8.713386377605682
-17.51359498358394
-20.789405691918663
-24.925066525096927
-30.024779547115465
-28.488840340186265
-25.16919345096791
-28.969577587377533
-33.11887339825084
-31.94976397057261
-28.328325640994084
-24.39273909680877
-24.01119570599566
-24.02187577383132
-19.235027794963806
-16.402301874717622
-17.3020924575295
-15.749666341347766
-11.509100279098242
-6.699802452010019
-5.774825088468706
-9.811875534683287
-8.376828427826705
-1.2291307142467827
-2.035319519220194
-8.544389496574494
-10.246774285361404
-9.094185891975965
-6.147544317409635
-2.277943335802614
-2.880930631843721
-6.589560615033607
-12.51702170759748
-19.631781414843605
-22.978295968661158
-23.528614452257457
-21.33554154538096
-18.994111807946638
-20.890677611428636
-20.270824775584387
-18.697124946920212
-21.380379520218675
-18.87006514757988
-9.954811364537
-3.699036434951417
-3.042388120290287
-3.895502338132918
-1.010746990401903
1.7498892234814178
3.760142076324869
11.72346125320164
20.117212472741713
21.40262421649426
17.710209193032743
14.282563005798863
16.112059384957554
17.00042402828541
9.474805785048185
1.579025662535757
-1.609275542384029
-3.470453622802522
-4.150656121655536
-4.456915166907274
-4.672398546372503
-5.234204119292491
-9.082699058918775
-13.384631318304681
-13.812699698306679
-13.034471697061788
-15.29117613501473
-18.32269087466198
-16.735512909624397
-12.599866490244585
-9.591902621632467
-6.248789728307032
-4.06769333254714
-5.263683533501026
-8.317877136593326
-10.066470011769557
-6.457943085365032
1.441242961661231
6.778063354377794
5.330237375503315
3.1919565280835336
7.884579662871635
12.02653497318768
9.926608111912849
8.401254315411435
8.87118021494499
10.53546296372107
13.138859284567307
13.922867514643357
15.529726007030508
17.939753707707293
18.331056754591657
19.67378647369731
22.050658388225585
20.58739597184829
13.902997232912403
8.809463094912891
8.367899844585088
3.051225481682709
-5.450777824347016
-2.4199461498796353
7.3147622493080044
8.978805508175702
7.344718969274561
8.692099429305973
6.675171000597068
4.840393552251752
9.332444214563154
12.373637408014044
11.807152289720774
11.468724927183471
9.834664741752617
8.53111869596539
6.619249807928672
1.7407052192968675
1.3718016370185304
7.1286774263175445
10.29299368815794
8.568252835250105
5.81311941079491
5.330982109674799
7.2539795450932685
7.777030206617324
6.11163932642828
6.2011179622110575
8.370454509055206
9.64131982082187
10.609555592812116
12.416437981929041
15.541552498602087
20.792613657589875
21.483147725900675
14.515178233065662
10.265726104443774
10.439663711589288
11.176097643351161
15.03279625168523
16.559457259196886
14.503424977631601
12.991456838959403
8.602826234997199
7.231217049526066
8.05918976036355
1.3739182228466327
-2.6874791849875694
0.03902925670337708
0.099145979290899
-0.9997906072711652
-0.432578243967264
-3.38582376229787
-8.783082982383583
-7.253572987401088
-6.694422063692679
-13.138362085692721
-11.396902314773131
-2.2773096393384042
7.239196810417518
12.108194397667784
8.654688527096493
15.347312112623468
20.624089115542105
2.289569445154397
-4.227416345698216
3.6915938011974725
-15.464158898855255
-31.877171425811635
-23.538589649930667
-29.559916780253186
-30.617240018901
-18.98113811367616
-27.565028483976484
-19.674215613042293
1.0168535437905781
-4.80352238142031
-9.214632398845344
-5.361589423907105
-3.1043887747303502
-8.458510275172697
-24.461085976814786
-26.2211747777784
-21.32650875911247
-24.8938691062516
-29.822747191015058
-26.12011046981078
-11.170108874505882
-11.289473611767812
-17.870888315164287
-9.558242985564371
-1.528704069462484
-0.445696342507738
-8.050107831528196
-0.42061557542394956
18.262544673671158
2.635840967566544
-3.8198300032680375
24.831758184599217
9.009362982143012
-34.1390032550578
-14.76287245725371
6.24002184059587
-23.918273714983023
-16.326531023063694
9.480410860762705
-2.1988143618049394
3.3725598245310673
11.582558598077844
1.3433464040528265
4.878235778594243
2.477586442246704
-10.46275303619603
-7.656693310638399
7.14312169439859
3.588708470805946
-8.783933555744378
11.849695153835611
23.8631838959012
-2.4039894394698478
-2.3448907524634093
16.367181533801528
3.586012303345683
-1.4369484566019188
8.5414478561917
-16.060029440086065
-30.468502363547465
15.251078082803305
26.724910996675273
-29.145130580844945
-12.637979487469893
41.913806327272034
7.882437034693513
-6.3996661981215635
20.75670549247039
15.240949476944179
14.907686011402873
-4.350752374635939
-8.048567474550273
17.85288652360018
-0.8295761716198642
-7.0763462509209
-9.649904873716352
-38.55190297353789
-10.796096048599038
31.620974988270536
-22.979592081555605
-54.245364031904515
51.99677397947543
33.09952424186813
-77.31820864295923
0.5643779542273266
20.37539919967513
-31.021803479454345
23.279209686250777
-17.754213666978007
-33.271494017329246
31.7639873121335
-22.25210842357692
-18.225121442229952
28.044176081911743
-31.212586125200858
-25.318417567741808
-1.7048248589752166
-40.308289492314955
2.020062021293225
31.713645196724087
-6.380057904440146
18.08374590061817
9.579562713561499
-42.30983109847194
0.031595217493672875
44.76783593299359
28.6442432340972
12.597355493370152
6.081341510144822
34.451823352071656
62.49834149125315
8.455203527627821
-35.98695316141286
14.845363955645416
20.154255026111986
-11.655785037515999
48.98791587105021
42.585954927375006
-34.99119373774527
10.91992675107177
45.72817146985687
20.866976676370587
25.548231409478795
-54.475747065314295
-64.87892740815079
79.93331614595834
59.753529979640604
5.847990247533439
49.067226721046595
-45.580908365651865
-27.290186149945445
83.65146229753302
-37.3182357063052
-39.7646172421122
61.98785849834659
-27.589031107933963
-32.82954804185355
33.018798679515456
10.315032022817208
9.209206376939097
-4.446289435731564
-9.207324601710045
24.120517301785025
7.208381421621256
-17.970916523899493
-17.89187726425245
-15.156658549754185
29.646127995483223
49.216937459639716
-30.642828858663318
-47.74078217970358
11.754218153966802
16.550220838371153
36.74977321473122
0.6303806937172498
-54.60014783360032
38.40565056321404
21.506558961561495
-63.16015724878816
26.724234687481726
44.56392824424548
-37.33745802007197
-40.7457715462245
10.678857465209262
42.51667770334816
6.294773303576712
4.367863855100287
24.735280323888123
9.469210106846491
12.113369790685612
-32.14854285467966
-34.94676999621171
29.553502914105934
4.094875879677485
-33.49163224209242
-47.06337691140277
-39.11388087809867
-9.825941709892993
-29.281811039515283
13.271207816279809
39.13207031327344
-6.1265864882181535
62.713153129733506
21.05511149956545
-96.8225428160688
37.85798796920149
52.824425819694824
-110.48319734000123
-16.20507843629591
59.923201113635486
-59.66062813196923
-30.339925368795615
17.9706111285435
-65.63405030463255
-9.863844015041279
51.82555126693866
-68.92605747240883
-42.655059471628846
75.07915538256955
-10.28698682536793
-59.4799939901796
2.0926685995075642
-24.91770165424932
-40.41163890149934
6.460510963182067
2.1064974537657335
-8.722101232019225
27.763704971147902
31.64790687605411
8.279005640174283
14.433064540992865
-9.488206554200994
-47.86100094321813
-33.77155979926772
-33.46991346575606
-59.76114638264299
-15.652033121784086
55.487104273424045
17.476291450550928
-23.605664326370576
41.62734178862168
33.42339938076118
-28.654781284094195
1.4343687904601126
17.138542098390282
33.188800757076656
51.846200467079676
-28.446371502624018
-32.92050372627674
30.94362803724487
-14.923368032741287
-31.88179116602206
-6.632895940194627
-49.41444514325644
-65.14604036508389
-32.94361034980549
-12.56240957203314
-3.6958033246473696
5.873185641764522
7.527400604609501
-11.075592759072464
18.712246278838887
62.402450531977095
-8.307331836607128
-56.74378239903068
6.562096919177512
1.3436263257008745
-27.423379913257882
15.970273263193066
-4.297317198467931
-36.87186909487827
15.484735838019184
42.7862040243837
25.46576539739221
6.481858473585249
-14.577431301243093
-26.13627836787015
-18.32362057349087
12.274422750330563
-18.437435590141796
-77.87974960778068
-4.290404303224802
40.77014584458125
-45.822750862615145
-22.472843332287436
23.635752417356652
-54.641554301433025
-38.389833512804465
15.363760318794949
-43.25346075976913
-27.331285039333654
29.62804612282966
-16.7455264296218
-11.034278805140636
63.399634393182296
43.662018179805415
1.098016421192576
47.64626329836292
60.438091540738895
-2.6368935023709676
13.030134837782574
47.88826729648492
-10.645093076147834
-27.094041339202924
6.484277644317556
-11.24897177659112
-37.7021997201245
-26.409699211222364
11.320952843739976
6.764040337460144
2.860103341609943
61.78739524923501
40.739145002828344
-0.9216448648189135
42.01548192129408
10.580691040342971
-30.944931920758318
16.94588184885536
14.961692930541098
-21.003730758775763
-18.496902506736816
-8.69003768135017
11.073798452526546
6.077792712121913
-34.474260112729056
-21.863568570148562
0.3928341664700262
-38.77712394529272
-30.251796179511558
-1.4425766057337703
-22.62208136118837
28.5094596134373
67.0039013769116
5.150457665224693
13.66872705137357
24.097776097834714
-38.03621089565915
-6.367173235901952
38.47566090459812
5.95528577323535
24.42406126444629
44.600225166271905
17.560163817906332
28.95503570777456
31.970002592846328
7.494059729091245
5.0981619275731855
2.1122065871071283
16.322038040582516
30.690005074704867
0.8692025552263434
-4.046984481139792
22.968038714577197
19.31712028620655
4.517411792127018
-4.616799907649903
-2.168453913800322
28.11219721183428
30.24200608934174
-7.206680529118671
6.798587765166816
40.75098139152787
10.825830809559925
-3.5317214976606626
26.28359762888281
12.365840247024048
-12.451128452946943
-3.59801007754404
-8.905279037613854
-9.99959590978475
11.446902682903387
14.248489676630065
7.370720963769237
1.3997646302154723
0.47251766227607256
11.718547821833221
1.1100732902658872
-9.09291020421998
0.9364083471569523
-7.389867602908505
-12.789900765898953
-10.518706002199067
-18.13494031892753
-11.075813392555114
-2.788241262248958
-2.092696116069704
4.712902694179415
5.931280426502713
1.4201364746676797
4.947739187723571
9.680469721006999
-15.150458929660946
-33.390495253988
-2.7961825978941457
-2.3919343500826007
-20.83482248121009
12.880144804401017
13.4006270822209
-17.623030291322728
2.079242056064262
14.493232005296628
-1.0757446971277906
-6.880978630956277
-10.824903939590047
-9.819599777738995
-6.94076700283769
6.370074586664669
25.034394809453975
1.554006266690731
-30.068940417639006
-14.061558410472042
8.545058065084612
5.583225058952772
5.683938283916891
14.203939397500491
10.55614721189658
10.27477065360725
21.647897267985424
15.722820844531604
12.243000675571661
34.92431285656601
37.016382924226285
17.13540851891851
12.837742599600446
0.4393606527395312
-11.006745771088669
10.197534761033532
19.03055349653047
2.6633692658172667
2.818726108988162
9.802037045924454
-2.000060350546885
-19.170131773165952
-16.812430388112464
-6.130642483266475
-16.197376702150866
-28.33657054134774
-15.584791608622076
1.9908196483219212
-1.0245815621008594
-16.57292514158686
-12.595586098021398
12.531519512401283
20.15096122024362
7.593832781712302
4.918573971032135
14.299228419344491
19.772011928656774
9.597935280960025
-3.3732855132093897
1.4665298845334018
2.1009294701562844
-9.238586019730779
-3.171859616939358
5.828078701455225
7.0997297275015265
21.863129855783185
23.224562761100657
7.298380956756637
18.665095348582827
26.121951171398905
-3.0338016630831253
-13.766823874573271
1.2035858670866098
-6.235747881699684
-22.13263287203216
-20.48414727832844
-13.164825789701917
-4.6110164181733895
4.400953825165953
7.247811555788466
4.095092314821081
5.2271587884064985
10.562702493429448
-5.356450064836448
-25.901137269673324
-18.507703970544224
-21.413538190501068
-40.17383079657378
-34.72283018030991
-22.983595284209713
-14.55427501329435
-3.7513998609706687
-8.744691860376001
-11.724425737546333
-2.557904638813299
-1.6531712010036053
1.8013000784159146
12.71727779140965
18.285249255269093
15.671910344842246
-0.5452882807689986
-14.398916264709852
-13.664814508379447
