AAD_Filtered_TADAS_FILE
AAD_BASELINE_CORRECTION: BASELINE REMOVED
AAD_FILTER_TYPE: BUTTERWORTH
AAD_FILTER_ORDER: 1
AAD_LOW_CUT_FREQUENCY_HZ: 0.025
AAD_HIGH_CUT_FREQUENCY_HZ: 40.0
EVENT_NAME: 202302061024
EVENT_ID: 13207
EVENT_DATE_YYYYMMDD: 2023/02/06
EVENT_TIME_HHMMSS: 10:24:47.00000
EVENT_LATITUDE_DEGREE: 38.089
EVENT_LONGITUDE_DEGREE: 37.239
EVENT_DEPTH_KM: 7.0
HYPOCENTER_REFERENCE: AFAD
MAGNITUDE_W: 7.6
MAGNITUDE_W_REFERENCE: AFAD
MAGNITUDE_L: 
MAGNITUDE_L_REFERENCE: 
FOCAL_MECHANISM: 
NETWORK: TK
STATION_CODE: 8002
STATION_NAME: 
STATION_LATITUDE_DEGREE: 37.19156
STATION_LONGITUDE_DEGREE: 36.56195
STATION_ELEVATION_M: 593.0
LOCATION: Kahramanmaras_Elbistan_Turkiye
SENSOR_DEPTH_M: 
VS30_M/S: 430
SITE_CLASSIFICATION_EC8: unknown
MORPHOLOGIC_CLASSIFICATION: 
EPICENTRAL_DISTANCE_KM: 116.24
EARTHQUAKE_BACKAZIMUTH_DEGREE: 
DATE_TIME_FIRST_SAMPLE_YYYYMMDD_HHMMSS: 2023/02/06 10:24:47.0665590
DATE_TIME_FIRST_SAMPLE_PRECISION: millisecond
SAMPLING_INTERVAL_S: 0.01
NDATA: 12501
DURATION_S: 
STREAM: HNE
UNITS: cm/s^2
INSTRUMENT: sensor = CMG-5T/GURALP | digitizer = 
INSTRUMENT_ANALOG/DIGITAL: 
INSTRUMENTAL_FREQUENCY_HZ: 
INSTRUMENTAL_DAMPING: 
FULL_SCALE_G: 
N_BIT_DIGITAL_CONVERTER: 
PGA_CM/S^2: 45.507
TIME_PGA_S: 
BASELINE_CORRECTION: BASELINE REMOVED
FILTER_TYPE: BUTTERWORTH
FILTER_ORDER: 
LOW_CUT_FREQUENCY_HZ: 
HIGH_CUT_FREQUENCY_HZ: 
LATE/NORMAL_TRIGGERED: 
DATABASE_VERSION: 
HEADER_FORMAT: DYNA 1.2
DATA_TYPE: Acceleration
PROCESSING: Automatic Paolucci et al., 2011
DATA_TIMESTAMP_YYYYMMDD_HHMMSS: 
DATA_LICENSE: U (unknown license)
DATA_CITATION: Turkish Accelerometric Archive v 1.0 - Disaster And Emergency Management Presidency, Earthquake Department
DATA_CREATOR: AFAD
ORIGINAL_DATA_MEDIATOR_CITATION: : AFAD - Disaster And Emergency Management Presidency
ORIGINAL_DATA_MEDIATOR: AFAD PROCESS SERVICE
ORIGINAL_DATA_CREATOR_CITATION: AFAD PROCESS SERVICE
ORIGINAL_DATA_CREATOR: network: TK
USER1: GuestUser
USER2: 
USER3: 
USER4: 
[...]
-2.149621727143254
0.800892852568287
2.5056440625709024
3.5581714440332264
5.004774223116567
6.701540584884233
7.189748068398215
5.705732947317029
2.2711778497981876
-1.8355413550957167
-5.140026944512321
-7.152052987435516
-8.164004421589885
-8.258810225675512
-7.12056877314274
-5.12338906824051
-3.350812505404515
-1.7199637449911558
0.654993130400991
2.603760148222693
2.8063300588266507
1.234978722489415
-2.807677254444138
-8.529166736714817
-12.684474353761562
-15.355945918369637
-17.985146709153145
-20.15311883479268
-20.46762313431854
-17.722769702418056
-13.00535795343253
-8.283658188320183
-5.249213913994373
-4.025376986699396
-3.19024768667761
-2.647286500962577
-3.669993922347365
-6.538709618662872
-9.841608425122201
-11.549633838599076
-11.36627205905592
-9.811030321549794
-7.895436760633869
-6.965027678792266
-6.445705170883613
-6.790434312114677
-8.64709792655069
-10.771809337272664
-12.648127637196843
-13.906945677860207
-13.903805946273392
-12.953325361153581
-11.516106510062748
-7.926512222842263
-0.513540939122564
7.9918731039940685
13.73070645005021
16.78541850775726
18.66927618990315
20.030773657538905
20.17902385246158
17.191874918173177
11.159515513790478
5.104507538791919
0.2258677983585126
-4.786860996069534
-8.861500762249552
-9.54209360793122
-8.220618358556612
-8.207669931620142
-9.664301983225972
-11.897433786053123
-13.397890769433692
-12.524706195230824
-8.997812714330646
-3.116781325067725
3.2092675891447566
7.696862265243427
9.682348210085028
9.554145889528778
7.732880846463578
4.692141219667842
1.5839099105307566
-0.1040712161646245
0.24256061696788234
2.1334373740213897
3.962765855903625
4.813970631872349
3.754894983953459
0.25261962807603433
-5.1233384250092096
-10.093336992403074
-12.674943536881102
-14.029738450766432
-15.334037015305263
-17.30982487745166
-19.606591079221047
-21.243744606030404
-21.79457987888142
-20.541548338613044
-17.381358334176824
-12.846365995070775
-7.507944174575456
-2.4119457151430623
2.0587281744490715
7.167414636552361
11.635929408576777
12.059443314074816
8.349546975109785
3.114924316941699
-0.8402627276476992
-2.538679691826128
-3.515955728789074
-5.328688501419818
-7.338905236092289
-8.977026415618154
-10.412568919462124
-11.032871032552576
-10.84757724013298
-10.119884232757709
-9.37631963341924
-9.08616333180963
-7.840012404164181
-4.688429511966318
-0.3335550294626241
4.070717173050091
7.22143511655149
8.333375901148887
7.993278150078643
9.106903657966114
13.334850986513963
19.341663630116543
25.722214916889502
30.43044920178203
31.667731478197226
30.129371122279103
27.629391175759007
25.3721363964597
24.201765622465278
23.732361836016057
21.728448927696377
17.12232269503543
10.625105696197283
3.9405061871039395
-0.8184002998696622
-3.5404698285129435
-5.191960858918688
-6.397349711173098
-7.665936082856929
-8.936559798721213
-10.275604392353811
-12.325049038066926
-15.098006485164897
-15.633351241961144
-12.73696885867436
-7.617729512643677
-2.8327418826745423
-1.0656584554239945
-0.7361842177061163
-1.0530811596872878
-2.0832670747962587
-5.520558324234844
-10.201613010701422
-12.701838512795238
-11.710515451028773
-7.884233039944124
-5.0629947293587545
-3.0510130240558837
-1.208222829253759
0.7366063872398483
3.0161705635926253
4.813181401185922
6.7516252507822285
8.157187499822806
7.620825148428901
4.399398145933252
-0.0462061253622866
-4.096034092229204
-7.396858488352325
-9.090419806583693
-9.203485002502388
-9.003152324024898
-9.602571846360373
-11.18687568727552
-12.56758056646893
-12.982361269445747
-12.17298571506918
-9.443365277276325
-5.784362809085373
-3.8563866645712133
-6.040473826282661
-11.832195409606676
-17.49706079185581
-20.955114232494942
-22.402538880628416
-22.99619385190435
-23.13262426571477
-21.800839398091135
-19.56817763424484
-16.601546245277003
-12.27334392737396
-6.619160661552018
-1.5233822872522444
-0.003181581514440232
-1.80146751025509
-4.877475093849564
-8.561309758463699
-11.947441345721025
-13.802345247054209
-15.528285023487342
-17.237328092089125
-16.703674734688573
-15.352521489307549
-14.427403779219727
-13.11778266576256
-10.816751383404606
-7.045243291774321
-3.0135362811229314
-0.07053510742035028
1.6841527705009456
3.6003814442857522
7.026124005090917
10.257510443422964
11.1871883353375
10.21756408806105
9.252696102764645
10.330079816197017
12.938276867403872
14.437366662333993
14.446251974876848
14.708264046259208
16.24577968241934
17.159667071230118
14.289785554785105
8.21509042584035
2.5075950741708315
-0.4395478270980997
-1.875937399356311
-3.5864929030860515
-5.114258173344408
-4.480330160403096
-2.4906125449270635
-2.7098161644392076
-7.11978671520648
-12.598318378701103
-14.09572691952701
-11.251575282731743
-5.816104377128029
-1.6689058340375211
-1.6555445152581207
-4.575393937135522
-8.027931357630097
-10.270669417886564
-10.307935643094467
-8.311922361677116
-5.68596400335608
-3.0050543203671873
-0.17016703406098252
2.2055135470724214
3.439524045843711
3.459605122856415
2.4619221508678506
2.000751418592064
2.8872509048452537
3.585775537364261
2.38061214683418
-1.4443497500026883
-6.885696845039116
-13.126963706876372
-19.58702580623557
-24.706542447516828
-27.91068907610694
-27.942275719778063
-24.032168768321696
-17.70221254005857
-11.880366930342275
-10.023028810755445
-11.655217730964164
-11.872039453038052
-9.170945609225623
-7.086944972220945
-8.06362487937142
-11.464454409904311
-15.443275226829943
-17.79985464597447
-16.026871793703684
-11.190352841095509
-5.594748360849874
0.6312886316436506
6.160101390330522
8.531985443476163
6.786454076587068
2.4590051474787016
-2.4540020342664652
-6.948646869152743
-10.45202695851236
-12.615088430583265
-13.450604847594894
-13.199158059155279
-13.650268816111177
-17.582214408477252
-24.391883886824246
-31.079232939348195
-35.07949491654755
-35.24790761746867
-32.54397143564897
-28.924436729200178
-25.884957182851405
-22.515073609882926
-18.71587319784815
-15.727775965892683
-12.96069025354268
-10.137504109381247
-7.751194022377262
-4.9465974870485665
-1.3029889751014565
1.1112396383196368
0.7007750076779756
-1.6645468678378355
-4.424812257951004
-7.422687682976797
-9.721637012592666
-10.410124762761757
-10.420405139349286
-11.590944784000975
-13.710410672771506
-15.310318140130155
-15.94886457667767
-14.91185635615583
-13.695168877448133
-12.8964796636625
-12.524887653037124
-12.143967400638642
-10.661060606605922
-9.362910446103971
-7.227880933338356
-3.4479567575427903
0.13376355395475836
2.611346142126764
3.9770611941060445
4.6327371805267745
3.6363433691092837
2.2279832847436256
3.5591535754166412
8.391334969185078
15.746397025902032
21.93130286826985
23.15631755746221
19.13141349907931
12.299049644017778
5.023785810411171
-2.4007129172799506
-8.647771994938514
-11.298112573256153
-11.789721905210898
-13.127635456464514
-15.864320271161445
-18.151752499490694
-18.576027719248298
-16.297061369643295
-11.410050818149895
-6.241258467549782
-3.3584963559766026
-2.1339992931774736
1.3096824660708668
6.930565746387113
11.402758095776546
14.13376856251364
15.539387421000189
16.689223054687286
18.183577377502992
19.391906832560142
20.581074317047094
23.0522379391603
27.630068130379158
31.315191092451784
31.25823951420294
27.060615082716335
20.315764059635445
13.143483636591208
6.139729428547069
0.39167591780659555
-3.220173332304916
-5.7625012401430755
-8.310310319727273
-10.933366186026149
-12.707916294482827
-12.940315309197073
-11.55072838059959
-8.153761015473469
-4.008058782961143
0.2739953228845337
4.091481312625327
6.387686069760463
6.583170060520085
4.8489819043098965
2.691100271786091
0.7412451094806922
-1.6832512216583295
-4.697333877138828
-7.20409156030066
-8.711750951251078
-9.51634116758307
-10.142045475880932
-10.653566972497352
-11.800981117380445
-13.190445278384114
-13.066673639815447
-12.4376624286049
-12.902595203941594
-14.003716373622836
-14.953480896342379
-15.524917196878304
-15.84216030639077
-17.11514966839941
-18.57901596398404
-18.22630668331167
-15.162008227568577
-9.990263524702131
-5.15885727924985
-2.226684207316557
-1.838993434124878
-3.8941840262985803
-8.521258521255897
-14.829812346779555
-20.25387339051085
-22.213172875714537
-18.879014696817258
-10.882003763470205
-2.0759012940003694
3.81925869560745
5.98528674356304
6.199374946403868
6.51251898734706
6.099120426685717
4.317401254972468
0.9567728554859917
-2.80431949565367
-5.304419851490027
-6.740631096680275
-8.201026756148638
-10.588228379358116
-11.984781581512369
-11.334273545474344
-10.110214579423602
-10.118794597821568
-12.332709718506203
-16.06475199958922
-19.239489779843822
-21.206873330497963
-22.34012527353667
-22.511105301103424
-21.157064823773645
-19.19443899150454
-18.370816896066263
-17.07151884996029
-14.410811246848322
-10.457270730057195
-5.380624565596288
-0.736057111488502
2.510841040965452
4.725588725121157
7.079393595115997
10.109299220627639
12.33278628136994
11.837366130552265
8.408689476298521
3.1183047233834005
-2.1866208217406906
-7.295142641558395
-12.104698695928956
-15.424819075771792
-16.62701820343957
-15.671923062031617
-12.782418283608363
-8.996690211793155
-5.24325352783386
-1.9630489409418446
0.42843072030672225
2.7089407968664965
4.603297753808793
5.568642212039311
4.7879209895919415
2.098893770400153
-1.470503046654319
-4.770121485136363
-6.480467294996548
-7.056781862234862
-7.719381851971698
-8.87341567974312
-10.074386936631818
-10.313417467416587
-8.657887229495248
-6.177438289704688
-4.4411371859020425
-3.6257244143550444
-3.593667213144994
-4.285163870068442
-5.175924263320126
-6.20811744070368
-7.297852078951926
-7.137984806528059
-4.666906552211259
-0.2601592418029981
4.967764014043199
9.868006971164958
14.253293189536466
17.705457981099418
19.21852831236289
18.80613098831377
18.045053444668515
18.363744057029113
19.181952720060313
19.64804777326638
19.072685013358072
18.334406440157103
18.547981784622298
20.03471803834027
22.252595962125838
23.54491674653467
23.382540303874293
22.684536269036755
21.51907208288228
19.31760042577909
16.015754938212492
11.668770207900167
6.296742529937322
1.1221898684991598
-2.775458631545227
-6.784388747571489
-9.931018240128044
-11.17857466361493
-10.85252011675096
-9.56312591647561
-8.726420689620824
-7.465161252439077
-5.3881009541278715
-3.206733260319247
-1.7691909877116672
-1.62901916202422
-0.8606799354549892
2.474243937683386
8.457679613948754
16.45388610327728
24.28856377508742
29.215126918244746
30.754918283193692
29.348129531760282
25.19328250516842
19.255730260580265
12.584832370868527
7.564249221199236
6.226663793319844
6.812545295234966
6.827883864228147
5.528597370554471
4.021118170941946
4.346228829458221
7.146076137349947
11.36497526598813
14.704456510931111
15.234700963768237
13.8487836415055
11.248058372111467
7.502894918003112
3.474237076138866
-0.7171036930105195
-5.164150763115106
-8.955051884025707
-10.547502212135445
-10.507467304101139
-9.274030311570368
-6.937919233508395
-5.072181032841311
-4.345015281672956
-4.240326089341583
-4.029397420401031
-4.128293287713193
-5.41361911488824
-8.234406568518615
-12.112067689971417
-15.992514468230791
-19.558027072480808
-22.33315106125133
-24.88481384715572
-28.00540372016895
-30.63460556505003
-31.420793313160747
-29.848824120273928
-25.950852162548998
-20.540190961148834
-14.47479044570753
-7.515995995075345
0.6110514069018496
9.798383314050113
18.379274844357294
24.63580247114503
28.184110265753795
29.039913770444407
28.244109468392466
27.392998559631824
26.155217975185938
24.019793915496365
21.245623910633515
17.319615784818573
11.779555685431207
4.646679287101701
-3.4733699924185526
-12.172925110226513
-20.233420326417537
-26.352083887905703
-29.70686524039529
-29.978252849226713
-27.764219043952174
-23.79462336876817
-19.91394499123244
-17.237502324258454
-15.319594487491525
-13.735467493754674
-11.917149236826042
-9.099918341198126
-4.6869955836477235
0.060419224561599455
4.45004482008116
8.176641270198115
10.07717732475225
10.764713605057077
10.966471861857329
11.108335377929828
11.437337340145028
11.395437839833326
11.120941462418235
10.818784656748447
9.701810304199318
7.751172311031848
5.344799026855793
3.7402422375356115
3.9462928877570786
6.050267056766819
9.615105839168587
12.565003847099778
12.862913890572035
9.904623924083714
5.148983928504626
0.04569613598171263
-3.5164301542904406
-3.196436915133224
0.7227621929589568
4.74076168054203
6.278873779536941
6.26783266944635
4.650548626323394
1.747840618996629
0.6299089141337604
2.8712850459288495
7.860575776192318
15.541498724136208
25.593371507587904
35.24743623992895
42.23380116333516
45.906605741040394
45.99942755257024
42.8731695232387
37.22818303572235
30.533341963396367
23.844033564562018
17.389197950644235
12.346581339329877
9.705615420081513
8.898000215042615
9.85054939038665
12.567416667800597
16.539762357770318
20.70544133925385
23.7827083467073
25.536677422290012
26.41533202749552
26.239110953910636
25.03385929131433
23.441327762805688
20.765211423339444
17.087220938666164
13.15278153405192
9.682768068523178
7.1935595991596575
5.696846595169622
6.020088757784898
8.981040300931433
14.086306259479528
19.612033958237003
24.023695900192365
26.520643351753563
27.37153052050853
26.80029795483968
24.80608391033258
21.165820762573826
15.381812401758985
8.515312075906634
2.2700437537643143
-2.7985493365251894
-7.175126752974523
-10.677382917433004
-12.259547520077296
-11.546442495085493
-9.209371968507284
-6.691019585332196
-5.702198817346688
-6.944163462194782
-8.750813673263922
-9.594618663045877
-8.786109249687355
-5.320205959254831
0.09929027924765252
5.509266482540785
9.436549060491648
11.830265015783898
14.247680580371465
17.469336177450913
20.117591899907783
21.431278588340106
21.812483042227967
21.00091601225746
19.19666317391585
16.986883377288407
14.164886690223197
10.291587613445763
5.193007545917919
-0.27855469938791155
-5.028824688128049
-8.864780104782964
-12.151992193792466
-14.920417423850237
-15.573110884902231
-13.145553166439772
-8.988819544475549
-4.620758688061825
-1.425340219801993
-0.5659607146786134
-1.2548085204426715
-1.6944191576707088
-2.290757841079685
-4.77636972134378
-8.587798922096406
-11.999921020639116
-13.542135369448838
-11.96863082871413
-7.741292136098767
-2.450107962670205
2.629743718645863
7.358135012085554
11.634513889029805
14.304222916678176
14.033336709129982
9.708010491358628
2.5477406103519633
-4.6577289653415255
-11.657592853473094
-18.440392236312462
-23.113364630757296
-25.03079201781543
-24.734800719190623
-21.839374705806527
-15.453791032325649
-6.521228492047067
2.432521623356475
10.091757208244351
16.2438490695598
22.013875940227223
28.688969683539437
35.82510197640115
41.71709201477203
44.83504505385977
45.88657497697416
45.852428089705704
44.575330350110995
40.60310402748742
32.36565182029902
21.05898230835721
9.794396778943987
0.4711584432872979
-6.649921125937256
-12.081353103281467
-15.943064994441043
-17.131256193609335
-16.377469334447678
-14.573493755148117
-10.762688925881564
-4.568095363314727
4.404056964115703
14.948244024366385
24.174930843893204
30.47320524233948
33.858325446031145
35.2528188810684
34.742884449393415
31.905780543350712
26.211028214636855
19.407987543762875
14.796748560356725
12.963637152022347
12.27270292055404
11.845429874987056
11.970698457561033
13.009703684573836
15.638645363723455
19.18187933577306
21.603572306834995
21.357674265697284
18.16509443789045
10.51767561746092
-0.10796009938870434
-9.970192732500758
-16.883367140827076
-19.484736670105384
-19.224002846693644
-16.801149279583342
-11.780549873378586
-2.8592902006699603
8.680269092689022
18.083714791494213
22.52726700493359
21.971176229209995
19.9463686870709
18.71967418272454
15.59256950878652
8.250218868847735
-1.5539585681308248
-9.051357198739014
-12.705151511698944
-14.188158411267711
-15.132979226381089
-15.940960984587681
-15.618513719129522
-13.605037569826889
-10.417215281651853
-8.600514214627283
-8.920682867016362
-10.34926322154938
-12.375498315979854
-15.349835736992517
-18.248949763912506
-18.851213063799214
-16.68048692788821
-12.791869835876868
-7.719777061845521
-2.2434325092615355
1.633661808503196
2.6023647723537677
-0.108372351047665
-5.835082077154079
-12.705298855976725
-17.29033405461133
-18.14112379795292
-16.150491209272882
-11.78978382415667
-6.361208596895362
-2.453140748993657
-1.204179866294251
-1.5155658545243904
-2.448463829747928
-2.337928776316363
-0.7755760167248453
1.7122608138643793
3.8253937490145904
5.245918695591818
7.681484033804009
11.424095455308997
15.047800547948034
18.16660821523308
22.888478278444456
28.453561052198275
32.435859662603164
33.35360230134469
30.523188871377165
26.273659064298332
23.00880285146627
19.50316153776899
14.055106137728291
7.606812850342376
2.1641645132314413
0.47734472517009824
4.034312505124272
9.83813860462222
13.815381716587957
15.25869049387562
14.089027596610782
11.340816064778629
8.925374142925179
7.323100615284428
5.716544562626134
3.0126041773788965
0.16265576931678638
-1.8766284868890408
-2.8557223643293135
-1.8837883105698539
1.3348679104836771
4.737868194585477
6.72088566431234
7.538789232986705
7.735894055927855
7.850836767975219
8.069337850210664
7.938625630536003
6.92554283155766
6.224089089054834
7.287662529644363
10.505711071916108
14.126240299287524
15.523573338610792
14.428291148729265
10.722092234638273
4.822065674731677
-0.9124520764426285
-4.642479916767769
-6.672080431804766
-7.200448210110198
-5.404683453735889
-2.137423893055179
1.204566206434626
3.9992720245938327
6.096814794573421
7.2529819024036914
8.119949292116925
10.388053345122108
13.980635812908414
17.436804153693796
19.793707469356878
20.356151575409754
19.18730945645476
17.57614745986535
15.837554988578274
13.410043649951808
11.105826820169279
8.899493008277517
6.229666843434557
2.8576475774990113
-2.1691736204134315
-7.364218369257795
-10.625767164732913
-11.371792537070563
-10.150300962429128
-8.43504688564836
-7.33729753013382
-6.1275337628327256
-3.4095781425216107
1.1897793148981017
6.61424346647756
10.813835945411448
