AAD_Filtered_TADAS_FILE
AAD_BASELINE_CORRECTION: BASELINE REMOVED
AAD_FILTER_TYPE: BUTTERWORTH
AAD_FILTER_ORDER: 1
AAD_LOW_CUT_FREQUENCY_HZ: 0.025
AAD_HIGH_CUT_FREQUENCY_HZ: 40.0
EVENT_NAME: 202302060117
EVENT_ID: 13194
EVENT_DATE_YYYYMMDD: 2023/02/06
EVENT_TIME_HHMMSS: 01:17:32.00000
EVENT_LATITUDE_DEGREE: 37.288
EVENT_LONGITUDE_DEGREE: 37.043
EVENT_DEPTH_KM: 8.6
HYPOCENTER_REFERENCE: AFAD
MAGNITUDE_W: 7.7
MAGNITUDE_W_REFERENCE: AFAD
MAGNITUDE_L: 
MAGNITUDE_L_REFERENCE: 
FOCAL_MECHANISM: 
NETWORK: TK
STATION_CODE: 4407
STATION_NAME: 
STATION_LATITUDE_DEGREE: 38.78066
STATION_LONGITUDE_DEGREE: 38.26406
STATION_ELEVATION_M: 1165.0
LOCATION: Kahramanmaras_Pazarck_Turkiye
SENSOR_DEPTH_M: 
VS30_M/S: 735
SITE_CLASSIFICATION_EC8: B
MORPHOLOGIC_CLASSIFICATION: 
EPICENTRAL_DISTANCE_KM: 197.44
EARTHQUAKE_BACKAZIMUTH_DEGREE: 
DATE_TIME_FIRST_SAMPLE_YYYYMMDD_HHMMSS: 2023/02/06 01:17:46.0495340
DATE_TIME_FIRST_SAMPLE_PRECISION: millisecond
SAMPLING_INTERVAL_S: 0.01
NDATA: 13501
DURATION_S: 
STREAM: HNN
UNITS: cm/s^2
INSTRUMENT: sensor = CMG-5T/GURALP | digitizer = 
INSTRUMENT_ANALOG/DIGITAL: 
INSTRUMENTAL_FREQUENCY_HZ: 
INSTRUMENTAL_DAMPING: 
FULL_SCALE_G: 
N_BIT_DIGITAL_CONVERTER: 
PGA_CM/S^2: 43.361
TIME_PGA_S: 
BASELINE_CORRECTION: BASELINE REMOVED
FILTER_TYPE: BUTTERWORTH
FILTER_ORDER: 
LOW_CUT_FREQUENCY_HZ: 
HIGH_CUT_FREQUENCY_HZ: 
LATE/NORMAL_TRIGGERED: 
DATABASE_VERSION: 
HEADER_FORMAT: DYNA 1.2
DATA_TYPE: Acceleration
PROCESSING: Automatic Paolucci et al., 2011
DATA_TIMESTAMP_YYYYMMDD_HHMMSS: 
DATA_LICENSE: U (unknown license)
DATA_CITATION: Turkish Accelerometric Archive v 1.0 - Disaster And Emergency Management Presidency, Earthquake Department
DATA_CREATOR: AFAD
ORIGINAL_DATA_MEDIATOR_CITATION: : AFAD - Disaster And Emergency Management Presidency
ORIGINAL_DATA_MEDIATOR: AFAD PROCESS SERVICE
ORIGINAL_DATA_CREATOR_CITATION: AFAD PROCESS SERVICE
ORIGINAL_DATA_CREATOR: network: TK
USER1: GuestUser
USER2: 
USER3: 
USER4: 
[...]
-4.771427320427958
-4.660768722277074
-4.720754904025987
-4.985966740764823
-5.078187168432211
-4.8790745140332
-4.5614533859519035
-4.44618951921714
-4.64526434164128
-4.722627088578155
-4.223737614758066
-3.2400178560280546
-2.2776352128751354
-1.887332944818134
-2.0657445346903383
-2.072061342139237
-1.4873602737892773
-0.48868098422268585
0.6030967252021213
1.5830165821438158
2.2393829621416845
2.5055226334865033
2.5410909005890283
2.632632063764077
3.009737519600199
3.386923834413049
3.336976503101251
2.892624937541401
2.436430852169164
2.086665476487205
1.7399478237702317
1.3344611593603095
0.9173232987727288
0.648679898555725
0.6104190634084579
0.6391701497649904
0.5769485244442775
0.5366100472360116
0.6676178683825291
1.0193537412796172
1.464186140928142
1.781452473701161
1.7550965002144592
1.4775911003693347
1.1710961181571693
0.9529246446659596
0.9465598894461165
1.0559190768532756
1.0881987816766017
0.9585216117375434
0.7944586714375942
0.721125804947349
0.7849356401161925
1.1251540860918163
1.8475836358523876
2.8365592530899923
3.7709392546926113
4.308068662991188
4.433720723536924
4.388997191323563
4.325139224016068
4.2510068789745405
4.224531528132815
4.358933538456125
4.303865824035491
3.7748293419651953
3.0111224898056346
2.3814358468159464
2.0411036688540856
1.9318176625603314
1.9942848738035852
2.015644981378155
1.851438344463177
1.763531455114518
2.0459884451522927
2.343425765425213
2.099001617880851
1.4135813083184983
0.7575840128072073
0.41553888006530876
0.392330957281888
0.40860155079352073
0.22577851857758313
0.04215354084566163
0.2661424735198862
0.8255658707773376
1.0736878402209802
0.6094037364560945
-0.31280904750751143
-0.9212795051911208
-0.8427448390820893
-0.49012846962079937
-0.22430133545938782
0.058075208230538904
0.46978981137394293
0.7504005287929681
0.8966677815054921
1.24787299573423
1.7582467759770786
1.7546832042836504
0.951721099184044
0.07294609065042754
-0.011633128187671385
0.7425231535432338
1.4493934684343286
1.3517359850514596
0.6284212738988278
0.1589362620089991
0.39275237835410204
0.8477964225404556
0.9065845906272451
0.5059529784944795
-0.061040656754038
-0.5204756557447331
-0.7797426006161199
-0.9687365697268134
-1.254945122276798
-1.6248483238974427
-1.7873901120557476
-1.4959594834794276
-0.7223495209379128
0.013556873886560974
0.10901611734304542
-0.27607494623355494
-0.447446506503093
-0.04760592518156646
0.44620563509793537
0.5889557990877629
0.31880153621534324
-0.21647577866977913
-0.6414012641556307
-0.49488797402350504
0.24464903872213162
1.0934588067371362
1.670494967474368
1.8549599195478939
1.8452102116505367
2.009775272450828
2.495475953081672
2.970196256739834
3.1152156127162867
3.12690943256106
3.333144065893438
3.693735361319442
4.034716303451169
4.303993529302699
4.3592051475946185
4.077762003483346
3.872505257752256
4.276425176981475
5.09280212161237
5.5959836961165585
5.399502876751441
4.887815655888026
4.611461502035704
4.782652513323007
5.111244873480226
5.154292848346729
4.770297610372051
4.187651677754394
3.747234766038791
3.6085481738289573
3.740762838623228
3.8055706121270907
3.5975428748490708
3.2431649472942374
2.922767287037877
2.8748384371671984
3.2902422226641517
3.8796966892542537
4.031482998048212
3.7546458557017575
3.687936486281564
4.023537998415441
4.2467653797284015
3.9751003880212825
3.3381862371761493
2.79454244169526
2.7443653846762497
3.153935670337462
3.51767278604854
3.4045602021295993
2.8535067465922785
2.103667803183864
1.6240189392282542
1.803920308335658
2.2769674179655395
2.198632513538898
1.3903879960384857
0.46736232432252667
-0.15784177295583807
-0.4417343094720738
-0.32248715791260646
0.020336257271795225
-0.07846591847275831
-0.7990207326629916
-1.3940206267245727
-1.2082893925482052
-0.7026531708552576
-0.612247360385249
-0.852448526182969
-0.9572246377744846
-0.58202658027673
0.17401870215448098
0.9053206280348107
1.1901879422607624
1.0275028797875743
0.9070216329501634
1.2136623797701704
1.7331823444806425
2.0149899956662827
1.9128614519257194
1.7213590958760747
1.5917887080014372
1.2612796852137544
0.8285309593489549
0.522141102024628
0.2520309335768798
-0.07450180354234362
-0.23994404976098388
-0.10054213384977363
0.3696874622253962
0.9945250533534189
1.2403111631816965
1.0966539572368033
1.2288520556155187
1.7697773536483392
2.120024789488011
2.1341383513369006
2.0644060079082545
1.9891509462628991
2.021065326809445
2.254124075225299
2.4673951689360667
2.4757880754339467
2.5431797959962252
2.764245045609481
2.8051268033217736
2.615766953848562
2.367148520617338
2.0732431523894395
1.884419101423236
1.9915784602399382
2.257110613915245
2.1663278037890032
1.5228285474570977
0.9632809213690862
1.2827636988618394
2.3779408249914353
3.1906778864499405
3.1008707303495258
2.4583027201387053
1.8829506462949732
1.5295286090104407
1.1740947664439763
0.7908988122104271
0.6575645703578237
0.790654706180794
0.7614710758754867
0.6101575425925719
0.7571170799555227
1.1578456547094318
1.3724749038463915
1.260619831151229
0.8240198992951283
0.2653377234830447
0.14574973617285947
0.4806976480682111
0.6626294425647914
0.5923984830371876
0.7338648406841366
1.0298601434830632
1.03529219100027
0.588879165267228
0.09038549481892828
0.12614145238707936
0.6480567086353362
1.0737715626959328
1.1241140260682574
1.0099394986976171
1.0372544569848907
1.3947091021566758
1.7570647541587576
1.542218150540569
0.9222485579211196
0.5775234495695658
0.6963929031436679
0.8611728403903083
0.8895341815976607
1.0212008014229523
1.2350439234414838
1.1753989327072638
0.7109934891818736
0.16162019860167817
-0.17300484948280867
-0.359110134123655
-0.6608582713457115
-1.225827928275087
-1.92686197996016
-2.4620881301649655
-2.665093594187794
-2.8296563802098866
-3.3788660874112435
-4.146924216839698
-4.573834540707191
-4.620495842710215
-4.9803841773376725
-5.970361612235304
-7.1111237549289585
-7.62803545764234
-7.444166271756841
-7.281488621266205
-7.497220267116627
-7.887436085601173
-8.001244625595362
-7.906615944986916
-8.106660391816115
-8.58864825872836
-8.671367089053986
-8.164032352928668
-7.639589516046609
-7.302854987846994
-6.847905486646967
-5.9446547779828185
-4.751340623957786
-3.641336931872042
-2.6363357963321397
-1.7063565432146344
-1.0466623136830322
-0.6350262927119643
-0.3796804937770243
-0.45830256166691463
-0.7906746944344928
-0.890979035955794
-0.7166162972795054
-0.8042551836615229
-1.2813024159052018
-1.7121848225494354
-1.7781792743976366
-1.7345146970892849
-2.0221093553441762
-2.546122891770059
-2.6910041826316378
-2.428022541660519
-2.3818201347222243
-2.68155687685772
-2.9221988427734673
-2.846991858684719
-2.4961845903430797
-1.9446735547709542
-1.3899251127099472
-0.9238634690736389
-0.4130766164134366
0.20246502499438523
0.8662435074791708
1.5738587966295423
2.5467367545233692
3.738672051854717
4.7835992975094
5.484808759182726
6.041260652987983
6.783904187637756
7.668336390558316
8.535394927832794
9.621725973820471
11.010216313153023
12.209943087038774
12.730803995566083
12.62159340944828
12.260661492229007
11.891142002047177
11.808570330685665
12.099238432603192
12.307721449597985
11.850571796032533
10.796823806624143
9.664050325905395
8.818940101858345
8.059766483309339
7.024827236887047
5.769762822115768
4.223086156888298
2.2435905217136285
0.16711712341502608
-1.507358686949516
-2.759875417132899
-3.701880153092965
-4.180537637789792
-4.277825781577996
-4.562266707885022
-5.37449444506917
-6.319527372430978
-6.9448927231717414
-7.3782360603804955
-8.040797559932935
-9.034492911863971
-10.22341254446944
-11.504271758170217
-12.448535937421905
-12.917212141726724
-13.120535425585134
-13.150629774650048
-13.169663077638521
-13.332214515654924
-13.833996269582423
-14.355627430370264
-14.06088545500894
-13.01923878736631
-12.091541068395154
-11.582378100617904
-11.110502320357613
-10.322079257048483
-9.368897164145794
-8.627556390790215
-8.35968086406204
-8.64165175281781
-9.262844229774235
-9.852124188378657
-10.257585214432135
-10.406591064885781
-10.228134240678628
-9.932250629630191
-9.705526843503176
-9.469912546530239
-9.222863887726914
-9.090769095161688
-9.067365735017148
-9.124982461330305
-9.232814769234919
-9.196102265529662
-8.6421323088205
-7.604545773877787
-6.803942389286128
-6.519769867517291
-6.15408372073484
-5.302278877862383
-4.31648629422117
-3.6326030417986988
-3.2691496850251633
-3.0886949997282658
-3.1657936484855793
-3.4998067923452756
-3.8036458867773426
-3.5934276913302217
-2.790297339421297
-1.9554568577360867
-1.5501070779576163
-1.6405529653734412
-1.8706112608304624
-1.757378468197914
-0.8689665905432806
0.5622283672550722
1.7348910129888835
2.328343192961383
2.4511799974684108
2.3351245359410133
2.338157996510806
2.709252000672374
3.1154716364864714
3.200275993739473
3.1858122326169247
3.2247779749650145
3.3702899766731957
3.740550559805067
4.096422253209976
4.084538300575861
3.8342298081305453
3.723489775075102
3.7249013739736436
3.623378462107793
3.374576905725377
3.0412247804121195
2.9493392236620766
3.2230016099781893
3.869158132499496
4.71582904115634
5.199405227268286
5.150806807483009
5.043407986134298
5.206343767191507
5.330500537616195
5.209378421373597
4.845846209595079
4.286375558957095
3.922341928499851
4.237627965454643
4.945453280549981
5.029909927781872
4.143830820899004
2.898821132942836
1.7317096747937912
0.5168218421757735
-0.9130097640635892
-2.3544844514174414
-3.3798499937460806
-3.831204977267301
-3.8620918412569
-3.4750797423971007
-2.8563605942272963
-2.3807388517445496
-2.1491776658937836
-2.122139440976714
-2.235463115973638
-2.5301877259399714
-3.0636964670285494
-3.7115299602117715
-4.1658801668007985
-4.09391173164299
-3.5442202090874995
-2.7559889711848036
-1.913895582611359
-1.1002167344963079
0.2075512323706685
2.472042731319297
5.1980625626346555
7.555907424942894
9.263880505367705
10.327379694606456
10.743488139379043
10.802999591515773
10.839962120239544
10.949988068033237
11.082824642734662
11.285585208491865
11.581016148128953
11.84270656001173
11.875172542470484
11.620758477835299
11.043652905072525
10.151418519661553
9.516263900739267
9.472412407277407
9.51020916921906
9.258689768317746
9.056055065426914
8.918409732771819
8.470950940253973
7.581296335308293
6.608262870786128
6.029152563538692
5.9674938153679875
6.301929885149854
6.704677999745442
6.690703185408037
5.789061297654775
4.727046078186257
4.724627592700667
5.5156382612349315
5.895214506111192
5.538197378165446
4.995873756438749
4.606868011100074
4.800879746887756
6.12395272920893
8.033450456409513
8.935700718104203
8.0380593746228
6.413042338800528
5.585787489279304
5.492062253934602
5.485730498256292
5.680005597089799
6.168618827711124
6.56103296557105
6.71001943576745
6.923918720921535
7.129799291719017
7.137219341159645
7.186534561584129
7.642326339939486
8.388412191490753
9.057959308180411
9.513980134386577
9.558781412953952
9.153747877776711
8.904119796980142
9.346127260943717
10.227051908838655
10.866169220545679
10.966920021369281
10.741131840468224
10.456572555824854
10.152063169596653
9.691340679233889
9.161069757266272
8.760920456630599
8.538881743916804
8.384888213351854
7.941423165535785
7.027194902098529
5.820751787338454
4.540892600083406
3.3759566126287
2.4251439151816014
1.6299717680473507
1.0603673774363636
0.9170131940530303
0.729657709512546
-0.08425488027609362
-0.8765578117052664
-0.9261122097121287
-0.5678918760594851
-0.10631428899193482
0.7197935261843315
1.7126395056092711
2.01073295871329
1.5984788970565356
1.5481967771364693
2.554671122293491
4.206947427002955
5.606304483725062
6.1117282954931245
5.773254961231117
5.2751000360033125
5.4001537118115435
6.519368785098267
8.505858635333427
11.082348311409561
13.79249270265688
16.24149440517895
17.999335775893726
18.674356115776327
18.813140381326807
19.44066905023714
20.688049239400755
21.7789927348616
22.160317853923523
21.89597108449249
21.362219517539803
20.842881387911387
20.49860988919308
20.1751659076234
19.4271113195354
18.19638475489653
16.889100396675744
15.623604154128293
14.1453346191767
12.350387501503574
10.083259551359257
7.244925828597201
4.396594915175508
2.3445003850868424
0.958945618810353
-0.7100721918448586
-2.930144179631482
-5.26663779451179
-7.601528559210298
-10.194948159626954
-12.846000074891018
-15.157413992822981
-17.595026448002304
-20.25094563548985
-22.04862147016751
-22.4304065792527
-22.7398757996912
-24.572348977870103
-27.416497625402958
-29.99029392046868
-32.410127338640024
-35.34839007354422
-38.07311768715188
-39.6245377818351
-40.5860345066924
-41.82266404931706
-43.054385730734516
-43.33638964432512
-42.92627525944368
-43.17096078781268
-43.95220279969398
-43.808872049307034
-42.57308644907024
-41.050912893601044
-39.600517300304965
-37.8708094880679
-35.90936933369909
-34.528434610208926
-33.2067241472174
-30.986688182637508
-28.806432199726984
-27.158494315646493
-25.234044943921596
-22.880922025903097
-20.665162047296796
-19.14880114147241
-18.01473801539474
-16.688465452389075
-15.228733048991382
-14.236414832058495
-13.908990952607851
-13.629378846427189
-12.979327767534295
-12.541540609961945
-12.674394996320682
-12.63646664248826
-12.282834699415732
-12.815247958973085
-14.569039401341904
-16.05600341033736
-16.333152445841744
-15.652678377000445
-14.770627667068242
-14.659795955246251
-15.538842791372426
-16.383056688818964
-16.223262505517273
-15.540858597176824
-14.857004974928476
-14.029071276113733
-13.342181335752938
-13.189158779212962
-12.966329570883298
-11.771462515823105
-9.654537251576944
-7.4311218943153134
-5.912622056540611
-5.105837214058767
-4.097369022900936
-2.2273169816531357
-0.1990363449344273
1.1142656895028868
1.7389412285058512
2.0478937447455956
2.0904721580772794
1.6921308178380579
1.1600268292020255
0.892457889602559
0.7484171146471958
0.3869619145656157
-0.08649441423072328
-0.26193762250562597
-0.2388133858509624
-0.33833630109835633
-0.7052843414317751
-1.2663695064322065
-1.6494445624350664
-1.9188722938001872
-2.4861173407242547
-3.633726967417868
-5.489359249757771
-7.737253756679491
-9.859023593751896
-11.50175106967568
-12.729232648027251
-13.771800392931443
-14.700240484295321
-15.728473781960176
-16.944669306040595
-18.122136824269823
-19.005904938629552
-19.296490403056538
-19.093684526281372
-18.937788495332345
-18.97235628657827
-18.94762531768186
-18.818327584010586
-18.775782336407822
-18.588681668245126
-18.01485324060828
-17.437728343202288
-16.829406193940454
-15.70072425976225
-14.093064950425518
-12.596555413826765
-11.49925376272846
-10.751836404904143
-10.317844328836195
-9.868286975778942
-9.027495917383787
-7.939599364398744
-6.9372021450470305
-6.29512962681927
-5.9288677248173025
-5.3484171319787785
-4.372654174224542
-3.0387687577717903
-1.4770776901032416
0.2547833306837634
2.077895158388499
3.9666054842657315
6.100398441675564
8.45104519265089
11.018788441417179
13.580539892499752
15.450547934195239
16.39464586083828
16.64873448687998
16.394403278101535
15.972053431498743
15.827998674806471
16.146970259750592
16.694046810736417
17.209551833705362
17.72774732995024
17.91987317915383
17.572129460937987
17.103181005694417
16.853133500647854
16.6992666457979
16.176292130401148
15.109102604807827
13.9717372546741
13.236783411514166
12.610748897452451
11.560950309381685
10.403964640737556
9.880024656937751
9.947296436709106
9.87986397390493
9.06925030912487
7.476462559769486
5.817245018045952
4.941530197048618
4.8093821737953055
4.525994159317695
3.556673311890455
2.2006979535503093
0.8786986503928416
0.06540744553336524
0.018954181980947695
0.43577387440879906
0.8370059583800147
1.0502061591911276
1.4046637395054056
1.7969424349379162
1.7307164477741253
1.6156239710293623
2.2520150466663114
3.361024720823259
3.888774186601317
3.729027806582302
3.797609594245612
4.388850247737627
4.760739394356475
4.762941119701904
5.313524325183351
6.755675728737874
8.125442602880513
8.515608216042903
8.298294961373493
8.310767505184431
8.798177542099186
9.421024699909369
9.76321428310304
9.476758497256393
8.626701604991402
7.8056664933381645
7.276593705559221
6.771509774623313
6.166784460300838
5.879597566732899
6.033632976286137
6.1710463600722845
6.152178360437405
6.224729229981677
6.512895500761651
6.6611028054329635
6.288067950701298
5.883984278344652
6.223493185071037
7.207418193496484
8.18744757429154
8.854831142788377
9.121801838748116
8.977114910286204
8.574873350561875
7.944659023506742
7.1249101491263325
6.279880027317945
5.635731425749777
5.450234132348725
5.574701740792342
5.567959791271802
5.311041565230654
5.062716831294711
4.782683054113831
4.118252751274667
3.2540617269536773
2.515361091870523
1.8858039921557992
1.385100415017212
1.267626117933915
1.965308763994218
3.6830074211826664
5.628564140294855
6.359602407595176
5.697205802642371
5.06963053714244
5.430014074431881
6.389905199101227
7.406679160421061
8.143924950037396
8.207302552989175
7.599566736888871
6.652638238345627
5.722837168951667
5.331482054249799
5.703227102426009
6.462899672301773
6.882644297777147
6.589805618210741
5.910361672064986
5.557112297003765
5.766150197607064
5.914112314917762
5.605385418094856
5.113634021436826
4.6762959688788985
4.14626829802852
3.6597762454271616
3.363818050758283
2.9665683183698817
2.3621665625611468
1.5876936213088921
0.5814692772231804
-0.5245360851981146
-1.739886915560974
-3.4851729543791152
-5.734918173735228
-7.686124820377619
-8.693648128047643
-9.000136666788325
-9.25708619261151
-9.69719945440696
-10.102379400771001
-10.277386987588207
-10.310153869828216
-10.304438262124476
-10.197610190861951
-9.969546985743406
-9.860989137505968
-10.021703698186885
-10.05457380095464
-9.546958585014202
-8.859575343322211
-8.588956794338264
-8.799887780959997
-9.273715040795889
-9.656924709460016
-9.84173182328374
-10.084254472344265
-10.337650186950583
-10.312925284934213
-9.879398945880258
-9.400285407615312
-9.468100066173172
-10.065335210925737
-11.02357424385364
-12.255185549403503
-13.346557991396905
-13.72833003809122
-13.482632520498472
-13.51629592240395
-14.211642504691477
-15.088546994435362
