AAD_Filtered_TADAS_FILE
AAD_BASELINE_CORRECTION: BASELINE REMOVED
AAD_FILTER_TYPE: BUTTERWORTH
AAD_FILTER_ORDER: 1
AAD_LOW_CUT_FREQUENCY_HZ: 0.025
AAD_HIGH_CUT_FREQUENCY_HZ: 40.0
EVENT_NAME: 202302060117
EVENT_ID: 13194
EVENT_DATE_YYYYMMDD: 2023/02/06
EVENT_TIME_HHMMSS: 01:17:32.00000
EVENT_LATITUDE_DEGREE: 37.288
EVENT_LONGITUDE_DEGREE: 37.043
EVENT_DEPTH_KM: 8.6
HYPOCENTER_REFERENCE: AFAD
MAGNITUDE_W: 7.7
MAGNITUDE_W_REFERENCE: AFAD
MAGNITUDE_L: 
MAGNITUDE_L_REFERENCE: 
FOCAL_MECHANISM: 
NETWORK: TK
STATION_CODE: 6305
STATION_NAME: 
STATION_LATITUDE_DEGREE: 37.16045
STATION_LONGITUDE_DEGREE: 38.786937
STATION_ELEVATION_M: 547.0
LOCATION: Kahramanmaras_Pazarck_Turkiye
SENSOR_DEPTH_M: 
VS30_M/S: None
SITE_CLASSIFICATION_EC8: unknown
MORPHOLOGIC_CLASSIFICATION: 
EPICENTRAL_DISTANCE_KM: 155.06
EARTHQUAKE_BACKAZIMUTH_DEGREE: 
DATE_TIME_FIRST_SAMPLE_YYYYMMDD_HHMMSS: 2023/02/06 01:17:38.7566880
DATE_TIME_FIRST_SAMPLE_PRECISION: millisecond
SAMPLING_INTERVAL_S: 0.005
NDATA: 27001
DURATION_S: 
STREAM: HNN
UNITS: cm/s^2
INSTRUMENT: sensor = GEO-A200,/GEObit | digitizer = 
INSTRUMENT_ANALOG/DIGITAL: 
INSTRUMENTAL_FREQUENCY_HZ: 
INSTRUMENTAL_DAMPING: 
FULL_SCALE_G: 
N_BIT_DIGITAL_CONVERTER: 
PGA_CM/S^2: 126.659
TIME_PGA_S: 
BASELINE_CORRECTION: BASELINE REMOVED
FILTER_TYPE: BUTTERWORTH
FILTER_ORDER: 
LOW_CUT_FREQUENCY_HZ: 
HIGH_CUT_FREQUENCY_HZ: 
LATE/NORMAL_TRIGGERED: 
DATABASE_VERSION: 
HEADER_FORMAT: DYNA 1.2
DATA_TYPE: Acceleration
PROCESSING: Automatic Paolucci et al., 2011
DATA_TIMESTAMP_YYYYMMDD_HHMMSS: 
DATA_LICENSE: U (unknown license)
DATA_CITATION: Turkish Accelerometric Archive v 1.0 - Disaster And Emergency Management Presidency, Earthquake Department
DATA_CREATOR: AFAD
ORIGINAL_DATA_MEDIATOR_CITATION: : AFAD - Disaster And Emergency Management Presidency
ORIGINAL_DATA_MEDIATOR: AFAD PROCESS SERVICE
ORIGINAL_DATA_CREATOR_CITATION: AFAD PROCESS SERVICE
ORIGINAL_DATA_CREATOR: network: TK
USER1: GuestUser
USER2: 
USER3: 
USER4: 
[...]
-6.683880722573357
-11.074565998042239
-18.497851805206913
-26.802898445547857
-32.20683224236282
-32.493186389191024
-27.738685401718428
-18.153311372731096
-7.198216694880369
1.9126701725064312
7.4418640661432285
8.19448715894331
6.676679935487402
6.0421935612185464
7.167698292911015
11.287424431289326
18.810184913054627
26.476521655817617
31.30276194196138
32.72884269301296
28.601119634370235
19.18594190822654
8.58417525728175
0.15330670840398944
-4.023369551394899
-5.12581482350974
-3.1582406814660478
0.4494218534601928
2.899307788077731
5.410466781051538
6.165134796703089
5.579949634174443
3.884268617559303
-0.3316173933557596
-2.2647173834466314
-2.9512816688595236
-3.772762359041603
-0.7683253643672385
4.486732865627292
10.644231758742126
17.778044636743118
24.622546880591944
29.751967153771762
31.25092435745094
30.687858136399985
28.119348588553763
21.59797228065412
13.841394201994882
5.675355409979519
-1.9871639377255639
-5.197328991375837
-6.55766019365603
-8.001379562127628
-6.471194106398213
-3.2151373002752828
1.0537218361395535
6.49104835838481
10.455640669123792
12.29473472248682
11.250268545492682
8.924874093599744
8.479292845858673
8.315744582666778
7.725940445736553
5.670079493554148
2.0486314718855216
0.8028594212351924
2.150430658998871
6.172138498248611
13.854175885277488
22.06191318022072
27.60399624130803
29.51381523315898
26.493848256814296
17.224382941616565
4.975307264788261
-5.593656346909878
-13.173216040298502
-15.62521953199823
-11.901657246899546
-5.85658772094379
0.20813992585442256
5.025947842583263
4.927066699856129
0.9674055861646401
-4.667277100487116
-11.779611568060487
-17.188937266891347
-20.105769362440643
-21.563954234793027
-21.089676584358322
-18.85868424597678
-15.424652395904404
-12.69489401509576
-12.589653963132587
-15.789287536398962
-20.787035422890195
-22.126666116001754
-18.38356426809645
-13.491335756725505
-8.773887067714567
-6.017205120148207
-6.870692167706645
-9.913290201955137
-12.620278503708091
-12.43950290527764
-9.800622422033483
-5.527421837933862
-0.3180173843570677
3.302208180381654
4.470406347442457
5.094860652787375
7.617841560766282
13.00605895897391
20.183843406688595
25.552225314306042
25.490138831155416
19.633201392809262
10.2659722142113
0.7982801853848198
-5.870587434101922
-7.561118615650756
-3.6066183160592455
3.206940960615077
9.735849876216953
13.015298070840386
11.96538617382583
9.61123563658174
7.026363268587295
4.7998694515386475
2.4684972631496183
-2.262250326352886
-8.709756998360726
-15.387084845164646
-20.563383420450805
-22.53668375299523
-21.18802536168963
-18.908173517105652
-17.445003213571628
-14.034213838231324
-7.716007454579855
-2.580739657501201
1.2787626122199005
4.4228776690258504
2.5872807256418726
-4.720927317767511
-16.377985182414715
-29.94418066765747
-40.40745043940588
-45.3934686244111
-43.36095222025644
-36.26647323576431
-29.25629156833742
-25.123784797628357
-27.285798134364747
-34.7753761587979
-41.98498939752979
-47.37712843983983
-47.41476095683255
-41.624359433309635
-31.33464573097217
-15.010680674172018
1.1162758333632097
15.361015615153638
30.26388392982371
42.920753504087074
52.254531957663424
59.807398329335385
65.41210273725386
65.76909766832148
64.04664939031717
62.84186877502309
58.07998634380856
49.509084300666196
39.62438647190899
32.04335911746712
28.002068146475178
28.590731840119513
34.07071083666493
40.085437684241775
44.05641284268734
42.23020958098904
32.51187529933925
18.25264798487206
1.3121747019337031
-15.413976836786173
-29.597111432885896
-40.479930065238094
-44.427977341900295
-41.40810949647841
-33.79491455312337
-26.17027196318286
-23.411769844444045
-23.833596251168938
-27.709304977838517
-32.706992954492556
-33.38981436079468
-30.39155174446096
-23.045093866541308
-13.213576885523603
-3.484024604263706
8.189555116621055
19.470826954956113
28.192464051003828
33.96794136905112
34.939609087553855
31.404052911034537
25.78448480283852
20.72362151237057
17.078937537366293
13.959643110546084
9.760558772874134
5.774106619893469
4.776503508426386
5.1821227406302794
6.695558691721263
10.185153470767654
13.078988535127033
14.951917448827704
16.291397261515584
18.384981284275
22.242933962214213
26.218169081881058
30.72771203618311
35.06050323803414
37.51718846215157
38.03221959439537
36.04051525372811
33.09006901790631
31.295785206365707
30.321113466170893
29.615049256213453
28.972759467449382
28.58526441646132
28.129843022810164
27.415461611298884
27.17787864035718
27.0517466981403
27.22152910608443
27.24095834796016
24.911771799407656
20.535832003464918
15.258233170022137
8.729271922486836
2.83101837191673
-0.4283370439544387
-2.642903423461348
-4.152640812071559
-4.411849531819016
-5.848317610678264
-8.718327553598549
-10.855189866493173
-12.105310179766757
-11.584178172888137
-10.591726367694065
-11.341927703129004
-12.976796956433233
-17.537533988771703
-23.79415488732487
-28.340384503550993
-30.869585263338188
-29.967102102682187
-27.875649750710718
-26.63350361476993
-26.68248831320172
-29.386923844535314
-32.75206926340251
-33.949809716426515
-31.880548142784203
-27.37578799199228
-20.366483462690958
-11.365654464942109
-1.6747487367851186
9.095642733425327
17.852369616775622
21.067605368413176
19.512411081371038
15.479960008343502
10.883465787795181
8.445425277731108
9.8149335701043
11.452961563049048
10.68728857868846
8.910233509220703
5.1091364251654126
-1.3527230776819938
-7.6543367393956725
-13.1087460716406
-19.121872247120674
-25.523091253826717
-31.334626405985937
-36.711520237356616
-39.03905977960132
-37.23924068980374
-33.86927604379256
-26.66950622591748
-17.116860820650867
-7.034702187047347
5.076679333615958
15.088476150847344
23.236247291898877
28.537561980626517
29.04195342674055
27.128818589470246
21.545223882405782
14.47493706799808
8.220771503869324
3.0128616517627864
-0.5752605545890361
-1.953927030097087
-2.888729055972213
-4.730313994596113
-5.08716807590213
-5.997387783934716
-7.518802470765347
-8.228431603759208
-7.4982451485183566
-6.086425810197334
-3.5980162882896365
2.974522607619204
10.98333869901377
19.38328448804095
27.357019530885744
33.57909222914528
36.83731915835466
35.208324447990755
31.050662163258103
25.27330489788023
18.1584762331289
11.851998807689412
8.154000959258239
8.756652193515603
12.944067493405374
18.10927950376443
23.038278689378163
24.87862744514597
21.120485090007193
13.207062345601349
1.7806592875659508
-10.071832224649933
-18.144904113253762
-22.449330695305473
-20.85225882865933
-13.563942699814751
-5.27122681218825
3.3639780671176283
11.73476414706206
20.15607409515726
29.115747647485275
34.061271143177436
33.25437174432826
27.615743538872167
18.423636982971114
9.466018216211674
2.7425480714737964
-2.103627155257205
-5.596872682293315
-7.680423968540089
-8.066514195331926
-6.790620271922339
-5.310492096360558
-5.223671868390201
-6.10917827300025
-7.306583908200871
-7.043638782179067
-5.255187540627352
-3.042847480655329
-1.041725070060759
-1.5343160661687942
-2.8566128422447505
-4.069553103050021
-4.651775674928899
0.030759061020732864
9.464568656025651
21.383748646882857
33.62024120015623
42.364511057443586
47.44037732351729
48.36353324599914
46.43704271213249
43.752139933014504
39.39950662391873
37.48830035677194
40.1058406708763
43.83177174009574
48.61243653654756
53.25291557663268
54.43271347872897
53.221104242645026
50.72390446641184
45.26687185855031
38.42509493362273
30.97233165517066
23.00077037851157
17.881677859119065
15.591419628129746
16.474284698195884
20.999516251207307
25.54288840358297
28.482370415989486
28.15767244905155
24.792973057571345
21.86921131748229
20.195203665297374
20.6387072520213
22.171531371531152
20.092791185625725
13.597425872774064
4.12986766824424
-7.583113819507386
-17.714675615522225
-23.416801048600334
-24.366604006796965
-20.814835917256808
-15.02475578170421
-10.026557043102788
-8.46442406880784
-9.75760898949553
-13.37413884556092
-19.48385943556431
-25.04101991757294
-28.93159276906021
-30.361096313153908
-28.560520517180734
-25.004290745894302
-19.389443100536138
-12.52783786903185
-7.850517757000209
-7.1215418270613675
-8.364978651638015
-11.097060261580683
-14.669418515155861
-15.785998324326089
-16.49439528873517
-16.984304578433008
-15.015835185584057
-11.884634506393107
-6.407911865567661
1.7167785135081395
10.595060590752919
19.03852853609818
26.259194930806906
31.685481248671092
34.96330199639721
35.79856189069138
33.85155282685961
30.336660443761613
26.52917424809312
22.706734548008946
17.88509941062219
11.294006576186725
4.591678798603193
-2.3146677815209395
-10.079286913738455
-16.05160626610005
-20.815099994412254
-26.362797905869822
-31.24942361312518
-35.64082086989488
-39.07347778831516
-40.24090284359156
-39.722660097547795
-36.6589132297656
-30.345872425343163
-23.919184718464095
-21.36225700964408
-23.22238551200273
-28.996456932857665
-37.84078656780799
-45.7605223900934
-49.329914190244025
-49.369167318989945
-47.563412882875404
-44.596025872961775
-40.542715852689426
-35.53464639433848
-29.652451949918696
-22.93994430501614
-16.47470637625708
-9.911121050587637
-4.181615649531593
-1.040278391241416
1.0943204823184804
2.6611885017144323
1.2710406140209856
-2.0163723281205175
-2.544666063368137
-1.121294057901644
0.09194423519880422
1.9819981215182736
3.6423567036999716
3.8741310090347274
3.4214302434582504
4.266800067959353
5.963628686215679
6.898490485796071
6.778735361458578
5.1146698492559795
2.0648712573970243
-2.1493514399372673
-6.452700596568191
-9.448147110558187
-12.500724523144697
-15.130982807497187
-14.656197099803846
-12.99543025133424
-11.56900190183411
-9.600268713576291
-10.217155727923561
-12.676612218101148
-12.722084687943589
-9.475617801213238
-3.044698854603985
4.311903720901725
9.97979607079215
12.72310336688711
11.74232956614668
7.242457008753152
2.3173952584442294
-0.039793308906033255
0.7765437285753247
6.424897888736069
15.100251941053001
23.148995110357745
28.210199394518582
28.53614108147935
23.511470735376474
12.8516787924107
1.7434966657904833
-5.797470033052467
-10.329487803650279
-9.548864049672106
-3.4382845998700664
4.11180853003824
9.276392905220577
9.290467628273891
5.989626059820382
2.6686667395730845
-0.7524493048396912
-2.9720587261548204
-2.4962731365720323
0.33835663695348744
4.002335277916248
4.560121443967238
1.820213335309016
-4.151429475201524
-14.48320237936699
-25.075649998033622
-33.39063614613359
-37.08488460774284
-34.174375346775385
-27.838305695727808
-20.716696983959448
-15.823512474509998
-14.492192809747552
-16.23577699332987
-21.122552907493226
-26.92254251274938
-32.464210110411486
-34.95028008399407
-31.239409144389846
-24.076649447824988
-15.931329543483866
-8.744816961964084
-4.928163586015497
-3.4566258358354665
-4.652573369739472
-7.955098577058422
-9.67014982370399
-10.649276039208678
-10.104978349064481
-5.924684984471802
-1.618849851435475
1.3962494545861281
3.51113987413855
4.247738233110806
3.846929487394546
2.928653300399754
1.1483331270879178
-0.22720847179193676
0.9414473627205378
2.2134521127718907
1.576620193594847
-1.8303861662758785
-7.244426203672359
-14.070966499925003
-22.902696576061363
-29.69372568201392
-32.55178241522524
-30.584737572136174
-22.038833230182902
-10.08211500959058
0.6552715377410583
6.804818792949242
8.584643247960503
6.749875070399155
2.175674263260193
-0.7989040626323425
-1.4055370975620216
-1.1684617060747136
-0.33129434771529964
0.26939197519897207
1.2962811342392164
1.8965985054018637
1.229560599282538
2.014220552580331
1.8963053743018372
-2.246431834421556
-7.2096956401171495
-12.804357246692344
-18.88893460071754
-23.63620402987937
-27.04986978413281
-28.04911767042814
-29.155501749332117
-32.85904933803373
-37.91556774356593
-45.503603996538644
-53.165269103230415
-57.03869993791878
-59.471084848075414
-61.47883075218014
-64.12711898457694
-69.44657804711026
-77.25463315222835
-86.48333691059538
-96.80357828308013
-106.481413303181
-112.11474066414026
-114.60015315947581
-113.67223251925259
-109.30375732408282
-102.8401314168673
-92.99929385558036
-82.21778090354917
-73.04927230398279
-65.33359268034815
-60.95958045999073
-60.358530062568306
-61.68080755023726
-65.32496609782153
-70.67832678116048
-74.47096870272176
-74.77746712656476
-71.40334970835512
-63.94253462136208
-53.748531514131784
-43.93659780297547
-33.75066566668541
-22.22251718365116
-10.533471248704465
2.1876229505792706
15.243163633451404
27.258324422319642
37.24304026671776
44.215290056485344
50.6288054405844
58.44644062808938
67.21483384577645
77.84183082262402
91.76682226364639
105.82000650032423
117.15487067751923
125.77806630852159
129.03925730868673
124.1912925139723
110.91221765122468
95.64905572696408
84.69632784556673
77.25773090381452
75.33384619235979
79.61716601481726
87.02049526119188
94.96890684473543
99.14097553279996
98.61328424766468
93.27473392133746
81.61518889946905
66.39746091972056
51.885466264482375
40.60883575431303
34.210092144756125
35.334596508570094
41.13284280240928
45.60952948252454
48.21964772216414
46.65230422475329
41.149161784433055
34.89034059809635
26.16951022767921
20.27952023360364
21.766956394844794
29.012495679553666
42.850657040040225
56.85707426898886
68.63630037529911
77.15864245436471
79.97819366377999
80.18141796174923
75.06513719567585
69.3768987868107
66.10125402510204
64.88258886134187
68.39381533813189
70.50015360264035
68.92968085004291
64.70583509901545
57.69142474990393
47.94223265386683
38.62476173060865
30.319591753997294
22.14275216536062
19.946650532536772
19.40156077417657
17.003013817351775
15.970162220115427
12.423949763978898
7.342387332324153
1.6336487953101544
-6.67584323271878
-15.694136002649632
-25.294790373100025
-33.640582123109
-38.43191584107413
-37.90986793409868
-32.721905853933755
-28.795562955086645
-28.745723478069177
-31.41366524373123
-37.89394675635708
-47.89524916732637
-56.64676316750728
-62.31793178266052
-65.61559241840767
-66.98656711549002
-67.66992534988334
-68.89595526357455
-69.79978492402851
-68.01679635704014
-62.222329523555466
-51.26846054976056
-38.86765537996047
-26.043075622567162
-14.10310600158889
-8.57577101340913
-5.957073502759918
-5.881817910858679
-6.930169372708342
-5.194999799870063
-2.6138906191276536
4.6213952587768485
13.694008636269226
19.888075907883287
24.37292786713656
24.60863885545516
20.669228421628315
12.458943740225784
0.9743304311500075
-9.184089114598489
-13.784758072910462
-10.24017576902959
2.133625248744534
20.966362366000066
38.57295824760894
51.10958679615605
57.27274317542311
54.6175461803451
45.24419278046935
32.664579126982446
20.826729117677264
12.039062635049937
7.527529819084727
9.81249599273079
17.34596186542115
26.846011505809376
36.23331702768531
44.998354837363806
51.66652836057984
53.12546613468105
52.585595613695375
50.891829319027785
46.3133606930527
40.49044416594695
31.70761701578325
19.678011680714285
5.663223417432922
-8.54840269518076
-22.83293340562009
-36.1760990098844
-45.94091782222815
-50.241428513401075
-45.4483729979627
-34.80008676521249
-22.965837050019342
-14.337816894970723
-11.739218899024067
-13.95710689455448
-19.063718662729496
-22.95022791859256
-23.488785843282525
-19.87175915501165
-14.227546101120057
-8.048152741259756
-1.8070006147548996
4.728879839058762
11.763843298565387
17.420669418088167
21.272593736080193
20.19662529463609
15.965194698150095
11.17752937510189
4.677572294478828
0.4211060020753882
-1.633417672301938
-1.7296915754248432
3.2091233299614244
9.219730951085738
13.004759184642237
17.374754715274644
20.34754363319016
20.104917426356657
23.172121578325807
27.90649700585395
29.932830772357434
31.69664223156715
30.851340201820356
28.68308880091508
25.836843404011802
19.216364448709854
12.396383677628082
5.893606316741986
-0.15915420742864841
-2.6568526153450627
0.3448604702353085
6.165992524393849
10.321496776421851
13.52235809268148
12.857109617513519
10.048469204183096
6.763058777419488
1.7295539497365882
0.8487304793776906
1.1604143960384292
0.5277273236976039
0.1653045207320391
-1.4468649852348243
-1.7887765669092368
-0.462333030762727
4.726946222991857
15.710921605340248
27.99394961991573
38.45188699250509
46.88171134014451
49.85629706691774
44.84191141156618
34.73538574760399
22.230708925152403
9.184634454650894
0.769619784305181
-2.15141469249181
-0.6889127885601556
6.319426113434826
13.767887694484298
18.405484157947544
18.296397354257117
9.380097452014123
-4.237436477534925
-17.67851992225318
-29.743269530402166
-36.7831738578488
-38.072180599742644
-34.3583998809674
-27.42944229215706
-20.48263690593393
-13.254537577186781
-8.696703484551
-6.226064165483653
-3.817648544413126
-2.0470431115334984
4.753496988505364
15.070021588442172
26.868838935420982
40.186801039113895
48.04716336206076
47.697403509770616
40.8893211878919
29.96647817299327
16.14470308507551
6.178400138641764
1.4134341840514126
-2.4812043871379377
-3.556536345317984
-5.946734079390904
-9.918772730267042
-11.976591286243087
-13.433648160509053
-14.283086083630238
-13.205184208834352
-11.228639090872763
-11.35182518470976
-11.80509069622456
-11.283804060739504
-11.125640735469288
-9.685827779586123
-7.332923088260629
-5.6278578675114295
-2.3966763657125543
0.32154975978151146
1.3564028301638789
1.821661922846259
1.4829087025099656
3.0819680204457067
1.6508360979215067
-3.5460761363568607
-5.951949001947543
-8.363714497459972
-12.317813335859016
-17.074888352327186
-20.33895373831924
-19.924595826274178
-19.181247474447563
-15.973648949897497
-9.268201461884914
-1.9666724235685096
6.791510451926584
14.52359821376161
19.753492343589524
24.17568281800066
26.17074211150903
25.96174815744894
23.481322351120482
16.506734287969863
6.012595444933397
-2.88294926992892
-5.362028567504993
-4.21930036803383
1.7456435571756523
12.939032744581716
21.277637679113614
25.82049686065879
25.348879491297662
18.747005651353643
8.01291588316874
-4.815289350677055
-16.42616625014707
-27.26024950115849
-31.93614824556062
-27.936330325682597
-21.214399144628683
-12.050681134239264
-4.7800734806661165
-3.5475076825004557
-4.123637480080239
