AAD_Filtered_TADAS_FILE
AAD_BASELINE_CORRECTION: BASELINE REMOVED
AAD_FILTER_TYPE: BUTTERWORTH
AAD_FILTER_ORDER: 1
AAD_LOW_CUT_FREQUENCY_HZ: 0.025
AAD_HIGH_CUT_FREQUENCY_HZ: 40.0
EVENT_NAME: 202302060117
EVENT_ID: 13194
EVENT_DATE_YYYYMMDD: 2023/02/06
EVENT_TIME_HHMMSS: 01:17:32.00000
EVENT_LATITUDE_DEGREE: 37.288
EVENT_LONGITUDE_DEGREE: 37.043
EVENT_DEPTH_KM: 8.6
HYPOCENTER_REFERENCE: AFAD
MAGNITUDE_W: 7.7
MAGNITUDE_W_REFERENCE: AFAD
MAGNITUDE_L: 
MAGNITUDE_L_REFERENCE: 
FOCAL_MECHANISM: 
NETWORK: TK
STATION_CODE: 0213
STATION_NAME: 
STATION_LATITUDE_DEGREE: 37.79667
STATION_LONGITUDE_DEGREE: 37.92957
STATION_ELEVATION_M: 602.0
LOCATION: Kahramanmaras_Pazarck_Turkiye
SENSOR_DEPTH_M: 
VS30_M/S: None
SITE_CLASSIFICATION_EC8: unknown
MORPHOLOGIC_CLASSIFICATION: 
EPICENTRAL_DISTANCE_KM: 96.48
EARTHQUAKE_BACKAZIMUTH_DEGREE: 
DATE_TIME_FIRST_SAMPLE_YYYYMMDD_HHMMSS: 2023/02/06 01:17:26.1896220
DATE_TIME_FIRST_SAMPLE_PRECISION: millisecond
SAMPLING_INTERVAL_S: 0.01
NDATA: 4104
DURATION_S: 
STREAM: HNN
UNITS: cm/s^2
INSTRUMENT: sensor = ACEBOX/SARA | digitizer = 
INSTRUMENT_ANALOG/DIGITAL: 
INSTRUMENTAL_FREQUENCY_HZ: 
INSTRUMENTAL_DAMPING: 
FULL_SCALE_G: 
N_BIT_DIGITAL_CONVERTER: 
PGA_CM/S^2: 242.279
TIME_PGA_S: 
BASELINE_CORRECTION: BASELINE REMOVED
FILTER_TYPE: BUTTERWORTH
FILTER_ORDER: 
LOW_CUT_FREQUENCY_HZ: 
HIGH_CUT_FREQUENCY_HZ: 
LATE/NORMAL_TRIGGERED: 
DATABASE_VERSION: 
HEADER_FORMAT: DYNA 1.2
DATA_TYPE: Acceleration
PROCESSING: Automatic Paolucci et al., 2011
DATA_TIMESTAMP_YYYYMMDD_HHMMSS: 
DATA_LICENSE: U (unknown license)
DATA_CITATION: Turkish Accelerometric Archive v 1.0 - Disaster And Emergency Management Presidency, Earthquake Department
DATA_CREATOR: AFAD
ORIGINAL_DATA_MEDIATOR_CITATION: : AFAD - Disaster And Emergency Management Presidency
ORIGINAL_DATA_MEDIATOR: AFAD PROCESS SERVICE
ORIGINAL_DATA_CREATOR_CITATION: AFAD PROCESS SERVICE
ORIGINAL_DATA_CREATOR: network: TK
USER1: GuestUser
USER2: 
USER3: 
USER4: 
[...]
12.497735305770462
15.461890117166607
20.257555385884146
25.637263445646926
27.70915526080658
22.84519563163598
13.407809515382485
6.803142603132908
4.732136905862539
3.376547889050487
1.04578902348416
-1.0186067978081903
-0.8849208939961548
-0.6911928376568617
-3.8633357007972355
-9.847853242745671
-17.378819373223894
-20.28198161123828
-10.994954285637677
4.579112608858395
14.270006836849404
14.544792041676843
10.751269798257852
8.506934888264498
7.675076004611892
6.618718906542094
3.5997343927678234
-2.0857256065687957
-6.145481820681434
-6.947877268701577
-9.019367309242103
-13.390129691158702
-14.298827125980006
-8.90995139579917
-1.734169680728027
5.510308264461578
13.009166969307568
16.71828843172049
16.478279772751918
15.142545622388134
12.91604195925519
9.699649195916756
5.257442184397742
0.6952547730840501
-4.5449298832738165
-12.961705345228516
-21.197445430145414
-25.959415351946102
-29.33010040419625
-32.111229589168786
-33.409072309166646
-33.21855366461652
-30.54748848543278
-22.858709717218844
-13.329262847147502
-9.643937498251477
-10.156276056277978
-6.87543929181596
3.3101032826037127
15.034558996467332
17.423012114990552
10.064042154807114
3.4603587048936277
2.0501820284844277
3.100592729178568
2.303986032194225
-2.0347007115805633
-7.257980648729433
-10.532086107541378
-10.705666988436615
-9.283106728573467
-6.215238871609838
0.9124814625600295
6.800243899310703
4.435122231024768
-2.027396973879756
-5.546581667642561
-7.26748614938391
-11.634401504548686
-16.627502777975806
-16.340480970211303
-11.762330574081155
-9.60612648070408
-11.87738747247417
-14.256185173851295
-12.046628322169894
-3.317804146591312
8.716404381240299
15.588678855731384
14.069415670436406
11.898813469115186
14.243627084346379
16.18287293451186
13.831003251470262
9.3797507234871
6.219508333604049
6.166923893220375
8.477021096127197
11.466678436005775
12.990571304508888
11.192354297087512
8.037027730561514
5.797986528666019
4.331471729871192
5.088842120185719
11.215359815026087
22.182286744327374
30.078517054293563
28.946538221991037
22.02305437574408
13.576342339296051
7.036477906292331
4.858180004197039
3.3926048497386767
-2.5607298591952157
-12.042294051967561
-17.996070489374482
-16.585684463202774
-11.39820588557763
-7.261556150379318
-7.271025564361562
-9.357767214979708
-8.8234171230054
-6.208671584592165
-4.263421214927082
-4.526992220078787
-5.437891761409781
-4.174101794721164
-3.0923452329832903
-3.5764710302451292
-4.156511493665146
-6.758820358008813
-12.247969241464077
-18.193029228890882
-20.470161657665113
-15.973810702297328
-8.880669220071262
-6.838572226060958
-11.565429266838864
-17.52010234050022
-18.503808990489667
-12.71950114689442
-4.259848812675694
-2.8167744200539673
-10.498431383091964
-15.912168163780496
-11.20336264774665
-1.6055691174817825
1.5925255311235227
-4.098779541568478
-9.538395805033366
-9.055914172525101
-3.3465973411323118
1.6067934204729686
-1.604222586736701
-7.87197998437769
-8.170766300416249
-1.6516672430479529
7.008503544919896
8.13046698667069
-1.34539535616189
-12.636776459010983
-17.481086515016486
-13.58474619914193
-6.385834963758839
-3.67872491851194
-4.744214169540042
-3.1873488261975647
3.5928553990531036
11.17103866205298
11.755338259133751
1.503663270611866
-12.821430564673053
-19.062966561398778
-14.726051152895266
-7.367954819196719
-3.1275169750154106
-1.863881275303292
-0.5873121158987915
1.0781943179594364
3.035024857139146
7.4548034611190745
14.240273282852261
17.61622600777231
12.63634563763815
3.954968081089342
-1.0328723071597974
-0.3498173024545206
2.2403099947383307
-1.2845905423290391
-10.790870015567357
-17.568457004711235
-16.381695049886634
-7.168219233179571
2.826847860752119
8.230527356946972
12.39868365803089
15.740465238619308
17.008617915077394
15.058239844393572
8.001525155657589
-0.167189854847128
-5.686748851562959
-7.47876509818122
-5.84547648582085
-4.219537043211094
-1.3790458722224195
4.132618368917996
9.856059790767695
17.155565778072145
25.345602092651788
29.813654460867916
28.092881968671513
21.232882033555494
15.065993759302753
12.483884322190852
11.57425750048382
10.827962030926079
6.740972461835864
1.6406340631940326
4.129830381782616
13.525125999165335
21.338294656518244
20.600174856524372
11.553810102028706
0.999766106193587
-9.251738698079878
-19.064614149975494
-24.521926204887674
-27.34004544816024
-29.921313417052588
-30.87355856646477
-31.79527861905021
-30.79935239643181
-23.252424781508967
-14.038300152503002
-11.911098001396454
-16.261207182742783
-18.062700351979313
-12.665289730413605
-5.747136697594371
-3.34104450037866
-4.261315018262589
-3.7960825353293783
-0.09326401868721068
2.0908364759066242
-1.4943538697573138
-6.437876761079556
-5.350633254386219
4.188369998164205
13.314733177045284
8.131206934326753
-8.376768619469443
-19.412609769023277
-15.421125354242362
-1.0757835497935317
8.330514280339957
5.943594676374408
1.536581300637078
2.7034478426715634
7.593090413392402
12.19541729719134
15.012713346585803
17.160899197924977
18.9231805511808
19.03965261196728
17.279542794304852
16.000191793579873
14.776177543071372
10.527631610384066
4.932167928787226
0.49183276109993157
-0.44599667191186043
3.3668000743547113
5.776085685254713
3.9655869982891687
0.7427521737944676
-3.932974636854699
-7.370117749520862
-6.67769562711221
-1.8051598475181276
5.2540845758992445
7.270929593840425
4.436125069583628
4.531308931281567
10.640128218966652
20.204106959688975
20.749695110346387
9.749107800821948
2.9081783110758144
3.6373435341368694
8.201847955754923
12.12083717614152
6.241664888772796
0.4837143022669912
6.546721322364658
14.659725234109327
14.871777701157958
4.750221270477946
-9.345197188882981
-14.547485915537747
-8.751190999258759
-3.8863607730480347
-9.370262408108996
-19.856426558751128
-29.357138638683974
-34.258416739532
-30.36263525724516
-25.4202155328455
-21.11346596793315
-14.619813881429959
-15.167433519708279
-20.210536618509327
-23.95950837292876
-27.8630591070295
-26.770869089237276
-22.469384827630424
-21.498830016017124
-24.04311345929971
-26.139463908773862
-22.04317702758724
-9.145654445434015
9.791733969611107
19.399195303920045
9.38729637119898
-6.032461891230866
-8.894785418993456
5.096972702068785
21.660744171726733
25.35344217731778
22.293019531824918
26.610977580583977
37.661393950317915
38.73006494690334
26.973354226760893
16.739590602960842
13.335304183279236
17.630854964737953
21.020320372415433
13.901926051260244
7.578084959308302
8.68099609233039
16.075098462602952
28.512765346649857
31.263306148256945
18.04770806779604
-2.4626317980909933
-17.73641049347718
-10.780317785133496
8.406454575583851
13.996950187127878
11.042439397820665
6.921280709260851
-1.9323502971745454
-7.597254880919181
-13.133840834327913
-24.83647182348876
-35.28765012415689
-45.48972496075059
-55.34779138753099
-60.720774063676345
-64.56353978590312
-61.07315998150104
-44.956389879469384
-18.58297899268989
19.49820381728039
57.984967322892324
74.6946231842526
66.3026855541313
52.04537630559796
46.95432242086052
45.50838439572598
43.347687078442696
41.53478114759767
32.996469816663534
19.722585489245173
10.386959577794247
8.13259420597968
18.991965501207865
39.431740751034575
53.67239845688458
51.370977722796376
33.38624819421468
12.342691774682454
-2.033103631272967
-14.098578085172335
-27.872530702418377
-37.35952633772667
-40.14502571275513
-44.95268035513355
-49.47765466056426
-45.24271512971266
-41.031633861223305
-39.10684270137403
-31.148873784698125
-20.815900143170325
-12.655472244963663
-7.945538501082159
-6.476131990841033
-3.4866071662014253
4.056550557005603
15.805747550273598
22.189080090094393
16.17159117664865
9.531719993971883
14.94826701560451
32.91932498434123
49.06245728618833
42.30360304398538
15.425154516980147
-6.751025875136514
-16.03210791934246
-26.038049601762122
-42.15282710035953
-56.5355520957835
-56.21976085691524
-33.57047837294749
-7.22948998804017
5.907073977524059
15.701817577514351
27.961575887099116
38.45659301580774
37.504998983300126
17.262382972258102
-9.536691777910097
-30.709391539427312
-42.73775942097676
-40.32485976667786
-26.19190583603058
-1.8147774064757498
29.214072659675004
48.131853497125356
46.40393523941383
40.15347715069485
45.40356525755309
52.2135687123039
41.985574236890315
17.9916172822653
-9.478114810505655
-31.177907255330812
-32.98719056710088
-19.805110615672398
-9.235499909638081
-2.4588030532718417
5.398665144271236
12.207881325117128
15.05272941459725
14.397461069029909
13.702027663516759
15.28730383509052
17.30968755107577
15.934467313665426
7.173934800253052
-8.898938723944879
-19.73029377625588
-13.392022307985323
0.8565888256728766
10.46608199049217
16.34460142838235
18.84083454536176
14.159630240415115
0.3787689149971034
-18.475156300545123
-31.732953486414626
-35.27067744482197
-35.74486537507567
-36.87119751238334
-33.737411498015895
-26.553353861964176
-28.610441074030998
-40.01496257164074
-38.16393683908351
-15.574905157560314
13.429631899866
35.3358007083443
37.38920649726716
22.665189779339382
17.888438292172037
36.37555221262026
60.278854054324974
65.04506840087896
49.35770483686143
35.791913610043096
39.2742250283032
51.28864161082299
54.98801387934297
45.057921137195756
30.790488498159043
21.977879764024873
17.46760071659795
6.738976854040264
-11.182563722896399
-23.894248519149283
-28.509728630404204
-30.153492795826846
-33.14023513902995
-43.53404348543303
-57.253245390676724
-62.449127976282334
-53.32912307487858
-35.19184370930436
-25.471254080715443
-32.49842045507733
-44.5998156482957
-48.67933923468252
-39.28889933970467
-20.273709303030156
0.5553886675614432
19.4189672368067
30.96533976061931
29.8308152957407
16.825342152400545
-0.7519716440073156
-9.817377437687318
-4.829136557808013
4.4403942855272645
9.562314200357703
9.313585176524755
1.7203884581464939
-7.653968129017539
-11.079757277249119
-10.24364115597026
-4.994028518530492
-1.6083868714433218
-8.96331951676272
-20.499249056368534
-33.133113675258244
-41.68422657813322
-37.89319225238628
-33.336565812216605
-36.41430951116294
-45.17287108624348
-55.97638446781624
-60.05260076245802
-55.95854461516375
-43.82594308809398
-30.28137509716365
-26.74792850819443
-24.510092149186065
-18.186477836182362
-14.889019535671919
-13.177381681422412
-11.308252611817686
-10.621752182736692
-13.33552425637183
-19.682905805537583
-24.52893138039529
-22.170242157418777
-5.3995601786577705
24.663554321352517
52.61561993787911
60.45156373368248
44.10598218526328
23.466386848774622
7.563836291368085
-16.703804647710058
-39.32614758972456
-44.11032579135124
-37.76045582576845
-22.74021041006703
-3.3753404204578796
5.539788875399573
4.21073094258035
9.697171603127288
35.92877822573767
74.214442475138
99.76785965455655
94.84678829991842
63.479620520872444
33.35664184926335
23.01648260050046
25.55527614321037
26.3149600840868
12.64237099191174
-9.29382906577145
-23.195540255190025
-26.557690733761685
-30.95168157293717
-50.934892531130075
-73.28626704235074
-74.85165195176532
-63.245318571834055
-48.150139407491515
-28.527430289118634
-9.936520523576117
4.838187108057757
20.54618047899044
36.53906089094047
45.22707686945661
48.96745971801782
50.03786529533577
40.75203119192819
25.500690267629984
21.22564036186074
36.609383258018596
51.978008056083084
46.26131397581711
32.55306838912151
20.698365143947058
11.108326698225236
7.4010391159745215
-2.572617444912172
-23.27151423403275
-49.812033907943515
-69.75713788116153
-61.74920724266132
-46.17746313502061
-46.52559315046501
-45.940936742603505
-44.963167754521095
-49.45208390266656
-46.36626678458791
-34.00326242465856
-15.877844130109581
3.005161464713509
15.893201118380238
23.610906833511446
27.51075677246857
31.329186662279483
37.38041218511087
40.72840388439099
39.59728521347131
36.55031093301481
34.75112117022356
35.42515942125772
38.93144811767893
44.58957452398719
44.037960692363846
35.555317172886895
31.92554761677922
39.11112618458759
45.470646688595636
35.23860628074089
19.236767003951933
22.84276899953937
38.82163766693787
47.47845433169471
42.06367628819554
20.312686685099358
3.61450185113574
11.100461894446816
18.346495188467905
7.326180943519309
-3.427392758832357
-8.99987039111086
-13.124385385133174
3.3064783518088485
29.806102710558257
33.02632272664626
23.279757700298603
13.676543209768136
2.8764115599899265
3.9772889557578246
4.719780387992199
-10.274391707585153
-18.63742169544815
-15.183362531688529
-16.5909672298092
-26.12763934726653
-49.17040679413133
-86.16568778944193
-123.89038358112192
-149.36177875032925
-156.51102641571913
-166.1439873656
-196.10347950719185
-226.15057997228317
-241.2852602077907
-238.3519344112243
-217.3673118089881
-203.11740870136566
-209.11647612483307
-220.24694489090925
-225.1669992547629
-217.39599579619997
-205.51582270002953
-205.0862255763616
-198.6766071059647
-180.47791920836556
-182.23581435058964
-202.79123946509588
-214.12791100871237
-210.6877135788232
-200.5333198589508
-191.1591732407343
-184.97159183260908
-181.33272532760998
-171.89844257996404
-150.86788948928321
-127.4318673129715
-110.33085306701037
-116.56009824629163
-145.11662710775113
-153.7735834222852
-134.8884832169202
-125.76996630543489
-131.32381884382528
-135.79808013554586
-151.75036560174294
-173.49153999099636
-169.39595072546206
-157.4622651941172
-164.02752213652093
-171.06160043417512
-166.3119849428116
-157.90055262769428
-157.80714571442553
-156.23035263737887
-137.62311913016313
-134.99873888333047
-175.03080169352947
-217.6318070122683
-214.64833375395926
-167.40260331514747
-117.8993113919284
-122.0941454746416
-180.22893025014426
-202.9570930517052
-172.31968525659806
-174.74421870674342
-193.9205884899005
-170.16013372366044
-152.9701907770937
-168.20150131996255
-166.5377597835374
-140.12888476946205
-117.16203944057423
-105.54988694826245
-101.1827351087695
-94.53895406250969
-80.28647201808555
-65.27890018185902
-43.88217924748818
-8.023912415853813
33.54119083902681
72.42535431385706
100.36805137260414
110.05010230988589
99.48463419618604
74.06232454569113
54.29155183103429
46.459944302533415
36.63646450599283
26.37072238536718
24.682854194362967
26.345605005712123
18.811973137956556
7.984600996580191
19.08351274306398
42.45944480124241
44.53209143453326
29.563093734638798
3.395065791905616
-38.24169342944897
-67.01887355891769
-73.07653120423072
-79.48404337253177
-79.1274580881106
-54.90858588350004
-27.960107360059787
-22.825914040207643
-18.230488552563777
7.877173277631417
40.428737048685655
74.82486044396582
109.51679263463889
124.88539244157913
117.99173755960521
98.10673830317735
73.46798031501768
59.7996588311915
72.44086164254824
104.00029188509515
126.71499970463024
129.87905518458496
119.31521388432563
103.98593139604043
99.18261653907723
105.84589727900891
112.69552036970573
111.53790570737834
104.12202041106046
101.52565306207651
100.23400157564498
98.27221510957861
103.12863852814532
105.66659567677289
102.4122513132578
97.50065216805935
91.35429753060916
92.09730242159729
94.1353631276162
90.64903446088121
89.11075942507108
85.38279307703492
80.85978967564759
82.68196797779618
82.60959308242292
80.8161479464566
84.76826621938831
89.63317224447499
90.02706795563064
90.25342622098285
91.40314480679334
90.22470920512183
94.37308803824342
99.71533779223778
92.18898906084247
84.01737372171687
82.34350395633052
79.5205021577175
82.49729249223354
89.63864044293162
89.89006312268955
85.13245164812494
81.61273764521292
79.94492205788745
76.94816427115157
76.15407070393378
77.67640971710887
73.53390733974845
66.9595293590371
63.04167086740102
63.202854159230164
69.85760418605547
77.27394784791646
81.04452854704974
81.78526825937122
82.76995084138377
88.18678350318216
91.61460942654746
93.88484927359998
104.06343431510754
117.07916424804684
129.47740929123682
137.92445108806936
132.9689818786645
121.48307645323428
115.6420861408454
117.46438102868355
125.46451729928017
134.52169485079952
138.0271546534095
133.32505686968884
123.89189777947665
109.41206450785363
91.8304714045594
89.46963877238552
103.03317563508237
114.59427999233338
123.08398722703956
122.23600553880374
109.47002342819648
109.38984234213905
123.35745109911583
128.7888631676362
126.1600705314194
122.64952953513254
115.34771372533663
110.0804348445684
115.74795581440512
122.47842596536199
119.01174059027116
114.97220941540549
117.43741090118476
123.42544867595022
134.6491139847661
144.76090485559607
136.75076721635355
105.82425051560247
69.72033652629352
50.23288301824379
54.35113376765272
72.44899047900269
86.48050877674646
92.60250557561473
91.37929958284232
74.95422068763995
54.84582015816314
42.74475888783939
29.967148244831368
9.220948765502671
-19.932327174101445
-43.60412224969623
-57.87527945275977
-76.07193930341751
-91.1314563528024
-100.12967039732352
-108.78547910062217
-108.41080706663814
-100.82617354944456
-93.29138505978061
-89.43138732546595
-87.76949299851864
-76.78605969246524
-64.38649578924098
-61.58304391164768
-54.12175997889513
-38.162774773749035
-33.09680055932075
-45.45352077936128
-53.547840717301206
-45.78494723195598
-33.01039524050027
-18.930541266490067
-18.97271381216665
-47.16094110389164
-68.99632449057843
-57.32379309602109
-31.348588602038244
-4.2150385016507315
23.5688607569402
49.18196143820361
76.12325636158738
93.23215933708532
84.66830560628381
64.68319687503835
51.41203177568855
52.47021265424994
65.58050075865748
58.69291611004985
17.69886603930925
-31.370707760446084
-85.23437226610449
-150.3720234491226
-204.73815456131803
-227.92644663391067
-221.4705220157957
-211.1076823089304
-217.1509766184218
-223.38766541647774
-218.2555990512961
-206.09360805940324
-183.02938563174277
-154.2694155528139
-130.46893544414613
-125.58860378606848
-153.55475416189768
-193.56431115009104
-217.0056707547667
-217.37224627349303
-189.4462243188186
-150.4282249755316
-139.98916748148332
-155.25691600305106
-157.83497937757528
-141.59573659017184
-123.31627771691075
-108.96389408082611
-98.94966004235991
-82.85422656174781
-54.41740024314124
-24.43766324994527
1.5782907298120477
