AAD_Filtered_TADAS_FILE
AAD_BASELINE_CORRECTION: BASELINE REMOVED
AAD_FILTER_TYPE: BUTTERWORTH
AAD_FILTER_ORDER: 1
AAD_LOW_CUT_FREQUENCY_HZ: 0.025
AAD_HIGH_CUT_FREQUENCY_HZ: 40.0
EVENT_NAME: 202302060117
EVENT_ID: 13194
EVENT_DATE_YYYYMMDD: 2023/02/06
EVENT_TIME_HHMMSS: 01:17:32.00000
EVENT_LATITUDE_DEGREE: 37.288
EVENT_LONGITUDE_DEGREE: 37.043
EVENT_DEPTH_KM: 8.6
HYPOCENTER_REFERENCE: AFAD
MAGNITUDE_W: 7.7
MAGNITUDE_W_REFERENCE: AFAD
MAGNITUDE_L: 
MAGNITUDE_L_REFERENCE: 
FOCAL_MECHANISM: 
NETWORK: TK
STATION_CODE: 6303
STATION_NAME: 
STATION_LATITUDE_DEGREE: 37.7524
STATION_LONGITUDE_DEGREE: 39.3291
STATION_ELEVATION_M: 800.0
LOCATION: Kahramanmaras_Pazarck_Turkiye
SENSOR_DEPTH_M: 
VS30_M/S: 986
SITE_CLASSIFICATION_EC8: A
MORPHOLOGIC_CLASSIFICATION: 
EPICENTRAL_DISTANCE_KM: 208.12
EARTHQUAKE_BACKAZIMUTH_DEGREE: 
DATE_TIME_FIRST_SAMPLE_YYYYMMDD_HHMMSS: 2023/02/06 01:17:47.8876210
DATE_TIME_FIRST_SAMPLE_PRECISION: millisecond
SAMPLING_INTERVAL_S: 0.01
NDATA: 14501
DURATION_S: 
STREAM: HNZ
UNITS: cm/s^2
INSTRUMENT: sensor = CMG-5T/GURALP | digitizer = 
INSTRUMENT_ANALOG/DIGITAL: 
INSTRUMENTAL_FREQUENCY_HZ: 
INSTRUMENTAL_DAMPING: 
FULL_SCALE_G: 
N_BIT_DIGITAL_CONVERTER: 
PGA_CM/S^2: 38.941
TIME_PGA_S: 
BASELINE_CORRECTION: BASELINE REMOVED
FILTER_TYPE: BUTTERWORTH
FILTER_ORDER: 
LOW_CUT_FREQUENCY_HZ: 
HIGH_CUT_FREQUENCY_HZ: 
LATE/NORMAL_TRIGGERED: 
DATABASE_VERSION: 
HEADER_FORMAT: DYNA 1.2
DATA_TYPE: Acceleration
PROCESSING: Automatic Paolucci et al., 2011
DATA_TIMESTAMP_YYYYMMDD_HHMMSS: 
DATA_LICENSE: U (unknown license)
DATA_CITATION: Turkish Accelerometric Archive v 1.0 - Disaster And Emergency Management Presidency, Earthquake Department
DATA_CREATOR: AFAD
ORIGINAL_DATA_MEDIATOR_CITATION: : AFAD - Disaster And Emergency Management Presidency
ORIGINAL_DATA_MEDIATOR: AFAD PROCESS SERVICE
ORIGINAL_DATA_CREATOR_CITATION: AFAD PROCESS SERVICE
ORIGINAL_DATA_CREATOR: network: TK
USER1: GuestUser
USER2: 
USER3: 
USER4: 
[...]
3.541209611258964
14.639639232478977
19.594264513090128
15.94838336642366
13.05790146232977
17.81498854241155
20.943644624557624
14.23083219910365
0.6003630935189563
-12.689106721720373
-17.431857127170534
-7.924239093399174
8.533946898392804
14.760244793627239
7.186348442892302
2.505866304524102
5.418384131771412
4.866908161855227
4.885990375459856
10.03156776949589
7.690401372403053
-8.277240150239198
-18.109135930650844
-9.949498733071126
-4.214568570577846
-5.70798013954017
-3.0088179666522707
0.0916093499632394
2.061113626919162
3.947955118219067
3.708669738245627
4.914661686797849
13.690903587207105
23.88185858192879
21.75795979616777
12.245545780453115
8.708195857382776
5.678803544456855
-2.027382772870437
-10.446476741849686
-11.128132268687809
4.520744819026365
22.63968816766456
28.197332347409514
21.023975304935988
12.400999381165953
13.13926576520505
16.675975562686197
17.39090648577187
20.465740626696068
28.308030060735152
27.300295978230146
13.109925421618039
7.193436095523126
15.854500992754632
17.87203800842355
2.7954564672255264
-10.694224997627186
-8.509943093939144
-2.490708180380396
-1.0744416125352294
-1.4506431001379623
-2.1022338020899354
-1.7045587456874987
-2.85825888703955
-3.6616996317191006
2.99728044411893
11.27101607657282
10.376711707234179
1.5080249756456683
-6.703848463822117
-4.790225719580428
6.303753023844193
10.690043092402279
6.363490834917798
4.827931480792598
6.011314698976646
2.129726320563693
-4.672431103093521
0.3351324275178417
12.028112372432062
12.479015326925634
10.859690727432291
16.627276860367267
14.560384662438402
2.7091888970901525
2.5759065544414286
11.569887074262114
4.873442715569556
-10.567758733660044
-10.864111268726296
-4.256488740424923
-11.246553648227957
-24.547769447164274
-31.86982457319612
-32.31383381460412
-30.588719283153775
-33.06605702425663
-30.719310209791686
-21.379729409936495
-14.062584436879497
-6.777665830279482
1.3643204928664996
3.7400846566237727
1.7015806726724478
2.7185739424788977
1.2313920175596267
-8.44889122067864
-13.324517558763606
-5.094409145306699
5.441769028192636
8.631598085921588
3.592731623147845
-4.9498056641537564
-11.18832256446373
-11.5598419856078
-8.723494110446975
-8.601231127450808
-7.7436299210144375
-7.0754055754181655
-10.33791812758852
-14.000664911680051
-17.625012337020134
-18.114808768018037
-15.148546496301915
-13.177466252503953
-7.790369484076218
-0.7955445628482023
-1.3599274420882743
-2.1741546309093303
5.045409191515351
7.797941237183421
-0.45166929340904916
-4.320018645284961
2.9201851388516795
6.102269612114749
-5.452787261265797
-18.13658800715117
-14.080151997280021
-1.0729452934231762
1.9633638031900682
-2.563666061673395
-5.687510418927628
-10.418566835339067
-17.349352292039367
-18.129290079957325
-9.56228868062762
-8.181190778373194
-21.320108811861356
-29.172570763858154
-25.893750006108537
-23.36325625902776
-22.211042917956277
-22.072759114771937
-26.375996347511332
-29.09377886178237
-21.86751391552424
-10.092458105984086
-2.62970728744809
-1.5072074564341265
-9.705050963822247
-14.194198100630661
-3.79737970972125
5.470477051258649
5.553278643035887
6.560556740177113
11.970669047336568
12.000755211830885
1.7708215020643643
-9.987066924689353
-14.296958960886982
-14.508773013934125
-14.251817484770914
-10.507011141813155
-9.300901136041414
-11.546292679195094
-9.843300364811041
-6.660307994665565
-4.180187816677168
-4.794977309733103
-10.848377887039158
-11.225093024627105
-1.066052669091317
5.818423959446853
2.9366068188186536
2.1286910083245787
9.141850120737937
11.867208414312145
5.8617142932589275
0.33444742312679177
-0.8968502515240205
1.296958074783034
5.7353695249111585
9.381505056401727
8.91975312498545
8.399569587099402
13.475263811614521
17.579612500993104
13.409470866505892
9.063404429855595
8.798515127736566
7.043735343480859
7.802191696712071
12.560357892483392
13.820919136656745
9.852681690912675
9.284377397562638
13.659477885319887
14.56047982389408
12.080741852613766
13.197112081994835
15.758288052325366
14.733437876449269
15.010355552777188
19.831263327207548
23.245686450743143
21.175274369653035
16.07027696012525
9.193459666903665
4.808970636781163
4.211865309074221
0.9539230249811846
-4.154721067501238
-5.469150381377559
-5.025503903667626
-4.1584214060526286
-0.489929425410883
3.716890535540767
8.315586384809997
15.291673779785834
17.935109967824378
9.338061488990446
-0.24958459957667065
1.9150162715317955
10.626473235064042
14.130464109385214
11.860398593115134
12.642146402865471
17.87215663412819
20.455881773665197
18.57155960423016
13.641901421157694
10.276144055139646
13.718601586218776
17.766807315060312
14.685898152666189
12.417826627041327
19.95851199497002
26.52364326731044
21.35204629837813
15.66947593042593
19.723683149616463
24.078355433457286
20.27061767047707
13.370145646744506
13.234419764206361
17.502604627690904
14.741913727092614
5.58629951457851
-1.7786749583814576
-3.1211293405969083
-2.421334792279724
-3.8333023116636173
-2.7957264530195305
-0.7412472044291312
-3.0426523140135915
-5.297824997844609
-4.354869892932284
-7.153056405551874
-14.292349708134417
-15.242985162728734
-10.264374056798026
-10.460391449773505
-17.508992381214643
-16.41399867988425
-2.8879482295304175
4.300498873687306
-0.6989704622376911
-3.6866781056284306
2.584870623204942
12.514853320233414
17.36705662369733
11.622186742631861
6.6068112533674705
11.180075385930552
13.590537342170672
11.18685266681293
11.49657314676066
15.36166840340717
16.482707644075013
9.247495391067346
0.1262104120352249
-1.0688124097729887
1.97911011231632
2.062186238668483
-0.7844639990474618
-6.912282082169507
-13.167833997244616
-14.530292204596448
-14.44449874510486
-15.988627672568485
-13.848846163868826
-8.768073710801016
-10.907167347780927
-18.263804242942633
-19.74547761190202
-17.049800242256463
-17.33782103603857
-18.303737062273182
-14.336179505478153
-8.956142663826364
-8.94712223988738
-10.132527022849395
-6.553197609057889
0.2871748233933431
8.617407561203862
17.363036774061765
18.838831948317775
9.15376785447817
0.9328070703013573
2.2515914019197973
6.66526625657327
8.654429376878364
7.95246180520643
5.885592113451381
5.404324051583705
6.290076758154401
1.4826639241218051
-10.509876052941648
-19.27996809049934
-16.20821587484263
-6.794559738534577
-4.969661320865413
-11.264236694005152
-12.27604621261673
-9.60021054522302
-13.303666916518525
-14.809683756577446
-4.210887396759953
9.826324520976575
13.799906083300897
5.842450565576354
-3.990178440586197
-8.955192190676733
-11.201072180256377
-16.707959800255495
-22.579033390870556
-20.995504167632085
-17.838759155659428
-14.203442499909036
-4.941888885011977
2.556654940881776
1.1569900190496303
-4.82893725878816
-6.150305722196884
-2.740974623980878
0.9446541554480561
2.9600374130928016
3.184378258559015
4.135474606457629
0.48207252138723355
-8.138879725142717
-13.029900539138398
-12.033466889703023
-7.92616558953025
-6.261667950054806
-6.443016038168566
-1.9711965876916264
4.400899540419428
8.248270778993074
9.046842337377868
7.387197164475388
7.119636227050973
7.104083259562281
2.2377986938752077
-5.971567962061367
-12.071377993551552
-11.379177142724421
-3.684559214174392
-1.7428016156757191
-9.50207946937554
-11.423035808699506
-2.4984129119809317
0.8624512638827222
-6.462664584592014
-7.068586783250533
1.4561661242207073
8.119551817656845
8.14778032452955
5.521328713713917
8.873548293893895
14.720120623547345
15.63732409746932
15.814407306853463
18.997648074685863
20.746666723394597
19.38298714113132
12.952408602407957
1.1957074483724428
-6.586816984132504
-4.002134416710114
2.413280555677037
2.6514671904288725
-1.52958169569004
-1.8355222036596441
2.2006799979411578
5.354996969788599
10.491439151847487
19.167177431812142
21.334215099268608
15.963176995631938
13.055073937534344
10.712697435530938
1.3091481121621786
-10.070096476641522
-16.01425656833817
-17.523113326939924
-18.134631665873165
-18.778568830802524
-18.161263356225877
-11.611666924788931
2.4811169883651796
15.606800851041488
20.725724209006742
21.653939426331497
26.541826167946937
32.25918111314858
30.86064893049282
28.155013252739323
28.06206837966694
26.849557208864688
24.60182486669208
21.674607349032115
18.61512992048684
18.525347929720724
20.57333307445319
19.658330429742676
17.61947976886984
18.801387383532806
19.522384920166527
13.104543511915757
0.8290317745462372
-7.434727080880778
-4.991197520628693
1.1642096155710326
-0.13024215117018015
-6.133945093312934
-7.178432534745048
-4.512980020913097
-6.850926181419274
-13.91098168097371
-16.430449922074878
-10.783354659060336
-5.080870931162089
-5.818556009366745
-6.145725541457955
1.478726772087371
10.738484694193758
14.041523499520535
17.466021868104757
23.229659565464566
23.177836161888283
15.531929024659963
6.963361010771726
3.887299611214956
2.4553096761434876
-4.747936382481735
-12.507488308888364
-12.498557097033652
-13.074488383688854
-20.119059090661363
-22.31863006740296
-16.055850267135323
-9.346090793802448
-6.401074856509356
-6.481900393028225
-6.460719515027781
-1.3572808975572317
8.697486926128267
18.481456240930807
20.941647651509392
12.76242297004836
3.4682855964068655
1.189579397621558
1.6320689734413356
2.0600760722158644
3.451838353410061
3.9147120460124074
0.6415381549138507
-5.7482640610221285
-10.00068966199007
-9.97650819414676
-8.697776298686648
-8.482757985393144
-6.571701438501012
-1.063413717411519
4.187434086949594
5.49601260816728
2.8965584502137802
2.847136068174482
9.973001284882098
16.24206780884968
12.876989289410815
1.909712019227731
-10.759632428512514
-20.428656237287534
-25.349579067865424
-28.355273009133235
-29.941990549057625
-25.56058112763051
-17.298242370181548
-14.110630934240698
-14.911535716381856
-11.69875250068896
-8.035682079025115
-11.254098858754977
-17.486787243695233
-18.212919780843794
-13.344280955690154
-11.148092975071874
-13.84381709019907
-13.776661260072652
-6.902274405451675
1.4857166908584447
5.6414246495047955
5.545803736362726
7.9644956963993385
14.428854262049548
17.573740305522243
12.852903309874435
6.731546082256463
11.245331470461899
21.518227859861423
22.174585500702996
11.417109027427816
0.77489040409564
-0.6468301441998193
4.0340085983897165
5.948482210989463
3.8577617911454167
1.5030088629099025
-3.2942567833969587
-9.094328349483813
-7.971256813386429
-0.21090256992899734
6.358286167333444
8.433677141690705
11.286640731120361
16.19877574592328
14.743160411031644
4.237836852314119
-3.8974727290727675
0.7288711855486567
10.48471321076491
13.508606283731712
10.132947100784541
7.549339812338673
10.057038081959979
14.504503677384616
16.83086833829119
17.00484841331515
16.972683418569854
17.136360030893176
14.98000469169286
10.109814701542918
5.006292808355261
2.023164895836065
0.769982632686173
-0.4508729956974233
-2.3329379889224735
-6.802393333992391
-11.05609038484735
-8.743587199775453
-4.633722513788904
-5.084009254255367
-7.516271104449789
-9.621359994770048
-8.8993532297913
-4.555495037874892
2.8070767932568628
9.783339285143176
10.084709316332312
4.894611094386645
1.0566246211000188
0.41427505652795144
-0.7455315820398486
-2.6482342315984604
-3.1960777696350053
-1.2321388873827916
-0.005297922235728947
-4.3027442881233915
-9.539280457012868
-7.872912809263866
-3.5336185678745258
-1.3219049446887057
4.823577791655772
13.460674911535008
18.714731809406107
19.65642820819465
17.511673168519607
16.79570252335897
18.529218547316127
20.10796163564149
19.857753275439894
16.880527826539122
13.496715287716945
12.334140647126635
13.43840052592773
14.364335140680394
10.97370355897381
6.598362995251201
1.0578072498668827
-6.597720205637893
-7.109181012318945
-5.734405132275953
-9.73190054774369
-12.92807324907147
-13.337007133345402
-13.5999412190119
-14.217112532367937
-10.580096672609884
-4.2596499977190385
-4.342636217394147
-9.237247904535419
-8.033433686303244
-0.9183212451966145
1.0366463440913394
-2.9773611367680983
-5.4667044452067834
-4.143307649014461
-2.9525337585944578
-4.4476352431800645
-3.9339521363165244
0.8015051935333499
4.738075099270243
2.528878461765836
-1.8664928954981623
0.7600767141897204
7.319084336492599
10.92382302872286
11.245293293554706
8.480371715777919
6.997197195007079
11.09702422741834
14.218263883500867
12.02375410230805
10.386320339360285
9.595957941769909
5.355537121372689
-0.19408746305759392
-3.6148202545389485
-7.411252271348729
-13.253018688497223
-15.067007125807088
-9.95145981783421
-6.717872658634182
-10.010144852592848
-10.945221002442771
-7.363157151229094
-8.696548158928701
-15.854593714799483
-22.993692779555072
-28.806024966257077
-31.764622521120145
-34.47664404143571
-38.83692067144414
-35.63167631941799
-25.349955239338644
-20.789821461917725
-21.921217506590683
-18.582955791066382
-10.54645808110913
-5.590523127174627
-6.08067577335539
-9.096051775489322
-10.238280367002957
-6.825346867550434
-2.3459139924431276
-2.58462571278575
-7.813412856074617
-14.246011803242114
-19.515528438568126
-19.543581209689048
-15.931385553240869
-15.641462014417186
-16.017049064677405
-12.450787654687915
-7.918065884968639
-6.395811744845288
-4.716389844213173
-0.009248937818895443
1.1545474356410494
-4.591492400425393
-9.716322770275767
-10.26861406392757
-9.282600968154826
-6.567518650900765
-5.468948407326414
-11.135333883116747
-18.672871308149535
-22.385356248097125
-20.126573307940934
-13.649530773575465
-10.977831027755983
-13.486683868599
-12.975253218458256
-6.378899649084149
-1.6960085238793339
-5.2006064245933
-10.40864283592137
-8.148249717890433
-3.454672481686295
-6.331818229887725
-13.515315638566303
-15.811210200107773
-12.020036671418318
-10.302531651433176
-13.311432571042074
-13.870341427802726
-8.865440286375124
-3.445962797377772
-3.4352521255346375
-5.997399884352777
-7.093289569005055
-7.910648902120574
-8.116566681669353
-7.7659913820813316
-9.846833677788545
-13.743676271761087
-16.667759303608513
-16.56397968528739
-8.950465103504888
3.5148979709216923
11.669443291811165
13.363649363131499
12.181977494319133
10.061545611008235
6.194718890265069
3.449181378108154
5.496950231722451
7.0372319571927315
6.579207072721627
10.050714060568636
15.00927491412514
15.026637906240072
11.770632859118896
9.887176497262868
7.480456388025554
2.7572550407059255
-3.050780142641332
-7.311102184568276
-7.985726241831095
-8.922371668113783
-12.222084385715544
-12.024018459753549
-7.366765219453361
-5.390779929619261
-3.6065582459168133
2.5289545400587468
5.928949097783386
2.233173514202933
0.22346758272222406
5.500813264903316
10.161833926554992
10.80708188455044
12.161647178911236
14.574305524770663
14.146862995319967
10.726045440355973
8.708649013528552
8.527765650351958
5.430840928773179
-0.3220576223704007
-3.0897270223749493
-3.8057214914489923
-6.374429984411821
-8.348664590112037
-8.277103751788372
-8.195605611950661
-7.750173750030624
-7.160053720202135
-10.113402962340407
-15.350004283191906
-16.461532877384318
-15.116538476317832
-16.690837010698036
-18.94739630847326
-17.053054964114917
-12.954755934343462
-11.279211617521824
-10.18429961875014
-5.160561464380053
0.23984438336241842
1.7772554614768459
5.917713000782312
13.983826503626792
19.22744899586788
22.421466714412976
25.35322820698795
23.010583610498877
17.19853965616037
16.96460645782587
22.420737482982606
24.32953457728682
19.544725780909225
15.527952619501272
15.405413461102217
15.490650071308634
13.926287846899365
9.276148333525816
2.0796873263069378
-2.3491755541850274
-3.3772856649287903
-3.8796351994910614
-3.9545593045275274
-6.3360017100095
-9.858597550699454
-8.244202215422199
-1.9379255748075501
4.668414516381763
11.210697582972625
18.14301846948446
21.123294784749323
19.201490134574485
15.869836443305356
11.70249059902879
7.280898209558162
5.47772278018065
9.62145316860964
18.815684614739617
26.413395509644833
26.445988666989344
20.77077657808401
14.734491901369745
12.961847246873683
16.507531638229924
21.096930245245485
23.45034044549289
21.447523523345172
16.81308211262902
12.89350029336696
9.384558804531888
8.06944952599624
9.89578771982839
10.097522614860551
6.2836974480045065
4.899860195084165
8.60272075858015
9.650831267628655
4.148083468239684
-3.870260986412104
-11.727941272049806
-17.916231077411297
-19.316325317083958
-15.316914817239327
-8.619671781068178
-5.236187854956768
-7.449985367093529
-9.993832853858098
-10.25150275447147
-10.83571736830766
-12.135061188944189
-11.79648387301557
-9.725626629802672
-7.285536189035671
-4.901177954967744
-3.1458178326363315
-2.047309305410884
-0.8049217534240288
-1.2595804997116757
-3.3271376369982133
-2.513157548029181
0.3910566900287556
0.4235735012787082
-3.412459630373392
-8.540965225546962
-12.563849357304692
-15.014591399710612
-15.51444005586439
-14.426392256393003
-11.596610458644097
-5.158308066904741
2.6805364388127475
5.982161816764066
6.659405405582327
12.953923852468622
23.135126605674497
27.550942794064856
24.103130745483952
19.813602121394702
18.04309465192875
16.05831610094243
11.337962685449043
7.386482416777334
9.797115320930097
16.07580659066453
20.145708001434976
17.10069399860751
10.149965229979774
7.905755667962658
10.148840083857065
8.18084694589822
1.8070689227046675
-0.8272755992278142
-2.8253261391060067
-8.24650423560207
-13.238974081273561
-14.89998642293064
-12.166748194909303
-8.445781608450385
-6.957033384473005
-6.222095107293327
-3.0946065100114684
4.692914099589726
12.48178492940261
14.086512733977598
11.914973276231573
12.901760726564136
17.11660062383805
18.20267414425548
15.236794539840226
13.894264260894946
16.813598278532638
19.65419138877779
17.90470285736429
13.541743875980378
10.505857815694101
5.347132553609777
-3.108304036256269
-8.456550667447273
-10.503282656628718
-15.582183953855994
-23.637404370807484
-27.1366693941665
-25.63313897584851
-25.942942083181077
-29.673826002432243
-33.8631497707552
-35.538919744999305
-32.9308884026695
-30.918305646962295
-32.17279359517947
-30.84952476756134
-25.78353015349359
-20.47437312492301
-13.514522941778445
-4.779222815509429
-1.3742226890010443
-4.373235414701924
-7.399114500388983
