AAD_Filtered_TADAS_FILE
AAD_BASELINE_CORRECTION: BASELINE REMOVED
AAD_FILTER_TYPE: BUTTERWORTH
AAD_FILTER_ORDER: 1
AAD_LOW_CUT_FREQUENCY_HZ: 0.025
AAD_HIGH_CUT_FREQUENCY_HZ: 40.0
EVENT_NAME: 202302060117
EVENT_ID: 13194
EVENT_DATE_YYYYMMDD: 2023/02/06
EVENT_TIME_HHMMSS: 01:17:32.00000
EVENT_LATITUDE_DEGREE: 37.288
EVENT_LONGITUDE_DEGREE: 37.043
EVENT_DEPTH_KM: 8.6
HYPOCENTER_REFERENCE: AFAD
MAGNITUDE_W: 7.7
MAGNITUDE_W_REFERENCE: AFAD
MAGNITUDE_L: 
MAGNITUDE_L_REFERENCE: 
FOCAL_MECHANISM: 
NETWORK: TK
STATION_CODE: 2716
STATION_NAME: 
STATION_LATITUDE_DEGREE: 36.85643
STATION_LONGITUDE_DEGREE: 36.68833
STATION_ELEVATION_M: 415.0
LOCATION: Kahramanmaras_Pazarck_Turkiye
SENSOR_DEPTH_M: 
VS30_M/S: None
SITE_CLASSIFICATION_EC8: unknown
MORPHOLOGIC_CLASSIFICATION: 
EPICENTRAL_DISTANCE_KM: 57.38
EARTHQUAKE_BACKAZIMUTH_DEGREE: 
DATE_TIME_FIRST_SAMPLE_YYYYMMDD_HHMMSS: 2023/02/06 01:17:16.9977600
DATE_TIME_FIRST_SAMPLE_PRECISION: millisecond
SAMPLING_INTERVAL_S: 0.01
NDATA: 10501
DURATION_S: 
STREAM: HNN
UNITS: cm/s^2
INSTRUMENT: sensor = ACEBOX/SARA | digitizer = 
INSTRUMENT_ANALOG/DIGITAL: 
INSTRUMENTAL_FREQUENCY_HZ: 
INSTRUMENTAL_DAMPING: 
FULL_SCALE_G: 
N_BIT_DIGITAL_CONVERTER: 
PGA_CM/S^2: 255.736
TIME_PGA_S: 
BASELINE_CORRECTION: BASELINE REMOVED
FILTER_TYPE: BUTTERWORTH
FILTER_ORDER: 
LOW_CUT_FREQUENCY_HZ: 
HIGH_CUT_FREQUENCY_HZ: 
LATE/NORMAL_TRIGGERED: 
DATABASE_VERSION: 
HEADER_FORMAT: DYNA 1.2
DATA_TYPE: Acceleration
PROCESSING: Automatic Paolucci et al., 2011
DATA_TIMESTAMP_YYYYMMDD_HHMMSS: 
DATA_LICENSE: U (unknown license)
DATA_CITATION: Turkish Accelerometric Archive v 1.0 - Disaster And Emergency Management Presidency, Earthquake Department
DATA_CREATOR: AFAD
ORIGINAL_DATA_MEDIATOR_CITATION: : AFAD - Disaster And Emergency Management Presidency
ORIGINAL_DATA_MEDIATOR: AFAD PROCESS SERVICE
ORIGINAL_DATA_CREATOR_CITATION: AFAD PROCESS SERVICE
ORIGINAL_DATA_CREATOR: network: TK
USER1: GuestUser
USER2: 
USER3: 
USER4: 
[...]
34.79720540535035
29.68351393656904
21.901427302445754
12.15053891375281
4.333738775882249
1.7122015287364816
1.051527605660175
-5.157472102957716
-18.678756765370718
-36.12435309471483
-53.85224409178692
-66.54698858002544
-71.07510130675486
-69.21413720526667
-63.190614416606735
-56.558825064649206
-51.731445443346225
-45.80815118669494
-38.56613417208344
-31.763782917589776
-23.08767605058739
-14.62089963548727
-11.982909238097898
-14.991287779743518
-21.107739702939707
-28.643934242531696
-35.95114887290587
-41.226173045159115
-42.633125112882944
-41.421979980909015
-39.49561191231877
-36.26506281640608
-31.900494655461575
-27.9526115975879
-26.86954640844894
-28.930753742141697
-30.19770251695123
-28.554840598879302
-24.350419621456663
-17.79149910963109
-10.550637127212347
-4.411207928971603
0.47841112714298306
5.250127928722934
10.924711739524104
17.926842890800085
24.688187840753912
26.704680798357348
24.340537815814123
23.408749799173993
26.681571783236173
32.798850262776895
36.404097880369115
35.37649297701821
34.58321268690419
35.496242139048974
38.53215269210311
44.927336943368594
51.32970781504582
54.70143774835635
51.64928992746695
43.41642710759689
41.78533951477652
49.67376918433714
56.18072473598895
56.600813524101895
55.543181473918324
55.736298392347
56.491000071361775
59.10798209298962
62.986980200930184
60.48817057043413
46.47654436874583
27.94047573349612
17.49153572466587
17.832884882240343
18.92510841354991
14.820595108615358
12.123538946138295
14.98640318093372
15.992544029342929
10.03792469115491
1.3118711778615146
-7.620790572317135
-18.43314644768332
-30.378544825831458
-37.78145701309849
-36.782524963904365
-33.40525252647017
-34.79142017284366
-41.37623236639726
-50.77674657708677
-57.952989611139195
-60.17175857997007
-58.9417800225909
-55.97406108590605
-55.08600366669075
-55.21382596185479
-49.35307442762354
-36.36130074878586
-21.562100664134366
-13.644280931653789
-17.16165646329864
-24.98831282783476
-25.974501720284202
-15.213925227462687
-0.6579118523413602
6.541708003373747
9.027638423371497
12.716012837002443
14.609870470761004
11.883374130546096
6.562049160222239
1.843888158038703
-0.747533444058156
-1.2023751152063733
-0.9171355829476472
-5.90164549370029
-20.197814174706114
-37.603736572213805
-51.391097795393556
-56.88538812635356
-46.89973171264403
-26.022503400173747
-7.000454812596099
8.410417656799677
20.02043301681976
22.122348692256953
12.310988191061892
-4.388666103061444
-18.828353413725935
-30.983672237052566
-43.091581761569415
-46.34251727795933
-38.036550088366674
-24.252540190251437
-6.030177181221711
15.444709211387535
35.8708510954476
50.130842964116546
53.84304952615264
50.4249286153482
49.1601657527514
53.386682612325544
57.77874265028362
59.99356300074831
65.37411499779596
73.75475444638451
77.72989880226582
76.37973276647719
73.53256421052077
68.59080219053403
59.32445699934992
48.55450619407914
43.29179617436665
42.92519761587769
40.70763605113973
38.89752302913334
39.541500635706235
37.108132765216084
31.511470206364155
22.720013427587638
7.396906489684997
-8.782964996856183
-17.764194163702342
-20.41431403758426
-19.767239668223937
-12.390448404930183
3.5565855220863454
17.311158185489283
18.24073609554743
10.873333791739183
4.791034891559149
0.6961251341130129
-5.855650094601158
-13.855394980150932
-17.907444147407247
-15.273108564026684
-8.007443907686257
-1.5269115469048276
2.34370553010726
4.5059385925703115
0.23709934310232483
-13.21601738044549
-30.539408351749312
-45.48059205079333
-53.63525608136098
-55.844593737151726
-54.81271496508923
-47.51504128181597
-36.28856507494917
-30.433328973360293
-30.074160051135436
-29.3243092003357
-26.3880712356265
-22.04960989656491
-18.967077391781416
-19.485643032852213
-23.42944176571336
-30.059955837006296
-34.30434767361319
-28.785513727767963
-16.808336200225302
-7.42347786012491
-2.7598477591584274
-3.8828072168865195
-12.321096691640387
-23.23934330505945
-29.28880200817087
-28.821229963568225
-26.933498326456856
-26.425982075553524
-27.568822433995596
-32.198801080359
-34.49127151661755
-31.144019023554442
-33.04755529911737
-44.94928091142126
-61.350612144401516
-77.11354314888517
-87.18440341779372
-92.49641579018298
-93.9868207171222
-84.89480050745894
-65.7174239903301
-42.54411278022783
-12.933952241690829
21.00581347809564
45.118943537218755
53.61196015159773
53.23288931968558
52.59016999803865
63.21488103279757
85.78981037832706
102.84232672966672
109.06650747158979
114.45789566557394
118.01230621315476
115.37972910717887
109.07405820447781
98.9880640821258
86.15954868627615
73.69080595771041
62.065542386139846
55.4729917497001
52.85184542728482
44.15641465016854
33.40171648267171
30.941437842076212
31.21047661517599
30.46424438207599
35.72520123652328
44.963654106451074
46.685495159695
39.89774071328492
38.79444931189597
47.27683967851434
49.849761788718766
43.29604827742147
36.68748700016817
24.38824367969879
2.217650767976948
-17.903372130661104
-26.17024925776841
-22.186948103500832
-8.080148185655366
14.272901462678096
34.33071748775148
41.206376932425684
45.32585037612168
54.79790942417473
58.800107613263656
54.59567922841692
45.098288018470264
28.60952638869269
9.06097926738196
-11.85559128450406
-36.04581767161982
-57.69692397688982
-74.34618570373998
-91.66190599487045
-105.38905315334239
-107.08765421228082
-102.58583491762153
-100.42358524075935
-102.27820202509535
-105.52268062221682
-103.91612837403238
-104.17738385689779
-118.3498950244393
-137.2655800606927
-149.54636748301988
-153.41215863726046
-143.22578530054741
-120.52692820972524
-92.6004576472106
-64.34482933934068
-42.202051625345845
-21.78670708023128
1.178789588593442
14.731180953481475
12.94268972887166
3.337180636912595
-3.232994738103767
-3.435112863533942
-8.32682081369471
-19.386167369603548
-23.48786780886633
-19.692791817165272
-15.49764079408098
-10.018004186703584
-0.5135864133103387
8.6442779224881
14.424287392052861
20.487012761728995
29.312588964343902
39.32250740178975
44.09497506916712
41.083417508923674
36.23497526202271
29.7465652099824
25.85563388375913
34.10291038904866
47.12327891512707
59.02396035745362
73.56840832697164
83.94202284125424
84.74643942617574
77.05527377535024
59.99317202137711
40.78189464217857
25.196444368820778
6.856562749731243
-8.670852988359373
-5.978520598404536
10.281985493103786
25.266151010264473
32.681772700061
31.627164199372025
27.0036960330975
22.773271734834236
14.674246841794568
0.06575277697986066
-15.36962797191831
-27.040907739597046
-36.397443332614586
-39.61297619265073
-33.03652958125333
-21.677048805834144
-6.015386917321214
11.490518015998381
21.388048855864902
23.939466357139533
20.8243661363271
4.667372965517312
-23.080540443673033
-46.79450590930574
-58.32687776244778
-59.986810579628184
-49.08832405570913
-25.741012650121338
-0.525148464672514
16.78260020663387
27.185061868452298
34.449321066152216
27.74172209273251
2.1457944442993866
-23.363343353100728
-33.653024873731944
-30.617790479236803
-25.23723810660089
-19.67815557127393
-5.4773414726626255
9.70740752500802
20.078529563432625
34.348637605151744
45.719181842073475
44.00394187368573
32.40718385381128
19.22360403653116
13.916897520980461
16.87788928371733
23.879540620937956
30.832636542892534
29.739347311585323
22.02875473337291
15.882394247422601
12.846908860287703
15.418133430313796
27.43605019968375
42.10825731272305
46.6459555098681
37.59485676361769
21.041878882717008
5.492307234166201
-2.928936250617096
-5.41439456132414
-3.5899405281639334
2.4064665206309597
5.5629208432865775
-0.6189708717824663
-14.53935959960539
-26.823796186647005
-27.875805157634378
-28.20326557575281
-44.88028139248413
-67.27776252281197
-75.7972823786399
-74.7357548409582
-77.98069382767306
-85.58342735590053
-91.95756713075001
-101.84315405400395
-119.18305861060384
-132.5833245757548
-128.2043663485044
-108.48483644707169
-91.80116204934792
-85.62657338609799
-74.66656869818364
-54.97342907856639
-39.34626533581508
-29.583799861811013
-27.29732693785741
-39.26151742704014
-57.610998284324914
-69.94581932287993
-76.59224514122236
-83.4435048090189
-88.9025536389745
-84.91976459587728
-72.30561949521696
-61.080406211919
-55.444571162806696
-51.75989798954068
-47.34442515900487
-45.072927383520906
-43.482098452053414
-35.494236638743644
-26.611556861456283
-25.804956231643114
-30.4355362136921
-39.749741827515905
-53.26334704659057
-64.06693371436548
-68.74140825823201
-68.25352855114208
-63.42233310652762
-52.6856599308873
-37.70525883341536
-30.40774886419571
-35.404646600885215
-38.03037940821414
-28.10761286283818
-7.82912021312931
23.416174067442807
58.83197392506843
84.28710958496278
97.41476737832114
98.79653221765331
90.96415371642235
86.0424544520056
89.85525247338248
97.15488172968608
101.01325553819945
100.51973853463782
101.87703733146053
108.16505120518778
114.55808897050757
113.0796133625747
102.40828341155783
86.63161405925375
65.58141880928297
43.426846006950974
26.017125057896322
3.737447068029632
-26.324343373102987
-36.65273661415164
-12.214591624033414
21.058251255481967
45.64919424871794
68.28831767991593
90.14345439140939
106.98209280337059
110.93637075699132
108.87338721721282
125.46408802129679
146.19830498429053
133.43288802098985
94.83174195034431
58.882218917412686
29.20118879926294
-2.8493669269862676
-38.650289662812625
-71.79168871394168
-92.06423904815105
-97.63078005399116
-102.3038761674913
-112.2692279982261
-116.04952105508053
-109.96173304595686
-104.89743097987092
-109.56417453835849
-122.7537873691467
-140.13601191852814
-160.91359020856552
-184.51171487991752
-208.19220852547213
-226.78339422321446
-237.08868533776766
-243.01828845483277
-246.65992300083758
-247.47561067389535
-248.45976977170503
-249.89730367093134
-251.14072744862128
-250.85294892729675
-243.38039320605253
-230.2112497896843
-217.1019772623505
-205.73456879040853
-200.07806683417945
-199.25207132134963
-196.54290502136246
-192.83597393422968
-191.288595438041
-189.41889149616998
-183.83792514435729
-175.65045157359566
-170.49040427407496
-168.03444908632926
-158.00939358564315
-137.30150092128093
-114.29721656376445
-92.39622218025892
-74.42134916238868
-64.88580051327993
-54.68036711136968
-37.28195291157369
-16.575744229495427
9.891130255534323
37.0162991177608
57.283741684769474
80.35482388769641
107.9687384588704
127.6175477288776
134.82043825782196
136.27322761477754
144.05547548922078
159.01832539556793
169.53670563700837
176.12810037461674
184.75696609811294
190.70775085616282
194.1043282800508
200.65520979052675
208.87621745203222
215.6471833032523
215.56738476797972
203.943798236049
187.64379713810777
172.5233153058766
157.19276957168142
144.11148439312885
135.24566325677932
126.93494996041173
121.68047158658635
127.24467506046896
133.53981235380138
125.99595443919037
114.52161752017876
105.37940575440199
90.10187871964015
73.28379853847639
61.633288813191314
55.574818979861405
59.62033382994432
72.86551248156897
86.31868952106244
89.24725801143691
73.5648001026224
43.55269733617133
13.847688906921464
-8.691916319867001
-31.135986544382597
-57.79980812561554
-84.64789874801994
-110.77275195373444
-134.0957327834203
-146.2770785312845
-143.94708480760778
-132.1798226803497
-120.21449634662055
-116.92467921410717
-122.44920228857866
-130.15643434873385
-132.9219320668995
-123.02818420093242
-104.07502376063
-93.74302061234644
-98.38413010972717
-109.52834233548742
-123.67324125515103
-137.41072206913577
-143.3280139230969
-145.872320612292
-153.1355778295579
-159.80280849537456
-160.5561354517003
-155.68351281452718
-139.20138838493511
-109.79176807286953
-80.38442225955528
-61.01145425204457
-50.155073328473236
-43.25981733591424
-36.409317805338425
-23.812590365460704
-2.8507150495901485
15.31525022068729
19.33819495794919
16.975267036825468
19.17458109526135
31.950255163845927
61.55633536113338
93.01853863051066
99.46406059237442
85.70230599838084
73.62899337451218
58.53333054741425
29.675387329020882
2.7716698078163344
-12.938649873879802
-29.115183917032546
-45.06302136035383
-47.967463162164584
-25.805363231187833
17.092646729559927
50.58954288812836
60.4005794440261
55.50333422225684
36.44759082063725
9.933585977879396
-8.049318787096265
-14.247703266929546
-14.605380064276632
-16.42554675882648
-24.52152524824678
-35.550195392287385
-38.69014515640052
-27.252968373969903
-12.99151429083847
-7.538215111683148
0.9778901400932433
21.517112456009453
48.62721646894348
77.87478595161396
99.86730853792969
118.41987208193412
144.15634338039436
163.69823011948301
173.23988740209253
180.30192221256118
182.43520980371304
190.86626239359254
219.89301823666477
252.462226674638
245.35180358975924
195.92287490045325
142.9234979147587
94.72559757143945
65.16402931768191
67.48859467136282
76.48860379611676
91.11029930921372
108.28459383131658
114.77076383374045
127.5794007211858
150.13404854649002
181.33173062952594
204.35073335168974
190.7694768878451
169.40226361934728
164.33362306211163
167.1055296559416
171.5556502800672
157.76872512632687
145.1781832093716
166.75291570614598
192.6634768631305
201.39201198358128
202.13847491586347
185.92227055412988
146.53950562530056
95.80990589441441
50.16721809715509
20.38209861080068
13.090447321947908
27.741083327487633
36.75343396865833
20.839340688412392
-4.112581966935723
-30.150412053776645
-51.75941364109501
-55.66914158785818
-50.712136484415694
-52.2175063102304
-69.9479170506531
-107.45459966907957
-148.3367451784361
-177.52355182202967
-196.40719084931592
-209.82779526729644
-221.0628774858199
-230.0582760202448
-231.56387358511418
-217.34002680324505
-177.0310815761331
-110.28658037906119
-45.731677372797385
-8.450322483623536
19.22104313683033
54.19257044894443
68.85190338765628
35.131307032856704
-11.419751628919487
-19.880728312053417
-9.172623077226563
-7.7427211009303525
-0.05011571505903748
16.012139645868398
27.656609180058876
32.548665225534826
30.205160631942505
26.970406863459882
30.41062751817345
38.72202065352293
44.573225639929966
43.068499439271676
39.63646377955411
45.892340713340154
65.35607199965095
86.31809191272156
99.47937674035803
109.96116306716455
117.91522782920305
118.44114610576584
116.8007984476679
116.65533552650793
115.09012792665825
112.5592895349857
111.23618212671924
113.32377875323917
120.66301509760842
132.9986518847423
147.41426230818195
157.1408597336644
157.26916176876492
145.4589044644143
122.86306996838243
99.33569913770133
80.35550099679045
62.79369147330686
42.918184268307414
17.942093922091015
-3.0807671082977364
-10.737589004679277
-13.99552370210284
-22.01611630156633
-38.180167917095694
-64.33651916988937
-90.37422358743349
-106.66673542150332
-116.13478029802948
-122.1077863091277
-126.44263084660062
-132.3592581347279
-139.5295321551531
-147.0506335442735
-155.84446066407313
-163.93582919328972
-170.16321495506412
-175.6387590905867
-177.42823804592084
-175.27490955210033
-170.27641611489986
-155.0101704639736
-130.5127076817835
-108.96881609419705
-92.63157426161577
-76.90236056594722
-56.963420784577444
-31.950441326074518
-8.946646191594981
10.61625152082722
29.658881502468848
45.50266362250424
57.502584076111894
71.06130118522488
88.49814450361733
100.90773941029862
104.63433084686197
110.40503129892241
119.59062464567612
122.85820291777674
114.66014945889397
96.60368322177798
81.10667282995604
75.76991212055583
73.31784461724368
67.21369631454903
57.27944197464227
46.25053385681865
37.63191009366551
35.333555910119394
38.97855829679648
39.16098885608463
34.9354299159421
33.95856986176524
29.634790415187386
14.265725465643293
-4.192325926750994
-13.870128557774878
-8.827271469041143
5.078127197093483
15.279696726144532
15.4554372001268
4.907687315699448
-13.90123366386315
-33.72592183134334
-47.05408666918144
-52.98598441601627
-56.46794862859065
-62.90673673132836
-74.96791244375055
-89.42569046818863
-102.70909125578609
-117.88751660713253
-135.93618582188816
-151.6971840851821
-161.76983377746478
-167.08808715126307
-170.44801714013957
-171.9633949700179
-169.09408375944852
-164.90727365268452
-166.2744062487179
-169.8025637691092
-166.3775336997907
-157.72883130664914
-147.57254576364346
-133.7544373847651
-120.20269734769919
-112.79960990904205
-112.83132560023991
-118.6086531487203
-122.4064053065279
-122.03155819998236
-122.77593391873039
-123.02362148282329
-119.05928695732194
-108.42990411705871
-92.46309174625078
-80.83974667886265
-76.51972513497478
-74.90699007782618
-73.12752888810085
-65.14505103670628
-46.08773732543096
-17.16742709775017
17.05435470764745
50.696830651478166
78.86577699441371
100.0053398528885
120.42908340661866
143.93548165009358
163.09380202823303
171.1695351581899
162.83096328600118
140.78833378963222
124.3879391269988
124.187321216274
132.78242347433303
141.8250668468877
144.7209751276336
140.89117507161137
139.41412967125063
144.35820897581684
146.2297537724689
140.00689181724155
133.82315221913728
126.26096848862845
109.01082323641201
89.48960217812704
76.82463477161268
70.95119349921988
70.8689341338458
69.10394938978149
57.67437858145098
41.65132068197354
26.90126987120418
8.878983892922799
-13.368633304779053
-30.92019522866632
-40.96582825532556
-50.059927906061795
-60.53829897263557
-67.46881666935654
-68.77389303239202
-68.39782888030052
-67.48056552917588
-63.09281827808668
-46.80648083062261
-14.991726515865093
9.528197690707977
12.133950927870064
10.054347009712078
7.700054316182905
0.9354875360586065
-0.0916617379396802
4.461575900038554
5.248134607087478
-3.0537192481268742
-17.72443684913748
-25.899213508183013
-26.834245305463376
-31.272390822159004
-42.9573385609953
-60.44283254392593
-71.65282818651716
-70.90150828342372
-71.72116223105911
-68.05487598528157
-42.85051624075847
-4.748587403217698
33.83716064866746
65.73766737164752
81.47444816276214
81.95829151636809
72.07953759117932
55.422201826494536
40.240456592282726
29.62445148427441
16.97822090075083
-0.35728848043318157
-15.26862643226239
-24.790530215144564
-31.254204532034986
-30.762847202641947
-21.960158922715905
-10.719855602469444
-1.6144891895942692
1.7580905708946277
