AAD_Filtered_TADAS_FILE
AAD_BASELINE_CORRECTION: BASELINE REMOVED
AAD_FILTER_TYPE: BUTTERWORTH
AAD_FILTER_ORDER: 1
AAD_LOW_CUT_FREQUENCY_HZ: 0.025
AAD_HIGH_CUT_FREQUENCY_HZ: 40.0
EVENT_NAME: 202302060117
EVENT_ID: 13194
EVENT_DATE_YYYYMMDD: 2023/02/06
EVENT_TIME_HHMMSS: 01:17:32.00000
EVENT_LATITUDE_DEGREE: 37.288
EVENT_LONGITUDE_DEGREE: 37.043
EVENT_DEPTH_KM: 8.6
HYPOCENTER_REFERENCE: AFAD
MAGNITUDE_W: 7.7
MAGNITUDE_W_REFERENCE: AFAD
MAGNITUDE_L: 
MAGNITUDE_L_REFERENCE: 
FOCAL_MECHANISM: 
NETWORK: TK
STATION_CODE: 3123
STATION_NAME: 
STATION_LATITUDE_DEGREE: 36.21423
STATION_LONGITUDE_DEGREE: 36.15973
STATION_ELEVATION_M: 85.0
LOCATION: Kahramanmaras_Pazarck_Turkiye
SENSOR_DEPTH_M: 
VS30_M/S: 470
SITE_CLASSIFICATION_EC8: B
MORPHOLOGIC_CLASSIFICATION: 
EPICENTRAL_DISTANCE_KM: 143.00
EARTHQUAKE_BACKAZIMUTH_DEGREE: 
DATE_TIME_FIRST_SAMPLE_YYYYMMDD_HHMMSS: 2023/02/06 01:17:36.6820400
DATE_TIME_FIRST_SAMPLE_PRECISION: millisecond
SAMPLING_INTERVAL_S: 0.01
NDATA: 12501
DURATION_S: 
STREAM: HNE
UNITS: cm/s^2
INSTRUMENT: sensor = GMS+/GEOSIG | digitizer = 
INSTRUMENT_ANALOG/DIGITAL: 
INSTRUMENTAL_FREQUENCY_HZ: 
INSTRUMENTAL_DAMPING: 
FULL_SCALE_G: 
N_BIT_DIGITAL_CONVERTER: 
PGA_CM/S^2: 593.940
TIME_PGA_S: 
BASELINE_CORRECTION: BASELINE REMOVED
FILTER_TYPE: BUTTERWORTH
FILTER_ORDER: 
LOW_CUT_FREQUENCY_HZ: 
HIGH_CUT_FREQUENCY_HZ: 
LATE/NORMAL_TRIGGERED: 
DATABASE_VERSION: 
HEADER_FORMAT: DYNA 1.2
DATA_TYPE: Acceleration
PROCESSING: Automatic Paolucci et al., 2011
DATA_TIMESTAMP_YYYYMMDD_HHMMSS: 
DATA_LICENSE: U (unknown license)
DATA_CITATION: Turkish Accelerometric Archive v 1.0 - Disaster And Emergency Management Presidency, Earthquake Department
DATA_CREATOR: AFAD
ORIGINAL_DATA_MEDIATOR_CITATION: : AFAD - Disaster And Emergency Management Presidency
ORIGINAL_DATA_MEDIATOR: AFAD PROCESS SERVICE
ORIGINAL_DATA_CREATOR_CITATION: AFAD PROCESS SERVICE
ORIGINAL_DATA_CREATOR: network: TK
USER1: GuestUser
USER2: 
USER3: 
USER4: 
[...]
2.589214754339577
6.68459882934263
6.976786900028676
-0.5295341803122914
-10.393271365681947
-14.046691368305998
-13.082969341252875
-14.248111341726872
-18.421550128515015
-24.309351173329958
-30.797938203364847
-34.651635585179626
-33.35167714938132
-29.227461767271766
-26.202651357928314
-22.95391783824861
-18.50008265539079
-17.62061501443325
-23.10169558461592
-29.707691723867754
-32.87178827758263
-33.97503712018322
-34.32500723610448
-35.47965234118433
-36.39712781774549
-35.76485012085908
-34.0837221788736
-28.55219570958129
-24.53845479787476
-25.999960001744316
-25.371166074817438
-24.355763032953373
-26.02519541109876
-25.640738196121067
-22.389637378318962
-18.462077160680444
-16.386143596340652
-17.97954333875217
-22.177933172862588
-24.38075168382308
-23.79634643494875
-21.49852009812932
-15.813350627886942
-9.886870103529759
-4.012508831291404
0.5859668171288777
-0.21495839204200837
1.4098864744421478
8.120688663298628
12.276018434184731
13.973994890442311
18.480962798101018
28.13276761952458
38.419623056036045
44.93793398930483
49.119758613363864
51.90841249458363
50.94906212006741
45.791481872616295
39.31283932072255
32.607129744541844
29.96284349432732
33.3154938608845
36.06285556896515
37.407081007616796
39.39837954578389
39.94435997641171
38.9112305960133
37.334574685432436
34.09771733246615
29.457792645280957
28.45024292523304
30.243694214980614
30.128638923276252
30.533947390978653
30.719520913952596
29.991267307652198
30.992644733246177
28.51377833221657
22.83759959159439
21.59505003735536
21.602332528180067
18.681771601243224
15.485211125721422
10.794650367148238
3.2246970075276975
-5.396865350748349
-15.057139958238634
-25.950671531384376
-37.32745211781995
-49.45272892579707
-62.97671449957322
-76.75740198873598
-87.98036514510746
-94.60212654301513
-96.71837666861653
-94.99512418254483
-89.74583872370818
-79.28627866541052
-63.72800350231797
-47.68392976370251
-32.582879126699495
-20.630326182455708
-14.264431245203456
-11.652483931058493
-14.577543902772971
-20.900435988294344
-23.694866809416084
-23.721739421889367
-24.95139753310472
-27.77917119101164
-30.005813179138478
-30.460866092514706
-32.57461319618375
-37.12116181746519
-36.82847872088353
-30.008519173629548
-22.21195161719261
-16.460166504758288
-11.81824868146912
-3.8273285508961314
4.295692323956684
6.786937001271517
9.235035505729144
13.95036771681128
16.406473302027003
16.534673270743447
13.872250726194238
7.682238360711249
0.5089324868018912
-7.156589687431212
-13.865314165478326
-14.861200789597401
-9.599771377938723
-5.672094630064166
-9.112705912469778
-13.674541312180223
-12.972737757340855
-12.26778864731054
-15.522422873185777
-20.05333103789684
-27.01964940091036
-39.0921768009608
-53.45402541332681
-65.70653345382681
-73.89485623489726
-78.89753343473102
-78.81974718640274
-68.13287572991094
-51.78770579124266
-36.911751183298726
-22.96603477515395
-14.212063350138989
-9.387570060578147
-0.6104161515952267
12.69046580750146
26.850137780355475
37.951028182808
48.28788943874446
59.16414825832279
66.22133812145927
69.70600929176655
70.27617121228616
70.65442146003618
75.19501405202303
79.428767656906
76.79602219329911
67.81350744638394
58.994029887579096
54.81772274288978
53.70200429714589
53.913141132395296
54.90089979944086
55.91341996200336
55.811754473777555
52.60766407091878
49.71803256656622
52.147400963248515
56.48467786615204
60.07714290995055
64.30025390386487
66.91652637994052
64.02621134884295
55.85114026466801
45.515135856155084
34.366512597769855
23.44438295933407
9.506284471918846
-7.790257832766111
-17.061143661253432
-15.53014016688744
-12.730688169973632
-11.52184229966863
-5.563011066204983
5.08446336281798
11.596953904022167
12.2587000898424
10.444271204225968
9.864173705503099
9.846876612316978
4.170690633001419
-3.6719519706085935
-8.80956359897752
-17.842081800230034
-35.383993982961336
-53.69655323857348
-66.17384526494715
-69.94480661859322
-60.80741968294679
-47.82860823670381
-37.63386898667912
-25.856062932852765
-14.33987466600463
-6.123089358663857
-5.217607501948
-8.747873686751594
-7.052283396066067
-0.992620685866855
1.2482769289537907
-3.5501196558209256
-5.2423426129451896
0.49343355041750087
3.204702191438883
3.391573475300859
6.58832679432006
11.632031682454725
16.715577179007347
19.386010662984592
18.767832942009555
14.30989715251899
14.07235307781439
19.58570836798145
16.219537601766636
5.354747556954546
-3.410477297308511
-1.7449727898384209
4.277243983797043
-5.111672294297668
-13.848472407187423
-11.988700048619775
-19.20506495474031
-31.111547502930506
-35.07445571493638
-25.979515539904014
-12.510503451102192
-7.206789891650509
4.274622932271189
21.000868345688467
29.049561770688175
36.170052274645506
31.475867048512136
9.148744654975708
-7.1337326170362045
-16.57074853286335
-23.45783516340183
-23.50324874346478
-23.035233995862882
-21.280953572213992
-22.510688991769335
-26.948717395061788
-20.346880182651834
-7.608986761355393
-5.4466388470801155
-20.351962194887573
-39.018172577818156
-39.76322381992453
-25.28870652385316
-12.557530124845087
-2.9021899224593315
4.404941225821023
2.3199889297644414
-4.150217308685622
-11.627933801809856
-23.2458701649061
-23.29009458330524
-7.869649241701218
6.9392554067561445
22.90125032064127
34.14104921453622
32.30871235417988
32.67478139744883
38.62474412647822
34.862883625483725
15.97798858304716
1.6527611411741236
-1.2624140726148896
-6.4668567291738555
-6.82963288926122
-5.278688287687963
-12.115258717733138
-12.375871294309663
-5.441045299865465
-8.138802395169495
-15.646283661404913
-14.25457513404951
-12.0660265049256
-12.583067021738456
-7.018207285045636
-13.170735223937577
-34.30811683479297
-40.05483334609604
-29.810929017805616
-18.271426468498447
-5.345144555909345
9.415150884060713
21.51786188455906
27.54722225858974
25.902030304046363
14.354442673742275
8.893714600518452
20.30746759258913
30.755701971884978
27.963757391354182
26.460053880605436
37.84506104290254
38.99295322073407
8.031833804129915
-22.363326052339463
-15.404754154765406
-12.870486173694074
-37.93903815771554
-42.874578197877014
-35.99825305912008
-55.00649965605611
-65.68541204682668
-43.72318978257948
-34.060326230307716
-50.666753123762945
-61.57711898300737
-59.42604495212723
-59.65267567869185
-57.555535068291164
-46.05951937984759
-51.43764968193936
-61.8916894170305
-52.338116367906885
-48.36008161682256
-50.5356027816634
-53.47693541960715
-69.1729905984958
-78.33972229876734
-70.15576389072574
-58.510747207109596
-49.39991763738222
-41.73036202266541
-35.64514156613039
-45.60140211538235
-74.5256853167969
-78.22156569004203
-51.889094715768955
-50.282856813114186
-69.35419656277546
-60.44153559571474
-34.23520452410857
-42.69730041845369
-70.88039072904303
-80.33142542859478
-89.74965581189473
-92.83649363736008
-79.11632703194208
-72.13641661211393
-64.00098424428636
-60.79360378622093
-62.31595776829996
-45.385739272772135
-33.2428576779946
-20.525231094015016
-9.535858375725967
-30.877741728660833
-34.929372870713166
-21.13699186392242
-38.11221540915399
-22.283505550138386
37.00174178966323
54.65244129686886
45.016373955262665
64.91446498102272
100.68506770536317
86.91498293841146
51.720692717665464
61.9558136929749
40.89231143379949
-5.313243862540941
-6.7397638245104945
-19.072400229501877
-14.701730999295753
32.626979351471256
20.124578402955784
-13.424298552284606
18.07845451466702
30.337947691745274
12.544858621029679
35.25634801389482
44.02083408245923
2.8363863218157923
-18.85185147386848
8.739474559646213
4.7876916572736
-46.98724213922626
-55.177014333717814
-26.96085571265935
-10.618868904030183
-28.325630979375227
-44.54571007410976
17.69540407640369
69.16595731411061
46.141880521249384
52.30380187276469
74.52276604699647
35.361489427547696
-33.01377040233401
-79.94941519210913
-89.857208632749
-136.52777509564072
-207.18327646632625
-159.67934635798053
-104.04495580432393
-121.11000468534435
-88.95128234790779
-79.7614583837351
-116.53219356534704
-112.9257563926562
-89.42628594635691
-52.82494083087202
-56.08981842544449
-63.47836891353502
-11.715973124807459
-39.163674625668094
-103.13399686047555
-92.91108199931007
-109.44866933731679
-125.88392048547576
-89.44360368383315
-82.65939937395275
-88.15979997582373
-85.87895138035542
-73.91311796821105
-27.978974397547326
-73.30383557716686
-145.91094637603288
-93.89658455405159
-88.67645156125282
-149.5001435427959
-102.25066330235941
-42.179782461375474
-99.49981574650344
-97.74115915302762
11.224659325350212
21.68317212792209
-16.583323740495285
-1.811139742341512
-0.038115553025559454
-5.7431212527526
-22.902120501034577
-66.8777790956117
-96.45557329855717
-129.5486268424767
-110.9427491628332
-39.94755508777759
-50.876009028724766
-43.288433476763785
40.20208900308338
42.39000861378565
-43.29222770375304
-77.73830135886685
-8.06146836278922
31.18405740947972
58.328821438124116
177.77066908054238
212.44933845941878
111.97972289303038
50.16929586378248
54.37361071005712
47.52150943803307
19.218308789829493
-7.689563088801251
-15.246529249153097
41.299153513373625
95.14240009920569
77.03541955427006
64.57791294839063
76.99369665242007
74.9576706089798
65.10197280228635
89.44661943580829
167.85427407072405
264.68160795870926
332.3557269633502
365.32348928340156
384.4653967581854
319.01770792878665
183.00724069555568
136.59255823108748
165.01554474368706
121.25786625838262
23.42590154998689
36.85819542355225
124.80052309016547
145.37891896348546
152.61358050890618
213.94568141895235
298.3333159028843
333.49587152003505
294.5990911164175
220.0282860410884
196.52155853006101
251.00912067770633
223.82354633533853
124.4876623695397
129.99063419425866
190.91287241959972
200.32715064010893
176.2136462628824
184.49814305318034
242.755933149372
245.4475494372922
181.05583471074885
182.11152795857757
250.51849858334543
291.4568655773638
274.76571389454244
242.50202606787906
229.83981359738422
202.59902879020103
139.97681088378272
97.2807377711615
129.69846652837438
207.27063331109645
255.44025684745114
233.15446523408926
180.54509683606057
153.07658041846767
123.61437735109084
70.02377555766977
13.897595518161838
-17.55141397307139
-10.29835311391671
-2.6844972435863412
-35.30201668438117
-117.90411629572807
-231.02125173580592
-309.4808137880076
-314.8838674506609
-281.1445244408689
-242.81126509117226
-220.59303691209868
-241.6129333321128
-279.6013253406238
-270.46580766954656
-192.47643391883622
-113.4263495983767
-119.43999819520789
-138.49105021722244
-81.61618191296158
-7.228100560293643
23.635174469552645
-10.978691468238797
-62.55018840198744
-59.779519218051085
-36.83546867665357
-41.08800313105698
-74.39187117412537
-101.81910244946819
-82.8777327524484
-35.75977767833948
16.39044890441149
71.15977228576635
112.5623819677749
122.15492300752906
111.42610555984295
110.75904976764001
101.72487419532685
54.60327170288801
-3.850878112085858
-36.59368206094273
-46.05907854856582
-55.10097979767484
-67.96434748848023
-57.17839799997424
1.4422982368495474
57.68644485175166
69.79038403443349
92.93735824624471
121.45714971972981
89.41924194796131
52.1787523184027
46.88903672477291
-16.870394858604296
-142.95844504976102
-229.3937397877567
-243.00651269248718
-241.64668658369834
-236.55448351429987
-178.25126523645304
-112.6150397577794
-96.46023677948193
-71.57407743189147
-20.712217142451404
-5.167707039403373
-34.035915686860136
-69.54617158258768
-90.02028205122957
-106.29917986443488
-123.01491290348021
-138.6906269863698
-147.67863480092473
-107.16232964322292
-23.925703827814132
36.98771114888115
28.413993637102095
-7.5818986220954585
-0.28954107339458546
-9.994758478452335
-32.14700845686572
23.99203377808842
111.83284589848526
158.85779278976173
156.48431411369984
144.50696019002982
156.12448703980553
186.21226673684276
223.7521517205291
243.2984517322853
276.15534093748727
318.281060946577
294.95905009098175
255.755886258883
253.51360941824055
254.1655634193287
278.1575170143828
312.2718937096659
289.33835073179085
246.2111536370649
243.82605063257725
259.9297839907119
269.3034649139496
258.1106733165971
219.35053866092952
180.03634624718424
156.1113754970317
142.375525491287
129.22393800419349
103.19349871353855
64.4790619207601
22.574390474023257
-8.83484705493611
-27.119654329739753
-44.42801397132703
-61.01100948356426
-76.05572969005762
-93.98118058607746
-105.4990558422086
-73.30471040751738
5.327756564587135
51.54076604119734
34.51186951256604
4.708128669002092
-21.626027528007647
-58.46924627240318
-105.04428273093744
-155.62525292269146
-220.31214476246458
-311.86529470504917
-424.79369731685364
-541.2643545154594
-598.8134021945287
-547.2964295290901
-430.9073159923753
-335.50959431528696
-298.06350777287605
-276.6633089068903
-274.18506452036934
-312.8170954394582
-355.7492003711373
-380.6472938738244
-364.78802688685954
-346.7597793558495
-364.7883257323977
-361.53810989133837
-326.791595750425
-321.3079376563513
-362.0012650044278
-408.26897319294045
-444.32227892224154
-430.2967751097592
-386.31288679200657
-388.8325769350808
-368.84335129752986
-308.7538006195741
-260.2594389289142
-199.11377517081124
-130.46603740550717
-56.73763446142561
16.185977795113875
54.83426815228609
87.8431617592858
156.33630126347742
213.6369159960007
196.3599527914473
153.75461699420475
163.9908405898028
200.3873126700652
219.77085018577114
217.96905632120877
190.98123386521993
166.00982714247024
164.25699489127186
173.40358203017254
188.0456629631193
211.54059454505943
243.2572890708426
228.43581620651653
122.9238627572743
-6.467050225819257
-104.13131271524186
-188.0844853251312
-247.57182386655694
-257.19024603726064
-242.89784981878046
-283.5888383232522
-358.86186090730934
-262.7109997548981
12.058571796093124
207.80222853370321
236.38498449451438
209.50805754070797
218.7703740667961
251.6811777040215
287.4813673487349
313.386208656715
260.62510892873985
167.7042307909072
162.07447835681
251.11769456468423
350.2266537122261
383.77509068091433
337.19554016556174
282.3296688558204
273.6313714636491
289.53367625686195
327.1195406820987
367.01390222048997
382.3495801355025
416.73658623433863
455.20657079619974
481.19600710453483
506.9583765439793
505.6340842564566
495.45311094991865
439.4685083114498
274.9491609793065
13.65109515348275
-248.93285958674247
-373.2063297014178
-373.3361756456223
-309.83301692653157
-209.36379209877282
-136.82183336108622
-11.975894092662855
235.46481374389904
421.73578494381496
419.414315385589
349.0541741621782
317.7722998473976
271.8606008828118
167.11582554413962
59.05245375120379
-3.9387955687715563
-43.962762248556785
-106.23746728578779
-199.33568668118892
-272.4697761874152
-275.47726431117616
-257.77012984178566
-256.25890628764625
-257.0275363811207
-280.54055713251495
-310.6101196893367
-332.1334311859418
-343.89486487620366
-308.2079831940765
-237.49070071835794
-199.39355318748252
-205.57809786637844
-224.07101831127864
-254.83898446189332
-272.0252797815194
-270.3827386199146
-307.6087379579245
-360.2500489656606
-356.18368338999716
-327.2148980908084
-346.71823087101876
-377.35724887149354
-376.8131352884493
-380.278530110506
-390.46049729821874
-392.92133931724635
-371.0570721681322
-341.3606725999967
-313.9161618199494
-226.22375892390247
-108.92807698462106
-28.57047930653544
35.42313374424221
95.24365030148127
152.83822544113963
205.15090574898036
238.63524315613444
264.15557061365655
296.0638362511432
308.7559051898647
257.3867172472893
170.04224960561305
130.01076995291118
142.87309547660826
167.04178672800617
214.72845229446625
272.4714030980532
306.0226910017545
327.3053531890492
346.42000042848855
385.97038675934584
450.37623603506836
515.3953716249792
563.6873111858107
567.7783855505684
525.7507723158196
452.33415310789354
389.0535027437116
373.03685186079446
373.6711098440678
375.74351094713484
390.7594208713627
415.618555228435
443.37160427438
465.9010918135443
463.26784137794203
418.0123667862378
364.726475210633
336.6229054659988
312.6646846470213
271.2108319879226
199.9724173849514
100.62477411579245
19.160990203404776
-24.821856892088086
-66.01448021142673
-101.89934047330651
-105.55174305669507
-94.4385438928199
-103.33393271194262
-132.45200192690746
-157.52676811782962
-169.1515609940545
-180.38055730965536
-208.21236107433072
-251.2178870216155
-298.3527946108011
-343.4188776783295
-379.15109180283855
-402.5030222120837
-407.2736374254868
-394.08996384709764
-396.6362700371226
-438.43397833411916
-459.4843097755251
-407.4964353783878
-363.48292596933925
-380.251388466414
-401.4057038683428
-400.76167384500917
-376.42679980923043
-329.06362483513163
-286.8463797377549
-265.52082013037955
-250.3070285553809
-224.4275938305583
-181.41447069739527
-128.700966224978
-85.47470231705982
-55.18940691978085
-31.9914350342857
-12.521886858686097
6.780994524666568
22.680110923208638
31.763625347989386
9.940712999951987
-55.823352033441346
-128.22095920691714
-180.24610990724457
-200.1168322813788
-189.4778723983751
-161.75628888188163
-128.3571546220436
-122.47974659889897
-135.22302085481664
-139.56089277249745
-152.82343950390276
-174.26530310171225
-182.55224869695823
-162.7214938740923
-123.93340346265846
-85.15272391126193
-43.40224105746102
-0.31528672861528556
39.89966667712061
77.22725288538356
104.65649955727842
112.73635625761395
105.96777547417237
106.93863344928282
122.0726338010041
148.40280438344217
184.51491914466217
193.45514588663872
156.87578844013422
121.43202871458217
99.42437101317653
71.12302392898707
53.639476480463976
48.277343307278
38.29202745724426
14.183146803051335
-19.451394485384103
-23.91867545603324
5.651466539677293
37.99295599182984
75.73830634711089
118.2344867609857
138.80134950852155
146.14740160475046
188.90922731570151
276.05226917905026
365.3357214709675
384.52914620138563
255.98823589889457
23.97702757580426
-165.69377675831709
-249.70728110844465
-277.3187788225082
-302.016129627019
-315.20794559127546
-314.01018601483116
-328.7538207404956
-357.11192616171013
-379.14651963936615
-378.9914560404313
-335.05434687464054
-271.16719117912135
-244.08577459052822
