AAD_Filtered_TADAS_FILE
AAD_BASELINE_CORRECTION: BASELINE REMOVED
AAD_FILTER_TYPE: BUTTERWORTH
AAD_FILTER_ORDER: 1
AAD_LOW_CUT_FREQUENCY_HZ: 0.025
AAD_HIGH_CUT_FREQUENCY_HZ: 40.0
EVENT_NAME: 202302061024
EVENT_ID: 13207
EVENT_DATE_YYYYMMDD: 2023/02/06
EVENT_TIME_HHMMSS: 10:24:47.00000
EVENT_LATITUDE_DEGREE: 38.089
EVENT_LONGITUDE_DEGREE: 37.239
EVENT_DEPTH_KM: 7.0
HYPOCENTER_REFERENCE: AFAD
MAGNITUDE_W: 7.6
MAGNITUDE_W_REFERENCE: AFAD
MAGNITUDE_L: 
MAGNITUDE_L_REFERENCE: 
FOCAL_MECHANISM: 
NETWORK: TK
STATION_CODE: 4410
STATION_NAME: 
STATION_LATITUDE_DEGREE: 38.86677
STATION_LONGITUDE_DEGREE: 37.679
STATION_ELEVATION_M: 1243.0
LOCATION: Kahramanmaras_Elbistan_Turkiye
SENSOR_DEPTH_M: 
VS30_M/S: None
SITE_CLASSIFICATION_EC8: unknown
MORPHOLOGIC_CLASSIFICATION: 
EPICENTRAL_DISTANCE_KM: 94.59
EARTHQUAKE_BACKAZIMUTH_DEGREE: 
DATE_TIME_FIRST_SAMPLE_YYYYMMDD_HHMMSS: 2023/02/06 10:24:40.8433690
DATE_TIME_FIRST_SAMPLE_PRECISION: millisecond
SAMPLING_INTERVAL_S: 0.01
NDATA: 11251
DURATION_S: 
STREAM: HNN
UNITS: cm/s^2
INSTRUMENT: sensor = ACEBOX/SARA | digitizer = 
INSTRUMENT_ANALOG/DIGITAL: 
INSTRUMENTAL_FREQUENCY_HZ: 
INSTRUMENTAL_DAMPING: 
FULL_SCALE_G: 
N_BIT_DIGITAL_CONVERTER: 
PGA_CM/S^2: 112.097
TIME_PGA_S: 
BASELINE_CORRECTION: BASELINE REMOVED
FILTER_TYPE: BUTTERWORTH
FILTER_ORDER: 
LOW_CUT_FREQUENCY_HZ: 
HIGH_CUT_FREQUENCY_HZ: 
LATE/NORMAL_TRIGGERED: 
DATABASE_VERSION: 
HEADER_FORMAT: DYNA 1.2
DATA_TYPE: Acceleration
PROCESSING: Automatic Paolucci et al., 2011
DATA_TIMESTAMP_YYYYMMDD_HHMMSS: 
DATA_LICENSE: U (unknown license)
DATA_CITATION: Turkish Accelerometric Archive v 1.0 - Disaster And Emergency Management Presidency, Earthquake Department
DATA_CREATOR: AFAD
ORIGINAL_DATA_MEDIATOR_CITATION: : AFAD - Disaster And Emergency Management Presidency
ORIGINAL_DATA_MEDIATOR: AFAD PROCESS SERVICE
ORIGINAL_DATA_CREATOR_CITATION: AFAD PROCESS SERVICE
ORIGINAL_DATA_CREATOR: network: TK
USER1: GuestUser
USER2: 
USER3: 
USER4: 
[...]
19.68538202233593
15.85657582905819
13.068383335804771
12.037232829150453
11.997498490268175
10.897668307160572
6.522360404976076
-1.1099762864183476
-10.170534325621148
-18.288275517270442
-22.383344161969372
-21.747110332062643
-18.23810105081029
-13.525974829532037
-11.298000217015217
-14.48071998498778
-20.27973452893437
-25.491222732161077
-30.71086354013543
-37.21612463948466
-43.72617578047393
-46.457608646691625
-42.96929908191455
-33.86438075413209
-21.144062244427708
-8.184947395957254
0.671338028028898
2.6424604549374546
-0.8764931081657712
-5.65062769626326
-9.723471534567569
-13.48799237788823
-16.57085336940959
-18.873789303454185
-20.71966350019994
-20.919920395569367
-17.373683240325867
-9.86505993165463
-2.567775384338949
-0.4218413418611058
-2.7575010480912323
-6.183654068533182
-9.429095920594202
-10.485469577522604
-7.51066701481833
-3.9618357176180283
-4.952509010338469
-9.736366152106621
-12.178724955102588
-8.893273746769685
-3.4297236367834127
-0.22984013600668066
-0.79708664932099
-6.129891460265322
-15.805154294594136
-26.210915552063124
-32.973823813431245
-34.838049009928106
-32.58980041854595
-25.244899347984063
-14.191298644155072
-5.448624866558734
-1.982639059667645
-1.226023646592072
-0.3126435251849758
-0.673070774405581
-5.657254167572098
-13.060069629265751
-17.610452350774985
-18.524147664521468
-18.492805372334285
-19.22198497175417
-19.15955612100414
-16.337602792358368
-11.271065941017332
-5.715681558131261
-1.85928041109177
1.1324269417412538
4.597155232556961
4.110741320822629
-2.046668722002944
-8.999315625368759
-12.957838049289062
-12.540529453517191
-9.398570127791926
-5.610731538073592
-0.9809223561352918
3.2765745896550844
7.488297665610857
13.864912012562952
21.682676559958228
27.717234045236268
26.731676583258956
17.977109229552347
9.093369804327988
7.047776408137347
13.619504580216859
25.85220124922305
36.959774376772515
40.2140096893401
32.51439658342504
19.30901860239177
10.578894530151329
8.434027006968803
8.84734296432125
10.896318922647763
16.48360964427792
25.793791354192646
34.170221230875555
35.55491112965702
31.58640833006889
29.88369959001036
32.76667384631238
36.07822341688454
37.51108703574593
39.25950296569748
42.16572272596989
44.32408136976641
45.53504537659143
44.655212635493555
39.32990337552502
30.90975882956567
20.856280114582372
10.17981435656882
0.8084905635048589
-7.672240529620498
-14.452337491139097
-19.72733421038557
-27.379548574168478
-34.28191589952067
-33.47983691509559
-27.00531870352759
-21.563815981698127
-19.693172501522398
-20.420225928670284
-21.734534152503603
-20.28071314698232
-14.62035970172871
-8.027427265654099
-5.310741587349935
-10.07383698441586
-19.761248274566306
-23.490695699784986
-13.346330863817242
4.092776575014254
12.77480004604649
4.171491867361802
-14.946239108167964
-28.894237196247747
-25.59750132241443
-9.7242601131225
4.550620331411812
10.97430068790883
9.720150592142328
3.068365217155412
-5.551825961729414
-15.132530725012405
-24.157455241565092
-30.91411834799825
-36.75171494638945
-40.49659605550313
-34.94567473412054
-16.632839407455656
5.971682245216247
20.075461099641988
17.895535439046583
2.8327253155749057
-12.831175079694974
-22.232341289212943
-23.814115359376167
-19.12871255276795
-15.794104503787908
-14.178246018210588
-9.157022036342514
-3.748488967260553
-2.197274869799133
-3.6143709448114394
-2.990633766976553
3.3771060938541586
8.711665744634074
4.482059916003885
-3.1796830337349733
-0.8469561894640855
11.488661893063458
20.09851725346972
16.852010398502028
8.6359653329921
5.269486004312878
7.707842109990035
12.680564015230798
17.016624279221595
18.300082509948613
18.29968567973701
18.33390857577966
15.386776319320706
7.032542044075733
-4.879648004818897
-13.411403428872582
-10.909663478839173
3.271212502145524
20.115747764003036
29.99484812528846
33.84340629516815
34.15284782670544
26.603568744408715
13.685619083070186
5.782153639908358
6.930121327377298
13.85456877639352
19.36384678720846
18.090852766477926
14.66475610222365
14.625389811413243
15.308170693362433
11.411132906888442
-2.1603430907431873
-23.60724498845888
-40.23761489004235
-41.37390728673386
-25.686223016955523
-1.6280918144233951
16.533105178900385
22.982849430314058
20.69256784643449
14.98942765844802
13.056997464721926
15.478759182682806
18.40329533879658
20.055816508219742
16.517413333565734
9.776192718557493
7.701209607646687
9.055386644796492
8.928253587028484
7.378084960848309
4.945218469429789
3.060641883497349
3.97647374561028
6.594576528040258
9.94537761503865
13.639709152909509
11.44809062801788
-1.4457750084776997
-18.426834449776692
-27.79457368178975
-23.052345279298848
-8.66669532294866
3.243671165536861
5.989697115505436
4.346248384472589
5.887115014888502
12.329609167201824
18.720321424892646
15.942006616410154
3.5749707805928033
-5.632538105459137
-7.084799872838074
-6.935953972346473
-5.374963522524501
-2.3193088274807163
-2.0367458042688096
-5.083752156750406
-12.046239225656736
-24.700495737420145
-37.79408365004541
-43.5047921747793
-40.28509700435567
-30.2955347045175
-15.99446426601112
-0.795706079522267
10.522564235116674
14.836590830197164
15.118905030219134
15.357773969745862
15.284171192367296
16.065154659371572
19.04783267777794
19.57379773328236
14.027375198587043
6.660493912297791
3.7815717178080472
5.050579588069254
4.156770710951248
0.32892401980512914
-0.5632106781384704
2.2932637420299082
5.548204845685132
8.348380826372669
9.43002875220165
7.165559983740159
4.12354478676738
3.8223203622036874
6.715125768767376
11.727846773586416
14.975932262245607
13.39709698750789
8.991584860692356
4.074603904883472
4.117885249310948
13.229802498906874
23.73395167490361
28.219764628003077
26.221702634404505
20.5011038115679
15.687933849211424
9.784752444567873
1.0924247424933433
-3.090912893289007
0.6978963544085007
6.943984777348943
8.442821665138224
3.639360874650784
-2.437531329786905
-5.350791269208614
-4.304726202315786
-2.037244101901444
-1.9750969105442868
-3.1354161096489217
-2.5360014852958623
0.23922453140462888
2.2553191225230824
0.8074600272770246
-2.9701707860031816
-8.183215376141245
-13.181746601569552
-12.747134933977998
-8.514675863608842
-7.23105687288085
-8.774534906245863
-11.77138962863628
-16.151245796829482
-18.408940214562424
-15.94346317984453
-9.403260950848216
-1.0442928317169233
8.548706788566124
21.124848313484122
32.6697802088305
33.049299170718456
19.981583964663308
3.9196985921083516
-6.78192383377777
-13.928024913128484
-20.370007861065172
-24.588077183179475
-24.22053777549586
-22.305857867184134
-23.008025760320617
-22.50156167208343
-18.218332599187384
-14.552807759159958
-13.889741363962534
-16.95896168753518
-23.976175026510273
-31.117478926532648
-34.416589195207074
-32.6169349914024
-25.03502871342743
-13.504993975140511
-3.4147114952712867
1.6651012981350608
2.175730251774981
0.8043074298025501
0.7820699082238532
1.6261481635027093
-1.6244506903690215
-11.611867410946068
-21.91855738433538
-22.93953930799188
-14.783640351899637
-2.9970281810282144
7.916235782432741
10.104053348265595
3.465330541212356
-1.941665492507541
-3.6743747114250573
-1.5518841982533638
6.63603219657902
14.145512051235567
14.560511330421777
9.76926828096034
4.222184165609003
0.42025587769622774
-2.718696578530944
-3.8130361439240104
-1.0176159131224605
4.772042575293549
13.732852249957306
20.823649203509472
21.648936847466864
20.462831403881676
19.240272242052747
18.28444593426834
19.87904967299349
23.645665573420217
26.03746208803486
21.969265701508984
12.61909688025781
5.0372428063085835
2.3467879768162305
3.985908105910926
7.876009023992626
12.119411478333735
15.058230388841586
13.0028622939558
6.616014673808092
1.5816910911281479
-1.7848712703596503
-7.421383769064289
-14.436617787651826
-19.628405316519153
-22.028033837087555
-20.11840845891969
-14.031407412192408
-6.839652711172806
-1.0374127259273433
1.294697071361085
1.3695136290929801
2.4483469045965776
3.3249419870233385
1.0337345916159535
-4.915427599832485
-9.7672653928394
-6.007109900592121
5.653457304276657
17.360138462931122
23.858563560533394
24.878087934890917
23.04875430383685
20.160634739614622
18.6409747018847
21.90842371272885
27.702780897283827
30.826937586688285
29.128068552521146
23.216158054983186
17.00054421211157
13.487844141387548
12.70809864116082
15.467144639520592
21.221944415309792
27.94535188739933
32.2717639406614
29.099098431362215
19.575702316888492
8.599020990783778
-2.0499329954268313
-6.705059019382448
0.3047222994428027
12.88300581970004
21.66964107137284
26.030885399981344
28.921067396610717
31.747292293422134
35.82653442318268
38.056047837967455
32.55264968899966
19.34200619357101
3.1890840246018737
-9.995957105187854
-17.033651262630748
-18.85394012943512
-14.848150725193154
-7.424737316510931
-3.120058503622607
-0.48100576508353277
5.44209538594839
11.7013174725968
11.669679946012868
3.160331773289504
-8.674205815528055
-17.543652511103346
-23.203491503234194
-26.949205678204315
-27.746152522759964
-25.083860881936438
-18.39636024288405
-8.207611189827267
-0.8089449533792372
-2.3452923064542164
-9.009432869737514
-11.346429978353207
-5.431669791713036
2.0184514406128664
0.2638962270768477
-11.168603785009791
-22.690266085575228
-28.162563434170288
-28.180708379825084
-25.134692566203327
-21.07172553048361
-19.23287458366237
-22.439795655688233
-26.546287789241493
-25.632684374799947
-22.38707610524534
-22.408896978008265
-25.23113813869962
-27.130450684523538
-27.923891258263343
-27.732862092147002
-22.507956887895542
-13.33813145923427
-7.388627915854572
-8.61823002218837
-15.572329012897745
-18.811622309439
-11.364888180188906
-0.8685825783529265
3.1399119922830105
-1.4138332149748327
-9.58892488873763
-13.12666452834447
-11.756767718630647
-8.377372013597881
-1.692779684745635
6.807436619614292
15.53583635021677
23.628977732411443
26.59118640841232
22.817245967502082
13.030980480331877
-0.39337990263546896
-10.336184250384528
-15.348407679435335
-17.563111406448115
-14.523690387841608
-7.381301743613949
1.974242558111975
13.427786763610152
22.270700017900268
26.1770829352894
25.093264247595528
16.645954664940525
3.56497594516263
-7.397006858380902
-14.015998264369253
-18.317472818573012
-18.870241759659585
-10.736899083313988
5.350197358377399
21.40946250266536
28.29705144822467
24.16552953022878
14.49495639231881
3.205738071378945
-5.281434106819004
-7.821926142954682
-10.160777761837718
-17.75421498015057
-27.83801823550654
-33.58298725761578
-31.7847403959442
-26.68668956264663
-22.040139016547485
-18.375383654650214
-18.1444370574305
-21.217308032503368
-21.787889602957424
-16.559213169711906
-9.966123936451696
-10.647871685602373
-22.135222951933653
-33.38803311955853
-30.156342730542686
-13.318873094516636
8.23727512179774
25.713804559435385
32.10253217296677
29.64249332025664
24.496999104347545
21.67491951467139
22.383953327361898
19.08969600338666
9.040818342263872
-1.3687443363983585
-6.579095812825077
-3.2553961339316
3.5055130392258214
5.063001051297388
2.264642228845933
-0.7210370597360952
-1.6740992460806345
1.952057456691726
9.854242390869388
14.281674544467322
7.089817766804522
-5.656450981673353
-10.418161977641358
-4.118655192794697
6.371639476054374
14.606794830092253
19.291325322588257
22.651345949142197
28.537942487856043
37.03813950978235
41.675796450119456
38.36453128801578
28.241937841705212
16.38995422145622
11.016109113775068
14.39500160961626
22.96426788944837
32.375075721378295
36.478705128904494
33.19968484224075
28.17973513747703
26.636596917557494
27.406146990064272
28.178245809388777
28.15666007243343
24.430765765974595
17.392454557105445
13.285147336262446
16.338528495471518
23.26858359487301
24.528857515302615
16.524848651504865
6.004104684855383
-1.2859779744171629
-3.4167846109363467
-0.1784591002239895
5.321548739257577
8.221682810930682
7.523902244022986
6.583794951007513
4.082047389690853
-1.5628886407800113
-4.2526164681872505
-0.002238927241187457
11.52564619723041
25.455111371525128
29.086724984300712
19.986444574840174
7.032275256832868
-3.0238698783926004
-6.3002223263438655
-5.7687678786650025
-5.595981017998709
-4.132521265589363
-1.385553086165951
1.6082580180478154
2.536340912548714
-2.696824984057703
-11.566628905163459
-17.860133321769105
-18.796039858321215
-15.834062618836944
-14.073056079469671
-17.713942567531124
-26.86870139300389
-38.663243436742725
-49.72648089798847
-56.57455807930561
-55.38856659941166
-47.22970925983676
-37.263241652875244
-28.587739420940323
-25.438879105623975
-32.38615377572438
-47.58076135107325
-65.91142682277028
-83.65222107569677
-98.83293041063031
-109.46507893355275
-112.13926560607705
-107.30108222436318
-99.51471215736672
-91.36286065786973
-82.47044837842533
-71.51181039602092
-61.92880392043242
-59.45709200998908
-61.098128648582744
-57.66178333822701
-42.71958769696275
-17.761260751899393
9.09447289363743
29.61752153302901
38.17709109010768
37.45867802292916
35.2734195241597
34.27203816861642
35.185677448778485
34.96264238251208
30.009812790286478
28.100376375449553
35.85774298617844
47.32051277197364
54.266799580068565
55.92818126856657
56.78242612907528
57.292989979906885
54.91963351203803
50.53141833136769
47.178762159944434
45.13613970839317
39.96102420119626
29.656336787126552
18.208025653334513
10.82956409467959
9.563384540532303
11.88333153111108
17.836944868052875
29.54726473284204
42.13644460453903
46.32563368507374
35.38842703687217
12.855540468429238
-9.489211926171492
-25.855698288706453
-37.07303074967765
-46.95332303621884
-58.88449749129992
-64.00861926497205
-50.72698257558231
-25.32510035909113
-2.5440921493526822
11.053130487316597
12.701324489621534
1.9544857340052129
-14.072225088168429
-28.16702924443873
-35.43666403897861
-30.457374642023858
-17.25185122112665
-4.937202174183143
6.112612506845845
17.28797538133264
26.811462464180572
32.33588216753516
29.128719142469425
16.640079852475637
1.770643103146561
-10.113528578865898
-17.976311486297856
-20.99028508218782
-17.40173229108421
-7.785543896299535
3.05547002714418
10.4637716727418
12.053628396286662
7.843566441044702
3.8550082539199875
5.723221137668544
10.980882080666131
15.816376488466227
17.54579007793991
15.265257627467776
14.882262103870145
19.966187773397294
25.911114965783746
30.43455218504431
36.67408460874575
45.12382169375162
49.406640354539185
45.05675916079927
36.48885731919736
27.721835349863852
19.405737257792104
15.82583542710243
19.792853954210138
26.633831115313086
30.672194931804558
31.21604345904806
30.02023733248337
25.56446511960964
15.56487260782629
2.9427296973222927
-8.181281731755318
-14.452910256451688
-13.63944552183931
-10.250720703776915
-8.22408096840744
-4.97101439008993
-0.5871170181914531
0.6625940083919173
-4.442600351251327
-14.378869782453041
-24.60449814344019
-33.60630801662422
-40.16364498839776
-44.75474385781045
-51.46612314551736
-59.23900694956389
-64.61048665382249
-64.31153708947598
-52.56863964737855
-31.674320023098346
-11.002232527680956
5.265619647079856
16.41821541448578
21.962694720994946
22.455192360716715
18.67042308464022
11.390905575665036
2.523711803035496
-3.8583036023934136
-4.879025153265522
0.178385456252924
12.038028245968082
28.100644171184932
44.10996874792566
56.639901317109
59.469271867646775
50.66932518031516
37.20631208326123
25.483311670109725
17.948139392362858
14.370987966632812
13.404135451512385
15.887235098731466
22.547411165635836
31.053374477482407
36.71803440799231
36.80372157822195
33.570612366721534
29.258445659409215
24.54680020849084
21.520372694842525
21.52443780252673
22.18217776438332
19.19363693412147
12.256379191067072
2.8672675871105104
-10.644330437684632
-26.7879244996087
-41.031923152016134
-51.236807900857706
-55.6197427663432
-54.08012183503665
-47.708948681831586
-35.94257914168225
-19.715456089452328
-4.077995498348378
2.3613108028658862
-4.360323357634267
-17.071343196212453
-26.3281520036559
-29.209643390085365
-28.93667115547294
-28.89582897134786
-27.408271232646726
-22.6759420155548
-16.45872782243132
-9.876405454693149
-4.280446869681205
-3.283552074644611
-7.1095177972531465
-11.443477923119458
-15.794864807056243
-23.962775161613195
-35.48448973964886
-45.99391290584988
-52.3080574968128
-50.09715784247079
-35.839855959404645
-16.077279857344163
-2.2341811649155345
3.7241770285447586
6.022388313496903
4.687177107439348
-0.9202217002900239
-6.7317822198788235
-8.845923863533182
-8.163043289096793
-6.615023178797564
-3.183038358949236
3.065894196625534
10.811236219170409
18.801457615818634
26.168020588669783
32.80847301763761
38.290979836934724
38.687589458817236
32.48535443799392
25.02537674885927
20.808447977921258
19.08303061299536
15.525081238179995
7.360691912157084
-1.156294639873771
-5.415185678742276
-5.744389548509444
-2.0195416366824013
5.236117994080097
13.969822898106047
24.438648588598774
35.41440663329848
42.45158850959709
41.73506586221953
32.77178908511697
19.892930581480663
6.490790715802704
-9.02218379845264
-26.007714416978306
-37.82300010308207
-38.6092391048018
-29.58560403628591
-15.413985707330916
0.1363130378797573
12.220222022967294
16.989440454882708
15.127632062156522
10.882019015468078
7.751854495869247
2.8277946465752906
-8.05070357558546
-22.011498767248078
-32.70368657178829
-34.959686583202156
-28.03609075012182
-16.006519006677685
-3.1655829346243687
4.982020876700677
7.006342731472464
10.114095169457823
13.25057282465093
6.258273795055844
-10.335387428399212
-28.06226190609177
-40.42255191058093
-43.403311160528524
-38.58413641515686
-30.693686895674364
-22.77569641225859
-16.202491516552968
-9.239091839817592
1.1045372065145966
11.879200250847886
13.890390241743631
3.576343135488795
-12.025351832834504
-25.09049985775733
-30.155392044175457
-24.47405425010154
-13.694513659987894
-6.4411507711339775
-5.748010871523651
-8.699640533214891
-11.054117736312921
-14.032398580552146
-19.72483258336824
-25.068201892110093
-27.848347784826696
-26.73518493515004
-19.908993234624713
-10.662925538335593
-3.827431869936892
1.0024108263460332
7.1213192711914335
16.269923986403413
