AAD_Filtered_TADAS_FILE
AAD_BASELINE_CORRECTION: BASELINE REMOVED
AAD_FILTER_TYPE: BUTTERWORTH
AAD_FILTER_ORDER: 1
AAD_LOW_CUT_FREQUENCY_HZ: 0.025
AAD_HIGH_CUT_FREQUENCY_HZ: 40.0
EVENT_NAME: 202302060117
EVENT_ID: 13194
EVENT_DATE_YYYYMMDD: 2023/02/06
EVENT_TIME_HHMMSS: 01:17:32.00000
EVENT_LATITUDE_DEGREE: 37.288
EVENT_LONGITUDE_DEGREE: 37.043
EVENT_DEPTH_KM: 8.6
HYPOCENTER_REFERENCE: AFAD
MAGNITUDE_W: 7.7
MAGNITUDE_W_REFERENCE: AFAD
MAGNITUDE_L: 
MAGNITUDE_L_REFERENCE: 
FOCAL_MECHANISM: 
NETWORK: TK
STATION_CODE: 2710
STATION_NAME: 
STATION_LATITUDE_DEGREE: 37.43291
STATION_LONGITUDE_DEGREE: 37.68658
STATION_ELEVATION_M: 534.0
LOCATION: Kahramanmaras_Pazarck_Turkiye
SENSOR_DEPTH_M: 
VS30_M/S: None
SITE_CLASSIFICATION_EC8: unknown
MORPHOLOGIC_CLASSIFICATION: 
EPICENTRAL_DISTANCE_KM: 59.12
EARTHQUAKE_BACKAZIMUTH_DEGREE: 
DATE_TIME_FIRST_SAMPLE_YYYYMMDD_HHMMSS: 2023/02/06 01:17:17.2933160
DATE_TIME_FIRST_SAMPLE_PRECISION: millisecond
SAMPLING_INTERVAL_S: 0.01
NDATA: 2990
DURATION_S: 
STREAM: HNE
UNITS: cm/s^2
INSTRUMENT: sensor = ACEBOX/SARA | digitizer = 
INSTRUMENT_ANALOG/DIGITAL: 
INSTRUMENTAL_FREQUENCY_HZ: 
INSTRUMENTAL_DAMPING: 
FULL_SCALE_G: 
N_BIT_DIGITAL_CONVERTER: 
PGA_CM/S^2: 5.269
TIME_PGA_S: 
BASELINE_CORRECTION: BASELINE REMOVED
FILTER_TYPE: BUTTERWORTH
FILTER_ORDER: 
LOW_CUT_FREQUENCY_HZ: 
HIGH_CUT_FREQUENCY_HZ: 
LATE/NORMAL_TRIGGERED: 
DATABASE_VERSION: 
HEADER_FORMAT: DYNA 1.2
DATA_TYPE: Acceleration
PROCESSING: Automatic Paolucci et al., 2011
DATA_TIMESTAMP_YYYYMMDD_HHMMSS: 
DATA_LICENSE: U (unknown license)
DATA_CITATION: Turkish Accelerometric Archive v 1.0 - Disaster And Emergency Management Presidency, Earthquake Department
DATA_CREATOR: AFAD
ORIGINAL_DATA_MEDIATOR_CITATION: : AFAD - Disaster And Emergency Management Presidency
ORIGINAL_DATA_MEDIATOR: AFAD PROCESS SERVICE
ORIGINAL_DATA_CREATOR_CITATION: AFAD PROCESS SERVICE
ORIGINAL_DATA_CREATOR: network: TK
USER1: GuestUser
USER2: 
USER3: 
USER4: 
[...]
-0.005590153649327684
-0.0068210661305742855
-0.006726787161260904
-0.006778657782496544
-0.006931833198092379
-0.006680136453267852
-0.006635688479057196
-0.005956461593798099
-0.0061304005902098925
-0.0065753077588419865
-0.006529125542142207
-0.006027554490365164
-0.0059345042779157045
-0.007221667190111923
-0.007275154023648639
-0.006368154378157799
-0.00683349223610102
-0.006423350236939435
-0.005225416606872209
-0.006017929247913459
-0.00720683610733526
-0.006427870480860092
-0.005946251044517744
-0.0069023020950658
-0.006947731717739441
-0.0063979051899921095
-0.006682347606437289
-0.006541865227502455
-0.00503007653391793
-0.005276720227425582
-0.007097277887905115
-0.0068799046891890835
-0.00611243422183405
-0.0059780220380313605
-0.006580239192105749
-0.00663068715881682
-0.005903377602101548
-0.006102057742556267
-0.006005871783085865
-0.006412867182463875
-0.006210019895471112
-0.0070230271651375315
-0.007494012686040552
-0.004963857179839573
-0.005200631360193284
-0.006321986392484125
-0.006108353649143367
-0.006045380910773117
-0.0060824457272353645
-0.006421553130239653
-0.006254019440178881
-0.006696777273013011
-0.006827381505507347
-0.006058184944768423
-0.0061021505857005946
-0.006261237020336204
-0.006537907670854707
-0.006930631097884964
-0.007439156756704698
-0.007182352240808671
-0.005375382410267056
-0.005772252765424738
-0.00698743281708936
-0.006724605236877403
-0.00703828263869501
-0.006705805063588303
-0.005820220709393209
-0.006452753186371346
-0.006488272955903561
-0.0055925797925930765
-0.006406553949169445
-0.007231670022876148
-0.00610919196929389
-0.005097308971659472
-0.005443578565431101
-0.0065088445100444795
-0.007205201002377728
-0.007206531219231291
-0.007561310182772658
-0.007382514729040961
-0.006770249952669772
-0.006908619061252415
-0.00719443740999671
-0.006875858562347887
-0.005629907083810247
-0.00538801361026775
-0.006576076921693465
-0.006328149528066933
-0.006106582598173075
-0.006753880818404815
-0.00642830443691105
-0.006421748891134076
-0.007311219154937298
-0.007390681674755901
-0.006647142868168936
-0.006323898293756269
-0.006139933822034374
-0.005885582001285729
-0.0058448862697045275
-0.006224382764010021
-0.007094543143202094
-0.00736012863117436
-0.006345558246063804
-0.005808659780751936
-0.006616352065136317
-0.006914860830627461
-0.006766365299532869
-0.006669046617542805
-0.006193695658849149
-0.006088219023742162
-0.006676643029119356
-0.00708654865885127
-0.0067045318729743505
-0.006020906839918052
-0.006197527430572355
-0.007171005857175944
-0.007208209185814324
-0.007544961301249344
-0.007904333885126975
-0.006487877764047769
-0.006330855924178478
-0.006591981926206007
-0.005758111574774218
-0.0061883098061082985
-0.006504165274385898
-0.0067009264359997826
-0.0071335351861262315
-0.006387702966341784
-0.005890681179581875
-0.006502296772966666
-0.005842690622777127
-0.005478118677595014
-0.006552115521212727
-0.0058345234875383485
-0.006205470860690293
-0.007255965474765207
-0.006372175053175412
-0.006474139667193707
-0.0066033178418004644
-0.006541857610226318
-0.006577495287537179
-0.006211433016709979
-0.006226267640019251
-0.00604737275061001
-0.005968180323680199
-0.006014223399952024
-0.006525218212282587
-0.007328058876883791
-0.006922349612717129
-0.006603457349245492
-0.006593420231641995
-0.006426348414289634
-0.006869032441815687
-0.0064710933968332544
-0.006149347459024159
-0.006671362396214322
-0.006763062447799971
-0.006543885307879652
-0.006306826939579681
-0.006785424449126293
-0.006722457278328448
-0.0064063083641667995
-0.006571909880100042
-0.005786895990870049
-0.0060159131200576525
-0.006610460849701043
-0.006488977288343838
-0.006555416610273246
-0.005997396383324961
-0.00628700698015147
-0.006674381855078267
-0.006305132398340418
-0.007379773288402105
-0.007894100461570477
-0.007280918274681209
-0.00671383275187718
-0.006654151468135868
-0.0070418245165615075
-0.006671591984140459
-0.007040662855954611
-0.006327660958134708
-0.005108389824054067
-0.006089448661053054
-0.006830979231998343
-0.006633574081765266
-0.006561882306126007
-0.007132431351698656
-0.007198532011804757
-0.006815016974445587
-0.006308819316853481
-0.006042714463955687
-0.007242130453877622
-0.007516939534650531
-0.006497820081378173
-0.006492129290515621
-0.006499834175496229
-0.006148470963277412
-0.006509287502661255
-0.006859328323396712
-0.007037526184120303
-0.0067739536837568195
-0.006031181350814893
-0.006591349927479285
-0.006839846641411129
-0.0056600303604320765
-0.005738107543802476
-0.0065868021801389455
-0.006865104959079666
-0.0063745804593388165
-0.005570960177244842
-0.005986709315608868
-0.006663878647323769
-0.006500511760265561
-0.006058986007286355
-0.006995457780295814
-0.007757695516729071
-0.007548498218092718
-0.008010311391651304
-0.007247308384617165
-0.0065802412226254985
-0.00639547023219898
-0.005612880046407576
-0.006899642530716698
-0.007660515628310579
-0.006394049360118226
-0.006161566676790677
-0.006285561835730686
-0.0067567287878822525
-0.007227488114629543
-0.006639106188528041
-0.006589982254374096
-0.006619745548621818
-0.006432828122246985
-0.00723828904356707
-0.0070084437780469026
-0.006247401577638277
-0.006640041509519936
-0.006269322408790491
-0.005934686042118686
-0.006639983201479908
-0.006639025588454385
-0.005762495083858048
-0.006038549426351342
-0.0067860619717137974
-0.0060580717758707565
-0.006610901832650697
-0.0066868278072539965
-0.005947618496582274
-0.007212427700292659
-0.007102130478252773
-0.007690637924791086
-0.008627629247631344
-0.006564225218968491
-0.006561024540319137
-0.007625870897738035
-0.006381578815371186
-0.005785026560609323
-0.0066239737452899305
-0.006731688431987279
-0.005799775961580898
-0.006633503521673925
-0.0072726089663313715
-0.006597941756882621
-0.007298975797764774
-0.006945761968360886
-0.0071295145377750545
-0.008098008563147865
-0.006019924154297929
-0.005672566124863216
-0.006914619488048675
-0.0064637211757795545
-0.007756564631629048
-0.0078065954519264125
-0.006372806467065496
-0.007460477318354139
-0.007792063387337839
-0.006920385464581661
-0.007014926235639858
-0.0074996306585814795
-0.007256037335256725
-0.0065016534269628085
-0.0067148139872669045
-0.007493681616574741
-0.008158770594949905
-0.0074689134767057155
-0.006411498323107328
-0.007131246510043041
-0.006945541877519239
-0.006338999280544283
-0.007358393108944998
-0.007548528308002263
-0.0062207030755785115
-0.0060202123415562326
-0.00736338843308574
-0.007741876785930368
-0.00790405754765046
-0.007823616577768292
-0.006632771032143167
-0.006362432536016784
-0.007387353915716443
-0.0073981671230913554
-0.005808948901738753
-0.006271914714876562
-0.007982399542813401
-0.007643190856104365
-0.006760155416487711
-0.006861769475184105
-0.006638916848265089
-0.006580846966487237
-0.006791365596726127
-0.005807319700944582
-0.005257347047642789
-0.006250666429057656
-0.0076915538378044815
-0.007667444089321221
-0.006800667003962387
-0.007422715522443616
-0.007109674290710762
-0.006391168371245419
-0.007467545156347462
-0.006923372058821603
-0.006147119124256794
-0.007429956517072804
-0.007838380783014746
-0.00710428749040104
-0.007305949274304368
-0.007207017570620272
-0.00620295038204988
-0.006719801539707885
-0.007696727892211731
-0.007379140927875989
-0.007191123352042831
-0.00764366138989117
-0.008122384069863956
-0.007351170438315808
-0.005983445782602088
-0.006333552151909014
-0.007043237374489534
-0.006863146311353208
-0.007312470274302201
-0.0074399000735738425
-0.007730728422279519
-0.008291530771920338
-0.0074789807341530835
-0.008247747468747601
-0.008387793380780844
-0.007260260063260183
-0.008013243861290492
-0.007102896058186769
-0.006159591171679957
-0.006998766856002814
-0.006576505095331907
-0.0062679948029965935
-0.007489355049892061
-0.007048091368200308
-0.006042902571121075
-0.007971343013214966
-0.007521620999880616
-0.005990131798847272
-0.0067758755549877404
-0.006734362483063703
-0.007466641325185952
-0.007450691134466296
-0.0064040502573597695
-0.007471020102324045
-0.007637117126756552
-0.007026969963242425
-0.006989521927933196
-0.007189671914287231
-0.008326764251433487
-0.0075734617175880915
-0.006725046796917553
-0.007338252498058393
-0.007383221687354327
-0.0077170589615384155
-0.00737371430550139
-0.006493821235526522
-0.007828851808081896
-0.008563850429122768
-0.007485773991760894
-0.007332273385440366
-0.006708961648027963
-0.007207788668359717
-0.007840031271349409
-0.006815953821582855
-0.008400087785884476
-0.009006345123107698
-0.008169233415472127
-0.0075386210561650515
-0.005394014884374854
-0.006140895470942774
-0.007531307251983516
-0.007356432813384507
-0.007802239240942164
-0.0075791124666913165
-0.007519444123569287
-0.00737679826001412
-0.006924449954203109
-0.007335915291917619
-0.007835872263014496
-0.008289648641017874
-0.007355357962934784
-0.006600428153633164
-0.007695305496523245
-0.007670400076727441
-0.007334024441784713
-0.008038585323757305
-0.008211373360152823
-0.007243701747816937
-0.0072112923190839374
-0.0074085911817423425
-0.006959116655728079
-0.007897859407703673
-0.008481421115568414
-0.008362488229639298
-0.007719347441446252
-0.0069913179941379746
-0.007014183856051993
-0.007183885512896712
-0.0078072612713961905
-0.00714097115994531
-0.006426113056704241
-0.006795891940390441
-0.007671460850227159
-0.008111248629622494
-0.007714126171428403
-0.008448036622313406
-0.008252798340102334
-0.007296551645019532
-0.007787061800114748
-0.008069428311731935
-0.00845697984388126
-0.007556145116257374
-0.006254404304857637
-0.007981347531828421
-0.007811763381958025
-0.006314064752112615
-0.007082296813817332
-0.007578144689684133
-0.007858342702596168
-0.008071803555284158
-0.007436962774480152
-0.006882027168076782
-0.007169517423083823
-0.007027927568198276
-0.007457879417774845
-0.009006649656300554
-0.008748057424880303
-0.007293471111585596
-0.0073322844192018856
-0.008375042307722503
-0.007670808879029918
-0.007327162870677806
-0.007858449251160827
-0.007414804857888507
-0.0076445043362993684
-0.007531245051879679
-0.007063924859848723
-0.007659510474287986
-0.008241905677931774
-0.007771395541881472
-0.007132206260852051
-0.007815054302400738
-0.008000483973905025
-0.0073801968102843165
-0.007171121951209208
-0.0069291763050926495
-0.0072340220833215325
-0.008141827141019655
-0.00856436054552544
-0.007998693572615501
-0.007583911441579643
-0.0074456308968541395
-0.007167072583495202
-0.008019509176683662
-0.007941781162449696
-0.006397287717704599
-0.007012846177578556
-0.008115466387125018
-0.008262549261254103
-0.008013475201679058
-0.007967211685124313
-0.00852316772357534
-0.00736032507955755
-0.006721318646252694
-0.007757420570629378
-0.007586975256217941
-0.007501016608453676
-0.007901799109241651
-0.008054111648748571
-0.007626429767239986
-0.007495469847221017
-0.007566175290639307
-0.007004668251935214
-0.007296251487907619
-0.007153321668892493
-0.0074074465374478655
-0.008164298731636821
-0.007781967839260559
-0.007626867469163419
-0.00770958288507703
-0.007671169868957621
-0.008046695056133075
-0.008564584925125934
-0.0077741181204865435
-0.0069448826054975005
-0.007548569434563893
-0.007422137660772351
-0.0067855635767712415
-0.007291669563523617
-0.007568484588709443
-0.007431755649460228
-0.008387398254507026
-0.008256528516031598
-0.007796011959441727
-0.00803372634335765
-0.007563563700243276
-0.007806745700441364
-0.00821533718617119
-0.008010107036388568
-0.007588777638554846
-0.0076305901665071705
-0.007789782185728652
-0.007007171154146645
-0.007763600368692501
-0.008793822503914864
-0.006684158347610651
-0.00652849038414747
-0.008377734935529782
-0.007969047853170005
-0.007827081956220252
-0.007549820716972654
-0.006813282850666558
-0.007723291258635681
-0.0076173206664811415
-0.006441288890867759
-0.007399195857346122
-0.007974138754723662
-0.0073319941112716
-0.007311064884741633
-0.007679520996756003
-0.007672593979283312
-0.006974845448407268
-0.007511803962218039
-0.007772599308172806
-0.006585486503340816
-0.006489750534267745
-0.006898234767677464
-0.0070493420473979815
-0.00715448362118706
-0.006577516032959279
-0.006348044785564453
-0.006648403586361262
-0.007208114498116433
-0.008339100956960194
-0.008295158277144114
-0.006909596065788956
-0.0067383281853213555
-0.007184696002954339
-0.006434181540185843
-0.0061176111961232455
-0.0071681008312108625
-0.006991409939663267
-0.005499985897885468
-0.00626842704865186
-0.0072963101048528125
-0.006425593322980335
-0.005464214976200919
-0.005257220757871965
-0.005901828061794303
-0.006287587162386253
-0.005570088449495707
-0.004180605751995101
-0.0045466321408791956
-0.005078048738926354
-0.003407627669615657
-0.0026843876300907767
-0.0028916729607291205
-0.002096524405179534
-0.0014607971384619756
-0.0007447564974829173
-0.00024775972297571723
-0.0005222943730246159
0.0010074039050193442
0.002320439026682412
0.002505800312782815
0.004323172625424176
0.006011535333122072
0.007232000400936414
0.009746502776096514
0.013007456024441491
0.01570382390119655
0.017623423359825197
0.019581239171869626
0.02363069700408799
0.027488614340517293
0.030553047699103757
0.036129450175749776
0.04041595594645467
0.04464301494295402
0.05135824593167494
0.05679222839273466
0.06339438356721414
0.07097380654484174
0.07768603939178866
0.08605733797145217
0.09497557529899156
0.10289004399370191
0.11111970236108651
0.11934530811954543
0.1293169519548416
0.14049350787286544
0.14856210549558635
0.1562521055928896
0.1644686471044408
0.17081096205976823
0.17491739057097022
0.1757424122641066
0.17329674801870007
0.16916967853011675
0.16379096466032148
0.15959024279556597
0.1600908575592611
0.16296117424112416
0.1674413196150074
0.17250266541769627
0.1770799487004285
0.18171604193180982
0.185077251112621
0.19066579346146267
0.20110408234189242
0.21963222663797294
0.2511077584811049
0.2949697352469764
0.3454783797989714
0.39583844313169475
0.4436859758740941
0.4916388152951395
0.5440096353587447
0.6049434882597292
0.6749566318624093
0.7430083905269854
0.796201468368686
0.8354863946389918
0.8701126456857876
0.9082606634049438
0.952814455163669
0.9966510423876959
1.0310493111001504
1.0539414624326333
1.0646443488957456
1.0564788416387179
1.0198374026938393
0.951385410355874
0.8564194891903694
0.7485340204021553
0.6437708619758258
0.5473673352838974
0.44747061754964684
0.3305410574333587
0.19345380911179602
0.04966060703590454
-0.08562061684896344
-0.23055253452176147
-0.4250768087771979
-0.6894998667613906
-1.0008093743960114
-1.3065828198455427
-1.56171893604449
-1.7384869952490456
-1.81414101669884
-1.7749181298265209
-1.6346147143842282
-1.437417279154225
-1.2461659650124777
-1.1057772609088503
-0.9874690017422227
-0.8132444844765011
-0.5578289380696402
-0.29545946910118
-0.13212157184116605
-0.07893175488390035
-0.04956249859804467
0.015304738322193399
0.10675842163160441
0.1932925514773742
0.28706078454165784
0.4578707469167209
0.7342298431460892
1.028383708092497
1.1657185634310432
0.9978656548090021
0.5359277965794778
-0.030181964208918485
-0.47796071877996155
-0.7111652853521347
-0.7466230591357917
-0.6566586907307767
-0.5522159883584028
-0.49171142739246454
-0.44356971921965144
-0.3844934645492383
-0.35898052506580974
-0.4093940379935478
-0.5029012209562775
-0.5576955181060245
-0.5205961842189666
-0.48005765523584715
-0.6397533226116199
-1.0776223211891474
-1.59571704074086
-1.8388325690876008
-1.569258563533897
-0.8449041089814409
0.045884508221671456
0.8074239104950184
1.3107028190067402
1.554399362630271
1.551615883819263
1.354997128130454
1.1392651170498036
1.1222784884630521
1.3617158401571168
1.6726295547532892
1.7754020147116745
1.5681312370963245
1.1818470425517658
0.736032075480603
0.21080191169609222
-0.3595597935586256
-0.7781200981474993
-0.8930361450497744
-0.7827740185400552
-0.7319122298114524
-1.026051563632236
-1.7342780610982176
-2.644836299736658
-3.2948055856658818
-3.2284113596623825
-2.4278368006273165
-1.388834079899788
-0.6278463752364687
-0.1928348148843811
0.166557554599993
0.5110025806518815
0.6095284569067928
0.28479591508047297
-0.22052637521212337
-0.41802450613177355
-0.1572051439721022
0.2227926391368498
0.3476557060961904
0.19072976672339736
-0.020208886348178395
-0.07956160186408427
0.08216433765108372
0.4857116684513544
1.1830910382723197
2.029533831474015
2.5876091691100482
2.615426391983679
2.343588549474976
2.1510674356850314
2.215986906785503
2.3307654101114754
2.034424535856402
1.1601186093650029
0.09861328905410416
-0.6613222285226786
-1.047834533881938
-1.3935513020529282
-2.011192689124347
-2.784818532220416
-3.1842001528316652
-2.739565269844668
-1.5780678502470245
-0.3542958162164709
0.3522481691131551
0.47827183294316056
0.43700981242497444
0.540521765750429
0.5659333127618439
0.11712912000239739
-0.8345162044614983
-1.954420794059239
-2.836034272016612
-3.1720910154358983
-2.9917596747024975
-2.58456827442484
-2.0459428258848966
-1.2978653474762636
-0.31455330707804396
0.7970379890377237
1.6935116342031127
2.076341234653805
2.166449010681
2.508718729688812
3.3116441412636983
4.267248834509931
4.811768220273241
4.563990974546002
3.7000808795510602
2.6262102218111734
1.5787754606155546
0.6872027359422763
-0.053326524663276906
-0.8447524903497481
-1.8658854856205616
-2.9309025796241097
-3.64078311319701
-3.889269847546837
-3.945575280973574
-4.126988151570059
-4.461959505487038
-4.5979559894012825
-4.0137498611547855
-2.574924509377014
-0.848451184661759
0.49540302749236703
1.3025156976329122
1.7274830157649594
1.9137300603101548
2.064339247595366
2.4995256941205715
3.430155614639387
4.566539183177965
5.22685689993797
5.041416025925123
4.323841989592787
3.615116525863691
2.9940364894904428
2.2050051155870283
1.3380172562980313
0.760317370208524
0.44987509696824457
-0.09661068218277044
-1.102118806565161
-1.892270544561327
-1.5863293201434274
-0.2632189900372716
0.9667738118280653
1.000259390043596
-0.22342939898162564
-1.9285751252166738
-3.3883678164570297
-4.21065497414171
-4.165735602983091
-3.0977290160880417
