AAD_Filtered_TADAS_FILE
AAD_BASELINE_CORRECTION: BASELINE REMOVED
AAD_FILTER_TYPE: BUTTERWORTH
AAD_FILTER_ORDER: 1
AAD_LOW_CUT_FREQUENCY_HZ: 0.025
AAD_HIGH_CUT_FREQUENCY_HZ: 40.0
EVENT_NAME: 202302061024
EVENT_ID: 13207
EVENT_DATE_YYYYMMDD: 2023/02/06
EVENT_TIME_HHMMSS: 10:24:47.00000
EVENT_LATITUDE_DEGREE: 38.089
EVENT_LONGITUDE_DEGREE: 37.239
EVENT_DEPTH_KM: 7.0
HYPOCENTER_REFERENCE: AFAD
MAGNITUDE_W: 7.6
MAGNITUDE_W_REFERENCE: AFAD
MAGNITUDE_L: 
MAGNITUDE_L_REFERENCE: 
FOCAL_MECHANISM: 
NETWORK: TK
STATION_CODE: 3125
STATION_NAME: 
STATION_LATITUDE_DEGREE: 36.23808
STATION_LONGITUDE_DEGREE: 36.13264
STATION_ELEVATION_M: 156.0
LOCATION: Kahramanmaras_Elbistan_Turkiye
SENSOR_DEPTH_M: 
VS30_M/S: 448
SITE_CLASSIFICATION_EC8: B
MORPHOLOGIC_CLASSIFICATION: 
EPICENTRAL_DISTANCE_KM: 227.96
EARTHQUAKE_BACKAZIMUTH_DEGREE: 
DATE_TIME_FIRST_SAMPLE_YYYYMMDD_HHMMSS: 2023/02/06 10:25:06.2991800
DATE_TIME_FIRST_SAMPLE_PRECISION: millisecond
SAMPLING_INTERVAL_S: 0.01
NDATA: 14501
DURATION_S: 
STREAM: HNN
UNITS: cm/s^2
INSTRUMENT: sensor = GMS+/GEOSIG | digitizer = 
INSTRUMENT_ANALOG/DIGITAL: 
INSTRUMENTAL_FREQUENCY_HZ: 
INSTRUMENTAL_DAMPING: 
FULL_SCALE_G: 
N_BIT_DIGITAL_CONVERTER: 
PGA_CM/S^2: 25.627
TIME_PGA_S: 
BASELINE_CORRECTION: BASELINE REMOVED
FILTER_TYPE: BUTTERWORTH
FILTER_ORDER: 
LOW_CUT_FREQUENCY_HZ: 
HIGH_CUT_FREQUENCY_HZ: 
LATE/NORMAL_TRIGGERED: 
DATABASE_VERSION: 
HEADER_FORMAT: DYNA 1.2
DATA_TYPE: Acceleration
PROCESSING: Automatic Paolucci et al., 2011
DATA_TIMESTAMP_YYYYMMDD_HHMMSS: 
DATA_LICENSE: U (unknown license)
DATA_CITATION: Turkish Accelerometric Archive v 1.0 - Disaster And Emergency Management Presidency, Earthquake Department
DATA_CREATOR: AFAD
ORIGINAL_DATA_MEDIATOR_CITATION: : AFAD - Disaster And Emergency Management Presidency
ORIGINAL_DATA_MEDIATOR: AFAD PROCESS SERVICE
ORIGINAL_DATA_CREATOR_CITATION: AFAD PROCESS SERVICE
ORIGINAL_DATA_CREATOR: network: TK
USER1: GuestUser
USER2: 
USER3: 
USER4: 
[...]
-5.51275924193505
-3.6522116032472693
-1.0787608731548917
-0.3054456357881104
-0.5659241055509002
0.829304084527561
4.216176687744183
6.724642797248053
6.5244104057206425
5.625412278896772
5.730674149193908
6.032896069534939
5.945431708989544
6.3314365695697905
5.886183108246052
3.4521658068829573
2.531186995242306
3.9508728892643066
3.896693761218288
2.5415039848701437
3.51560342061893
6.180754821960028
7.116338832616673
6.755161982913773
7.079762369251153
7.830164463223876
8.349124931988879
8.573677060329047
8.47188063995533
7.808388115453935
6.629562971458825
5.983439530015872
6.179682606584066
4.864547739195834
2.3803879134439403
2.3879650870655094
3.6735772744015094
3.122181040819599
1.7955715585465126
2.1932009608805734
3.573252979465016
3.6453407881036046
3.332195377703139
3.6163835193050016
4.121433220856401
4.608193779842455
4.860926133686961
5.102558964652511
3.6699071523829985
1.0190965154908986
0.9984592503504046
1.2417057665030022
-1.8798022219289867
-4.2346620645483855
-3.9342737987856924
-5.476880061742437
-8.599104300751389
-8.66581093348803
-7.358544976137993
-8.27864034430543
-8.63109187750351
-6.704630902399842
-6.039809072310604
-6.770146839549218
-5.734940179956882
-4.498877806439698
-4.977490844497188
-4.962128817256328
-4.190902543925567
-4.865895222322403
-6.835284720829955
-7.625666043587492
-7.275410071687692
-8.322499983820942
-10.01374600805906
-10.13882170368004
-9.63404298507942
-9.827155868250413
-10.335787794486897
-10.634169723352882
-10.635138686651697
-10.563004932815263
-10.547615072624383
-10.667598990375312
-11.468298235272202
-12.44446788997805
-11.773761618273012
-10.615664351811276
-11.363423452187856
-11.793458702369527
-10.666877949048198
-10.297923462924677
-9.792420667293321
-8.15490825314722
-7.333830086333198
-6.855623854743512
-5.2345069070023245
-4.284459458324594
-5.245319355546589
-5.395740909996498
-3.9462813050720342
-3.6524312025664156
-4.126300140568169
-3.89552842058191
-3.985041034260535
-3.94085526040048
-2.9670646729651198
-2.850980853725673
-3.960131009798851
-3.9024051054929205
-2.852907666722481
-2.9078497906264453
-3.324258542958659
-3.409693944757214
-4.115455909226388
-5.0362452389541845
-5.756548204672879
-6.6251031957982285
-7.2245838411179655
-7.505496480750092
-7.998886161700477
-8.597406550028422
-9.113222820719512
-9.444549742669087
-9.518775070092008
-9.546052987832482
-9.365546424239625
-9.108718446283422
-9.154843717048564
-9.06639049107884
-8.958805523962644
-9.363777467706825
-9.398196657484787
-8.685777019277495
-8.38462308557532
-8.171880834835925
-6.669516582098299
-4.440882761269062
-2.762227225553217
-1.153104038204965
0.43544650075035113
1.2105115170308158
2.0809914316994766
3.140514176128527
3.6013656385010244
4.114383081996325
4.91491475064653
5.365523972562143
5.560390117031224
6.104688118417709
6.310114149428278
6.243002642040547
6.667915342159827
6.057282001384662
4.88590011438825
5.130059687836882
5.339557649577672
4.700742862254441
4.694301197341338
5.267589251877074
5.738680670115484
6.094276884451483
6.20857196787545
6.163160474625392
5.6312540559575
4.745118412413618
4.250283646010112
4.018861467128269
3.835860559927005
3.2791218873013204
2.612413835094971
2.308867633589885
1.2061250700305954
-0.712370816957473
-1.9185567460465083
-2.441159480370869
-3.577405171236635
-5.180481198312171
-6.471820409161833
-7.83398520955484
-8.8923926719292
-8.864455327843165
-8.180308541727594
-7.410818554872572
-6.872886991778495
-6.271180523477855
-4.990129205856154
-3.7889593201601803
-3.0365206390238293
-1.9138528482453703
-0.9070773892435683
-0.3739527732785192
-0.050109180562980825
-0.4458827137149098
-1.0065340043254474
-0.5176192511448426
0.20524150505110417
-0.42324678487405676
-1.533744643767296
-1.8120182323031042
-1.6668025831925875
-1.1365546691336326
-0.9679516407105362
-1.9848347574769625
-2.517727942897044
-2.16788071513942
-2.4590003572296273
-3.043803992752334
-3.249412916615135
-3.3301507923381015
-3.080370439139354
-2.798821203423578
-2.7939041521774586
-2.437103437006326
-1.6291841586989901
-0.621141854330877
0.30821219094711516
0.5482662210109284
0.4188131512348789
0.6486254709054817
0.5723428157100509
-0.48726313736271987
-1.9700936663804336
-3.1054549573093775
-3.377743341994993
-3.212070585954415
-2.7112916466883643
-1.3393495816592302
-0.09528360727318413
0.7982250367590665
1.9925020149485848
2.6367760410537433
2.932815642122189
4.042227579172835
5.166044974952052
5.275511981709018
5.223599503660433
5.488410364301782
5.541760799437678
5.501491801587144
5.405669333475718
5.174718885074094
4.987954686694208
4.27227946994568
2.9882781689722804
1.9839912011342247
1.1264925100973062
0.932114212532876
1.9674724589068866
2.8107695989559347
3.0486841471920574
3.590563109826834
4.673128584652369
5.640207245510265
5.788874376439838
5.907042301162506
6.434269213064558
6.542770022442868
6.520869999889155
6.9595560476240665
7.29346965021413
7.181806455483032
7.199228739046606
7.358264364461709
6.994257079514562
6.4803461696290094
6.313687321569909
6.148936983520178
5.910914739411616
5.898032326982267
6.349284035655425
6.983912165372024
7.427382470178803
7.775780498334689
8.044343032669602
8.386177523799304
8.900569741842979
9.09890177406435
8.872235508009355
8.920622314539013
9.469530179654972
9.765739260658712
9.412871594348918
8.819965614774322
8.305860152545552
7.6220158817032475
6.623268989010405
5.64419228822504
4.52125835157239
3.315044102533662
2.791023996107946
2.6409929974085955
2.4043882916303865
2.877177056513568
4.071806504586978
4.5589266696768505
4.215560023635538
4.510867753744875
5.011473161328725
4.181506937801358
2.7324766369874838
1.565645785874249
0.08231827474906471
-1.7391160446904845
-2.9681282607618646
-3.6453343367990625
-4.93934038507851
-6.673902405637276
-7.433606853729126
-7.302003162202681
-7.586942606722246
-8.250905874941871
-8.199166037819353
-7.634114240986725
-7.464478973051279
-7.426466977717141
-6.9895009897717415
-6.533284263610031
-6.355780743628265
-6.50936031345568
-7.165088916106676
-7.977520264551945
-8.706181964761123
-9.698101953502274
-10.89726783134336
-11.708601130919483
-11.969510748785796
-11.811008923245074
-11.334402152937846
-10.666247284443523
-9.59901932356316
-8.408486171500133
-7.3930073247761
-5.951554237948738
-4.19190890331575
-2.9086077122565692
-1.7195899152233969
-0.1509838885265423
0.8058803738010792
0.9617959438849093
1.5287674199245422
2.441225158270735
2.575092332721008
1.8437438439204792
1.088777530175747
0.6707072646158907
0.33368875207162757
0.15375339424331788
0.4167236984862102
0.6901341562381794
0.6519292070739591
0.9031670347056238
1.4343423173566106
1.6486945357462655
1.975650904103258
2.8560814330429047
3.5391739198627867
3.4806367152394238
3.147706073741269
3.2260813017998355
3.9803393240063865
4.750402048706145
4.862645871570345
4.793252487326899
5.015854455417968
5.4640662042521795
6.114290434663522
6.734698096841152
7.033162272164735
7.277738650727456
7.771133220028875
8.176796135412616
8.527557340552226
8.991030473144777
9.033803593992198
8.933422997957816
9.22564911043535
9.186447213996491
8.532730020171858
8.009867571023536
7.9203535375062115
7.819544099602255
7.43493087264883
7.372679429164093
8.040692808754331
9.027796891535694
9.930037813795174
10.597028150765947
11.221796634609731
11.938267696643413
12.498054313160226
12.851109893214723
12.980659986475667
12.378692748433565
11.002761943216296
9.6351424661337
8.44150779169087
6.949048070277053
5.377163341341349
4.33335295996523
3.2372364303058982
1.3967678803693848
-0.3507911340865998
-1.6024400167125583
-2.9030660065835465
-3.8214522022674418
-4.197485293721531
-5.194846272526483
-6.640175721440613
-7.297032786452772
-7.419867353719439
-7.488336721875002
-7.4065781016634435
-7.544246226841847
-7.851951537909738
-7.88573150205679
-7.770904432828963
-7.744069881058928
-7.990748645143664
-8.593662237481748
-9.626088388195726
-11.041319482461331
-12.305158517080871
-13.189401354088842
-13.984401118391734
-14.647342483219782
-14.751816155470664
-14.575751204104108
-14.596845725088885
-14.242143788098867
-13.388131347154202
-12.564735155788059
-11.657381062929815
-10.59423638227851
-9.470979288383013
-8.527513513928556
-7.93139606354005
-7.194340502160609
-6.435872210645494
-6.1403482326632055
-5.985903460561379
-5.81827337565673
-5.7619826819004265
-5.491086494324526
-4.769006496671821
-3.865834603786274
-3.0355381588398176
-2.470517591242092
-2.198287675936995
-1.7446958798303636
-0.9774511871081674
-0.09134245959061608
1.087252619808995
2.56261277595633
4.04050374871388
5.284557659274685
6.402793880690963
7.551208243506906
8.441338347224155
9.019853182978418
9.300308167545198
9.275340436021645
9.482164659166509
10.024605235307488
10.636283068961355
11.438585079894743
12.41459114042602
13.426522762968691
14.377424029872808
14.956812929217849
15.231960434133837
15.585150949062443
15.939158048779905
15.940404450142331
15.324369385131316
14.41983368460868
13.531703266443097
12.684360071606685
11.96013945065337
11.051976254057196
10.067085158955047
9.134518987059579
8.376035979566439
8.23226919418634
7.980988903709573
7.17934507004204
6.619707198680516
6.293751695710171
5.992764642478517
6.183346891082023
6.500670576833867
6.0915089141341845
5.2468823188780185
4.828108598626283
4.761780253838046
4.158405061392467
3.1502626211940985
3.3562769986279433
3.9032642365990866
2.9757273250795606
2.125438963390189
2.1378102865422344
2.446213662576224
1.7831599171517452
0.029019702342355683
-0.7904979943258463
-2.3760892066934125
-4.5207845431198
-4.23862016067166
-4.72651469701038
-8.459177102748319
-9.881426652310195
-6.7600148655035825
-6.4854466062309015
-10.719045073678293
-11.252635823953986
-6.949517474706381
-6.551266554898545
-8.903346195459482
-5.81397281184857
-2.5922115378351602
-3.8698125105876513
-3.860656930227442
-0.5525115792008787
1.7024171343770633
-0.9778019125574232
-2.9406454580784387
1.5540958591651068
4.65326440636875
1.440520520712753
-0.810174288923877
1.4172742549782453
3.9198749853334793
3.361894920577938
1.5917257733961727
0.8303411964373776
1.4089490087789016
3.1906216150954743
2.1006680693149278
0.523487545383865
2.951142901742775
2.2368529409253046
-0.701615695398089
2.571881545532212
6.247755178002907
1.9209088556980773
-3.549821791844227
0.7262315097285746
6.432822111366174
0.9940773730156018
-4.605171189787117
-2.845639236067971
-3.135496087176323
-6.479079776997272
-9.305746503092703
-10.064211132693172
-10.457006350103255
-12.967918348665494
-12.006316095048197
-9.911884135625094
-13.470467089382257
-16.68398916911175
-15.77616372326024
-13.220466317322677
-11.215123531341415
-13.485045738405352
-16.885972133002838
-14.218488667443559
-9.43970242639218
-9.92696760928531
-11.972774295582088
-9.45411615831248
-6.293038316718671
-8.987978871466225
-10.288934299541305
-4.148929177460195
-0.970836364018246
-3.2892968558494906
-3.2457613994150467
-0.1385800078273492
1.3654455550418358
0.7429326178958973
3.121714579261308
7.686647779791884
7.270480264519875
3.8279398915321123
6.927543880479477
12.852676874610951
11.683178327101503
7.146508616336282
8.239075341967439
13.582924540068515
12.026229647611903
6.274136057388865
7.727832413311334
9.868520488135905
6.889838348405634
5.209232169002095
6.215724088472179
5.828263407723376
2.1515698819721987
1.4943232120220453
6.350514921926821
3.9529032948253597
-3.3084339502071076
-0.7292750213799286
4.424347055142967
2.5626828014515097
-0.5317502179217453
1.2038046739412673
4.30327460852715
4.668975120321212
5.551728294966285
7.297053652062369
6.733902630295833
4.958958216501679
6.345735890252449
8.12225978917898
5.76474712256215
6.375088774834571
10.407768660513337
7.440043992021127
2.337419463389666
5.963240987675215
10.588720046988586
8.662630958049956
7.906760333457938
10.062658789369639
8.86172652882887
8.979429875344765
13.179262894477324
11.217004416580615
6.414490519819263
9.502228444835403
12.311343804886386
9.463660775686542
9.08089899173166
10.753312243309045
10.055246183486805
10.821964313937677
12.393771751390132
9.125878724724252
6.394392640156962
8.98269697142882
11.832279248771396
14.135281640230005
16.422757151843875
14.189749980130834
6.989142230082311
3.9290674713219302
7.842997812611603
7.078213057605871
0.7344951145646483
-3.8839157140510294
-5.773164054838027
-0.13783791827115235
9.447190585190114
10.931071035762635
-1.7893189459995416
-19.21112359256545
-18.43079257080442
-2.1684800933032453
8.897984722516435
8.942463363293012
4.232264116088807
4.6166523143692535
-2.682997897567422
-20.090771087334005
-5.4652590945947415
23.395622908534364
1.3085521448938864
-24.94380029386595
2.763737246686938
18.009480814526107
-7.724049433149324
-9.534246567262207
14.318368665974182
1.9258444210555288
-22.160463093240356
2.3604891178372656
18.3365721588804
-5.624240083595054
-6.916852884162807
6.994030315471106
3.0329209822750007
-6.3836794950421885
-8.99756308334653
-4.428366566925199
-4.906745664270825
-9.479089194718108
-4.016059976034231
3.5902433616761797
1.648305638147761
3.9617494851145665
11.620573340222418
0.5260446334659917
-18.46359686603861
-11.5065856117871
11.104019633695357
13.866936483479174
2.3869752901159407
2.664740678177345
5.9985344980340525
-1.0281237420227036
-4.484278707672474
4.712007240526488
7.843744783837427
-3.637467751245945
-6.621206767698085
0.6017668060498029
-4.2619373965480865
-9.45107587911386
-0.12940376180995042
-0.9190762040487583
-13.520098805285857
-10.737685992284993
-0.27687165902766603
0.9986479419070378
1.2350171254712963
0.7023801415816835
-9.56226525691646
-12.461332262799013
-1.6584580853086082
-0.8373265052102233
-5.953590363490646
-7.1862255516290245
-7.512429948607718
1.2861160902514144
7.1973355326249004
-4.885820167534825
-17.345077779049234
-12.32326287171986
1.422583061512681
4.173362894160907
-3.525888243552429
-6.50222151281992
-6.299718292769761
-7.584539567375384
-5.001452707715642
-2.5710322049672945
-5.14520875958629
-6.798244008396986
-2.4191875683602184
3.974685423284344
3.7938356283183854
-0.03953506839948887
2.6952702975916285
5.904946049104121
2.8495463783694426
4.300366249170257
8.896101428061854
6.679965524604852
4.666151987723566
9.510492604282307
13.35840329910204
9.2266045525126
4.765797565521464
6.184575757034487
7.255910167594578
8.21238922762134
13.811253126515295
14.879371329102609
6.7725232082106
3.324832578485293
8.265919977984582
10.466599354806984
6.5153090067611785
1.9987193991114613
1.1662576177982524
2.442080946373829
3.451167277716086
4.515329729634833
5.5517049465484165
3.974032810119147
-0.9653525594411495
-0.031423529766318264
8.237295704782266
8.432520104376014
1.9005032800859307
1.1875834868902129
3.0185839806550194
3.50689438513248
4.497183141307383
5.552554997520276
5.4378657908345716
5.012073607256241
4.402415931093804
2.837887102680023
2.681391387582897
1.5803792764219886
-2.393867808052534
-3.638474221275366
-0.9323628251911849
0.9101505390271702
-1.6113648368373117
-4.073498086086977
-1.3904522665587162
0.10690384408187066
-2.5998574103994323
-2.273692281937924
-0.25675230203672983
-2.7901410811021354
-4.819243365550948
-1.9619888471390292
-0.5879213343356177
-3.790908876173883
-6.282807418911556
-4.966410011769425
-3.347905974360663
-4.734780720004082
-6.6792748007803855
-6.039431655200166
-6.204729318164742
-9.946482893210117
-10.404227288483284
-6.151683400208734
-4.236582917612879
-5.070735343375144
-6.913244209724901
-8.231154463853313
-7.984060002758082
-7.593318969276328
-6.946011375784634
-7.371394168589931
-8.656490278795763
-9.145330933602382
-9.478347810417267
-8.293537635858195
-7.364963708881259
-8.466113977529995
-7.85590256108269
-6.530747940604396
-6.048038783431533
-4.438180702445691
-2.537540043380639
-2.2023595008101546
-2.431861628758893
-0.25540795869549826
2.2155663602701394
3.0116321142670692
4.063881699163633
3.6647179351950143
2.996903640347753
5.910451561665196
9.105078256902841
9.344192675858679
9.603871284591182
9.616963277864949
7.633058708359827
7.366929825450168
8.738194943704322
8.249384447842246
6.475168744086958
5.97975123741076
8.208992099324373
9.843247373599036
8.445899188610122
6.527607885525555
5.6160844619990735
6.424677085277336
8.399621591071671
10.068303594706954
10.276429659526151
8.316001995956645
7.821178589462233
10.995252049242158
13.60546650364135
12.238771358343687
9.54351256098909
9.377538404295152
10.23990878549445
9.792565552444108
9.074772685551748
9.437484892719757
9.810821706133611
8.743433401781399
8.549762296800647
9.987964306168895
8.948215180294975
5.92520521379493
5.410746917788898
5.778275311688191
4.128344461758238
3.2398455433689977
4.310987373442661
3.362417655320234
1.196997546831179
1.4473459424169546
1.9100862915372296
2.417137435966166
3.0372155178522204
1.4953784822967116
0.43667114681588526
0.6795330239622412
0.4113815796414087
0.37356090993877766
0.27669470735273327
-0.5807072969848895
-1.2270292251692076
-2.1419835525494544
-3.4612910908416628
-2.1375502221950518
0.4235413060360868
0.3035701653885362
-1.2504505150155139
-2.5151169755703733
-2.623710375373325
-1.6221776298029056
-0.8889534380908963
-0.6603575731229899
-1.8566053878520141
-3.5952863945867057
-2.5534800122665207
0.48506072726812355
1.3430118182263466
-0.6143817515285435
-1.5088812886982055
-1.0384718905023667
-2.6191509026559174
-4.642917224893839
-4.16607065285886
-2.9454469863712034
-2.608918474499717
-2.4452940094785096
-2.2611385366159618
-2.4910936466869695
-3.0941906746116485
-2.570514359462553
-0.4115289505449825
0.6213293863211667
0.21726101029996372
0.7210258834425266
1.5358721952879186
1.1360702719950906
0.755348671189605
2.0688910127063234
2.866293340097748
1.2168553627050964
0.8512941522115314
3.4584934585237765
3.6989671479306407
0.9378744439861215
0.23366138136403836
0.9009934956614379
1.9196698655474251
3.852339475932986
3.8128093441288144
2.03341876415446
0.6929670128893317
1.0933901969293804
2.2657604526506048
1.106954601294045
0.9124300394812312
2.5314020976811697
2.815784537010242
2.704262407774815
2.0629112916689176
2.359871652214785
4.204731701313768
