AAD_Filtered_TADAS_FILE
AAD_BASELINE_CORRECTION: BASELINE REMOVED
AAD_FILTER_TYPE: BUTTERWORTH
AAD_FILTER_ORDER: 1
AAD_LOW_CUT_FREQUENCY_HZ: 0.025
AAD_HIGH_CUT_FREQUENCY_HZ: 40.0
EVENT_NAME: 202302060117
EVENT_ID: 13194
EVENT_DATE_YYYYMMDD: 2023/02/06
EVENT_TIME_HHMMSS: 01:17:32.00000
EVENT_LATITUDE_DEGREE: 37.288
EVENT_LONGITUDE_DEGREE: 37.043
EVENT_DEPTH_KM: 8.6
HYPOCENTER_REFERENCE: AFAD
MAGNITUDE_W: 7.7
MAGNITUDE_W_REFERENCE: AFAD
MAGNITUDE_L: 
MAGNITUDE_L_REFERENCE: 
FOCAL_MECHANISM: 
NETWORK: TK
STATION_CODE: 0144
STATION_NAME: 
STATION_LATITUDE_DEGREE: 37.731023
STATION_LONGITUDE_DEGREE: 35.45968
STATION_ELEVATION_M: 649.0
LOCATION: Kahramanmaras_Pazarck_Turkiye
SENSOR_DEPTH_M: 
VS30_M/S: None
SITE_CLASSIFICATION_EC8: unknown
MORPHOLOGIC_CLASSIFICATION: 
EPICENTRAL_DISTANCE_KM: 148.09
EARTHQUAKE_BACKAZIMUTH_DEGREE: 
DATE_TIME_FIRST_SAMPLE_YYYYMMDD_HHMMSS: 2023/02/06 01:17:37.5577960
DATE_TIME_FIRST_SAMPLE_PRECISION: millisecond
SAMPLING_INTERVAL_S: 0.01
NDATA: 12501
DURATION_S: 
STREAM: HNZ
UNITS: cm/s^2
INSTRUMENT: sensor = ACEBOX/SARA | digitizer = 
INSTRUMENT_ANALOG/DIGITAL: 
INSTRUMENTAL_FREQUENCY_HZ: 
INSTRUMENTAL_DAMPING: 
FULL_SCALE_G: 
N_BIT_DIGITAL_CONVERTER: 
PGA_CM/S^2: 7.763
TIME_PGA_S: 
BASELINE_CORRECTION: BASELINE REMOVED
FILTER_TYPE: BUTTERWORTH
FILTER_ORDER: 
LOW_CUT_FREQUENCY_HZ: 
HIGH_CUT_FREQUENCY_HZ: 
LATE/NORMAL_TRIGGERED: 
DATABASE_VERSION: 
HEADER_FORMAT: DYNA 1.2
DATA_TYPE: Acceleration
PROCESSING: Automatic Paolucci et al., 2011
DATA_TIMESTAMP_YYYYMMDD_HHMMSS: 
DATA_LICENSE: U (unknown license)
DATA_CITATION: Turkish Accelerometric Archive v 1.0 - Disaster And Emergency Management Presidency, Earthquake Department
DATA_CREATOR: AFAD
ORIGINAL_DATA_MEDIATOR_CITATION: : AFAD - Disaster And Emergency Management Presidency
ORIGINAL_DATA_MEDIATOR: AFAD PROCESS SERVICE
ORIGINAL_DATA_CREATOR_CITATION: AFAD PROCESS SERVICE
ORIGINAL_DATA_CREATOR: network: TK
USER1: GuestUser
USER2: 
USER3: 
USER4: 
[...]
1.6153828688072982
1.6179114042436016
1.388490856563803
0.9292860511580661
0.36935419184855656
-0.09341139854385791
-0.3209285936561175
-0.33636160409715266
-0.2850284106547757
-0.2961613514425879
-0.3874810119136592
-0.5065820351100485
-0.6110956698939538
-0.6975623516286079
-0.77959978289866
-0.8509986033677184
-0.9034783462138911
-0.9571660865800399
-1.012581736378799
-0.9989176370614481
-0.8740489860787314
-0.7331972396800222
-0.6782224050425829
-0.7304815320073277
-0.8668690106131631
-0.9867795653741358
-0.9812908519483476
-0.8052220351173658
-0.4754283563871753
-0.0295516207389368
0.4816170806727395
0.9158716117840687
1.1942300866546562
1.4621526920035726
1.8698284392842295
2.350424363612452
2.7270218841481224
2.834664334761705
2.595461363926382
2.1616480812351373
1.7786293199669208
1.5650202204117278
1.5727845297513616
1.8784871057271377
2.5079102198468104
3.2711826977753176
3.8018106941374823
3.881302696649322
3.572815244266372
3.081453719808489
2.663269724573096
2.4298248496452963
2.270867957502544
2.098743679404268
1.915030441023813
1.6956763045949186
1.3632360943340947
0.8319795350555127
0.14791632752085884
-0.3903357796740323
-0.509634217495833
-0.285860977987758
0.045776288706707705
0.3164850255176321
0.4540631960041
0.44810703565303034
0.23247580209493232
-0.21636461855789518
-0.6860938836165195
-0.9194222094610127
-0.8585324174131762
-0.615347790638878
-0.4575074883086916
-0.6304944132556348
-1.031258886644432
-1.3464533838100687
-1.406568543136593
-1.1945426400476378
-0.7239286612131052
-0.0016741738313739295
0.9293077678411227
1.8459299386578765
2.4109342211121625
2.5194466369850064
2.389000983057867
2.3295955267483017
2.534521532521715
2.9919717761843527
3.5139004180767444
3.864075991525079
3.8531980915613935
3.3156340316836865
2.2030160287976273
0.7571505549399438
-0.5133506752025921
-1.098330068939601
-0.8052843583541364
0.11397620358110705
1.1525868233479515
1.965275288104666
2.5225410535083874
2.930808546701211
3.2094946019353774
3.2448119202306858
3.071395366742758
2.947049832325021
3.011952838412992
3.1499304559295953
3.1426719531065235
2.808278788016562
2.1486804722641835
1.3572940368010815
0.554035383870568
-0.24956981865207742
-0.8860337755225246
-1.0870010096586187
-0.7982840761968285
-0.24363861482059354
0.24182230265583557
0.38340592405874613
0.14968165229372832
-0.31515535432585645
-0.8796774886348517
-1.376296741265362
-1.6482763052277802
-1.5935129257570244
-1.1691249213696289
-0.4951388822482888
0.17834718351350695
0.6141880055782829
0.7358599805272051
0.638572398526629
0.47369621665353107
0.3289447715848217
0.19581775888627956
0.05586010203823077
-0.06530337178682125
-0.16364156538405258
-0.2881679920794457
-0.395201632708918
-0.38073358885936454
-0.33850494709275897
-0.46955753636337133
-0.7774037691478657
-1.1263442472649443
-1.459555413642145
-1.7826946865262023
-2.0918499418277023
-2.355889920745105
-2.4890029030208116
-2.3855956267705194
-2.0461406107572726
-1.589991891809299
-1.0801714515522485
-0.5217905860395846
0.0276773479646765
0.5260613783291112
0.9513705808462047
1.2361342781327944
1.3555681003805344
1.3805094884727325
1.3777922656241828
1.3441789345800272
1.2658707958056787
1.177500600751845
1.1380135176308093
1.1109699892948786
0.9663883791048657
0.758656332269714
0.7085607331347115
0.8679797978653107
1.1035217243008693
1.3347099455074671
1.6261112809361182
1.9632649574682348
2.0627983072715605
1.7491356915521346
1.1419919959708134
0.31520634996137986
-0.5247161764494909
-1.1699217750487858
-1.442833338661617
-1.7677557873749272
-2.2280494863985627
-1.8664718704410344
-1.4877757797241318
-1.50928876687017
-1.0923371023948338
-0.5796342869257207
-0.11454741965416573
-0.041113033159158804
-0.29049117005605146
-0.32662133623863904
-0.29317685575181307
-0.10897159948383899
0.05561850984630739
-0.028024418617940715
-0.31817432552605235
-0.716704132131537
-1.1136648000446996
-1.3879222524220274
-1.377938324507336
-1.0739528831108958
-0.5983672752692079
-0.36477154006315055
-0.4749272542919959
-0.932700001046749
-1.7072624048154827
-2.2665156873225945
-2.452687173499991
-2.281118351529549
-1.8575408504112914
-1.609149140862989
-1.749625884248669
-2.1427552516772654
-2.4618428217151154
-2.5155706282341
-2.2607822233869057
-1.7358510544308567
-1.3093345225519732
-1.3127365547561662
-1.7048372781366907
-2.289123014952794
-2.9046102219499743
-3.393613800564942
-3.617070524160826
-3.6101787115759767
-3.359816904817529
-2.8550706310332283
-2.2133681783126518
-1.6354269992747144
-1.361135004045817
-1.5864386914862025
-2.291625741268732
-3.1406510039493747
-3.841509774045882
-4.136394367527827
-3.994428590554262
-3.7730495043091103
-3.731011310136719
-3.851985844342476
-3.979007156291331
-4.109705553496548
-4.240869451943072
-4.07152229658967
-3.445063104472051
-2.4901803402283194
-1.3813345653352627
-0.5719047088454009
-0.4658208213055666
-0.9445265750427553
-1.6981869912932557
-2.466655978007933
-2.997581787257515
-3.070515918820103
-2.7623214502316817
-2.3628189243369127
-1.9858330847302126
-1.7220844998778049
-1.7482479080234274
-1.9780227954874312
-2.1887076790464235
-2.2985624674586727
-2.0434325906800157
-1.343373188852704
-0.6088328510775778
-0.0416990866311969
0.29885348967608033
0.31542789728891873
0.0720775466296971
-0.36792861692659057
-0.9278473395962576
-1.3750241142344464
-1.5337179679806212
-1.4553640829546488
-1.2457453354639387
-1.1123695455986808
-1.1563842398627866
-1.337924617621266
-1.6617713500810662
-1.9902505892932214
-2.2466440281145728
-2.4495043334724054
-2.621266306921498
-2.784628834529552
-2.830021278918323
-2.6903533792758783
-2.493292263605267
-2.2426505107718753
-1.8345102320989193
-1.3869865096815026
-0.9688408378991162
-0.6566615220334795
-0.4995976445478394
-0.48075335194666363
-0.7422403616244759
-1.175149648544705
-1.6346594941589292
-2.0580388524161264
-2.319797505353656
-2.408129538666617
-2.343381083550916
-2.292619121617114
-2.3595416044716093
-2.5833643046467953
-2.9786885149667697
-3.4821343630844077
-4.042264293973215
-4.49200311913563
-4.743934125580026
-4.729765838943587
-4.461933204976073
-4.121994123278686
-3.8655557334501403
-3.7723520689060623
-3.7369065775738193
-3.95044665705715
-4.365747440543831
-4.488594667639687
-4.3791427977809985
-4.112807443124506
-3.8044997885724468
-3.5343151448892955
-3.2751865961963555
-3.043849915231382
-2.669314153126196
-2.4175125027909714
-2.2835897642430125
-2.13130246760944
-2.125736298405051
-2.0882467630056665
-1.9394052906746484
-1.6565601407891608
-1.1991740419522638
-0.7178895908219073
-0.4454664990292981
-0.5986296789290789
-1.046406595025978
-1.600059286018069
-2.1830277503893143
-2.6996244079618923
-3.241519448553153
-3.845093027469001
-4.4405581720672
-4.969432449010987
-5.334996640804181
-5.526159548818244
-5.5059475867762115
-5.158406527701939
-4.757010138113331
-4.575993770482868
-4.483134782940557
-4.51195816431372
-4.646185812627432
-4.764231693275913
-4.869946786851497
-4.863000870983633
-4.667714319337036
-4.373101299021587
-4.196179669280954
-4.188018802346723
-4.2169695551829545
-4.313388798507854
-4.460091305038348
-4.481944635318543
-4.4536701320752385
-4.300179267152702
-3.7813266360695272
-3.112682841645136
-2.4845893424252616
-2.0128271658918346
-1.7317870336805692
-1.5544000230335577
-1.6830575615846868
-2.0052926721092654
-2.1796505682813394
-1.9847576783690781
-1.312045380672319
-0.6359738673187684
-0.36528255685445193
-0.3581616294304899
-0.5628363058064835
-1.0712644242593454
-1.590312013346251
-1.793947368332273
-2.0010793097791915
-2.2692509135702377
-2.1246625079132624
-1.8400970004152137
-1.838475943166289
-1.8067140334322311
-1.9280814976687912
-2.512318499170089
-2.9989215099923565
-3.2954254453383562
-3.6639154602993877
-4.0152045329065285
-4.350249069176017
-4.547099145715937
-4.388766364301002
-4.028232363539599
-3.8029449832449966
-3.5196416069944183
-3.166349160742621
-3.2108190585805936
-3.5666020236973393
-4.017341369640596
-4.39738608131606
-4.403005912884098
-3.9895701293493975
-3.3537635394872973
-2.7039908927247978
-2.1815416860111454
-1.9724326993271148
-1.879574130349262
-1.8498496222509544
-2.0811763643040946
-2.1903103274070004
-2.213547362508618
-2.3772251492175727
-2.3830389979483826
-2.1263022070280777
-1.7460490802945197
-1.5044569133651713
-1.514577889819518
-1.5626108251203943
-1.666550403096635
-2.0227319699145507
-2.4448329752846165
-2.7892065800502026
-3.1356118564761646
-3.4350184332293705
-3.6590375697256974
-3.7445173403138527
-3.5932294759997316
-3.2690889144753195
-2.862386069723693
-2.5887463158918376
-2.6986521134540866
-3.1373500167211166
-3.5605204986107584
-3.699966179570803
-3.6059857445630987
-3.2181084138873706
-2.6850514913654595
-2.4524572302487675
-2.5299972931737726
-2.745723922788866
-2.965260428268243
-3.0022892516288993
-2.7975143478658113
-2.4356249089417044
-2.016765334166096
-1.5183592353966302
-1.0263171904563362
-0.810831731040869
-0.7476001742261534
-0.6365407091756807
-0.5939764421056994
-0.5387249916175396
-0.3701413137109518
-0.2537708568711536
-0.2939939682998614
-0.3430143918892529
-0.33013254884913534
-0.364631359135145
-0.5645261111635966
-0.9455900362232802
-1.4826201626386095
-2.1614355172282718
-2.70040849388852
-2.9336024003577394
-3.0108453496561807
-2.9991542155923923
-2.9138609347590676
-2.7175389530521086
-2.3869857106661296
-2.1759131037916846
-2.238754543193859
-2.46723061788219
-2.746191537964212
-2.752286040114554
-2.3730291018121172
-1.8961383561285734
-1.4694988010790426
-1.116893484572965
-0.7615103991819969
-0.4300727328409545
-0.3265441801715696
-0.42178516780754594
-0.5627920982172199
-0.6131796993578824
-0.5483507677131987
-0.4978280850267674
-0.5697641126002324
-0.8834512987749162
-1.3536693592884586
-1.6793344909230528
-1.6663225431017235
-1.4485440751594731
-1.3412329774847263
-1.4171244480412564
-1.6647184441799663
-2.121374557464884
-2.696707891524416
-3.244008462666416
-3.6529627917131933
-3.837862156200388
-3.7507712223040444
-3.461327255496301
-3.0568040801484
-2.542822190407697
-2.0506299673729407
-1.7165812576238428
-1.6637060283000393
-1.9858972459863409
-2.4484723707394727
-2.847025144433149
-3.097142604878717
-3.135060160506156
-3.054195184355098
-2.858110213328299
-2.524104912037863
-2.131767581844267
-1.7197657351870963
-1.3682937041266208
-1.1646292500700146
-1.0934892659075282
-1.0480585076255111
-1.0460911725280435
-1.1364746548464375
-1.173507963709833
-1.1781552087413094
-1.1527059866819482
-0.9807366529108655
-0.7844029267568744
-0.723838028512036
-0.8638303286943534
-1.1542034038730393
-1.433366575082925
-1.605237048949576
-1.6252906001342027
-1.4706788024453936
-1.2153331804817085
-0.9388117202212739
-0.7042222472304405
-0.5955851139053276
-0.6072589198291208
-0.6980941325038197
-0.893061363202938
-1.2869617973445961
-1.882254951788244
-2.506862748704274
-3.049834547854906
-3.418774567488381
-3.5394026189303345
-3.419221311842717
-3.0689173985329643
-2.595227383750273
-2.113457555949904
-1.8034092797484542
-1.75417007630739
-1.7522900045084657
-1.6940591688279267
-1.5508798711098193
-1.2669580170070356
-0.9607599647054489
-0.7838857834591394
-0.7977193811078112
-1.0060381088821106
-1.4285028112240044
-2.023395284135329
-2.5616397788466827
-2.8152832808514257
-2.7395674607226383
-2.3890708459624754
-1.9299632508085958
-1.4987850744265256
-1.0498413049215443
-0.6459126633511945
-0.3553064717644636
-0.12626506440077703
-0.03804330549990747
-0.09320716061864083
-0.18307141528408574
-0.3986217979428818
-0.7789945706836228
-1.1337233684854167
-1.3664528694403026
-1.5047827014151283
-1.5013950867661887
-1.299569454720779
-0.947841646320165
-0.5525579190026192
-0.18335908678974588
0.11675825911907077
0.2657786744486622
0.28037494549782666
0.23474023723281434
0.15441887403541502
0.10074396558287248
0.11053267531040512
0.1947143560750378
0.311050384068774
0.42821730699444005
0.5469762035065233
0.6919779706292017
1.0028109717921534
1.4451279233803398
1.806835502511775
2.00429374562901
2.132094821257699
2.2433473145452623
2.3075558342591274
2.39765147148031
2.498704732299857
2.5860104700730897
2.7541657687181966
2.997195670706863
3.205628772296729
3.240532346491957
3.03418470136568
2.625300819436856
2.1738401473650026
1.9547758994669022
2.1220455876288553
2.6620508894537496
3.506229472452493
4.466354970509668
5.297171080961087
5.800465172960353
5.8346312919405
5.419889549748968
4.7976080628247235
4.275993630303277
4.019200683679325
3.985974502368072
4.041580056571713
4.142698058589821
4.344754671958623
4.693743546204165
5.196964354686635
5.816303029025622
6.527133513549905
7.271400287019256
7.860407788363032
8.214136943869764
8.37277979727072
8.328880474150878
8.1098108465253
7.70524122256701
7.1845260525555545
6.73133900524493
6.369385865911839
6.0782837319882
5.8580007363173925
5.671000675700657
5.551988007916955
5.539054188059689
5.577308814247875
5.517492680095956
5.236999847803586
4.834853537008126
4.513865672524821
4.337530392995469
4.34340041442722
4.52023559777397
4.669667154137479
4.70835649856706
4.673479892851467
4.568878448269727
4.426798929060333
4.2702567929446875
4.114563802641345
3.9935481065191567
3.8671751770910534
3.5780613457176913
3.140674471669227
2.7282326646214488
2.4315814472110238
2.3338623175447197
2.473265311667527
2.744632381217709
2.9865147485127794
3.1564088822058896
3.325475918077089
3.4608802380738646
3.4795889296694478
3.4274543159999564
3.3739078790860613
3.3494219925081365
3.4177865175181217
3.6618490382985
4.117711905240048
4.798079115659366
5.583626435167307
6.208016672210869
6.504464584088458
6.507069958742705
6.393698978149329
6.212958176208791
5.971502164322662
5.809284797312564
5.808895784736393
5.951935142294082
6.11339631269361
6.129495977199199
5.96959758696639
5.796947105269233
5.7292380814004975
5.73105977463005
5.722559948919744
5.6283342176101
5.509681140632647
5.410784659667081
5.320415668842549
5.296463502717034
5.284465935221725
5.238730531552758
5.207791735771033
5.15987977572184
5.066221497112152
4.80136243922312
4.246637236097289
3.5674746150514665
2.933099216496045
2.520103358260222
2.457533078834452
2.5174005851420596
2.4940525999111847
2.3966899556255137
2.178838619186885
1.815922993887637
1.4214785615445993
1.117890718348098
0.9631512434897096
0.9367640429093111
0.8897832888526573
0.64229996473283
0.11451915076613185
-0.5771925452190867
-1.1900720700176581
-1.6144551744924844
-1.7831141217082973
-1.6557184267589935
-1.3912064502030606
-1.1586072685200737
-1.0210760093274662
-1.0094021515257845
-1.1344342431486647
-1.3014529317807049
-1.3604908006230063
-1.3556205862159072
-1.3703884116294482
-1.3631432134582084
-1.39567752285177
-1.523764006674335
-1.6819586906744448
-1.8315212141643131
-1.8606179798749225
-1.679687232167413
-1.3451773367219155
-0.9038683542331797
-0.46836268518156177
-0.19970181039289608
-0.19758313483267945
-0.46534222551183957
-0.9216395906078222
-1.4372189771224995
-1.765363607308333
-1.7771625080697635
-1.5043570821656365
-0.99884393745648
-0.43476020248141495
-0.07602792912515954
-0.12829485569696977
-0.5186310492242926
-1.0054012920225661
-1.383078245694584
-1.4584144296814336
-1.106263763831675
-0.30769207230682305
0.7403917653571048
1.69155249596907
2.1291438623481835
1.8373905651803828
1.119614903639801
0.32833642474954106
-0.22424029922587418
-0.3669771462576978
-0.3813264669359897
-0.3694078564902338
-0.31250513693855814
-0.4408511748148995
-0.7139886547913669
-0.9005033990528898
-0.9747369845339307
-1.0388822344686552
-1.1741354477292993
-1.3078229143855191
-1.2795754260413958
-0.9524855004251086
-0.3824230832458892
0.17717667467048917
0.5882312675631788
0.8248516723444359
0.8489479636515401
0.5657693462683582
0.018584932752889752
-0.5441749035245066
-0.9673607518216654
-1.083494247587334
-0.8109437747326391
-0.3067678963125195
0.2715217111867119
0.7617266939493421
1.0927661944052212
1.269069812465161
1.175008789868742
0.8208244771186946
0.3916743262638361
0.02635217691384274
-0.1166249603616555
-0.030399074560026048
0.09989167114418523
0.10924118028348082
-0.10402206572347769
-0.47444065119944506
-0.9220676572758423
-1.3739861100893442
-1.70255948412101
-1.8506041721267474
-1.8157088941197697
-1.6901754068788695
-1.5706495301139742
-1.4511735799514456
-1.2968623347782937
-1.1052587605480395
-0.9129710781649226
-0.782149829010279
-0.77609412810192
-0.8683140202711644
-0.9752335779917867
-0.9629744683828982
-0.8156071895713458
-0.7901995088001313
-0.9657630197217839
-1.204299003878565
-1.462091185071948
-1.7346965590508232
-2.0530846093436352
-2.3899358466236382
-2.6157296633058045
-2.6438793081057534
-2.5111266086249238
-2.3139702688548573
-2.0362899314723792
-1.7143361617100006
-1.4613341061276282
-1.2110768113830084
-0.9443212962190917
-0.7992726553698595
-0.826687145444727
-0.9266314516896565
-0.9425461059608761
-0.8424443181367034
-0.7467347898794564
-0.7303135202626644
-0.7242215936326403
-0.6779746680432223
-0.6180470471571092
-0.5394724047239045
-0.4890824672345426
-0.558501921369387
-0.7560488901526925
-1.0015357530635027
-1.2095414707892151
-1.2818125316952222
-1.1619456637460135
-0.9240488734675839
-0.6448111856253745
-0.48900949377778785
-0.569534824576202
-0.7517087376484881
-0.9060945503584388
-0.9472759484946861
-0.845423445065909
-0.7139170327829502
-0.5799918749746892
-0.34515738038417376
-0.06573371443193847
0.1534958738688843
0.3583775095263731
0.6425483865510374
1.0327967528294477
1.4738073720977147
1.8890164845089943
2.2396511304224362
2.5187781544194885
2.75601625366481
2.9483931264740413
2.9866054437566567
2.8572996676366125
2.691986635286193
2.5404382435061197
2.359324757570862
2.1495892558666894
1.987707079344232
1.95705734424163
2.079117413081953
2.3085699692647568
2.501910947200607
2.48725815043672
2.2417682611606953
1.8312146909010523
1.3613243452277548
1.0276481645777713
0.9402702578071918
0.9830205124846818
1.0457277461390677
1.1868386948160665
1.402545169150681
1.6900225230580423
2.0907433505732973
2.456027672672081
2.645191744789295
2.6377904280463245
2.436575322780225
2.197025164643435
2.1039770676595184
2.1184604606897373
