AAD_Filtered_TADAS_FILE
AAD_BASELINE_CORRECTION: BASELINE REMOVED
AAD_FILTER_TYPE: BUTTERWORTH
AAD_FILTER_ORDER: 1
AAD_LOW_CUT_FREQUENCY_HZ: 0.025
AAD_HIGH_CUT_FREQUENCY_HZ: 40.0
EVENT_NAME: 202302060117
EVENT_ID: 13194
EVENT_DATE_YYYYMMDD: 2023/02/06
EVENT_TIME_HHMMSS: 01:17:32.00000
EVENT_LATITUDE_DEGREE: 37.288
EVENT_LONGITUDE_DEGREE: 37.043
EVENT_DEPTH_KM: 8.6
HYPOCENTER_REFERENCE: AFAD
MAGNITUDE_W: 7.7
MAGNITUDE_W_REFERENCE: AFAD
MAGNITUDE_L: 
MAGNITUDE_L_REFERENCE: 
FOCAL_MECHANISM: 
NETWORK: TK
STATION_CODE: 3146
STATION_NAME: 
STATION_LATITUDE_DEGREE: 36.490758
STATION_LONGITUDE_DEGREE: 36.226952
STATION_ELEVATION_M: 698.0
LOCATION: Kahramanmaras_Pazarck_Turkiye
SENSOR_DEPTH_M: 
VS30_M/S: None
SITE_CLASSIFICATION_EC8: unknown
MORPHOLOGIC_CLASSIFICATION: 
EPICENTRAL_DISTANCE_KM: 114.57
EARTHQUAKE_BACKAZIMUTH_DEGREE: 
DATE_TIME_FIRST_SAMPLE_YYYYMMDD_HHMMSS: 2023/02/06 01:17:31.7947850
DATE_TIME_FIRST_SAMPLE_PRECISION: millisecond
SAMPLING_INTERVAL_S: 0.01
NDATA: 8582
DURATION_S: 
STREAM: HNZ
UNITS: cm/s^2
INSTRUMENT: sensor = ACEBOX/SARA | digitizer = 
INSTRUMENT_ANALOG/DIGITAL: 
INSTRUMENTAL_FREQUENCY_HZ: 
INSTRUMENTAL_DAMPING: 
FULL_SCALE_G: 
N_BIT_DIGITAL_CONVERTER: 
PGA_CM/S^2: 341.394
TIME_PGA_S: 
BASELINE_CORRECTION: BASELINE REMOVED
FILTER_TYPE: BUTTERWORTH
FILTER_ORDER: 
LOW_CUT_FREQUENCY_HZ: 
HIGH_CUT_FREQUENCY_HZ: 
LATE/NORMAL_TRIGGERED: 
DATABASE_VERSION: 
HEADER_FORMAT: DYNA 1.2
DATA_TYPE: Acceleration
PROCESSING: Automatic Paolucci et al., 2011
DATA_TIMESTAMP_YYYYMMDD_HHMMSS: 
DATA_LICENSE: U (unknown license)
DATA_CITATION: Turkish Accelerometric Archive v 1.0 - Disaster And Emergency Management Presidency, Earthquake Department
DATA_CREATOR: AFAD
ORIGINAL_DATA_MEDIATOR_CITATION: : AFAD - Disaster And Emergency Management Presidency
ORIGINAL_DATA_MEDIATOR: AFAD PROCESS SERVICE
ORIGINAL_DATA_CREATOR_CITATION: AFAD PROCESS SERVICE
ORIGINAL_DATA_CREATOR: network: TK
USER1: GuestUser
USER2: 
USER3: 
USER4: 
[...]
10.434264231558176
53.67292040693338
31.80866409470927
-3.300031780792797
-2.4889319544147845
26.32581160526166
33.79835611219372
0.9771119468522144
-23.936225364331115
6.484851182514469
45.92333170073251
30.468172132325464
16.47192306442698
18.40569936963109
-9.32192061742541
0.27663365975528686
40.40344403773257
51.57337445123926
96.08521713048555
123.36386317170265
66.10062953975442
43.91715579296699
38.63820861698939
-30.420168051457463
-31.750303952869487
28.10238254511962
-14.35165247106721
-71.03606878631659
0.34393666367585884
93.82967669131828
87.26068689744498
19.8609555363083
-41.47490059254697
-61.855008897460024
-28.45915619876205
25.120001603269635
30.89238752043322
-36.81467107565667
-57.049419256840245
-12.59205656824707
-42.545787198481776
-15.923492045924794
88.06284770541512
26.416542760077622
-48.4491899734584
20.863461000559887
100.4453760498863
151.14367794960285
107.72047456509956
38.89960296429338
83.98076976397226
89.26501572193543
9.511437391572702
0.7521217794594679
72.91145992969817
79.63825577860312
-34.734581953097745
-70.02057755142124
9.3734241917268
-5.914255349267096
-46.51156392165712
21.4313302321578
54.51585101339547
-17.988476850544558
-70.94665480166621
-38.127265491607425
50.4622464843506
112.72552001944479
58.72067231447884
-60.08237071682449
-135.9227508241571
-139.2825195915552
-64.23794280823704
-9.097843493523216
-82.10222741511885
-173.6891829768011
-152.32619281840653
-49.82382915742405
48.18295058705747
66.23413730572553
-4.21456028399021
-57.85573269437511
-4.428983502775505
116.83524701106275
174.76258921934163
101.45649472375804
22.429580145711412
24.283087812682513
30.105884903808274
42.661094217417435
46.8022584943178
-15.925286523044349
-75.82416828140009
-111.03940210663876
-100.67258831598927
-7.822353825907298
60.703941073189746
70.88021413894242
63.855857492122816
59.93300999008538
89.47985934063418
73.61443863750401
3.4411346087246817
-0.7382088938249505
53.56074568391565
74.92581737886026
24.880121725539166
-35.99530568724169
-49.420754478318145
-34.32811549140528
22.152057580333796
64.52434299555004
14.928744322378941
-30.460555373015477
-19.144227385696347
-9.086248739071996
-3.248478118389313
-5.472967620668919
5.402289509612667
42.52671488922127
16.191514841355986
-30.79231026246313
1.8533432968058252
-21.323446849743398
-134.51541205893673
-154.58491009037084
-85.27416754384527
-26.741760680083864
28.89526965016963
61.583660232881286
38.06051720443969
-0.4571528664904647
-21.087339252253578
-25.100396493266434
26.241929467690184
110.45390714415343
105.72821869465997
21.80456310149462
-32.94271289991586
-59.91117830999214
-69.54952636053089
-15.263223839924713
33.84308658328308
-11.220746188439001
-52.467150227915624
-42.90991871723717
-33.54335297135223
20.02464499905912
72.00223929416164
64.00102684833529
54.05562707803888
43.565004048295606
80.00835293532374
160.33511402823984
156.3006200786902
75.68592757326275
-5.118282916506467
-16.003373754698668
28.64696805470526
26.31927099955176
31.12335032985589
45.12795798897746
4.223013279392646
0.2882646302383729
17.853118770036648
38.56689976318262
127.59634188343578
178.38437638473093
146.49791938067577
84.42259429393573
-12.787819091830734
-80.97554422196596
-101.05339529132192
-89.61767023212458
-21.855284700447534
21.263910006115104
-9.942947368604774
-57.44366012672668
-76.22384484871309
-41.763851296698604
-10.516928593618967
-21.080780461773493
-18.687688944552963
-10.264573071716795
6.421886571102627
48.49780222089254
55.084068831859234
57.88041374500298
101.07187857620309
109.88511268195795
77.54708932936778
44.20713818911429
27.786411643235834
29.30111217444546
-20.962605594370924
-100.90809122610446
-111.82895341410097
-85.10873073529011
-74.15672748556197
-60.080875698100755
-11.062721974166495
35.1546122945089
-6.401266938865538
-61.30932574061096
-40.60446236956241
-34.72705799879215
-45.70450508055285
-7.90122374441641
31.80389534424514
65.08824730996082
92.56579349855987
64.7211814157553
-0.24189487212314884
-48.72433229848008
-58.773129166772236
-39.413038795716965
-7.827763603527594
-6.613097992303976
-73.4819040061449
-128.92682223452866
-101.06214123491601
-31.468948286309203
8.205796873383287
-35.97016303981636
-77.75948732330971
-11.542399071953461
78.06132649226907
96.21703798767521
22.384903684585325
-94.58691665444952
-104.27131870020351
-0.4558965059890163
33.40683808781236
-57.108644602242535
-161.74542915869864
-207.2074857016437
-173.95277188314256
-98.03842256053933
-58.32185872373943
-45.540823703927394
-16.718766475412316
48.379995171195226
137.8341042569669
130.8545478782375
42.93505347487104
55.79472515230963
129.6698367334395
129.08715570948763
86.21411744891056
52.81823419078906
49.69743689002249
85.36960845851839
107.1047253568523
81.80113316728573
32.20162397714052
-1.952476243389106
7.66765522385365
22.002738566964805
-0.3376012504292405
-52.30142611639884
-85.79795693129292
-22.833964656426595
66.20684270639173
49.52995365421134
-33.918167366568866
-102.63667783737094
-106.6011341538529
-68.6585691966265
-80.98183076936323
-101.6207738129253
-56.922921782577475
2.224454851710918
19.219399828583537
-8.43176221180449
-57.6333315009759
-102.26750922013512
-111.00882941207485
-76.4802318075736
-43.62894896113534
-49.49609189541157
-70.5355144472801
-76.32476264948374
-104.87017588011226
-153.26108409320358
-147.45583798404996
-76.47473756231848
25.558999676014647
63.140565536448804
-6.346340913754101
-39.19331188796053
5.366246358496132
43.275691635308974
60.79950344387467
39.60084100353185
3.401790061178427
-25.66533362554869
-75.49471038869699
-69.00895540811207
-5.2858604857560545
-17.392083314618894
-65.33052270390233
-39.34701573260969
20.571729478731367
44.434636312642255
4.909339795787607
-81.71093816958644
-132.509522517863
-108.63689958941815
-64.1904651214172
-11.649759858884089
69.2353678845614
100.37910518633478
40.74332874210649
26.0497430248106
90.53415398219151
88.56141265842567
60.25970803931662
119.38559268608995
146.59665245513597
86.73350422390071
29.310354556663036
-63.29018414242733
-154.16954360359392
-83.81076236280884
51.613044397441975
74.6121070066583
71.90050948999414
117.51604294897993
118.77755222991993
69.46214401566436
62.513260934936234
111.92259825213397
110.67784821768149
28.073681187234502
-6.410974198774823
36.663233856874015
80.14304553532622
70.2836913787785
-26.955373816280638
-118.95506377945809
-123.20249426859596
-62.01592625349448
63.98843603621003
145.79901036103539
79.77004037290057
-30.06411052718198
-78.43410539711579
-41.051843127834026
40.58439195090109
55.50503304765164
-9.191970174486787
-51.837174651177534
-40.3000420293041
-1.105904548528275
82.55056938885606
137.00602833492724
47.93242369310328
-63.48764408300018
-20.109188036479114
113.46972428167815
167.8221673398665
107.61547781823766
38.587012530637416
44.03796436711779
76.3347636100845
30.11150974635407
-36.26206132336552
15.157844088727462
89.68954949594888
76.20451465537197
32.33792894185368
-10.862024425630201
-6.512390717343586
50.263215668848304
57.70337814275135
23.69271560826624
15.07105046719566
-1.1020122496197902
-63.4983783193882
-94.90109840064335
-31.691391034382992
33.919489619660226
21.593395900439095
-57.69685397460588
-133.71830622593157
-116.78637449286738
-74.94249743111183
-83.85221354536152
-83.14170046747104
-86.44285096768898
-104.41897831372685
-97.30435027955451
-104.70809550269531
-124.92975080032922
-123.62144935515309
-85.85884360308275
5.631499615407339
66.31778261393923
43.92654342109235
17.901763331416284
13.553415065444236
0.8565252824436925
-0.9424154269619647
24.28281307925947
16.071479585699365
-15.961553587763913
27.258586618988176
50.629960603295046
-46.778710294005776
-112.92317694561599
-71.4157221277463
0.7969660204715162
33.16754058913072
-27.787742016139212
-91.50014085639806
-75.0409231611343
-64.30902176217374
-53.56991164380382
-12.642352612554498
1.5123967786006438
15.804998163253195
14.241703525912065
-25.977419012445807
-32.82059478389579
-23.389826158145254
7.511638429288442
66.15242116564552
62.84161607435252
57.19071888434278
98.95273085368682
80.72010644799983
18.183108573125644
6.85766641587284
41.86077438814377
67.91817302010281
58.07506741546001
10.311819397996205
-66.71760985445121
-94.12886169863752
-32.21613325180533
30.62651008068787
68.56624653093147
76.29329989424254
9.109131037022278
-49.06695833019815
-54.01729686319263
-48.981165357573715
20.260179190340708
96.3520086297049
52.53010289755093
-26.478679393500553
-18.10228263650085
65.81077197554389
110.8802426687637
62.27148437946752
19.91621220050853
1.4175057751049194
-15.925362994537284
18.958879738870934
48.58879906611252
55.468671719760714
77.82710305350588
60.49718141267911
44.76390097917498
50.44573742533341
29.89169815916552
33.24854324317322
23.22567231072889
-19.265221086509516
-24.48689544592027
-32.998434870312494
-51.93139170304434
-56.48577911095251
-40.95735661435
-3.3885975463281808
-31.40086486506569
-81.54339544834129
-57.01421288573173
-24.839182546825736
-8.215940660669999
-39.23042279691526
-123.58107682031144
-147.68587115300747
-145.12712415917574
-131.23449759985255
-40.811955886196834
-0.2408233064196857
-31.89540629844678
-0.4504379980599581
47.41961692793883
55.87528353557313
61.546521614162664
39.92230494053914
-1.0426817568494602
-8.777679765805154
19.53561403419092
42.44273599467304
-15.077585013795085
-92.7222533648833
-40.33599384339972
33.60322441780581
11.209101951497088
25.235127089874968
62.23549980921133
24.202917992452004
-7.4919500534056
10.61001674371518
48.86184522927721
27.647521284718476
-98.65158691851025
-158.2621043816257
-91.73061279993551
-50.312122047975585
-50.01099542507899
-52.02670748342171
-42.294916623283136
14.69957327143373
56.17851364996852
32.8855123523839
-20.721544283104134
-92.42829358374524
-95.17945667374597
28.464150926232858
99.18915511205564
14.745707339875226
-51.31010932919818
-7.41717726506826
55.63394486830419
82.01151352746572
41.926030098234385
-9.061455132721736
47.170912151773166
104.11350335685914
72.92946432019352
44.94608406361914
-20.207259448434037
-78.62905563453943
-26.784226732156682
11.375335870689216
-31.284420269942416
-106.98791546621875
-102.68413466014545
-7.892082817746085
-5.7592340719962785
-69.50463568217029
-200.00948718244055
-323.5666065016465
-108.63698303632104
140.6627374999493
89.37611463118152
44.276020240659854
22.568698785873725
-1.5984783563581115
61.29319498500714
20.584346433605862
-20.63455092150811
79.3591763296256
143.538959292765
137.03803082579034
49.416162814132456
-71.69011114632299
-29.245255319909788
136.79983338493335
198.451285754741
64.52883522207738
-81.99276242553393
-48.71704541882406
60.56604507605557
70.49098551955584
-18.36258394031969
-50.973583159236156
0.6318628116250071
-7.00262487834633
-55.46444279565135
-93.33281496929479
-78.19282506619673
25.418099983641344
15.143239069765887
-82.04620020188581
-44.14169632813588
-7.259996065976404
-62.34146424315789
-90.6868389530886
-59.57193511969115
-4.130914583568414
9.63243882258405
4.269812232560218
49.56315743789366
118.97731954847835
146.79285687044174
84.82930273617832
-18.33378138309577
-85.0021720322917
-88.02510812602408
-0.9631113607333697
96.4642882313577
72.46474807214466
-36.238481168088974
-54.76674090400199
73.4652057174925
167.31154661376073
130.08476669763138
81.65647140736652
72.7773025057326
91.98962937551724
113.69655399459377
86.39298944974645
72.87221970747467
71.59808168955108
1.4111489788708331
-62.04372727295289
-80.83084270281138
-69.07854569041604
-45.62831902782576
-127.64332818492933
-202.04315536928354
-111.87389752138078
-42.68455359325811
-97.01776499543321
-148.55556480290437
-80.68826967513023
76.12592528455598
136.27227658934652
91.58860270991599
54.389871832970876
32.49254885215395
61.26837576722027
99.17605784095889
84.72481159655405
66.36433860700807
34.48889395688866
50.24184928261584
116.04265817972824
-1.7935292616723886
-201.1838356566776
-143.3845959357422
61.839957873902314
131.90503623862733
47.92844018771265
-26.24462018957799
-6.274026300281554
-28.820196802842187
-50.412414125997124
123.47426892027926
255.4609078430254
64.0181432767232
-198.03418254813033
-204.80927350772026
8.359399724234056
220.93856020826578
210.04127861791642
28.740571471078134
-9.132778661169796
47.39023645986556
25.02514621810733
89.82531138691697
123.88445055597197
-101.97054225390427
-254.8294927626506
-58.84149988045349
235.77303753270328
271.90022786766
-32.365216604085596
-296.238959117136
-124.58705464577295
214.08445324636548
247.53813933879434
45.73460341982135
-99.51899635735275
-226.92256976980468
-336.4407124305045
-86.19620171585784
248.93356582837436
53.91057392923186
-176.92988840928535
7.7269665446988505
84.38038421798936
-8.711585324813237
46.211581659608136
122.97198048859617
64.62998538772486
-109.31940821739134
-231.19170192651453
-82.6099423138066
184.8051817400025
159.4212139561687
-123.01061780877123
-249.6518776098226
-164.68043172024406
-66.59559446760909
-10.198037765829385
-5.518228706274559
-44.94905983796194
-94.780270654579
-100.89026162975225
23.62287474619593
202.06709400350854
190.07208351533987
-13.645006673669668
-68.42589579884162
136.8102859881494
288.3935002702951
186.38768583706508
-13.131005066769838
-55.74544365860522
42.29884109132546
46.9553462783318
-48.86949187361454
-129.48704719218395
-154.78726567084414
-76.36544504811427
8.840756537063376
-24.06661694213857
-113.92104721467021
-138.6423960120101
-36.133372587185164
100.66667107272265
140.3457749897293
69.57642317624658
-27.678946747362335
-18.04877912076748
77.90689984193465
99.97780844116348
6.468152168936397
-79.78756262834757
-37.475363120666394
23.239968287352177
-46.64626794361487
-136.04852748110542
-110.44862145551343
-17.001415573432478
-2.183358995370871
-119.87417756200351
-203.3858724369961
-112.32247327097403
51.66892135998784
105.99260301307508
26.3348037341554
-59.89414952687725
-79.57043874403307
-16.598796868086033
105.04470653495746
124.32319872231848
14.017552050283475
-12.144449743568277
59.59297364581792
66.77313925357191
9.215714143622613
-56.209675139528834
-73.63168202038891
-19.605993655458057
15.320539782541143
28.401464556064493
51.75001331185086
12.228788345346778
-67.2715230756789
-65.73579018244676
32.54452330932022
106.1802062731538
85.23104579271306
6.473449509881179
-76.220827346627
-59.80752255898955
1.1799085939231402
-18.347443380081565
26.601763431589738
132.29927548828383
113.80252074901891
71.52892069257828
51.641995663844234
-87.24561451621408
-216.33590508676977
-92.28981212024847
109.19519244120632
37.974341800992235
-165.6269659753329
-160.6583717754108
-16.497568722403525
73.8598481843125
92.78639985610953
67.67728104059123
102.42155893618032
184.48120507649503
108.9694060806436
17.059707325081696
123.35106143644049
149.2828446748153
-30.99028911241048
-194.56638754820833
-238.3224271193644
-81.48018740440064
155.07859586604027
119.17090760782031
-146.30654751429796
-223.44081694202475
-3.2127696764457085
146.68551512708984
62.99385059588655
-5.3785085080083235
9.841477161067575
47.74472523120174
119.87508328141406
140.45553416897096
127.25220743134062
67.77648143362252
-191.7653486648556
-315.0362493865529
41.06511922152817
315.93844907345226
102.82160827868033
-155.715083002026
-184.2237331384484
-76.50928147596714
36.74745765597781
3.234924770539786
-67.32546828307727
-23.513761616272895
44.340433981391996
82.94830002645853
70.15188604923013
-11.196186340747268
-75.2510967839525
-58.976435734715146
38.738311014081745
164.52999622276522
161.2138577503932
-36.70634640817169
-189.39229513067068
-119.07248091537537
4.317213673160759
74.78543468123945
133.98884330097644
88.59660464515615
-60.132489019700834
-71.15535950986421
56.65947850462868
56.10625649989005
-35.54807796460935
-61.3197223740082
-70.61511112123648
-70.23464659737705
-69.0785790453194
-34.08970965704713
74.14045249019033
63.417764269798866
-44.69424477415602
-19.920990964685142
73.61705616861437
111.90235445137668
83.00663104614618
-14.76408350259681
-84.09232070339993
-42.881866098169006
9.725057735924405
-3.8251528468776774
-0.39511792054046035
41.01173786199755
48.90264967228596
18.514586588692787
9.763323385863044
65.99878941872814
72.39644357144569
-66.54600327317426
-150.92892494096657
-40.470412459569616
86.86409695226688
73.97692511817357
-13.90364639885951
-41.13005227941515
-23.863908340801842
-56.83733280431534
-43.8874202820777
89.0917255650207
150.79098136784813
62.8259945519439
3.057629475478523
21.26824864342489
-19.54872778294667
-119.06080829474647
-101.04609053447051
14.84402100493314
10.028857234213811
-69.22013116150092
-42.86592692932249
13.543090465084514
13.680744005162008
-27.704451628088478
-126.5534328663303
-174.7452107858768
-83.55881915301693
6.316661313838011
-3.399649878215523
-63.448603902340736
-116.00380708804977
-99.56363829539434
1.5932485309965811
91.36153373938505
82.04888967314379
44.76238478218606
57.57250127838908
31.327111228262723
-30.976441258359067
4.306622773488196
61.87430650391956
38.33401951894878
28.476429940851563
56.502000484758746
53.12582854515779
7.636503095882362
-49.19309259614943
-52.653856824080066
15.950242414483833
81.5818910248128
63.253451926873055
-21.69865408799113
-76.52991699062109
-71.49050316156796
-50.49382032163411
-58.7319144854684
-53.429224656498896
33.08647441996026
80.41751214968208
12.429013024437547
-92.31437444801993
-162.2464607898557
-46.86373638367049
137.5103304227077
78.25173556356343
-79.21651030202122
-120.29100484885798
-85.26165557991466
31.007247122779226
129.85125339185763
69.83628473701332
-59.66609954817059
-100.39745758355426
-13.72203192044729
104.12892677633833
121.19535358618941
43.52641095226635
-4.4066338634602085
38.51908551599794
98.10693462548483
36.011690292120576
-72.02153581268081
-2.2710705414843733
112.90337596931953
86.06787507998484
43.50994274818257
21.728990868435375
-15.68021955374517
-53.443228256886535
-74.84366427037861
-22.06665835953721
-13.9064259804311
-105.40598737581446
-90.52133293528668
20.89962215796141
