AAD_Filtered_TADAS_FILE
AAD_BASELINE_CORRECTION: BASELINE REMOVED
AAD_FILTER_TYPE: BUTTERWORTH
AAD_FILTER_ORDER: 1
AAD_LOW_CUT_FREQUENCY_HZ: 0.025
AAD_HIGH_CUT_FREQUENCY_HZ: 40.0
EVENT_NAME: 202302060117
EVENT_ID: 13194
EVENT_DATE_YYYYMMDD: 2023/02/06
EVENT_TIME_HHMMSS: 01:17:32.00000
EVENT_LATITUDE_DEGREE: 37.288
EVENT_LONGITUDE_DEGREE: 37.043
EVENT_DEPTH_KM: 8.6
HYPOCENTER_REFERENCE: AFAD
MAGNITUDE_W: 7.7
MAGNITUDE_W_REFERENCE: AFAD
MAGNITUDE_L: 
MAGNITUDE_L_REFERENCE: 
FOCAL_MECHANISM: 
NETWORK: TK
STATION_CODE: 0138
STATION_NAME: 
STATION_LATITUDE_DEGREE: 37.704858
STATION_LONGITUDE_DEGREE: 35.723358
STATION_ELEVATION_M: 477.0
LOCATION: Kahramanmaras_Pazarck_Turkiye
SENSOR_DEPTH_M: 
VS30_M/S: None
SITE_CLASSIFICATION_EC8: unknown
MORPHOLOGIC_CLASSIFICATION: 
EPICENTRAL_DISTANCE_KM: 125.31
EARTHQUAKE_BACKAZIMUTH_DEGREE: 
DATE_TIME_FIRST_SAMPLE_YYYYMMDD_HHMMSS: 2023/02/06 01:17:33.6406190
DATE_TIME_FIRST_SAMPLE_PRECISION: millisecond
SAMPLING_INTERVAL_S: 0.01
NDATA: 12501
DURATION_S: 
STREAM: HNE
UNITS: cm/s^2
INSTRUMENT: sensor = ACEBOX/SARA | digitizer = 
INSTRUMENT_ANALOG/DIGITAL: 
INSTRUMENTAL_FREQUENCY_HZ: 
INSTRUMENTAL_DAMPING: 
FULL_SCALE_G: 
N_BIT_DIGITAL_CONVERTER: 
PGA_CM/S^2: 20.874
TIME_PGA_S: 
BASELINE_CORRECTION: BASELINE REMOVED
FILTER_TYPE: BUTTERWORTH
FILTER_ORDER: 
LOW_CUT_FREQUENCY_HZ: 
HIGH_CUT_FREQUENCY_HZ: 
LATE/NORMAL_TRIGGERED: 
DATABASE_VERSION: 
HEADER_FORMAT: DYNA 1.2
DATA_TYPE: Acceleration
PROCESSING: Automatic Paolucci et al., 2011
DATA_TIMESTAMP_YYYYMMDD_HHMMSS: 
DATA_LICENSE: U (unknown license)
DATA_CITATION: Turkish Accelerometric Archive v 1.0 - Disaster And Emergency Management Presidency, Earthquake Department
DATA_CREATOR: AFAD
ORIGINAL_DATA_MEDIATOR_CITATION: : AFAD - Disaster And Emergency Management Presidency
ORIGINAL_DATA_MEDIATOR: AFAD PROCESS SERVICE
ORIGINAL_DATA_CREATOR_CITATION: AFAD PROCESS SERVICE
ORIGINAL_DATA_CREATOR: network: TK
USER1: GuestUser
USER2: 
USER3: 
USER4: 
[...]
-2.6654429383778053
-5.457845238570245
-7.781198141559692
-9.074231689689688
-9.310918710166629
-8.96637903645763
-8.718959360104634
-8.718292544076125
-8.485103228860188
-8.18854796531578
-8.324342258732313
-8.031860851129721
-6.424186448090706
-4.478331743160872
-3.1876689875676556
-2.2502169727087358
-1.5423725171765728
-1.3070259964224247
-1.5653773840257537
-2.5622352597817413
-4.346819019326228
-6.1223048445484745
-7.205522984998458
-7.936890146851366
-8.808772071188294
-9.504144274887546
-9.353350264034782
-8.09407384468574
-6.273930342159851
-4.540524516067227
-2.662896922197681
-0.7133440061077757
0.575860495434292
1.2009374311898187
1.314218745661323
0.9091078156771883
0.3747976522059148
-0.20646294763606193
-0.9374042439596226
-1.7938215370166957
-2.606972793781756
-2.7595043853494334
-2.2191736127717077
-1.436773173988006
-0.3049585780929886
0.9785433360651474
1.9728945179032977
2.7236186984846453
3.264221181337221
3.524552464320893
3.5358357410403896
3.6520517989842487
4.4180744193120205
5.986968572050702
7.949402562959489
9.516250054337089
10.61943332001467
11.851042258528024
12.743555341473824
12.336553039259638
10.667257540086394
8.749943939657909
7.497451963250227
6.512063179329769
5.074874015209701
3.3157121305333876
1.6094770887247374
0.3714938807112785
-0.12489778311143493
0.05836669849419154
0.9689841030816888
2.63811071938053
4.5532782245237255
5.953999416146673
6.541185061166531
6.262536408004575
5.315112248394282
4.396311441220834
3.6441232464253037
2.741272600751769
1.8852601423238515
1.0213890224847044
0.011376187091834697
-0.6006226084993721
-0.7536895893448434
-1.0355563452176049
-1.590016358179994
-2.363931539029918
-3.230736207304324
-3.7253592384467598
-3.5043045731385742
-2.5688386484072603
-1.258065481482191
0.09169617481547232
1.5847258275530656
3.23448891876691
4.499085875023164
4.690393537475066
3.9083633363369543
3.0777268021975965
2.62117878712628
2.4472006201063183
2.690541587891202
3.3966645043123505
4.364477821555297
5.039617706377172
4.981673940696543
4.60856574884964
4.36787012519603
4.248216649842946
4.280671150347847
4.443784552746404
4.546767440170095
4.29864907785676
3.5547911268181585
2.4456470603431404
1.0633964615334865
-0.1980307522355113
-0.8268121627025471
-1.2157523726463089
-1.8918565048579776
-2.527191012451197
-2.701562673187243
-2.4757969947351812
-2.184418078033831
-1.848093701554
-1.13423589075934
-0.2044082196544482
0.5349129329912731
0.9824586071095269
1.0280042600570123
0.6881731549364094
0.03513398665165265
-0.9367406592038247
-1.8857778330250898
-2.517234149090994
-2.8454349898577993
-2.8093227966164354
-2.6413166936559076
-2.77884834608113
-3.144757847239878
-3.402831972892023
-3.3869527706141356
-3.0685037153962003
-2.43154138013334
-1.5470025392164912
-0.844952538723797
-0.48786712376339997
-0.03150108257267085
0.6550961148663982
1.549930107158646
2.942142467173781
4.691274405519129
6.163053726303107
7.017275516510332
7.300207169289944
6.901325150140492
5.818668961588806
4.547388932207045
3.262535305232356
1.860484985509247
0.6151732663279341
-0.27061477658013244
-0.7266249744416218
-0.8876508898186408
-1.2533255219694366
-1.7801679189259119
-1.9684534135759884
-1.8854801823908662
-1.9092589567987228
-2.0067213031546927
-1.9975304151073165
-2.106259370094388
-2.506574393350269
-3.0399878123729636
-3.745163423314776
-4.629366088500743
-5.572970647979058
-6.6387857948612075
-7.542406837223661
-7.768256464041251
-7.363931353292592
-6.802077137331559
-6.302617906952671
-5.634004254818706
-4.754443597853552
-3.6468924374847074
-1.8745791822389513
0.16369455039859243
1.6308968859990098
2.6438506076810904
3.0045581319258097
2.2326078302403656
0.7966570764674561
-0.74155567284583
-2.140001063230694
-3.4044690412663936
-4.72560797265009
-6.020438953714064
-7.361024792740065
-8.60815368457053
-8.994669865610955
-8.363598664820374
-7.247390751578231
-6.176329143292635
-5.563979195751405
-5.18271701309452
-4.53195023558295
-3.716111943827914
-2.8831652161288166
-1.7984906168197756
-0.5804103702794721
0.21601329031156766
0.3238497266352862
-0.12023022199162493
-0.9749225021240816
-2.21658951472772
-3.444391014776465
-3.679098052326028
-2.457131596629788
-0.3562746316536727
1.7373994067747274
3.010284495695426
3.234588598052567
2.803383634963619
1.8941264190461278
0.8483426530133136
0.39309895951074675
0.4997198820817113
0.396364756350516
-0.12247745426183507
-0.5525945632521455
-0.9262945950264493
-1.6766111369080496
-2.4117359007075874
-2.6012338700082083
-2.298003466316006
-1.470316854132141
-0.2685172962556592
0.8697978599795609
1.941767504476555
2.9754553030525326
3.8565152739968007
4.721051373329484
5.2399552613239875
4.811836646596156
3.87085561275247
3.421810472355186
3.7103183526631573
4.100614340731781
3.9881873591825423
3.5088262402662638
3.1150961890737854
2.9741325905739338
3.007042803590833
3.2806911768828915
3.9860507244967254
4.877380194317291
5.649099300518287
6.2653793102058275
6.571637168165439
6.91032570032679
7.771866641436164
8.65186260983711
8.877959363079478
8.132326317164924
6.234140234031654
3.666049032953087
1.4075064214417605
0.13344904387024875
-0.28619128492276086
-0.4759263795176909
-0.8459637116132169
-1.7323559807921989
-3.4068469809380204
-5.611049005291914
-7.738861841865436
-9.500525745861355
-10.865799850163414
-11.228147893418104
-10.312043576395606
-9.200203912287838
-8.503375404189642
-7.836451595811093
-7.167716511004715
-6.528115496132355
-5.635736811341044
-4.200731406207941
-2.2016107720786278
0.06632568449858657
2.0973098670816874
2.9150368363602186
2.3385265669925523
1.76596171070613
1.8924882815766346
2.1693139264738552
2.2399653978690575
1.9850121131119662
1.3973629570708075
0.36008626526444115
-1.167686773102712
-2.2829864854984057
-1.9078955758002984
-0.06189447135784752
2.2737234240158277
4.242837214490122
6.0259836380035185
8.018861175528512
9.926458436533695
11.422868270827209
12.324753366365417
12.484810714769306
12.1396531700009
11.525488451137548
10.632521859069895
9.339249680810072
7.402802172451371
4.989653696046272
2.67580876730042
0.5872859482085089
-1.6651860156251967
-4.304725371403369
-7.031259108549255
-9.36815408134259
-11.1046285686566
-12.19657995785789
-12.571679085867858
-12.402077734018832
-12.250297041787018
-12.334581236862613
-12.36950944569475
-12.316416524641978
-11.908787883188978
-10.569677960471282
-8.902768059851061
-8.017015858193346
-7.752397291401098
-7.621513448932986
-7.676339323240232
-7.697963841177127
-7.46431967747456
-7.284685153276227
-7.3330067490393365
-7.278339385227434
-6.697231346727254
-5.39150574548203
-3.4862332530644653
-1.4186434966496977
0.5422796117175323
2.313145157988713
3.393136637667959
3.532638303728773
3.241019788380305
2.835510298911981
2.3054801030496783
1.5982593894200978
0.45537204376831336
-1.1525903451066557
-2.863579046828628
-4.364345516265388
-5.473105409937978
-6.265773553860841
-6.949966526136672
-7.231670804496427
-6.645733787830651
-5.215264618498482
-3.3332871483889708
-1.533368122380643
0.17634020583776386
2.136311383870363
3.961018761025801
5.360476098391046
6.790529528295233
8.543745404065302
10.529476381572215
12.246243316732354
13.33884342745744
14.215464281562129
14.807294611187096
14.462606872164223
13.516635061959054
12.697396478061446
11.763099809807587
10.297536132197338
8.482055980513902
6.538808642015811
4.712754679343528
3.228209281687546
1.8330944122440316
0.39069363099186893
-1.0459322323724276
-2.803920930366073
-4.883678281012495
-7.081789647746014
-9.7752832874711
-12.864010797209039
-15.479907639418693
-17.243412553200027
-18.327347422967286
-18.91736175401844
-19.039778764227158
-18.534543444513563
-17.23782970830595
-15.036258674302246
-12.09667508411571
-9.051769301281784
-6.420684322282571
-4.021319643016884
-1.4500226734115165
1.0095824028843075
3.047902961880553
5.203225446943363
7.684016996838978
9.986538225546393
11.872554417480217
13.1644168938068
13.447056270991208
12.332602942966048
10.041894191785678
7.551705292031636
5.285955726156775
3.146685822145907
1.6122850382445697
1.0732391604336926
1.2880534293436063
1.6360394894499513
1.5553797993692624
1.2061783383370566
0.9171285332518924
0.4546289772156297
-0.334392389061355
-0.952849358445188
-0.7171850651766243
0.5613470226952323
2.3825755964020927
3.9723536546133955
5.0470388599495335
5.726171892352712
5.84056528564899
5.206022817348451
4.110559348078065
3.0507009228536592
2.1720495374324424
1.3255376423519714
0.6256926539745801
0.06136225039511928
-0.7135614929657278
-1.8059585389445036
-3.3492375575029913
-5.429495598452547
-7.668910599438096
-9.701459509630487
-11.296358943345412
-12.355983310846616
-13.069503371799348
-13.655082507941572
-14.229742214850232
-14.768738754917583
-15.297436349960508
-15.942802868877806
-16.579331200509742
-16.877263661937377
-16.30024197949733
-14.316315822585205
-11.03462873214826
-7.2067134140917
-3.6973906918559933
-0.9009335477983577
1.1526031348955994
2.3749849825200586
2.8675430120909735
2.9299946452633012
2.701384374379555
2.1245652136147015
1.2266013496575943
0.12040310010610975
-1.2273245281002345
-2.726951944111221
-4.352103137439626
-5.960709847105179
-6.5646897497816
-5.742555218395604
-4.404186355276407
-3.108965362084025
-1.727684084703993
-0.18059154628917667
1.4567986160235775
3.006649880356097
4.244828832984095
4.897388090401229
4.870664729021661
4.326936716269026
3.436728206870695
2.4250399811614702
1.4768205531543563
0.7773748496862671
0.8023583916109095
1.6368745196924364
2.5534438966245907
3.187341069121682
3.9721258213763355
5.182315406082113
6.820139778055601
8.930358529546698
11.192123365886006
13.06356153232893
14.242745132782902
14.24983484870745
12.83344701667604
10.746765990103176
8.530294810482609
6.090405660273499
3.8080070672023183
1.9826114880793955
0.465230644119372
-0.6204273621196622
-1.2192625561625656
-1.6688785082641326
-2.2552097264730855
-2.715429905130276
-2.6006716410373043
-2.1063526398086867
-1.466231057933514
-0.667761656274416
-0.1224134204034201
-0.06420212576159233
-0.23206649748768746
-0.49300578080712404
-1.077731931183278
-2.2236650815635537
-3.5650281270301583
-4.920745475162421
-6.656555919091368
-8.473411850085826
-9.912863536026812
-10.87247618429676
-11.133378178478681
-11.058587104894638
-11.244092679184135
-11.481599015597773
-11.312425116188454
-10.855285321811243
-10.491708359729687
-9.948095355103003
-8.955943642207288
-7.998850168655594
-7.211890111690474
-6.2588047164769485
-5.004497476054571
-3.412576615302229
-1.4259920566233442
0.9418852690115785
3.265080594630108
5.189139581706947
6.767586260919225
7.756586456627724
8.063926455719757
7.835281571500847
6.863112072327038
5.315914081378764
3.5516398613492695
1.5679394982894486
-0.2488614615452358
-1.4355568351026344
-2.1685345960998355
-2.506594416056515
-2.120101869696402
-1.2410089615804385
-0.6303762812488113
-0.5985168762275231
-0.9169497304883281
-1.428228758771395
-2.1264352213154556
-2.638873159885096
-2.447836032626114
-1.7397898474277582
-1.099890703016878
-0.7365163182936965
-0.6188724388292922
-0.8595552263834056
-1.4826336370815087
-2.0132888454195523
-2.1073813281653178
-2.1195904805881085
-2.1654756990882786
-1.846196267452787
-1.2264824296105459
-0.6973583164355565
-0.28812744719775674
-0.046029998707249824
-0.2316210951382064
-0.6329119058811894
-0.6928998634593133
-0.4388903797371724
-0.18116006138617496
0.20650238445694596
0.8382445715362569
1.6949422847226012
2.873607149640569
4.289401237588671
5.934295043066301
7.821175741274573
9.418992379925445
10.404203208625994
10.978414108458706
11.090687432327345
10.740688550234527
10.138476087332998
9.197222872245682
8.060817873019543
7.179770148186428
6.3539987682768775
5.033523151925212
3.2882925817925974
1.602551149452279
0.2312528426866317
-0.8720608012310137
-1.81136737694837
-2.511430477682146
-2.6559175842012652
-2.0393305278585308
-0.9411482405268891
0.23681972419977745
1.4938055295414685
2.736373725086938
3.4996118921393005
3.826747649043913
3.9569419939928876
3.5143971343268983
2.4122455520297557
1.0083572568470116
-0.424628429669067
-1.343007182160627
-1.434261482840714
-0.890493006403253
0.20108425617837075
1.9046858901307755
4.335569272584449
7.210497399869602
9.972889948663171
12.4052322674825
14.23007890534003
15.353304708910663
16.010836539013717
16.182025342847595
16.097368803820462
15.970200175101084
15.369244547455258
14.118870134775426
12.42878821707475
10.260407353692928
7.629548930880214
4.954255822098312
2.5501992608968274
0.13823165534995946
-2.6172168375212954
-5.513117194806703
-8.242203302018739
-10.967121516218311
-13.898081132106007
-16.705675814104914
-18.952846538278113
-20.403271558957982
-20.835320150306025
-20.117581570281537
-18.12527477045933
-15.008112233800466
-11.31812467337217
-7.32984419847478
-3.4552721846923298
-0.587311795754634
1.1303903407225817
2.3118182626582335
3.297255516967559
4.13120144916677
4.752589793346945
5.221017197776443
5.663663779156882
6.040780114181168
6.620852860088904
7.611446362601072
8.737800042515211
9.808315581038771
10.313225523135282
9.988829061739096
9.682220904519424
9.649270634525925
9.41286644063634
9.078923224211145
8.76010485542373
8.662542417633258
9.273407774660656
10.233590661776812
10.780904251185323
10.811745063790724
10.246353488610945
8.7724250989967
6.6916553627224955
4.956513361611608
4.347096559672244
4.737717189392031
5.365327792745664
5.9689808575129275
6.841380872807808
7.8963471672865
8.641006402307065
9.002614013096572
9.357125170156388
9.60066197159361
9.186561267947752
7.845414486880113
5.630189797090499
2.9486000762461284
0.48883945737305895
-1.1843553058164915
-1.8080748542653895
-1.3345766081374604
0.27115746771562227
2.708774350146388
5.021767162276939
6.407586021846712
7.001631226453314
7.403510294176998
7.806933209197247
8.136136437322037
8.602996119012548
9.290598707459647
9.829752114718238
9.893802465573199
9.253565230812208
7.601735719142884
5.0846436813229765
2.5358142079761405
0.4055909456069305
-1.6578895484387492
-3.8070273737345453
-5.941721996626624
-7.843456123872126
-8.893481606049688
-9.101632357845373
-9.177162948566268
-9.280807169008842
-9.283147701232883
-9.272985314413488
-9.317876623841933
-9.385805607357096
-9.442033825246611
-9.64515510723028
-10.135132663983514
-10.74894026400365
-11.240479087575265
-11.338410881624792
-10.678540463176715
-9.212095331110003
-7.504878946388258
-6.111605273831732
-5.16755442908842
-4.696153923236262
-4.436779661697028
-3.946931534467686
-3.018548425845403
-1.541923752468714
0.3325660860616915
2.2722090467986398
4.106229468266793
5.710460362366031
7.241699722027665
8.965139459225764
10.590104587132899
11.676357334094789
12.38415506844537
13.065828456674968
13.565190874785056
13.80726862437415
14.110484081894514
14.443787618960316
14.596117229687161
14.455507204346619
13.947154594459462
13.292136653043501
12.718546364716078
12.300827102455575
11.911344299737895
11.158027043143608
10.082584207163345
9.035775905940241
7.947085163168363
6.661841716643607
5.342048178654338
4.08016237881085
2.6793111520002277
1.1955003421370403
-0.10964086732867506
-1.3166795850362039
-2.519252925144325
-3.802366007612211
-5.41603874658001
-7.099731706994326
-8.171760396663169
-8.503573212235278
-8.482541259991924
-8.139995048525389
-7.272603407742342
-6.084998218152343
-4.823041531982104
-3.5459853105512202
-2.37609574625664
-1.357278745738172
-0.5952279544207673
-0.31333066168448226
-0.4915458304209017
-0.9243617918811599
-1.388034162457243
-1.69242860506118
-1.8196360163991403
-1.7700126523539812
-1.3789126710723314
-0.6964875347687481
-0.12080138348513796
0.21065847362415652
0.6145663038167964
1.4460510868418384
2.669517580880137
3.9538555681242125
5.396587503180355
7.146132622455541
8.72175040637882
9.759229192502078
10.098010031234592
9.643817925493657
8.757726487849647
7.459585132679633
5.500974182632419
3.413269545755104
1.8834057948724676
0.9744364925183464
0.471188851305984
0.1862167117186016
-0.13360519400441986
-0.6058261473553729
-1.201166957382564
-2.034036909111659
-2.6654899610697704
-2.5487695014342617
-2.206345696324336
-1.9846258404801944
-1.7057525898860135
-1.5086267947546537
-1.2532913594659818
-0.817076345100976
-0.4114528632985014
0.03768627750764629
0.5018993676668733
0.7658347952876318
1.0265956390373392
1.7195189659553607
2.9581346729716635
4.507421083309323
6.060459746475444
7.287136282708645
8.073240565432712
8.534151702412869
8.632598230891144
8.374813322661653
7.8988438676033415
7.285428087591672
6.794855101857948
6.658622659998657
6.777211109035594
7.072068366315138
7.360351379087742
7.269682876853834
6.826325691135305
6.131856056988639
4.950050880406259
3.412421202281431
1.9638064285601926
0.657815662319121
-0.5506096266299795
-1.4033653206925165
-1.6491733468838023
-1.4262502759315443
-1.2196741044573087
-1.3415658243589266
-1.7459891240058776
-2.414545873561273
-3.2101283724529033
-3.7493039370864216
-3.8398839248218843
-3.4783870172078712
-2.797092824051695
-2.0818293913220294
-1.6497024998543541
-1.669076009498837
-1.8395296281784828
-2.0593654722697505
-2.5175577121113415
-3.0098703976514964
-3.7908585569753424
-4.991027098763902
-5.773090589364102
-5.897241909498469
-5.512561581076534
-4.595936642903608
-3.5920758319935047
-2.6122082741637485
-1.3976204183061753
-0.034054694155954586
1.3538569335642896
2.8520081467370404
4.643944889254657
6.360884264060957
7.312693007620874
7.499628559214911
7.043816731431275
5.92347056545684
4.503055698811538
2.9158904915051873
1.0887529845504116
-0.8283953204877567
-2.8075574633002165
-4.37593396027058
-4.916659196269359
-4.940023824089868
-5.0114641405253515
-4.96517623195205
-4.881700033447932
-4.9592918591283075
-5.223189616454353
-5.6329591397546555
-5.794581095108269
-5.461804427651509
-4.9754640788151425
-4.69798265705331
-4.634309742747607
-4.399279045015097
-3.6648910615765984
-2.7929345684029636
-2.2416509569812266
-1.8712400581466215
-1.415017158852567
-0.7448144500000148
0.12958396121809101
0.9901213020672053
1.8225147478117243
2.745016281576712
3.6046949686197203
4.271734639390023
4.8487602332369155
5.504404954580618
