AAD_Filtered_TADAS_FILE
AAD_BASELINE_CORRECTION: BASELINE REMOVED
AAD_FILTER_TYPE: BUTTERWORTH
AAD_FILTER_ORDER: 1
AAD_LOW_CUT_FREQUENCY_HZ: 0.025
AAD_HIGH_CUT_FREQUENCY_HZ: 40.0
EVENT_NAME: 202302061024
EVENT_ID: 13207
EVENT_DATE_YYYYMMDD: 2023/02/06
EVENT_TIME_HHMMSS: 10:24:47.00000
EVENT_LATITUDE_DEGREE: 38.089
EVENT_LONGITUDE_DEGREE: 37.239
EVENT_DEPTH_KM: 7.0
HYPOCENTER_REFERENCE: AFAD
MAGNITUDE_W: 7.6
MAGNITUDE_W_REFERENCE: AFAD
MAGNITUDE_L: 
MAGNITUDE_L_REFERENCE: 
FOCAL_MECHANISM: 
NETWORK: TK
STATION_CODE: 2703
STATION_NAME: 
STATION_LATITUDE_DEGREE: 37.058
STATION_LONGITUDE_DEGREE: 37.35
STATION_ELEVATION_M: 840.0
LOCATION: Kahramanmaras_Elbistan_Turkiye
SENSOR_DEPTH_M: 
VS30_M/S: 758
SITE_CLASSIFICATION_EC8: A
MORPHOLOGIC_CLASSIFICATION: 
EPICENTRAL_DISTANCE_KM: 115.06
EARTHQUAKE_BACKAZIMUTH_DEGREE: 
DATE_TIME_FIRST_SAMPLE_YYYYMMDD_HHMMSS: 2023/02/06 10:24:46.8632280
DATE_TIME_FIRST_SAMPLE_PRECISION: millisecond
SAMPLING_INTERVAL_S: 0.01
NDATA: 12501
DURATION_S: 
STREAM: HNE
UNITS: cm/s^2
INSTRUMENT: sensor = CMG-5T/GURALP | digitizer = 
INSTRUMENT_ANALOG/DIGITAL: 
INSTRUMENTAL_FREQUENCY_HZ: 
INSTRUMENTAL_DAMPING: 
FULL_SCALE_G: 
N_BIT_DIGITAL_CONVERTER: 
PGA_CM/S^2: 63.449
TIME_PGA_S: 
BASELINE_CORRECTION: BASELINE REMOVED
FILTER_TYPE: BUTTERWORTH
FILTER_ORDER: 
LOW_CUT_FREQUENCY_HZ: 
HIGH_CUT_FREQUENCY_HZ: 
LATE/NORMAL_TRIGGERED: 
DATABASE_VERSION: 
HEADER_FORMAT: DYNA 1.2
DATA_TYPE: Acceleration
PROCESSING: Automatic Paolucci et al., 2011
DATA_TIMESTAMP_YYYYMMDD_HHMMSS: 
DATA_LICENSE: U (unknown license)
DATA_CITATION: Turkish Accelerometric Archive v 1.0 - Disaster And Emergency Management Presidency, Earthquake Department
DATA_CREATOR: AFAD
ORIGINAL_DATA_MEDIATOR_CITATION: : AFAD - Disaster And Emergency Management Presidency
ORIGINAL_DATA_MEDIATOR: AFAD PROCESS SERVICE
ORIGINAL_DATA_CREATOR_CITATION: AFAD PROCESS SERVICE
ORIGINAL_DATA_CREATOR: network: TK
USER1: GuestUser
USER2: 
USER3: 
USER4: 
[...]
3.971513991126188
7.0857640514892335
8.232726402185882
7.485424175216701
6.673103107477474
5.811905531238976
5.41044301975515
4.989360302660563
2.936742800675683
0.8748048694635907
0.39890557817159733
0.9422720450287292
1.1865821230315972
-0.7850668116524664
-3.7841254226853143
-5.559922369913544
-7.166087515414392
-8.158899466579161
-7.456759079548839
-7.4564172088754805
-7.339415121641051
-3.953877733153196
-0.19990719000356924
3.2410062462757185
7.825625771116306
10.09351724361555
8.630334494999962
6.250178033094494
3.095584058599053
-0.7188318351275375
-2.4791066257916783
-3.607454420779683
-3.9436054900666337
-2.1653419836225267
0.6692099781312901
4.369034071438939
7.2194480285044875
9.369493105851335
10.881735454562225
11.442997150188138
10.697141074166286
5.994670424405819
0.3855392336582598
-3.4158867355453797
-7.387947459694751
-9.8110754869854
-9.907154821673004
-9.029549766310172
-6.820218648029865
-4.010003462943486
-2.0147479294958774
1.6105480965177326
5.6859329000551915
4.868873752189975
3.87742612294291
3.797437997773327
-0.9979656172887683
-6.008789260027708
-6.556539873696426
-5.869885283353702
-3.8372270851139576
0.6634460126422789
3.113724097132827
3.628124162433535
4.614513852593031
4.151001862568552
2.1913635378864
0.7140955653456523
-0.7280247192466621
-0.284330464367363
3.017853019008774
3.1497180937642257
2.2623499581803066
5.704945191943787
7.542745483456703
8.096564351733692
10.978648012755535
10.111954875264432
4.837871527153925
1.3376247065165925
1.6711905354171284
1.6712552914993637
0.2533704758531391
0.16310329624454256
-1.3666062702326005
-3.4006777229486644
-2.763574031801497
-3.50153364374506
-5.14189391916577
-2.504943034126157
0.7226950524091111
2.1952385319568672
4.814107709598865
5.17145975855182
2.2596219208094377
-0.7252981506157568
-5.193349729725269
-7.587883812540781
-3.435331821944492
-0.27923265748945597
-0.9280967338814727
0.7584996347992656
1.043290027936487
-3.846512074912897
-5.54456625363595
-2.39449552934422
-0.18594140273964677
2.2512068616318066
6.391736255915573
7.465259410711451
5.116270865536418
4.783401519447741
6.031135067504082
6.20156312437857
6.208463923114433
4.17933089868396
-0.7136665101762623
-4.22966059946094
-6.766638004034412
-8.562578800307039
-5.5650059752839525
-1.722218866936033
-0.7682686613993336
0.032495800268022235
-0.11111656798539232
0.330339808277652
2.36188235664727
2.3966182861416003
2.31214993229663
2.4853753441587774
-0.3707627677736294
-1.0053382085623308
0.4557418425653487
0.5995942692300588
3.910489680404174
6.801281204471005
7.811664557254348
10.624054619485534
9.52853945104076
4.081512008481628
1.7072584754270324
-0.16498387830390887
-4.554142159687778
-5.7496027607973925
-3.4663395827859858
-1.0740970266257193
2.737044416579251
7.740604468564115
10.341022191629493
9.297114535032543
5.730821708851869
1.338424449067071
-0.8098964921520659
-1.3324010635243393
-1.866424528062513
-1.1639886213322512
0.660197481257188
2.78168182014041
4.348464816519283
4.023506569469341
3.4263165750055165
4.152593941098295
2.6113602183576563
-0.5122839720203102
-1.4217664975593873
-2.3638589794013116
-3.6640626182477862
-2.9546130995712425
-2.8670239640831983
-3.3435314425792844
-2.8971223359266136
-3.376216251801595
-4.2475398296961275
-2.383799235672759
0.20026675958824994
-0.20787514154709055
-1.0967293230352546
-2.8141238149654924
-3.9317374836067183
-2.4315358724329847
-3.0737782977780364
-5.029879753307501
-5.112292787533727
-5.315552277025403
-4.364237616132138
-1.825100660738619
-0.8485627664835608
1.2858546193538833
5.587360056220389
7.1483310657724495
7.581365054245572
7.144412928534093
2.6839418748872723
-1.7288636719722899
-2.644888950920152
-2.0216381539173662
-1.2747963857425888
0.5744526926327032
1.5398207527390813
0.5344641366957487
0.48961008159596753
1.4399540425219601
0.6440865701013141
-0.4066411933397491
-0.621644532349052
-1.7982136667764632
-2.006098522491005
0.3379784147054061
2.1001300729319534
2.627849665118067
1.8742200659700803
0.6550545076977599
-0.05203008348684196
-3.094383610409883
-6.327891291482683
-8.856191070791251
-12.361384834783674
-13.115085538247245
-7.866765535621821
-0.7454143390660645
5.008778266708977
8.228976788274279
8.335928860786918
6.474044106814687
3.591727707741498
0.4720765718708791
-2.189942618849825
-4.1916133081938
-7.498769781659399
-8.559447371870895
-8.237863056385605
-9.452006497186005
-8.608659930181064
-7.088902248344261
-4.845885027217825
-1.487707463377049
0.4209686643777346
-0.19813589569659065
-1.9105583851742893
-3.5144839694602785
-4.953718639099713
-3.42281600278994
-0.15908777705712918
3.686922485116298
4.905969405999329
2.539031767674905
3.4687404038037215
6.430531321090405
6.451406179787052
6.108510736747834
5.984823552264522
2.9325976930741176
0.49414144912123603
1.1909595966395967
1.4696502082217515
1.1728180979783929
2.5472438092255243
1.84060211424575
-1.1079069065659566
-3.8269156925638765
-8.316705438594635
-11.302119143797691
-8.025076211061466
-2.492462438009642
1.8229018360508
5.614851715339903
7.161015587168363
6.855986903786741
7.199546209050751
6.713050436937452
3.7955070369231496
0.7743113293345517
-0.8918162379675921
0.0037818613171648916
1.6229661739486938
2.684128896548958
4.477631146936933
5.357856456733695
5.759178770353393
5.178728846984041
3.3100003275609424
4.104638236847424
6.283096654258084
6.492533486003266
4.668188794535922
1.1486949844187353
-2.320126991086654
-3.86689852296757
-4.589038704920026
-6.259267638742605
-7.322811363721142
-6.877848136272494
-5.981921779433621
-4.990985531404961
-1.9196919303764177
2.2842157156979837
3.4184000408231454
2.5494662163291784
1.6614436416626441
0.5113636624260187
-0.7780167005210497
-2.049650112065825
-0.8859166302131061
2.1223633718653403
3.007093696194556
3.1636496644487226
5.869016727537633
7.229637532000169
4.987756262882673
4.483215926182082
4.580622977492642
3.8182606655497815
4.6039134990345625
5.215742297984358
4.952418209920139
3.4285254149299327
0.026888489659416513
-1.197373193504126
-0.5250445760167965
-0.21348565734293587
2.723834334848861
4.009253080331335
1.7480971017425808
2.4247488059222895
3.4333518516724166
1.9340928960573216
3.2984310370921595
6.2412127020970685
8.79199844432839
12.581337708854859
14.076779738382346
13.966892417485434
15.354755790869246
16.834342441252403
17.694714544775877
16.301947857064132
12.045945851930481
6.875363382270496
1.2067676854010365
-2.497186690873765
-1.9187422270372412
-0.8946786261158357
0.012403487289102304
3.4949616827514167
5.013246255065413
3.1906385559667125
2.456293068485782
1.7734448051447607
2.1423178565790875
4.486980783613053
4.1437516674617765
2.8862920841870365
2.702041884754324
2.8068662004624527
4.678923096415303
6.737872023265196
7.265950643323497
7.15312626160272
5.007560865787234
1.8309048012758868
0.9357192569450393
-0.6487070143181853
-2.7291505852447666
-3.5621277555951876
-4.575011473707569
-2.7901301346585554
0.15341141497561
-1.3604347036629387
-2.6842713533806855
0.48383214927638907
2.4155539270164903
2.33105919252945
4.3827271889390955
5.042100279826885
3.727048392048068
5.733099268740449
8.12557960519787
8.233421012381331
9.162860123569203
9.832199244799398
6.58624124198543
1.9031144075842976
-1.1690663355156827
-5.082330728604356
-9.173384815495343
-11.63316736329503
-14.100282046825999
-15.036609226000436
-13.298794130796878
-11.529349618719364
-8.007608833275762
-2.948682485386489
-0.10896028224978568
3.1378141211738195
8.803403903713553
12.859243907630667
13.744441190301355
13.162678697106871
9.65924347018402
4.046696382831468
0.5794827685864269
-1.1964914556102046
-1.867156945283994
-0.4607823229778652
0.37783701864979624
-0.7699770068087557
-1.8577553246348826
-2.654128546187847
-2.298053936799322
1.07928310624977
4.197677126065632
5.869872766101315
8.6535560689854
11.372875023604003
13.582585461336148
16.56860334278504
18.538687586046084
18.518952259666825
19.361194551486708
20.219148920832186
18.254698318122173
15.19879567091977
9.310232239347446
0.050479153406057325
-6.397847157039536
-7.69980166781899
-6.037697717588609
-5.308563340288896
-5.994185195249999
-5.555502462197379
-4.986454941648151
-5.987310212120313
-6.254249618537335
-3.263340592524651
-1.2428145703821334
-2.2552983101974955
-2.6886386581677804
-2.532496903021709
-2.509001845400236
-2.9983042698666513
-3.637660313836573
-1.0563194786592085
2.611707477125063
3.019757572421108
0.5146271157953584
-4.420682764289053
-8.570201044690098
-8.217729992227069
-7.091065002573316
-8.337807026367642
-8.805099009889366
-8.49376285336668
-7.97547403537223
-5.17013639944091
-2.8377375708958312
-4.105490178741149
-5.3653092116815
-4.465540561253498
-3.377806641769153
-0.08119015714389055
4.655993577965208
7.603165577156777
11.008718319311365
14.07146044265037
14.953003244324133
18.26743616517445
23.946626531031676
26.843565202393265
26.050881070845502
22.390090351728066
16.6174856416115
11.537092269674076
8.84263316278495
7.6661865463072765
10.294148394313618
14.589605771109332
14.105059844457406
11.357822321957412
8.716105576144606
5.104454114861414
4.459442072993102
6.279142415167188
4.863156088703646
2.2679736077392967
2.5624366340928315
4.282722147718155
7.403922858082564
13.549465120717938
19.739238892218445
22.1337148963113
22.78824637573161
23.82711546065253
22.489668029557087
18.9733879737183
15.79330726214496
9.654470855339598
2.1196193086714525
-1.0342676386828573
-2.8920758976594167
-2.4699555912962556
1.6363480121066698
2.0199927183645525
0.5381765087896404
1.2876149430876072
1.1550458740778133
1.7063412398991635
5.291661242522727
8.501838674832701
11.19178965239871
14.264297130680584
12.760400943773648
9.408448708266885
7.952366589328386
5.469043977992715
5.4092918342004745
8.51737217814002
7.667384689571
4.9852583747051575
3.2956894099978196
-1.9763766948029236
-7.617160326548228
-9.974370339505963
-11.464643775541195
-11.016026729957062
-7.267312142143911
-4.875921819867862
-4.895915626487295
-4.951141016036914
-6.23423815237528
-8.867143182852203
-10.455093251354606
-11.329732543236487
-12.388780666028934
-11.149680808110585
-9.676375487719863
-10.446499935123477
-9.830861002926609
-6.431206230626985
-2.8266132230850065
1.3475233620248546
6.009627191117115
8.920461568449458
10.149698940963315
11.073387318078852
12.045554125907858
12.592514518440828
13.04903241397151
13.190829485493168
13.176296838892569
13.430590685678466
12.654652822596914
11.055961876426485
9.42198288708873
6.345706604683499
3.9189719760038164
3.1349899965495434
1.1512005764915667
-1.3641577914801808
-4.896534321126486
-8.808824666309325
-10.74488211008955
-15.013019099796855
-17.421265058271228
-13.139640779211632
-11.527015744119486
-8.721792863451707
2.1682848325635886
9.273158333537346
11.052238516044099
16.531439749862525
21.070762397910304
23.933709370250195
28.337705390892612
28.119797741599054
24.850274978982736
23.79968498141341
21.512064685873913
20.98166770185505
25.423906556705223
27.113154566761203
27.188192697231035
30.52223508453875
31.996783747433486
29.950511399733365
28.837670289148914
26.544179584910296
22.02116683124709
18.623478662689198
15.053900901521633
10.936268803228959
9.27626743992934
8.037791780786417
4.51585882737439
3.7448818644970174
4.059133883018026
3.2000532260247394
4.158602418562203
5.941564891070643
9.642931848271115
13.091529902939861
15.405100467231057
19.07693828041339
18.519119358359102
14.14740569314466
11.895424497583118
5.3699026114621615
-1.588093932010346
-1.4994000275776356
-7.790213137606861
-16.522240464561328
-15.047989371753197
-16.46258175675293
-20.549986766633747
-19.19004295835657
-22.045106506500364
-21.33389515678101
-13.452356484132867
-11.634368359046732
-8.136353789420857
-0.5033287252390164
-1.7450835263740778
-0.5802088074305872
6.082315822470167
5.990368413976369
10.55718498404654
15.850650605538313
13.69922475927046
11.941818145032707
12.427211691808974
9.432114580417567
7.647380100691516
10.049538726052475
7.875438503002911
7.835628188065289
6.337410546908321
3.6246628709103574
5.792337123905634
8.160054951075276
8.449561515232059
7.409525990041818
9.54015227840345
9.223902289930713
5.521574247015553
9.408086258324776
15.442561804266935
15.402610983543996
17.889393461290762
21.176803970704782
21.096167401846078
19.95354702441899
19.299677058044928
16.28176471759293
7.97708321791603
3.0299768246835224
-1.5600128700949898
-8.613563214161168
-11.808848344104227
-16.06997259175315
-23.103325841403965
-29.124114674447494
-33.588689776689144
-39.46046936670763
-45.73112843961748
-49.29555657774655
-53.385057938507565
-56.71975974022804
-56.91510179959653
-59.51646192391359
-62.994492077067385
-54.938089947732216
-37.597230978145234
-28.67237737743153
-29.912265197943576
-24.494160231307692
-13.190862670771722
-4.267530061965627
8.649750905581676
20.5207515176034
16.296928446886803
9.935483776211957
12.234850480495036
2.7360928136132108
-14.428668833136076
-24.25177416418558
-34.61569060083411
-43.14933228384881
-40.889587102759634
-41.24460222662711
-43.96300477532684
-40.30628368347835
-36.727252404084936
-33.640771390264234
-29.468667344913346
-25.622329672151665
-22.200589366139727
-18.79941940457278
-16.592255404009602
-10.797562891695485
-8.064170858492204
-11.125691167180296
-10.963660768712836
-15.930546749606428
-24.963310050329884
-26.238425041739628
-28.98291561870559
-35.51124383472356
-35.079004579947146
-35.66130122828204
-38.90161977145085
-40.86263294980944
-41.917088416512065
-39.014023739626964
-37.827609709168776
-35.95131937709754
-30.93253605161447
-28.76940317020355
-26.419092045444064
-23.496235019817938
-24.69877813044608
-27.409669837043754
-25.713568089352393
-23.61890394738278
-21.53240831954028
-14.116423759836362
-6.598343789549057
-1.694672833343662
2.9907611941701457
5.665660269608279
7.518212878738057
7.480362686557139
1.4951167851447815
-3.2010694194331935
-5.425793761230722
-8.78788202771464
-9.283807315797077
-10.027617904284561
-11.296535331604423
-10.948329001634285
-13.678241761738004
-13.710068593910838
-9.205786580963045
-5.9405344182149085
-2.1441410269169454
0.5873127300994775
-2.7225840671577797
-4.503687211584578
-2.9253252860645547
-7.915335671667215
-5.746797466500612
3.1169479212369886
6.225134714876657
12.48267151343612
17.062219752692947
14.032873245764769
13.020823852218474
13.074630054108239
8.676525068745159
6.754179341059801
5.601788210543092
-2.2434109884992153
-11.066168516950956
-14.976648385316096
-16.162685706442193
-18.031789300774076
-21.54223890037267
-24.54917821615243
-22.87301183058759
-16.95165853545772
-10.497875715682179
-3.873620412972395
0.4110835901322104
1.9087638990178757
3.454162888464182
3.924718463136523
2.335673170202212
-0.5258554730513255
-4.5626945168648305
-12.1090952236795
-22.0059342432444
-29.73022422734961
-36.225923848423136
-41.20543715511991
-40.34760951156421
-36.930555346067536
-33.1454864280652
-27.696306391112735
-24.214577649814167
-23.611720555943396
-22.0009146124522
-19.985391519148212
-19.14279529113366
-16.302965072621223
-14.791385840501075
-15.729476514363975
-15.176525046291136
-14.412505745144912
-12.30323108026386
-7.510152365910349
-1.8106000906609743
4.478439700249774
8.423882684210602
9.563130451298019
9.963251782028804
6.121120496401977
0.25517589978148153
-3.4710168169619755
-7.336690879614329
-9.257773509656475
-4.820587779511373
-1.55885428259106
-0.9298036251988082
3.550444301654141
3.1591908325978797
-2.097120119654657
-5.121120259020318
-12.015183118914738
-21.05231546380591
-25.65645711017577
-30.652083948525885
-35.38892876783386
-36.545345704991426
-37.815929963719405
-37.80392656168397
-34.288759176990396
-32.69963500352255
-29.559829289432734
-18.66091733852236
-11.690272578127484
-8.692552321848185
-1.0679472620968304
4.346745512733455
8.354525635291926
15.498041867114452
19.00249733794606
18.900742042689437
20.45093344065446
19.84559340194851
15.124844892124935
12.037851472419371
7.600695704211279
-0.1770255113140942
-4.070716775288
-6.766154970573305
-9.149368481898916
-7.223002001634349
-4.08717158690108
0.7429310412031097
6.781494119288808
10.612891123858008
14.214103986998468
16.567517588203252
14.560066257923971
9.29597088972477
3.9977890811713372
-1.0127408613693727
-4.5521242491302445
-3.333235791299633
-1.1955860486764098
-0.5439722822112301
3.2619546758086466
8.712790034117045
11.064493738211633
14.184698036964521
18.224638164978796
18.801482381858015
22.089744795794854
28.820808112227706
28.13454164818816
24.013365785109364
26.04226615248715
26.45410783894757
24.499420616861105
24.569705384445875
19.70266257232858
13.879389763987476
11.094471376741334
2.5089938961167557
-8.724466689399273
-13.30156910180218
-17.840108751353952
-23.785755914847115
-24.491889826510672
-25.91460313902432
-25.695424529147616
-18.269753086202247
-12.681140234249717
-6.93678766286417
3.529273297507913
8.130117125413424
7.326949901087079
8.449369014898044
7.354164695047736
2.5034649658648367
-1.4557877121975327
-6.0264861219559585
-11.94421500673629
-13.931899477729628
-13.570849194027279
-14.840752572155429
-15.754202577297868
-16.190037571595525
-19.880059010424844
-21.04031120370894
-17.92326055510077
-17.103664988717767
-17.740523926644332
-17.661984279203732
-16.595854744271826
-16.438649345819297
-16.525355943607174
-16.803859534676423
-16.602027774209347
-15.419160743399097
-15.65341713656686
-16.821525223715973
-18.842938925635245
-20.196293623892174
-19.30146383931721
-17.0938409450645
-15.765404302566777
-16.056046563066094
-14.938177031448607
-16.22012742161038
-21.0469695671889
-21.812554080991458
-22.158548143189265
-23.74766650686705
-20.178195814619425
-16.50939563307163
-16.882292910304304
-17.201335602480725
-19.76379376939074
-23.784403083970595
-26.6725313831436
-29.739527906794976
-32.73364342781212
-32.87640202042044
-27.66046754798003
-22.463896989594804
-16.289454802170077
-7.720969717508609
0.356020991381005
8.501052124253407
15.224957683863593
18.635462598645567
18.953358641281625
16.980120558429682
10.476110840406209
3.3531611880886376
-0.4696455002881399
-4.40062289615714
