AAD_Filtered_TADAS_FILE
AAD_BASELINE_CORRECTION: BASELINE REMOVED
AAD_FILTER_TYPE: BUTTERWORTH
AAD_FILTER_ORDER: 1
AAD_LOW_CUT_FREQUENCY_HZ: 0.025
AAD_HIGH_CUT_FREQUENCY_HZ: 40.0
EVENT_NAME: 202302061024
EVENT_ID: 13207
EVENT_DATE_YYYYMMDD: 2023/02/06
EVENT_TIME_HHMMSS: 10:24:47.00000
EVENT_LATITUDE_DEGREE: 38.089
EVENT_LONGITUDE_DEGREE: 37.239
EVENT_DEPTH_KM: 7.0
HYPOCENTER_REFERENCE: AFAD
MAGNITUDE_W: 7.6
MAGNITUDE_W_REFERENCE: AFAD
MAGNITUDE_L: 
MAGNITUDE_L_REFERENCE: 
FOCAL_MECHANISM: 
NETWORK: TK
STATION_CODE: 3138
STATION_NAME: 
STATION_LATITUDE_DEGREE: 36.80262
STATION_LONGITUDE_DEGREE: 36.51119
STATION_ELEVATION_M: 459.0
LOCATION: Kahramanmaras_Elbistan_Turkiye
SENSOR_DEPTH_M: 
VS30_M/S: 618
SITE_CLASSIFICATION_EC8: B
MORPHOLOGIC_CLASSIFICATION: 
EPICENTRAL_DISTANCE_KM: 156.81
EARTHQUAKE_BACKAZIMUTH_DEGREE: 
DATE_TIME_FIRST_SAMPLE_YYYYMMDD_HHMMSS: 2023/02/06 10:24:54.0470010
DATE_TIME_FIRST_SAMPLE_PRECISION: millisecond
SAMPLING_INTERVAL_S: 0.01
NDATA: 2013
DURATION_S: 
STREAM: HNN
UNITS: cm/s^2
INSTRUMENT: sensor = GMS+/GEOSIG | digitizer = 
INSTRUMENT_ANALOG/DIGITAL: 
INSTRUMENTAL_FREQUENCY_HZ: 
INSTRUMENTAL_DAMPING: 
FULL_SCALE_G: 
N_BIT_DIGITAL_CONVERTER: 
PGA_CM/S^2: 0.110
TIME_PGA_S: 
BASELINE_CORRECTION: BASELINE REMOVED
FILTER_TYPE: BUTTERWORTH
FILTER_ORDER: 
LOW_CUT_FREQUENCY_HZ: 
HIGH_CUT_FREQUENCY_HZ: 
LATE/NORMAL_TRIGGERED: 
DATABASE_VERSION: 
HEADER_FORMAT: DYNA 1.2
DATA_TYPE: Acceleration
PROCESSING: Automatic Paolucci et al., 2011
DATA_TIMESTAMP_YYYYMMDD_HHMMSS: 
DATA_LICENSE: U (unknown license)
DATA_CITATION: Turkish Accelerometric Archive v 1.0 - Disaster And Emergency Management Presidency, Earthquake Department
DATA_CREATOR: AFAD
ORIGINAL_DATA_MEDIATOR_CITATION: : AFAD - Disaster And Emergency Management Presidency
ORIGINAL_DATA_MEDIATOR: AFAD PROCESS SERVICE
ORIGINAL_DATA_CREATOR_CITATION: AFAD PROCESS SERVICE
ORIGINAL_DATA_CREATOR: network: TK
USER1: GuestUser
USER2: 
USER3: 
USER4: 
[...]
0.00026406180951213637
-0.015272354850052914
-0.029279248154514857
-0.01914745040235841
-0.009754403855503644
-0.00804089590005633
0.00462703932722037
0.013653057016463447
0.008443815124184953
-0.004013229046744393
-0.0029585387615958325
0.007289109410747178
-0.001661031249573146
0.0007401884725564714
0.007943256279129493
0.005241953966933438
0.016204320557344207
0.011963162230672834
0.016248043376734363
0.022064978459203948
-0.0023017967199892384
-0.02027404940276046
-0.02832751317745692
-0.009077262768669249
0.0007484227193359546
-0.01639756247116972
-0.003327939899236137
0.010020167409891633
0.015161305887258223
0.016233981252457223
0.014475612441601438
0.013181306277694368
-0.011662620021993298
-0.014087052986609238
-0.01458347644365605
-0.0305584855592029
-0.016287303468661727
-0.0013645721535074594
0.006921220437329933
0.012880596966589159
0.012954999237918766
-0.002199663281175245
-0.020153991142858166
-0.007252722381592709
-0.0002760402200346843
-0.0038225299613266917
-0.0022053060440144
-0.0071362760550052595
-0.013232315641343497
-0.02028879534574492
-0.003719545457733441
0.0235242508096684
0.024505545511761435
0.018463398772925767
0.018358304040458476
0.03384732865658121
0.034120189116142445
0.0019640843506429175
-0.019893967671310235
-0.031850273709550084
-0.030396672078640708
-0.016956001714701595
-0.003960393892443237
0.013932850608131072
0.01930051108040048
-0.0007159511325129526
-0.003857792420587612
0.011073241227022338
-0.004382828544450559
-0.008659954790090185
-0.005876024880479247
-0.016289825129725908
-0.006056444646142337
0.015989735263743064
0.031780311171751924
0.030337351719893265
0.020812095980689154
-0.003978711305352974
-0.007036698603089832
0.0037446935651257603
-0.015265664479591021
-0.027309837129884308
-0.03228790135988714
-0.022233708464444515
-0.006719758917777903
0.01440611015352364
0.038897518222852125
0.02772256080896605
-0.00545455338594102
-0.03187088301832513
-0.02952861523311167
-0.021635494971966464
-0.020503072329960757
-0.020049805376844494
-0.011023170414138486
0.0004800057326082022
0.013243669214497078
0.03317292363001528
0.02746629558303719
0.034027046068483634
0.027672138537410473
0.0020365185141260566
0.0015495909233488436
-0.004083719827580318
-0.005715294817209317
-0.02230920676455859
-0.016168018541582403
-0.0018140331020570853
-0.018708831880581537
-0.0022345095023025693
0.005851879805760311
0.008975811852590993
0.025196805729794332
0.010423282576593595
-0.0110863900025944
-0.022849269851592982
-0.023670310787399135
-0.004385981321772627
0.01207370678127955
0.0050467507752318536
0.00782532252116486
0.028535314879154106
0.027929947026199674
0.009950740396489714
-0.005616961705889076
-0.01825956984692831
-0.009239144179035898
-0.0022437915736444763
-0.014220287895533326
-0.007703122804057421
-2.5986367067690996e-05
0.008806545060491546
0.012523828046300927
-0.0044823497657646375
-0.010909582223921197
-0.01212124005099271
-0.005989035949039607
-0.008112741543140206
-0.005445406728203852
0.0177036624208588
-0.0042983478607540515
-0.022880861756324457
0.007392789536626995
0.017060937964502615
0.008969908832830368
0.002483111548447829
9.485124571640236e-05
-6.136103179555014e-05
-0.01154093685991089
-0.024484986145056814
-0.0348901378275996
-0.012468823420219096
-0.0001324124678187616
-0.009343488949695614
0.012213933956051925
0.024931162037149582
0.03878296107797507
0.02576963337813918
0.004699723086165983
0.022653430214723356
0.010139526687358109
-0.010951202653935005
-0.0184206975801362
-0.02457031686786269
-0.019424430217156667
-0.011413631593727165
-0.0003727340060525465
0.00518265462169252
0.003129692023576874
0.011808527160264372
0.010894746886072454
-0.00042165576885631905
-0.0009353293890901555
-0.008704847206248947
0.0001665961014428509
0.004276789293840241
-0.005268912579011138
0.007240160809757984
7.874927742382393e-05
-0.012149401753325269
-0.00942759275866202
-0.010004947120102714
0.002460617902470812
0.004149302354791659
-0.0051437118150878544
0.0013585513055162542
0.0072583090907148515
0.005613631855898611
-0.004142661269274756
-0.009359311581901474
-0.009034569987233992
-0.007806284459877083
-0.0035134368860638447
-0.004315410218358105
0.014717238360172151
0.029300048393491505
0.0065324805880459195
-0.004828583090134818
0.0027246119616667016
0.009850173926077854
0.006987658056247152
-0.007246904157680249
-0.001165327320928324
5.612890412834275e-05
-0.005071157130781245
0.006954001050363805
0.00983579288296681
0.0007062467505058006
-0.011110097970670552
-0.01624241681222106
-0.010654562905172934
0.008670608697475763
0.012147405700359357
-0.0029721041605308115
-0.0074237260083824565
-0.005533782191104546
0.005275008975358949
0.009759142020022179
0.004517791266189279
-0.0016433851025792067
-0.010849905957841766
-0.021816785154732843
-0.020497903939161302
-0.017004730287625364
-0.01599680306197017
0.0011640923055578473
0.006738335205841766
0.015839793731229363
0.026066099584456114
0.016886198812626207
0.017988286830082443
0.010136681699546322
-0.004115373859970881
-0.01899796405837196
-0.02039734448025202
0.008382196387088597
0.0015652374808926741
-0.006335604477238037
0.014548387626903476
0.012319563653420665
-0.0002910567730224805
-0.01307805763379183
-0.0030166888734119075
0.008921105920979338
-0.00010871770296291986
0.004484290662411739
0.007624497880721374
0.001503518562230065
0.007552835439024265
0.012689211464537522
0.012007444850752249
0.007232115445534972
-0.019746658735764908
-0.02341808944238101
-0.006407143291484583
-0.0019138500675696915
0.004231614410043518
-0.006152125569302254
-0.004187125709029494
0.009518934381766564
0.010168587436191378
0.010598553673910327
-0.0055157781385667855
-0.02003558830675466
-0.015934338848697525
-0.017981450833129745
-0.010626812094003688
0.011326777955144817
0.012088618893075432
0.004424025577251013
0.005372637626106745
0.013694896871711701
0.012566512935577813
-0.005698634442707232
-0.0038420133346452417
0.0009063461292405182
-0.0015090065313840058
-0.002235968121889835
-0.009306362628212992
-0.0076475839434834506
-0.005532868047454139
-0.0018915459755550633
0.0003764811273101148
-0.00097313995855867
-0.007337662975079408
0.0004238299772547271
0.02586739579897259
0.012280282331330064
0.0017227924833180005
0.005128745259167493
-0.002296609566831768
0.005404077572325345
-0.002638589737190235
-0.012648669234375505
-0.009290921469341365
-0.0009831356543097596
-0.0010903289136366507
-0.022193473519822652
-0.013563338774370604
0.008532260107770532
0.01608631533638736
0.019652812188335193
0.0030978839961605304
-0.0022047768259584617
0.0034371850591745617
0.006634018379364271
0.02047168286468316
0.012799383484234815
-0.005077124614521502
-0.013607515175118799
-0.007864477311657512
0.005497152620003228
-0.0009185327705436388
0.0029345857120414614
0.007239166629668818
-0.002215544862685617
0.0002474744769808324
0.0015422724556153795
0.0032319750038366725
-0.005863271850648088
-0.024147828907444803
-0.019690444501589313
0.002582084148242109
0.015546814876404517
0.00010028619071499076
-0.011637698097968345
-0.008186574032235603
-0.00913775210252618
-0.009807533128533306
-0.00924681331889637
0.001659163390580199
0.009041074417312321
-0.0021789524130916725
-0.0023452507527060747
0.025959791827525842
0.03188218086138513
0.0027364037108298413
-0.014776325664920686
-0.01817828397940168
-0.011506203255048645
-0.014871171914655102
-0.010772904268778524
0.01401216630318871
0.014503635805516219
0.003835319523277852
0.00376566645260664
0.01006315047482522
0.0007634317079392624
-0.005872934821778753
0.004179027998007693
-0.0005496919214958834
0.006755312210531888
0.011254262204448057
-0.0014443025960014675
0.001491357017448039
0.007637180088917899
-0.0037353621380112707
-0.026744887225508284
-0.019290198792890175
0.004396526301700813
0.012914717943177082
0.022072556406228003
0.018539804823502624
0.00363890773023174
-0.010735991338723766
-0.02201345941162388
-0.010347509303835054
0.012155479565618365
0.013419652439565544
0.01059077883553745
0.02454472845738512
0.022680898740439378
-0.004050861858916234
-0.018464476177019018
-0.02186709058657043
-0.01773309664820317
-0.009015611029527115
-0.015582344486755748
-0.005152068109014107
0.00895424023419711
0.004895693138905499
0.005186040316678529
0.00012863444305006287
-0.01219055679569047
-0.02705714361019704
-0.013554040725763503
0.014487876746256638
0.012146089150180027
-0.008439629929421991
-0.015975782471842958
0.0057253966371820075
0.01858025593607263
0.019249834263545262
0.006324749577851777
-0.010433302067601825
0.005168182141744649
0.00035825735059248447
-0.013262481176937485
-0.0035611270164852865
-0.0018237255748401154
-0.00015501455739389653
0.001153207631524384
0.013221771868384417
0.02370812760257008
-0.0008814115301578191
-0.0075752939268133234
0.020926921608861095
0.02049073835298523
0.0034229243463018235
-0.0010321099039032982
-0.011499178988285612
-0.01378977158996972
-0.019840752598143493
-0.025141000818226126
-0.011217588748821231
-0.0076906868344792925
0.0001358207275255043
0.0004668335759249071
-0.003620272006235021
0.010615752865315738
0.010404971759449254
0.013426885625746926
0.009900229508135261
-0.001260221095232079
-0.00047919851782022785
-0.0030301831920772947
0.014341693156099315
0.012332030289769159
-0.008031561528404828
0.0005803831545471868
-0.0014486700535241194
0.0019384223270052735
0.007069931562256663
-0.010837858263806675
-0.015420262136483892
-0.013836320947013042
-0.008925603934121788
-0.007286437160040028
-0.005750931912362838
0.0005357579592822566
-0.0028578763086452887
0.0041658790575264245
0.008618637039620096
0.0073143703053008295
-0.001640022904115329
0.007816475562830395
0.03943371087646423
0.02443838631506582
0.0012448124995101183
0.0026526333054254906
0.013491844457007128
0.012846706111358318
-0.016049617613641372
-0.029922361552493275
-0.02357956977193
-0.004215455307132899
0.011811792411300986
0.004613906321557664
-0.0078025529229749
-0.01871165163199147
-0.005477376833075191
0.014453039892443603
0.005067879701436281
-0.010939455112298753
-0.026284505094166407
-0.006269684750277894
0.03686199854159938
0.026988838331124074
-0.02174006379766047
-0.04902577975708263
-0.02406069701830572
0.0077791235596735495
0.012730726584145605
0.002345636532030803
-0.011187156062902798
-0.010155976066043107
0.002080279952355639
0.030730133718063234
0.038424702767129115
0.022273171026330703
0.025732671886890525
0.007454266694305828
-0.012266005243176123
-0.01788214504233527
-0.024779427386758333
-0.005733324111311027
0.0041890096688788885
0.025976868032538895
0.042854181720345816
0.030643676389301152
0.027180963365828162
0.004386367127098658
-0.036149816064991465
-0.0873574113572554
-0.10441045240172854
-0.09000357850965965
-0.056361292472716144
0.02267251231890424
0.05629495350385334
0.06492789903462998
0.07958600281393238
0.08213259908695661
0.09357557728850224
0.04051051294785025
-0.03448502755025505
-0.05190994792489719
-0.025878481343809566
0.002287859678935826
-0.018702116738066942
-0.03952786899691782
-0.02335697301505343
0.00942563253751149
0.010366934246308981
-0.026971011771638714
-0.04710511687464935
-0.045962643530559
-0.03683360785909549
-0.014545096006211206
0.018829414833728936
0.024933969610988496
0.018831855746760197
0.020911331241601994
0.01862913101823433
0.01935485059668459
-0.004571372421019404
-0.024721867675673345
-0.007557443763808908
-0.0015728558283678886
-0.006570586636849152
0.015973119773978094
0.027983769747841038
0.01025042997535489
-0.0066189158114591615
-0.025651129452250593
-0.016498572118619718
0.012196121863302793
0.027945529324281463
0.039855993109948355
0.029003269211561565
0.01838762129800479
0.004149614452594131
-0.015265706052969674
-0.015935486512859927
-0.027704595348762212
-0.037915928253196576
-0.04223279249632272
-0.03190369391550805
-0.002595650734419007
0.005431523812858015
0.005844049016330526
0.026586811895690593
0.03929204121363165
0.03254248544917844
0.029628274338241934
0.019284764461141093
0.004123308711631069
0.004966640581986115
0.01157992393874318
0.013480576294350491
0.012678940888816968
-0.02025193331256842
-0.0547913655411853
-0.04375787457814181
-0.04319021240364429
-0.049253774333267844
-0.020973311848383355
0.029549757335565634
0.060216721332963234
0.03350714052704544
-0.014119903250012786
-0.035909892641472346
-0.03649904016606581
-0.02670719776774438
0.00031457927964759533
0.05064359458262253
0.08723725797588269
0.08037416528276792
0.05859513304804115
0.018197697742421103
-0.037127693896156375
-0.08335928173176106
-0.10902640254149396
-0.10825427029035213
-0.08291794495734357
-0.026440209395200816
0.034836648127920776
0.09235183356238641
0.11069291067564603
0.07269317237580604
0.02679552940681685
-0.01732800760113336
-0.02404170097372776
-0.010381144799012369
-0.02200553595933818
-0.0205471911031228
-0.002037191853594815
0.009911735614498365
0.02242636697026536
0.02776584780876679
0.0159719680731401
0.009784997620513278
0.000369153813333761
-0.017963247694175972
-0.02819084368464305
-0.033894501567586555
-0.00622493305316699
0.02145401052390044
0.0008625762543761353
-0.003166512207706738
0.010254495801344637
0.011047367534037407
0.020219817763611238
0.0035559895973977782
-0.020110851955971454
-0.03820072093782423
-0.05536073931090129
-0.04297530964372632
-0.018409811575105538
0.046928306678832736
0.0813846464801389
0.051325843604531
0.03298635201199123
0.005203672346379807
-0.028095715893728196
-0.06066567415326357
-0.06864606629221999
-0.055606885290892645
-0.031147794364213617
0.012917521436132708
0.045928871164514926
0.07546981695953066
0.060465155332493234
0.010936370183651671
-0.014648765016762804
-0.005521487682552103
0.023551510126704575
0.02634580261828781
0.006053173946889549
-0.020476317001085428
-0.030839325580167713
-0.02549550292003897
-0.020118886815789484
-0.0016436517914069414
0.01130257090170056
0.00763229601475106
-0.007368919942792894
-0.02068766994829486
-0.0230736675849489
-0.02180485267781219
-0.022789870363985037
-0.018511109410873288
-0.0018324398250627563
0.0014469742603177144
0.018781898917651262
0.068115249230703
0.07029797742524092
0.02141044187348568
-0.016869218012269843
-0.026556577641152355
-0.009222897746402734
0.0017746480208860225
0.001665093820950076
0.008379315503523145
-0.0038716098107386735
-0.023299380743789407
-0.02159273306011104
-0.02946185046331315
-0.035382073372305964
-0.018571187842154804
-0.009637433037266305
0.021111103442370403
0.040889255524131925
0.019566734695236128
0.012534249513907181
0.0064812485669748345
0.01796999415066178
0.020118670341847892
-0.01315427369556832
-0.017950399957147558
0.004125537370587218
0.02619858374836474
0.022553787512845373
0.015145739830716211
0.01202005587059149
-0.01384862513787693
-0.025151717631372188
-0.03051175871815356
-0.023597616203844797
0.0019415777430569635
0.006584159107819414
0.020275058282541402
0.034034215307313744
0.028132421738640275
0.010495111446126235
-0.005246989026726345
-0.002518797983880575
-0.027999833722040648
-0.052986021101317754
-0.052300775400585066
-0.04096460967634575
0.004703133714211887
0.022223652075106733
0.02325445849399902
0.03991846946389621
0.022925178116540535
0.026026761845916593
0.02282119378513299
-0.026545268870405845
-0.036841127355787325
-0.029361528190532372
-0.01898774627050066
0.0063485378997889304
0.01265198480111492
0.021173248140847978
0.02991773332384839
0.02187373233762545
0.0029888389103302194
-0.013669152071147163
-0.012414069472133634
-0.005576759735879199
-0.007276325241596031
-0.01344719121125302
-0.011060133362223813
0.0030359181295018848
0.019569284473361374
0.022088179838232275
0.007040020727312642
-0.009227637731798551
-0.014647922624103003
-0.016166675085819964
-0.010848503496355456
0.011553658586546374
0.013654219562982023
0.0009937335336145014
0.006255307194530696
0.008659865403584132
-0.0021837876699385187
-0.012730127052167766
-0.01380158343599693
-0.02733031636649474
-0.02234451246505045
0.003976232679287163
0.020560899097767787
0.051853844555247386
0.040912420900376015
-5.620324778572768e-05
-0.028793287605874202
-0.04506785734788699
-0.007293246866445428
0.010938049373692834
0.0057561362280555885
0.007594759750016681
-0.02666673054415299
-0.020543351405547514
0.014403487468494245
0.006199443667022793
0.001932388510419202
-0.0023678207248079095
-0.02270689169909111
-0.0021204955603324584
0.03600782570568616
0.03024920851659811
0.01723617952036713
0.003828594219418562
-0.009150456243581106
-0.007426659296940363
-0.01044060961522666
0.004049529643399359
-0.0009770203072125587
-0.019186537665334874
-0.013602411001922483
-0.01562545873755046
0.00013653878116023094
0.01974800687845038
0.029126328385984265
0.009985643917579699
-0.027328382553502083
-0.016908589336688463
0.00036641178931548567
0.014310453566631841
0.020705744010337354
0.0017299844560798008
-0.0029266784829570184
0.006894483299216768
0.0026681665413486374
-0.02144273151551792
-0.020494435463022466
0.011401349433092232
0.03081520857288184
0.02008658809570522
-0.0005635806729166255
-0.010045211933015144
-0.014016283171423576
-0.0025578960937356356
0.004162382007679522
0.0017155634097757344
-0.0007665147060300731
-0.0188992279854581
-0.014726853757385732
0.013360754827803432
0.022362966405601405
0.005193057585129451
-0.003133428205350929
0.019135338129904183
0.028535038477663113
0.011539828255066777
-0.016091948709187363
-0.035114410739681856
-0.038876309908978154
-0.04627531306635048
-0.03867913945582086
-0.010903871974873438
0.0212384101335532
0.03540927282474508
0.03282256636055337
0.04268225093160021
0.031297602803062395
0.007818982622354108
0.007005126418653666
-0.009642550437911282
-0.01584763816232961
0.0034128662330195803
-0.012071790647181281
-0.03257892723517661
-0.023443579841502415
-0.0056960111679279475
0.022716736798065483
0.025065085795771172
-0.0030306843666705555
-0.010288231112530282
0.006358817061832384
0.020411883262593578
0.008319546866588107
-0.018075573739570083
-0.028121138067053242
0.004093820457442379
0.03022049601860922
0.01333705359919449
0.006609065702006618
-0.0019365465125578622
-0.010321260177256405
-0.010734966001935825
