AAD_Filtered_TADAS_FILE
AAD_BASELINE_CORRECTION: BASELINE REMOVED
AAD_FILTER_TYPE: BUTTERWORTH
AAD_FILTER_ORDER: 1
AAD_LOW_CUT_FREQUENCY_HZ: 0.025
AAD_HIGH_CUT_FREQUENCY_HZ: 40.0
EVENT_NAME: 202302060117
EVENT_ID: 13194
EVENT_DATE_YYYYMMDD: 2023/02/06
EVENT_TIME_HHMMSS: 01:17:32.00000
EVENT_LATITUDE_DEGREE: 37.288
EVENT_LONGITUDE_DEGREE: 37.043
EVENT_DEPTH_KM: 8.6
HYPOCENTER_REFERENCE: AFAD
MAGNITUDE_W: 7.7
MAGNITUDE_W_REFERENCE: AFAD
MAGNITUDE_L: 
MAGNITUDE_L_REFERENCE: 
FOCAL_MECHANISM: 
NETWORK: TK
STATION_CODE: 3120
STATION_NAME: 
STATION_LATITUDE_DEGREE: 36.58924
STATION_LONGITUDE_DEGREE: 36.20568
STATION_ELEVATION_M: 102.0
LOCATION: Kahramanmaras_Pazarck_Turkiye
SENSOR_DEPTH_M: 
VS30_M/S: 455
SITE_CLASSIFICATION_EC8: B
MORPHOLOGIC_CLASSIFICATION: 
EPICENTRAL_DISTANCE_KM: 107.59
EARTHQUAKE_BACKAZIMUTH_DEGREE: 
DATE_TIME_FIRST_SAMPLE_YYYYMMDD_HHMMSS: 2023/02/06 01:17:30.5958360
DATE_TIME_FIRST_SAMPLE_PRECISION: millisecond
SAMPLING_INTERVAL_S: 0.01
NDATA: 12501
DURATION_S: 
STREAM: HNE
UNITS: cm/s^2
INSTRUMENT: sensor = CMG-5T/GURALP | digitizer = 
INSTRUMENT_ANALOG/DIGITAL: 
INSTRUMENTAL_FREQUENCY_HZ: 
INSTRUMENTAL_DAMPING: 
FULL_SCALE_G: 
N_BIT_DIGITAL_CONVERTER: 
PGA_CM/S^2: 0.034
TIME_PGA_S: 
BASELINE_CORRECTION: BASELINE REMOVED
FILTER_TYPE: BUTTERWORTH
FILTER_ORDER: 
LOW_CUT_FREQUENCY_HZ: 
HIGH_CUT_FREQUENCY_HZ: 
LATE/NORMAL_TRIGGERED: 
DATABASE_VERSION: 
HEADER_FORMAT: DYNA 1.2
DATA_TYPE: Acceleration
PROCESSING: Automatic Paolucci et al., 2011
DATA_TIMESTAMP_YYYYMMDD_HHMMSS: 
DATA_LICENSE: U (unknown license)
DATA_CITATION: Turkish Accelerometric Archive v 1.0 - Disaster And Emergency Management Presidency, Earthquake Department
DATA_CREATOR: AFAD
ORIGINAL_DATA_MEDIATOR_CITATION: : AFAD - Disaster And Emergency Management Presidency
ORIGINAL_DATA_MEDIATOR: AFAD PROCESS SERVICE
ORIGINAL_DATA_CREATOR_CITATION: AFAD PROCESS SERVICE
ORIGINAL_DATA_CREATOR: network: TK
USER1: GuestUser
USER2: 
USER3: 
USER4: 
[...]
-0.002102845517808936
-0.001069325098812314
0.003152854682643172
9.400787336457303e-05
-0.005129916265569468
0.0018329748718205329
-0.0014858471910052585
0.0022398050352331047
-0.003275969523592418
-0.005660767832068465
0.0014412830255426258
0.0057355983374961774
0.00014863266997198275
-0.00672765473811858
0.00017494311744215284
0.0018620947520139525
-0.002163571281376415
-0.006438674456895281
0.002530122960264645
0.0022573410812335593
0.0003573300516352652
-0.0004851458186625485
-0.005253101704345818
-0.0016859499244408652
-0.005303834780767911
-0.001869609139680342
0.0006825695033165878
0.0016437448526569276
0.0018292705305288854
-0.004823121485296258
-0.0005249644621359235
-0.0018057493085721669
-0.0011500159628093395
-0.0028360471652391223
-0.0019717891509899686
0.000983186773585084
0.001738058486078965
0.0033844482083716116
-0.00017228978255304263
-0.0042387723415785415
-0.003516062956369278
0.0035823248603348706
0.0033538537737683853
0.000298817004486063
-0.0013123209786985693
0.004481622091016239
-0.0011868986177404602
-0.003498970215963963
0.0006230988641468137
0.002819576496264256
0.0021478390921495435
-0.007459039287063961
-0.000295240957720541
0.007814033389417652
-0.0006222709717442865
-0.0017544419396530553
-0.0011744050046691688
-0.0007883759596951688
0.00014720494575282727
0.005546957127302324
0.0030142472040004887
-0.0031622436550458933
0.00043815796436158847
0.001770467499922925
-0.0002665485604075773
-0.0005860655055953619
0.011103157394232774
0.0017428905389374777
-0.006834274340026413
0.002063430253344862
0.00024545466879726934
0.0007177019374990445
-0.0015575326695663693
0.00028141491696183417
-0.0015586629867370245
-0.0006190929188211739
0.003876834080848274
0.0013559046954087362
0.0010531040199149796
-0.00015145221852855598
-0.002249997801412468
0.0019868067344035985
5.318294204170262e-05
-0.006647226527455235
0.0028780913393308075
-0.0021988538770866973
-0.0018714884873181012
-0.0013553135108431594
-0.0020662723910660078
0.003950526617809326
-0.0031862385844399557
0.0015806426319975142
0.00276885438202851
0.005322327364886614
-0.004124230103003673
-0.00405626158351436
0.006992330175164766
-0.001580601134874402
-0.0015111255819287358
0.0004907621445466993
0.002861377155405105
-0.004452095624752668
0.00018212234567841005
0.0016666395638538394
0.0011341683068146011
0.0014031452873528067
-0.002579077796423596
0.0037455660316119063
-0.0012874753777488482
-0.002114489953978869
0.003735162109896304
0.0005261509643832138
-0.0032662554973606046
0.002059875202682818
0.0016063786386625299
-0.0020081673872925426
0.004128900606450558
0.001901934514966827
-0.0012639988394948988
-0.003944929069833677
0.0039817395782458034
0.005365374843431996
-0.004390746165847939
0.005101465070365435
0.0016185420389073974
-0.00452398148190634
-0.0022930438796769847
0.0022282319983096253
-0.0012060466734762345
0.0012214859173573015
0.005181895023832841
0.0027031698103631907
-0.0007884401614529958
0.0003118377215099362
0.006079254410703227
-0.0038736097440683257
-0.0001583225656814374
0.0006644187104268388
0.003634262426218891
0.0032453992243668493
-0.0031182479376760685
0.006905538617326027
-0.00024166694754233222
-0.0047418854289895404
-0.0013120956266690926
0.0037263352371854396
0.005223176793088117
0.0017381349118723508
0.0035064175700408435
0.0010173009843473973
-0.0015606604848335418
0.0015621386165853822
0.009235941390143044
-0.00033845108940199853
-0.003604126564472722
0.0019075053447885795
0.003394298692573685
0.0044382773317392585
-0.006498337361096376
-0.0006948546089617331
0.0013270230963264322
0.0007476174377407842
0.0035266943089949736
0.00549488650885121
0.0006396082761548847
-0.009547802585245397
0.0010788191353179833
0.00742386816708685
0.00011270011200018089
-0.002271469260547183
0.0027879721281937582
-0.0027285354452084537
0.0027950039252175206
0.005402778497742069
-0.0006811454921629855
0.001962692083966913
-0.005262065612146335
-0.0006710402474169345
0.00354981532887496
-0.00018738036110798516
0.0005838027742595057
0.0004166570404957981
0.0007263277625512712
-0.0023706151943251375
0.004633987901195839
0.001287320664492462
-0.0004033770874944965
-0.0027066622862567274
-0.0037885974227432036
0.004680729862031245
-8.900095415630339e-05
0.00346681895158739
-0.003998999176202704
-0.00448604164452416
0.0030035727855743455
0.00031773770331695124
0.0046208376300193605
0.0008392797255722361
-0.004922492891339972
-0.0035623212668697826
0.0014040275100853372
-0.000220369535475766
0.0030924192876666512
0.0016260746866291356
0.0007863428795315328
-0.002629841804149126
-0.0006606944148946223
0.005797071747063642
-0.00405438242334044
-0.001068322242972789
-0.00280970375931251
-0.0019173547251115789
0.00034512549332674865
0.00371346246414026
0.00041017117779470975
-0.0006224176750146403
-0.002355487518284813
-0.005084403762209425
0.006937140326008386
0.0021636112853680154
0.000970168545908972
0.0027048058002151205
0.0009127886891631904
-0.0017931427476363289
0.0013952871833969721
0.004742062872534924
-0.0005869628493820434
0.004158828067671493
-0.0030101594424680675
-0.0016169864418843739
0.00084265610499521
0.004109550165030217
0.0026648891343529655
-0.005420255013197941
0.0029976124629779648
0.0009696360944079166
0.001998772078637113
-0.0023706728359921005
0.0009877509085906692
-0.0020785116009289233
0.0006157495802182196
0.007606112213911169
-0.000938772848294241
-0.0017886897418318717
0.001360246725919583
0.005405277170096243
-0.006382438236941662
-0.0012763053609529086
0.0038139299927933443
8.656016570554131e-05
-0.00027779438309538613
-0.003029588649278107
0.006060845601551685
0.000971990097239112
-0.0023180598502326754
-0.0038027213139968036
-0.0005525004482689293
0.0002814017793470212
0.0007611675495737605
0.0034533948002384587
-0.002669607465257932
0.001128712603670321
-0.002838919526066967
0.0009936113038510471
-0.0009575907018159215
0.0018450526430219367
0.0022235490811071397
-0.0018155536319157753
0.0004684423388280407
-0.0020502025297231613
0.0071456264539588275
0.00019262226010668908
-0.003503766452878479
-0.0002594033541117202
0.0030636061120437688
0.001592888862155105
-0.0028605003736239453
0.005512402313123492
-0.0005664357778743046
-0.0017669413554681056
-0.0029600978543237793
0.0008172186181408423
0.0034140892967997054
5.202195667711878e-05
0.0008581550743913311
-0.0040732668358008225
0.00409380104533214
0.0015126817678491505
-0.0019232759931172138
-0.000849358649757187
0.0026744329847367704
-0.0002536407429438138
-0.0026061136799038894
0.005828442006500114
0.0024298512639617624
-0.0017232141769666063
0.0003929918462281082
0.004288164854524172
0.001167405473851135
-0.0006378867505544512
0.001863519038641368
0.0008127083250051908
-0.00046193280223231185
0.0022217615256614398
0.003337189161270137
-0.0017573954877120395
-0.0011958184573349186
0.0019112515122023663
0.0030383937483269372
0.0017800484468893645
0.0003823732241028939
-0.0004893281315465512
-0.0023045274499423956
0.002691935397350093
0.0012747015531452451
-0.0020752366280936793
-0.0017227894979701937
0.0021699672046406357
0.004027594282089253
0.00013563871509664611
-0.00014513200207771448
-0.0020353761856100167
0.005710206507633677
0.002887791117385105
-0.0004287168686340936
-0.002130679777812892
-0.00035636881470127983
0.003488166969180725
0.00016877513150371668
0.0027609119912356548
-0.0035350732425911005
0.00035251434842170767
0.0015389911331782752
0.0027400949555013055
-0.0014930295864467266
0.0011159060716019497
0.00973017805782567
-0.0005491690118660397
-0.0016478627895772265
0.0032089557072183367
0.0032176858783520314
0.00026788232911627703
-0.005012649600174324
-0.0002817802121361841
0.004093322863177568
0.004118646477504132
-0.002457692842901482
-0.0002373148263029419
0.0072223406445730215
2.217098615734439e-05
-0.0012883307494524153
0.00480524193373545
0.004859341442405733
0.0014307685584004056
-0.00021861167327192257
-0.0007353597178409596
0.008116650847297282
-0.004991364364832377
-0.000799559120675568
0.005658886556648507
-0.00012405760060157846
0.00033114488293858267
-0.0035169509364456745
0.006583958202455642
0.0012055292557153127
-0.0001298308630562482
-0.0005801991976200556
-0.0012532702147142827
0.0018044686705200412
-0.004726778227909519
0.0006394487391970451
0.001299585030273675
0.004351375785022187
0.0012067987734032761
-0.0012645594040448097
-0.0018118742807461095
-0.0026590052976007785
3.8020676029976836e-05
0.004994089610071766
0.0020102425237300088
-0.0037081579619348305
0.004406448319324582
-0.0015384118589256265
0.004200146539916849
0.0055653586413703425
-0.003503017453159859
0.002247673262626467
-0.00023014480569031419
0.002160494708237246
0.0018433988605642566
-0.0018418189558120765
-0.0015449468821625949
-0.003047536176610875
0.0031478911113279454
-0.0036259940247705125
5.3788303541326976e-05
0.002702071885118598
-0.001137010391524268
-0.003475157370303975
-0.0002434863324703307
-0.002337999232781643
0.0005407992539725754
0.0029171710928209793
-0.0012359504542550932
0.002687113773204441
0.00045958241172197936
-0.0033799682745070956
-0.003905333695239248
0.001794418923292495
-0.0004301397506659653
2.4956076219898106e-05
0.002505952638707928
-0.004637274356116389
-0.000541744445895179
0.007320471570793384
0.0021751424800715686
-0.0017671221741448404
-0.0013397085844521807
0.005903701878866305
-0.0011833715465440974
-0.00028798515501882757
0.0035507959278846153
0.0009122723803791298
-0.00023327794640458713
0.002157950516642172
0.002744930035744678
0.000406556536066745
0.0004649878099052591
-0.0038597375985840463
0.006710650225896288
-0.0011658573884315887
-0.0028076852030334987
-0.0006105403190074454
0.005731923585448308
0.0020412969732607872
-0.00218861249329394
0.00019405968728712915
-0.0030514426975215975
0.00425585653905294
-0.0012780997016896406
0.0008619565548522856
0.0013534581393111363
0.0011004445246952741
0.0030346248738269597
0.0009140778619471408
-0.0070487230396294115
0.010124419946721128
0.0029490937705259138
-0.010809808582625202
0.00819063886257677
-0.005558824205981125
0.0021246841643591022
-0.0017875553703625762
0.012861452601300762
0.007867621872675814
-0.01899008851368795
0.004204902486456372
8.3307673141359e-05
-0.005504497682912129
-0.0021971452419072375
0.0024538508775165556
0.01228628112513872
0.00951769351543136
-0.0017519089348025805
-0.011835878727479194
-0.0005783403740085571
0.00612788928550801
-0.0135679314236068
0.01681925771899145
0.007654094694024028
-0.013239591603847202
0.01617427726350802
-0.0022116261481770682
-0.010257307484525148
0.005157608116393345
-0.003371609624393283
-0.0028675456004378782
0.009764451689728372
0.009645174241363633
-0.01630520112706542
-0.001261716990385096
0.0023909472468111384
-0.008963802795458959
0.008808916767088863
-0.0065774538835396135
0.0075911209209944186
0.012119532309870961
-0.011906932158190088
0.006215517215269619
0.00579862453796118
-0.007336172048657675
-0.006741147550781113
0.009017930154894268
-0.005796731828953937
-5.70338082322475e-05
0.009679510867355141
-0.012695646776584923
0.00978658510873625
-0.0018957854301600685
-0.007249175644109925
-0.001571581316598305
0.008426415829094843
0.01100597027831055
-0.003213164553171154
-0.004561800351784953
-0.0038650143956115066
0.005055379811290678
0.002088894635797852
-0.000700642321225375
-0.00379983257719396
0.0020786634416943275
0.0033784989389586306
-0.0020354811877560846
0.0020788676379939535
-0.011317906195821334
0.0038836300264898553
0.014449368315615621
-0.0070033493687438175
0.0032447971565825384
0.0023197419649447232
-0.015067964238455694
-0.0009921598430869861
0.013547292673572858
-0.005403735853092156
-0.007053186721751037
0.009847275143196804
-0.004194366951036899
-0.0020149757864192865
0.014735173782969032
-0.0037611897470898052
0.0013598963509622803
-0.0012474425185756458
-0.0071495848150118484
0.006490565922022125
-0.0076931135005379285
-0.002495323219933626
6.513153569971986e-05
0.004638786183403505
-0.007640699579360757
0.0022373296280228335
0.016643308247222672
-0.014676014131338512
-0.004589814605225754
0.014246813412929774
-0.0005635866804923906
-0.008849745390872662
0.0014872194898801665
0.010463928029635453
-0.009040614473456979
-0.005427825823458456
-0.0029587563707118153
-0.003302843434937777
0.006598102749940159
0.004033683650224272
0.0019386867419874168
-0.008300074264859566
-0.006011347511243876
7.106829045740992e-05
0.009633026886215304
-0.011297815028573282
0.0009556607663789259
0.008733487618505462
-0.011287925909506459
-0.004920894171851512
0.004734439492031752
0.0025256214816126153
-0.018729306371428556
0.0034230772689732396
0.024013875404140822
-0.012502384118745302
0.004289265619677886
0.01359285247377767
-0.02619865276779663
-0.000928840270003444
0.016279719735548624
-0.0182726901196779
0.016064810238444773
0.012802572708082372
-0.02353475321461976
0.015565157060478792
0.0019729873224901494
-0.006035083683768326
0.0016677250544844216
0.002492613929963476
-0.0033565778351648135
0.0021121195207740224
0.007235483604304357
-0.0035224758243624435
0.0003751337965982374
-0.006579068761734092
-0.00031451441242247487
0.007347754020037441
0.0011741528477222424
-0.01421984541582119
0.009009122654958936
0.02225983582136963
-0.010971370622715271
0.004824168813496986
0.007175596802401044
-0.014375895863836976
0.0027200760140789807
0.007579329223090366
-0.001463434101082396
0.012630468258765995
-0.004283824961074212
-0.01126573120784069
0.018074458777933063
-5.219515030158817e-05
-0.010495370213170407
0.005461994338618731
0.003888128644615336
-0.0005182350547252622
0.011215648635346772
-0.00042736633824921617
-0.0024145653697790035
0.0017652686709574757
-0.008952465709967047
0.009626933770671123
-0.0002958477351253514
0.001361415574912863
0.009103655043764914
-0.005928399987862462
0.006927810333072812
0.0024071912758837043
-0.0018533044463297584
-0.007591404177912788
0.0032547807334352536
-0.0013641005718330764
0.007541232300543541
0.0102259877334405
-0.012405856557684537
-0.0010927113231741694
-0.0011936526873601789
0.0031539510404753023
0.010879225949642102
0.00037191975781238187
-0.014624309308279205
-0.00447805489332119
0.01093808962317086
-0.0003170430788885425
0.006537395918913082
0.010494520281903008
-0.009169044095676713
-0.009769128799531979
0.005474239400808636
0.008104927379604282
0.007877957473167704
0.0034552796725328605
-0.00944485044097638
0.0034654276279698464
0.003897657052380748
0.0014089743208350867
-0.001396400153202546
-0.008779931916043421
-0.005229704293928688
0.00947477422755619
0.018697582095692295
-0.0029858843482716965
-0.014324175339377453
-0.00807157976734482
0.004134733756545456
0.011024644898934111
0.011788939947788037
0.004366830144573185
-0.011755995192591847
0.0007651123285115007
0.0025315439068240167
0.009537408236757822
0.00595221283591235
-0.011447494041658086
-0.0037017197890028834
0.004797025765987155
0.011085487345407468
-0.0018557897999082272
-0.0004677930042124731
-0.005240151605563976
-0.01093620163151126
0.014359623131834951
0.005529653911411434
-0.007393910880026325
0.000100235561265151
-9.493854169102849e-05
-0.0040630803979738355
0.007681882035318117
-0.0007949876568842819
-0.009137269573359223
0.0032624293525990765
0.009830539133377777
0.003303862658089322
0.00028767775772303435
-0.009026146865487326
-0.0058506386100358534
0.007463416524894611
0.004517434761085089
0.002389053927815039
-0.0046696376056931865
-0.001746150686445577
-0.0011943011100630588
0.012991137352665631
0.01049253705545685
-0.0058888030756937965
-0.0074877045357940675
-0.009142021840416471
0.01567588296822309
0.013187110607015875
-0.010889344818266856
-0.00517346482576737
-0.006711612572810226
0.0053863422820886065
-0.0005522465205130534
0.004277182565166039
0.008364336017766944
-0.017236051469255744
-0.008244084855029754
0.008445318869323792
0.01395032152046664
0.0007225858483844756
-0.011535613820767196
-0.0027883113453418523
0.001131942587449013
0.01020922975852779
0.009636818316158084
-0.009755537548826698
-0.009587781299580055
0.003909264420889473
0.003590244828516974
0.0008062435890328623
0.00041226816899663627
0.0046795609556113255
-0.008574867129062198
0.004061718323644759
0.010055662913808156
-0.00024808478873520896
0.002731943887135818
-0.014156541937491055
0.004183567161269225
0.01066645451615378
0.0005651749730142953
0.0027629808503425745
-0.006949180531215172
0.0038821799623257863
0.004015210054729374
-0.004649151061717672
0.0008980572832191655
-0.008026909007986534
0.0010505142660980282
0.007505386213840593
0.001945421737610023
-0.0008810626427969998
-0.0035092215876634577
-0.006005726463761667
0.0022838670513664746
0.00642410740786977
0.0022700612186798822
-0.0010458727747087815
-0.006136332312670958
-0.0037592325251326725
0.01221567529862155
0.00993879824871851
-0.004519720315174892
-0.002353833919732336
-0.0011897481430429406
0.00613125439359182
0.006914205865009659
0.005143635398724113
-0.004589610647584074
-0.00595642603212409
0.007859838819838585
0.006012948002020177
0.00716433961574677
-0.00722302139262342
-0.01570851927736124
0.006271300196362463
0.013836189583288376
0.006792368573140823
-0.011110276401527881
-0.006047410469395027
-0.004539808534820256
0.001032743782371594
0.010174381556563897
-0.0015040824947270355
-0.007086658956160937
-0.007168640842960001
0.006901480606962803
0.009221815740438745
0.003726085748294053
0.0035743109242975784
-0.009238219260619294
-0.00835075432510715
0.018788650773016745
0.013982795980811098
-0.006882959941971901
-0.0010013500824094179
-0.004667925018995645
-0.0007578597610324679
0.000419833304182211
0.011119783723531094
0.0020363021166322523
-0.013688687676353346
0.0029287404840366215
0.005092987685384821
0.002624295741830813
-0.0013240142993907226
-0.00451052611280601
-0.00852869412820382
0.0016705963049426435
0.008231577223508554
-0.005293323904184243
0.00046738787473318475
0.00476807044323924
-0.0028540753363543296
0.0003508948976526547
0.006630383096993042
0.0029696648188283735
-0.0046673237471883565
-0.002127840413637575
0.004269666964826871
0.00891559094237021
0.0033685890736674844
-0.006925308552279779
-0.008001474257380556
0.002733958651676121
0.010149665533532781
