AAD_Filtered_TADAS_FILE
AAD_BASELINE_CORRECTION: BASELINE REMOVED
AAD_FILTER_TYPE: BUTTERWORTH
AAD_FILTER_ORDER: 1
AAD_LOW_CUT_FREQUENCY_HZ: 0.025
AAD_HIGH_CUT_FREQUENCY_HZ: 40.0
EVENT_NAME: 202302060117
EVENT_ID: 13194
EVENT_DATE_YYYYMMDD: 2023/02/06
EVENT_TIME_HHMMSS: 01:17:32.00000
EVENT_LATITUDE_DEGREE: 37.288
EVENT_LONGITUDE_DEGREE: 37.043
EVENT_DEPTH_KM: 8.6
HYPOCENTER_REFERENCE: AFAD
MAGNITUDE_W: 7.7
MAGNITUDE_W_REFERENCE: AFAD
MAGNITUDE_L: 
MAGNITUDE_L_REFERENCE: 
FOCAL_MECHANISM: 
NETWORK: TK
STATION_CODE: 3134
STATION_NAME: 
STATION_LATITUDE_DEGREE: 36.82763
STATION_LONGITUDE_DEGREE: 36.20485
STATION_ELEVATION_M: 29.0
LOCATION: Kahramanmaras_Pazarck_Turkiye
SENSOR_DEPTH_M: 
VS30_M/S: 374
SITE_CLASSIFICATION_EC8: B
MORPHOLOGIC_CLASSIFICATION: 
EPICENTRAL_DISTANCE_KM: 90.29
EARTHQUAKE_BACKAZIMUTH_DEGREE: 
DATE_TIME_FIRST_SAMPLE_YYYYMMDD_HHMMSS: 2023/02/06 01:17:25.1268070
DATE_TIME_FIRST_SAMPLE_PRECISION: millisecond
SAMPLING_INTERVAL_S: 0.01
NDATA: 11251
DURATION_S: 
STREAM: HNZ
UNITS: cm/s^2
INSTRUMENT: sensor = GMS+/GEOSIG | digitizer = 
INSTRUMENT_ANALOG/DIGITAL: 
INSTRUMENTAL_FREQUENCY_HZ: 
INSTRUMENTAL_DAMPING: 
FULL_SCALE_G: 
N_BIT_DIGITAL_CONVERTER: 
PGA_CM/S^2: 141.510
TIME_PGA_S: 
BASELINE_CORRECTION: BASELINE REMOVED
FILTER_TYPE: BUTTERWORTH
FILTER_ORDER: 
LOW_CUT_FREQUENCY_HZ: 
HIGH_CUT_FREQUENCY_HZ: 
LATE/NORMAL_TRIGGERED: 
DATABASE_VERSION: 
HEADER_FORMAT: DYNA 1.2
DATA_TYPE: Acceleration
PROCESSING: Automatic Paolucci et al., 2011
DATA_TIMESTAMP_YYYYMMDD_HHMMSS: 
DATA_LICENSE: U (unknown license)
DATA_CITATION: Turkish Accelerometric Archive v 1.0 - Disaster And Emergency Management Presidency, Earthquake Department
DATA_CREATOR: AFAD
ORIGINAL_DATA_MEDIATOR_CITATION: : AFAD - Disaster And Emergency Management Presidency
ORIGINAL_DATA_MEDIATOR: AFAD PROCESS SERVICE
ORIGINAL_DATA_CREATOR_CITATION: AFAD PROCESS SERVICE
ORIGINAL_DATA_CREATOR: network: TK
USER1: GuestUser
USER2: 
USER3: 
USER4: 
[...]
27.71981884654107
-11.778286694262842
-38.65559526704975
-1.2634555447206035
5.593092447575684
5.255372530402553
37.14036228476781
30.20955400699806
7.275361955733793
-0.5618187952604536
-18.135693417537812
-41.6703747346316
-39.56668528745855
-23.444509597899486
-31.012240685464075
-29.06552943254641
-8.532982180860897
14.498167934628265
33.60737537969107
21.165217561359604
-8.430797520625397
-41.17356192266032
-39.45938970605349
26.676034059284515
75.82265453046713
57.68331423088997
29.82757714402119
31.81823768363002
36.97665680930325
38.39818432793146
37.08087269261054
18.22317840950292
-0.24203638023476778
-11.519638956684634
-20.657356845864967
-17.82354302589268
-14.44966673127844
-19.470516884303798
-12.447116351618009
-8.501473451495803
-21.305426618610277
-28.615676003915155
-33.220094356536364
-13.558415027076606
24.220754730692853
26.942532832618785
14.781579703811062
29.233325460578246
53.633566624483564
53.2339845074799
31.543405086897202
-3.24073203445041
-41.95663118566792
-32.40950364897141
21.814023299624616
52.974506541872245
37.67784784589433
-4.455258952650829
-29.23971203323206
-34.88184477772035
-56.9204730440552
-77.51943226085801
-87.8475700114413
-74.36324389933414
-18.687693596667998
14.248801805415003
0.2247249469984925
-17.331868869309016
-38.43726907949854
-41.18005758482828
-21.210262528621477
-21.62937305350781
3.7675255002518875
36.38557865102968
3.067559162014898
-8.207396665403305
20.21166133447107
12.043799245663182
1.4580869761395054
5.851863909206042
0.6273046953927343
-19.08701653163101
-52.48879275633854
-66.85276779872498
-55.08741778363385
-33.87613147570262
-10.044403037782269
0.5167681525138983
-5.963842274670906
-21.79694533153737
-25.825499934394053
-18.266330010978777
-24.728183718697267
-37.60457105000594
-28.108880400520057
-7.7990105422688565
-10.562260332517933
-24.895787819068705
-28.27218836464549
-23.468258308470237
-26.16953969172977
-30.06328123927314
-14.846324180687931
-3.8470041824432544
-9.473613682321783
-22.655729732055235
-25.45030463148378
17.669788180298955
67.85855087955754
77.80851145800361
48.84779719475881
-0.7615715681959806
-12.778429831064434
5.249985940612689
6.92436704560289
-18.984617022232236
-68.52404039708675
-89.60499903530643
-71.04076277335821
-49.20799327188021
-22.10387269767075
8.68943449284344
17.440565521212676
12.283714468878328
10.690856449065675
11.43376386863985
27.086258989741843
39.5868956861439
44.42966692150613
37.95210242099958
22.488501470066396
37.17039001229745
31.09586107478829
1.9863656332134496
-3.394852384289951
9.939573191220486
40.037855361218085
43.86096837099189
39.64514480552602
38.05436973321214
22.26011005712027
19.97287118599474
1.4089484255187292
-19.334021450889423
-17.706243069799168
-35.42772214535012
-60.83411485117603
-43.43679599724779
12.576143703429407
64.79126739424395
73.73839631607694
23.069492106679142
-32.817406256374774
-28.81215080843544
27.913475283170897
87.6420541068063
99.64279803788611
66.22303762455691
50.44845537467096
40.06400635228144
-4.628833023062333
-29.306359713437587
-18.4101771023328
0.5373158147013841
12.554619244150588
-4.38007273409286
-29.009317493715713
-38.173695146426134
-19.998962523377838
4.651833719557907
-0.023392014966960688
4.115789560370634
6.179958687257208
-3.011223734362873
4.29799204239352
0.8421250313209361
16.512996020413322
44.552862813302454
39.17035054444695
15.801395799810162
-3.08625680725285
3.3321424788962046
-7.882201192421944
-37.78100269186493
-41.70688535652283
-47.31890973555051
-46.85300736228617
-35.56044365372911
-28.842474162286642
-10.697433329464596
-2.033626794743305
-28.807519299979855
-64.59690302394483
-79.42184239002532
-89.28994735069432
-87.63117191816625
-75.44215589980661
-67.15009393888066
-20.97758464535959
39.577328945894735
56.68505898850009
23.46099530128735
-27.374462653122617
-28.024136269360955
7.108319565791562
21.617604124617284
10.945294562243463
-11.486743245246512
-20.721008557961515
-21.4182625289669
-26.280472359783065
-20.640443692247235
-23.313365552246875
-38.17948250302773
-29.231592039189195
-19.00425655199237
-21.633458641277034
0.8428765410151298
25.429274808924095
15.51197148931924
4.885819436285287
5.403320151541571
-22.708949023342786
-52.291337903014224
-49.78070733179458
-28.608244785898876
11.383988073423366
30.069429762153842
19.829312467099786
17.944711869571858
19.89348853506201
26.588416919385452
48.99116878581787
75.37674394711483
82.42212237493513
56.946860558451974
-0.614961005623625
-31.55454136329114
-1.1789281862771233
14.82129101332219
6.124705370337353
-5.168162533811665
-67.73790605207057
-122.46499075921923
-106.87524662106975
-85.58725503405375
-44.40248161876923
34.3780287908976
46.75206824075778
-13.683963034713248
-37.099272517569304
-19.303394929429405
0.627897633317185
32.61614143965458
47.09526082752281
34.5780473717966
35.0079538726037
42.155157452604925
29.648583423133694
23.13104106454782
21.501222772577524
6.030954621398052
-0.8702694269519524
-5.394991019133097
-0.2556899489568726
6.694332029922817
-12.3667013151625
-27.20873443058454
-12.491982103367112
24.84522605722131
64.26685098418373
95.78606480849002
86.78185569546687
19.28114411026902
-23.2904729345838
-0.271568212563002
2.392337554323148
-43.54811644397291
-56.028921885630695
-27.057878182132
1.7749911579756026
24.10064065000502
-7.977326548619293
-72.12210333545977
-77.96466815239735
-69.89531037293683
-89.98983436318062
-75.71335227091838
-27.086096987041632
16.48847763708915
39.87586163088191
27.64950824288456
0.9732022215048111
-4.483244637858157
-1.9169181079842637
-6.7221765779092175
13.963988481677614
49.4991291824072
63.89967999790094
61.99206295773438
43.778942275696224
60.548250974940956
116.84079978071195
112.02462172276422
52.04346396374796
1.394268600381192
-45.50274538618393
-82.50667254677815
-85.77069669149672
-60.681474614633856
5.022147378903954
79.53871521926624
76.82607497657594
33.62166791797432
38.03361496317263
57.44539996713332
40.1452949700553
5.940874140021004
-33.11981136141381
-63.59313909380202
-62.14974700772371
-30.653960263595778
4.725613906239327
24.27011481072327
41.73546101760244
28.011536988208707
-12.115986916587495
-53.758408673297666
-93.03813794865856
-71.21152736169044
-31.48565565549096
-27.890927433248464
-3.4805490649840705
36.12377518475439
58.31086568460388
75.13384561178047
52.65932258564625
-12.17939094886838
-35.07181229888895
-31.58047161538531
-63.302648333278334
-77.87441156139573
-42.497241773451
-2.104800784405754
27.721184311418973
61.67645092924347
84.48067192249417
80.76924521161577
74.51451522855729
61.05284604466824
24.784968323495246
14.235646781086531
43.76901536628322
42.83582385625781
1.9212515167559685
-10.228897353934833
14.926074269750709
56.39271571827135
95.81212122090999
91.24136950732127
71.83406110485802
76.33943553827618
59.69103206336698
27.571180239512262
25.44927363611108
22.016728004088336
15.249806463085912
25.184167412980837
14.6089988551323
-5.662751106072286
-27.636173194065847
-57.4102652608752
-65.59424607907981
-58.26623658061716
-42.39019746509597
-45.65755420064319
-70.06802131223178
-58.97983414364533
-34.955982996645645
-31.121506483158015
-13.296526786418486
9.908795565149449
10.932532722761293
-1.7506229701146738
-48.499019216400306
-67.98354024147484
-7.196164957152175
13.21707386884578
-11.426504909592591
-14.186660117247962
-25.92272105137522
-12.87433845788339
30.112601710617565
21.0105543151126
-16.281423798812554
-3.014928501335276
26.053326227886686
19.809026548553838
-14.774267486262913
-40.975772824299874
-22.891618926401293
12.616913377497953
17.674360953033375
2.6735313398945557
8.625076577545396
22.268900228898197
27.425442394598164
14.70193232311192
-29.346932787866315
-50.589017635188604
-34.92849377517991
-16.992563233786804
12.858029733676524
52.11547192997104
74.90542534299998
51.13045246488746
-7.567917125637454
-29.705142735534967
1.689848674865065
25.15430800029162
10.74446483762167
-19.7508817676891
-47.74182228862019
-59.51905461879093
-78.70795187605864
-96.80418987160552
-55.27828548934798
-14.837459969917848
-18.224671757887386
-24.85382556095828
-46.87081856211291
-39.76005391870328
22.29210814517221
52.960295724900156
41.20826694639569
28.318101301861766
-4.377164509119564
-40.5192281373338
-39.25536595537131
-13.737155082948407
13.941751080245382
19.302757949591793
8.828104511210233
2.9677521002605696
-11.044903410571656
-18.148251885509858
-17.90380441106499
-28.600098675367533
-40.098859867207544
-48.61571853151985
-51.83946372971704
-49.62620873100232
-34.65548377355413
-16.85337172635733
-26.992536317420825
-17.828502170233623
48.20143964236937
79.43166447389831
32.62555478720313
-22.929677450822016
-57.71037256951597
-69.51719483479923
-47.15113477313065
-13.880757380715869
3.3672634855826113
5.9892284516250545
-24.473690866245843
-64.32338997058316
-30.199534745677163
27.848215545107898
24.72805037065772
-14.874308299614293
-53.57647087359032
-62.67627486517708
-32.28583797489612
22.184750889638142
46.99817583406301
37.54167924717161
24.88691727662905
4.247225034003244
27.370543024894367
65.32319079167377
27.235788297073707
-41.09412630598822
-64.08177762778642
-35.84915776721111
37.72008592145148
81.09120752309819
23.66915292400081
-29.67664569567759
-31.73680070143258
-25.357426586751583
-18.849412298096613
-28.239462997090584
-34.38149442916966
-42.62938037459775
-39.18380682891569
7.304439919115578
70.0423359297344
95.29382740828612
45.06798121307741
-19.360506761791154
-40.38956069367482
-40.43757272433499
-28.51895680594435
-9.102277953128983
7.1542384769660465
19.691395660723586
19.09224983984519
25.79592777298879
43.26854400075127
70.51840208409664
88.95964876397291
37.73947218819115
-8.681367558131575
-1.0839572796321266
-2.9433294446622313
-38.88652435649444
-39.76714900376915
7.982611050529256
-6.9590566609171285
21.11762538379073
89.03818900508712
37.72327885289108
-8.281577241365005
-23.8478606485288
-44.0149161307135
-0.8317793047720939
24.37729951760268
3.8200719353919315
21.392586327318938
47.15047091316604
41.74587694843369
46.11248607972145
34.60380290575181
5.724443379466655
15.136579799050127
19.655228969074663
27.86902730996045
50.113730037274514
9.586352400189535
-40.59720593979697
-39.07925983706038
-35.521134722335404
-39.79710670476051
-29.85671459614627
-21.366229465866407
13.040429166806497
60.10543708642347
28.026282833732612
-24.987535426262866
-44.49319977063443
-28.83454249038771
34.85314483703428
41.886148366702635
-15.111978345124754
-74.84233771320072
-103.76159333640389
-72.1765082038618
-55.062454610447965
-39.68151142794113
30.132270743873377
64.34576781679006
33.39441648171579
24.78585129129758
35.51071246172714
23.538210983411314
2.454637763921747
-18.197825366204693
-19.265652694841645
-10.859019248037114
-10.707718477565415
-14.392353117911513
-1.5358842765645062
39.84202662661447
66.46111547163692
73.97257567492832
65.408145784497
53.99846819167301
79.9852185894942
79.06572516363495
16.096186815953665
-31.363192303005054
-21.125984326944018
37.12937172986031
100.47768154488442
102.96617016797525
31.08780834584989
-23.93250382529307
-15.996343737791998
3.190842457983712
12.598642618384888
3.432223088467136
7.539622514775169
28.365136062426956
29.97322359850408
31.574689027959245
55.49347219776287
86.96111440608068
78.70901852375897
73.04031722392267
89.02720657268264
61.459348832488224
13.223156413885926
1.420220387840711
15.976083930395703
-2.141484113573578
-47.241795344392536
-65.1775941301381
-22.443949320565935
34.92175038895056
17.500828944387482
-23.45619186876556
1.4402382011360053
55.66421780617661
78.98227882780081
75.90565272846422
62.167438267541684
53.60027227707434
47.985155929660564
41.67859679855733
43.55444514272006
18.245602010596055
2.5045170890256587
26.620055731722985
33.29698419705917
41.67483635790573
48.70916602894376
24.291261510885622
27.29260252605265
51.725813953943835
56.03326443297235
58.638056209040975
21.731368348499394
-26.064764561338915
-18.21229275245053
1.0091842397441428
19.32993399887356
13.884226665220943
-43.885399145085955
-94.71141941594254
-78.15017930108066
-27.119097785299942
-9.287913832814239
5.5832061057297455
29.62128177453726
28.29442303255277
30.170937684391706
20.082531085536566
-53.05016681103305
-114.35775759264449
-93.08665097485988
-47.9699531236996
-21.197553486314312
-14.09530562206462
-6.616517455846294
30.47804478365208
53.83040015409613
43.33357912250294
30.90257904612356
7.114110066223952
-9.438807490486091
-14.577586267218267
-8.905772502319207
15.413569269271676
10.175630447758705
3.11186989874695
9.277474470484048
43.0066655007542
125.22604644794156
121.79199827614691
31.37328452061831
-20.06693015876893
-42.64224863602225
-33.96813386724181
2.23952356928686
0.3728309796197491
-15.075422277014628
7.8799158210844515
53.40068805735161
71.58918308868998
49.848973650175814
17.307178459974647
-0.6356175059793572
18.162917509593942
26.156186064143693
-9.388076335487403
-35.699312312891955
-47.19013976665734
-46.77097021275169
-8.977400712916577
42.289390964161306
62.561057290210556
39.96235415834513
10.603668408130861
10.105237603411874
15.882595465272418
4.8776929548660934
3.3649369632497494
21.126280070040245
5.187715093887658
-44.926200093058625
-35.891884044744444
22.261516391201265
39.12107871200318
33.5288141737875
19.172584350686016
0.09844303152828492
35.85933050345708
91.03233888970128
95.69016763086466
63.08899754112903
53.15743896395585
55.638450978217286
39.17060308862241
30.930801368888474
11.369164474783528
7.0560999976443695
38.34543582245199
33.73574153621432
-7.084351072893599
-33.85834037002241
-49.88274843493683
-60.56931469769542
-31.790079147363016
-8.673203195972201
-16.623799320057625
-0.9209812945840992
13.901120190040979
10.45731626156544
16.788831515069536
36.0009299708198
31.65361070997094
6.641375522848231
14.069675505144504
7.556969109361881
-27.87965365575635
-28.542190725100074
0.914942286718478
26.835628947849763
29.579213451719287
19.578140082957134
-1.8986403457139172
-17.106235359639708
-18.323763768672013
-16.761691090689407
27.986118308861414
50.928697078577564
11.707583680968277
-24.08045582417215
-52.01316136632138
-51.52184332929267
-10.894037741783219
23.423834158699485
8.408464017815072
-23.908321933689482
-39.83581683080385
-43.75618329615052
-26.129285772147743
-11.33890431456305
10.0229484042035
27.16490422623736
5.727340030441032
-21.17873955180157
-34.8534112005552
-43.04913900007515
-42.27539226998804
-26.95174623019558
-39.128856635684116
-72.63388383817991
-75.26927856197341
-89.32381900608443
-118.09859771668255
-94.1266640715538
-39.74544065490437
-36.31689929324444
-41.456955659564684
6.317986575078034
50.195478712821235
66.6254201666417
33.29768381215851
-17.897303605537125
-35.72409112300948
-30.447330866142625
23.829431001557392
58.51897442799804
45.76288924588876
21.37015134218101
-27.6221307329888
-50.08088175829292
-23.238636004263313
2.505114468963705
-15.207364475466584
-39.63663118267614
-45.30778846828077
-45.46650363004471
-17.531961164928934
7.782100012968437
23.21224975254617
44.16392440203346
28.793570142199293
1.910590703712082
-13.225805901869865
-31.425531735091983
-40.33523973389367
-30.280798070980246
15.869533503541968
38.978541011784266
4.725862130984446
-18.233708234060938
-24.78195147999127
-25.759062690727017
-7.971254992667722
1.1555779069767709
-13.127157355729917
-10.893601586211101
-14.504785798490841
-52.13741525805791
-49.7653079258493
-8.430712226355235
20.62998906166612
13.812812569265366
-23.835021760859185
-30.654781405656156
-8.839249445502938
15.921367039512461
36.90998270646592
25.214554928573047
7.456303185085454
29.476422059876157
36.77093016758932
-1.6903737612753595
-14.984907717132137
-23.97847710856486
-44.89959057676313
-24.130835641225094
-8.619742769682246
-34.817014775097405
-56.531022103624785
-44.57235149632349
5.158602933700275
49.612008221791655
40.321074345392766
12.329649897509192
-25.935495318709666
-45.534586625275416
0.9763543564028386
16.834450143246514
-10.81872311112755
12.148883867259215
51.44471390382093
67.33511206663337
82.67594105651935
54.281361540150506
-11.11468906551849
-11.200580566981028
21.38221289692246
9.659718087853776
-0.9699563454233642
-1.4160743618006792
-38.078644984153854
-67.18262477561677
-25.859794316680734
25.949391192105097
38.68813344764581
43.54400094905251
26.652248856285375
-3.856777827581723
-12.889231207381316
-5.289545654414052
5.708895354063664
-2.2552850882986726
-24.451835698663377
-31.033809827884127
-17.19979120976465
2.1457120504435183
22.82949990589968
17.58551361221408
-22.64155803415626
-42.08934574000831
-32.33151906888827
-16.093823331073626
8.29053752708949
20.2577035485872
6.979330444039215
-22.28831760433798
-36.729148421369246
-12.13829917624958
10.922532590575448
19.794576881878182
11.515242511793792
-16.966818880458735
-15.946504106234979
0.19272867232266866
15.506201152568408
32.895006815251676
21.649572390213205
-8.616721611472133
-24.805575848511825
-10.906756026170045
-7.92303797921121
-29.13286999089087
-40.26490717418929
-38.85568024507723
-23.335653918136014
-35.79519336756002
-73.2072183737949
-57.31026613928717
-8.28398778679864
13.300419715936021
-0.31805688988157355
-37.04787957412831
-53.3067571933987
-42.59020776445209
-56.74751161612313
-71.39742928041503
-73.44800760006848
-89.7906528279964
-95.07946882642223
-107.42106442453998
-120.48754867613776
-104.25288622977641
-78.73439167416797
-45.83725421342709
-20.022327516565937
0.22416773743946503
27.21994713538822
33.73272816464319
10.036215411546834
-9.32954602349998
-15.241829806825681
-27.38702395880156
-26.193951817488504
-18.633019723854705
-19.7619592677636
-26.549357335973063
-43.98614167595367
-56.977214669756144
-69.2771122967417
-57.771553082356625
-19.38919788862976
-15.289613899738738
-29.098805372582614
-27.420303137401497
-33.34263082739492
-38.60169402847363
-43.91715513754819
-49.36062432341994
-21.740488040169463
-4.625329793945552
-32.43996072659677
-55.25531806395556
-53.435866493357835
-37.77757697850865
-12.29811486366636
