AAD_Filtered_TADAS_FILE
AAD_BASELINE_CORRECTION: BASELINE REMOVED
AAD_FILTER_TYPE: BUTTERWORTH
AAD_FILTER_ORDER: 1
AAD_LOW_CUT_FREQUENCY_HZ: 0.025
AAD_HIGH_CUT_FREQUENCY_HZ: 40.0
EVENT_NAME: 202302060117
EVENT_ID: 13194
EVENT_DATE_YYYYMMDD: 2023/02/06
EVENT_TIME_HHMMSS: 01:17:32.00000
EVENT_LATITUDE_DEGREE: 37.288
EVENT_LONGITUDE_DEGREE: 37.043
EVENT_DEPTH_KM: 8.6
HYPOCENTER_REFERENCE: AFAD
MAGNITUDE_W: 7.7
MAGNITUDE_W_REFERENCE: AFAD
MAGNITUDE_L: 
MAGNITUDE_L_REFERENCE: 
FOCAL_MECHANISM: 
NETWORK: TK
STATION_CODE: 3145
STATION_NAME: 
STATION_LATITUDE_DEGREE: 36.64536
STATION_LONGITUDE_DEGREE: 36.4064
STATION_ELEVATION_M: 695.0
LOCATION: Kahramanmaras_Pazarck_Turkiye
SENSOR_DEPTH_M: 
VS30_M/S: 533
SITE_CLASSIFICATION_EC8: B
MORPHOLOGIC_CLASSIFICATION: 
EPICENTRAL_DISTANCE_KM: 91.13
EARTHQUAKE_BACKAZIMUTH_DEGREE: 
DATE_TIME_FIRST_SAMPLE_YYYYMMDD_HHMMSS: 2023/02/06 01:17:25.2714330
DATE_TIME_FIRST_SAMPLE_PRECISION: millisecond
SAMPLING_INTERVAL_S: 0.01
NDATA: 11251
DURATION_S: 
STREAM: HNZ
UNITS: cm/s^2
INSTRUMENT: sensor = ACEBOX/SARA | digitizer = 
INSTRUMENT_ANALOG/DIGITAL: 
INSTRUMENTAL_FREQUENCY_HZ: 
INSTRUMENTAL_DAMPING: 
FULL_SCALE_G: 
N_BIT_DIGITAL_CONVERTER: 
PGA_CM/S^2: 663.176
TIME_PGA_S: 
BASELINE_CORRECTION: BASELINE REMOVED
FILTER_TYPE: BUTTERWORTH
FILTER_ORDER: 
LOW_CUT_FREQUENCY_HZ: 
HIGH_CUT_FREQUENCY_HZ: 
LATE/NORMAL_TRIGGERED: 
DATABASE_VERSION: 
HEADER_FORMAT: DYNA 1.2
DATA_TYPE: Acceleration
PROCESSING: Automatic Paolucci et al., 2011
DATA_TIMESTAMP_YYYYMMDD_HHMMSS: 
DATA_LICENSE: U (unknown license)
DATA_CITATION: Turkish Accelerometric Archive v 1.0 - Disaster And Emergency Management Presidency, Earthquake Department
DATA_CREATOR: AFAD
ORIGINAL_DATA_MEDIATOR_CITATION: : AFAD - Disaster And Emergency Management Presidency
ORIGINAL_DATA_MEDIATOR: AFAD PROCESS SERVICE
ORIGINAL_DATA_CREATOR_CITATION: AFAD PROCESS SERVICE
ORIGINAL_DATA_CREATOR: network: TK
USER1: GuestUser
USER2: 
USER3: 
USER4: 
[...]
-2.922455083455501
-1.5924043559040841
7.304202052713191
14.229156072181985
10.332940954772162
1.0879560885532156
-2.0863677976510924
-2.262560603976192
-2.6058371024161007
2.6652871834989833
10.325836782341728
10.634093683150105
1.7690142109068663
-5.646551036683154
-4.388255861132026
-3.2904567782870418
-2.8631112032140136
4.710416177792585
10.22218526386462
5.7264160937358985
0.1439353087484474
0.9934644785833713
5.572938232520391
7.176617696932173
3.4089575322267778
-3.9818673487728953
-12.934477722402264
-18.35133202774713
-17.12072535519018
-15.116159084546087
-18.169341591800634
-22.68966938786043
-22.321754773635657
-17.195392203798146
-10.36324640637179
-1.8788936333278916
6.390567670551506
8.130214219275038
3.0202248354044072
0.6378269744120214
5.844181131535953
11.729641981654163
11.302190281498811
4.541908306933382
-2.8029374916751557
-3.6525331467856423
1.71208284733976
9.306714585215381
18.084649028912192
23.267716482414162
19.700328667513226
9.642184077393814
-1.6980157491783678
-7.842618769167088
-4.951294359209382
3.3409444135532933
10.599388737955818
12.70406162566948
13.643948663602698
18.435460490304482
21.095213627580247
19.033077511254042
17.35351405980852
14.168368421294199
8.89961265169497
4.859531970521153
0.4680145607615197
0.9629484659763793
11.695652930827384
19.882739096730177
17.48340813558346
14.92691379244632
16.259477129929063
16.453029076791285
14.324991296943628
9.279218494899366
2.913289225893021
-2.5665797705047364
-7.562118291641
-4.604906605748592
9.423218315383314
19.858958889586344
19.184073298935797
15.638152006520743
14.914117075809662
14.772397772338543
11.726025507400065
9.142777057643976
9.364518848731915
7.7508791106227015
4.400313797239712
0.7025025709932985
-4.027801408027374
-7.508337739550447
-11.622525675099062
-17.005770910378935
-17.569132032178032
-12.530470503147896
-4.889213890847589
2.7792144173467013
5.579363948958208
4.0220488392053975
2.031936577291633
-4.083640988397168
-15.99306405833082
-23.523634775683863
-21.521879042857915
-20.002201789268664
-21.761188007172414
-15.894895417541534
-5.043342045083705
-3.0560032330395717
-8.306528666682702
-11.617121765592499
-12.324634001517701
-10.434943726462626
-8.850519892200214
-19.436074087540657
-37.048060097674984
-37.10020340756723
-20.979387311974754
-9.553492598011456
-3.1130037571147935
1.5516960048654376
-0.281380597808157
-5.777765827257139
-12.177054989633548
-15.693308649151716
-11.72732740534514
-4.219820916398747
7.037545711158394
21.59399959792967
30.018135828664867
30.532246167772062
26.663913770910796
19.149602629760185
8.32423381685434
-3.460501163662973
-6.437648358230487
2.072757785709082
8.087770155346558
7.747142538322866
11.79904798309509
15.356231754677257
7.273149360291059
-3.1981487896955074
-9.828325870318876
-21.748120266902138
-40.04544152220013
-54.14606837135199
-46.66437364490361
-15.955015842635932
6.3020111608416
1.8964651977031581
-12.683304876510038
-27.82723593213706
-42.33694942514061
-44.69623881289952
-26.309322869344143
8.69979391480514
39.23576804883319
45.83878373012253
39.975523371640776
32.76275388078344
17.86405352636715
4.720614358578027
-1.3030488957925206
-14.65011926400297
-35.65814161046365
-53.37879545832089
-63.65478995465031
-68.81170802260145
-69.24798870093635
-58.208077853813826
-42.43447899651978
-28.092766468888826
-2.040378064496516
20.48742679909457
15.16002925616807
6.2963527925894525
9.664883271982816
-1.6323621522617793
-27.19277830011297
-29.312967201393217
-8.846099068828552
-4.368405606429809
-15.289669137343697
-16.444289245390213
-8.683743226886138
0.7070543873059566
5.996321094354912
4.17808651364043
8.410042610712917
22.906547320085508
29.083726258932025
13.640865809667048
-13.069745480210242
-30.65722141921957
-31.31838889521265
-17.293874434957637
14.308924609703817
50.102396084993714
55.35930380127745
34.92914790479127
28.24119133892838
37.050841548607615
39.87115947853121
40.26827347528451
50.76834160694788
58.19885018908394
42.906481402309076
17.203980971825604
2.435916598778143
5.786747864616676
25.62850593741691
44.80062271001838
44.428925706423975
18.99978291943256
-20.29524533383824
-49.202296606863186
-57.28038864590775
-52.47621131871653
-45.29361434853145
-37.264785758222644
-24.164996544170418
-17.54317178305205
-19.181069249547974
-1.5521326931761348
30.828384250543966
34.64386680284816
9.806145544685222
6.009902413120037
41.08976623433199
78.2400568118502
84.7966492576047
67.49758033348124
53.58720275550052
53.49049757382735
42.50305793015148
5.426444356445544
-31.33506276744206
-49.906421493573774
-54.51809119288671
-46.12093893492819
-30.006714124662
-3.188234852347424
26.703811008307365
24.007114325354596
-6.6141462537717635
-25.077787489753433
-23.299449378126237
-19.220258829646777
-27.8832723555445
-41.82331149948509
-41.49098240052
-21.318040436643315
4.8974962479206505
5.51472831186739
-19.476862782010716
-26.134969869745436
-8.973443501525594
-0.37851939089203046
0.22747455245023804
12.32167684440397
22.52393141834602
4.197088230002991
-25.52205354116295
-31.146366856596835
-16.547294361390506
-4.801905925655565
-3.8553328146929617
0.11562665697534004
18.809361841869045
24.178580861535384
-3.901421891169197
-29.22682229673229
-28.447248140905526
-25.240727392773262
-29.566608023090833
-23.04992126099266
-2.5676636734198524
2.8406469263834686
-17.5815248771374
-19.213689275620155
6.445844128186771
-2.6235030397781274
-43.386231964730115
-55.21933052741751
-41.98127501560605
-25.397189882300502
-4.425090468112189
3.4958646798676627
-3.106546922822439
-4.877182242028551
-2.851763653274035
-0.3659192597779498
1.121955793580109
-4.4893442645266415
-9.084251750447402
-11.53272279540057
-25.51824498432448
-37.832379831927085
-19.73344051154016
20.423398984268996
45.65130938606379
43.265777084200664
34.4505341321633
34.39970336991239
31.762821516273025
17.647932520721202
10.312900826141247
24.695602986226266
42.35062724988844
39.908953204334594
29.055507545791098
36.62901998344036
50.45849837231573
41.2590609851409
20.43052752006932
13.867898234648944
18.26903792900278
17.335209330844606
13.394902737420656
16.269989139039815
16.412684552832925
6.800032969967318
-5.326580825537154
-18.356329419177595
-24.462644471233578
-12.13206102092553
1.5472065278266038
-4.708741597450483
-9.323937762970193
5.533773466791169
11.448350477436808
-2.9090472912704315
-18.1507864815398
-27.573099339399825
-23.62382956231897
-3.3605075613840105
12.626441176775128
20.178607597245215
29.751389773943504
26.00430988430889
10.695018112374107
9.190122614691141
12.135113921899208
10.769167601354534
10.623006742662973
1.7813052709375259
-5.355737900319079
2.124196389237805
7.162767842890692
-1.4129938149511352
-20.952965765922116
-41.75052626296074
-44.78633827036614
-29.305933080382648
-23.19427530145047
-40.77540097316378
-64.50883555955701
-71.97953424735324
-48.061054075454166
4.898260049552201
47.30324299846852
33.380017492959226
-13.652258674727074
-25.623942666141566
3.368826488825824
25.122998368950533
21.544361495032966
9.10971845909356
-14.514494307646261
-50.164190795687276
-52.28003025070658
-15.374175663652148
7.344889799838938
5.17374707918066
-16.427499587184972
-50.418487864752706
-44.16951596386187
12.001066305229699
46.53221581570293
23.42674853465777
-35.10327304193772
-96.08783985935487
-102.40978327348677
-45.98788943343687
15.429249160114638
68.50901950194162
79.8633162966584
18.731711454470016
-4.598830410067538
48.83661401316817
60.30954573760759
44.19069866475359
74.09958604170792
54.75414749446403
-46.75453942943259
-102.42260959854008
-62.77423427007937
20.511937457791014
48.15433964121097
-13.856271542616584
-42.4008605467475
-20.693549761913808
-28.84784366644492
-37.989346308079334
-35.9147711590459
-22.628160134355507
-15.948035796519907
-62.95030037098432
-70.96159965304568
3.090645114028457
40.37554102129335
25.024643438182824
12.118349631926256
-30.13121559411565
-76.05964082079186
-19.679392918818397
64.80369354232283
36.879355499669266
-44.76033588844086
-71.45829475904775
-9.253097727562144
50.940144381649304
2.221641994080625
-30.386511873508162
33.06623749688236
65.92226943048286
50.994840067852394
35.80306287239035
1.7261421840868494
-16.39783324003346
-2.4137478041471927
-43.75542945516603
-114.60275608039348
-76.61894078661172
9.252505238805183
20.252983411762916
39.05270012529053
95.19881969999649
70.10360985393336
-16.497050595819267
-46.25120859495832
-5.410754179189736
41.95029948960679
40.24923502700354
33.22085278299464
58.882247991522426
44.23223256298561
32.127548618874975
54.41094274353625
15.358961352555278
17.967364548639623
91.64614724448788
58.35614752755879
-15.759300412270596
-26.997511594968735
-35.54519355015902
-58.83749066471879
-100.36998463888789
-117.1089014458341
-81.28905956043442
-81.3946637594926
-132.58215191837434
-146.21658874838744
-83.91935173555063
-17.786931751811856
-15.6736232581924
-43.262881580783024
-86.42921856558259
-158.05962594162764
-209.54006926145973
-186.2076219880258
-96.2538117684743
-26.221455527700712
-39.97963754972112
-88.8175090270867
-96.4272522510496
-65.5031577609893
-35.94687489155578
10.746551450012628
43.77603920775397
-22.788022936143594
-96.8134366754067
-82.96542821124473
-81.36476271154342
-63.56202113479187
52.61473913010836
94.48797653016324
-6.371249761035592
-95.43546254914297
-102.97864025088373
-1.1151744801800894
101.89594840573726
28.1714722103437
-56.44564780472748
7.172666154919149
35.798087112249256
-38.81520514917797
-102.90717177911483
-149.45755434711626
-194.42308101420116
-208.95729976219326
-215.07325902626857
-220.34044989454952
-160.86293582599257
-62.533900123935375
-47.81563875311768
-107.07122799957162
-122.16114164056425
-87.59360348310003
-78.9369237470864
-93.24330275386207
-89.15382931805863
-68.6059822693654
-50.294012374060124
-27.313360799869884
50.61310472155752
136.90028249707558
109.74330058628968
67.07001285974225
126.01701934508351
177.3652233362881
148.05545145646022
40.345484810883725
-65.46843081583904
-46.65299906600152
2.6150373622947987
-18.08139697418039
-69.06260769218794
-127.77873492238476
-142.1280571531036
-113.96228018739774
-92.0263240648501
-83.76839017922057
-109.05303651297359
-117.36666887284872
-52.59505429378006
53.383859564598175
139.15657379192157
162.68760932141828
170.18966593008986
222.43624982950766
340.9885155742858
429.98642789230104
351.6934944581995
210.34554299027405
94.25709407352258
28.261509371169527
112.91977325785028
172.05264525578366
110.54219027309298
126.40407521427043
197.26341740219107
241.23846991565577
223.39255244415332
112.39330957799484
41.48442299030152
43.1955879304722
63.36245187462727
100.67126332879586
59.238216039353965
-52.78002045839839
-87.48094702289211
-55.569169786372186
-70.53646917817949
-142.11969627301139
-218.2949618274049
-221.4589652930078
-74.99656795951769
113.44725581074093
200.449966029658
236.7049159247291
282.33887708817815
324.54096610496583
309.60142859000536
217.66200486135006
175.9491947765777
221.568124643827
250.4474863966727
295.4070319183101
381.1746951133295
379.71270340657514
274.5187440570969
120.85514814765553
-39.39735821278112
-19.294669282707112
142.52437661518576
154.76706941474808
96.39692169805839
155.5503529225794
254.2810623266999
303.23871753128736
270.31066445444077
212.24540911294875
179.398621323091
160.40694746046623
216.85138474394608
274.47765968920464
215.24118042524128
141.86821760350372
83.43954445653763
-64.2187590623502
-232.5193761964566
-227.09335504191966
-80.60639530267485
-38.048815971679105
-98.5899277664066
-84.52244267793957
-41.032933406330926
-47.21073261897053
-45.00489059568524
-21.75357004070603
-6.010935162998809
-15.642962326652478
-60.08680369344478
-109.84751463877865
-145.88211428289472
-141.6677602357987
-68.66271596270275
14.312557451515753
38.599251509628175
-1.8325460228240775
-44.48699395155267
5.8125526704863235
120.48226935129652
191.42607548318188
193.3010025951156
178.64559533696348
196.28621391314428
209.7732502553937
184.57134494425682
124.07995012033176
-21.323925640639768
-221.41260018301315
-364.7060289717786
-408.68024651162807
-369.5032060262709
-334.9160277900091
-346.0304457428357
-342.7819961277876
-325.55399510551575
-301.9585014942221
-262.074005114298
-212.36076876045044
-140.2617950208479
-129.29943045114598
-218.24580054862992
-302.0399012121256
-326.98572765091956
-118.52460869511671
338.36108629006515
526.7806552482558
318.0831820899566
119.01656424024509
-7.857998628271907
-78.65726213325274
-47.57698919880901
-51.15861901814849
-92.20400222687392
-136.60443694864856
-143.6317371939863
-27.313070525891003
167.88620004231916
471.67322227525915
662.7837890098899
481.3708783847185
330.72787655495887
360.26328733217906
326.3675106779904
388.968535481659
509.1931097380246
411.4548125015523
183.57293153323585
-3.724389131612332
-131.39796362368264
-232.53372183329742
-246.68458709978964
-68.08873695591447
180.96629764292453
271.3614079844764
224.61178679532918
187.7293904364334
160.80086426739632
131.81852869061498
66.75516116842894
-111.78782410237636
-281.8984700683824
-315.5359931043102
-250.54285645618586
-154.5830793616303
-126.91176770982334
-207.95069097234514
-287.9266278053701
-206.33950598530734
-28.257393060848262
4.433109748674881
-86.55426528124757
-161.44541896660678
-209.6421859610526
-213.6659054002049
-199.70494518406838
-227.47691647174196
-307.41967890498665
-378.77602779710725
-368.2124854881318
-270.3584629282473
-1.635661767221026
356.8174044806291
411.1817725602453
140.24193285831262
-41.63000452885705
-3.546926892462538
39.92579094066679
-17.0078246090217
-104.2885307650483
-182.15388630923218
-208.1216975610786
-185.9349691292962
-211.71583777769646
-227.7941847544829
-189.49549138453324
-210.4737467371373
-236.3225715604267
-192.2712651518723
-182.7599859380517
-225.98920305638515
-259.3664723424329
-282.9720457532983
-289.16907448298997
-262.04899514217624
-226.82063394148813
-171.66249446795194
-69.75149902995398
-11.449615388536332
-53.94121363539504
-109.45598077781445
-146.19843841567848
-192.47163432220512
-239.0692775554462
-289.397882089884
-327.7630795152303
-322.5729244906984
-294.05843789827867
-266.23781671583106
-238.16413865593296
-213.59041134824722
-190.5893925145827
-162.36480849227468
-133.68098289288957
-119.48641471909849
-140.3985075806194
-178.3378966670471
-157.10102662189044
-64.13189817023958
-5.092265645814149
-30.51480640097407
-79.19928935166668
-124.69458044819488
-166.34400281867963
-161.3920408541234
-101.11228485034276
-35.283183781291115
9.493627707217271
68.02446601673498
154.87648285788214
219.19742161933652
253.42412371459656
304.79518498126555
345.41983100383874
308.01300373328024
271.09406699423664
345.5456988577913
393.25659080672887
284.69175950553733
186.17627454363674
198.3235231812458
204.54124669623954
169.23669193612625
139.64507177473368
96.49105927474899
28.18668888764897
-19.01238213190423
-37.829278674297804
-42.387210895546445
-10.484924142392165
28.366840293451794
30.837445930995642
43.82704426266104
106.60848057455658
187.44124306562773
238.7919970094625
233.01752279816276
201.06278205156195
200.74919947769965
240.8251971548514
297.8806720500748
318.0535249820967
242.30850490982138
135.7623496704824
106.70356710536979
119.29727499347074
103.95084381022542
89.85020968562323
123.19365837945357
183.49283944240798
193.28763665529883
122.29365811138051
37.468602213300905
2.0128764401658623
9.300208861103227
16.33200840504047
5.7084804640380895
-3.2270200808994502
-5.7859849743077
-16.06235740200885
-47.57515274672099
-93.79396044263265
-108.30585199330754
-58.48882282251908
42.4367991102531
145.02612427066458
175.6389051115742
122.36917548232968
40.77826157982466
-41.96089031201166
-111.82797617704885
-140.7698959708791
-139.13234281310199
-147.74108767220474
-182.19800525275593
-231.7694079751879
-273.7269728182535
-285.246613148796
-278.7705798180355
-277.61842478633827
-277.8089277248105
-273.9238231891332
-273.1334527566681
-270.2458360098087
-196.54173252256862
-40.66845434920469
42.78557274589758
9.16517011798332
-27.120573913818095
-31.226748373242877
-19.466290267856202
-45.49858303313901
-124.92424749234623
-191.0672919491138
-260.0691995562639
-294.90750598693194
-231.98793481403462
-189.1486026352884
-213.3537602906919
-193.13429818600042
-78.24639285192653
57.70658056667082
125.0325187631384
141.80820816275954
118.33287861364357
39.54088852192002
-13.076582775572666
-1.9877778991226969
34.38977801566359
76.65618225220797
87.93544045236717
61.40110960167389
29.79478927948771
6.726983062262343
18.668969752862967
69.9376987655929
124.40527194075736
170.55800964677977
210.31848196388123
237.7594773269419
223.0447145188689
147.58307887085482
53.90751988095652
-37.79272208770154
-97.81574489543277
-64.58994856541534
11.476882908670374
52.3207406804677
60.959280779175394
57.425517507437334
51.014374374745664
19.856404798353726
-31.916689492285343
-60.367755112349265
-60.76843651559626
-39.49052908505651
1.6105017226092153
54.68060713459823
101.24918313365151
118.50940258037906
116.73482223793101
83.09055371801576
11.974953500623496
-22.621954762905265
10.303684010654962
61.95224945592109
103.64938121009331
137.9692532047991
157.03465410999695
154.1105657449016
144.6430560912251
132.8126549572595
130.4317441101081
141.3489119257707
135.04925611116894
147.86612694511882
215.77336311355404
283.7440302698571
299.65237562305396
240.5995628767424
162.96141255247602
132.87843089715122
95.15285637470646
32.27125355730028
-24.02616793033257
-81.34417834378847
-84.62143917203221
-15.980221768077488
29.81359785128144
22.94024097930895
7.542520417261923
-1.207657343894371
2.2015267982604216
8.89209706645091
-2.8184249031548982
-6.745311644243159
1.5314212876048514
-1.8254486250351825
19.583776620924635
47.61022756514196
34.42322505784657
30.06874176845016
39.344522092886855
17.75133309337517
-19.715192080592345
-59.21741215581883
-79.81405786049584
-57.06154593725451
-11.87585524234147
36.06102489839726
63.59133236337978
44.03223962120363
1.8585059141567333
-35.07498549289265
-73.15809519017698
