AAD_Filtered_TADAS_FILE
AAD_BASELINE_CORRECTION: BASELINE REMOVED
AAD_FILTER_TYPE: BUTTERWORTH
AAD_FILTER_ORDER: 1
AAD_LOW_CUT_FREQUENCY_HZ: 0.025
AAD_HIGH_CUT_FREQUENCY_HZ: 40.0
EVENT_NAME: 202302060117
EVENT_ID: 13194
EVENT_DATE_YYYYMMDD: 2023/02/06
EVENT_TIME_HHMMSS: 01:17:32.00000
EVENT_LATITUDE_DEGREE: 37.288
EVENT_LONGITUDE_DEGREE: 37.043
EVENT_DEPTH_KM: 8.6
HYPOCENTER_REFERENCE: AFAD
MAGNITUDE_W: 7.7
MAGNITUDE_W_REFERENCE: AFAD
MAGNITUDE_L: 
MAGNITUDE_L_REFERENCE: 
FOCAL_MECHANISM: 
NETWORK: TK
STATION_CODE: 4407
STATION_NAME: 
STATION_LATITUDE_DEGREE: 38.78066
STATION_LONGITUDE_DEGREE: 38.26406
STATION_ELEVATION_M: 1165.0
LOCATION: Kahramanmaras_Pazarck_Turkiye
SENSOR_DEPTH_M: 
VS30_M/S: 735
SITE_CLASSIFICATION_EC8: B
MORPHOLOGIC_CLASSIFICATION: 
EPICENTRAL_DISTANCE_KM: 197.44
EARTHQUAKE_BACKAZIMUTH_DEGREE: 
DATE_TIME_FIRST_SAMPLE_YYYYMMDD_HHMMSS: 2023/02/06 01:17:46.0495340
DATE_TIME_FIRST_SAMPLE_PRECISION: millisecond
SAMPLING_INTERVAL_S: 0.01
NDATA: 13501
DURATION_S: 
STREAM: HNZ
UNITS: cm/s^2
INSTRUMENT: sensor = CMG-5T/GURALP | digitizer = 
INSTRUMENT_ANALOG/DIGITAL: 
INSTRUMENTAL_FREQUENCY_HZ: 
INSTRUMENTAL_DAMPING: 
FULL_SCALE_G: 
N_BIT_DIGITAL_CONVERTER: 
PGA_CM/S^2: 19.275
TIME_PGA_S: 
BASELINE_CORRECTION: BASELINE REMOVED
FILTER_TYPE: BUTTERWORTH
FILTER_ORDER: 
LOW_CUT_FREQUENCY_HZ: 
HIGH_CUT_FREQUENCY_HZ: 
LATE/NORMAL_TRIGGERED: 
DATABASE_VERSION: 
HEADER_FORMAT: DYNA 1.2
DATA_TYPE: Acceleration
PROCESSING: Automatic Paolucci et al., 2011
DATA_TIMESTAMP_YYYYMMDD_HHMMSS: 
DATA_LICENSE: U (unknown license)
DATA_CITATION: Turkish Accelerometric Archive v 1.0 - Disaster And Emergency Management Presidency, Earthquake Department
DATA_CREATOR: AFAD
ORIGINAL_DATA_MEDIATOR_CITATION: : AFAD - Disaster And Emergency Management Presidency
ORIGINAL_DATA_MEDIATOR: AFAD PROCESS SERVICE
ORIGINAL_DATA_CREATOR_CITATION: AFAD PROCESS SERVICE
ORIGINAL_DATA_CREATOR: network: TK
USER1: GuestUser
USER2: 
USER3: 
USER4: 
[...]
7.8573568692182185
7.295162681253715
7.196447396253791
7.8873373000578395
8.491925213667903
8.39514014924613
7.426777012408669
6.790957306566465
7.39809349469572
7.768589057982711
7.175776664354325
6.863317042899475
7.760672601250452
8.928750519890986
9.20552789870829
9.094586165612768
9.704762920610834
10.58659694341764
10.429926046879144
8.869195739179553
7.258349436703357
6.633504271027361
6.240428350040068
5.313896678825186
3.802336937262247
2.1387338511465814
0.7922946194371987
-0.45549127238773285
-2.165557787384787
-3.6604868247002313
-4.159354498840969
-3.8642979872300223
-3.80469477723641
-4.354050746810644
-4.4333808718781915
-4.041419797046446
-3.5440842567255357
-2.815911348341311
-2.110602182780281
-1.6077215448933984
-1.2545085188710086
-1.5836686288414334
-2.494822632076481
-2.480156581684119
-0.7547971652543769
1.707344048611055
3.511123722520425
3.7160325940971752
2.50132756863546
1.5973271209030482
1.3622706402148532
1.0033668859024882
0.14290724117125078
-0.9691078243892569
-1.6382897158865546
-1.8885974017804386
-1.9723787620193924
-2.2555665824165945
-2.577782456535973
-2.6856709657480398
-3.1971133715154676
-4.105573982269431
-4.419642469181394
-4.208975752100324
-4.280202207886277
-4.573760165115592
-5.0178263330541295
-5.585047287062648
-5.872274932308856
-6.097067421663544
-6.374170779768199
-6.538916550496244
-6.672886000032772
-6.607864980193133
-6.454598375530642
-6.532044212444838
-6.581928027654715
-5.562939698861747
-3.5275969318536817
-1.7756055841168914
-1.1114256655594945
-1.2804880603274336
-1.1202120146093553
-0.1786147387156424
1.2122278562117739
2.0197675958110337
1.7890487883021562
1.5299673328616135
1.8837986660812436
2.465760779155303
2.708976322961739
2.301983681778518
1.0068574503516639
-0.22995184211085234
-0.4310817260948815
0.0785503032959304
0.6706596711764793
0.4290447604459413
-0.9622288950074228
-2.0084939209905754
-1.6215150479832898
-0.864569055677632
-0.7448740149650042
-1.357498072559974
-2.2438360876665375
-2.8421994613275983
-3.4095734228095105
-4.403764053336042
-5.647440261991847
-6.5634591422953195
-7.092121995485777
-7.684383035870802
-8.672514417268626
-9.347403059845226
-9.133585050166216
-8.273442392782913
-7.132808179164579
-6.2100089322536185
-5.661817706496317
-5.183843201302139
-4.729966096473284
-4.658159447609321
-4.397802514549574
-3.723353030810884
-2.9745104154324826
-2.072771502986857
-1.3474175524570937
-0.7040401450307994
-0.30852751136218887
-0.29631629912673424
0.7208064961554812
2.7703283923990423
4.49363526910713
5.123357005429506
4.848180931432383
4.676949406034999
4.8501502897494495
5.048287544189588
5.376803068157408
5.747096083601793
5.56648853323603
5.063011304735736
5.08592255898342
5.988109749928125
6.870146501014178
7.132158855823104
6.978603631179006
6.476933293159907
6.2882818352343754
6.185282669308889
5.617353955767263
4.756003286664165
3.9642053808079925
3.0989099499701167
2.1704867843922524
1.463778461730827
0.8976551826591951
0.4364286621062109
-0.3514988099743407
-1.5503843713051142
-2.9222046795354615
-3.505793947071989
-3.512750987817394
-4.038648654252332
-4.82817707336366
-5.322965388479311
-5.162512128643661
-4.900702404263084
-4.799187838429012
-4.424380095058071
-3.4351871088100983
-2.2913971854103554
-1.6452186467619028
-1.401641434901961
-1.0392449969458808
-0.42731407507728475
0.20488854696429765
1.163498460659826
2.191929500610752
2.622120228645085
2.329966956354288
1.5521870188318811
0.6374751824349151
0.7042288976291952
1.224289249847116
0.6814846035173043
-0.31792705870183846
-0.6150875302258811
-0.1621336543487053
-0.19281454619629687
-1.501500702672564
-3.263460159104073
-3.532193237403476
-2.3264663547179314
-1.6944880629501098
-2.5964100035367608
-4.151437923965137
-5.177664013637414
-5.740848290405333
-6.490651734172556
-7.402467467582309
-7.892003187271294
-8.426380037981717
-9.149555790845207
-9.497403924398562
-8.981376707329973
-7.788202503081547
-6.994821329770452
-6.824574330633214
-6.831224809637889
-6.484118750590558
-5.7729542252969335
-5.073807657138554
-4.494824586481927
-3.746035176870232
-2.9515419586950724
-2.6292468231258503
-2.947912482205898
-3.4383426170982068
-3.5750241365438695
-3.3814085443887687
-3.129290110086193
-2.974677869788023
-2.666836809642002
-2.1702280731704695
-1.8949246149929282
-2.332780672306954
-3.3292007083806725
-4.312689909818603
-4.539380731484467
-4.03610582342779
-3.8688717448620253
-4.393287219100047
-4.9979846069805305
-4.858780231173329
-4.5519719859244825
-4.130377398353159
-3.124942302187392
-2.184105471119429
-1.5435892833556752
-0.8604833735598285
0.12907337440320754
1.2314993215866399
2.2894309799297137
3.3713612895169685
4.3878512611711065
5.149122817662267
5.900183119159347
6.218977867155419
5.859299810532096
5.475528611142911
6.076890485360459
7.2804405136362655
8.035011316691921
8.256770717727848
7.9212426691092315
7.871365906450885
8.782630778851264
9.983398478023723
10.615148075616446
11.076298398132721
11.51498051538519
12.004780005537462
12.484879543716225
12.044079488184751
10.449935741727366
8.541031555899197
7.193363094329919
6.331310779616105
5.899321705857269
5.247956555036411
3.827429180803561
2.5824864664475924
2.4258614925106934
2.916514511423839
3.4531181045913915
4.128250123876129
5.015240237943052
6.14830321165472
7.540004961898895
8.582314873925974
8.844590509243398
8.879345728839422
8.704841075313846
8.11517722877894
7.208045008439383
6.185692635087502
5.006396957392335
3.2892852462176636
1.5760193510589662
0.27968569749891065
-0.8561110319014639
-1.880048091031824
-3.037723322630496
-4.419945185599382
-5.335091350638594
-5.7175198482346525
-6.386677231571488
-6.038535842819735
-4.310917589151787
-3.271937517453925
-3.881775764165916
-4.885741011312056
-4.747900293425423
-4.146088925432555
-3.8342609769685274
-4.14208074965227
-4.704051162316804
-4.990218643679903
-5.05132328473931
-4.926343158082357
-4.604383067209824
-4.582891731465239
-5.064715292970819
-5.225194244941833
-5.075693098471914
-4.726815484842996
-4.299046897889923
-4.235836113455169
-4.0693309119517
-2.6860526097027275
-0.601306740388922
0.486079403694053
0.4995072011887926
0.41414030292368936
0.6534246483145293
1.580701508952189
2.6189858987169092
3.3139671309543575
4.39160006117344
5.439860555152683
5.558422187486472
4.71177563070598
3.639124060466978
3.1181698972470246
3.0209886578880147
2.783450678543207
2.6806458301482143
2.544722862243554
2.0848407249330823
1.5626501534742052
0.9262181127527026
0.4383685188146858
0.2060861184233031
0.06331915246057371
-0.22815612785130399
-0.4551966670020226
-0.29891144304341244
-0.019598919858282736
0.4643917154228135
1.0332282645610285
1.0525512420905119
0.785161606592179
0.6215391140437033
0.4169297842084047
0.4171810500018696
1.1991550345601487
2.365574329574327
3.2003781403738296
3.6844591021914335
3.782785617309112
3.836298189728932
3.6307497251510985
3.234976242736957
2.689822657777451
1.7532754244951945
0.473935286422036
-0.8673459670221764
-1.5724371869446883
-2.035207758448158
-3.2439271959163256
-5.278069728780735
-7.015888135779925
-8.235246144394152
-9.06997515537048
-9.512570916806062
-9.337454184599354
-8.958286253936366
-9.288691085747214
-10.07015244440696
-10.969264361408877
-10.808744946159067
-9.889646866300852
-9.152411794173481
-8.735146003656814
-8.52879486497767
-8.081843688471016
-7.6739341001456465
-7.183131574629467
-6.463135352120897
-5.474452632992003
-5.325908939219465
-5.866461096299027
-5.871768530358015
-5.972268102684712
-6.6304815819679455
-7.465136783140849
-7.524870415537937
-7.634990328492626
-8.12484052435862
-7.9348008997434265
-7.736501963025735
-7.23060161113574
-5.841015061034754
-4.559833657476926
-3.6343575962138917
-3.0284148344156456
-2.4813140532006304
-1.5688278110900016
-0.28111088455184385
1.925569196989328
4.968665634192972
7.82940688136729
9.782552526828159
10.855274816268185
12.168313663854997
14.089433528734219
15.239270865990585
15.42260053636394
15.157758891111841
14.304166061363247
13.22976669966805
12.07818347688326
10.47616933873992
8.896326901869866
7.73566156230528
6.806319088483889
6.136609149039017
5.905719803085495
5.615146365407045
5.202144483468367
4.98766639443141
5.05483727777752
5.182517724321392
5.719893701616301
6.283794880576199
6.6956449228992145
7.8626951101361815
8.756397599424803
9.225965885148213
9.249925069885135
9.278838745630516
10.287318183937632
11.51339209458965
12.775737584676008
14.002583801784338
14.264117323661033
14.163240276478406
13.978512327760999
13.282386529254987
12.39168964652155
11.556954213737614
10.617671312290303
8.979769845956799
7.496639542532344
6.218588022637197
4.908615575016779
3.7736317916305078
2.3421482781421257
0.9521004089349774
-0.6055566741490572
-2.5332390099067346
-4.287576984016717
-6.002260804272442
-6.861932576114197
-7.205917737423887
-7.810605203484186
-7.612370530213179
-6.557346302306674
-6.194373703963824
-6.762146472747349
-6.6351139793131795
-6.226747018943494
-5.483097449943479
-4.580773464025399
-4.778104449926736
-5.803764246837356
-7.270567606457527
-8.192678054658879
-8.054198865749914
-7.645379499528894
-7.104192994528192
-6.776586684084044
-6.103545260989904
-4.475536381999437
-3.343568372311489
-3.0944996636268782
-3.053097286481419
-2.722411924392229
-1.4061793785985384
-0.22427947432960754
0.526357473239948
1.5195005389703464
2.8713756083668156
4.30721999434483
5.152423223083619
5.328378734488964
4.973867748699576
5.043184452605774
5.332726040366296
5.516135243625901
5.786538999358715
5.203500672386206
3.563344671583309
1.920364832894149
0.8779234004488318
0.5069524762543597
-0.19102888158436307
-1.831225864583794
-3.4846738292249184
-4.869984891162
-5.3742124538218325
-5.3998865045215805
-5.59443046195094
-5.775128763288596
-6.379934074424993
-6.67913818963314
-6.4869204662903215
-5.740381496728784
-5.336661855664226
-5.6042498967905985
-5.6059475091142446
-5.158800532505463
-4.193017500259113
-3.297371165200727
-2.700575342368055
-2.46235778180512
-2.2375246319176214
-1.8992560143403818
-1.4487926350358094
-1.4528532527566036
-1.626528301677145
-1.5249121783995827
-1.4578248500360316
-1.415038611821728
-1.9869647042881837
-2.6551523991721324
-4.149008599967216
-5.980726673577732
-6.876457839698708
-6.972230668713422
-5.993231831825201
-5.234597833299506
-4.976907611904874
-4.303609975467156
-3.151558038031916
-2.030649830075593
-1.7361555582258728
-1.9273960406115522
-1.0756999502142786
0.6226468287465594
0.9168683547246322
-0.11769231305696622
-1.4467656376765397
-2.2660363019839704
-1.876295997837102
-0.6551371995467623
1.59839801153314
2.933917209256558
2.2051176365178025
1.5417939640059612
0.5742345232533531
-0.957597700030267
-0.7419796818134882
0.119904385667989
-0.2748108425768725
-0.16848649138435
0.6082104579878294
-0.42222417492111736
-1.2975998014902423
0.03385752805291632
0.3979795889442724
0.2942838011932388
1.5939389416474605
1.913075692150594
0.35410117274026115
-0.10668240507996604
1.8865938916064464
2.739904790186174
2.6570659115272535
4.305397552261055
7.1709927884681255
8.861871551777357
8.325981611512358
6.994601609109312
5.789188540335208
5.219125424237051
6.429333007790417
10.132390888874998
12.076739179714357
10.456604020542905
8.101947925401227
4.991992408224264
3.741281378102984
6.6930165416361875
9.487271655267314
10.977402390246793
14.172144285405707
13.806139500765346
8.948868755494265
7.702845795492772
7.996251750991238
6.360784732867575
6.975186933241313
7.285042758605205
4.731052119003639
4.155898343660504
3.663658456373726
-0.5341715010883322
-3.4391353557739874
-0.7846374370877635
1.3684802342438427
0.945741970485791
1.9641160508715922
4.516524686142452
5.573613194264569
4.622296964147012
4.035368124773542
4.685995216828159
4.011368200004882
1.404031206278659
1.4729195702049775
3.6236810607768177
5.217351389913451
4.149658884209612
0.5851666102103049
0.4301915658921816
3.7276686089950424
5.089979281368516
3.04341146754832
3.7590887979178818
5.968522691907735
3.651277270008815
-0.715272690368769
-4.212617730248172
-5.223902199683871
-5.195004288068032
-5.939533073669229
-8.27995852500193
-8.391737066377358
-5.665795990636608
-4.559355595892841
-5.744501735066779
-8.554961138294745
-9.94332397217129
-7.830818096992659
-6.534819854381111
-7.594690680184414
-7.33568860233889
-8.827129366363339
-11.77273158583156
-10.596505091725614
-8.331226537322314
-6.386087435266869
-6.011163366461886
-8.729411049998463
-9.741182886856986
-10.683242771013457
-9.96405567267304
-8.048274184232378
-8.37188288754716
-9.76727503575919
-12.317510832729779
-10.667289962964237
-5.523802278251256
-6.9034713488460016
-14.878218938600597
-19.081158012690764
-16.786103370284952
-11.79068594597702
-10.422979059212151
-11.395179610797753
-10.873301308965932
-11.853372901309628
-9.730859210338856
-4.859590762035207
-2.937493350357372
0.19420736164305008
2.726632258326014
1.9036411335585335
1.0627271797961606
1.5845657509409674
4.1200519910565045
3.880136876728171
0.7327417071792395
-0.490289859121862
2.2554395939904364
5.913651462106967
5.010287217910397
1.3087890837466982
-0.06465447607905422
0.37305630240640575
3.734391587674865
9.278431648059563
9.544040629476802
7.475847552111868
8.523685212742953
9.453653887477927
9.617038087468657
11.929069243741518
16.278526552822115
18.787069646233977
15.6242395707929
12.7738510855773
14.27066911729105
12.034293368160586
6.673083539842847
6.1913188458350055
8.606074477634872
8.505900405463201
8.447930646665503
8.777645362758957
5.955448310884087
4.118742323546633
5.657358931965716
7.286692775204048
8.352770267370204
6.633375019877364
1.9324527164031902
-0.69269631637018
-0.9315083701315953
-2.063991075460579
-2.110174372353097
-1.385392704596356
-1.7528836713233344
-2.838589746444833
-3.4961144751325635
-1.972991326368127
-2.3207927012075213
-2.064975613940072
-2.7463629171148445
-3.2741695751690907
-1.3772543848299816
-1.6438014974655737
-1.866830095634414
-1.4190319938208602
2.0573105486625853
7.367429100113348
9.019433377741157
5.87432420392075
1.0131132916936456
-1.5569528119169687
-0.7297445565935605
-0.3025547621608806
-0.25749405705384903
-0.19592669938917043
-0.3458285988066804
-1.0773557326678547
-5.173780494300122
-8.08416127249197
-7.546769141756199
-7.326983366068461
-8.238933171487144
-8.524946550695342
-9.884786734134615
-10.064474779114812
-5.813590096082758
-1.4523297405183369
-1.1605845995725188
-4.028653096127047
-2.715040839287573
-0.6682611635907787
-1.525476862442372
0.6938550034397016
0.5447682076147108
-1.4170377871686455
-0.192750200047423
1.5256834354467363
2.2168006047078417
2.9763005520219283
1.125645995748036
-6.116812815990127
-7.776876675976317
-4.257760304187593
-2.475731091362464
-1.1497115385445857
-2.3719291168558905
-4.405882557483472
-3.829281563031412
-3.8819058178035766
-6.665621268772868
-8.49780062976513
-7.165544302961816
-3.5197263780511463
-1.1143584870196417
-1.3404309157302599
-4.548923514772989
-5.558653107499365
-0.724689204593933
1.296525984154747
-1.7947413578910085
-2.9445584767297897
-0.6184022271152979
2.904803526285697
8.069796991733133
11.479674525535536
11.041437973862779
11.627239705212524
14.728514444993474
17.109100983171835
13.29767428850671
9.528697954214051
9.101569108403776
8.413228337018294
9.180935477700364
6.333853347853529
1.5454718299014585
-0.598847999502275
-1.1418013813629082
-2.396478482843641
-3.3567962107732168
-1.2516182288705378
-1.91143053279135
-4.361218466134535
-3.0566007514390674
-0.9016399148847895
1.5988873604786091
2.4880429585495887
3.0370889332174373
4.781403916254598
3.435449533536536
2.2815231684624644
3.3773871282977703
4.329557889041099
5.417763606243586
6.842492188718296
4.313925206981847
-0.731533821701846
0.18031153692026003
6.22369127657749
6.439717625232602
0.9555254701586988
0.21260852710439046
1.5441623985522863
-0.2957977033996703
-0.5760261177814965
1.957391745777558
2.539489353753641
0.7798433632449131
-1.0067046698911892
1.123700684007899
2.734132615709736
-0.38657596385491505
-3.628232139848225
-3.710706668807437
-2.447506467693987
-3.818477493607938
-4.363524484972297
-1.7252515907173813
-0.4400403553209026
-0.5102315207958776
2.7509644102974105
4.987697068666563
3.5666159159749986
2.0197542741337253
1.8189481243188075
1.8064251029124025
1.6703013821863684
2.389188867617975
-0.14785286847601808
-4.102930891107133
-4.166239446779773
-0.7767143951372578
5.719894139595089
10.183178577328727
9.521439118496987
8.277650339457244
9.707574363357475
11.427677441632273
10.80683774792785
9.072007236531155
5.681641769393715
3.858371227622223
6.4973016970256205
9.20040229726312
5.981719706856956
0.6863512220497906
-1.4359522902315838
-1.6002022420473254
0.2591495521060674
1.7951473438059915
3.5430985606515333
5.342044911695182
4.646317194779078
4.097370731453387
2.3552166300926243
-1.1689738318307956
-4.164798404526832
-5.129391673610858
-3.7483319905894343
-4.648347509771382
-6.474661834761244
-8.856234103607092
-13.951775039678239
-17.886866084952132
-18.40286536055684
-17.735611137197917
-14.562036745738725
-10.290434188725227
-8.438913887608843
-7.206105729362572
-5.932880835562104
-5.836064345529406
-4.776589478336609
-1.5844383426454476
-1.5512603645133896
-3.338458618393855
-1.4073065107864289
3.0151944432590008
3.8560517829946317
1.2055023315194342
0.7709671265252489
-0.5719872166694419
-3.8049281930095584
-6.971467613301928
-9.101380090123119
-10.816105642342743
-12.477758291056846
-12.110387659735425
-12.871730319099347
-12.782098298288602
-10.987771562669133
-9.469147020653798
-8.364757909319179
-9.679976205880443
-9.579298154196241
-6.085532477474495
-5.287102535156209
-7.731964252547024
-9.759150578956199
-10.304320016009608
-9.072646176571645
-6.907063049284378
-7.39386788738298
-8.9372155874446
-7.08673663977438
-2.241471571975731
2.6236814501592876
5.831396371580634
4.427553813590122
2.0707783304380927
4.358525520094378
7.1126655589279455
9.449750193247764
11.467515062837814
12.477923370519756
12.516376710697152
12.756621430252045
12.914286543264478
13.436270542254055
14.672924963156468
13.585934330639551
11.601767676297579
