AAD_Filtered_TADAS_FILE
AAD_BASELINE_CORRECTION: BASELINE REMOVED
AAD_FILTER_TYPE: BUTTERWORTH
AAD_FILTER_ORDER: 1
AAD_LOW_CUT_FREQUENCY_HZ: 0.025
AAD_HIGH_CUT_FREQUENCY_HZ: 40.0
EVENT_NAME: 202302060117
EVENT_ID: 13194
EVENT_DATE_YYYYMMDD: 2023/02/06
EVENT_TIME_HHMMSS: 01:17:32.00000
EVENT_LATITUDE_DEGREE: 37.288
EVENT_LONGITUDE_DEGREE: 37.043
EVENT_DEPTH_KM: 8.6
HYPOCENTER_REFERENCE: AFAD
MAGNITUDE_W: 7.7
MAGNITUDE_W_REFERENCE: AFAD
MAGNITUDE_L: 
MAGNITUDE_L_REFERENCE: 
FOCAL_MECHANISM: 
NETWORK: TK
STATION_CODE: 2713
STATION_NAME: 
STATION_LATITUDE_DEGREE: 37.49254
STATION_LONGITUDE_DEGREE: 37.62405
STATION_ELEVATION_M: 653.0
LOCATION: Kahramanmaras_Pazarck_Turkiye
SENSOR_DEPTH_M: 
VS30_M/S: None
SITE_CLASSIFICATION_EC8: unknown
MORPHOLOGIC_CLASSIFICATION: 
EPICENTRAL_DISTANCE_KM: 56.15
EARTHQUAKE_BACKAZIMUTH_DEGREE: 
DATE_TIME_FIRST_SAMPLE_YYYYMMDD_HHMMSS: 2023/02/06 01:17:16.7868210
DATE_TIME_FIRST_SAMPLE_PRECISION: millisecond
SAMPLING_INTERVAL_S: 0.01
NDATA: 2879
DURATION_S: 
STREAM: HNE
UNITS: cm/s^2
INSTRUMENT: sensor = GMS+/GEOSIG | digitizer = 
INSTRUMENT_ANALOG/DIGITAL: 
INSTRUMENTAL_FREQUENCY_HZ: 
INSTRUMENTAL_DAMPING: 
FULL_SCALE_G: 
N_BIT_DIGITAL_CONVERTER: 
PGA_CM/S^2: 2.979
TIME_PGA_S: 
BASELINE_CORRECTION: BASELINE REMOVED
FILTER_TYPE: BUTTERWORTH
FILTER_ORDER: 
LOW_CUT_FREQUENCY_HZ: 
HIGH_CUT_FREQUENCY_HZ: 
LATE/NORMAL_TRIGGERED: 
DATABASE_VERSION: 
HEADER_FORMAT: DYNA 1.2
DATA_TYPE: Acceleration
PROCESSING: Automatic Paolucci et al., 2011
DATA_TIMESTAMP_YYYYMMDD_HHMMSS: 
DATA_LICENSE: U (unknown license)
DATA_CITATION: Turkish Accelerometric Archive v 1.0 - Disaster And Emergency Management Presidency, Earthquake Department
DATA_CREATOR: AFAD
ORIGINAL_DATA_MEDIATOR_CITATION: : AFAD - Disaster And Emergency Management Presidency
ORIGINAL_DATA_MEDIATOR: AFAD PROCESS SERVICE
ORIGINAL_DATA_CREATOR_CITATION: AFAD PROCESS SERVICE
ORIGINAL_DATA_CREATOR: network: TK
USER1: GuestUser
USER2: 
USER3: 
USER4: 
[...]
-0.0012761361189788
-0.002015032886056367
-0.0002669898504467005
-0.0001800131166978941
-0.0008159028867021091
-0.0012787949801993403
-0.001044884626831178
-0.0015573472304929669
-0.002668835550319922
-0.0007305473026387736
0.00043590489526812025
-0.0009465337921868835
-0.00044116619314015166
-0.00011333397058280051
-0.001851698072980821
-0.0023390995968390824
-0.0011104556580073253
-0.0017371939767525327
-0.002594825147312229
-2.161207257996879e-06
-0.0007368625769645635
-0.0027171229490010173
-0.0011206520279219197
-0.0009546479469080122
-0.001041390950313108
-0.00178308575916989
-0.0019938497158319894
-0.0007106364365973189
-0.0007785397135457245
-0.0015304534181542603
-0.00212809991168906
-0.0008439494676972966
-0.0005198090397651527
-0.0012756099843977777
-0.001285078184584823
-0.0018694206993327598
-0.0013763526660469608
-0.0010408945095990879
-0.0004299751245758676
3.941035391725415e-05
-0.0017713995490386953
-0.002222248820987347
-0.0008164590088905984
-0.0003581738356956774
-0.0007911519448893998
-0.001553552388857809
-0.0015582970345489528
-0.000773179926339068
-0.0013713955613050039
-0.0020476523119138633
-0.000723788528461375
-0.00042020076293282317
-0.0011658581915068487
-0.00020102256057821853
-0.0010873660381942932
-0.002206124504025015
-0.0006568796060093193
-0.00105566273704891
-0.0014426555100016105
-0.0004634709364399732
-0.0009650468758638974
-0.001692211424877195
-0.0007355667183163216
-4.914254660463857e-05
-0.0013826308475302566
-0.0010974337388788352
-0.0006562826049307971
-0.0014721477159809733
-0.001254624655064514
-0.0013662725990701324
-0.0013110184953925175
-0.000949309711259362
-0.0011350164204773593
-0.0010426602491936568
-0.0007004666829471863
-0.002052754632833517
-0.002148670167330958
-0.0005322192424958498
-0.0007694445829210312
-0.0012393535617686393
-0.0011983591897307315
-0.0016126342887529473
-0.0025780948389576316
-0.0016943576977124387
-0.00038108961385701257
-0.0008567396998178531
-0.00022618044660836388
-0.0011387076418489885
-0.002244154390438584
-0.001289289182912897
-0.001972009911557554
-0.0016249884715436604
-0.0008226603820037184
-0.001625791834086961
-0.001022259394691201
-0.0011355012468753562
-0.002647451789924829
-0.002072514020358289
-0.0009935865420685852
-0.0017408868010297014
-0.001753071539724277
-0.0015514893190413904
-0.002831110987253283
-0.001590977954498947
-0.0010468461916141004
-0.0025011200573411764
-0.0013683190250362756
-0.00077014416118644
-0.0016657474399574199
-0.0016034812241057296
-0.0010479292797390214
-0.0005491962455158276
-0.0008064393540962781
-0.002246004515672961
-0.0022972226987480523
-0.0020745539720994043
-0.00277538305312451
-0.0012414432161418237
-0.0010437143504742892
-0.0023218902858114
-0.002258913963384555
-0.0013107461716657916
-0.000814981745558923
-0.0020499215105428477
-0.002205701928447255
-0.0021262241433238644
-0.0021665759293612854
-0.002342007906469318
-0.002644444408807448
-0.0019010326753700437
-0.0018873485806394415
-0.001111142313167064
-0.0009199054888837641
-0.0016075516315578423
-0.0014551623669780088
-0.0019264365496349468
-0.001687222356256911
-0.001809133984603928
-0.002531553781084644
-0.0027515292586587406
-0.0020498399398196504
-0.0012309428166499708
-0.0020417186394648948
-0.0020210740352500844
-0.0014434953469476986
-0.002522524761641448
-0.0031487741904644116
-0.0026317842578230284
-0.0023051829909784003
-0.0018832943098948788
-0.001314756773236016
-0.0019972968585709374
-0.0038062377777227426
-0.002294805232519817
-0.0005151469058752129
-0.002599181344593991
-0.0023219857821926487
-0.0018749630567224775
-0.0032788462066226636
-0.002562248143264929
-0.0017497903184120985
-0.00138022968045234
-0.001570004106840806
-0.0016702456882158512
-0.001032853731488767
-0.001751884422049686
-0.0019747796543060866
-0.00166576865346713
-0.002803137598109515
-0.0024185927441757503
-0.0010461869724254433
-0.0017467707356183153
-0.0023713013177109887
-0.001857127015559202
-0.0009434537739962813
-0.0010195487410668167
-0.0021595033107329304
-0.0011876245235428245
-0.0005083127941607674
-0.00203288813841831
-0.0010618368821957802
-0.0015583180982314817
-0.0038544964115827373
-0.00170306591563582
-0.000642605937935104
-0.0021653581010554314
-0.001978627543569162
-0.0012904180919332646
-0.0022308779706433244
-0.001752545435038118
-0.0008209540015027474
-0.001297977383388447
-0.0016451167916713009
-0.00244895318603234
-0.0008636965570708579
-0.001085471479888763
-0.0027388371716691503
-0.0015045728939724963
-0.0017417032464026013
-0.0026020313950887992
-0.0031434053307125716
-0.0014938912955783866
-0.0009631916189172976
-0.0037832192968852278
-0.002344681182718472
-0.0007248928999652557
-0.001748283942847633
-0.0014250998520284617
-0.0017874682393470439
-0.00179959877956676
-0.0008146631425923632
-0.0013189048819580535
-0.0020436943615293715
-0.0014794631828831313
-0.0013767317777025594
-0.0022147081340934027
-0.002180098333495654
-0.002589316313165543
-0.00218429052913214
-0.0008230415303527175
-0.0021062416786252697
-0.0030213996265625945
-0.0023588302136897904
-0.002107947546350895
-0.0020397708001290878
-0.0014866273060569115
-0.0009853122396418612
-0.0008518063136052326
-0.0009230414669957908
-0.0010853487381220436
-0.0008094963721342239
-0.0015408065553521528
-0.0023465374687335057
-0.0027202972673178757
-0.002333053587883325
-0.0015500448996697736
-0.0013623763759597373
-8.871949911714878e-05
-0.0005454999869561907
-0.0016885804396881599
-0.0007164675176278877
-0.0010184253860796248
-0.0022391292621790613
-0.0025982624598056368
-0.0006514147044071317
-0.00046943575400080497
-0.0025258848544872227
-0.001479552100829861
-0.0012298964013220126
-0.0015554913259081529
-0.0011955628545537685
-0.0017726799707450413
-0.001675801321017268
-0.000746757602045836
-4.775057582256828e-05
-0.0013883665301779153
-0.0016878316515205412
-0.0005572193202461636
-0.0007448664740112637
-0.0006531547730087312
-0.0008990839157144003
-0.000777375762855645
-0.0004514516489031886
-0.0012091953385355387
-0.0014140621352061013
-0.0007237010214225304
-0.0012739208496717902
-0.0019763985979185596
-0.0008363071881578852
-0.0010274008183537428
-0.0017169933111683422
-0.0019560947524105846
-0.0022268604154910988
-0.0005212967201997066
-0.0006092540724126931
-0.0017445247209877542
-0.0013647167684493373
-0.0021477509089133087
-0.001750010208986891
-0.000386313723617361
-0.0006922270683850794
-0.0007359365031089668
6.615381129281873e-05
-0.0003474656115184378
-0.0007294506233069028
-0.00014682681751044613
-0.00044834608722188647
-0.0008878646794879968
-0.0016476328540223145
-0.002046635650820445
-0.0014522546681002692
-0.0009722387442799051
-0.0006320695642198851
-0.00041770302566156766
-0.0005305841035666736
-0.0014565785418958858
-0.0005963786685814322
-0.000646566530825495
-0.0018002890041476068
-0.0008227235643482847
-0.0007359612662055513
-0.0007839774437873289
-0.0013509188153286245
-0.0014565180398547351
-0.0008174398944837051
-0.0017344801897265665
-0.0016611435921219926
-0.0011118329733668122
0.00017316189935914338
0.0010809849385930133
-0.00036795157762904923
-0.0010071787503698692
-0.0008815114430312278
-0.0013404780705552903
-0.0018932724301830408
-0.001025785800228985
-0.0004904043788277487
-0.001746997058212321
-0.0011095363453879543
-0.00045699122806915396
-0.0021647217535650876
-0.002472012228301571
-0.0011396988984261776
-0.0010365651833775273
-0.002072076181894629
-0.0011540801655370466
-0.0008402282643040178
-0.0025709489003691724
-0.0018858173241008852
-0.0016479321214074626
-0.0017707484135684696
-0.0013176280104021279
-0.001746799505324845
-0.0013340603976004302
-0.0019380206594162659
-0.0010444842056240703
0.00026130301259157844
-0.002172611577372888
-0.0021114110592596476
-0.0013596276418999275
-0.002528186018381876
-0.0017376199992627842
-0.0013576429521031039
-0.001357345815526158
-0.0017515470560632218
-0.002336420415787602
-0.001647043324555818
-0.001999526422789661
-0.002017463630819334
-0.0014210519301999262
-0.00172680577223403
-0.0013769448135375268
-0.0013613209824125073
-0.002155560673375799
-0.002143856949841801
-0.0011707767251653146
-0.000493546304085202
-0.00045040488899493144
-0.0022398565486120513
-0.0025063093661332266
-0.0008033612954594428
-0.0018694449099998698
-0.0015248516764265582
-0.0011140207262036327
-0.0019137558659229228
-0.0009208321996881188
-0.0010372537662926252
-0.0015690550820995556
-0.0007132139653025134
-0.0005643177891395987
-0.0014282849765514874
-0.0015797746618382716
-0.0018963659114834184
-0.0019321406422912102
-0.0025028593418633
-0.002408725326421394
-0.0006933311575698707
-0.00137384613659353
-0.002597823812543842
-0.001779054341094149
-0.001609575665769873
-0.0028737936116608907
-0.0016416982801130107
8.148562151740662e-05
-0.0015846482743259967
-0.0019154644228081422
-0.0011610789189527336
-0.001743280430342806
-0.0008607177233926821
-0.0005297813249985749
-0.0016825901974269466
-0.00246959701037375
-0.0024617257490158577
-0.0018783070062846562
-0.0019804270473256186
-0.002125906818246478
-0.001856776061337492
-0.002190596837701032
-0.0024131170489644508
-0.0023002488107507464
-0.0029457841598065455
-0.002616542329632958
-0.002000109753556208
-0.002314873774659163
-0.0025468132710607357
-0.002820326118490978
-0.0015054377117466758
-0.0013928949827629123
-0.002431911038040955
-0.0007279140270880842
-0.0014034307848380203
-0.0024338957167229745
-0.0005381442050771926
-0.001115526572865655
-0.002392699967816029
-0.001938966694856857
-0.0023672962276168126
-0.002542162907667872
-0.0024532945373389203
-0.0030863344975768352
-0.0029585415495642564
-0.002238926416800531
-0.0008421894439249204
-0.0011643677482929054
-0.0021797787236684674
-0.0014682386265574524
-0.0014404968072977504
-0.0014573076285361512
-0.0018428909906247257
-0.00262835917678252
-0.0024249286558984647
-0.0019404362347012836
-0.0016007804762321963
-0.001775853819571734
-0.0014926476912303537
-0.0014431684781804227
-0.0012749516617756517
-0.0005799447792306442
-0.0015257407260399574
-0.0020271100373915048
-0.0013812879953015098
-0.002300183697869894
-0.0026172988194401265
-0.0010847490735358119
-0.0014762522559163965
-0.001671310531021212
-0.0007899054534632013
-0.0022222477317529795
-0.0020831085387259334
-0.001762909936679114
-0.0023192341320253575
-0.001253349678034978
-0.0019947422587873066
-0.002598245430677386
-0.002682868791758974
-0.00244434400651133
-0.0009987070276552628
-0.0013455109415955258
-0.001955879194568237
-0.0016470877123832064
-0.0020018137274288848
-0.0022143896215459976
-0.0011274942769817376
-0.0012923367662978093
-0.0023876073799687916
-0.0018304705633838843
-0.0009398176727762786
-0.0013967889627527525
-0.0033223092435210877
-0.0031251988884161887
-0.0012654753355522315
-0.0022144977890337396
-0.0031041843893907673
-0.0018669960405421238
-0.0017143375230364737
-0.0017942063184837424
-0.001167311717919996
-0.0014896510549457392
-0.002112194767065258
-0.0014046975866578784
-0.0011799000383063314
-0.002865113156804446
-0.002595231055602546
-0.0009691755925923776
-0.0016040112049805866
-0.0022635044238065232
-0.00153688502289023
-0.001712990333481848
-0.0022132982655064777
-0.0023514455299205135
-0.001694400871936112
-0.0016386569808303116
-0.002649279586013459
-0.001155635297696514
-0.0009390462902849322
-0.0016416689008368474
-0.0010907382440180718
-0.001570060087179092
-0.0011328633559070846
-0.0021425843456875163
-0.0018265303615166368
-0.0010095300776029768
-0.00319173899245201
-0.0024730664805723062
-0.0016639359188150246
-0.0014895489041583444
-0.000992788731398121
-0.001445587317819607
-0.0006307464099556067
-0.0014415218698873421
-0.0031871733110419775
-0.0034742321730497237
-0.003326457837848091
-0.0026157271255809306
-0.0023890784338322433
-0.0017214418646884487
-0.0026516639712077924
-0.0031585807587907306
-0.0011362923637109042
-0.002168473498828212
-0.002427833033100929
-0.00131686470360957
-0.001689834200122814
-0.0007189576122769729
-0.0016089308162308543
-0.00311785774271508
-0.002349616704644697
-0.0017614289996657146
-0.0014745407544647
-0.0024071284941294163
-0.00252200601807584
-0.0008967518620100999
-0.001726889450289756
-0.0028745305420046965
-0.0022906236783249777
-0.0020003307563614715
-0.0009745955524441965
-0.0007167598641772996
-0.0016364036024807507
-0.00195508007225414
-0.0015988243431136304
-0.0017827542522368845
-0.002279122853696426
-0.0016356377774176902
-0.0015733389446072096
-0.001607856629059074
-0.0015930615607131346
-0.0016033826951899284
-0.002384595392935913
-0.003164153221455924
-0.0017870099724527954
-0.0017052514359476394
-0.0013571595185322188
-0.0015375562091491943
-0.0030161428197507494
-0.00265590168475577
-0.003426984785808211
-0.003228704837557552
-0.0017611302358744164
-0.0025098900786510196
-0.0017383267087324632
-0.0009572968140208803
-0.002141770699121859
-0.0015409799643338598
-0.0014580240956208854
-0.0026793001646249048
-0.0020585315127021994
-0.0013961905826187682
-0.0015402490951858766
-0.0026451460903937187
-0.002867341331846137
-0.0015790651191555705
-0.0026285913249135284
-0.0030743507526095814
-0.0030431644402202306
-0.002667025198925803
-0.0016827634520346405
-0.00277357014837009
-0.0030026568178383338
-0.0032772009259119344
-0.002744296601779924
-0.002427920724035927
-0.004549349849652528
-0.004641602606759486
-0.004198181373225611
-0.005008019225370282
-0.005178613345876789
-0.00430262600050936
-0.005136847885902844
-0.006862871617343852
-0.006170951040895864
-0.006710287303165446
-0.008386443414885654
-0.008892186794025569
-0.00862067318194069
-0.008548960746272505
-0.010922979838545748
-0.012635961199635207
-0.01330903409167375
-0.014705456669353715
-0.015730723482344146
-0.016941555999078903
-0.019231059683024812
-0.022534720593183503
-0.025706284156669316
-0.028153825843358304
-0.030767651975949894
-0.03446662911188893
-0.03799722325722236
-0.04219190257517648
-0.04682261658081082
-0.05180894830388044
-0.058562209543477226
-0.06538071419556436
-0.0723459924562683
-0.08019916582397346
-0.0897371466723054
-0.09976775212366225
-0.11011164411281797
-0.12203518428190584
-0.13410695262561026
-0.14862189666586995
-0.16381958589815424
-0.1768705771272314
-0.18941494349306257
-0.20081595842547992
-0.2106156916330286
-0.21669975857118784
-0.218584838486214
-0.2171149993735776
-0.210889159184746
-0.2016101322778151
-0.1878316370291567
-0.16932003069299884
-0.151691895019942
-0.13483217262956682
-0.12251986702875997
-0.11595793171148343
-0.11373730654990656
-0.12244151867892551
-0.1424190237333294
-0.17366276324724772
-0.2183053221006394
-0.2734662114557445
-0.33333606214572786
-0.39772325053147084
-0.46828113240358377
-0.5431752498701389
-0.6205856945859668
-0.695357115565364
-0.770117452223632
-0.8472533957952948
-0.9247619111465324
-1.006600115227942
-1.0864347640141439
-1.1553422933204507
-1.2133805625423095
-1.2589792952790646
-1.2902224907923237
-1.3012607239684129
-1.2804218767445614
-1.229798779378835
-1.1540796489968923
-1.048195810728935
-0.9063719453078738
-0.7247731461506054
-0.5044640838208814
-0.2663506834397009
-0.024336317424007083
0.2603812585312248
0.5848195771176341
0.9008291660947267
1.2060728702821184
1.5301750046450988
1.859200973956652
2.148891368525885
2.372471793785818
2.4678873585908954
2.5886745610085526
2.869870923750546
2.9963311276643565
2.768164972534851
2.3642786331164194
1.954309709486099
1.4992266648228596
0.9462927871434454
0.3403886963606263
-0.21343382940041045
-0.6131493000832124
-1.0021154907031937
-1.4028754280612106
-1.6289673316012465
-1.7246853058410718
-1.8147650180823462
-1.915727555504004
-1.9807427321247353
-1.973558471218516
-1.864385291220563
-1.6799785272719454
-1.4647107649856244
-1.1627815830975938
-0.7324321444339209
-0.1785484831604911
0.41916061390630316
0.9449661705853999
1.3873548752140925
1.7594325455137665
1.9645712673970452
1.974324012745517
1.8947290594408206
1.7083217111198488
1.3821114430826569
0.9422192564975639
0.3899335525724011
-0.19186099158673092
-0.7010365244414993
-1.0889917675129828
-1.2929500857174185
-1.2371150129389543
-1.0086529909958657
-0.8058202834488102
-0.6776252878383126
-0.5964228806167452
-0.5583285789093982
-0.5477776808061529
-0.530299638186157
-0.4591729751186873
-0.3784648756126431
-0.4372311916913153
-0.5763882090937467
-0.4568465673943003
-0.10627506724432191
-0.06956491993164231
-0.4607438814734684
-0.7284256645099083
-0.6109570190754182
-0.4527458857090333
-0.6244216987434569
-1.0889646990646678
-1.4120942580277365
-1.2642211530250258
-0.8918553474069892
-0.7477844824354893
-0.8390736768879191
-0.8662988065445313
-0.6364468312095233
-0.17519794619678816
0.260156946212181
0.5268001076652804
0.8027807565992575
1.2024797390409743
1.5412554371635276
1.5545882279800478
1.2703950229243128
0.9726141046959146
0.8772076907395265
1.0341458965184904
1.2199176068956123
1.1346953136017015
0.8610576681249279
0.67271623913762
0.5433315299211277
0.3791775112329499
0.37103159716648304
0.5896195500074947
0.7881993784880942
0.6818124721455666
0.21251652633586168
-0.20591741043199935
-0.24305205503425784
-0.31157390148032155
-0.8042366835124244
-1.383935276639483
-1.5798160077467036
-1.2352710563374625
-0.5029334458853302
0.12823289918246086
0.33401417329834376
0.289895031554648
0.1515583057488455
-0.15504487995774752
-0.3598733724897939
-0.03933745612235031
0.4157221145641048
0.4952432693951842
0.3960175722892554
0.16573703289312547
-0.340824926622226
-0.9027984525274932
-1.096097663906818
-0.7863407763951559
-0.2734780923916888
0.07962910805825796
0.11206248595502302
0.07766176715040242
0.09418051525716782
-0.22324352346068393
-0.8830498262361538
-1.2607865577789916
-0.9446256168565077
-0.35822957540256056
-0.0027372108781309416
0.16269755603380173
0.17144003034319305
0.1897008499105829
0.5757453168001764
1.1966703024496004
1.6357431639348265
1.7939778838002092
1.8203447404622426
1.8378821364633535
1.8230326194381163
1.546852751514638
0.81896715397099
0.026457825034774396
-0.043579069128317605
0.6434202184521449
1.131907765152098
0.7777418272109825
0.05508930247092531
-0.1628100263798473
0.2791163657346091
0.7267473055989783
0.5843754892455373
