AAD_Filtered_TADAS_FILE
AAD_BASELINE_CORRECTION: BASELINE REMOVED
AAD_FILTER_TYPE: BUTTERWORTH
AAD_FILTER_ORDER: 1
AAD_LOW_CUT_FREQUENCY_HZ: 0.025
AAD_HIGH_CUT_FREQUENCY_HZ: 40.0
EVENT_NAME: 202302060117
EVENT_ID: 13194
EVENT_DATE_YYYYMMDD: 2023/02/06
EVENT_TIME_HHMMSS: 01:17:32.00000
EVENT_LATITUDE_DEGREE: 37.288
EVENT_LONGITUDE_DEGREE: 37.043
EVENT_DEPTH_KM: 8.6
HYPOCENTER_REFERENCE: AFAD
MAGNITUDE_W: 7.7
MAGNITUDE_W_REFERENCE: AFAD
MAGNITUDE_L: 
MAGNITUDE_L_REFERENCE: 
FOCAL_MECHANISM: 
NETWORK: TK
STATION_CODE: 3126
STATION_NAME: 
STATION_LATITUDE_DEGREE: 36.2202
STATION_LONGITUDE_DEGREE: 36.1375
STATION_ELEVATION_M: 123.0
LOCATION: Kahramanmaras_Pazarck_Turkiye
SENSOR_DEPTH_M: 
VS30_M/S: 350
SITE_CLASSIFICATION_EC8: C
MORPHOLOGIC_CLASSIFICATION: 
EPICENTRAL_DISTANCE_KM: 143.54
EARTHQUAKE_BACKAZIMUTH_DEGREE: 
DATE_TIME_FIRST_SAMPLE_YYYYMMDD_HHMMSS: 2023/02/06 01:17:36.7762850
DATE_TIME_FIRST_SAMPLE_PRECISION: millisecond
SAMPLING_INTERVAL_S: 0.01
NDATA: 12501
DURATION_S: 
STREAM: HNZ
UNITS: cm/s^2
INSTRUMENT: sensor = GMS+/GEOSIG | digitizer = 
INSTRUMENT_ANALOG/DIGITAL: 
INSTRUMENTAL_FREQUENCY_HZ: 
INSTRUMENTAL_DAMPING: 
FULL_SCALE_G: 
N_BIT_DIGITAL_CONVERTER: 
PGA_CM/S^2: 1071.449
TIME_PGA_S: 
BASELINE_CORRECTION: BASELINE REMOVED
FILTER_TYPE: BUTTERWORTH
FILTER_ORDER: 
LOW_CUT_FREQUENCY_HZ: 
HIGH_CUT_FREQUENCY_HZ: 
LATE/NORMAL_TRIGGERED: 
DATABASE_VERSION: 
HEADER_FORMAT: DYNA 1.2
DATA_TYPE: Acceleration
PROCESSING: Automatic Paolucci et al., 2011
DATA_TIMESTAMP_YYYYMMDD_HHMMSS: 
DATA_LICENSE: U (unknown license)
DATA_CITATION: Turkish Accelerometric Archive v 1.0 - Disaster And Emergency Management Presidency, Earthquake Department
DATA_CREATOR: AFAD
ORIGINAL_DATA_MEDIATOR_CITATION: : AFAD - Disaster And Emergency Management Presidency
ORIGINAL_DATA_MEDIATOR: AFAD PROCESS SERVICE
ORIGINAL_DATA_CREATOR_CITATION: AFAD PROCESS SERVICE
ORIGINAL_DATA_CREATOR: network: TK
USER1: GuestUser
USER2: 
USER3: 
USER4: 
[...]
-2.5205478087395545
7.241783043299717
7.460786023687457
3.4202616601288813
-0.6790002912560206
-7.7208014912749325
-20.532024297194056
-30.22883427759304
-22.665357975478155
-0.9660770227140192
22.26206081354404
41.74137047987399
53.892372828329464
44.73433689412429
28.367488704957513
23.31254372737205
14.475627030004569
-0.28659573716151093
-9.556308728974525
-1.5062433235845387
3.046228910119906
-17.182587725175143
-20.990894681304194
-1.9593599328029472
2.013488120035245
-1.2278148045218786
5.98538971378935
8.634238092118583
3.7479207128715433
20.327459244815493
56.3968425840871
59.215905204030804
18.379946102976124
-1.004507117546907
19.993852401433013
29.69889953860006
22.275864364084374
28.281544519669495
47.242415765282026
52.12209187718833
27.6236807237769
1.2633785800711266
-3.99567630346872
6.12685188551113
12.67172781065988
-5.39996511475449
-37.488353721774935
-62.41089084327239
-60.70316740922364
-34.503581820960065
-10.105628680545696
10.765282143862187
17.526493743195974
-2.9352524724107534
-24.995227986571752
-21.559403841872193
-0.6057147923267537
27.409456896444137
73.66702204225744
102.40634159793551
68.85054952176549
15.506151332886065
-3.0125340112096697
9.983899431401003
27.43651902133287
36.36561059273709
33.67661229898708
8.609632020843597
-18.02856438108914
-10.847014127818538
11.028275372493962
23.14575712378322
35.72548985063937
45.37052876508453
36.59420610649027
2.31946693391715
-38.7555375666655
-45.01244542825754
-21.3600289750191
-5.925887019399149
-8.839203717606548
-20.924036929401087
-28.19567559440262
-21.19041203080924
-0.5879797935134774
16.92811935791738
11.524658165602881
-10.551536533579105
-15.037670705103752
8.871118607974891
26.541051530977747
20.090014971700963
-0.7562382187014035
-18.87663177758422
-20.936179957326363
-8.607661089802548
12.940078860140105
25.634590560346947
9.294801352373916
-11.802788861222064
0.9798268964533484
13.349679485010165
-16.22192417442517
-40.55948227504421
-18.445867701591418
12.803264736648945
18.37345018566884
8.471015669471866
0.379220112643768
4.367677001108929
14.89333730130108
23.246818695522844
23.85200432799432
10.960993437115492
-0.892445887611939
1.168699175463356
19.588748335069432
41.48774321761038
33.17844658665274
0.8599564068801958
-16.42968542555159
-17.77304565990621
-19.348657398001862
-17.790909822977426
-6.618310553754026
2.233459655545893
-2.139287481316451
1.0906871994122116
9.628636768051031
6.897243047493519
1.6028148023765145
-11.099855965219906
-23.674130579512113
-22.86726730325563
-15.210856200512424
-8.260829552645335
-5.834287768161453
-4.518093306357705
-5.121684142242023
-10.484726954808323
-24.696818481092347
-41.78345068544729
-44.59146157852576
-26.460385292908217
0.32523457299828623
7.451870853119437
-9.384604652834174
-28.321606557556326
-40.43579622877098
-44.198003268401486
-34.35343666188573
-21.796474890993505
-27.530362334304186
-36.438951415088276
-24.558180747611004
-20.690793945259088
-35.51176289339479
-26.94718583792655
-6.434581910092364
-21.02809059412333
-60.284819528204636
-78.13474851127457
-61.90989164050006
-47.923058465672995
-46.466355532715724
-35.220448404794105
-23.63152324384742
-23.61439845119351
-20.812709664442924
-8.99117751660015
-3.7486337966280394
-9.155152547517115
-16.061082961892318
-19.36667959240758
-11.404161351366943
-8.103130405097899
-16.324103624431828
-16.15611239603256
-6.121256119829548
23.397496883053204
57.110360112016984
57.76328246681602
40.538564954432715
25.81450174648932
17.44084282977364
14.421140062191922
7.810476081295714
11.534014274793824
26.880235559547202
30.531583411689326
20.0219776410733
5.534118063968679
6.206623185957682
21.198832611874497
21.728459629169016
11.940036070853443
5.653803968815291
3.397228351800638
8.11094559059284
5.006869192820629
-4.6860688878481636
-10.02333010210379
-13.451664129076773
0.08108315796704967
13.928666676116052
1.3051487125478316
-15.577238545007146
-16.884216828403662
-6.710638359122799
-0.5184821965023263
-4.202290454657059
-8.526017335080358
-6.950704425503012
-0.907032564225237
0.1511864087235057
-6.007136512332573
-8.709447946292256
1.7119120343141243
17.503107190492702
24.29637271705537
21.52535960598279
21.008775792637095
29.30357397470393
28.922825294186612
11.660432784259287
-7.761729088858301
-15.528225555501873
0.13581226319661985
23.174635323403145
23.406952554800032
12.53801691947007
16.285046592777014
15.274356085180065
1.9637864110267986
13.633833951237873
32.83054886632773
15.314542131964327
-14.463349590880645
-24.686527806624756
-22.122496940138934
-15.08536257321629
-4.825649036802344
13.082940008099497
29.910786528319438
27.80554873035163
21.700328786480707
20.071151782820184
5.489204600068913
-4.580069156444964
17.230103652345107
46.9583915638381
43.734850287720064
12.840127107920637
-3.6871756788921797
14.206775478154094
42.819192336671186
46.892895243722315
20.549588501055403
-13.838961677487534
-27.35793213167906
-11.382690940086704
6.632489869341251
16.00823052322441
29.389409462713168
41.810362982890474
36.756283403697275
-0.24700350133087526
-37.64160365829543
-36.87008393966186
-23.90499207294503
-19.08206724655811
-19.309133456596054
-28.572180508163207
-37.71053662006731
-42.79247323034302
-41.9984671259944
-29.476055362746877
-7.872235841301664
10.510107889317878
1.0880973700863708
-26.848865147547038
-24.697628428802535
11.06677357335453
42.59437040996945
66.22599185871233
68.77281585204486
40.51978014871608
27.215960737781515
32.744044281510234
32.92743566335477
28.33249007655797
26.25539619399228
31.03135364560211
21.22889706336899
3.4364114237023253
-0.6961206899328044
-6.654094665774474
-30.491326206143384
-56.153517484079345
-43.97346756052472
-12.614460136514644
-14.865338590817164
-42.8719059535737
-66.89725435610872
-64.23989687347319
-44.78926599348621
-39.05625956899235
-37.017817186203295
-24.269906562213535
10.669768782695071
46.2185993602072
31.058537358363278
-20.619595028732522
-60.835632249292416
-45.13732853573387
8.171983403861095
13.714775278207842
-31.864729790506306
-65.0088144924487
-51.88065181309961
-8.320616634033188
14.904529687633733
-4.116979099629377
-37.585202238749496
-51.669324981322774
-38.24732539747192
-19.614604163633075
-13.32430142771277
3.8436888798608533
35.69599525085288
45.1875358030345
27.10639633535312
10.783757481227354
16.222680296775795
30.645679548235503
33.597270756881954
19.40901021606838
-15.177606152445138
-48.354456379644326
-54.250265056253326
-42.21980304016424
-27.68550532425609
-14.781065929847264
9.478591780793233
47.56786143189592
64.00464623261398
54.59252324019646
39.896456402141354
19.37151446513901
7.515855743865717
16.54033589926479
27.42378730038191
15.160785431564692
9.796360686637849
41.66463499540081
61.113450365551046
48.120705745882596
29.612841911246324
14.325761157669488
8.194430855666576
7.464037301720412
5.672467555792277
-3.455311282595577
-18.31925386980528
-9.430293306233686
20.91552807055985
28.57621327921685
12.55783922081596
3.3847042763778123
3.3567363883849937
0.5479877930905893
-8.73535945902659
-18.39182017290281
-22.358688287951214
-24.147743136224435
-20.791892914162634
2.806778448157745
43.34175524308569
63.798422655947945
51.99102525966811
41.680616314177925
53.626700852214526
77.46212601372017
90.13997314372206
85.47357266389912
70.31043738520692
57.53242713472334
45.3371518899716
5.784508018870695
-27.676360636494646
-4.269935643904133
29.570456775745953
11.964060186731409
-32.00555062615893
-47.58226110738308
-35.10476823469055
-16.700428533233403
-0.006090105813906741
9.294896977961319
18.28738088022102
30.80687040526353
32.3276479941247
4.739012102937901
-23.301362211582997
-3.6859776758935685
24.69711353406584
11.245913634673768
-15.396773585685564
-10.632696277799367
-6.864549373344691
-42.25134871580387
-55.59758147433042
-32.52494007900847
-31.067045390603997
-62.632354262739256
-87.20719294644178
-69.96252438461472
-44.244381482316264
-37.768494642561755
-25.58213798996559
8.906958262441735
36.69692745084179
30.90897849964285
21.917585489982446
12.35095069131325
-18.63492690148766
-46.02791665260854
-42.89129137945025
-16.905484726518555
-7.614490310097205
-18.270634090726414
0.7055013626755976
41.33725680131533
37.501366221669635
-7.382167223801278
-23.013708017086582
3.757438467911235
38.55045941930964
74.49260313077184
97.24495750964341
85.56610970432551
48.03845067036407
12.508342513145767
5.0880624759216895
6.444955360790016
-8.146655157420613
-8.682324597254654
10.501686511307108
9.084476610027393
-3.6516155662150096
-6.9000519025312235
-24.276229652150146
-31.97443092118786
0.5942074574129346
24.210960959183822
17.801972002138235
-3.095700781110816
-34.10883754242897
-29.561739100927483
-11.612006076043496
-28.766298664577064
-11.02445054627787
21.518809998968496
20.941692712577787
39.451730812219665
43.508946714643514
25.236726563349656
9.091127408039684
-1.9437505921608387
35.81634711809857
72.35123412457409
75.06857512168098
73.90141302655788
59.32117019602402
35.985234000167274
6.775599002861029
-1.642979476876656
11.417769476472358
-14.26703538431768
-88.35860180773942
-129.54762303698342
-66.86446419784632
32.01289556299221
72.74154803038245
57.21141500140191
15.382947050089676
-12.178982714538712
38.91677732512265
129.65986006727937
165.22637592086883
160.20936038210894
154.34997492594258
132.19669861062036
13.232631928872866
-147.73521291475683
-159.56119543737478
-57.21319177874469
-22.583493059042468
-100.94898273244581
-151.11063557426317
-84.46768324599395
-7.296646629190413
22.203372381508377
39.920338642023474
31.892636160566212
-1.532352500828501
-18.374908773237657
-25.407983699385767
-31.35966196809796
-24.54280543687275
-15.234328249102802
-56.9228437834096
-157.21270958251486
-207.98803022583127
-164.31141047228138
-90.09554382447665
-29.72139316677597
-0.2099003708320451
-3.31602069805667
18.666826752058682
47.40495208044947
24.016696549311803
0.40640066224150007
-0.440808053235758
11.670329539566367
-14.271031959381801
-69.49997827455503
-78.88270420866718
-63.53995198792616
-22.250364630675875
6.356388215917121
5.223284076273256
23.482560687854654
63.32157163960799
82.06628937721241
14.598208754255506
-33.356106491084354
-9.589245738768366
55.93434958429835
166.904276896588
142.5980298549724
20.29466429251897
-10.622791389236392
33.208736689884596
105.16970028208031
88.61270656877181
31.97222091189386
71.13291646030645
54.6585745223772
-37.75503709421414
-68.24198631500364
-31.728685141572544
28.201408252533803
-21.647542452056342
-137.61371489197876
-162.633063797977
-215.55474204322664
-330.0594848835774
-324.41584578733773
-209.05426987321266
-143.06759568720923
-151.2731054473962
-96.46316572712027
40.02121889097624
37.8263370029032
-58.96677735941327
-13.81992797517531
110.06844769674417
187.03408920871206
192.9177625796629
102.58901884141585
-63.95633559633655
-152.5429470345815
-38.65446281437865
116.13589321749497
80.08922003931767
-47.649232703542886
10.94360209545243
168.05999615636327
224.92394908065612
275.8955978569556
335.31624811331795
256.4258719040428
12.645499497519596
-100.77875063218488
75.37119650048318
226.01083577546387
171.8458412587615
-23.550231087995307
-202.9716834133963
-244.71740306590902
-310.9163526095204
-563.39146847944
-635.4927064247905
-165.04138146982115
358.47904690964174
530.6312224211043
366.87222038821
-4.950056031798717
-103.66454988120515
70.77403176489854
109.37122472273808
28.86345733486823
74.82204547823859
151.87475476730336
114.69675084431977
112.00944073850265
-0.6810941667169479
-301.71095055006924
-533.6493839840138
-204.02403415283845
493.69092390626133
505.0060031978759
-33.303179631065454
-406.9929105767243
-212.3617365828577
339.6120903265176
389.6932575648784
29.86019540512557
-238.90296383313634
-45.27220774930664
298.139561609263
103.24372013947692
-271.7145179971543
-610.0279138995417
-613.795716045865
-13.817391072147972
346.9965572913252
181.0327649166667
-66.06953211540416
-228.06108454007867
-330.2339939830264
-312.37253388125845
73.694722386967
481.944164241828
343.8486781217016
-68.9697162412969
-151.74367580928626
93.01644520133291
130.52006442210765
-48.17872014254479
-36.44977601020966
120.71710668819917
129.88304312933388
-21.016637399615526
-32.434332550537576
-99.35931920299326
-398.5493444897967
-268.174871983328
95.74739275300352
50.140586564066595
59.28036086742914
372.5501828269328
557.2038508663333
253.6212785251113
-296.2457803373932
-437.11246339818393
-69.2794461940704
291.27760846042435
228.26413560531853
33.66927925397302
-15.456513293393911
18.628067707427718
-20.78946481208519
-479.0038895470278
-555.0275495690138
303.3833100454373
1014.9391863053909
908.4861913065088
1.067959434611709
-704.4688936394878
-276.49291547854284
230.8367224684729
-2.911138246672293
-325.0355465831979
-361.70118845841023
-112.31925714530672
464.2548673623845
804.563851080557
503.9966841875776
-173.89804283225098
-342.4673546129819
410.26166682578116
644.970640063071
8.26063282169622
-323.4987705722729
-267.79482730984455
-298.84651482376285
-438.0981317223373
-287.6761969280811
-16.66676730414904
-0.6218465712809116
-261.07925274287055
-511.5999048978384
-441.3565806706204
-429.17576725449317
-64.72153300948243
569.1370580947639
288.6429859328079
-266.818487403004
-184.21341592432208
213.5003133045241
404.59553448562536
23.41330559183629
-154.83361551320473
512.0661798820452
823.2660993947712
341.57014522585
24.876255308172105
67.18318562093916
180.86609678510956
92.32084123065512
-182.777572678517
-82.24973109408633
243.39276825898656
168.95470688452505
-27.249304996059934
-157.1265687260829
-177.48709137567073
9.542860161597511
-12.08095081160455
-90.60641969637398
-39.941814968858836
-76.525135774022
57.27444221934838
254.88368942007628
34.14637236286626
-250.30495471095983
-344.7688233558242
-310.9513250903379
-232.2505811268943
-387.3171331219467
-44.05246169607475
445.89486928939675
235.45112409362392
31.283157603283072
33.648669694253634
516.7347563565143
912.1003424420846
692.9397530930139
497.44695780556907
145.87131423064903
-4.593133021493812
114.83509401434787
432.053593252598
640.831456766103
284.3037018530698
165.88286570411097
-185.470714685249
-459.32291108178816
-35.60334991082077
71.58554728884481
-0.989896943613634
-191.46938201699933
-385.58973545869065
-358.14929895700345
-591.7852778249883
-662.6686529263663
-459.244612271178
-460.4432032594743
-560.9224894626338
-494.30347512040396
48.91312364057618
547.0398269548939
305.985084439602
39.16929496818186
332.4726046352497
591.1568081936858
430.6335195694894
146.2303704879883
-233.42623546559727
-461.61978977120134
-172.20061934953068
52.60432756247949
-243.38990372244206
-727.6162422950451
-900.5735448500258
-745.5709337418053
-498.3146160533898
-77.51048755993457
148.4774956020839
-68.6354368703417
-115.88047838211034
5.588718261718628
-123.91952823947221
-293.2400872487243
-355.31486886460175
-305.52640359001816
-17.768875239883265
446.93627625524226
981.6578615856961
939.7156237363376
73.64676556192951
-595.2251684313927
-896.9429520269778
-569.3412573761692
497.9274174029508
788.4873960799001
318.88892581275746
54.39519428322319
96.39129304600738
528.790099987303
708.5520593764481
255.59402105944457
-18.233755712824983
-65.84770097726528
-265.52484248110346
-254.5772319894568
-91.3194085632791
-26.566143523155176
49.02079063909069
164.12765754161447
262.36415300388046
135.10775637608288
-186.36530280708456
-498.44068341080435
-635.3067357450806
-306.4531330897619
284.93004316535274
757.1027479034816
889.237761565571
616.3549001912456
377.6426951252161
75.96272688654534
-345.7753724078302
-312.16998508241716
-222.58442760826577
-247.12962412167334
-72.79025935763946
-163.5585203453602
-255.3265076660782
-108.53991084854536
-3.678542226375209
297.46607049211104
436.826402808628
206.36828714216492
-19.008455311756133
-237.36936977154866
-415.3660999751661
-525.1184908132625
-592.3325460671183
-385.49715306159254
198.95933904434605
425.6728409728694
-53.023548830652324
-588.6252521979732
-855.178159985286
-559.2938864900466
32.88625015272922
217.48216250356185
35.03867058259508
-119.55616270597336
53.0628244056229
166.64185989506325
89.38022580426185
8.785923482323968
-173.06279365916288
-334.27126840342106
-544.8477160417045
-589.9479252935429
-395.3698120838683
-312.1424161094187
-194.05095109930537
-42.21582683947475
-86.53041384432926
-68.95419402884482
210.37542255044926
317.8013409736442
220.90283272823427
320.4215619602211
410.24979039354116
218.012469571044
-47.28373391803058
-16.11444302191522
52.41937540886644
-242.96306856747103
-454.3336817105536
-418.2500582327786
-288.00488861629503
-100.42689470937783
-218.91006719381255
-418.12140692496683
-336.664931214265
-323.9710594971342
-317.3618272404013
-55.09966768720224
263.9725614658189
476.80314361437087
482.88188077175687
401.2969321809813
376.66366996888223
275.3426169557625
186.8359187059
236.96767545861348
202.17328358782135
86.38017800617119
37.58144785666466
34.12543849300945
177.57785041586413
-57.013238902705
-727.5606813648891
-709.609912228631
-115.94815940933917
174.45601916272668
-22.29862192902491
-332.6663791610244
-273.85173620416174
-162.23461769749628
-30.352525568046516
197.66710988880425
-184.9121042083499
-660.7391851092607
-590.5111036233596
-534.2804689947203
-406.6129621961393
-168.80437116746165
-248.56110553551798
-265.24191244958456
317.81402324507116
938.1315966466125
591.0227027406675
-296.3184868107914
-509.3494153285699
-54.1103684959916
305.2615761808901
312.2376904258609
390.5539135290037
510.92785765347236
278.5963347258964
-7.851573107330539
-137.4955035895847
58.369857014708025
510.4545540590104
731.0677802160291
602.8007146107853
232.4242123760584
-2.254053898794226
-25.00319194368743
88.3774381567483
198.93855819055022
-40.634378883920725
-444.14536381362353
-533.6062451103081
-152.91997419759338
94.94954166094357
329.8245321402459
757.5373269855434
468.927201703756
17.757626298484322
58.11726881700356
174.97074719630655
559.3135675039964
768.9367876727136
407.8336166643223
157.03672684191056
66.49633193135519
