AAD_Filtered_TADAS_FILE
AAD_BASELINE_CORRECTION: BASELINE REMOVED
AAD_FILTER_TYPE: BUTTERWORTH
AAD_FILTER_ORDER: 1
AAD_LOW_CUT_FREQUENCY_HZ: 0.025
AAD_HIGH_CUT_FREQUENCY_HZ: 40.0
EVENT_NAME: 202302060117
EVENT_ID: 13194
EVENT_DATE_YYYYMMDD: 2023/02/06
EVENT_TIME_HHMMSS: 01:17:32.00000
EVENT_LATITUDE_DEGREE: 37.288
EVENT_LONGITUDE_DEGREE: 37.043
EVENT_DEPTH_KM: 8.6
HYPOCENTER_REFERENCE: AFAD
MAGNITUDE_W: 7.7
MAGNITUDE_W_REFERENCE: AFAD
MAGNITUDE_L: 
MAGNITUDE_L_REFERENCE: 
FOCAL_MECHANISM: 
NETWORK: TK
STATION_CODE: 4405
STATION_NAME: 
STATION_LATITUDE_DEGREE: 38.8107
STATION_LONGITUDE_DEGREE: 37.9396
STATION_ELEVATION_M: 1147.0
LOCATION: Kahramanmaras_Pazarck_Turkiye
SENSOR_DEPTH_M: 
VS30_M/S: 579
SITE_CLASSIFICATION_EC8: B
MORPHOLOGIC_CLASSIFICATION: 
EPICENTRAL_DISTANCE_KM: 186.63
EARTHQUAKE_BACKAZIMUTH_DEGREE: 
DATE_TIME_FIRST_SAMPLE_YYYYMMDD_HHMMSS: 2023/02/06 01:17:44.1889160
DATE_TIME_FIRST_SAMPLE_PRECISION: millisecond
SAMPLING_INTERVAL_S: 0.01
NDATA: 13501
DURATION_S: 
STREAM: HNZ
UNITS: cm/s^2
INSTRUMENT: sensor = CMG-5T/GURALP | digitizer = 
INSTRUMENT_ANALOG/DIGITAL: 
INSTRUMENTAL_FREQUENCY_HZ: 
INSTRUMENTAL_DAMPING: 
FULL_SCALE_G: 
N_BIT_DIGITAL_CONVERTER: 
PGA_CM/S^2: 77.413
TIME_PGA_S: 
BASELINE_CORRECTION: BASELINE REMOVED
FILTER_TYPE: BUTTERWORTH
FILTER_ORDER: 
LOW_CUT_FREQUENCY_HZ: 
HIGH_CUT_FREQUENCY_HZ: 
LATE/NORMAL_TRIGGERED: 
DATABASE_VERSION: 
HEADER_FORMAT: DYNA 1.2
DATA_TYPE: Acceleration
PROCESSING: Automatic Paolucci et al., 2011
DATA_TIMESTAMP_YYYYMMDD_HHMMSS: 
DATA_LICENSE: U (unknown license)
DATA_CITATION: Turkish Accelerometric Archive v 1.0 - Disaster And Emergency Management Presidency, Earthquake Department
DATA_CREATOR: AFAD
ORIGINAL_DATA_MEDIATOR_CITATION: : AFAD - Disaster And Emergency Management Presidency
ORIGINAL_DATA_MEDIATOR: AFAD PROCESS SERVICE
ORIGINAL_DATA_CREATOR_CITATION: AFAD PROCESS SERVICE
ORIGINAL_DATA_CREATOR: network: TK
USER1: GuestUser
USER2: 
USER3: 
USER4: 
[...]
2.19694093775775
5.90211247764836
7.9221397003219804
-0.5104960696859447
2.8929688810517447
6.565446313931536
4.850594472449496
5.273845428632559
-1.8122930051268635
3.6708671277538785
10.218348627210228
7.60004598068343
7.37322953576046
7.340470935272707
2.30251845892366
5.972762025165058
5.391528273798458
8.909299449482505
16.160210875147666
9.00386868197326
7.153428894503772
5.64999774872054
7.0053980278598225
12.582900199745383
3.4330997664976337
-1.1704663202172667
9.951164130383985
-0.7048742723020808
-6.449525682068358
-0.5434868262130945
-7.243505383976162
-8.810215936805397
-3.433817226838789
-5.49136195700954
-12.513287933734937
-5.498486584705009
-2.201195990871649
-9.735512995127415
-12.932099466114265
-9.504238118269589
-5.399849697387749
-13.544833177017281
-23.11582008877438
-15.127849591522196
-10.603613310316073
-18.865962513429572
-15.58505874531941
-12.639522173317001
-15.983017533747255
-15.712531569673548
-23.563451757701422
-29.773831450043733
-25.758352726980043
-20.9172355820776
-20.033369463222993
-27.477595250598483
-24.26759443740218
-20.079995595365137
-24.85137217078314
-25.440719475975822
-23.165903017083565
-21.098618410140404
-23.3328305802548
-21.93171593203044
-21.02523531368225
-23.228568417439487
-25.93473767364268
-22.428353750181692
-18.95486565629434
-22.158407196200788
-19.786662611105175
-15.679174359429668
-15.809614171158778
-15.927779881205591
-11.181174719713463
-7.067490002524518
-9.73233159232965
-11.426708856885508
-7.512179850815114
-6.7785129937631785
-4.336514322751396
-6.947620643929897
-10.063223845988576
-0.5739767612250856
4.21122393219024
-1.5119455788039387
-5.733324491933471
-1.0968850489299256
1.774890297805755
1.3235195738737573
3.923055070946683
1.1261664128620148
-1.8293745864656124
0.9912676392855397
6.5787014496981895
9.90322154844226
4.97650843023527
3.5306500147287445
9.906996532675182
15.568489358097409
15.897761166980954
12.862311190258097
11.256033350525874
17.152603732426922
18.939297605161805
11.59349497788392
11.33748450792597
18.66685829124283
13.751490637054383
6.702463819103624
9.397548179948119
9.61124798975876
9.9497581782744
10.004767313047157
8.216154626739575
10.482361494602108
13.211423295105272
11.9117111915314
12.04545424520189
7.467053643217906
1.623056382846855
5.929293505436172
4.037071359070075
-0.6731586883913866
0.5218873062748305
0.3952222907361181
-0.10787075651607225
1.2658262156100781
1.450519863237866
0.6637292886709832
-0.27296871174324294
-4.488363165035594
3.639218247739551
6.026058072887505
-2.2657176717123493
-3.403337064608454
-3.5287861740494733
-3.7592105001702487
-8.133911608417662
-9.444623982051034
0.645509676657822
4.47621099631673
1.9222058965274418
-0.83743167511068
-2.8378652676908547
0.6949354167079834
-5.459507908966154
-1.7242129885398
5.864438145983289
0.9437033665548147
3.5365509422364005
1.6279681666772976
7.193215362360601
13.372951855420144
20.0666082124394
17.07796341684791
7.1088439874732545
23.526772037097178
17.595048917364643
6.675152565257371
27.212222478259793
17.974247308226843
9.609200482697977
20.099983795490175
21.62831182911568
21.675601071624932
13.346256287948869
19.79291029027287
28.29473022584967
12.128460398450116
19.505367695204093
20.926233132262595
9.233339535718747
26.80006627591679
10.206071259961568
7.853717555843267
18.09435906254855
3.6019173473049824
5.161318749700757
13.318363736240467
5.404690132848353
5.267387001594295
15.62704457295443
10.568139015114545
6.2618957202901555
18.646996949697563
19.31637436562363
12.931114122623223
13.714173446230824
12.061941064794505
16.12521444859494
5.577895300257828
3.4625292910138414
11.753149656770931
3.4498417282639235
8.502741489281975
5.81023640854449
2.5619200875723576
4.595718810300687
-5.622512403628059
1.6698149289418938
4.046025316583143
-3.859311350895265
-6.627667217657544
-9.420400007099387
-14.974652195460195
-11.11873598941436
-6.201258903340161
-11.586565592606641
-10.381107936629256
-4.0595201708175805
-8.818435826898599
-8.781422520879676
-0.7349272453374298
-6.146657665118825
-9.11625529094372
-1.3812776095591173
-4.277275255243409
-7.735717907965343
-16.307551220148905
-14.141137741004874
-4.576333868701355
-5.5348292009686055
-4.066942972932211
-3.069828520409534
-13.91762117259345
-15.392782139672542
3.8053290534834985
1.762732484486128
2.703199620397661
3.4608155531251796
-4.551736335486344
2.1564616381167174
5.035693972258756
-7.216158357306694
-4.7821890709842805
-1.1602678008250278
-4.363863979063394
2.126943386318194
-5.7778979307902825
-4.6367396137376415
-0.3074811733781464
-3.253487833185804
2.7520164343118187
-0.4446326796760342
-5.2331150311757435
-0.0827046737011516
3.3923837973190354
0.06906347994449082
-2.601875586243896
3.1121677691355694
7.163571084771345
2.9033886132330653
-7.0699113052563956
1.6098499841350504
8.606728935407487
-14.642033076852998
-11.255119827827295
6.794732652066521
-2.8514005695859908
-7.282438159733684
-4.388865388512068
-11.002714642650323
-12.26704581079736
-8.70806370361066
1.1251834002753884
6.891727310008885
-0.5722833892854368
-2.687044264430768
1.5061858562802601
-1.4802189815905256
-12.005941123256948
-9.846962947641027
-4.9048936813880895
-4.48528776973715
3.0949877001176045
5.098278311829657
2.745455953523321
0.32595108950376217
-3.9897335484686796
22.94623443207694
68.09807053166084
33.01758150631035
-36.53792276407032
-15.470040246208479
16.45742020487519
12.644299503396155
21.80530036880075
30.89436824124685
26.10127535941449
10.446089482993633
-10.891164707185993
-1.5101236291060205
37.19886361650541
16.207901515280657
-1.2391211208796737
15.823266277869596
6.060042915483015
13.958327445097932
5.9447653799671745
-5.628488116836723
3.6831409771400674
-7.7434539797164454
6.2535599943220745
20.89345834741006
-1.3385617165059231
7.4419774221149915
8.50876257305021
9.285206064327776
23.987506951634423
-15.420549746663747
-0.6461324200102015
33.05112850938186
-1.041509963444578
-13.56550519540087
-10.40399066722241
-3.252462586978173
11.274121131677896
19.907778386013025
25.301499658085415
8.862669905900152
3.1911676570498093
-6.223362837555528
3.3431039617247285
0.9628495914479894
-14.550341004613951
10.911367983610404
-7.899640761583866
-15.938445074710398
4.724188117606612
7.112302454544589
17.522891259786533
16.45162082342017
33.553840212593606
47.91095858655219
13.39130484293744
-31.71101614743105
-21.435429657696115
5.305963091330324
-3.5643408013663653
-5.155762078724471
3.4003705502103427
31.900208621965803
12.780815296967145
-25.634452383911977
-5.152085767121549
39.93833921054258
60.455555102952395
17.708235679037784
-0.9330309634828796
17.367368163616906
-0.25697443237041695
-12.554705981708496
14.459138171915894
50.64883077506453
7.56831739197381
-36.87574735078139
-6.653711785407532
0.1151566444164515
11.286003951000874
32.46854806854537
5.430906534137601
-13.569176462342552
5.609547658467071
13.706097582485588
7.339048541299935
-5.516244540315476
-19.679819795506184
-19.34345810171734
-5.933422594112683
-11.06610510726788
-4.561043209105538
17.189359382336065
-2.272823185565347
-28.521969948001132
-13.43639450266907
22.20670240740366
15.162263579598246
-30.38047718053312
-38.93745788721881
-31.282408469840565
-47.931658088469675
-6.416249123711541
44.94177543052091
12.346973508106139
-8.329654119080049
-31.785636795040645
-45.723316675025885
-20.16522441833252
-29.11421166225823
-27.956746784289
-4.162430034697864
-5.597933720082088
-11.383076450659473
6.957129977451503
-10.204687446237683
-15.690778639424304
6.894621923516591
-19.355072524650218
-5.449883037391731
21.919816616935282
-4.996020303705578
-2.161732161025638
-9.704352263902306
-23.586644310749517
19.031436183477652
19.43878084708238
-45.0449137293359
-27.92702156674695
12.504519831313502
-4.422884675570085
6.171129369912049
18.80645598436672
-0.4478103972785116
-21.721850054630266
-19.66971319315806
3.465471464787374
17.76539758326485
-2.1534192490348167
-18.97563751231639
19.288271141090487
24.341774690968396
-44.13011727661238
-39.95103966225201
-10.126892754384718
-8.595939897589384
23.66109234766425
5.680692269233763
-45.15854633012592
-32.41572599348464
-3.167669627165944
0.7696844177112007
-11.024083498398282
-39.3008260286953
-39.93521042823296
5.387379182043701
37.67976251999259
23.612751113719774
9.22561509729645
-23.529771256097483
-40.80792121857705
-22.336396610004908
-10.408638104450356
-7.128849418788888
-27.50324969190187
-1.0262875748622138
34.309856423162586
33.28639440988531
17.732345850167867
-27.54451938878852
-31.72711390927756
7.902473668755076
16.829901180057316
1.2336716633323483
2.3079383137037683
12.458117126771308
-5.366138236139473
-6.73921232423604
20.830842504214946
17.430841871772717
-8.864703677962913
-11.159692425690448
-15.20638328968904
-11.958770856309012
-4.004686872470686
-3.1678099540652176
19.97992794335336
28.942722965110725
26.367813952034215
10.437814468592316
14.706805165321745
30.914517964159852
16.291210429527847
24.693186384243187
51.09718333080202
24.44503040815662
-8.603606233132105
22.760745826673546
37.77231575301696
8.012831241442596
10.06714077295382
-7.915505142139075
-32.80708421542631
15.33510696696608
10.639198250747402
-44.71579329010069
-21.06949155596027
4.2681869570901485
-23.671786552698627
-18.257127508165542
-4.746401552284312
-15.577298052086967
-28.13861250124478
-30.50817126866398
-0.5675447315182058
9.854772794653025
-8.781766499426142
15.967560929582236
48.922544201267804
40.2496196820483
14.730132175328606
12.699794399531998
32.876147890905614
7.95757810916169
-34.670929442650426
-30.326630546969113
-17.2573638424719
-17.06409976334382
-6.699270698203711
2.2374938029029865
-2.7678392770555647
-4.013320779081873
-13.129033080079541
-7.483715001544497
34.99370988624282
29.76543403952356
-13.525191169018248
-0.7289895161845185
14.523957147108469
-11.753742500186988
-16.556546952249338
-5.099367543660907
16.09081163074358
19.449747244306494
-15.894950649517291
-34.14686737020852
-18.253701633152897
-30.559184114245827
-32.7774733319374
-13.429031427506041
-36.88008339794542
-51.22678403419047
-26.696329239078953
-21.13149084086862
-12.579325565861776
24.677668155637203
31.762531578318352
-5.263143700357477
-3.750101950639557
21.924073619918914
2.7409615326215837
8.791907393353455
14.083956591210814
-0.847264403506348
7.782519106585903
-0.08828709389280284
-35.733928790522434
-38.03063095474362
-13.59014100114962
18.706138825786656
26.842365142875288
13.354828961994524
43.290254203439055
41.796728381757795
7.019040712451472
0.27736806406081427
-7.272725722265803
-16.613261994693158
-19.670631891206035
-25.46062239264193
-46.72274719718232
-63.25837356817329
-42.068998035894055
-15.261979939078156
-5.664572247297544
27.706976901997866
46.46456505752922
40.066700431189076
36.57103676984825
16.307529093292622
-16.416225173885906
-20.15005941863527
3.7601154360098716
6.3275156730181505
-14.884347034368037
-21.911524377534107
3.772609410758641
12.254690852325847
3.2211794052964846
-21.2847670784365
-55.12826956003931
-38.7250620965968
-13.976829945276819
-8.426603129932445
1.3922111968030042
4.099701639043915
2.1100182716260654
-5.4471928449786065
-3.938958843339408
-2.5927207298175805
-1.9144926789327152
15.085348767496814
16.427127699432972
3.1982279020204554
-9.347738180601926
-23.90822249389804
-25.594061923229653
-19.18147490175032
-9.41832434634613
-4.688880438174933
4.61360637305946
20.498810057475456
22.395506146721203
2.0993315979869083
-9.410686278091829
14.751651077709719
-3.951868919933425
-49.59717707788454
-46.51138203547652
-20.62061010564322
-4.301139603006394
8.986329951149058
0.18183410789625518
-20.40780538029993
-8.310188918524654
1.7176881824394017
-3.4115068828879904
0.13142236206776017
25.002535668596277
27.99665699802018
26.579173856903317
25.292510202208085
19.435189120265914
8.954025548538038
-11.407320018430761
-13.39457027359968
-4.571031068773922
1.0855849345132267
-9.140679838109834
-9.075003757054407
-2.3885832992863296
19.696502910405776
25.991195753134143
22.320650504294846
26.06880217898283
10.310383123463298
2.5084396485603246
6.714866689640108
-0.6874772493943666
-20.01299905613723
-42.62324360175663
-55.168572263476364
-48.9832454265924
-27.84894678423912
4.523495033509004
7.821096374649636
-1.0070561521942207
35.36158745871688
38.50180864795376
-14.202441837842763
-41.16038483264217
-31.479776636997677
-8.29507637395064
-3.7001249541699734
8.572948815094806
40.116875257581725
31.645059515125322
9.792486183534272
3.9218857739866584
-25.871718833214395
-35.47285186169096
-24.078775462143632
-14.709638548186001
4.008198397882331
43.728766320654174
77.89808487522463
49.97403073585659
23.922498827997245
23.490328173404738
4.302339540942526
19.223928366578008
50.98971027021529
30.01578375886431
10.369120023454302
-3.160353804182409
-13.724060221516659
-2.672341686086974
29.994106536295696
11.327146224090871
-32.71871406736396
-19.61330267055774
-30.471398018045967
-50.12057632914912
-1.7364452306209082
13.964577248588592
-26.61726321494172
-7.0508758687064725
17.07671406375936
-9.918803147680876
-18.686553368435703
-11.823424368283305
10.939306174591335
33.43031236436649
4.237440107068029
7.1027544460021925
19.858718805322404
6.291449147851772
6.631357413131549
4.7524436539424215
22.82564784895981
8.069367835723854
-18.470908286461082
13.848230645257612
4.971833678005363
-21.27949408773502
-11.074315722703725
16.72741863413957
21.143031150714258
-9.728895405183989
-18.97406954726134
-12.892588554749018
-1.2360744192425361
-9.680202801113941
-12.499428719292535
-13.042288310591852
-32.22167406301868
-29.241150175308594
-20.11576244401966
-35.49695976233187
-20.793277142698372
-15.668526915611212
-31.102747104070314
19.889820187392033
38.26675362622777
14.325151523176078
14.566200017058984
20.16449619186957
26.52572756839422
12.284825272391926
-12.042724482051193
-0.5392870536099043
3.0820118290078593
-0.9815161289126474
11.017807704920518
7.122060374273087
18.00977808488858
26.365390350472317
0.05245057219824107
-0.5153954252983985
10.257549549066738
-13.66008760179141
-2.9643761022473227
10.06107163260393
-22.717247164508663
-28.07178748761726
-9.639022906754787
6.299805746000709
8.815351773148288
-11.885517143578324
-8.830523945866485
6.635636298221331
9.163992275806196
10.033023510116601
-7.969071091153732
-1.314298193689807
14.982342497324932
2.916764187012034
7.961598415949085
13.180369669893647
8.599327114517852
-6.418856476722465
-26.19445567654579
-24.80763720379182
0.06627617453963619
10.6887352408286
-1.3737994384369254
0.3104034955887185
4.2172723390866365
-9.121112524766257
5.98931179086546
26.072743861791174
8.155190421619329
10.913052514725068
34.1023595329386
26.261102592543683
5.419646309726771
-17.60465295421918
-23.800974479883006
7.970922018887369
27.167214200572463
18.837256696054443
8.456683207857601
-12.24511381531682
-20.05357602127519
10.880954014036416
24.265323167525644
12.591831514629794
6.672880554146041
36.178976721139485
56.015574304174834
23.338959764595135
34.74401899837846
52.693860730375704
-4.440308242713561
-26.570995873439948
-1.9943762455147538
-27.082841872308627
-49.596989308918076
-15.79182354197312
5.112108494620712
-9.323291697172783
-1.8205122930512931
-2.5215781656753204
-12.25748509206032
4.423896465428227
32.79935809457196
47.138340258324355
21.35910609848866
-0.07523728859414074
-5.728421836970809
-8.365445545249917
-6.427529389084589
2.8622750754629287
-9.946111649205873
-25.005660651444106
-28.45656675919093
-37.153479248848896
-27.76559752201478
-24.844984315332486
-33.440080636809924
-32.35436237648068
-16.2717361317295
-6.520528129148417
0.428940969601051
5.492603133747253
7.4171834287382765
13.004326883758262
-3.854940374994324
-22.43660057155324
-17.89057058134937
-13.704428605607276
-11.35888810756704
-11.428625829117355
-15.601280387116656
-24.793321070954562
-16.311053271489527
2.4265541575245853
16.05593882831653
30.220142680253133
24.0053220068432
17.964810888711156
10.574115904155759
-1.8039092611635394
7.367605409367759
4.30425974836411
-3.334671066240273
7.4176692769338155
-7.75544866824815
-16.900821172810794
5.061691762901081
6.445883339467312
-4.107950236918344
0.45650721556627055
1.6669870635226742
7.312340606400749
-1.7053293128289286
-17.828824828020718
-8.793170641499495
-7.387407207195766
-13.364058322115412
-13.553138265616163
-14.462542467044328
2.3403856731846475
8.99655583449903
-6.385439653183815
9.548799897114707
19.053022471564372
4.070051607229469
6.598048027738857
18.489526133422636
14.865440177924482
6.195932440281034
8.68112526920577
-8.438802233712714
-21.83435258775385
-7.148851769339789
12.622322650720525
15.924615170956768
-3.7718687241832654
11.777067925587481
19.788236532321932
-10.210624741357645
-7.452456943094614
2.793505695053397
-5.207756718556923
-8.719520111639902
-7.378856760764743
-3.739667281627151
-5.445822526953354
-4.61414734004488
11.34626025481784
9.029796234843669
-2.9302613328396525
-0.3017926244778148
9.562944284378512
9.911666673137516
2.806989932747166
-0.533681385275083
0.3895446671747035
1.4587382813588143
-12.508598361777992
-16.100847804874693
-0.7860638559963745
6.469871602217946
-0.4025296320971267
-1.6516190426073962
6.026528065409089
7.153278451226257
-1.1196864621211204
-9.05308237502814
-4.320572051641212
10.54808989911065
15.50620687105484
6.483136001511825
-8.5716165412102
-8.337959339220898
7.325205001743438
1.9264618409398098
-5.839815639927777
-0.3321306797120106
1.5389373011244154
-1.9320866914460437
-7.967555230568439
-12.530003066981795
-13.447769949783568
-5.628126203791543
-5.279891712562522
-4.737692048583396
1.0331824656741173
-3.111778863817063
0.008020551789973162
4.36093105929527
6.698962787961796
2.8451059206337126
-4.778633183486091
1.1468547440383483
9.553699340315656
6.907832703229416
6.107042276233594
9.76765387323132
8.010139366336329
5.023992124694561
1.3580163267798384
3.9633062924056435
8.846862801419356
7.845271905033068
11.464119531090356
16.481054786293736
9.810318555210918
14.808051201181286
17.1364051436445
2.8546757174075696
