AAD_Filtered_TADAS_FILE
AAD_BASELINE_CORRECTION: BASELINE REMOVED
AAD_FILTER_TYPE: BUTTERWORTH
AAD_FILTER_ORDER: 1
AAD_LOW_CUT_FREQUENCY_HZ: 0.025
AAD_HIGH_CUT_FREQUENCY_HZ: 40.0
EVENT_NAME: 202302061024
EVENT_ID: 13207
EVENT_DATE_YYYYMMDD: 2023/02/06
EVENT_TIME_HHMMSS: 10:24:47.00000
EVENT_LATITUDE_DEGREE: 38.089
EVENT_LONGITUDE_DEGREE: 37.239
EVENT_DEPTH_KM: 7.0
HYPOCENTER_REFERENCE: AFAD
MAGNITUDE_W: 7.6
MAGNITUDE_W_REFERENCE: AFAD
MAGNITUDE_L: 
MAGNITUDE_L_REFERENCE: 
FOCAL_MECHANISM: 
NETWORK: TK
STATION_CODE: 4409
STATION_NAME: 
STATION_LATITUDE_DEGREE: 38.56063
STATION_LONGITUDE_DEGREE: 37.49076
STATION_ELEVATION_M: 1055.0
LOCATION: Kahramanmaras_Elbistan_Turkiye
SENSOR_DEPTH_M: 
VS30_M/S: None
SITE_CLASSIFICATION_EC8: unknown
MORPHOLOGIC_CLASSIFICATION: 
EPICENTRAL_DISTANCE_KM: 56.86
EARTHQUAKE_BACKAZIMUTH_DEGREE: 
DATE_TIME_FIRST_SAMPLE_YYYYMMDD_HHMMSS: 2023/02/06 10:24:31.8713520
DATE_TIME_FIRST_SAMPLE_PRECISION: millisecond
SAMPLING_INTERVAL_S: 0.01
NDATA: 10501
DURATION_S: 
STREAM: HNN
UNITS: cm/s^2
INSTRUMENT: sensor = ACEBOX/SARA | digitizer = 
INSTRUMENT_ANALOG/DIGITAL: 
INSTRUMENTAL_FREQUENCY_HZ: 
INSTRUMENTAL_DAMPING: 
FULL_SCALE_G: 
N_BIT_DIGITAL_CONVERTER: 
PGA_CM/S^2: 287.038
TIME_PGA_S: 
BASELINE_CORRECTION: BASELINE REMOVED
FILTER_TYPE: BUTTERWORTH
FILTER_ORDER: 
LOW_CUT_FREQUENCY_HZ: 
HIGH_CUT_FREQUENCY_HZ: 
LATE/NORMAL_TRIGGERED: 
DATABASE_VERSION: 
HEADER_FORMAT: DYNA 1.2
DATA_TYPE: Acceleration
PROCESSING: Automatic Paolucci et al., 2011
DATA_TIMESTAMP_YYYYMMDD_HHMMSS: 
DATA_LICENSE: U (unknown license)
DATA_CITATION: Turkish Accelerometric Archive v 1.0 - Disaster And Emergency Management Presidency, Earthquake Department
DATA_CREATOR: AFAD
ORIGINAL_DATA_MEDIATOR_CITATION: : AFAD - Disaster And Emergency Management Presidency
ORIGINAL_DATA_MEDIATOR: AFAD PROCESS SERVICE
ORIGINAL_DATA_CREATOR_CITATION: AFAD PROCESS SERVICE
ORIGINAL_DATA_CREATOR: network: TK
USER1: GuestUser
USER2: 
USER3: 
USER4: 
[...]
-15.975558793444097
-16.365243392277357
-22.43581561056597
-24.128280315358964
-19.65809204650489
-20.613819519565727
-26.354373349122888
-25.35985961175356
-17.425886904381464
-9.636741675290436
-7.832077964070887
-11.603388543203213
-11.085019750576091
-3.887253330744723
0.4203066422333698
0.8129398380371923
2.901379982612015
5.378954899597657
8.387425495542256
14.71659315263097
19.188995368269723
16.840045036564558
10.666790503926102
5.52379983315734
6.326681286513128
9.17514439183004
1.0215267357568933
-12.817695608778061
-13.138095375688655
-2.9912280290894957
2.119322843518076
3.5371500870107306
6.7169927851640745
5.384684356051146
-2.089785971304204
-6.522309271973682
-4.000214152419011
2.465988994493441
8.00201839890539
8.323849085978146
7.964296306644632
12.156365320494011
16.088137029554904
14.746777257232292
9.138270231137389
2.2986488254678976
-4.412919247963611
-7.830006171452021
-2.9654530762223614
3.779912839999044
2.440094057086843
-2.4882534005775883
-3.6088267693073157
-2.2878192633402583
-1.2896398432613767
0.9312399945402979
7.735029805386786
18.224203040986666
26.76533817465402
30.4675154373176
32.436488781128254
34.243516345022755
34.05972624088079
33.530559142584565
34.517453992925404
36.19541244178095
39.81610195711531
44.54336052098942
44.130207808783645
35.54945436976154
24.415673024493117
18.400846603550214
18.553201426011352
19.182813526297412
14.273623294316952
2.9564619708215147
-9.547672089447856
-15.453651401937748
-12.273413129883611
-7.1057710165603085
-7.0647898998466445
-11.414920770998867
-17.284390659181792
-21.661750122322026
-21.32098203088514
-18.17851079409544
-15.313543988077456
-11.929636159834823
-8.348745676054799
-6.417249520073323
-6.960331409285231
-8.996119094285396
-11.07229930254479
-15.591154457090072
-20.362397409899447
-17.498931659320302
-11.147881463360639
-9.417915406851062
-9.0858822036774
-7.5584322917097735
-7.236096301492991
-6.435702752692022
-0.6116307184095513
6.661424851411353
5.206549918008919
-0.9624585391674852
2.318779620108101
11.659577963238519
12.643914860882072
5.246476105549442
0.48617227860575096
3.287429274990853
8.23388713704204
7.233310480278958
1.2007362774072934
-3.5795906548904033
-9.776488586903355
-19.243134995267802
-24.115555344364903
-25.924334980802698
-34.29907854413935
-45.953303694372245
-50.36732711022687
-43.43571097867037
-29.567195565240254
-19.942558120836406
-18.94971469871951
-18.489868011504818
-15.285225763201536
-14.126259169967955
-15.054234712687155
-13.539347257397885
-4.531339554210828
11.67399062150553
24.604215512275957
28.94247822817043
29.275524728302194
24.74399142974274
16.397764307896903
12.310604715587784
11.944319927563672
13.064077474131278
19.578886718619394
27.975215575415245
30.64741440021102
27.074504036998402
19.376568831701846
10.798841724445495
5.792539939966194
1.499593262690585
-6.771087667494551
-13.085927589567916
-12.697909177187302
-10.30458352890348
-10.562787300413126
-16.019877371286764
-20.886101842939265
-15.918663785937873
-9.360857591826578
-11.149916945308307
-13.120386938738815
-10.274741483806592
-8.937328485470308
-11.447009221781043
-14.944091028344241
-13.139966001689725
0.34908601484706514
14.658206253837289
9.839586541080939
-6.754475316562527
-9.041348972759025
6.595650156861665
21.393938743215198
23.448546153190918
20.732100826285393
22.887035322541696
24.92491473822453
24.765201935698475
26.77426869262727
26.35025383460743
20.30117372757488
12.92466125371034
6.062218394028634
-0.4563877054171032
-5.720807644677745
-7.4782370167830186
-6.434173553033268
-4.972844573533771
2.508238854042723
17.687878467427485
26.71839080059961
21.57054568851691
14.862914517809171
20.060247320485708
26.21253891927087
13.561680237987193
-7.992610775758357
-12.134875962081356
1.2486094669331111
9.944877637495754
3.778338471546133
-6.080982520994598
-8.610565921342817
-4.5598204229783335
0.11581807676980758
-0.7369654826342432
-4.90751570789704
-6.949279615891435
-9.238533840429957
-10.152031676383405
-8.065896288234597
-11.742075938574626
-19.869143923411773
-20.760660621318692
-15.014607708564519
-10.018957367426356
-6.073653547053437
-1.2923117693033508
0.9078232945848739
-3.7034052694372392
-10.959254668345995
-13.394701320934114
-13.173159624299263
-15.3081367878597
-16.053632096495356
-12.448656125377116
-7.098228082585062
-2.6188339275965498
-2.636853142167376
-2.7914283696928726
4.148721020142618
7.298023287793367
-0.5026046436895983
-5.956834882162644
-3.5668671106461036
0.1732410050976237
-0.8613443346031664
-9.142702701414747
-14.826282727857027
-10.172281687231752
-2.6915452722269855
2.6024794161039013
4.458952751072903
-0.7135314525934429
-4.970913343098524
3.477829482901327
16.057864006328373
17.278108530155084
8.344065920635904
-3.9126052354676006
-14.862843334082669
-18.248944723127316
-16.469088738685706
-18.044605161267604
-23.208369254706042
-26.811297050692108
-28.93814398972211
-30.980002003622747
-25.73941810261986
-11.961427768774241
-0.6704241801058956
5.096559146908378
5.888359025433256
-0.2695391615907329
-8.760506200601856
-17.401879270737332
-27.750830378041314
-35.42138412269207
-33.282649644782495
-24.855992628556844
-24.075167725467367
-27.437741095220225
-19.99830170271981
-7.490372435246421
-0.302507255605472
4.362042952442832
11.714440060471937
25.404727075819167
40.773674155053826
44.40408842695798
33.34121476672172
21.977035481963885
22.76037504412702
30.138366058984154
32.00864250412487
27.687716640214017
24.429614745579123
24.164785626355997
22.502719393847414
17.509059689596704
13.783429477986868
15.130282063266344
18.03129693621167
19.638145373819583
21.753830649667492
23.257985307833213
22.523655394943514
18.56009573441742
5.892553837509912
-12.762753774509788
-21.57233102387355
-15.956670939923459
-9.356329745377549
-9.854664819327706
-11.575873891437217
-7.283408557150327
2.862574814763093
11.596482429188399
13.467305075949547
12.998413025283144
13.853428207594142
10.931943870462392
5.134915742558776
3.274323985549009
2.133457276208298
-4.540818807167014
-12.44181875801145
-10.687044566919296
4.536430599218881
22.905930177363913
33.24001381572848
35.96463197666107
35.32494840069421
32.34504716465834
28.754044802232734
25.9757362760814
18.1172105397426
2.9709589525682496
-5.804530073172321
-2.8868266328824608
-1.9772451992129956
-5.1212038695829385
-0.07378571687107359
15.9938926991837
35.1060798567538
45.358921029616404
39.485513959713145
26.007180361574846
20.989537492094986
25.885171004075296
28.149696086089566
27.359382799424445
33.24852120630397
39.79613662682422
35.986098540332954
25.76466211470977
15.917470979915187
4.926169670683831
-11.600089829176579
-32.08698337472669
-45.63752104319806
-45.345534738190246
-40.72130231871076
-39.48277838309345
-34.768499074286076
-28.019462902850748
-28.945956578603756
-32.95431879224751
-30.85155654712613
-23.033810500049697
-17.88393680377684
-20.820535542661307
-24.04143924112854
-24.34379229049969
-26.148840130850964
-23.406870928323123
-16.274118103415915
-18.113096669598548
-28.484938962078395
-30.947844288070314
-20.330517319319885
-8.833182812134142
-0.74007191189661
8.499310941220575
15.006259808825698
14.554634128873996
8.0123449742592
1.4284130064583298
3.8560328842435356
12.921372838733452
17.704446050953138
12.772745551177344
6.312341718372829
6.621541583187861
2.4524447290249656
-7.546592765374719
-6.882268522287296
-2.7706211221303367
-11.586265446992043
-27.36148546324749
-35.875016494683905
-27.46435996294619
-6.526991710919867
8.10067660810027
8.38612910781273
5.526181593144187
10.120721566095325
19.091355563682647
21.890217061437326
14.55892643818386
3.7311057479060197
-2.441425462470782
-1.7902012890240249
3.7174601849618147
12.642747091491719
18.864736468411895
13.3584908579549
3.581015485664307
3.126691244550487
4.350212241654894
-4.039571863040731
-12.727717762132183
-9.386575550945144
-0.626556444589919
1.7101698675661758
4.0115803389854685
15.52422388457456
25.69459575083715
21.794520695170977
7.870947765716189
-4.048743606297618
-5.718592262808817
3.3560485906742135
15.236644834941256
19.240163574848374
13.219068309043749
6.699154609583825
9.452228936575473
18.18590779620425
22.033937157736446
19.189684583782228
14.609671394788831
11.443608339507241
9.920397555242678
7.556529289935336
8.845845040051067
16.847909926922878
18.86966068446858
10.948067814714078
4.627614558919761
0.6937680938516977
-6.121655971952482
-9.45930344125899
-2.9149101866278553
6.2691601373212
12.870892476272948
19.444775277179378
19.127230006371285
7.726240277132256
-3.879298638610762
-7.850322166952011
-3.1752187070394675
5.997751214628643
10.234978441128339
9.55823519311912
9.066961473243877
6.202381913225227
0.639095621920567
-6.029146256638743
-15.505337090422712
-21.52219025923729
-17.529296134114755
-10.74153684755537
-8.339836096630377
-9.472283329971457
-12.90731265271506
-17.579544715726293
-22.792528559911787
-26.80963025925284
-27.584018373958344
-31.288701176736797
-40.10899828973694
-42.3348989430128
-38.29834246352847
-40.84223489952824
-46.17106304034986
-42.69623579845522
-32.11664669533297
-24.943975213806247
-28.387098972435215
-34.29791341428553
-27.91695620449849
-17.03461311519362
-16.82438989665109
-17.199483987710607
-11.484482905768
-8.512912127349807
-5.8941366439703025
-2.7452346287133724
-2.404476887087677
-3.0698789855071
-5.14543934851752
-10.686648563577519
-25.818863168674245
-35.74122153456177
-23.31007286166424
-16.19273666827933
-20.30333809397344
-9.301493726263377
6.486497419756094
13.960798411502983
18.533699785998365
18.59645621742504
8.076391758474182
-12.809007132650397
-21.791819143037557
-9.319917111051272
-6.445913891385855
-20.694341212057846
-24.465313685367605
-20.605558796923003
-24.10400245462128
-28.41042919003861
-29.64563452036324
-14.689823543553864
6.485038121187127
-0.7775919611366077
-7.2988460090304255
0.4603366278070732
-6.161385913878469
3.595695511139062
20.69433028033076
5.1837962229140055
2.7501911514111836
26.71735589107455
35.54183685500162
35.888673248984354
30.46489336000473
12.945883226477148
23.676955788377356
54.60522417379068
62.165679243477626
68.41486213573407
58.15461333969154
30.387964540395767
44.445474604219335
48.10895494419228
29.905459676758085
41.09272748939667
23.14645333484886
6.368104090963533
46.30496669331858
63.187252523303876
32.97895456843555
13.561131116876528
39.65729330886373
50.866604307593036
3.133586592038845
-15.876354039096068
2.856386214344728
-3.4223696505214827
-23.352027836519532
-28.62036277158624
-18.01328712652145
-9.399485499505086
35.2732218023017
72.04896143621357
8.539552902623948
-19.848913635293155
13.633160978538799
-1.534337683854963
22.87737603901798
56.15373551734483
11.164516549302759
-21.115337196620747
-32.33062664351395
-25.237705807299072
12.432608486017578
-11.588982801585543
-81.84270865035425
-83.3277285672608
-29.6425003531679
-11.152468870346295
-24.418541532863273
-30.110767866142695
-28.30592063449895
-22.75652874374861
-38.601046335580136
-42.642286547807
-7.014583881340287
10.342807741655998
42.29980768469069
59.19315436393841
-33.614610846063016
-82.72943193112711
3.482820843328419
22.49573789061159
-100.45324858002864
-160.42463269262154
-37.52647459212999
97.05635669774993
62.470869073385046
-24.998061586382203
1.3512147557601815
17.29540229019693
-37.00702068895906
-15.059928415630978
14.658519715656402
1.0694144658967357
37.138880475646516
6.805230658876727
-82.99535034580599
-13.875254237916199
110.07874444894098
70.55412986989387
-2.757131166451133
1.6700535124843854
-24.838829723793495
-5.0646777913987675
92.74987630342622
67.54867390070697
-28.298120281235953
-43.18397581573973
11.937949253467606
56.261425533586014
-45.411969201610674
-127.27848774026191
-15.018660477501893
54.19518028245939
69.71618244087912
61.88720474989825
-137.94580024913526
-253.62222273002533
-124.6313531210071
6.044169670329163
88.69780891373617
7.106787491810603
-163.20852483606419
-80.62175924438857
35.751954958101635
-34.442094366072254
-39.78118507312458
39.12800121675501
66.07156068823485
46.35356389809545
-25.20851722364442
-81.03367329218625
28.179741075679157
139.86744507905448
-33.615217272551725
-184.90379539132545
-43.98704905172831
81.40389856031445
113.76307861696557
64.25404530969412
-69.31085716111777
-48.40279651768306
31.432872810268474
55.48271785291842
51.90372743568192
-71.07946229786117
-97.19017962288879
54.65877605100765
168.64657050564622
95.48024477379131
-190.1902082384381
-201.9877141048292
133.38770806769148
175.9759280467963
6.4317726896347995
-84.87309843927274
-206.56464753042704
-147.44013652843793
162.59488172871218
282.59623716143255
12.755582211377746
-265.6427993977181
-199.26189468151708
25.599824589897548
117.45486523935688
75.68714502268281
12.335820522682315
4.088715592309533
60.19608847458129
93.65888132901553
31.701712791312193
-41.24627911951913
-89.48447646309816
-94.69047544290697
58.674969035181235
151.5858801671421
17.824590882237864
-72.83605290257576
-90.3044788014177
-64.9700492085355
89.71582364017432
143.4361622121519
10.140102467959101
-36.596723726390614
40.474715004947846
1.6092611204778993
-31.03755870212248
140.15923861455687
126.69016529306118
-115.6741797960372
-158.1650936360249
-44.437024057462445
78.1500716532103
73.00107455803925
-87.84393479181274
-108.14332039901417
-29.285711627573946
13.885240714734273
34.297698339607734
-35.156690871074154
-58.53514937280462
-20.568355533493275
-39.960059651080265
-36.92834053132949
-11.829087083528037
-2.5890572737572737
20.295339656963577
82.76700853399946
131.3221198626409
90.35934549825244
35.10485892969787
-29.923012028800507
-72.58317877902098
-15.288287518843237
-16.269356596057605
-29.833370275537813
49.391807229357354
14.48590285265154
-61.18020749829863
13.936279524869974
62.035130385512296
-10.35794228093321
-39.687527193136134
36.60031721086054
92.56410266114057
26.250941763817327
-60.48150638541245
-35.60434848752105
42.27002245149872
83.82364509577683
62.78934988929107
-21.122942846010925
-60.58656123390764
-12.232982180262121
21.813773621809972
6.789759179058877
-52.562747872617045
-109.11755972498392
-77.45830114811234
4.038513048190119
73.32634074689602
57.48820068579013
-85.19983891070075
-130.01281752924663
10.788196472762198
61.958263813672275
10.205138560981366
40.855941492781646
43.53901319390287
-43.053579070769224
-42.46921845163816
54.41867699417962
91.0959049564436
38.49068125759437
-13.682511970823818
6.901488881631129
89.50617260752905
110.71108694927602
11.705489352768002
-31.522405920440804
49.13889378681725
38.74911780126221
-74.25688541889203
-73.87744841986095
9.529705163316553
20.690633163721284
10.990852086929571
52.05828285501779
39.153884696146406
-21.030521359105506
8.053007637303796
32.994367442889654
-17.340547586762817
-33.953348202396256
-35.947730007951
-27.265779189160785
-11.064708383238557
-49.689032410709586
-6.978834413773487
108.18039690588924
75.3354789044341
-43.437357600395124
-113.01840664117248
-136.13415022828323
-82.89362092278215
11.205074266052012
83.2114603090212
104.32421639408265
23.97558815628358
-30.174794008298928
36.297464124104785
39.65811250728842
-11.292124331555968
5.759523630269081
-8.92037940794101
-7.6353352471185465
60.97747922522432
8.156181843655139
-84.4972351425487
-9.296197034103237
72.88668222419054
34.98923976317255
-14.435503192326888
-77.49864090291025
-139.12433522022667
-81.691697954382
47.50174052889769
110.88020248184729
68.55956252454003
-4.378931424051084
-18.34217873554531
21.00852639522797
69.2633288463857
46.21714031244802
-37.80545126026725
-24.81247243744913
29.579489584623328
-5.913476993113597
-13.374277831181313
25.23891887879789
-2.8815059852065827
-18.439100672400073
36.35861921385575
39.15664915109392
-36.70311261057729
-84.15361853466416
-69.32269774279067
-17.98644040682005
37.32922224162281
41.52943758645146
21.11890902190604
34.846549714374696
26.034844872967437
-25.989501875492515
-15.982517613614688
79.71884452185763
114.82493854597445
9.029539565382992
-63.897815738026246
-0.29959532955345486
40.24726013806871
16.57464779453477
19.7966772191521
28.8771619926195
28.284487297208592
32.24151761006433
16.127324978105737
-9.838627398393173
0.32850501786482206
26.593851598027733
23.487353154184436
36.991343355330145
58.77672492645189
31.2157326512845
36.078362324024546
94.1459794163762
104.70759184020122
56.73529781286071
-4.737742517151546
-17.273757306355975
39.24824967620769
56.55174190812718
-3.3672111426694458
-37.64050036376801
-27.182058358717214
-15.692960884631095
1.3826725779270872
-9.15880563281558
-38.50256102569319
-15.758796335939232
17.744387389596028
30.19174600970551
46.247729611686204
28.13385369828194
7.984177040265589
20.79998761938867
2.9671834874777527
-26.50189271967723
-36.86475390727412
-51.26332053139757
-36.852357745971815
0.618464506115511
10.985211737608353
-4.389437921118072
-6.927646967402344
35.17875938148804
55.06177117240113
-3.418842976607762
-39.84074880191254
-7.010253654744031
3.1836844053606956
-28.118841944057543
-12.070395525388758
59.0293755391441
76.99796871586426
33.73227419227639
9.295663088550707
-4.7227578790574825
-3.7327336443180656
22.4227542515289
5.675351484643214
-32.03532250357357
-35.430928027274014
-29.118390822076087
5.397024887351744
46.260745074663554
20.9356695294437
-16.644206037313015
-23.333961908825547
-40.50489115139906
-37.82230561811842
-1.3431303504943697
1.044499718507702
-22.849179757263247
-7.905549275273183
26.853401772620646
20.124075670291198
-13.766380125938309
-17.961375906690115
15.882001649571105
59.963868654455034
67.38912980114956
11.573858254509014
-27.70479424315806
16.87157184015686
53.04635346700369
10.133864782485972
-28.679760945387503
-12.199330427242089
12.83220148667327
13.97439997890697
-16.38716622920734
-40.57329226378453
-10.959879148450604
20.38292373117004
17.909400380355617
21.85626201048285
25.702464505900473
21.193503307675673
12.373373677230171
-13.254481063973499
-16.05036977127419
7.592747961136944
-6.333409722629975
-47.89994693784561
-54.52716769898941
-22.39621668728798
