AAD_Filtered_TADAS_FILE
AAD_BASELINE_CORRECTION: BASELINE REMOVED
AAD_FILTER_TYPE: BUTTERWORTH
AAD_FILTER_ORDER: 1
AAD_LOW_CUT_FREQUENCY_HZ: 0.025
AAD_HIGH_CUT_FREQUENCY_HZ: 40.0
EVENT_NAME: 202302060117
EVENT_ID: 13194
EVENT_DATE_YYYYMMDD: 2023/02/06
EVENT_TIME_HHMMSS: 01:17:32.00000
EVENT_LATITUDE_DEGREE: 37.288
EVENT_LONGITUDE_DEGREE: 37.043
EVENT_DEPTH_KM: 8.6
HYPOCENTER_REFERENCE: AFAD
MAGNITUDE_W: 7.7
MAGNITUDE_W_REFERENCE: AFAD
MAGNITUDE_L: 
MAGNITUDE_L_REFERENCE: 
FOCAL_MECHANISM: 
NETWORK: TK
STATION_CODE: 0137
STATION_NAME: 
STATION_LATITUDE_DEGREE: 37.704858
STATION_LONGITUDE_DEGREE: 35.723258
STATION_ELEVATION_M: 500.0
LOCATION: Kahramanmaras_Pazarck_Turkiye
SENSOR_DEPTH_M: 
VS30_M/S: None
SITE_CLASSIFICATION_EC8: unknown
MORPHOLOGIC_CLASSIFICATION: 
EPICENTRAL_DISTANCE_KM: 125.32
EARTHQUAKE_BACKAZIMUTH_DEGREE: 
DATE_TIME_FIRST_SAMPLE_YYYYMMDD_HHMMSS: 2023/02/06 01:17:33.6420280
DATE_TIME_FIRST_SAMPLE_PRECISION: millisecond
SAMPLING_INTERVAL_S: 0.01
NDATA: 12501
DURATION_S: 
STREAM: HNZ
UNITS: cm/s^2
INSTRUMENT: sensor = ACEBOX/SARA | digitizer = 
INSTRUMENT_ANALOG/DIGITAL: 
INSTRUMENTAL_FREQUENCY_HZ: 
INSTRUMENTAL_DAMPING: 
FULL_SCALE_G: 
N_BIT_DIGITAL_CONVERTER: 
PGA_CM/S^2: 14.132
TIME_PGA_S: 
BASELINE_CORRECTION: BASELINE REMOVED
FILTER_TYPE: BUTTERWORTH
FILTER_ORDER: 
LOW_CUT_FREQUENCY_HZ: 
HIGH_CUT_FREQUENCY_HZ: 
LATE/NORMAL_TRIGGERED: 
DATABASE_VERSION: 
HEADER_FORMAT: DYNA 1.2
DATA_TYPE: Acceleration
PROCESSING: Automatic Paolucci et al., 2011
DATA_TIMESTAMP_YYYYMMDD_HHMMSS: 
DATA_LICENSE: U (unknown license)
DATA_CITATION: Turkish Accelerometric Archive v 1.0 - Disaster And Emergency Management Presidency, Earthquake Department
DATA_CREATOR: AFAD
ORIGINAL_DATA_MEDIATOR_CITATION: : AFAD - Disaster And Emergency Management Presidency
ORIGINAL_DATA_MEDIATOR: AFAD PROCESS SERVICE
ORIGINAL_DATA_CREATOR_CITATION: AFAD PROCESS SERVICE
ORIGINAL_DATA_CREATOR: network: TK
USER1: GuestUser
USER2: 
USER3: 
USER4: 
[...]
1.2642855659473922
1.3675463871906082
2.5892408836547416
4.176200959699769
4.575178543714361
3.754631824288187
2.8016183359255096
2.4030028878532983
2.6381069907475316
3.320133924727434
4.3987665577572805
5.2786202954110495
4.924476220687842
3.405091531692342
1.7583286112230825
0.3805744753928827
-1.0146797714679692
-2.203747077580796
-2.56815187019839
-1.8184428884512045
-0.3060197150959475
0.809484476471765
0.7633311197805402
0.45786879334885255
1.178014484162141
2.7265851040052023
3.969763771062228
5.038177188270372
7.0245791494159215
8.947506614767788
9.098017272531568
8.202651475135392
6.84121713096935
4.7019776197640315
3.2130566960185556
4.291142514570375
8.185456432395075
12.159192085463742
12.812963050113213
10.601491999166866
7.599876808530948
4.848129378396642
2.5717099657657485
-0.3884244715507662
-3.3031597836188262
-3.394376579162679
-0.8873275702202673
1.743439900303567
2.557116001984526
1.376336696142039
0.5588957928803219
1.036928519621179
0.8065375999853723
-0.9356644925638635
-3.5373593781751795
-5.9599700773025965
-6.7360175629211065
-5.76444933182098
-3.6375926249037653
-0.7260219917052064
1.8852226468460995
3.3521531282337595
3.4723650596925424
2.684567528238845
1.996062803302583
1.447210226115015
0.8078315695386332
0.6454061031189903
1.512623166889996
3.531399516208356
5.192381458092079
4.110032924599352
0.8072452034719605
-1.5244810316988642
-1.156520367492124
0.46699529758505937
1.0600298865881599
0.6123899177883737
0.6304900104312176
1.0587141921289522
0.9795118324289561
0.8506422865763573
0.8760689956496475
0.7321517272241469
1.3994740816364806
2.9040204217542174
3.7302411281317314
2.847319957410926
0.5061244553857317
-0.7641649706287318
0.09242620336347614
1.395367185236323
2.6659186433732374
3.099590462312473
2.456586056759058
1.8475285150600742
0.6491743893404964
-0.911484662445389
-2.1198442751930706
-2.8499014719455062
-1.9775903890646127
-0.5324274099220366
0.42665887332439667
2.2663856463067846
4.744613085085263
6.721211216159193
7.734255862562659
7.650081319524559
7.4442693996117635
7.657020624401031
7.939624070396104
7.97829999131104
6.8426724375974075
4.551565334525537
2.2466864027641518
0.24665628336957085
-0.13561681108869542
1.4465915740459796
2.475015850355038
2.969314889639485
3.173813676727974
0.8648485527764028
-2.5994951884150272
-4.566242898908205
-5.0580782647440605
-4.437111265120918
-3.385223088473302
-2.2359578051631974
-1.201361844095237
-1.3552013096877822
-2.5143517251419993
-3.644115109917112
-3.8502776891116466
-2.514941210513887
-0.9301168937491954
-0.7031133338166512
-0.7558728575043021
0.9804801589174172
3.9661231622816153
5.644203586511039
4.40254764563414
1.036534629116366
-1.3909047532590528
-1.3565523477499377
-1.0011870927856237
-2.216621976257788
-4.230882540253046
-4.810624960261097
-3.9055338925861895
-4.4849305551361365
-6.533169046092513
-6.508234197531628
-3.967873657200445
-2.206254693413136
-2.3951945787704485
-2.047258035903384
-0.19630676579301573
1.6255149375485856
2.3352137906964994
1.2910715810460025
-0.5279927361439665
-0.7934274689614175
0.767956510294841
2.79188407380623
4.174959435045413
4.212421650386933
3.151938153690302
1.974792266697613
1.1835347138980228
1.0956911482473137
1.9392557970102466
2.8002288120316288
2.3030260646003873
-0.21063560629119868
-4.411620858162122
-8.792783023786397
-11.163519488654936
-10.163350242906914
-6.869851866304067
-3.701495617584625
-2.0327332589012457
-1.701198838694099
-1.8001652992661776
-1.8550834355106562
-1.5663534208864796
-1.7819505042841564
-4.272894563280178
-7.280178825321493
-8.07583709583813
-6.990250728851299
-4.974548710372663
-3.5009883648595617
-3.1663415934556953
-3.658432933813797
-5.762199532302497
-7.960321856894787
-8.43014093380387
-8.18587766648646
-8.471272360120286
-9.583864430587168
-9.530566376543891
-7.5578926552693035
-5.919131674361756
-4.751408768498882
-3.5652296987900027
-2.5492541366186607
-1.8608990643581529
-2.0354883651660804
-1.5971239092153116
-0.11205846854161802
0.8028135087143894
0.9274802918186321
0.48891148821547853
0.12389984334031746
-0.6384566257465514
-2.771181133056031
-4.842456823239193
-5.786946792349874
-5.362228827390458
-4.243440539968704
-3.7826978084805734
-2.9656581900607
-1.4814049385075607
-1.2971778535588305
-3.237836105917533
-5.422254998074257
-5.102685307780702
-2.865559589716723
-0.9601065788272785
-0.0968841529913942
-0.2852259424427977
-0.6964730057166812
-0.7001265750044716
0.08777549321512741
1.4277755178096039
1.4192368351792115
0.5744578865701642
1.5567743936392662
4.540425541045027
7.0725527106032375
6.660418444105869
3.8990113981521284
1.0030201007334931
-0.7934489669789881
-0.7059434095382267
0.6976170933620942
2.268170877020967
3.0090747139359864
2.397501275277283
1.5950194429702325
0.9916881180551393
1.1698883100279194
2.8967342263662132
3.327947430519208
1.7411436114870829
1.1511831448982877
1.110590481913714
-0.3565857286834594
-2.53291526848345
-3.3077770931518757
-2.090823158277518
-0.6866325143766278
0.35202560810970246
1.6984315605514955
2.143081772959191
0.6670542528735329
-1.1030151071512688
-1.102795919951902
-0.07572651148391132
0.5425770413343234
1.2436696790097694
1.82799216989547
1.9802461356638963
2.1321344626971106
0.9323342380024949
-1.361506039033447
-1.4983262449494987
0.2984056538403918
0.6868360019961893
-0.3549055873975557
-0.2671068213650827
1.7246119212264837
4.144464633821755
5.350325507208628
5.468950369797127
4.884081693834762
3.5471958659734084
2.847904952807672
2.555045051543277
0.7050327792108209
-1.4708151500280933
-1.6257621990126863
-0.02918536778174516
1.4255376723770197
1.9734056123402333
2.5729030351160866
3.314368029659795
3.8309281884972077
4.432421405662209
5.351511348744436
6.763448783543705
7.884023363124349
8.68420512778059
10.807540978286726
13.377529295086228
13.235569972334527
9.538914068615604
4.919885832928621
2.203800335921408
1.3183440194079317
0.7243586242703285
0.3630532326385967
1.4433519519332605
2.6561324762547995
1.2310702878382076
-1.680054491162126
-3.674259238459907
-4.2685184610504265
-3.3388143538150583
-1.4521191827253517
0.7246514401646562
2.056414896791849
2.1835393968201045
2.687015316032237
2.8631812877386253
2.209905317708287
2.097955141255507
1.753133363047514
1.1246021269806366
0.8855473807706316
1.0568602613765545
2.303053690621654
3.215172539473391
3.1367793341799564
3.64763424873634
4.181924787345058
4.012812999992956
3.73202239673707
3.785553304744263
3.952330267358894
3.1658147873538445
1.6872517739060746
0.3754339563022987
-0.6692584887341622
-0.6430515769968356
0.3901688723895766
0.5471519739968659
-1.6554195620700995
-4.957867468257347
-6.213089340169689
-5.1563827730673815
-3.9545821056502466
-3.505702348886131
-3.7126169336233596
-4.034522380556242
-5.1776828572610345
-7.90590109975262
-9.523744623724829
-8.442313774472053
-7.049907039038867
-7.066060923524709
-6.94322812770727
-4.379143045951451
-1.1938640268599863
0.10219044883298337
0.9855279572285959
1.8971338105375366
2.4102390098544126
3.157403798680071
3.8758222034452983
5.178869869035835
6.280806518262586
5.784192769059048
5.094742072521662
3.2479975506589662
-0.5635635387409083
-3.148240997913275
-3.5214146710966103
-3.2622823985412817
-3.8790406923911283
-5.178057399694452
-4.670425342322223
-2.384122375410365
-0.16500082066084
1.2085257651977979
0.48971285254883573
-1.832888842913459
-3.682331413143956
-4.316858819448149
-3.6767536764685675
-2.7834721485557914
-2.2247376709804088
-0.72057106397427
1.7985365515459202
4.340976548102106
6.146033835958815
6.498911916187827
5.802526969807198
4.556501298686064
3.3874990507913103
3.6383618468277503
4.987876699257397
5.98710419578306
5.915508255751209
5.289999376343719
5.736099960114851
7.6269595310994225
9.413822599736028
8.80200895167002
5.390069098718198
2.1364363522102554
0.8346377075065059
1.5223553221006039
4.248543016844547
6.865207733725719
7.485577831478246
6.529322737842045
5.087840971121341
3.7616266604580817
1.7660783151924575
-0.2797271644788981
-1.2913647088165334
-2.538543812241899
-3.8998187999496317
-4.680153761624736
-6.059323033482884
-6.864059667267684
-4.351501392134047
-0.4235916765515289
1.3334459719938
1.9528103647119919
2.911541479875463
3.1690273072587414
1.8240149029634352
-1.1951768469083193
-3.611180329125979
-3.7637790425867137
-2.5161968301817916
-0.14961754923643902
0.9332139375064384
-0.9976265315719579
-2.5820145688146696
-2.0375177692342086
-0.7841952737055984
-0.5397330378005779
-2.3862018201267907
-4.50238665590627
-5.302284635635505
-5.946483158983575
-6.738166835417955
-6.7793317014162255
-5.649164145623525
-3.230439774112583
-0.30990129182936416
1.2613512175217476
0.34187335568889926
-2.255536062836433
-4.3809317237649
-5.0060835652409885
-5.395975032091592
-5.546422618635947
-4.132589552046112
-2.4572330049076614
-2.1945280374741896
-3.570394866271138
-6.097496907269045
-7.896495881030998
-7.939352017528486
-6.077442037210095
-3.192001014322546
-2.213103440396671
-3.0026316212899573
-3.4859702830710844
-3.8350173146296465
-3.657596522855768
-3.0953158730904056
-3.0997033649907118
-2.0279965910463464
1.320408513058837
4.829566425951625
6.186293410064527
5.197414183187768
3.149474988352633
2.3730926558464938
3.797611664417455
5.333760125587962
5.83994992262559
5.2006555760075575
2.8118124406118272
0.25109650845843806
-1.294563316789315
-2.447922706442548
-2.8903950053125933
-2.5514906452138724
-0.9174754622020374
2.5934354866855673
5.900900006315871
7.306163010864767
7.474462066416042
6.879329083302093
4.377639734998829
-0.2300337359989747
-3.452147763141667
-2.6220620949906825
-0.005182906144281093
0.7983618246046319
-1.2015695464538916
-3.522910354768896
-2.8668166862287117
0.526873261297723
3.6369742224598594
4.9421744637546885
5.0329385587024555
4.836771401592107
4.620161205894003
3.648237782672122
1.5704840831776943
-1.287096339480521
-4.404570456006343
-5.925872824598276
-5.3681465150941445
-5.391636102273221
-7.0728833436077325
-9.05600846452395
-10.908427658205369
-12.578686117754648
-12.912922989133277
-11.360832342125839
-9.411883815395125
-8.017301817097337
-6.022631442703026
-3.361076802980698
-1.6108591677372022
-1.0685144829283546
-1.2403872596460324
-1.788418218968451
-1.7511374502356847
-0.786170220824654
0.2106833697447978
0.36207337778005566
-0.6103769044243694
-2.2633565560309328
-3.9458399973137026
-4.929518904159441
-4.484435796355696
-3.20332610331992
-2.2408922780183373
-1.463261970104985
-0.3347957809415789
1.3883289011854172
3.690749346847829
5.646740306104204
7.145240659703838
8.821524057576724
8.92405991810096
6.359700709302732
3.5461850171467337
2.2253167635651194
2.2771844993905175
2.9352729216976368
2.949870118004141
2.8881923012403306
4.623616968161337
7.631604572031609
9.321728470255222
8.675563854359101
6.911180466950895
5.402741154318939
4.632696239841008
3.750673104349557
2.051423450484129
0.6129028023823815
0.4064151403344122
1.0886944010320094
1.6503268601874514
1.7395932479238876
2.032712894818969
1.8968172955644664
-0.13867642487944948
-3.8583925678995707
-6.972913723697761
-7.621832611928187
-6.951058012773258
-4.9221862175159625
-0.9966575438225171
0.8481240838231363
-0.1512792026775102
-0.19218366995628672
0.7019822784949542
1.1074025243675696
0.25811644024050956
-1.5918146970253315
-1.2357525916019205
1.3379808097309531
3.0739320189955337
4.199658749148206
4.639505990741177
3.5969881725804527
3.045377538563487
2.93952736811271
1.776654444547375
0.9311711107159357
1.2425324428239124
2.5653730282978997
4.155090244053858
3.681390529726222
1.8194491421461985
0.6733587499165219
-0.8097150954190001
-2.2584534328688703
-1.7158133297709368
-1.1544665952903992
-2.802644076520607
-4.782552930360303
-5.347596420905605
-4.91567170857861
-4.6868638790841715
-5.793406725819008
-7.349687058807475
-7.991464063223086
-7.228218180606845
-4.1867580703128535
0.07119472621876456
3.1324142768492007
4.425048265906402
3.9055129267670785
2.0280823475412637
0.379911290642281
-0.3840569148167057
-0.5448422725022468
-0.025331747444000914
1.412626363673228
2.995206512726816
3.1311634940240585
2.2218948237841265
2.1817277832191353
2.7424188994800835
2.6719220679100246
2.70725651909971
3.26551480578178
2.7871273910929526
1.2263031640143445
0.28171035393075733
0.18474975404183103
0.39867747461848224
0.2915849899967536
-0.6868003948191009
-1.7392968626434977
-2.248672713614983
-2.8596897230129676
-3.8591400179722837
-3.7734336319907396
-1.6518958779104245
0.6482215457074944
1.9962658082905633
2.5882125766616095
2.0883029924743575
1.5919832071784683
2.0799053352209333
3.048571113839991
4.627858575322059
7.132237917353847
10.19609455689396
12.809639440575094
13.943899579670825
13.499976219139981
11.838568729215297
8.926382996704877
5.255216811229359
3.009462889411786
2.752830049357815
2.10088867819578
0.32293136917834375
-0.9118741598853376
-0.30698850459872923
0.8686706316272574
0.18974053329371002
-1.146027231762508
-0.6322604089306557
1.5505335651838716
4.382387495552318
6.83742810603373
8.221456997167467
8.513714648235513
8.314048810277177
8.252156130977225
7.2513150104236885
4.913267214559558
2.4954386114204605
1.1449553774210552
2.244656767759269
4.422273892786392
5.6474995455032815
7.611611974211906
9.775671736727663
10.214419627608258
10.410421243671172
9.853317276142096
6.984539665726173
3.815593003715957
1.9163729439718338
1.0530004264466837
1.2816465425372192
1.607075603643989
0.4142600625072738
-2.0046414302726205
-4.24839072789442
-5.55202979985529
-6.336597157066977
-7.808088576478098
-9.36674980546459
-8.880800309732479
-6.762711313913083
-5.831631292358211
-7.128766404416616
-9.119639026384114
-10.37050726795948
-9.870291888060265
-7.207265834157791
-3.8404054205218903
-0.9278003696454123
1.7112585465238794
3.8666656029563056
4.507924836079653
2.904794099736467
0.5872504730033544
-0.47130082554061087
-0.5000602545565409
-0.5764807068448748
-1.5821613566958102
-3.1801406676653414
-4.192913993989412
-4.54226932490885
-4.569692704933776
-4.322722440974935
-3.5060846552614096
-2.3698639655102545
-2.0084842229356967
-2.553948186725981
-4.386835132380647
-7.438583116588917
-8.853683408644914
-7.168914831363891
-4.015868233808417
-1.4841806270311866
-0.820204589570109
-0.8794084197376265
-1.0715313530756618
-2.583975743611492
-4.080054805933422
-4.110362393318349
-3.258148298973452
-1.6015180269320914
0.3794124224888236
2.0556480094761804
2.5682011198913615
0.5563410972538952
-2.897886458260236
-5.628064209879283
-6.751251987051089
-6.325251215616651
-5.0556449879590994
-3.254850859099221
-1.713640374939545
-1.4054652317875542
-1.9503422164928497
-3.037605218816155
-4.279749936552451
-4.512254992234911
-2.2042195624415903
3.018408751266593
8.195868175584788
10.88926102995745
11.798247645374007
11.432527885453233
10.546913839059592
9.77048298656216
8.023370157274892
5.703253546144925
4.235871622463721
3.429197276719229
2.6312566521217104
1.6353742088539183
1.219881709654818
1.815360553656827
2.2249024578431795
2.337952010366849
2.636074396286563
2.25831425482802
1.3146869878269807
0.7019726919499811
0.261718797029434
-0.028537825408752174
0.04612595320103197
0.19444232942311654
0.9403265995620845
3.0272755931389588
5.369689490439758
7.005806399756234
8.135068918510784
8.36910445713674
7.830650209130371
6.772839819640616
4.85197687573845
3.2907960328389954
2.6582083924699442
2.03332362267062
2.3526267983023783
3.7841279571789714
4.4946328909242235
4.858021642695508
5.778682577006
6.22419632789766
6.159403724767991
5.553310610182761
3.4423027639364987
2.142515604059381
3.805359137207396
5.829918969030862
6.442952203461048
6.328249643855547
5.944821268215788
5.987107177519957
6.356476650130379
6.597608981190494
6.371524354730916
4.656617204102716
2.001509809303618
0.005581189734655932
-1.128734783046557
-1.9494070890664297
-2.686921601133799
-2.9558653549008524
-2.733090905716934
-2.3346739601591353
-1.1105808242067254
1.2854202925454803
3.5901282968231527
4.51586312231066
4.43927717795139
4.674023850119357
5.477140492476779
5.837130232289785
5.366712195113415
4.656464704625398
4.155567176460269
4.352474007821473
5.099061633809344
5.369484727018387
4.904105508687957
4.080589140458718
3.5555994023044235
3.9866119319094726
5.051294747555936
5.965263735947468
6.035829540147969
4.900226549067448
2.8687065001479217
1.0054038594449972
0.49819190607556235
1.067076063030294
1.5647464938157276
1.9875891777723818
3.2108824774657303
4.588524487295362
3.7090075186327054
0.7778642039963899
-0.9501137830030684
-0.6120938233540923
-0.04206495578091967
0.31657540641567417
1.2826873140532578
1.9557513871103764
0.4892152844088558
-2.670809939781976
-5.648129258122028
-7.5581782492843645
-7.807413047293698
-6.2496354872432685
-4.513025557843481
-3.928844022193453
-3.5433238867201267
-2.478570542305682
-1.5993414716758543
-1.3693852008885004
-0.7856350621546905
0.8328954451087974
2.545806662908128
3.1050289333352064
3.1691475224702788
3.771101810389771
3.9593363783996605
3.1793500998780253
2.3146443424729917
1.6290932265690254
1.4100797435526278
2.1478427896431294
3.3024836202795007
4.6104247655015715
5.645443028903734
4.59589865203812
2.301962285758095
1.9778693007539483
3.088672019917791
3.102991066511777
1.5716011137422028
-0.3898934053104736
-1.2253005807201165
-1.5302807822198297
-2.850223031874146
-4.435982895724769
-5.210222925815233
-5.4143034635922245
-5.662373634787419
-5.721544209833924
-5.686183394063397
-6.365743160180305
-6.452465930563771
-5.071713134931587
-3.4758869013267333
-2.3795897359172353
-2.665529626862795
-4.229648743352871
-6.01332437668467
-7.425418344472858
-7.005026124459488
-4.727371825700114
-1.7825108503438367
0.8689748324572051
1.3050954442620748
0.38629509607635315
1.1120250229205233
3.3807531111512636
5.1350613685341555
5.498508112639238
5.654043903061725
6.522806158965119
7.332767416888394
7.3422381677271735
5.811377972752277
2.6213672965811474
-0.6218215172450019
-2.3024201266081574
-2.4748250809244885
-2.627642552603022
-3.995382482962065
-6.271495993789087
-7.73904477517253
-7.347021491577217
-5.75792713785945
-3.3254416549915193
-1.0195405325258715
