AAD_Filtered_TADAS_FILE
AAD_BASELINE_CORRECTION: BASELINE REMOVED
AAD_FILTER_TYPE: BUTTERWORTH
AAD_FILTER_ORDER: 1
AAD_LOW_CUT_FREQUENCY_HZ: 0.025
AAD_HIGH_CUT_FREQUENCY_HZ: 40.0
EVENT_NAME: 202302061024
EVENT_ID: 13207
EVENT_DATE_YYYYMMDD: 2023/02/06
EVENT_TIME_HHMMSS: 10:24:47.00000
EVENT_LATITUDE_DEGREE: 38.089
EVENT_LONGITUDE_DEGREE: 37.239
EVENT_DEPTH_KM: 7.0
HYPOCENTER_REFERENCE: AFAD
MAGNITUDE_W: 7.6
MAGNITUDE_W_REFERENCE: AFAD
MAGNITUDE_L: 
MAGNITUDE_L_REFERENCE: 
FOCAL_MECHANISM: 
NETWORK: TK
STATION_CODE: 4410
STATION_NAME: 
STATION_LATITUDE_DEGREE: 38.86677
STATION_LONGITUDE_DEGREE: 37.679
STATION_ELEVATION_M: 1243.0
LOCATION: Kahramanmaras_Elbistan_Turkiye
SENSOR_DEPTH_M: 
VS30_M/S: None
SITE_CLASSIFICATION_EC8: unknown
MORPHOLOGIC_CLASSIFICATION: 
EPICENTRAL_DISTANCE_KM: 94.59
EARTHQUAKE_BACKAZIMUTH_DEGREE: 
DATE_TIME_FIRST_SAMPLE_YYYYMMDD_HHMMSS: 2023/02/06 10:24:40.8433690
DATE_TIME_FIRST_SAMPLE_PRECISION: millisecond
SAMPLING_INTERVAL_S: 0.01
NDATA: 11251
DURATION_S: 
STREAM: HNZ
UNITS: cm/s^2
INSTRUMENT: sensor = ACEBOX/SARA | digitizer = 
INSTRUMENT_ANALOG/DIGITAL: 
INSTRUMENTAL_FREQUENCY_HZ: 
INSTRUMENTAL_DAMPING: 
FULL_SCALE_G: 
N_BIT_DIGITAL_CONVERTER: 
PGA_CM/S^2: 54.080
TIME_PGA_S: 
BASELINE_CORRECTION: BASELINE REMOVED
FILTER_TYPE: BUTTERWORTH
FILTER_ORDER: 
LOW_CUT_FREQUENCY_HZ: 
HIGH_CUT_FREQUENCY_HZ: 
LATE/NORMAL_TRIGGERED: 
DATABASE_VERSION: 
HEADER_FORMAT: DYNA 1.2
DATA_TYPE: Acceleration
PROCESSING: Automatic Paolucci et al., 2011
DATA_TIMESTAMP_YYYYMMDD_HHMMSS: 
DATA_LICENSE: U (unknown license)
DATA_CITATION: Turkish Accelerometric Archive v 1.0 - Disaster And Emergency Management Presidency, Earthquake Department
DATA_CREATOR: AFAD
ORIGINAL_DATA_MEDIATOR_CITATION: : AFAD - Disaster And Emergency Management Presidency
ORIGINAL_DATA_MEDIATOR: AFAD PROCESS SERVICE
ORIGINAL_DATA_CREATOR_CITATION: AFAD PROCESS SERVICE
ORIGINAL_DATA_CREATOR: network: TK
USER1: GuestUser
USER2: 
USER3: 
USER4: 
[...]
-8.41500738890416
-5.144962271575581
-1.5028644955870645
-0.13683699842775493
-1.387561671279172
-1.832941005094322
-0.9339342540067275
-3.702206962540073
-8.700248314898563
-11.442427077251411
-11.67793333949235
-8.289786263442608
-2.839491317493792
0.6101656108907364
1.5622294757865718
0.304791055706377
-2.5610024097273465
-5.19144429843728
-6.693156087924008
-7.251379449745138
-6.637128114701011
-4.657497682539999
-3.553778959405603
-4.6450241595620705
-5.655788461953446
-5.573648924384887
-5.075819882003677
-3.928233325162965
-2.5754083608193223
-2.628243226391036
-3.4962765898624353
-2.3909125005145064
-0.620130132775416
-1.373509807044726
-1.6244508949473961
2.079423286189274
6.8982507712329975
9.50816794401001
9.417146174014189
8.47984885996985
10.986063996395115
16.989412197024762
19.960576178701295
16.38033468146976
9.48809003449959
5.284874119568882
7.873975504616734
13.588258322120021
15.072528009542726
12.290696674040767
10.791205970806852
11.712275932669304
11.759788698635964
10.276351261023807
8.500497732004703
6.515519403365422
4.339161329079223
0.0697792866221833
-7.240840736358947
-12.427830289118384
-11.671134627547108
-8.366461418694824
-6.889460213312308
-8.161745252748913
-11.033779625800182
-13.12356698190401
-11.30160005963328
-5.606370601108284
-1.4182014656798279
-2.600700815786839
-6.078424362308621
-8.444889334721942
-10.503063171928616
-11.958199462991749
-10.392433544782522
-4.883319966444193
2.3011401994254777
5.231108842159886
0.1488892562147569
-9.185131586933071
-15.193169056561874
-12.160401817568285
-2.6240243395410316
2.8407159896907186
-1.739889059856159
-11.849856710213597
-19.28604000041157
-18.749021172646962
-11.405564816322228
-3.6391844451551485
-1.1850441519677897
-4.124766115888297
-7.208027466510489
-7.300397309009709
-5.528919705545937
-2.5398921230010854
-1.0733077034491583
-4.670208030476447
-10.697833748555297
-14.92821102047921
-16.49646294160678
-16.05098841518129
-15.108581529500961
-14.850872273726226
-15.136655266071825
-14.375801340255023
-11.815772320652009
-9.666589189244146
-8.431426428741439
-6.231792204201802
-4.301412241510057
-5.080496383111989
-7.713879098920754
-9.94700555010801
-10.525342174333758
-9.146631268230786
-6.464575659732372
-3.017983483989399
0.3044522823376765
1.469362717740354
-0.12852074865326168
-3.2601413620654274
-4.735522038075258
-1.0128170761962898
5.215235423098916
7.547192251603893
4.373808028103423
-0.3370210186248935
-0.71628071416687
5.882986421176242
14.91864837896642
17.61795927192287
11.536858960263446
3.9840121215984197
1.9383855714425793
6.990693072239041
15.399472505404969
20.068268086132342
19.071848895538295
14.758086642230863
9.316655059414405
7.368114681289557
10.904385187888732
16.088374044696124
19.14752261835293
17.516819842231488
10.576917943171631
2.4497950944908076
-1.4203605973527003
0.28853851304853456
4.416454842945038
6.541027535713045
3.766990304167829
-3.506929547485438
-10.275039854755839
-10.009888667200636
-2.188264372721413
6.813278583089665
10.37797780011009
5.747630175244191
-3.8127013224419946
-10.340533830569058
-8.565512796897986
0.2202844614259417
9.404380415320496
11.284753581477283
5.944434337768067
2.4921475255476877
6.296809090819853
12.010179902209954
13.013172578053451
8.930007248075336
3.0839242455184093
0.18253138555836373
1.6037734942280744
1.7668799326812044
-2.6661244722636384
-6.884939871484492
-6.9275261430429715
-5.135165519853135
-4.803584263746098
-5.689307764738017
-5.29400278726
-2.66782997880567
-0.9432338984784872
-2.8413564440177748
-4.461644893136893
-1.8518244693097778
1.8180760621891259
1.460708414754624
-6.297115936468956
-18.24733295062223
-21.844679201875877
-13.322162623182487
-5.946625792021972
-8.432444105360135
-15.371515776874043
-18.510278323166755
-13.568686229261143
-4.062929035767843
1.3070502644201647
0.1272539203237072
-2.965058873517758
-4.456896335374171
-5.170045607351138
-8.159988163968155
-12.897892076290521
-15.73631203136256
-15.588399100280544
-12.571129411833846
-8.131815532847249
-5.45163629486808
-4.220336947163693
-4.432313616275947
-8.768510185667703
-13.381308524937761
-11.614152515824046
-4.9577921530668
1.1702915163427656
2.4848466437683765
-3.4393623324321063
-10.380667270588129
-7.954596575846199
2.231091523362049
9.89297699816587
10.166856603104613
4.992433102204416
0.8080275497267083
3.265385806173666
10.359549202751944
16.191479150107575
16.608635147782497
11.294413109909177
5.039079157017053
2.5256289633053486
2.5180783604742145
2.078432154431266
1.965723893440327
1.9406086276718888
-0.5484561790597011
-4.0869808980017135
-5.76189376565175
-4.420176150706532
0.12482379648291873
4.186365063195701
3.765650196589955
-0.37537384072033547
-4.144646236180338
-2.2746204204394593
4.587856121232789
8.360543102490904
4.52451585206922
-4.400649960085071
-13.604840349249944
-17.655084817458185
-13.93945142937474
-6.624908608695634
-3.153938349523628
-7.095449261655911
-14.688785606880446
-18.75097359519637
-17.112487797892197
-12.247986129115294
-6.112451946876784
-2.9315573177897476
-5.918769836364889
-11.389390713989739
-16.098718072726665
-18.58557245721745
-15.892200410614429
-10.471755025370094
-8.894774977698065
-13.016520979858786
-18.344635877937602
-17.544119563084433
-8.837871458348529
0.5070775373206267
2.9104434409486415
-1.0144572037617292
-4.210544350730914
-1.7296632277682886
5.582341087552161
11.94560315085184
10.808064973934517
5.467269078714686
4.589241487285456
6.808959902082793
7.198570775541591
6.229671119860972
4.58688740818503
4.753833768353507
9.853518189282072
15.854276929630556
16.978874827599032
14.229592427577197
12.395586676611309
12.474797394992587
11.596927684991998
9.28603160299192
5.845206944644681
-0.15551177865706375
-6.843849118849091
-9.518235491583752
-5.541608690883747
3.473523773599232
11.53269593718547
12.07149782240906
3.992734916965697
-5.003653232294011
-5.434727057252275
2.2719624712079938
9.320914017691718
8.920312414426647
1.4323702186312908
-6.063026035864595
-5.915903026724373
0.45463112523976823
4.890764519839106
4.680835911138653
2.429153889051649
1.5313071214733873
5.632328622371476
11.745001073880216
13.852637845547582
14.42980029541279
17.77907448330759
21.322666960561175
20.289556389353315
13.72552290873723
6.855353126688183
6.519882679311232
11.808627930879423
14.879844272809933
11.982372180004118
8.192258266071898
10.097250452884403
15.919088545350188
18.388867834458576
15.337662434153646
9.321575488258963
3.9902079601895255
1.4848010797222368
-1.793119781357194
-8.151663446077414
-13.77533922218408
-15.670108594181247
-12.94175159943075
-6.21415091452173
0.5310453878351894
1.6435078482271621
-5.371736736878156
-14.806000831839945
-17.839679680854687
-12.873055115163957
-5.172821132521541
-0.591005094164739
-1.782374860247021
-6.498473031880549
-9.4955861102061
-7.871525925364434
-3.7028156345489855
-0.9676478466357051
-0.6813581490347378
-0.6999544072489219
0.20981640205782692
2.776638528494819
8.072233201007949
14.212126049282697
17.730061898301212
15.411085567181757
6.155428280414645
-3.11697764187046
-3.2028352248944767
4.500942482953652
9.293273253262294
4.050018939659605
-6.829505847562619
-14.34615145855466
-13.837589654611833
-5.98042919697288
3.0039180720013543
7.99063219558917
9.645842982746329
7.306813630062758
2.992676881356655
3.997958568711576
8.670818064786495
10.376628984840998
9.992439253442392
7.830540507155246
2.63152842303025
0.031702855741370495
4.00720608277186
9.844920248849709
11.845594827027128
6.276298257455151
-5.647670376277425
-13.285460900512552
-9.46387212109729
1.0316495430097616
11.840362882186612
17.76280735668615
15.44886955967371
8.789546348827
4.101856417835041
5.5984944295149415
13.21413251837422
18.1651850318501
12.213732260191803
1.9638570936730002
0.4445693829758388
7.481164220218111
13.064569620668546
12.847886696820954
7.763156870842907
0.4135379830049475
-4.777229143341155
-6.647547294803644
-7.508671464291626
-8.209088571092455
-8.938959557685045
-11.017744542802959
-13.49139194584503
-12.44413084438449
-8.42111762254166
-6.830333707642761
-8.433606090367354
-10.562143012729669
-12.89571023891109
-14.465237773915383
-15.741361344430562
-19.395324183999072
-21.599512948655363
-17.24154685821867
-10.308783043058904
-6.520308267520257
-6.768670661285628
-10.211793969785742
-15.456968229279527
-21.46304804692273
-27.254165211820553
-30.57010229475353
-30.35422311188435
-27.395594789646715
-22.58342303286849
-17.01504946847154
-11.043291111977966
-4.771307885575314
-0.3657820092900476
-0.005070579213256773
-2.557528016194205
-4.603671140544824
-3.917966424381935
-1.5550660387104134
-0.8421216343520194
-3.1015800009391286
-5.83452346148324
-6.392744642193437
-2.703823889755347
4.813696149790249
9.428255055590745
6.593326201004554
0.02771766062964448
-4.594634170707008
-3.9630656988116866
-1.1383645708866157
-2.3127298406493386
-7.04239070165671
-11.568700395281583
-13.875093944632523
-12.58115307159747
-8.599496315267846
-4.441529814991358
-2.477185197712766
-3.657538171988808
-6.5550822403401
-10.381458908606255
-14.174339387018087
-15.801977988211759
-16.13861167085497
-17.339235427358307
-19.837999301850026
-23.14300019733622
-24.325960759464415
-20.89563044080789
-16.106142978516626
-14.476743303947684
-14.222138489412576
-9.666787402127007
-0.1202277823973812
9.141588331291425
13.917102848328955
12.548756659358466
4.368296959470136
-6.111474652383357
-9.917527558723657
-3.972915073602216
5.544404737497791
11.861100650820182
13.951647829460967
13.00905365029511
8.842764089258807
3.8023828107241986
2.1532043487222743
3.563415331004514
4.504995056684195
2.3070469101423967
-2.9935057425254428
-7.981509312491799
-9.239845591286745
-4.6282447113429335
4.865423048076575
14.270522518118014
19.952079542992728
19.354557178681905
13.349441081207331
9.28427716379853
9.027179751304326
8.280363595217908
8.20423745360846
10.3278352530606
10.08081844540821
4.7551409987692725
-1.612362601114023
-5.757565090166226
-7.3055162096910005
-5.466746339076624
-5.858955906590852
-13.287038702992247
-18.495191182051798
-14.979639797726978
-8.797772737024772
-5.496878806362512
-6.161187311301858
-8.105844592088634
-7.81702218358561
-4.856500760141641
-1.0873087442482277
-0.8865919980297405
-4.988912172966318
-9.1896332545481
-12.436283888314048
-13.829479593174856
-9.016035623210671
4.360575879974052
19.52942842491974
23.195373376653798
14.136938389043785
5.124110130620919
4.516388356329005
11.911943984471257
19.50098333281275
17.757630481116408
10.998766934122381
9.275159532570276
8.797924869262388
2.0283508253492397
-7.350526111754459
-10.936860424050877
-6.22647735280965
-0.7741947833867248
-4.012894162810315
-13.136060033428757
-17.654848680927262
-14.31885987944893
-6.8265786308703325
1.9434353445768802
7.463478333322517
4.512906484910807
-1.015533273692353
-1.1278241771738462
1.309796350261792
7.04736677216722
16.00160342233897
16.143591114367617
7.09220543147163
0.27935488120108615
-1.9537575262149578
1.1333469748165967
9.741550600781258
14.971647327103787
12.037160644190354
8.783491405140635
10.711070405774795
14.171569371474575
16.287773002908693
12.698334489184854
-3.1108379852706536
-23.415932024717577
-30.15773638856385
-16.58969243445067
9.395252431380301
31.61337273975729
32.86201995621595
14.37930013583585
-1.7986399545878533
-3.2303548336035943
4.477034220894622
13.381204091228023
16.27623243083552
13.260486937617017
10.025842935741679
7.439221338159566
9.212934001836373
18.30218951300372
26.78757852011538
24.704798948637468
10.317116476299566
-3.9570726736733546
-1.9232247845041652
13.331172917390068
22.783133692785395
19.299193304769478
11.071844319598272
2.9923367978161224
0.2330526529685647
5.565559707368737
9.745235071182986
11.60654357506227
15.347092056145739
17.273654766615792
18.499450606196135
17.40071859885154
9.873670882547533
4.833592780648244
7.759402046606113
9.882675867429896
2.5426613475248834
-10.423779954234611
-13.485145544637907
-1.2126328311423498
10.892535453425909
10.272564667636846
0.8015126772712765
-6.285949831976719
-1.1906307103672569
8.082582454033933
4.4263608849240565
-6.244310231045839
-8.471488178016605
-0.9788263333300428
10.530245975301831
17.414825397605004
14.068403960330407
3.5668518475311863
-5.363154923417172
-4.745781552913936
2.3375753871685045
9.601254551280618
13.508255320338971
8.351482575774302
-1.924624055075839
-9.480600394619074
-13.745187579206693
-10.392199447138816
-2.4390915390129253
-4.416630446377357
-17.474325664250344
-28.203576469826082
-23.130374513602494
-3.6441502380107442
9.804098689693847
4.858810036759082
-14.265788711539445
-39.374407412566086
-53.55507358820758
-47.28223640661549
-32.38890815472444
-18.779991093632017
-10.657194122110566
-10.938618159314009
-13.657421620173892
-14.074677695374278
-9.23761435608151
1.8300768098046505
7.916296957365424
4.176788825246192
-2.1186481339052414
-7.922563126026237
-9.937583953790353
-5.98173193508507
0.3887096351897119
5.909925735369607
6.322180334803777
1.4185599457539184
-1.544632464593193
0.7899798339712051
5.7780863797931525
10.932126930094212
11.37494924993079
3.1378516016563567
-3.9322961855195038
1.770082173175668
11.78511190914897
13.213298583220524
7.7946932364916455
1.8105881843600797
1.314751768377989
9.672869947310215
15.297823963464166
7.289504624291174
-5.071643646498451
-11.354221526443801
-10.127570248184645
-3.14855103856154
0.7200498674130089
-1.9309161072075824
-3.2175992776498425
-1.3256392528013832
0.9832328041653546
4.479564194866242
8.055018393224694
9.982657378127676
11.285673230963285
11.248767456098175
9.513561722694616
10.65892803059151
16.007985471036136
20.55197702338221
21.87916138263193
21.383742238824734
21.54690152231892
24.692887070041667
29.383486946681497
29.645456570831286
20.867147145769994
9.78573493564947
6.427125597924352
5.998598461935805
1.5030331931720344
-3.754394466365309
-8.863924069851956
-12.04455169165063
-7.9739636706504005
-1.6282267119525091
0.6047297395290229
0.051632786377948006
-5.497041740267466
-14.041205736177771
-14.569204614067187
-8.11046601773665
-2.6577414262967225
1.00856503380935
-1.0603731491750479
-8.481621737991473
-12.116468376420153
-9.819598185800663
-2.6861674647267813
6.900007093540513
14.703513614070218
19.1112825471016
16.020684495368663
8.796878190425092
5.916155154505908
5.185683155812872
6.141966117541202
9.630041754208925
10.341212877801013
8.148907421751643
5.366257431921548
3.2129510994879236
3.6037996739526728
3.927999310135713
1.733775427434306
0.2630953686098472
1.4353552673520498
1.990524212516992
1.9886293962749833
5.744216183568774
10.621697939849629
12.581041134704666
14.957412713003334
17.88741422849521
17.75060089228994
14.443750807012147
10.038094398436371
11.093673264786204
18.67493070647646
22.764842035847526
20.754452965050813
14.813796508430425
5.328894843180513
0.3207414137996557
3.58153545613708
8.558638748437861
10.83724628483225
9.44612318517648
5.752145911186342
2.574595997049323
1.7120204028729502
5.950918374850005
15.609572699509451
22.848935813761646
20.799865802626364
11.958661211023625
0.8555769989397729
-6.1989729152664665
-4.2189934668099704
-0.7853768039808151
-1.9245968483832658
-2.89131408347192
-4.991663810435892
-12.849645350616573
-20.46053840969471
-20.809023920149873
-15.709524396998214
-8.256361097703401
-2.6110148695750115
-4.44142768251955
-8.090179464052168
-3.3507459597412943
6.735653541659554
13.378043860052102
13.391129224529926
5.789080087808663
-6.431945834481837
-10.467488945234194
-0.8881809126777046
8.724013351116168
11.395229885002024
10.143299395704663
2.5678144756524564
-4.9994987225175
-4.977918939073406
-2.8822867766381557
-0.33365755233909533
1.1483286616949628
-1.3533369537009887
-0.9252872019271962
4.6229100616087635
11.207532022405564
15.337722625136887
12.603375616179772
7.146129519806435
6.978289569446097
14.445159523545982
23.95924246267208
22.15429893715138
6.724600814222889
-8.925051681385176
-12.858526712216165
-5.018200745517009
1.7545244192887215
-2.297801658319418
-13.951841052320876
-23.246188237551
-21.873520959004278
-14.177691612994309
-5.818242415882615
4.6159046283071525
9.694755297840201
3.731189416624839
-4.745715218595442
-8.844523713562642
-7.298187717642509
-2.4159064728391404
-2.03796419562721
-7.944055902253184
-12.26234053919059
-11.32283635903004
-8.751384058044684
-9.087819345690356
-12.242414929884776
-12.077960225026114
-10.564724914334374
-16.746320261914352
-26.012025506675858
-29.38930792808182
-29.246784032554643
-28.86727636605372
-27.12734767357666
-25.606528188874513
-27.689969092809466
-30.044316942943013
-29.934959912188887
-33.81298814780961
-40.978151183570304
-43.05352116874827
-39.324603505986104
-30.452418567181304
-18.897858208556983
-12.454257429025194
-10.94426677697124
-8.875087263147021
-5.149027673635917
-0.9602537626468245
0.34268202552511023
0.5668231123707226
7.007324048834473
17.001024751891034
24.278498109432736
28.746797898805383
27.882554288862
21.75867454286595
16.235915852458977
12.43654083882666
9.469388916697552
6.292907456003149
-0.12034040307715396
-6.630365444378341
-7.5421892040230905
-2.7410295911461375
6.503988472079666
14.648394744767407
14.415035813871828
9.614402364007294
6.266926109301915
5.1310846679681115
8.309275364775885
11.810481174487595
8.68186742014665
2.652674069628835
1.4113713067611178
9.559714777910683
23.357673713193023
28.392388580490028
19.611339102779326
9.424137771395833
7.745254779902313
11.210687599773696
11.690854057488481
7.775123025142058
5.6618718519262385
9.939131868363635
17.97924344064888
22.309184048469838
17.803489994894893
8.482016683705323
3.6243450925177965
6.592341899151308
12.987774963854314
16.067939626580998
11.077810057307317
1.959554614184176
-2.203907116421206
-0.4566797782003486
2.921851371433377
5.268464396142934
2.390698841382461
-6.919906588911362
-17.70673651078031
-26.121179707658982
-30.15629571341535
-27.72439022183761
-21.492220198305123
-17.40525476932017
-15.754279192902024
-13.184263174548205
-9.311371577106684
-4.717969137952421
-3.6416986658600257
-11.441434948362616
