AAD_Filtered_TADAS_FILE
AAD_BASELINE_CORRECTION: BASELINE REMOVED
AAD_FILTER_TYPE: BUTTERWORTH
AAD_FILTER_ORDER: 1
AAD_LOW_CUT_FREQUENCY_HZ: 0.025
AAD_HIGH_CUT_FREQUENCY_HZ: 40.0
EVENT_NAME: 202302061024
EVENT_ID: 13207
EVENT_DATE_YYYYMMDD: 2023/02/06
EVENT_TIME_HHMMSS: 10:24:47.00000
EVENT_LATITUDE_DEGREE: 38.089
EVENT_LONGITUDE_DEGREE: 37.239
EVENT_DEPTH_KM: 7.0
HYPOCENTER_REFERENCE: AFAD
MAGNITUDE_W: 7.6
MAGNITUDE_W_REFERENCE: AFAD
MAGNITUDE_L: 
MAGNITUDE_L_REFERENCE: 
FOCAL_MECHANISM: 
NETWORK: TK
STATION_CODE: 3143
STATION_NAME: 
STATION_LATITUDE_DEGREE: 36.848907
STATION_LONGITUDE_DEGREE: 36.557138
STATION_ELEVATION_M: 430.0
LOCATION: Kahramanmaras_Elbistan_Turkiye
SENSOR_DEPTH_M: 
VS30_M/S: 444
SITE_CLASSIFICATION_EC8: B
MORPHOLOGIC_CLASSIFICATION: 
EPICENTRAL_DISTANCE_KM: 150.45
EARTHQUAKE_BACKAZIMUTH_DEGREE: 
DATE_TIME_FIRST_SAMPLE_YYYYMMDD_HHMMSS: 2023/02/06 10:24:52.9529440
DATE_TIME_FIRST_SAMPLE_PRECISION: millisecond
SAMPLING_INTERVAL_S: 0.01
NDATA: 13501
DURATION_S: 
STREAM: HNE
UNITS: cm/s^2
INSTRUMENT: sensor = ACEBOX/SARA | digitizer = 
INSTRUMENT_ANALOG/DIGITAL: 
INSTRUMENTAL_FREQUENCY_HZ: 
INSTRUMENTAL_DAMPING: 
FULL_SCALE_G: 
N_BIT_DIGITAL_CONVERTER: 
PGA_CM/S^2: 39.843
TIME_PGA_S: 
BASELINE_CORRECTION: BASELINE REMOVED
FILTER_TYPE: BUTTERWORTH
FILTER_ORDER: 
LOW_CUT_FREQUENCY_HZ: 
HIGH_CUT_FREQUENCY_HZ: 
LATE/NORMAL_TRIGGERED: 
DATABASE_VERSION: 
HEADER_FORMAT: DYNA 1.2
DATA_TYPE: Acceleration
PROCESSING: Automatic Paolucci et al., 2011
DATA_TIMESTAMP_YYYYMMDD_HHMMSS: 
DATA_LICENSE: U (unknown license)
DATA_CITATION: Turkish Accelerometric Archive v 1.0 - Disaster And Emergency Management Presidency, Earthquake Department
DATA_CREATOR: AFAD
ORIGINAL_DATA_MEDIATOR_CITATION: : AFAD - Disaster And Emergency Management Presidency
ORIGINAL_DATA_MEDIATOR: AFAD PROCESS SERVICE
ORIGINAL_DATA_CREATOR_CITATION: AFAD PROCESS SERVICE
ORIGINAL_DATA_CREATOR: network: TK
USER1: GuestUser
USER2: 
USER3: 
USER4: 
[...]
2.581519439918316
4.117701542921051
5.34237094259259
5.976610557065283
5.868984845844369
5.122069660811094
4.4745403269646795
4.301928231478603
4.090128601899626
3.5665229602513264
3.085101025139215
2.894266274761925
2.9289044732082035
3.005217985976739
2.9358334255252143
2.801040525165733
2.6724957180452855
2.214838323357026
1.3971232173304555
0.6815660049902317
0.26350767161186234
0.10956426580538012
0.048630708347835234
-0.27900822830860056
-0.9811146011292541
-1.9764302054805862
-3.051469105582603
-3.657542774840333
-3.642918787356264
-3.6789292927464725
-4.308784611964017
-5.2423133013780685
-5.792420516304189
-5.612683881433864
-4.868128620407734
-3.8833555442896075
-2.908098482862303
-2.1622089953760866
-1.8165520228155396
-1.9691561599745515
-2.567931062609077
-3.111740044373336
-2.994463662847016
-2.2081279837964662
-1.1801915974824502
-0.5087436811395658
-0.436872839174987
-0.2247962908097764
0.6792325734141301
1.8808336924768907
3.022957275142675
3.8374602510768336
4.233993143404284
4.807046149039988
5.829473566190279
6.659221355286502
6.678570098140024
5.955101699886508
5.0316243492544555
4.325967097150877
3.94714076206376
3.895011530410222
4.009280504186651
4.022964256589159
3.7620556967520633
3.3059954948909875
3.0588877120030693
3.1882354759280807
3.2951270006096074
3.276163862356872
3.486836408227339
3.7318891858626224
3.486270384250748
2.9007054272400974
2.4924008896004226
2.3206311086876616
2.0774768170910627
1.5659466086643148
0.7933902750211349
0.02420443890530429
-0.43397497095204524
-0.7834729274065181
-1.246839785997007
-1.5115355201321712
-1.3788107921317885
-0.8593324596220924
0.03536021994561568
1.0293271231566714
1.8620010854735571
2.3421481684038774
2.2989265708204027
2.0696323802633168
2.067941558547822
2.0617850517192466
1.6658967460650345
1.1425467613783604
1.0823882009312273
1.2377383693593846
0.9695829770128728
0.6671966926945899
0.7864140076548388
0.9928520906277091
1.3584777573239435
1.8643037338574624
1.714458481235374
0.8986962717845848
0.1813875677419028
-0.16158717650346413
-0.16154680424190296
-0.016932024065671424
-0.04229024164110871
-0.2885219807338173
-0.7040007430302774
-1.1673318409146882
-1.3077346082931076
-0.8350446479254453
0.04899705016934205
0.9079765354116341
1.7318154080337447
2.7140599637715996
3.499148920950316
3.6153569740949774
3.0969532763089833
2.139805107306555
1.0079144208432842
-0.07581147484152413
-1.089586357567402
-1.8469704530311286
-2.2850250301009867
-2.4343978888372217
-2.0220167946247076
-1.2122396451780004
-0.49537456865237023
-0.06731146480520124
-0.05805615984221435
-0.13580791325201433
0.3380416333484396
1.3026534884318028
2.3303622141333844
3.384035028991336
4.358875233371173
4.826585083604761
4.819773846785744
4.706888435532685
4.608359910386462
4.630967652349203
4.672508632447782
4.50223030411624
4.239745059609613
3.9956758963140064
3.752166118441615
3.4398211114492527
3.0604126312885067
3.0163248506230405
3.3708862435289904
3.5640258294097893
3.4478381596467296
3.1866206815666036
2.725380803210949
2.1451104955211573
1.6357407705188003
1.4634351604701108
1.9808730860460992
3.0023076412940766
4.023367169939194
4.849628075910835
5.368278082136919
5.57692992930364
5.557417693440736
5.257203183638533
4.781613887763066
4.1376366419776005
3.156529214215584
2.2188707816110385
1.8616207837497294
1.8757645089095103
1.7999372590670957
1.7049717889250162
1.7874921570359967
1.9541410823911656
2.1412735682398067
2.4284678124152257
3.101433854895433
4.347785882806771
5.639415046915312
6.209625691786361
5.869137373531228
5.024441766486933
4.100277101488366
3.271266447497853
2.639189302358236
2.055887179567712
1.4638003018492864
0.968931333003102
0.5226105543162952
0.5122166788510448
1.0716028019316182
1.9252009280063844
3.408899280995181
5.2063186635882035
6.318131864330521
6.190792418513175
4.578287769664355
2.5368247098571786
1.3408419972727537
0.5719549858341366
-0.1754706773529926
-0.8500376332469451
-1.6383546093769898
-2.1380600262538976
-1.9811530638442534
-1.3096004511404578
-0.3590926046425748
0.26513857248510736
0.5388839056345571
1.1529818354375092
1.9864998296662602
2.644914573567647
3.288005358853556
3.8922202155332193
4.12927985257128
3.9460358933731765
3.4533959604840443
2.347044500530151
0.5803938705461827
-1.1499508193043562
-2.5065204778094934
-3.315472244484054
-3.225292012906555
-2.547541889815611
-1.5910792991245033
-0.31006774649427643
1.1816530452571474
3.125933125046612
5.412113591739206
6.992613980833818
7.3776227356714115
6.758045474556531
5.29276654024683
3.631475539283104
2.594550525034272
2.305407480691613
2.607106308710283
3.5658892638054382
4.905270164757771
5.882868193940529
6.313645314177324
6.592253655003284
6.785346443992724
6.644442318506009
5.863059910693571
4.524508890791271
3.384121414520949
2.753880537782539
2.315034955380303
2.0558787564210688
1.9059343262525605
1.6724157107684228
1.4489745044136626
1.1770284447604742
0.7910800973361725
0.588696880139057
0.8723876713904991
1.5689873308550149
2.554249979534764
3.9920735424861795
5.545686260960429
6.600983745956202
7.163716771618093
7.190511587921523
6.6651938337163585
5.760769947600548
4.222982373936957
2.0969278434232472
-0.041119996452574456
-1.5857075795837956
-2.2127023001987
-2.274451874721207
-1.8461698588644162
-0.6514674732683107
0.8632635067090617
2.3582010359927197
3.7669032972078464
4.638412026609719
4.757878766002977
4.09544322004627
2.879407466682735
1.7670263084601117
0.7690996258463921
-0.3268130454043595
-1.171380069962547
-1.6531095294224163
-1.8590087900350354
-1.7606512737704025
-1.407953420375166
-0.8812357396908137
-0.39576775901736444
0.02964199090151849
0.5367843743831899
0.859201372977517
0.9316251058780828
1.0629389533481248
1.1144398698467841
0.7941098986725479
0.12048396237285555
-0.9208461732335383
-2.198063323014514
-3.3041541046600025
-4.217960507481252
-5.1076452951474405
-5.632929754055213
-5.394421293286791
-4.4538426839970295
-3.1602602037223804
-1.8104872319274588
-0.4658604871376625
0.8704371006499428
2.3308921065919592
3.9767457141263445
5.2556652776569734
5.848237961335748
6.133137864974611
6.330468236016457
6.624061584532817
6.742095059152312
5.653513984170561
3.537224650027089
1.5510957880835063
0.10958367973132743
-0.5920102757297722
-0.7931885937969567
-1.044161384501469
-1.2224848061807354
-1.3712007040327756
-1.497764808758695
-1.3390324317704676
-1.2386449997176816
-1.3146210314959383
-1.4749596518139643
-1.9413576330628535
-2.617278191338669
-3.5405598227731705
-4.718707899762988
-5.642776057620425
-6.227604427080372
-6.514130022125952
-6.06148014769266
-5.0107839340696145
-4.087010387448665
-3.3490011253153154
-2.443854798805415
-1.4514427253052213
-0.5648364942864997
0.2729568735292115
1.0328943175627026
1.576685145400103
2.0963166019712696
2.7365138054109828
3.292367528044203
3.8476485035957326
4.280225300666228
4.26030470195071
4.508281088510215
5.5011633652667875
6.690590348010934
8.201359449904556
10.138536720071903
11.859745277735062
13.302797748638264
14.350435991323991
14.207067914021392
12.725497431773697
10.438193060935744
7.868430976209506
5.631623668890859
4.054509882394784
3.0125719002122944
2.352544352234147
1.8386265353430211
1.3487917775761844
1.0085217625971872
0.6675932388576622
-0.15361612776560188
-1.7279906014205288
-3.657508453394708
-5.38051206046277
-6.891791033967737
-8.193084888381923
-9.15650974249032
-10.056517070844876
-10.98734656134551
-11.411994381666602
-11.011341637919662
-10.085767473633624
-8.995518227965242
-8.218553455500391
-8.160376514265156
-8.616244411164706
-9.439351501049433
-10.454836587016347
-11.079289715699591
-11.138244587194933
-10.548944584793464
-9.135637324807707
-7.455029876524418
-5.989108344537218
-4.477090257931625
-2.981869118146717
-1.6692826307477464
-0.004528460657842056
1.9961761133124543
3.648476843467029
4.683831226609503
4.680896109083573
3.80490845912918
3.291564692725134
3.3846973898918407
3.556978304660727
3.8473119862588803
4.3141083109744685
4.889331419811538
5.646824822979307
6.717190125542272
8.037855263550123
9.189484248495578
9.935513988324823
10.273412535273776
9.980416996908488
9.21204080801855
8.352001242280485
7.10574548281194
5.584831028328649
4.431683785687765
3.358941289031885
1.9930336911609083
0.3916643458415853
-1.641129691681274
-3.94912194042543
-6.214328698871002
-8.43966959032726
-10.2641856334105
-11.209151311122332
-11.315186437613551
-10.607533275440808
-9.075459567439358
-7.213797333504655
-5.262987029318805
-3.209067416143031
-1.4789097148798471
-0.12341799171251648
0.8416831221596605
0.993092609952242
0.5957920565726389
0.08063576214221264
-0.5848042951455478
-1.401491613914351
-2.0774309334046692
-2.108614858743087
-1.6107419523250361
-0.7734655593915538
0.7505005349372215
2.5598431421415215
4.1323056343437425
5.461052029085188
6.155298010266942
6.334686543057186
6.542873222462482
6.490623700916186
5.703846875215594
3.9199698729947126
1.0493365983846747
-2.350068502704748
-5.530534064187157
-8.192122136573389
-10.260048689911446
-11.657891860297232
-12.395242309652215
-12.453093527485333
-11.515071962249841
-9.304089015806868
-6.227708677433907
-3.1031745734604628
-0.34841245926521996
2.1126112497583343
4.320752478695022
6.0355784941407915
7.107191879866312
7.483729775629611
6.980894085103199
5.782665385644025
4.369196022619313
3.1417175025271975
2.4595274329590646
2.0633165379622556
1.8213433447358207
2.4985678598535266
3.9390462341152124
5.330960832984297
6.773546666432051
8.00954120036067
8.584792432343464
8.842917788877937
8.48754386149902
6.8905102225637975
4.3004892688299865
1.0326546397722536
-2.4689150648579514
-5.478464067001285
-7.86734754490983
-9.642500413784296
-10.407188863315332
-9.858918793631823
-7.907924674407695
-4.76806410606817
-1.0066883132491964
2.932647571981129
6.610614615264753
9.186470750133477
10.123823723280958
9.75682176626455
8.39758571312603
5.9872611062257075
3.0046003494317537
0.03896755291697852
-2.9582738039637664
-5.616501453700792
-7.289820546880416
-8.218031733274143
-8.71159032804452
-8.945530486589707
-9.591860539051623
-10.912376581964665
-12.704277322470313
-14.786895703006481
-16.547092555938036
-17.863447899962303
-19.24491594725127
-20.214028643034478
-20.1282583087304
-19.40185253481569
-18.55239136365042
-17.790446986773567
-17.322094350021313
-17.050481836011087
-16.435930695634553
-15.34298974313903
-14.107957085634666
-12.544102575254744
-10.740815262404814
-9.107648671080458
-7.122737110744676
-4.8514434417374
-3.0281357117063
-1.5533980978991058
-0.6561283721755296
-0.2804532044390556
0.3359517151337725
0.7388920641799493
0.57032344202546
0.23940293851745018
-0.3605104220897011
-1.168200315383491
-2.2703825889042184
-3.7767389702008574
-4.987049195519016
-5.520625043263492
-5.034984250227326
-2.957061957502145
0.15942018410750133
3.1840569744114866
5.704204158106797
7.942893521818718
10.065823320573744
11.943859846006356
13.378027895068007
14.31044358806694
15.009447439863424
15.511420931563302
15.516351839847056
15.077292887405736
14.220163312957027
13.097656195499814
12.229152710258028
11.575295832901226
11.04590333629555
10.866767541576207
11.044972170679833
11.78627117413015
12.902342470438521
13.766283739396123
14.416929398155442
14.76343887435448
14.219647287501198
12.516331353319034
10.034036906706962
7.489798806584767
5.013599585504768
2.984097334954093
2.346161325529367
3.033578998155412
4.639719425490217
6.854791327363083
8.997777513769382
10.841518271246164
12.1751187571399
12.700736417628033
12.483929954871389
11.340579874999765
9.443401616165653
7.04810724224487
3.634880098019616
-0.6695391737961356
-5.165325048915823
-9.709909701331432
-14.027395042599043
-17.75656680442292
-20.7846623506688
-22.87107610242959
-23.81627185584968
-23.37508512888115
-21.685000427581084
-19.626744273919474
-17.676125503613054
-16.16369452735161
-15.899917177912261
-17.041923855435012
-19.11798636214773
-21.617546183533086
-24.066697139054906
-26.342932128427663
-28.00443406005879
-28.613927983591267
-28.641573255127696
-27.86923128760256
-25.489910062895994
-21.654870750409685
-16.33314187389519
-9.624940116982879
-2.563234806436174
4.2134378634173455
9.921785604195357
13.873561228066732
16.392596389179623
17.31584327216802
16.481175195332543
14.717974825391876
13.268907635770953
12.872201769066585
12.610681310199267
12.0925204768576
12.71479685096066
14.611331314234691
15.859067248453648
15.751443986864324
16.346375095309337
17.020312087901253
13.73918345274973
6.679757135202177
-1.049513513403555
-8.188634591155756
-15.301812492221606
-23.336258017336277
-30.244437037472274
-34.531060808161996
-37.68541787517263
-39.465295474268984
-39.967675800868314
-39.12775051386163
-34.911534598032375
-28.628903362081576
-22.914187131446656
-18.17203339769055
-14.19771016113801
-11.338278803827492
-11.34770624423336
-13.31401182536788
-13.823601217561459
-12.290390657513894
-8.92221714940681
-5.198501747251884
-2.812253269752986
1.6322759638070787
8.154284361863214
11.428604693168753
13.048888097494027
16.367213116747973
19.01148771017351
20.67973265459711
22.625051556868634
23.803943774380134
24.676758714834275
25.481489008042562
24.06223794917399
20.989298392408376
19.47668769291115
18.693397954343666
15.92821902774198
13.076883279859448
12.677597481832604
13.234683716771276
12.836253958644205
12.209777338232463
12.135801864270043
12.344106531370782
13.234547917398709
13.273049536667365
11.65376892974863
11.951788268778847
13.343679380354107
12.457859757854024
11.88121770052496
11.947561353144978
9.21157510572643
5.635650303341993
3.999570316313186
1.9256187499325286
-0.8724813840142237
-2.058804333418399
-3.9399314919943325
-7.022164180361226
-7.781549975082058
-7.992551369573695
-7.928905706030457
-3.5689225249557914
1.691280520712759
4.134058153839436
7.753575147050142
13.160169041723222
16.355008559530116
18.527429425202943
21.592722964921116
22.106641752896287
20.120436486154386
17.09703805117435
11.44425932872812
8.089874363762288
8.42342806704154
6.675295772511157
5.025132759906168
3.706793046256418
-0.41406620454370713
-4.3141156653179475
-8.06133307004054
-12.734959307308607
-17.33833969540138
-23.230931204614755
-29.56404166137725
-33.33599935387908
-34.457834223523776
-36.07682370883612
-36.99899527306539
-34.84905404582969
-34.78847481970534
-35.263039062121365
-30.917436601552662
-27.739692377262227
-26.65762519292268
-23.308128138185335
-21.411317335958724
-21.224412613812973
-19.706727129692847
-18.768871963991355
-19.141712308596155
-19.68971263946529
-19.23474890113324
-18.228423239339367
-19.737232259992453
-22.09615466644734
-21.59171169990045
-18.512618324150118
-14.528873931431674
-13.033075030070151
-13.636233709247326
-13.117486016841921
-12.629468408662483
-10.633683576371663
-7.050581854376857
-6.211346877494662
-5.416668758277935
-2.4959983436393194
-0.769556298394961
0.6251168190824422
4.555642813344452
8.91599679532522
9.087233012292257
6.328315301928545
5.366520851039451
5.348261470286629
2.862276110336924
-0.585198515573234
-0.5265598777524401
0.9732605952456842
-0.3049235071108862
-0.5308098878475499
1.2159930768643257
1.5243049885149993
3.779844742722505
7.671764446354401
8.704727893176097
9.019543447056646
7.93853237831077
5.84560231269896
9.48219323950282
14.003624516807507
12.386381687048475
11.695679240176817
15.59850001486243
18.349781220629758
19.11907011681933
21.527533412973007
22.56625985091099
19.361753291133777
17.620471701217458
18.669482115726918
18.31520499257988
13.26174847364108
0.9827247360200743
-11.273068299382018
-15.429695970719523
-14.677923479204456
-13.068524210194454
-13.41688287400707
-16.234550586744795
-17.635150022841504
-17.102582404080955
-16.192973809230804
-16.19798549750884
-18.889520117641567
-22.76179214283286
-25.471946247031145
-27.309863162067174
-29.31347630698685
-31.409007980955266
-32.38487852862268
-32.12874472794569
-31.464587015395228
-29.807877549722292
-26.739789667981842
-24.961900352381033
-26.375217344983355
-27.035603346437494
-24.472631229912
-21.506496567339546
-19.20086233366126
-18.455054924371154
-19.58642892062633
-19.349091100567964
-17.038138872330787
-12.660561088166114
-6.5811499342017425
-2.478639711694362
0.14004995351091964
2.570889351079548
2.9783439220917165
3.655157860429771
6.9274541285838565
11.005881723600195
13.101036885678885
10.799553847379519
4.988561898538586
-1.037989633599551
-4.919889744667942
-7.146510989208683
-9.676706780729189
-11.208002915781773
-10.867386194011152
-10.776068731122356
-11.393187528928516
-12.972230464011338
-15.380951487825847
-16.773575178904473
-17.37448464804217
-18.219637306274855
-18.880562624709547
-17.96537601223779
-14.444574996460894
-10.37838042077427
-7.315316141195848
-3.5892614437534993
0.5291668718525013
3.642624255214953
6.53763085225804
8.311085663129404
6.173794133014645
0.6946298432443495
-4.785811692882732
-8.443658344484444
-10.245242868827384
-10.736890042718478
-11.491982926818162
-13.83685836148612
-16.383818383875962
-17.201532129552593
-16.84984614998329
-16.5967341242259
-17.053967560552834
-17.45942569884008
-15.592994916058831
-11.73555483728851
-8.195610028903
-4.9357030467802705
-1.054221770476312
2.5123707192359634
4.642117665191975
6.28389352047514
7.920929362534256
7.756532382880299
6.648699521726315
7.1434135622894726
7.7363547818084895
7.7875208111254794
9.092621206957574
8.99884552532301
6.524447112413635
5.3854040418659155
4.291414955383657
2.5741814048636984
2.86012295840077
2.692592570002917
1.9191294914716395
2.5186515056899856
2.564201460908176
2.4342696567695272
1.7204196874677748
0.13638527153354765
0.17855570913935653
-0.46298859603348513
-2.2930541497148136
-3.032246539782763
-5.150792464446768
-8.201470892065231
-10.247677331091086
-13.002642392561414
-15.388883713949172
-15.69040549730959
-14.988298626067161
-13.767143206630642
-12.793263317472581
-12.478918803626275
-11.037423148625841
-8.375929720490257
-5.3867740956048795
-1.431785349930383
2.19672124834072
4.222900235001011
5.108910012399281
4.211719702979722
2.889069147076618
2.779977105983409
1.9855828466461805
0.2394348721147648
