AAD_Filtered_TADAS_FILE
AAD_BASELINE_CORRECTION: BASELINE REMOVED
AAD_FILTER_TYPE: BUTTERWORTH
AAD_FILTER_ORDER: 1
AAD_LOW_CUT_FREQUENCY_HZ: 0.025
AAD_HIGH_CUT_FREQUENCY_HZ: 40.0
EVENT_NAME: 202302060117
EVENT_ID: 13194
EVENT_DATE_YYYYMMDD: 2023/02/06
EVENT_TIME_HHMMSS: 01:17:32.00000
EVENT_LATITUDE_DEGREE: 37.288
EVENT_LONGITUDE_DEGREE: 37.043
EVENT_DEPTH_KM: 8.6
HYPOCENTER_REFERENCE: AFAD
MAGNITUDE_W: 7.7
MAGNITUDE_W_REFERENCE: AFAD
MAGNITUDE_L: 
MAGNITUDE_L_REFERENCE: 
FOCAL_MECHANISM: 
NETWORK: TK
STATION_CODE: 2101
STATION_NAME: 
STATION_LATITUDE_DEGREE: 37.93088
STATION_LONGITUDE_DEGREE: 40.20278
STATION_ELEVATION_M: 692.0
LOCATION: Kahramanmaras_Pazarck_Turkiye
SENSOR_DEPTH_M: 
VS30_M/S: 519
SITE_CLASSIFICATION_EC8: B
MORPHOLOGIC_CLASSIFICATION: 
EPICENTRAL_DISTANCE_KM: 287.35
EARTHQUAKE_BACKAZIMUTH_DEGREE: 
DATE_TIME_FIRST_SAMPLE_YYYYMMDD_HHMMSS: 2023/02/06 01:17:59.0282390
DATE_TIME_FIRST_SAMPLE_PRECISION: millisecond
SAMPLING_INTERVAL_S: 0.01
NDATA: 18251
DURATION_S: 
STREAM: HNZ
UNITS: cm/s^2
INSTRUMENT: sensor = CMG-5T/GURALP | digitizer = 
INSTRUMENT_ANALOG/DIGITAL: 
INSTRUMENTAL_FREQUENCY_HZ: 
INSTRUMENTAL_DAMPING: 
FULL_SCALE_G: 
N_BIT_DIGITAL_CONVERTER: 
PGA_CM/S^2: 33.527
TIME_PGA_S: 
BASELINE_CORRECTION: BASELINE REMOVED
FILTER_TYPE: BUTTERWORTH
FILTER_ORDER: 
LOW_CUT_FREQUENCY_HZ: 
HIGH_CUT_FREQUENCY_HZ: 
LATE/NORMAL_TRIGGERED: 
DATABASE_VERSION: 
HEADER_FORMAT: DYNA 1.2
DATA_TYPE: Acceleration
PROCESSING: Automatic Paolucci et al., 2011
DATA_TIMESTAMP_YYYYMMDD_HHMMSS: 
DATA_LICENSE: U (unknown license)
DATA_CITATION: Turkish Accelerometric Archive v 1.0 - Disaster And Emergency Management Presidency, Earthquake Department
DATA_CREATOR: AFAD
ORIGINAL_DATA_MEDIATOR_CITATION: : AFAD - Disaster And Emergency Management Presidency
ORIGINAL_DATA_MEDIATOR: AFAD PROCESS SERVICE
ORIGINAL_DATA_CREATOR_CITATION: AFAD PROCESS SERVICE
ORIGINAL_DATA_CREATOR: network: TK
USER1: GuestUser
USER2: 
USER3: 
USER4: 
[...]
-6.394098299791393
-7.175266713058497
-6.822616627455186
-4.9260826769583135
-2.5201244790783632
-1.4291570539298948
-1.7260651219181327
-2.440171045770959
-2.6134125317413157
-1.646612804525918
-0.22489975256181183
0.9587854663529579
1.750762999787824
2.041963140242116
2.381451494607865
3.053395441146833
3.7793231334927193
4.667545502301931
6.052166811768253
7.682487214239442
8.870729224801547
9.490453237680903
10.019150727427796
10.8156321425549
12.118118250672728
14.005211113558811
15.657836105657776
16.351855363335208
16.369640216669683
15.915639547916935
14.791743056275868
13.551939949960586
12.682545588669853
11.983713947136172
11.025869306179487
9.701543466485505
8.499427560806815
7.544171704306082
6.456637438991483
4.761703849176014
2.974462850691913
1.313754095581217
-0.729161946412121
-3.1231021473907594
-5.375513467084583
-7.134373468523832
-8.529632469797127
-9.794643382606358
-11.093982273173168
-12.62112348463311
-14.547751657606323
-16.481823675440697
-18.226011410947788
-19.67068848518999
-20.510705542918217
-20.63063944985537
-20.27288368423017
-19.928569135795144
-19.997188366170207
-20.6490105083569
-21.556732078805787
-21.873404636395325
-20.974742895780707
-19.567827009592882
-18.61228412237345
-18.040835536810658
-17.469252554800306
-16.852647111506812
-16.343336549073058
-15.783987062486183
-14.785536927995718
-13.307071481703957
-11.52551003835643
-9.79425094012641
-8.501225378905247
-8.089818737098339
-8.70639523633495
-9.702052745452926
-10.206367360252672
-10.165046874720005
-10.43826640353459
-11.523860661551794
-13.125978610464346
-14.798592102215148
-16.39442490208179
-17.73547621898696
-18.376382205722024
-17.898371367367513
-16.49478132912512
-14.821613564024558
-13.271967206962108
-12.184501007045291
-11.610067681123509
-10.937236510463505
-9.674812149090604
-7.9052635873777115
-6.131452447098984
-4.597660706362686
-2.9392841184705714
-1.1448781470022453
-0.1755536749620257
-0.3349014199734254
-0.6113630237077761
-0.08022559513693893
1.172124439308428
1.8116176212329762
1.4001290524249554
1.1259778948334007
1.3153321282278607
1.0732691867866362
-0.03933987766738053
-1.3838527215957417
-1.9271589912091391
-1.7273410129458868
-1.539554382007885
-1.458416324108689
-1.2578340353821875
-0.8653900453632336
-0.4164699394468274
-0.022926358822099997
0.597369751901216
1.5553823621572536
2.2995728215970273
2.4223057139365864
2.0854337802841028
1.7086810939123134
1.3725329158196085
0.9478119753047051
0.6449690514939922
0.8680638623170476
1.2705610341364868
0.7709262080638146
-1.2066557683542218
-3.9957189968919624
-6.246073606030258
-7.255107940071898
-7.018616021768039
-5.674863262241429
-3.8172923127961953
-2.171866473849524
-0.8987563905554378
0.06541675948594597
1.138913630826501
2.826776574900063
5.108155295606951
7.293674579417036
8.738883171104687
9.469472932702502
9.337106342403107
8.068557753457853
6.351904836446406
5.508897939743048
6.223591272297911
7.762439096862082
8.513600549009867
7.808114569481991
5.96735056646717
3.3907557838734013
0.4399696050066621
-2.2196948321152634
-3.4670862025030087
-3.254376608529248
-2.8245053860183282
-3.0326234961314475
-3.918642550246555
-5.201893206549667
-6.804260662690637
-8.480356655219854
-9.13679613704275
-8.148618989353434
-6.86833646317602
-6.781332016514493
-7.421345094319927
-7.376385321978243
-5.981776398148805
-3.4844172668537885
-0.46894209846077606
2.8763732707748515
6.125169871920779
7.925789558113603
7.838236398165798
6.483626796002181
4.763311038324161
3.3434733631445788
2.2116340449715937
1.24312534066284
0.663042934926421
0.4882237939937394
-0.2789990890271898
-1.8189649204266212
-2.9594683357922094
-3.278143932277274
-3.3571278408698246
-3.7289049327791544
-4.2954515307398
-4.672982869230727
-4.846691278428382
-4.856816968730682
-4.724516122924472
-4.490077839794619
-4.327566548319717
-4.669143038959891
-5.706635131913398
-6.718098408206066
-6.733774838011165
-5.648239161267248
-3.9328761580021045
-2.3541928582436062
-1.2130581558691693
-0.15780329439976093
1.635773983765886
4.497964012909974
7.693820133124203
10.617634883368288
12.912678561934506
14.2523788102171
14.728297757511434
14.559897358608781
13.740417765972055
12.776256985126905
12.622548060615545
13.394014670340216
14.323492575300644
14.598854054050921
14.019486041176629
12.951041644137597
11.783608986155599
10.900086364830392
10.390862502617445
10.181596465969575
9.970048391902257
9.58907382149834
9.473359193898112
9.815435812236117
9.535750098044945
7.996153039126192
7.0156083679223435
8.261598438895406
10.69793297458657
12.241170754011147
12.456740149893717
12.439865367339332
12.781045224602277
13.153548506127619
13.400709618406912
13.627140789721926
14.548879712076891
16.487817936497134
18.547525336251258
19.823406641226146
20.382555422419774
21.415288460911185
23.346435466865866
25.30001162421275
26.68684500407173
27.357661070731705
27.145047460279166
26.810161532423663
27.40364466777584
28.76151510899025
30.00043149916691
30.71444434439742
31.179957802546735
31.49633385640261
30.921934177213945
28.179635842628855
23.590868539567825
18.979945229932202
15.438127942789329
12.513148933004453
9.210802579132356
5.5949225795885456
2.3124575153969245
-0.4009818841265823
-2.672721858189568
-5.351373155854384
-8.921949865454108
-12.455602298074355
-14.636634978445388
-15.139237832145719
-15.35060093238059
-16.22662605018843
-17.169675619257927
-17.498685111153154
-17.074730586432203
-16.244176761438645
-15.636106401826934
-15.004486901515124
-14.033261811378491
-13.120454087833643
-13.05971662554392
-13.673861502451658
-13.494062463611368
-11.852104821674496
-9.464248430044702
-7.816341509654015
-7.5467450073358435
-7.268328903063604
-6.279898330069142
-5.808906463658237
-5.394848861186963
-5.5125303130775105
-6.50880266003356
-7.0800885815123555
-7.371358925317227
-7.739882564695907
-8.336490798562552
-8.922330271116428
-9.653488189694007
-10.2099621064405
-9.573867245725504
-8.251916820877165
-6.926908578778655
-5.412285073464748
-2.7218602036088306
0.9253739629550124
3.5271590126820893
5.593297628001261
8.00276370268886
10.167470547361178
12.351041784260135
15.118417238490654
17.824525849582052
19.409415552110435
20.119509915000496
21.03866550535772
22.199086708888537
22.769613842356332
22.661530112227354
22.106864557553127
21.685830223718863
21.63148289414696
21.26804328160295
19.980194895692158
18.230904943980175
17.012835798919685
16.37347320556505
15.346073048251318
13.508495229354219
11.54178495441412
9.750616894459531
7.731772150658161
5.516435474391439
3.6640901304530464
2.489353587008002
1.3704394279774013
-0.5486108394713214
-3.0301396286551556
-5.109793842602846
-5.43914097808716
-3.9037986783722256
-1.5080514053067458
1.118871896338331
3.5665573503647034
5.664996735594533
6.5446107640322335
5.820649165621469
4.665549731898143
4.169400920701757
4.522254842179615
4.962898471435517
4.9469567164341
4.1935829636131965
1.9933255959929659
-1.0189905421549015
-3.5647604764722343
-5.211904336245384
-6.133939404040517
-7.066137845124686
-8.27531596397691
-9.695273843018839
-11.24401151634427
-12.914581920413776
-14.497909391615023
-15.318540223709292
-15.5184590311819
-16.25820094812961
-18.292745687050303
-20.73082950088419
-22.358399848317028
-23.090507614288917
-23.341192218279073
-23.108622729258354
-21.949381431776132
-20.314852940428665
-19.329213563741387
-19.398378835659717
-19.937125850104227
-19.680351779838606
-18.421640593360998
-17.098662100143496
-15.975007366549386
-14.795306383804677
-13.12937248898644
-10.936935182997235
-8.696590753243022
-6.265542106764299
-3.2789472276218574
-0.1340833830469501
2.529479460787351
4.8788864251998705
7.319926293777848
9.500052175512614
10.376427960949039
9.361621429415768
7.50054422171386
5.936324294105916
4.730058008507104
3.509071429762212
2.525003093398836
2.7213527352678644
3.8316298592315405
4.8000995761974306
4.756881258700616
3.583710075698847
2.456192553565454
1.9939071168290818
1.9091083495144932
2.0600293673939016
2.4238929105366216
3.1572734166567833
4.193416260489968
4.806315115258128
4.452911162254456
3.4832242157998237
2.153414436896953
0.5170057984510055
-1.1889887629058182
-3.220004644738172
-5.311725957439504
-6.629235894556417
-7.222181610845067
-7.781245183932778
-8.480856799039653
-8.730089095777895
-8.410615823828905
-7.788221547597529
-7.296703914705592
-7.857795540488408
-9.432016749107527
-10.735632363787886
-10.455776388994254
-8.974744868517435
-7.639349482176014
-6.41457337906683
-4.338349009546115
-1.3019462259481436
1.4636168011519806
2.7527878284412433
2.452755412243206
1.4838903009117947
0.7138476142303757
0.5269797828368606
0.6823716368789419
0.9320622542037511
1.7095046050881533
3.1314069982931287
4.888553185658204
6.843085377476762
8.535262036072936
9.425573605582228
9.652368325554455
9.580508403318827
9.460696846428894
9.004420583749818
8.57151627754614
8.934855053622334
9.632692039971852
10.50663369058128
11.399847569667116
11.283522851008962
10.517838273980116
10.209782695879847
10.219968875051709
9.882038866132836
8.766023010810438
7.257823554756653
5.6336841331155245
3.5718841500796965
1.1138465965148556
-1.675247479030242
-4.400750222909457
-6.837442451012869
-9.542716333930631
-12.89598287977965
-16.589019700447885
-20.24743553252096
-23.46550026124222
-25.95770054762345
-27.982798234046495
-29.095147143113437
-28.975201607321967
-27.752838179384064
-26.088313837654198
-24.838370550444825
-23.821313920461552
-22.384447461367472
-20.015196748901268
-17.417188203184562
-15.570099877769001
-14.589584360619467
-14.08539271370689
-13.419787815258726
-12.508464418640083
-12.136576372786177
-12.114464366540473
-11.879460413632318
-10.999254422728779
-8.881959280852039
-6.358038445178043
-4.2895357288113924
-2.5199267479098526
-0.43948165214378615
1.6026036625911215
2.1209807616847494
0.6111199644909718
-2.043804219269468
-4.097807372631166
-3.993312366534298
-2.2289445971297237
-0.40102451306508297
0.541436840960669
0.7281712504924112
0.8371709272876943
1.6318835479548264
3.047557302160309
4.370632626360436
5.7362398759756354
7.582189447687612
9.289918492426596
9.887122932548492
9.455725019920624
8.983507943747934
9.231265317527878
10.193809698317713
11.033229962288633
10.601530888089368
9.97841073415293
8.944637844287834
8.163852891774447
7.098447138325942
4.019661484545252
2.736972766382223
3.2889428318452474
4.218924211354161
6.687155746505829
10.15115074771225
14.141302412557376
18.732618225227924
22.978901807855543
25.773061542034263
27.535564535232222
28.78109328706412
29.25672093345588
29.034601985320442
28.522822109600693
28.21974752653992
27.93116079014633
26.44964445671069
23.448448533547214
19.79022521158934
16.02835350228582
12.834263458280176
10.943352889827246
9.442541614086727
7.363025254387706
4.415915917741827
0.4203249394229491
-4.101788748662957
-8.323152991439894
-11.147657362843976
-11.57821881889258
-9.749367770512592
-6.482872697702349
-2.9452710822933237
-0.14396410174746704
1.5114054897174676
2.4375573005943005
3.4484638794785853
4.755102960013695
6.094034295601786
6.979251188602758
7.746658102091661
8.46030860192749
8.41051186375776
7.361882601657275
5.621322963353674
3.9050101299300346
3.158151407532637
3.108200783810158
2.353731404946402
1.114308013408192
0.21590775771464893
-0.1703795515445275
-0.4285059001877745
-1.2336551247681922
-2.2307480067987613
-3.0875832455406163
-3.943098392539195
-4.580197552123798
-4.788475294321222
-4.602013489821713
-4.105363371329813
-3.77331969311808
-4.35171086630252
-5.399382547673708
-5.871330579601317
-5.899398228328609
-6.118057534863636
-6.464866830019406
-6.489289010688849
-6.106039328491865
-5.4997385553930975
-4.604043077801128
-3.846264002743752
-3.852839561436885
-4.3820637836290235
-4.763204091322348
-4.751452258661474
-4.872703893728342
-5.338823935686713
-6.2203994133155565
-6.907568125013522
-7.107141600075283
-7.975999418354703
-9.17257874913653
-9.752748305256954
-9.755917417190355
-9.651086271889662
-9.772988519619524
-9.438070913123633
-8.62631000666268
-8.221523022137482
-8.37233939465794
-8.626031739474623
-8.569936756899104
-8.34402772630198
-7.959041649617633
-6.999946083171008
-5.344093110951348
-3.451710196270001
-1.9670318239826217
-1.001756346108323
-0.3637282538404047
-0.1863815000080813
-0.3538496286072137
-0.4398828038351036
-0.3235247219677615
-0.261550294821292
-0.32988525135063274
-0.24790596386402597
0.46596289428406373
1.6473154298171828
2.808512957615158
4.4250711437162105
6.80385183020794
9.478469018335415
11.6171596259812
13.536120870853956
16.037150932490082
19.453774525685947
23.144548754093268
26.382895935773426
29.138435598532123
31.282266344786212
32.906033331129684
32.67290617009115
29.872812842990495
26.236429694444617
23.08086797436405
20.169783124518855
17.399564359045918
15.027304738252338
12.970135287530917
10.949074876370819
8.859939364003912
6.568196022615543
3.808620912779658
1.1404166241574067
-0.751822661388371
-1.8123933583511453
-2.1260959208438672
-2.2989634021765726
-3.373839530614732
-5.410200636958905
-7.356572606959336
-8.232255080123945
-7.841357988212135
-6.588867187409267
-5.263283595321346
-5.09411660791656
-6.700756531356913
-9.049326698202169
-10.749631014245423
-11.944773534927458
-13.573122054614037
-15.337495693660403
-16.348425403087447
-16.443441885935798
-16.632447658991033
-17.796896078879044
-19.489067489663228
-21.092746244281397
-22.558953871531443
-24.178799343910743
-25.992975521008987
-27.741467824259725
-29.13107052353536
-29.832122770483487
-29.587839151871016
-28.740995651702445
-27.770359439303096
-27.080140276886862
-26.378811848516154
-24.789542855783832
-22.9522788180864
-22.273437029441386
-22.826993625681776
-23.51981078277732
-23.43211624944591
-22.618809404978272
-21.735675488334547
-20.7645526996608
-19.212521740991
-17.304137655564674
-16.051159423098294
-16.118549685677195
-16.775925012847456
-16.6473576224326
-15.171396946778351
-12.93580474316883
-10.812193189767514
-9.00491236221836
-7.197919885605744
-5.437717592141518
-4.195329336754702
-3.4977639562891327
-2.3574921516371905
-0.2848769268344444
1.6518199998240666
3.0156115923984728
4.408747951513333
5.999297157003738
7.654404034937308
8.959490803965924
10.13569317249064
12.184121782505468
14.594556043898393
16.027039246341257
16.565310774047987
17.07837735047672
17.90825637631459
18.697330628653056
19.17590467152406
19.34726903860695
19.11948284576442
18.401385919576903
17.10732507240026
16.047145546947842
16.120294050238666
17.026396126963622
18.58495275693405
20.503747055818117
21.933380213749906
22.51028648331725
22.368767788076322
21.62279605371944
20.50162449684008
19.20140496386421
17.760249692667674
16.533990892975254
16.160589761346134
17.186101105410778
19.070755831671494
20.04437372925575
19.397007454518853
18.43949578462359
18.241494970757632
18.254401927965393
17.28609708465957
15.275481239790459
13.223860726041421
11.234922042888291
8.735886212308515
6.227771600034709
4.521207705362258
3.4835732453824013
2.44376465388158
0.9307532769312368
-0.8972674077492223
-2.56644873866835
-4.051788592746227
-5.760746030751801
-7.283688975160678
-7.681988110059359
-6.566450061917872
-4.665591499423728
-3.2842409268076787
-2.9647132863390713
-3.1159113247813495
-3.0842408549309206
-3.0290542769647413
-3.464152073255232
-4.335140942796251
-4.87102585556713
-5.24098462225518
-6.17785353655679
-7.791023893480275
-9.510945378741559
-10.678194482089957
-11.556912034211821
-12.498285964212197
-12.952488699880677
-13.086539451365478
-13.99539794995449
-16.221814157261946
-19.80608432945449
-23.90270381047111
-26.949925584933894
-28.263886166820928
-28.691719640712964
-28.619412079460975
-28.067024973945774
-26.846349462931077
-24.289283867119984
-21.336374684548563
-19.133467339705437
-17.644890019047324
-16.72073993578656
-16.173827745112273
-16.041107183060316
-16.724127146597663
-17.34045381901048
-16.495884027776647
-14.392462030066653
-12.073067194673314
-10.602169015957674
-9.733114851723428
-8.507928091173321
-6.610835236968314
-4.126286127592452
-2.0871259119913357
-1.4447720396192596
-1.98554019018188
-2.4337882122290537
-2.0413013521049685
-1.2417507634849727
-0.5326200895964017
-0.10051269027648835
0.23732588317068093
0.8943380014814212
1.9343960970052063
2.6008942485029496
2.711238806505566
2.798461686605872
2.714298839237639
2.5260241519869275
2.530001934149733
2.150423456274486
1.4298349598688984
1.3568780537849172
2.3409937528038562
3.6472941873516365
4.952530612287196
6.107349198790395
6.485694293136434
6.394507882799998
5.975491748743498
5.186745656668746
4.681728015055545
4.497124972993477
3.9125785736058796
2.6233324471833663
0.7125776893055488
-0.8761665322291438
-1.223489892325071
-0.6098423796808772
0.22787395486484546
0.9046337609181964
1.671594352010477
2.5761730575089383
3.6090963210325153
4.8719316691046055
6.2627197594903095
7.717368991679136
9.271164513878412
10.403562243841993
10.406351901263296
9.611555877524369
8.623302272676884
7.619184793201723
6.601818550476977
5.573222338998171
4.536187097698067
3.5286501333416154
2.806602197467317
2.3714114600776974
2.03734399407197
1.067341085374245
-0.6238763314318251
-1.3395874418366853
-0.574344680076465
0.4914059369087019
1.1359369901714145
1.7358024001912309
3.0071906572587634
4.769609212225451
6.196628335552099
7.289410811655966
8.396495214974005
8.830181407695814
8.408615014016487
8.441458360541805
9.504740329213622
10.268972203786726
10.119025331384911
10.090254116950051
10.44163136379128
10.672789764682577
10.134684715730637
8.628875655783968
7.361405774967838
6.873831798466326
6.59127635227355
6.27811722214408
5.5461954631393295
4.307169852103528
3.25313373404595
2.8506429264179456
3.137667418510356
3.6852114408367638
3.8771753484996685
3.5011745468329476
2.7262759779712984
2.203935546547087
2.0615024940777964
2.303456286863365
3.9265994027998214
6.618849419891515
8.66767423169891
9.91468820707851
10.775034616370704
10.297287444262851
8.077940645960425
5.32204588670163
3.6578526708216557
3.152371297935551
2.264999572032253
0.8521422975143769
0.14255970426261066
0.36752811490389686
