AAD_Filtered_TADAS_FILE
AAD_BASELINE_CORRECTION: BASELINE REMOVED
AAD_FILTER_TYPE: BUTTERWORTH
AAD_FILTER_ORDER: 1
AAD_LOW_CUT_FREQUENCY_HZ: 0.025
AAD_HIGH_CUT_FREQUENCY_HZ: 40.0
EVENT_NAME: 202302060117
EVENT_ID: 13194
EVENT_DATE_YYYYMMDD: 2023/02/06
EVENT_TIME_HHMMSS: 01:17:32.00000
EVENT_LATITUDE_DEGREE: 37.288
EVENT_LONGITUDE_DEGREE: 37.043
EVENT_DEPTH_KM: 8.6
HYPOCENTER_REFERENCE: AFAD
MAGNITUDE_W: 7.7
MAGNITUDE_W_REFERENCE: AFAD
MAGNITUDE_L: 
MAGNITUDE_L_REFERENCE: 
FOCAL_MECHANISM: 
NETWORK: TK
STATION_CODE: 3129
STATION_NAME: 
STATION_LATITUDE_DEGREE: 36.19117
STATION_LONGITUDE_DEGREE: 36.1343
STATION_ELEVATION_M: 106.0
LOCATION: Kahramanmaras_Pazarck_Turkiye
SENSOR_DEPTH_M: 
VS30_M/S: 447
SITE_CLASSIFICATION_EC8: B
MORPHOLOGIC_CLASSIFICATION: 
EPICENTRAL_DISTANCE_KM: 146.39
EARTHQUAKE_BACKAZIMUTH_DEGREE: 
DATE_TIME_FIRST_SAMPLE_YYYYMMDD_HHMMSS: 2023/02/06 01:17:37.2659430
DATE_TIME_FIRST_SAMPLE_PRECISION: millisecond
SAMPLING_INTERVAL_S: 0.01
NDATA: 12501
DURATION_S: 
STREAM: HNZ
UNITS: cm/s^2
INSTRUMENT: sensor = GMS+/GEOSIG | digitizer = 
INSTRUMENT_ANALOG/DIGITAL: 
INSTRUMENTAL_FREQUENCY_HZ: 
INSTRUMENTAL_DAMPING: 
FULL_SCALE_G: 
N_BIT_DIGITAL_CONVERTER: 
PGA_CM/S^2: 826.359
TIME_PGA_S: 
BASELINE_CORRECTION: BASELINE REMOVED
FILTER_TYPE: BUTTERWORTH
FILTER_ORDER: 
LOW_CUT_FREQUENCY_HZ: 
HIGH_CUT_FREQUENCY_HZ: 
LATE/NORMAL_TRIGGERED: 
DATABASE_VERSION: 
HEADER_FORMAT: DYNA 1.2
DATA_TYPE: Acceleration
PROCESSING: Automatic Paolucci et al., 2011
DATA_TIMESTAMP_YYYYMMDD_HHMMSS: 
DATA_LICENSE: U (unknown license)
DATA_CITATION: Turkish Accelerometric Archive v 1.0 - Disaster And Emergency Management Presidency, Earthquake Department
DATA_CREATOR: AFAD
ORIGINAL_DATA_MEDIATOR_CITATION: : AFAD - Disaster And Emergency Management Presidency
ORIGINAL_DATA_MEDIATOR: AFAD PROCESS SERVICE
ORIGINAL_DATA_CREATOR_CITATION: AFAD PROCESS SERVICE
ORIGINAL_DATA_CREATOR: network: TK
USER1: GuestUser
USER2: 
USER3: 
USER4: 
[...]
5.262720238887141
8.575816959730139
4.761114442118227
-9.709709651236674
-8.55231871337339
9.575745950939588
10.711443416044046
1.7688300478756143
5.262157470148709
3.0651522582969633
-2.956599478981912
3.0392534248235656
-3.7879361417043302
-24.230429960633774
-25.433315156906676
-14.115910170701035
-6.1720211300827135
3.56656274378543
10.146713191536978
15.594149959200525
23.82973477673667
18.540125104426135
3.066183304250017
-3.968459136529084
-3.3882145044747505
-2.599494529912848
-7.792391995160211
-15.017182600927644
-2.5395526033690734
22.434915212266347
26.294892735905194
19.069213881256534
19.641256142004554
13.456209518180362
-2.80391092724493
-7.071859743512707
10.365775051350465
19.605019960840316
5.622408860925333
-2.3890816237950108
2.73356427851043
-5.3499484368306325
-18.972817064737686
-10.261901439606534
5.999290653799783
2.689350869318701
-15.870242644448481
-18.74819105564554
-5.674495415147398
-15.980838976851249
-39.75688261840546
-35.76125874301353
-16.498207068794198
-14.068630801202977
-19.001718692832643
-17.36491684465398
-17.069982741055714
-15.761249318772423
-17.088246790419724
-23.899078031276687
-15.080718237994263
-6.380366954342336
-22.854874976621637
-32.33214350975917
-16.87677175728215
1.4858581352126512
6.607466672257728
-1.2640788261027083
-2.476555693793195
5.09853346688471
0.7719161791387775
-4.000356398347872
10.195691730424453
25.863828175596797
23.619564910836996
12.654773958383704
5.377520691821706
-0.050647155947216166
-9.466776719122269
-22.37594837294087
-26.969427890204354
-27.684831034543045
-34.879531888869124
-27.866487593548943
-7.900037289138226
-6.0244937029031576
-15.642449719937684
-10.386997910181046
5.2830505603204365
12.7179609831414
17.85472575009353
22.52468752205193
9.497643673116272
-2.4640863492718457
8.028250281067963
19.348786265955308
20.44535432861072
18.86984754607018
16.292774438373947
16.05353167996264
16.280064701196455
21.100162112708112
33.41875432216232
29.87703882333515
9.985807676351628
-0.4433852522707024
4.831395956997947
16.74787088765319
19.2151471908774
12.719973100727598
10.38979517479751
13.714527070463175
15.005027318322485
4.1276126881093855
-5.848176417583495
-9.290412801770373
-19.05698973071314
-9.792902020943346
17.436635926211355
9.257319900999418
-18.717973124273033
-17.81490752897966
-12.83266483438949
-20.03864344951604
-14.231432012969202
-7.179680514236293
-17.406907959942455
-21.958836956813627
-3.8996707551366865
2.196471405497162
-12.880374117132721
-11.397880609390402
-1.4141099793448055
-2.2508962713037546
-4.8367497539507855
2.0082984173201703
17.050444735772242
13.291474259543895
2.419412541310317
20.647399500756023
34.069911016419944
10.895139830807784
-4.20979512552673
12.727835284171661
26.856072556752245
29.673136417159935
32.94268873289321
25.131358055051617
11.612889663544589
9.425924587492778
5.063346158976501
-4.932268347781989
7.196106961470687
33.27734978519164
29.533741949863686
11.972399577164074
22.45882075999264
30.0843780191329
17.284712201479714
4.518797879575449
-15.069988224973155
-14.212339929591748
17.36633245931152
28.17699534039769
21.855778907149592
27.57204853217342
18.518033540510835
-12.347452780826396
-24.2674804350133
-16.03260356395291
-7.750004176786014
10.678867719832951
20.342411304685363
-0.5044148628487924
-13.41059787616145
-7.3335159655402276
-16.482013599303812
-27.110263340566874
-23.97955220478398
-31.064760880531892
-39.54218295528792
-32.69712852459966
-19.134718384153516
-9.880040497399406
-9.291847809320403
-11.487844902466982
-20.97246439668342
-25.679821400674356
-20.89260343277731
-28.718779596640346
-36.86433657932964
-26.47457454272757
-5.226496903322777
-4.383085222384562
-14.684271215360374
2.7937207615038564
14.076729830573848
8.655367291031403
19.03413212297462
19.093248120183734
1.5551351432478557
4.295223345791646
19.36098112901051
17.77037441744541
12.597652821790401
19.117674712761286
25.70359494818314
22.453454871478712
7.035615016463325
-6.9959813548830905
1.0947887331942214
15.039671575321007
10.12119869177954
3.767736579510489
6.482188480693729
-2.6135302316269904
-10.854658974544783
-1.0251889152551383
-0.5766894652222145
-0.3477722986296137
18.960511366130003
15.730445440300159
-2.655760711589121
7.2128462838566065
21.026985672303315
24.60912229283142
27.87897914788849
28.733930343755002
41.69831184099229
50.268638930277575
35.86304088450125
25.830680591003297
19.139572815516026
5.55605534054949
-0.8732694426073211
-2.280296244262141
5.746923472743419
16.39925343267114
6.195475775610637
0.6590946929369621
11.885325645219032
10.13203156858772
3.834967364627753
7.4079674815618395
4.324797266737796
-4.05978228428384
2.1339461651753298
13.747418027867411
10.424963905400398
-2.7458597959291855
-7.518104978329196
2.416848406581194
4.649251981481439
-4.015940329359116
-0.19130099856438648
8.548387984678463
5.062645724427093
-9.706089146026
-22.080702925159486
-20.047670124826258
-4.9655348347100015
9.317265789030913
6.733977373917892
0.25690903194892534
7.560010315638181
20.305014808115427
25.300351004162255
20.456897371808083
15.576326880558835
2.766352242244633
-24.12853578424592
-35.49131228305907
-22.944802840581715
-8.572154873255847
1.2641157985260478
5.504863497922849
3.2728175205005403
9.681050082746422
20.7022058630173
11.129470944724051
-2.3402123192649906
0.3584863272333931
-4.410022448521594
-28.615182362332586
-51.619565988714456
-50.731135091978615
-36.67297086327833
-33.61522672003696
-37.87252260489317
-30.123285501854582
-3.984589667523143
21.575723754592712
29.941386606589273
16.30308625700415
7.858607707490334
28.624055854720435
25.52215341703209
-7.854644364574589
-15.389144024255618
-8.89823795541453
-18.087908220754187
-25.680682702849733
1.0028121511402142
32.22537940692877
26.866822706781768
28.23291983115656
35.228426119870946
1.0961782100522566
-25.341033963773064
-13.24537245311314
-5.855482247715911
-20.53937038674522
-38.12019805006657
-22.164940157364107
3.197756603648264
-14.523675909357008
-40.102168910483144
-31.713040812371556
-23.267947379486518
-24.016779509057947
-5.770853437530752
-5.747727070967099
-19.742968221130553
0.9522485433653206
7.241893569939673
-8.974952899559158
8.27686480021575
19.25493828416299
-4.973844899824648
-6.944576072859575
7.54662210271838
11.52078503990003
33.26255061590595
24.067453885708332
-35.78127599488336
-25.31307852039066
33.869204898019554
-1.1745600118414563
-52.164104634659736
-7.218314755918017
20.254017992008983
-16.259073499310016
-10.338203747511336
26.597292816971883
13.505100458882854
-1.6766998419914783
38.01068156959735
54.548632587050015
44.02386157181024
60.37270259591173
51.56223674919762
38.13183073812081
38.88381387666684
-2.212646286459327
-38.10895755668529
11.102411272497646
88.57460116705953
73.68465936851395
36.134553474505346
56.736752466108186
31.374243073103628
-33.722570349017396
-24.008883292984383
13.991782093762842
-3.806585076322718
-9.176758647749306
-18.63464927850202
-82.5618328565454
-84.65985346979382
-38.9924089799183
-30.894225230346134
-24.941574204402038
-17.209525268751456
-7.994613706877811
-5.22069259137146
-27.447717629667903
-18.392532480535674
12.034307734406363
-1.4348665547595894
-31.655016217956447
-54.931689452550664
-59.60549733872568
-41.107688180082974
-38.657378757456215
-22.377671213615677
10.517045587779668
21.89359284991886
43.45276366413731
35.42477938324165
3.4321716363758337
41.10448641862026
60.71774150605191
-15.452481426967596
-46.93674137499967
-16.59279160731375
-58.662860794174314
-91.90390121273951
-24.76643541223338
53.59506534880729
79.24636282749964
59.30714386334742
40.0038511522044
30.983604599481794
70.23267501084503
127.48484185453083
91.52567573959476
40.40494829898976
4.895771068374859
-33.0242406551101
10.302989041001224
48.58541494531715
2.804090936269065
-14.444608151749105
9.038965384700758
-5.464928412818601
7.2668067779142715
65.0009366277685
73.11825372925107
55.796625909351114
11.240811881145818
-62.13197025911421
-96.0168048099111
-97.0654619670457
-45.41759915255781
-4.268579605404017
-45.08897427490702
-44.58705211968739
-16.39105742134338
-54.485328680279096
-60.61301844515824
-0.11079702452961987
16.45448739283201
15.096497067246553
67.76381582528023
48.86373090858603
-28.642881697696758
-20.435262447170185
9.933290160341324
-1.186295144776067
-43.52759752508509
-31.912154510749495
57.431575309899756
68.48434255478267
-0.165658207310079
-28.06689975108845
22.759128386035723
71.50772814849385
56.26505870093557
48.94516975992713
40.77325041909845
-13.161129463219574
-102.61825371925656
-132.5985634122448
-36.38375116591658
9.612285947038014
-22.334041379893772
3.100891996444112
16.17895992516724
-19.20403462248282
-9.902797229475127
4.316653857042678
-21.839557902188538
8.590755449184977
74.18586485689585
95.78235169813279
51.15986218698986
-7.688838561692334
33.41720654351136
72.06942666638452
56.70797091479166
66.12677251610985
31.13783896705671
29.147801126285202
45.985023221703585
-75.27011956386927
-62.06524793158346
117.48378007511518
92.00417161494916
-4.119592069542842
49.88169410413207
76.16397234195934
3.8413386078467187
30.066200607167858
138.11863670090145
89.98572685358357
-1.2542312324753098
-6.655503068917248
-76.09856704037257
-157.0824587563699
-191.10919419422967
-159.57809922998408
3.608032946845744
20.041491662592744
-164.32583026736538
-172.75448089534757
-1.8819341253687594
125.06218291273194
107.30243276826495
-69.81848050937676
-231.2713226882748
-285.39866582639735
-297.9723726011571
-196.13095396401926
-72.21777274453783
-122.18231312140308
-144.6575242474426
-23.23613334190661
78.62359476984673
92.32248512656417
89.47123226415235
155.98564110359789
100.53560349960998
-79.06198424804992
-91.69852553945799
38.30200154071351
138.66752282229743
149.8021717923399
182.54990338367202
198.0723139237133
77.70763937085714
48.305193273864546
105.11279676583061
-32.59614878900635
-195.7903860256348
-70.77826056539332
60.5656388461512
-18.44822932475559
32.918644840958535
126.1848562459965
17.209931504732975
-98.21129042248225
-175.3421276295217
-200.7188325331905
-68.83025369879117
26.7332305911164
-50.73683857429089
39.12763022984882
409.40842762936194
432.8642859989797
-31.353652645304575
-204.12692156839162
-36.99204158165962
-41.14438451012211
-27.586630195973
109.27195387840737
67.01793897351405
-61.83354262056741
15.568607034308242
79.50905902780066
-141.14632476365557
-330.31160272960926
-237.4232578991101
6.048821722346434
212.2687873059003
199.9827556080688
-71.26515957924586
-383.0731245958014
-437.61548395808813
-232.84264538855228
19.41969595518278
211.48350966627095
162.6654383171737
-37.61020519302666
46.66337809547092
153.6870222954049
-149.66595691055613
-296.3644228109731
-45.36630926214089
-146.2899387959607
-269.0508362176067
222.94423717140498
441.95893299594627
184.68036392727646
154.07950268932566
223.01778861740783
169.42444571559975
13.24824894727684
-253.55781831190856
-504.06004153933316
-474.27107326923505
-235.84907229702154
-96.01327504744128
52.706962397119
135.0725259062658
-56.79091954372663
-77.08187187015913
301.9202606730067
497.49644418124836
420.1330333652782
423.2519363497368
241.3268430458903
-9.219850969855216
-13.507969680902972
-177.10887231007638
-515.9460019557507
-641.9191202702358
-274.3355921796877
286.90514462590903
217.95918918307007
-122.62082685763039
5.031482283333325
258.3630533700311
109.13396811044593
-73.26768700987604
122.1123341464555
146.7923285719586
50.262988309433915
101.58325644037853
-98.27936425976472
-379.33466842193576
-212.16082130115603
177.23909799704055
77.55979696407647
-167.8784579306221
-18.622221771380836
227.85309766788623
298.65751957435634
126.12192666336495
208.46432483054244
532.2060482625848
400.6759589439334
89.26924439019537
65.56772802919171
149.52027352911418
-8.012412494767183
-363.05240917839006
-569.2901778698864
-506.0323501984708
-132.1620940715092
241.50806268642486
187.22059703123278
26.404719830988537
73.97840120541632
1.1776653887161113
-327.858811833393
-625.1024268224851
-501.91850577422565
-54.30298793127256
-52.85883770883875
-332.3103913961984
-237.9089044497839
-217.60613743235814
-476.5079516924643
-492.9604901560316
-102.17808016004366
298.14641180123505
382.0037174409098
244.75808098193437
-2.089230976460216
-109.1560308520299
-0.11598348405067208
59.13114548160165
69.30481626495884
56.60469544287794
116.6177371364025
302.07159612646757
198.2565915751126
-184.14023503710126
-129.13107623063144
305.09462457044333
303.96847253295925
119.82867761486365
323.4425335449835
424.5435484469588
30.033179605453245
-196.8663334551413
336.3499122857091
817.6921962408733
541.3551673696182
181.98026205780556
263.8867641788745
330.324860714775
123.14633680930531
63.35174580374628
149.70452476958224
108.75888536759038
-8.985989773739288
-176.0193998586993
-335.5663464445298
-209.43826864983814
141.3989280820987
111.68295970016365
-152.9875293541036
-93.81051910763222
-5.150283193750207
-133.42413528518003
-173.20155481948564
60.60604260239278
269.8366609757274
167.38591381958207
31.011281279911355
69.81149863114379
70.37133982704484
22.225494794893205
105.61630826292432
187.93983976306734
140.01542461536997
108.58622805753136
81.8006573167016
-22.65680458972668
-35.85762715916874
72.44314013353048
75.51775216877733
-28.39565248029273
-105.6286500499666
-172.3991432488805
-227.42610809604074
-281.8650631592441
-359.5345460366413
-389.8217322218603
-302.05658891302124
3.666847709395824
395.5144127549452
472.8226966459904
226.81859550369862
-53.681685598429546
-214.07087488385272
-225.6348778798892
-227.25005836581835
-318.09155626039336
-411.08944152239957
-406.1764511194329
-306.21516959537445
-177.5022836528346
-89.27304620140211
-33.10254023310861
48.379983314976265
35.71167243026806
-120.69277141357729
-155.9528727677351
98.02285586645829
493.65736692568714
745.1398420196399
682.3394549629296
481.5351341087915
336.10664158733255
192.9822754956149
54.32799218730843
-68.98705999629861
-151.1699915764785
-127.07397149571771
-73.97628658872088
1.2539143968115694
108.90785102701305
196.18279449255687
258.0582664949939
193.78867813717397
4.378389027712777
-130.15052600415953
-49.63480816940492
264.6109867297215
415.05859471823646
121.24017952443278
-234.9743052931302
-325.6983872705367
-256.5694618075186
-234.9141346763914
-357.49871347034104
-511.3468779074243
-399.8507027970467
44.179624404505795
466.1901294612305
668.2561069006326
550.486347361674
62.24242061476425
-353.66000096898875
-457.721725472043
-510.89247663286847
-525.9241862965978
-443.4326718256627
-378.80833828524516
-261.0865977321739
-218.16668102905794
-326.08506455660427
-304.2968163081557
-317.04249254346297
-448.387860577834
-484.7560115137773
-448.16211970986205
-337.124639331976
-186.46249972742763
13.14002784349313
156.47474005393522
27.39120013295505
-256.7749632852647
-498.29730802662715
-601.2197046492915
-383.60343955999
125.0289588477296
277.9414188666985
-2.1252560163231515
-138.93567842746623
-118.76456102117282
2.8944627187557583
58.45033797501727
-72.82504521190351
-127.09767072760381
-95.70439509675296
50.88371747869793
275.09441416655545
324.3603184058547
266.825262444101
250.8439128772566
244.69225900285696
266.2191328884204
327.91647412659495
320.84850506711683
206.64180618016692
65.99167673497789
-65.76698646483565
-188.49117469407304
-253.6070023612763
-280.03538221319036
-249.33786294935362
-55.167931216608714
229.20200702547075
459.35395121318646
417.02701918406035
154.26478747093492
10.45431123210701
-62.0679383258322
-65.15287656600836
30.13492940417463
50.91128835934205
16.631676553068136
-52.508620727168214
-133.32718240715215
-119.32395203782774
-64.14691730964041
-67.06502519104941
-23.382475398453213
123.26266676133295
199.4780864091938
20.028318433385024
-272.3329057445248
-406.1003774012369
-301.0084013358849
17.142306972262332
159.24557433527067
37.8606263702819
20.328700561679568
75.25791692702927
4.619843659386114
-220.51965370945518
-333.20997124478254
-235.40915955807372
-148.58616819556278
-108.92740862902149
-80.71297257764279
-28.29242362038745
40.677041068770755
17.229589534132273
-56.39201787964875
10.269067561477987
171.15798378644337
263.6118387954404
252.5094239519061
150.92911891965136
20.14937964548404
-163.12922521224115
-282.8070915536497
-108.34427376877747
170.66878590338763
253.8402192832437
116.4498877148487
-72.86812075470488
8.614886262012508
318.4997243365475
450.1800604340894
423.5220297533636
375.8323741174321
238.94132846333645
85.2752776410698
-120.86357837739291
-405.25412947935325
-551.3722389051836
-476.6862588678092
-331.27098402167695
-267.7510544675365
-208.25151530515743
19.008867486871356
346.0134997223761
480.7823131781805
307.22358105294296
55.687310002284235
-91.81885032168303
-135.42092066182767
-123.71224303762565
-125.83681191388601
-81.93944435132615
8.261183785346391
19.605649544619457
125.3949758503439
420.1295074093923
623.680119761822
531.7529608806359
240.31637529964615
68.10645059687484
15.721117761726838
-105.09278395773678
-228.7434974317728
-286.15896150495945
-247.08030506545546
-186.43145725908093
-135.27207556135616
58.716153158107346
309.58340228854075
337.14333236751963
235.97947399329394
223.34586937607776
182.02310677695198
147.78139234309293
184.05144190455138
124.96992195228006
-90.12619687794923
-294.90275707929436
-218.22844621020658
54.23282174540851
290.3832693782643
408.3580168283158
332.44120507620374
85.41697812303097
-133.97671886510966
-198.51584544978155
-251.55651361290862
-317.95481748775876
-341.82781794417286
-301.51379266776894
-50.64993793068778
230.89339337466595
141.57063435072294
-151.9480624340194
-321.2471450498918
-313.98367021998746
-41.42778089514865
211.76793063233725
156.4276699956993
25.208502347154894
-19.601617004299943
21.151119104225476
61.30975188849947
110.27528976543357
226.94114330265757
203.43505001064042
119.92494805536299
203.03692416520147
358.55719236581297
476.0975536134069
435.1450893188831
281.16295747332424
76.04800235581001
-117.8744998476174
-94.60131911991498
84.17785731711062
