AAD_Filtered_TADAS_FILE
AAD_BASELINE_CORRECTION: BASELINE REMOVED
AAD_FILTER_TYPE: BUTTERWORTH
AAD_FILTER_ORDER: 1
AAD_LOW_CUT_FREQUENCY_HZ: 0.025
AAD_HIGH_CUT_FREQUENCY_HZ: 40.0
EVENT_NAME: 202302060117
EVENT_ID: 13194
EVENT_DATE_YYYYMMDD: 2023/02/06
EVENT_TIME_HHMMSS: 01:17:32.00000
EVENT_LATITUDE_DEGREE: 37.288
EVENT_LONGITUDE_DEGREE: 37.043
EVENT_DEPTH_KM: 8.6
HYPOCENTER_REFERENCE: AFAD
MAGNITUDE_W: 7.7
MAGNITUDE_W_REFERENCE: AFAD
MAGNITUDE_L: 
MAGNITUDE_L_REFERENCE: 
FOCAL_MECHANISM: 
NETWORK: TK
STATION_CODE: 2106
STATION_NAME: 
STATION_LATITUDE_DEGREE: 38.4616
STATION_LONGITUDE_DEGREE: 40.647
STATION_ELEVATION_M: 1006.0
LOCATION: Kahramanmaras_Pazarck_Turkiye
SENSOR_DEPTH_M: 
VS30_M/S: None
SITE_CLASSIFICATION_EC8: unknown
MORPHOLOGIC_CLASSIFICATION: 
EPICENTRAL_DISTANCE_KM: 342.16
EARTHQUAKE_BACKAZIMUTH_DEGREE: 
DATE_TIME_FIRST_SAMPLE_YYYYMMDD_HHMMSS: 2023/02/06 01:17:58.3069380
DATE_TIME_FIRST_SAMPLE_PRECISION: millisecond
SAMPLING_INTERVAL_S: 0.01
NDATA: 18251
DURATION_S: 
STREAM: HNN
UNITS: cm/s^2
INSTRUMENT: sensor = GMS+/GEOSIG | digitizer = 
INSTRUMENT_ANALOG/DIGITAL: 
INSTRUMENTAL_FREQUENCY_HZ: 
INSTRUMENTAL_DAMPING: 
FULL_SCALE_G: 
N_BIT_DIGITAL_CONVERTER: 
PGA_CM/S^2: 72.301
TIME_PGA_S: 
BASELINE_CORRECTION: BASELINE REMOVED
FILTER_TYPE: BUTTERWORTH
FILTER_ORDER: 
LOW_CUT_FREQUENCY_HZ: 
HIGH_CUT_FREQUENCY_HZ: 
LATE/NORMAL_TRIGGERED: 
DATABASE_VERSION: 
HEADER_FORMAT: DYNA 1.2
DATA_TYPE: Acceleration
PROCESSING: Automatic Paolucci et al., 2011
DATA_TIMESTAMP_YYYYMMDD_HHMMSS: 
DATA_LICENSE: U (unknown license)
DATA_CITATION: Turkish Accelerometric Archive v 1.0 - Disaster And Emergency Management Presidency, Earthquake Department
DATA_CREATOR: AFAD
ORIGINAL_DATA_MEDIATOR_CITATION: : AFAD - Disaster And Emergency Management Presidency
ORIGINAL_DATA_MEDIATOR: AFAD PROCESS SERVICE
ORIGINAL_DATA_CREATOR_CITATION: AFAD PROCESS SERVICE
ORIGINAL_DATA_CREATOR: network: TK
USER1: GuestUser
USER2: 
USER3: 
USER4: 
[...]
4.195221816536117
5.556962638434324
7.46407890974851
9.233147900222106
11.130532998053726
13.274601862223463
14.75931383209076
14.721683600661834
13.380617658764319
11.707287379146226
9.924550327714876
8.192858679799281
7.390771938036656
7.63516673127283
8.487147885612472
9.26854224836471
9.099408483668444
8.791176887344394
9.126542026281816
8.57089960106574
6.393167677535821
4.649897386041704
5.308682580104003
7.089319457616174
7.432729012227306
6.466134816352892
5.572570656555324
3.6692111563621688
-0.37965538844897523
-4.474466501019799
-6.841372036980902
-7.987612433310991
-8.406405479022803
-7.88529544172374
-6.725980354164736
-6.022889245574755
-5.830482875528963
-6.003665780473974
-7.009971332260923
-8.067319500542952
-8.479401618602374
-8.71196113041372
-8.644961837551755
-7.350881666831477
-5.176949728926077
-4.220340987885832
-5.155302377582816
-6.543898162623011
-7.29096904879363
-7.451412346209549
-7.1407532944702075
-6.1175724283675645
-4.782793406893534
-3.884729340187377
-3.5765066172554114
-3.431660351850726
-3.8418422710536504
-5.530986752366973
-7.467223812494102
-8.13601174119181
-7.750572123825154
-8.120234111309763
-9.72305230732299
-10.96888354197698
-11.34191695467686
-11.665727834749338
-11.186566488469055
-8.633408789099821
-5.204778527448448
-2.4285548833164587
-0.5211651500905589
0.5227271560408873
0.5590307954223579
-0.7131769124955569
-2.645184921215722
-3.9490577294782123
-4.775342094522772
-6.152899445762193
-7.607956683980378
-7.860416358675809
-7.13383287591486
-6.189141130376715
-5.407371900460288
-5.086755769928581
-4.947179606870303
-4.9991900960255435
-5.256956363050723
-5.143593247681275
-4.765446541051503
-4.499924533947265
-4.011605617604652
-3.1265504834902904
-2.302316089424952
-2.065124176410098
-2.344070050143196
-2.144744424929421
-1.2237391664974906
-0.9646435883017984
-2.50896791397517
-5.0511191712850305
-6.576653998226243
-6.518078316998134
-6.584346114402842
-7.477885411759649
-7.189361848282186
-5.58992934054474
-4.740481832058377
-4.518757944504544
-4.145667571228933
-3.654893595924909
-3.415578238823465
-4.069577995486815
-5.294442160276509
-6.040155514336296
-5.204202839679989
-3.446226401498678
-2.7933846245592555
-2.432012998324777
-0.6988792869049608
0.48969510905035585
-0.4486023468772108
-1.333309397263476
-0.8130448474049525
-0.24552257244772155
-1.2079603961575773
-3.702497758749475
-5.829726568103817
-6.682516669273795
-7.41625968274699
-9.059943068967112
-10.307921021669735
-9.546380174741614
-8.546345949359472
-8.910427426623482
-9.649551496191043
-9.954416358644632
-9.492864450113679
-7.468688615249518
-5.476289500138552
-6.869568849846011
-9.648855754506055
-10.07870619460287
-9.121851728227673
-9.035669178885342
-10.387699401814215
-11.657212233786442
-11.3276649289702
-9.673451869835326
-7.592708725625554
-5.4794793386987655
-3.638967873115322
-1.863985715002446
0.8492503073929748
3.877157354870694
5.337520854366281
4.779912954367579
3.3706285298764054
2.573938817747107
3.7361433573054805
6.883116860506269
10.472625120554163
13.36480346543204
15.31255546532109
16.976914352875767
17.636597628373266
14.588333627080871
7.7796172833360755
1.4036004313061694
-1.2194664771436823
-2.063214759084513
-3.2223989126535986
-3.2677504400995327
-2.0435112399052926
-1.2603115955447173
-1.7937506293629428
-4.4840962979838475
-8.877180747144202
-9.911062559631013
-5.7701323265232185
-2.746617815019906
-3.0554411095312966
-4.028755289205116
-5.133851367336636
-5.376363569051683
-4.166186857268004
-3.2222870712794007
-4.058514769391173
-3.9200983874457784
-0.4720127667766136
3.021969176405678
5.021480686333703
5.721282587322906
5.695314323729853
6.285953121065715
7.34222830435898
8.480148678514084
7.328048768444973
3.6302753167892514
0.2185414535703923
-1.0422457599585109
-0.8022515525167316
-0.9786357973814366
0.03172040397029188
1.7058377282069996
2.856221862918748
4.297059711153027
4.120596287441998
3.496762823035863
3.5656896744704807
2.273487569308082
1.4075139920082183
2.1511880848958276
2.038874553322133
1.9312683047372914
4.510922619597084
7.658233210799822
6.613053252649962
1.9452357928992114
-3.2003095781134707
-7.291107230250862
-6.165348869970286
-2.2467116161078944
-1.0026129009419091
-0.21865637317691358
-0.3952131418450727
-1.99325923827954
-3.3444827171575033
-5.915647357685482
-10.34889950127614
-14.238910789090749
-14.204720274255621
-11.95146003691879
-10.680365369295165
-9.07661704735194
-4.91881726018247
-1.1891703179933486
-2.6545109081568867
-5.984758379504659
-5.273159662662048
-1.244772861876687
0.18292307821256296
-1.247742454502062
1.3025948027260013
8.348791018914694
13.492468502500762
11.920415123597481
7.023798207714995
3.8449276891023736
0.8151921730978647
-1.1514836356726486
1.172944945902625
4.176205658146074
4.436733440495602
7.302299528614239
12.850235009592462
13.601681384388904
10.618201754813025
7.74050020350128
5.42302918529312
6.700957697571993
12.621343744117233
16.427431576952443
14.177272793577272
10.362347987042476
7.628474157899384
5.2929887041630055
1.5697483521696247
-4.807844587783577
-8.990114328992952
-7.187996509424665
-2.2060371324862897
3.287243057543341
5.005928297866241
2.2192790428944495
-0.6441703486223826
-3.980220371991774
-6.78784204205787
-9.68138841423475
-15.732419357918593
-19.50820686052709
-17.01850798498984
-12.950908743809869
-11.18702130545592
-10.532945518367137
-9.12657182792147
-5.376144660378988
-2.2455010622885347
-5.670099945735682
-12.868762301373351
-17.77059325722197
-18.514099682415758
-15.073946212767563
-10.222875901982052
-9.913304428907992
-14.566085674012276
-18.87837704346996
-21.24181521233635
-21.895241149736574
-21.79085529844512
-19.555506687722907
-14.909539697494559
-10.256874611808867
-4.533752332804788
-3.1440273546287574
-8.278682666392172
-11.77439442383461
-11.752389882249032
-9.475036368094436
-6.680644898708763
-5.8433949195113115
-4.240331950715477
-2.7611021736059906
-3.91748602229951
-3.4980529484781178
-1.8824404078262513
-2.8046050805284746
-3.929209275614747
0.38651468874181416
10.384492303224572
15.00526057420223
8.01754863199585
-1.6919651803028322
-8.18271760198719
-14.050511785083998
-15.987241396846839
-11.796976685508891
-9.919903525571046
-12.001879340377721
-13.52511675661911
-14.88038797479663
-15.639342233033217
-15.779245122022772
-13.264824474844337
-6.430935310225574
0.6571624127437707
6.437097214489275
7.665339025680327
4.808691173240411
4.15036000568053
1.24943219392304
-4.010428980156472
-0.9861525230445389
7.3548994793727935
9.228878304725207
5.863802523117075
4.944061207448459
5.069711518351794
4.838414038463321
9.122282011315725
12.86582893663292
9.884129946828375
9.64944176673328
14.442073412937608
13.835514335549101
5.040766703166061
-5.35391921616343
-10.395612664464748
-9.963160017574761
-6.374012172440152
-2.4716480693043206
-0.23416890350436725
3.3515451654390462
8.63706420687608
12.398273667200238
12.874785281946291
10.863017570396568
6.592811477165609
1.2828385792320618
-0.22132135330977148
0.8325318976776296
1.8013661302967268
4.854151096504234
6.12203021820952
-0.062021074416899004
-7.479709123914065
-7.200384581273067
-3.3817943607918393
-2.301811255965082
-0.6906834406980362
4.467245490415805
9.758037796395175
9.001336532774763
2.6465950713913218
-2.380640505240756
-6.443415515035939
-11.004071561893383
-10.743678155402133
-3.501129350294498
3.5934159673548587
0.9935652605107144
-7.946406108434037
-12.639190983623196
-12.285001307744334
-9.96311701913825
-5.079605787644988
0.37434575182402435
5.676150789867297
8.672930537043765
4.148423214178074
-3.189750630208681
-9.53934161852858
-15.39635188256855
-16.31377213072316
-9.483210516692921
0.40078906782433926
7.185576317543406
10.484242672980697
12.459979812875941
17.364290158386368
22.86556250807511
24.364883528040313
26.46958042682793
29.22895779869422
29.611732892254786
26.94452948206493
21.529595998736955
18.154552250449214
15.056641793327591
5.660055980898804
-5.4426312419644995
-11.300461478372844
-13.916914085962622
-15.595063760757087
-16.43285107491544
-20.231991068083605
-25.47870219844212
-23.738273525934456
-17.702907043208207
-18.03782045110376
-24.491828680043728
-24.72240048825938
-16.60336320780577
-12.041151072596035
-12.6732993474617
-12.1789612562359
-10.563035122555531
-9.898090982309098
-7.377610890003499
-5.30943042205277
-7.123716388520612
-4.46860399266125
4.189130405926974
10.869262840877154
9.287208425936859
2.457853731057187
-0.20893413248096634
0.8150164182736633
1.6499926507564826
-2.139017788308776
-9.940749170929928
-13.319617494438361
-13.159003189825288
-13.32451227520097
-14.530154049768198
-18.551733247830587
-20.935446396379227
-19.121090905362426
-17.016904587222708
-12.93646113099943
-9.058342735913758
-10.091874243919776
-13.095648821072304
-15.747920726436321
-15.823694242194309
-14.168428426634321
-11.91670429856229
-8.451029904488099
-6.488891312852462
-3.821466092388767
-1.45652405937511
-5.126867045181865
-8.737525654784012
-7.4165526181841654
-6.885730740102097
-6.828803432573645
-5.32170983302194
-5.740466833635108
-5.870319449088397
-0.9196379769690834
5.813441374867561
7.50912753170237
5.049574100656543
4.571199297507267
8.035963501995532
11.090226719093812
10.434560261206666
6.645276915050852
-0.35303415584293624
-7.903588995153181
-13.062437532030854
-18.010483469013145
-23.24111969472226
-21.334498108605846
-7.680294177617385
8.717132050020833
18.55187750266701
22.903011865395847
26.20075034773488
27.363021919610947
23.686571710644323
18.99127629954338
13.490522612710844
2.9156606742141373
-10.497029374630273
-24.624360646349583
-37.08121006970392
-39.36335474891885
-31.991448037703186
-25.133610977262602
-16.108289170779887
0.5493255600381117
14.384568348359464
19.162715795281255
18.935776901782337
14.992179765298518
8.829830895655498
0.11879901933002043
-10.408679378151186
-16.785706762435
-17.892306296300145
-18.370285907296577
-20.089465213195144
-19.274767165952113
-14.090798956920045
-7.300535329377225
-2.75258528760148
-3.6816428652682873
-6.326602344894019
-4.014508656942048
3.0149680601692865
7.844936988828176
5.658731381037864
3.6611127181808008
6.380759311331737
5.008060071370731
-4.877211118362894
-21.46806407125502
-41.165535225286916
-54.26837039818315
-53.261060645974226
-43.50804958116411
-35.273123006579105
-30.880186308400948
-28.29229697912299
-23.406370959214915
-16.90761111233647
-14.778906055903793
-12.85094487803411
-7.504177925144508
-1.11581833632164
8.778465592736074
22.73034082431467
35.20976588498311
40.0780477740591
36.13168982072237
24.035936803335563
9.510903423644121
2.991910175931533
2.745114538641141
-0.2918151602055308
-3.4354591510366475
4.426353264383302
18.795335264549678
27.649581845244366
32.327294123992644
33.65224120215808
26.59997351619207
12.649797104408178
4.515131047481712
6.889149164204066
10.585066453664448
11.366529597238047
9.857875576640522
10.23609433344057
11.783291375904241
9.053678833315121
6.677379780471463
8.764030397593162
12.990963047112857
14.071164625630605
7.284602834668175
-2.1124365757153485
-5.660038839281869
-4.465617863343126
-6.049566857228034
-13.329875717511197
-20.670214936196903
-20.107410078967828
-10.319398355274009
1.137610813616425
5.725075553395614
4.662368753985041
1.491508970513628
-7.585030290551165
-17.381311444280644
-15.239770368610001
-0.9233941206173182
18.453735408858048
32.17417495751437
30.738206718775285
19.012512861293086
4.456776428127345
-12.423082397404501
-28.46878549339571
-37.642058208749866
-38.114851972194586
-34.0262548105772
-24.27069109473999
-2.592555406723986
21.387118592485578
32.38404512166982
32.15310945664154
28.01759131625175
23.03859976783474
19.56956252767535
17.879607393589307
19.07536757920183
22.923071065127946
24.58012651718507
22.587633479496976
15.98798741883547
8.043724261193706
6.901523799294392
6.671297439502981
-1.3718615995872958
-14.156192655181068
-26.48437289648094
-33.58556017315925
-32.23636578740453
-26.000710365125425
-23.373181268958813
-27.18546005365448
-29.97118957361864
-26.207340471761157
-20.97076030184189
-18.278535209585524
-15.718340180561652
-12.747328354317343
-9.698176306820685
-6.242790980749677
-3.1034783384648676
1.2889092055336624
7.744408692097779
11.596959988650926
9.567587801232046
7.223294364574815
9.783191616159378
10.97203636039276
7.91460485285188
5.817240752608057
4.315826278472135
3.224780347086083
4.077624194753253
8.7622524379275
19.108446932719676
28.916525004883216
31.641760431222888
29.180823027077313
25.518445622132436
20.158209296043935
10.671496793935509
-4.068465084424426
-22.062354373180618
-39.8183707867217
-57.193410272822
-69.99956917825702
-69.8901707303602
-56.92938768290601
-42.645216532124124
-39.93404019595826
-45.916837768243596
-47.197780497065935
-35.57561627482768
-14.850093969625004
2.4240536664835943
13.901250782508695
27.99295923343906
45.56676675498713
55.38975724321341
54.88462644331906
53.10496345566393
49.499483237968484
38.608251451945826
19.618739155192223
-2.912231965378351
-20.60122737209976
-31.21131185077285
-38.60758214328012
-37.796105986780574
-22.910938935430615
-5.010624507310293
2.7253481573241753
-2.020827724102212
-12.945203117325248
-24.142850272803496
-33.62847554410302
-37.38275617604941
-35.181981363697986
-26.581510409134403
-9.774521849198038
8.099364897132304
18.041758612617837
18.78510326605603
14.803398620138019
13.064704472812604
18.104457567082868
24.706786914247036
24.162900001799073
18.851754906573138
18.57444184639638
19.965973461949126
13.813779606219612
4.4074439577402975
0.5076016762595871
3.826073739952343
4.923266153009139
-3.380307428357176
-11.957100238884713
-12.756289481961515
-10.950453702362248
-9.941685772166581
-6.409761058189564
-1.3931261529590993
0.9758118983972444
-0.7896137675929129
-5.701782303688166
-14.15829136072255
-25.40463225577628
-35.819253671200634
-44.01857725739718
-45.68964660640841
-41.604441956593895
-38.38516669554009
-34.33894447645097
-28.834034700181046
-23.796924308680303
-21.16859358836832
-21.873495542428984
-18.539061019434186
-9.934803209867868
-2.4484681680998603
5.923284039259312
14.518338856167743
14.607958168228556
6.254605486836392
-2.978050065397686
-7.877048966938768
-4.591361196121996
7.59532653162434
24.063692553146844
40.43329770030681
48.307626039565164
39.38441679905945
21.362768638854877
2.4330506607043443
-12.351701422195518
-17.82409920527435
-21.666408160684593
-28.740721226103528
-35.43158128210795
-37.97142562012598
-36.28456284826132
-34.8497836691907
-33.0223685725547
-29.327532480403338
-21.634154221505238
-9.192501670603653
2.6604927725522445
14.821778855279867
30.583704513208218
45.152796554784466
51.77158090383624
52.174037761526705
51.32588800152337
48.6882925188014
45.092243611754476
41.21740114697758
36.589280901030605
33.612708067030276
31.62727456777054
29.352558981014802
27.975289465379802
26.95371794882258
24.10724292428584
18.520789716610274
12.78327571311795
9.20956165097824
9.800286901856465
14.320346859674668
18.25259686889736
20.457106169165353
19.021653818523355
15.511774196361214
16.169722109692824
18.546154198273
18.419134482899384
15.475375941072977
13.658101158333857
16.409291261174683
19.915133474474306
20.126517366070345
18.226510752331006
18.498826099079807
19.468194131122935
17.951173929847148
16.076498027037424
13.18353932960566
7.816295630496526
4.840392406034991
7.541191831436939
10.180035882694293
7.82643989990922
4.091120795484686
3.5541147617937847
5.131336405251024
5.983515835985437
5.433095779897869
3.8896828359218745
3.1211760765023153
5.6896480080394545
11.49633358301864
18.124803004949307
24.114315471936983
28.97366017726981
33.36501417002652
36.48211071764767
37.17912937664708
36.88917267424676
34.85758078181209
30.05172682627285
22.435887166279656
13.661539263041382
7.503699992627208
4.353164871337881
5.298416878886779
9.805996298624857
12.02342667181313
9.149125619533619
0.9994869253759738
-11.582703481786229
-25.02433677408127
-36.34081737723971
-45.987701096348324
-54.87291456630948
-60.9149953910435
-59.26117059090157
-45.7899864966774
-23.94400298428114
-2.9874745156730134
11.123489620243774
19.196441044964164
20.655153507152328
13.985554941472623
3.0275765239322654
-8.916779289900854
-19.156196052549813
-25.937404175300763
-29.056501596403812
-31.40774086181999
-34.62882981694677
-32.57269073878433
-23.0251052046942
-9.768493420598926
2.3809086137273203
10.984035107097219
17.287685220477055
24.124648614251733
31.11818638591155
32.150414837250835
26.499844662991475
18.104062156534305
8.734208794966408
-1.0869814938100706
-9.544031053556314
-15.665390356222085
-20.970307148927304
-23.78976365924227
-21.812298521176434
-16.8150954638231
-12.446645933609508
-9.562000770838651
-6.403394308348544
-1.8638904817619997
2.73616662844414
6.413800454569977
9.743965554446943
11.679770569470332
12.7684628542954
13.75869089767176
13.1247335046447
11.129645518228722
9.811485862646768
9.480449261844194
10.662809157496525
17.230584802444678
27.736067581018666
35.47550765789137
37.77471703679099
34.52642245410596
28.62056760627616
23.12205679507398
18.458870451084426
14.33457785314371
10.301635176330763
7.976594900369307
6.941661336227878
6.665216207417054
7.890361468478835
9.413110967830926
10.67373311267344
12.24296862557453
16.30587091989978
21.595460271531323
23.89414901595763
22.992027931486614
20.829736867607743
19.808148490775427
20.296185111646114
20.23951442152437
20.310288035250206
21.760905808562807
22.796759314214075
20.56480729426397
15.154478604388787
9.960604799957867
5.8753362273997185
2.29324819110609
-1.650268535184053
-6.961454994210614
-11.936819440982593
-14.952918190094278
-14.186432617243842
-9.382660843884631
-3.338748492818517
2.2882498143186583
7.453823072511797
11.959510343386
12.664493527855758
8.10705489689254
1.5621382118151947
-5.470547319130998
-12.302193978089305
-17.705504714610427
-22.20963153930958
-24.92630293816465
-24.258078272517405
-21.895483903491833
-19.598765212716486
-17.55574393305961
-16.509492853675255
-16.348984692449886
-16.460247750109833
-16.822951428150574
