AAD_Filtered_TADAS_FILE
AAD_BASELINE_CORRECTION: BASELINE REMOVED
AAD_FILTER_TYPE: BUTTERWORTH
AAD_FILTER_ORDER: 1
AAD_LOW_CUT_FREQUENCY_HZ: 0.025
AAD_HIGH_CUT_FREQUENCY_HZ: 40.0
EVENT_NAME: 202302060117
EVENT_ID: 13194
EVENT_DATE_YYYYMMDD: 2023/02/06
EVENT_TIME_HHMMSS: 01:17:32.00000
EVENT_LATITUDE_DEGREE: 37.288
EVENT_LONGITUDE_DEGREE: 37.043
EVENT_DEPTH_KM: 8.6
HYPOCENTER_REFERENCE: AFAD
MAGNITUDE_W: 7.7
MAGNITUDE_W_REFERENCE: AFAD
MAGNITUDE_L: 
MAGNITUDE_L_REFERENCE: 
FOCAL_MECHANISM: 
NETWORK: TK
STATION_CODE: 4619
STATION_NAME: 
STATION_LATITUDE_DEGREE: 37.58702
STATION_LONGITUDE_DEGREE: 36.86616
STATION_ELEVATION_M: 633.0
LOCATION: Kahramanmaras_Pazarck_Turkiye
SENSOR_DEPTH_M: 
VS30_M/S: 545
SITE_CLASSIFICATION_EC8: B
MORPHOLOGIC_CLASSIFICATION: 
EPICENTRAL_DISTANCE_KM: 36.73
EARTHQUAKE_BACKAZIMUTH_DEGREE: 
DATE_TIME_FIRST_SAMPLE_YYYYMMDD_HHMMSS: 2023/02/06 01:17:08.5005960
DATE_TIME_FIRST_SAMPLE_PRECISION: millisecond
SAMPLING_INTERVAL_S: 0.01
NDATA: 2267
DURATION_S: 
STREAM: HNN
UNITS: cm/s^2
INSTRUMENT: sensor = GMS+/GEOSIG | digitizer = 
INSTRUMENT_ANALOG/DIGITAL: 
INSTRUMENTAL_FREQUENCY_HZ: 
INSTRUMENTAL_DAMPING: 
FULL_SCALE_G: 
N_BIT_DIGITAL_CONVERTER: 
PGA_CM/S^2: 0.025
TIME_PGA_S: 
BASELINE_CORRECTION: BASELINE REMOVED
FILTER_TYPE: BUTTERWORTH
FILTER_ORDER: 
LOW_CUT_FREQUENCY_HZ: 
HIGH_CUT_FREQUENCY_HZ: 
LATE/NORMAL_TRIGGERED: 
DATABASE_VERSION: 
HEADER_FORMAT: DYNA 1.2
DATA_TYPE: Acceleration
PROCESSING: Automatic Paolucci et al., 2011
DATA_TIMESTAMP_YYYYMMDD_HHMMSS: 
DATA_LICENSE: U (unknown license)
DATA_CITATION: Turkish Accelerometric Archive v 1.0 - Disaster And Emergency Management Presidency, Earthquake Department
DATA_CREATOR: AFAD
ORIGINAL_DATA_MEDIATOR_CITATION: : AFAD - Disaster And Emergency Management Presidency
ORIGINAL_DATA_MEDIATOR: AFAD PROCESS SERVICE
ORIGINAL_DATA_CREATOR_CITATION: AFAD PROCESS SERVICE
ORIGINAL_DATA_CREATOR: network: TK
USER1: GuestUser
USER2: 
USER3: 
USER4: 
[...]
-0.003658661834873475
-0.008251029407952318
0.0019415054898102467
0.0073344924067078165
-0.002675459627175657
-0.007179782865850122
0.003160794547015087
0.009062427053180342
-0.0017978605292929782
-0.004695933050429919
-0.003994722034427218
0.00858931971628378
0.003148545897371506
-0.010746338424107951
0.0026154107497266504
0.004630905220590244
0.00320274634170178
-0.0045037610591342515
-0.002533645163270003
0.005483225096224323
0.0010011270058901329
-0.0016201640882747648
-0.004790065333572903
0.0019268615994698242
0.00575575326160786
0.001247804774346415
-0.008610197651707844
-0.0008333724053670227
0.009320871567190301
-0.001743802890953663
-0.006302299503673794
-0.001422046712202323
0.007660195674194033
0.0024350468826050565
-0.00510296681083384
-0.004392266390735315
0.003878002208204084
0.008675817061677
-0.006324331926538036
-0.009849679613188334
0.007248652449416505
0.010879933829558387
-0.006667707810151757
-0.004978324965845604
0.0022080616964767525
0.005602193274313275
0.0013149452090295847
-0.011203369478172092
0.0038104801094372633
0.006942576466829637
-0.0025042776231100202
-0.004944309744482828
-0.0009484832045462307
0.00877775461989018
0.0002830776374663512
-0.008525790729168637
-0.0030461687007192462
0.009261325409133086
0.0037642364276387758
-0.006772621667815188
-0.005512737129741207
0.005027315915099755
0.00807980826511818
-0.007402628299176499
-0.004018462756442376
0.0024991447066407347
0.007996163570880165
-0.0052030017593881995
-0.009842983915743331
0.00860584844823551
0.00037868299843276006
0.0027981081862721267
-0.007647763734705961
-0.002709761212358577
0.013790791986301523
-0.0026659989373239543
-0.00820253686830253
-0.00282116610057045
0.010711662629306104
0.0004734745155590338
-0.005293508080165656
-0.00019330814610637464
0.0028954022026050495
0.00543233812389775
-0.009194824052085552
-0.0013423771539985757
0.0056398761018737475
0.00814913276517135
-0.002943434553628615
-0.010031314819868025
0.004177770027553407
0.0071306717870234446
0.0013007017067909134
-0.013763898856017046
0.0033345824098089585
0.012656966251576912
-0.003869844688030276
-0.00819201794940609
0.0006870660971881166
0.009689590181188043
-0.0005941590791914536
-0.007315236808011551
-0.005055902072926853
0.009677672565661414
0.0029458446770727707
-0.009900548726715096
-0.0017768658138423397
0.006047523392653696
0.005972611815755391
-0.006739282564808204
-0.003785818221423992
0.0004030997015198282
0.008264458863707639
-0.0010433693843850474
-0.012570317482046645
0.005664937704306611
0.00930937845333822
0.00038005129842462823
-0.011146642618701838
0.001990780861167723
0.007844898490788827
-0.00024507014244308213
-0.004751744884365999
-0.008130590334067779
0.01202465591421497
0.007232254777173984
-0.01033363655620821
-0.009017751972177676
0.007968470381857053
0.008911781012139642
-0.007264267144431559
-0.005291184062789675
0.0031229291137100748
0.012356133288030998
0.0003813839521111601
-0.009400495441953606
-0.0024441965814975303
0.011853443480363091
0.0033785571667480844
-0.01681152088401888
0.0015286610398076636
0.009244833444976132
0.0025556773064932233
-0.010311492675999446
-0.0035475310223090457
0.011634219151089814
0.003297824872536664
-0.002659301092622386
-0.01333921078502925
0.00642670474200414
0.012230325595645984
-0.006033014741256974
-0.0049602210053051685
0.0003839786409181646
0.010400398246431353
-0.0005967502087666159
-0.010481992431228566
-0.0011195128862920673
0.010972315699234752
0.0032290334175188195
-0.010083465921342325
-0.0028974692781754603
0.009130244434243057
0.005930685802406564
-0.008719072184475663
-0.004775442618286227
0.004985652094453622
0.012549656318878498
-0.005433756481266929
-0.012146983173364883
0.009909545764422866
0.005723408421388548
-0.001958559570106982
-0.0074523425829827435
0.003588161698187346
0.006194208313606157
-0.0008284160355844145
-0.0023502892816966527
-0.00764492857934514
0.009761102053741304
0.00519699089887692
-0.007385844075729622
-0.004888700469939059
0.006784911622452804
0.006710368321358102
-0.011293902065741795
-0.0015237447132734712
0.004091489848726567
0.004949292314668163
-0.00020154121315654752
-0.010122156852149136
0.0004333616340198078
0.009563750391406476
0.0011748615425266754
-0.0071023471214921195
0.0020219518996006983
0.0003164870972473288
0.002945736741792846
0.0002296548356612367
-0.002308102670633043
0.009371905313910417
-0.0005092133804569251
-0.007239138277244322
-0.005366953259589399
0.008780550457060589
0.0072471023551058215
-0.009036739981478909
-0.0019103130022542695
0.0060300651325065815
0.005503987602011185
-0.005018530185495674
-0.007884634025771827
-0.00013821192676833106
0.011401099297614578
0.0011952547854668905
-0.01321117714504244
0.0006119039021513655
0.009059988190469468
0.004741583247034951
-0.008552699100807285
-0.003143075804142401
0.005869390984933756
0.003035772658356093
-0.0029765778443662017
-0.007749641607371652
0.005472217586027422
0.0077481830128104355
-0.00400848602237141
-0.00860118188297096
0.006294451062204555
0.0057577034039750195
-0.003975551259927667
-0.0029348538134098654
-0.004240832509191436
0.007993255060519004
0.004887550136152032
-0.005105357328653208
-0.005694172716081733
0.007746025165198113
0.007163048137586345
-0.011562780037346924
-0.0008374736544208638
0.005466308595664631
0.004402575298266298
-0.003884326419124088
-0.0037754786901648095
0.004211056127568176
0.000334967765056059
0.003088973166930931
-0.004980576122947338
0.0003100215292176511
0.005651763496048701
-0.0023685591306429614
-0.004162348772802928
0.0016579244472314605
0.007314687075837987
-0.001849571159661247
-0.004826337198317305
-0.0029089022446267846
0.0063115442152726475
0.004937726619144573
-0.005347699317556289
-0.0004959928377064511
0.009576850028332678
-0.0018385084469266675
-0.011899601075739246
0.0014740850529863182
-0.0006283271406246457
0.0100426235188545
-0.0012857792655191131
-0.00786619811070088
0.009213671176098979
-0.002237197308215552
0.00045653270036042005
-0.00502896175702113
0.0009072524370826637
0.007291272426088959
-0.004006247147994569
-0.007852649705317785
-0.0015673768030311684
0.010523011984252826
0.001214153473269895
-0.001108765522177843
-0.004235510582670925
0.0014783526283692428
0.006014503332343459
-0.005123211724626044
-0.005325165374058208
7.982133718820355e-05
0.007714990902220081
-0.0018679801971147087
-0.004239553392745968
0.0014825061560867934
0.005818368871931767
0.0008563403301387764
-0.0064195265882451185
0.0035651916303419025
0.0035734556528861363
0.0004260247503604447
-0.006595707334795762
0.0014967122704798923
0.007565755535825876
-0.0031800187419476398
-0.005545483856746865
-0.004525543955124163
0.007114730820117209
0.006076560643860067
-0.0018350910586277989
-0.006820903231309783
0.00043281992117866875
0.01006638555115425
-0.00034306146250346405
-0.006412489924455818
-0.0023309903651554196
0.009509892554809276
0.0022899060870598237
-0.006975844170019834
-0.0024434672659732026
0.005837545822188363
0.004158901284566521
-0.007145569153052533
-0.001576026376546951
-0.0010737785473996493
0.005335032172396833
-0.0002878020315037796
-0.0068326947208068815
0.002977384477356817
0.005426905297517898
0.0018165425445967455
-0.011830875684604867
0.0008192591818136233
0.0065324856641899316
-0.0016788404628596187
-0.003573244925888221
-0.0039726821246646605
0.005644058446616897
0.0046586197204914566
-0.002885022759011287
-0.007075698984270888
0.00898388704874468
0.0043226445000182495
-0.009776097803017258
-0.0006243869800184085
0.002952159394470232
0.005632335247368991
-0.002994029634265771
-0.005849404833079674
0.0005147191458233696
0.008640894163256354
0.0015485518192067357
-0.009543833280727146
0.0029774566643597992
0.005615596240276627
-0.0010297632669490392
-0.006073112307863649
-0.001339067399711324
0.0035059225764686344
0.006128064806060995
-0.003645113223179368
-0.011010831417064194
0.007847855872884902
0.006860187915424207
-0.0014712246280027435
-0.0052646427816651934
-0.001951834672107036
0.007144316696015586
0.0019140610623196942
-0.004639582641750666
-0.0005129098712174163
0.006402471673256308
-0.0022237775367852358
-0.004689572781655056
0.001277575960611368
0.007252764260358803
0.001845895882350024
-0.01128022412659652
-0.0008560840547222662
0.009323960265898348
0.00353733886147561
-0.0064602885990350046
-0.003908757848834264
0.0036195797119466058
0.003897076957636356
-0.0036986818171216972
-0.006685023690807215
0.0015111602280640304
0.0022377151965920087
0.006368907841734477
-0.0031924547915243282
-0.0038091555747597123
0.007289696109436999
-0.002878529143961524
-0.004363266508979484
-0.003205684543819318
0.004442285086024365
0.0009339264616025595
-0.007080617583769555
0.002301514163821187
0.002618453116844978
0.004802103209603539
-0.002981464856668144
-0.006461574322926332
0.004923807486495574
0.003628230047718479
-0.004538185928248056
-0.004881284425401529
0.002161793213114981
0.005041325797286563
-0.0005495272536745222
-0.005738806145695139
0.0006360247642613181
0.0030745624900346646
0.004178220584091242
-0.00540646223869442
-0.006593631974865207
0.012051949647156628
0.0027375107711086087
-0.006836212022025364
-0.0033234582455060353
0.004890578020407419
0.0014855099807127494
-0.007562663753533526
0.0017586732328720908
0.0034798283799068563
0.003183861563209426
-0.0029434306809519102
-0.002759909218396137
0.003227403685918074
0.0031143463887666006
-0.001734537673402238
-0.007494436609879977
0.0015265444602490402
0.0014421567702625258
-8.64948327112567e-05
-0.0030320067179528125
-0.0013308339805262355
0.006231610230865043
-0.0003722369476227423
-0.007593202134203194
-0.0011605846010502286
0.011049260251244678
-0.002240022133302691
-0.005469197301918479
0.0008887579048915052
-0.000779255966872632
0.004185346210684242
-0.0005049785855725531
-0.003213686617687396
0.00365717630530765
0.007012205888572414
-0.007642523605634011
-0.002131557147508983
0.007219187560314866
-0.0010801017839370856
-0.002343621749085678
-0.0005203954079477251
0.007958607292653384
-0.004013655516167548
-0.00516586045954602
-0.00025705949863334904
-0.00020561567529299674
0.0036871095183140462
-0.006531068643150188
0.004166496682773881
0.007925354778770242
-0.0012549982083907968
-0.005988474629766993
-0.0006277764524418012
0.004680532688392697
-0.0007733290729571914
-0.00034908736721729074
-0.002523616428621088
0.0032902758548798428
0.0016971350866095774
-0.0008283453200432576
-0.0013055873256063125
0.0026632451342327875
0.0035772402498909094
-0.009044308582384319
-0.0004494337371822084
0.0020386053148975327
0.0017482836895645014
-0.001439849350684853
-0.0031460286085156974
0.004978329504046961
0.0033813809717166817
-0.0022801401172494688
-0.00801695728833796
0.006675425420914984
0.0009514432876462756
-0.00966024221283062
0.0018324268617377149
0.004801011751119033
0.0019087129374759867
-0.0038750239226625622
0.001034211101838935
0.0024536321772481305
0.0005500589120053382
-0.004557356619228106
-0.0017531635156249766
0.00329051879355698
-0.0020254769508151354
-0.0030403923094097333
-0.0005582558006869983
0.006605960719503853
-0.007633109933812553
-0.00370480497305823
0.008413342818775638
-0.0007085292962477828
-0.004101782276707013
-0.0021703836313050166
0.009588367252274082
-0.0009208930519912918
-0.008114858145128965
-0.003458216326507148
0.004566646909993824
0.006156763151112583
-0.006618623484230541
0.0014611578964645786
0.005577870772477274
0.002295220222274994
-0.008385253390874009
-0.002737884404867781
0.006936394722850953
-0.0021150849373315714
-0.006324486468277958
-0.0037766689452057097
0.011983060310293503
2.105483956452667e-05
-0.011530697281852636
0.001816476136476486
0.010895176971842039
-0.0023688114173144167
-0.014035723755870895
0.007017442017709143
0.005894804474271523
-0.0064802219199055055
-0.006833433851692972
0.003942477820577185
0.005506323792105468
-0.00686194300615432
-0.0050627433541365055
0.004026816349928295
0.010759431342115836
-0.009736341898635464
-0.008696167833272045
0.012151801759764639
0.008966399630124243
-0.007069024704205009
-0.010653723223956978
0.012550802781408806
0.006402580531912354
-0.010863338543044748
-0.007151594947999729
0.009003274000488545
0.004684989028848455
-0.016249968541801472
0.0003127230824246163
0.016184201081520088
0.0037639434865703444
-0.019515023876662728
-0.001753333143898594
0.019588183514655137
-0.005418293239420895
-0.01267461793582212
0.005152581257390938
0.016060404575565793
-0.006963399331150757
-0.014636748545869775
0.009873515286250651
0.015411977304635248
-0.008602841570966514
-0.019490651688722747
0.01626611419278622
0.014502043256493834
-0.016572490675316617
-0.008176084847746512
0.017355669238608245
0.007073193605012592
-0.022395840411132496
-0.006376910932307288
0.0174291912222068
0.005476934313555954
-0.017456514397658548
0.0009090266453107632
0.02193715227046715
-0.005658795677846105
-0.020218242418385046
0.00898223232579671
0.018798605726764592
-0.014452877660928322
-0.010440985296790538
0.013602753733112084
0.005457896837909203
-0.014709600738878415
-0.007162129127900224
0.019386510122653553
0.0029001942015996736
-0.014978139164866322
-0.0003643337271892184
0.015520787327788175
-0.0037626443032392435
-0.018439270698099888
0.009249207699131295
0.015131744821918022
-0.005530427252066588
-0.00990139728739783
0.01330972629584226
0.004217719121437919
-0.014680739919919248
0.0014301716719201131
0.008712104213726443
0.0024411323479389757
-0.008678854149973731
0.0005228105819632542
0.008381868967565211
5.471089731524096e-05
-0.007859029128508551
0.002062007289799522
0.009551590538052244
-0.011913843298324886
-0.0025378010572536607
0.01150931193843676
0.001399903028398746
-0.0067858358916701245
0.0013113890171741833
0.0083582119801394
-0.007001975358827156
-0.006424219349632869
0.004661727278243797
0.004694941750154821
-0.007089886771774555
-0.005586095166030226
0.005614516846290342
0.0055871613417342
-0.004993075771528093
-0.006850860901574378
0.013507615477357177
0.001359060732169834
-0.010883929596195009
0.0026171174760597237
0.008088708296032018
-0.0017669149518760453
-0.011838441230598271
0.0031077632370270273
0.00725570066363642
3.4766785137145984e-05
-0.005698208647790526
0.004088501211827833
0.002040509413335353
-0.013185657368985464
0.002426228427039997
0.006824832711747053
0.0010448160691114146
-0.0026807932491185633
0.002746342494692894
0.0023309594429434927
-0.007064439819279089
-0.004816986754124458
0.002280554259245991
0.009245879822994095
-0.005878104134309923
-0.0026798573646104468
0.007847528407573998
-0.002815101170920551
-0.00972972354527052
0.004390520118209636
0.010522817164411575
-0.010059335095682468
-0.0005492959350008471
0.0028448389688551347
-0.00163125070782258
-0.0009185300967345787
-0.0034337734538979867
0.007453753477932577
-0.00045245887438726527
-0.004268421788704711
0.0014052883892220515
0.0041985397941292826
-0.0033060361642403588
-0.005359893443955239
0.003926307170599127
-2.1718459246157376e-05
-0.003304421185354353
-0.0045666300573788034
0.004902683067771915
0.003406387647779861
-0.003874508650334173
-0.0017308791598085902
0.00031781634639826213
-0.0003325860539135905
-0.006075198872325075
0.003520440072519334
0.002746864073113792
-0.0021567247699421635
0.002300843713010541
0.0010083159756701238
-0.0038226017995803374
-0.0025327797694254797
0.0017154876064148098
-0.001428804552102208
0.0015447967749158556
-0.0019306710920832667
-0.0007470543214668846
0.0015914006363211767
0.001769666043653437
0.0012833192702991626
-0.00043201894778069507
0.006514652676236083
-0.00761357853763867
-0.007464760478030746
0.0012938622318767127
-0.0017920572816125316
0.0019364047591903522
0.000819407764024289
0.00040567202851665257
-0.0007561823831817508
0.0015999016377704466
-0.002737571469313059
0.00045368794972118406
0.0011807617470050097
-0.006049620700363396
0.00234370718472592
0.0004208592221560659
-0.003109085932339466
0.0006529451414467596
0.00500846616428383
-0.0021173522456651743
-0.0004482168662540396
0.003994433504152036
-0.005132124692958559
0.0006963444700115608
-0.0007019595283879747
-0.0029286239600435572
0.0009531436850230685
0.005247062465137961
-0.0008682002775889576
-0.0030467791148465783
0.005513677851360173
-0.0017921130228286753
-0.0012073763045393842
-0.005224976457347183
0.0038836332081489664
0.005120346177423257
-0.008256557432773032
0.00405141598938815
0.0040522030256947
0.0005152058835576534
-0.0074837932058342774
-0.0004596764631696722
0.008900534278252634
-0.007440520643220672
-0.004207223413004849
0.005326160738159983
0.0016405782370300804
-0.006677746859994809
-8.07268786190234e-05
0.007340835306758125
-0.0011528422546354586
-0.0097627281466073
0.00012461201690586085
0.008223493526916353
-0.005124225071495326
-0.00028390026796678875
0.0007822145874321437
-0.0019167767137294248
0.0010276371266123463
-0.002823983636069966
0.00012115963006412057
-0.0007893001374506349
-0.001305010650417046
-0.0006474750197953049
0.00470154693630956
-0.0025365575089660508
-0.0025720533934601958
0.007052385647146135
-0.0023654967046516985
-0.0020773404130252854
0.0038543785576021163
0.0021999718073544817
-0.008916086286175108
0.00243983639193665
0.007631457334221644
-0.008546299349322807
9.236780989415613e-05
0.0045156776580193275
-0.0020551184653532038
-0.003410901030005594
0.005711789898071753
-0.0010967039198659528
-0.00194241502536184
0.0035865565198884325
-0.0074634849061927
0.004050778014717333
0.0026924708747811934
-0.005635949038328506
0.0029225686743925674
0.005616449673745149
-0.006151600518679936
-0.0019160511316327715
0.008278123350424837
-0.007506518744112005
-0.00044148951064270617
0.004587982027506716
-0.0011153371814695814
0.0015915071480066244
0.0029536893410226613
-0.001076915446924706
-0.003726797352115551
0.007425998172645438
-0.0025738861786918864
0.00036178644558977657
0.005725049017768659
-0.007008517636578306
0.0012470211917136624
0.0048826335844844955
-0.001876789568596748
-0.0007860178242878556
0.00316786467465298
-0.001985866972679552
-0.0013199243648181376
0.001087785428798257
0.0004483374260744663
-0.0005995928576372716
-6.529720418737378e-05
0.002797851253896841
0.00035537323527766825
