AAD_Filtered_TADAS_FILE
AAD_BASELINE_CORRECTION: BASELINE REMOVED
AAD_FILTER_TYPE: BUTTERWORTH
AAD_FILTER_ORDER: 1
AAD_LOW_CUT_FREQUENCY_HZ: 0.025
AAD_HIGH_CUT_FREQUENCY_HZ: 40.0
EVENT_NAME: 202302061024
EVENT_ID: 13207
EVENT_DATE_YYYYMMDD: 2023/02/06
EVENT_TIME_HHMMSS: 10:24:47.00000
EVENT_LATITUDE_DEGREE: 38.089
EVENT_LONGITUDE_DEGREE: 37.239
EVENT_DEPTH_KM: 7.0
HYPOCENTER_REFERENCE: AFAD
MAGNITUDE_W: 7.6
MAGNITUDE_W_REFERENCE: AFAD
MAGNITUDE_L: 
MAGNITUDE_L_REFERENCE: 
FOCAL_MECHANISM: 
NETWORK: TK
STATION_CODE: 4612
STATION_NAME: 
STATION_LATITUDE_DEGREE: 38.02395
STATION_LONGITUDE_DEGREE: 36.48187
STATION_ELEVATION_M: 1340.0
LOCATION: Kahramanmaras_Elbistan_Turkiye
SENSOR_DEPTH_M: 
VS30_M/S: 246
SITE_CLASSIFICATION_EC8: C
MORPHOLOGIC_CLASSIFICATION: 
EPICENTRAL_DISTANCE_KM: 66.68
EARTHQUAKE_BACKAZIMUTH_DEGREE: 
DATE_TIME_FIRST_SAMPLE_YYYYMMDD_HHMMSS: 2023/02/06 10:24:33.5540850
DATE_TIME_FIRST_SAMPLE_PRECISION: millisecond
SAMPLING_INTERVAL_S: 0.01
NDATA: 10501
DURATION_S: 
STREAM: HNZ
UNITS: cm/s^2
INSTRUMENT: sensor = CMG-5T/GURALP | digitizer = 
INSTRUMENT_ANALOG/DIGITAL: 
INSTRUMENTAL_FREQUENCY_HZ: 
INSTRUMENTAL_DAMPING: 
FULL_SCALE_G: 
N_BIT_DIGITAL_CONVERTER: 
PGA_CM/S^2: 494.909
TIME_PGA_S: 
BASELINE_CORRECTION: BASELINE REMOVED
FILTER_TYPE: BUTTERWORTH
FILTER_ORDER: 
LOW_CUT_FREQUENCY_HZ: 
HIGH_CUT_FREQUENCY_HZ: 
LATE/NORMAL_TRIGGERED: 
DATABASE_VERSION: 
HEADER_FORMAT: DYNA 1.2
DATA_TYPE: Acceleration
PROCESSING: Automatic Paolucci et al., 2011
DATA_TIMESTAMP_YYYYMMDD_HHMMSS: 
DATA_LICENSE: U (unknown license)
DATA_CITATION: Turkish Accelerometric Archive v 1.0 - Disaster And Emergency Management Presidency, Earthquake Department
DATA_CREATOR: AFAD
ORIGINAL_DATA_MEDIATOR_CITATION: : AFAD - Disaster And Emergency Management Presidency
ORIGINAL_DATA_MEDIATOR: AFAD PROCESS SERVICE
ORIGINAL_DATA_CREATOR_CITATION: AFAD PROCESS SERVICE
ORIGINAL_DATA_CREATOR: network: TK
USER1: GuestUser
USER2: 
USER3: 
USER4: 
[...]
-0.13648813084405395
-0.15202405838073196
-0.14489191496411422
-0.1474969938771566
-0.14582149967790764
-0.10928921732259902
-0.04765915466684768
-0.023555362182967072
-0.07550450998996253
-0.1875718339889222
-0.295902860662621
-0.32389725586294144
-0.21968496809813215
-0.023282829171359553
0.09686379949373512
0.05157059167450163
-0.07299107420397183
-0.19466151924379999
-0.29854327199532404
-0.38841593279618747
-0.44003186682724643
-0.3445352719750709
-0.04945558780938369
0.27644913467896276
0.42262400161300306
0.38952034397702295
0.30854683397997196
0.21100572024916783
0.02817163613803895
-0.11627392002480022
-0.051123480187693596
0.1351580559637033
0.34544389077187776
0.4395891681424662
0.2696217425074848
0.04579126107159058
-0.0787522724191664
-0.20267735587308325
-0.21121866316952567
0.061698809062633406
0.4252601403599772
0.3696794106642062
-0.14811000452490733
-0.5294435163491179
-0.7127739717655409
-0.878473328175184
-0.7749618204443702
-0.2873598688078082
0.5236462674579092
1.248892545264063
1.315701309714982
0.7501431531665572
0.1457103295945343
-0.09672793840026087
-0.22614978224719956
-0.4789090543443493
-0.629729865213446
-0.5296321525515044
0.009261300819660891
1.0073520183893176
1.4436700647718381
0.6359234105834696
-0.4119360122432483
-0.8613932014500622
-0.9279909493366795
-0.5439028949707395
-0.014117085108125203
0.08913835878117876
0.16718036403817918
0.1584897814253803
-0.3817408650748511
-0.8900002055250389
-1.1174622744876581
-1.3284149583386045
-0.9824370147577064
-0.25178555934371516
-0.3589688190284564
-0.8284634605130788
-1.0868512863476705
-1.9820291546647633
-2.77415863526357
-2.410827003985928
-2.148135285560995
-2.2707591534659715
-1.6485795845217401
-0.6990765326581655
-0.581799195946456
-1.5689404443177106
-2.5869674765511124
-3.0457622112083853
-3.7144617231726373
-4.327452801058354
-4.2855089848978904
-4.285388302714826
-4.403342837131079
-4.0838192410268395
-3.7542329333902327
-4.196595769782849
-5.208103593669817
-5.726784745637542
-5.042928933064616
-3.666419152444356
-2.6729652653044793
-2.4958966873961135
-3.233382040491848
-4.582648740035399
-6.418433478214191
-8.382544181772865
-9.305401952858332
-9.454295997173281
-9.245732932065193
-8.242458619513407
-6.891395250539368
-6.217471736696156
-8.019056751938473
-13.235767666055054
-18.513056103856474
-20.151200459027486
-19.291835898718006
-18.99973490753969
-20.31623253948064
-22.525482043198824
-23.239794346304443
-19.371745570582515
-11.49975999162273
-3.086320066970253
3.8990130151680042
9.953755365455708
17.954996984431993
25.91264960774443
27.29013606140401
22.923023974066567
21.09441391860325
26.209966621330054
35.69638151839029
46.18086245348853
51.690209284403544
43.237192343847795
23.637940307297455
7.100012359242605
-1.527582158979821
-9.823544959422305
-22.63963070750952
-35.862973589658374
-37.832056441120336
-22.17591566235925
7.7718620280526505
39.07727091677309
49.98735630835506
27.077791174812358
-23.603148630750038
-84.26190204144528
-132.25345589549678
-153.3268145631546
-146.3096916962609
-103.61938735415535
-30.963735995720608
43.4541294215492
89.400736862457
103.33900074071276
100.77276177448759
77.34745712086573
33.23389379996621
1.8924620015549776
-18.008972501029955
-47.9795374205986
-39.299623857486644
35.448651686550654
106.50170533604232
124.59611223330471
120.98678450964461
103.33364923435431
51.85154229111234
-1.1256753039673575
-26.38582268017084
-63.77831074854349
-108.97144368116007
-98.61724679718427
-18.900377698132825
55.81927348161952
54.20338626941071
11.534180990091453
-29.837180048301654
-53.055773768527516
-49.502321408600125
-53.8280586442298
-82.84121704843784
-88.0007909408243
-69.57613676692374
-31.56936930534424
27.659170843507823
105.38995218236094
202.03683325113568
237.7796183866018
181.4021012101118
64.70417556207028
-61.36580853701296
-162.4019192183641
-202.72576352431247
-145.87476658660717
-53.16605490601837
13.49114283166904
39.52102115757927
47.59196247997804
83.39437376844684
116.15219497979393
93.465962802682
24.347500984767155
-54.85737399557887
-106.4276663557583
-114.79335330897361
-106.26918607712483
-78.62859238290002
-44.27366495007989
-31.024322770061342
-0.6792063976170976
31.681324997084687
24.597074180702613
27.816164796433537
60.42287127831526
46.68785510824804
8.833600555621985
-20.266892220881804
-54.910838142309636
-62.09755341087599
-51.87660211076885
-39.871067095073414
18.265641062115655
66.25147297554695
27.920152269383806
46.600902780833565
100.94948714499695
76.62850842572908
79.66574677837549
58.84774015497121
-32.984716884870515
-36.82803050086941
-4.609264858442805
-52.202698972230365
-70.23118927594244
-35.46696058311175
-23.18874856522754
-10.739329687616703
28.81901913188868
50.36958968334065
38.30628714508204
77.17036784965133
110.8311436960318
42.71636689302739
-64.2397285892659
-113.67778270580112
-75.8756519103345
-24.960116500071518
-15.67993888305266
0.884071040874309
40.48035348249117
42.691357419627195
33.42407260043758
48.54156357875148
43.58791555165799
13.234510044058693
0.6837657626713552
-39.514907786966944
-106.6009587850741
-93.77052273425477
-12.633738432842833
60.10392274596014
85.24243100434852
68.24019480501843
41.19212312534188
25.242660449891495
33.749009735013225
60.42540600847964
75.47702776055803
13.670253997168665
-69.97804114767742
-76.81948946848057
-79.4524537558866
-102.82768438913313
-56.54048631448488
39.79058944884459
70.29363072208966
28.153173761504856
5.875475894632326
-2.1790730917793066
-44.326359247525325
-73.65929573728361
-66.21185423472086
-9.75942993044741
30.72188952021003
-2.201416342305059
-24.491799969358674
2.496903576615914
29.22847283030447
35.916364268305756
41.89923092309058
-1.4615840941885923
-50.68818459450477
-26.991864505212074
-0.19093574597067695
7.047233164811597
5.914525771344725
33.395341846608055
66.40473029115442
53.29517411416456
31.320492154179824
9.642270249172169
12.10591722345515
22.05066556879544
32.898107167054796
29.395093019757603
-7.253275664694813
-28.701965238367396
-7.713185276734474
18.204794135637584
-0.768714648773192
-50.279751335435634
-71.34426092562725
-52.890209097295106
-45.976756795967944
-13.706626584888069
76.42455109178889
70.0750053268846
-27.725107104002255
-33.95002468683342
4.465929280763767
-5.8274418172834554
-10.167575612495645
-7.746202140794804
-26.222884625477914
25.85931020458662
45.788676141962405
-12.64921279819599
-15.773390609660973
2.7110571219393385
-2.3393774753012693
30.801984931910443
56.06100086136187
12.391970970667094
-10.782904387659993
-47.31184043841241
-57.8281687797284
-5.619514214563155
15.944397256318606
31.94768316265685
33.1930273570847
-29.32150827528303
-33.9884972793424
33.504247460236016
0.7337788289435134
-63.46713770005208
-68.08993571277283
-86.90446468379861
-82.71337938433426
-63.60214046629822
-75.34793149412637
-62.27868737133837
-32.599901074832985
-10.809505999852755
32.502797658251154
49.63172184926474
13.172064131409039
19.157711598165903
60.89475083148132
43.146054457713824
32.58866443261805
47.16182640762821
31.747519402179712
6.888149908373657
7.237268016182416
59.08860590833451
81.07223565104621
73.95520436255248
72.69109243721431
53.787709631852316
7.750440569374718
-3.608604209960264
23.888726752387445
-24.982192298494578
-23.58279224694325
35.83724107446607
31.41927763692843
39.84547374487789
36.78694358438475
-59.1988114842695
-123.65127212996303
-57.53228806894073
4.8827956805004495
-21.309617433279612
-60.08787166190448
-68.58722177917853
-26.564151192003987
34.48957280907177
29.379290958898558
-48.96454491186001
-61.88874738574694
-12.459837000098908
-2.773977782611621
57.984284460319806
118.4764879469601
74.69826872384941
16.139853011439143
4.39134218061349
-69.4953323336529
-99.86094606441158
21.921165198250876
25.662829149483702
-38.53039196140977
38.98944162937265
52.45614374786806
60.960564121918374
120.62314219245852
64.02929372505938
-46.76404619099783
-128.9281431999414
-128.87499471983057
-34.66595956130809
43.12911353074327
42.04013191327648
71.14799164299247
101.13813996454677
14.344126676793012
-38.28974102212579
16.748065190663393
20.483622381486573
-25.80382484466869
-49.1851412881394
-113.17109069015187
-164.8200325131831
-24.452948408752235
89.73387617570022
30.342106994294152
51.16777691882361
104.4773240356319
92.69039890311058
12.161262928272446
-39.487274422984676
26.42493496681382
-2.1606509209015234
-35.43972412400822
-44.88342106562817
-104.37316584217125
-80.55704027544908
-25.351858574233827
7.4003296804176095
42.53238976350042
64.5567694648069
100.23389746744138
65.82779581817033
-37.37803044950849
-36.79823471007177
-45.0347116391983
-103.66914753597362
-80.23838113212123
-53.30041569453194
12.510979244438353
55.49306987921803
18.29616624971938
-19.882769948679407
8.731919727146286
119.21619996673483
73.6907537154178
-25.615377043062722
-60.791433077867474
-67.18524537486918
-47.57927986753431
-85.20776398699681
-95.94888698624625
-0.46532937518057055
43.48579944821272
49.081567527190614
26.482540506438113
-49.34165592657288
29.231167489796903
76.41929430061742
45.713137978648575
-34.51552745676563
-102.59975371852207
-10.559292282067478
39.0712549914013
77.66877205416837
22.50474426750747
-93.43161275524413
-25.824602673777775
81.34176981376692
91.67896585765784
49.7171606879576
20.132942821469985
14.46526494748321
-10.332138911638971
-24.13255076322907
85.93510760571414
141.57741070009803
14.647344280993245
20.890111139244695
88.99419903537107
4.997733820130494
-21.293057232857823
25.0326262879099
-68.9466896126746
-149.05681789719665
-36.00961016551446
95.14050838945263
101.66048775515749
20.521184820612717
-72.54032275535641
-134.48204085964875
-112.69368326320057
-56.12096876479598
10.330565073781328
-55.66106875951829
-104.5130385478157
-34.20862567334392
-23.133671636395672
-10.046963266893279
23.495612239616154
109.55631764849322
95.97332609436404
35.72709954509222
96.72152107649907
34.509638530007244
-54.65311430229507
26.85131399484157
27.413967249766547
-7.004248043979728
48.09487727903799
94.50520725236282
17.83480722348999
-24.760348325376487
-43.15287013619463
-69.97946958730466
-71.50630672936384
-10.334628070451025
7.9868869538830145
-149.34100953346544
-136.32586408980654
-40.12266250187501
-63.934526568549366
-117.93014036919406
-69.23931720952142
23.592566804268415
77.99274593076031
-36.85434809766255
-56.80078156658686
22.505205716316514
28.624425058397954
22.52439138183969
-36.28660199485741
-25.64147305862129
89.6983193162723
131.00946456654452
68.2268869063392
87.68727447164136
104.765259577441
214.66956561155735
277.5425425950588
132.88363820638833
-51.28813617614626
-58.89815085192104
124.08671107945231
103.90088811069276
-24.90667783846284
45.01352510902925
46.91139091921098
-111.82451074402674
-97.1698229815857
-0.6135857953828004
-22.603731299413585
-28.235150467726626
-28.666304480018052
-73.87711834511505
-135.86782028454
-68.15486970674709
24.343785381153324
-61.0917394507234
-85.46062479848628
-16.709723226523696
55.22230207127618
171.94139035782356
192.6712601338957
149.68738006990282
128.9073810431078
190.7211246506533
252.69015068425784
98.07785378494614
-12.624255237051315
69.82761995673518
79.2747286298266
26.834934950770712
-65.11734824287984
-97.1766886431955
8.788398067853915
10.92746590835755
-22.487266606512545
3.7406352711622723
17.375742953449308
-30.690359891042146
-29.298941359019707
-23.635687712873303
-101.63194312833438
-185.76787100621746
-83.6327273624909
75.30164020949141
97.8034243246317
242.20122823290112
237.62681849953677
-8.957265952872941
-65.9764403758608
15.805873433468212
11.3526571844208
68.25682807338835
-8.117282151651393
-120.89272310326803
-57.586479422170505
12.189906170540892
23.168433357807967
59.94876907964487
162.74012869502812
200.8807891880861
144.06397396395087
-72.42848579977775
-95.90919000464135
17.803061912941835
-49.720418433691016
-99.86193822527873
-193.12013265112557
-139.94575913099743
214.94315127906083
208.4692351098774
-23.844625251119616
-11.160843642714076
33.26790776752453
17.368363225689915
51.80620214601662
66.87105983148632
30.73860700970159
21.78736739911809
16.076163740315206
-22.923862682623824
-165.3796447696664
-175.99913968163014
81.26451045829138
129.15824255662858
-51.85579212512168
-248.07216977887742
-354.90925518913315
-57.04925138086279
267.55390084935885
309.2521505927812
365.0413112207003
357.2226003741481
297.991398148182
350.52989173714815
169.05397704054874
-204.56774563569965
-155.1081126895889
307.2793908599857
171.2794295725164
-185.30172714508387
114.02552510509827
92.18684495495754
-235.08314871431259
165.82820159594857
518.0834090949596
223.9939359087289
57.91682129702743
61.452294021198135
217.7225119255461
381.1184581582841
135.16070742897438
-11.365958774298921
16.63239096857401
-47.86013320177012
-30.19343327151687
-40.23862013258649
-65.29072921443691
-91.1461979878708
-180.0634373131957
-102.96620207841686
79.51497252962096
-22.944713388150106
-244.1535714411018
-165.3343858244077
42.96511437447759
89.14429119320268
5.491758658535906
-66.44150445049748
49.56639469072225
189.1216413235607
220.70975794948407
171.98222672441855
22.241825830648015
48.174600405955715
157.27742746033837
172.9583737191249
104.95902274564496
40.33191764753152
-15.361215373963287
-132.84484497370175
-74.309226485751
27.97320858659134
-15.401531866916029
4.661856927792089
3.626443043014241
-65.01581713899807
-89.81698266203736
-112.00179055433102
-109.44885412528326
-172.8336296781894
-357.7535491361001
-367.11540447373386
-149.67736557074693
-163.6577433586987
-334.4309771366385
-202.42754528272485
-33.53051227796585
-179.47766018816822
-291.23824039141357
-199.02566261015545
-137.77983097314896
-252.80040913754385
-304.3897788666874
-139.473478283558
17.427741535723868
119.35813790801305
71.32083684399004
46.05644228800243
132.7501723306054
75.1620063338479
89.84263748304178
119.32562675843111
40.27321975815064
86.00222513680728
-23.691356618491778
-172.3477071001799
-115.59219738020104
-188.603487683307
-288.6160208935184
-308.15718548785264
-315.2729626667971
-178.5449928265982
-48.68900748367501
-166.80859158494144
-157.04173041920495
-33.06090457154574
-195.22536142765279
-344.6622852675625
-212.3751335162673
52.08386612066896
50.19270435594553
-53.26482441880361
-8.48254434546032
-1.1250270436597707
-13.247119793831436
-92.88722790957034
-151.74693274663298
-92.98348769755114
-100.321689601805
-244.5348039299868
-348.4593654958329
-250.67264991150898
-48.0569990333822
49.30186445086525
-6.0088028223027905
3.708881300674256
76.87803934641582
-5.269499996866597
-140.56654030398383
-87.35726751335845
3.133039868557779
-10.628466946761677
35.2968517797212
-33.747932441943426
-130.80778634815027
-18.607917495910957
-8.983973229330454
-131.41595276512237
-135.62589765396373
-17.51905363615482
29.755752167327287
-76.7827158334657
-27.046778948052417
195.34537005037208
129.9573069270607
-140.66650709790176
-169.7574040911912
44.10233861421985
196.30694521837412
146.15607897299927
16.533317733543612
-148.56162837897762
-293.26945659399433
-203.59049686878802
5.4707569928146516
8.421437693384576
-130.10711471769469
-152.91822416757657
-106.9170666567097
-101.46779563148445
-9.21326760969803
37.34017075215443
-112.84222275757543
-246.21473160029527
-94.7662270174456
259.9119287927446
299.65930919193903
40.55130715205805
-151.39251434132063
-215.6490790847172
-41.28428661761576
74.09095754830706
-24.108728270035648
-8.424924686824502
37.514241450125944
-80.17574681700908
-250.07808505849886
-232.4985322542808
6.6515230960596385
43.53766374847867
-77.8066552455938
45.59136134331261
150.79019777981287
155.68702095992603
101.21266841071784
22.098215018599074
80.56449305854659
58.644628299826174
-15.420916306199437
-5.021617744520501
36.34308019478989
45.03917557045661
-82.41813261234029
-76.16747851205244
142.9932636703855
162.3422426982563
-8.625181720900661
0.8311756905613618
155.428787063559
92.06842224168608
-210.36211649341263
-417.9584814393949
-394.2969265160894
-16.2878396336667
208.50841084545974
-42.70052247975729
-115.7658428192671
-43.29752421575454
-110.43089115221883
-162.47585620927447
134.58446814886685
323.75399707627844
33.36245900768107
-84.98107944667395
18.728467210216582
26.938934795686574
-28.164222371806503
-4.75558697949638
63.988275353618654
88.33143598147635
80.38980088197549
200.5219219950979
253.59613077184576
-31.659953656977635
-126.13496014606984
25.255774234305242
59.22180663278408
129.13504910623018
113.73169707383374
-93.81015514732196
-30.84825393569697
215.722426695898
130.70524114863426
-21.44724021275246
21.405474002411168
-3.8776591418107866
18.136364294433264
84.43687501548054
119.16309263183298
146.81735688410933
-18.693656016526344
-33.102029830955054
47.2613278973864
-54.979389457870575
5.27476720288897
200.4943414385347
128.87418670680813
-20.42967754766729
41.15196078208692
147.93931018468885
126.4091989398038
-65.65629147064232
-106.98144563952808
40.99699051235585
58.3848635703109
49.44995566194464
168.41952334794226
182.25503836090493
29.880814325915814
18.159355394850856
57.525409888297894
-53.61520814189314
-95.8977377394074
80.48789831669674
222.3229450586041
118.68736472693355
14.998668217999734
62.49489433647403
29.34409923056329
-104.82257087571244
-84.35256734239725
91.3757934875769
153.60545923492285
49.84088474885397
1.3981531587323166
76.59041672012594
67.46484007724582
-51.32796032265135
-52.35876467333117
115.19411515093529
253.5527880727897
228.43989334166974
129.0851789724654
18.782166486480733
-49.91191351212445
-6.457773036488465
66.76638729045182
12.82004047398508
-62.550263210201905
-30.920705547368666
20.484518529390904
85.0394289861624
160.68279406940886
186.75616501059793
104.04693484437706
30.577634935221802
-7.40762785585642
-115.62101407761102
-132.03164899958594
-8.09107631420543
66.25067709750978
-26.812145180468328
-125.09540075894448
-3.6778940590421816
176.86436732861358
122.06721120403141
-40.90717230451665
-83.95361890218086
-92.15387021013959
-52.49832075723782
90.12017496700865
