AAD_Filtered_TADAS_FILE
AAD_BASELINE_CORRECTION: BASELINE REMOVED
AAD_FILTER_TYPE: BUTTERWORTH
AAD_FILTER_ORDER: 1
AAD_LOW_CUT_FREQUENCY_HZ: 0.025
AAD_HIGH_CUT_FREQUENCY_HZ: 40.0
EVENT_NAME: 202302060117
EVENT_ID: 13194
EVENT_DATE_YYYYMMDD: 2023/02/06
EVENT_TIME_HHMMSS: 01:17:32.00000
EVENT_LATITUDE_DEGREE: 37.288
EVENT_LONGITUDE_DEGREE: 37.043
EVENT_DEPTH_KM: 8.6
HYPOCENTER_REFERENCE: AFAD
MAGNITUDE_W: 7.7
MAGNITUDE_W_REFERENCE: AFAD
MAGNITUDE_L: 
MAGNITUDE_L_REFERENCE: 
FOCAL_MECHANISM: 
NETWORK: TK
STATION_CODE: 4413
STATION_NAME: 
STATION_LATITUDE_DEGREE: 38.313533
STATION_LONGITUDE_DEGREE: 39.039342
STATION_ELEVATION_M: 930.0
LOCATION: Kahramanmaras_Pazarck_Turkiye
SENSOR_DEPTH_M: 
VS30_M/S: None
SITE_CLASSIFICATION_EC8: unknown
MORPHOLOGIC_CLASSIFICATION: 
EPICENTRAL_DISTANCE_KM: 209.20
EARTHQUAKE_BACKAZIMUTH_DEGREE: 
DATE_TIME_FIRST_SAMPLE_YYYYMMDD_HHMMSS: 2023/02/06 01:17:48.0738080
DATE_TIME_FIRST_SAMPLE_PRECISION: millisecond
SAMPLING_INTERVAL_S: 0.005
NDATA: 9303
DURATION_S: 
STREAM: HNN
UNITS: cm/s^2
INSTRUMENT: sensor = GEO-A200,/GEObit | digitizer = 
INSTRUMENT_ANALOG/DIGITAL: 
INSTRUMENTAL_FREQUENCY_HZ: 
INSTRUMENTAL_DAMPING: 
FULL_SCALE_G: 
N_BIT_DIGITAL_CONVERTER: 
PGA_CM/S^2: 13.153
TIME_PGA_S: 
BASELINE_CORRECTION: BASELINE REMOVED
FILTER_TYPE: BUTTERWORTH
FILTER_ORDER: 
LOW_CUT_FREQUENCY_HZ: 
HIGH_CUT_FREQUENCY_HZ: 
LATE/NORMAL_TRIGGERED: 
DATABASE_VERSION: 
HEADER_FORMAT: DYNA 1.2
DATA_TYPE: Acceleration
PROCESSING: Automatic Paolucci et al., 2011
DATA_TIMESTAMP_YYYYMMDD_HHMMSS: 
DATA_LICENSE: U (unknown license)
DATA_CITATION: Turkish Accelerometric Archive v 1.0 - Disaster And Emergency Management Presidency, Earthquake Department
DATA_CREATOR: AFAD
ORIGINAL_DATA_MEDIATOR_CITATION: : AFAD - Disaster And Emergency Management Presidency
ORIGINAL_DATA_MEDIATOR: AFAD PROCESS SERVICE
ORIGINAL_DATA_CREATOR_CITATION: AFAD PROCESS SERVICE
ORIGINAL_DATA_CREATOR: network: TK
USER1: GuestUser
USER2: 
USER3: 
USER4: 
[...]
1.327002476293486
1.782165969911355
2.0796445192728537
2.116388520326508
1.856104534826408
1.2987758500403541
0.4793852019816849
-0.4695472031565553
-1.4034467008489973
-2.204985488090437
-2.691764687788969
-2.7749251376625867
-2.518189851956141
-2.0128368173719924
-1.3410628431799005
-0.6331684555489234
-0.10193375737226296
0.1556430935205591
0.16822975276296015
-0.09663764807403787
-0.6201948811955951
-1.2773089590002817
-1.9588798366191624
-2.5404552713831197
-2.895742387707184
-3.006755832229067
-2.9194445278436083
-2.6497988942228385
-2.235754128083039
-1.7586870288644105
-1.2595761208729606
-0.7877739820316664
-0.40796748627247953
-0.11119084407141841
0.11115465704531022
0.19698635634253525
0.09190178026338072
-0.18574793364497322
-0.6139889027775389
-1.1714993456335394
-1.78447123061096
-2.351804672350147
-2.7392860391438205
-2.8405141574122004
-2.6115487096470837
-2.0540314948481915
-1.2806626528915344
-0.4699160341169133
0.21282803882137805
0.6255767490004088
0.6845660856253931
0.37907286821478275
-0.2032606691176146
-0.8872296856617081
-1.488593435028294
-1.8981051017641466
-2.1238318592656005
-2.219461423127819
-2.2590349748602256
-2.3295066082310187
-2.446069875499068
-2.589346485917172
-2.7712585001688934
-2.9989696556109258
-3.2362329907516867
-3.437534533399378
-3.605330227650132
-3.781953728921543
-3.984033191218703
-4.2089129190859635
-4.513288885390557
-4.921233636980458
-5.3797753291367805
-5.886965117779
-6.4216609100461355
-6.870075161893281
-7.100103089306186
-6.995838441064638
-6.492719502081589
-5.606943901281244
-4.468441760357537
-3.2558915015832395
-2.1183188809011964
-1.2303086974726771
-0.7166317451064343
-0.5655106977253774
-0.698796662812571
-1.0280631380020275
-1.487544974958283
-2.034556962082448
-2.657570725532745
-3.346466050039937
-4.021355473147327
-4.579779252552693
-4.945560475157317
-5.030222514869308
-4.763474636193457
-4.218297657205859
-3.5778870550755713
-2.9650503123662593
-2.4257639287117554
-1.9476593968709244
-1.445967323327334
-0.843460928205822
-0.10418650740117354
0.788937709666989
1.7824701658687312
2.726138298244177
3.471856031283125
3.9565434666385424
4.147375957938018
4.0146867546254175
3.601851792550026
3.0350350835659903
2.4475426909960514
1.9096011052714847
1.4638640203743674
1.1823562380454622
1.0999754565909439
1.1704464315534528
1.2731111254586556
1.2341536218510543
0.9878181471171745
0.6163342588604769
0.22289877768954924
-0.1023302554409871
-0.27449686317195776
-0.19168799817806526
0.18262690254188857
0.7565543075922384
1.4097940383830927
2.0488527061458752
2.6456654256154915
3.2082119246933063
3.6961144514023094
4.074858984203288
4.348939285267977
4.479384688187073
4.439297111024036
4.311656537039499
4.1789460070813265
4.045221896780817
3.856219377618159
3.525843774265736
3.040859408300869
2.4598574559349675
1.8163062069392686
1.1295578015614962
0.47368462891052876
-0.04167475950540468
-0.4099274189108665
-0.7258662470769925
-1.053809135430316
-1.4252991300067128
-1.8518934799914486
-2.273958081614368
-2.601972792583756
-2.7707055323889622
-2.6872785444110208
-2.284280355349117
-1.6026095236627402
-0.7549487587764875
0.06985986701258678
0.6671051973175328
0.9310137517151291
0.843539813423426
0.4583743230433726
-0.0623268070159369
-0.5183736250657351
-0.7865681682163275
-0.8074860309002772
-0.5810357011744891
-0.14655907826355857
0.48438246698142695
1.2536344297565014
2.060286143316584
2.8550617397428057
3.5510044127366722
3.9938722398073576
4.1112373495118115
3.968048712760638
3.673060803924567
3.341615170895962
3.1106431359238504
3.070969583792954
3.230644562189607
3.5126543624315403
3.836726077356212
4.229909097309841
4.7638708314181635
5.468419665449154
6.284489441938901
7.098910998005784
7.765392614852545
8.096058499181645
7.964044752609961
7.317946525597721
6.202701772469934
4.77431470345301
3.1878720341776288
1.5346352357900623
-0.14339627246576792
-1.7299087322651046
-3.056805685281216
-4.078253586038322
-4.815798377257528
-5.263949444251693
-5.397597367062379
-5.219424594882382
-4.783497322650856
-4.128276369683614
-3.2963381965770604
-2.3515050356537555
-1.3762961444539654
-0.5747493861820298
-0.1761627355028387
-0.2501305251369354
-0.7695524460290759
-1.6903328845502223
-2.9469369058280317
-4.379590979736006
-5.722695355106563
-6.777347888040128
-7.432834513687409
-7.584285589816542
-7.122508885944635
-5.986758419195381
-4.272737670135763
-2.2667976046236937
-0.3925776254095633
1.0237363787204072
1.888793365038964
2.186739096354937
1.9170366852397487
1.168666971693694
0.15054660287820532
-0.8682606352600073
-1.6630558198938339
-2.1146039149526588
-2.1675146885743644
-1.7814728199861392
-0.989385092682713
0.09542887547859813
1.3336923605440534
2.5142478141912745
3.3816654880159107
3.7734214962629142
3.668705753154387
3.0993419799397803
2.0866497054128588
0.7273775904791254
-0.82655794246543
-2.4301692815024696
-3.9375969732311034
-5.197556982867867
-6.049630114467667
-6.381038365524059
-6.132995870482522
-5.367311886290341
-4.27414204982086
-3.0546315480624213
-1.9036807081761908
-1.0119794595109528
-0.5612536125036819
-0.651769256359922
-1.266235264727125
-2.310456671046016
-3.6265823937825568
-4.98740542752927
-6.090192794241631
-6.691224565011909
-6.71728886537614
-6.162587697185873
-5.0476040248623715
-3.5219950625032723
-1.8776578737305147
-0.429882371036231
0.6207842165035702
1.1734224344656992
1.1921057953816039
0.7768072470401617
0.09754323647912755
-0.6722721201509679
-1.3501777748310464
-1.7796979099056347
-1.883493147592673
-1.7082358548525953
-1.2828800029003093
-0.5948925195831474
0.2533774915725014
1.1120609216340838
1.8705464356449315
2.443622329244805
2.7454373080129386
2.6782399853668175
2.2120004655514025
1.4467463804920062
0.5713244926240476
-0.2681939956100738
-1.0407021149483608
-1.7437109745251842
-2.356632394665411
-2.870617212003059
-3.3088675543090904
-3.6794728281876266
-3.9014167725827424
-3.9070477606402543
-3.7202710156073953
-3.385142923625712
-2.919387163354347
-2.266177895584024
-1.3373085013215067
-0.11969180265470711
1.3194926273274328
2.8560251051148726
4.317925273624301
5.528608902038608
6.335914123899659
6.614863887333536
6.327809118296176
5.578338048500888
4.564173574794457
3.45334077243253
2.339609735388975
1.362457645652857
0.7462790560250716
0.6360641133938361
1.0440659051759287
1.9317506623753795
3.137703139590009
4.357223042237223
5.301667659007569
5.828508728148278
5.962740819518098
5.775330092813049
5.281555390020291
4.484849794586522
3.5118574410437295
2.613062523388335
1.9622397407398802
1.6456900752168275
1.7131978305738602
2.088107458748558
2.612994191232572
3.138852590301446
3.545066233274194
3.7721557738585987
3.8278868217012376
3.7493797927804335
3.5843080683111364
3.4208547102565463
3.3436190940186608
3.3328131237670124
3.280792624058007
3.0515120987558366
2.486935370295297
1.4830220551126854
0.09407782454430352
-1.4885497212628427
-3.010837490581833
-4.195479483936797
-4.800219805833751
-4.720212945560917
-4.029043673969013
-2.915717134736943
-1.5727754599571693
-0.13528424000079445
1.2736235106517761
2.5410206680100575
3.569653750129825
4.30194020717329
4.773725183723762
5.028835724622572
5.0510016352003415
4.786367829525671
4.199255887683436
3.3204710041045873
2.2769137824500545
1.2659972733643028
0.4663874375034562
0.05929066356938588
0.15458580376693837
0.7314276519233234
1.7454726806780594
3.03179037412151
4.2865120722827745
5.252818565093863
5.7411334588607925
5.624728123832454
4.928642157233362
3.760130693042991
2.2167016672972446
0.5129897661599796
-1.0485310321356665
-2.3018631281746833
-3.203239340273881
-3.761191448326098
-4.099864427959247
-4.367417731349668
-4.615990635608979
-4.849655231305663
-5.058208076257393
-5.170720943891919
-5.050718373822721
-4.609587433475839
-3.8693587861095535
-2.9438338270385995
-2.007837636661801
-1.217176982026971
-0.7332317405998332
-0.7457727674460211
-1.301124278505242
-2.2943592174789385
-3.5833636765289856
-4.935002718928875
-6.095504666364965
-6.922165340795713
-7.375946001758081
-7.4754522711373905
-7.224315302705498
-6.658984879188576
-5.909228668843496
-5.083862428366291
-4.225922995444096
-3.3883572990920388
-2.648955692651962
-2.076776232133127
-1.7314783457851952
-1.644688472011401
-1.7936750383663724
-2.122850729093299
-2.542151686259591
-2.956887752506933
-3.2907485228410382
-3.443165534253141
-3.3332462368020908
-2.9352739091047226
-2.237084234893046
-1.2965369272152025
-0.297508172356668
0.5463598534228923
1.0571312259457142
1.1367949796764325
0.8404774575489328
0.3138087442824575
-0.3174939953581848
-0.9979665418027909
-1.6500453151928358
-2.1204045488187857
-2.328347396367754
-2.2471700300527777
-1.8467451383526512
-1.1348042650985348
-0.15272370790602222
0.9350505881587279
1.904704040253998
2.594395272132084
2.903486878452227
2.8860123130897337
2.6736564147099022
2.362565704475007
2.039564114752404
1.7065167336172782
1.2856118156343683
0.7356570186551135
0.12229848838526654
-0.40142890078667426
-0.6605300593852736
-0.4978051525354276
0.11216652911713074
1.0710530165126801
2.272663249797961
3.5489971922436814
4.7450631153892715
5.804032547567568
6.666879648605185
7.283825133635817
7.591982262337345
7.544691482985797
7.16705663629849
6.4776355629575955
5.580130224990939
4.661657081701348
3.829712765593927
3.110043166414001
2.5253359245403066
2.0859280006454246
1.7182111924688521
1.4003179309821185
1.220136918309647
1.232973107913861
1.4750549200452512
1.8929680870064565
2.2824454437455697
2.421774117994256
2.1554590604966646
1.452557384501653
0.41400676823957994
-0.7658635848603333
-1.864678758876488
-2.724217023998513
-3.2573512339203528
-3.4793310622406897
-3.4795578610852074
-3.264232765640427
-2.7445930865487544
-1.8920989162090482
-0.8024902067081312
0.36620319969542603
1.4047231957985489
2.093071852653484
2.32661373348044
2.114181037175385
1.5052542571704275
0.6315132544443556
-0.3151953148995111
-1.1976941736794755
-1.910103898790729
-2.269797013415561
-2.036833968196585
-1.0943902441728057
0.49573323749621157
2.54395691103401
4.727077758668405
6.739649848356333
8.355816727782576
9.35506334553539
9.62796758830878
9.227634567028131
8.290062235515085
6.975182468412971
5.413152324728748
3.6321235277022015
1.6317943377774937
-0.43250231950569185
-2.30986534501947
-3.8289520600435525
-4.889702816478486
-5.396351690350019
-5.286513695870389
-4.536731042167062
-3.154056497877646
-1.3375880262277273
0.5153530289403031
2.1393774620179915
3.4762624540765783
4.44229917288652
4.946516703584117
4.9799829105262585
4.467386699633125
3.3977139210659626
2.0595064510228185
0.7472098911522338
-0.4176511558370653
-1.3281822563581762
-1.9399085023001912
-2.2866320260252824
-2.375762719739593
-2.2323751927451068
-1.9568475176430948
-1.6349951784142454
-1.3122490816009695
-1.0855438307614138
-1.029652869261223
-1.1526688157748435
-1.4532488201367684
-1.8719922864544059
-2.363892980630237
-2.931955789568236
-3.4954541998497306
-3.947005382106818
-4.245775175136781
-4.375423843849093
-4.3620633163942415
-4.268042480883437
-4.088125291852143
-3.7695998044285344
-3.3335633363122086
-2.853732189752682
-2.3848792311717877
-1.9882638601627483
-1.7177945299203858
-1.5954754226147714
-1.6292987459315085
-1.7759430249416603
-1.8998468815872456
-1.8402301406752801
-1.5136213872573618
-0.8977571899108355
-0.053651985447772735
0.8371655579682956
1.620968005268173
2.203768347416068
2.4324786179753537
2.1629418573812664
1.4124715452393286
0.3142136299209377
-1.0140473758664816
-2.459957136442255
-3.8612558893915825
-5.023027608894254
-5.841824678060947
-6.379945403991711
-6.736176109441115
-6.944877235971262
-6.985019318174927
-6.7828190734697635
-6.225617554074188
-5.199485963757753
-3.630119599162792
-1.5500222664311207
0.8512120527337901
3.3203191962585836
5.643228320896135
7.609883627670069
9.063198627861142
10.005612381635057
10.502261996429116
10.554994345466785
10.17528771725071
9.456524368406717
8.464063933158297
7.237586074231146
5.8648958247506355
4.386920739529902
2.8786260392907908
1.5010146934227064
0.3821405196771505
-0.3617256092877346
-0.646237352763924
-0.42002283259508105
0.31479662562079386
1.4366382449055155
2.766344727150951
4.139900259267413
5.435518121579482
6.495845092523787
7.152864724275065
7.311678767145487
6.885179852355832
5.853352790696798
4.338433284924811
2.5675973732261586
0.8359264438885788
-0.5709844325365647
-1.42394185182884
-1.6588055786680063
-1.4142443623257592
-0.8680493720915629
-0.25049867691245853
0.16434129614632303
0.24304939556555172
0.03953345349324995
-0.24016188589328913
-0.4280726472053964
-0.5499915711119174
-0.6710878912994933
-0.8333334094185558
-1.0630519451655087
-1.3209492473254671
-1.5646159017273784
-1.737167744114028
-1.7430483702971362
-1.5208015091912204
-1.0727438262899849
-0.4708571519793875
0.18028872575949811
0.8488775565641795
1.5775051912086981
2.385386395593691
3.2227863284575564
3.9897418576737556
4.595557265099989
4.928702285203475
4.856544013190894
4.358707617630021
3.523804987724001
2.453533373130947
1.2480204840500269
0.010795449567006732
-1.1464646982307962
-2.0976698754020577
-2.73590098882044
-3.024469372920247
-3.006122962192723
-2.7607088125259707
-2.3561199023715647
-1.808814323971252
-1.1208815759741402
-0.3896095497389388
0.20957287233988264
0.5117391205170004
0.3734686853556679
-0.3210798435281533
-1.585013621525596
-3.200433421062016
-4.774446718436682
-6.010297129817901
-6.833832758102408
-7.251422446646739
-7.278013298579162
-7.01134125455946
-6.563096721082331
-6.03121659558625
-5.407645751063367
-4.546653515515151
-3.4538383740885403
-2.195088613055193
-0.8152430481178625
0.47524565054621504
1.4458809894724882
1.9530808780663393
1.9319254705326419
1.3737097756759489
0.2983386791459187
-1.1819828719641923
-2.9328264566671707
-4.825169309761172
-6.628639813426296
-8.104934847620878
-9.140383832109054
-9.65746635890555
-9.614975306755298
-9.062536796738673
-8.090476673277786
-6.801413036601586
-5.287030830514735
-3.680937344340371
-2.0970561917503394
-0.5596126286225527
0.8550379214128726
2.034196154634431
2.839699136108431
3.108660557405262
2.832140749100482
2.1436484749093876
1.2649894451997512
0.4687837890332348
-0.018368805572618094
-0.023888999490226798
0.5405302962615076
1.709956029188991
3.444523825281204
5.576188845900114
7.856707049773608
9.9655636734978
11.653671616839071
12.762460014454936
13.085039712487134
12.4871718369477
11.102871635582456
9.285264602006706
7.341446732514004
5.56727664182304
4.226870824183646
3.324989084187866
2.8659842043011965
2.7704171092111336
2.710082814885168
2.498087934445065
2.079435975943161
1.4509783824199587
0.6886805938110772
-0.1442031059717011
-1.0537483280275408
-2.0998966593547146
-3.244916897482717
-4.445436449046292
-5.673483963085937
-6.811110067373405
-7.705251851497701
-8.187861315632292
-8.1477413166516
-7.5696986626296185
-6.540864006474838
-5.180825870115763
-3.5676998839120153
-1.8125835981429153
-0.05499545878103762
1.5540511335638956
2.848970750823382
3.7126426937932324
4.1099394099399635
4.071373271860303
3.655617943091645
2.9960256428972647
2.3185227970075424
1.7856187880981793
1.4439537006935557
1.3805125864495482
1.693518797858745
2.323962694930829
3.1336551487668
3.9930381132510773
4.80149854574292
5.518697059694382
6.051188920251758
6.2833937993640685
6.279772397064435
6.174304554545568
5.99107726812272
5.757446803038186
5.577169903666968
5.605107896231162
5.982731623101092
6.71966014883013
7.679283146298013
8.641642784568761
9.367183881417493
9.635054499439946
9.305085312281363
8.410731480467346
7.145847233752871
5.707490098909907
4.176799442210686
2.676449480294686
1.4293342243122906
0.5573105947962502
0.13495908785444088
0.19697748044841268
0.6199842798841204
1.2179851411336502
1.806015890896367
2.2743141672598415
2.6178982717146035
2.9063634975975323
3.1742321301892673
3.2887555117792857
3.161191399373507
2.788411690873588
2.1732981191713625
1.4230975333614135
0.5720193252737815
-0.45835429051084875
-1.7331938948935122
-3.2099006927862463
-4.6395806833226985
-5.804614678248187
-6.63162824429374
-7.107063484758346
-7.240245939900096
-7.03310510680896
-6.502512865981036
-5.667823885948251
-4.690557511617644
-3.829663689179927
-3.2017743262070963
-2.767623878392016
-2.4156775556711034
-1.9764163923682916
-1.1660273846272864
0.14870508856982925
1.8029550163130839
3.5343695934473214
5.024096892517789
6.0136704457288666
6.405587362295452
6.225810815514484
5.5811080901909165
4.63580574816444
3.63359482027896
2.803331967958042
2.2130754337187732
1.7663853341139573
1.2802398016863494
0.5757735298387907
-0.33775020379989157
-1.2401020118053998
-1.952092908307504
-2.5241038744959714
-3.0476845401640467
-3.37003022240196
-3.3217979452393678
-2.983234709545609
-2.551093553158238
-2.1359583852187454
-1.7669617524720993
-1.4630942508839135
-1.169087367040649
-0.8771553146389641
-0.4990952809701507
0.2845788834967243
1.582822798577428
3.1314327748768274
4.50856654608827
5.407817610697935
5.776252601901828
5.617721555875956
4.889077458096006
3.5479128914697973
1.6484977304900945
-0.6177454056693495
-2.9477678655229718
-4.981119585367721
-6.471028071098799
-2.0342690715794682
0.4333481076763937
-0.8227807574007878
-0.18227142199777766
-0.5077900993337927
-0.34127671614225596
-0.42537432300621314
-0.3818277885408107
-0.4032962136046704
-0.3916513056813139
-0.3968733731137297
-0.3935056243325136
-0.3945141278236761
-0.3932947912872228
-0.39321131744939475
-0.39255044831607533
-0.3921848067354637
-0.3916699323484236
-0.3912322032032302
-0.3907563149390493
-0.3903009944822266
-0.3898363282945498
-0.3893775506547193
-0.38891690041819327
-0.38845832884904624
-0.38799982165822194
-0.38754240303272725
-0.3870855495559131
-0.38662952606475326
-0.3861741959127286
-0.3857196269462292
-0.3852657828587174
-0.3848126803952798
-0.3843603092826239
-0.38390867301164
-0.3834577680653546
-0.3830075944988848
-0.38255815055067854
-0.38210943538720155
-0.38166144770496446
-0.3812141864425566
-0.38076765041797733
-0.38032183851335194
-0.37987674958084483
-0.37943238249057737
-0.3789887361062172
-0.3785458092974071
