AAD_Filtered_TADAS_FILE
AAD_BASELINE_CORRECTION: BASELINE REMOVED
AAD_FILTER_TYPE: BUTTERWORTH
AAD_FILTER_ORDER: 1
AAD_LOW_CUT_FREQUENCY_HZ: 0.025
AAD_HIGH_CUT_FREQUENCY_HZ: 40.0
EVENT_NAME: 202302060117
EVENT_ID: 13194
EVENT_DATE_YYYYMMDD: 2023/02/06
EVENT_TIME_HHMMSS: 01:17:32.00000
EVENT_LATITUDE_DEGREE: 37.288
EVENT_LONGITUDE_DEGREE: 37.043
EVENT_DEPTH_KM: 8.6
HYPOCENTER_REFERENCE: AFAD
MAGNITUDE_W: 7.7
MAGNITUDE_W_REFERENCE: AFAD
MAGNITUDE_L: 
MAGNITUDE_L_REFERENCE: 
FOCAL_MECHANISM: 
NETWORK: TK
STATION_CODE: 3134
STATION_NAME: 
STATION_LATITUDE_DEGREE: 36.82763
STATION_LONGITUDE_DEGREE: 36.20485
STATION_ELEVATION_M: 29.0
LOCATION: Kahramanmaras_Pazarck_Turkiye
SENSOR_DEPTH_M: 
VS30_M/S: 374
SITE_CLASSIFICATION_EC8: B
MORPHOLOGIC_CLASSIFICATION: 
EPICENTRAL_DISTANCE_KM: 90.29
EARTHQUAKE_BACKAZIMUTH_DEGREE: 
DATE_TIME_FIRST_SAMPLE_YYYYMMDD_HHMMSS: 2023/02/06 01:17:25.1268070
DATE_TIME_FIRST_SAMPLE_PRECISION: millisecond
SAMPLING_INTERVAL_S: 0.01
NDATA: 11251
DURATION_S: 
STREAM: HNN
UNITS: cm/s^2
INSTRUMENT: sensor = GMS+/GEOSIG | digitizer = 
INSTRUMENT_ANALOG/DIGITAL: 
INSTRUMENTAL_FREQUENCY_HZ: 
INSTRUMENTAL_DAMPING: 
FULL_SCALE_G: 
N_BIT_DIGITAL_CONVERTER: 
PGA_CM/S^2: 246.107
TIME_PGA_S: 
BASELINE_CORRECTION: BASELINE REMOVED
FILTER_TYPE: BUTTERWORTH
FILTER_ORDER: 
LOW_CUT_FREQUENCY_HZ: 
HIGH_CUT_FREQUENCY_HZ: 
LATE/NORMAL_TRIGGERED: 
DATABASE_VERSION: 
HEADER_FORMAT: DYNA 1.2
DATA_TYPE: Acceleration
PROCESSING: Automatic Paolucci et al., 2011
DATA_TIMESTAMP_YYYYMMDD_HHMMSS: 
DATA_LICENSE: U (unknown license)
DATA_CITATION: Turkish Accelerometric Archive v 1.0 - Disaster And Emergency Management Presidency, Earthquake Department
DATA_CREATOR: AFAD
ORIGINAL_DATA_MEDIATOR_CITATION: : AFAD - Disaster And Emergency Management Presidency
ORIGINAL_DATA_MEDIATOR: AFAD PROCESS SERVICE
ORIGINAL_DATA_CREATOR_CITATION: AFAD PROCESS SERVICE
ORIGINAL_DATA_CREATOR: network: TK
USER1: GuestUser
USER2: 
USER3: 
USER4: 
[...]
32.235613827097346
48.8012824817059
58.70593077994351
41.81032838945537
10.617330319990753
-5.439250298048137
2.1183350568539003
17.42640217654987
35.13132267752635
60.117556409006525
82.62786858117165
86.53609995102114
65.40648017534201
37.15832119970291
21.438510547361126
16.16370435680706
25.61837617617345
45.45703161947018
56.32795485854131
56.16573586142757
50.70560070120288
46.72349293959221
48.48384820136578
59.41717832889343
83.46223259360009
100.42198505958052
92.25082026468198
74.51463331252525
64.27079043575756
62.1094500358392
57.68379064060794
45.29170867224079
33.15282677257437
21.946726353460438
10.838708535276329
6.169262231462547
6.248012829221516
10.14952651792483
19.140846321987354
31.497727417012666
43.399532654472814
43.03507072960778
33.81881878731434
33.62727366526774
41.79004042724999
50.446788036678186
56.09420994001597
56.779429393511265
57.99853204694526
63.14722137559067
62.93880494295789
53.09227436657447
44.69433687869161
42.428147993602835
44.468376280361554
52.599876519052344
64.56035356732133
73.03504258409745
69.99732100411764
57.50486882462813
50.216304179899886
54.5436891793168
67.21283000952037
86.9435010245554
105.03097575518063
115.10041378329497
117.38213565012677
105.98407613498227
88.24555440079604
77.00302537573818
71.38481068160704
69.38362821054878
57.448247470540736
26.713517546153017
-2.2449942344521854
-15.618615898666429
-17.622900788414206
-13.508179317507588
-9.017318711034893
-5.607542128670979
-1.1744688514285315
7.868256796631443
19.510357094619835
27.569722287399763
35.198869804423396
42.437580936364895
41.87609003210934
32.091705712838895
17.657754316911934
4.029540217773654
-1.4690251088849098
5.459863213417784
17.953783747080394
22.131092508712292
1.8098468122268365
-32.70602095370017
-51.79657400435391
-53.94103278076451
-47.51836650560143
-43.85017864021921
-53.72466273561021
-59.098012193196304
-49.91349578454453
-38.22476785958494
-27.454567065759004
-22.054212857012264
-29.414344719844795
-40.33772640204245
-45.42101208731471
-52.5204898543583
-67.93195133275086
-86.08616973773105
-93.94357572840771
-86.05384618441016
-81.42528656507174
-89.98133454733357
-87.88669659395138
-67.44856196225862
-48.75006563561411
-35.72585216249452
-20.27249881934089
-3.5778244691885557
6.440036599254105
9.930346909242544
13.336726476881212
12.123285222069184
2.8359902025435657
-7.336431410614582
-13.721367646166561
-20.174086353915396
-27.220294455793262
-31.996089801522544
-42.264316266338284
-61.930259623228
-81.00661599220321
-90.51420212832805
-89.81028782893684
-85.93611890090948
-84.26289734938094
-80.24430145254462
-74.91037481845383
-72.1855894243792
-68.75780836139312
-69.78363326371385
-73.59438173158729
-68.0619448997287
-56.21131770378942
-51.97820692675222
-63.318654110722385
-79.92320050364658
-85.95814509950608
-80.48775505027982
-76.81556931316517
-83.24740140282753
-83.38558275917748
-65.00678135697905
-46.21103486951999
-38.88932816964287
-34.661901492171204
-34.12590841616598
-41.10510673425905
-51.90235833789945
-60.43418577962024
-57.59740367696612
-49.1486307550288
-44.14650225574027
-41.9401569243281
-45.657389802369615
-48.76893834927338
-45.18214095841093
-36.61929531022697
-24.716079180250983
-17.222906477524123
-16.698473650801283
-21.471998946253088
-24.392516376827015
-21.372693917764238
-20.545051510863974
-17.30414751362861
-7.209384638968609
-1.7948926201417947
-11.680576959750466
-31.014573639386246
-42.9503899866627
-43.29649958607556
-37.57200170911879
-32.17356617437591
-23.273587220479367
-3.9794105789730945
14.353333252271225
20.569782790369214
21.27554958008459
30.69024218545719
44.83492100425076
50.82078135295258
52.4357901849649
55.23811272353329
58.15221565914048
58.260852519833165
57.2652216765691
58.4086307549229
56.12816352800199
49.6235487144355
43.731270072908075
38.81396209085734
37.175818411323284
39.74183525282833
43.84619738092802
49.834211006470355
57.3067553084106
61.078601712974404
58.294141962994445
51.93038180968007
42.405574526457286
30.334698403643344
20.121907898005603
16.5520866314901
22.133937156007867
28.073343894992053
24.462135955090684
10.887006162572339
-7.943490989980486
-27.29561036849811
-41.310675392073136
-36.64874704441035
-15.171191485171072
8.41055706515992
25.176017303328408
30.661800643896978
37.51645297966886
48.76244494029023
52.542835727361854
50.4986331755962
45.303232850128516
33.977543263138
8.55881862309739
-26.072736497136916
-48.82510807039823
-50.8815751667678
-35.95737720909205
-14.300826474443573
2.5366342026742017
13.863033958592077
26.467047339378315
40.679990433261814
52.06269342997269
60.44368117290217
66.05559876805897
63.88656996679176
48.51628625309488
27.896320194375843
11.13169662431747
-3.905077236315937
-13.557885758200044
-9.548556001237182
7.642723397849162
26.963439147406827
40.55295803713739
50.82717953970367
57.55720972588478
56.323536773020756
47.39907981651286
35.98329682345618
21.221571660758993
3.580539580246168
-5.579171401711711
-4.810272646270731
-0.9503860461064569
8.677785530750153
24.859444059015026
37.39692846331679
34.12925400215861
15.371932653469914
-4.380082145217229
-11.460293664513632
-5.681750270649367
0.10188494128867495
-1.6164633251301768
-9.963923619146355
-18.583451974435476
-19.91413040233165
-20.23881473027992
-21.68112457667298
-22.491706387861083
-28.43554260984289
-35.34142808406887
-38.413757162290814
-40.98108352910687
-42.84650232673451
-35.46129402698823
-15.301098963479971
5.102138920274169
14.389487412070746
11.709784391651969
1.402767970835548
-10.42119344391484
-16.26264683816739
-13.441938675876393
-6.8595256962589
-2.4102348192658782
-9.394210598052302
-22.86816452461174
-28.084385531137514
-28.57609957612029
-29.53751232537697
-28.615462480511997
-22.952491146593577
-16.45920344987002
-16.814144075615676
-18.567773767479576
-17.065081575163976
-14.19177952029734
-11.703702136449596
-10.562141835640233
-5.7183971899261525
2.9195482776541652
8.936649344250556
11.922924776103091
17.429547106932326
25.203325999785235
28.56910234721952
27.699159699405563
30.904869686272896
37.276318616515745
34.93894832585833
28.33460650084436
26.43065100294919
24.465655757685703
21.661118832532416
16.241814285505633
10.856411614058887
15.406105442459923
25.399654427771903
37.44207521564116
49.73599807596479
45.13085179935686
18.999967984264075
-11.618243996967784
-25.637461175657112
-13.866005706467702
8.245215289525573
23.78660669000497
28.053051315713944
27.272183038803288
32.11746935801009
36.62908819281158
38.50860663152891
45.296429971527914
51.725434368582796
48.10505065360176
36.14183863496362
29.708299443044737
33.1030216005323
37.114209481140186
35.52567714575217
32.917491070940216
32.56980364795129
28.513310334978907
26.51394547022559
28.564166706242055
32.08639512813764
40.43662854631261
38.523252615994096
25.864370084202562
22.368656236946173
27.9111835493581
33.18131265080032
29.33072817449579
16.971647219486076
6.308535891740757
-2.704961275506642
-7.180108685981624
-4.836311969196009
-4.4454949431870165
-2.7354274097230857
2.8559651804549993
3.880828797158571
-0.7012241065487689
-12.606368308370659
-27.221162442088772
-33.99728967402423
-36.230241254716546
-31.54895561639661
-17.852147610025096
-10.18737159807867
-11.56105398823876
-11.650700486421481
-8.793400773898124
-8.25815935740174
-14.497892765600007
-24.268660327425152
-30.806156318905497
-30.485481869842825
-15.014322135109014
13.31420775425903
33.685201579615835
39.148281939406665
32.47702661511636
13.531369573376402
-9.457470263985352
-25.349177832281818
-21.15090248444345
-1.3272482300080184
11.039224837627692
10.497532330013119
4.382655153783181
-1.05177394310579
-0.7706552276988612
2.419357940021729
-1.132045746815035
-11.655022475442165
-16.956419488736458
-13.88967268048781
-13.354423639528987
-22.663546455861578
-29.795426912284988
-26.29013513390842
-19.68075538081162
-11.108780074623038
-5.07895777164856
-5.76321874614561
-14.447439710662184
-33.28157620308351
-47.06249482094541
-49.03102156246751
-44.649603349211795
-35.31023326060174
-29.19595551221127
-31.46286940770166
-34.58008382020632
-27.01540591051551
-12.476570230677222
3.987152053992098
20.942457590521663
23.936831801646903
7.941120951730552
-18.836465149146797
-38.58869025733531
-38.27836796902383
-27.606992547650332
-17.769234879992922
-17.514331318475694
-29.712522893163648
-41.14170792275424
-38.471166990973856
-29.393420330278452
-24.742882484973435
-18.55008516543351
-11.782563096355961
-8.039005417841564
-7.0306510396346305
-9.19431183017683
-13.701165810428437
-20.181840484985393
-16.989155060890557
-13.519855228958244
-17.059316945111064
-10.43709026051808
-2.867352929600341
1.492822107929614
4.166289072437559
5.926191851456578
10.164435699137117
5.5261217042907536
1.4690824239440525
-1.2206430308879637
-14.743646019337367
-28.56354949979152
-20.523456265313794
3.383322406369636
9.93592716848075
9.96124771667562
16.9986521244421
9.989191217346006
-16.307969618494976
-32.9229858870919
-20.141609734604383
-6.591612190462935
2.7810922653512655
17.270539543990264
23.1387677665305
24.61469954138228
25.64842268545685
34.128687941498626
45.05546635152851
39.94715282677384
34.3219430421045
32.75701456907773
25.089840200909006
14.360550325273394
6.488640606293249
7.092878932665945
8.099835047230664
16.037901620012406
29.28103733224514
25.542083722613796
12.96906221542387
-3.7412414920949377
-17.202515960359033
-17.2618213427257
-18.73504475532753
-22.541544544314668
-26.894913021887657
-26.443565962527096
-18.069561507292693
-18.880010466271735
-27.3923596362097
-31.518556640735934
-25.229076081566145
-12.32588574185701
-3.423009130906269
7.0332122693684616
13.82132002789957
4.557526738733874
-5.104446217811401
-8.578540927086967
-11.968430134798824
-1.1094660378256067
22.822381691396615
30.96613010984065
8.621171866703142
-28.959300617704884
-52.14122723008083
-52.934697681309075
-37.42841280007422
-2.2186589616198766
26.096920267120517
23.880754623334518
16.45666203825646
21.01390981875116
31.65650477484848
33.633517540131706
25.805384401378983
28.464921541856924
36.93132043647857
32.51897605983761
12.700357217829085
-8.392074048631462
-17.24676501079073
-13.907498421052571
4.086887716179785
24.345663005291744
28.873006712750733
24.74379945634797
25.54617024028904
40.00826303067312
52.64504401723006
44.28323234765557
32.724494121839534
26.656875411100017
14.839461722404838
-1.6058913451662746
-13.321679885085635
-15.185982895089763
-12.600486325497483
-7.735771968802373
2.088359391335761
16.986865557502256
22.771379091066066
10.384484446934014
-1.7438494858264901
-1.2589583638882642
10.015132107336957
15.116869716015616
7.297154027810748
6.21591458207859
17.062744285221257
33.20808262891313
37.71974561452355
21.485629664756598
-1.7686728222372046
-23.50099952044368
-30.453834215975235
-12.454612221256026
18.87595309870166
47.788745000768024
62.233410212593405
43.82029656427316
0.9870766304798362
-25.226169327253057
-28.18353881690948
-20.22233525863633
-6.9726179230960605
2.400864937260008
13.00484500614843
20.432144609151862
15.62979414762603
15.45099345373529
27.28554211701386
33.56023277831639
23.54831497421391
2.366161875916969
-13.943310484363625
-20.78040798306363
-26.735850891968184
-24.701122968481723
-13.194835722825543
-7.469218306067065
-16.293298225168535
-24.047067007917434
-11.23261503064266
6.6482037376257335
7.514101771149757
-9.156604178569651
-27.990655080177888
-38.18307123046427
-43.78523486184945
-47.281874478994666
-52.16601791074939
-54.94420335426374
-47.08887044076406
-33.571157168605225
-27.215030654544112
-30.279920314827976
-28.18629076388261
-16.288078305144637
-7.1768660247337275
-6.396940316627551
-11.855005092436999
-21.655893903809424
-28.70133485800477
-33.48713273435263
-42.28682358388501
-49.818765971619854
-49.46418986289581
-36.45385108730244
-18.225505315818463
-7.4864742970428955
1.9270877741866623
12.802184646416865
16.9739871459761
13.094739537578366
8.693117298534993
9.160088407526347
5.52971486886572
-3.581672729014258
-4.062752346137331
2.140163519769823
5.825722296557329
11.047421801428136
22.8583811873535
35.520695815172324
39.3444324439761
42.816218152854326
59.123189993772364
81.0124979538459
95.95525342903589
109.15763623551946
126.55171308641472
132.74269495445702
122.65347346983783
110.16235105075377
110.96894276976525
126.61089472708069
133.1823455847719
126.91663203996255
126.91629742256924
131.5272074321682
127.94863784893967
106.91318365504763
69.43817017482715
34.751152197959435
14.074745037628409
-8.676916792583281
-47.783361097305544
-100.53941990513052
-156.78215084673448
-203.75270017136503
-236.22078627340468
-247.71063277153274
-238.57144442223438
-227.13079799927542
-221.64062838646547
-220.77124860513197
-223.38569295980741
-221.16786267396648
-208.44219188791598
-191.0978308304645
-170.08661881986512
-132.1468945006676
-74.35425736100153
-10.340524674832373
45.17751014875602
76.39463904611374
74.70470802634198
54.266119473514
36.02576860948419
25.546050576064058
19.12522318588706
10.780722783473227
4.447632382283001
8.895676131384322
14.630309210320123
17.00355845259177
19.775448177858856
16.20881470861789
6.842983372537285
0.770768233112056
11.031684568530032
37.798576881740765
57.94031960047003
63.80988745847825
61.365466714790145
49.24559902818389
32.95048882889954
18.242980079612696
-1.0107243683403924
-25.94354062066913
-42.935437261249
-42.56568197906321
-31.43706964986424
-25.508676583697675
-30.1003831661874
-30.54164112764008
-16.43061250124813
8.13250069175536
33.95334083998416
56.89909242530975
82.427370275255
104.35581792316226
108.06525188893855
98.57876990690427
89.08326544118961
71.61797663653111
28.462781314376365
-27.780532915751103
-65.44830099222213
-69.28461762272593
-40.45079244821958
6.155846751671119
44.22697286052937
48.83379520893839
25.709357648039358
4.055905296372462
-6.63459172116623
-7.604838573126186
-4.695299994158182
-11.450229375608872
-27.95129316054279
-38.09249104442153
-22.439271398119775
11.74365229578899
41.733137991693916
59.35425130788687
55.88675514802118
27.081207065308302
-10.063944986911448
-29.97384232644483
-30.668071122710433
-22.06807826037124
-4.882934658965292
10.37614708132427
14.03734154170077
-1.9360181326643275
-32.09416574889231
-52.09592606229053
-54.72108501095107
-40.85915149313732
-24.39283930689397
-23.65943745645304
-31.1339485118421
-35.40952082344495
-31.33159961928513
-20.018654216410454
-3.88902945386135
28.036162001885614
78.00152753469017
119.04978755779622
125.57263677670348
103.28401054125898
77.4013642213181
61.511810930354265
46.5080290842035
32.497348746033836
27.62681770441449
25.096378285186955
31.10301821548549
52.38391833223708
75.774674301373
83.03531001517125
53.85501218109156
5.333452958991322
-26.761131422659265
-39.56456619951263
-38.31695878302031
-30.030928247111348
-22.112281918794302
-8.819003296414513
9.216416479872784
22.04073496543123
29.489773992162732
37.69749138485928
50.61951614839766
62.09965483071894
68.23419654516202
73.91455428850821
70.83664773983814
63.781614216315134
70.18567550031305
87.65794546409572
98.08945502125263
83.83685094263257
55.67278925582486
35.38491758369323
28.367164848008482
32.720896526575416
42.72525556723455
47.50386367364274
41.98851520951162
33.211648181484094
18.813070820290932
-6.777495835386751
-28.49821703727185
-32.206306833972114
-24.111059674050864
-14.250591778967513
-9.656418223187464
-14.458730301428444
-26.170464875809554
-41.14771352778119
-55.093636490320996
-65.35462352045667
-71.94514584039439
-76.29020507221854
-76.23073111843783
-67.15599158712722
-49.25975163214314
-29.869343517251366
-23.1685653532554
-25.906531128518115
-23.156207875015113
-16.637430323042697
-15.41783526535897
-17.390026149680942
-10.815947898203001
1.5456801697642135
5.821519699646739
-3.4581001875978843
-20.506408355295857
-31.45049158962568
-25.135226158832005
-4.546896960943053
-0.8634071957989904
-26.204720447390134
-43.93227464270811
-38.81219578910947
-33.4584788314429
-46.310849725686836
-61.567875464093945
-55.57701748374025
-35.73828947101379
-14.58528748901213
-2.0561567795361033
-2.437523051014844
-11.45901775053393
-15.843706045601069
0.712811280967225
19.66288631565752
20.822370214114013
15.02683110963136
7.900983196596446
-4.52941692945642
-17.4600366383603
-20.19701476629995
-11.215111107469685
-1.5686553720231513
0.35278173690637166
4.5056352085539935
22.082612906474147
38.19495525281186
35.13694119089289
20.93582277596763
13.482702565697279
13.410274553972334
7.203863966398602
-2.3576425940641577
-6.690903755145087
-9.083857861188639
-2.4839973717408905
16.6895538541664
36.553151094673716
50.794350867371854
53.80835721334919
41.94896690534978
26.570678224317383
19.661690359573534
16.216245464365535
9.581035145692216
8.831920098025613
20.847963100268114
36.05410764751627
46.26222042843988
55.746276335451476
64.00486203920845
59.24059472000332
38.58086045914862
19.20658180528602
17.67040336179252
25.824544917135228
25.38337010864033
13.244100670192722
-1.2878182690251883
-12.219678485329151
-20.46360695226745
-21.50392458460879
-8.686945512187792
10.451903291793403
20.159915807333604
14.839094074606368
1.1112600524571996
-14.742866107708407
-24.56133218022582
-18.230745992164916
1.070040353181416
17.909526188389915
18.079170647262586
1.7367128541375045
-15.586232513636975
-12.829133306965323
3.894019694285199
2.9996369744330784
-15.51416264299935
-34.81952239413751
-45.97106393328621
-44.995782365551236
-45.158142169652315
-53.865676314813314
-62.333226720128046
-58.655065509499615
-46.782708713803096
-41.771623940650485
-44.83101241217971
-48.636043459223075
-44.82660134124613
-33.30144371340299
-18.725208150678498
-7.413677930204541
-11.409838655117257
-24.755314603561963
-29.251396796173765
-28.325313593823513
-35.6845451551639
-46.00571103496314
-48.83582825498292
-45.913562088727275
-37.03650817193924
-21.702362077061633
-5.7317202611440035
10.03550599086591
24.46944036908782
29.32899949736777
22.44245332726822
10.457413173996677
-3.2340590933732654
-15.462767857487975
-19.21957077503985
