AAD_Filtered_TADAS_FILE
AAD_BASELINE_CORRECTION: BASELINE REMOVED
AAD_FILTER_TYPE: BUTTERWORTH
AAD_FILTER_ORDER: 1
AAD_LOW_CUT_FREQUENCY_HZ: 0.025
AAD_HIGH_CUT_FREQUENCY_HZ: 40.0
EVENT_NAME: 202302061024
EVENT_ID: 13207
EVENT_DATE_YYYYMMDD: 2023/02/06
EVENT_TIME_HHMMSS: 10:24:47.00000
EVENT_LATITUDE_DEGREE: 38.089
EVENT_LONGITUDE_DEGREE: 37.239
EVENT_DEPTH_KM: 7.0
HYPOCENTER_REFERENCE: AFAD
MAGNITUDE_W: 7.6
MAGNITUDE_W_REFERENCE: AFAD
MAGNITUDE_L: 
MAGNITUDE_L_REFERENCE: 
FOCAL_MECHANISM: 
NETWORK: TK
STATION_CODE: 0130
STATION_NAME: 
STATION_LATITUDE_DEGREE: 37.25186
STATION_LONGITUDE_DEGREE: 35.67104
STATION_ELEVATION_M: 73.0
LOCATION: Kahramanmaras_Elbistan_Turkiye
SENSOR_DEPTH_M: 
VS30_M/S: None
SITE_CLASSIFICATION_EC8: unknown
MORPHOLOGIC_CLASSIFICATION: 
EPICENTRAL_DISTANCE_KM: 166.46
EARTHQUAKE_BACKAZIMUTH_DEGREE: 
DATE_TIME_FIRST_SAMPLE_YYYYMMDD_HHMMSS: 2023/02/06 10:24:55.7089010
DATE_TIME_FIRST_SAMPLE_PRECISION: millisecond
SAMPLING_INTERVAL_S: 0.01
NDATA: 13501
DURATION_S: 
STREAM: HNN
UNITS: cm/s^2
INSTRUMENT: sensor = ACEBOX/SARA | digitizer = 
INSTRUMENT_ANALOG/DIGITAL: 
INSTRUMENTAL_FREQUENCY_HZ: 
INSTRUMENTAL_DAMPING: 
FULL_SCALE_G: 
N_BIT_DIGITAL_CONVERTER: 
PGA_CM/S^2: 79.317
TIME_PGA_S: 
BASELINE_CORRECTION: BASELINE REMOVED
FILTER_TYPE: BUTTERWORTH
FILTER_ORDER: 
LOW_CUT_FREQUENCY_HZ: 
HIGH_CUT_FREQUENCY_HZ: 
LATE/NORMAL_TRIGGERED: 
DATABASE_VERSION: 
HEADER_FORMAT: DYNA 1.2
DATA_TYPE: Acceleration
PROCESSING: Automatic Paolucci et al., 2011
DATA_TIMESTAMP_YYYYMMDD_HHMMSS: 
DATA_LICENSE: U (unknown license)
DATA_CITATION: Turkish Accelerometric Archive v 1.0 - Disaster And Emergency Management Presidency, Earthquake Department
DATA_CREATOR: AFAD
ORIGINAL_DATA_MEDIATOR_CITATION: : AFAD - Disaster And Emergency Management Presidency
ORIGINAL_DATA_MEDIATOR: AFAD PROCESS SERVICE
ORIGINAL_DATA_CREATOR_CITATION: AFAD PROCESS SERVICE
ORIGINAL_DATA_CREATOR: network: TK
USER1: GuestUser
USER2: 
USER3: 
USER4: 
[...]
-4.465636518891571
-3.9831447182247453
-3.0498961398922635
-1.9504258129764234
-1.0204453229492325
-0.43870093470551746
-0.2686521565868546
-0.6394667834021109
-1.7046089515695046
-3.371517741407407
-5.423257808198331
-7.597852222871563
-9.475214191168279
-10.783314961178798
-11.513887623799967
-11.62718410333023
-11.236579479098502
-10.74552328441661
-10.420104949701074
-10.385431087893053
-10.559732995715077
-10.464934878861747
-9.83092266752949
-8.66742831421792
-7.052228527677458
-5.184733332965701
-3.072938898889658
-1.1113694493604966
-0.0525418907741458
0.0755397004601644
-0.6805211171260043
-2.704366564856823
-5.929450584974831
-9.815405859863345
-13.909975611482995
-17.70852743246655
-20.596884286574088
-22.41322589402139
-23.20605761242621
-23.12242961530982
-22.846339695806343
-22.55045074603195
-21.640891046745473
-19.981665800101844
-17.865201827197815
-15.682080525675955
-13.953854185871279
-13.067754973683131
-12.970879433372271
-13.167333949360199
-13.31661131475657
-13.40188245797285
-13.301007579423949
-12.860165004984225
-12.11412250106224
-11.136916191325778
-9.871340395525436
-8.372387994010534
-6.929714985347426
-5.661817416916626
-4.517368356320301
-3.5422795836456125
-2.745425472919455
-2.076550418088798
-1.5605556510181098
-1.2819342177287332
-1.297143757117737
-1.4914255665871308
-1.6527291533069879
-1.7738139703566782
-2.045736959498061
-2.562139899597679
-3.1515575172522308
-3.5225748440624844
-3.5276424491956906
-3.101763165900185
-2.185195975253248
-0.8719091522583398
0.7114178463178791
2.419242325372
3.926566964865667
5.0145295622097406
5.741460152104275
6.272885704871262
6.820296348398883
7.531980950246416
8.360884248050901
9.113752802446552
9.664731426463575
10.10510428068742
10.54954029040497
10.883285905228451
10.871167086569386
10.46871515408647
9.874933147565526
9.269993162118535
8.652763732094126
7.939026630568482
7.091776841248829
6.220086660500055
5.59355191578853
5.327019715962845
5.188236873951025
4.919569026418479
4.367367403858218
3.491229463018894
2.5653481685028177
1.9380010043203013
1.7600779126807473
2.050593964579107
2.587153759136196
3.0324126440481565
3.26928452784362
3.325358020859732
3.262860688723239
3.2463490073440346
3.4882917371996056
4.100283544745706
5.006005093901759
6.053648112806781
7.1929292692801825
8.40458730547843
9.640934160439857
10.946969682815562
12.35572372013348
13.706962617602377
14.764356136818899
15.397667042489077
15.590012632140875
15.433907080300873
15.178332703991043
14.983646758726756
14.616147453806851
13.676280439828968
11.91520420326704
9.279069601596772
5.9749161136285
2.3868116574838245
-1.1162827485834415
-4.231780315248119
-6.705529259250606
-8.369037928790668
-9.270409895672818
-9.541820070056717
-9.2965366990492
-8.733532637996126
-7.846192624962543
-6.461244854454562
-4.609083751014056
-2.4490612269722463
-0.2823071897623413
1.6715023830870657
3.458104271521086
5.142984919938568
6.959365524050835
9.042447389945735
11.069080574348535
12.704145854886816
13.76136218783013
14.237547090139307
14.400743744789013
14.594692315863256
15.041293778627326
15.583723552255067
15.841595734876819
15.550172604584839
14.556178091572834
12.890375997942506
10.797413062513986
8.567773533473694
6.298299116309986
3.9624089140522485
1.63056052757811
-0.6928781091687269
-2.993042887207016
-5.240516357967469
-7.604508174490093
-9.96554051826278
-11.783039614959915
-12.657966771248907
-12.46254178839744
-11.370618512217648
-9.942218388755197
-8.795355874729692
-8.1767428284094
-7.967249359663218
-7.958264594749886
-7.868496120209735
-7.45251673852136
-6.751439341452073
-5.890693534652346
-5.106307680275124
-4.850137461490961
-5.068902664196591
-5.162368448664126
-4.806165615446257
-3.8749902674228607
-2.327942322758998
-0.558137075896221
0.9208449350051935
1.9040802768243306
2.4382322253291626
2.7097809903709122
3.0315231716487516
3.7577907149178515
5.031204477311643
6.746021319547882
8.687982442913203
10.441759848457101
11.538490098670014
11.802165407658958
11.310864088112048
10.367370632913891
9.449569128436526
8.87092380756691
8.747556505630214
9.083527168707695
9.65278107900618
10.160422484917847
10.565933449996672
11.117647452822583
12.073188758247886
13.478344998610352
15.227646518306432
17.16406178512663
19.15697606421012
21.125252301873076
22.978832358940494
24.50032456232075
25.416986692949664
25.776900055984466
25.735218798853428
25.272186536450974
24.44170029163577
23.085316720159042
20.910298229383084
17.976986736735803
14.368649405689638
10.213129048791748
5.902916204008012
1.8277762599110212
-1.7966440538291457
-4.99660753018533
-7.7139156793758366
-9.882670194714418
-11.749298203854053
-13.362018064829135
-14.658995992580497
-15.769944445826066
-16.615232993961914
-16.92932042194631
-16.425097721819814
-15.017732888156715
-12.920034994681455
-10.289762959795313
-7.412811340316459
-4.686287062768364
-2.2127933422111226
-0.059115039798688755
1.6754455041404197
3.010990926909115
3.8673526399086913
4.158232087471992
4.055825299711814
3.862514105854981
3.868075757362117
4.377003702079854
5.490018519143971
6.941266076960904
8.204725809210746
8.634519573641025
8.02163310872622
6.700905249924081
4.8777662670933655
2.8226147504135026
1.1742376062320463
0.35647032447736865
0.44436713964542096
1.483140851128501
3.310524946794821
5.221900008231073
6.446954303711588
6.804512537596466
6.410984350479945
5.443491137055875
4.290865203757738
3.232120524738967
2.1150928919052703
0.7254494689526888
-0.889593012735904
-2.707662038240917
-4.532623586783994
-5.951213472806828
-6.959059623403191
-7.512803245346743
-7.414786058616858
-6.9414750126096525
-6.337246277734227
-5.610572629018423
-4.7939398923416725
-3.8414141564255844
-2.7364695640830115
-1.36777980491612
0.43155183542301123
2.578805528106872
4.825487118151641
6.90641718272162
8.63818478943874
9.905214930968954
10.716771091786487
11.265493938537649
11.690698572450259
12.086538237127472
12.61628867014072
13.331151695587225
14.041530994094307
14.486930332351761
14.682825256928677
14.91361506819349
15.436305359616178
16.37379700929969
17.65432011791688
19.061561233103188
20.397674939895726
21.464006750193047
21.96614686648138
21.478146013549104
19.75235184083397
17.135601613356464
14.183698250773835
11.104150997897062
7.827711188307649
4.298713054135637
0.7433949540772941
-2.5136014131021924
-5.314304135584395
-7.464677230221771
-8.752804451840072
-9.02150831810052
-8.21064901267677
-6.653685058586232
-4.97072219761592
-3.7963348885858537
-3.549382851023245
-4.181486171582831
-5.362118434655447
-6.6666002819479315
-7.8468141366308295
-9.04704268602749
-10.35910151374067
-11.769715074429408
-13.342007952310947
-14.997470325680274
-16.629639410892842
-17.997331635900412
-18.639942439794208
-18.50580407430716
-17.921058261019414
-17.014357823982127
-15.917842615152574
-15.000514423651715
-14.350632122478281
-13.670328690633823
-12.826001377843232
-11.760245069246157
-10.239493067712942
-8.08487230571954
-5.334180066311929
-2.335526030740189
0.48618894832490184
2.9450408848954868
5.135204244490086
7.588721607799189
10.879101662161528
15.03330794539279
19.806860524847824
24.96780985097154
30.255636008571724
35.3773532137036
39.90322876641161
43.25083572409384
45.00336520089742
45.23283836652245
44.244294528702724
42.279630086983374
39.57136630687985
36.01025052894481
31.157096042263667
25.069015998711823
18.3748425484117
11.605156316851286
5.019178634690207
-1.3450002190446029
-7.709897601639575
-14.237628333620917
-20.585960982325446
-26.150262936409554
-30.65828042607451
-33.9309003504275
-35.657952712377906
-35.954454406901746
-35.13527895693302
-33.41468264953039
-31.35860466868552
-29.493523784818336
-27.9945868454661
-27.05824178928037
-26.664022000834855
-26.481584573154237
-26.370518372546385
-26.418812233930915
-26.322642461959685
-25.605363155002497
-24.5824349853316
-23.74963635549036
-23.049962614853317
-22.404162701919287
-21.47838292599086
-19.818445846872272
-17.70361309755424
-15.457443125961191
-12.850633701217731
-9.775807594820039
-6.427286703704318
-3.12325377922721
-0.1535934625680355
2.576295604130261
5.269460257983737
7.899617142894942
10.495977216021066
13.05840231947285
15.294837353025299
16.936283379817954
18.142461186260178
19.03103899963961
19.34947929515239
19.37445323275938
19.631136114469424
20.19013990394269
21.482508230353893
23.605957899943608
25.7616491128441
27.98788729081142
30.872184321588612
34.08193783470245
36.839245103792386
38.498214845417344
38.579775764411586
36.98917995875413
34.11874628814226
30.497838905385805
26.405530844107197
22.005041990195803
17.166661325274553
11.395375196583135
4.715878790284591
-2.4098037518150446
-9.946643471894427
-17.819073940633633
-25.510649344197706
-32.594036098614815
-38.60800104089903
-43.06220596165613
-46.14886419234134
-48.423832138992545
-50.07473457887316
-51.12384899725438
-51.62034864176956
-51.45271747653047
-50.31279270089737
-48.108649616929874
-45.406075345779826
-42.88578563874542
-40.66073640882347
-38.58002726106342
-36.686725592606194
-35.22706118404646
-34.42783219017394
-34.40385760124876
-34.91909333249088
-35.135445723965084
-34.66105115064035
-34.107003184578815
-33.88874360727322
-34.09117518053503
-34.514764968135985
-34.173462196251776
-32.48881673869671
-29.931876821629334
-27.126261524225953
-24.4500531846148
-22.11345037296159
-20.3443412755423
-19.1575735227798
-18.63626944406804
-19.18820290866645
-20.330478185874476
-21.226619226318924
-21.99962564817199
-22.559023837845686
-22.217377928133335
-21.018333492301366
-19.689082024447227
-18.384933471207518
-16.89247163999255
-15.401439852420966
-13.660863883751924
-11.30008268435065
-8.801794739034678
-6.33985368173843
-3.6435975974364623
-0.8302373306478755
1.9664560889752263
4.533805691692865
6.345313370059459
7.045544059207191
7.001458758324859
7.009044703602775
7.496800695473751
8.652336018991281
10.509686415842417
12.710413286198385
14.959143286804593
17.368586226959206
20.238143388767497
23.512692297620976
26.91316921322466
30.662484804548516
35.08573157451848
40.09181959943695
45.48991552231043
50.64994379399149
54.05095295488121
54.63904234358445
53.025425359622794
50.004013382864684
45.89213646909604
41.77830029238539
38.58021840047362
35.98474203831752
33.63123438823906
31.18741253788291
27.92504393576674
23.65103752793206
18.840895518160544
13.757369951035166
8.447715401111106
3.373034917310265
-0.9487188589501281
-4.644121013158823
-8.061702193583255
-11.409137768136247
-14.829808288640239
-18.171094367374135
-21.02566869352163
-22.96380600691865
-23.73748225852172
-23.326045529669415
-21.972232821597434
-20.226891665680437
-18.017148771894913
-14.646329804448957
-10.160926045574634
-4.909734901136114
1.20397846597538
7.9556298093633835
14.616921586742388
20.61780477910602
25.550172748183265
28.76916986476651
30.092918169491846
30.047803297596342
28.908825517401176
27.195088797117126
25.79074951023845
24.625474493702036
23.158340415663737
21.352305490046625
19.262103924506665
16.717557347132573
13.765901048510239
10.890545346362757
8.435177337557002
6.662067676747572
5.807962403243159
5.440272189227454
5.141929150481236
4.971089753528593
4.628773036661208
3.8732951019401582
3.2269056017257434
3.073067993775201
3.061660473824824
3.0335751798189796
3.2342938507818144
3.703849524526159
4.741314445685014
6.859665243011717
9.843967553025605
13.195722544260748
16.785775424692353
20.341891808294196
23.58130275629947
26.599004857456524
29.09468610773165
30.40264764560808
30.554046249737212
30.160570944734026
29.594552136551748
28.901948642312206
28.151212422557478
27.172237546580234
25.554245467485444
23.306964567426945
20.23613266398958
15.588977781066802
9.294784367213804
1.9027033990511633
-6.290802282305101
-14.867819285075939
-22.989470788535797
-29.878640649707883
-35.09297827817374
-38.54874251586937
-40.64537906129643
-41.83722059833085
-42.06254141836376
-41.04359610043684
-38.66587857999785
-35.18305616758687
-31.149443777446507
-26.749658496873526
-22.032113523151384
-17.388236209733694
-13.068303011940248
-9.620909618212288
-8.058856137379642
-8.428698847638344
-9.931904057367131
-12.30757515201206
-15.725644952905629
-20.107276332166975
-25.28553918248657
-31.094965080744554
-36.99446941932109
-42.562961982786085
-47.85506925391382
-52.61089052072848
-56.63163034018999
-60.27759070586366
-63.444201268453796
-65.61935299226572
-66.72053759741144
-67.04355110363235
-66.95421600952066
-66.66919205146533
-66.54131792301429
-66.9002534923155
-67.67489591777884
-68.92016954963762
-70.58339738356855
-72.39993540448354
-74.20509543163462
-75.47302611170547
-76.11866586387502
-76.70837738778954
-77.11439921767168
-76.8000939983864
-75.32957067743195
-72.06772644720547
-66.6536792575596
-59.60775805688356
-51.57423172018635
-42.49179618017113
-32.542595918743935
-22.432966036076987
-12.697456982714687
-3.876650687841907
3.7945941154728624
10.485168576213908
16.253997077511848
21.11914885321525
24.780137165865536
26.741203091122138
27.064859876835992
25.980663957274093
23.606226408274253
20.51329214281205
17.202136118890056
13.85214858122367
11.039312172530405
8.833775187383338
6.5431237412290155
4.165223294032034
1.9840485360990383
-0.18795482024041416
-2.327908696274655
-4.020941693738099
-5.00789521482287
-5.370917037166017
-5.119969265824296
-4.27084006827236
-2.976864003613449
-0.9308109507213641
2.2272268812267977
6.159400390716908
10.408421011252766
14.84951517624941
19.288213846253022
23.373206648979256
27.047859404385576
30.40754472030301
33.1451045060379
35.06058568459828
36.49515813668287
37.491781556548446
37.98944113019316
38.476907108463706
38.80880814363195
38.389150048528144
37.769858818388585
37.61823885650763
37.76171502365253
38.231623305378264
39.153035811223674
40.13874297034203
40.97250075288078
41.86480111189578
42.7366781062648
43.41054978951346
43.99905937657668
44.235098493160756
43.68521044144666
42.57503706418068
41.40519470107833
40.372865730148284
39.34517915693671
38.26783792366653
37.546304785621516
37.64789053515683
38.74935190780339
40.865649456181565
43.73001086463857
46.814853627474946
49.76474352495542
52.53485213734127
55.210652988325506
57.845717300707
60.34377077115703
62.4225668233934
63.776421220306304
64.43941403723424
64.64485234737836
64.27729270871095
63.039874674615035
60.87877158327642
58.13021145453625
55.356789517605776
52.72091240473482
50.10545305229537
47.57980209265751
44.913067301305205
41.46771141311281
36.846949990242635
31.24600072982673
25.020238688998315
18.00523818411518
10.112607896566146
1.8004400854829146
-6.477593126954438
-14.010066922653827
-20.282331859899173
-25.629806350754173
-30.02977184749426
-33.08620021603731
-34.751848430906634
-35.06902731006887
-34.38480508117449
-33.0255274638806
-31.38109093913077
-30.052741819721884
-28.747024785339452
-27.26236685302096
-25.911904140403635
-24.286723869283765
-22.374991629239684
-20.34282170069071
-17.616311916730453
-14.196929694459497
-10.376365606743885
-6.08941199638984
-1.4426366745155474
3.1863122418218786
7.244639698437207
10.505879700171608
13.266432375514526
15.93294856785088
18.36674754420218
20.101932479449623
21.416057083929164
22.548116660656675
23.269962914305967
23.87740426133342
24.787235010615166
26.058531825787963
27.260443054347647
27.727157454977576
27.397289698233365
26.609200674836806
25.66645396174252
24.484698878137472
22.525986223710753
19.45539085711573
15.478141214951707
11.386798743364732
7.709164379379997
4.168797566577043
0.6033436637600258
-2.9652373792351185
-6.512307260969755
-9.779578901969947
-12.6063301221847
-14.958774284650305
-16.794730300280786
-17.962113546128737
-18.098808243951378
-17.19813199132493
-15.886679717389594
-14.830258467543402
-14.42362860706961
-14.705564062239402
-15.135729231998436
-15.339248880921147
-15.667418557688803
-16.170369728286495
-16.574605881131355
-17.15805056300172
-18.116823730262176
-19.15156021815543
-20.04451998127088
-20.775919633344444
-21.417219212397185
-21.986605583366448
-22.37466020185294
-22.59689692270335
-22.652343827408345
-22.26061858011831
-21.12979164891451
-19.027931480028542
-15.916219168739827
-12.324842341878622
-8.726500592898727
-5.146931258642399
-2.0059295827892036
0.08202322732260914
1.1940175801163022
1.7525459768758544
1.945252859391711
1.6110992852368142
0.321825271265974
-2.0448071916308894
-4.754671969279146
-6.831240487011709
-8.23687635940536
-9.64813878889597
-11.493176954687122
-13.793417122156978
-16.097078041505668
-17.816359568453457
-18.81440283631255
-19.163044562018296
-19.086520041261455
-18.861177303335804
-18.541874696418876
-18.24994918156141
-17.908113274968347
-17.24806467769699
-16.363443168739895
-15.331837802988627
-14.040426963291306
-12.35709986278995
-10.140998563147305
-7.378784785327947
-3.975020154677189
0.02270953796268791
4.335820153988855
9.091303054984236
14.33551015419284
19.43849260368695
23.758263795596964
27.311727700021844
30.535967080570458
33.115850320835094
34.19053048760542
34.24084838120121
34.685533161182825
35.83767694844064
37.10909794400481
38.42142184684113
40.117017318571534
42.131437135294775
44.162348099720965
46.023641136219666
47.31253618427437
47.603370812326304
47.126262404794716
46.26929883224504
44.8019879645135
42.85674646848455
41.266026273169814
39.806865728451676
37.59139826930979
34.79483038438606
31.717226413525808
28.070519399369026
23.789172841588865
18.885975183721477
13.41479474427488
8.089179998548532
3.8332459493858635
0.914104208315599
-0.7046164340082536
-1.1819078395417622
-1.4312157664427883
-2.1482097888923812
-2.980828200592262
-3.809810482800617
-4.800739091140508
-5.980298875995303
-8.03932792404305
-11.382007068620544
-15.107242017191382
-18.455932076855476
-21.370609451706848
-23.601665125633737
-24.985097451005977
-25.696428734048975
-25.542361741625523
-24.33403953470071
-22.47349197287217
-20.238185154147367
-17.709923797226228
-15.40805319262819
-14.018435427647074
-13.800630847327128
-14.601702554200955
-16.477258330943677
-19.638420224074228
-23.717489351931437
-28.277483019876414
-33.30053383427646
-38.53134559237157
