AAD_Filtered_TADAS_FILE
AAD_BASELINE_CORRECTION: BASELINE REMOVED
AAD_FILTER_TYPE: BUTTERWORTH
AAD_FILTER_ORDER: 1
AAD_LOW_CUT_FREQUENCY_HZ: 0.025
AAD_HIGH_CUT_FREQUENCY_HZ: 40.0
EVENT_NAME: 202302060117
EVENT_ID: 13194
EVENT_DATE_YYYYMMDD: 2023/02/06
EVENT_TIME_HHMMSS: 01:17:32.00000
EVENT_LATITUDE_DEGREE: 37.288
EVENT_LONGITUDE_DEGREE: 37.043
EVENT_DEPTH_KM: 8.6
HYPOCENTER_REFERENCE: AFAD
MAGNITUDE_W: 7.7
MAGNITUDE_W_REFERENCE: AFAD
MAGNITUDE_L: 
MAGNITUDE_L_REFERENCE: 
FOCAL_MECHANISM: 
NETWORK: TK
STATION_CODE: 3147
STATION_NAME: 
STATION_LATITUDE_DEGREE: 35.902362
STATION_LONGITUDE_DEGREE: 36.064358
STATION_ELEVATION_M: 419.0
LOCATION: Kahramanmaras_Pazarck_Turkiye
SENSOR_DEPTH_M: 
VS30_M/S: None
SITE_CLASSIFICATION_EC8: unknown
MORPHOLOGIC_CLASSIFICATION: 
EPICENTRAL_DISTANCE_KM: 177.12
EARTHQUAKE_BACKAZIMUTH_DEGREE: 
DATE_TIME_FIRST_SAMPLE_YYYYMMDD_HHMMSS: 2023/02/06 01:17:42.5523440
DATE_TIME_FIRST_SAMPLE_PRECISION: millisecond
SAMPLING_INTERVAL_S: 0.01
NDATA: 13501
DURATION_S: 
STREAM: HNZ
UNITS: cm/s^2
INSTRUMENT: sensor = ACEBOX/SARA | digitizer = 
INSTRUMENT_ANALOG/DIGITAL: 
INSTRUMENTAL_FREQUENCY_HZ: 
INSTRUMENTAL_DAMPING: 
FULL_SCALE_G: 
N_BIT_DIGITAL_CONVERTER: 
PGA_CM/S^2: 29.118
TIME_PGA_S: 
BASELINE_CORRECTION: BASELINE REMOVED
FILTER_TYPE: BUTTERWORTH
FILTER_ORDER: 
LOW_CUT_FREQUENCY_HZ: 
HIGH_CUT_FREQUENCY_HZ: 
LATE/NORMAL_TRIGGERED: 
DATABASE_VERSION: 
HEADER_FORMAT: DYNA 1.2
DATA_TYPE: Acceleration
PROCESSING: Automatic Paolucci et al., 2011
DATA_TIMESTAMP_YYYYMMDD_HHMMSS: 
DATA_LICENSE: U (unknown license)
DATA_CITATION: Turkish Accelerometric Archive v 1.0 - Disaster And Emergency Management Presidency, Earthquake Department
DATA_CREATOR: AFAD
ORIGINAL_DATA_MEDIATOR_CITATION: : AFAD - Disaster And Emergency Management Presidency
ORIGINAL_DATA_MEDIATOR: AFAD PROCESS SERVICE
ORIGINAL_DATA_CREATOR_CITATION: AFAD PROCESS SERVICE
ORIGINAL_DATA_CREATOR: network: TK
USER1: GuestUser
USER2: 
USER3: 
USER4: 
[...]
3.551411677468395
2.8809199425342245
1.9677779043687649
1.3868738028005436
1.612878890314095
1.3502366603249607
1.2388396262863448
2.5287476578207997
0.4955339026418591
-2.214254738717341
-0.8990385957917962
-0.2731169347608426
-0.47313972805101906
-0.40979012442342455
-0.0507702503704232
2.5722729206412485
2.3171529827988717
0.4735660330420825
3.1775005382155634
4.660902787390918
3.8073290805733486
4.693005203861068
5.25641580147724
6.321134781718517
6.921014989775132
4.84403761332135
3.6372018940377604
2.3204946417834056
-0.2077897396052113
-0.8828796447409063
-0.41314427312195323
1.008382799173329
1.676942590924263
-0.07442441611797375
0.6848430295333442
3.5646277078247683
4.0242882603035
2.550817861634395
-0.15805053986472686
-2.1613619101606747
-2.2041872218832776
-3.161889556781263
-3.548910753553917
0.2996322970851359
3.215831957973129
0.22558082289788545
-2.271979121387411
-0.3424156531101189
1.41668609244247
2.127574816385266
2.8605467535519162
2.856651352861438
3.5133455192598486
5.204343745673625
5.826439930572607
4.959309190057609
4.280023070772737
3.7320147310617844
3.009035038283507
4.71509458201557
6.822577250072336
5.225046091975744
3.488163868338658
3.487089102767497
3.4437599024879892
4.249083277791106
4.530108597247694
3.452947047009238
2.171072894458776
0.9702424575287948
0.47698796506786223
-0.8124404540769457
-1.451277243070449
0.4828503858926593
0.613000866048539
-1.4718474643842108
-3.15876898382265
-3.7237511144947693
-2.322969333138276
-2.0639543356707675
-3.8433073486179183
-3.9849273671478036
-3.5669842854522273
-4.7444870769864504
-5.824702412354629
-6.94724719286046
-8.204139603144814
-6.353409463104733
-3.0293923087067185
-1.4715243438108587
-0.8590138920912244
-2.754681974399785
-6.811040206922978
-10.172701212460149
-11.136966806328765
-8.417810878251096
-6.733205384252905
-7.494739881139068
-6.246234353541068
-4.578946960509943
-3.704346444148241
-4.040862059894475
-5.799065345362247
-4.5903532276183885
-2.816994013598383
-5.72987288336858
-9.162784065100729
-8.000513814078907
-4.953627124627711
-3.9401323679912843
-2.7379189571207325
-2.534418711884999
-5.550411746237159
-4.831798773149606
-1.7486192391859532
-2.6133380453414614
-2.728171776550548
-2.0616050625540963
-1.9119640309830666
0.5764940707254237
0.007290621371666901
-2.629537859101751
-1.141998698234668
-1.0991945108920644
-3.3367765188554963
-2.378420086444291
-0.2800149430940673
1.8402901756841148
4.033664238492144
4.014039789750924
2.4804837481720874
0.48779445492108164
-0.5408458066067685
-0.5929257360805197
-1.1124021864108566
0.06418607610356437
-0.44717780407937874
-4.4361708993085145
-3.2225717826508378
0.5095528604849926
-1.1971717585214767
-2.1621509352266415
1.1026946106996949
1.9613677735933326
-1.058642268365834
-2.717662763267943
-1.1374652383394943
1.9070517348246805
3.629389621722415
0.49863302151611283
-3.7718172899181655
-2.5646150039675097
0.058753614951522475
-2.174464589756774
-6.727304647419147
-8.443729294315629
-6.807190072681791
-4.450293230988639
-2.770742030964993
-2.005594336406621
-1.6383486416787765
-1.2814166730552339
-1.090436533219148
-0.7291075103359073
-2.0799377899246383
-4.424549106228504
-4.380498727093987
-3.962045600006469
-4.737684138644938
-7.401126414755328
-9.993193727926071
-7.844201113142274
-5.595554100563614
-3.794225359900098
-0.6918624744861317
-1.668300593529793
-1.2936918811025897
0.8660466921362089
-0.9971726805004076
-0.5100140033973426
2.745696641146604
5.149206299304835
2.8550782158307353
-4.2170311008045225
-2.5188366478403363
4.577983638240258
4.979365804874326
4.9507372674526104
5.118985754823319
3.0934906005905227
4.9115275889074805
7.917923605035106
6.558290585094877
3.9599670266561624
2.588655942715085
0.4602993379233256
-0.7481078287284894
2.0033915946983103
4.832070075234392
3.595873248802061
1.1188503443517528
-0.21271486640023485
-2.105643294301349
-2.709964705329241
1.000034123308486
4.091012711158426
1.3214102883502155
-3.5589380754731885
-4.875257418078144
-2.6537371730443877
-0.22925764488980382
1.737804031184805
4.50435328062852
5.604839683891056
3.1854117691733204
0.8575161610414936
-0.3060848972524888
-1.9706645967881173
-2.244745858883768
-1.0853396153594586
-0.0690199132724545
1.587253391279378
1.8305160324345713
0.5983793914519449
2.146024113699367
3.6106128774667265
1.7997230237423143
0.6432504749925144
1.146963312969354
2.786109833725129
2.4875105455188837
-3.300563209552955
-5.678453808890101
-1.5613745097683258
-0.1974374758679752
-0.2975186504304633
0.13306018879655612
-3.556518426196175
-7.505312831025969
-5.167979628550301
-0.13449564701660155
0.4449038687558575
-0.5032645102429067
0.1497630791181341
-2.623471623895163
-6.1910134536247075
-5.760349001025306
-3.46934146947086
-0.686777638020008
-0.2845162368789419
-1.8755318063600055
-2.2082337546035116
-2.2519365811626915
-0.798606414261452
0.5142471749486135
-0.3318221076355871
0.4975978299311745
0.5370183670408711
-2.0545302752190495
-3.366358663905312
-3.064403055595321
-1.0878323581742368
1.650423813730569
3.506367139739961
3.59539826789978
1.909178482383291
1.5118778364970693
0.5288305744662863
-1.8762074437696097
-3.2266988536184544
-6.4127556201398574
-7.891762527522989
-5.500474467137494
-3.6221919989600524
0.009697151852840601
2.195061857971526
1.273924053818067
3.025968166619488
4.917796809372366
5.076933769375113
1.1803815834551543
-4.987162355533534
-3.3106909614034734
0.16121455287331216
0.7582877134392568
3.192401288880301
0.7570281341187958
-3.1444674296680084
-0.25058738105500916
3.7239343974454866
4.302966781187628
0.9882727676801518
-0.21078832059284597
1.93810707813429
-1.769537912590631
-5.045029169685857
-1.78782271184576
-0.6538935817081465
-0.6092973137228385
0.643049075337622
-2.5828504268307846
-6.951562809272923
-5.496400062449045
-0.3182466880258361
2.6619750575230854
0.24640471082381482
-3.465738312638949
-1.4348468219886112
3.0989660324808215
3.564704567422463
2.1453117571724354
1.8884462603549972
1.8749413354508369
2.438156629940265
3.2678862831493
0.5109681345180711
-1.9311671005104445
2.59607526509125
5.198898100422108
1.4191557629183797
0.5566138469823271
1.916581927162329
1.3158605996752362
0.7749569535395087
-0.06454117233466262
-1.3231515180320426
-1.0698549123193835
1.6368784548634312
4.325718650413421
3.84640988864049
2.4301004198848553
1.082232884940932
-1.0461860193641945
-1.441916249590208
-1.0820594055642343
0.19554468106269313
3.772571255504207
4.203053742087887
3.464195112235487
5.238090968768482
3.78873984336494
0.8825078446934614
-0.11154715725280182
0.4071156609732196
2.313397527325384
0.7077230631315681
0.5505830659188513
4.218368265202604
1.918714618656445
-0.08124266313456391
1.6190002248432331
0.1192212534583548
1.1810778513625801
2.133181164902399
-1.4315137375075873
0.630847028370819
5.126478829291083
2.90521060712955
0.5433378337766719
1.8493202003941553
1.6320781530411732
1.4119287697023015
2.6532178818775285
1.1191575406361522
0.19702063255686633
2.7541458184396164
5.113645220648165
8.067287136441566
10.283793696849433
10.087169166122955
11.080614221149048
12.020942413589198
12.00327759211802
12.74951582201922
11.854515772976775
9.700572289028592
7.852663368901915
5.697262475447309
5.845590606214184
8.5164819933361
9.211007353090896
6.951563790620635
5.768864341694891
5.47633040507645
1.6986585805551917
0.0524839632361506
4.455048682663323
6.288572022264238
5.954419822715661
7.728925950781043
6.276887034424858
0.7408637037454723
-3.621475408512191
-5.247451807215221
-6.526929788970258
-6.4048134034308495
-5.22294341921576
-7.633581745777795
-8.790704226026174
-6.536462889618331
-7.1617382403190515
-8.181641546517232
-5.584388933374389
-0.5687053476341593
0.18989197376634614
-5.694079206409535
-8.104290777023003
-6.5645387663733334
-5.57805191017228
-5.192689751241341
-8.30068384399741
-8.237852206888752
-5.272491004238504
-7.556418298460152
-6.393435319846911
-2.5688017863541694
-5.015367094232519
-6.335888970250186
-4.04687068382651
-4.627134499187427
-8.41000165365866
-8.763235016475704
-3.1371872641925873
0.879468508938225
1.749952968917234
2.0342739207848055
1.8623047237413435
3.5441071364858954
3.6113911340215057
3.8047540034542755
7.38533619716066
6.784581893140365
4.3690498893926115
4.033485840961851
3.594478883313473
3.2339821744105257
-0.16769683371537386
-0.44493091693886166
3.020710012494974
0.8866506266729647
0.5936046441345371
2.5429597454211694
1.9766160687036605
3.0803108968240873
-1.4251690046557817
-6.5660244286214375
-0.5635215918079339
4.341000843304891
2.7634687363201627
2.391401152894798
2.2942121750585067
0.7373428861251284
-0.19539056877040195
0.01718807056705562
-0.9010774595018052
-1.589316055127499
0.16199849612764794
0.5338319876134546
0.5484024795654311
2.1947110442061786
1.4381936683797576
-0.6126489650702351
-0.6501384740011854
1.3275659799091364
2.1086070690564935
0.07770299116982142
0.25063385066442195
1.7003758156871713
1.925133511256759
3.6663811601441907
3.3620924343741145
0.9761981864822996
1.5379054235703158
2.246388961079496
0.16053283843613003
-1.4463325580666804
1.0421364973715994
4.99209881768918
6.450882521816279
4.690704835230697
0.5144692178579442
0.3124392412551794
3.550409364931023
2.692992013085332
1.843083232142429
2.104995592623117
-1.040575845961113
-3.161472851342659
-2.494940425286625
-1.8233289278626346
-1.6692343441012056
-2.205301436645862
-4.388182314234865
-6.759518846598769
-3.0389294589057774
2.3878821187205332
0.8652118471520472
-0.8997578492921315
-0.638609578304679
-0.9046150298470286
1.842028176882882
2.0601135590671578
-1.0283237435916408
-0.8374895239025876
-1.2407910046754393
-1.7095594889498795
-2.176901136055696
-8.413721063644353
-12.272951851815591
-8.955169433025691
-4.803142572910414
0.32609485787976467
3.174480884359574
-0.3587170290835708
-4.634445523511119
-7.874012394426274
-11.542713678865875
-12.062437712674074
-10.107476435382969
-10.209702079713184
-9.910251307107226
-6.25817608505563
-2.316224338016747
-0.38689215135875016
-0.013467521250247538
0.5248090315930816
0.5886043933891413
-0.8646288426541171
0.13004029986915347
3.8405245950134423
6.061311449622922
5.009658607980799
2.579336917502676
5.119569069976421
10.221938686353958
9.899534039066294
6.779930609364878
2.0750380792009997
-1.7479826915952152
1.2978952824161898
2.9954163584484714
1.7471681974840643
5.451351060388782
7.764810858510192
8.551891182332566
11.85333059187234
11.700129364227287
12.139513567601877
15.071939368806413
14.318082778432304
12.761929042057574
11.596828882483305
11.864530914797987
15.074839906402346
15.236856423237496
13.516965710849497
13.02939064154415
11.089408240504145
9.05745135369901
6.476097145524849
3.628816439212804
3.8766047323094917
4.001882069202561
3.320131321138648
3.4431223402938707
0.8945933056176625
-1.2283717274202328
1.4971720601925251
4.761893637100044
5.028782714877115
2.035283283379811
-1.7069163664985814
-2.1922972693758975
-1.6729138312990182
-2.6862344823404674
-0.734732929715382
1.771373483277539
-3.5328823009058983
-8.450343906497656
-8.273582122951204
-14.265719415105478
-15.780422930883779
-4.876925067302625
-1.3557024032207565
-4.714917380258984
-5.100839256959821
-7.3918311965405
-7.990867510086236
-4.1669945876058705
-1.3611549635037492
-4.14176937491843
-11.473996939752764
-14.501931581780243
-12.333445813126435
-9.488020881218064
-8.362560524783285
-12.278333085944798
-15.569442188753914
-14.566200675043616
-14.965314566883098
-15.907502600209344
-15.090331446425772
-15.551584323848406
-17.298955142054925
-16.510415850520403
-13.909131803867066
-12.53458975327817
-9.946058546204839
-7.034573015922874
-5.033464127400078
-0.025411690588079974
1.8187191672380354
-1.5696566853637055
-1.3955365839754867
-0.58333859322059
0.9841543313000342
5.276693760280796
4.053481058534634
4.416757631920871
9.672765598402961
8.047398921268094
5.8660092875447605
8.291611827087264
9.7949264011768
14.437626505395231
20.506508478339224
20.280669912632263
17.6236220600408
19.053689535071854
20.34860188041359
18.378002557978316
19.04613596147989
21.35809283288604
22.271372180019203
22.132951865897894
17.964621944031297
15.197405696059537
17.382464028684353
17.65655645733442
16.354126669303994
16.080285421146804
14.64652817923623
11.447403366385133
11.678182662774875
16.69303601890742
16.522888103878483
11.444772013299268
9.650671604904911
10.480217774388702
11.457704498552435
7.07537754203631
-1.6751700669945233
-7.282978628691403
-11.996448050319621
-15.918246834319048
-17.858139970855394
-20.838868407976452
-22.469217505803734
-21.32815675598125
-19.83200143092463
-21.306588605046937
-26.211511482505117
-29.35048120976565
-28.54818613793103
-26.72033227981744
-25.622024523250126
-23.67724579539315
-22.624626101216695
-23.84393834136117
-21.973131279360295
-20.345199058464484
-23.30305088341506
-23.22987165175465
-20.397004899644376
-21.297258309472202
-23.815049459979903
-24.14449347834887
-23.00060426609878
-21.731349745173123
-21.2571643276592
-21.71260333903284
-16.987896885390082
-7.448546642617439
-4.139569921430867
-7.170167468878533
-10.487071743991908
-9.601086557151163
-3.3829267576125903
-1.9793984514278673
-4.152991371628576
-1.5954512500617852
-1.9671491997806057
-4.331701009804031
-2.2696786978841765
-0.7033336213438075
2.9929793364776813
8.328432139413813
6.989269608464026
4.355003850190838
3.923501452646952
2.2578585021323456
3.2351702169906087
4.6907776002622
2.6551157577236664
0.9092412602436987
-2.059627804629459
-4.6762093165304055
-1.4491721182420012
0.1634397397480737
-5.310950432502456
-9.202867769687217
-7.585411921496056
-7.262223038292148
-10.117846925534081
-12.073001606318893
-12.96663235526596
-14.510301141620033
-17.876628950560605
-20.19081927467603
-16.85488656574466
-13.0661600125909
-12.947308850755762
-12.208004377585716
-10.298673760573093
-7.805412226553757
-4.8748877262018295
-3.5077295674375417
-1.7295134259836558
3.001033955136111
8.322454201885321
11.395208812302078
14.865849007892226
18.424653915204267
16.423260239787805
13.237545060144647
11.058782002363786
5.9619334352554905
4.93594533462827
5.093849198355294
0.5558092219031884
1.4262799983226515
4.039141445743575
3.603206839420779
8.282150981729218
11.8187448680315
11.675126284593691
15.072660614029607
15.832334485994975
13.27982808497555
14.297054605976117
11.785447223453467
3.7907204326355095
1.3059861423358834
1.2056207596830733
-4.64883339340651
-8.547608422009754
-7.049720212869923
-8.441565609435104
-10.493480122070812
-7.700988012262386
-9.289203858016988
-15.832175809818311
-13.686728154664982
-6.637282815936843
-5.869388992487819
-8.888156530254879
-10.70841681557391
-11.185402779681102
-14.022293134061421
-16.9751319124915
-14.629473081789587
-12.880223541398648
-14.080291675445855
-12.528974872755779
-8.703880117821878
-2.6676568277209536
4.445782183862441
5.831679979319028
3.288087965696765
2.9468501220753573
3.2574850209981068
5.282200295862553
10.334741048088183
11.793284264990252
9.395420584374001
9.921394098946186
13.332620062070966
14.048719850958857
11.900333902348093
11.798674576604375
11.572008321930557
10.835797207938539
13.216903405775499
12.565291944535083
10.960592794090752
15.501199006749093
17.226350631129666
12.526318142646524
10.004644178168864
10.237503750561274
7.408205615206036
5.014570975574715
5.739230187159126
2.979453909923637
0.6976300720265886
0.014624344704685197
-2.1940199842317294
1.5231266539452124
3.0614436212299574
-0.26129808837509233
3.2963963875802653
8.91870511708927
13.533657842705264
11.913713829368678
4.261265117924819
5.643378169324426
7.821524841564532
5.1882810748647215
7.57969779407695
10.923913739383782
13.71994463064377
15.085325159311024
12.456874606376816
10.586273248703222
7.4871931400660525
3.0195410476265945
4.399810422327234
9.74548698305357
12.192201013274596
12.476735732423375
14.966713632422703
18.22601708520778
16.56803194379209
14.752304325959694
20.835335583473615
25.314893970481382
26.096973273220723
28.179617225807736
19.566622067087323
10.469780544407458
15.60520652788083
18.045669869199248
16.428024051310796
14.938456933707078
6.734816532490885
2.6654180570696595
7.067955618704274
12.242521095038827
16.13137005337447
14.639450866598995
11.207694281167385
13.518133131542362
15.938421320306457
12.768138533542292
9.565830286706055
9.299750290712216
9.446538263602365
10.028269224337642
10.043210039873477
7.555499015354285
4.53689000287034
5.412446897836104
7.638539373011975
4.591622128466169
3.6761922157680353
7.613560545134264
3.5582010930118995
-2.9678525855016544
-1.2182470812110033
0.7550693017571015
0.5168941583738603
0.9348276096361599
0.7581816073035532
1.8512237179172326
1.267190729039909
-1.154699850293531
-1.057407748597263
-2.121527624355274
-1.429503907175293
2.370338701907135
1.8620108744253323
1.7036413301400153
2.360683813441467
0.734351778801214
4.024283434588854
6.498709216295851
4.229158692282384
5.880820732803541
5.523025488166882
1.1700394706985338
1.9525308003730808
1.0412334129855403
-4.156026026582323
-6.591096298123033
-11.297451989266106
-13.142584827677645
-6.076121732651821
-3.9398920606330177
-6.316559951821937
-5.932005512249583
-7.288308283297969
-9.48235686691261
-11.994297352974568
-13.031019605480832
-12.193400812230024
-14.450189415330508
-12.56482283243953
-7.547070875737214
-10.695797218583046
-14.349337732786356
-11.662034876949996
-9.401223796336287
-8.599585105778248
-6.274475257576376
-7.272348282534573
-13.02008932817266
-16.20611312117192
-19.41056758447129
-24.726196433996574
-24.89507691540306
-21.70379981616112
-19.775993751344
-21.335494913296827
-23.743666195683833
-19.89831025127748
-15.220472386806174
-11.663231070756181
-5.583944346544806
-6.147720209730731
-10.652035213202737
-8.478123649891133
-7.525852300110436
-9.713400793739023
-8.1560965970048
-11.597339865585683
-17.964726717193567
-15.004856787621492
-15.37337690115724
-20.46564178192227
-17.89400003917986
-18.550601715675413
-20.796387050224855
-17.589384909413365
-18.55905594014805
-19.157607148791175
-17.59524648157347
-15.849401582938212
-10.40480561704778
