AAD_Filtered_TADAS_FILE
AAD_BASELINE_CORRECTION: BASELINE REMOVED
AAD_FILTER_TYPE: BUTTERWORTH
AAD_FILTER_ORDER: 1
AAD_LOW_CUT_FREQUENCY_HZ: 0.025
AAD_HIGH_CUT_FREQUENCY_HZ: 40.0
EVENT_NAME: 202302060117
EVENT_ID: 13194
EVENT_DATE_YYYYMMDD: 2023/02/06
EVENT_TIME_HHMMSS: 01:17:32.00000
EVENT_LATITUDE_DEGREE: 37.288
EVENT_LONGITUDE_DEGREE: 37.043
EVENT_DEPTH_KM: 8.6
HYPOCENTER_REFERENCE: AFAD
MAGNITUDE_W: 7.7
MAGNITUDE_W_REFERENCE: AFAD
MAGNITUDE_L: 
MAGNITUDE_L_REFERENCE: 
FOCAL_MECHANISM: 
NETWORK: TK
STATION_CODE: 3133
STATION_NAME: 
STATION_LATITUDE_DEGREE: 36.2432
STATION_LONGITUDE_DEGREE: 36.5736
STATION_ELEVATION_M: 170.0
LOCATION: Kahramanmaras_Pazarck_Turkiye
SENSOR_DEPTH_M: 
VS30_M/S: 377
SITE_CLASSIFICATION_EC8: B
MORPHOLOGIC_CLASSIFICATION: 
EPICENTRAL_DISTANCE_KM: 123.47
EARTHQUAKE_BACKAZIMUTH_DEGREE: 
DATE_TIME_FIRST_SAMPLE_YYYYMMDD_HHMMSS: 2023/02/06 01:17:33.3250540
DATE_TIME_FIRST_SAMPLE_PRECISION: millisecond
SAMPLING_INTERVAL_S: 0.01
NDATA: 12501
DURATION_S: 
STREAM: HNZ
UNITS: cm/s^2
INSTRUMENT: sensor = GMS+/GEOSIG | digitizer = 
INSTRUMENT_ANALOG/DIGITAL: 
INSTRUMENTAL_FREQUENCY_HZ: 
INSTRUMENTAL_DAMPING: 
FULL_SCALE_G: 
N_BIT_DIGITAL_CONVERTER: 
PGA_CM/S^2: 87.595
TIME_PGA_S: 
BASELINE_CORRECTION: BASELINE REMOVED
FILTER_TYPE: BUTTERWORTH
FILTER_ORDER: 
LOW_CUT_FREQUENCY_HZ: 
HIGH_CUT_FREQUENCY_HZ: 
LATE/NORMAL_TRIGGERED: 
DATABASE_VERSION: 
HEADER_FORMAT: DYNA 1.2
DATA_TYPE: Acceleration
PROCESSING: Automatic Paolucci et al., 2011
DATA_TIMESTAMP_YYYYMMDD_HHMMSS: 
DATA_LICENSE: U (unknown license)
DATA_CITATION: Turkish Accelerometric Archive v 1.0 - Disaster And Emergency Management Presidency, Earthquake Department
DATA_CREATOR: AFAD
ORIGINAL_DATA_MEDIATOR_CITATION: : AFAD - Disaster And Emergency Management Presidency
ORIGINAL_DATA_MEDIATOR: AFAD PROCESS SERVICE
ORIGINAL_DATA_CREATOR_CITATION: AFAD PROCESS SERVICE
ORIGINAL_DATA_CREATOR: network: TK
USER1: GuestUser
USER2: 
USER3: 
USER4: 
[...]
-3.17101058419931
1.8107121460023263
-0.196952399144715
-11.073638167634057
-14.572877766902309
-5.89465374259008
0.07362868971916836
5.206698407231325
8.542586017681076
2.5937394269233973
-8.497232540679258
-17.45873874030915
-17.10266660232457
-13.996359519181723
-13.781978844951269
-3.0836763768284543
16.37451547784214
24.471993415718973
18.454939332021844
11.561703494812638
6.9370903896395975
1.1989549745799677
-5.801295023747382
-12.835946399240788
-12.343887080053127
-3.8569221057779566
2.68677183910352
5.291880763528896
6.91924461545555
11.010094215010756
13.933307005414706
7.2788722538896655
1.1737790360069216
3.2803238631417044
7.770945823819543
18.469356957082436
31.09765538019681
36.35358348168667
37.6953152968706
34.29441409027848
24.815296294788055
15.938541127914753
9.668498872126595
2.57108046630951
-3.0510943186550454
-6.325166734952756
-14.078062138959146
-25.483709961444557
-35.21735492229829
-42.35855497113195
-44.76933167227477
-42.58707806804951
-37.77662085244056
-30.180664600914703
-19.95966975480208
-14.274126470353737
-23.183815613164022
-37.865777126646
-42.128874494797074
-36.39165189888765
-29.567505349069798
-25.852763438207067
-20.954118266247217
-14.244450070425412
-7.263327857952547
3.0516247178094997
12.420304515282925
14.947269607525131
10.497329996110755
6.750984441636358
7.039558625118262
1.1374034194087679
-0.9285354264684698
12.10392628061678
19.859939392613445
18.332542516290097
21.858104909504622
24.07300224929282
17.358363194218324
2.989984135273957
-15.393953491777449
-25.104934794697204
-24.087247534789185
-22.194303270208394
-22.09309835614047
-19.757037484145695
-13.394066537209795
-11.634888995626882
-14.20320674937104
-14.155832315703874
-12.511480604795528
-9.640136612609274
-10.85428937918873
-16.612883339324522
-21.631338350639687
-28.297658655918983
-32.23763074171254
-24.4880226084402
-11.337148301483444
-5.074308015230671
-6.624812628180181
-6.3986176788491544
-3.54102929018301
-4.857867066963339
-2.2245835952989714
3.400005622239951
6.167711577713535
8.519523126871547
2.4114584024878893
-2.459282707300596
5.812398346429351
17.217974647247214
21.51311834400476
14.946177623854965
3.9570525767128584
-9.134560668732712
-23.62921298494374
-32.770372786675864
-31.583243234173185
-17.18145471745724
0.9346564928380837
13.357209820267506
20.761092984342476
16.88307299599436
1.9644075250181314
-7.276895407800974
-10.020505129584057
-14.973117495727314
-16.490554822502716
-16.142973365525197
-16.678616556096767
-13.107305467521602
-5.928943485033091
3.563071251182617
11.963578660783073
15.72578677436729
16.508006622402398
19.032852522322255
21.797439537789298
19.969185440633048
19.252773782766866
22.091194547819494
21.6608977466725
17.471978818818492
15.807276372160848
21.27571062665455
29.896387613344984
34.88958127044847
37.093743808632595
34.972275295890135
24.99805180235451
13.935215364107995
3.9197003836503503
-8.297160685559986
-14.77543812822815
-15.893094223099476
-16.22380704673006
-11.358421693201315
-11.069877756426077
-15.824218656324051
-13.775116069104024
-13.035780531696965
-15.037869932058836
-11.664408294696505
-6.920329205476097
-5.874466815206556
-7.724549794306331
-6.0094780806126655
1.8399393174288714
9.618767001596664
16.797664235356702
22.62857714144874
19.235291317871326
8.688996144442646
-0.7173947311848561
-6.134899916874396
-6.652935402345972
-4.740011198133829
-2.6853371979969625
2.7476900821840595
8.613530639381674
9.374430285067941
11.861193181064749
14.2540144527117
8.33153742521545
2.2765088569828817
-4.009668161415816
-16.168013257432943
-27.050248713076556
-35.92599920653363
-44.10801194878193
-47.74582463222309
-48.681734245475276
-47.68421882581243
-46.51920945632186
-50.4186840984308
-48.21190646902998
-34.2958943507752
-24.556415969208174
-21.058414084777027
-18.354719448225143
-12.142251612391838
-1.006720927437541
4.074777191332705
3.8461315762041743
2.132088774357311
-3.5402276071850665
-7.263958819591036
-1.1532156682118901
14.475114817985997
26.531678226017892
33.24186133412811
41.848503019333414
42.07359486207207
35.67356168421842
33.13001972982325
24.708334681667008
16.506730413695042
22.88482534194601
30.168947130214285
27.43323149151294
20.989641640910545
17.422865476843043
15.356077421893799
9.66976337761899
5.912435124036819
10.84282924511613
18.556261419134962
24.160355477875065
27.14732441007471
25.900624994752405
23.199954041147112
21.719440469294998
24.224839403326094
28.081501601940634
27.57395871621016
27.416192147779093
25.205438176775363
16.252991643173775
6.665706607656905
-1.8473347478691486
-9.230842308425045
-13.52941984410041
-12.89372466028519
-7.115193313679722
-2.340791472785852
0.8107621090727856
7.6774097359139635
11.895340357268022
4.983701517592206
-3.061277598601804
-3.7603046116746883
-4.897150208021954
-8.82585354291827
-12.991319515210344
-15.835815323173325
-14.084483718112963
-8.323225358513936
0.04862416771758757
6.448606034273863
8.55692068851345
11.051080810255721
12.69829255819498
9.967788858761146
2.7698021479311357
-8.488705186336954
-22.51831233956877
-34.89933744534782
-40.65777347989606
-42.36386188346242
-42.1060930995285
-34.44927963874329
-27.176770929091127
-32.2535431237087
-35.859391319730605
-33.74023793044695
-41.502566609180796
-50.404513341565206
-43.962325290562035
-28.616020742882405
-17.398203032133683
-7.851800372816514
7.618016700551813
22.376591245451355
25.215566719884677
15.749499939264695
0.45270966989074135
-15.280558337735815
-26.545697552511445
-28.704473311754242
-18.749369995702416
-6.073960202929291
-2.7302781123835786
-3.5736263523542124
-5.4183213475211796
-11.546492639732826
-17.832462690246174
-17.74573491800194
-11.952605155999958
-7.76372908720342
-5.244006755322243
-3.014326120831241
-8.306811365819568
-22.8606694768109
-38.404706429540624
-47.065365244780914
-49.14097566248978
-50.58704415603551
-46.436521606749366
-30.226378608509897
-16.915108590331023
-15.276291690351567
-15.591274424085606
-14.356848695548143
-9.597229865561307
0.05311477477017468
12.661423453656106
29.596805952311843
38.35749397201737
32.570410445837545
24.095074872046784
10.561043035331029
2.0731638652411135
8.41532638648276
17.4780054412105
29.808568549494463
41.465948445489275
45.29342248582785
44.62257724595483
37.84076952825119
25.090137477035316
14.889979963121108
10.575659109350672
11.629921859279223
17.467817241898615
19.7314228066923
13.370074097600197
2.6330134016517848
-6.395932418726279
-13.368560115882513
-19.527216280506913
-21.70332635013836
-13.739645292216137
0.9311661017815912
8.631714484934989
10.714176482626895
16.04508037136153
29.002816508210824
43.173246790483496
46.61000377686728
41.55985272939065
31.52303412871918
22.548182712645986
15.899917613191908
4.538425893621485
-4.785670952614039
-11.191348169791917
-11.667275731270742
-6.96240488796427
-10.925167775585317
-14.800494961256822
-23.983311828494116
-36.67564239052819
-35.4400987312736
-34.56524936825098
-27.910213524761915
-11.10098474503748
-0.432726595046977
7.20431576933001
9.77663204547726
2.7256299149156966
-7.505974779690794
-16.67741059569487
-22.823938778024974
-22.30449551499191
-16.457275051563947
-10.26318271714357
-6.328455268768254
-6.435773857555398
-4.5770482640767645
-3.001884524561584
-7.907083056841135
-8.137138590702115
-4.6127442185300955
-3.000492584733523
1.4662034559807164
8.866126519678952
12.602163049122597
11.338964768151502
8.066552250253412
-3.361763777426811
-11.137975882048917
-12.965755725931835
-15.963399185576806
-4.616551475767819
8.785159082044228
11.748371366879775
14.418590996764179
17.20914297666105
14.676722309097343
4.3614000596303795
-4.344352427232647
-7.097261278473038
-4.121027031527131
2.9364003296154078
5.41584042760809
2.475314262140342
-3.897250713316371
-12.543101763645488
-22.777050401302102
-30.50898920590227
-28.962102754156138
-20.983726196690725
-13.339821244169956
-7.75369400257452
-5.825812285354954
-8.217226697990187
-5.404144738086111
2.309070841001057
4.049353097785962
3.990236580286603
6.892662864827466
8.812160246720381
9.268007148535572
9.166086940367395
6.023825541878114
1.3082148624565817
-1.299025230010644
-5.399406706426927
-11.106461430949393
-10.653905116614457
-6.1353837290351985
-5.929507703356218
-5.023808518258425
1.6769925835496962
10.605004231575913
22.901409106719665
33.69789381291633
35.35428835234768
32.340874738065736
24.141197675295032
9.954700599032732
-1.565313251088554
-7.687196468936708
-4.553411335859465
7.18789769453144
17.79585473879948
22.406881091310982
16.718186050959492
8.061690867252159
8.262122166976894
14.456580202207656
21.31837951325703
21.870679603342513
14.02879226117746
0.9314390969487832
-18.310489675747984
-34.283906313763005
-45.24785893298104
-55.28898431857882
-50.81990609069429
-32.57493445769976
-11.380008556805155
9.965234932534367
23.80101587927673
25.818795211047746
17.938441056163228
9.664126744219303
10.04025030620052
10.186104868220207
1.7055197198837335
-3.012534286148772
5.397165289831417
17.21103179929717
25.092838038177703
31.18264055848073
35.33060613588728
32.73542827215797
28.16244791946743
25.218778924663066
20.050630452849596
18.526283824783516
15.033611552951974
7.889287977173188
6.1939210226269275
-1.4664673129249275
-14.921719588450877
-22.2385366457653
-22.843693531573503
-18.900497798542727
-19.103019907956014
-24.59177979327488
-24.641881837627455
-19.266179706222776
-18.512257619586777
-19.864941669068855
-13.191958381345255
-0.4469295773283076
1.1376981277832383
-17.572204702891863
-27.978483369416807
-18.5208366600679
-11.703217070041704
-2.5080158879360903
16.800139405436145
24.44995882771133
6.618854008116525
-14.20889881250364
-21.80232661592677
-25.817207875701676
-30.459340774238104
-30.23854104494812
-13.376245927846323
5.281601402221832
8.054639805527877
10.652220411748065
14.325476645938137
5.685355388823599
-10.527027466665434
-15.19974492835176
-9.663278905351616
-4.426844507913863
2.7364842804156813
9.16137547015906
11.232372061672137
12.616071924396769
17.353016523561873
16.306666160883818
24.509383832798996
36.135350562505366
42.909489514937405
46.98613232864048
26.04149726582299
26.410161412485863
16.091992431564783
-11.967898794556682
5.618920875746935
14.296786569294596
17.08341904572575
22.875420676622326
24.333480535718643
32.07905414447142
31.0542848604836
28.26615976390067
17.5331592296352
14.406985027620928
17.587902446489526
7.526543574629992
-4.318950707116921
-12.6027620608074
-17.18966288976027
-21.711242365865914
-25.066391087796376
-20.856855935032517
-14.882653515207231
-15.198416967092491
-17.04971278166713
-15.82076290327383
-18.78804029287954
-32.54858728742741
-50.32486802767632
-61.66574616290374
-56.554282347224
-35.322267229317355
-15.581657533563632
-3.6051465477982116
3.8712081776216887
10.140298942131109
9.541396641887914
6.456612217721722
14.743147300374469
17.449500872914903
12.629861873798353
1.4569525513140633
-15.461216458368813
-22.83361718569328
-26.798571243829986
-19.558775970784605
-1.529017033898181
12.20315051398958
20.56631867507827
20.73819010980412
15.84591911420592
7.008474220512562
-9.001088625895177
-23.699366115717854
-32.47072813913324
-46.76075587322051
-53.69887774708478
-37.3394803669791
-16.208521036531213
3.874203740443003
23.77974201183633
29.99200832088072
22.821915467967013
9.7153589194738
-8.249736253572301
-19.755184153062405
-16.827776193856998
-5.089970474237045
10.59085737089764
18.135973944725333
26.165140325360817
38.814555220640806
35.04824939022463
30.560817309868774
31.941614331764637
24.62558871407355
13.703300893935538
-0.544594538399089
-12.488343478212508
-11.228011351367362
0.1579067324155644
8.150809144274415
15.238429148948457
31.059616600005096
39.38398433687227
39.68851668909657
47.07654110723247
53.690987387764515
54.80314790599459
50.27775647430131
39.14459741537318
28.947757933599263
20.197738372759037
10.53401935185948
5.839272744382152
7.571601645418773
4.178271390814564
-8.256782720925996
-18.661821472449457
-24.641657647487293
-25.529740708720176
-20.023610398233508
-3.968237514735669
22.835106912200494
41.00126984930219
55.76003501885726
62.16848531553942
56.25875694045424
59.63722890503079
57.1026227020561
53.41213704273598
53.588551368982365
50.56095639185178
52.09911748898787
48.90570093150636
46.422772134132096
44.056426162666874
36.87029121074191
29.28942589238545
17.891596493180874
2.2589471771808145
-13.73219952399922
-26.64013688574968
-38.559609578404334
-47.82579564596571
-51.85432400493748
-49.42157026780169
-44.52695435010129
-45.48781148050948
-53.80520454230982
-67.18691195221518
-78.08005304318355
-84.97968164777247
-88.03437700703651
-80.4259796680016
-63.71983312446865
-42.50655114823603
-18.31949127501136
2.592549827642162
10.705575008562516
9.95704606280466
5.5303680470580785
-6.452539532361521
-20.296496272767985
-33.59639973802323
-35.98649568097875
-22.817382762968066
-13.86190073712486
-9.222098235892233
-2.0735573508117344
3.6541137230798086
-0.6705479404290757
-12.576407666125204
-9.894231096029918
7.822054482188394
22.512829146220426
24.66335436162232
16.140814524136484
1.2871121749778862
-17.65597744895232
-30.233166781335015
-28.027701439468437
-16.02925445302868
-5.383781700403351
4.48496434383088
16.314931437687232
18.96685905584393
14.641347926046725
18.484323669272996
30.479496435710534
43.65563930762638
57.86327527890216
65.5235482749891
54.3571641768931
32.562990732797864
13.277256013980283
-2.2712593094137965
-9.402544781213058
-10.25160304526811
-18.402141430113762
-28.888586027043395
-28.931014250897835
-25.142584371490646
-20.926935699387563
-9.423263501182285
6.80404520503012
18.33730490971771
24.97407826509307
31.518223217055233
30.974870412171658
26.27138098552715
24.066113527494117
15.810126487252157
4.31987399322183
-8.677639016260974
-24.00183046636673
-30.600828582395998
-23.67932907852948
-3.1437682364788158
15.456764723236791
20.510615634819917
21.267118289599328
13.854192225654383
5.202748848108128
2.722494806205961
2.5054939749805842
9.294821702634447
10.972286360604024
3.360141475784575
-4.354144580709693
-15.622603742833086
-33.51307801751051
-42.63029109846774
-32.58963014862039
-20.894212337875317
-13.142235145341262
-3.7143928033897198
3.469477286312832
7.846816162586608
9.889833553967014
10.715876083672688
13.200817801603892
16.614169465253106
18.462214577617516
14.050596960511765
0.17022681667124956
-17.71573855186408
-33.525453625121415
-45.971465593182955
-50.31062624779191
-42.209568772453814
-27.951620906785827
-14.151633097227846
-2.8769158176088623
4.0145060279827565
11.280007821159826
22.187192880971935
28.827369641382937
25.857621879722767
17.19026835095219
6.498249926774996
-1.963985961664555
-5.627172566528749
-6.08669467942923
-3.954070007562191
-6.416419298534684
-14.915563613076587
-25.12464095424762
-40.505704215288304
-55.35291589143145
-62.006916525071134
-62.00393530522705
-57.170150056998125
-47.739448598413674
-38.594830527526106
-36.71686407952029
-37.846998909572946
-31.445793240343054
-17.037631229750165
-5.012399042644008
4.531766696726216
13.307868338060858
15.840177103502779
16.359599634881437
15.864088853964155
17.924779728766158
26.275092924811396
28.549991389911202
28.807908968714035
37.81231824518697
42.089232679771236
35.14343617800127
30.283537064976997
29.325867609957644
21.877584073147073
13.887755409718817
11.9597940189444
6.365525517386404
1.0040957107098303
3.405899798692678
3.440410242937449
-3.2219808170531037
-9.540115792194378
-10.69989032373939
-5.687560623045251
-4.294723763974149
-14.719429697055876
-24.022445211487266
-31.933098182849257
-43.46601501954782
-42.64017764430949
-30.34498566002289
-16.61256277766363
-5.355846496497595
2.37725386353547
13.249969404411026
24.270770537112586
33.454162272623485
41.25147155497309
44.92419216764284
45.406838516752536
41.22522106997801
31.039262983924882
16.22554578390572
6.939786236103391
8.442750767771303
13.494748434444515
21.50096882802806
34.24344906601264
43.84023309019674
41.870280360304854
32.45081016227711
23.77877459449279
21.33804696757373
21.354251387021755
14.50215875280175
9.600622486321411
12.18158626455167
9.662057509846019
5.549480555294127
5.431700851142722
1.6817172398862672
-3.139338218394774
-7.431718817238209
-10.06046000993866
-8.656487568113864
-13.365805029898949
-29.812661779644536
-44.38402697632829
-47.00268047732108
-46.6911020775261
-43.1332789409731
-38.06371549257753
-35.378473006647106
-23.302692235124717
-5.984413797869058
7.371657586546783
11.004684888435017
4.15375907716936
-4.437981042366841
-14.021912697439728
-22.960218081598246
-32.816195011883394
-43.20942717604286
-48.440536704667416
-45.06182370690587
-29.47777754177923
-9.040372922453768
11.698414083104327
32.554547119790904
47.006581014980874
49.29021304973196
33.282697412472956
9.788359358462532
-4.605634484570112
-15.18502781781086
-18.36702023551574
-9.71553808421082
0.7638738730585896
14.224423139262479
23.75468091109482
25.39201144189709
22.608820227203104
11.503863847850075
9.493406773047651
19.522568704487142
15.510576905453249
-0.7966135229799887
-11.909241905777467
-12.844774065604856
-3.5128800641725175
8.96918065699994
22.8580406833228
32.928471187019
23.391065757384286
2.242239586598697
-15.311857538055037
-28.9679412669869
-36.73576688493528
-34.60372738900928
-27.9305654190068
-22.912057534907994
-18.928115988397764
-18.99885541079613
-15.812271522808068
-9.087250140848903
-11.91485832125814
-10.506853615640479
-1.7505747243302008
1.7033350293187584
4.607490409018553
-0.1145790348565923
-10.14794458080796
-15.12295844785551
-25.207843252561222
-36.595037238709466
-37.76936697873245
-28.70584528500572
-23.867530099433907
-33.3901048933215
-36.39530195489335
-29.066726682011005
-32.28185426889472
-39.37973562481433
-34.22693453502604
-25.51874768365805
-26.692748011993967
-33.43564068613817
-32.669476227945104
-28.84292276281911
-24.15569475596589
-7.909011327417483
4.980450146079773
9.950141349233757
16.395055766748815
12.343000932648925
0.7549562604800635
-7.536608524068253
-13.379872165102968
-17.1099277256706
