AAD_Filtered_TADAS_FILE
AAD_BASELINE_CORRECTION: BASELINE REMOVED
AAD_FILTER_TYPE: BUTTERWORTH
AAD_FILTER_ORDER: 1
AAD_LOW_CUT_FREQUENCY_HZ: 0.025
AAD_HIGH_CUT_FREQUENCY_HZ: 40.0
EVENT_NAME: 202302060117
EVENT_ID: 13194
EVENT_DATE_YYYYMMDD: 2023/02/06
EVENT_TIME_HHMMSS: 01:17:32.00000
EVENT_LATITUDE_DEGREE: 37.288
EVENT_LONGITUDE_DEGREE: 37.043
EVENT_DEPTH_KM: 8.6
HYPOCENTER_REFERENCE: AFAD
MAGNITUDE_W: 7.7
MAGNITUDE_W_REFERENCE: AFAD
MAGNITUDE_L: 
MAGNITUDE_L_REFERENCE: 
FOCAL_MECHANISM: 
NETWORK: TK
STATION_CODE: 8003
STATION_NAME: 
STATION_LATITUDE_DEGREE: 37.08417
STATION_LONGITUDE_DEGREE: 36.26936
STATION_ELEVATION_M: 122.0
LOCATION: Kahramanmaras_Pazarck_Turkiye
SENSOR_DEPTH_M: 
VS30_M/S: 350
SITE_CLASSIFICATION_EC8: unknown
MORPHOLOGIC_CLASSIFICATION: 
EPICENTRAL_DISTANCE_KM: 72.18
EARTHQUAKE_BACKAZIMUTH_DEGREE: 
DATE_TIME_FIRST_SAMPLE_YYYYMMDD_HHMMSS: 2023/02/06 01:17:19.5251700
DATE_TIME_FIRST_SAMPLE_PRECISION: millisecond
SAMPLING_INTERVAL_S: 0.01
NDATA: 10501
DURATION_S: 
STREAM: HNZ
UNITS: cm/s^2
INSTRUMENT: sensor = GMS+/GEOSIG | digitizer = 
INSTRUMENT_ANALOG/DIGITAL: 
INSTRUMENTAL_FREQUENCY_HZ: 
INSTRUMENTAL_DAMPING: 
FULL_SCALE_G: 
N_BIT_DIGITAL_CONVERTER: 
PGA_CM/S^2: 139.894
TIME_PGA_S: 
BASELINE_CORRECTION: BASELINE REMOVED
FILTER_TYPE: BUTTERWORTH
FILTER_ORDER: 
LOW_CUT_FREQUENCY_HZ: 
HIGH_CUT_FREQUENCY_HZ: 
LATE/NORMAL_TRIGGERED: 
DATABASE_VERSION: 
HEADER_FORMAT: DYNA 1.2
DATA_TYPE: Acceleration
PROCESSING: Automatic Paolucci et al., 2011
DATA_TIMESTAMP_YYYYMMDD_HHMMSS: 
DATA_LICENSE: U (unknown license)
DATA_CITATION: Turkish Accelerometric Archive v 1.0 - Disaster And Emergency Management Presidency, Earthquake Department
DATA_CREATOR: AFAD
ORIGINAL_DATA_MEDIATOR_CITATION: : AFAD - Disaster And Emergency Management Presidency
ORIGINAL_DATA_MEDIATOR: AFAD PROCESS SERVICE
ORIGINAL_DATA_CREATOR_CITATION: AFAD PROCESS SERVICE
ORIGINAL_DATA_CREATOR: network: TK
USER1: GuestUser
USER2: 
USER3: 
USER4: 
[...]
19.32831417913087
19.43174098298135
8.54623322466838
-25.62870243241762
-62.78464774547152
-62.813612131784865
-36.1845743527041
-17.970215816802632
-14.113669105542966
8.788548131942452
37.33115332825729
26.41847388956857
17.81739070282503
46.055252364183424
59.248107480429525
49.977597789795865
60.15721884405805
57.41283665009269
15.028250454775108
-21.38180610201925
-16.322298198113117
36.40676590328109
98.35646223024285
114.05812537204228
81.10038570129736
41.61923331459574
14.227980796232254
-11.702038832859147
-21.422746589007613
-11.31754411647343
-3.772459045440161
-1.7250365704985113
5.558559989009339
9.523948535699601
-4.314614831356646
-12.312664677762704
-1.3497104575615044
13.410508564198514
35.07426670543279
44.24115694276162
19.599703205360353
-10.012108793622081
-15.226039423967453
0.7041001731655371
9.299454680926353
9.419263606054814
30.789623985477647
60.63807440882313
70.94508595745427
72.2318374162108
76.26950633391327
77.48950060622712
73.72909819456582
59.02080611508444
44.78990949992626
41.25432386535218
27.46033044943868
8.431145298163427
-5.218492880369806
-35.59119042773156
-71.50784168233409
-56.54211787304399
-16.703096850409608
-21.323237683239935
-27.512242666750684
-8.445899078409973
-4.847298138069484
-9.782232085381606
-9.728283971179009
-20.930391057054592
-45.69256773443336
-50.259582510699545
-35.48961727723363
-35.15741825100429
-23.38590065644309
12.144374373815516
27.848171566417673
21.967889050733817
8.056692502665758
-9.67346145669439
0.7949831468444372
21.43981089505599
12.896261852521071
-2.116854879100519
-8.803534160400307
-21.29847734334891
-52.92406482406422
-85.42469810422254
-84.43337324918294
-73.9120433316575
-71.79196594472694
-55.36546411822017
-34.180327719375285
-26.73609583256195
-27.324476514051643
-18.76931487003946
-6.764721904857323
-20.273571840121463
-44.86781994363619
-46.94917271581289
-36.93247236401458
-29.61397458630937
-6.186413712002645
36.64524865706157
53.413227756757564
35.900051275518884
31.560250718238677
36.91095047836268
23.321263871011954
4.8976736816174
-3.52384714857016
-5.957581486154628
-6.176175008894296
-11.168641881254738
-17.692399404052516
-8.399075538717632
5.343398762423237
1.2631150297129738
-12.796272179341466
-14.940825079793122
-0.7039205321807493
5.658114476271797
-8.973708845203273
-30.679112614451547
-39.447023284835474
-30.182947739957317
-19.728565728780644
-15.06460955777348
3.462760672679993
50.90896335424691
88.8548766585154
90.69186472459926
84.903913893667
70.53305805778919
41.72774196447206
13.651737388727208
-2.8287053187609277
-0.3070493766458516
17.036814175433747
42.958906620019945
54.78470308621851
49.07728561628991
35.22102760285704
4.1118256974480305
-21.123394235332057
-20.538984454596996
3.9456701584253393
38.92344793738276
65.93033121935663
81.63771275499103
72.59661262298891
52.73061799240899
42.64620590763131
26.24103711877894
5.2046755094132715
-16.063780299866306
-37.31662613659421
-31.770780813232648
-1.2235604585935351
18.47532956849841
26.79705288103416
37.31267069572645
39.00175766473555
32.236515685685376
36.937476777297896
48.24345551387375
34.99084436423963
-4.832151795427914
-26.156845437996544
-10.549071922436804
1.3614589767989242
-6.635977685329506
-12.371611138945617
-17.183606682483912
-24.30548346962084
-20.000191517392974
-19.564335457360876
-32.94293179876686
-43.44120827396124
-51.375228191338095
-42.27868070420574
-18.043598574998477
-10.69599353975135
-9.199678423596108
-4.653332853207598
-12.285144738473868
-24.821401864545685
-30.71844291382416
-31.002806139308777
-18.988528656731546
12.497797566466291
37.85892997218412
30.696033351476533
14.000282261387087
6.678616700646434
-16.611784811836767
-47.41400490800289
-52.43962783304447
-52.349550391856184
-63.54405376668307
-61.4559752984029
-44.52317581714574
-33.88309408937274
-31.242310996684665
-28.965427748890193
-26.415424205531306
-30.77128000319918
-37.94302484993115
-24.24121366031299
6.520868404787864
29.371300064886757
34.986881742066195
25.950674959603123
10.061874173388837
-12.763270882763587
-48.331818726133854
-90.64444020670147
-104.6183037812447
-62.06549025882762
-7.011904771953645
20.3843280654822
50.69128050334656
75.11858214142643
58.76046409154298
36.24018887175382
32.53511795385507
23.60919185857822
6.264223447885764
-1.527569869248293
-2.0142177822980276
7.249595133180142
37.76041288537585
66.4289765884079
69.22645035079579
57.92779167269883
56.13594930471013
62.07261740488211
57.547217182771135
45.99900772285868
32.9661951390886
22.68016219674714
31.641055705401122
52.92377001138777
61.145282792355566
58.26574177530171
52.56492570848154
32.67028781139675
-0.0833761959094946
-21.25356987501616
-19.214336636602763
-18.38114354000924
-29.037929314180573
-32.39429520663603
-24.182517226614863
-1.985458528826153
28.714292338644963
52.14631700358569
58.301698533337415
43.17445900799949
25.912262608538573
17.146572961849536
2.628802856263347
-16.121001427365805
-17.757711057425965
-0.6746607972924831
19.192103182366736
31.011380752416937
25.248219252491317
11.040833183144562
-11.658885180556918
-43.064780655142805
-50.53112606745746
-38.08586554940975
-36.08429854119207
-48.10308351181777
-58.31136135978238
-40.70642793824107
-11.608446359867607
-15.034744007378707
-31.517694320197833
-35.73961124170772
-50.390484108696704
-66.56142882180343
-63.81588205778096
-52.450347605734216
-39.75326803414188
-22.18300570745696
-8.66890464983631
0.5967524510139284
18.90802727336392
8.522536471431483
-19.213102768638084
-20.284033661017606
-35.99788291737823
-57.12738894907115
-56.478242063264595
-51.63629205766577
-43.88485593139475
-40.023538711691714
-32.397560577721215
-23.883645419066045
-15.71919458784509
-1.9043300418508777
-8.524754121577663
-35.872791624030846
-63.22453620494114
-75.52251968336022
-69.88216154479795
-67.68772797979567
-73.5681276590633
-72.89649595176148
-60.782967706536155
-42.5028406005188
-35.8781178280421
-44.54242482557379
-35.334242951504564
-2.2798960959110097
16.237443725012962
12.290264796956665
13.028283178826342
14.075668977349876
5.554462934188184
9.866935583045777
20.90855175535001
36.42342539714998
64.32259683871916
83.32355418385472
78.79939936573548
51.63434674335364
35.498591763734275
40.622403696564696
39.98673681926155
65.60300145132642
116.65782903530882
98.00421476691194
35.41237056116014
22.45454052952887
37.03390331363293
23.46401975587594
32.023158247727196
94.01602919342855
46.58232453962206
-32.74077362279884
-1.4023926630826804
25.812698583438678
64.10956781699893
71.25568913397953
53.20468897591934
94.41746127041652
77.29928774344347
20.475824499121067
-4.483357363744342
-4.904238665227257
-1.9529987899867032
-40.55497034659015
-19.933369244290443
19.33423623001701
-11.119089296801505
-1.690531617085064
6.986607247897984
-24.191862269787837
-32.40542045596684
-19.457768968391225
-38.11541475403971
-24.801157371251744
47.023477511482696
25.122753903110073
1.4155843945710642
59.54491385995151
52.10904160519432
-51.25657410233945
-77.84827379304888
-1.5462996352154639
5.164319468672336
-0.941752318760051
-10.621124422172311
-64.6602359045368
-39.59057352707365
11.997429492875346
-0.8494169560247935
-41.040690308948996
-75.86570753212983
-82.16234142513434
-71.32869976226064
-80.75992490581294
-80.24818634480063
-42.39767109183037
-26.590081083976152
-43.77616234611218
-48.680086134949235
-40.929814826857196
-48.504173927297714
-71.7805899039163
-84.22332457410059
-92.62424742042603
-105.65170785131109
-114.41141846151531
-84.0995390376796
-18.22660985595173
9.072969735548853
11.69291416165979
35.013514874777805
46.323436792885104
0.2725273211000138
-40.3212861721241
-17.5036736328427
-35.44332098677094
-74.18104653722705
-44.44532510232614
-48.5113489111902
-83.8245391549384
-53.208192454129865
-26.170288499208702
-35.62197947988991
-22.544344530041847
27.519749510299395
74.8950875040816
50.6771402881624
8.280951084793832
10.722338308020097
-12.947263083200967
-52.918866154344585
-30.359400643313847
40.75749084443644
87.23360897334959
76.56309906760973
56.93928599325316
63.49472707798709
40.673883893388485
-27.965228659168716
-51.552323042252304
-13.801751155251218
12.227844325195155
9.13589978953195
27.976999557774175
88.72112717396766
106.12086079294025
72.23943600510516
68.65264594219721
61.295390135423304
16.064938600449402
-13.135955854652938
3.5576222912705715
23.70783368955352
41.76619988310242
73.71669051622311
65.99517204054887
69.20576779837295
112.48981620019778
98.2296444695967
55.10476597076939
36.40809821343001
20.31192357129756
8.561441796376647
-0.2364671039074881
-11.130053742111155
-20.226726310731074
-4.674174438699455
37.67975767602918
39.44019347817132
-5.167389076035308
-32.45532837197603
-47.311988842453545
-69.03614274501265
-77.2964565711254
-70.48677562093903
-66.29333793444661
-61.825675051200136
-40.09377086719299
-10.648146751756588
3.1319705844294723
13.890415617530651
12.419678887580272
-35.596152754286926
-86.91117313414335
-98.07788128305299
-93.71547237708442
-87.13364105754067
-75.00489705735046
-60.87495346108288
-48.97590702175618
-61.18991470003544
-93.59034754507383
-103.64470611053947
-86.29803589744726
-59.730783879660606
-40.432285901857384
-47.62961519592378
-74.43445117359312
-79.57374028016922
-43.74179606924138
-18.773802377524376
-32.520608507574295
-49.26498198630349
-54.59702940406253
-55.272785032210756
-42.06224622639006
-6.532557644972606
21.238550422174153
14.435800163362432
8.471772864174067
29.086541145631216
42.884347051929225
39.43776252014446
47.8580524057557
57.6043095088388
42.40350003830628
20.969120965900206
1.7153263779137005
-31.16801269878919
-58.07506121221937
-52.450209779565405
-31.999489297866518
-29.751695221567363
-28.1727457418127
-5.778704143537965
3.6691092722221983
-8.731196552313147
-7.794920193533816
19.794429646623588
43.22679551998462
57.41510720692604
89.7526045720371
110.55556543947729
90.62517722000783
59.96560372087787
41.446111154643134
22.988963484735642
20.870704964413154
57.01458198278949
70.85320116078944
41.44462844201208
21.130990881697027
2.3457196968767904
-16.64362470135325
0.6567575521422508
32.39340355953831
31.679274300794173
22.635890693369042
35.76280655935545
38.611094647043124
38.128511668012344
68.69058868538109
95.78712414656574
76.39890011640817
37.36251805618966
20.90698588292399
13.231846215352041
-3.474537163777439
-3.494114705155459
11.929225517222925
8.95258713371569
10.040815758629732
27.062595946355525
18.865136513246465
-5.392080218338815
-17.34056944164395
-22.03418590613117
-27.787183021622432
-18.43319277838301
23.3130327712865
57.53064997012706
62.90983656301258
71.08859900085308
77.247065262125
68.24764250519188
61.81559950198583
55.93321770866516
31.060168568391486
6.21788174997437
0.17428942039776527
-16.609610703232306
-46.40576047872659
-45.02929831835979
-10.150404385842164
9.3961200866636
8.710775435426957
26.527911219547995
50.79568916447222
43.88774553500386
16.671806611784906
-7.413411650476824
-32.45621002958399
-58.585802534809496
-79.62681474438492
-95.88693564029394
-100.49556714647372
-98.42262488802682
-104.97447155984096
-102.83046818978357
-78.42916118547632
-39.95183664222885
3.5563263102517837
12.808138070372035
-12.957432011889622
-22.345965445636484
-0.38318754938143856
23.01322597272375
20.287049217382663
30.17094927925274
67.53131110556527
84.15405722845287
87.09451211107061
99.59050260091495
103.08996136095128
83.13223791670119
55.57540441337879
37.225421267825304
31.100619060958213
33.655211046458284
20.202772856995775
-8.196151918377534
-19.905508772960367
-20.889029496521005
-23.365054292702183
-21.713194782484578
-27.98486689191824
-34.97446035975769
-14.604148847347231
23.14549592364436
46.22616579818161
41.18260799363504
19.173794076061792
-7.025960131907324
-34.490029208333304
-58.74239916218056
-71.17900262696664
-59.87608938660158
-27.274328747733552
0.2471898077202189
1.5699915167805971
-9.783365141302085
-9.393271025450046
2.3962789616381994
3.519495232921867
-18.81141120642268
-40.95169743275793
-49.97609781041802
-60.07310565554772
-61.887752052476735
-46.136737362677856
-25.936856313524306
-10.077539566247136
-2.337791587262579
-7.10862798700554
-17.36873845103218
-19.458921619249956
-10.816245124940455
0.1472718497303994
6.775885603494203
8.597983639563651
-2.950115670368516
-22.12629968825806
-28.169529158274813
-27.727452383564174
-20.145233778299684
4.571567448383051
30.689349429064425
60.54613267531514
92.09275028940438
95.8402539447349
85.57677383420277
83.79722934673143
70.28060662427441
46.70143932836267
38.6947612821113
43.83871408514075
67.11605425042964
112.1817868055511
138.66397541126295
132.86652956867198
117.61855500897245
89.26523695881583
52.85216650833529
46.086971317483304
60.934273371672155
62.220244423009
61.057824377201236
64.4437769185216
62.5042271197347
44.989137179251074
11.272842773250547
-13.619708664597127
-20.805516825954587
-19.121526125804937
-19.75355956034651
-20.688754678733662
-15.507818495345555
-19.679182287511363
-31.178938358900176
-42.01947069544891
-52.33976548260269
-52.401976954913444
-40.97290677320647
-6.492153630778425
38.60231486779428
52.9162730019991
52.919509126277276
49.75086914956468
25.590125746770532
3.8587754053108774
-1.3398900458120044
3.6070048696729042
12.318975969927575
21.416857766049368
31.624187718875124
31.07078746659952
32.65023606790939
45.376255871559025
42.55501695331497
33.4487970813934
35.41238615476581
28.113600940227254
16.335398526780455
16.20385517425045
15.812385513092645
4.901055936154396
-8.987571119564144
-15.276595702604395
-23.59456786657884
-33.37252231022944
-26.731035192123713
-7.908287375379407
2.1361121794079287
-7.299676092633583
-12.962392848953874
-3.9337842637525986
-2.496206163235082
-7.065463981279778
-10.507381987695997
-16.927370562452072
-24.152639066660942
-30.671669716495195
-31.891672732725684
-27.24843625297883
-24.413451575794937
-18.668266092266897
-0.11713069112685567
12.966158519506438
8.083840517545383
2.049954700952168
-16.297091834747846
-64.44541471128613
-113.08047125901079
-129.0899266380912
-117.64502852414633
-102.12812609334036
-82.80957088534748
-53.03293265379443
-39.72862693769106
-49.8532152324386
-55.99450186382091
-57.84719448084224
-54.042345311746814
-35.43733959298332
-23.11183824094401
-30.23325400382909
-30.9124481306294
-5.278233538935997
13.546282176401784
-0.3317943439580269
-21.789514329297244
-32.032309437875426
-34.41983602286015
-34.9696889862704
-33.23277202376087
-33.98171381821918
-50.34959972912885
-67.72341155199818
-61.443988510554355
-44.66079727015586
-41.99546745752126
-40.99326994653744
-23.177831453605627
-7.357448439646686
-8.547985776716944
-12.939860327773683
-11.61220364374182
-16.132366473368364
-30.888287785093915
-27.887080809334908
5.1660327794170176
33.18857673511784
36.82186463921894
53.4214979603061
95.3158773702442
111.63435911362546
96.46912729060196
74.90653086905657
33.77374315906918
-11.968248448415613
-27.951237883246886
-18.18298472600952
2.6158154943419256
24.639264014956204
36.67730886280555
37.9056125319006
37.16069071510953
38.62481374525361
42.105270933585786
45.76885449889429
39.90244519770452
25.248458197564567
12.920390838645579
-8.81972320938681
-33.3465419997126
-31.434240876239535
-13.753948680475332
0.030233655442554606
9.394202335706428
19.659297397451642
23.53006431417143
15.868362591996677
12.088616532566647
-0.055122714021882055
-24.927732637558336
-27.91151957581997
-5.269008623073344
3.5704138232974256
-10.487261116238786
-10.713107722534733
-3.415048917238616
-22.38833126576302
-47.94596389358255
-46.582667735792604
-33.00835205157003
-38.50380505769485
-45.9329580475944
-22.621196621591476
5.033229675631847
12.341471536786859
30.991955837802518
58.04261008784359
58.40042198975802
46.035079034882415
37.74395424167822
16.086342695908662
-1.691000279092487
17.90601598458666
43.38461456564918
44.794299983927665
40.31856559231699
27.56192258536839
3.385403314591485
-9.188831567200117
-5.111930173304102
7.21317064204039
23.553210198280365
39.63340296058948
44.80589024467467
33.596807613427345
21.540299714254715
18.27210739552259
11.561733491144691
-7.22014824747095
-29.62426178268806
-50.03585660526164
-57.62970550327232
-42.00349182724212
-29.619269646382744
-37.06039111365419
-42.058699451451844
-41.083880942519265
-52.23833790057775
-71.32526461293469
-82.92452032722218
-87.55721508937414
-94.61660858728376
-104.07703619475396
-102.77904591782753
-86.69278873255509
-68.57363822795796
-61.79017978360613
-62.66305822372706
-61.458222995435236
-64.00106101196583
-68.85992276239976
-67.34603229493207
-52.12835131523908
-24.02863776450571
-10.726196416257805
-17.32180654398384
-15.515156666640184
-2.4002149837646116
1.9563228611923604
-0.6884346902223645
-3.011384740583644
-14.770967642796675
-22.11526761692104
-6.2532091336321285
21.45416656835027
37.42466724859002
37.5233108173888
43.44028241562472
42.35147324786506
20.019472280286568
14.921603635927795
35.542424332221984
39.38991560809212
16.166599951768475
8.062693941943756
26.404981897012636
39.53729458699672
45.547637818665876
48.21473348897157
31.970393971834227
-0.42994106108581065
-14.907179978619485
5.032261500855012
18.741842641594207
4.79982160267916
-7.926288137449182
-8.452890940467398
3.4869094404733607
28.423210517678918
44.35253587013054
54.365879289783926
60.467471845220395
43.06432556260447
22.201097321211268
14.500530378696935
15.336108043144643
17.394288298622183
22.665975967043515
33.79097154197721
37.353968927922395
43.958774725867656
49.86669475562101
38.82357019697229
21.015405637162367
5.008991755894363
-6.499486629301824
-24.76749692591654
-50.91738495703925
-55.952708620300584
-44.15305845236917
-42.849020095506354
-43.88641210996012
-40.06587988917467
-26.59118695050351
-13.063549345507187
-25.646573502207705
-43.78437827354953
-53.80568425470518
-62.68697340809148
-62.53986688937143
-61.51133444782881
-63.834486453722846
-64.95005469954609
-65.41094949333954
-62.82380263772054
-57.213443251190704
-48.31734376966417
-36.810913918923426
-29.787891048177237
