AAD_Filtered_TADAS_FILE
AAD_BASELINE_CORRECTION: BASELINE REMOVED
AAD_FILTER_TYPE: BUTTERWORTH
AAD_FILTER_ORDER: 1
AAD_LOW_CUT_FREQUENCY_HZ: 0.025
AAD_HIGH_CUT_FREQUENCY_HZ: 40.0
EVENT_NAME: 202302060117
EVENT_ID: 13194
EVENT_DATE_YYYYMMDD: 2023/02/06
EVENT_TIME_HHMMSS: 01:17:32.00000
EVENT_LATITUDE_DEGREE: 37.288
EVENT_LONGITUDE_DEGREE: 37.043
EVENT_DEPTH_KM: 8.6
HYPOCENTER_REFERENCE: AFAD
MAGNITUDE_W: 7.7
MAGNITUDE_W_REFERENCE: AFAD
MAGNITUDE_L: 
MAGNITUDE_L_REFERENCE: 
FOCAL_MECHANISM: 
NETWORK: TK
STATION_CODE: 3126
STATION_NAME: 
STATION_LATITUDE_DEGREE: 36.2202
STATION_LONGITUDE_DEGREE: 36.1375
STATION_ELEVATION_M: 123.0
LOCATION: Kahramanmaras_Pazarck_Turkiye
SENSOR_DEPTH_M: 
VS30_M/S: 350
SITE_CLASSIFICATION_EC8: C
MORPHOLOGIC_CLASSIFICATION: 
EPICENTRAL_DISTANCE_KM: 143.54
EARTHQUAKE_BACKAZIMUTH_DEGREE: 
DATE_TIME_FIRST_SAMPLE_YYYYMMDD_HHMMSS: 2023/02/06 01:17:36.7762850
DATE_TIME_FIRST_SAMPLE_PRECISION: millisecond
SAMPLING_INTERVAL_S: 0.01
NDATA: 12501
DURATION_S: 
STREAM: HNE
UNITS: cm/s^2
INSTRUMENT: sensor = GMS+/GEOSIG | digitizer = 
INSTRUMENT_ANALOG/DIGITAL: 
INSTRUMENTAL_FREQUENCY_HZ: 
INSTRUMENTAL_DAMPING: 
FULL_SCALE_G: 
N_BIT_DIGITAL_CONVERTER: 
PGA_CM/S^2: 1030.179
TIME_PGA_S: 
BASELINE_CORRECTION: BASELINE REMOVED
FILTER_TYPE: BUTTERWORTH
FILTER_ORDER: 
LOW_CUT_FREQUENCY_HZ: 
HIGH_CUT_FREQUENCY_HZ: 
LATE/NORMAL_TRIGGERED: 
DATABASE_VERSION: 
HEADER_FORMAT: DYNA 1.2
DATA_TYPE: Acceleration
PROCESSING: Automatic Paolucci et al., 2011
DATA_TIMESTAMP_YYYYMMDD_HHMMSS: 
DATA_LICENSE: U (unknown license)
DATA_CITATION: Turkish Accelerometric Archive v 1.0 - Disaster And Emergency Management Presidency, Earthquake Department
DATA_CREATOR: AFAD
ORIGINAL_DATA_MEDIATOR_CITATION: : AFAD - Disaster And Emergency Management Presidency
ORIGINAL_DATA_MEDIATOR: AFAD PROCESS SERVICE
ORIGINAL_DATA_CREATOR_CITATION: AFAD PROCESS SERVICE
ORIGINAL_DATA_CREATOR: network: TK
USER1: GuestUser
USER2: 
USER3: 
USER4: 
[...]
34.72197279338066
12.79459398716264
-17.750849720109716
-42.59749975735653
-37.9309566315379
-14.479788547026821
5.494511253512867
11.69918087206611
16.720243772473875
44.301274123302576
84.60578287806953
114.2348736175811
119.21870420940554
94.00938493793932
55.938604053228886
21.60011996070484
-11.376335419245242
-37.088932968129086
-34.4180091123306
-7.222331649844192
7.861351855299828
-2.415287837243574
-12.41007893676657
-2.158077790703883
16.522185330451162
27.656021387922788
39.72654397608552
60.21537520292058
78.90727859345641
79.02431770551587
58.371202079917346
30.742126174430936
-5.00042802427793
-43.88628155274548
-70.19927188225654
-76.76455000722524
-54.6002280503308
-14.141883814954578
22.71901317446456
36.18041882442662
17.072011579519696
-17.047323704492133
-52.93620650704172
-83.07951954858638
-101.88637096256286
-99.70990693414011
-67.49474103382855
-29.88300821827175
-16.578042560376492
-45.6441952008402
-89.82822689199307
-89.26684213263835
-49.4865374207339
-9.334256859546175
7.488047545951753
-6.619306264880556
-30.777974681615074
-56.5021973210308
-74.2102440306897
-52.6226617577444
2.2784148582596058
62.999678293507166
108.25748521948154
126.2017938725933
135.0979250655111
131.14688726469757
109.36086102920694
98.60030928345434
90.89853806875848
55.09057845573148
-9.737258065485001
-67.8661792386294
-94.8795802760735
-107.66844494572358
-101.5249649082221
-57.180303197804456
-0.8380238291081077
17.481234598292506
-10.700725429185214
-42.793544205499465
-31.28841887519335
21.794837872250145
63.04762752846749
64.45831482861962
16.436180122554678
-57.65569586737011
-83.99226849058175
-54.265139105081545
2.046700494838949
65.36414795176212
103.38846872632038
111.60245791161024
100.75151601144793
81.53438339348175
57.72266106050166
34.17976617055582
19.374593591619288
-10.567147581403763
-68.69444030877881
-106.73547962641209
-99.32367734688225
-85.53042568272832
-36.70356254088711
69.24781844234701
125.72179146963188
82.03383167115854
-4.948905563248876
-76.12007049283454
-86.62574013821414
-60.583219843613094
-65.33000106316122
-94.21707980085003
-85.95315356598424
-5.729490198509238
68.38207561180022
38.62259222354367
-45.25700293178376
-106.3958034058072
-75.81164326224275
53.07622697116102
125.57322429265838
89.81043425654187
35.87632313392405
19.493487188225128
65.09050796443518
96.17121449148324
20.341957197786034
-98.54089907443272
-139.907459469264
-73.74199877029247
4.548844083296418
-27.540473709306948
-148.25240153590389
-209.14883236344778
-132.25845595080375
2.2002057513866196
45.12983164788192
-27.18566993525237
-80.01125656901222
-50.296579136950584
-17.631059844653695
-38.84266175151739
-79.98995930764701
-117.55818932302975
-141.86904436234659
-109.75219758962733
-63.249662275517686
-99.48441799047079
-180.40229537600095
-217.8945442111552
-199.7090122088166
-116.18930187944174
-28.978612789700406
-40.99605420460422
-106.51230674842368
-135.45510456482316
-128.5542050569523
-115.47815034803882
-78.47502361636185
28.30596032755189
184.89748781139696
278.1679161976293
232.5286251491152
63.26664167641045
-169.0822617115387
-302.0427080783803
-238.908030391666
-118.53233119879724
-60.90232038067366
-41.102510209230836
-56.05084554862249
-84.26013646945279
-118.76339032393975
-172.66339900161856
-71.45814400465581
178.21300642403847
326.95458390095746
355.38681093830047
283.7637325533034
106.47578231253597
-6.0492128682131305
1.0439109417871397
-35.01842959122172
-180.35460921543483
-285.27559469089175
-219.96712714841925
-104.61011265507797
-57.97649257793972
-60.42191958527906
-65.95836397424928
-8.135693483574826
87.96454820639886
125.2017701825721
4.549305580621607
-179.68915157990634
-190.1319061545379
-50.598557803585045
65.77673289453182
109.29968728531962
120.24483182286123
123.74001262721353
94.92705854599092
-1.4284407231563878
-136.8560323084501
-221.16886687201435
-195.8417951888088
-119.44474589999844
-104.03299546524164
-117.62228816979788
-89.75379140686664
-52.378207216733635
-47.210603187748426
-101.61668408611035
-151.2762469459688
-107.96510033174285
30.688122617165728
161.06529608264296
104.34223096240481
-76.82143045284435
-187.3897231714843
-221.3135387092794
-240.4573493271357
-238.9416130642399
-175.36491693376024
-125.37815553827095
-145.36023303965538
-176.7442279502509
-176.8804332521321
-97.46109045768262
-28.595436639800027
-46.409063107055104
-60.7295139385329
-67.43106145284973
-82.25024806156597
-123.87426262909008
-220.8496701884367
-280.92836657644494
-240.47324027063277
-152.15611975906853
-105.77789087354164
-121.89562285649504
-130.80267878474532
-95.93324358709815
-39.46495099160738
-1.249270643967391
31.862555500021877
75.3287842133992
67.39780825752091
4.173910877006626
-65.22952943146643
-127.49816545628201
-179.712547493565
-170.13824804264905
-67.5951987243124
31.415703577047875
86.4983872608604
153.87316699814235
176.4009594539853
101.5566690149532
44.40757061273365
61.23274494445395
99.27897236950466
150.4053716867631
237.4138301663083
337.22089483982194
344.843354808564
274.1870203202153
238.6987211743005
238.79369528768314
222.7073317717468
164.46625704589698
96.33273577659584
79.28281036554792
116.84378610856317
157.32700483997525
178.28861652151244
175.45171820586424
158.46145705925485
154.25783892744616
144.586838746849
105.18965331507027
58.05639483340923
55.650066567893795
58.446410021122134
5.8022374723765555
-41.167606523153395
-61.622426605379026
-95.6293997274457
-133.18334703233236
-148.32525574321542
-127.12027926661524
-71.56944518602324
-2.160064552489642
42.667416732720554
36.20262960815868
-0.37063050084086224
-22.477418586446763
16.936268877221323
83.43627914951415
56.29275810251599
-32.9190726426578
-71.42835233870105
-82.69438691588141
-96.27674023535614
-116.73460529322158
-107.97695114359647
-20.040326687776677
88.22747297706756
179.1797329180222
221.58234914856533
210.69595588325166
226.87187821696355
233.50710054977012
205.5143987715857
208.62266393649185
212.21914786288056
193.23481405602377
170.49672108694574
172.6301308372202
245.02919828459125
327.75499959718485
324.7087908260466
242.18066213785502
152.1119473223236
82.02400447779623
12.4352992858076
-47.328050726274746
-70.5200239898978
-46.23921750746056
-9.884996916418809
-17.64421674551091
-60.330051345830505
-98.1588098057404
-142.3577251284509
-187.41816103873347
-218.91852035674262
-263.4548647787847
-325.5730470129198
-392.6142788351945
-436.93600672154406
-436.3163737042053
-400.12539277866205
-354.5068291056232
-302.6504025652943
-213.8021497157791
-131.24179694991014
-98.2127316347359
-92.3858926445961
-75.69854406575733
31.586923715369384
246.63751494413623
476.3982478266396
583.4715917126387
604.106061262768
665.5927590770502
695.4865022209354
675.837168603865
634.3718231891033
562.1752420813442
494.5234447711028
417.1579241497125
379.01525170048495
387.2747964495403
381.49228140472457
391.0213307248208
399.7510646546722
352.6819193755029
292.0513441664832
247.84642826984268
181.5385001578021
127.3558219221517
124.56409249677584
121.80130379807231
75.59612889674037
10.688006927241721
-45.680586140954205
-93.45821482196372
-114.31193816676327
-129.08817521756635
-153.15563595239675
-138.82891840450066
-77.11559837098211
-7.7660321583097405
46.00783629582485
103.15986863703348
163.46660981271356
210.41523237980334
256.4236124737005
303.7823318972097
333.28109003624786
320.6761438691362
265.44032723141606
184.8619242589722
97.89328435499267
20.428168035098132
-38.441515819016765
-63.59420001353426
-62.82004848328591
-60.16039481446762
-57.187221576217205
-71.703118556833
-107.29641441350337
-121.96963131371245
-138.66416679278313
-173.55395007566707
-182.66407354438167
-184.15867114930379
-189.83344732908984
-194.69508615100204
-221.46391715931685
-269.3600732824164
-312.2563526120126
-307.4674083946381
-274.7277941828864
-250.39344573760118
-223.5525077553472
-202.82422247835726
-179.56773940776208
-145.81427283774377
-140.18284237648606
-157.09842116710925
-128.36944161149438
-45.19886721630918
24.708899235065978
68.09555936658631
141.025853933421
219.25795915578584
308.2216248873868
394.6163325307618
411.62163974630414
403.27421768414376
334.46809434769233
378.6066111170379
565.2547363025942
631.2335659293951
670.0424511380771
608.9221814779473
394.28166110996085
182.72180605773337
-63.676112130665736
-338.3168962275051
-617.9771468201724
-817.6955004000018
-854.9687658653746
-824.9185552506359
-701.0076838862193
-410.20032739542455
-96.62506543126379
129.0478141436217
211.48190630689956
199.8619169382347
195.56110482392418
136.38653549444885
-17.723626266702706
-226.27996855127026
-281.0703564089583
-147.90437311925083
-31.67149253091695
35.677202049061584
4.807984760418688
-115.8614358153218
-267.1945063394506
-416.5495581756165
-457.90326368945904
-438.44582146466854
-425.538082402035
-391.3039851841235
-348.4721534231079
-279.8053566389588
-188.4782672172204
-119.286740666287
-71.36637605165684
-56.580272240642245
-82.13240492854734
-87.02233538961937
-57.963508372606604
-1.5130980111058268
95.37685188427447
166.87377737281585
228.9021878602554
363.9304990979187
497.5925163917533
471.9716186471301
267.04245014727724
11.686089841793924
-170.3913332572964
-207.36919922455456
-124.01488750419668
-3.0781728147779477
118.99617959057954
223.0840413666261
241.76116273242548
209.19360412432434
250.05539715070734
308.3538709147413
298.92985176404386
250.2760980834501
191.7830799214925
143.09341852348788
130.10305620234647
158.33084995544422
168.1866939847297
101.20734082884694
-20.747703433317852
-138.6331198102252
-205.07733325985714
-141.94380091669345
63.011219069847726
257.3727693356227
311.75592766006224
239.59083547298508
132.88269481423737
66.42330696846632
24.759804360224045
-50.38800014631271
-151.18159689531385
-257.15367286138195
-368.79700768907986
-426.3276945641389
-396.5363829097323
-299.9431508885353
-159.15268915317012
-38.40954944982428
12.388618664522339
33.90403173940888
99.6478499257312
165.47779705742866
100.05581226496642
-51.11488527212287
-143.2682380727487
-167.38956230385514
-152.62199823372296
-121.56018610274432
-78.1914162734317
-4.069046100127831
75.83717006289412
130.12938383407965
151.07073076802473
172.98426829142215
177.11666341370983
131.46359463343924
63.96055182609709
-56.52345992537942
-153.070647336773
-131.7457976677557
-90.5401655350164
-55.243301254565345
-21.59153146246991
-19.221195689189848
6.268137207458371
66.06597230451955
131.01238503462133
198.2799437598714
262.4881539939831
303.1551296042384
318.64192672298776
323.41937774811
276.5452400672169
169.7157836566806
71.12512093583864
25.562100486040947
51.76470536232274
96.96234378533536
63.70807908629155
-29.355176058136788
-115.59473914786767
-165.12030065632814
-162.8066021186663
-153.97584521716
-152.02072197272838
-115.24826955783936
-49.801769191581315
53.12283848164563
182.35888892734684
260.35133317822783
279.3476769286289
256.56329242457304
154.8505208165841
-3.4761692889613047
-173.14214239170366
-333.97305703984875
-435.6248909395206
-468.28753008915777
-449.680351557055
-392.80747249907995
-328.4148688827252
-268.43019609512055
-217.41053781938064
-178.03861656748987
-151.4248450622233
-132.71546060380044
-107.1703008525111
-79.61599908732755
-66.10824205954256
-39.238805869267836
37.04468426596089
136.90167482026112
248.9527519286961
394.22975416022297
540.150153655154
599.9388159928722
563.4113467210234
506.43818987773074
445.8176566358809
364.72446750648044
237.4060704901909
61.63025197701083
-84.69547875818957
-171.62200035373337
-239.7198771662647
-300.3265473954227
-351.593562057919
-415.03112484727825
-492.8094789544624
-514.4277505515785
-457.8576025515281
-417.69494542927185
-394.4599114360494
-328.9653795684048
-255.2620114358168
-178.03713229819525
-77.18763277084344
11.483500954269639
63.15090811664869
107.57066943942309
208.1618680872394
379.24383315452803
551.5543010761918
653.4922868877954
611.4680996952055
436.4170602538269
257.3690790479874
118.29584217981008
34.52250178261611
8.734058281816047
-30.34410669549337
-89.05250201205828
-155.61293018593005
-219.9309556799673
-256.78853051834324
-275.9296997577125
-281.6039437992522
-298.9827281020838
-351.8598545104473
-417.90606012045066
-457.36676849003175
-445.57030821957994
-385.7305707489028
-266.8365574129863
-114.19436228350627
1.3742737370307327
38.69778358527662
-10.6949102666032
-106.58034119790871
-217.65091270476213
-329.7202190823089
-390.19348159445514
-387.4750270063987
-342.25346154548964
-243.8654591689967
-102.67540878161887
38.481123888410245
152.76118132591364
296.044827547484
552.4669845466362
817.3221685211784
981.0849710832347
1033.052932894377
831.0695392663466
446.8442609389618
139.42119674827313
-70.12613057742765
-196.8406153325126
-219.34854555217163
-180.37225719111734
-111.04980236887546
-29.99560222172807
21.141810217618637
24.06098304717398
24.214965627820877
63.438919273083044
161.3968054114429
317.50099519568556
436.62847406560167
434.7046944756654
364.12880693778203
296.0632549347964
228.50320755063345
132.75976790376555
16.405852973009146
-84.72986163458268
-116.65839718929827
-82.96169305599115
-40.13049859505069
-3.067648767320733
-5.685290906612943
-44.08590847182181
-68.63667541813538
-80.86931227775771
-105.51186053766102
-131.92305936626755
-132.36528474720726
-101.11909481867808
-16.960215015114688
90.63133494897662
180.68778950084692
251.2875090329809
324.9753012639487
391.1213120090966
302.20990256102675
78.15519908710874
-153.25635617291587
-405.96118793483464
-606.3010301190939
-697.1983367837737
-717.4991615685033
-651.6559774168118
-519.8891924952786
-393.7460566071536
-294.40132364976006
-221.85382570211215
-188.12256287868172
-171.25929523060728
-174.78619592046277
-212.71058978320303
-237.60427585409747
-238.78952383472514
-248.1694398513031
-248.1507153620091
-206.11199573222356
-138.86781817937313
-70.74265463616952
-43.33716034439746
-98.9319786467872
-178.97028491648808
-237.67624076076683
-298.33128645986875
-359.82836451699177
-393.92213840119143
-381.14620986503525
-316.77342342873965
-205.20608137835362
-113.5962972506973
-69.9970937010961
-43.81430856365133
-44.44332230528371
-48.63854443835185
-57.025471692278614
-83.63201990536399
-83.59639162059695
-60.23680906764101
-53.088956987164224
-59.19352299502059
-54.85443910428899
-24.595024692328128
27.955747683707088
90.01394629524484
149.1155572979857
188.920282221553
226.89524618753455
279.8532696634476
316.6858188216893
299.17903675387515
221.8479408876376
149.79274352497004
133.85116383900197
167.72527246599438
233.12167918488805
292.0357250909789
339.2018976014265
336.47002933631404
271.79171205438627
236.31954527047174
220.60373440169144
188.9728725068993
157.183143092685
126.45477036965514
133.62233022585454
171.03960568257327
180.28893155146886
155.06184265953576
133.4722026829873
133.7393514217585
158.8404023786438
209.77318618465378
259.99339222284203
298.1878983373054
307.4120742617106
258.31729274719845
190.11303594292912
143.8569018317313
90.18082740191582
17.013034854708465
-33.01199549070629
-29.23932721911969
20.43745665118737
54.427656873701935
5.122369436185778
-86.2532758629762
-154.27793123365916
-190.48987844402717
-158.74302741198235
-52.71614513659979
71.49839929906503
199.64014553388697
345.4959691078549
480.5441887948848
533.841359176767
448.05822260245696
261.6228697224808
93.78386996509096
-18.348024763523078
-120.82483230858683
-207.63970479487958
-222.52741853277075
-120.03191420956117
24.263153071094884
106.81513172397763
155.04224841486757
188.31184295993555
163.06355441927926
46.76774367750271
-132.76166253611095
-297.57349472670074
-408.5191237651581
-423.4791513262386
-312.8485203144226
-160.07354334381645
-56.591854492807066
-6.318604030434529
27.270628853037266
69.46061637743925
104.46350313004682
126.21204383526955
144.44037418073552
158.7678368952747
217.55036476506632
315.8720276926419
370.11234020455476
372.9016323513525
343.8870461071343
272.7496348906049
163.2661887262278
68.51374161808494
54.241238478748585
93.83468828863086
113.11034755334279
99.54468704754134
69.97698820478243
15.166236012924465
-47.75212877879762
-100.32378297737655
-172.02636436402733
-264.3868247984771
-349.7258590787799
-399.56061248147597
-385.71645818783617
-309.3468339726749
-188.5995426446861
-63.60560034017331
17.863805371699858
50.69472284371847
53.237283813042254
38.40804223339269
26.50877687695901
44.051908689383204
61.672598809387345
42.52095853894064
30.2213536218161
50.91847490695352
104.70889666245142
198.53086742211457
287.3480010796699
337.0527145073624
373.99161925809585
417.2308105472789
426.88893521114994
363.5327314897974
262.0945896546738
166.12663778559138
70.45442451711145
7.0970880626890045
22.142658632207613
66.64545274584093
102.11335135994356
145.7533859186234
194.4316478125969
202.35524302370754
120.49556040510134
-5.162726481902178
-140.48457526771904
-299.6663410247011
-426.32577425553336
-460.56506779865657
-410.4563592323817
-321.3359240833212
-220.47167884772952
-125.55081741123523
-38.08459794082973
60.94000505642315
157.6179032211518
233.2887057627673
274.7846262124907
272.2396851433833
240.44681684847643
199.09876224086418
164.51576160081788
142.99201809061478
136.56952359798962
150.21080591212558
181.77338867394118
219.0632505190716
220.33719950430117
182.26269619827303
159.03810117126255
154.551705281349
146.82463244987068
131.52986612153182
112.0184876014095
80.38619443283184
34.912828364051876
-9.316205892955264
-73.18623441303608
-173.40653329669524
-315.703758829955
-464.71420644582764
-547.4455614986856
-534.5618670912285
-412.0832470054483
-231.5100946854596
-86.52166042721875
-3.398031808553339
35.45038457267201
50.92078532536101
48.82722047657504
34.84013029127958
23.39629594670087
24.1130643312175
38.09073796951239
58.285624148918835
80.22517417645751
107.87983175023571
125.84889826574194
102.9330518420559
48.00901894267758
-21.45734550760123
-103.10985689129589
-177.64305249579817
-226.87169762996444
-251.54558935010698
-262.40292655396996
-251.3172794603484
-208.36182901805077
-149.35026493343133
