AAD_Filtered_TADAS_FILE
AAD_BASELINE_CORRECTION: BASELINE REMOVED
AAD_FILTER_TYPE: BUTTERWORTH
AAD_FILTER_ORDER: 1
AAD_LOW_CUT_FREQUENCY_HZ: 0.025
AAD_HIGH_CUT_FREQUENCY_HZ: 40.0
EVENT_NAME: 202302060117
EVENT_ID: 13194
EVENT_DATE_YYYYMMDD: 2023/02/06
EVENT_TIME_HHMMSS: 01:17:32.00000
EVENT_LATITUDE_DEGREE: 37.288
EVENT_LONGITUDE_DEGREE: 37.043
EVENT_DEPTH_KM: 8.6
HYPOCENTER_REFERENCE: AFAD
MAGNITUDE_W: 7.7
MAGNITUDE_W_REFERENCE: AFAD
MAGNITUDE_L: 
MAGNITUDE_L_REFERENCE: 
FOCAL_MECHANISM: 
NETWORK: TK
STATION_CODE: 2101
STATION_NAME: 
STATION_LATITUDE_DEGREE: 37.93088
STATION_LONGITUDE_DEGREE: 40.20278
STATION_ELEVATION_M: 692.0
LOCATION: Kahramanmaras_Pazarck_Turkiye
SENSOR_DEPTH_M: 
VS30_M/S: 519
SITE_CLASSIFICATION_EC8: B
MORPHOLOGIC_CLASSIFICATION: 
EPICENTRAL_DISTANCE_KM: 287.35
EARTHQUAKE_BACKAZIMUTH_DEGREE: 
DATE_TIME_FIRST_SAMPLE_YYYYMMDD_HHMMSS: 2023/02/06 01:17:59.0282390
DATE_TIME_FIRST_SAMPLE_PRECISION: millisecond
SAMPLING_INTERVAL_S: 0.01
NDATA: 18251
DURATION_S: 
STREAM: HNE
UNITS: cm/s^2
INSTRUMENT: sensor = CMG-5T/GURALP | digitizer = 
INSTRUMENT_ANALOG/DIGITAL: 
INSTRUMENTAL_FREQUENCY_HZ: 
INSTRUMENTAL_DAMPING: 
FULL_SCALE_G: 
N_BIT_DIGITAL_CONVERTER: 
PGA_CM/S^2: 71.424
TIME_PGA_S: 
BASELINE_CORRECTION: BASELINE REMOVED
FILTER_TYPE: BUTTERWORTH
FILTER_ORDER: 
LOW_CUT_FREQUENCY_HZ: 
HIGH_CUT_FREQUENCY_HZ: 
LATE/NORMAL_TRIGGERED: 
DATABASE_VERSION: 
HEADER_FORMAT: DYNA 1.2
DATA_TYPE: Acceleration
PROCESSING: Automatic Paolucci et al., 2011
DATA_TIMESTAMP_YYYYMMDD_HHMMSS: 
DATA_LICENSE: U (unknown license)
DATA_CITATION: Turkish Accelerometric Archive v 1.0 - Disaster And Emergency Management Presidency, Earthquake Department
DATA_CREATOR: AFAD
ORIGINAL_DATA_MEDIATOR_CITATION: : AFAD - Disaster And Emergency Management Presidency
ORIGINAL_DATA_MEDIATOR: AFAD PROCESS SERVICE
ORIGINAL_DATA_CREATOR_CITATION: AFAD PROCESS SERVICE
ORIGINAL_DATA_CREATOR: network: TK
USER1: GuestUser
USER2: 
USER3: 
USER4: 
[...]
-13.855650900876368
-9.483957031405428
-5.050075880076471
-1.286956004338124
1.1343695915997016
2.179828947062221
2.8931816896827387
4.454744968476563
6.433589386642112
7.041169433450691
5.532813002462438
3.416394998448329
2.7232803851544043
3.8678243686300906
5.546183874738493
6.317169376456309
5.909175857532258
4.4192271961348855
1.7797819045149288
-1.3651684526707923
-4.087023986435861
-6.76179459854904
-10.520288831358139
-15.024626997612724
-18.654786214255335
-20.38619297865384
-20.244592837111934
-18.81834051952005
-16.57016467854153
-14.111476462523983
-13.07483895251425
-14.697074948871805
-18.186227869751285
-21.906539386281963
-25.03372938260862
-27.279521937434826
-28.313110612970103
-28.19563399427806
-27.21540264190522
-25.44871361546936
-22.836450373871227
-19.04586837085059
-13.91625342675709
-8.092704163325417
-2.480107578641625
2.0239535823456007
4.029016160247813
2.6713437704546816
-0.9349955633717546
-4.3760903658490955
-6.089297249797239
-5.973849191827882
-4.357163994167563
-1.4585689506972488
2.2952499785323237
5.923347478090415
8.854975490133306
11.575527249456934
14.286063866593985
15.785207734204434
14.674883081492501
10.577340377855137
4.2576182418813255
-2.9100797531486178
-9.533285028942664
-14.069771431169164
-15.762679260119338
-15.371753804122218
-14.324061594159522
-13.887513093884108
-14.727880836804761
-16.24636085703841
-16.741519878287594
-15.064884149317214
-11.496046704295026
-7.648689184735112
-5.318363104832139
-4.792294522961302
-4.8011654313718
-3.6677171253247085
-1.29050442448148
1.6246556256067501
4.941297576568163
7.907630924482836
9.51173675613972
9.748528509463066
9.968397609553227
12.047311369248906
16.258635399265195
20.420921625544924
22.60904212821465
22.822672199046735
21.649978584457426
19.14060528778856
14.918045576670787
9.34819859404201
4.135955170299112
1.0568196811785135
0.8702014834725449
3.8763407160240644
9.454842416948418
15.541231485307014
20.308618439966246
23.63956915015575
26.225363188624325
28.19619159959414
28.874723081842607
27.204911636421627
22.620295802363064
15.509294662866306
6.859756165380624
-2.062436541864793
-9.70585056639963
-14.67691096603193
-16.79819213192297
-17.262526016135034
-16.810863866067383
-15.022325020362949
-11.62706524465266
-6.798683236328558
-0.6604220200701317
6.2285708402059035
12.653861403674572
17.39969124764471
19.439330158067385
18.223877135096195
14.067556040453262
8.204111377274437
1.912586323978105
-4.473860153851093
-10.983787228288692
-17.378207294193395
-23.281499446662668
-28.382753815089703
-32.23364722667346
-34.55826449068135
-35.70111193160182
-35.62713219350084
-33.28950261514473
-27.982367209815255
-20.739517603497095
-13.228690200236114
-6.058831107782835
1.0588298402094278
8.11395900478031
14.067548492174726
18.011630386369312
19.821830616344673
19.68255190619963
18.532532069352218
17.027086974876497
14.83003036587207
12.461787774804943
10.838909738151997
9.289649920617887
7.02466728884106
4.852466602690937
3.8270555723878483
4.046835986092489
4.8481222677290905
5.280529834797858
4.84093356372875
3.5753544236339843
2.2202876265447444
1.9550462998652243
3.010301935834865
5.447318498223227
9.600252728516192
15.240832500657602
21.900183524386364
28.154979833094163
31.779408479540642
31.74869866613165
28.087666890017964
21.593656426480283
14.7920623853486
9.657177783099872
6.044234369125184
3.3238261327750696
0.883715207199717
-1.873435004185942
-4.7559011033635805
-6.97080033954192
-8.302791111783419
-8.279210670623598
-6.178044407549037
-3.0372977193884116
-0.2962678274766504
1.3894716348463665
1.527073932034573
0.40765111178366437
-0.9878038819891264
-1.7256340856508703
-0.9385750725308503
1.6456046531909971
4.375876000258116
5.2768353774571
4.265307938204972
2.4811433298258025
1.6387442223549968
3.0194035891067346
6.538262834105647
11.234777600791714
16.264220712329607
20.752343807584293
23.396943123328995
24.535189536118857
25.88035212413294
28.060987239143163
29.968271136132124
30.03590691007698
27.900491656605762
24.05362226513498
19.72701253221564
16.24738384122394
14.467607906087032
14.406307795615657
14.752569761147205
14.344241199512467
13.33756062356809
12.607345282309923
12.519333188496462
12.945948214895637
13.532234099309946
13.870751669513302
13.66336347041622
12.357895519989526
9.547770666693037
5.339485802670847
0.9389817213282216
-2.3929379935290047
-5.197087107472706
-8.313478702239545
-11.32882513513216
-13.339752809569623
-14.290320204449982
-14.565445883835096
-14.086139766314849
-13.146376225444723
-12.617617934259162
-13.154875284897031
-14.828395878967955
-17.188699676599022
-19.385763737231226
-20.418480542737175
-19.74863691984868
-17.81065426261879
-15.67974273123682
-14.021052984597713
-12.75289150189423
-11.701615573522398
-10.70205433990808
-9.382184306905678
-7.811133523739163
-6.83593195876204
-7.576170205466391
-10.59392389493356
-14.920720969393008
-18.354944155614234
-19.030442550737156
-16.651169554855123
-12.755348505328099
-9.539929297004415
-8.220770841347148
-8.43558210724073
-9.144050299184952
-9.739963869189769
-9.819707566636053
-9.244769196015715
-8.362281738652353
-8.027638440521505
-9.075484109702643
-10.87940597751501
-11.64988595077047
-10.499892200329791
-7.88317606407039
-3.814099209714861
1.6786346187692134
6.874218708599617
9.723349078946798
10.323712781137125
10.446054716838562
11.029707468115145
11.68084290466817
11.875616810378375
11.385491935058038
9.9601973336055
7.341283954749506
3.7338028064441797
0.02501373834752967
-2.971713292221476
-4.940654542172112
-5.6540348505498725
-4.96684626452304
-3.1553102801183313
-0.8617446821814366
1.2185384908242554
2.488672254749444
2.8572012449556197
3.022164151601258
3.6602593824917204
4.48004160082741
4.454625801151109
2.903825602801004
-0.03663368167166306
-3.728812874462711
-7.194200424123001
-9.526913099082575
-10.496553203857564
-10.110723875867397
-8.347062038322061
-5.894139305557204
-3.7763076906294364
-2.6068746662150373
-2.356756131885133
-2.554350370874007
-3.30061584172478
-5.228643453360211
-8.03680743010873
-10.478987880364826
-12.129293830761947
-13.760715313147443
-15.908987484551394
-18.14470383651808
-19.615187572521787
-19.479736098225096
-16.98133188228642
-11.980556323374257
-5.393353665941259
1.0855297213715511
6.025964480792411
9.376389176468846
11.725101959969091
13.172209496201143
13.3126245486798
11.951462845659751
9.333914990564347
5.495427573319141
0.3085467297225308
-5.793432036619729
-11.42455384500916
-15.312832528827359
-17.285709415942655
-17.788962362900822
-17.334194539804397
-16.14960875838925
-14.788212910340793
-13.686082052660895
-12.321630135129977
-10.348142486778082
-7.4568073020076415
-3.202754734710632
2.815540364558668
10.061704304909581
16.271260814272374
19.640100487032456
20.257071935998212
19.279417048826982
18.04322314637806
17.50304813372662
17.51822072282717
17.044703223802138
15.1138078666695
11.405142118825884
6.40441090414163
1.5765828783333566
-1.3767175907361198
-2.09727845244659
-1.5564523692579924
-1.0028402415103284
-1.6553047195756407
-4.039860043125997
-7.3874762277970065
-10.558799177934773
-13.182212924577854
-15.726442857608006
-18.715028586304474
-22.229443977065763
-25.594606100482174
-27.817631553456188
-28.3768387700261
-27.169102098824073
-24.956134412680726
-23.12368873422645
-22.062009329085576
-20.770872107727776
-18.425760699564112
-15.121886873348846
-11.062289024574046
-6.549489002643889
-2.1556229382316117
1.6662908540367412
4.325388462379915
5.1092804218175845
3.825435228169801
0.9112708932942284
-2.796055706030977
-6.404612975660973
-9.39176552457409
-11.29372633536194
-11.737281781718778
-11.050185492574554
-9.475729415513266
-6.747408048388373
-3.1120300731464816
0.2535642169999663
1.9342282603315144
0.7705583292877216
-3.585933616030157
-9.922570614179076
-15.91161943850563
-19.628009745816207
-20.532192826036248
-19.155817805535012
-16.526577708035326
-13.649668713883063
-10.905999453879895
-8.128921312891212
-4.671748389264113
0.18322943486653076
5.509880042942107
10.053106300948802
13.216538521139482
14.084391926828426
12.506268809987473
9.353064763705344
6.122483886355534
3.89412198842336
2.1033741438172404
-0.21857038170755322
-2.6683893880087775
-4.70379848830034
-7.0017585516773995
-10.200917558480523
-13.65296993072593
-16.28344509596937
-17.77845991205167
-18.12334821554071
-17.0696685586893
-14.71262619195397
-11.694043964165884
-8.310646716334123
-4.605901430699874
-1.293751577369229
0.8930046506323887
1.8766245178810779
1.8316387610543128
1.1701008253711487
0.05912349979579978
-1.5252744909427418
-3.2200659899710384
-4.289786090533189
-4.043808898172366
-2.685438786003431
-1.728913343181774
-2.594936417954869
-5.479356467700066
-9.555721040718781
-13.630745603616699
-16.557052108001646
-17.729662720735767
-17.55194350453553
-16.74886478286761
-15.398749474328325
-13.366315620798359
-10.426067784913412
-5.8500528981241136
0.7054862380667902
8.798644513001436
15.984025217762138
20.579421411306658
22.575229349670998
23.7631347877239
26.510141031265977
29.611675771702686
31.081423865696944
30.642604127870268
31.08714781438433
31.995095863157925
31.36361570079249
30.955348390418756
29.3094258078185
26.59780277643918
24.884787772309043
22.875187457679047
20.124483312816697
17.443336068556672
15.764366327639108
14.983288941836244
13.862134514656297
12.514012505934916
13.015592043298518
15.782664073471127
17.972997742263157
17.319149351781313
14.622260245762122
11.903661624613463
9.806161983853661
8.078795308045132
6.520782274592218
4.65050343753599
1.844773118198431
-1.2497506013631772
-2.771417456403354
-2.1165654686711264
0.10439378071900607
4.144836611195915
10.017900993827116
15.671408814230288
19.181913800724796
21.255607370869217
23.093237446739813
24.057839125028966
23.825535367118412
24.00423670315575
25.568670640617615
27.26098299634977
27.28531098181449
24.786725671220292
20.653371266808296
16.73913344770834
14.226354061939945
13.473681847866708
13.723036346589707
13.824212751412713
13.640882540071923
13.53848516519097
13.519766237142193
14.284909166357734
16.806394979456055
19.831825869853883
20.75795407093868
18.72284337298196
15.405025733638142
12.597297857435683
10.420302286074797
8.616280938047133
7.560838670027344
7.027212611444446
5.724510661585428
2.5733276939497296
-1.7125772821754957
-5.000214282504622
-6.349186439686024
-7.10361013716053
-9.047264386896483
-12.780429194472722
-17.89213078655571
-23.166605956447224
-27.21266899803155
-28.97846635300863
-28.25958267733278
-25.599103255841495
-21.655650446109576
-17.24745572655778
-12.650916264320504
-7.584337472294601
-2.2095482529886037
2.8084035776955516
6.787754077143795
9.18946992621669
9.400380920478794
7.575150479514297
5.265323120475793
3.6722696089719906
2.586861000698067
1.4058576484978313
0.28900954840948595
-0.5614367679825414
-1.597256415489271
-2.5844899976899733
-1.9861822945019643
1.7880702407698814
8.139998714382585
14.27603847057263
18.082007651554076
19.73951768133364
20.596482732241626
21.0835930295495
21.11296033805467
21.42081512617638
21.716103096369856
20.74614057216203
18.9206528616631
17.42129155549643
16.524184292949148
15.398445721061693
14.126883281683547
14.010408720532904
14.691957660525665
14.770210754820052
13.949734537341376
12.986513151731998
12.029734191790721
10.422552729892423
8.201801496827109
6.762728973674262
7.379409458784562
9.866280230751691
13.658217623442901
18.78655393370447
25.398783232129958
32.75047047872342
39.62279824457291
45.41768789926649
49.83822202899879
52.54122439623521
52.893070898702106
49.76089214133178
42.96261686041749
33.85158782071279
24.123181337710864
15.486900728842626
9.432885827416513
6.385105315929999
5.93441281813216
7.512507336242524
10.18927424105982
12.089551139837372
11.705225830719728
9.265910485597049
5.192060158192875
-0.7125815244137677
-7.5146675952913755
-12.412845979593936
-13.016314316660141
-9.4915515019564
-4.009657287359647
0.31058964327937527
0.8586084508640414
-2.4024361951154876
-7.616478344643721
-13.407415434189188
-19.166868786962908
-24.110333021863447
-28.365909230276795
-33.45156408508278
-39.88084685080757
-46.11517005442468
-50.484737927619776
-52.58869742844416
-53.43196264618258
-54.97002815486632
-58.16206464181328
-61.756550519083284
-63.84898172561695
-63.68317271287051
-61.23985002435915
-56.2718137282679
-48.23116014649491
-37.06353103889591
-24.076809606590935
-11.799117596053597
-1.895606699258324
5.862232790372248
10.92154230363399
11.110573496439804
6.280478033073625
-0.7594603060124644
-8.308367307412633
-17.79065976821317
-30.516651756551862
-45.092128794349215
-58.26589216147667
-67.20880162700846
-71.16752243828634
-70.52658315930621
-65.82246710584931
-58.6571026177333
-51.94436702669382
-47.120811984743305
-43.14371472106561
-39.34165281624618
-36.787165481517704
-35.61618699830679
-34.143683536754395
-31.9685986987759
-30.36030845968647
-29.11038110679205
-26.885007845753584
-23.574287128466796
-19.670868905648454
-15.862433210461198
-12.705174115762436
-10.0416563405943
-7.813435550139334
-6.604206005581184
-6.970353990343133
-8.889963004175726
-11.677212941296904
-14.480077469583788
-17.590223163059708
-22.22817553605543
-28.895215522668877
-37.55767432234742
-46.84939974875426
-54.08405741124854
-57.64050483002381
-57.29613460338584
-52.6396294891767
-43.747853464737766
-32.15152708307021
-19.892355716073496
-7.939857045632126
2.8707396992029977
11.634591430648468
18.585916201917662
24.009636671941113
27.74182630439436
28.377102025556937
27.0329813214379
27.57409542021736
28.84854693404697
25.88655750838604
22.061764430979384
20.96240011684203
18.89733066533259
17.83653399003862
21.0620085125635
23.22050479431362
19.190826100789142
11.784508768548875
4.7768207681017305
-0.15731335051035433
-3.0260153718616274
-4.259991035397581
-2.3032965861462786
3.950484542708973
11.52774154711719
16.16991612246365
17.777192409830317
19.499692557542456
23.17471036596241
27.391343523901533
30.344213940312716
32.090762459164196
33.443751194716086
34.68171855146754
36.48635904917391
38.876833230690906
40.586640803783446
40.574262736841284
38.466829658226565
34.36547869184425
28.743114049267607
22.29493879465515
16.04744562356647
10.457904338488632
4.953833446835313
-0.848248221607092
-6.502961857163294
-11.020008825018376
-13.810780786514883
-14.491549269090719
-12.782962507200985
-9.597763966152455
-6.840665613103836
-5.6742743264244035
-6.517326008314146
-10.200299340164785
-16.318674473183204
-21.96512212415122
-24.803587916579048
-24.606260308200333
-21.516951018254442
-15.75490637041261
-8.090891494516569
0.19139778253610637
7.219353174570767
12.067545706537663
15.62753690509749
17.953023705834553
17.277685706294925
12.860737011454303
6.720684137231797
1.2123502385215943
-3.0892441874781658
-6.103239800287425
-6.802497798231416
-4.011129698986538
1.5013164256061702
7.3786917882494985
12.4222653434964
16.786771238274504
20.473002447139695
23.321231179186185
25.09705249616266
25.759863756482606
25.62461216350848
24.7043410660497
22.998999069987743
21.30003282381972
20.96623649747146
22.629066199377892
25.89518360156508
30.620543954137137
36.36477010016928
42.20163175087701
47.24556686212031
49.80287209195261
49.54532133890242
48.32425649069867
47.23267205467957
45.35386911417467
41.163818414972525
35.030545029524774
28.33834962793697
21.896694480465467
16.894174927426985
14.769749812393561
16.082205890846463
19.813385351952487
24.142512789777605
28.06244034178734
31.397272501951644
33.87822684314295
35.246635732958836
36.147791381569306
36.71243238563421
35.17351708637031
30.940465860262453
25.80378394222863
21.066127234222314
16.569079914421614
12.403015179995135
8.77839895756805
5.595885027099502
2.91769081396318
0.7407121329899332
-0.6901945200223685
-2.04027383648978
-4.262651784135965
-7.663424872135653
-12.292265549502542
-17.5475922034716
-22.75362174734614
-28.038925106575793
-33.55927215026339
-38.32026766043043
-41.4404693137334
-42.452666604410716
-40.95760799035893
-37.031654744179804
-30.82484980499166
-22.86566416456012
-14.280320151947786
-6.420270620620323
-0.40973690896531617
3.4556939311333825
5.248361529182028
4.944885991330384
2.4488581874272026
-1.1420314674051355
-3.9604502931141776
-5.610439182228124
-6.383436049635612
-5.878936498868952
-3.546643124661826
0.3679647207701012
5.566886059767431
11.960290516804442
18.872733236072914
25.390632301941018
30.337622989274355
31.919600036074733
29.47873220160549
24.607845458628084
19.235237255076147
14.395739356092065
10.13713541380049
5.362911171368559
-1.1331591188777572
-9.206942850475542
-17.293659277623505
-23.97891883088842
-28.391562037740684
-30.09226717286649
-29.363257934341647
-27.042278659497057
-24.659979159973382
-23.09415843050345
-22.484529499936507
-23.254261080648845
-25.47890685180173
-28.756032184938128
-32.21506958210001
-34.828674890865486
-36.22176950554579
-36.93344988118555
-38.03527410224378
-39.96727921966336
-41.782594622425215
-41.566961348244035
-38.17256181871931
-32.16751244867262
-25.22340819316425
-19.444409297260933
-16.82628334717963
-17.99086592459077
-20.99420129995124
-23.56645920495095
-25.154992474802313
-25.873274339542125
-25.90257785691998
-25.619103087615407
-25.16924623615185
-24.68849711157444
-24.193921978004592
-23.463083479319742
-22.77247925421273
-22.493935356193024
-22.176402860445215
-20.76613731887745
-18.222523425695517
-15.322120905875575
-12.62088767799608
-10.772433224437487
-9.633960251226616
-7.81196610036651
-3.9345060135007794
2.388411865511013
10.24616722539327
18.083482167644195
24.823843813030376
30.55857044933523
35.74339416367925
40.01807648689047
43.433938615775055
46.97970662674646
50.55625158842022
52.33746676576128
51.20471520096322
48.1174608594017
44.61940723293892
40.84301124812827
35.382200418768974
27.982388620999487
20.5412869713874
14.328115200455443
9.146639466435449
5.380203923333457
3.9103152974833657
4.624466280403496
6.069668139405315
6.58278637456541
5.44730446295837
2.481691470950253
-2.2287257869020483
-8.632119635226147
-16.43746307336143
-23.458506005443624
-26.19471134552525
