AAD_Filtered_TADAS_FILE
AAD_BASELINE_CORRECTION: BASELINE REMOVED
AAD_FILTER_TYPE: BUTTERWORTH
AAD_FILTER_ORDER: 1
AAD_LOW_CUT_FREQUENCY_HZ: 0.025
AAD_HIGH_CUT_FREQUENCY_HZ: 40.0
EVENT_NAME: 202302060117
EVENT_ID: 13194
EVENT_DATE_YYYYMMDD: 2023/02/06
EVENT_TIME_HHMMSS: 01:17:32.00000
EVENT_LATITUDE_DEGREE: 37.288
EVENT_LONGITUDE_DEGREE: 37.043
EVENT_DEPTH_KM: 8.6
HYPOCENTER_REFERENCE: AFAD
MAGNITUDE_W: 7.7
MAGNITUDE_W_REFERENCE: AFAD
MAGNITUDE_L: 
MAGNITUDE_L_REFERENCE: 
FOCAL_MECHANISM: 
NETWORK: TK
STATION_CODE: 3135
STATION_NAME: 
STATION_LATITUDE_DEGREE: 36.40886
STATION_LONGITUDE_DEGREE: 35.8831
STATION_ELEVATION_M: 3.0
LOCATION: Kahramanmaras_Pazarck_Turkiye
SENSOR_DEPTH_M: 
VS30_M/S: 460
SITE_CLASSIFICATION_EC8: B
MORPHOLOGIC_CLASSIFICATION: 
EPICENTRAL_DISTANCE_KM: 142.15
EARTHQUAKE_BACKAZIMUTH_DEGREE: 
DATE_TIME_FIRST_SAMPLE_YYYYMMDD_HHMMSS: 2023/02/06 01:17:36.5370290
DATE_TIME_FIRST_SAMPLE_PRECISION: millisecond
SAMPLING_INTERVAL_S: 0.01
NDATA: 12501
DURATION_S: 
STREAM: HNN
UNITS: cm/s^2
INSTRUMENT: sensor = GMS+/GEOSIG | digitizer = 
INSTRUMENT_ANALOG/DIGITAL: 
INSTRUMENTAL_FREQUENCY_HZ: 
INSTRUMENTAL_DAMPING: 
FULL_SCALE_G: 
N_BIT_DIGITAL_CONVERTER: 
PGA_CM/S^2: 740.971
TIME_PGA_S: 
BASELINE_CORRECTION: BASELINE REMOVED
FILTER_TYPE: BUTTERWORTH
FILTER_ORDER: 
LOW_CUT_FREQUENCY_HZ: 
HIGH_CUT_FREQUENCY_HZ: 
LATE/NORMAL_TRIGGERED: 
DATABASE_VERSION: 
HEADER_FORMAT: DYNA 1.2
DATA_TYPE: Acceleration
PROCESSING: Automatic Paolucci et al., 2011
DATA_TIMESTAMP_YYYYMMDD_HHMMSS: 
DATA_LICENSE: U (unknown license)
DATA_CITATION: Turkish Accelerometric Archive v 1.0 - Disaster And Emergency Management Presidency, Earthquake Department
DATA_CREATOR: AFAD
ORIGINAL_DATA_MEDIATOR_CITATION: : AFAD - Disaster And Emergency Management Presidency
ORIGINAL_DATA_MEDIATOR: AFAD PROCESS SERVICE
ORIGINAL_DATA_CREATOR_CITATION: AFAD PROCESS SERVICE
ORIGINAL_DATA_CREATOR: network: TK
USER1: GuestUser
USER2: 
USER3: 
USER4: 
[...]
1.4454048680484157
49.32829013130508
73.08724326865286
65.01224955091828
37.439156507199314
16.976862374137916
20.637242200274407
50.52109128436149
91.88065660704105
130.23735694736047
160.91042970126134
174.19397127159263
163.3849459966765
130.70246384596751
94.55185561558163
83.23315346112614
101.40110049743869
128.40519869891511
140.89105318906445
130.7758737941243
102.3991820786548
61.26340083192602
14.56171194610937
-26.765895788002613
-53.81577317100265
-72.51839170401463
-90.14935655259517
-100.09911964683609
-101.90166799223327
-103.62109957046518
-103.0135963337791
-91.1290250515136
-63.234963381635126
-29.6748791837901
-2.2576992156171265
13.864995734256944
-2.076805859416961
-47.26709658256587
-84.9659546525399
-94.1097820701701
-73.26094865231981
-45.31816719975016
-38.368600083124726
-58.064479282836636
-90.87958138755305
-109.20509611637934
-102.3306951749708
-86.32240625243905
-77.40462162616231
-68.6770716097794
-39.2830808404233
5.392433317792986
39.1321074342274
54.62558899481703
59.984045505628195
55.07004074665804
39.5849646229338
33.8354711351374
56.16820967301649
87.37446292817816
100.40891554777217
92.6055405771461
76.03305082932187
61.39584273793323
39.08488287006411
3.0664582768797155
-22.59258556141467
-19.952534200520102
1.8402311978723982
26.787873222851886
44.30447981819081
46.0649783952382
21.421065680492863
-28.233686248462487
-81.9848895881036
-116.05243185283129
-124.45519758219451
-117.1006410502841
-89.97590832806648
-40.252539438789874
9.44342240749548
36.2532245464835
38.55949433842681
34.935118340173254
31.74933679525923
15.640915596274134
-9.57361319422402
-24.44546166063258
-24.09766877553472
-20.002008282975115
-18.853187688469013
-15.883067136698253
-0.5153747841707204
26.947946729126727
45.94753860838801
50.02773260980183
52.68387791113572
53.153960438218235
38.70050051507853
1.1443769352750917
-45.58249643815455
-75.11524323351733
-86.29655918971744
-84.6423407507084
-63.00588927219355
-23.106638777407845
20.653575804781436
54.99457015739366
79.05988506348031
91.58891356446034
81.78180917785447
46.82133354765489
-5.454488500044535
-69.44616761325472
-137.24762197426688
-188.00702265579804
-198.2580158829961
-162.23081765962164
-100.82694750684183
-43.43981694680374
-4.155683067917544
18.87057388020798
27.396639755216423
16.98291703242217
-3.163854561332791
-22.568181669681525
-50.480431460273635
-83.89855537734782
-100.27752818316266
-91.57057688361216
-69.64534409083488
-43.77505795889247
-16.714290662797325
7.820451747457543
27.000758951850454
35.25125809289972
28.62342397849751
10.488340797974898
-12.150743519928653
-32.41103882540632
-48.61370626612345
-47.43506941935019
-10.29347396351672
43.95283697930338
86.28681573772073
117.04039107004513
136.48152125254535
131.34491246759575
100.08142074634779
67.51984549090976
53.30500683570689
52.600085871728176
71.50144212492434
120.36992483092556
175.59472402068022
204.09276046775133
200.24549234340475
178.6735402444288
152.2301201600259
119.02528366176216
77.76802405241018
35.662300128271525
-4.830981203272088
-38.03571686131136
-44.432137867483604
-18.671749214616174
19.833476629930352
62.1192150776513
96.82901690884357
108.73770119663352
98.35486460421403
70.70232022090214
46.000940509346364
24.89932084680412
-9.27696078635356
-37.294444130546026
-42.934197791521086
-38.3361289330042
-41.03922715084598
-53.640861763646086
-61.6012951323329
-60.54239569662562
-53.698708022233745
-38.03283532393423
-4.282179511561465
36.18135039663762
45.05328211128477
23.89581778897287
0.7385267314680891
-20.153060823578816
-28.174829349954702
-8.724552040691812
33.987818092296365
78.39207841805272
111.35250656175003
139.39008485165036
150.789630505634
124.83894608599977
71.7446755220606
26.217363298379453
0.2106658883774794
-25.1586483728981
-49.35889873736088
-55.677459181842366
-49.86597636553785
-47.865440717754
-45.746975288629365
-37.37166954558648
-32.525258390474235
-28.175854299969426
-10.326483181768829
15.163702140439796
37.41065523987833
57.643495255988796
77.21931716644549
97.55133852819573
116.73172962823844
129.89280291264888
142.17874591724765
161.02374533322566
180.7131062301572
191.1244354407685
194.4081735528427
195.57415260030453
194.05159600383456
187.3948339408883
177.72342895222727
173.76730555078672
176.75377474572633
181.68544349226454
182.2392828313996
163.46959019150296
112.66537684444032
48.896205838679435
9.283073573724957
-3.088145072929281
-4.92181242958074
1.5181786491550269
15.964712424999602
29.213643888501785
31.007454944930924
24.938282556986337
17.649673841500924
7.240440035476173
-3.9017245112334944
-9.990524264588036
-7.277162342563964
4.905470176948399
14.452136969292694
5.127353025528896
-23.157150205227552
-62.0505483967659
-103.34998000216827
-139.2278375110271
-168.3507193016157
-184.64160799435828
-175.9570105482245
-150.32766708115804
-130.20469449400346
-120.03167394201616
-105.80644284466729
-82.86747576142419
-64.97940406694674
-52.82440129814664
-38.44851920569197
-31.744080756065998
-36.94372175419279
-46.655306001780176
-50.417342171812244
-41.620390387616844
-30.028333086100382
-29.86744971866344
-46.357103795959304
-69.17957826090937
-79.84400453695258
-66.22221914337182
-38.775312368131985
-23.392356820653486
-24.60072856000403
-26.550635591574466
-17.938447700337495
-3.415586301317827
3.4308521346534095
-5.0785302564843695
-31.881350087520193
-69.29291108127009
-94.98112997894548
-98.04799610995134
-86.09886454710059
-67.32819806098196
-52.43937927449396
-51.0731923423538
-57.062268772569695
-58.898002321435996
-52.57159454666591
-32.77308261275021
-1.229563687461578
29.1975136229588
56.66491550002946
84.2043013747706
104.2607500193728
101.36264134135504
69.73858727380644
28.84211770953206
-4.180772791693657
-25.754791664659415
-26.91669914950759
-7.184781541364981
22.035990645771662
55.83845558481975
95.2921851140863
133.42770839609338
153.95673527261565
156.0514906040958
151.3989769763407
139.0353360234406
116.67634477287213
89.60351664725174
67.5240793330201
59.611515712815255
56.3722809592391
47.908612755135294
42.89576312890202
44.77045904122187
40.417393148362684
12.322612773267071
-34.11027790713437
-73.52828718956572
-104.24186988320753
-137.46444878674185
-166.98663717189405
-187.86320838090043
-195.15888475178468
-182.79155906156163
-165.05615617949425
-152.93096411737648
-139.26978469323404
-122.95424215171806
-112.40204142882439
-113.46783818512102
-117.04773273385483
-103.00849389142955
-70.47580529474546
-35.75279482773776
-2.579801312337638
29.032313948616725
48.556973679013794
47.5320140940284
34.948215265663194
25.476739026865147
16.909840566185004
2.0442013043690452
-10.972828365011212
0.2818495266325969
30.600606316350422
32.718790839163674
-12.922257956657106
-68.81416159753755
-101.9902599330167
-134.330531615
-176.0751048101567
-186.89779724330998
-168.96470777593296
-157.69316515234826
-149.2289188335568
-119.77266453810506
-67.43394136335132
-26.3458254847877
-12.183208280323191
6.444792096751312
40.0745386447848
55.81977076125824
43.56528559495651
29.06672052352185
28.917386945363905
48.897454765164476
74.53330925034894
89.20497836847086
110.50225582697247
135.75545570592806
136.00193264696892
101.60684877041359
39.3063775658646
-23.336906177866148
-58.16166713453419
-59.86366713195516
-33.02885771628597
15.983768606533756
69.30733664230938
106.88719095999421
142.31984508999125
174.92600422512268
152.3799848501833
73.64515269949842
8.89811453945912
-12.062655947597898
-4.994579017286073
13.96425402026366
31.15162626964959
41.37779113041459
18.13080194582991
-43.27432457355851
-90.35311233778567
-111.29257098877804
-127.7056885553577
-124.4025419422504
-84.15832009218667
-25.804076214863624
17.862831026780626
41.45600260887222
47.189088601700306
14.4939727697187
-45.85408136026476
-81.8075715666893
-75.51277309465986
-55.58366229015738
-42.66021781856577
-19.827484859481693
15.974331069253411
23.22169094193937
8.711025579689245
20.78598752790373
34.85195213318626
13.445959674028288
-17.749862540544452
-40.184213127730004
-61.60234388472984
-88.17560424765924
-105.33708648277702
-88.8070269971919
-52.519754816731194
-27.04094654718045
-22.719462856823515
-6.1733652011317455
44.13769045652126
81.37196746651759
84.56583388272136
65.52937398079058
27.908456355727235
0.6585425586815606
5.539046040314217
35.57392656034444
76.76690091481555
93.24203497762214
63.45822880164312
11.225702714080072
-36.006151953176996
-51.31036421600911
-48.32664025930128
-67.24495099326722
-86.00391932186592
-75.86166377342319
-51.921499694282865
-30.780700319271823
2.6020675991200246
72.6737830157064
142.08253947594335
138.18252939507414
54.59932405986768
-34.86682735749519
-57.746511001490354
-30.937219259718102
-24.20477136363334
-47.73467735186834
-64.27877965894687
-51.711706387063025
-17.222537712786725
10.563573043003654
23.218871083721552
20.330475574430924
-2.011561790205173
-20.02657649332296
-27.381488537857045
-26.20259550401928
6.216080466107788
38.2561879956264
20.25691761304698
-33.67033479942993
-98.2273904434788
-151.35969981777066
-169.38393826988644
-158.07005337410422
-129.913458814938
-77.20582136320928
-2.532009372960008
66.41008858693901
101.24511259190572
99.00761051322765
85.56549352790192
63.38713866733187
24.643416911904275
-13.244054720368595
-45.63144701484867
-55.277743111693574
-31.743366990301066
-4.502122092359599
7.766481739874024
-15.327177330833022
-52.90042024034001
-38.06693104438914
11.920984524229015
29.26816405904958
16.003522338609297
23.418137028648054
40.28357576275958
-1.6654995804146562
-96.13233851982358
-158.43524113283468
-139.14777110874084
-99.27092253917492
-111.53325082258726
-118.97080811396981
-54.7764848560592
13.121058225447856
2.3283189974291143
-58.90224961689939
-111.18193196209697
-139.74706038398259
-148.15249216790127
-136.704561396471
-104.14832562078969
-65.18524931221641
-50.20318890583694
-61.85825093346221
-62.510401032347765
-37.14369553442464
-9.870585922323407
3.85287860732727
-5.666163218548343
-46.59791570811711
-101.12559300571304
-141.65804428845513
-150.8751211748614
-121.17205042844296
-67.7711047973879
-9.054132208041528
47.21018480857651
83.76172578853492
93.78079726620763
86.58919949659759
64.56852648081092
36.681635800560535
17.423268357104373
9.459392821448366
23.968479047341518
55.74985269647958
71.34846535566074
60.79012300783652
32.980807144347956
8.933683492649795
2.4913633026932747
5.840044652755312
28.253671676449155
71.28981072752005
108.21982614064945
107.81768389708692
71.78211077129932
61.103880957132446
95.04345847624434
104.5734202488376
50.30163173063859
-30.62588425749999
-79.58307023927141
-85.81704847335403
-78.98728940209658
-70.2745488050983
-72.47391306152711
-103.94311868770394
-156.1767467140342
-184.0353812196937
-159.09016243050323
-128.1763682733924
-125.15055442984043
-132.72050807098216
-145.5831992360599
-164.1412075486385
-181.3934399032439
-187.00937741178566
-175.38117141206078
-142.82102365052995
-93.4274298566674
-49.82991603419291
-13.286645190764627
34.020258815287754
78.09842986685331
84.90918664269307
49.675276324032176
-10.784327687597374
-72.91777786005756
-109.68669939603363
-108.02974829996765
-44.1952799846087
90.40685601028956
251.0402047749215
388.9559839351749
489.02397871607945
561.1875595663245
611.5387569740265
632.7980814462721
581.3137091647922
417.63039080398516
208.86280545901758
56.76343655495915
-29.148985013798498
-101.2401532547172
-171.87183103588967
-216.51758880792556
-232.80606703963673
-237.30271467244413
-245.5290927503823
-237.73373287402822
-186.99276736291858
-122.98574947797505
-95.90644959453363
-115.1361094413237
-160.5442730719872
-217.64190034257413
-269.4244086236245
-295.60876369836643
-296.4085417988928
-282.83836004264083
-253.6215202846686
-197.3348082223039
-116.15226015066602
-28.754992773653473
53.21210823484417
113.91345933115912
144.28855707497488
159.56286704783682
162.9984890944307
143.46312402992552
96.49182803602478
38.520266823747036
-10.016687516539719
-50.8817791605583
-80.77031605244984
-85.35181268582649
-65.7088157623801
-31.832693344561864
8.444027524019381
41.910139445152524
59.706898165294604
60.68806324844383
46.08830022425696
17.263865213228797
-31.212829023594537
-92.07462313937188
-147.91343342909198
-188.2288009373292
-193.33420365983488
-157.69450604122812
-109.77843091012119
-62.71961369378929
-10.632976218160817
44.167456337348725
101.61880604903563
158.0949348399452
206.5102974648467
246.0183794664958
273.28923742983574
288.9917332487897
309.1356815223363
347.59243240504986
405.7702133881395
483.81469417912945
579.0193510933132
669.7796471253276
724.0306748224895
738.8442202828118
729.975407821138
690.6223684412835
596.363722776476
435.94407786302264
236.65851483709162
73.57146836404668
20.07830611884591
47.282982049336255
64.69711478986495
50.15784377732913
31.534898648685722
18.615065505229087
-3.632981387153629
-35.54630217861371
-51.63168823225547
-52.90869292523312
-66.86655247039285
-108.35358481982801
-174.97372011353045
-264.3008584902115
-370.81965585370233
-476.07223447491407
-565.6308666029107
-631.8065138659704
-647.4926456881974
-583.1529114389668
-474.14154559331047
-379.5453299442779
-300.89617757283816
-226.32634338208226
-159.07789307796023
-100.94908554565265
-59.03773546172595
-36.40745288318004
-32.47500840336971
-43.978001013840235
-64.09528547415303
-82.57705884744914
-95.5832992501269
-94.89411115053566
-73.1834774531382
-60.42324029335055
-42.3341966563663
-27.967601950381543
-48.611482921682914
-35.89801407393927
-3.280470955785538
-13.227073401389815
-36.548773500894
35.343479167420995
258.9619477986625
483.59982295963846
591.5444283693513
629.0225778849325
641.0523385811126
615.9241038457678
549.2875489558337
484.3410107526558
466.6083321730756
491.46829691301843
504.0511243376343
483.1818915415176
432.02825281492693
306.46863068989086
71.09781027811624
-221.69862680647373
-436.1643637062454
-513.6562968164831
-517.4773151288516
-474.08260327256
-418.72009869859465
-382.816925517089
-319.52713861472785
-237.61785155553684
-172.8519942878649
-106.05757538983202
-10.718608092331332
105.51896212376826
214.8703749614204
284.83122921666836
277.83921343792883
200.0834304596334
75.47116500324184
-47.81098546264457
-108.94929049276672
-102.90745722753631
-46.30389568634852
21.73390449121199
69.85319485467026
94.83361175304512
96.69967912777825
93.5820112766315
92.4986742305175
82.2121128491496
51.6613653899238
-6.654892347834088
-79.58197485815974
-155.89055693227928
-212.99742575187923
-190.83069288824356
-102.28812784329537
-9.555990144272062
70.96675932751837
115.7866084790348
122.31151282817424
111.12122792306796
83.43207680191924
42.96871739325926
-4.284923752480552
-53.62284238798759
-106.8186262986658
-155.23118152403578
-183.836685645121
-187.44541877672762
-171.66835992992768
-161.81430798590856
-160.2264271678126
-149.6357125925488
-138.1177222520226
-136.4956134852261
-126.5048330212419
-94.43225749773474
-56.221229400979915
-6.790630570597768
62.69767221113828
134.41176577698562
198.53115141982553
252.8921957871075
295.0352569177726
320.53723648476887
326.3084764988348
294.6450421510389
201.23130483166747
65.74512722023499
-76.87808658514294
-204.55911523469265
-292.94817789210566
-338.76389428843936
-360.15327151870105
-367.2933606045963
-354.4321971908797
-308.4577965154109
-234.51734809563695
-152.02094473194427
-64.47891191219355
30.443272809636344
123.23643176495831
196.27452204582056
239.9027217785173
257.15121550983054
245.0930232592834
198.0026028346904
131.48930383755402
69.85585681177469
23.631345758008937
-0.042996305952160176
-9.270328397918622
-26.401217764619055
-54.54257270279397
-75.57337601610834
-78.22111491539928
-68.02868263077042
-49.72791860479682
-39.46891545347505
-56.11061120868115
-108.33259221081879
-180.29260775887752
-219.73562183293572
-216.99835244132208
-198.37439586361432
-177.4413912672722
-172.455162806292
-183.0530782565978
-199.63564328666277
-218.21353142152256
-224.04068008774948
-206.1098198965819
-169.98610327250748
-127.08117086759788
-84.176874886731
-47.33349799154543
-18.102173510473513
12.158397472137528
50.92402145601053
93.93980477983503
130.44401419539702
153.2595986210101
162.64660061351555
156.44788091971952
125.78823643932635
81.65332453220287
41.09992892388656
-0.10417367505165027
-38.99657688345898
-71.17711833677244
-102.16616952711894
-127.7916189904531
-142.47801687931116
-145.7369116698017
-140.23908471915016
-131.20484096769928
-121.25868613534256
-108.02575146401969
-88.37217660283956
-62.73184133720367
-35.19494482245727
-9.37355890072304
15.849470823436867
39.31259054437864
57.32870732974562
61.32636712629623
51.41710789479163
45.76853305203535
54.326200957214496
76.31872815717637
101.97260971739651
119.72656910112256
123.77587486808714
110.50819874339315
89.61467820404789
72.0944012880285
61.110485036816264
52.4762468258907
36.01108722657446
10.854235121024617
-17.790827080748965
-45.09590125092107
-67.91731320914923
-88.08459387353093
-113.55693898461251
-148.38690824435773
-178.10543539084568
-195.71322531357077
-204.7564505692168
-197.4979886187245
-174.77946286422426
-144.5345907488268
-115.31348594564427
-91.22398146671749
-64.7635994476633
-42.43421769881167
-39.63587351859841
-59.357722567360796
-91.27663259250919
-118.8176075255801
-133.37291188845873
-132.56153620673146
-109.4884704131052
-66.1183261139786
-21.846974792613803
16.922025312285278
56.356817554932434
93.61633054922616
123.05963125049512
140.5131640346374
144.37384022914043
124.46052887296796
79.08154921088811
28.353460285656222
-5.738020672929936
-8.567903446054547
0.10175257757825693
-4.492827312720242
-16.99727384229749
-32.446453822206976
-44.5105160086193
-45.10376378465526
-36.06968510400627
-21.450570025268497
-4.041828687210039
14.651676633319473
32.14103383152342
45.254135810652315
51.92719208174668
51.288556653349666
47.44654039590622
47.11756644233304
58.79294271366307
87.30875065173316
119.6567934129922
138.0559228241163
135.1777146092998
110.87519256955434
71.74697443799138
33.35811952196261
11.216642584107086
