AAD_Filtered_TADAS_FILE
AAD_BASELINE_CORRECTION: BASELINE REMOVED
AAD_FILTER_TYPE: BUTTERWORTH
AAD_FILTER_ORDER: 1
AAD_LOW_CUT_FREQUENCY_HZ: 0.025
AAD_HIGH_CUT_FREQUENCY_HZ: 40.0
EVENT_NAME: 202302060117
EVENT_ID: 13194
EVENT_DATE_YYYYMMDD: 2023/02/06
EVENT_TIME_HHMMSS: 01:17:32.00000
EVENT_LATITUDE_DEGREE: 37.288
EVENT_LONGITUDE_DEGREE: 37.043
EVENT_DEPTH_KM: 8.6
HYPOCENTER_REFERENCE: AFAD
MAGNITUDE_W: 7.7
MAGNITUDE_W_REFERENCE: AFAD
MAGNITUDE_L: 
MAGNITUDE_L_REFERENCE: 
FOCAL_MECHANISM: 
NETWORK: TK
STATION_CODE: 3125
STATION_NAME: 
STATION_LATITUDE_DEGREE: 36.23808
STATION_LONGITUDE_DEGREE: 36.13264
STATION_ELEVATION_M: 156.0
LOCATION: Kahramanmaras_Pazarck_Turkiye
SENSOR_DEPTH_M: 
VS30_M/S: 448
SITE_CLASSIFICATION_EC8: B
MORPHOLOGIC_CLASSIFICATION: 
EPICENTRAL_DISTANCE_KM: 142.15
EARTHQUAKE_BACKAZIMUTH_DEGREE: 
DATE_TIME_FIRST_SAMPLE_YYYYMMDD_HHMMSS: 2023/02/06 01:17:36.5357130
DATE_TIME_FIRST_SAMPLE_PRECISION: millisecond
SAMPLING_INTERVAL_S: 0.01
NDATA: 12501
DURATION_S: 
STREAM: HNN
UNITS: cm/s^2
INSTRUMENT: sensor = GMS+/GEOSIG | digitizer = 
INSTRUMENT_ANALOG/DIGITAL: 
INSTRUMENTAL_FREQUENCY_HZ: 
INSTRUMENTAL_DAMPING: 
FULL_SCALE_G: 
N_BIT_DIGITAL_CONVERTER: 
PGA_CM/S^2: 822.616
TIME_PGA_S: 
BASELINE_CORRECTION: BASELINE REMOVED
FILTER_TYPE: BUTTERWORTH
FILTER_ORDER: 
LOW_CUT_FREQUENCY_HZ: 
HIGH_CUT_FREQUENCY_HZ: 
LATE/NORMAL_TRIGGERED: 
DATABASE_VERSION: 
HEADER_FORMAT: DYNA 1.2
DATA_TYPE: Acceleration
PROCESSING: Automatic Paolucci et al., 2011
DATA_TIMESTAMP_YYYYMMDD_HHMMSS: 
DATA_LICENSE: U (unknown license)
DATA_CITATION: Turkish Accelerometric Archive v 1.0 - Disaster And Emergency Management Presidency, Earthquake Department
DATA_CREATOR: AFAD
ORIGINAL_DATA_MEDIATOR_CITATION: : AFAD - Disaster And Emergency Management Presidency
ORIGINAL_DATA_MEDIATOR: AFAD PROCESS SERVICE
ORIGINAL_DATA_CREATOR_CITATION: AFAD PROCESS SERVICE
ORIGINAL_DATA_CREATOR: network: TK
USER1: GuestUser
USER2: 
USER3: 
USER4: 
[...]
16.50843899174239
-9.456522193759497
-19.747407255463052
-34.380130179406414
-43.14245557767018
-51.45398682096819
-59.88042677893845
-52.85189550574543
-35.260810009084956
-32.44619108416786
-37.629163144806675
-29.1168960768947
-18.024782076958694
-9.284082806272039
-9.894520435107886
-22.092793785348523
-27.444309293716504
-28.84139322001192
-24.299222538626193
-16.042897345846526
-21.14495691427437
-30.29843962684355
-34.21224617460126
-38.09879996354416
-44.55968498569881
-43.18109022363221
-35.34930092738633
-38.5573767604996
-40.67348860601336
-36.02407828631897
-36.93916293637177
-39.28136273409677
-40.15398852242444
-38.231337554309974
-39.3218157764002
-48.02463501501345
-46.33181622492851
-28.724734152581437
-7.289771518166893
9.67232953197781
17.216995416791697
23.918771235258088
31.1555659513957
44.81487511532944
66.02286662152166
65.54956721518812
54.43234903592197
43.54126347457697
22.247383674749678
9.138560725517381
2.612509616399096
3.910280536821739
24.55680894675448
47.83155079947137
52.294617256536206
30.783318451206284
3.7545183380836344
0.439167088367184
11.798599024227068
6.477537957680938
3.029136086900179
17.63363796647886
19.351733974204468
20.963847387731096
39.054181273002364
45.71798506902236
26.759456857039908
-3.2069696929162275
-18.76400003796582
-17.125705911260475
-1.1912774169661606
17.783763898927166
17.085145131725056
8.299367132189785
4.614555577897666
-1.8450192374979573
-20.257811800705287
-33.583633345442884
-24.93708740244903
-10.870112138978232
-5.830545584627575
-15.343024875028178
-11.121654333857075
7.361326122265007
5.547092892513356
-10.274291863387887
-37.6358194626972
-54.73336109460074
-47.096247305257336
-32.595476718830724
-16.9525277523699
-17.649687943677197
-38.3186315119401
-66.32482504262543
-86.8115991593953
-80.27826585085643
-47.61254621050455
-16.184970748291974
-4.290841774378683
17.338103881445107
36.792612779519345
1.72697349214902
-27.00078669454638
3.2368145193135027
18.65983786412921
-13.242274108637936
-32.75378648748623
-27.759748119119955
-55.79384866625617
-78.29188475816603
-39.122678768346965
-18.194481255303128
-53.893322102863095
-60.646560252846754
-13.316107957236799
1.8006284170259377
-33.85992434661701
-55.36777390444466
-22.937992747941177
33.67951136793828
35.98555062174803
7.893337875505477
2.421323645096132
-2.877121233632957
11.98760446875732
51.83163489983423
53.40858946846791
25.101148772210585
31.22992870224896
27.672431514793423
8.367500897424819
36.47309261487801
43.96104325331934
27.403347613021687
32.22571311252931
17.150130403578284
20.507159812854027
62.82299772752191
70.04005284147199
47.198655565094306
37.486095574772726
16.738962690156946
-15.217880813279704
-19.365966546934114
19.553227075910215
59.889166550749216
40.153678157581275
-4.608460006275539
-1.9781817031742053
5.156059307516165
-28.69298187275126
-54.60273388382267
-43.53774870102711
-2.4392109945151157
-7.610734266393426
-37.72539751149806
25.39325175113519
70.96792637628539
18.016639412101473
-47.378918866493954
-72.17025658247448
-36.41755047781185
-4.707342099841255
6.913379266537569
13.879565902639255
-72.25178097098834
-183.369919762201
-165.855185676005
-50.87481715940468
53.02975280281951
122.8251532918994
194.2056566097135
120.9260958354997
-89.32048027842359
-141.45169900546847
-72.41613680729998
3.3156723971381865
30.13104592520952
-63.449139970249945
-72.71561496644011
-14.509817485876217
-40.75937638140045
-50.103050927831916
-52.87530243194663
-80.9862591771416
-78.48357118564212
-72.57046747010519
-96.86541187301458
-94.24479848199313
-29.164587739638282
11.43782598120343
-11.909034364170527
7.4172839447401095
51.45519725412234
-4.126196952196286
-21.061981114663027
47.569378901143736
21.784993441613786
-54.35496165506146
-83.12067564342748
-46.6871524760357
-20.169956903185348
-37.8238011074036
38.773763791499924
78.64564753798608
0.92671853370127
29.678104871742725
64.49660895745674
8.071059362808846
2.787786753565888
-4.4767267187476945
4.070115153189578
72.4305710216651
79.42417436240649
14.471987848933786
27.249375320533748
175.2481733486539
188.64291889042568
62.04125255688984
78.04588336809303
133.7936082923605
58.38202602619499
-54.12014923735413
-30.548358046670696
-5.011304486536131
-101.06812130647955
-109.15330299738476
-38.313674035490244
-13.152785221676963
-49.11019821912679
-66.3472665655537
2.0932086050530536
13.202651440748244
-16.294039733436666
0.050064857643339775
-1.0433722294269527
-56.573092142447976
-101.85938824695606
-27.854437353317223
-8.987544288206092
-86.64470285468396
-62.56713822873724
-48.07715284084469
-71.91773810747117
-62.86420708977559
-84.30461850566913
-49.96897895769984
36.74927738470799
-30.436413839022652
-110.78029061272204
-19.082294431523078
79.56757704503572
119.01018820898507
-19.038238671798016
-178.17117905283067
13.936773434626996
203.59139129518232
130.7607592002807
36.31509126099217
55.90518586691783
140.6050024078116
40.492954647399415
-77.54301429021382
34.0822173033129
138.11146622045317
124.91033228554465
52.34920985404676
119.3847031223321
191.77011340297204
5.967463111953708
-82.70350301695377
12.722308701167028
17.942273386260197
-53.767483541949105
-51.17569404779568
-32.524013449173424
-51.14128674539878
105.12834747830647
316.357143555239
161.90450728246685
-114.80487638696563
-58.71108532789588
3.583674629604936
-29.305823226995724
-26.12946662815201
-46.859718987708746
128.4134877668723
120.48691102944632
-81.68350527900344
28.880329152274715
90.43499342620808
83.01940467553351
122.77955961654605
70.56938805585561
84.38214621893495
117.23396438931275
109.06584864306033
115.385838228424
127.64177881129106
104.379723483873
37.03905800901094
-66.5285713191813
-51.61669553069723
79.34364007298497
86.09667603535841
30.44544207638831
-85.9156343349612
-122.13641986288108
69.48760600466741
126.93861469381774
-7.351316437446886
-89.48452965071307
-138.42993280756525
-177.62951351568876
-192.74097849524844
-218.98436147172413
-183.93825706706235
-108.98810436054274
-76.79348721213528
-46.22906257069981
-57.31284551942651
-143.34724447560626
-74.95051691373669
124.78164598474916
78.93625941884002
4.934292351105587
119.75261580541232
128.22748349517275
24.829203206712275
-88.118009294527
-105.56410322792024
-55.99803534392703
-57.46131252770389
-38.886887283935856
-80.248755023182
-64.53889256594988
88.77645453384818
130.73304408525436
157.0010055617435
220.4041015229721
184.89975963977255
192.1598726674725
267.44746541537927
327.41121745209733
295.0641968790501
235.25698027705084
308.0767381963131
332.50981358495596
315.1657134899454
165.16067530220215
-108.38453192548154
-61.591779991261006
53.04166996757587
-6.581778558298032
-37.532458736287886
-51.326510219423646
6.204545920600779
126.15610540192148
218.9509891888067
271.98601118501216
196.24603118758188
234.63211207396057
397.05689649360136
274.5730854076645
168.4101494252302
251.58330770960848
290.1301039781029
262.23499142445763
96.43581527172766
47.13710736707014
207.70749132697742
242.45942346845928
85.55424229519632
-155.77501061292733
-225.3524363345884
-7.17206531520769
118.21008684197609
94.69114584838859
92.15097147705018
-76.87009601082107
-149.87441666492538
58.709708402504205
124.5383898368459
74.26610128762537
65.86233754557362
45.986099704549375
30.25986627546261
-121.06373128694182
-369.7803526937218
-403.79107043565426
-129.83194106853216
185.2393877784272
215.0132144144277
10.214025306064238
-162.63186509077417
-165.76576415235536
-33.71807846904824
21.903530527783538
-51.32223416365647
-122.42890871070225
-233.88947079666497
-384.4397153555395
-385.39869765545944
-227.2824830397121
-81.96074030234456
-17.824674279156177
-17.63158362447004
-53.41097800245516
-68.46141884016781
-45.06176504164045
-2.133678923518309
135.0785492682367
102.94567276970102
-251.7567430563968
-232.00456051110075
113.21574329822003
177.3922630668949
93.67425649477529
-126.51541841206082
-408.8390256643547
-491.09251834126235
-364.9682281866961
-221.768525177197
-214.09087379702683
-130.95556998273113
-26.731697780790608
-124.9126606107072
-275.3946556949266
-370.5573279466562
-377.0355939017973
-279.18971853319636
-234.4579335966179
-227.88888757808158
-109.4370918047642
20.358589694520383
117.82044327247552
202.19904796820254
62.88234278886397
-166.10626832138595
-195.3210299712732
-207.96410565771728
-255.1837502204641
-248.9191801756071
-302.7804632891392
-379.8673499384791
-350.29460562924737
-271.71316305492206
-278.64500624441837
-385.0939741477332
-367.2869687868035
-292.4708399811065
-361.9919182549631
-115.30781479164963
325.2628184487958
384.14908660132625
225.01373523040164
-18.285203291906925
-364.8349471680317
-593.9011968428033
-449.065493597679
-121.13150169448333
153.12492149821335
326.9867919805555
179.91128847470515
-146.61777232490022
-318.5236412536102
-320.59889685208947
-280.0269800468479
-277.9184016640322
-277.4925623334594
-206.83524259797508
-96.97006600924482
-73.6060691904785
-88.50245921054201
-16.852983531328682
46.670444741956395
57.88503346729227
48.575997180495065
-21.792283597220408
-32.31215714771564
55.20103292835408
138.76506809828913
190.86099433907074
197.43038611774895
232.52412188392614
252.53133231396978
266.33096489276704
295.52508024985883
143.98224686058597
-25.58875222934956
-37.72380992594362
-61.51160727871419
-64.94752325867702
-2.51656026021724
3.319314790145978
-82.62640646965787
-162.39681447762982
-193.27850959351116
-338.6523153384991
-407.9100252714857
-266.8061384592533
-106.03071867472077
26.630589063326404
-164.15482528064973
-307.71133257950817
-59.46880403153772
123.51876425753035
159.7562699231746
-25.051632917493656
-190.35453843677067
-100.15004320728231
-6.497889041875788
39.29582457975759
-7.190476173684621
-87.5853394034663
-78.66177431511338
-33.40573694197978
-15.436384435298473
-36.7716218366295
-50.56204966556735
-44.22082757955763
-28.02373275899421
67.1373491763245
155.71064445415485
96.24424745110926
-30.125164195349228
-91.05721171893623
-33.51432202213382
-3.3592929150942283
-30.967040884405638
35.20479627137636
66.37864752656651
-102.57324232106933
-357.41214340352286
-464.00640611539757
-420.5167310232539
-237.22348721654066
132.92545187883502
268.8843777633974
16.431396476378588
-141.4258249401627
-68.35399845776186
27.654889326605108
143.92104431087785
255.30608180042688
354.12253966519495
472.6027305859562
447.9770610830708
375.40703379149346
346.57188997519273
252.45161651368736
138.57566515110304
9.943519114089334
-95.19843569945321
-152.41465648536587
-200.62908283675182
-184.19610026683708
-99.12840364912931
-44.28486212937937
-38.86496644710963
-4.281073703851707
104.87895064095939
268.21035605222676
371.6295692873652
292.9130506588184
142.31580733617815
172.0290016268223
305.2382054704123
303.15724229204653
276.57180968123544
340.2073426747983
268.2843164686522
3.738668218158953
-179.7416547510652
-165.14052628773987
-17.50971352515886
100.32505570679068
34.34493186728401
-94.6428009098741
-162.96057691304955
-185.11275259405105
-200.51890075513214
-198.91645395549722
-109.30976959767878
7.277596868067392
104.6173057336093
176.12137904607158
173.0411114231443
144.48861945998053
135.30564439767858
79.89142352014812
-27.44241467413655
-68.5006342725496
-17.22631751892108
60.20631733092371
64.49182248419986
14.416433185801052
65.99414957453298
130.20037554404053
113.75571967804646
133.12721451779308
155.73242250212365
126.62000827288216
128.04462413232056
146.17086526837704
86.53722171138416
9.916708222071662
25.508014449266643
51.41964234065333
73.28772408910645
67.88957893820478
-81.17041217049713
-116.67807065287471
62.67516657492239
179.0314893103612
209.63465577079964
167.42375823848224
76.68337662949229
53.09686932124916
70.39185312070025
118.8538513234074
170.4172365177191
182.62278321450694
208.83319714123297
253.90451177832873
274.03499629386846
263.69212631713276
251.86266866487307
268.4659710757413
299.0940181487504
307.2350559211255
296.99627669858694
304.89567261966044
326.8780550866264
286.84152944183705
213.2997005414237
159.81915483224753
125.82120307374123
152.8052610246703
91.22301238086254
-4.67026501363597
55.39424840206604
70.39759842508958
36.64534082801127
-6.049865890050731
-134.05105320414245
-150.60205823595484
-18.70488386730068
206.72706513856502
489.4229248745106
546.3515073453043
287.30550295199185
12.994498446276594
-52.273439154518506
63.81402838128634
167.04853760754253
74.71145895025334
-10.155981499364541
100.08044805718674
200.59211080285783
268.1789367744065
373.5384089404314
458.84394112316545
374.36967076325595
48.342196178577154
-259.6115738480252
-499.4809545959332
-690.2510943362314
-809.0480193891391
-763.013112937939
-454.6339488656382
-149.5954568778293
176.9499019014097
220.7373926103316
-34.41816496447652
-98.20194525697893
-271.89082252076133
-412.02528165086835
-368.7449213852861
-282.59845921672587
-106.21906129410863
-8.471535541124297
86.06966979047913
150.80433822060562
163.2636188546078
158.72259668242936
68.69353553215569
-39.118353005952564
-107.03589136613569
-70.89148078268829
-29.80494345804922
-40.27549003173789
-90.47690724513933
-230.6071945898104
-303.9356941561041
-354.20050529158493
-401.86160742617346
-303.72068555675656
-87.02289746066076
305.3784576401117
574.5616271415934
580.4465634852868
559.8933018647543
344.72816259247975
30.045645727777572
-88.46470173043032
-80.26765491935717
-100.01333806238218
-113.69983704118907
-149.82569409327982
-376.757859992914
-630.0945209190821
-696.9901319008637
-580.9052866750212
-450.2164207461185
-308.9734882118799
-80.6321027656817
0.9107043645680838
54.804052902740864
196.58009886581425
211.78130207180558
151.96564788774225
98.91958795048467
10.936730205617067
-102.01062948240488
-172.7804672932539
-153.7403186570318
-20.329882304064714
124.0576094519692
127.05726426345022
42.212573475549846
-15.168735825062482
-38.55878116948678
-15.213560596628389
121.9934435628791
260.7555648865162
300.6596533225641
336.15349942814333
283.8494261211154
106.91361114610508
-52.63114735607389
-175.10827881551162
-280.7058637141593
-391.5910250214933
-407.5244752670989
-299.8009121140546
-202.83619127513245
-136.12556336322206
-140.5784873487532
-199.99021039512212
-245.8262245270645
-284.0296900290654
-302.5559562420857
-224.01300858075885
-98.62899743317895
-59.12921612670458
-39.64407811879433
-44.869035719754706
-69.62481299764633
-39.136111518538534
-26.726401550557565
-44.088420908144535
-60.855046875645925
-63.0726365470089
-64.25712302396482
-86.5171353850974
-84.74781070708933
-93.7131752994172
-75.45582616483769
-40.03004191541273
-41.559338869448865
40.170712466669485
113.79587932213681
155.37692265663836
227.65888869376587
307.8507862532166
445.1737508728725
497.90829938257406
409.7483862662816
295.7040144355614
215.66393680890542
203.61323563114462
230.39610842448957
197.34872028641104
98.57024708628245
16.821817176164934
-52.251897524186404
-67.40141680412083
-53.82351738011959
-91.75616781115514
-109.3918729693012
-52.905116060528485
53.38713806211583
193.84551864739288
295.31226469372467
224.72815439310816
74.92496569866141
-21.189286200753767
-60.04390709965095
6.606264613779665
116.22618951081847
161.36137224135848
103.72825665126398
74.12967787612534
149.4049774183952
149.37721339527684
102.80571660783893
65.8318433569579
-7.463773458132757
-15.788125213257347
41.20446265547777
75.51358057967803
49.48686470991381
-53.432502742529074
-178.07237085393587
-244.41363371021788
-291.57816746777496
-321.9206254029425
-318.91668651782294
-285.39432523896323
-142.64428762909674
-22.714881528901653
52.329171215432076
198.45899842761602
317.7625222985017
382.8497032635947
362.05612780183344
200.71835364590294
-10.013663710703485
-135.29621602540993
-194.3368367286272
-244.40769899884305
-215.297185137721
-146.29859155784806
-106.02182068835485
-83.46783172246857
-98.408384661525
-133.6674589671519
-178.59375429216269
-239.81061935990337
-241.35738974791306
-165.2776470783942
-143.18775090018795
-201.14714823335476
-244.45079175216858
-272.94417599767615
-298.1030334501375
-267.59433704612394
-144.67495716473155
-12.441670127320387
43.12113474630566
62.30795901802976
38.07438551545967
-27.977504111208574
-65.40531110038253
-70.34837765959229
-75.04522480167188
-79.39864431600957
-90.67907643244611
-138.29146552007998
-201.46747076210795
-253.99841161005435
-256.1218487343365
-165.30011449124896
-19.19191129811922
120.00859168180813
220.8892853742082
287.58610900089184
305.76172482579244
277.02919334258945
187.87545644465143
34.44103583708732
-84.85143600001723
-120.46024877906795
-104.19771243040425
-83.51109645326807
-54.010686063906185
28.201541641078062
159.4347091637485
280.6430012046003
314.89423819292034
278.54322297716493
232.07111586638015
182.6286090055621
148.2408611566975
125.0972726943995
35.758210397385206
-63.35504785575627
-91.16506280409538
-136.42537414953193
-179.34158342441307
-184.48899204587397
-195.91480429515562
-178.91491319849288
-132.16465402120303
-66.78135651469526
4.4592422817661665
58.55181998462039
119.59386601420377
147.7335099216009
98.23946945538306
21.173734095930183
-79.02465859085245
-211.77632956075539
-303.65956156563055
-308.365377077731
-218.17604389920788
-83.52845478874426
-4.363012390029377
24.919387375683158
53.39554785015228
76.1282878008846
79.14934988484069
44.483530325217586
-20.106936515682953
-77.35339106169587
-121.51736906031199
-148.15704909685127
-156.52385651944766
-145.9537534735584
-97.98881809770195
-41.881469062133604
14.877584670878862
75.45068917473763
135.007699611653
205.25740632250358
232.2794024660016
197.78769781477385
136.1906398037552
90.26589352157613
94.63817737481358
106.97270792260285
110.84467399807508
119.21985192686041
143.11695329336476
185.25493191256353
250.2544105554025
328.69424125749475
275.9272810432326
122.27834760517842
67.20429577323775
76.10118982778089
59.311768229052284
14.703020863399283
-37.421588136759766
-67.1066757087066
-73.75754400619915
-80.65557473108542
-63.27005824791401
27.76383067081966
124.68808881471435
158.29279901044012
115.57790667144786
