AAD_Filtered_TADAS_FILE
AAD_BASELINE_CORRECTION: BASELINE REMOVED
AAD_FILTER_TYPE: BUTTERWORTH
AAD_FILTER_ORDER: 1
AAD_LOW_CUT_FREQUENCY_HZ: 0.025
AAD_HIGH_CUT_FREQUENCY_HZ: 40.0
EVENT_NAME: 202302060117
EVENT_ID: 13194
EVENT_DATE_YYYYMMDD: 2023/02/06
EVENT_TIME_HHMMSS: 01:17:32.00000
EVENT_LATITUDE_DEGREE: 37.288
EVENT_LONGITUDE_DEGREE: 37.043
EVENT_DEPTH_KM: 8.6
HYPOCENTER_REFERENCE: AFAD
MAGNITUDE_W: 7.7
MAGNITUDE_W_REFERENCE: AFAD
MAGNITUDE_L: 
MAGNITUDE_L_REFERENCE: 
FOCAL_MECHANISM: 
NETWORK: TK
STATION_CODE: 0216
STATION_NAME: 
STATION_LATITUDE_DEGREE: 38.030907
STATION_LONGITUDE_DEGREE: 38.557087
STATION_ELEVATION_M: 864.0
LOCATION: Kahramanmaras_Pazarck_Turkiye
SENSOR_DEPTH_M: 
VS30_M/S: None
SITE_CLASSIFICATION_EC8: unknown
MORPHOLOGIC_CLASSIFICATION: 
EPICENTRAL_DISTANCE_KM: 156.80
EARTHQUAKE_BACKAZIMUTH_DEGREE: 
DATE_TIME_FIRST_SAMPLE_YYYYMMDD_HHMMSS: 2023/02/06 01:17:39.0566870
DATE_TIME_FIRST_SAMPLE_PRECISION: millisecond
SAMPLING_INTERVAL_S: 0.01
NDATA: 4195
DURATION_S: 
STREAM: HNN
UNITS: cm/s^2
INSTRUMENT: sensor = ACEBOX/SARA | digitizer = 
INSTRUMENT_ANALOG/DIGITAL: 
INSTRUMENTAL_FREQUENCY_HZ: 
INSTRUMENTAL_DAMPING: 
FULL_SCALE_G: 
N_BIT_DIGITAL_CONVERTER: 
PGA_CM/S^2: 20.443
TIME_PGA_S: 
BASELINE_CORRECTION: BASELINE REMOVED
FILTER_TYPE: BUTTERWORTH
FILTER_ORDER: 
LOW_CUT_FREQUENCY_HZ: 
HIGH_CUT_FREQUENCY_HZ: 
LATE/NORMAL_TRIGGERED: 
DATABASE_VERSION: 
HEADER_FORMAT: DYNA 1.2
DATA_TYPE: Acceleration
PROCESSING: Automatic Paolucci et al., 2011
DATA_TIMESTAMP_YYYYMMDD_HHMMSS: 
DATA_LICENSE: U (unknown license)
DATA_CITATION: Turkish Accelerometric Archive v 1.0 - Disaster And Emergency Management Presidency, Earthquake Department
DATA_CREATOR: AFAD
ORIGINAL_DATA_MEDIATOR_CITATION: : AFAD - Disaster And Emergency Management Presidency
ORIGINAL_DATA_MEDIATOR: AFAD PROCESS SERVICE
ORIGINAL_DATA_CREATOR_CITATION: AFAD PROCESS SERVICE
ORIGINAL_DATA_CREATOR: network: TK
USER1: GuestUser
USER2: 
USER3: 
USER4: 
[...]
4.246129680481043
2.7442784023244604
2.3845302625521776
0.6410490175028977
-1.4537540324867961
1.1368245460902373
5.897643978675809
5.790364342837906
0.8033827958903945
-2.878313858502291
-4.025325361529324
-5.317817380104471
-3.3928965976351497
1.3382026615964913
0.8360810148056877
-2.3992201058473626
-1.1297179365071677
1.3902932738699223
1.9463377805045825
1.3718472765590104
-1.4392567431112533
-4.622872300713869
-4.627321252555096
-2.535696931097566
-0.27560161668934524
1.8278627987841074
2.160358346652367
0.07630736969625064
-1.3075240492890645
-0.06479940970077282
1.2623902292625484
0.34956223848674506
-1.1491024900976463
0.29130868967956697
3.831838775130182
4.10930113975991
0.9120672504724053
-1.4138224217762179
-2.509959758302832
-2.435435145448358
-0.939191330608721
-0.9826215891788862
-0.1454491544424899
5.65009540040783
9.013376035138585
4.6516183030395695
-0.26656918992706796
-2.2812739686453503
-3.3576119764771386
-1.4425143251160513
3.085097628490954
6.627873872935126
8.818500430873794
8.725767796208313
5.22054362396132
1.114132629426304
-0.7618799059182831
0.11897779746190733
2.1684878082442474
2.1255409672932117
-0.5739350909362819
-2.6366194704996864
-2.3026969987241475
-1.6664638190639716
-0.7680635040053373
1.5899338200824393
0.6763978067169956
-4.290175537231183
-5.234532436267956
-2.3841643584130656
-1.5831706165329926
0.3478656557006097
4.67002722738684
5.590038436358379
3.3378640046434875
1.3927151854920976
0.09189172704346887
1.3502724559638042
5.1358651826826165
5.9726520877537
1.0029610769542499
-3.9481784753983042
-2.0008357253279394
1.6409017373945705
-0.25129647209964245
-1.6359902383749967
1.6884727584426715
3.9919470257456573
3.0487723423926383
-0.1722287203519057
-4.468769693674901
-4.916151500670262
-1.0437617628725941
0.4816109532438469
-0.20832713337396966
1.5902690896762777
1.6706443162144797
-2.8641586348020986
-6.187650930325169
-6.834467134983044
-6.155190056273343
-1.4302294741549448
4.482732086782204
3.979990102940789
-0.9227551252357941
-2.3713460262961217
0.3602656500182664
3.2974337335533495
2.3348451837894344
-3.298291320654578
-5.881987751279616
-1.688021484892471
1.1234945817667867
0.14107829794833174
1.1109766795182112
2.869843831041816
1.3970272625720515
-1.9619591623053863
-4.8119442294479295
-4.567328055926488
-0.10898570384468283
3.036948853748479
0.9421247568887772
-1.8532918045709226
-2.9170088637744698
-4.837852044669697
-6.870049056408798
-6.660637799726987
-3.981510769550077
0.6023205424595112
4.091169731882276
2.9844021220960184
-0.3987323047598177
-0.7245698157609636
1.2163258628341553
0.8072773064449693
-1.2881414116383436
-2.4760448520885014
-2.7764134738415502
-1.2724793910520322
0.46681186118104223
-1.351865769313292
-3.1973973661649775
-0.37483542289979754
2.35716728854416
0.7273315455891328
-1.401679516313287
-1.005928462521139
0.9421790317846055
1.7671781519322132
-2.0487756366465604
-7.426163458416194
-6.602339270436185
0.07232425591559655
4.828690228379291
1.903245856317186
-6.0438755601434
-10.063412271338036
-6.7321709756751815
-0.6981739602863661
2.9549495498511016
2.4221045538287145
-0.4250289951546084
-2.7395825950971617
-3.2495384847562994
-2.729484246291192
-4.2706093582582545
-7.544222292057564
-5.730071335788256
3.0229017832865233
9.368675971427642
7.067587889209855
2.250621432075094
1.140779032247132
1.3229376437856815
-0.2278983560618058
-1.2429326968445378
0.43316311646574046
2.452417250555752
2.616385770038729
1.9070843383854292
0.6304461608128404
-1.4248980927664459
-2.6005910488154993
-2.175044063728637
-1.3497720127347346
-1.3688088870693869
-2.6109757379806706
-2.79596784325541
-0.6854896575567594
-0.7496952790654827
-4.6289498402579845
-6.57937383070985
-3.7707598279778654
0.9190050129475485
4.2052694732384905
3.948246764792978
0.9820911007713221
-1.8707945984614751
-2.877568131114837
-0.8891401138374256
1.8162879912270522
0.06298548008256992
-3.5697385594461872
-1.9876332403967893
1.7988821391631522
1.7403784065305081
0.7043617046227315
1.8128557817058806
2.7428666843122578
1.7204110426716892
0.19910100705684564
0.9360783972734386
3.6928798734002544
5.1929163181751745
4.08303889208486
1.6343859332488206
-0.2040046407208647
-0.5473580319149993
-1.0461939261668924
-3.2227717374814264
-4.4494739842843565
-1.6102951179226532
1.874639309108604
1.9557403854783406
1.6082681018969966
2.4984904159055357
2.094129014613242
1.8068059680584914
2.548346391988737
0.1460021951988682
-3.712526327015468
-2.0854423780038855
2.110651713562549
1.9983044747193814
0.6055021527695307
2.198980261717141
4.817541455411843
5.02293686826051
1.4476879007168608
-1.2776677116473092
1.0742829247120278
4.407727759844825
5.6385682467088385
5.297960664748506
1.7018738486082299
-2.9933232136434635
-3.0834846372312477
0.5942414639036843
3.798997505616922
5.386282716445954
3.7924715275524665
-0.4812866290207616
-1.0073908764191324
3.482979252458422
4.982243685024817
0.7134875554433482
-2.154046082962732
0.6068109089957863
3.7143717921605415
0.9622116437783783
-5.369781090336725
-7.637984767290442
-4.835088957905876
-2.9124113367272955
-2.717309402347616
-0.8486380773515232
1.6851625148435827
2.3773625519954096
1.8149334376249568
1.2645989755437206
0.4537167547012448
0.4307924347976271
2.196021249368855
2.00111266729
-0.3903322198677518
-0.05804700074195883
1.30162761776748
1.6905176194910385
3.8854126394177566
4.163330148624095
-0.792285514065683
-3.0443811893572335
1.358640901087981
3.307308044061518
-1.4085677927095868
-5.237383198917678
-4.331770624225081
-1.907653858534256
0.1700206325699558
1.7885127555706681
1.4937249992656458
-1.505437352592856
-3.4974821791520445
-2.068505436065947
-0.9515827309462221
-1.6473412766517797
-1.507986652719045
-0.5807408884194041
-1.3560327985443705
-3.804123502257508
-5.333306265232271
-5.985934570214402
-7.174475519871852
-7.251965491826114
-3.756679224427564
2.6998148631955994
6.763975017887185
5.495833604575399
2.4370836755882554
-2.034236515393586
-7.282609172939865
-6.141026026633447
0.5753178188671563
2.676255763835705
-0.5601935132372944
-1.773925856632218
-2.8079067899264474
-8.113242199529376
-10.295879245237982
-4.016865867775458
3.378127704126601
5.578748626951935
3.311236498730586
-0.8436289811432937
-3.5707122130039624
-2.570144456568218
-1.624957719202945
-4.016763775931676
-2.936463556593503
3.1927615449636955
5.273227542094985
3.5315071187672733
2.3586113777899222
0.7701426646144001
1.7425260815031212
5.566789224823757
6.397846302694178
3.337033777853435
-0.46526036147509403
-1.6462876272236378
1.101283951189836
4.55705861048959
5.436469006066556
2.563373237556561
-2.0985949096608056
-2.0309122467968668
3.6073560770736885
6.778205281818731
5.906641763301964
4.060943681199943
-1.7906334199042422
-7.304758004268912
-3.55526142195054
1.6208167156466498
-0.10219000176254789
-1.1474358422818853
1.2151242855604305
0.3412089046268503
-4.458532619231341
-9.65001038374445
-10.749480421011418
-3.5994082063557142
5.622254293691815
8.78240137236399
8.124553656642973
3.331036462585992
-4.58668707813781
-3.700549003253621
4.353694736482534
5.7346148272996995
4.1616723524942065
9.618639565760787
14.519091849432357
6.6850764490573695
-7.067942783650364
-8.604117056652688
2.344532462783913
6.8738028931119395
-3.1870810635424704
-14.106855671763446
-13.301642924264572
-5.030951264484657
0.3609460441828872
0.10100060459089558
0.5208632605905585
2.3650641307583173
-2.2078223930348373
-8.396440949147047
-5.52907592372194
-0.2764017893814189
-2.5484449243362914
-5.226453783180549
0.5928854159094479
5.590205795945365
1.6655410009642717
-0.11008822122249518
4.767211187717766
5.691029033692667
2.256885154865832
3.879707526078016
10.102014930921925
12.67230919730731
8.15542726178572
0.5853497670167782
-0.2353750315391612
7.172130439791756
7.568709947633167
-2.953800963030649
-7.654023081085709
-2.9006651591075894
-3.1704503245154725
-10.884835592911607
-12.839938734369102
-6.262551933756482
-2.508273636887533
-4.022916457218491
-3.657080934632376
-1.888896557728274
-1.6264915714374713
0.5292960661342824
3.2867745440574954
1.709462477462308
-0.04514248361639496
1.9444013797815414
5.3318545483912
11.42255860380199
18.748150583737285
19.3975413277772
10.856973923608676
-1.0884286506087841
-5.732366550404014
-1.3133875941640365
-0.9280622775087554
-6.818736440921223
-7.41629124510343
-3.327098137103248
-4.641380063028136
-13.08586987979879
-18.54373127150303
-9.960814427910245
6.605916686279368
10.854014626016696
-1.5098963353757362
-8.786761085909948
0.4703957075555924
11.674176587946743
15.261199764196261
11.16281882802141
-0.39784250747388333
-7.672823734948243
-3.62887455505623
1.738679733254453
3.5440321835115216
3.2974627419001474
1.4527651767413474
2.628587247712557
6.723248059839717
5.3515014530946745
-1.0055137090772208
-1.8284989033323023
3.9553710843665466
9.47150760766195
12.73093531521191
10.38943615420786
1.694920547632365
-3.671006243141327
-2.8942212878593327
-4.7256723877012226
-11.352477997012778
-15.103497548583382
-13.197274837944741
-11.235973626504743
-10.416545516269851
-7.046652658879736
0.44705486277286655
10.202442039459374
14.143666522891097
10.765936210469727
10.952931642527055
13.22675520462118
8.612255072988905
6.170722868884363
12.584491426455495
13.568987377921117
0.7689512992203885
-11.309103483558422
-7.990872445299571
0.8527037352906067
-0.711750224454272
-5.852474904501117
-4.971667918907466
-3.4973517530680054
-2.9219309702469585
-0.7397434142229911
1.2148093522741823
3.852379881189599
4.319468734154377
-1.7225736915802554
-3.5480307804493747
4.4588476189795605
5.960932107398133
-4.0190416485561915
-9.835230797475804
-6.975225108069713
-3.421718080175709
-1.9417989619464635
-1.0927025236587695
1.600921307707547
7.244749579711438
11.986128408729934
12.87500403260099
9.47121418567242
2.8423591039553036
-0.2096093140173773
1.7752457084188173
1.7873920203309166
1.1581018751327912
0.5665842189030651
-7.737591299749129
-18.069047201242892
-17.848668129807535
-10.663292096313224
-4.694500525516464
-1.846837807044629
-2.0451508686927973
-0.29087703687623045
4.992723001163463
4.7244804454445255
-4.545741716102313
-11.904548425288132
-6.411644806915692
6.2317504181884065
12.851853165420302
11.37056746197998
4.951641799647915
1.1326129485054468
9.275457281058925
19.338453777208883
17.123108336529917
9.670358545203454
6.812037043498137
6.917429578609249
6.717036304935791
3.02331963024884
-5.208217002421202
-8.000973133972833
-0.1411207898334404
3.498765822076072
-3.5129223971263768
-7.206015450593383
-2.5846395646037217
1.3809188023151455
-1.8017169330590928
-9.390469228112615
-10.843776868793896
-4.567409086115093
-2.9431810383998656
-6.690138676587233
-4.746505115530522
-0.11418603568376721
1.416782425583135
4.933921787630488
7.861205108265517
4.0121604013578125
-0.21621551258539812
0.3685442380365873
1.1700826421451147
0.966994816679366
1.821244663068561
1.9269812625370106
4.114674044779017
10.53392036194126
10.416731263346927
0.5287447507899969
-4.952113049472496
-0.03797677892668351
5.078505046892571
3.2486739564057263
-0.7204114548173984
-0.8967541173430452
1.4632978719948249
0.02626419142479726
-7.543700371524669
-11.469908937864352
-6.370542326739386
-2.735551647314816
-4.087792029947487
-2.197194778281044
4.850120092817845
9.699040651073462
3.9083871624708575
-6.459384656575537
-5.5869439437714545
4.9343248482139215
9.44710647706349
1.1136725965334344
-9.214899343576413
-7.4868302222972165
0.4432333656835226
6.274506107712383
14.184191592367132
17.299928320993256
9.387461589012663
2.039457157916255
0.10315337881871674
-0.1724913648792199
2.9177401656283073
8.984889591817396
12.22253086030164
7.275090116275394
-2.718101205833806
-7.329927217208835
-5.404877289290091
-3.390518309645265
-2.5544352046698813
-2.392591005982602
-2.503173375265894
-1.763223586282919
1.007584348019708
4.350508088267878
2.3990409250551568
-0.9415193004455841
2.8857952888942666
6.140908658176411
-0.4544230865951431
-9.03861545995823
-7.260064629896493
-0.24711335271124402
-2.117044508389295
-7.913473961690757
-7.546275875626316
-4.592484656361214
-0.42733381758280126
6.198681656396919
11.981135096883301
14.277213146351336
14.806297812141253
16.41363987898718
11.203799780852721
-4.752903202232801
-14.058601673157163
-9.459380749348067
-3.894501089204913
-3.3471035074777955
-7.095000380710762
-11.663979912014899
-12.041359437279054
-10.103218588899125
-5.7107699802771075
-1.7370784037944542
-6.874087808892164
-11.088105798425214
-4.6496048396554865
-0.15737858661298565
-1.4970544533194872
-3.313441701062294
-3.4012647572209707
4.150645472102277
7.096305489183603
-9.033425924354207
-20.25503549046135
-6.247715402564168
10.417123411890683
9.083822343758886
3.3617964655547166
6.218269271932306
10.859432765337338
14.971739554096514
13.60089219839562
-0.8379874002964403
-9.912964652901552
-1.2847843882950976
5.246050040622408
0.19438810718062555
-3.1405709340380246
-0.8131895514354794
-3.6679127378440324
-8.758482904475784
-3.7185062543089904
0.8513918281456925
-5.628160314245566
-8.361969065886802
-0.08263038538501707
8.543863503407024
12.799439020885984
12.7795834214957
5.427358624413627
-3.834426773357987
-3.9932091776500913
1.9947887684556043
6.082795901792187
9.539156808316468
9.59646047062006
1.7879002000625686
-4.827486529762775
-6.715727401362036
-12.398844258870351
-12.161353070119395
3.8527941579259677
12.434122293009752
2.199173156765228
-3.3449909160569824
-0.19574678255272243
-6.815164884250571
-15.90725186875012
-11.622667690279162
-3.947040534622602
-1.0468714340039593
-1.1561811691911525
-9.417247993180528
-16.151225592692253
-9.60446069259902
-2.367173413826012
-1.1308587615389778
-1.631435218612782
-3.8421292304631103
-3.944033905329561
-2.727549691305743
-2.776567085441718
1.2328464295232737
3.9245380357589466
-0.2886279205714933
1.1970834397010175
5.8090399231596095
-0.5571127979502606
-4.547774372260767
2.8835427767186816
7.98233978293069
8.238655227705811
4.83439016838539
-2.7711500489399987
-5.509609357603248
-3.499888843128315
-6.106824335537255
-12.150334557609805
-11.647810624880975
-3.7777070066248446
0.011400925624262523
-1.2377586120199475
-1.775915155862205
-6.1580797561762814
-10.723990297651794
-5.6333349644526525
3.188358644475154
6.131222492040669
1.8201860824813105
-5.095418830264326
-7.497828510072119
-4.419516877892083
1.7828711796201484
9.047318289325451
14.314233988979215
14.343603796546114
3.271182971765527
-11.766276334561326
-11.998923235717616
-4.176653140237215
-7.869144807914228
-15.804292942460576
-11.038061095610503
2.79735413323964
9.406967063502773
2.6972724260223275
-9.632093268449497
-17.04451161977829
-12.57132378173208
-3.1934606731605095
-4.086488917707639
-11.021190265747691
-8.457576426736958
1.286632204887141
3.073943527605228
-8.774927277981252
-19.696830948601278
-12.947000143089907
2.2377176176136815
5.526997482303922
0.4832654050919297
2.8970364920354106
5.23445256936765
-3.5226187217920493
-5.899606272228303
2.9006314455080826
-0.21297830967998754
-10.577338656542429
-6.808527010909097
-0.44533732576744367
-6.107533466014433
-8.413117885994
1.4234817731568896
7.354694505756323
3.7763541703895527
0.4562247355894746
-2.1301282611829575
-6.230633729665757
-6.161345319333555
1.8218947647201844
11.239510981101592
10.042524537865013
-1.5001622239579044
-8.460764711492955
-3.379063407258437
5.2256328118131945
5.989979501951337
0.3805336637866509
1.0837029533071094
9.114320592940278
10.283421277464333
2.1021625594702633
-2.9953337458753375
-3.457274292202658
-6.753542909083888
-9.620624316878455
-6.554748954631991
-1.5567125487234321
-0.7465445697405108
-4.3205359273696216
-5.035637419607927
0.29321560545973535
5.740071049306648
9.764961122576125
11.547699621083535
6.17182558841978
-1.5923237058454418
-4.847392290655581
-5.043263958478221
-2.1298609469636682
1.6634172718271785
0.12200086425407142
-4.041393508882104
-3.2794354752509753
2.894806160494075
5.867024081195487
-1.4286949449215285
-8.76705820103228
-2.671463700565994
7.519049985341719
5.761308216499554
-1.8062620225632222
0.09942790163445361
9.91809417435498
14.678283614598634
8.238637675342904
-2.0573356338075333
-5.15627256356954
-3.517989664898697
-4.478684161411336
-4.428088297531717
-2.1117980277475845
-3.5072028617250126
-8.06672216870453
-10.505897677313907
-9.606977523068274
-6.6609116554226695
-1.0654336747047335
5.318939383034932
6.15092439817568
1.5268546252579993
-2.0560648370031553
-3.717036335935023
-3.273687353768577
2.4211918918378443
3.891243909947706
-6.303883347181899
-8.722434502938869
3.7163017083600156
5.798454403234866
-7.849133232616863
-18.09430420630275
-18.401856535594284
-9.487301927744594
6.625862179593948
16.71972009076266
10.452645351199337
-2.9513234940190856
-10.52544847878833
-13.952621286406393
-16.0809528695263
-13.111464386128349
-5.697306605012355
2.9870791346667236
5.228891799048865
-5.542454666806326
-13.785987419389752
-8.326172176998913
-4.087261214812602
-4.412568968154266
-1.8508454807996946
-2.1035824431633228
-3.4888861113227385
1.4278203003534828
6.864487013294066
8.15870055247632
7.621629607491268
4.214736897281815
-0.9697879405585065
-2.2653710666728513
-0.49364773649943816
0.48431705889716287
1.2455262936818263
1.4734369085813872
0.7603366489535401
-2.310998236045192
-9.067109589018568
-11.208644714992012
-4.208848297697172
2.094496332391268
2.2256774367487626
2.167142639779822
4.450107330683357
2.448753826682529
-3.506842330403829
-4.386837850599504
-3.7393100417836482
-7.451527637176196
-6.275209806772315
0.051270849730109105
-2.3774309266489393
-9.834395164991772
-6.282889179985958
3.5771502725616546
2.761435143408549
-7.4009419908052925
-11.43794906489141
-4.64745233490593
4.359706050044761
8.509532451549443
6.184032729489197
-0.2428402901594543
-3.8939066930617616
-3.1267415112795756
-4.679647927764586
-7.4542138115953005
-1.669612759876147
8.905387023025435
9.652380444845328
2.023549808654445
-1.4020275195196428
0.8089246732436974
3.2122640175492156
3.5809080608564026
3.708061746116537
5.967005290108957
6.750128324689434
2.2506984455871333
