AAD_Filtered_TADAS_FILE
AAD_BASELINE_CORRECTION: BASELINE REMOVED
AAD_FILTER_TYPE: BUTTERWORTH
AAD_FILTER_ORDER: 1
AAD_LOW_CUT_FREQUENCY_HZ: 0.025
AAD_HIGH_CUT_FREQUENCY_HZ: 40.0
EVENT_NAME: 202302060117
EVENT_ID: 13194
EVENT_DATE_YYYYMMDD: 2023/02/06
EVENT_TIME_HHMMSS: 01:17:32.00000
EVENT_LATITUDE_DEGREE: 37.288
EVENT_LONGITUDE_DEGREE: 37.043
EVENT_DEPTH_KM: 8.6
HYPOCENTER_REFERENCE: AFAD
MAGNITUDE_W: 7.7
MAGNITUDE_W_REFERENCE: AFAD
MAGNITUDE_L: 
MAGNITUDE_L_REFERENCE: 
FOCAL_MECHANISM: 
NETWORK: TK
STATION_CODE: 0133
STATION_NAME: 
STATION_LATITUDE_DEGREE: 37.745495
STATION_LONGITUDE_DEGREE: 35.864025
STATION_ELEVATION_M: 546.0
LOCATION: Kahramanmaras_Pazarck_Turkiye
SENSOR_DEPTH_M: 
VS30_M/S: None
SITE_CLASSIFICATION_EC8: unknown
MORPHOLOGIC_CLASSIFICATION: 
EPICENTRAL_DISTANCE_KM: 115.76
EARTHQUAKE_BACKAZIMUTH_DEGREE: 
DATE_TIME_FIRST_SAMPLE_YYYYMMDD_HHMMSS: 2023/02/06 01:17:31.9995260
DATE_TIME_FIRST_SAMPLE_PRECISION: millisecond
SAMPLING_INTERVAL_S: 0.01
NDATA: 12501
DURATION_S: 
STREAM: HNE
UNITS: cm/s^2
INSTRUMENT: sensor = ACEBOX/SARA | digitizer = 
INSTRUMENT_ANALOG/DIGITAL: 
INSTRUMENTAL_FREQUENCY_HZ: 
INSTRUMENTAL_DAMPING: 
FULL_SCALE_G: 
N_BIT_DIGITAL_CONVERTER: 
PGA_CM/S^2: 74.146
TIME_PGA_S: 
BASELINE_CORRECTION: BASELINE REMOVED
FILTER_TYPE: BUTTERWORTH
FILTER_ORDER: 
LOW_CUT_FREQUENCY_HZ: 
HIGH_CUT_FREQUENCY_HZ: 
LATE/NORMAL_TRIGGERED: 
DATABASE_VERSION: 
HEADER_FORMAT: DYNA 1.2
DATA_TYPE: Acceleration
PROCESSING: Automatic Paolucci et al., 2011
DATA_TIMESTAMP_YYYYMMDD_HHMMSS: 
DATA_LICENSE: U (unknown license)
DATA_CITATION: Turkish Accelerometric Archive v 1.0 - Disaster And Emergency Management Presidency, Earthquake Department
DATA_CREATOR: AFAD
ORIGINAL_DATA_MEDIATOR_CITATION: : AFAD - Disaster And Emergency Management Presidency
ORIGINAL_DATA_MEDIATOR: AFAD PROCESS SERVICE
ORIGINAL_DATA_CREATOR_CITATION: AFAD PROCESS SERVICE
ORIGINAL_DATA_CREATOR: network: TK
USER1: GuestUser
USER2: 
USER3: 
USER4: 
[...]
20.547665844138734
20.30819057237561
15.034165796398392
6.206462320264237
-3.5809938760460804
-13.595365918914393
-21.36838796128357
-24.93203611417214
-27.012238463618537
-28.402562002466446
-27.268273798033277
-22.75441970958527
-15.300082736359245
-8.45181059827861
-2.0160658251864536
4.886841155742266
5.726103346259708
1.0850169892981327
-2.2780359896262827
-4.3143198333653325
-3.2211163651010133
3.110205369268795
10.603734975205484
17.053961576792684
21.748652163354418
22.309164763988743
19.640146589930165
16.512455441827022
13.427569143301124
11.403056116773095
12.059240204745418
14.20990767273538
15.68312266562772
15.269049082991573
12.768808512943785
9.309171950718934
5.702666247007271
2.558717052918419
0.43005556737534545
-2.165079975810814
-6.423849798738292
-11.840376500642723
-18.291969572335542
-23.422099422551973
-23.652426507605576
-19.587619600270465
-13.053212482352167
-4.853487524513134
3.7184034667320094
11.381329549040096
15.306998825232274
13.89935822157035
8.772904742565508
0.4059222390300281
-9.8766488656252
-18.734121120453967
-24.142898358284683
-24.379532269027315
-18.89990884334648
-10.269669201736225
-2.2449253115020245
2.3779724644884914
3.6271834231505773
3.4751614323474813
2.872901220088011
2.465938000158234
2.701100193383914
3.035740962843536
4.247284829469134
6.266307933667484
7.343343823509666
8.022186708537905
8.251200004975997
7.849267710056555
9.906282401641338
15.081511570589292
20.7972942621455
25.50814437628801
26.925145693333402
22.506435121978086
13.319702874318242
1.4604907834465044
-11.52889675027804
-22.93315980686452
-32.29054383155353
-37.039288613701174
-32.54439151631138
-22.882160022134023
-12.037730825377079
-0.4547501020255482
9.250239579205083
19.947564024899677
30.05899325061404
31.629228365332168
26.887784503645538
19.438903529023396
9.567150164744668
0.9495035969713823
-4.943193834816563
-8.734881957054919
-10.536121133017113
-11.022302542922715
-10.607314118880987
-9.837574738133519
-8.69527894087632
-6.306167474227203
-2.689973401674049
-0.1313600199008372
-1.2632408654662193
-6.306885605158882
-15.015646310551775
-26.013497563780852
-34.04944865167285
-34.43434510967604
-27.99809908200363
-18.585301330351967
-7.175763063218053
6.287773505051899
17.008044988494397
21.93320188969589
24.38941747932334
24.308859831521584
19.939304634996546
15.595162617373866
13.246920916999514
10.050436382214544
6.4661817183951955
3.9155614634847082
1.7226661993322256
0.05631999930911611
-1.4745990286199295
-4.691377665996958
-9.458091025230027
-13.28828669486409
-14.121343265409768
-11.538191092970495
-5.996870721329201
1.0521920866130696
6.477516221792325
7.9236891969797645
6.508197081233829
3.721851284928413
-1.125158833369675
-6.507982001762187
-9.165469147972166
-10.457765970140615
-13.035358907706858
-15.825253029025294
-17.4551927354117
-17.638409685382
-15.629738693005656
-9.99254829801864
-0.6793392686762846
8.6543482989279
15.11350892161867
19.002531831584697
19.76941377860079
17.654654775921436
15.506450502216387
14.814390326059504
15.520250423501368
17.472923230174086
18.945100097945655
17.755132250564955
13.531652526698664
6.858489160800126
-0.30404175440360404
-4.558368497049468
-5.29818199094983
-3.4268457398201617
2.1572687091027234
9.437520375092793
14.086148827150968
15.643513244101078
13.974187189074474
8.65333632426486
2.1565376401935286
-3.7384889400448693
-8.902760295893193
-12.736307502524555
-14.560207480479123
-14.292610080271656
-12.935537806170105
-11.495231447046494
-10.458295996060128
-10.432654812968183
-10.776110337278133
-9.844056257421318
-6.471864709830614
0.459680992574209
10.038454065295078
18.766591947542672
24.952651907940904
28.5038505059662
29.064671283424406
27.495049711271584
24.24427856764129
19.28448640171947
13.361853979805351
6.5439469729240125
0.7175235178748285
-1.523061009444084
-2.0517733435805328
-3.391411524516687
-5.872094356361868
-10.226482893403073
-15.70563804923107
-19.529754704999053
-19.44292741566244
-14.723729298528228
-6.5389833762467875
4.240732923961367
16.077797057037213
24.515756442629797
28.23694747730972
29.24875051845393
26.26889253940742
18.626446586491593
9.071430687212164
-1.3468348354325
-12.08668160300638
-20.13571801206276
-24.070504408033464
-25.79595313039224
-26.756408947062287
-27.502980740772063
-28.578393960869484
-29.18847484125872
-28.412600907422068
-25.81863129203387
-21.13757102425983
-15.763921874750013
-10.368842979553765
-4.009911547932756
1.8182232057812575
5.410000858771851
7.912457103955157
9.698717984132502
10.125583945549495
9.600784103909035
8.218487904504823
6.180427749007462
4.9365322631137944
5.995811279765503
9.406837661389982
13.135694189432854
14.959369863543559
14.07605639518084
10.960052769052393
7.588946335213515
5.317702334260569
3.6869112643328905
2.8740145372677217
3.6519921354376925
5.992370917531749
9.044476750919179
11.686143983070146
13.306433451878668
13.682535022207201
13.410188590840917
12.679629540095535
10.292158101270216
7.212034727950834
5.12312173416356
2.650247342263319
-0.992243668867207
-5.085150925480058
-9.68119172230584
-13.54827436904416
-14.598611735776585
-12.502702464667584
-8.629075403733232
-5.9882030702762865
-7.451348089267351
-12.690127328440836
-19.42901390641151
-26.30553764467086
-32.290749839473825
-35.961399947303526
-36.77758766624551
-34.49689040838397
-28.90675974773253
-21.56863600045265
-14.336918978907287
-7.653698482265166
-1.9950658249371191
1.8243843640954678
3.8398867635628737
5.411003962078974
8.411294101834912
14.299830343974612
22.820309082402467
31.212518236873272
36.81565921637436
38.69149249311087
36.8533752559824
32.7541150338014
28.73467880500933
25.204925146367675
20.564778571607828
14.989374904609315
9.162145549889845
2.3956133248444003
-3.83629794283169
-8.845417851118066
-12.888497114849804
-13.232628938114734
-10.91608884691822
-9.072479329535936
-6.824503562173605
-5.289900021926818
-6.114529499061983
-7.163381073983951
-6.392043699507332
-3.4379555047051915
1.5460147940065827
8.84582025173429
16.50371443546741
21.024315911615297
22.607770450065384
21.554626082087637
17.637524639916123
13.703947450766814
10.610020197272648
6.648867327887967
1.1662205130010275
-6.029221883468383
-14.88478923659681
-24.78389995867618
-32.26295213357844
-33.4271140505808
-28.97957738689073
-20.915978403098393
-11.77035425823453
-4.782534944149834
0.1881771067012687
3.864160151111949
5.861200211203182
6.713192120095649
6.068285579624708
3.904748957627878
1.7769088100878834
0.46831076506032293
0.11323262848173957
0.5561314500546024
1.2635293680527302
2.555644107016775
4.796051099870555
6.575536040915803
5.874410063536265
2.3132838143602834
-3.105931553276281
-8.856484246781955
-12.820868544542005
-13.263373703716905
-9.889799453790644
-4.564771571764975
-0.12042682373242394
2.7306205217738015
4.480448821747487
6.307889965057538
9.90260201569234
14.242785428962987
19.203515812805115
24.98951401520984
27.795508276252466
27.942005549526556
27.511206870258533
23.573693911326906
16.83376300442618
9.429722033142212
-0.29474211949650203
-11.26769771894171
-20.907334050910375
-28.63086496542285
-33.257366148448824
-33.35810275906875
-30.637975720837765
-27.52639790987663
-22.63490199069459
-15.556290369702534
-8.8706177691654
-3.470104339670206
-0.6554413641903495
-2.656236704832494
-8.110157460341636
-12.728333001979545
-14.329760631849885
-14.230863632232936
-12.771217369248511
-9.208588150322404
-5.166007497100058
-1.9064721727686749
1.428767273882594
4.649533504570714
6.524925957574792
7.923921525548297
10.558220859171007
14.051023561014912
17.762908889486038
20.965213373214926
22.088657577293297
21.89247079375595
22.07086362406447
22.208416179166214
21.425606634015534
19.217677985893115
16.58905037155007
15.677417471445928
16.13085678529668
16.56055729495503
17.075905495040963
17.338565451057566
17.090555626501306
17.368757236451977
17.699651158479075
16.21711099745202
13.187031330126661
9.914729012788367
6.9095012003255745
5.241366147818666
5.433077346611405
6.070785374466004
5.384716203606871
2.9469419944535327
0.05741208405471879
-1.5385175213628581
-0.9943078259209275
0.8000304684252441
2.245878775826339
1.863112747344725
-2.808136725301057
-10.846061937219336
-17.867763960922787
-23.664770140392204
-28.419889607693985
-29.588068058979058
-28.350734101725937
-26.126836067831412
-20.528011766839402
-12.567507667288517
-7.03060808666067
-4.706264876447297
-4.9830314092168075
-10.180789337271012
-19.588673090493618
-29.996370613463263
-40.15487500967989
-47.73962439707563
-50.15657759697983
-46.17819418126935
-34.623285416518044
-16.739689938751244
3.5939330398402984
23.304605367721493
40.626409717400705
51.83801875443986
53.69510690205124
49.235150268289125
40.67792003826007
26.187446831710457
10.384558924562103
-0.17484877282806938
-7.46867251447315
-14.41440299069175
-19.363274091689654
-22.766635753219408
-28.020766545218763
-35.841829239543024
-43.87406625369682
-48.02846927091022
-44.12278229246258
-33.42173836841131
-19.832661959757253
-4.818357730066076
6.646140338440733
9.811916470722391
8.1974592494568
5.748299226010521
4.068004593377544
5.434503531235608
9.82488573452857
16.93062015064603
26.21424579907712
34.731249234410036
40.89637550822705
44.41461300200793
45.090624995823894
42.72805110374358
36.8199128636021
30.094044419281385
25.612975405768232
22.806979417887653
21.912966466711197
22.62094004348707
21.40282253767828
16.96246575780622
11.14974953458538
4.874242014902143
-1.9162093794097348
-9.65765238704686
-18.716493256011052
-27.274371309362238
-32.9133056568907
-34.425694423158866
-30.731574509232342
-22.167997282879572
-11.26032062401942
-1.3390154015836242
5.545278083172991
8.704518810548583
7.655378414502907
5.357708982301147
4.140920436978401
1.26637017688066
-2.157815044486322
-3.6598256331882655
-5.256335353735627
-5.72723446621216
-3.693430520227512
-2.891272203982254
-5.8578067982095146
-11.733021501020279
-18.08086778566152
-22.617770841218658
-23.81667887928187
-20.987286017645367
-15.686163517774974
-9.455889930165588
-3.3178758511019235
0.7434101777519735
3.476135863631373
7.913333398158207
13.908035028188358
18.730915047668677
21.684425278707852
23.43703559177371
21.98482976214921
15.934651434783042
8.347037695476766
1.0986344904317162
-7.635795162463869
-18.22754892170187
-28.24222692106268
-35.33142125723151
-37.519623574659455
-32.14731474402534
-19.02439291654209
-2.0966635102380953
15.667189134556935
32.544916729652215
44.12054375360847
47.65961763336504
44.79307087666338
36.65108556414967
24.196818875405
10.887436800100039
-0.20107762145333144
-8.965596912655032
-15.092865667937762
-15.595724899385415
-10.171882632557034
-2.080456528496337
7.713168373545608
17.912328711016702
24.268816123169653
24.647859258989158
20.667691260031432
15.271174675093814
10.892689360303217
8.893657414632422
8.940084335046352
8.893188417444092
7.3993296867004
4.692167577226849
0.7906581620459647
-3.9046491418361224
-8.274206536667904
-12.203190205039352
-14.861724042244173
-14.940833155885164
-14.428186301629054
-14.695757390406444
-16.608538480159925
-22.63210529024428
-27.591879629570837
-25.753704678246162
-21.037259097335987
-14.748794627766197
-6.243455350117066
0.11977243426474161
1.6771836973189749
-0.9557672760607479
-4.689764144409775
-6.794268649953067
-6.605175888709121
-2.576627163781971
4.5467637266059455
13.131448694800651
21.784840618003127
26.525921903428443
26.490390063479158
23.132328688450546
17.77211865859058
14.516019239678126
14.91134521868597
17.067644563949308
20.167891869361576
23.85276495743208
27.452032442059554
28.924126870016117
26.574884176828714
20.837214751107975
12.187806711027775
2.291098645044585
-5.6762245712702395
-10.25731354154119
-12.534173563892562
-14.412351867703434
-16.390420875265463
-17.329699270472744
-16.736176508646594
-15.312274263317336
-12.478970517101672
-7.610535138025659
-3.3023922824427148
-2.393874612396361
-6.234096185667875
-15.329993928496698
-27.137687778623192
-38.11923061400355
-45.50487140288996
-46.97523708042804
-43.42810205375343
-37.01373574745565
-28.488083191435646
-18.836462726091145
-10.537014476057575
-6.958032560357198
-7.94808019904767
-12.479643190559887
-22.09230551520069
-32.346196376069436
-36.83869909039162
-36.94600860464611
-34.60005425702568
-29.833950409630962
-24.5465953262438
-20.194441384028934
-17.201140629050034
-15.936495522569608
-16.925196729822186
-18.92940966718719
-19.759791100835386
-19.617602141948765
-17.008785625359074
-10.366796526486139
-2.0630859062320814
8.803178958869545
23.780453824053122
39.48014509825553
53.56040257658587
64.89297809922364
71.99207064385371
74.43314016962475
73.17689760212726
70.10728921800944
64.40951789551976
55.1556500208632
43.41235249239993
30.390145480354985
17.009441359556153
2.122859819687197
-10.474461843834261
-18.588952330373488
-26.018211652584192
-25.470321608037573
-18.730475603926553
-17.304214112302184
-12.745194136913067
-6.2190989775987635
-6.821654204145454
-5.194437454476592
-3.260019950330205
-7.252919392380699
-11.32931247912553
-16.32383934175788
-22.13470669718115
-26.2540253119183
-31.095944645883684
-37.07249530548048
-43.98432845299575
-50.40891547619968
-55.41069795034963
-59.92854867735237
-61.03848304954595
-56.196328425357976
-45.72969213878207
-32.220428923263675
-18.512024035729997
-4.151232061098725
7.481253659842371
14.405726800656169
21.861290081105178
29.574364668027922
34.34594409230804
35.81357615888382
33.65395270579927
28.920403671351526
22.997607850256777
19.004933964996457
17.432551319645768
17.135260864619298
18.496847746496066
17.040589240833338
18.779281150768718
30.221969419927074
40.42130454016737
51.7017157735271
65.54246294648581
68.5727877969109
66.12259671498975
59.55002918074466
40.48463114480223
19.028935345258866
-0.38460689200372417
-22.487621582994286
-41.670907244215975
-51.524248275344206
-53.844578079113816
-51.26339237030709
-39.90466498612688
-25.035749173574327
-14.10892849763439
-3.1799675500409914
1.8029517090191618
3.597342879793052
9.542173269941637
4.9572670004231965
-3.1930533578540907
-5.287252180720681
-14.255264911199387
-19.753168196425285
-19.620350989176718
-25.47436046550097
-27.13342577295335
-26.485155979786477
-25.652865536538155
-14.814685460697621
-2.5648759966172405
6.641129201505051
16.313890506420766
21.28932388524331
22.288868145668076
20.88834831742875
15.812250871253266
10.004610345346192
2.672926169230707
-6.32725507562186
-12.523627688653404
-16.539516559657564
-20.916911338714062
-25.30853233445484
-28.851039066408095
-30.49024776542339
-30.43205557984456
-28.45463041876009
-24.745164918492577
-20.263943116526686
-12.410949000535863
-3.601257430770407
0.5794820535025724
4.945829941398104
11.165937567351644
12.790230035126488
13.543254774516829
18.837078347268847
23.060543737449283
24.58853965582589
28.67610926197845
34.44529625943934
38.18387819955121
39.407503235235744
38.28450270154901
35.465966294915866
32.417364639392694
31.7246419542534
34.15210422017772
35.96104353717932
34.989775689468686
31.138861300512133
23.516602295623375
14.52149815683066
7.700180488725825
3.8677555923183697
2.935391375889461
2.5686565792722464
-1.1707281369536253
-8.785292144955395
-17.788689979405852
-26.09939170476341
-31.93699360316595
-33.40533206130806
-30.244787768562972
-24.446108649575795
-17.711499724816687
-10.95952127134069
-6.289982568827091
-4.155333723107434
-1.8307098413946257
1.6757692395705808
5.255378840199653
8.959664462822875
12.893495520973019
16.89048985073133
20.945524709984515
23.13766392653339
21.40551774997378
15.472621878550438
5.722655913971129
-4.321365438562352
-10.212798347080817
-11.175686060089483
-7.004392123894193
0.9153552591779756
8.226351281620662
12.308669756451335
12.69650917809776
10.225381841794766
6.1418795798051615
0.5359057675062111
-6.542420509655591
-13.990009934796165
-19.06751810659661
-19.810350700050435
-16.133447279457695
-8.6271602740549
-0.5004636183790692
5.258554931904134
7.235198182227102
4.212406917197863
-0.4035412003919697
-3.6303592953934927
-6.850040399666037
-8.618978747698616
-8.54559581595774
-10.997092192107397
-17.786862916338656
-25.34484247627417
-29.096061289683924
-28.989063682774695
-26.3399618507291
-20.615456421060355
-14.307002487322046
-9.357601647950332
-3.900741467809305
1.8647723325100591
6.55835595384739
9.700463935542336
9.647683397721313
4.993854555933795
-3.5949902904459803
-13.263243837041113
-20.593030008735898
-24.08341879753896
-24.4709905657445
-23.708526357427587
-23.456523569105073
-24.971567531050002
-28.369619164404963
-31.292456172243067
-32.82447270160911
-33.67706120891642
-31.777567807545985
-26.05821696865978
-18.331586499352294
-9.416796944391477
-1.0737499966398356
4.500777470926916
9.520128831674365
17.04527063747791
26.38462271807636
35.92496553816613
43.76606877724793
47.80159025631016
48.29187043994935
45.408474393342715
38.90409432359091
29.557974880238113
16.602138931874766
1.1197325942004976
-12.107549387989096
-19.27848332047964
-19.058512316294273
-14.327516439658115
-9.896879015231598
-8.01821219906361
-10.022330555237849
-14.169421474770456
-15.980542705937951
-14.848098804909204
-11.604039260645713
-5.1831022393631425
4.087829686604466
13.52924130853896
19.663900051635697
20.69059083684646
17.379222937819712
11.46769984906492
4.512498448207704
-2.889884325045109
-9.470662911231345
-12.677916907942882
-11.046466401614545
-4.863620972342687
2.9384031439615312
8.718769281508836
11.465149682215754
11.634293209795711
11.278424473543911
12.107914526269957
12.70049689367891
11.959943148455363
10.53929072460515
10.19175975093748
11.97837728458823
13.417002374618567
12.160742993873576
8.010514265455438
1.4279912494398759
-4.544269655102784
-6.863802925514196
-6.681581494196486
-5.954076193355016
-4.397611130951515
-2.428395721084863
-2.0809862173120424
-4.642894331955062
-10.52695313589573
-17.740603516690356
-21.629048313836147
-19.988129428532275
-13.700379035721403
-4.089530866276824
7.03557369083404
18.58192279042476
30.086310277851194
39.96150521551147
46.333668632561974
48.40091318353043
