AAD_Filtered_TADAS_FILE
AAD_BASELINE_CORRECTION: BASELINE REMOVED
AAD_FILTER_TYPE: BUTTERWORTH
AAD_FILTER_ORDER: 1
AAD_LOW_CUT_FREQUENCY_HZ: 0.025
AAD_HIGH_CUT_FREQUENCY_HZ: 40.0
EVENT_NAME: 202302060117
EVENT_ID: 13194
EVENT_DATE_YYYYMMDD: 2023/02/06
EVENT_TIME_HHMMSS: 01:17:32.00000
EVENT_LATITUDE_DEGREE: 37.288
EVENT_LONGITUDE_DEGREE: 37.043
EVENT_DEPTH_KM: 8.6
HYPOCENTER_REFERENCE: AFAD
MAGNITUDE_W: 7.7
MAGNITUDE_W_REFERENCE: AFAD
MAGNITUDE_L: 
MAGNITUDE_L_REFERENCE: 
FOCAL_MECHANISM: 
NETWORK: TK
STATION_CODE: 0141
STATION_NAME: 
STATION_LATITUDE_DEGREE: 37.56256
STATION_LONGITUDE_DEGREE: 35.52789
STATION_ELEVATION_M: 312.0
LOCATION: Kahramanmaras_Pazarck_Turkiye
SENSOR_DEPTH_M: 
VS30_M/S: None
SITE_CLASSIFICATION_EC8: unknown
MORPHOLOGIC_CLASSIFICATION: 
EPICENTRAL_DISTANCE_KM: 137.23
EARTHQUAKE_BACKAZIMUTH_DEGREE: 
DATE_TIME_FIRST_SAMPLE_YYYYMMDD_HHMMSS: 2023/02/06 01:17:35.6902440
DATE_TIME_FIRST_SAMPLE_PRECISION: millisecond
SAMPLING_INTERVAL_S: 0.01
NDATA: 12501
DURATION_S: 
STREAM: HNE
UNITS: cm/s^2
INSTRUMENT: sensor = ACEBOX/SARA | digitizer = 
INSTRUMENT_ANALOG/DIGITAL: 
INSTRUMENTAL_FREQUENCY_HZ: 
INSTRUMENTAL_DAMPING: 
FULL_SCALE_G: 
N_BIT_DIGITAL_CONVERTER: 
PGA_CM/S^2: 16.895
TIME_PGA_S: 
BASELINE_CORRECTION: BASELINE REMOVED
FILTER_TYPE: BUTTERWORTH
FILTER_ORDER: 
LOW_CUT_FREQUENCY_HZ: 
HIGH_CUT_FREQUENCY_HZ: 
LATE/NORMAL_TRIGGERED: 
DATABASE_VERSION: 
HEADER_FORMAT: DYNA 1.2
DATA_TYPE: Acceleration
PROCESSING: Automatic Paolucci et al., 2011
DATA_TIMESTAMP_YYYYMMDD_HHMMSS: 
DATA_LICENSE: U (unknown license)
DATA_CITATION: Turkish Accelerometric Archive v 1.0 - Disaster And Emergency Management Presidency, Earthquake Department
DATA_CREATOR: AFAD
ORIGINAL_DATA_MEDIATOR_CITATION: : AFAD - Disaster And Emergency Management Presidency
ORIGINAL_DATA_MEDIATOR: AFAD PROCESS SERVICE
ORIGINAL_DATA_CREATOR_CITATION: AFAD PROCESS SERVICE
ORIGINAL_DATA_CREATOR: network: TK
USER1: GuestUser
USER2: 
USER3: 
USER4: 
[...]
-8.573945751262622
-8.338279317727258
-6.159630393817469
-3.9096222892490773
-3.397506074618964
-4.598634145006385
-5.526831091693644
-5.206249883937401
-3.8742313712725407
-1.5279827563788306
1.5724415719089786
4.699754128922826
7.255075928176505
9.21296148871666
10.668180111050887
10.709987553066766
8.041421769129284
2.988464786954738
-2.353718636680975
-6.247951271204339
-8.16167473476271
-7.249026692844347
-2.756170250808296
3.2898007705825307
6.703095718557841
5.137104703687667
-0.16846909685478256
-5.98503783544702
-9.268089025177137
-8.760566296495135
-5.532180212805478
-1.7769912632166753
0.9016698162061428
1.865266904710539
1.401848248402619
0.821931384926704
1.1392179788392565
1.8875695148984262
2.125550948382548
1.7811646344489465
1.537476440253707
1.8090507040016381
2.5494348235453836
3.7162447337141242
4.844895557678655
4.986515170107491
3.571255697312757
1.2833783574569395
-0.11022143810236378
-0.4032715697452804
-0.8579897964830331
-1.2098405898653646
-1.7344955897161665
-3.449948382013891
-4.660520006899033
-3.981136505869417
-1.9718022058785498
1.0396622703073197
3.7253513612992366
4.774614024356571
4.647638877083834
4.0778014306360575
3.129483195523012
1.478636616421028
-0.3751658409014016
-1.744865632678488
-2.573468888140833
-1.9026470515104652
0.7635318883773115
4.0303562028208475
6.489690444832339
7.1844269651297
5.369992329927264
1.6201968650852556
-2.269706661456656
-5.329847117992472
-7.671147930606832
-8.62116460271394
-7.323713609004874
-4.417382182470724
-1.3000826482991763
0.6605155866169229
0.3108569680829045
-1.9639883576785293
-4.501356008048736
-6.213927494578184
-6.152016273260469
-3.6930334490296914
0.13834503687327654
3.988038654877398
6.4857663286665295
6.374131951203166
4.6424495513186725
2.41613164552665
-1.176985202624655
-5.59543754043875
-8.214731189535367
-7.422633199306073
-3.4441828029711257
2.51214443777668
8.759662994069803
12.989310429492965
13.338850434665687
10.27548844143965
5.902602815888619
2.291726950426395
1.0200948430518213
2.635298056796754
6.178207357230536
9.922920868348223
12.287149094084967
11.848217790063714
8.329846295824051
3.337507067356803
-1.3300651439000672
-4.743960812416736
-6.584746027371574
-6.820026804044346
-5.6360233313102315
-3.5783620459289924
-0.5421684419113649
3.3992708435054335
6.304946784427512
6.695899884709995
4.94699630776429
2.346395847536949
1.2308094510235763
3.2616906049007963
7.14051599071909
9.695665763323756
9.040403409554635
5.866538012869955
1.2661524455982784
-4.199641382737441
-8.61122453183526
-9.224631951148968
-5.629321374805099
-0.10058896771264803
4.935290811162466
7.796398167630686
7.416099039098164
4.036069289361499
-0.59233323248035
-4.270901649920721
-6.28170282734292
-6.850240162941539
-5.144882439736469
-0.6765832515274481
5.149813061154215
9.57025413940045
9.791018319499535
5.74859173575211
0.2755221002715855
-3.732612279463223
-4.672791724836691
-3.053057746837664
-1.1566209062992532
-0.42308447885298606
-0.5632274927427849
-1.2214122586741
-2.5927847408369247
-4.469373699045262
-6.480666014920005
-8.74475295613178
-10.53950795743386
-10.335084927575855
-8.196477989973621
-5.686563564872908
-4.046297093718437
-3.645954499308349
-3.9560660687197373
-4.684304711267034
-6.371413228909492
-8.804321162019
-11.21881974764051
-13.204028426922827
-13.594591032525388
-11.492558614993246
-8.197945327306938
-5.431202192091103
-3.497506830596992
-2.1097243149478366
-1.1145543504582547
-0.7018870813652697
-1.499967166917917
-3.8040026967017693
-6.753683519664754
-8.666888321003844
-8.426419073287908
-6.288270469229458
-3.3370196597576314
-0.6789341275641219
0.9973782623890592
1.2385265835653936
-0.16979235551495803
-2.7445376018961842
-5.21571864262927
-5.483712066285416
-2.176967833273399
3.4360140255579035
8.600716331618681
10.575905346511634
7.957848407858826
2.4949686916845764
-2.129532399905436
-3.5802511574032345
-2.356663985737574
0.05029880850485999
2.57049205277011
3.192956318686024
0.498566719568808
-4.38741742620153
-9.54415030063054
-12.361465468120365
-10.5160931759332
-4.848389964062954
2.0964435669681643
7.976983668882359
10.3244543747911
7.759796912655814
1.3655774601125261
-5.491651142153734
-9.148491303597899
-8.825373311687885
-6.552668690386281
-3.872368798434426
-1.023380648843563
1.364155027745211
2.223587009564526
1.4551894988690661
0.25414099445232297
-0.19606244164305212
0.23489908061364678
1.2069175705959065
2.315721522373543
3.08058693209559
3.418969373483306
3.595170182786982
4.427963083352233
6.866802006090763
9.940978498537955
11.442242896079025
10.98795537176974
10.190396331954057
10.065178405810633
9.958269731106483
9.338482490773107
8.286002751720314
6.646983395706718
5.052660736317306
4.462545171445297
4.461081786062208
4.182667208739848
3.6216401045356874
3.3664888907707193
3.5120590323467047
3.4817175992191887
3.174106390850665
2.833468171409739
2.300052268465524
1.3473010571114978
0.12739686095979966
-0.6377468475505543
-0.07097308662186731
2.1734619200361225
5.425164232442897
7.667567642907782
7.001573445376022
3.878381171084909
0.4860683592661998
-1.6842255986158539
-2.6327630297458784
-2.9389580205649755
-2.910314204452902
-2.5067555188336947
-1.6708994085952524
-0.5130119325325506
0.41382365120608305
0.2728555331847048
-0.9337406923162784
-2.4765892551733146
-3.828032047159445
-4.019436831256606
-2.182102693284719
0.5203731650265009
1.860371265444223
0.9658961694102808
-1.1658799121713415
-2.831448233164091
-3.1368663678031568
-2.1535881347562853
-0.1654021351037927
2.352594487052
4.670318476126181
6.134242427923785
6.497497989941834
5.796536144364582
3.6492479865794545
-0.1726742506786011
-4.176835254033558
-5.966030774792063
-4.639784884107576
-1.4851782582370523
1.3104009341002132
2.4874363463900133
2.2178444583772134
1.4887533261238888
1.3814371242067975
1.5307744686066185
0.5465370199834598
-1.007795755797717
-1.042221164756615
1.0852535485908805
4.383671772836513
7.841500198281747
10.75103811801146
11.675279332189552
9.306908780383417
4.584476717906465
-0.35750872246630877
-3.9228390581997337
-4.893416689806494
-3.0995195448612614
-0.026084389129906595
2.4826613867971776
3.471253943805151
2.9082583110537468
1.1014864907973554
-1.97356168737559
-6.241815615451627
-10.500675966347963
-13.30289285759788
-14.337228989273937
-13.627366295808375
-10.719416545364002
-5.832126622166659
-0.31556518823429763
4.3907209313105335
6.512371904660899
4.411406096944643
-1.0274012357690456
-6.976273503452342
-10.976549139351432
-11.63445187225932
-9.26885421051011
-5.617483476353642
-2.426008503651561
-0.7792657095829912
-0.6747587400913295
-0.8476421232022968
-0.16344133875916828
0.549185354799802
-0.258563069518658
-2.5925446386860127
-5.481373013258387
-7.429949354448224
-6.716454845513414
-3.221161304894015
1.392169585064348
4.848470406752394
5.628038480387918
3.987002026852617
0.682929872556876
-3.3406018764336287
-6.10100079148987
-6.25226564224369
-3.8204245661971017
0.7031063515279802
5.575855461482623
7.966263847611259
6.246457532451431
1.3492383611601606
-4.116225308366499
-7.81891215397201
-8.863649308413468
-7.87808332066777
-6.066005479843533
-3.970858514399354
-1.895896007988346
-0.6401802932253157
-0.7549150671840872
-1.8754255622927658
-3.071154775005218
-3.5451029590801384
-3.031701856535405
-1.7339430760518846
-0.17666189173031524
1.078305057751602
1.854304268913564
2.318663351976744
2.729845192770349
3.455773093690064
4.643832375238151
5.850295221603147
6.424860706085227
5.914106647899651
4.24381687520381
2.154045577262661
1.1293623747696206
1.957073821683638
3.821353323517931
5.6959929363397155
7.1068293898191275
7.233079195474935
5.308378306862578
1.8763237613831827
-1.349943438980239
-3.2252385091151576
-4.303036979846693
-5.589679306383911
-7.185006587161287
-8.327194249855921
-8.23538232044073
-7.070113555342727
-5.466137448657229
-3.881150032610939
-2.9958235721638897
-3.1393434736738284
-3.539118239510811
-2.8662969027772904
-0.2984867966158795
3.2580635643331672
5.769221176606172
6.169676723820793
4.639559076359502
2.4385947716154486
1.4108827009571072
1.4496139555940655
0.568547974704737
-2.002563347587005
-5.3451493853533
-7.897060089182871
-7.735326634146496
-4.042731442672059
1.2754664043490944
4.844435932221386
4.889901717591503
2.0336452707442914
-2.280776360709408
-6.492041442312902
-9.58225411236845
-11.911410142081426
-13.787954836321912
-14.397453322647486
-13.127747606751377
-10.583981334846216
-8.151181609416781
-6.565846692238651
-5.4766490844505835
-4.976430215229983
-5.920353363194948
-8.242556418529155
-10.388974380807806
-10.783055541566538
-8.931547859703942
-5.07262350332453
-0.052769558645967565
4.5669037653353906
7.2522264170121815
7.4726015885873265
5.8241195386259
3.12769539851629
0.11477283533141637
-2.42444982979428
-4.262328065274119
-5.545033422851505
-6.097267161869753
-5.581387052095392
-3.7000792468058687
-0.9287237439436341
1.1067545616522125
1.3369315709302176
0.1794315077279832
-1.5964670670663077
-2.887207372449895
-1.9973825419425515
1.6411181713106107
6.543245098287721
10.216441909578432
10.692585534171917
8.351090365483367
5.743635021588221
4.71518157193597
5.004274999466841
5.535781154887249
5.4551565795829635
4.150041646366081
1.7213664251060723
-0.6856700305145822
-1.755837066376718
-0.93095802491085
1.1562195452578796
2.8998405421418343
3.1001341697855285
1.8764123432106627
-0.11160168723811513
-2.4276643983499127
-4.246054672103041
-4.06586823659544
-1.1999008022511746
3.0361631494403705
6.202875639339194
6.739420172790534
5.106121301642981
2.8909221255039177
1.3941250567149122
1.1450501571533132
1.920938887321607
3.1821029361511872
4.455547671929401
5.186282466412462
5.051901849343735
4.72611152588653
5.272591302485843
6.678448879387739
7.965427448835833
8.121943749748304
6.620256408805621
4.039159351018117
1.4849433252071045
-0.6677660111012308
-2.2304066579301702
-2.4351138639598124
-0.6996963210882984
2.3249585605215595
4.658605160121263
4.4844950560121
1.8717105677827262
-1.5315211505593223
-4.076620257024854
-4.741065623366818
-3.009217233360019
0.35143607632343127
2.944062545445303
2.742302825688926
0.057948327258982364
-2.714358443972438
-3.005673865770319
-0.6281061471428977
1.7264769962044026
1.2649289726213122
-2.167656784796883
-6.210778857138953
-8.310750592578813
-7.614992193300807
-4.876359655674158
-1.5704115173859596
0.7322297428003688
1.0822518401707164
-0.26396988140794697
-2.0350740136887677
-2.9776957390179666
-2.747699198435975
-1.6628879937205356
-0.027285970882580106
2.0558246530739734
4.28115819767347
5.469922542325629
4.280878470152056
0.8790427393781194
-3.2828698212298426
-6.51476876254144
-7.329051002519618
-5.47836754375838
-2.2121486790934335
0.7452988663535645
2.085420082611763
1.8867376639832227
0.9874666263413068
-0.5605098580549807
-2.351049065750107
-3.0389753643161423
-2.408788338834496
-1.3357219970802447
-0.09258358372819839
1.5693494442788152
3.404977850579999
4.271485616253659
3.250219518914758
0.6708656525467658
-2.5446037906146155
-4.927613077825872
-4.86956817545863
-2.7641758384731703
-0.5465081878295386
1.0134630766584327
2.1489099764671082
2.604007871668046
2.2664023995534985
1.681116967898325
1.0473561758241365
0.14331253647380524
-0.5442525374513197
0.03698547462676339
1.7139094416172567
2.7866344079205243
1.784463259331058
-1.3627890863903342
-4.804332857320474
-6.166244783362276
-5.2446227893080115
-3.2544361323236224
-1.3893168294717764
-1.0759363434452824
-2.557120886952639
-4.5641727292614505
-6.289522065961284
-7.6128323979388925
-8.35254279044693
-8.244207858474907
-7.113772718763194
-5.227637151039357
-3.44424054623613
-2.8380759338685264
-3.864751391209743
-5.744501847160513
-6.925690425463379
-6.165416516976839
-3.718553449162685
-1.6408845406186459
-1.7490698598753351
-3.6448901440343286
-5.866497795931525
-7.55565627920425
-8.00876102159591
-6.814508516925838
-4.9601252910828935
-3.3844699190504413
-1.5579439668298514
0.5237550396190005
1.7533796555144416
1.744463794913745
0.6225863114036323
-1.1056427589505695
-1.9186735195593425
-1.132648459689682
0.5578836056610353
2.4587814013259526
3.3209677403025295
2.55473953034494
1.5462532030369884
0.7753337242020412
-0.637434742029939
-2.5221197416644747
-3.8909545592824624
-4.024695330357229
-2.969494848352732
-1.4594600714580794
-0.5743808816931787
-1.3267938703402642
-3.0441325521181803
-3.832890198699028
-3.0155230728566114
-1.0296244679624902
0.968541438882953
1.59116806667915
1.0642553209651557
0.4923849705311504
0.7254154017778303
2.730676183132222
6.252403220873429
9.89537959513254
12.876421142300224
14.804463175427028
15.827439843721717
16.648188226129772
17.11962031648565
16.44991897571366
14.585781818511085
12.263233996221224
9.69700338355401
6.8788116507234625
5.185966321998083
5.616772967023051
7.114319417459055
8.507763710125612
9.08304728167273
8.444829973804868
7.290448859767644
6.123194822447961
4.6781634261430805
3.3570082386934015
2.7296907000224624
2.225741105454103
0.8943791931891121
-1.3998417835558865
-3.850573987566782
-4.825242497610112
-2.8768881731953635
1.64515629401328
6.954999099079804
10.870091602440006
11.243539528194058
7.374490850007595
0.8426694122872194
-5.5440984765759165
-9.455580453168382
-10.173530895531878
-8.042204622693555
-3.7095941890571598
1.548095007228452
5.833350072344755
7.4461991325953285
5.953572871973474
2.532334247072211
-0.9069607831729478
-2.79594754365933
-2.3775025551196576
0.22557371001624577
3.785694966888774
6.606270282349753
8.202609517088222
8.930961744064241
8.318955325603513
5.763348713019352
1.7964811539747334
-2.1453385146322996
-4.503264076403381
-4.77587433897942
-3.5110757741017
-1.2360793935099461
1.1472410772304238
2.4711791519190123
2.820311272623417
3.1005632601414423
3.241830856804746
2.2900882919229884
-0.2299408879775007
-3.7460754437864257
-6.578557042182917
-6.968015822938169
-4.954201577405827
-2.1516792892294236
-0.4871350295823501
-1.4021313008129404
-4.671337744362394
-8.538553466486043
-10.786299988660284
-9.745712065797148
-5.635596763114867
-0.08896402617507244
5.083798539479509
7.969817171236831
7.314562596764294
3.665826280420697
-0.5196214047728254
-2.126717312085091
0.339474568446276
5.216759419951903
8.660787763560231
8.167517548104675
4.384479158166482
-0.9552171780206622
-6.138357940713913
-9.17357131016738
-9.103030826471178
-6.663839408389675
-3.08499029596067
1.2652687479728568
6.569731546755762
11.195091077281456
11.91900905893465
7.920567251983053
1.6223676814802197
-4.636406909406786
-9.661036624245448
-11.979890045537353
-10.699278321909393
-6.977361892289686
-2.7361288124353975
0.6393196705820932
2.3130892746054377
2.277663798241263
1.098170053798253
-0.8575881452742321
-3.4385220611789937
-6.017950355480382
-7.5304281093822825
-7.547402176773369
-6.255435563280509
-3.9575949467162177
-1.447358280153475
0.5173990574441141
1.9114336757285042
2.740117342963713
2.6772304242813236
1.6925673292399677
-0.025976512583361498
-2.4336044796265437
-4.86142395143906
-6.234896673193956
-6.320163660077052
-5.142920215523141
-2.6334864563448708
0.6322196490463158
3.7683486065417844
5.7639639548557575
6.009545427133878
5.056918734381093
3.1063736734638696
-0.049326384480669165
-2.7127078979147243
-2.5601853740225664
0.4697017082003661
4.667472779514249
7.957891411229633
8.707403415308693
7.028854105100724
4.5677651679879085
2.449091500324376
0.5900055207913997
-1.192299037198355
-2.3807525229691233
-2.0751233514777447
-0.059760737047136914
2.8559315793371556
5.594482377320189
7.08009950512966
6.802288871201854
5.733215922872623
5.2919640612875085
6.005681886153996
7.373425774911563
7.951416792222387
6.679482957233168
3.9983361461902103
0.9397815428257642
-1.3586418924240296
-1.6633214496183015
0.3910913120309093
3.9212302642048678
7.668262785579741
10.67132214978296
12.137186285082123
11.654636524074851
9.77035229332301
7.694833174611588
6.566355882153657
6.844790589961427
8.032126424353939
8.994092995802948
8.574033216124983
6.6613922440338245
4.305228760526678
2.2729549289218665
0.9443545544245857
0.789449209115465
1.8288362335038508
4.044978205406451
7.351070241618365
10.426577028347475
11.34089690609448
9.016100304561922
4.001329512415674
-1.311711659371038
-4.604085423944876
-5.652606725035064
-4.894218694308399
-1.9346568748080295
3.0050217901882097
8.028368791838574
10.787822927394648
10.304876819255972
7.187984420430692
2.598519807970847
-1.532055211804681
-2.7765198881325457
-0.6603761876411238
2.829224056639777
5.63767006538171
7.003347159172425
7.1718521240577005
6.90973328172857
6.605702252087437
5.827115850310911
4.133993830058032
1.4700954536078468
-2.159777056500069
-6.1553183590408365
-8.735649658777763
-8.599270935933397
-6.63773528732318
-4.583733287885368
-3.672850795756849
-4.594867912484959
-7.016528884883331
-9.73566093462981
-10.918576993063276
-9.051090138366094
-4.684198028868373
0.6349012510728361
5.487315898027395
7.7576010221360425
6.177319440572734
1.7626826744648665
-3.832960842136626
-8.692725623649213
-10.244200976580677
-7.581611409802097
-2.785603502772965
1.2207807832386328
3.0151224240514796
3.213684059334963
2.8481425543784087
1.9483865079857632
0.6022342197252387
-0.8069818822948752
-2.3091678278068755
-3.1180863284792832
-1.6529072063401113
2.2437970776216773
6.810919994975366
9.739137251133375
9.8524908321707
7.653390646544147
4.0923874233805275
0.07010625585164203
-3.2975321944118394
-5.242687342179671
-5.70070569653909
-5.021358287572738
-3.0732035417205634
0.6413903904670866
5.321144637862143
9.289312329178708
11.277944782242495
10.430186001384048
7.247930211260931
3.4212821092191232
0.06612915301834266
-2.1837887430139475
-2.8402412634646406
-2.29777627705431
-1.3914499634806095
-0.2753538197763748
1.3456332835771574
3.6027414257950756
6.140107735568824
7.600301439305865
6.6820594434217675
3.495858573019676
-0.8995385333505739
-4.694814608079334
-6.277758788780029
-5.959964243464585
-4.817843521610766
-2.9896482285483486
-0.4414401073458307
2.2182921580448065
3.9263997274937896
3.5425661285805297
0.9751805692041521
-2.3343890082903225
-4.821701951478979
