AAD_Filtered_TADAS_FILE
AAD_BASELINE_CORRECTION: BASELINE REMOVED
AAD_FILTER_TYPE: BUTTERWORTH
AAD_FILTER_ORDER: 1
AAD_LOW_CUT_FREQUENCY_HZ: 0.025
AAD_HIGH_CUT_FREQUENCY_HZ: 40.0
EVENT_NAME: 202302060117
EVENT_ID: 13194
EVENT_DATE_YYYYMMDD: 2023/02/06
EVENT_TIME_HHMMSS: 01:17:32.00000
EVENT_LATITUDE_DEGREE: 37.288
EVENT_LONGITUDE_DEGREE: 37.043
EVENT_DEPTH_KM: 8.6
HYPOCENTER_REFERENCE: AFAD
MAGNITUDE_W: 7.7
MAGNITUDE_W_REFERENCE: AFAD
MAGNITUDE_L: 
MAGNITUDE_L_REFERENCE: 
FOCAL_MECHANISM: 
NETWORK: TK
STATION_CODE: 0216
STATION_NAME: 
STATION_LATITUDE_DEGREE: 38.030907
STATION_LONGITUDE_DEGREE: 38.557087
STATION_ELEVATION_M: 864.0
LOCATION: Kahramanmaras_Pazarck_Turkiye
SENSOR_DEPTH_M: 
VS30_M/S: None
SITE_CLASSIFICATION_EC8: unknown
MORPHOLOGIC_CLASSIFICATION: 
EPICENTRAL_DISTANCE_KM: 156.80
EARTHQUAKE_BACKAZIMUTH_DEGREE: 
DATE_TIME_FIRST_SAMPLE_YYYYMMDD_HHMMSS: 2023/02/06 01:17:39.0566870
DATE_TIME_FIRST_SAMPLE_PRECISION: millisecond
SAMPLING_INTERVAL_S: 0.01
NDATA: 4195
DURATION_S: 
STREAM: HNZ
UNITS: cm/s^2
INSTRUMENT: sensor = ACEBOX/SARA | digitizer = 
INSTRUMENT_ANALOG/DIGITAL: 
INSTRUMENTAL_FREQUENCY_HZ: 
INSTRUMENTAL_DAMPING: 
FULL_SCALE_G: 
N_BIT_DIGITAL_CONVERTER: 
PGA_CM/S^2: 22.584
TIME_PGA_S: 
BASELINE_CORRECTION: BASELINE REMOVED
FILTER_TYPE: BUTTERWORTH
FILTER_ORDER: 
LOW_CUT_FREQUENCY_HZ: 
HIGH_CUT_FREQUENCY_HZ: 
LATE/NORMAL_TRIGGERED: 
DATABASE_VERSION: 
HEADER_FORMAT: DYNA 1.2
DATA_TYPE: Acceleration
PROCESSING: Automatic Paolucci et al., 2011
DATA_TIMESTAMP_YYYYMMDD_HHMMSS: 
DATA_LICENSE: U (unknown license)
DATA_CITATION: Turkish Accelerometric Archive v 1.0 - Disaster And Emergency Management Presidency, Earthquake Department
DATA_CREATOR: AFAD
ORIGINAL_DATA_MEDIATOR_CITATION: : AFAD - Disaster And Emergency Management Presidency
ORIGINAL_DATA_MEDIATOR: AFAD PROCESS SERVICE
ORIGINAL_DATA_CREATOR_CITATION: AFAD PROCESS SERVICE
ORIGINAL_DATA_CREATOR: network: TK
USER1: GuestUser
USER2: 
USER3: 
USER4: 
[...]
-0.5503869174709701
-0.18507133303571588
0.011185164195127616
-0.5824319290009289
-0.872245279961464
0.0427013665009398
1.3375816061492103
2.2573681962361514
2.7943630325522757
3.0071735408446325
2.8267335621862735
2.9482792908838062
3.4390074452654225
2.9530922810645603
2.2567832846709504
2.3626861550912848
1.738728503986441
0.6420085118969379
0.3445000473787833
0.07331558385964823
-0.4218750951484728
-0.6323319986484695
-0.6844782085570764
-1.276212169240178
-2.4054506359364143
-2.55963718848862
-1.700316466222963
-0.8484455597845652
-0.10907692179639544
-0.1337285339766201
0.36405689827661936
2.361792689898002
2.2844090834437507
0.37834735497359273
0.9201530948196602
2.443092417244978
1.6994921587376663
-0.5916989059470497
-2.561825318442022
-3.367432172792982
-3.6706905318426113
-4.211940391637624
-4.5278944902384435
-3.6978557827951426
-1.6801116829711875
-0.5148510302380159
-1.8964332868977145
-3.9853367151677834
-3.821807725577045
-2.0277206945104265
-1.4968393018240453
-1.9891825252143671
-1.219359476596703
0.528458024541465
1.1545792497615426
-0.046724640129962296
-1.740391124771731
-2.354006688125497
-1.7872239635401705
-1.9546727465696394
-3.6146089876638627
-3.38266031246555
0.04858439330529084
2.1071397554043503
0.09031084838929827
-2.1958901273320808
-0.4302758809945703
2.863175292124788
2.6854061999549335
0.7426803867404026
1.3983751164127811
3.751576102491008
3.684993654998401
0.18688480222780735
-3.740155373037386
-6.002541435194931
-6.276634169368453
-5.482079217396895
-5.756071743453696
-5.224498774545015
-1.2677944634345995
2.5819761745351255
3.3828378827995698
3.224997184923731
4.102973056393245
5.225040935220171
5.258176456200603
5.0017098157891535
5.148472038884026
5.062496601485365
5.5465266877987975
6.857396615836431
6.613598616419826
4.7538634343753055
5.1310660909717045
8.104991783372146
8.501577133038825
4.276500507538957
-0.2181238975514148
-1.438583514380129
-0.3519901337778287
0.912084226084925
0.5564579771404671
-1.0251983827454823
-0.5126039219221475
1.657787464819666
2.0628090991140318
1.5590206611119748
1.5431016346730893
0.6636741927015841
-1.1955386679078281
-2.494247068232086
-2.4361321949342614
-2.2495509973698384
-3.0275769744179843
-3.1783169867213887
-1.875421315760218
-1.3993104138549828
-2.7835004781012267
-3.945452597775833
-3.5974004772269117
-2.8947429817217625
-2.6020967931877412
-2.0270436512634724
-1.0478265340881234
-0.2718773375072847
0.023836990923494415
-0.4890124072874016
-1.871672865108099
-2.913828192615056
-2.2254874882308844
-1.0235495630873914
-1.3020782970721236
-1.8777440267045908
-1.5153193621529055
-0.8718139753998014
-1.036363053295026
-3.616774661773668
-6.687530344145979
-7.391318834865734
-7.747930140645092
-7.9183867936237124
-6.000297256569962
-3.889922738598453
-2.6963465595340277
-1.4772410258498305
-0.8651186474166895
-1.5150759324804952
-1.9228660654266179
-1.150526194770687
-1.132342628675929
-1.6129446837671726
-0.30913253468026125
0.9152678604127452
0.8178755365966139
1.8850751057158557
3.6966777646254125
4.116732308650202
4.367887415779478
5.578837387198664
5.888116739328297
4.6644273200774125
3.081017464135106
1.078543267823923
0.011828359349532748
1.5377236501171703
2.74797027120904
1.4146017324723448
-0.29789958706985137
-1.3910145705817194
-2.158676053806229
-2.080972744757023
-2.0598516901004107
-2.385093621406074
-2.145995035263942
-2.091641173660288
-1.7218000921729275
0.03204602833638274
1.7069438068715534
2.4288957978585226
2.2587758969095626
2.210474793612878
3.8063088833260905
4.7313736636818895
2.1737650688501864
-1.723099366816187
-2.3077564649463214
1.036448460462725
2.201056545674379
-1.907121527791631
-5.341201771498657
-3.7643735146645123
-0.8666054259942421
-1.2395596331626944
-3.1328015784737087
-2.3871030898005623
-0.6043241902879497
-1.013813982158251
-2.234415887043311
-2.7848240909820805
-3.5266149721304867
-4.389226482879831
-3.4850269176217274
-0.74263121565882
0.13442195463177514
-2.1508664023504473
-3.5219596441299137
-1.4601069012827403
0.3131637381498177
-2.140335592386865
-5.045120499443266
-4.086090749741191
-2.2354826992250723
-2.430126581398108
-4.422862643951993
-5.905073849167067
-4.032005761170496
-1.5309601005436158
-1.4434795067517374
-0.9318994723224796
1.3257034189049772
2.658297000302744
2.0799327578419735
0.9934252802000406
-0.04582852544159015
0.0032722843396187414
1.8131514275656877
2.091649616480907
0.28933199656214026
0.15220721876102436
1.2247886592535857
1.6050531510658241
2.7921631430601113
5.3281966164099455
6.630860170631989
5.400883209694521
4.311457419825307
4.943930402464011
5.176448171141003
4.31213754959069
3.6099927892773622
2.327809891221853
0.5590739050607307
1.272029776632663
3.731664852696392
3.6390402566488316
1.2245241405114733
0.14639183178498485
0.5144189924095752
-0.22629369225272414
-1.3568574458595033
-0.6180797974368278
1.2335041347887115
2.888826314812433
3.547569491451582
2.7761515642701577
2.3760452166392567
3.6400467402316616
4.767229940622426
3.635845385294212
1.47712948607108
1.036652850551175
1.7445330653104782
0.9218934636827003
-1.3385492848480134
-1.560850559741707
0.5238935108386276
1.489379472010522
1.9026701770801682
2.361075775355452
2.160430792352374
4.26149287309639
7.433190209491231
6.863521833665068
2.842906317708482
-0.8062030269872071
-1.3319235931339224
-1.1402682553773826
-1.4960446542761665
-0.11314980142787003
-0.16985004675913043
-2.532768447154313
-2.546000418265264
-1.9266303662606357
-4.242288668628562
-7.329636317681323
-8.38850338765879
-8.61402931496031
-9.461194290237605
-8.246163812119772
-4.168718857088103
-0.4034553485208581
2.6480738396011785
4.592012072424498
2.786464025507356
0.12613805998590832
1.1134761665900639
2.1446880458449518
-0.02431531732644682
-1.2375667844724483
0.4536269856958487
1.8909864187912662
2.127372998866462
2.219706548468481
1.3645638034278587
0.16744701795372813
0.4310482159119098
0.7315258807814383
1.035463532900537
3.280782212282887
5.622450642741594
6.342209516044763
6.319111984440351
5.392861987471757
3.362494965923799
1.864213586857491
1.8935704222322725
1.3316895972625205
-1.2966946969278745
-3.4440788283821777
-2.3693104080452976
0.5947729140104225
0.7469964010573318
-1.9784556603768249
-1.4859276280485259
1.3305825744234652
-0.33044035288470947
-4.716114033853938
-5.395853407042592
-2.277074024179964
0.10336609900817882
-0.05219025547200735
-0.2343289367199425
0.7171013863397516
1.4486795893594164
0.912359947240883
-1.0836619302337531
-2.3689679727006574
-1.9444685710224394
-2.576695184944057
-4.669448566162071
-6.115380269935891
-6.1106618375428425
-4.683779056304358
-3.836252594127019
-5.681293729822218
-7.404924386462156
-5.321238906421917
-2.0936574129987147
-1.1127375185939488
-0.5032696865523588
0.650046041057165
1.4723919834843868
1.7747601366679167
-0.5050299713631611
-4.441777413810004
-5.505294552902616
-3.720892095760604
-2.197597117761955
-2.0858639832022554
-1.8512028658854656
0.9669878094759239
5.3260664106931985
6.687244862721485
3.0740392751835484
-1.288209503436253
-1.4880464548415693
1.2827244279524326
2.405064149371635
-0.0717147911561326
-2.848593582413822
-2.354655985712771
-0.37303741174620797
1.2638729652033671
2.6680165162364258
2.4962219112266735
0.9295159013171322
-0.6943916491874058
-1.1812602280558775
0.7269323183987104
2.310579284978226
1.0161949618333495
-0.29583998820064783
0.7675980765308006
2.1397199612513877
0.7187683043642635
-0.7761407009904494
2.5557780845003895
6.095586539762602
4.304798459726528
1.8012474172034791
2.344966067427206
2.9571317836224815
1.5191688000955843
-0.1626140278828956
-0.10708620911478704
1.2224152085063
3.0104711317319186
4.344368065550162
3.933630930926091
2.032877927650546
0.09868529043660867
0.22199497715250985
2.0687376796252432
1.7208983482962614
-1.4452492540602724
-3.772548813451563
-3.030326445820602
-0.20910854111785393
1.6359967186987951
0.9999263584457851
-0.5863609422855243
-1.3262753953754969
-0.7052895904151024
0.05115798949813747
-0.6994118806209366
-2.496604056240944
-3.1460755761299035
-1.9358050637376034
-1.481579979585613
-2.5481374779233996
-1.5886783254241306
1.3306169813097284
2.2711519299745353
1.3423498491949033
1.023558962455146
1.1379028746977338
0.2855917191964327
-1.6443609983384788
-3.6338162247627923
-4.236429360964156
-2.56650809431036
-0.1805976778081037
0.35089455598327285
-0.8289563678756001
-1.7954397092132373
-1.9920518974402712
-2.1280838070746992
-2.834395701110289
-3.730978581663417
-3.5462535292523154
-2.030416220224114
0.2246689165618481
2.354881188269762
2.5159228404643796
1.1893844805585394
1.2754875876899934
2.2888435377816325
0.7394386483475264
-3.7009503139798037
-6.013277007175824
-3.721691516097623
-1.9606091938017784
-2.9732410052034015
-2.7275936032943857
0.04828850842057427
3.5389250740102005
5.374188035685873
4.715216474160093
4.111017606027832
2.993858396256356
-0.3402752103531663
-2.1724703326548345
-1.002833216064036
0.16799632135728756
-0.44459031336801513
-1.6630752688001786
-0.08742415883484395
3.3637084069984824
4.440379174980481
2.6334202895439858
0.12230234179934452
0.1892486306841299
1.810616138864947
0.48236169414505353
-1.0240345433102744
1.5092935357833905
4.755307522305052
4.392080313901285
1.339581435790356
-0.5601090959935267
-0.29460270359298957
-0.3220854800908313
-2.1597094658008746
-3.7769566109361565
-2.4151538215366015
0.29373298201011583
0.7099374150284425
-0.28058316446523585
-0.3105565691602651
-2.0009271529029777
-5.643643389809748
-5.191956682119476
-0.5270654696537482
2.5569722126683327
2.3317610071245887
1.9951090937762381
4.211221206963756
4.831349576296818
1.367320645131172
-1.405392573838571
-2.580643469556014
-3.5186874139399253
-3.026819764755893
-1.3076051889229898
0.27433089136525973
0.19325755680487136
-0.7667613834446881
-0.5971864944426564
-0.19549485617121398
-0.6659690065216625
-0.9370969682590562
-0.26675223321430835
-0.7433572470287626
-2.2057504066610134
-1.3801587376334667
-0.9370720865663691
-3.635923105496136
-5.32593112086175
-3.9874691836664704
-2.5393774280835353
-3.878892411320287
-5.4484060200901165
-2.519273735320459
1.4474205484647469
2.8300517314973255
5.283490392273932
8.319943959207052
8.009868148925534
6.062721573893093
4.709166822633202
1.9759571874419668
-2.1873629231011624
-3.801244894216332
-2.2774476066646794
-0.840368295726576
0.42138089291346975
2.012834844348517
2.085390995850014
1.612357561815569
1.7705896147364006
-0.3454290719336537
-4.286486618600877
-5.188766996297829
-2.181976644684037
2.0736639599949083
5.1323453344256835
5.944135737791529
6.4913283361478324
7.881397955451187
8.602177597707604
8.436532251925183
7.281136575863417
5.171130682490296
3.4840406650265034
2.184927858910821
2.03235072474777
4.081757679482714
5.527795534573865
6.0045530281578685
8.13168800167444
9.24397746321907
7.696549179710245
7.007175434420005
6.435750990744106
4.109251995945046
3.2235793897457157
4.6095817999230855
3.940527189015695
-1.171340999695509
-5.909240956648181
-5.062928166889827
-2.413624880226061
-3.324916318934512
-5.9610288609063735
-6.16367858493022
-4.9181350989818355
-6.1132113401348915
-7.856689704047716
-8.551459227671147
-11.053045679228966
-11.269186303354921
-5.698138961267176
-0.4139448815394133
1.8843943647195425
5.646325686261086
13.702421311131337
20.632802795142457
18.510668197276633
10.765864467717888
8.173435554535178
12.798085845188712
14.026600831159966
4.344435093295699
-7.1629523804481225
-9.593970483602487
-6.252529625785538
-6.694273579779502
-10.640771954951669
-9.129919806557444
-4.242734823040392
-5.665763347392998
-9.705734018398848
-7.265012571181439
-1.604299216117065
-0.8835132886096237
-2.0464873418747964
0.5909529714400131
2.4872326956673474
1.0960434382005257
0.33933327389985124
1.9952977059570511
4.399709480898384
4.554363288649363
4.623075233219395
7.567266065448194
9.390828807532502
7.098319618526889
3.517342271721891
4.226814995497953
8.450666180954174
8.229659433243226
3.4461985470490584
-0.2869024589786745
-2.344152216243672
-4.44409202063886
-6.242950595869147
-5.970814628574129
-5.780658624850194
-8.088113950855291
-10.721017283351966
-11.900496585957724
-10.6967417445006
-8.742603262525773
-7.841105121716538
-6.583312810209078
-6.083166554201287
-4.5092264816177545
0.1437646100031534
2.777289152515177
4.12141359028508
6.940360237403909
7.826044323534507
7.526354467545731
9.783740996667127
13.453781781253554
13.041580222576808
7.386208808091423
1.257345639161098
-3.0292670556775043
-4.495398191920256
-7.263463280725608
-16.40772727295957
-21.84039760556623
-15.784536001422895
-8.974689240230752
-12.11389360927735
-21.134986853468234
-22.298792446530783
-12.223507245659475
-1.749873973721472
2.901611324293522
3.0488839545108557
2.6734708257079483
5.420673708088894
9.443430015872469
13.049226640712984
14.054792964846957
8.392526656579012
1.8112223816281379
1.146626411783056
1.3337200340545685
-1.5489398594466968
-4.2303659734447425
-4.714040724097588
-3.763891431359665
-2.1682376982792357
-1.64651632545132
-4.0726033171243206
-5.214304351647926
-1.8061931475216662
0.36638468623029735
1.621039918803141
6.856561358567494
11.095697473026217
12.467158148902769
13.690349920430732
10.53154538977455
3.7453098560114566
0.060785875014259284
-0.9242400318880868
-1.933852103772721
-1.5659441355599897
2.044370529664628
5.704450452944815
5.199117208989539
5.358040506865808
9.62817090848906
9.074347901113638
-0.10922475640738354
-6.331697702554631
-2.265169856919724
2.125215090590805
-0.8956752861235237
-4.106166951851421
-3.1683143382222942
-1.2636230429640096
-0.9237746686689299
-3.933785901530797
-5.600994155889706
-2.6664377507922734
-2.057841377899188
-4.463825124024388
-2.385753444704265
5.643496354479061
11.863861178528824
10.083723306953207
7.722938355964252
9.88210496430247
9.015456132932265
3.343087853811842
-2.5183736695880934
-5.036833055195036
-2.31896930746859
1.082102120473105
0.31596037445096914
-3.463495447635098
-5.963663003554635
-5.226743984593793
-5.407676355918183
-7.27918735639292
-6.366134488811005
-4.184845083054858
-4.234435707446357
-4.384727649116611
-2.4064509419041333
0.8457761433265975
4.205845383101521
4.8789069630024375
1.865210926768859
0.7664855518113326
3.683417218920211
4.504771073803183
-0.2968272409311575
-4.879809181808692
-1.8841224203625313
3.4608058344352517
2.930868885044029
0.5414943280037045
0.09302781979238367
0.8913163743377598
4.584489202621979
8.82631867869239
10.4790029130237
10.554136397889389
8.213551623040058
5.509830948274652
5.781510518918922
2.4456926889592356
-6.399533193962217
-7.9118376713060785
0.7679518841844519
5.132018206144132
-0.3026102658468124
-5.334820729180825
-4.60613512658612
-1.8536600706778752
-1.0745115122904978
-1.9843864452093192
1.995799882274996
7.748052636011159
4.387368187266836
-1.0334664882830766
-0.6160528557185322
-1.3453513235643697
-4.31025153607547
-4.251920911712768
-0.9491815889020344
1.5419363682969005
3.637514969263599
9.202604775609842
13.537861661482632
11.185422830963898
2.614716724983453
-7.628083349875603
-11.992118521088079
-12.831037153253764
-15.257643628000391
-16.236255534134955
-13.892951407917119
-7.439740905508266
-0.8205286283380099
-0.36384091594562273
-3.5978938643785154
-5.691584124667026
-3.300689223127305
-0.4942417160643685
-4.047896249825738
-4.480285638836798
3.2286629019224105
7.601295500637173
6.817277945650721
5.776854346114176
6.5403420448077805
10.527911438928498
10.729507150657176
5.26494644125433
3.8574342008935507
5.281229424981951
3.3359526907185106
-0.5890363159719683
-5.500197030543503
-7.3057529030918005
-4.137210155749195
-2.408111965626316
-2.744067609505774
-3.1134220429163384
-4.241014845516669
-3.224291172601908
-0.2870423608198138
0.9088290506814966
1.6198577304796369
3.9359174905384875
6.465420962717599
8.102698998976006
8.360589993175424
6.793536865559342
6.323837782294395
6.302731418362551
2.680757986000168
-0.1323754125620867
0.39489079145870415
0.696795499313228
1.4189027951116189
0.9848053065130704
-2.449634881401271
-5.848033340871133
-6.70145346386949
-4.929189232959752
-6.075911887565301
-9.478269481381979
-6.358757342352134
-1.6742351443686874
-2.9403366159775235
-6.56240101878176
-11.017227476519123
-15.632819594170261
-17.289214311570507
-14.903993495428521
-12.005967614529578
-10.8784092301696
-3.5947193003319553
9.415870468657872
15.731879250035556
15.76249423062624
14.035834023999197
10.823413486104426
9.554453228861327
6.846795455504846
0.48441019522335016
-3.5257295807154674
-7.657790911479253
-11.93725474635833
-8.313321954817434
-5.694929734243993
-10.97673869217192
-10.22184819287361
-6.05333409005247
-8.907097083758753
-9.580199239225296
-8.450944974278864
-8.474237137581984
1.4420222866250352
13.487936705306959
8.581319833428052
-6.442305985836449
-9.980207124612617
-4.417842905136192
-6.664180633703374
-8.501660005839138
0.5386928363320117
11.755258338596564
20.79599815816472
21.611792959697798
11.108772671100578
3.1879407417507997
3.763467662142594
4.544777319276355
2.11360760549169
2.622942996965005
7.915569674492836
9.653252432358027
7.057446369380419
4.577952382619375
-0.7151556866476961
-7.9480873252856865
-11.657950597317843
-13.781013177349429
-16.525235455869797
-12.771086898882858
-3.3902894623542963
-0.28262590385600833
-0.8901551113200457
1.8188225300742045
3.910171636754148
5.662932399833422
7.809269861929757
6.414084184906513
3.894270768324212
5.011239881123674
6.404795732830983
2.3641940165924655
-2.001759718460534
-1.26269176036257
-1.668904869653439
-6.869758186142685
-10.564190709682622
-6.54181185550428
-0.7720890582748282
-1.6713163991686784
-3.6043473318736075
-1.838839727448114
0.8670555056442577
1.437012774488968
-2.8912409851323115
-5.905301020892265
-1.3321308918688786
6.246130332654106
8.509719487550697
3.3704395999764722
0.3767708850260589
-1.1532546026274553
-8.947651245398385
-12.466964086630721
-8.813576183236922
-7.543564128413317
-5.0292597351617205
0.009433863279328549
-0.37123161635614316
-5.193138173604245
-7.393800837814566
-6.950055620306232
-6.031193315053227
-4.027886313145084
