AAD_Filtered_TADAS_FILE
AAD_BASELINE_CORRECTION: BASELINE REMOVED
AAD_FILTER_TYPE: BUTTERWORTH
AAD_FILTER_ORDER: 1
AAD_LOW_CUT_FREQUENCY_HZ: 0.025
AAD_HIGH_CUT_FREQUENCY_HZ: 40.0
EVENT_NAME: 202302060117
EVENT_ID: 13194
EVENT_DATE_YYYYMMDD: 2023/02/06
EVENT_TIME_HHMMSS: 01:17:32.00000
EVENT_LATITUDE_DEGREE: 37.288
EVENT_LONGITUDE_DEGREE: 37.043
EVENT_DEPTH_KM: 8.6
HYPOCENTER_REFERENCE: AFAD
MAGNITUDE_W: 7.7
MAGNITUDE_W_REFERENCE: AFAD
MAGNITUDE_L: 
MAGNITUDE_L_REFERENCE: 
FOCAL_MECHANISM: 
NETWORK: TK
STATION_CODE: 4414
STATION_NAME: 
STATION_LATITUDE_DEGREE: 38.406947
STATION_LONGITUDE_DEGREE: 38.754133
STATION_ELEVATION_M: 725.0
LOCATION: Kahramanmaras_Pazarck_Turkiye
SENSOR_DEPTH_M: 
VS30_M/S: None
SITE_CLASSIFICATION_EC8: unknown
MORPHOLOGIC_CLASSIFICATION: 
EPICENTRAL_DISTANCE_KM: 195.07
EARTHQUAKE_BACKAZIMUTH_DEGREE: 
DATE_TIME_FIRST_SAMPLE_YYYYMMDD_HHMMSS: 2023/02/06 01:17:45.6412470
DATE_TIME_FIRST_SAMPLE_PRECISION: millisecond
SAMPLING_INTERVAL_S: 0.005
NDATA: 10657
DURATION_S: 
STREAM: HNE
UNITS: cm/s^2
INSTRUMENT: sensor = GEO-A200,/GEObit | digitizer = 
INSTRUMENT_ANALOG/DIGITAL: 
INSTRUMENTAL_FREQUENCY_HZ: 
INSTRUMENTAL_DAMPING: 
FULL_SCALE_G: 
N_BIT_DIGITAL_CONVERTER: 
PGA_CM/S^2: 163.844
TIME_PGA_S: 
BASELINE_CORRECTION: BASELINE REMOVED
FILTER_TYPE: BUTTERWORTH
FILTER_ORDER: 
LOW_CUT_FREQUENCY_HZ: 
HIGH_CUT_FREQUENCY_HZ: 
LATE/NORMAL_TRIGGERED: 
DATABASE_VERSION: 
HEADER_FORMAT: DYNA 1.2
DATA_TYPE: Acceleration
PROCESSING: Automatic Paolucci et al., 2011
DATA_TIMESTAMP_YYYYMMDD_HHMMSS: 
DATA_LICENSE: U (unknown license)
DATA_CITATION: Turkish Accelerometric Archive v 1.0 - Disaster And Emergency Management Presidency, Earthquake Department
DATA_CREATOR: AFAD
ORIGINAL_DATA_MEDIATOR_CITATION: : AFAD - Disaster And Emergency Management Presidency
ORIGINAL_DATA_MEDIATOR: AFAD PROCESS SERVICE
ORIGINAL_DATA_CREATOR_CITATION: AFAD PROCESS SERVICE
ORIGINAL_DATA_CREATOR: network: TK
USER1: GuestUser
USER2: 
USER3: 
USER4: 
[...]
-42.34783938974017
-46.98005785193919
-49.64943091419205
-49.28716887332908
-45.565730121146295
-39.084561271778306
-30.465515183159823
-21.482235249170238
-14.17341758493842
-7.351850165576919
0.22284671270536438
7.786000233240355
15.454115189878973
23.202320541807417
29.79939678746356
34.89526688583747
38.349941242854804
39.798844980893335
39.50511182509
38.16989462697215
36.33723294997428
33.59367184354214
31.04407825585966
29.67184542236198
28.70738737262065
28.956073698113713
29.409376187985597
27.647346227505714
23.448398113305483
17.21190290286261
10.043823883115605
3.152156345260506
-2.250014750339834
-5.726417422688516
-8.49056993117115
-10.597535278787722
-12.18636132601678
-13.909550843104945
-14.914694492849405
-15.096639576558754
-14.061389538069006
-10.514948145603666
-4.711486188553024
1.998741089355062
7.702258837360352
10.792526729105669
10.805185730059032
8.386927647703267
5.457849985341667
4.842476127147976
7.341261605813606
10.963326284491124
14.684770615460152
17.797820805396167
18.78696576784281
17.9302118601619
16.104642131854067
13.147967987234386
8.9653479283158
3.182112511556827
-4.18497893972815
-12.396512887012278
-20.828580290297687
-27.656660364987754
-31.749419902361673
-33.741937415775496
-33.4023496192066
-30.86634586928609
-26.91570308961164
-22.27950087961728
-18.462106380359323
-16.301224985864238
-15.862693565834087
-16.42105440937599
-16.633076025923902
-15.671924113291428
-12.47373268282349
-7.70414245188676
-3.3053151382044925
0.7952211394145654
4.029150847571685
5.155846170451078
4.681937517475901
3.326644989565555
1.97229426458
1.8098392572323174
3.5144424308948796
7.133775416857537
12.418518901249966
17.90814901250807
21.812275403584188
24.527351675377012
25.941413327262755
25.794151883494994
25.229691491498375
24.709508596442134
24.818647622302944
25.727763716921622
27.61718993890144
30.99875599920255
35.19064825329075
39.538148578394235
42.90891148954581
43.907435798300966
42.180587305008636
38.0227240538299
32.589882517242216
27.196984678602973
22.444320680314355
18.374732548847163
15.548298348603396
14.668961797262627
15.09694523870703
15.96551410440914
16.565177372248655
17.057433838268548
18.376092609554277
19.652250989379855
20.509296022531714
21.37395265027514
21.387470683785796
21.056937966697646
20.531924805475906
18.855210510790624
16.834328688690352
14.179470499729451
9.96630335781248
4.473785636278472
-2.419508386343412
-10.317702181692976
-19.23151150448063
-29.120583640780055
-38.54317447249839
-46.60208620265467
-52.467672405156584
-54.98669360825748
-53.88417893878545
-49.89114174504817
-44.49896980205414
-39.0071786767426
-34.04251352755368
-30.135369468589452
-27.768528144585215
-27.5028873488585
-29.332868743416952
-32.563121238894745
-36.48350855928429
-39.20286559947199
-39.0137408490068
-36.554987842950815
-32.72112990617489
-27.55931330988015
-22.219763529193685
-17.776089397289326
-13.55945264730193
-9.432853412381238
-5.487944330443403
-0.8994109190732057
4.690682373286083
11.051592317737885
17.773059268769504
24.20183852971946
29.347239456544603
32.404598980267295
33.46524975715219
33.10079355407393
31.99468538258067
31.326066159545324
32.362620658365955
35.15259163568016
38.62870173404426
41.50793144481612
42.54774408309876
42.01468073036383
40.9346589733572
39.39631216053029
38.70711500688771
38.84010679504872
36.70904093741834
31.702372806833253
25.454746465410977
19.765283567913166
16.97005556445572
17.782179592621087
21.531437235041828
26.754721154553017
31.180515648172346
34.01209215039945
35.19494454842899
34.25623307865666
30.89311595585349
25.167860994618167
17.698081217147514
9.10002135927156
0.512984072895624
-6.962475461059731
-12.682630960448563
-16.649791763313264
-19.240183579670916
-20.132570002428903
-20.62934316846028
-21.86450474698948
-23.74811007374451
-26.611842651108834
-29.246296008548967
-30.57234347640953
-30.48592878890911
-29.44195376081212
-28.585365857306048
-28.23178418819981
-28.80974494333353
-30.136580627056613
-31.22202699250885
-32.218481189843054
-33.27487552344812
-34.10846554107166
-34.63894262226206
-34.32153916045501
-32.37788960076712
-29.020164723697288
-25.042840238499984
-20.90261061565308
-17.6514244935174
-16.06070984091554
-15.680606222496737
-16.195259259061977
-16.897000171694145
-16.68228749744994
-14.793210978940373
-11.608687485684026
-8.667706837884523
-6.045062764624311
-3.424605868001291
-1.0177113618657652
1.69912574247886
4.802897238909853
8.582208287980016
12.995940854251604
17.527605710554457
22.913679845018816
28.639643422363033
33.81553324158584
38.693692175578384
42.26292860801742
44.39724838874935
45.84935529735505
46.75978085501583
47.87745852411255
49.1399469440314
50.30786749860019
50.89074973828648
49.54325389792844
46.34860662602494
41.76320893673567
35.89510399233778
29.823666889287214
25.05812248657684
22.07386511511607
20.12524480215091
19.38799142598751
20.82408233934146
23.777757492466044
27.019506268914736
29.778932846451607
30.590717669403457
28.099945972120846
22.746175446954556
16.26784866572737
10.03689239374803
5.388007340688165
2.554766693640693
0.2281188104019074
-1.333532215730595
-2.328220276075012
-3.4440898414100225
-3.567724859911785
-2.808679929586346
-1.603773477204355
-0.26835371549177356
0.07773335617158006
-0.5198139953895371
-1.476140705227581
-2.185777332762422
-2.8483627136823397
-4.754076500336795
-8.070975166937437
-12.776305341331534
-19.243424229774163
-25.80093514672979
-30.01289421032591
-31.42679829445056
-30.41682972666293
-27.140265236655846
-22.344275974192332
-17.698068225010363
-14.498683828114398
-11.449542893614403
-7.785384665369219
-5.171403764423403
-3.5079863331993595
-2.511663864568237
-2.956435932231961
-4.340516434631097
-5.6689164652797785
-6.089014336177338
-5.642354253191786
-4.610661528346754
-3.0622946528921995
-1.3774459401132257
1.001802709685486
4.354034982727054
7.635189795882193
10.190232387817225
11.557249528887484
11.082927667040996
9.240768439777508
7.4298541920799215
6.671323897883984
7.2138591139092565
8.738448490280687
10.625474371645002
11.893116002552059
12.2560445997105
12.21095712628899
11.513157045202624
10.34580435109817
9.22041881719301
7.883343396864516
6.640930770610727
5.883006354881138
5.552411446322067
5.614164011865782
5.393856487544408
3.904610194090078
0.6778749820789713
-4.3323241371143695
-10.731526559764221
-17.337343743165523
-22.81030159003117
-26.825321856760908
-29.380177938234052
-30.70586043213102
-31.834187193066157
-32.87535487764531
-33.30741738834151
-33.26105490892901
-32.81015728119414
-32.40641640709212
-32.39409225825034
-32.39476157113404
-32.448839236518765
-32.554290973958494
-32.787494817035665
-33.78903163856687
-36.254285066960314
-40.33311206586671
-45.02053327201849
-49.223457424570476
-51.58651532985443
-51.003860279023435
-47.96795210977013
-43.43967193556282
-38.70141405359361
-34.31822006638291
-29.79397269662195
-25.078370812763733
-20.379099110947013
-15.593522209072347
-10.274010691000335
-5.037982808696713
-0.38753459394625456
4.214256938320315
7.773718090200369
9.467242904781132
10.330515138281527
11.154056821514647
11.678006388600679
11.974140885073943
12.741802734759467
13.767174519739434
14.626743952485354
15.675843032923071
16.962917210917116
18.26833087880408
19.843123586470245
21.889799534354594
24.102899261885735
26.035059765018516
27.538538160254852
28.273976388991844
28.236073968304353
27.509974050855288
25.52201871148284
22.72016649825962
19.02468043961153
14.966535043948742
12.38144758267105
11.546422237331207
13.377583547506575
17.874168075372495
23.82510073779171
29.948883462478165
34.23862026308655
36.38020606370043
36.361254781920046
34.32156785758623
30.91469474354759
26.681423546119134
22.12413628081954
17.01759661466165
11.422781068770337
5.398087557537961
-0.6636193027457119
-6.365057841961399
-11.491299377959328
-15.703051370698137
-19.25439716635849
-21.450010240188096
-21.787457088484555
-20.682373979053835
-18.48064430810105
-15.469759268925324
-11.444531296310357
-6.987411130230628
-2.8169547283211678
0.6047586029326881
2.329939603973591
1.9370502496930515
-1.0553779729099237
-6.473047608400005
-13.12924374068287
-20.07968828066065
-26.144521423514153
-30.584150170361795
-32.31911429727029
-30.043159119834474
-24.30044633353029
-15.906156430531178
-5.896176582723906
3.812860709611475
11.189606798306837
14.74298881926533
13.935217560908683
8.651122504773785
0.05475961314120403
-9.265400239017168
-16.315314085491497
-19.739435884903074
-19.720761501506537
-16.317331623339562
-10.746359138975357
-4.463170755261149
1.325921966563532
5.213767521843164
7.555026301159674
9.306416539555231
10.898877276946163
13.234260874074394
16.66881122966206
20.767325473062062
24.147893963652127
26.10313586438729
27.022616726373062
26.4663500618725
25.369542881008787
24.119621326426042
22.332416112462735
21.123828537549873
21.22977248609887
23.763033081237857
29.33775560448638
37.51367181660719
46.069628385621634
52.32403300604966
56.503919275904124
58.03032763911008
55.55721554221904
50.384965474448386
44.660153722753364
38.873354391972434
33.31806228444335
29.53935059711278
27.06796697672927
24.074522216963963
20.781717232332117
17.778398802169246
14.00018343461914
9.868197138704073
7.349285382376435
5.600642920787302
3.404418186829349
1.2080441285256942
-1.0341872245230648
-4.390782147754269
-8.916609679326505
-13.59070545364407
-19.45644822254246
-26.66138578989682
-34.10221846681581
-41.65582278702349
-47.98016686402422
-52.46120429990706
-55.27937545387623
-56.60326635201071
-56.87113622919353
-56.04977231682254
-55.27642881962589
-54.52559935182821
-53.33592136142473
-52.37045782871124
-50.85697951777816
-48.90538566678509
-46.59719711739509
-43.69044253415892
-40.939599010679444
-37.56553135550153
-34.302070588250004
-32.343156194633494
-30.524702227567644
-28.911161711402475
-27.119820503793132
-24.07399013645689
-19.85238463999577
-15.003909794688425
-10.703054177595144
-7.141067144153535
-4.3776849441281245
-2.212657335490889
0.7551038427157973
4.731164126721073
9.259855588026962
14.34164368084323
19.387233792712834
23.704323890133555
28.246878098697
33.92491102997724
40.41962540416822
48.15276168300257
56.908867665342896
65.07570384506788
71.86046831844439
77.13956924180476
80.56427404740064
81.76231275913474
80.74413943214742
77.9147206770802
73.84251635507809
69.51063746649466
65.58334620151929
62.08465110083664
58.89904905816338
55.52697514126174
51.407532475747054
46.07111650205698
40.09981726434619
34.89808613021235
30.971543875202137
28.29105490810372
26.26617573725013
23.97306709118159
20.209669870485296
14.367679247405864
6.890103403964831
-1.7279851364618581
-10.357549938296126
-18.55543922358169
-25.86902010063747
-31.566913524394476
-35.770073568004356
-38.64071571828609
-40.97526634381101
-43.23757598033058
-45.970560534394636
-49.59591454724169
-53.62610872626523
-57.8743152087838
-61.61981667836583
-64.3316496000995
-66.61130977733809
-69.00057793437593
-71.4900292092452
-74.52671428710099
-78.53331043177039
-82.17265852172628
-84.24856409099057
-85.012758397014
-84.45717509823473
-82.3141709119866
-78.75362331097752
-74.97489057212292
-71.99792529955091
-68.82537777706618
-64.74892259839335
-59.711143172270766
-53.25680601355194
-45.69606031989122
-37.69665114460518
-30.1647879801596
-23.526000838346818
-17.489683173223067
-12.130276855081553
-7.21388577578493
-2.6906033070046567
1.0955017760680963
4.5356501123976996
8.09669874532038
12.083235965255726
17.043057354601657
23.297943057640346
30.967601812517767
39.865460221005065
49.696568080277906
60.00054135161516
69.96699828093922
78.93492268627283
85.32014050729592
88.43518650636085
89.39082806577657
88.53574927478326
86.71349441536798
84.7133598038604
82.87643242011525
82.19228906863559
82.65907211560098
84.02658230687018
86.199915979639
88.61512782870052
90.3493785304831
90.32679564589024
88.37259298322867
84.94708675647442
79.85341431117592
72.6334648953634
64.43900334166828
55.990853591254194
47.03331960900419
38.845254171071225
31.83101252994875
25.740631924338132
20.45399716725909
15.164291914980058
9.908573157686746
4.471704683761359
-1.0563673099281154
-6.159345577577388
-10.965843035408794
-15.582511194463342
-20.467665191257733
-25.66300463659026
-31.033657241574062
-36.53610442791797
-42.08953056426331
-47.61434575551051
-52.40140533892332
-56.537144684066924
-60.70326916432643
-64.85720616883681
-69.19394027103887
-73.79180350231032
-77.36240235769978
-78.62220691483918
-76.7593404597334
-71.2144365105023
-62.54330169063272
-51.63731326370469
-40.706290023194306
-32.22508561022852
-26.482872341209614
-23.651050612722926
-23.368498072933225
-24.296574184632114
-25.35932953434761
-25.199200813431034
-22.978120500909107
-18.752672526861033
-13.198269405614388
-7.335283021540942
-1.5307191657896615
3.799002120610552
7.973255121673514
11.467151766344761
14.859454089412221
18.01304899831849
20.97212709002738
24.25785412170623
28.243131618331706
31.88967395783459
34.618628381370044
36.50298148128999
36.657073452277885
35.248980478101366
32.66641837103608
28.57081954871661
23.69994346852645
19.047003139456653
15.122612734302994
12.957710294706283
13.357205238427964
15.463907312343517
17.3553232396591
17.043901893378894
14.068250992293507
8.817054908945837
0.6381499765399963
-9.317330163358639
-19.151559151809288
-28.4662244191574
-35.670445724007
-40.33314745561675
-43.43050263776335
-44.52324850781945
-44.042654090445275
-42.87475712275422
-41.422746963744686
-39.59963293767509
-37.02224019417096
-34.8359546984366
-32.81570905151747
-30.518182322156907
-29.577048321477843
-29.1061056185871
-28.18710794764585
-27.807638672877143
-26.430404216013795
-23.46641518331676
-21.14626445268885
-19.07454184680422
-16.29950829176805
-13.196200125539994
-8.774738036328085
-2.3267241547734754
5.789717654265276
14.72890139936329
23.993105862864592
32.65917845411027
39.84688727417539
45.782211329226946
49.88264943392058
52.20035779888798
52.777672529602036
51.44483688039747
48.840853688869196
44.664733117835006
39.678946987367866
35.9139981705419
33.77376467987837
33.03320468835909
33.57775504353775
33.61575819394018
31.83125237328991
28.852136465184984
24.635030329856974
20.12934098722722
17.668266440654723
17.28725387715534
18.869058111145286
22.367436567205083
25.624572277164376
27.694927109319295
28.429838761553064
26.817457375013714
22.71451965054703
16.626299430359023
8.96198798551681
0.793936915079532
-7.25874971737127
-14.485200287523401
-19.761577979837497
-24.084318629396826
-27.587310088654597
-30.237790873848883
-33.10847989137707
-36.541881545757896
-40.850972845232604
-44.78390262417991
-47.88578287683837
-50.440696176047865
-52.049065112724875
-53.31940934899598
-54.60912916850085
-55.692568350203715
-55.642475712763876
-53.962675983840505
-50.54037165522296
-46.094762084528995
-43.03878991244321
-41.104149762024484
-39.32886219009258
-38.2859169793721
-36.308358044261304
-33.003496980045924
-29.287816540874815
-24.359735845300634
-18.50386754407857
-12.090310167990445
-5.522763706036742
-0.21073426577129672
3.232545175138835
5.672568978523017
7.4821728132650165
8.11509736849926
8.323186733546237
8.150736721697578
7.472955190941764
7.5898335268935675
9.233361463095637
12.230457490417884
16.443261842700018
21.86690906759805
27.232643296059855
31.605288119651114
35.62240208451279
39.397419403377356
41.8666023821937
42.33031810903028
41.30359205749614
38.37409768555194
32.601487724705954
25.187183598716576
16.92617832727415
7.815188596424186
-0.5546546849617614
-7.062685481145678
-11.307130561784263
-13.499802276348914
-13.985673594896015
-13.128189141303585
-12.647803703164492
-12.272969496489658
-11.359878595394203
-10.93540034510638
-10.383663530596674
-10.25290541845666
-12.10025862685619
-15.083185777722278
-18.279014020863322
-21.211263696166526
-23.484159275294633
-24.984993067227023
-26.417123988301018
-28.966796564340342
-31.511216265604205
-33.187525675637374
-34.11500369976854
-32.7804960743063
-28.934118595350952
-23.808217513929144
-17.553145971153636
-11.3244146322029
-8.026727465340965
-9.078672189800228
-14.36486929655386
-23.54366658165171
-35.41302656094004
-47.20319468095582
-57.09666798295419
-65.56852614451122
-71.80646973078026
-74.62562752238588
-73.22180041811957
-67.5867358063704
-58.85883512326356
-46.24437452623624
-31.282510881437876
-16.618333887580587
-1.540992425610328
12.70027137510976
23.92864609148642
32.153439819726216
37.62669794854895
40.46630540218088
40.99996879123357
41.29691943520758
42.77716823314738
43.52253520361733
44.02458135752645
46.29770562079686
48.398667871895086
49.99800626174705
53.41478750067412
57.57457741199687
60.74364461618001
63.967055214248425
67.77933753530415
70.90650247981948
72.956791669272
74.81596879406416
76.44244745907906
77.41436486703677
77.96680437774405
78.17884438042198
78.21989661344136
78.08447371753631
77.40271662242611
76.27202786353472
75.38439184863651
75.36377338698382
76.30258548127343
77.90633928770332
79.40732798808043
80.06385764025576
79.73057577558495
78.58602502842803
76.20928280820107
71.83786534961139
65.35800831868663
56.442092879957585
45.01727974783359
32.18077058351763
18.992914846374386
6.200192224856153
-5.993218409162405
-17.540572843195122
-27.862914107390708
-37.507225542853355
-46.81364218888902
-55.36104456874141
-64.06233702062555
-73.53198386795289
-83.50149686981149
-93.50445399113362
-103.67782139689601
-114.26601316121258
-124.04337171181479
-132.4663650832979
-139.8263290922975
-145.72282076896778
-150.09713026259573
-153.76508029912728
-157.45078605401264
-160.4817941554588
-162.1142039708724
-162.803676889911
-162.59293754103763
-161.5106906408286
-159.91374322054853
-157.3796642367558
-153.6869068581405
-149.02013368766887
-143.08709446418786
-135.71730394653832
-126.74463680758222
-115.59860112482548
-102.46082088926815
-87.92604328379758
-73.03309587869438
-59.196948042849215
-46.95181640447854
-36.723650785267566
-28.275610580859087
-20.506165321342746
-12.090957492222936
-1.8845867188463719
10.121428027083049
23.501580478671563
