AAD_Filtered_TADAS_FILE
AAD_BASELINE_CORRECTION: BASELINE REMOVED
AAD_FILTER_TYPE: BUTTERWORTH
AAD_FILTER_ORDER: 1
AAD_LOW_CUT_FREQUENCY_HZ: 0.025
AAD_HIGH_CUT_FREQUENCY_HZ: 40.0
EVENT_NAME: 202302060117
EVENT_ID: 13194
EVENT_DATE_YYYYMMDD: 2023/02/06
EVENT_TIME_HHMMSS: 01:17:32.00000
EVENT_LATITUDE_DEGREE: 37.288
EVENT_LONGITUDE_DEGREE: 37.043
EVENT_DEPTH_KM: 8.6
HYPOCENTER_REFERENCE: AFAD
MAGNITUDE_W: 7.7
MAGNITUDE_W_REFERENCE: AFAD
MAGNITUDE_L: 
MAGNITUDE_L_REFERENCE: 
FOCAL_MECHANISM: 
NETWORK: TK
STATION_CODE: 4613
STATION_NAME: 
STATION_LATITUDE_DEGREE: 37.5701
STATION_LONGITUDE_DEGREE: 36.35737
STATION_ELEVATION_M: 965.0
LOCATION: Kahramanmaras_Pazarck_Turkiye
SENSOR_DEPTH_M: 
VS30_M/S: None
SITE_CLASSIFICATION_EC8: unknown
MORPHOLOGIC_CLASSIFICATION: 
EPICENTRAL_DISTANCE_KM: 68.19
EARTHQUAKE_BACKAZIMUTH_DEGREE: 
DATE_TIME_FIRST_SAMPLE_YYYYMMDD_HHMMSS: 2023/02/06 01:17:18.8412820
DATE_TIME_FIRST_SAMPLE_PRECISION: millisecond
SAMPLING_INTERVAL_S: 0.01
NDATA: 10501
DURATION_S: 
STREAM: HNN
UNITS: cm/s^2
INSTRUMENT: sensor = GMS+/GEOSIG | digitizer = 
INSTRUMENT_ANALOG/DIGITAL: 
INSTRUMENTAL_FREQUENCY_HZ: 
INSTRUMENTAL_DAMPING: 
FULL_SCALE_G: 
N_BIT_DIGITAL_CONVERTER: 
PGA_CM/S^2: 146.934
TIME_PGA_S: 
BASELINE_CORRECTION: BASELINE REMOVED
FILTER_TYPE: BUTTERWORTH
FILTER_ORDER: 
LOW_CUT_FREQUENCY_HZ: 
HIGH_CUT_FREQUENCY_HZ: 
LATE/NORMAL_TRIGGERED: 
DATABASE_VERSION: 
HEADER_FORMAT: DYNA 1.2
DATA_TYPE: Acceleration
PROCESSING: Automatic Paolucci et al., 2011
DATA_TIMESTAMP_YYYYMMDD_HHMMSS: 
DATA_LICENSE: U (unknown license)
DATA_CITATION: Turkish Accelerometric Archive v 1.0 - Disaster And Emergency Management Presidency, Earthquake Department
DATA_CREATOR: AFAD
ORIGINAL_DATA_MEDIATOR_CITATION: : AFAD - Disaster And Emergency Management Presidency
ORIGINAL_DATA_MEDIATOR: AFAD PROCESS SERVICE
ORIGINAL_DATA_CREATOR_CITATION: AFAD PROCESS SERVICE
ORIGINAL_DATA_CREATOR: network: TK
USER1: GuestUser
USER2: 
USER3: 
USER4: 
[...]
31.414287493954813
1.0936950201012936
-18.132003506784223
-30.465218406679696
-46.51488787238857
-47.78089557600567
-33.28077784882801
-24.984035732020445
-20.965113157474487
-3.9962383940815487
10.121378553690445
-2.5861336405549302
-18.191381052989417
-19.48052837906555
-19.892470097719
-26.603859686576406
-22.23768548877313
7.37468419295997
37.648299116461246
61.03746616201912
79.98033093085796
62.35217066705268
9.62820793029269
-37.326299821240774
-55.42751469466932
-42.27890507601911
-20.82326481290011
-9.542697444239764
-0.38423680101686586
8.771874161754534
7.913044873435658
-0.08769095852203096
-2.7184116347360003
-5.523460788761511
-2.3543839953874515
20.67408349233776
44.30849659004168
48.34461964171328
37.46077369683981
29.670448198565207
32.66852166065598
26.26272853943998
-7.032818975414536
-51.61234611410215
-71.81306030873489
-49.104534807505885
-8.084150055650971
32.47078536534741
54.77135736732573
26.86000038882583
-17.176462084616443
-40.637344566576346
-51.672412118420446
-39.36968775696636
-9.614204744835744
23.325114988914624
58.3011924710094
71.26157998415336
55.87287939244727
39.37861397591626
31.93240918924621
22.096464510307634
8.234141645534402
-6.442111774440487
-26.687604437513645
-34.0255990969455
-21.318269638451888
-17.440959603327997
-19.924107319622216
-10.496145027183099
1.3277836869212458
0.15230285328081566
-10.533574875193887
-22.139381762523062
-30.96624477088611
-29.45908045304798
-27.94791242781254
-32.64722193629344
-26.590938835709593
-10.456117298063077
-2.867655514702582
-11.072754207465945
-25.688743274757194
-36.83240031593917
-39.73473465494921
-40.7783811002047
-51.73798574643651
-56.608951265582164
-40.3722174871219
-23.89040043394398
-22.02246660203774
-25.20909094951658
-20.733425813807784
-7.436808230746088
2.2301013445986815
3.783892901092714
7.632531351163731
17.0252024710525
21.640040757769935
11.88850585095774
-4.98427416324087
-9.212238984774661
-2.01578068674715
5.194893594538647
18.77400999784773
30.839301252920258
19.04642466397819
-6.0984075247616465
-12.758885297073983
-1.4038414311529508
2.9526995931416327
-1.1587663600536358
9.654100477384137
37.33048092846101
46.65404542038738
18.674155545294518
-17.669538568298773
-31.56844493536159
-40.73159736280822
-67.98138700105909
-91.29790501074098
-83.46129639501713
-41.64272097144359
5.677310443270384
25.05938111338795
28.875577285299062
37.55646194513215
38.147200134295595
30.229343884340587
36.20684668753221
46.41774106998728
41.175651653319946
34.965388180988455
30.08708135011182
16.500456714431188
8.752737332612854
23.565762588308594
51.28986118542025
57.903704800865675
34.749849460252165
5.598302086939728
-8.070037096664734
-2.0836520024154375
0.8784703351262809
0.37224644006511187
8.518695959983159
6.415010306750821
-5.669579017927099
-11.115506120746842
-5.290949223558631
2.1537306708166843
-9.395692332515665
-24.986514510776637
-11.445020196566642
26.445288572945586
55.33294348702088
56.45770584284334
42.94326254277883
22.477379083278983
-4.948180985344901
-24.124659080645138
-26.837922013889994
-14.050681739459568
7.104676083773713
28.05237116778607
52.39357180029403
73.20028937613792
65.53335186407878
24.48136986121024
-16.502339253966326
-36.79425012794462
-45.27537934218672
-43.44496879026061
-27.414016846421298
5.374140928096267
40.91989543148921
49.1409550294818
23.164183588814684
-6.264052052606236
-12.397991397752934
-14.024006744878816
-22.259755536156327
-13.63752015843027
1.6019841116774884
-2.2476590939941787
-4.040324508288738
9.081544796970284
13.070801058536503
11.188458486040567
16.422492311019344
20.23415183564633
22.92027923211766
18.565640510544338
-10.125154497743727
-44.87423547555981
-44.73552299925639
-23.4203469385525
-15.983629884803715
-11.708568387773775
-10.56411889276678
-13.020661430487474
0.1262265907300157
16.232553905245815
19.010250897148993
12.22947776117723
-0.6624101783409773
-18.689947171455948
-14.909689412193645
25.02355334789809
48.88408976914732
33.02495589405965
17.712836803090973
22.370870008823033
24.31331564026274
-1.0035286652397077
-36.893973704858396
-32.9057701906281
13.715896175001422
45.45269289196748
46.73572158758593
37.06293798109354
26.16363291381871
24.92708454205882
23.828643789102948
14.673532458776087
-1.5921781982651526
-17.198981945733287
-14.511040461398267
1.7223749285189143
21.75225582413252
41.09660075126112
44.52502438905594
26.366015482663148
5.276318944970338
-4.782931791514115
-2.9056760845410086
6.892204166171075
8.093445224947464
4.770460373614198
11.701630098917692
18.376540834733895
14.532766884425596
3.1635532696840887
-2.6645578120581863
4.075347840108868
19.288439859275883
30.089148092825965
16.051491338364848
-3.553009352657265
-2.6528343339508695
4.125279902997831
5.164696878047651
-2.1566429881342133
-10.917045116514917
-16.580705055299266
-25.236853891376164
-18.370166760036934
7.198754160060731
17.12644125988289
8.66659087899929
0.267689394417696
-13.490924614401578
-27.019855445955255
-29.89786798225575
-26.584147025283663
-18.52358472372506
-8.124276189184744
-0.3101052233194302
0.5425142540660899
0.8972568297213195
0.15533612182326034
-4.833998436169497
-6.198098029760542
-21.240119996217043
-47.78034086940291
-60.62591548275115
-62.353611048292656
-46.76222227437347
-12.6164500582685
12.118416365789402
10.946446048947108
4.342536565933345
10.239683424327835
12.89213829733234
11.373204853396725
17.799219867277582
20.0366671436378
5.441776694466746
-9.676090884721228
-3.819495153478724
18.294432445066615
44.19158177368512
58.66017387798733
53.11483795400665
43.79776122137844
32.49312873677818
13.790066654640134
1.6136718708495046
-9.31173266433132
-20.743178354287302
-16.599836527121766
-5.5451971488771
1.9058937416003534
7.086032601428347
5.397769527151302
-3.518143610987103
-13.522909343433753
-22.15102372749454
-20.084167335699995
6.6565224493007795
44.36898510820524
62.2387932709569
53.648840381109835
37.50964209160183
28.801039861764227
27.50791721218394
26.063575774130634
24.38410340401338
33.01443788443641
43.62530509011932
36.19906847005745
7.263714119622142
-28.74907022731587
-41.94649595697626
-30.140738332548533
-29.00480974892888
-41.26725867733638
-33.342554353147214
-3.966014454457043
9.570518610387719
-1.2100091791322387
-6.566699987465687
-0.5498586217877398
0.04662575068827943
-5.35876312220482
-1.8054516998455497
12.393433112614707
10.800432135063183
-11.041999537318626
-12.53183466889508
14.768799615021983
30.785328132822386
13.874726742948303
-17.462954547936686
-31.81413689914258
-25.36034834014656
-6.771363492942141
18.94042927638092
43.238975582249864
66.6601379950014
70.38219586262548
49.788325068139656
33.86507297270164
23.003268020135938
15.183882482963682
20.589927820061252
41.913474477334944
73.46425423159128
93.47275027921725
90.97878223139243
74.16609011062188
51.073643492456235
20.758469448313072
-16.706976175395646
-46.3866999044394
-52.29079165735379
-38.09546671706491
-26.60100868720375
-27.54548733614863
-31.515212775972998
-29.10631060398401
-17.993494642445732
-15.526278840086627
-20.30996432705586
-14.908544934267365
-18.305211589491574
-27.860305350933604
-24.33334688787272
-36.977532589338296
-68.74745848073471
-77.23779266497588
-59.410579705389196
-41.749957540364036
-35.43008784883149
-36.795213023892344
-28.66819351218861
-8.298897559920135
1.6796897787985927
3.861004224352609
12.888073034978543
14.356777306108816
-0.2481185716794014
-16.95388110161977
-20.77541619536688
-7.708555035995483
7.035728822236832
1.6753467704218716
-17.060464171225494
-13.934908305217663
20.516756429280132
48.679160362693594
31.435599548662385
-19.02751480802557
-51.53815655031034
-48.81548060330186
-31.161180280825892
-7.903085046071802
12.356099427691856
21.60716655688663
25.50705837251836
25.20483064896256
20.35711391550742
5.695846979479925
-21.85932869572813
-40.70330905326958
-38.65661761539966
-26.464666621962376
-12.105655590909407
-1.445925443683512
10.027385325825257
25.9277641197222
36.26525704088584
39.29557741779131
30.695147597099318
16.366162325539115
19.053411070098267
34.20816102317465
36.04739134977742
8.482380784089504
-23.933314432669864
-17.208938628679196
22.637217724843442
59.86028354303572
75.17467317985363
62.525138667495526
35.63637802502889
8.069941223623436
-31.461770067128548
-72.66767549278742
-86.68240231985408
-71.61640397522346
-41.24036208995877
-16.661192471867892
-9.574270405503023
-2.235900021165453
16.203662211759386
10.837838499273346
-29.097070984401928
-55.01068942752331
-57.500496549060585
-67.91252156754622
-88.06101463996079
-89.80827269358512
-60.61100402930207
-29.47237962099328
-25.385548901815262
-44.620073769301655
-60.69048182337614
-54.76072872038008
-32.170805242630934
0.7047651315071877
35.83604099465873
48.28267779444695
34.35925201826958
18.66013194299653
7.350070154249978
0.5514610931575544
2.8383523410689926
6.476698082267006
12.39070164096365
21.682840163298152
24.32473040525386
23.385787674167407
24.968365478142854
25.129516499940603
15.375838431803487
-3.466012505623247
-18.132549095353063
-27.51342405772022
-25.87358486173073
-12.042968581188342
-9.310039894112862
-19.492870266514508
-31.805659040127537
-36.59962511081486
-35.911857663655006
-48.3266008957142
-55.99287770556276
-40.640082709377836
-16.478517141587545
-1.3013230340448085
-6.199052752324961
-18.06294969296821
-25.062418209396004
-26.789804022162645
-13.245544311670901
12.099966970534648
23.509616678558192
14.64701090509028
18.167401595477017
43.593900585317115
53.91392283975984
29.64678548820472
-14.336003593745613
-48.58067509648838
-53.99148468936821
-38.84444859153436
-10.129495606277759
24.37570868542969
45.329745370451946
47.26337021179229
41.12055232355098
43.66904998548105
49.87317852139258
35.48907320607459
7.133550381114227
-18.192042590601847
-36.80366538255016
-40.08840574356043
-23.54519107301075
0.3364905103958077
-2.7113755834590267
-44.98578795670616
-86.4928228796422
-88.27499278071102
-62.200322561741864
-48.53089543866811
-40.74348829512145
-14.976482011430207
3.940322859430738
1.1799790233198935
-10.15072385853342
-18.472083043441398
-15.678831538153359
-11.680010285705794
-17.316347854555104
-23.878545915572747
-10.694954711505671
21.583165199023806
39.394221610669746
26.496807451565573
7.8099106059164525
5.531625201143527
8.590211237305388
4.256274418828484
-8.555704278992389
-21.730314120866964
-21.1094439907536
-21.435102061075884
-30.088456010806116
-18.229268714122643
7.106012743548076
19.39990848298528
26.149910116723053
29.511257800409638
24.29426692747165
19.795114408618748
22.854009849673957
17.824436209347777
-20.360038017299505
-75.12285532660789
-101.97368904725604
-88.66653612244772
-55.0945574439705
-22.96940666738565
2.7215494822124757
21.095672393538848
18.040244955349976
-0.4109380981088006
-12.259524077655776
-11.37143395843104
-3.8736839012275213
-11.997939596966127
-23.85215695021781
-11.521509874045913
-0.6761459693676266
5.911707656558565
27.6553873705974
38.80075192691673
18.739489871447812
-14.36366099040731
-27.95761917881634
-9.875494205011195
18.44929884769032
23.92029497541687
4.015875641935152
-12.54998845339201
-12.4072502890404
-5.668150815293026
-3.7602085134473566
1.5875421913380847
19.593947977137756
36.722450771536685
41.581001551464695
40.5388094647326
34.094036054197396
14.169549495469766
-5.449710465592265
-7.963060492682202
5.049858806441836
18.82733443487829
8.514829962685226
-18.670038759220443
-29.727709648723344
-23.690350231326462
-18.975381764947137
-22.899732513576673
-19.44159766507814
3.8334467473809
17.555669155314316
7.093821402654887
-9.873875359907663
-21.19771363919611
-27.692213405815494
-39.96222043567359
-46.41523801233286
-43.35750200178964
-41.56424440259821
-22.599037668665993
9.990847731983783
30.419211721670877
37.94299583303011
31.41572138272619
10.069831700264928
-10.276981395875328
-13.219484389207954
-1.170480184475583
6.1509528003168725
8.893109442065409
21.233531280582593
37.11998035055751
37.86426773120655
11.221302491247231
-23.687317110096522
-30.55919208777612
-10.5461867165928
3.4176953765441174
-3.3639475395300367
-23.853225560599114
-46.22167677340604
-51.07006436325404
-31.33229204842899
-4.505140322155129
15.781206229056728
22.177126355435792
13.444415025814067
17.284064472241166
44.8535147621122
63.23896585295376
63.45051297663703
64.97358791425738
66.92567888651293
57.580743282791055
41.081406218768265
32.83413446662833
28.994616158813155
18.262191631920114
5.764580975567764
-9.799678794681302
-23.26379700139925
-28.281153389911267
-32.774454513296455
-32.12482229996971
-37.192374314960944
-69.71490365219042
-116.04727541396755
-143.67844718699308
-138.87430772237371
-115.13621156299236
-87.59347225417129
-58.11193941709127
-26.068296828081113
-1.176550822665728
10.662455354947728
15.249403614021553
12.518540490964217
5.18516479818968
2.4241705353819274
19.180636246961264
60.581557665542995
89.4244357433151
81.47895205980537
67.70873289585712
66.71881020019943
61.01871480603912
46.88949180845731
39.50359809694939
35.79176433026899
29.050604083993704
35.03128396934425
63.27286819119439
87.54727368918309
72.42428984364052
36.63048056703186
16.307844231727792
5.340376088728095
5.794510780934252
25.150355622329737
45.98680485834076
52.270423720846495
38.78128590776267
16.923612830039264
-7.850659225706565
-42.127853983328095
-64.39466246381271
-62.86497722625832
-53.05662970265073
-22.16520188633268
29.282413884936513
62.202505471979386
53.04343031543835
11.376574406658337
-23.29325754135646
-31.756225858078526
-34.31449313968878
-43.82713790365652
-47.698091608700366
-30.197631038271364
-5.436986365640125
4.502589755002576
3.3896735580927286
12.697257599952252
28.379701367966835
21.656175509057707
2.1786055046470003
-6.380903452611902
-3.0098734788431076
3.1852101879934387
8.207311175883541
31.024525826651203
56.45822339561687
48.63953102163343
29.29774799335634
23.292348860147936
19.153595788812794
6.512902616163621
-2.881704941034064
13.682807967220262
46.255834712634766
59.17501321871153
54.45303016242383
51.74969908983393
27.757360250387467
-23.127495930321118
-60.62267755754911
-75.66207793886848
-76.9955859820734
-56.45879845650539
-7.46669828188567
48.79581778144034
69.26096151334633
55.067083711170945
27.505574764424843
2.007508757142619
-3.116108436672927
-7.149673497666349
-14.339624183771917
-15.727912278160181
-13.604474860790521
5.625402403852755
22.50575971037904
15.591774927196152
0.3661217886546171
-13.401657777205152
-23.221994489138094
-15.605034367342208
6.838191594179016
17.044284222182007
9.789120433667657
-1.8272774655766497
-14.034058739839024
-23.217769776381942
-21.788108351042467
-12.80881902369516
-7.079346174331017
-6.89592478049198
-2.324111165216962
7.649797371080007
-3.686438673019662
-46.55379770879199
-89.10126000486281
-102.96811038217766
-86.03814640663798
-51.53657170379945
-13.086403578061294
23.679223442928826
52.53601824154213
68.02728658063448
65.86131306530794
49.047554223738906
32.33799882846467
25.625948696146324
29.8245778594823
32.48202490135113
25.42187428419535
24.51639322089158
42.52642605337993
57.327258060582366
47.9646857546205
39.03138669762323
33.190116048740414
7.0238510393012845
-26.331882585643278
-47.940874272744686
-48.18682120777488
-37.79988246870508
-34.461234908699595
-20.011517621322405
10.479392967813492
26.69709060701767
24.054714917132948
24.649402770081963
26.765563565037148
19.611761427421506
9.944737528438928
9.859871607607692
22.909315213666538
33.88280092722145
32.76285920416763
18.576481839732494
-5.464676106671993
-19.8900828097681
-15.573080225038328
0.24058751840632311
6.881534894151984
-3.8479324785490063
3.573529272356025
39.13329011826615
58.11944468698836
33.20880172609719
-12.568731434277812
-41.43543339365752
-39.49568060854602
-18.283738190376866
-0.6090811540271254
9.59282187464866
27.635573852020574
48.2886249935751
58.501353073949495
46.14802269471582
3.847103538456722
-37.34857805587671
-51.898361711987945
-51.678742722453414
-43.24470566654142
-18.329042013968014
18.70097832526232
45.02257522533642
60.37861713656483
81.89869961597375
90.67328559017733
57.85955743679056
8.99698829022113
-7.36454496055351
7.975857675366602
29.83441831131625
49.03220479553032
52.197563729712094
22.399043956998174
-22.290081171900592
-42.810807120140794
-41.679056150944795
-33.49568740934552
-11.209926236706341
10.974637332757649
16.30240696041246
12.115455598107104
3.5130229787718488
-13.34527966981469
-39.75823253770999
-59.40261609638495
-44.554021662088395
4.528863796463575
44.9342399919102
47.41393955249063
32.364297580119064
16.56351849349495
6.039195781197584
4.441186721635456
-3.4567833115004767
-7.283875938489854
4.788071163180879
12.249866847969702
7.647394513314129
0.7005140168566505
2.898847749544324
11.863307999983851
11.993561019370217
1.7320391704010225
-8.06779306780837
-16.88300246502047
-21.12350647975057
-9.267792705824895
-0.8429283429980102
-14.929463213982894
-31.331091256022535
-29.684372012886413
-16.744035985167443
-11.482661595210828
-10.299740226171004
-3.086719470056122
-5.1433715179930815
-23.973259407091327
-42.44445130469045
-42.61485720697408
-21.694167621747134
1.1616267576453456
5.209270073546804
-0.6747334641234346
6.404726251296299
24.24599371014398
25.74896430324451
5.731421122422514
-4.219716036926271
12.665860337210674
43.71314317708208
71.38752387136837
81.47448981272156
65.65399677767734
25.061010483889362
-11.892970318585906
-15.916751859396557
0.22004188049813037
9.719205226883584
-0.6963063003532194
-24.276608988615617
-31.66885297453611
-14.65893688357079
3.282240794311367
18.798910008233992
34.443319553104956
31.83958783942181
10.452464581849402
-5.382875808244878
-2.415489684160225
6.48965303954352
8.981694758473436
10.889785887921835
19.078078617138285
32.195122534916116
38.3321987958443
19.661754537542357
-16.310457281137293
-38.51162729046016
-44.81256459823486
-46.75921748568038
-35.939300314649756
-12.135523159911072
10.03342046261098
15.543590813084267
3.0197685731382427
-9.956736210741134
-11.474021621468456
-17.93167342798447
