AAD_Filtered_TADAS_FILE
AAD_BASELINE_CORRECTION: BASELINE REMOVED
AAD_FILTER_TYPE: BUTTERWORTH
AAD_FILTER_ORDER: 1
AAD_LOW_CUT_FREQUENCY_HZ: 0.025
AAD_HIGH_CUT_FREQUENCY_HZ: 40.0
EVENT_NAME: 202302060117
EVENT_ID: 13194
EVENT_DATE_YYYYMMDD: 2023/02/06
EVENT_TIME_HHMMSS: 01:17:32.00000
EVENT_LATITUDE_DEGREE: 37.288
EVENT_LONGITUDE_DEGREE: 37.043
EVENT_DEPTH_KM: 8.6
HYPOCENTER_REFERENCE: AFAD
MAGNITUDE_W: 7.7
MAGNITUDE_W_REFERENCE: AFAD
MAGNITUDE_L: 
MAGNITUDE_L_REFERENCE: 
FOCAL_MECHANISM: 
NETWORK: TK
STATION_CODE: 3142
STATION_NAME: 
STATION_LATITUDE_DEGREE: 36.49797
STATION_LONGITUDE_DEGREE: 36.36612
STATION_ELEVATION_M: 139.0
LOCATION: Kahramanmaras_Pazarck_Turkiye
SENSOR_DEPTH_M: 
VS30_M/S: 539
SITE_CLASSIFICATION_EC8: B
MORPHOLOGIC_CLASSIFICATION: 
EPICENTRAL_DISTANCE_KM: 106.49
EARTHQUAKE_BACKAZIMUTH_DEGREE: 
DATE_TIME_FIRST_SAMPLE_YYYYMMDD_HHMMSS: 2023/02/06 01:17:30.4077320
DATE_TIME_FIRST_SAMPLE_PRECISION: millisecond
SAMPLING_INTERVAL_S: 0.01
NDATA: 12501
DURATION_S: 
STREAM: HNZ
UNITS: cm/s^2
INSTRUMENT: sensor = GMS+/GEOSIG | digitizer = 
INSTRUMENT_ANALOG/DIGITAL: 
INSTRUMENTAL_FREQUENCY_HZ: 
INSTRUMENTAL_DAMPING: 
FULL_SCALE_G: 
N_BIT_DIGITAL_CONVERTER: 
PGA_CM/S^2: 505.895
TIME_PGA_S: 
BASELINE_CORRECTION: BASELINE REMOVED
FILTER_TYPE: BUTTERWORTH
FILTER_ORDER: 
LOW_CUT_FREQUENCY_HZ: 
HIGH_CUT_FREQUENCY_HZ: 
LATE/NORMAL_TRIGGERED: 
DATABASE_VERSION: 
HEADER_FORMAT: DYNA 1.2
DATA_TYPE: Acceleration
PROCESSING: Automatic Paolucci et al., 2011
DATA_TIMESTAMP_YYYYMMDD_HHMMSS: 
DATA_LICENSE: U (unknown license)
DATA_CITATION: Turkish Accelerometric Archive v 1.0 - Disaster And Emergency Management Presidency, Earthquake Department
DATA_CREATOR: AFAD
ORIGINAL_DATA_MEDIATOR_CITATION: : AFAD - Disaster And Emergency Management Presidency
ORIGINAL_DATA_MEDIATOR: AFAD PROCESS SERVICE
ORIGINAL_DATA_CREATOR_CITATION: AFAD PROCESS SERVICE
ORIGINAL_DATA_CREATOR: network: TK
USER1: GuestUser
USER2: 
USER3: 
USER4: 
[...]
23.78736179015386
14.750251894488102
9.78071908706385
9.795171453292658
9.527908489502225
12.96663379060532
17.976116181006834
18.988256040969198
14.456935042447027
5.5689135411958475
-1.7239901539725386
-5.526671298811468
-3.989476711871158
0.6501639282064977
7.833362953052366
21.67980300974121
31.802595217952014
24.804817897906133
6.540411854310479
-7.165614133160784
-13.914429274031503
-14.809377387430148
-6.658123440330276
5.362161420750395
16.39469150624267
23.98919388315607
24.56106778628598
16.08680973061641
2.1005553086945077
-10.533702541457272
-17.61599164767497
-10.874719618452165
5.966249589120561
15.478111157212599
13.68849557612671
1.7286815351175706
-18.11283925690003
-30.639037667817906
-27.38072591819479
-20.423000126745922
-13.94840383523623
-4.826022804855829
0.23962531443257182
0.901586583660579
-5.790176831387373
-18.35506457410341
-24.890781011371626
-21.03770290454827
-6.218373767608336
12.200569699735158
27.152764234136036
30.569078901619303
24.00807355982879
17.431177160289277
8.257323892304345
3.62704296789765
5.484248519087873
12.856752834091797
26.3910491653042
32.96118442920405
31.751845287225514
24.099150122290983
11.906434453968956
-1.807746238563032
-18.913993547411323
-29.747423216721433
-28.513364993495255
-17.782225374465675
-5.0243182687190036
1.0897005751611268
-1.0931667265326857
-8.239359345782796
-14.400302994939409
-22.60085392499081
-31.283624704762154
-33.129134626507806
-29.35158619858308
-21.655540675020674
-14.555394897452036
-11.934172449703166
-13.954238825237537
-13.380792679501829
-8.236825245528268
-5.039417263724047
4.759520696839003
17.627500580804654
19.5403451726103
15.82912808700283
9.019165493704596
-3.1347234893614218
-12.244011326203069
-12.33087479447036
-5.417794343665539
9.261441780320451
28.377392116521655
40.885745111085626
38.69846736429234
25.937391182957924
13.180433056485251
0.4929596013696055
-11.177390126240951
-15.124328370906897
-5.813325040728704
12.174096318802116
19.197265348307916
11.265147292179371
-0.46742056068140586
-7.192335479225265
-8.468640564107789
-14.913133933150801
-21.862026486018408
-20.56790800813974
-17.032469794648488
-16.545182701226302
-21.389398576068082
-23.760293000748778
-16.412761406448872
-5.203447936452022
1.8538873048107594
-0.09965043111215778
-3.5246966435737956
-3.4896064166148757
-5.193435661689189
-4.526284388554476
4.826494266727977
16.346672369945072
17.232747063747752
8.47206412933014
3.2224419483235787
2.0901446716662275
-10.650415067532059
-27.21294414995314
-20.266435408932832
-3.4243037761553476
-2.985476603136551
-6.77522149519503
-3.544460633765972
-4.062004213033509
-9.758149884242346
-12.53297757360073
-8.79092539589579
-0.6416023180677412
6.029513116765175
8.904765703665802
6.547611928173839
1.5127952598838552
-1.9499164830118032
-4.297645056748496
-2.6777884730134827
3.9800953017116965
11.501770178930604
13.919559657105998
9.938234367924343
4.468133886902798
-0.22485080636052573
-0.6772581124177954
2.518308175913024
2.838778453885192
1.577323026121524
0.597826590189509
0.42245472323661964
0.8450892482453494
-6.074577804612834
-12.677574792001952
-9.760696564802341
-9.29271613133911
-9.724995516405126
-5.529728812252081
2.956847501710026
16.098148628765124
18.459117684700065
11.217940598592241
10.08275114620358
8.616826746089538
-4.702140776607674
-23.002950972690353
-27.379572622765156
-18.866715484004118
-10.323063861684245
-7.192750024703988
-8.61378043920556
-4.455389417793731
0.15573838915820948
-3.79427137914586
-9.27126016904131
-9.702061401745294
-0.23264751073133957
10.689631758579054
14.390944045432674
16.796304959780993
11.283252003382755
-1.7571320577512277
-15.39521998872193
-27.38446145477753
-26.17406152382099
-10.429520006698917
5.523116691743665
3.850039771297895
-0.48506410163118546
0.6000856704235376
4.584272516156303
25.550419708001055
34.1018953791086
20.474361789230596
10.81825137868646
19.881197644061142
27.782878027049083
0.33938946053100516
-13.809692305761509
12.670116851184318
28.671116475480325
21.957121330248683
7.360790262279528
-7.850052166611143
-10.71780551133596
-13.660022702859568
-38.51031410377064
-55.872827582723104
-35.89332846677431
1.2603170555668737
18.76917739148448
11.111212740239576
-1.5198501341174087
-10.422242768173518
-12.46042416920876
-24.7816476720439
-46.60628095814832
-64.03991409914919
-79.91208037586897
-62.14885890726858
-13.80972816470675
7.273973255487985
-11.15770105263102
-39.65577417920034
-54.63504596490681
-61.83982813630745
-76.22797932181156
-35.43992939549639
60.45086315398891
83.76572022749134
49.25953402253037
28.294082596422363
5.5807894451315745
-21.713617982862715
-22.017396685012063
28.721802232793674
86.72318073786408
127.72170190082083
140.97996850961295
97.48099756973491
31.285958075608416
-17.283772279629265
-50.05016772470557
-45.689526299782685
10.264307239074615
79.39438739056996
109.66191598991166
68.61160993228395
-6.102891719463064
-77.75450731803542
-100.50449800943291
-83.41214117887012
-88.31642283678727
-69.06327655999864
-9.701714394648747
68.87594120403286
106.90025726636352
78.12391578505915
44.40593065528613
21.333198046120827
3.8877118876313737
-44.378133171617854
-70.56718778474132
-12.58644688444411
48.354290135686504
56.634893836457536
23.44023321714839
15.152413801698883
40.27167108259943
2.0824875682913238
-61.204332151964074
-82.43847900321951
-63.23234447227754
8.896417079639109
41.97069340073083
31.36728989838676
22.511236176109065
1.183545464491804
-8.665238537068598
-33.73945425387166
-28.683027442784518
-1.1239722161599646
15.0695813859591
45.490654826620045
16.762438520902037
-27.044738312389114
-37.10442442889876
-49.41576489783655
-29.199209973452696
-15.925938307468938
-40.91845851867848
-17.561768092767558
44.0055271988525
62.13702499572911
46.22851668067482
7.7546402563299255
-7.695449207180933
19.58587331916667
11.441067959543684
-11.125339619999052
-10.201455377927708
48.90880713616666
118.22016658227801
65.51891476735214
-13.772674570001165
-27.37367034645795
-4.2818547620408225
1.842349975512172
-52.34463284913709
-95.92518102260341
-63.13766321040477
8.61082865321002
16.69195329454906
-17.086215692073498
-0.6604576660328024
72.76644319054009
99.3237603257239
29.540939906808727
15.085787782717038
26.613983475567757
-42.07733806451542
-105.30074733521218
-102.41340153500524
-19.587901070124406
45.34846191010199
44.93602289183211
78.09166753204765
60.25765902428035
-29.04935927203857
-43.093514544402716
-41.34734381488603
-78.10292056783604
-41.95853007697892
27.78657672349324
31.251811044643098
7.159699263747232
-34.236415136473525
-37.03608791665511
24.889341274062392
42.9937475377896
29.859064577769654
48.32591410184995
55.821941257139386
42.63185183150046
35.07784628354236
-5.516771117736544
-5.673413357832974
20.03363868312365
-19.166130448003916
-5.236267701487657
41.704825483696816
61.68481915797826
97.17464916486148
103.00169875155932
35.19794602070157
-16.218521027485878
7.572350127767853
27.67301677674371
52.10296763308625
69.58469803380338
51.46865923854361
5.683502204652125
-72.0881190254406
-96.85221011528658
-51.36572295969272
-3.0219846345503907
10.57711623498029
6.975320482464359
37.49818811616861
15.573115125870059
-65.24803801694036
-36.67828567744725
11.668327855860356
-50.815812766038995
-139.07706068438216
-132.54655026543722
-42.87079921045987
27.592537194572422
111.23841131043089
133.9743916453122
71.86748491293788
17.28130284094777
-103.69661927256602
-208.80517002555467
-202.70363153817806
-191.82340169663343
-184.28981864055532
-104.75770084494606
1.3690475564296987
12.862950401389867
-15.099159458211172
-8.966490888921525
-14.604618512848685
23.968270425608647
37.84915346612703
29.849553957246894
78.69888464205206
41.20648235013775
-0.36386282873039744
28.294652996754586
40.263177679090816
13.703703583920811
-53.982200168355845
-54.92354964471707
-7.131044344886011
-11.007672613115385
-13.913449949237133
16.1611612031702
36.30121871208329
70.4527416137649
120.70852388550185
54.35973171363677
-31.508925733570877
-7.2075428306316205
-23.725350198406115
-22.753530411958515
34.693721775223345
-31.598544897214133
-93.40306607630703
16.828563577179118
69.88551048448765
-29.698010360902327
-47.32054409559725
1.7772827929618755
-12.778500994479225
-7.785265780124188
-6.333880803551946
-72.69371370439006
-78.66262680058516
-40.387276396236715
-71.03005642303616
-113.3818005138067
-101.21662819761686
-9.480117072071224
46.21336686471154
71.86276314125358
232.7851482986745
297.57443584245567
127.71503273533493
-23.583846051021432
-23.312234180998413
32.96844331290049
1.5083992081699675
-35.017487985110435
32.051796645430244
101.9201519330028
50.90521803125999
-13.762188757133025
-2.6358926585504627
-49.08628542032372
-16.995923298653718
59.50599324482875
-4.147692164868651
9.385199854166453
38.40521117916403
-59.558083912133064
-116.38322930328135
-153.43173404676747
-218.6587622304393
-192.96098192050923
-63.77003037701583
74.63513940020263
64.55350320229135
34.98721626559103
145.9874000027415
167.8601317810042
108.43705989005866
3.6847142235667634
-121.92457848350881
-115.50534445300565
-58.322294424238294
-32.251151871124115
-46.478159048156975
-27.083656010011122
29.78195044835415
62.34443272373508
9.85956875497062
-130.06035410415572
-138.42659069330858
-11.841889199099867
72.18183671955184
90.7339782245432
165.81525507520453
228.11861773008528
104.00806106687028
-43.017002511111144
-203.2122568595284
-316.330810087937
-234.4111227231228
-147.33890348869906
-61.93102995464316
-13.457134732617416
37.42097676218097
190.65195547410679
222.0649924048423
155.11019113081633
50.339338777878446
-133.63916480452613
-178.48243917822145
-7.490023933511662
31.37444651477569
-88.76858676432241
25.87019746838793
185.2389869102789
138.31991016825063
78.47034233694565
57.38886503685824
33.622653926658785
40.66943914335746
106.38505214024364
31.90520943134306
-110.97902149102366
-50.34355109427159
72.87396359953318
130.55750714414705
-7.378467243242594
-179.6139659940848
-43.30230255047831
142.1413088218665
97.68547246343859
-14.381797654293402
-27.40348521167971
-15.241731540817064
-52.03136380096803
-144.21068364942508
-215.28869161183164
-161.59731083789305
9.389435470174561
242.54227237210804
258.8824418967938
96.22496701408643
48.0774345487637
-18.253449115778334
-121.749584051601
-56.94385979835592
172.86491583242307
200.4607873282042
-12.733882823829624
-75.08153417868698
-20.716565815651517
0.9868486681262127
-41.19140184561061
-42.961610832049054
63.882978560054845
68.59629787772418
25.263969736635865
73.80282369533579
50.50315779850355
-40.60807075688273
-41.12949017605602
-66.39589599763457
-138.1770546515419
-148.85273698739022
-147.4769433441623
-66.23297530854502
130.57411023404921
258.1347814301291
157.31959504274823
-101.9604985803558
-259.19496357849613
-159.67270244356232
25.97592928855009
51.09849010997287
-46.903983695888364
49.12317881958799
326.7138804837473
318.8055673966986
135.8397685369961
32.512280722365034
-79.46012438290062
-76.75157989519916
-62.75644481099359
-123.5732842016652
-17.22909775817943
244.04777764664078
344.3219786331502
258.3427256990902
174.431082067925
-11.581798109220896
-237.31579557974084
-304.35827589215467
-265.639537874502
-195.57989978838722
-108.07597932455792
37.15890732869813
199.41109681635075
174.15061636835085
40.829256750417656
87.43065687372142
133.03273917814028
2.855142532813055
-46.682947920822315
30.555247698924518
77.37096648773158
62.946188027295555
2.694919881244002
-85.41440145882487
-136.13179296634024
-146.50504227244025
-172.43947929148948
-70.84181358371286
37.81267643861793
20.78662622996387
81.47045844152186
-16.262705757819162
-210.71533276863843
-192.93859542789716
-94.12294853343744
3.0964379779874807
-34.27741730840198
-36.830415337436634
22.738953371955557
-51.1605191444614
72.37678152989582
202.86241603611649
24.689869914207442
-117.87589695801951
-141.22100286944746
-161.72594400048072
-209.82484545033537
-198.3276036092922
-124.79747974572646
-59.64474786913028
71.77503212141745
81.77939635845011
65.58538456512818
139.4251673229964
82.30602602653853
81.612915418014
89.7974240791352
-49.2532640237295
-149.49613717975245
-109.6174210670302
88.78316210163682
183.05839045881217
93.54599609090002
24.512376936991
-18.782537619215333
18.81801103443587
35.990000046628325
-50.62670997242298
-101.8415428708412
-66.35093197586512
34.62105508427052
33.10070373381613
-13.286148456652942
42.70413490461894
51.064472921308955
-58.32381813973332
-187.98436898640907
-217.22781589509134
-122.4419900358839
49.80720648698982
132.27694116266255
50.41985993022846
140.620570107111
453.9163280353347
447.92698977718203
200.19212212431165
170.3385203087197
94.45625725624087
43.031645343793414
168.17726346217458
122.08258983240451
-9.029461254134338
-82.12280523689438
-99.32220983286757
-64.23589868714397
4.348032994203628
21.11689870083167
-86.20125351173925
-108.74306597500043
-21.95941163108092
-17.805415620454642
-163.55695098233937
-320.6071013879385
-350.80742262994
-270.67605949359967
-168.86540023713
-72.78972767711541
42.760009546588165
19.709742687670232
-50.442114556292644
-11.789879440216966
-11.27926281470693
-4.103718699074376
-16.67921799262904
-118.36390984305713
-75.79176721871768
97.09168902631608
155.20631236127315
139.96248970909988
125.06327081839164
96.38843887956065
142.95559626528012
193.5663949121726
101.71693937454788
-38.18295922691622
-93.37551535233463
-59.04453987732563
-47.331316007507986
-98.29225550870514
-61.319967853041966
56.61262426535474
127.68995156060592
124.85682111444468
30.870232017958436
-88.6822738074579
-161.64836592027672
-176.95665938472533
-125.73279922022091
-104.08798456958354
-130.54106929513878
-123.48909290114547
-92.17288588774434
-8.293698931688114
69.37089360790944
41.881269430661604
-3.051072894343374
-9.249662177524652
0.3323089712794541
16.066160880006553
30.333801719597194
39.280614059778046
58.06915936862794
88.3273499860222
91.29324751316561
66.73768650901732
31.727111504342645
32.605870363878175
31.61909477830978
-74.2735077240258
-129.97123694601243
-75.54757993376765
-54.97295320879103
-11.037189204413243
46.701020289749984
72.14392848498815
126.15464527972493
134.55267127056928
57.17153492722322
-27.07972897348036
-81.81829421371059
-128.39994780099437
-188.8342374291831
-237.19821730071308
-183.65101217962004
-63.12176634415289
29.78248354340503
98.87265908951834
32.36214665660724
-73.84103910091224
-23.344928058951915
73.51907261719981
115.13403580471822
74.95470275588741
34.02438049822237
-41.47738978976755
-166.63618138812444
-129.4729081736866
-66.15304879520302
-77.04047890916968
-39.32685737307186
-13.076254323221766
43.5863558452992
134.4803368277302
137.10495629699977
79.19750480860559
9.352103513292475
-35.07074367471872
-9.098426919039118
51.51092665422519
90.22095300099161
71.661634807851
36.36804204681363
-7.721700408157704
-88.818371089881
-86.85494248331597
-8.775028372445322
30.75429909139276
63.69796950206226
123.71102818521852
179.1594122825288
158.1632022088064
43.092521871322816
-76.03527217426617
-113.47689438603813
-119.04494504016638
-121.54868503891784
-52.042686932022576
29.99300520335477
80.10301141767926
104.54850916677552
45.85224032104185
-42.823328210470336
-78.15192356762026
-80.52184025501234
-47.88519475361406
25.70489961480263
73.58828574220196
77.79703296409586
74.85591504034525
68.17315308091044
43.162864836357635
-20.100633575140176
-93.24018786068785
-104.5189506346254
-77.16124530867809
-80.31009084322883
-38.31597614351829
72.2780534165109
150.3023007889481
155.95376022992863
77.52900891937489
-3.6530604367935826
-32.2291112121761
-41.54595990619222
-74.24161501997548
-127.37271545760366
-97.82923190466776
-25.135286679611855
41.08267097027485
104.42626612758853
73.73530546093092
12.182710326399574
28.232813822724605
38.71813316749083
44.91213288578044
68.73985012375907
-0.960780438828293
-88.43929727832375
-68.57329433826007
-1.988906622682965
9.651632285340973
8.842791743381488
19.559102377234563
45.44145240863982
94.85347816610056
43.227939973322165
-23.433757940187895
-58.42617023906958
-70.76880392076086
6.756010460847592
69.18811540738089
74.88183545541072
55.30176792109383
40.268449365536426
53.66604988567115
49.872970036566144
19.69419465184078
-23.46534683412128
-122.49216453895177
-106.84878104355201
-31.9231461536062
-0.5949086420151383
137.47667528595426
168.89432369802893
162.90131925560783
155.63367365712716
124.35230449991964
226.47788980649406
216.03095428319708
241.1923040196498
177.87943598517685
-98.36913040394207
10.436581078771638
144.92167897819144
-12.555942519795577
-63.903496336071235
-74.3173433328872
-25.273621123327597
74.227251614997
98.52640569633513
51.34417566784432
-16.17699298262371
40.070120412052994
71.85137115560308
62.06237003377156
49.12753232880505
-113.86893335822425
-158.5164223462049
-36.44609709204543
-65.6408052550038
-157.92779779391915
-137.50539902136276
-50.767015778464696
-1.1837989015683104
48.38024696906214
160.83564563987287
235.4607497198677
192.5723475397109
37.48271043482467
-42.371027510454326
-14.80085947734503
-41.9412825059244
-35.70416822358443
-27.65540405076877
-33.06566721921985
31.98503575306503
33.32932512380236
26.69610093693558
-35.179463965374346
-195.10004401115174
-242.14530893385557
-266.2001592601328
-298.78840121514946
-309.249323396788
-322.2800398581674
-239.15925336016687
-106.37800429200185
-33.60840898110022
44.11408086566601
140.5728000911562
56.927048774511725
-130.27705088295508
-251.51229508975337
-227.2461465002922
-55.29412157261244
50.89423181270397
124.09796481131754
126.56751150627797
-27.26037106392598
-152.66473693697696
-114.40572560528597
12.78273568124876
12.277113694496032
5.676414524300242
49.46135319757004
-3.879031250407573
-75.60297130617114
-137.0424880010413
-180.0187566564599
-203.01739564746794
-166.52761420027804
-49.48770041206238
49.149875711933795
79.25770900073191
87.94841850268853
142.79913056609956
106.68245619423463
54.853423494312125
168.6435747063129
196.23872324535247
120.85079619926924
