AAD_Filtered_TADAS_FILE
AAD_BASELINE_CORRECTION: BASELINE REMOVED
AAD_FILTER_TYPE: BUTTERWORTH
AAD_FILTER_ORDER: 1
AAD_LOW_CUT_FREQUENCY_HZ: 0.025
AAD_HIGH_CUT_FREQUENCY_HZ: 40.0
EVENT_NAME: 202302061024
EVENT_ID: 13207
EVENT_DATE_YYYYMMDD: 2023/02/06
EVENT_TIME_HHMMSS: 10:24:47.00000
EVENT_LATITUDE_DEGREE: 38.089
EVENT_LONGITUDE_DEGREE: 37.239
EVENT_DEPTH_KM: 7.0
HYPOCENTER_REFERENCE: AFAD
MAGNITUDE_W: 7.6
MAGNITUDE_W_REFERENCE: AFAD
MAGNITUDE_L: 
MAGNITUDE_L_REFERENCE: 
FOCAL_MECHANISM: 
NETWORK: TK
STATION_CODE: 2106
STATION_NAME: 
STATION_LATITUDE_DEGREE: 38.4616
STATION_LONGITUDE_DEGREE: 40.647
STATION_ELEVATION_M: 1006.0
LOCATION: Kahramanmaras_Elbistan_Turkiye
SENSOR_DEPTH_M: 
VS30_M/S: None
SITE_CLASSIFICATION_EC8: unknown
MORPHOLOGIC_CLASSIFICATION: 
EPICENTRAL_DISTANCE_KM: 300.35
EARTHQUAKE_BACKAZIMUTH_DEGREE: 
DATE_TIME_FIRST_SAMPLE_YYYYMMDD_HHMMSS: 2023/02/06 10:25:08.3281310
DATE_TIME_FIRST_SAMPLE_PRECISION: millisecond
SAMPLING_INTERVAL_S: 0.01
NDATA: 18251
DURATION_S: 
STREAM: HNE
UNITS: cm/s^2
INSTRUMENT: sensor = GMS+/GEOSIG | digitizer = 
INSTRUMENT_ANALOG/DIGITAL: 
INSTRUMENTAL_FREQUENCY_HZ: 
INSTRUMENTAL_DAMPING: 
FULL_SCALE_G: 
N_BIT_DIGITAL_CONVERTER: 
PGA_CM/S^2: 8.270
TIME_PGA_S: 
BASELINE_CORRECTION: BASELINE REMOVED
FILTER_TYPE: BUTTERWORTH
FILTER_ORDER: 
LOW_CUT_FREQUENCY_HZ: 
HIGH_CUT_FREQUENCY_HZ: 
LATE/NORMAL_TRIGGERED: 
DATABASE_VERSION: 
HEADER_FORMAT: DYNA 1.2
DATA_TYPE: Acceleration
PROCESSING: Automatic Paolucci et al., 2011
DATA_TIMESTAMP_YYYYMMDD_HHMMSS: 
DATA_LICENSE: U (unknown license)
DATA_CITATION: Turkish Accelerometric Archive v 1.0 - Disaster And Emergency Management Presidency, Earthquake Department
DATA_CREATOR: AFAD
ORIGINAL_DATA_MEDIATOR_CITATION: : AFAD - Disaster And Emergency Management Presidency
ORIGINAL_DATA_MEDIATOR: AFAD PROCESS SERVICE
ORIGINAL_DATA_CREATOR_CITATION: AFAD PROCESS SERVICE
ORIGINAL_DATA_CREATOR: network: TK
USER1: GuestUser
USER2: 
USER3: 
USER4: 
[...]
-2.951657181053897
-2.9379239013682232
-2.8074515319135753
-2.5452257402988723
-2.1829023067266267
-1.792204485696694
-1.3565138625394038
-0.8945768065992414
-0.4662840695750861
-0.11183077870915435
0.19116225126512965
0.49609374321730987
0.7816826674779139
1.0707491863172904
1.3744077822207086
1.6566026449439175
1.917498732257431
2.135705533522999
2.310641417831264
2.4626898190177866
2.5885939353391763
2.7016318524633367
2.829369201291087
2.9695097899654783
3.081654363927916
3.1421321951742454
3.1501704911169153
3.100997608561122
3.0042288675159354
2.8693905277488314
2.7293482552927273
2.626964049243671
2.568175207222368
2.532617247848141
2.4631890249818675
2.360598569040429
2.2613998674563414
2.13171285886019
1.9751241962610975
1.8429719216449993
1.7600333700263888
1.7478807499214162
1.8208476670540676
1.9833938345090063
2.2063929683984114
2.4308426716261473
2.6220854878105753
2.7731367525103203
2.917425967959899
3.0636360331102255
3.2000975513487337
3.3408016547716133
3.4592250141617837
3.528938337445071
3.5564434215771117
3.5381416880461156
3.4426639846256912
3.257146242512315
3.0095047209001735
2.7101828274781066
2.37005811526899
2.015045314457017
1.6288663866366764
1.210272098610356
0.8197352375127716
0.5122558146511227
0.3194266175088328
0.22804606157757742
0.1944275861631497
0.18911888732121704
0.19078332175010929
0.18850625316237593
0.1800091592825244
0.18155312296850246
0.2342208995716862
0.35207044437483515
0.5279951429765652
0.7588096208752814
1.0315036038960272
1.3414263326931761
1.6789025134020394
2.0376193830534124
2.4226957021469158
2.8414577083043855
3.278932958067531
3.662357789449554
3.9289355709603164
4.094028037595553
4.198852061789402
4.2323858885057515
4.172776871623357
4.050560055712626
3.899143982945245
3.7204183392372685
3.512897796112495
3.275839332110298
3.0044011284487784
2.703673323778032
2.3801495706394284
2.0393990366732027
1.6907786724765252
1.313873576628447
0.9238346216957488
0.5890116187269803
0.3295731301711008
0.1344956986592923
-0.015846814100764408
-0.14508518158976882
-0.27025015687855664
-0.42481651744950283
-0.6128531788461111
-0.80771901786705
-0.9878738665463214
-1.1372667923002941
-1.2749101781885868
-1.4234935824467376
-1.6004489405924185
-1.8040950098102864
-2.0021111237905846
-2.181751404654863
-2.3160365550050925
-2.3770603711481924
-2.356459456310666
-2.255152658353056
-2.094025750020675
-1.8892461282979542
-1.6634576242600385
-1.4400714283805418
-1.2671316772103558
-1.1870965505206519
-1.1867755952480648
-1.2589720853053168
-1.3793512436446267
-1.5325474066967513
-1.697493550243465
-1.8315815970257054
-1.94303370132585
-2.026741700375024
-2.0820381922552236
-2.1118770803979143
-2.1069789351816146
-2.0629369126436323
-1.956024864345502
-1.7759251628354378
-1.5302131132173653
-1.271620983249305
-1.0523258530696016
-0.893703769916282
-0.810799639326033
-0.8051880807357953
-0.8909720170518561
-1.049790629604119
-1.233987420734973
-1.412091921984926
-1.5507457927318435
-1.6248805914821665
-1.6303525061223794
-1.5743297800943135
-1.4490007030837508
-1.2351868992321304
-0.9216900044478171
-0.5187517090500952
-0.07878460079320947
0.33170886271452393
0.6470812118852199
0.8333460269639074
0.8922213432751692
0.8280336349695997
0.64984751174779
0.3880032350108462
0.10936678193922793
-0.13185489552896634
-0.3286369476460354
-0.5118914629421119
-0.6870915741954355
-0.8209078707924283
-0.9205897194783701
-1.0266176843659118
-1.1432749422027577
-1.272864146098296
-1.4606201875715084
-1.6902586564871918
-1.8953108152153224
-2.054384306863066
-2.16749305664547
-2.2756896621719673
-2.4014108073580394
-2.5161586187107434
-2.6420935615807792
-2.801423556039387
-2.9872819085536926
-3.1617562619637622
-3.289488579068224
-3.363881793239547
-3.3629447849413787
-3.309208595068381
-3.218575629808841
-3.0865733459769555
-2.9218437270425546
-2.7235957833896336
-2.5005410286997725
-2.264963134955181
-2.0372918780328764
-1.8149560772658324
-1.6219797459606733
-1.5101467714498802
-1.5042655722292806
-1.6071434819917256
-1.754395782729928
-1.8930370084179644
-1.9912517341844373
-2.0006561921358963
-1.9078583359794616
-1.7212827654976175
-1.4846753225182492
-1.257417480372267
-1.0792380060563602
-0.9758613503720748
-0.9308944070057464
-0.9202050254145496
-0.9638216426867846
-1.0633824851046751
-1.2298732360048388
-1.4796901812053265
-1.771968262980993
-2.0962339180987257
-2.4614613414431337
-2.8576985470724074
-3.2758259043672986
-3.6918235703074056
-4.088324633429407
-4.454025812009965
-4.7514472070635
-4.9467115764371155
-5.027898806070898
-5.015252820262683
-4.916334531701521
-4.708106660469161
-4.416259206119409
-4.079847625999516
-3.7310394926706154
-3.357033515060134
-2.941083400820171
-2.520997867184747
-2.097152474180665
-1.6615290543801404
-1.1972674144281352
-0.6818559149105293
-0.13097907070470463
0.4328861034608962
0.9905732384662795
1.5148122215824364
1.9311831271026687
2.1615978835822527
2.1993798925792873
2.064055477238311
1.7702047126324543
1.3654551856523989
0.937531621358395
0.5617897798964115
0.29716538135809306
0.18533149819966954
0.20551663515422336
0.3231025415325497
0.4939403568395847
0.6768706742110304
0.8492995059777938
0.9484823913239749
0.924011748685674
0.7822218874848808
0.5750305994876013
0.3306610428661365
0.05248286848791642
-0.19001289975205338
-0.37072616162537225
-0.5589177066527117
-0.8022286734549582
-1.1023596177325814
-1.4469472637510803
-1.824932353189451
-2.195617839165174
-2.4972286720632018
-2.695509400182813
-2.766586778488173
-2.71722082015238
-2.608526715464619
-2.497539856778709
-2.3905284186547116
-2.248048266583751
-2.047136575207427
-1.8123450951324216
-1.5430246914104948
-1.187468130296815
-0.7431769837655609
-0.23240164443476277
0.32584169607625985
0.8797836666409842
1.4512543265964737
2.0710412738681474
2.733365916157811
3.40305395174295
4.020582141080118
4.587149148727698
5.090706283061921
5.5165652040284465
5.873554026032584
6.180860125930226
6.4666590196635
6.750177246672786
7.0220350341811875
7.262146666799979
7.457290413536045
7.582357855346609
7.634804542899947
7.587687033553658
7.434174263609834
7.227758878216464
7.049518584541037
6.944172378448752
6.881947680671771
6.875335564857252
6.9323521033977595
7.019183090073227
7.138258209255126
7.2961038082016865
7.446398784671051
7.526113434001672
7.518681128421752
7.384924619897145
7.069239796117294
6.586423618616677
5.975587844382432
5.283763122674925
4.550903709249798
3.8236025035683916
3.1420273480605805
2.4850554716450453
1.847302083423362
1.219313258260944
0.5758958803070102
-0.07598138263962159
-0.7194642352122167
-1.3390432192089645
-1.9342369414773808
-2.48849840725784
-2.9662539141100925
-3.3285618136054858
-3.5521979590616004
-3.6649765620655765
-3.71453848101273
-3.720891152854451
-3.6892469719518464
-3.6634810776909
-3.670055005913143
-3.697982610429111
-3.754563614607565
-3.8464034476452613
-3.974172461497223
-4.125493217252314
-4.28054581210223
-4.412367482062474
-4.486917054205904
-4.494210981573491
-4.449478972916614
-4.402116124357855
-4.402639185430675
-4.454439751010156
-4.547638575653091
-4.664433128323668
-4.771694836822944
-4.851612884727512
-4.8854868395080215
-4.851194571194359
-4.757991106530218
-4.631875525512235
-4.493994144357176
-4.367321128028938
-4.262483608508747
-4.171478382170694
-4.0738499857668105
-3.951606953716896
-3.791816154726069
-3.5917378293950235
-3.351293365890031
-3.0592553658620343
-2.7222393438745076
-2.362065587842755
-2.0127585933529195
-1.6838335580315111
-1.3611937310453321
-1.0359270138964518
-0.7094362674322434
-0.4237236905791651
-0.19789299951635708
-0.038153992310592924
0.0282434324612025
-0.024985074933991273
-0.2218093079929011
-0.5308902109600955
-0.897753326399997
-1.2704135388710485
-1.601623302595729
-1.893955505865252
-2.1653945420439826
-2.3964594454686625
-2.5581623044350428
-2.690488354001755
-2.817650961554265
-2.894823426899007
-2.902597505319815
-2.8370972717274157
-2.663435896007339
-2.3698286879825576
-2.035440095935855
-1.7172924608277191
-1.416915311418225
-1.1425014582581619
-0.8992287446960339
-0.66558029497929
-0.4371916772374575
-0.24644439991005407
-0.08226785788106436
0.04644027108026975
0.15526043512583315
0.26609882835530535
0.35820948604731406
0.45041745345554407
0.5562691075522425
0.6964691119531935
0.8584481410894018
1.01974404726576
1.1915859171214338
1.3566776837866132
1.5001228681631993
1.6087794043052068
1.700776775179603
1.8194463647190477
1.957580126158012
2.1046888925026046
2.2265075510669794
2.3048615655905245
2.3876952968089076
2.475303867861945
2.5745797973628965
2.7511552256754226
3.0179071211333097
3.3292790576237774
3.6720837592173563
4.00357702577983
4.242460947418852
4.353688465942756
4.2997387217899705
4.0567821606254375
3.653257034590911
3.1481645957101176
2.625383116160868
2.155353610226591
1.7642409441158518
1.4444310446824131
1.169844661180433
0.9191517110762143
0.681785582277633
0.4438867884258851
0.196046513650301
-0.047914200361138956
-0.24506956913191155
-0.3642616376612396
-0.4260269069721304
-0.4637504275241093
-0.4973486189655054
-0.5466806701740534
-0.6525526901687374
-0.8469821378086325
-1.1248408713717022
-1.4820734058545093
-1.8743128003826903
-2.256637633643444
-2.620174472161832
-2.9342107281947456
-3.1707897035060926
-3.314921927531222
-3.3746438131762697
-3.351555922615458
-3.2609119009562346
-3.1546778913052362
-3.0726904251837097
-3.0347999951610714
-3.0433470911700446
-3.121328665763353
-3.2578643941400367
-3.400350583228462
-3.533987230018475
-3.6418298070956654
-3.696895313570241
-3.7055853020541747
-3.667498296746309
-3.5809897450437265
-3.4805145736218743
-3.363672679446982
-3.207230795835409
-2.995862629422684
-2.699677861682768
-2.329178118296651
-1.9401356603091586
-1.5443984989440616
-1.1238091105619636
-0.7168556264884661
-0.3476256036755919
-0.03219124966713186
0.24147131559976565
0.523971699586519
0.7989570909922961
1.058694635606469
1.28677560132744
1.4545879056894429
1.5774122625572047
1.6916699733234142
1.8421459050898854
2.0079398147679077
2.187104222925346
2.415669015009389
2.6644191117909743
2.900551929167602
3.1194208251071767
3.3195112823205872
3.482044370109629
3.5849170081145183
3.5991499329302323
3.4983473011394413
3.29541982879141
3.020684846309115
2.71630470305616
2.4151819423341956
2.139371732102717
1.8793616966384359
1.623884354169301
1.375328793091804
1.0940608537581589
0.7871846963957259
0.5252121572093413
0.3397764822602621
0.2257780518402339
0.20543062439788007
0.29288271455542275
0.46892699862343135
0.7205896187766211
1.016081565246515
1.2950499078826248
1.5155343854308023
1.691761162249164
1.8340400505963752
1.9456337743626555
2.047683461051611
2.1314202850638426
2.205265343658745
2.250852567185501
2.22860581434326
2.1400018378102095
1.9760210045002293
1.7647454814677481
1.5590157521279193
1.3593785834599232
1.1247876148052924
0.8573885719559214
0.5814443210007988
0.30089934000260493
0.0437355063579934
-0.1663203015315247
-0.3002996357664448
-0.3300086503935283
-0.22124375420558848
0.015521582692334251
0.3433803415393689
0.7865678368498261
1.3076021077339555
1.8369932884933886
2.3267869818963387
2.7397448500827903
3.0810743416708894
3.327331412057032
3.464801205665087
3.5038508152854977
3.4854857784661415
3.4268046053737784
3.302161927708522
3.163942194563701
2.987889233860709
2.8497147475905473
2.8566027089905703
2.883949855306767
2.90161162507304
2.866748034304726
2.749346957183816
2.5674126972569518
2.2325888174724695
1.781745753058682
1.2677283664924879
0.7082897875656146
0.14937126150656171
-0.3683199280319344
-0.7752567514066045
-1.0788453503093278
-1.287711878453372
-1.3855451334763567
-1.4255769311707045
-1.4351480772036325
-1.4045415042661178
-1.360151031917351
-1.3222878154880262
-1.2939300597600707
-1.2849052688956246
-1.28977926375156
-1.3393006292324678
-1.4155710638911303
-1.4563085164537148
-1.446638024999259
-1.3538811248374436
-1.1725160410266153
-0.9186888571128312
-0.6102243089404874
-0.27933270316357983
0.046815778723932555
0.3336525397052985
0.5477115170605428
0.6681725756639947
0.6790024624466561
0.5748996613200065
0.38567474645981
0.17239165358373407
-0.06596593625640798
-0.30080370668927225
-0.4103018144261876
-0.4087025329296185
-0.3156732592228696
-0.12044931688386909
0.14029540730576906
0.4821154893410084
0.8786870804216099
1.3060401365580565
1.7433735666496475
2.17087272666891
2.602555820176511
3.0150213833514954
3.4027767828541724
3.814718852674193
4.266287596400024
4.726612054584513
5.204708788024305
5.699085915247408
6.172648284730213
6.621581106131295
7.035146142879015
7.393416370179612
7.688434855700583
7.9100947209161045
8.071939379293106
8.170554133375338
8.198028159107263
8.138371061851169
7.955052658166743
7.640688414438201
7.201499186360144
6.675958746784333
6.075860743341929
5.4351592210338335
4.850129265469539
4.355932044309498
3.9564154531243227
3.6552762961605882
3.4470713438565963
3.302606532169897
3.1950387240725227
3.119122748469359
3.0468834690803246
2.954723310674324
2.8237330408360615
2.6252171616735063
2.3568819693871044
2.0388685704554943
1.687699767710084
1.3181722826792295
0.9096769163556704
0.4655372892507694
-0.001157642295718188
-0.5175832972596458
-1.0384524575574676
-1.5466185025186716
-2.062391139955086
-2.546034803050627
-2.9806034586547923
-3.376203115926197
-3.755023491872781
-4.12482386400415
-4.470903504632023
-4.800011563645685
-5.109931227844149
-5.381850216113902
-5.58231889866899
-5.678162036958374
-5.667689248666194
-5.532027053796134
-5.293413631990658
-5.020332975485655
-4.740739470457204
-4.463553312113505
-4.176002728169572
-3.887547335154828
-3.631389312270107
-3.3980129686242138
-3.192987822446239
-3.049073158762022
-2.9680794260330243
-2.934242154813971
-2.9276436894933315
-2.907208935304577
-2.8252815568558067
-2.677439804406932
-2.4713789677982954
-2.2213499597630046
-1.978206325868444
-1.784255957541859
-1.6739047545676211
-1.6253433786281877
-1.5830938478673655
-1.5314651751321888
-1.4572980349585272
-1.3563647513014367
-1.2632081399751853
-1.2188275011563978
-1.2341955646029967
-1.3135839796656192
-1.4368378129693875
-1.5713891564863094
-1.691647321162267
-1.7775468539824741
-1.81684019786192
-1.7845172516342536
-1.6944461057933042
-1.5767420056526744
-1.4486820550027222
-1.3134561414841388
-1.148101969354663
-0.9451674622794067
-0.6812954736096657
-0.33578673437306505
0.05849662514139274
0.4480066608212924
0.7710318984846644
0.9868120756026618
1.0859603650036018
1.0415880175684051
0.8620279701464264
0.628007028456922
0.3932367684138773
0.21191466768424624
0.1406051652251021
0.19828556523152727
0.387146972496896
0.6761787850387784
1.0552466074030287
1.4761910137675112
1.8640656901395165
2.1933836136250067
2.436097061462672
2.565529262123907
2.5806240648269116
2.494728520131913
2.326766172853746
2.0959146028706526
1.7894356316358908
1.4220200525715552
1.0317982245515374
0.6249051617579015
0.23019697250862822
-0.11922106933592862
-0.429514567398498
-0.7039110524107324
-0.9520227407791995
-1.2019415455904086
-1.4444709928265171
-1.6582453711194147
-1.8590970534579483
-2.070747200784116
-2.2717014158981974
-2.4108047617206365
-2.4444655256640875
-2.3682587083086593
-2.1988020721995323
-1.9531406748898872
-1.6643261652146786
-1.369926981579865
-1.1221712734661962
-0.9267172558331294
-0.7603823517613377
-0.6313605262580878
-0.5136478375092018
-0.40554991671615076
-0.3327896878983816
-0.27691190877462546
-0.2684227259357011
-0.3308828276774059
-0.4642908231426595
-0.6684792582963457
-0.8740045234060999
-1.0389802141135516
-1.1426765714498073
-1.1712895894385236
-1.1316256075570912
-1.0368425636405136
-0.9313223339923098
-0.8303373103331173
-0.718664791843664
-0.5703691948502873
-0.3593446607737688
-0.09627313398813968
0.22102019766750766
0.5995306668411048
1.026541533704009
1.4925342103907444
1.9605239424055085
2.4169831403431
2.845894686220074
3.1992369553225974
3.4757452004097784
3.6807514572969176
3.814653049027804
3.9021044100562423
3.9847552200159617
4.104919462189926
4.262935450433395
4.456188860496268
4.685142721278318
4.928512061501568
5.170831574922674
5.356681543856278
5.455206418701004
5.4962153225112695
5.483691603646125
5.423770178768113
5.327353776504336
5.2224898125622214
5.15234479457125
5.119376529805273
5.115779920602581
5.126645339488491
5.125036961996456
5.087649141098257
4.987035845460194
4.816144754769198
4.580686885128065
4.281829436576775
3.9657625057021395
3.690546022772257
3.449677398443436
3.2442270809746465
3.1017816727824967
3.0352012983485652
3.0563808851114844
3.1486786527461423
3.2790460372187633
3.390724427194008
3.430525880286519
3.414499567727232
3.3416693855197623
3.2095331248577583
3.0455622784380827
2.863095653149419
2.6955616196648298
2.5374859063115696
2.3773267728463234
2.2350648793448236
2.0795320231388037
1.8780183586316044
1.6517730204690086
1.4282568799805997
1.1921265977869955
0.9331884633920657
0.6784289818531698
0.44918734524992143
0.27648183947836097
0.1879016728895243
0.1449208405678245
0.10569585356114963
0.03781095446880759
-0.08234762350367668
-0.22462201426278408
-0.3872504670434985
-0.5534458609028629
-0.6866713394554691
-0.7705134088655107
-0.7803228481509182
-0.7509509506564956
-0.6976852039843864
-0.6149621856133258
-0.5170447248921599
-0.375947643256782
-0.19346506141746067
0.032001743290675365
0.3058073582554864
0.5847518032319571
0.8445512503685778
1.0962290315024408
1.3582975008979945
1.6234735205011905
1.873705649531775
2.082548075806077
2.2400355129353864
2.3541006689922623
2.4000436150238995
2.3639390876369175
2.2516918021040593
2.0728230694515255
1.855565129229609
1.646588425789862
1.5018854717231764
1.4508261276554095
1.5143045518306464
1.7096387360246217
1.9859749050468367
2.2780678527115015
2.529714464207799
2.6784823704592133
2.66623402381127
2.457865775427621
2.0854095730200886
1.5731312173646235
0.9589863086051688
0.2966063324946656
-0.3704372012569841
-0.9790578749936496
-1.5089652633749329
-1.9326545150829015
-2.2437904356899847
-2.4582050782779614
-2.568468734421656
-2.6201440957395548
-2.6291916333101724
-2.6240398812871812
-2.6590382189632242
-2.7376063791316754
