AAD_Filtered_TADAS_FILE
AAD_BASELINE_CORRECTION: BASELINE REMOVED
AAD_FILTER_TYPE: BUTTERWORTH
AAD_FILTER_ORDER: 1
AAD_LOW_CUT_FREQUENCY_HZ: 0.025
AAD_HIGH_CUT_FREQUENCY_HZ: 40.0
EVENT_NAME: 202302060117
EVENT_ID: 13194
EVENT_DATE_YYYYMMDD: 2023/02/06
EVENT_TIME_HHMMSS: 01:17:32.00000
EVENT_LATITUDE_DEGREE: 37.288
EVENT_LONGITUDE_DEGREE: 37.043
EVENT_DEPTH_KM: 8.6
HYPOCENTER_REFERENCE: AFAD
MAGNITUDE_W: 7.7
MAGNITUDE_W_REFERENCE: AFAD
MAGNITUDE_L: 
MAGNITUDE_L_REFERENCE: 
FOCAL_MECHANISM: 
NETWORK: TK
STATION_CODE: 0130
STATION_NAME: 
STATION_LATITUDE_DEGREE: 37.25186
STATION_LONGITUDE_DEGREE: 35.67104
STATION_ELEVATION_M: 73.0
LOCATION: Kahramanmaras_Pazarck_Turkiye
SENSOR_DEPTH_M: 
VS30_M/S: None
SITE_CLASSIFICATION_EC8: unknown
MORPHOLOGIC_CLASSIFICATION: 
EPICENTRAL_DISTANCE_KM: 121.47
EARTHQUAKE_BACKAZIMUTH_DEGREE: 
DATE_TIME_FIRST_SAMPLE_YYYYMMDD_HHMMSS: 2023/02/06 01:17:32.9806560
DATE_TIME_FIRST_SAMPLE_PRECISION: millisecond
SAMPLING_INTERVAL_S: 0.01
NDATA: 12501
DURATION_S: 
STREAM: HNN
UNITS: cm/s^2
INSTRUMENT: sensor = ACEBOX/SARA | digitizer = 
INSTRUMENT_ANALOG/DIGITAL: 
INSTRUMENTAL_FREQUENCY_HZ: 
INSTRUMENTAL_DAMPING: 
FULL_SCALE_G: 
N_BIT_DIGITAL_CONVERTER: 
PGA_CM/S^2: 81.097
TIME_PGA_S: 
BASELINE_CORRECTION: BASELINE REMOVED
FILTER_TYPE: BUTTERWORTH
FILTER_ORDER: 
LOW_CUT_FREQUENCY_HZ: 
HIGH_CUT_FREQUENCY_HZ: 
LATE/NORMAL_TRIGGERED: 
DATABASE_VERSION: 
HEADER_FORMAT: DYNA 1.2
DATA_TYPE: Acceleration
PROCESSING: Automatic Paolucci et al., 2011
DATA_TIMESTAMP_YYYYMMDD_HHMMSS: 
DATA_LICENSE: U (unknown license)
DATA_CITATION: Turkish Accelerometric Archive v 1.0 - Disaster And Emergency Management Presidency, Earthquake Department
DATA_CREATOR: AFAD
ORIGINAL_DATA_MEDIATOR_CITATION: : AFAD - Disaster And Emergency Management Presidency
ORIGINAL_DATA_MEDIATOR: AFAD PROCESS SERVICE
ORIGINAL_DATA_CREATOR_CITATION: AFAD PROCESS SERVICE
ORIGINAL_DATA_CREATOR: network: TK
USER1: GuestUser
USER2: 
USER3: 
USER4: 
[...]
-3.1020802367494205
-6.010590199729346
-7.801410900526534
-8.710689419463877
-9.170448759458477
-10.157855969166846
-12.472993122718838
-15.60356196283871
-17.904675439557874
-18.100397263186018
-16.347458522490125
-13.69938834274154
-11.257276692369004
-9.795100107060417
-9.4382191570823
-9.961727752673262
-11.198227968451283
-12.608657205552994
-13.227553428187614
-12.207537848891848
-8.911234813896463
-3.407880991887993
2.838146274740231
7.930230109055826
10.81221357525656
11.259501560954744
9.708972617827154
6.825451073124849
2.907266928027072
-1.7562661005324325
-6.64180465257929
-11.35031412783693
-15.833845027195618
-20.477413656770757
-25.72357001024469
-31.77611663409351
-38.468309649894834
-44.82552935235683
-49.70100865607417
-52.532539431218254
-52.91853584678667
-50.70415547268116
-45.97359953894662
-38.79969895140487
-29.5784947125288
-18.78672655901559
-7.318170557654075
3.375904268524985
12.604840393084054
20.15920427534693
26.161813210943336
32.0935638564166
38.88052319787203
45.448562179468695
50.849726530916065
54.5395203235761
55.21883741637893
52.328969995333836
46.81445138771125
39.9688654141362
33.1037875306059
26.82602554054886
20.537808608160038
13.394961180259127
4.9391375673201665
-4.4948870860791885
-13.775018290633376
-21.518305184128344
-26.534189694013627
-28.580712996151874
-28.143295293296372
-25.948049917685942
-23.51731775780245
-22.23279070571046
-22.17032268433381
-22.633494177384776
-22.243498608514564
-19.806931665994423
-15.743844872478947
-11.07890374777975
-6.557560460536417
-2.864103128883923
0.1355693364598514
3.1857444388644947
6.572628450542597
10.723000910601531
16.48526354898278
23.406519281052645
29.60753248775512
33.90588812955353
36.0403039321463
35.994303310961364
34.738461660612835
33.88235236076289
34.11725667915931
35.40840785598972
37.84804687700382
40.63707330187039
42.03384398123041
41.255589351227755
38.91308964047737
36.14142979064556
33.53321497572952
31.450461540152304
30.643693654131763
30.50760885833885
29.820575016961556
28.782795340494868
27.51636687105263
25.57319107909452
22.882254292387955
20.011006873923986
17.83289743831026
16.368538291437563
15.493774654599564
15.785453456780763
17.591477611948772
20.828502052432984
24.801214721442953
28.18176988239668
29.84281178609035
29.08585399632237
25.819682915099875
20.99722993037653
16.038063304335363
11.983534097024286
9.458231600153011
8.183051749001441
6.913886251010341
5.0703125092717025
3.189922233188961
1.7365436726037524
0.8670711876513756
0.8561995625443884
1.7962131288656704
3.3175081843188523
5.020137408692706
6.743432884718387
8.082160406979137
7.940641322031963
5.612884268802865
1.607521538698804
-3.1688919643946187
-7.327264139016493
-9.427747668584317
-9.262926851182543
-7.374108790487809
-4.630534767398555
-1.9874382419687655
0.029141556011117606
1.3000623727193967
2.2576528791078867
3.4310371939818736
5.165542853108217
7.854177452969232
11.247912839501915
13.988296773634314
14.850115916923444
14.058994871817012
12.165587514474584
9.670164159464548
7.528948891382106
5.457449374087258
3.1060539710732487
1.4386600763702855
-0.02894717364326089
-2.8895820741349896
-7.964664961291206
-15.601326742930597
-24.812831224272273
-33.061265832927994
-38.025679109750065
-38.70692617654053
-35.29120089803037
-29.40337756277251
-23.656107918407713
-19.534733835004275
-17.16548423997784
-15.957500897925819
-14.732136613365395
-13.40230389306097
-12.52623268312903
-11.857234192483538
-12.37695597925936
-15.505547347490214
-20.22965153495737
-25.97893335559956
-33.19724211033606
-40.04128893595365
-45.23108594505351
-48.72032348096925
-48.77964869707739
-45.42318917290592
-41.01683086776329
-36.91129480865013
-33.760263586526925
-31.204717627691586
-28.3435861584103
-25.135526067045156
-21.63500924993883
-17.86228888211436
-13.379189738171837
-7.755451689107547
-1.9999649535233288
2.3452335892279677
3.877805419586415
2.2586002322526015
-0.7449758384510173
-3.0806340786049704
-3.833183881070062
-3.1496027374264806
-1.7619833851081717
-0.0592188730332366
1.2238984565980142
0.6640088149575792
-2.2253588717476704
-6.960104920759272
-12.680405585514132
-17.606978431612372
-20.35721302870632
-21.169413751880064
-20.63713199569402
-19.461064551430802
-18.446410153488372
-17.407978076026737
-15.705343631647935
-13.431044258437458
-11.179864664773314
-9.002500352073039
-6.272539469812034
-3.0026497405320764
-0.4303779318829139
0.19630122333718086
-1.2005583046456132
-3.8390436409021724
-6.628304993603762
-8.779672644542112
-10.601204025772642
-12.2660840582228
-13.198135466998401
-13.433931465391764
-12.846307565960968
-10.37344585501229
-5.543682992741277
0.6690507530731546
6.609746279351324
11.07365874312723
13.446932783262564
13.94476349114679
13.76606203664698
13.55497496730956
13.11326820082574
12.288182385581369
10.5328118385091
7.301655843319317
3.158829757533795
-0.6052570056214823
-3.2087400315489623
-4.9849661197214
-6.800292509555237
-9.121351707451963
-11.340376711806519
-12.332283842524255
-12.210631013060816
-12.31256024956013
-13.567769446371086
-15.87811976170434
-18.312474323310333
-19.546563394343714
-18.775189715100915
-16.33745527239005
-13.06686181777661
-9.49554749056692
-6.328277324420886
-4.556151875384519
-4.4636458712478895
-5.336747667073556
-6.224432629233676
-7.0812592416620985
-8.609518527061834
-10.288415564262658
-10.634496019881963
-9.249716388217138
-6.391914726149853
-2.632673543323552
0.7024477822657558
2.9453225504552685
4.686425268469079
6.839398006046019
9.83959574143065
13.179875819196043
16.210561235231307
18.98626082371223
22.14075253408699
26.247557925330902
30.699396355099815
34.08119984450743
35.83555279249203
36.50071782084479
36.621503404688184
35.80998889680772
33.407556534628625
29.914793909530676
26.382209066055758
23.347680704883956
21.20996237300416
19.876303612960854
18.658014330465008
17.514439789181854
16.821589600605968
16.294598920350722
15.349102201356558
14.142538040755191
13.69409667478351
14.7579616174941
16.7895408700274
18.212031625548494
17.966349965812043
16.026316669951733
13.04622300387125
10.712846202909411
9.625069768807695
8.633159954664361
8.068691411290628
8.642703998561624
9.96163486450654
12.028822308672028
13.462476243280319
12.068544120345106
8.678337012782205
5.642287893317512
3.621198016567632
1.9316879693297972
-0.3957496562868041
-4.12145127882045
-9.114495794804377
-14.252882792107112
-18.041484471450836
-19.193983272330478
-17.492916194040937
-14.30222440067817
-11.309848508677339
-9.034023157820437
-6.827719994745668
-3.571307467545739
1.221603847258175
6.569071489462059
10.914705514840097
13.70366887626783
15.47239290024026
16.866264731861506
18.128625892927772
18.82884542387532
18.73544889990244
18.63038596465545
18.887017911566208
19.5696158151629
20.51187342634756
19.92425055729192
16.806713849969725
12.51075082110655
9.103223452397069
8.749613714310058
12.050424717511191
17.342218936395426
22.413649015655803
26.077541105321583
28.87235421577848
31.33910053201991
33.25369082292665
34.6236449085588
35.4437843684138
36.00407865413016
36.45147560775639
36.647854229515325
37.28460970559416
38.53266857314167
40.071060537700816
42.11046450042861
43.98195117840579
45.04543543392488
45.65990445884105
45.527651277125756
44.057662227712754
41.19885227399453
36.75459299782214
31.131243641378784
25.722996684576156
21.16286656129639
17.271182120124585
13.453682455386796
8.277504930799712
1.3136484185264052
-6.675692805385196
-15.01603008103464
-22.28572175385465
-27.598283808438765
-31.472826319973898
-34.16405414722834
-36.14341017524699
-38.0690248808786
-39.72713981593014
-41.00860033162538
-42.0392884817788
-42.45934578807208
-41.96245007482917
-40.03731791153331
-35.94463845870405
-30.2244039564065
-23.86180137974228
-17.00506776844651
-10.104618644143653
-3.5469523283150677
2.609061200634912
7.57976962912521
10.731525236539074
12.120181300366834
12.50766298601226
12.936396330386193
12.853951834384977
11.241568601741658
8.388702555167692
4.747672913693121
1.111722335120046
-1.478810707715495
-3.2757700213243734
-4.9583354642371384
-6.774265622633095
-8.714343459778815
-9.980940923019022
-10.156684840756522
-9.741914392395742
-8.413754534886987
-5.442021071281747
-1.0545117207486452
3.5497780926083586
7.765574188230267
12.740478225177398
18.519530609515567
23.53348244308792
27.291668879946446
29.57997663340795
30.426833046673682
30.55003568112977
29.814641752049297
27.879013789978075
24.767720282443133
20.14675392223047
13.743569407255523
6.086834639472222
-1.7612641322326341
-8.862832874239917
-14.081090555877738
-16.622039524484144
-17.009192287803785
-16.268576798247633
-15.429940296581663
-15.442161557468733
-16.593432181751176
-18.64456049170926
-21.314568835311412
-24.325174967167996
-27.43230210305934
-30.35795119457209
-32.60960882336842
-34.18804079021044
-35.61026498090928
-37.05618065707915
-38.70670083858594
-40.151740700767306
-40.03967014097518
-38.00680813403758
-34.27633354452787
-28.08964765958487
-19.456734400469102
-10.277206898055468
-2.1976676021441164
4.388838322120869
9.20059874721214
12.235011887381178
13.988560714664137
14.04621237059556
11.849239778289949
8.092539202024764
3.2843502133538705
-1.8504579600022808
-5.6730934282829875
-8.229316999746121
-10.629589647523193
-12.635987404787565
-13.914053274323564
-14.631364961401808
-14.693804305640036
-14.265940152594066
-13.591307983404404
-12.18848774273018
-9.492304947597983
-5.7117654831868
-1.5820306866041762
2.4028372161531317
6.249661935879589
9.630293901567793
11.744929110087739
12.049619855708988
10.376648934596906
7.304471855621679
3.808578758014988
0.4597361743596222
-2.1285337834040168
-3.493758951349699
-3.7336513635317363
-2.8641424006888947
-0.7972301150776868
1.9604663768459456
4.12297537544326
4.635117479582649
4.036872194205243
3.9899043954306688
5.3554471425674555
7.610888217486015
9.81191685163397
11.270234899043135
11.67915205244069
11.204172003075687
10.255230519504625
8.94840259123863
7.337839775121144
5.866508620145286
5.094964877892354
5.672001987772427
7.961406595913309
11.441180425531828
15.355560825352214
19.0796805560799
21.45115844557139
21.130857249596275
18.084551080977818
13.611086646983587
8.920484463553978
4.522126229509195
0.4292625668497632
-3.0088220168737947
-4.586635075255952
-3.3981706042122553
0.034962719164567675
3.8464993274747243
6.101351985116594
6.40260534305198
5.655770515459751
4.962096723477755
5.267602141421227
6.899495586099052
9.46515849517037
12.482930070828775
15.41864331045448
17.566650480648022
18.442088542966598
18.066705526470596
16.83253447547594
14.775554257992544
11.463770706039568
6.698905275489533
0.4427466490352049
-7.0528423613943545
-14.872739809100977
-22.22155915020244
-28.815036495649984
-34.157092349752965
-37.33255875764982
-37.911193014278815
-36.48456770107359
-34.05221282568271
-31.60997559376916
-29.883054137373477
-28.767069102743946
-27.644596835915866
-25.99887055259977
-23.473187371795916
-20.45770647521019
-18.022752814768783
-16.422556340946443
-15.2939580294039
-14.492516365637865
-13.399281907814213
-11.51710280434663
-9.165739627644042
-6.463908185637413
-3.3294963565368954
-0.2542631415809766
1.7204529574022278
1.7730116197435746
0.09672859864983006
-2.3362416423984875
-4.665203704797396
-6.64387828731895
-8.242094768118259
-9.436595992508606
-10.51914490622001
-11.52697429346885
-11.693092143225194
-9.978666659877156
-6.022541395419734
-0.4709562337180599
5.547149078800547
10.86776924249331
14.68395701686094
16.582932185340443
16.61620894699231
15.776176772399781
15.243637077925104
15.738211220819235
17.393215526494618
19.36218074920763
20.950794599504995
22.020684096295845
22.11634944256388
20.960687349473854
18.55138935136156
15.141073329323493
11.579720161346684
8.479937870720596
6.173643737328796
5.016556720737724
4.562124983660513
3.86677512106967
2.6612728477365692
1.345969449427379
0.4502492375082732
0.4269231186279206
1.189843964824404
1.8380365964455496
1.496247046209336
-0.04902376045047811
-2.6500234169193946
-6.148021365101202
-10.283381333887785
-14.114443876296257
-16.259643783034093
-15.850432968038982
-12.72616081850246
-7.568010276667267
-1.7038613544544634
3.5524696437130547
6.869726684769331
7.325984871179406
5.2376182610192865
1.7728934488878894
-1.7850065243509332
-4.46990345926692
-6.203667255065704
-7.419418417185858
-8.148362426304725
-8.835518798775983
-10.926082831404484
-15.325865296852445
-21.59732440357669
-28.54176666206224
-34.65684541254337
-38.75073304892308
-40.87123553001228
-42.600821129415515
-45.839408417610834
-51.343316268681605
-58.547447936047845
-66.24361280575606
-73.23697915834911
-78.36543460957931
-80.64361148432054
-79.77346005867352
-76.16742170844378
-71.16156230388158
-66.52849937266767
-62.870491186984914
-59.877546595081974
-57.06594791525884
-53.00402705719788
-46.42656950256499
-37.77185891703419
-28.479938663389255
-20.6780422728196
-16.044906833815627
-13.792153952142991
-11.581876233920683
-7.772179638763536
-1.794049679509311
6.081991302031747
14.093122078164479
20.234239854529985
23.957143369510515
25.259960322760357
25.45627847446652
26.343382392680304
27.18922671571621
27.56027934931847
28.278413949810354
28.510443488186745
27.48471835914621
25.201793407114216
21.2545391595712
15.983026112181866
10.589425000160604
6.259287900528757
3.65001166846874
2.4214444538059503
1.3684991138413876
-0.5485929261810956
-3.3605079842323056
-6.608485598409513
-9.36707738356172
-10.269132900260662
-9.008421405469974
-6.416265437543865
-3.2170193566228527
0.18014101988275202
3.5678856167735415
6.85733822244724
9.704204983096313
11.521042720803134
12.04895402634303
11.549798967108536
10.420297997093703
9.14970888880125
8.181189148644481
7.284782574518496
6.214515169522269
5.6235122828318715
5.853904847889889
6.232994293227439
5.988189682864065
4.495992061535256
1.508773748124653
-2.442984276413643
-6.487570816652132
-10.196208678533658
-13.704154993447021
-16.689869498152692
-18.293535606641473
-18.199858924579885
-16.409023427514974
-13.268655601951446
-10.265117935697965
-8.569675874904894
-7.472323495409797
-6.008174359376809
-4.039045320519822
-1.0421195117657174
3.18443316757203
7.585261517583207
11.073549853926995
12.307370807339131
9.909653512176506
4.7538263798523905
-0.7760327406955849
-5.335295067386786
-8.632922073512471
-10.715863305485385
-11.864144695723862
-12.095054293190065
-11.355244165268685
-10.24109627501415
-9.415532918916766
-8.878276632136776
-8.177867754799788
-6.963217113331651
-5.540349752237036
-4.3986783824506315
-3.596903602194057
-3.1743780586195554
-3.210532409372458
-3.8248891833987515
-5.280301493567981
-7.463677680985241
-9.929276255156987
-12.36542625231354
-14.63778251439935
-16.7635587943315
-18.829047076472076
-20.68170292157575
-21.5124092219486
-20.352854203646586
-16.957408427463456
-11.512537050150735
-4.546365970688085
3.031253750732473
10.703904706558253
18.096840824633325
24.454496631490713
29.320977594289623
33.074673192459564
36.581227081102924
40.339702732140005
44.06961107966735
46.925064240814315
48.02134886330988
47.24453284181938
45.36290734327117
43.60459746509743
43.2392479813682
44.84720294864068
48.17062881109806
52.5696494186985
57.039056035342476
60.0705303845813
60.371444823863385
58.06829411404126
54.508929820891396
50.84771513426687
47.27924358101343
43.38338872815188
38.85294536945362
33.539859311726644
27.280034402423656
20.062702394376814
11.982547296357605
3.7924874353658877
-2.7612556495821443
-6.330457640245787
-6.90260621232834
-5.506566194109523
-3.869023639671544
-3.697522623162675
-5.902743131403988
-10.26158712040398
-15.625939701331102
-20.468885725058907
-23.289763680000977
-23.505698266567123
-21.936323511011164
-19.845400246874163
-18.21158589060248
-17.3490688070477
-16.306038456486743
-13.361042774856198
-7.559485089957081
0.6841854860933432
10.381786539930586
20.392911500188756
29.404917334487656
36.507640591026316
41.31000571375505
43.56471934483104
43.498982037218234
42.17598205329001
40.714799154248816
39.40176827096148
38.14665181575362
36.71904515914126
34.42374718804411
30.879752408903062
26.55076405176273
22.42720317583394
19.8516099311879
19.697540349028674
21.304286996546715
22.86970802681774
23.01838928684887
21.34127703510273
17.784788966705708
12.995544610132937
8.353076734743778
4.36611028420292
0.6380712244979687
-2.7978637823904675
-6.045140368934334
-9.351738995730063
-12.055320281538789
-14.057152714565133
-16.410399299738785
-19.162713821950426
-21.43187561981391
-23.020128984229814
-24.218167330571045
-25.355221434695654
-27.07590659202212
-29.687460997191078
-32.50654922234299
-34.69231498343679
-35.390068503280624
-33.45703589472144
-28.690741813839256
-22.555380495065346
-17.102214048492417
-13.29259451394833
-10.615580162805477
-8.360179492824892
-6.267102949937261
-4.162040631259164
-2.025210683505186
-0.2811605349404971
0.6623208136011208
0.8355148546085053
0.27158103805606815
-0.8248696363854937
-1.768361757023549
-2.0568017476483593
-1.343619048455285
0.782444747120079
3.9639441013589067
6.9744994404624565
8.643503537539852
8.056207627527794
4.7453354011742555
-0.35357705169178644
-5.516893005368104
-9.849246073936
-12.944719822473298
-14.589967509437198
-15.686949973948725
-17.402432176219676
-19.737478964877745
-22.39329009382661
-25.462332572923586
-28.5068797215987
-31.009994875180166
-33.110284766561264
-34.43895863262957
-34.40964363787855
-33.40310632613848
-31.81984545066782
-29.9539730812029
-28.901417830383743
-29.25852627153297
-29.76395775014307
-28.868759479449764
-26.18437206550952
-21.44602143937276
-14.917194746572065
-8.56471910526881
-3.8067326477319177
-0.12160837943261996
3.0747434358636854
5.951298308308891
9.040447183581321
12.206555810159882
14.256132203214644
15.143985831658961
15.759417528466997
15.81483156813908
15.389209809544
15.533168083610967
16.342398594704303
17.822563364344614
20.280618848896825
23.15678667988182
26.091080473805743
29.271365377465386
32.13702780610159
33.682878527282
33.435155438010405
31.340833555971383
27.497383809797203
22.392126412441108
16.590894622779516
