AAD_Filtered_TADAS_FILE
AAD_BASELINE_CORRECTION: BASELINE REMOVED
AAD_FILTER_TYPE: BUTTERWORTH
AAD_FILTER_ORDER: 1
AAD_LOW_CUT_FREQUENCY_HZ: 0.025
AAD_HIGH_CUT_FREQUENCY_HZ: 40.0
EVENT_NAME: 202302060117
EVENT_ID: 13194
EVENT_DATE_YYYYMMDD: 2023/02/06
EVENT_TIME_HHMMSS: 01:17:32.00000
EVENT_LATITUDE_DEGREE: 37.288
EVENT_LONGITUDE_DEGREE: 37.043
EVENT_DEPTH_KM: 8.6
HYPOCENTER_REFERENCE: AFAD
MAGNITUDE_W: 7.7
MAGNITUDE_W_REFERENCE: AFAD
MAGNITUDE_L: 
MAGNITUDE_L_REFERENCE: 
FOCAL_MECHANISM: 
NETWORK: TK
STATION_CODE: 0141
STATION_NAME: 
STATION_LATITUDE_DEGREE: 37.56256
STATION_LONGITUDE_DEGREE: 35.52789
STATION_ELEVATION_M: 312.0
LOCATION: Kahramanmaras_Pazarck_Turkiye
SENSOR_DEPTH_M: 
VS30_M/S: None
SITE_CLASSIFICATION_EC8: unknown
MORPHOLOGIC_CLASSIFICATION: 
EPICENTRAL_DISTANCE_KM: 137.23
EARTHQUAKE_BACKAZIMUTH_DEGREE: 
DATE_TIME_FIRST_SAMPLE_YYYYMMDD_HHMMSS: 2023/02/06 01:17:35.6902440
DATE_TIME_FIRST_SAMPLE_PRECISION: millisecond
SAMPLING_INTERVAL_S: 0.01
NDATA: 12501
DURATION_S: 
STREAM: HNN
UNITS: cm/s^2
INSTRUMENT: sensor = ACEBOX/SARA | digitizer = 
INSTRUMENT_ANALOG/DIGITAL: 
INSTRUMENTAL_FREQUENCY_HZ: 
INSTRUMENTAL_DAMPING: 
FULL_SCALE_G: 
N_BIT_DIGITAL_CONVERTER: 
PGA_CM/S^2: 13.211
TIME_PGA_S: 
BASELINE_CORRECTION: BASELINE REMOVED
FILTER_TYPE: BUTTERWORTH
FILTER_ORDER: 
LOW_CUT_FREQUENCY_HZ: 
HIGH_CUT_FREQUENCY_HZ: 
LATE/NORMAL_TRIGGERED: 
DATABASE_VERSION: 
HEADER_FORMAT: DYNA 1.2
DATA_TYPE: Acceleration
PROCESSING: Automatic Paolucci et al., 2011
DATA_TIMESTAMP_YYYYMMDD_HHMMSS: 
DATA_LICENSE: U (unknown license)
DATA_CITATION: Turkish Accelerometric Archive v 1.0 - Disaster And Emergency Management Presidency, Earthquake Department
DATA_CREATOR: AFAD
ORIGINAL_DATA_MEDIATOR_CITATION: : AFAD - Disaster And Emergency Management Presidency
ORIGINAL_DATA_MEDIATOR: AFAD PROCESS SERVICE
ORIGINAL_DATA_CREATOR_CITATION: AFAD PROCESS SERVICE
ORIGINAL_DATA_CREATOR: network: TK
USER1: GuestUser
USER2: 
USER3: 
USER4: 
[...]
7.203502290213166
5.027669014942213
2.6606049370935305
0.5501718315355799
-0.6368602524339096
-0.14770661579774622
1.8747271586038472
4.5103555576015655
6.662669060248852
7.516694667831212
6.959856422111105
5.46187000776193
3.409129424208877
1.2390053323959724
-0.12404134038631708
-0.0038578073383063695
1.4475821428852442
3.3937581749381756
4.446769297456011
3.848920489473632
2.4588719239247125
1.4897929232370222
1.3305043426603813
1.8411382358395685
2.6226840121150885
3.19213038741281
3.2427650238165366
2.6032599403542878
1.3854776719870252
0.2419320339805977
-0.08384629338155254
0.6066820278915761
1.9680212514350441
3.237353733989612
3.4893927542090406
2.3837845095559604
0.3553531963840631
-1.8740322915885648
-3.397599707366397
-3.525023477863514
-2.5237293131625944
-1.1324281875841924
0.12107997783551268
0.7290767813782282
0.4448193275649183
-0.3868410960942437
-0.9556141778661943
-0.38509778028742736
1.1814048700247641
2.496751869301184
2.767882156331515
2.2734265349784213
1.7014493462967242
1.6331584400923367
2.092037994607032
2.3847307568305114
1.7006984145585322
-0.2969667410379637
-2.8742748682747883
-4.185386776272121
-3.171866755931063
-0.7366936482986705
1.5109506404728303
2.53150541765104
2.419902172841804
1.782144746360574
0.7230737612325939
-0.45552491503687026
-0.8857954728466503
-0.056815548037732734
1.8948704790884947
4.222378503082882
5.76478486321903
5.7903177097758105
4.483545589901683
2.6053414072667787
1.1131772293955031
0.7480069663976039
1.2668488981504213
1.5290647664037804
0.7370001512962567
-0.8586857893690085
-2.1724139967643517
-2.139466315485275
-1.053895209716908
-0.3873377621274948
-0.9350327818220177
-2.2170393490580356
-3.2142824351426
-3.0923959194173234
-1.8928466083812032
-0.1746340580167383
1.7236652114631608
3.2350898928167884
3.4661260198505404
2.276380972952107
0.7895221487203329
0.24907308048034643
0.6937019404323308
1.4856107606314481
2.27767668657848
2.8328926512630175
3.0855967577148795
3.3097276534396314
3.7497739533347567
4.511905258163098
5.211600194250405
5.030385691395974
3.9994932385753375
3.0991158668427707
2.950453232397809
3.4137542814030533
3.98128013816237
4.095916949498515
3.3585352654166623
1.9083482317559763
0.6225221607470325
0.28813649508982286
0.9825142746009815
2.4126027514947395
3.741323080680935
3.5586649698114305
1.3303748305499692
-1.7373168091326736
-3.8628185481036277
-3.908403151550003
-1.6998180630178201
1.996220291126815
5.839310868522269
8.234300017683147
8.001341597251205
5.35799237425873
1.6501287291731206
-1.5366986594861216
-2.898999739168431
-2.058063737607467
0.25167855416091267
2.7750276652739827
4.463925580693176
4.929977860459689
4.40357481758256
3.4846379229699935
2.9556581927046746
3.2617768153554993
3.960207664266181
4.191724390243812
3.5759606243936846
2.369018331907108
1.2095189283677965
0.6285704935669026
0.5460483513684725
0.46824676758130823
-0.0044928195736914965
-0.8785503456917303
-1.6723628345945776
-1.8302250877015562
-1.3576148960450312
-0.7535350309564854
-0.387035825878619
-0.2201250520871312
-0.028293718870959026
0.1176098201109825
-0.24075074249444353
-1.2374863203199626
-2.295006040517067
-2.565229933110265
-1.5988694198911337
0.05524314031958882
1.205971097592851
1.0648183745841624
-0.47504812857045636
-2.838761004233305
-5.063772502715886
-6.841583788324355
-8.38127789414498
-9.261258090740576
-8.630592521715133
-6.265528497128641
-3.023205817796237
-0.42549343952991553
0.385831705184035
-0.562143118076177
-2.1969646869092
-3.337371376831741
-3.440236579884867
-2.4729689037024416
-0.7514689350290642
1.0354291816906604
2.094617320310829
1.884166235578183
0.22788095765914004
-2.5978096726155826
-5.277795056697685
-5.783639559686015
-3.3637074440382104
0.74813560593018
4.446747290592469
5.959012797510814
5.095994135630611
3.110413464640264
1.2073399448076632
0.08911947029470388
-0.008813816862805496
0.716623556224941
2.1687570882112612
4.453750430546587
7.229784319432415
9.155064922765995
8.652323447214306
5.348249131353664
0.6069100504231428
-2.817577703849869
-2.836550657930982
-0.16137955817574584
2.8699780992797836
4.484767989318029
4.302472510748031
3.0155096334835725
0.9704143071332698
-1.908312395259899
-4.8943147554156
-6.674025125856568
-6.373863126036846
-4.320797982475395
-1.948990722743495
-0.644966982971071
-0.9006014734170963
-2.271429712108116
-3.9744305724977007
-5.432524139961359
-6.17882413497206
-5.994300826742132
-4.993425314625179
-3.3324175242017224
-1.3682681668704242
0.25913455261375845
1.006257637183927
0.64742064735635
-0.8592294270844442
-3.056229124582349
-4.298258288863757
-2.9840129993778195
0.48671079051546706
4.243399894797656
6.491777854774783
6.550180762152351
5.060716137696069
2.8178446193402493
0.2947207999969822
-1.8390157449798377
-3.1464336147066128
-3.718016273101975
-3.5001482714147123
-2.2345213375698334
-0.14720773694271502
1.8024519275348294
2.36510827059089
1.023617291678018
-1.319675427773486
-3.336298262890686
-4.5858035932403745
-5.094723223815501
-4.50409496868111
-2.588008498528021
0.01881829204443855
2.1264183580790412
2.6585998819430112
1.426609321396993
-0.5000110316815942
-1.719127143661899
-1.5997555310718574
-0.4888728342192592
0.7582901055458457
1.5797969766222146
1.9324784814179954
1.8330503234290954
1.1684520507431926
-0.07654676678273994
-1.617725486846937
-3.140948109083986
-4.574288073456861
-5.578919910804822
-5.470418545680199
-4.096891201396267
-2.1353337108314214
-0.7098843257244603
-0.6000039536664168
-1.3883772648631856
-2.1030505715741814
-2.4323958310541762
-2.6158601423989434
-2.6270730526615824
-1.7663576260264302
0.41289791047470803
2.7911374694200104
3.5466806810248754
2.045576749289666
-1.0555533496826823
-4.66495658171141
-7.527668985465344
-8.497976566350495
-7.13331810327209
-3.8831329216415966
0.13890655960045478
3.3400758243463926
4.4981284755888264
3.900175360718701
2.7442491013232626
1.8868037321565707
1.6648702026449653
1.7142144297327984
1.412461333697583
0.9344562503831427
0.7766405074592114
1.0594732022387756
1.706016231131477
2.2701113524575662
2.1422556610720704
1.2995166964210787
0.2476085415583779
-0.41945470146343733
-0.1380993417461947
1.0183225440443284
1.9007006124779888
1.6668821704780918
0.9184812361299157
0.5488688184078131
0.6292270622482414
0.6472148497297419
0.044574399905320625
-1.18288860399129
-2.227247020555911
-2.2022419449583475
-1.2442100413484083
-0.5779412991642844
-1.0663113371114565
-1.9886241923468424
-2.0479405207829715
-1.1808879415426492
-0.43340907781086935
-0.5117980455194866
-1.0656783700719321
-1.2025642001778478
-0.6567553532207934
-0.20441913901725664
-0.6737603275911485
-2.0036359142326536
-3.564975746394221
-4.906682251991401
-5.855549387720675
-6.294617305040957
-6.198339463130145
-5.8146348268897325
-5.505881273295255
-5.157627677387625
-4.154000734679314
-2.3671191404479135
-0.7150936049019125
-0.4276877842437332
-1.8521854198433103
-3.7974601892780004
-4.537951367149497
-3.9232844494705463
-3.39082828223643
-3.6704593628328976
-3.9512169394196186
-3.318674991110961
-1.7589472364683814
-0.010834831115835965
0.8402516664255238
0.3010897314939257
-1.0426742101342965
-2.5322179995359537
-3.897364667993312
-4.648542361219864
-4.160085123487826
-2.123021116504671
1.28369137839615
4.988338823193644
7.14555836856765
6.602463011546495
3.8644475229680286
0.2974994414404624
-2.8897108573266035
-4.9677456698096485
-5.484352491193703
-4.093570779418305
-0.9746195312299676
2.794427093633033
5.52825878931253
6.002491550987474
4.345713528807628
1.6143836649913912
-0.9738513784994212
-2.5429598169208707
-2.9305178494952666
-2.4375946260085297
-1.4725422823078083
-0.40264783233297075
0.7101487952032757
2.0910478289518224
3.649580727369932
4.494583116525625
3.6705213249158435
1.4001125988852707
-0.9053163058918989
-1.8474199407701422
-1.1960311269426323
0.2543847924489409
1.766048621769227
3.038244122911726
3.912509284847457
4.125262349599771
3.2430439377064495
1.1695175834222051
-1.278162274641808
-2.885050021375937
-3.2497631014044366
-2.9235903461730586
-2.2609010338605606
-1.0826360482870117
0.4279310683412952
1.5694808874804713
1.8031682354711707
1.116490074358655
0.019336921121993957
-0.9156751236201662
-1.5078724277234992
-1.7591274985257486
-1.5001809583452885
-0.4254190819130005
1.1117133102965782
1.6253316365565598
0.06012268014724987
-2.699856771816889
-4.676946269987192
-4.6017372751105485
-2.9736830866904063
-1.3852871749313398
-0.7412202628823172
-0.7234382683258462
-0.6959912325030573
-0.5705372315405419
-0.677562786848907
-0.7981939960642862
-0.2803015278211861
0.7563475550285577
1.4436736100125513
1.100808639621075
-0.13111811811352164
-1.1552416025084613
-0.8556229083591704
0.8449992758542332
2.948220409217336
4.090487104895361
3.6334368085171946
2.1370331805364917
0.8330837822019515
0.5936525310123913
1.0803106489584924
1.4628554174008808
1.6923481060655219
2.2274969783421903
3.2755259270164654
4.542382365741503
5.1697957952369755
4.299425856808613
2.089343645132935
-0.012621943953521331
-0.6019864458015094
0.09790742479626842
0.8765751929486324
1.2886850573845676
1.6992997019211442
2.0709057006965046
1.5409426553807863
-0.7207337331326524
-4.377796160458616
-7.601736899628944
-8.219758317327877
-5.636838207044417
-1.2356895474720053
3.059570243070042
5.946465695448956
6.8864258242794
5.8994251136772915
3.3071704770815225
-0.21725038303380356
-3.2592770272004064
-4.106717585835791
-2.050136106911268
2.0495707569473893
6.155633794074291
8.075445518523912
6.913223227428055
3.3030427008378553
-1.5428262128608399
-5.747406962790151
-7.132887082132464
-5.261778542534188
-1.504355283824453
2.3756019679906757
4.544033089405359
4.0620665768377835
1.347129436049104
-2.537190165542059
-5.591730568295459
-5.710785052785229
-2.5606681299987493
2.3822157010717353
6.632356904176881
7.956315568759149
5.884658271166305
1.7837781203937437
-2.0859334928114173
-3.8538881579760367
-3.006663207431252
-0.18223121548547017
3.322062957976715
6.093525959171956
7.24490774075306
6.503291683551572
4.132573736210238
0.9231158148381512
-1.7038978358959762
-2.1093611091406212
0.2425298047530634
4.309186884860706
7.94122134470701
9.013159475809086
7.241565529286218
4.044185697207029
0.8109336713345948
-1.7665050018620287
-3.468661154169045
-3.9461329662191833
-2.6102859032038817
0.3775507296938464
3.316349549513933
4.026297706556691
1.9674216369793942
-1.5263361586319133
-4.620354453016164
-6.00843094482173
-5.406416713788501
-3.1217116802719214
0.40161773440942294
4.10601391592554
6.386075532033905
6.336038993217018
4.359966989310202
1.5486781809385215
-0.5060273599505607
-0.4202784151204376
1.498819850897064
3.8889894003005883
5.650913334031626
6.157963360892386
5.4926522642664475
4.109566921249662
2.6163478951349246
1.9527769962427104
2.5967095463773138
4.226915983430435
6.114750142313174
7.158715786053461
6.749498027708328
5.676181969436824
4.966758631505994
4.52452694666508
3.6522634810382133
2.1080921801996535
0.6061324325519174
0.31222250810099206
1.4210103479362306
3.0905909363431685
4.634855480453543
5.567133809428541
5.391833848103551
4.018321557385516
1.6228504191970696
-1.2940288671770015
-3.7238737271245905
-5.127883409983069
-5.7361115383389825
-5.465546967175552
-3.828628124279313
-1.1476050973222238
0.922210101972883
0.8525534140491149
-1.1876585326063969
-3.7479137805842755
-5.331374522511539
-5.414052201830606
-4.507739944562788
-3.015108279914606
-0.6602973437872889
2.760531394614615
6.010639559894765
6.781966266439512
4.348173131643243
0.15893785664954826
-4.036901040576854
-7.046913121754074
-8.068831475649946
-6.533103730968026
-2.232843940439237
3.9543158854259834
9.300217910259267
10.641678741980149
7.462824139301362
1.7234566083082914
-4.262088758390635
-8.001804901436616
-7.848533413701981
-4.271938205745117
0.9723477765266957
5.533349411059443
7.5851463140235165
7.220886786496786
5.748150335113156
4.466107325126914
4.073962045067634
4.477141948444913
5.395792158626863
6.743698785880932
8.195123176291135
8.94168776724663
8.400152062427846
6.812150674296278
4.750675948716925
2.701736617943621
0.9544171625345997
-0.23799684419100922
-0.14258884007812983
1.6448521721322984
4.1866275341593155
6.007065718161601
6.259733532760479
4.9991161287466035
2.4927689132546633
-0.9138143461694503
-3.8555778367073503
-4.5783608235460145
-2.5708265330727817
1.18191069047787
4.961070744850814
7.407410716085007
8.06994818422608
6.977160598230082
4.280612958354604
0.7832937923571244
-1.850772456344089
-2.255827356092652
-0.5359952585692275
1.6365613320238332
2.5056147281403223
1.4874657492032501
-1.3095023893332904
-5.058163992447987
-8.931884991942205
-12.370789721578019
-13.440431329670933
-11.05122026274949
-6.734648602230734
-2.2618404899020335
0.6851064632080507
1.0148315838544844
-0.8370234930008108
-3.8035586127702126
-6.16305376766083
-6.483432925842963
-4.619589369025665
-1.083598352596891
2.692474776787987
5.054592013291151
5.729385487124908
5.156486549813327
3.245251096409216
-0.05715819192044395
-4.1345756713575375
-7.659549331992139
-8.640333303470808
-6.3738163161984875
-2.49776459906734
1.0295486738814632
2.834360888335893
2.35267224206404
0.5179111378387738
-1.3200994050178252
-2.6290597096908224
-3.256804592986179
-2.5799450593192454
0.038614771377802025
3.9743783858063986
7.184765219535874
7.206052449698471
3.0993060597240354
-3.258778099709729
-8.81823769911557
-11.456935247419231
-10.37883807722251
-6.030544079937489
0.036264774239232536
5.291829262441564
7.397642950031268
6.062380516021155
2.4007864904235245
-2.4305514185910466
-6.820993063484214
-9.38562421429459
-9.8255871034254
-7.897946229540259
-3.8126219354702684
0.6477688644866224
3.5736788953464718
4.3514710828218846
3.2549128072715376
0.9022240379875898
-2.148797937239328
-5.380076455188613
-7.577395689576638
-7.251583957910888
-4.467236603623237
-0.8667982463576058
2.0104822802897733
3.1808642522502333
2.6076316412682212
1.3013014146489363
-0.09344409371846724
-1.291437606866672
-1.6864016109364321
-0.6327600563717373
2.1232243666899633
5.285480331405619
6.817403454678221
6.206526365756987
4.180385357992059
2.0201320862544843
0.8098151768021103
0.5106588929652401
1.1148285228427797
2.7581893905177983
4.301765064970167
4.038326543052338
1.5431440298979657
-2.064372292438628
-5.517201919628723
-8.113637929697198
-9.345108295666735
-8.939323307511705
-6.987140484519526
-4.262326073105745
-2.2121576684886413
-1.7797945020118557
-2.874670197789248
-4.902611982062934
-7.250095185910988
-9.464785447515245
-11.137948891249358
-12.058315637647164
-12.19738205727771
-11.395856222527636
-9.600833156823033
-7.181565736704677
-5.105764307028832
-4.461791214557699
-5.398339835464933
-7.158880263334858
-8.6810279424102
-9.279829812647916
-9.14973241085994
-8.430059153719098
-6.873776013861152
-4.732287551032009
-2.750104094576174
-1.8643057490742188
-2.7472934827454845
-5.124354591974967
-7.775373079710746
-9.007220839813932
-7.8672114017027495
-5.075397725436973
-2.0915268468474157
0.19049611280926104
1.5169502675756894
1.6463312728317125
0.20999333735011833
-2.9089589510598395
-6.930246603622801
-9.554318950928097
-8.501040899044929
-4.035594013510481
1.412126967480996
4.980204149390544
4.592570912333005
0.5287394292741571
-4.9152028884283006
-9.37988700654465
-10.673858554145918
-7.617048946188418
-1.7790240818336842
3.940535091659517
7.45308181411017
7.873624905416773
5.573662431844156
1.224940841148468
-4.110867560096272
-7.533283826965246
-6.282841371930097
-0.7577997359756338
5.9704295914648915
10.271236529530261
10.28000802772947
6.932040010818737
2.00753585171418
-3.5145132309483897
-8.371845828231987
-10.579509413234678
-9.042697661689035
-4.320509613303434
1.1756103697492275
3.754847484709752
1.9291207680462479
-2.447214180887379
-7.31958817371929
-11.24746419239006
-12.795182334106382
-11.535645126418162
-8.287338976471117
-4.737439313626557
-2.7123020658412837
-2.7282253261071614
-3.865159392584678
-5.2410446009373635
-6.9039203925086525
-8.758314812327933
-9.525499878300279
-8.051844061550696
-4.811876810825091
-1.3691367508926666
0.9093659063613372
1.595242884985047
1.285030687721953
0.570570573025624
-0.8418042939088191
-2.6510301762807202
-3.044950887226874
-0.7550783793569574
3.498377978121231
7.340305292487357
8.296528072330895
5.98749343489219
1.8372679861342815
-2.5564373924092383
-5.8789846686887675
-7.495789414851379
-7.483722433564557
-6.270636638991202
-4.626690930652662
-3.3709857595765302
-2.926875940920959
-3.1706093193179576
-3.7289714525700814
-4.288072000587527
-4.416422928308183
-3.848815135869813
-3.044303137492767
-2.633921717354632
-2.6042610483523174
-2.4935691729390754
-1.8981309642313324
-0.7120907185337586
0.7827154030054864
2.0250838916332534
2.461599266924698
1.879895439746191
0.3655165117546915
-1.5479425006898522
-2.6009101313420566
-1.8708950941813653
0.2075518266078746
2.1287926986239674
2.203783879845738
0.16546442762696972
-2.4702007117532507
-4.17828346851394
-4.564469948496671
-3.970494205944877
-2.674401351938854
-0.9147212179606193
0.4791262871639052
0.39400204341785866
-1.5404396657657575
-4.403702115451553
-6.673742080153811
-7.497603273348323
-6.966483238832276
-5.690577035879534
-4.257180360724915
-2.7995235617434386
-1.4680513037299117
-0.8521924981837541
-1.299809903476895
-2.3440385918505786
-3.1178396712939165
-3.2055574794785486
-2.8517596444300404
-2.0988866122030494
-0.5097729428309189
1.853523276034655
4.45624281437444
6.870727330396505
8.130564411444588
7.287437433682944
4.89630121768179
2.2823005663418248
0.504852115031192
0.32095010735753554
1.746749476735695
4.160062498437572
6.717948463622064
8.210125276977296
7.507532766336203
4.374117762883736
-0.23707806528145056
-4.421953594340247
-6.593691339039313
-6.818427121935019
-6.23314244763888
-5.73175616805651
-5.583201692352447
-5.4774153197106346
-5.251729443577505
-5.290525350073595
-5.569818445241605
-5.521763862871061
-5.118484108935111
-5.18883296649809
-6.174457663559721
-7.367347001093674
-7.916620877891838
-7.077989893319939
-4.432278519502832
-0.7487224524729242
2.793512192504812
5.007496611181878
