AAD_Filtered_TADAS_FILE
AAD_BASELINE_CORRECTION: BASELINE REMOVED
AAD_FILTER_TYPE: BUTTERWORTH
AAD_FILTER_ORDER: 1
AAD_LOW_CUT_FREQUENCY_HZ: 0.025
AAD_HIGH_CUT_FREQUENCY_HZ: 40.0
EVENT_NAME: 202302060117
EVENT_ID: 13194
EVENT_DATE_YYYYMMDD: 2023/02/06
EVENT_TIME_HHMMSS: 01:17:32.00000
EVENT_LATITUDE_DEGREE: 37.288
EVENT_LONGITUDE_DEGREE: 37.043
EVENT_DEPTH_KM: 8.6
HYPOCENTER_REFERENCE: AFAD
MAGNITUDE_W: 7.7
MAGNITUDE_W_REFERENCE: AFAD
MAGNITUDE_L: 
MAGNITUDE_L_REFERENCE: 
FOCAL_MECHANISM: 
NETWORK: TK
STATION_CODE: 3116
STATION_NAME: 
STATION_LATITUDE_DEGREE: 36.61618
STATION_LONGITUDE_DEGREE: 36.20661
STATION_ELEVATION_M: 33.0
LOCATION: Kahramanmaras_Pazarck_Turkiye
SENSOR_DEPTH_M: 
VS30_M/S: 870
SITE_CLASSIFICATION_EC8: A
MORPHOLOGIC_CLASSIFICATION: 
EPICENTRAL_DISTANCE_KM: 105.38
EARTHQUAKE_BACKAZIMUTH_DEGREE: 
DATE_TIME_FIRST_SAMPLE_YYYYMMDD_HHMMSS: 2023/02/06 01:17:30.2162110
DATE_TIME_FIRST_SAMPLE_PRECISION: millisecond
SAMPLING_INTERVAL_S: 0.01
NDATA: 12501
DURATION_S: 
STREAM: HNN
UNITS: cm/s^2
INSTRUMENT: sensor = CMG-5T/GURALP | digitizer = 
INSTRUMENT_ANALOG/DIGITAL: 
INSTRUMENTAL_FREQUENCY_HZ: 
INSTRUMENTAL_DAMPING: 
FULL_SCALE_G: 
N_BIT_DIGITAL_CONVERTER: 
PGA_CM/S^2: 164.277
TIME_PGA_S: 
BASELINE_CORRECTION: BASELINE REMOVED
FILTER_TYPE: BUTTERWORTH
FILTER_ORDER: 
LOW_CUT_FREQUENCY_HZ: 
HIGH_CUT_FREQUENCY_HZ: 
LATE/NORMAL_TRIGGERED: 
DATABASE_VERSION: 
HEADER_FORMAT: DYNA 1.2
DATA_TYPE: Acceleration
PROCESSING: Automatic Paolucci et al., 2011
DATA_TIMESTAMP_YYYYMMDD_HHMMSS: 
DATA_LICENSE: U (unknown license)
DATA_CITATION: Turkish Accelerometric Archive v 1.0 - Disaster And Emergency Management Presidency, Earthquake Department
DATA_CREATOR: AFAD
ORIGINAL_DATA_MEDIATOR_CITATION: : AFAD - Disaster And Emergency Management Presidency
ORIGINAL_DATA_MEDIATOR: AFAD PROCESS SERVICE
ORIGINAL_DATA_CREATOR_CITATION: AFAD PROCESS SERVICE
ORIGINAL_DATA_CREATOR: network: TK
USER1: GuestUser
USER2: 
USER3: 
USER4: 
[...]
-15.216831664727632
-29.082504606956388
-40.93976936514229
-38.106016883870524
-36.87457117117659
-29.372242080035996
-7.120395025070451
13.812347198488693
25.893061131302556
18.29499975940011
5.850898988348113
6.452643431779325
-2.744567151938505
-16.116389338991528
-23.880262506886645
-22.002870481025464
-22.04696778764848
-28.373313268954067
-11.457494006010617
-16.576623027606807
-11.008486617324905
0.8507235858161436
-18.201067140595907
-19.212927940107818
-18.205056952772008
-4.9201589604533265
2.153867444092491
16.690175592004366
47.140207738051956
66.38365904419679
72.19348693167788
58.819985116742494
42.36806440433362
38.85334456622289
50.51524123518468
42.14872306493508
28.042701451100292
11.427631665470535
0.8329840887346402
17.64005510951379
28.628891075338885
23.337889743097886
10.102379292218362
-12.815744822603282
-22.18691744816189
-25.98485247315331
-42.07081461254908
-53.795650452819615
-51.28681085738801
-37.572820693909044
-30.40262607964549
-15.98106043854636
28.922697658751634
62.5255293947069
73.83457686880574
85.21347727095747
79.06587752240452
79.45781072087858
83.52043823565229
72.17883514146405
58.11639732622567
32.958044561658305
8.185355890637538
2.3572585873363936
-2.987969920906503
-23.84460778423159
-34.18602069034192
-22.055498281712314
-24.894255745323424
-37.49631140525432
-34.98552047630983
-15.724547616914258
-7.045392422487374
-21.445123874486352
-22.945829542873454
-13.356511569210038
-15.077213165157307
-10.048484356954416
4.286092131230392
7.572355966446363
2.6741269324897035
6.57113101829627
7.369243075699843
4.00361512420851
8.539531617426164
14.668553304077022
14.87628991906999
24.92973262904645
33.18955797884094
8.906972987004535
-21.40286080419563
-42.22941948965363
-66.85122862261558
-80.36995386567864
-73.3272819748812
-74.24378598236972
-61.0755141519024
-67.01846000153014
-67.42197070609429
-48.67845777106256
-42.73159798353506
-25.294968281069547
-28.602764552920984
-32.00998130217885
-39.88767498825037
-31.599277850340297
-2.8151663524970827
1.4303815657982515
3.319056949929599
4.313468276908516
3.1058073525449146
1.3411773696286637
-2.5856099371548886
-5.519221713087341
-9.781178404178045
-29.284865991076625
-41.7529023419157
-31.03197315026057
-25.057576377179934
-25.45418946249091
-13.05903180099585
-5.339973749762738
5.474330550262549
11.68543947924684
-2.9849095667899803
-12.740832192382683
-21.52671389003407
-24.430129206443826
-12.500098169340871
-9.107020972379674
-12.285471893414382
-13.729582079528
-22.6362641280153
-21.71099733416145
-2.919522152353247
22.968473122702083
24.493281382979305
17.342142843371427
26.329758291679582
13.91794902338823
-4.925647781609268
-7.318275018457865
-1.5263845077135945
-3.4980781973653468
-25.17603694779255
-35.17139954669406
-47.99179507217711
-52.25985100531648
-31.068090584910877
-12.158959909273467
-3.364001158448891
-9.62662627382578
-15.494649249069226
-12.09608881341425
-35.73889841121747
-39.68638994637346
-29.817072029092664
-33.32646224125933
-25.148309933382393
-22.940087423691185
-25.57605950364034
-27.752058980384312
-25.39523732938102
-11.346770503033948
-0.8626682314021998
16.64044439615401
16.074191589883892
9.27239633347301
18.60097883758049
13.68803987258911
19.698364062678007
39.861575697708645
53.95742240265089
19.448435932688007
5.188907615886624
11.369474060143279
5.508179828485601
13.864296194364714
22.769515534435136
25.54988989604556
-2.0733812674218117
-2.5490568183455493
-2.9612317644313477
-4.902527714741036
13.187566747524876
19.700064601027194
32.75956054598817
29.559287614966745
29.70676051761306
23.973390722627116
23.963327016001262
15.229800243484531
9.922556442186202
18.78799550143738
9.74323316097012
-3.2522575938209752
-18.43130781185854
-17.78546492664649
-12.10039767533514
-12.48767055240137
-11.46229615246512
-7.325792574099141
-11.256796430375653
-0.20016446190672516
0.4923434361478855
-5.4713178082430085
1.0934469298647067
7.272877653981177
18.172443435848972
13.745257303032371
8.042416059535896
1.7897835973591294
-4.650313226103703
-6.651312714142056
-13.496690485114177
-30.371124134471998
-22.273163393789453
-13.972203520688511
-15.63877840766526
-15.807853003015536
-18.020344448104343
-11.079731414810055
-21.32969853894068
-15.07286213743897
4.586315555439481
-16.081005946404655
-26.22443016749687
-18.36371716878264
-25.41604845702592
-45.07126942812545
-56.08177345601052
-51.1834460810808
-54.16645944312199
-39.737790529236236
-52.559131650378454
-51.176404823992456
-39.379797532631734
-38.1847772818192
-15.801365994091014
-22.525182486099702
-31.93338517347779
-33.82740889285492
-32.92795337987216
-41.87823682656186
-54.1795137789678
-54.65711003936824
-44.272426947616566
-35.36481333207908
-32.12842414721501
1.0028805691356624
19.727059771470998
27.470571131183963
56.14100476450389
58.41395484334246
60.37933206933019
63.89735111086623
48.99576151670424
35.071549412677356
14.31978084202578
10.702573137834705
9.212031721966316
14.595460984116357
22.013926579566025
21.746875788695824
31.55038561669772
20.57643168033827
15.639496225679718
34.16599643594084
37.517862791758645
21.654510196205543
21.7199402882939
-6.5992368987048105
-25.651094480663335
-8.286638095688593
0.23755701680885566
20.89131580269821
28.23411482243954
35.80649932643548
41.67272925810315
48.369203004959765
49.14309657078723
44.731318356717544
42.66482833586586
28.03244524786221
12.171692308019383
-2.6759530075940727
4.611224089506245
17.294683868253376
25.982812726127666
31.744558385228267
16.71163563070691
5.58159902165768
-6.611975301652047
-24.976377756734095
-36.616160900437905
-33.51197072396573
-13.640176525945764
2.3107154986800307
-6.343816487673542
7.95924279974864
16.213660348994267
-2.1420234191206062
-1.6582103288342722
-25.478439163064323
-25.534409235055936
-19.309386774451365
-33.88420388584646
-33.66805140937574
-19.546050647809555
-41.13114267330527
-56.303230111197855
-49.509456168657735
-65.34948390766377
-71.9021150974028
-57.57728091597565
-35.542018598319245
-32.687829280115956
-26.524885195295298
-33.03042871869905
-29.15563014200722
-26.665693709143365
-36.48662684179328
-24.26019776663169
-17.531693715065455
-9.119824948444881
2.479331338241623
-1.475954908283776
-8.54999167169531
-3.027188075424131
3.5703446055612216
11.262096497325844
29.390862890249867
29.807529302578047
40.82811687792321
68.26937405713682
60.34158075199935
58.85000861677386
46.458242486618474
19.18005360487451
25.093259963494475
20.358336768800644
18.0271038223419
34.26204064477566
40.35612512164012
35.97536701571561
44.90702620788424
39.904510445855216
43.98905648276464
46.66456885928629
30.15431928113031
19.39059242425527
-10.111210193021318
4.3796385424687685
18.729388441576525
23.86007923165876
51.63915061048032
53.46201596718851
64.01528794753855
49.78268190566281
28.37753905415763
27.981240939934114
1.607555826501924
-10.759627284287266
-14.343350241867313
-2.1929259432465833
-17.275326435123368
-29.78367120104684
-28.741059591356827
-50.53433065561017
-61.581630732914654
-49.31750359142985
-25.449169722627207
-34.12722100494605
-23.012604751852912
-17.955717529479728
-9.134878164045194
5.07460656570236
4.210009756867802
10.407735442837643
18.857255418207128
29.535525048227164
24.823671975668187
30.11548389479149
33.45788598556404
29.96168755644074
48.06857676346256
45.8723940173017
13.899417570098027
0.04847587593105645
3.812038884235938
6.720256437060656
17.31583004981465
14.601131365026438
16.969761751498073
5.420196919249518
-8.117320920788906
15.342081507691892
-2.8384403974643533
-18.116147765325493
-7.3440147266833
-9.059886044182733
-10.814206613371907
-2.572548653063574
28.21872950115379
66.42837064652245
89.5154153525934
90.3671879282213
101.27531504235114
115.09534218560069
98.28812340892793
92.95301619836707
86.95371649482499
80.42195133933218
88.7828752084222
84.02195271095195
71.08060531597364
60.580277895224825
37.98124360014515
31.76399796758406
25.66409638823821
-14.755467491792434
-45.3449822805917
-80.7003090312357
-96.93502942181584
-86.08762144616139
-67.03556866446547
-39.286697216216396
-45.31749682407246
-57.823845024264244
-55.95649275001781
-45.63029933463
-21.490044717255604
-21.213711233420376
-16.123305687341073
5.319387779386634
2.150541832805726
-14.30236586171551
-31.01227969312897
-57.908662936121246
-77.06950564700632
-105.94210788874896
-116.25856211560915
-90.19688758855216
-72.4588768817558
-62.275936052653094
-59.0568168794263
-47.16195562426638
-29.511071604713386
-30.150390897122833
-13.379605226534885
13.611834541775144
-14.349504134026654
-54.313753352024825
-66.70185572459935
-95.32355320845146
-111.81223190664417
-91.10534219531152
-88.06903180472695
-74.67300039267464
-40.11917253422402
-41.904921323766075
-46.14837881756093
-32.34409523219148
-23.630258784450515
-9.67042009162141
-27.43589976091109
-44.913371807586394
-15.643705463485121
4.219821705120358
15.306624926050855
17.77015689806665
11.706893142605564
7.453340116822553
-17.082055251916536
-35.965923858542325
-55.79899025648692
-75.24309057024334
-87.44837830226442
-106.04332960954528
-97.80578521542503
-98.84583331514851
-89.35108865578077
-54.91182367164109
-52.74926611505679
-39.33758447193547
-41.97270208407584
-65.36307219403481
-37.86148868757835
14.505799132161961
35.69348742828063
42.73510191836979
35.047228222916154
18.560275526241057
2.7824467336686927
-11.715518913803516
2.630706087166863
-4.531941553828091
-25.367962244879056
-44.55217085327162
-63.46098991046275
-43.884003433752554
-32.089707529400236
-3.203871161480964
29.857852768838153
31.490079516292987
39.81260530028558
28.532776536574456
6.832179301641174
7.867521966014736
18.247314237787794
36.77953269966343
57.83616546767295
68.46272973406842
60.25531408935565
37.96984984568493
43.161967510896346
45.34645874182386
45.51271332603232
70.62530597673921
81.11875216365681
71.12342925023904
56.30227792672863
51.950755066342545
64.77345274649166
86.8538268313831
96.60974123267073
90.07578998530722
98.69168836517166
113.7384188693077
110.33213263013656
89.4611453952172
76.485479264327
49.64744638309868
41.06594791089422
74.19283149142612
96.24427831829269
113.46902325359682
117.6498254905949
102.75210187837192
90.47396416967257
79.88567259838875
57.88631689647011
46.75167701320414
44.255756276823234
36.805603963561616
58.76355890721152
71.43720869327869
52.49365613503874
26.169254387709735
6.646122880173296
-4.769654296061236
-21.686666602646305
-16.47390458104816
-14.35488084089246
-14.844287290593373
-8.25113409209564
-5.027973350731259
-12.097398960814608
-10.855463456084463
9.238918666883276
11.623466555752975
12.300619177808866
23.121120314608977
43.07338962260321
33.07809303654301
16.60463328020738
18.76571511256542
20.086064500129993
5.291934351891203
-26.23394881520868
-52.20612485528283
-48.926143433631445
-23.198671911984132
-27.36694381471525
-29.15255588817538
-26.141731659482968
-37.51424371104844
-34.294884284393405
1.9262532272870638
17.99550404887294
40.75061614380076
67.79248457306598
29.377012498983387
1.389051747276252
-18.879435298812247
-31.974286045515257
-42.04407736328196
-60.76789434668871
-39.14519425751891
-36.32455396768527
-17.97365561024221
27.587033570968753
44.664584266440876
33.65095316229851
4.155008001513876
-16.176398479824144
1.4808181468997494
25.900847350871313
26.812452341150088
20.8003713608313
-1.640476723855211
5.957698113779238
4.334248496919487
-1.532952585515579
-8.999769431417596
-49.88095550764234
-69.2329402647942
-74.33695897858719
-85.94095129401428
-102.36540499169013
-110.08873762842298
-88.262918606363
-45.85229258285663
-35.558158462510896
-43.142128768108876
-53.61629502756899
-75.56555174782085
-63.413863733117566
-34.586505471781045
-8.707495186113498
7.379816958951873
4.962693800420202
5.333408468398042
-1.1165136520564787
5.0298374301137905
-5.513614825354522
-24.24308897460404
-21.381245604101185
-29.974703314444735
-33.75568142163113
-20.42786538547588
6.21593050978305
41.40057635019649
29.585343140854757
-19.3481696961651
-43.91928547894736
-49.407626377775294
-12.669869039057314
41.14752181834088
56.19517168160759
55.19478570846207
42.38997773224209
15.794827108234669
15.493379278076931
12.574135886506607
-3.2543969247827715
-8.707135925142413
-4.568035090634235
-40.22219585063739
-64.85117828763053
-55.890806153671015
-44.89912780787538
-1.5658807318431012
18.733396340595867
21.854007045236592
14.6801658601101
7.024978306235476
-23.119470537653672
-52.31731015707142
-43.775757590142696
-30.012875097596144
-12.34524644418709
14.876474792847315
9.169040405879286
-22.57169773380962
-4.99721414248606
42.07609835129738
108.28733111114417
162.38585725699687
153.5314573298616
112.28231790028094
73.55959602656868
32.4820068617398
21.977462663925127
8.010917427829312
-31.087003186380702
-55.40893647491496
-75.13645381188785
-86.19390674673724
-81.9761174163065
-73.43190489058048
-53.10145992120345
-5.513301230121936
22.0135102015057
42.995562436533795
71.46467219749057
81.51116975803335
89.5496021771531
85.50909439882368
82.63845255627875
71.28311956540432
34.02261289232626
2.8859636843084413
3.2501604350472415
-1.494673273533657
2.427960654064838
39.71871459432694
42.65511592380024
32.871618909371584
46.33945343719969
63.3795163961596
75.22629367040174
69.2798899917557
55.08341756057581
24.03381950812517
-12.752721362563555
-29.85431213216511
-47.97542321273344
-28.77720677224614
-14.058432814596404
-17.434211043395823
-13.98792537576749
-34.13304787252271
-50.70846986204514
-62.84030629406941
-75.6422773824803
-86.5256105883762
-95.07180621498706
-103.47506432972774
-90.82920349979723
-73.62051666022005
-48.798679943631626
-28.000090768265764
-9.125783680465782
8.58136121443027
-1.3191166240211925
-6.649976045022215
0.9584905420630053
44.754537582496845
68.47080989901744
64.28502849487806
60.79667018238807
38.34507066274466
10.93947949514837
-8.751601608138365
-17.348068703325705
-16.714631744437483
-6.189438133048611
8.838431551202344
18.667514187829465
25.09331842465216
47.639272472143034
77.50563393897131
96.17374793275297
110.2735928619665
137.38996942825446
143.87751215431643
124.57047920565604
93.2841151492636
65.41220900348682
64.02963876781277
68.4251109247581
80.89571397823181
79.9022966194237
53.215584927573396
22.924475257728552
29.119593909770515
39.37225424773254
13.518491954735058
13.317575949219277
-0.4526190844649402
25.17630913129303
50.566834473193836
54.88738246525079
71.50026296721427
33.63828114778536
38.53706691952444
49.89879767059763
27.688795399512436
16.11226739256173
3.8320753914045467
-9.46838530770824
-14.333649349833106
-9.855540570106836
-13.774664174661389
3.0298094304200394
22.958747794585406
30.034268788150985
34.51768815110951
23.891986198052606
24.65423457234502
44.50490896880761
80.76710924902292
67.50476149268808
49.32792117282534
70.76619828444063
46.75420033224701
29.4641676502897
48.60088008367224
46.874204521726234
57.46480345646074
54.375082414732006
50.37022113021373
62.674051267742776
54.058222845355985
40.98694403773242
16.878547513189865
-8.174672788825356
-7.534839262987257
-3.3489355167585413
6.497406137006539
52.45801391175081
73.62275327242166
59.24048705446463
46.80335291024613
25.575239748221634
6.096244255207506
3.5557947792750566
6.425422026321499
-20.523781445451608
-43.33003624149477
-48.362014620200654
-71.25618113363718
-77.29508193017868
-70.50803533074233
-46.71620229292329
-32.36976342945017
-24.499742191484014
-11.784782599447379
-9.853904897771404
-4.849254756353245
-31.74394500942473
-28.064792170136126
4.985568609774399
8.070765789421582
23.62795026476347
11.942473721593203
17.456799114678184
49.64742022353249
41.13144974881663
30.17378132669622
34.806007507574456
52.117658586516534
42.45359844428684
17.299873920798827
14.730600065043673
2.2411999109518486
-6.876559579878915
20.30002236643498
30.066685398482814
39.26149050036778
44.44606136604105
21.83893749426642
13.77339851743044
-29.283827201999554
-45.02973209526693
-17.442121455190378
7.298698755161639
7.309601313016705
-13.747152397296068
-12.613174075788177
-26.241907154289706
-23.473347610667943
-22.321820474630677
-18.217176369569753
15.565571224102825
34.757799112749964
21.514572816343314
16.474248814449542
28.899954355055783
51.57584054102805
73.16998081753506
74.14895660615176
67.18684528529967
69.67618689733831
57.49548861044214
47.869738400313324
48.96668243740234
30.25654566630019
41.66529787760971
35.181698521105375
29.310809387623205
49.78692526521235
62.490133981267384
64.66616974566625
70.58741820311174
71.72321359278695
91.50889441797676
107.135976227847
83.41079062655324
97.20548673004276
113.12785662190339
89.51821093367145
66.31661904273297
41.38089040274048
16.879187579454186
-9.9469243752394
-30.53991701804366
-40.13134653183464
-45.1125972879548
-14.715669891785653
-14.563812687072192
-24.851909336124294
-22.04323639928782
-51.000381770683546
-74.51359189295748
-106.64963039554999
-126.37684365055341
-118.20411724026529
-100.11338573827656
-101.944028032678
-120.70649262473908
-105.79322620154078
-74.47624463620508
-57.43534701220933
-34.528828953934294
8.14172509680256
32.83612294085263
55.62328820520355
37.9796747853214
28.99527229165833
38.527896905459976
36.11822301032715
39.34795377070632
30.63741106104514
17.778927514626076
12.193956225625127
10.04823075744878
-4.754136144138603
-19.32252112480484
-40.75095849625589
-24.30050886182831
10.537505423847303
33.01029436352619
53.99604193409299
44.021081979670576
21.66696599484926
-0.27817507205958864
-18.31464771077628
-49.226663437484106
-71.89386135631513
-85.0996869355992
-86.42997691090456
-82.64811074526207
-63.43777677983218
-38.388578196433535
-62.507444384779134
-30.444237901681735
-10.24749799777446
-56.76143822936444
-64.54131335857089
-76.54728349569012
-107.48456776459983
-75.9582874333117
-34.0132838390171
-33.524937674505836
-49.09274495930667
-72.50197664718841
-92.24421873255321
-77.28782777107294
-84.5541718270602
-85.97610198457723
-51.04924848828677
-38.46284265667221
-25.72330283616377
-19.990774521164344
-12.980071681832584
-19.355584875264736
