AAD_Filtered_TADAS_FILE
AAD_BASELINE_CORRECTION: BASELINE REMOVED
AAD_FILTER_TYPE: BUTTERWORTH
AAD_FILTER_ORDER: 1
AAD_LOW_CUT_FREQUENCY_HZ: 0.025
AAD_HIGH_CUT_FREQUENCY_HZ: 40.0
EVENT_NAME: 202302060117
EVENT_ID: 13194
EVENT_DATE_YYYYMMDD: 2023/02/06
EVENT_TIME_HHMMSS: 01:17:32.00000
EVENT_LATITUDE_DEGREE: 37.288
EVENT_LONGITUDE_DEGREE: 37.043
EVENT_DEPTH_KM: 8.6
HYPOCENTER_REFERENCE: AFAD
MAGNITUDE_W: 7.7
MAGNITUDE_W_REFERENCE: AFAD
MAGNITUDE_L: 
MAGNITUDE_L_REFERENCE: 
FOCAL_MECHANISM: 
NETWORK: TK
STATION_CODE: 0210
STATION_NAME: 
STATION_LATITUDE_DEGREE: 37.7672
STATION_LONGITUDE_DEGREE: 38.2866
STATION_ELEVATION_M: 741.0
LOCATION: Kahramanmaras_Pazarck_Turkiye
SENSOR_DEPTH_M: 
VS30_M/S: None
SITE_CLASSIFICATION_EC8: unknown
MORPHOLOGIC_CLASSIFICATION: 
EPICENTRAL_DISTANCE_KM: 121.92
EARTHQUAKE_BACKAZIMUTH_DEGREE: 
DATE_TIME_FIRST_SAMPLE_YYYYMMDD_HHMMSS: 2023/02/06 01:17:33.0591560
DATE_TIME_FIRST_SAMPLE_PRECISION: millisecond
SAMPLING_INTERVAL_S: 0.01
NDATA: 3540
DURATION_S: 
STREAM: HNE
UNITS: cm/s^2
INSTRUMENT: sensor = ACEBOX/SARA | digitizer = 
INSTRUMENT_ANALOG/DIGITAL: 
INSTRUMENTAL_FREQUENCY_HZ: 
INSTRUMENTAL_DAMPING: 
FULL_SCALE_G: 
N_BIT_DIGITAL_CONVERTER: 
PGA_CM/S^2: 61.375
TIME_PGA_S: 
BASELINE_CORRECTION: BASELINE REMOVED
FILTER_TYPE: BUTTERWORTH
FILTER_ORDER: 
LOW_CUT_FREQUENCY_HZ: 
HIGH_CUT_FREQUENCY_HZ: 
LATE/NORMAL_TRIGGERED: 
DATABASE_VERSION: 
HEADER_FORMAT: DYNA 1.2
DATA_TYPE: Acceleration
PROCESSING: Automatic Paolucci et al., 2011
DATA_TIMESTAMP_YYYYMMDD_HHMMSS: 
DATA_LICENSE: U (unknown license)
DATA_CITATION: Turkish Accelerometric Archive v 1.0 - Disaster And Emergency Management Presidency, Earthquake Department
DATA_CREATOR: AFAD
ORIGINAL_DATA_MEDIATOR_CITATION: : AFAD - Disaster And Emergency Management Presidency
ORIGINAL_DATA_MEDIATOR: AFAD PROCESS SERVICE
ORIGINAL_DATA_CREATOR_CITATION: AFAD PROCESS SERVICE
ORIGINAL_DATA_CREATOR: network: TK
USER1: GuestUser
USER2: 
USER3: 
USER4: 
[...]
-0.10203776401098097
-2.084816980478113
-1.039804773150075
0.9018515182238414
2.149446874649086
1.718357272423339
0.11133962096291578
-1.9089144361821302
-4.712880451931784
-4.862539746706957
-1.463826857718165
0.0004988550591866758
-0.14158150638971953
0.7116999412169881
-0.13126112757550942
-1.0417871311283053
1.192299124231702
2.8867159747965907
2.3070641874022066
1.267611934392373
-1.7531002644155613
-5.305663115167637
-4.3881288564579775
-0.22705676110796552
3.249358113990694
5.127488557813356
5.130498245268348
3.9733864913987094
2.3766526826730505
1.0190826759597438
1.365993474801761
1.8233046173486451
1.3190876604557866
0.486793143431335
-2.3494467706600046
-3.580588883662147
-0.295187264463629
0.6718446019009614
-0.12306706629007083
1.9149605846765125
2.0440667151226646
1.5055460665610587
3.135816501735634
1.6949963217951387
-0.03986276274561398
1.1979849755920589
0.2307745975380193
-1.415751577623012
-0.9522806251681348
-0.9596402790367194
-0.23025309724943172
1.4605019583221621
0.9356355010650158
-1.0597183953489682
-2.487885368528518
-3.6641302154618547
-4.483216976488991
-2.661690971086569
2.0724792812676984
5.240353360732454
4.538532679625785
2.131914671158632
0.16167222590181918
0.28449358621578746
1.485402975666964
0.5883123416112145
-1.6292290376786187
-0.9690450379623243
2.690164486793982
4.031729849611894
2.223663140203232
0.9333542985671983
-1.2194159339119348
-4.548932847891536
-4.991282983750906
-2.8720174991068608
-0.02101022085475185
3.9657566505168016
7.542725906706593
9.487203487570337
9.958056889212017
7.375874276663276
3.2298353250530027
1.3197722167314416
0.12138579144347317
-1.3360867823422677
-0.7638660451113505
-0.47676296459463174
-4.373229138349256
-10.542490050790283
-12.085479825783276
-7.059630285264965
-2.6491236212487106
-1.9809925496687568
-2.059320243300526
-3.6886716267803523
-6.944873991759536
-7.4084305320402715
-3.1891316428260823
1.8992220893359142
5.397020147438394
10.549778972764415
14.08037646696584
8.378465067245976
0.4540391600008019
-1.7571909691894627
-4.102388676739129
-7.992226976254802
-10.093276661777901
-11.880814272691875
-10.376339528403214
-4.368969560269923
-1.5684396799240172
-2.2355627111748184
-0.3770973402897173
1.7264653719464882
2.292279397704577
5.176312725002196
9.759452337212894
13.33400111244403
13.773557354175292
7.922081911314264
-1.0353059519195809
-8.561108490811504
-16.024164207968102
-19.682494009555498
-14.717809007751798
-8.523166210119562
-8.466443639517552
-10.244699324492364
-9.16271199055565
-7.500856716685865
-5.670860239520551
-1.033873791424426
6.1061705571876725
15.384910680524817
21.61178052598616
16.63876984669755
7.64056582244675
5.1386913331579605
3.6481372441194333
-1.4004334751130352
-4.9422583523108905
-5.20025361625136
-2.389171421955887
1.6594666013188055
-0.8218435864908126
-5.867388478332341
-1.3706100816991635
5.47261342940314
4.656513871831258
1.7474540211966598
1.5963840259078368
2.88882671495737
3.5511687895983584
6.383472446357938
11.491045786606842
8.783860534615782
-1.0457292586570683
-6.103344256939032
-5.2094958966191225
-7.149440095339804
-14.428077790379213
-14.773102916309808
-7.0356919637702156
-7.1077023303316675
-10.616455632938912
-5.914924841407479
-0.5079334153522386
0.04689385507581939
2.1078819563028146
10.839666048466738
17.205727494800627
14.5417480077212
13.568950942292478
11.05879406160072
-0.033041334265396655
-5.907251457574731
-5.5889625420025215
-8.106291859157093
-10.171817312374307
-9.053087743307213
-2.174306351577709
8.420262323089005
10.558027014715227
2.6496387912214834
-6.081254534486784
-15.565808072360014
-25.43200142651302
-25.578335426712542
-15.504304986099717
-2.4164055359792624
8.472259822631974
11.425128119288898
11.416289864329041
10.752137152611887
-0.8282322438373385
-14.925015993321283
-13.273026342574651
-3.3057395715141515
1.2395872531062986
-0.17337940932408633
-12.72255344619279
-23.197255804951954
-9.021181176288072
2.1085011113175134
-4.838425729613747
0.17366682861936097
13.080915480447787
20.946947120028277
20.67212378833646
4.645884024521948
-4.008662080591746
1.6991451274577811
1.9689600599415507
2.274953575483917
4.472177516899518
2.005343069049826
-2.07397782755499
-5.041997716033422
-1.9749021164309826
3.9202588000138254
4.176645716750406
-0.37568274419186526
-7.096308221163829
-12.289752511025545
-9.901065128997924
-2.2265954050025516
3.028056306426056
8.530388002545065
17.261928750396034
18.323028761800533
4.236254572409211
-11.29991559488049
-8.215637472794134
2.7828504731895243
0.7419035124929978
1.2341367778831382
10.853209168042635
7.276890919076618
-3.9727270911630126
-8.555759034962543
-10.898693748369318
-7.523328246252325
1.7163324765256847
13.360058973246282
26.842329468748574
22.19393444725379
-1.2013129211984024
-11.461334201037188
-6.047161701740042
-3.3289919601031293
-4.041975131146889
2.7288347503939496
17.606728747965004
15.587209153144821
-9.845753403439666
-27.530213189343105
-24.955710968310363
-9.36076361340162
6.320548072207847
3.2716685499913996
-0.2900110282248991
13.705418502173028
14.757883478623956
-4.502566508117738
-17.440110126276863
-17.443878050184402
-9.525248990231654
3.851353456095195
21.419309417515734
30.09080634835301
14.712708108693192
-8.083978569555082
-16.859102089029065
-12.818585649543158
-6.413510238386406
-6.079647361689852
-5.050392564494534
2.6362413399699185
8.047572842815542
3.888024961559005
-6.704111261846359
-9.875559316208799
-4.840003406492714
-5.553778754526536
-10.0263313355092
-11.401815403180194
-6.343968195925043
4.9319974232196016
9.261695689153177
5.156430862712298
2.9984576893642885
0.8120070279400631
-7.181070691979103
-18.076402016262392
-18.7064999845438
-4.503592174477839
8.559502710888252
12.147243097268964
13.985154275083978
12.515762470176842
1.8554297018729933
-6.081838356308184
0.09456794305961869
13.09198634715445
17.518333787977593
5.644202560146273
-3.626707219194533
3.147136925877664
9.92079976897543
13.260210781025949
14.454131239149477
10.207430042973916
7.930061136551553
3.340366693885619
-4.522334364207554
-11.527254456131196
-20.066819463288923
-14.43747083447735
7.177065442569031
24.15710410447258
28.08922220651533
10.903752768328681
-15.87533238607118
-15.660192664451277
6.670594025939164
9.408820372005096
-5.2706076714170935
-3.891561816984846
4.0076807311471025
-5.8498282659137075
-21.524733404439665
-24.40264813269539
-11.944923920928831
6.158598100302483
16.239728723449897
18.280552208632688
19.44260355037085
14.602641686651245
-4.50910952070698
-25.031789971391518
-22.7542559201186
2.1035492926440704
25.086822899020774
27.417485508282134
10.655630733556457
-8.56691047648149
-19.86863904546533
-25.87676577116671
-22.036972176827
-8.887616612639004
-3.6669722968019434
-3.161426612639236
6.139253686552797
11.380815864950554
0.9141965113399326
-13.30205205925948
-17.784000298375084
-13.370182565698332
-4.813903441521158
-0.8043156006771977
-12.879127057136346
-24.789124314436144
-20.367238898653895
-15.832567872703862
-15.712573599390318
-10.234100202428067
2.3082376816404504
8.929769570676735
-6.918495024242481
-20.329099329597756
-8.826855586648207
6.8510978090947505
20.973080021028032
34.9568447257903
35.25063876127713
17.630063301123624
-6.92614005381905
-13.121276947496142
-3.4218987110606967
-7.6720241210602325
-14.028082613078439
-2.0375762978848826
8.834724161913634
9.291771602333776
7.743905745521794
-1.3072181630046473
-14.341970955216421
-13.673599080731005
-0.3902031598823107
6.059428147779538
0.28902329179209907
1.8888224014019699
14.87804239134104
19.332338826826422
13.805754970586124
0.6761245061314596
-16.883363045600696
-13.899687992887134
5.3357829659144
11.388239902602846
5.410929178770043
-2.1723411841181006
-9.942872115414326
-14.39290745626388
-14.73913793721474
-14.535641039511603
-12.998617833178145
-2.7661942048206045
12.86455461797342
19.56241850359958
13.570458965111312
6.753157211548081
6.947843860227464
4.848375850503971
2.3716990680454977
6.721733889408143
7.091825256646402
11.356015418063125
22.209737305939356
13.33151917455975
-4.922440157013867
-6.674202322378989
-0.09901711711379826
3.2493608181544027
-3.484080152593705
-18.360837707329168
-19.912690348444976
-1.3058790294386422
14.703085441365285
12.885663035902374
2.1010864308327335
-8.126954156202661
-14.741039725398942
-15.300259595749862
-12.002826432140328
-9.887250998946786
-7.6327611950372525
2.6537718550512763
13.914152891341537
6.956123840517046
-16.811585284319968
-34.59177236863013
-29.258045464273835
-18.061759247807267
-23.329407062871446
-27.251607945318884
-16.761275136240346
3.4032022495755165
28.080581928106106
26.110560152172194
-3.0945277304102365
-14.105567725459988
-3.191703905288793
6.926570416882187
11.619083660783682
10.068678965006821
4.724690549270386
-0.5588897798806808
-2.3850658537665272
-2.1599395474786367
-9.002484217976782
-18.511496557177043
-16.52818666966444
2.3374908899927997
33.21178933824428
49.18225575399465
26.79365342823692
-3.40024522077558
-6.232794212116158
-0.3618101485026589
-2.313472622540591
-5.293451763259199
-7.722799155747668
2.52425815334326
16.92492157280752
2.289799251816568
-21.540081570440133
-15.961887304942122
5.0763057385805865
10.130780369808424
-6.654996540945265
-15.38770472689084
-1.2526978466572927
3.0838891831836097
-4.058077682103756
-3.4190978207351175
-7.46084071141294
-12.6664069239127
-17.728404244097863
-20.92236674439711
1.0279437480966256
9.665074793171478
-18.399118104217667
-22.60592556594788
2.652528552205834
27.507714270257896
48.85994018119089
39.950626736375774
4.731800955410819
-15.560352974741601
-18.200635961682636
-14.674989027146797
-5.140772291330568
2.7976321838206637
4.608937040000798
8.112041833143968
11.730159005138402
2.6412704791027437
-18.082930797408835
-34.3988699704653
-36.517557951615196
-27.93730381496953
-7.121883458025676
15.768972658344707
10.351257486629239
-6.737639038495724
-0.5990700228317604
8.986600960307108
8.87970284895802
9.27739035669635
5.2596520184385165
3.4938434627919595
7.598719787557666
3.502678290171732
-7.730008007640324
-20.463178987446984
-29.91452591739894
-22.84242622521563
-6.999142827442444
-4.09802475766258
-5.3599174489076695
5.112246962128125
12.76767613794371
9.746042892369722
5.050805949542888
-5.12220006695611
-10.246208491353594
3.6823391918178485
16.15622175482794
21.508768745547524
30.276989471425715
23.550619502951783
0.6973956668721326
-5.91086566796813
2.189085088511123
-2.0150741803529613
-11.457688816117901
-7.844664647401665
-2.315413059007864
-3.2882500630458633
-6.111229976613016
-11.275857116077749
-11.194701509583721
-4.573687628459679
-4.886995077601897
-9.617409013163474
-4.4044924108318995
9.559040495405092
17.927959863130088
15.844852877866236
6.01557420453097
-1.124590087586702
9.330197591888894
17.23222380608194
4.326725739387219
-9.92622091886367
-18.373814565539785
-17.45931577503442
-11.161538687293994
-15.171821149003017
-12.909708552868448
-3.7673549127570714
-5.711467702525175
-6.760330491526202
-4.094745258228051
-4.303307018591385
-5.149868309148004
-5.798181012493761
-2.134659287198013
5.315277761480587
14.739549131215057
22.78106679425801
23.57043592815475
24.55179876229452
24.97522964311914
5.201282834930092
-25.938530515560853
-28.515816118592852
-5.410340838057176
2.11108112398048
-6.380345726314003
-10.514423497070528
-12.501652746995909
-12.466416657789802
-8.31152116005431
-4.407899992393314
-2.852827340823524
-0.3190855599103064
10.267967524543376
18.76673285852238
15.897690493172277
11.79959211848002
-3.609088999256783
-28.4263611146182
-25.285137187651323
2.4373945420495744
19.372525128969578
19.164985492232432
21.609843645543712
36.485374135981786
32.32475156020683
-6.8212431191357314
-36.34826770859544
-23.563360430138857
12.468396739689389
29.416836895179493
7.908234725119244
-16.740486870839767
-7.964684839943961
15.680464313701876
16.842535974713353
0.8284937633100281
-0.8832325216835105
7.143700452067111
3.7704546753874424
-8.40676096246385
-17.87670161034459
-12.99064573326055
1.511248181016051
9.644492107137012
13.987401833406794
21.385853389647924
27.419414651102322
15.437818197076323
-14.55941873007083
-26.948398157101526
-13.03983818607627
-1.5123614064035318
-2.6238578372043198
0.29935407685696414
18.99575689293033
22.439449455469553
-12.306908873954951
-39.45992170470474
-24.402316847847068
10.451687528367746
41.23064975150971
49.18511337216866
24.006152046856595
-9.866875088098961
-30.630219165907544
-39.198704159105105
-26.815838093977046
1.4022178025139949
10.590804774306948
-4.262961238079164
-12.538908787040418
-12.258118517817394
-21.775497166663484
-29.824735790874133
-21.364925919560736
-0.727834339617029
19.26338041599914
13.958283070857922
-10.912841289723046
-19.003295387709848
-14.856305922621255
-17.2939670745638
-14.976600621224877
-0.6037787180514855
14.470891784739926
11.988115362081206
-10.504524277211338
-29.06665035813842
-26.931788800643833
-11.069730860150083
5.674244274034859
15.55214435368963
13.546316205844064
0.72724314589797
-7.756553710327583
0.30833141085699006
10.445000984276968
4.806167550468349
2.93343318272894
19.369754956783563
22.57439277465395
6.2708987871998945
-8.526845931758523
-25.668457350174766
-32.6256527999812
-19.145554328003477
-2.809382251770656
14.05604590421696
16.53960037867574
-4.895466107846668
-14.398034337536856
-1.5989476130257105
8.722774869035641
6.180659250084392
-1.2855263410004292
2.786087896478902
14.451718539864272
16.799938368843033
7.213331044602263
-8.122177479423382
-10.62967375649648
2.6237379633878897
13.086021074673331
21.095030599029585
22.870561258111028
5.603542460058021
-22.32906101364806
-40.138483981731795
-28.597836941929486
4.583578263460532
28.20238329597172
25.40751997283274
8.057750130577787
1.4715731057042318
1.9468232593333326
-11.26620020890653
-24.858880605362536
-15.835640433723409
3.6812652575312854
16.371755721765858
27.27658058626039
19.28521202796709
-16.874724068135293
-38.114391875177624
-29.756131724297465
-4.11883953251619
32.90617885746696
41.911965594631134
8.662689236447672
-25.46906912205415
-29.689818420518275
-5.010302457324088
17.56228344598127
14.635161715307657
6.1989955702592034
12.266583104511414
24.003216630540958
24.3294200003627
6.565605249349362
-8.086629136637708
-0.7772923490233941
4.41909997193978
-2.590577327211694
-2.2509681221800237
-2.546034186538481
-7.649663541287066
-1.1648537957387548
12.794503949708336
16.15630089162589
-0.10946381558062221
-22.543187846470772
-29.55663999848377
-12.157453611472226
17.257464955941757
24.92053282323444
12.857340932551939
15.5431247107755
25.232768268576002
19.383241064944787
2.8472658143834897
-14.082975105918802
-22.431606684088294
-14.023319794648533
10.094791133662005
32.85339894209789
31.865903010411376
6.711086148637476
-16.989495337029997
-20.226566934029016
-13.062944606921286
-6.163353540651321
1.9282758354278875
7.202904248089194
9.954132570699752
9.393562160589878
-0.7999155646343279
-13.9186440061285
-18.021513797908224
-5.123460734771961
11.576134292473835
9.858673093573218
6.187861165122896
11.887945360111477
3.926534243096876
-16.781988487678582
-30.647628315115576
-24.14898363685187
6.0292489967070555
29.68753075485625
17.783534709772237
-12.313261330284078
-29.223809333059304
-24.48710859317168
-10.818634349647308
-1.2706001479450282
12.606542538571066
34.452654938997675
40.60961040462653
25.605022837603904
4.630276150397862
-18.525104540889895
-29.310243379886515
-13.97285954616085
10.264373476782527
22.024667890826965
15.308896946825566
-2.651651048466436
-11.037416695756663
1.0859249275162421
10.644141082557251
2.893429065654896
2.6525313809205606
11.218318005045028
3.2107039093162
-11.113602622331792
-14.899082305051307
-12.99924450149462
-9.199375779975405
-8.373452799430078
-7.013026311792284
5.194141544227326
12.732321070118285
1.5272029663136601
-6.218450620466662
-2.3676203486467666
-2.8822422191771913
-2.920947984855804
-3.951406394943556
-13.117261317450284
-13.789487211539214
1.154518712222126
25.30993419468652
35.339688813850756
7.479948104337248
-25.72481701044816
-23.882961319344187
-0.09332624808543871
7.339425881099784
0.9772026025009306
20.04523519213639
41.077995268283225
24.95548138056444
0.9838209308338901
-8.376679495570553
-6.114410452491944
1.276434609450055
11.106874688571335
36.00178308338146
45.844744775310204
8.727100902740977
-32.85944461030602
-47.03547300247252
-42.34962172081527
-14.229847260513584
23.993060633960496
35.490117879175344
15.872185824352743
-5.570329600474994
-6.240037290542622
5.852671579782479
12.03054678811337
16.157843948327805
29.67694559495464
41.145096140614285
28.520395596489045
-3.3384671144603053
-32.38661833206786
-48.4068573966081
-41.450792919228334
-16.308586712046832
2.9039667178800324
5.589453010295737
-4.601878180332855
-8.288438496285089
4.907197477707466
16.396455602759175
19.066363207633348
23.524043217193746
41.259261978369636
59.5537764656936
42.61901634344335
-1.820783629472127
-28.413707327355638
-16.0638965617597
13.724770006903139
20.9082608898686
-2.7670070274476584
-30.09545416820973
-31.75461870428036
-7.210088617934688
14.197481776821315
16.907709963273344
10.996555359572723
15.76972437661156
27.031358532958897
17.106369718903895
-4.386515269743206
-14.314507688812082
-5.3997279188469225
28.52237979733743
49.87143293613654
28.12659085355608
-3.758476422818356
-27.500000873365916
-40.43254759928605
-28.24066193303093
-3.0457962191615398
13.6841288059453
14.224598939151416
2.12689101297817
-7.880432720442548
-8.706597150390916
-4.951653549840133
-5.2839168647345485
-3.554004143492191
13.744947955332684
17.300622945985484
-11.20861372332351
-23.59539121441904
-2.7742294672802483
13.35505771305453
15.501596767643846
22.02606853264264
33.3034949921958
26.779707875319332
1.37295606156266
-12.821524210028683
-16.36975002691396
-20.74069884782889
-6.852044964901551
13.949945264658965
9.299251326160459
-13.27548907639485
-34.02755345917048
-40.589809300905365
-34.552964080430044
-19.879357728231245
21.636655642727316
55.26883243406794
27.65625643553355
