AAD_Filtered_TADAS_FILE
AAD_BASELINE_CORRECTION: BASELINE REMOVED
AAD_FILTER_TYPE: BUTTERWORTH
AAD_FILTER_ORDER: 1
AAD_LOW_CUT_FREQUENCY_HZ: 0.025
AAD_HIGH_CUT_FREQUENCY_HZ: 40.0
EVENT_NAME: 202302061024
EVENT_ID: 13207
EVENT_DATE_YYYYMMDD: 2023/02/06
EVENT_TIME_HHMMSS: 10:24:47.00000
EVENT_LATITUDE_DEGREE: 38.089
EVENT_LONGITUDE_DEGREE: 37.239
EVENT_DEPTH_KM: 7.0
HYPOCENTER_REFERENCE: AFAD
MAGNITUDE_W: 7.6
MAGNITUDE_W_REFERENCE: AFAD
MAGNITUDE_L: 
MAGNITUDE_L_REFERENCE: 
FOCAL_MECHANISM: 
NETWORK: TK
STATION_CODE: 0134
STATION_NAME: 
STATION_LATITUDE_DEGREE: 37.74427
STATION_LONGITUDE_DEGREE: 35.864475
STATION_ELEVATION_M: 494.0
LOCATION: Kahramanmaras_Elbistan_Turkiye
SENSOR_DEPTH_M: 
VS30_M/S: None
SITE_CLASSIFICATION_EC8: unknown
MORPHOLOGIC_CLASSIFICATION: 
EPICENTRAL_DISTANCE_KM: 126.52
EARTHQUAKE_BACKAZIMUTH_DEGREE: 
DATE_TIME_FIRST_SAMPLE_YYYYMMDD_HHMMSS: 2023/02/06 10:24:48.8350730
DATE_TIME_FIRST_SAMPLE_PRECISION: millisecond
SAMPLING_INTERVAL_S: 0.01
NDATA: 12501
DURATION_S: 
STREAM: HNE
UNITS: cm/s^2
INSTRUMENT: sensor = ACEBOX/SARA | digitizer = 
INSTRUMENT_ANALOG/DIGITAL: 
INSTRUMENTAL_FREQUENCY_HZ: 
INSTRUMENTAL_DAMPING: 
FULL_SCALE_G: 
N_BIT_DIGITAL_CONVERTER: 
PGA_CM/S^2: 46.455
TIME_PGA_S: 
BASELINE_CORRECTION: BASELINE REMOVED
FILTER_TYPE: BUTTERWORTH
FILTER_ORDER: 
LOW_CUT_FREQUENCY_HZ: 
HIGH_CUT_FREQUENCY_HZ: 
LATE/NORMAL_TRIGGERED: 
DATABASE_VERSION: 
HEADER_FORMAT: DYNA 1.2
DATA_TYPE: Acceleration
PROCESSING: Automatic Paolucci et al., 2011
DATA_TIMESTAMP_YYYYMMDD_HHMMSS: 
DATA_LICENSE: U (unknown license)
DATA_CITATION: Turkish Accelerometric Archive v 1.0 - Disaster And Emergency Management Presidency, Earthquake Department
DATA_CREATOR: AFAD
ORIGINAL_DATA_MEDIATOR_CITATION: : AFAD - Disaster And Emergency Management Presidency
ORIGINAL_DATA_MEDIATOR: AFAD PROCESS SERVICE
ORIGINAL_DATA_CREATOR_CITATION: AFAD PROCESS SERVICE
ORIGINAL_DATA_CREATOR: network: TK
USER1: GuestUser
USER2: 
USER3: 
USER4: 
[...]
3.037841187593411
1.8413818275300724
-0.6970208205094754
-3.6459666937274346
-6.199273341317044
-7.824225935295749
-8.318678210909685
-7.770825904292005
-6.47546098909205
-4.804135082933378
-3.011949216990559
-1.3115713466317687
0.048088289833049226
0.9715151042578709
1.5277147439378702
1.7568833368749144
1.6067304493675822
0.890487795092237
-0.634285113723034
-2.9529517380035526
-5.905485313541984
-9.291195468837103
-12.647864794810166
-15.386377091230498
-17.008584603021422
-17.2932679501289
-16.516041087784927
-15.280795912064884
-13.983902098853367
-12.759346826776822
-11.680603331475348
-10.690035169686512
-9.752025858843265
-8.90889730947011
-8.187221575982377
-7.684472864503329
-7.672041265159823
-8.438214777597592
-9.868577054709034
-11.461429348899177
-12.824857328911586
-13.858390345661908
-14.63365533915145
-15.307055759993988
-15.88376592770563
-16.02791338764918
-15.195539053479466
-12.977126720207517
-9.490046658233656
-5.40610316923853
-1.8138277242199448
-0.06074115173248195
-0.8193152089926077
-3.4980859030151352
-6.779191157891734
-9.336029476790255
-10.474911849041813
-10.291680181007045
-9.227971265989163
-7.765961720729582
-6.371360512802524
-5.2984772687501085
-4.442616906625388
-3.7909053376138218
-3.4299969331510143
-3.199628379617428
-3.1963310844401582
-3.5145528926638576
-3.9508463894590022
-4.662529770881797
-5.813540106059543
-7.067293596081025
-8.31696767438238
-9.756383529079367
-11.557217318521765
-13.11197171841263
-13.262789207706172
-12.379791407450304
-10.8298765084542
-9.103271096983296
-8.800788670803717
-9.781621331844368
-10.968260390597115
-11.741289663508049
-12.141058283087077
-12.470644118473393
-12.467809871851255
-11.90713271523802
-10.596847246284291
-8.71137276561185
-6.538814052572427
-3.451210713784857
0.8120454482655172
5.035873141422606
8.082580117721013
9.490076349974066
9.308721752473417
8.347438537540942
7.272948544911645
6.088225123278706
5.060591304726543
3.9105394256144557
2.138071113804483
0.5300832797870006
-0.8584786643539022
-2.5094619325123824
-4.127830195845896
-5.646793341166032
-6.684727865535016
-6.753149751965638
-5.854474366713788
-3.6612342789037293
-0.1832571735570443
3.6409577383036487
6.938804428180282
9.635943957074428
11.98374817944971
13.737238218183263
15.122215754312359
16.85372775990109
18.79057820816329
20.223400996376633
20.890218258361735
20.014538453272532
17.41876977204599
14.130700554203365
8.457133157034079
2.336603380592865
-0.2412811184644094
-0.2333064906460181
1.4330123868206355
0.8493977060355721
-3.337653217569229
-7.095007697492158
-11.022648273768391
-12.694675157183395
-10.795017844659412
-11.517863053933837
-13.76533370637503
-14.652676991898817
-14.541432812231115
-12.438392397778877
-10.183359414048164
-8.91597087304113
-6.579559514337417
-4.7064436295959355
-5.296200567258961
-6.482318892188767
-7.720689060884431
-8.595906014334147
-8.642557679279015
-8.128913879741207
-7.469547610133025
-6.938223501510801
-6.05665876405496
-5.092891286885499
-4.292773315884503
-3.3233340812059566
-2.0576882248655255
-0.34274749696941004
1.1620413372798435
2.959529436631853
2.9767651208131545
-2.785811416383194
-13.431059357699974
-20.135778212174994
-10.571421610079968
9.051804554419729
27.945669779183596
41.96698364157195
34.92321007223617
17.582781640212126
11.897932861805067
3.389907789364363
2.4333068507825866
15.767329061275206
11.604714573058002
-2.335609317376391
-3.9254112029409236
-1.5383302103356165
-1.919950349983513
5.547293928562301
11.012398112087688
3.650670166188039
3.4096575680300987
8.161156683349049
4.4099643810481535
3.224254448496412
9.804417914735174
11.14847690670017
4.080401868262114
-8.529262226195597
-23.57796282633338
-30.701711447326293
-28.303981867387265
-19.99985520862982
-5.130929943604559
11.226697246530334
21.79032408941488
26.740763479030928
27.798449807534656
24.464858101845287
17.06687053164208
8.707113165516626
2.3488565763668987
-1.534096113539538
-2.5623540150118433
0.14467646145937818
5.028519187409956
8.670002573193374
9.157488520353185
6.270909460096202
1.4732243643122678
-2.5420798222538306
-3.523039487907572
-1.1291081463904615
3.2770171706189934
7.946272263110262
11.358259572357982
12.504692699518893
11.274490421338735
7.827822808925289
2.4991998936458284
-4.255055638147775
-11.803758687955403
-18.743990598568253
-24.563967014535724
-28.857370647418946
-30.314170253277933
-28.57778113975301
-24.03796604848668
-17.412929306493442
-9.919440486801285
-2.1275941466819255
5.828763226189334
12.804399652813544
17.983317310876
20.838644224535788
21.67062512097602
21.338835154414394
20.0906602468052
18.86988848812996
17.431221165247113
15.965519070664277
15.966425240726858
18.346883082405572
23.245381017904727
28.82382821152249
33.28340028114181
35.06985392027865
33.71039953574626
31.120097866789393
27.90275750338372
24.533312927016624
22.142749100682455
20.19292472630121
18.339777478761405
16.27097925070834
13.202951618051936
9.090737753703733
4.496470922351092
0.08258266276464148
-3.7429877874885973
-6.1749218924575295
-6.776951327933581
-5.469839850955555
-2.129644803657851
2.1827816238862554
6.617833832846957
11.084234616543373
14.997891188828989
17.484622590048556
18.032337272882707
16.72264804788185
13.587758685503413
9.056836020285466
4.082703834427489
-0.9621502294034874
-6.0192170651655745
-10.776462036170896
-14.69441858233108
-17.076691232339883
-17.268483668485537
-14.917582579905726
-10.267497826360314
-4.358789805538569
1.3469498202274053
5.6609008030746795
7.888606194967936
7.961234380513941
6.481793569844818
4.173642863195057
1.4618025638162415
-1.2626310357859274
-3.1642455951176376
-3.2359620694929183
-1.0215302224964466
3.2897540587620293
8.920151465014506
14.636136052874052
19.249846741954812
22.11873272318582
23.35061230547128
23.595158435907045
23.6049765619178
23.516704009910256
22.715298170989204
20.58535074016151
17.006334417135704
12.437109415149745
7.574783800828105
2.866510114669292
-1.523452074517734
-5.546778303038559
-9.179182669078422
-12.20927716867347
-14.11608039052388
-14.27893863103778
-12.539184917489877
-9.689515905852993
-6.864185424906642
-4.883338210813161
-4.226027442822468
-4.732792235812605
-5.696520732053167
-6.2679288622843465
-5.94926227563651
-4.8977073174347465
-3.480340063017006
-2.108463391577767
-0.9514201921587698
0.3609784145472556
2.1867821544722217
4.641423746010908
7.762581790207614
11.434112690008961
15.377836944295556
19.39352012687019
23.36203332019359
27.21198680085711
31.099351445590674
35.19143077498419
39.283096782956406
42.76940218923061
45.01473481835205
45.72682313292837
44.80117229187343
42.39955328531808
39.01667496185191
34.88911731953946
30.213819848180997
25.189072355350852
19.739729196357178
14.39930945647171
9.948144299172736
6.667288533036139
5.218000075784035
6.156912033767738
8.771183369221111
11.841053048354825
14.489263754227999
16.24328921193297
17.176958450733586
17.837141223411667
18.793196467867666
20.286388021108483
22.16788682616193
23.97460390839879
25.280916263812603
25.941358358655688
26.127544443624853
26.381470543996254
27.24771159128671
28.936534980115773
31.17894101532305
33.16731518573784
33.98454833727456
33.06905754877187
30.539126957292307
27.238501908489496
24.28172449093099
22.550580403720705
22.28925365246873
23.00275532372163
23.734465110664036
23.655981823467535
22.59815158254447
20.959509401353376
19.464402593553558
18.55550025080844
17.91618635088148
17.022083102256776
15.57262540423576
13.740670177058256
12.135610209633652
11.183604976253882
10.863368356259514
10.732782295581286
10.288274092379945
9.340694465366305
7.9974772541838455
6.706982216464948
5.979966564259224
5.989871875096599
6.533007210502711
7.14244898755462
7.43104639712234
7.412159680697667
7.399438178573877
7.66735147907699
8.31760323670842
9.193877190685377
9.772379290477865
9.37990687174076
7.513944796802483
4.016122302528939
-0.7817426242274284
-6.039433855282454
-10.743630166244333
-14.152373239436047
-15.960768118449344
-16.385851496398246
-15.904411598852176
-14.757028643973781
-13.049012543854847
-10.864101067644171
-8.171245217815578
-5.0061307549465734
-1.733518242980726
0.9322905061737228
2.4157069656493855
2.593949159959559
1.760036303167632
0.5037757036137248
-0.650940407134146
-1.3092966378386803
-1.0745538672491828
0.4518118414495476
3.502646635879588
8.09294831320206
14.036858907135723
20.84374354088981
27.777229712446342
33.886955369278276
38.363258671397034
40.48679275943556
39.642293044499276
36.114938827123225
30.896618039594987
25.222699294348175
20.44727939891306
17.16429978417033
14.988825566714446
13.50382966938657
12.418220963474512
11.54508500670678
11.176654173343795
11.607159096832682
12.631295249308781
13.89497162003944
15.064169251105497
15.738141940804304
15.70867845610604
15.062343856925166
13.908060720215241
12.272936913640216
10.13621463345881
7.434339518781768
4.274506691722078
0.8397686680550527
-2.8016602639964843
-6.454730380578856
-9.81671176431154
-12.728347298280868
-14.923586338510283
-15.691552667453609
-14.19957119654917
-10.087825028843461
-3.482724338905614
5.123552815004014
14.907545927009675
24.825785118700928
33.56260613819224
39.80598105081583
42.717750407721155
42.428906610371136
39.79389303431128
35.777240652762785
31.393132945350462
27.247193219004785
23.436470322799412
19.830227797103923
16.240174259878483
12.738569662475369
9.672715736464346
7.569642189665569
6.5320244943364045
6.252066062134486
6.52210719577503
6.891662900960014
6.84840216342998
6.140677577629484
4.586785652743264
2.3072325298414658
-0.042989059655436535
-1.7787544187396194
-2.271917224819976
-1.0378996293424192
1.7591880176459807
5.421412492893984
8.831629464220091
10.93386920449925
11.361461086533838
10.439392198170854
8.924884563142454
7.824048844426474
7.852156461572783
8.8417085724995
10.181507605713431
11.45446581989415
12.57905398289177
13.527604934843426
14.293619676470424
14.962130869779436
15.328066829956757
15.04039981781616
14.01943227216972
12.186458074073812
9.47444482691818
6.200659880215356
2.507173380364362
-1.591916264433287
-5.531280267822529
-9.219115311707865
-12.646625331231784
-15.11139984910701
-16.47104259814109
-16.69389693872266
-15.719753041985733
-13.914655502835869
-11.470925089592235
-8.541626904804087
-5.432036363145046
-2.360309174466087
0.6621992491334647
3.593239035961905
6.117163087671443
8.094079007493674
9.606828091675013
10.520743297125879
10.849120018514952
10.814069958515065
10.740488674602975
10.838334790258275
10.77982046093311
10.14812705898709
8.40499454890674
5.149790947253119
0.7441391064286406
-4.3309544561832585
-9.631821301089003
-14.630022595526752
-19.007244889797647
-22.392329387241283
-24.319135517719882
-24.538632517992873
-22.936034719246614
-19.6666154792238
-15.414003347577331
-10.95038210353212
-6.879393161190979
-3.633785156725305
-1.4313395555505255
-0.518579246246149
-0.8887600648486942
-2.3013831854978037
-4.699758085932025
-7.716596693746795
-10.699393204778
-13.355435008231332
-15.706323652748814
-17.847252239619923
-19.955504336921667
-22.179596887139578
-24.208659061516386
-25.33820703412591
-25.045841323268917
-23.215980191408665
-20.231290321778836
-17.011593234374942
-14.55776143674661
-13.39414965567175
-13.399530756879136
-14.034616745896983
-14.839797667850812
-15.628519547139735
-16.363431476276332
-16.985710722794764
-17.229100522277857
-16.786919969068364
-15.54852937876651
-13.648966594742669
-11.297462287813854
-8.549689299799088
-5.459041488018181
-2.2707523469605206
0.5873424359718666
2.452396018282774
2.527293668626798
0.5412979629822479
-3.010333649396712
-7.342008552059596
-11.507800852001576
-14.652791690155281
-16.670837505890553
-17.982741961792662
-18.84297193718938
-19.329515584924756
-19.427053520114892
-19.23511741453539
-18.990691735035078
-18.900683753838393
-19.34022611173119
-20.50120020922493
-22.16246234140689
-23.906600887840263
-25.214206649427393
-25.815595947715742
-25.88467900072879
-25.665983850834404
-25.109202033191877
-23.959975400154622
-21.795156397592304
-18.34386123103772
-13.924472314668803
-9.139365611152108
-4.618063427944961
-0.9465761514118526
1.4448688009581765
2.194917178281326
1.2021909535911923
-1.1582629893583303
-4.283722512174147
-7.5636454695966115
-10.429239902397352
-12.421975730885078
-13.308903415803124
-13.159083916095184
-12.239819467084997
-10.813427669024836
-9.231251195039993
-8.02513303107282
-7.434242954716033
-7.550637622370865
-8.754169365142682
-11.276027347834832
-15.144178210730658
-20.333448987713087
-26.508931312647775
-32.696054833325064
-37.876114036756185
-42.0507365117922
-45.251456057699016
-46.908879273715286
-47.17443937738786
-46.43504109003544
-44.47991188216628
-42.155009349984255
-40.251146371502735
-37.84177420378469
-34.52265903952259
-30.321121955099667
-25.110031581729523
-19.153411140870105
-12.55735690335141
-5.763551020913618
0.7273668919639014
6.964735720056161
13.044510376509741
18.918798063057718
24.586164621112786
30.125421396231697
35.38463841952012
39.93280716530361
43.362828994316885
45.41247677337713
45.90888752583106
44.71863280657724
42.02360304975028
38.52895304828955
35.02052554687052
31.914675024364346
29.52087688936836
27.404963378262995
24.40451490552612
21.73208825917406
18.972897114125388
13.711586249258765
8.498099522046479
4.255248383940213
-0.32584170243380045
-3.188623222534124
-5.023252504337081
-9.01269967721191
-15.054184220436552
-20.8139114908642
-24.652015676636914
-26.357901550641067
-26.070169719116464
-24.384359918712445
-22.31135864097332
-19.5058906392296
-16.075974170516364
-12.248371757276058
-7.133845401090063
-1.4250160825360103
3.5164361994747195
7.0616697497896705
8.422452305899693
7.288842872047795
4.454629027401475
1.1390273893580436
-1.8359155843136248
-4.476928629665203
-6.788786828136532
-8.87547354230188
-11.120393722173315
-13.218157448837314
-14.966609436305664
-16.228668326214198
-16.477385939011892
-15.618453082009815
-13.98637192680711
-12.097971798247974
-10.494641603934951
-9.494676087365159
-8.974633911769079
-8.373827111631634
-7.038183822314713
-4.792425745290531
-1.9731418022720322
1.0336334798534583
3.5381601194983863
4.81896925707529
4.644162016409647
3.1192470070646157
0.8178561313406222
-1.458124918050842
-3.14717027753975
-4.141919459364843
-4.719047461877061
-5.175124115375319
-5.823232242232436
-6.938747976613292
-8.43713322512105
-9.930362557130337
-11.157449731984006
-12.16604362509997
-13.086204343716204
-14.032226036395675
-15.097934603565314
-16.135168653600577
-16.74144432451905
-16.654261622730875
-15.733303044601108
-13.79655291929403
-11.048844204913983
-7.873589990465394
-4.252464499079445
-0.437790499859274
2.691177540354153
4.657205386589794
5.455152968014895
5.154593285641737
4.311215392763085
3.5494302097832806
3.067673208440362
2.8289102017860706
2.5461453566279872
1.8005947773127124
0.49313123466083325
-1.0130767916216594
-2.243766477614652
-2.8087475779492816
-2.4463506818668606
-1.288844110690645
0.08443022325800198
1.05534050014055
1.314388674658607
1.066504289366637
0.9433312619336858
1.4511264206086245
2.764579758912684
4.7255817534483375
6.76316599054307
8.001333311256902
7.47810129371218
4.967003816747522
1.231050958086208
-2.699166896144497
-5.8148368308688765
-7.5631338834063815
-8.18698894798622
-8.197551963051303
-7.936266525336798
-7.625331744208114
-7.25697018126557
-6.562467050070441
-5.423016451324982
-3.859881611989753
-1.9057543786432163
0.20394724059808
2.028851796919023
2.925604325160705
2.6931267911642642
2.0980006433445317
1.7781123339420497
1.6590084504250056
1.874007737388736
2.834887155788188
4.460793881630846
6.464147407091652
8.729659392102418
11.046760725340464
13.321025360191673
15.624733891101268
17.689163197119658
19.00522910995922
19.287273784455476
18.409678504205665
16.362716726257396
13.443489715818554
10.304646072108412
7.716620116034023
6.243870189911005
6.043213121918128
6.558750804764349
6.896486375077225
6.572782963446947
5.410692379256261
3.3991986068843523
0.8412967083617702
-1.9121577403291825
-4.841441720933245
-8.06514880760381
-11.601275556995517
-15.435168621134936
-19.325101431739203
-22.898160585291812
-26.00350852869304
-28.626554083025017
-30.69209679901153
-31.741699904571412
-31.019661979855474
-28.169070056190535
-23.306993871675637
-16.827466251875318
-9.470864943148252
-2.012536036187707
4.9180593004055355
10.640455285321538
14.548998388570354
16.252893603959
15.590534026237144
12.864324651122114
8.96493142048222
5.055940728043878
2.074743998388995
0.5382685649020836
0.4542559533884329
1.2608957468281958
2.213504470653622
2.972178421113307
3.745499549371419
4.81602773761897
6.1494074693467065
7.423549530502791
8.060148506519841
7.558250884836591
6.042695878144579
4.067848224098534
2.017881682116279
0.013796408968313719
-1.9445048254994055
-4.034132748325747
-6.569950754006115
-9.722665055800825
-13.412644030014404
-17.487245863133374
-21.77259532796292
-25.952076604759736
-29.574326350464233
-32.25175590768352
-33.74795635365121
-34.00061047082723
-33.30076301719731
-32.09483471147052
-30.58693522795401
-28.87290021025529
-27.128617658358394
-25.615643137337607
-24.667029308296527
-24.498617981701994
-25.02524865435107
-25.72057189427695
-25.791487346549598
-24.660725389081193
-22.19194457745507
-18.671734866821954
-14.61779106545392
-10.407188681748789
-5.98291826292305
-1.1057265716843283
4.084362818875443
9.008509571713972
12.8789413181353
14.981263114259816
15.178789162351679
14.00280853013831
12.25487589524371
10.75944623206097
10.177478258541113
10.803590215712722
12.468166516478849
14.701980307533276
17.0422084260219
19.029157869498004
20.104761814830322
19.76159912446955
17.72022141931982
13.9740475942157
8.96938965210005
3.606293935719054
-1.1336434857847315
-4.525474128064935
-6.356820999048893
-6.909559223714988
-6.652825842307298
-6.009499828157763
-5.255161276105881
-4.437386036490982
-3.4577127926828997
-2.2921780839849477
-1.0355855104287501
0.09783430649985501
0.8394071337667915
1.1404703487385064
1.1902888444538127
1.2148654506115122
1.4102258569583173
1.9654858641183872
