AAD_Filtered_TADAS_FILE
AAD_BASELINE_CORRECTION: BASELINE REMOVED
AAD_FILTER_TYPE: BUTTERWORTH
AAD_FILTER_ORDER: 1
AAD_LOW_CUT_FREQUENCY_HZ: 0.025
AAD_HIGH_CUT_FREQUENCY_HZ: 40.0
EVENT_NAME: 202302060117
EVENT_ID: 13194
EVENT_DATE_YYYYMMDD: 2023/02/06
EVENT_TIME_HHMMSS: 01:17:32.00000
EVENT_LATITUDE_DEGREE: 37.288
EVENT_LONGITUDE_DEGREE: 37.043
EVENT_DEPTH_KM: 8.6
HYPOCENTER_REFERENCE: AFAD
MAGNITUDE_W: 7.7
MAGNITUDE_W_REFERENCE: AFAD
MAGNITUDE_L: 
MAGNITUDE_L_REFERENCE: 
FOCAL_MECHANISM: 
NETWORK: TK
STATION_CODE: 3145
STATION_NAME: 
STATION_LATITUDE_DEGREE: 36.64536
STATION_LONGITUDE_DEGREE: 36.4064
STATION_ELEVATION_M: 695.0
LOCATION: Kahramanmaras_Pazarck_Turkiye
SENSOR_DEPTH_M: 
VS30_M/S: 533
SITE_CLASSIFICATION_EC8: B
MORPHOLOGIC_CLASSIFICATION: 
EPICENTRAL_DISTANCE_KM: 91.13
EARTHQUAKE_BACKAZIMUTH_DEGREE: 
DATE_TIME_FIRST_SAMPLE_YYYYMMDD_HHMMSS: 2023/02/06 01:17:25.2714330
DATE_TIME_FIRST_SAMPLE_PRECISION: millisecond
SAMPLING_INTERVAL_S: 0.01
NDATA: 11251
DURATION_S: 
STREAM: HNN
UNITS: cm/s^2
INSTRUMENT: sensor = ACEBOX/SARA | digitizer = 
INSTRUMENT_ANALOG/DIGITAL: 
INSTRUMENTAL_FREQUENCY_HZ: 
INSTRUMENTAL_DAMPING: 
FULL_SCALE_G: 
N_BIT_DIGITAL_CONVERTER: 
PGA_CM/S^2: 600.037
TIME_PGA_S: 
BASELINE_CORRECTION: BASELINE REMOVED
FILTER_TYPE: BUTTERWORTH
FILTER_ORDER: 
LOW_CUT_FREQUENCY_HZ: 
HIGH_CUT_FREQUENCY_HZ: 
LATE/NORMAL_TRIGGERED: 
DATABASE_VERSION: 
HEADER_FORMAT: DYNA 1.2
DATA_TYPE: Acceleration
PROCESSING: Automatic Paolucci et al., 2011
DATA_TIMESTAMP_YYYYMMDD_HHMMSS: 
DATA_LICENSE: U (unknown license)
DATA_CITATION: Turkish Accelerometric Archive v 1.0 - Disaster And Emergency Management Presidency, Earthquake Department
DATA_CREATOR: AFAD
ORIGINAL_DATA_MEDIATOR_CITATION: : AFAD - Disaster And Emergency Management Presidency
ORIGINAL_DATA_MEDIATOR: AFAD PROCESS SERVICE
ORIGINAL_DATA_CREATOR_CITATION: AFAD PROCESS SERVICE
ORIGINAL_DATA_CREATOR: network: TK
USER1: GuestUser
USER2: 
USER3: 
USER4: 
[...]
9.181234973615684
13.615498735820374
11.543071638047417
7.783630729587837
3.5260908346809456
-0.616715741233546
1.1030646347509825
9.54950123974233
18.065331422394685
20.801324473458692
19.232152332697172
19.475302812100605
23.362719835974307
28.021935704250648
30.489297040403983
27.821216588256934
20.720007681228868
15.014481087312067
13.414267437916099
15.59893518796958
21.40292480880584
25.18330859022458
23.017972397732333
19.863520265228242
17.050254713843863
11.516662859493591
5.247903633728024
-0.16270540126925476
-6.682700260255729
-13.76068438993414
-17.174337634417945
-13.930426087912373
-7.102164702497986
-0.8528697780698609
4.803655712471269
8.35943778972656
8.818624476882247
8.767928917449405
6.817292622318258
1.0209343716878405
-5.848137836950301
-11.559012463094101
-14.626848545983988
-14.103686789302786
-11.82492336441325
-10.292338733638694
-10.482090591570124
-11.789111517744848
-13.229187522460943
-14.016597754837674
-13.693300871758806
-11.759497705085902
-8.044121966255789
-4.818024485810237
-4.288150589145563
-6.689832650215445
-10.273535633538595
-9.638902158268417
-4.2787533172816605
-1.43703967951234
-3.2410990033315845
-7.44620024488811
-12.9734524445246
-16.346985454923953
-16.50598686727259
-14.3809133765246
-8.382095279664494
-2.998287046182347
-3.652706452918896
-6.036636921706353
-5.50283597725084
-1.4946983072640894
4.29718287387288
7.839117829122376
7.21676259973799
3.014960262116279
-0.01437345763520959
1.789865092619431
2.6293085972292602
0.03669820041105603
-1.964974574462687
-2.3365431529112155
-0.007518145553000904
3.228255234486225
3.197870128184024
1.0000491157852773
-0.7350628358977066
0.4282432493699279
5.742389388042593
10.151283608280483
7.239930342399909
-1.13146864659716
-7.843999138864269
-10.766245744295839
-10.726753232894277
-8.7722206828956
-10.267146587317518
-16.46178599337449
-18.50135747330383
-10.161166844446873
2.2732998914339677
9.083396204273008
11.339311744456655
13.590425840320371
13.578598078651185
13.171033820414637
16.49383299525975
19.039815457343572
18.033296558990994
15.793068651918533
12.520478908838989
8.202343818396974
1.6827299013386454
-5.463594098437861
-6.6250355180902485
-4.096310333634589
-3.5681384213167986
-0.8333525319782699
3.7214858112203517
3.8416160132886352
0.8421800824551543
-2.580954267554688
-5.090114361160638
-6.926504425993278
-11.582386096190021
-15.215060577205469
-13.934182634460026
-13.862447173011017
-14.888129295043361
-10.77254391219108
-3.4454228840694574
1.2490787464354878
-0.2770714475090517
-4.436543822048941
-2.635748693788344
2.3515988665793017
3.522074151085506
3.487429461696069
-0.2498209155899811
-11.69186870444866
-23.08569270766672
-30.726333703092315
-36.76725860015767
-40.30071851385841
-43.11369900266098
-44.291930630497674
-41.05047032028409
-40.59030732133087
-44.042841310319155
-38.6702128038096
-26.1269619804048
-18.11365465193584
-9.5193765286804
1.4860989256955128
2.9101398507395357
-0.8286482573650101
3.738548388029662
8.825835950921446
0.8661426749161569
-12.425517126713503
-16.847565671452422
-12.71988411803914
-1.1780444622569808
16.579515133942934
20.02409901457552
2.8895934873271383
-4.54004340629971
4.87602075820154
7.5556260840015295
1.2373980817956929
-7.507106175726632
-15.394340263647033
-10.26480609569174
3.834032797583896
9.440992958347142
6.925119141667009
7.672348757044181
18.7127095473701
40.34525642714887
63.95218536582861
77.3982578649147
73.13807660308447
54.677748810041024
41.47653583774443
42.71072730650365
38.66413284954291
25.026410894773083
21.072663217049698
24.461255439298668
22.815705650452514
17.944314711752313
14.106483188479094
12.385164700474984
12.15584699639528
14.558585490002962
18.336032518593477
19.22262730283185
21.031611162437464
28.625224657752565
40.45246715259561
49.23480304354791
45.92099469613192
35.34592269424231
28.743353493418798
27.13208803004515
30.545798175912758
40.545385979446976
48.80348913292475
41.986843340060354
23.163929222592273
12.02317140966867
15.99531700237909
20.00200027614323
10.086097859585438
-7.824538511046723
-23.857706854572317
-39.18948450419962
-50.9775147118719
-56.262231476171905
-62.74537248884766
-68.30479860911124
-61.25003487428977
-41.98260283911816
-22.139435228216865
-11.758454299901137
-10.417313392815894
-8.255886782021848
4.735195219119809
26.56110280634559
41.99557639673765
36.18333992134748
7.127347814961299
-27.143613655815006
-50.00495083390569
-64.18252077985929
-67.60303153887219
-61.154283843075525
-60.020265534870056
-62.167852327889385
-58.76068974896808
-52.18499326095685
-37.53964472386989
-12.966494109665964
4.229133249788032
3.4732417598848833
0.8203576968508933
9.419062513716142
18.205524211427235
15.039167935033538
5.92897664779426
8.484761085003774
20.044931987786978
15.843533731850338
-2.0372219719886115
-10.902098762842991
-10.791914521594407
-15.258130067746196
-25.18521153874204
-30.967606282739553
-34.72405151680935
-42.41756499498081
-43.73566300214999
-36.33898772890096
-31.150269868512243
-26.448187131089252
-13.613362625641653
6.9324902853062715
25.05803338801791
30.45721353553815
28.899024128258127
39.1530491406643
54.96298472334479
47.82691537045138
24.706389695589664
10.003179175919637
4.593788801099853
10.847683835763618
23.70978621465032
28.135809083442073
29.967611291311485
32.39324956094501
26.70767044736511
14.114290210296272
-2.512366740131125
-20.185034512560073
-28.962646474423682
-27.050542619671546
-26.566156039835274
-29.94151056102827
-28.07253766478806
-23.73532615743115
-25.20854616820319
-27.257252690868103
-14.452683140992264
14.805454140105281
40.040587249258735
48.44035899207911
47.10760156291245
42.21319595533603
27.405273700477935
0.5651115525739089
-25.125510953196343
-42.857587978469795
-45.525863938268884
-23.78880799632455
2.5664060292437134
21.297514819670994
40.47129078375462
43.35877648685362
31.9646645700511
38.375953544896944
53.55191105600122
49.88495317193865
31.588775335155347
13.054328729944725
2.371192702637743
1.5858928036711957
2.4283906902218693
0.34434512659314603
0.4743951978316006
-2.737244508997288
-14.966902990038664
-18.24911759379998
-3.182551089389285
16.434846099969615
37.86206233963896
56.68217211802014
55.26805316416915
41.071041184126685
33.109164896525556
28.968433190194226
28.753591802743188
33.23671312612986
27.24101353247837
13.722194851030663
9.70779443636823
12.47964689973914
16.78287229454052
20.295905073640327
15.117996208983227
5.186341858594045
8.095149444872035
28.30900190054885
38.43128056740473
21.698814633312278
1.9595003545216922
-5.55176356633906
-6.159374470746105
-6.864541477538866
-17.515297284774217
-33.37024855200134
-48.41424198519943
-66.85278668703553
-69.55143183376438
-39.23947118101869
-12.193010936228164
-22.229907318771087
-34.788045485683504
-18.121722638650816
3.79143387693551
14.722817872139935
14.100852638309414
-11.715773173550136
-42.92329636875207
-36.78263181657907
-8.699639494689992
10.635975124601725
28.78713199105927
23.67151745711583
-18.09543206189133
-41.3050675306859
-22.362332073749744
4.944433692127192
13.510087058277936
1.3063366366062812
-13.835212940147283
-21.96218713058839
-24.244356910144372
-13.468160238018845
22.202809071725383
47.21109140763743
9.297469026023025
-34.57605527403528
-30.71636592849058
-22.437856233120517
-10.701031797980663
9.711894517642826
18.442783638816802
19.158518690224113
0.9144370106101423
-8.664979841578122
18.61842432804165
45.45925410173916
49.6582479691513
29.191544196083367
5.500827857657447
3.704270100011505
-1.4132379636711438
-17.871097077614394
-18.09863245053674
-5.408844872101785
-1.7761496326828339
12.058245655189912
46.24788168894564
55.00529534278333
42.29142727689241
48.49093253800439
60.613070592504926
61.38888810860137
46.49769367206214
22.82497299636741
20.86181397355583
40.94498058907271
52.71116178717028
55.64063720369696
69.28249496880673
87.48886576977883
92.96101961229085
81.24274728204844
69.14009611657964
83.2414028667875
93.00229649996865
53.82500123994346
12.278471926081743
15.491815745294943
25.18987940432683
18.28786771844166
18.85448318451865
18.953035342463423
8.899612582970093
7.511267325577054
-0.21146019838934796
-13.586681746053141
-16.538605751355476
-43.63518041437083
-61.71480014528007
-29.25433169155319
-11.663351653718015
-3.5926882276094325
22.01992549501653
18.943225717314537
17.57955364298694
40.1263327162869
42.369938379807756
30.982013447790944
17.73732946956121
3.337657749365953
0.23862245622906122
-1.3144778968720134
-8.962657281914666
-13.864522791170044
-15.59282982667425
-25.2606691103192
-33.06673198734802
-31.033748278194203
-43.24221425275103
-54.155984171752294
-35.68099115775662
-18.82803057132332
-28.644557179235573
-50.5194473287881
-53.263939783154974
-28.422525868519323
-17.080143520433378
-37.93775378685479
-50.17523943205097
-20.215764667081533
13.87126766968232
-2.9732018141021523
-34.408725648113986
-35.92639804427598
-26.60039850434264
-9.576150808338221
-12.762126531695195
-50.72016222854157
-48.370657975384376
-6.200717173406935
11.245571174153676
7.138379863349448
-12.993016093035756
-24.24798981703637
6.4691032558976715
21.48107914676932
-14.752560252667749
-33.13906261947473
-2.99738433333326
18.896944027333994
15.126598794191798
22.347725277299222
43.89965764613308
61.0383462626928
61.17435217981008
45.528211217460026
39.624470426848504
63.718879474594935
103.4200971605588
113.16991012899578
83.75862937072976
55.05695219818388
28.55421137649224
-13.666757399176596
-58.48250616056899
-87.82337024741047
-99.0189976628585
-105.74439229770077
-93.85094743292704
-41.31698540893562
13.88579623906483
34.74783899079092
27.69936587214922
11.438683465601093
10.891160890830395
20.212412200303824
7.659491751615532
-19.219720244450205
-30.398569283707193
-31.09393870153408
-45.306807171657226
-71.95610493326126
-100.72672367370915
-124.24875213330668
-124.0243017710392
-101.79838048833832
-83.48087766528003
-84.82458351530644
-107.41955603806765
-133.82890137786234
-140.35972313680375
-116.04779873851935
-74.168898429692
-45.79924829289086
-19.346491175409476
26.11375537401847
62.36825942053062
77.96291646709626
68.38334449269969
18.54838977515885
-35.906282463820475
-61.327725207404804
-75.91990207388044
-102.68606546591887
-135.49640767629495
-149.3972069180942
-141.7590290217283
-130.19637746286
-128.4726944561238
-139.74113166765633
-145.9199776008085
-125.11421002502235
-85.66646215600937
-68.92446632866842
-85.18478992224856
-103.61772333176374
-113.37514477578165
-103.98507734860966
-86.40809957341156
-100.7964908052806
-124.78790590992993
-99.03653964187039
-13.532253150466763
74.30430688473797
127.44653542881494
154.53672227342082
111.26232624281346
2.6511148591906135
-99.43079502329076
-172.58859707056632
-173.6531201818172
-134.66197688972198
-149.68158615900813
-166.61963945187776
-138.18567320717545
-109.41727136100182
-95.64569072587445
-65.00787758181434
30.705840846771142
154.28135927408667
212.0680085966101
193.76435610576561
162.83858386975965
169.28696116980367
191.51984442772226
206.17949774003037
242.0019300217415
300.44485585122646
335.93156067290073
343.3161297373918
393.47552963776997
451.7020656048007
380.988535885566
254.89865814047286
208.1411429012582
166.46223382677042
114.29987794383901
141.34973509914735
190.99365577118323
184.89574870616357
153.7310172809762
113.01948733823205
56.49427022371336
2.021258348169801
-41.48143303161699
-67.31231385074383
-66.53715658003564
-56.671097830566644
-71.01581799440252
-116.01658651043822
-169.72918016474887
-210.46930973716192
-219.96531023892976
-207.29595506884485
-206.3432876304512
-220.30610474176527
-227.7731997727479
-199.528961621265
-122.4540272864757
-38.35333807202253
11.936760514460454
18.49153330861848
-8.584358493359675
-23.51086883893807
-1.8905990392556937
49.39206810393974
124.23311772582585
191.11580449500568
227.46842776350164
233.72433630545254
228.90258180919258
256.8077912178147
291.18572412641237
279.1842113129195
253.49787464686398
225.35853001729708
172.25303137505307
119.04733369328254
66.55126420944269
13.048646140107598
-15.733325395159232
-45.805477668169374
-82.98935195693662
-73.7542042769725
20.232805662990106
179.800365125607
258.1859968637598
160.09923213164723
30.24760609342088
-35.052783714404846
-123.88505487913572
-260.8089721965301
-344.9902394625448
-314.51106114676617
-242.98935702818
-192.5807474444227
-117.86034566408192
-17.140270823579396
56.18461835781499
85.1548566420495
103.30312727836069
176.99009261591613
269.2561774074512
267.4659828079917
179.00204778673654
61.089060736353055
-90.0922072341131
-272.56159890120733
-442.5057631523426
-554.0948604993309
-599.1892801186219
-565.4395746098551
-435.5348203468825
-266.6817338249897
-127.46560896817677
-17.83709456196436
78.30865876996775
158.79659039475405
205.5004220224522
212.20002008679333
216.08636813354363
243.07181306274578
281.59845648304116
329.7934903192483
386.3995254796723
444.53729954331004
487.1186252012831
466.8507297672881
393.7319037721187
333.074978658338
268.9860671555074
153.99287319279472
29.966816064296417
-25.132790919200108
-33.59910272905311
-111.2370345283617
-234.90937458446285
-249.68148944866252
-201.41189410717104
-228.45891230288103
-268.884504106016
-256.8297893069847
-231.86741425058565
-238.4437759454142
-305.4238718373104
-330.6598618876704
-228.47824186309765
-98.4539603814038
4.998393719111412
73.7212292500999
71.29616433248884
56.972342587578105
84.35828535590116
121.40208690040517
145.01491218414844
159.77520032370313
173.98054091141015
186.19624201841415
198.62680760818148
209.3107217784425
195.81343918476438
156.92373195330978
116.6214931994582
85.28275076750914
55.14664688182006
24.25559776986632
3.283873273163326
-2.4974070915368873
13.181781262512413
54.634398902908075
108.45324200535218
164.57156336673876
219.63826788868067
268.8699455974812
314.33452724056787
353.81433093947203
381.8177109972454
395.6687540940522
392.09251826829126
387.5423067424875
397.30923726321396
405.18198957445026
404.25393964720195
385.7563309625958
317.99998976567815
218.60249830708753
132.65560974475605
59.03707268809131
-7.4508045368262215
-62.76476645080051
-115.74342693539937
-158.66990573044595
-179.21297587982235
-190.06882778169003
-204.38697707650402
-209.8622926142349
-191.00697355692807
-163.51102267021616
-149.8689689064162
-143.61602601831507
-124.95146196181712
-79.88877287481301
-20.61298455932469
19.73601434606682
42.165578786524236
70.31520684285655
109.54525271708323
154.2689335830897
176.8463326418275
172.26449057010532
188.8943957664683
224.91003771346234
231.93378544664017
212.51902718124126
188.84884248003587
163.66661815987982
137.06706750101867
108.88688010201206
94.34544264832037
113.71403783738239
144.23170859940268
148.8201414490239
138.8187130646983
134.83594616807423
127.37938470774465
112.00714479157526
91.84877567579105
65.56078600894634
38.724464857220724
26.645814194821195
39.871909777658104
56.025133250046025
53.45127252503881
51.56687683491056
59.50954610622382
65.37159815906081
64.3355604322756
47.194253766822925
27.332615674043478
29.38330782184206
25.299078296275496
-15.932327617235194
-69.1384673419286
-115.83247114542559
-167.70605979447177
-227.91889927109375
-297.4799077115114
-345.55269955572965
-316.9584960847223
-238.14688406860054
-176.84685753536502
-149.26485760233467
-161.31280077030127
-204.73909274781252
-246.08823430540917
-278.47586843080006
-305.2912197324552
-323.9612665823271
-341.5744805711643
-357.3288158335243
-365.84217534135485
-363.9904026557106
-349.8614822963418
-337.7788910556574
-329.414253383971
-318.6743781112779
-327.1364382816247
-350.91462475220163
-366.4632088022785
-369.65102239721546
-346.1727798190078
-302.6104502187781
-255.513778527086
-197.6274133717248
-138.92434849514166
-85.92927497867727
-41.7322539873912
-18.888370134489655
-5.802590067447616
12.425788605084275
45.91338458560005
79.66906250988819
76.32496126326261
46.07176251541918
5.533474517206813
-42.88457376774037
-62.142954012119105
-46.169055843990684
-30.32717270700704
-11.06492534398645
34.39502294025929
97.05107094229946
142.39977659503273
156.2974543700914
164.42050335423295
176.83428951902985
188.1086625649138
217.7295728677647
255.92990922098483
258.32721884606053
224.38027893925627
182.90034293492388
135.1708447318776
87.18946492501986
72.29625781717431
79.95668275152677
79.52937699362745
92.25477431902976
116.25341817581032
131.9702026810288
161.075082096652
195.08995142664796
214.0527591752221
226.73279386931674
222.8164765990252
192.26634277471624
146.32840314352129
95.70177121138445
33.741647092280324
-39.46410707878512
-93.75368752640166
-119.32247646809128
-124.70491739764613
-114.90414663020083
-104.47827291693152
-98.2881857527785
-99.38616715998587
-104.0051249863585
-112.6218997571001
-131.11130887722925
-141.4796960819317
-158.19152618626944
-186.75529808254777
-204.01055711053374
-227.7050764784717
-258.5120366689702
-299.1105070907786
-331.29412467929706
-308.4798277813256
-271.2948637655746
-229.6414958662026
-170.5873035979774
-122.5965706214345
-46.85443610891887
42.37568870242214
102.99453673828106
158.2743149927555
183.87411929028832
177.66173144929397
164.7433963753173
136.78150348172352
100.47450411282534
61.27034593154497
30.579389372258564
-1.0356895697753639
-46.23189276851796
-85.03715138060754
-136.05899569533815
-197.52980992022833
-243.8215875738106
-290.74649725767625
-328.96547759070825
-352.6447398421176
-373.1350655137846
-381.5140775159167
-387.2759981126836
-387.3718513560035
-373.7861244727755
-369.5625632169966
-374.8062460822652
-371.67462974810206
-353.8247156649274
-323.1887988294502
-290.55741297432473
-261.88270078769835
-243.03192880186486
-231.89922009765795
-215.26746596103135
-198.91599389376094
-188.8220689210535
-178.4811710245564
-172.2112515030476
-172.24192420307463
-171.00701257151098
-166.75415698396304
-162.72193577821017
-155.26489123752296
-138.598280239183
-117.9393847055874
-96.83669779327319
-75.09606536262044
-62.34323032319612
-56.575258660197804
-39.76644240115546
-13.261408899172991
4.2048997590070964
