AAD_Filtered_TADAS_FILE
AAD_BASELINE_CORRECTION: BASELINE REMOVED
AAD_FILTER_TYPE: BUTTERWORTH
AAD_FILTER_ORDER: 1
AAD_LOW_CUT_FREQUENCY_HZ: 0.025
AAD_HIGH_CUT_FREQUENCY_HZ: 40.0
EVENT_NAME: 202302060117
EVENT_ID: 13194
EVENT_DATE_YYYYMMDD: 2023/02/06
EVENT_TIME_HHMMSS: 01:17:32.00000
EVENT_LATITUDE_DEGREE: 37.288
EVENT_LONGITUDE_DEGREE: 37.043
EVENT_DEPTH_KM: 8.6
HYPOCENTER_REFERENCE: AFAD
MAGNITUDE_W: 7.7
MAGNITUDE_W_REFERENCE: AFAD
MAGNITUDE_L: 
MAGNITUDE_L_REFERENCE: 
FOCAL_MECHANISM: 
NETWORK: TK
STATION_CODE: 0132
STATION_NAME: 
STATION_LATITUDE_DEGREE: 37.855892
STATION_LONGITUDE_DEGREE: 36.114868
STATION_ELEVATION_M: 761.0
LOCATION: Kahramanmaras_Pazarck_Turkiye
SENSOR_DEPTH_M: 
VS30_M/S: None
SITE_CLASSIFICATION_EC8: unknown
MORPHOLOGIC_CLASSIFICATION: 
EPICENTRAL_DISTANCE_KM: 103.34
EARTHQUAKE_BACKAZIMUTH_DEGREE: 
DATE_TIME_FIRST_SAMPLE_YYYYMMDD_HHMMSS: 2023/02/06 01:17:29.8658600
DATE_TIME_FIRST_SAMPLE_PRECISION: millisecond
SAMPLING_INTERVAL_S: 0.01
NDATA: 12501
DURATION_S: 
STREAM: HNN
UNITS: cm/s^2
INSTRUMENT: sensor = ACEBOX/SARA | digitizer = 
INSTRUMENT_ANALOG/DIGITAL: 
INSTRUMENTAL_FREQUENCY_HZ: 
INSTRUMENTAL_DAMPING: 
FULL_SCALE_G: 
N_BIT_DIGITAL_CONVERTER: 
PGA_CM/S^2: 37.808
TIME_PGA_S: 
BASELINE_CORRECTION: BASELINE REMOVED
FILTER_TYPE: BUTTERWORTH
FILTER_ORDER: 
LOW_CUT_FREQUENCY_HZ: 
HIGH_CUT_FREQUENCY_HZ: 
LATE/NORMAL_TRIGGERED: 
DATABASE_VERSION: 
HEADER_FORMAT: DYNA 1.2
DATA_TYPE: Acceleration
PROCESSING: Automatic Paolucci et al., 2011
DATA_TIMESTAMP_YYYYMMDD_HHMMSS: 
DATA_LICENSE: U (unknown license)
DATA_CITATION: Turkish Accelerometric Archive v 1.0 - Disaster And Emergency Management Presidency, Earthquake Department
DATA_CREATOR: AFAD
ORIGINAL_DATA_MEDIATOR_CITATION: : AFAD - Disaster And Emergency Management Presidency
ORIGINAL_DATA_MEDIATOR: AFAD PROCESS SERVICE
ORIGINAL_DATA_CREATOR_CITATION: AFAD PROCESS SERVICE
ORIGINAL_DATA_CREATOR: network: TK
USER1: GuestUser
USER2: 
USER3: 
USER4: 
[...]
5.459680403552425
3.5540849327321387
-0.25737407518222394
-3.8063856397370146
-5.975338009752165
-8.486328748337188
-7.792920238870345
-3.0961066428102795
0.3204481443441311
0.41271138653423733
-0.36085403363076257
1.953964963512359
6.792077442845892
8.486196547447518
7.376541133505697
7.608222671302696
7.197443239946881
3.836435161324257
0.072103608417321
-1.8143779331498369
-2.410869526035884
-2.461038569088822
-0.8566925823389504
1.3142944325401509
0.1620039885671207
-2.6994351906756493
-2.561724233000232
-1.729145935473152
-3.2070527913594247
-3.9134974946870926
-2.849994322831489
-1.97930296440938
-1.4240383491711048
-1.6723556439747178
-2.701239763264829
-3.7985839131240695
-4.87632399274876
-3.4610706162260247
0.5363833747085323
2.6261031149675484
4.207830077909418
8.719836703052767
10.37824465777004
5.513577238948943
0.2244942871515648
-3.4217521393280435
-7.855826323735554
-11.494669919577527
-14.593954598678149
-17.738611376754324
-16.1779886833181
-9.42870769041217
-2.7934316245355166
2.0520358285610203
6.819951418437001
12.77001108167861
17.48741771282573
16.57749669586283
12.198148180377087
8.030732822732043
1.8806356920144571
-4.310159932349938
-4.189613277006156
0.849585392457983
4.282120064912349
4.026218312796387
2.3343228097619417
1.006366641183159
0.8783281821356468
1.2303842742242224
-0.1590102208291456
-1.2813156786397621
1.6986887339900991
6.668391044417201
7.674441863970192
2.869304483328516
-2.0413632467517577
-3.0473236245656072
-2.0379436838790284
0.5613183495932881
2.7324561085569448
0.9796201727262872
-2.565365218451861
-4.73189970066451
-5.877741549425112
-8.47914488966047
-12.768101809978047
-13.941887713604494
-9.540601853711085
-3.355620547749703
1.2112372430142233
3.6345890887752894
2.419882396893924
-2.4115799114522587
-5.080206190173938
-2.6484158204608153
0.18015543592037997
1.4240416114380285
3.7720479690505497
6.62130693923289
8.010108001495123
9.595168720497453
12.251483132963362
14.210009607691866
15.13637001453299
15.172546412945653
13.640051362093025
10.314867639208423
6.219467272834506
2.8559292545448116
-0.36182276833281846
-2.470564485554946
-1.8709440290185595
-2.661685055066414
-6.151210110009403
-8.107670257646156
-7.708444563680239
-5.498599119158893
-1.5880864087922049
2.524897354512307
5.311909182942305
5.956196447721134
5.5287262047402645
5.755044236973344
6.3902383294660225
4.439208620578385
-0.45164170156434896
-2.596534152524191
-0.698665582919449
2.4093224114271985
7.1468434356219115
9.930834895866424
7.64383642217329
5.224434250907399
4.970794134156449
4.959789127655835
4.558257298648908
3.266280509085883
1.6496835284253117
-0.06569413154561977
-1.1868007987684344
1.1987901702665091
5.144602951100985
7.117931631820719
7.9063252298041435
6.17534643716607
2.6053431230233937
0.17510881167316494
-3.483575019678005
-6.7894414560244805
-6.176198060959546
-3.8238239938580776
0.5466827428746733
5.321281424526417
5.585398663208649
1.4443129039815075
-5.03332955335294
-8.645334620698465
-6.070813292848363
-3.254692338498219
-3.520667435569343
-4.088096239639908
-2.8116629096094767
0.581911245090514
2.215922181920409
-2.4023794885837506
-10.964981320528981
-16.579884144272455
-17.131535750063094
-15.611425149229985
-13.543031094215753
-12.58930364504148
-13.094733548499411
-11.621274779530866
-8.548784787226182
-7.324310628294193
-6.534396641458148
-2.4521858535872623
1.9985851784226498
-0.13445598517457696
-6.472515982273199
-10.059510782314003
-12.124493110263744
-14.246672151410646
-13.920911664793392
-12.37706170097263
-10.422222757700554
-4.9712323169506245
2.265917703641726
6.956438700116147
10.495559209012821
13.865702083342157
14.376042374820937
13.216578179750556
13.606467249228146
14.689715625828988
14.895637615847974
15.244615396284482
15.897220456778667
15.010439528668472
12.513288871212968
9.103453430202736
3.5194109335533694
-3.7736147143294674
-11.180507628950586
-19.366687868619543
-25.42255737960473
-25.088689704299014
-21.468592941649398
-16.55699285956601
-8.152048999263158
1.2787199721507148
8.792438012944888
12.992140535611345
12.192319225225646
9.050820132719684
7.340725014461386
7.276144116428711
5.090233398721743
-1.6078817053155148
-7.315625659969282
-8.040058600823663
-5.067023569951784
0.01343032546208461
1.9541260838754522
-0.5317806928313623
-0.09076737695072538
6.249999005373284
12.55080264365666
11.985678497612637
6.340062847151235
3.0034712421114746
3.2121741187540076
5.01600724446487
8.840024281469539
12.678838297697075
13.259262125643957
12.212819111392024
13.584701305407318
16.571863856560167
16.3800029662847
11.538443177101062
5.43082961363192
1.077339996003392
-1.6911405485375086
-3.2849018945119415
-3.367762276029305
-3.2814967264213504
-3.9210490344492905
-4.216961495907428
-4.150834355387151
-3.2613337575271637
0.3269015805931287
4.620750080407186
4.268675110500567
-1.766957145196
-7.6551544361562005
-7.771203156656561
-3.9039255429052138
-0.8566340897970047
0.4710513050606571
1.2028749665455538
1.506615413505042
0.2866210109550204
-3.2078009786483714
-7.5629956585723335
-10.950441654269326
-11.853211696247621
-10.295787860850758
-8.483280078111555
-6.371858959186453
-3.7605629931436217
-2.343235407722966
0.24803586504342415
6.855728026095015
15.473207819609742
23.98954551770724
30.51761959719017
31.18958417907918
24.985734493718503
17.60256813629732
15.489160424388418
17.22163831141744
16.731303848544798
13.203520542344618
10.401514864911178
9.30683705016287
9.211196140847655
9.537606874993521
5.936358750679993
-3.239045527504851
-11.694470255584939
-16.43545064206982
-19.501637200938248
-19.868932358027536
-15.259743578964619
-5.57635523301952
5.67265789159619
14.561448306813578
21.364033624033183
24.954417111626665
23.510817065526098
20.582408467761326
18.046575094375495
13.776908074264977
9.07207655409963
7.3677947192479785
7.905412869752264
6.855513716374487
3.7866496255344364
2.099707213419172
2.9792253390820727
3.5492847749912197
2.344553482540381
0.21157932597603035
-3.198230037036994
-3.9969042263028087
1.9136557351036352
8.318836974849201
10.627424985216196
11.646307675543813
11.705248801148445
9.955311057805222
7.176195687891629
5.3522115464108415
5.181321699895586
3.885379158785217
-0.004649517091084866
-5.513185239490826
-9.754604955794665
-10.72217023129315
-11.61866059387575
-13.443595927238709
-12.46834862302174
-8.604049201240539
-5.979853628736792
-7.020323749409882
-9.147975566717077
-8.372136073256444
-5.228563997132043
-3.5747950938860806
-4.470989965635293
-5.519637706781734
-5.491564636015011
-5.058666022844883
-5.0726694636252905
-5.326866146277003
-4.735295105925893
-4.361323298598562
-5.340016389662509
-6.2545378217499215
-7.231796649837107
-8.61234897849989
-8.059348572627973
-5.764457426303744
-3.7767629201327457
-1.0621427689539682
2.026374022059659
2.9337160338718458
3.475625984590547
6.706374627937053
10.371401543413969
11.119031555041815
9.93232094950769
8.959534642579953
8.773986125357853
8.622173074170053
6.03374630675506
2.0321470161340383
0.67062406809398
0.43418721482082645
-0.9598336850646068
-0.6798184956396924
3.7190605625106192
10.173801504903675
12.524915271091245
9.15223227103888
6.491863960585279
7.536455356036104
8.538865089675415
6.752042346692163
3.9983942015734297
2.50898575208022
1.6955593387569938
2.613597276681738
5.5089234839138035
6.112827725362631
4.854830500668961
7.013384945471307
12.266901713059555
16.405614013742554
17.265383966189578
13.490445998307562
6.769483212365916
3.128563239329913
2.7318567791065957
0.5938840585057142
-0.9041112245129436
1.5065297617713649
3.936936533463911
4.105943218140597
3.4299057918706373
3.733641776080023
6.1791872190192345
9.510993347524492
14.180288163806773
20.062536585503786
20.751592177730625
13.378570956456745
4.043362309212909
-2.5502110790909165
-7.997281714157105
-12.418374620556412
-11.854035164438471
-7.51788710882535
-4.161907379633187
-1.534509163540151
0.4646974039643715
-0.7227241734828014
-4.731787524590703
-8.705796147431261
-11.110446601161733
-13.138653363709306
-16.159388425961797
-19.493348774890805
-21.055020959550042
-18.654525790309084
-13.29991039015955
-8.642548833032961
-6.270610732974748
-5.5814181314525575
-5.388049738226857
-4.8193764042680725
-3.7764953656473983
-2.56353102568281
-2.533632532213509
-4.341035788014655
-7.773712155822109
-12.059548093795522
-12.695218877131875
-8.699095475119647
-5.26156998846382
-1.7766687438517659
4.3309430375297335
10.201842929828166
13.414453465837617
14.046356733335069
14.86070958854999
17.077702228034617
18.449177545574997
20.3687049506775
23.372363955857384
24.665339527000448
23.550276573169423
18.079321795460466
9.156187806914009
3.0717174635915785
1.7439648372912162
3.2265805427557304
5.087931420513647
5.330393430399692
5.818365245880389
5.709309585878274
-0.08899128621648725
-10.111257375221408
-17.88378334856688
-20.03302959825785
-18.264967418651825
-17.383269562451087
-17.21079989561359
-13.674900149424852
-8.119804878432113
-4.009249271978766
-1.8775702966675463
-0.6854747616820491
1.2588239910000587
4.937784377913152
8.371135378126397
5.571212463585089
-3.9274189595377678
-10.829527448073131
-10.893108779672161
-6.3628302729050095
1.0522171725431415
7.571673493052967
12.846662866286906
18.97531206890845
24.172129844109094
28.188192122559453
29.138837386751916
24.025143050503768
17.433448996004525
12.27999180373885
6.261162608423552
1.1521736846667263
-0.8813576793448276
-1.6209520184868456
-2.63149119102666
-3.561102878957578
-3.690612471373318
-3.4588858503342492
-3.9981125826421535
-5.8224628912913445
-7.77369676276522
-7.484787100144234
-4.830529849118398
-3.4603765461717186
-6.253641227905502
-10.057405950403984
-9.998288335054651
-7.2009366561068235
-5.58862341226265
-5.8059550614392945
-5.758388404734817
-4.489015783776547
-3.178103218179381
-0.9629618746815137
1.6469585547219794
0.8575441610618031
0.3729304726888071
5.27101776696377
10.97180107613272
14.643478870867225
17.679443488450392
18.659643972631038
16.83614344522381
12.234256040202288
6.490707479488065
4.3799637390255555
6.503510885120623
9.439808669900028
12.640408050769654
17.618891067672145
23.348981727926233
25.714312604028972
23.40336033613306
18.43933205883596
9.976516506770764
-2.164458059112247
-13.70038062104172
-20.729742408635172
-23.588047619592906
-26.7545789046512
-30.285897605012824
-28.927072763306032
-24.169568099968863
-20.703949913848852
-19.496811780981634
-20.3580948415816
-20.411119560802753
-18.83825238797233
-18.855636180668554
-18.5901418111728
-13.625615748702685
-5.190874066588092
2.4902385865935046
6.64920160988761
5.7112553279207825
0.9465671513510737
-3.3295739626897896
-4.492217730010017
-2.1697227534521946
1.8803499715209182
4.894685507737439
6.631093700219669
7.175030281876875
8.099075175080001
11.412331790910148
14.102662210649937
13.874856976808136
10.347307754240424
3.4810082604714996
-1.8866353424054971
-4.284367369807985
-8.020254064209348
-11.21121266553094
-10.20329607643701
-8.522625994653728
-9.047978397983647
-8.763609343082642
-4.8288559031368585
2.133992251804273
8.666761079730293
11.059005151346257
10.714902817720533
11.281018435402489
12.147901080693332
10.988219685134002
6.081837739754414
-0.853671893734079
-2.775896818559053
1.82029095026857
6.583087091161882
7.633190818511688
3.910025502891655
-3.060736285192918
-9.808079554345982
-16.586388988232667
-23.1859882236732
-25.708762145213026
-21.75869467389769
-13.66787051498158
-6.661860971548086
-1.3605587240654342
3.7869149820919694
4.602173902329168
-0.7352659860138979
-7.585479687026332
-12.79805328176961
-14.470919238175066
-9.63029831316252
-0.8201849582496016
1.8443780267353593
-4.423790055653572
-10.08885996756686
-12.394019983467134
-16.775677585997965
-20.55511683589712
-17.416480813377735
-8.80691721033799
-0.8934756438198389
3.678753967325514
7.030449787956963
9.65730427503275
10.236422183392351
10.234369055159924
10.33035933878161
8.739597841530035
7.327571298100395
9.767034614131463
13.067329568422482
11.345863514916395
5.233494776205193
-1.5152359725424438
-6.9671525768755735
-9.831617705901198
-12.053311216225879
-15.4626459442821
-16.28486753125593
-13.103425117180672
-9.105907977750567
-5.328484783709759
-1.7238940410184114
1.5971247340868673
3.7521643887594482
2.43679147643146
-1.4289891908814767
-4.993802691271327
-7.4458732895483655
-7.927263389877293
-6.841551230639005
-5.903213679977164
-2.9079110736583975
3.097435240850916
5.274151209588504
0.9748363467708503
-2.3877276045947475
-2.2080591696687644
-3.7199552634721
-8.197219595473722
-9.690968616193581
-2.3855221632423707
11.40348633667917
25.3128908813557
35.10371287842582
37.757350684605754
34.67677692804377
29.81200819069816
23.53850940252123
14.997862107918964
5.70945005948543
-1.0400741239846876
-5.9977106303207695
-11.52683350737438
-14.665352481858518
-14.917920978804261
-14.4490492988497
-12.62156534802391
-12.313381394218066
-16.240119249368544
-22.07100171852711
-26.8186911067993
-27.881077312855403
-26.281381010243518
-24.248626279535177
-20.915523462412054
-18.09270795382698
-16.662742864065127
-12.264452571617968
-4.303449219389574
2.8386113627235905
6.23149375561826
7.458685085962614
10.228515750235132
14.009724756262658
16.589774939113607
17.77107750893569
16.40907720617141
13.100490510279855
9.763852077517996
5.6126264225837765
1.5952223510480636
-0.5253899696434223
-2.8756683185396077
-5.597880093277803
-5.688633035169347
-4.657691249787707
-6.671278984359237
-11.634125724578977
-16.162347736816873
-18.33396989533018
-18.829362255863877
-18.452928457294302
-17.45808168823377
-15.729234216088534
-12.94229591877588
-11.090998712026254
-11.470606262600588
-11.255846557164263
-9.257505068524722
-6.844090810150191
-4.055836031134994
-0.8610025114117921
2.605508180213347
4.549618050803069
2.526842799933492
-0.5373121980415071
-2.94365153413143
-7.943973307840391
-12.856723427316814
-13.281383508387123
-11.191315935495734
-7.328783389350902
-0.20513225305308241
8.696618194544197
16.903701669384038
22.9433060681573
25.143205300502323
23.618709168312463
21.45596385640297
18.94680749457052
14.690360896629894
11.064342336001417
9.354099853108545
8.014602463069162
6.735744866356077
4.980104196683552
0.7313773428551564
-4.709529937430051
-6.710798489407706
-7.388440215898363
-11.633539585336564
-15.476095255405285
-15.910976897328943
-16.418692463521673
-17.532886538005023
-17.30775043948321
-15.96587085777338
-16.262322542550475
-19.312499991607577
-22.13624220189317
-22.773654093327437
-20.531206082529845
-16.14314398624997
-13.074040112361038
-10.488601856491549
-5.108960507921843
1.5932611675549995
6.643639663389748
9.237100005330658
11.530290259714901
13.606060055735636
10.625656254196727
3.4769256250299008
-2.0410497462822095
-5.48617124430921
-6.303083068705292
-1.8135899972956853
5.012191433240424
9.619364842925867
13.134601477898672
17.522330664393824
19.711552085224262
16.1355883844133
9.24333317283455
3.760429697459739
-1.322259844510065
-8.654381876152605
-15.127639536274025
-18.36155401917766
-21.24982661393519
-25.730842064116295
-29.719977228417516
-29.048967727388096
-23.047497541709493
-16.31460761221997
-11.602591857116723
-8.906323264932837
-8.641747160524991
-8.657944942767973
-6.8205895740966005
-4.5578646460496755
-1.001655270330441
4.8550071281701515
8.559608302855628
7.840257615272656
5.348669811318564
3.3958472884523183
3.3534826980916463
4.462885688858134
5.201730676351027
5.752002427107118
5.639108028188752
5.466947888983322
7.172204211433203
9.168623277210273
9.52000519993474
8.931664810791439
7.472674543771678
6.2997783193314945
6.055121387847453
3.8934931153248358
0.19555940173922434
-2.7299760144145537
-5.397708444060976
-7.1157445121675975
-8.75629212314632
-12.319257899365873
-14.736036708769051
-13.64456086871916
-10.731359263250797
-8.95180505521908
-10.623827453092897
-12.481200178836929
-11.888517240287065
-13.696483761037838
-19.49777320522337
-24.86618714700964
-26.72499163246365
-23.315787298677282
-16.12985809155747
-9.942345033336213
-5.319722691007853
1.9265053981977494
11.669754909881897
17.368912586386777
17.5779878166907
16.02980969898999
11.598603180381968
5.305973649109245
2.5380474679171514
3.169868192311624
4.25745491624429
4.4194146068882665
3.48628364195796
1.6283075933093911
-1.6004070267233907
-3.76800348676415
-2.2220837371741586
1.4793799453560006
5.109284275478031
7.825288174124327
9.728152909524741
10.087517324399617
8.24312768908763
5.833700388341516
2.7699969639102413
-1.5277851259180115
-3.7114387173463634
-1.3261925102119276
4.30177036812255
10.183527909455478
11.971957405024924
9.504822641708166
8.84260977351257
10.193025533621718
8.151771090340368
3.3764769850889467
-1.703638371698172
-6.756895137965212
-10.301960097347314
-11.418142185063356
-9.44303037756996
-5.820151119253011
-4.069259907865116
-2.3147004067294086
3.1513819099050373
9.074808043944653
10.300824609704938
7.26696943715079
2.5037198406597816
-3.38458946087616
-8.58329324131185
-10.539132802093507
-9.643514106187244
-6.96537627045484
-3.652980390393821
-1.848969519135007
-2.183055007518549
-4.7069656700920675
-7.917245357425676
-9.300323702270939
-10.532379035828571
-12.310745514790957
-13.694215796544084
-16.43258440181169
-17.137335298878547
-11.316224522940972
-2.321093241304813
6.459606937461599
14.858403395560028
22.340453629194712
26.86149744342578
26.044026884161937
22.070477644515915
18.984429753521308
15.70195963947169
9.61780376831269
2.160111287807647
-3.6189159994948135
-6.099599666514862
-5.621241980745267
-4.415731733009722
-2.8686616615949045
0.7164796292669297
4.581576240357005
5.25934946984996
2.9519959609472193
1.3594362364732693
1.7213387750331333
-0.15053827874465878
-4.042842329331069
-5.328982193140113
-6.34147353036502
-9.465446430639357
-11.343542025069619
-10.363344354379656
-7.376113576298417
-5.428779943908688
-7.288467128239682
-9.945330566681045
-8.751229425989067
-3.6498783201413234
1.5757827091093641
5.851872550725713
10.53317786285459
12.31351267614195
10.407819095497217
11.154928632691407
15.275525802506097
17.25128676557388
