AAD_Filtered_TADAS_FILE
AAD_BASELINE_CORRECTION: BASELINE REMOVED
AAD_FILTER_TYPE: BUTTERWORTH
AAD_FILTER_ORDER: 1
AAD_LOW_CUT_FREQUENCY_HZ: 0.025
AAD_HIGH_CUT_FREQUENCY_HZ: 40.0
EVENT_NAME: 202302061024
EVENT_ID: 13207
EVENT_DATE_YYYYMMDD: 2023/02/06
EVENT_TIME_HHMMSS: 10:24:47.00000
EVENT_LATITUDE_DEGREE: 38.089
EVENT_LONGITUDE_DEGREE: 37.239
EVENT_DEPTH_KM: 7.0
HYPOCENTER_REFERENCE: AFAD
MAGNITUDE_W: 7.6
MAGNITUDE_W_REFERENCE: AFAD
MAGNITUDE_L: 
MAGNITUDE_L_REFERENCE: 
FOCAL_MECHANISM: 
NETWORK: TK
STATION_CODE: 2107
STATION_NAME: 
STATION_LATITUDE_DEGREE: 38.14594
STATION_LONGITUDE_DEGREE: 39.48379
STATION_ELEVATION_M: 714.0
LOCATION: Kahramanmaras_Elbistan_Turkiye
SENSOR_DEPTH_M: 
VS30_M/S: None
SITE_CLASSIFICATION_EC8: unknown
MORPHOLOGIC_CLASSIFICATION: 
EPICENTRAL_DISTANCE_KM: 196.48
EARTHQUAKE_BACKAZIMUTH_DEGREE: 
DATE_TIME_FIRST_SAMPLE_YYYYMMDD_HHMMSS: 2023/02/06 10:25:00.8769630
DATE_TIME_FIRST_SAMPLE_PRECISION: millisecond
SAMPLING_INTERVAL_S: 0.01
NDATA: 13501
DURATION_S: 
STREAM: HNE
UNITS: cm/s^2
INSTRUMENT: sensor = CMG-5T/GURALP | digitizer = 
INSTRUMENT_ANALOG/DIGITAL: 
INSTRUMENTAL_FREQUENCY_HZ: 
INSTRUMENTAL_DAMPING: 
FULL_SCALE_G: 
N_BIT_DIGITAL_CONVERTER: 
PGA_CM/S^2: 47.614
TIME_PGA_S: 
BASELINE_CORRECTION: BASELINE REMOVED
FILTER_TYPE: BUTTERWORTH
FILTER_ORDER: 
LOW_CUT_FREQUENCY_HZ: 
HIGH_CUT_FREQUENCY_HZ: 
LATE/NORMAL_TRIGGERED: 
DATABASE_VERSION: 
HEADER_FORMAT: DYNA 1.2
DATA_TYPE: Acceleration
PROCESSING: Automatic Paolucci et al., 2011
DATA_TIMESTAMP_YYYYMMDD_HHMMSS: 
DATA_LICENSE: U (unknown license)
DATA_CITATION: Turkish Accelerometric Archive v 1.0 - Disaster And Emergency Management Presidency, Earthquake Department
DATA_CREATOR: AFAD
ORIGINAL_DATA_MEDIATOR_CITATION: : AFAD - Disaster And Emergency Management Presidency
ORIGINAL_DATA_MEDIATOR: AFAD PROCESS SERVICE
ORIGINAL_DATA_CREATOR_CITATION: AFAD PROCESS SERVICE
ORIGINAL_DATA_CREATOR: network: TK
USER1: GuestUser
USER2: 
USER3: 
USER4: 
[...]
-2.8859277783815815
-2.417290557730699
-2.1176116148698765
-2.015461243455455
-2.094893351581721
-2.2625396636525403
-2.5474084218843474
-2.8974678946730883
-3.131000939492021
-3.08831539217669
-2.727932776405107
-2.222558356020018
-1.862800156396592
-1.7291861708567238
-1.5335440158400742
-0.7735952320113685
0.837551909240342
3.249472627174044
6.090266376675626
8.895988049778783
11.295427881316154
13.128218397151352
14.475596759860247
15.432840859800045
16.142179656721822
16.60065987215241
16.604728207459328
15.95417695033461
14.65962730605358
12.952266841576693
11.160962434639213
9.419202120414585
7.5432318987143985
5.3146638376914614
2.760475635832141
0.29514943422276063
-1.665155526911843
-3.0993917180824906
-4.308415337988911
-5.5090807155528845
-6.55009409931069
-7.117396069756494
-7.1054480108028075
-6.477024225760355
-5.2748119339837505
-3.8477792686777414
-2.5168734536574044
-1.5180933677542723
-0.9659377708777236
-0.7546296781193461
-0.8797521022810509
-1.337060615209283
-1.962124570170329
-2.5528181145221125
-3.0388567458165117
-3.609934790379474
-4.476317823569092
-5.623595934640336
-6.859659746213986
-7.88160447531315
-8.546531595969235
-8.915858728364887
-9.039700519850717
-9.001315762647447
-8.897034111318852
-8.722381614147013
-8.321351850978647
-7.685578275272798
-6.964800096529663
-6.3311799387278995
-5.963806771145571
-5.922070513179134
-6.1216283870050265
-6.3509983917372725
-6.206732967128141
-5.3986705415603025
-4.089460965973079
-2.6598757289459245
-1.4459901090709688
-0.5766770853500174
-0.044170363043181796
0.3063521071886361
0.6615377950019112
1.0884648534377375
1.4316436539734512
1.5004133607452503
1.3781516038613408
1.2506196617162901
1.276453066004291
1.391220805378995
1.5271425823668878
1.6996603802945314
1.6489324254336297
1.1504077036808715
0.38883826242746095
-0.3526729284818184
-0.9254410258802933
-1.1965068834395216
-0.9887001918305437
-0.41910836387033773
0.26117483439493533
0.9921915135020813
1.703739579533706
2.318423758053846
2.82412234648379
3.201403184356037
3.3857363057946084
3.462578179254747
3.54646144245887
3.7344895527364117
4.0043131204261195
4.09930759289453
3.8923204426159104
3.5673272622409993
3.34367553498226
3.2281777295394303
3.1917319818525782
3.4351512119471987
4.06058983378392
4.754512734030055
5.259208965052794
5.542279218612649
5.688088726271314
5.840972224835593
6.0878588255382775
6.422506939874789
6.641521619653762
6.75017416930772
7.002929681812252
7.387454220228698
7.793006580725878
8.186193002593296
8.467086761768401
8.541130254138547
8.28232285516594
7.540154896507239
6.366693742808635
4.9184137529426355
3.297613116038115
1.6149207255727132
-0.01712946854831479
-1.5235276370680673
-2.8414336973278655
-3.8794347395433144
-4.548055110343587
-4.789305366416645
-4.528134404818623
-3.8945087907140663
-3.2883637467826135
-2.970209664812225
-2.919315365923198
-2.9790784411012123
-3.0284429492040084
-3.1536632508929574
-3.563786250731863
-4.366965601495241
-5.367085817092765
-6.306430401693023
-7.054099472058795
-7.4735988025659505
-7.571311955735994
-7.445328734409939
-7.016409216039538
-6.192499056502638
-5.210395001256769
-4.4045222205806835
-3.8273603073279125
-3.25954990096864
-2.333957162207996
-0.9024975424820159
0.8250194487217621
2.5572831182354827
4.126002774387871
5.459411665071011
6.413106961033471
6.823514497297375
6.637531412804292
5.918205988379182
4.877393385062362
3.794751385353359
2.75397425808088
1.6519156534261679
0.3680201594227636
-1.0668088868142354
-2.4736651611382277
-3.650182748021225
-4.404744542258596
-4.643190301713663
-4.309786226395793
-3.449649146034151
-2.298441814317748
-1.1001602542405122
0.13965472773891202
1.5845421924642586
3.1861932347890907
4.6137185241841445
5.536500140728459
5.905881442074522
6.015238756103388
6.108794589586628
6.165334367934496
6.111766052239114
5.964409379938832
5.8719757033990625
5.829632023453921
5.658735226687066
5.303137020122065
4.933672563576076
4.662033524375931
4.454670621107855
4.255672465455678
4.023005821611134
3.79757624337296
3.5694743446833193
3.255271584631473
2.8100739661258585
2.269829687788165
1.6176687670732268
0.8987270903755394
0.23395135327016547
-0.24046994944297903
-0.3900176381744057
-0.2347705568955756
0.054726416155526245
0.3791583985387627
0.7030826882816668
1.0461852966569705
1.5110777798087243
2.0348529339761083
2.4185692924404867
2.3555110524866536
1.6658941065314858
0.5299180143660605
-0.7354933271319285
-1.946314362369019
-3.1545109616355127
-4.335561294510164
-5.301331401970945
-6.052413855661078
-6.677727920176783
-7.130454504061932
-7.163696198350267
-6.487010936394884
-5.126676165223173
-3.533484642014968
-2.22283085404321
-1.3204770630487928
-0.6455109402572263
-0.028715173672981542
0.6558123130405472
1.4864411238823634
2.4111102919600262
3.2978617932537677
4.124942383592845
4.883631064452903
5.424346416386428
5.620869572479798
5.4857823559806755
5.126140504780634
4.696057169167238
4.395796953249587
4.193894267624666
3.9471960785821665
3.551183601324752
2.8904764175426156
2.036237936861019
1.2608577722672543
0.8338449636113135
0.7660399496054743
0.9972358870956917
1.525082915850105
2.2250695283353434
2.9252815368787903
3.676139407069264
4.671290037492877
5.946406031615607
7.376656253717637
8.75474977631004
9.887829916729459
10.761171980773183
11.468034272231243
11.983919137747042
12.23160288144615
12.20616157848135
11.950357740620257
11.523638947458306
10.979198328107897
10.298328894184708
9.415675702191677
8.359971211290059
7.201692765590919
6.040683364078327
5.028979547703868
4.203002666957856
3.4878129026134963
2.8481996321905547
2.3350977811273514
2.0629641844361046
2.1440404760582594
2.490760216240429
2.8714020599056385
3.106753872550976
3.0012870584473386
2.3765354589256917
1.2232033075366633
-0.31420568135258725
-2.136773887759404
-4.187863563866418
-6.297200707288702
-8.26114623463175
-10.020885130132148
-11.571232156677455
-12.920300932729319
-14.055665792694201
-14.891172006091738
-15.340409700137762
-15.310899068791604
-14.834912528442473
-13.96778211406823
-12.729023475993266
-11.160116181085456
-9.509256311731496
-8.095641004836155
-6.935705025438733
-6.016694698206149
-5.386745609790502
-5.074299765841374
-5.236110212793917
-6.024027710725142
-7.344166190958948
-8.879860181606189
-10.359697729918475
-11.678232625678598
-12.727940119416886
-13.486810823820369
-14.009895696678123
-14.327397848670307
-14.482559275849768
-14.42625891782499
-14.100484111139151
-13.599892971202426
-12.995835299137102
-12.292359446788229
-11.438780068208683
-10.334801614350207
-8.90108886019061
-7.077484308266064
-5.007936352483084
-2.933874311947018
-0.9346243524557263
0.8816074996476055
2.3183780250914015
3.244743798495452
3.681302748688556
3.7667518380192777
3.76085668615587
3.918365369643756
4.189514563810798
4.450619293739583
4.680159855065775
4.936118377281069
5.275048952872309
5.713300975993782
6.237105233198226
6.706435988404269
6.951165148627078
7.003310760283291
7.061710181726306
7.313189525279831
7.770682910302435
8.288840040100602
8.83279505304373
9.44678345038381
10.094624364883941
10.661331249093243
11.092903200238563
11.335051526684529
11.359616617068262
11.19614110337619
10.705518989911173
9.787298278674125
8.591300485601524
7.261165033368172
5.777770560946336
4.112540443471887
2.3743684639970497
0.7324398186891699
-0.5996925974220999
-1.5216812176703878
-2.087188717873594
-2.342115488127321
-2.469743728597932
-2.6032176337037214
-2.5628571112004086
-2.198981913445041
-1.7070748398738644
-1.5091516462627774
-1.9945220166243198
-3.2439542432953665
-4.993259137741751
-6.936312141187401
-8.829837558916052
-10.397517484618442
-11.50881275940146
-12.376590092237699
-13.315625990599909
-14.557999789969733
-16.093607443474728
-17.700369600842905
-19.092561834154274
-19.967691667541004
-20.165339666266558
-19.713186409575766
-18.931010237314673
-18.11737296578187
-17.340638434092206
-16.612682846786797
-15.772935040019739
-14.47541235595877
-12.568864461918805
-10.217277993608318
-7.6426392082131915
-5.082217651500745
-2.747869483563523
-0.7981703100539936
0.6610479284099009
1.7483369135667588
2.729961499113207
3.7907454266513567
4.95439905041156
6.205536763131249
7.5712256687319215
9.061624308812247
10.600348768474548
11.923939231200988
12.860662949743885
13.43330254235565
13.536493359064613
13.108941508771904
12.268940291985345
11.148965121734209
9.872069063694173
8.493222648438799
7.078406692200322
5.632815831374144
4.059475620962587
2.4030234694145505
0.779954681714257
-0.7784432485428839
-2.4262828807129093
-4.316484894597737
-6.45870956590367
-8.633969412965099
-10.432189991690166
-11.547846507119976
-11.859932679311704
-11.46628388665291
-10.611282245974431
-9.511885825696762
-8.160101118677241
-6.4391458396027
-4.4107056097163975
-2.322847246456524
-0.23101636782703294
1.9351954085680354
4.079557107884096
5.9225404663873915
7.1297695298363974
7.587918503028039
7.444631244514601
6.938165053402583
6.193006158328714
5.203104563389681
3.9616801938647663
2.5043243975648224
0.9280152839566959
-0.586911396613262
-1.862852900825334
-2.773657743426611
-3.3665538435798275
-3.691334504948914
-3.7356480516213098
-3.643066419926762
-3.6687082490716274
-3.9494034656629946
-4.383654845776135
-4.762033081951654
-4.8730920969966
-4.607246106089267
-4.073775314410659
-3.5588302347142804
-3.311307134022933
-3.43052342908034
-3.7794750292946753
-4.173962721666073
-4.566181122249187
-4.970720859409688
-5.438483054821817
-5.96857631036354
-6.526912317962672
-6.879329992341418
-6.676696076289424
-5.727844249307899
-4.06154871031884
-2.0811586329760425
-0.22154606979766797
1.3108188903015232
2.4606528367579643
3.3409434895063406
4.092219597116083
4.785167621016348
5.453714280953831
6.064772758193877
6.46072751377138
6.437842535144035
5.958637007687799
5.173709602300063
4.113703450311698
2.694899635810945
0.9870512007973409
-0.8226113720897895
-2.4867854310638746
-3.7520621349662915
-4.508923024767799
-4.752832894437994
-4.631055522048829
-4.418011175306153
-4.285566233494095
-4.2922431571453314
-4.276306684102787
-4.04633323964229
-3.5723267929642333
-2.8414184148477295
-1.9390370358704672
-0.9744260797529896
0.05231764454814133
1.1920936867116958
2.374868035843002
3.45469704979065
4.389579613430254
5.095665325799284
5.4368154745561155
5.37377951793005
5.069320470596056
4.768807765581502
4.526061943927531
4.337059762459662
4.1947062978455
4.06929084144438
4.052734622026705
4.21497229798737
4.517406746929342
5.009695281230049
5.714523167176891
6.46709519035449
7.266186299741388
8.118239275751664
8.787872465616005
9.139283875913513
9.173500277376858
8.97685256986311
8.65091440924034
8.169245017530665
7.476396665257627
6.682425480394228
6.014580147086718
5.620286868833465
5.522362193107823
5.6005761404063685
5.633151187796798
5.567886261846576
5.394320438383221
4.937523972331419
3.9780581346246175
2.5625282258569957
0.9389567305564193
-0.661546990288728
-1.9991083825236189
-2.915731260144216
-3.294701389891513
-3.0887213440370744
-2.434950000933376
-1.6745753393647358
-1.125341195951865
-0.9650669792733364
-1.3303497657041923
-2.3003870721187676
-3.810226386968438
-5.722260120194756
-7.929511762400864
-10.234017669475886
-12.355518759465783
-14.056741878300336
-15.246105304998075
-16.038996199879705
-16.735131729128234
-17.53337713895221
-18.382407370816516
-19.259340469053143
-20.217968283794388
-21.195161716937463
-21.92766985777093
-22.204586293438478
-22.01588320413123
-21.492530250289082
-20.849795080882856
-20.207621560358696
-19.622189603750094
-19.15682647080146
-18.84664464135731
-18.723706635567435
-18.795932027068773
-18.96324016423986
-18.969129875820983
-18.711496128582755
-18.198057734235615
-17.302390826414978
-15.917249447526737
-14.195583068522469
-12.319428424585418
-10.294304613033587
-8.199591641194864
-6.023549882798714
-3.6959641735172055
-1.2467345381203918
1.2180856573528451
3.5858792085314035
5.726997009089659
7.480436165178769
8.749195729194074
9.544377953183162
10.062365556294823
10.64560879089693
11.56787079820392
12.827652347704099
14.14478515028398
15.203107504841933
15.895269102657304
16.251821929442215
16.352429618119626
16.313738340538023
16.22785293495672
16.02124290778789
15.612041103466193
15.086478052790785
14.597377569887367
14.33164944945419
14.202963382946075
13.86328510745206
13.180322617858822
12.240666335140608
11.175942372937996
10.177581105351832
9.552734037638253
9.609698604860903
10.611340860020166
12.618855390035094
15.522124338087012
19.099637924355463
23.02528883221913
27.0044005928768
30.891389886469298
34.69480594601847
38.342661125983746
41.7168051481834
44.48873035753152
46.43886709982409
47.33925802576973
46.99260710422774
45.45642276847082
42.87079233944175
39.502834837650795
35.65619347248318
31.498279134762942
26.89535836281538
21.838694512198053
16.52237754552989
11.257960383393412
6.396857568179161
2.0620697445397282
-1.8884750768657994
-5.585293845945036
-8.988707710076605
-11.885951123837925
-14.080437353710392
-15.760143954190298
-17.251960206004856
-18.67117437490843
-20.12916430797587
-21.63798464239316
-23.09105115607933
-24.588951208269034
-26.065245028471786
-27.285738631626028
-28.34214437636471
-29.24988409025805
-29.798189263480403
-29.90676132155273
-29.525207645720617
-28.626945910219607
-27.243322612724135
-25.33677747135448
-22.94259425915657
-20.30964501193065
-17.882870201741852
-15.87124439152384
-14.37078995140909
-13.49702780840937
-13.193046246658218
-13.276755154586194
-13.383941025994668
-13.401133444907208
-13.525247633666414
-14.009788217805339
-14.796619665711567
-15.637068584696706
-16.39038251132858
-17.11174203769571
-17.959124134519712
-18.922341695763027
-20.03547502537832
-21.267554293098218
-22.44215573429014
-23.303536089640737
-23.651128168873417
-23.40313179326252
-22.45169883209216
-20.947746264091908
-19.122058481865935
-16.95718508618458
-14.529219013494721
-11.907537096189607
-9.039766003976354
-5.914697329191498
-2.340105328201434
1.8081554376627154
6.268006152993896
10.728190082161623
14.888964714652587
18.40843818665097
21.012743034534807
22.681315256283707
23.51815104860704
23.55037328386589
22.971746582766194
22.104072067732176
21.068549486262146
19.887436653213637
18.65958195037931
17.438245874052996
16.182570211679625
15.019915421020492
14.059396795742023
13.385230646225319
13.228584765564317
13.682966319859492
14.720012015151214
16.14498027200993
17.683347654058345
19.178901872954093
20.645481261538166
22.03603085664088
23.14671337281648
23.82259377178882
24.01588112255132
23.6720876177166
22.5905877333999
20.522443714814067
17.502183089220168
13.925329853952688
10.133111280118928
6.313051525351638
2.581433484970762
-0.9759216050074506
-4.238454739922093
-7.250384706164538
-10.22274571051151
-13.151256221410343
-15.785345644538694
-18.1226778832807
-20.349445985708044
-22.45187316055444
-24.234693836400403
-25.509059358615946
-25.9727704484143
-25.450300360383007
-24.149950210305647
-22.624908904991152
-21.329702727791172
-20.118272001384938
-18.80781068147945
-17.515947794754616
-16.383964337514506
-15.48812006449378
-14.779112028949536
-14.364589031803229
-14.439115722919793
-14.943624174364802
-15.606130617084368
-15.992218135705997
-15.854044444280404
-15.144785791492696
-13.999667166005427
-12.642945623621442
-11.058329870341687
-9.182062299853602
-7.146643419652335
-5.058696377768578
-2.862938954173763
-0.554769890712859
1.660876527148033
3.672349624840026
5.468834546881407
6.9337109194271545
7.910509465255001
8.455762713057576
8.750478597475942
8.737120484704262
8.359100880349821
7.74995382908167
7.008121952669769
6.14813756758842
5.226221887193786
4.389931364428446
3.9029805400856246
3.8737975827673883
4.248292379943587
4.802297664689746
5.277934482242976
5.515250659055698
5.603979632388133
5.922712468260895
6.623499607561182
7.663217449828346
8.993729638316944
10.50884297480434
12.080667211264416
13.6749562314487
15.295077497228013
16.82611329115573
18.148580594030143
19.17524998640975
19.773757655822465
19.86062397558363
19.566092012922557
19.18916660570747
19.008263509558578
19.15814394607271
19.572812417804943
20.04492198888864
20.376880199154503
20.406686495294743
20.06231365788919
19.354947800401117
18.348785342809705
17.273517534208587
16.328921840419866
15.584113415765039
15.046879279964102
14.744789159701563
14.746283284097775
15.09055555246337
15.598651945881391
16.160045088118817
16.611882710278532
16.64230745308732
16.156396273946186
15.129402206960851
13.666276396234046
12.13997523835015
10.954454597017714
10.364591780581268
10.407058503305462
10.904683536209408
11.545858773510448
12.024513283393949
12.212756602178354
12.012883715944074
11.470046243257974
10.796209391502229
10.3314826921978
10.318931392876582
10.769789290732923
11.53706143720528
12.400151837143664
13.203694288009375
13.64850816275768
13.488384733857025
12.74346354749292
11.460392586439408
9.81407343348485
8.148359467973252
6.5870660531606475
5.006733120968568
3.436743991738641
1.94277952851604
0.5159267616492591
-0.7528636317079362
-1.8559001601550495
-3.0017142854276155
-4.379705192358346
-6.012317076002405
-7.849107295154246
-9.728569976217313
-11.540604629774418
-13.257156195418208
-14.807328054657471
-16.154273572742472
-17.418495442517973
-18.821885523944786
-20.476849080376113
-22.248776005846867
-23.92405237568188
-25.385726432219233
-26.557864083258607
-27.435173756943573
-28.068485672130816
-28.53452354923518
-28.900930624025072
-29.32994337476903
-30.003386107596768
-30.80734079352567
-31.594728706351635
-32.27719355368331
-32.704226805363646
-32.808520795897984
-32.48891743512515
-31.597432325989967
-30.113188756054754
-28.202385972728166
-26.179059746588504
-24.22249510628237
-22.310148581802483
-20.33572953445737
-18.074019081734484
-15.449761618231976
-12.629698313621669
-9.76954215098932
-7.060845186550285
-4.666517604351097
-2.604725325236022
-0.8101753915601396
0.8086162645719132
2.3986215818579737
4.062354102187646
5.754860555680629
7.39409134131684
8.818384305983523
9.842663848307815
10.448139749104273
10.76372221378629
10.873266400815911
