AAD_Filtered_TADAS_FILE
AAD_BASELINE_CORRECTION: BASELINE REMOVED
AAD_FILTER_TYPE: BUTTERWORTH
AAD_FILTER_ORDER: 1
AAD_LOW_CUT_FREQUENCY_HZ: 0.025
AAD_HIGH_CUT_FREQUENCY_HZ: 40.0
EVENT_NAME: 202302060117
EVENT_ID: 13194
EVENT_DATE_YYYYMMDD: 2023/02/06
EVENT_TIME_HHMMSS: 01:17:32.00000
EVENT_LATITUDE_DEGREE: 37.288
EVENT_LONGITUDE_DEGREE: 37.043
EVENT_DEPTH_KM: 8.6
HYPOCENTER_REFERENCE: AFAD
MAGNITUDE_W: 7.7
MAGNITUDE_W_REFERENCE: AFAD
MAGNITUDE_L: 
MAGNITUDE_L_REFERENCE: 
FOCAL_MECHANISM: 
NETWORK: TK
STATION_CODE: 2704
STATION_NAME: 
STATION_LATITUDE_DEGREE: 37.00879
STATION_LONGITUDE_DEGREE: 37.80215
STATION_ELEVATION_M: 524.0
LOCATION: Kahramanmaras_Pazarck_Turkiye
SENSOR_DEPTH_M: 
VS30_M/S: 721
SITE_CLASSIFICATION_EC8: B
MORPHOLOGIC_CLASSIFICATION: 
EPICENTRAL_DISTANCE_KM: 74.10
EARTHQUAKE_BACKAZIMUTH_DEGREE: 
DATE_TIME_FIRST_SAMPLE_YYYYMMDD_HHMMSS: 2023/02/06 01:17:19.8531720
DATE_TIME_FIRST_SAMPLE_PRECISION: millisecond
SAMPLING_INTERVAL_S: 0.01
NDATA: 10501
DURATION_S: 
STREAM: HNZ
UNITS: cm/s^2
INSTRUMENT: sensor = CMG-5T/GURALP | digitizer = 
INSTRUMENT_ANALOG/DIGITAL: 
INSTRUMENTAL_FREQUENCY_HZ: 
INSTRUMENTAL_DAMPING: 
FULL_SCALE_G: 
N_BIT_DIGITAL_CONVERTER: 
PGA_CM/S^2: 66.301
TIME_PGA_S: 
BASELINE_CORRECTION: BASELINE REMOVED
FILTER_TYPE: BUTTERWORTH
FILTER_ORDER: 
LOW_CUT_FREQUENCY_HZ: 
HIGH_CUT_FREQUENCY_HZ: 
LATE/NORMAL_TRIGGERED: 
DATABASE_VERSION: 
HEADER_FORMAT: DYNA 1.2
DATA_TYPE: Acceleration
PROCESSING: Automatic Paolucci et al., 2011
DATA_TIMESTAMP_YYYYMMDD_HHMMSS: 
DATA_LICENSE: U (unknown license)
DATA_CITATION: Turkish Accelerometric Archive v 1.0 - Disaster And Emergency Management Presidency, Earthquake Department
DATA_CREATOR: AFAD
ORIGINAL_DATA_MEDIATOR_CITATION: : AFAD - Disaster And Emergency Management Presidency
ORIGINAL_DATA_MEDIATOR: AFAD PROCESS SERVICE
ORIGINAL_DATA_CREATOR_CITATION: AFAD PROCESS SERVICE
ORIGINAL_DATA_CREATOR: network: TK
USER1: GuestUser
USER2: 
USER3: 
USER4: 
[...]
-17.41398350127431
-11.263375043072509
9.86815137605806
24.74206166121477
3.1485768293667253
-10.686879342126968
1.4802645587982493
5.021935180778546
8.574420648065523
22.828230641097456
31.84234178289867
41.817566948983995
39.352237030147904
15.110345309826183
4.984673129956663
16.588465558177543
24.647742825946786
21.85583337675817
17.377064029383195
12.66262491662006
24.227763013992437
37.4587208360387
17.68119651106231
-9.01371926091018
-9.187707515244416
-6.354233358645285
-12.323903784576048
-8.677478400997053
-2.9685807339410557
-0.10067883074091
-3.7546400353011102
-12.846817418115975
-6.448566551282905
0.04952386961718587
1.8807274719693379
1.1915169299755857
-6.116517941699728
-10.485509588743847
-9.209919900177244
-14.96550788408461
-31.506408067637675
-31.327600054866014
-15.300843986154472
0.7625464980257581
-3.0122568412416992
-17.471573037679867
-14.79077774577458
-9.571657791208217
-7.16793690198155
0.09499416881303278
-1.2662022470820138
-2.2695514745639715
2.5451371151182687
0.413293037337184
-1.0757054619340605
-7.072150128938506
-16.67672126318974
-3.8012402428134306
14.778128636085809
12.6907300705079
15.93753873093043
34.50970358464113
33.499518877672614
11.386231531246393
1.6977208898143001
-3.4835394493598684
-13.980359624073497
-8.285415868118095
8.686946132254487
25.321580734904284
45.59323368773532
53.45827692442719
42.83008853992979
23.073407822571802
1.4551041467522075
3.245510497279951
19.065406297043033
12.529973726822107
3.837725587785792
8.1982263172209
14.383577792324878
14.205220106867461
-0.22600204078284156
-10.02687725351049
1.623007217882495
7.877730521243242
2.7559003515219214
20.493312875993105
33.098342821959235
15.642652415455439
-5.504178000921305
-8.489605961252527
1.3443580989219766
9.13868404828073
16.458548179412773
11.429547826247099
2.8862892453078692
-6.787418736316564
-30.03373108235819
-32.93821435961123
-23.487910463864843
-21.603456294818237
-13.049700093509804
-3.0462216036980334
-1.6572612422652495
-9.574883881115207
-19.687207691727483
-29.996915804204985
-30.10149114918382
-11.818816285236252
-8.731415751809985
-30.475944115926584
-38.58154353397015
-29.45656495633331
-17.123556537269828
-5.221376133302661
2.0392703193565898
-10.532726495295114
-37.054157279075504
-38.39684876134114
-26.757835123200458
-11.489295975033928
2.6308383130766844
-7.3959554191833385
-0.610570141358064
24.97614331397998
34.223305112181336
28.954003556018574
13.771349253414858
-7.1029614521358875
-18.962134068133906
-26.503136688910512
-33.75704916960998
-20.668259564260065
2.037553601061541
5.41812649867665
3.557170175273389
7.050963052717346
9.054304583599787
7.547849906346215
-9.808246332644519
-19.280666097941815
-11.605334798811649
-1.9835316523106508
16.470759156581963
37.82010896285392
52.613975186392324
54.85698324959282
48.38257481287926
37.92392591160185
33.324817592738576
41.054490403378324
28.187610628627112
-0.09291562051791452
-5.689063918004055
21.6290456006156
37.12508965647025
8.419979522173378
-13.203751562518555
-3.8280461245023663
-0.4907508246474126
-5.844234868767461
-0.5687473669014822
-0.6165447138682563
-3.6462319863907604
4.439347362881038
9.207762940900626
2.030647503352949
-8.79246058213392
-5.227347308012967
-0.7419378895185894
-3.362171923680628
2.1192522971207595
-6.038577277504723
-26.68825895870492
-22.87338191112102
4.109587111191138
19.703933828485333
24.816333923797632
24.72394617013105
17.855890701862496
5.38956107033557
-5.7310103559348455
-2.40820788620605
-7.584739604252918
-21.057212525136983
-25.838197115922842
-12.576978294649663
15.23607816402094
20.317111443378433
5.617294731502632
4.429038884496806
9.303127222755856
12.579892471923618
15.096214309512186
11.052171359227648
-3.881782650741092
-19.211822159372616
-22.796997667653226
-9.879816370065418
3.137218664977235
3.0484560620525536
8.646716972176103
24.45084748175165
26.15078940736013
-0.39582728716337967
-30.283505385966997
-37.13098144214449
-21.958584067499512
-0.6676231885874266
27.61158406805435
49.53006626068898
30.018511179903193
-3.2464005435943344
-5.16589653977176
-4.585875986411679
-22.10208346252261
-33.69810061624615
-24.135328956072698
-11.185295720507389
-9.390844821258025
-3.937023724249621
4.254769654587143
-0.7697565911523325
-10.473363287461959
-16.296315079384026
-6.638756298135664
4.258268670677003
-11.901013405048625
-31.553276870187922
-34.8437423217362
-38.39064078284965
-32.51674975338616
0.7638724743626225
19.761170919891086
2.5813605934902695
-16.30108052628692
-10.7885881659455
7.456502722373206
11.37446004144555
11.499838981574197
7.639044303435938
-7.599908199381027
-16.595486804922153
-8.708156887287862
6.837805829457461
4.452875527488998
-9.020145037929362
-29.142794370306433
-38.739970724373215
-28.049888782377064
-22.619784725532767
-18.31845641807105
-5.254837065278935
5.481263634307104
6.076995509098513
6.147771677287413
18.77551013909616
23.9117677643877
15.48407963271122
16.083753193763005
20.793173633275213
21.35064469898794
12.487264517007217
-0.145343602927348
2.2964130375643705
-5.049821196452523
-36.360629013380084
-52.7171998824832
-46.76986693048738
-36.688495429084625
-15.707312408614483
4.064782031600463
-8.402165920966008
-22.92244876657282
-1.932845653441941
23.893702148960873
17.580275974594095
-0.03482097696650699
-9.785950889629634
-6.759229625267893
1.585839615737803
-0.030379094911644533
13.267362660818943
38.50394211986507
44.0734234842335
30.6466059040157
18.87016847852185
-0.4219545674449112
-12.920328146753944
6.2717854085868785
11.436103926145945
-8.65676273544837
-19.195843349585846
-3.7096387269173405
12.872441226486217
10.318738465790315
21.427151655546364
36.68973776957565
24.34274303579783
3.7394458571396685
9.793223336577359
14.346828480285378
0.001361493468665348
-2.3164750690239617
-4.840025828530294
7.083853546520736
22.504141989462717
10.13371927649713
-4.581432969077747
0.9793271371824737
30.56705048637022
49.56435647064354
37.958313376708944
15.097880741220719
-17.93227760828297
-36.95130277912643
-21.301431186937574
-8.225772583307245
-10.400424515844971
-18.622969639628725
-24.92678587369414
-27.182377590846013
-18.24213883590874
-2.4095244321811276
-3.2977856592796226
-7.169816530390227
13.866009055459791
31.09704461025422
26.841716155895693
19.65496804436075
-3.8021227150525956
-18.826779408410523
-20.731450837917315
-42.36086459611674
-58.39069140304895
-34.033509749208335
-2.1037282940101756
5.403619668298046
9.02034245964668
17.680486873924732
11.129073093396567
8.556541816987792
28.51510088095625
31.775887690064984
7.8854505654714675
-10.71927755192045
1.3639029503609308
18.29698825272736
7.621044842173716
-2.5663114805982934
-2.8303081359744118
-9.288628386265977
-3.4588765378843647
19.849384456055887
33.13667525801964
24.271939645167738
21.55143892322534
31.624580463486737
22.645707225019432
-0.2517729832599864
-0.879599756746494
16.394625877520216
13.850480645247659
-1.2702549439682187
5.932128456029855
22.253721399549022
20.978248872737897
0.8815319017294968
-17.38085347358551
-23.2458942203459
-12.40676982289749
7.371824797316464
1.1198291783712078
-17.352735435763794
-9.283127941033705
0.32176870139285085
-0.29724833408253426
-0.9058330506935184
-7.619617704574896
-3.443918965405069
-4.303109983987008
-9.711547307379591
0.7968663835203031
3.010617606664344
-15.923600961621437
-40.49678357494034
-45.39603723085244
-19.56339576661028
4.6468970536765974
2.9830095421214757
-7.038109046912373
-11.871670815670925
-20.772281011499345
-32.24213328662466
-20.871604087805764
0.12966248973912808
-3.3227023643912803
-6.538623955247153
-4.316030835126327
-16.92818164271861
-31.10350651260957
-41.12059507822337
-33.148700068241254
-28.62781721372778
-40.12273984604666
-42.06136854236123
-35.293487577760935
-9.77539318948406
10.719290705336826
22.915625198812144
43.57485804533229
46.47811704826996
22.114304398051114
-6.9660297989962245
-10.976026707944113
-18.32289700107836
-23.69757373562245
-7.909072596158647
-4.077827469797041
-8.73609247691754
-13.345984992148237
-24.029685568982607
-41.29700905448845
-32.97248620312707
-3.4714010905385404
6.05085035001216
3.847392816120209
2.473689248369308
26.335879274583142
48.26249026935075
38.645865370044966
29.734374946080102
27.395515949924892
25.224013328240705
26.58511486480347
38.37027070211827
38.79990808490032
18.669258154575928
-7.010516270974525
-36.42593482360544
-40.36097483455504
-25.318093088729093
-20.594905364376178
-8.922088179656384
-3.174626513179277
-1.4265090162729195
12.486919022268973
21.86990704331563
25.8256473591275
19.705245075392707
7.148047520901174
2.2259341240209642
1.096532459688201
-14.890270576828987
-26.295778140860396
-5.341495375311646
2.7781108602788676
-10.255379929944178
-2.4441456272915394
12.879605207147861
-5.928107990294109
-34.90833122887916
-31.116567095029858
-18.939362566428827
-19.633166250133204
-32.60523222146955
-28.301265229709642
-11.499072614048265
-13.839140686055593
1.9125725458837448
27.8111370298771
20.01389702023447
12.383047718761576
36.758025184883266
53.72229432763611
32.51691277816108
4.144521829924469
14.603270728272948
25.828576441814533
12.06336164278346
18.373053998470454
29.08791878143772
21.922873412933424
21.232103461814045
14.386577530053726
-6.854815954736003
-3.384406842583618
29.285837874722727
44.31199656077671
28.960126715940827
16.430143344416688
5.064846004771676
-16.893575094058622
-30.68345660318633
-30.6866870962241
-28.69902818159824
-26.655654587404868
-7.494863747541359
21.327326792118487
28.882903678236104
20.297550237779145
9.058895735278483
0.771107695992891
-11.46143510525148
-19.35973404903073
-13.572872830476872
-12.902504963227756
-12.630505841392152
-20.289985239184283
-37.27965062834025
-49.47759422357367
-47.81562714272698
-13.604465216983584
16.767004896140868
29.069342078750132
42.906456934737655
48.95167286429055
40.92826824919405
5.7595089398509955
-25.9186916778536
-25.910701709741797
0.35787680709517944
40.461239357397744
50.337208974042184
32.87806627511954
22.478194139996646
0.05305097363650066
-33.55006827960096
-37.450195564993386
-13.941624327625162
8.20819496154985
13.321846308241563
4.315956680114363
-5.448332590872867
2.2724866840402917
3.5321505184642885
-12.373332257775852
-17.889170035041637
-23.19838810996156
-22.97628226236649
-17.334399603370546
-22.27395147218411
-15.936068328049984
10.96308602322741
12.295337618361891
-22.105864785245128
-24.837253535094572
11.871897855702642
17.71721068834133
-6.945004154650628
-16.327613243986434
-4.568819719719419
10.879932448952077
8.892928207097233
-3.9599267095743653
-8.71809515231197
-12.99599374475732
-18.949356592507357
-14.351374866515775
-2.519277345879136
4.980066243765525
-1.521057069536291
-6.758509813147507
-7.913657867125147
-12.323495378840672
-5.436486265121802
4.559761722024437
-2.971486068905766
3.659033860106665
33.76809207731097
31.83738907778212
4.474178712434131
-0.8243376317602771
15.068888363219376
25.377518929092734
26.731398953482525
22.187760729077073
9.351510096387681
-11.641968328332888
-28.538823644208026
-36.42919305413006
-34.55132836624559
-20.22099565457601
-21.263458983724018
-33.30925518327535
-24.481842218719812
0.2699695015099868
8.739889044913221
14.404673873648667
30.217557356664997
32.9254724274174
37.902176312968834
36.89155526429637
27.786952766106165
19.690530687727467
2.582941738332901
-2.9167296678811754
4.353598737234826
13.653259196704326
17.80347599136419
9.83034852365791
3.4192744566506454
8.016220316710868
14.330802446017245
7.554261782030375
-10.880692400551697
-25.005645715854698
-16.60556593344115
3.781214144307759
2.415461615470008
-18.187394730760133
-24.54496321815445
-28.345592255760415
-37.8701751314546
-26.443660171053693
1.352896461809012
17.8205152032683
15.120000634742826
-6.173250942053763
-23.91020920575757
-1.739869786033696
25.098183623759578
23.564013180361286
11.42174895651202
15.944707608970733
22.087158425208642
13.039366758046523
-4.738506234442739
-24.892691913662432
-27.16689967038148
-22.07123141794881
-12.933308091791716
3.7780314029717275
4.557294066142057
-0.4987116364120337
12.281664007246334
22.212858204451717
13.937928272530767
1.7680906105611043
-6.88046372040211
-6.333988137726531
2.224642078393276
9.049514569764568
17.75998107432329
14.605764315456343
8.503482325450614
14.490530738979704
20.098356036735645
16.655610454115376
-4.429101336757812
-20.880938510701494
-20.661296042883134
-16.082400833299193
-6.61324065641887
9.394326407879582
13.810147792053469
2.880294452129301
-0.4718876696963584
-1.4629900632465749
-6.276160138949914
-4.858302041730917
-20.68801446604891
-55.77594189959954
-64.34746016839094
-42.58733876656534
-16.6016762710877
-0.6536310033827615
-3.331773431081759
-16.790022365198038
-25.662955496009065
-18.42505900558998
-4.247502413986301
-6.700996314786703
-12.513083359545062
-2.8829984744977644
3.4850265221296945
-1.2791929688107875
-5.706367508576267
-5.156261334715863
2.699150336202925
8.7643569537251
8.008105364580498
-4.122538341347867
-11.863911511486732
8.466361021713602
12.822601550287768
-0.8853624052673995
3.3868724499713134
0.9258821191591043
7.53714684284673
26.899149734240893
29.67363940969882
30.19013649649289
26.190981102720922
11.364260086946162
13.248515198853122
26.837095886873385
20.564025879470428
12.534296005684409
8.11772407111499
-5.375697954386418
-3.5909328279192683
17.38804772098819
31.85688510401227
33.63059266343775
32.79349047938787
29.201068244449388
12.40628788576281
-7.719521449164215
-6.015026816348033
8.71405236430209
10.303562662780537
10.986653713601516
23.580625047357604
18.38469875575645
-4.142773795891709
-14.007469459315327
-13.971663514289528
-15.949784976847562
-26.50880207559562
-44.4611851733531
-44.373686647465235
-25.099613004901347
-19.348958173498257
-32.3653048712769
-47.98222472457654
-54.96660039414097
-49.23628881299575
-28.503105140109557
-14.78448275886397
-16.132436721868363
-24.38452285740704
-32.78504264533799
-30.809625259569994
-29.82118792439789
-32.282763525807084
-22.83845317039775
2.3612155885577386
25.925719429766538
39.73445436892879
36.81545269131227
9.322912247445174
-25.686852582510078
-34.68238848788605
-6.818434313883422
25.004393770051394
26.40654279381526
13.990410040518844
19.70807189823004
30.8821648061494
30.39844381081112
30.868367044129663
25.787170784629925
15.150381508284083
18.301481330014404
24.756831226563595
25.766259654514478
24.76449528558038
13.326364138453869
2.8876334425114747
8.851898696743513
22.68359460046082
19.12090770519894
-2.625754220866933
-14.870193111662289
-8.739977121982957
2.329936386090253
4.101955262163932
9.337734348585043
12.8406251952004
7.946278378438161
14.076577123438849
26.824927030068586
27.855471638366406
5.880654256944147
-18.414811823105854
-7.718336198811489
1.5191519234230355
-8.876760454032441
-16.730977582878346
-26.88546467409566
-34.846389205624
-31.226993258738894
-16.039567323628262
-11.077418364223016
-20.080613622476513
-30.884009695614314
-37.50458386928375
-29.361209191614574
-12.425992870747871
-1.7599099488433003
10.568119690121232
17.384251990739862
5.43498844803924
-6.889592996386161
3.8853950329151483
7.558485753907429
-15.96922055404721
-20.738880058149785
-10.462757197245699
-2.780612113069292
5.452491961869639
19.6032034236703
33.08432475251854
18.84891367430957
-1.037062322617135
-5.76290610700179
0.6912609992325597
7.058314268157655
1.1984324360642142
-1.142553684454627
5.1042625808873865
9.926562925362932
10.79100400924448
10.442650208110244
5.2086550584504625
-5.15328490240455
3.899406633968667
24.78667658103959
15.94032304315388
-5.824933425061702
-5.837856724619964
-14.044450900268407
-34.89528263910322
-36.08622933755121
-30.5759063212535
-34.88827160728026
-43.017959100880375
-31.602296484237417
-17.2056680661537
-27.450383087301955
-32.18969731518072
-17.089589914378614
-2.270123922406063
1.1345500529267025
17.26738436979609
40.58629674088774
20.839971947609868
-10.75426434673442
-17.3248595761638
-19.072102230223727
-6.942654060516965
22.76977274929225
21.006645387205324
-12.811197472935477
-17.892907817008034
-7.460445919451929
-3.5615112046310897
1.8663116125083545
5.917690042654235
4.03266181877134
-3.5408837314055974
-5.999826386711976
6.6200459298886365
16.464335328487337
-4.475111339446727
-30.691244567309223
-40.85969081512797
-38.37092725690483
-23.890849340198383
-9.25220192805028
-1.4605219786457988
1.9109614280715883
0.24345602533994093
13.380270773772468
36.04759100939225
30.72559910508227
17.74434276737888
11.582023393869559
3.929735180435369
-3.300630461591533
-12.36908645133125
-10.168828188444085
-2.70345899860742
-9.621168845841305
-1.0742790343635569
19.01815613135918
10.946140113637167
-4.017134979346798
0.30068157576919086
11.764838360257079
6.335158642298944
-16.30251548294297
-39.002358829245765
-53.74654698139733
-43.863967561581
-8.1920059156551
28.694245115069595
51.39215447738976
42.839447849248025
26.151134209196012
16.1554845848195
6.932878773602708
17.901946952704407
29.412651854286004
17.684195079107933
3.4975339913393104
2.077617162765567
11.966033220815348
14.270672912470697
7.68030917239729
1.9763920173322278
5.112551199185925
26.277368962270327
29.235780573037314
27.93115216595352
33.554945746429766
15.351327763550717
-4.198351978146803
-7.778527757172807
-0.9510883224496691
14.150682194943549
12.889049695497574
-10.217638392407268
-30.98328834048531
-38.816107136242636
-39.3268027084969
-35.206307597664036
-21.789675171803616
-12.913528500993724
-17.084354238766775
-14.60719168633299
-5.906211799616151
-8.020863325640695
-21.19417464076249
-38.452356084498135
-45.81652945745508
-41.898709183985545
-15.54313905626149
22.631754065080028
25.603946527146846
13.952322483551027
23.206798245023595
28.417470752125585
16.046735660479246
-6.499993680658438
-24.242934918119175
-20.429731591802692
0.3550321041444531
14.328073171382643
16.799132288305902
21.76551938550375
32.302241865573286
40.288663941648565
27.917042900052312
13.013569314429322
19.828310304182818
17.16195002727808
-1.669148877756411
11.999270332267027
