AAD_Filtered_TADAS_FILE
AAD_BASELINE_CORRECTION: BASELINE REMOVED
AAD_FILTER_TYPE: BUTTERWORTH
AAD_FILTER_ORDER: 1
AAD_LOW_CUT_FREQUENCY_HZ: 0.025
AAD_HIGH_CUT_FREQUENCY_HZ: 40.0
EVENT_NAME: 202302061024
EVENT_ID: 13207
EVENT_DATE_YYYYMMDD: 2023/02/06
EVENT_TIME_HHMMSS: 10:24:47.00000
EVENT_LATITUDE_DEGREE: 38.089
EVENT_LONGITUDE_DEGREE: 37.239
EVENT_DEPTH_KM: 7.0
HYPOCENTER_REFERENCE: AFAD
MAGNITUDE_W: 7.6
MAGNITUDE_W_REFERENCE: AFAD
MAGNITUDE_L: 
MAGNITUDE_L_REFERENCE: 
FOCAL_MECHANISM: 
NETWORK: TK
STATION_CODE: 4414
STATION_NAME: 
STATION_LATITUDE_DEGREE: 38.406947
STATION_LONGITUDE_DEGREE: 38.754133
STATION_ELEVATION_M: 725.0
LOCATION: Kahramanmaras_Elbistan_Turkiye
SENSOR_DEPTH_M: 
VS30_M/S: None
SITE_CLASSIFICATION_EC8: unknown
MORPHOLOGIC_CLASSIFICATION: 
EPICENTRAL_DISTANCE_KM: 136.95
EARTHQUAKE_BACKAZIMUTH_DEGREE: 
DATE_TIME_FIRST_SAMPLE_YYYYMMDD_HHMMSS: 2023/02/06 10:24:50.6295040
DATE_TIME_FIRST_SAMPLE_PRECISION: millisecond
SAMPLING_INTERVAL_S: 0.005
NDATA: 8637
DURATION_S: 
STREAM: HNE
UNITS: cm/s^2
INSTRUMENT: sensor = GEO-A200,/GEObit | digitizer = 
INSTRUMENT_ANALOG/DIGITAL: 
INSTRUMENTAL_FREQUENCY_HZ: 
INSTRUMENTAL_DAMPING: 
FULL_SCALE_G: 
N_BIT_DIGITAL_CONVERTER: 
PGA_CM/S^2: 63.006
TIME_PGA_S: 
BASELINE_CORRECTION: BASELINE REMOVED
FILTER_TYPE: BUTTERWORTH
FILTER_ORDER: 
LOW_CUT_FREQUENCY_HZ: 
HIGH_CUT_FREQUENCY_HZ: 
LATE/NORMAL_TRIGGERED: 
DATABASE_VERSION: 
HEADER_FORMAT: DYNA 1.2
DATA_TYPE: Acceleration
PROCESSING: Automatic Paolucci et al., 2011
DATA_TIMESTAMP_YYYYMMDD_HHMMSS: 
DATA_LICENSE: U (unknown license)
DATA_CITATION: Turkish Accelerometric Archive v 1.0 - Disaster And Emergency Management Presidency, Earthquake Department
DATA_CREATOR: AFAD
ORIGINAL_DATA_MEDIATOR_CITATION: : AFAD - Disaster And Emergency Management Presidency
ORIGINAL_DATA_MEDIATOR: AFAD PROCESS SERVICE
ORIGINAL_DATA_CREATOR_CITATION: AFAD PROCESS SERVICE
ORIGINAL_DATA_CREATOR: network: TK
USER1: GuestUser
USER2: 
USER3: 
USER4: 
[...]
-3.4500701422311613
-5.696466199136437
-9.28127568614938
-13.569612267872168
-18.129965912851414
-22.667785323526992
-26.26254095573049
-27.62472621419366
-25.951888011109517
-21.843079451504885
-16.27880262221063
-9.943284905402416
-3.293355963773982
3.1889131944106026
8.77209716026328
12.574530165028246
13.768713733807402
13.032368740314132
11.77676513657135
11.524924365561937
13.206549807881414
15.123143454436924
15.810528771854514
15.064448181879863
12.909603502169384
10.892079232885822
10.129891875669431
10.205996210034739
10.541558882593474
10.446603138465697
9.276876997864747
7.011327037464616
3.478232753884162
-1.4794270766213957
-6.285620133941695
-9.456001899733078
-10.28898438983888
-8.022715848399189
-3.4129644028651436
2.1071591847463464
7.465356507740257
11.916227255928234
15.036607950356832
15.966481697520528
14.100746542185703
10.230334807109264
5.595655455268616
1.392404203902535
-0.6985945855515358
-0.8097957731980295
-0.5963148795600075
-0.4355198033457014
-0.6606233092654722
-1.9834113098857236
-4.262337220507226
-6.248328112973345
-6.934783699879813
-6.808800182579263
-6.04649544196512
-4.680915347644742
-3.7258619398515305
-3.8193463857410985
-5.357306309594142
-7.861516077472835
-10.002835072936515
-12.325575405594552
-14.892367193235334
-16.32589027025044
-17.008208399390867
-17.3690038512222
-17.180229276929772
-16.70600541884016
-16.189668787298853
-15.10236568889034
-12.137952825948432
-7.487268972909671
-2.5664031671795247
1.6805140769288314
3.9907899376708147
3.7513024031211626
1.7222086494955189
-1.5460582156734781
-4.932492999651009
-7.752733437130825
-10.896303412360629
-14.086049689295917
-16.177221474794244
-16.316278692419875
-14.24495541944647
-10.611931280465509
-6.252849568916875
-2.1483201484581675
0.9640064551174616
2.7215063851527703
2.890964170061041
1.5887059827682564
-0.41844719175835776
-2.063799110324167
-2.414192510190896
-0.7490205118039934
2.4859056111892563
5.612191431974199
7.057880521066436
6.279508725685714
3.752266418949952
0.24118882743610778
-3.2790353201321465
-5.729741953249577
-6.95440219418226
-6.849432632683218
-4.3324578274923775
0.5331254204903142
5.842596339062178
10.412834069316022
14.103777757193445
16.74582698754882
19.02647137138617
21.86353779927736
24.889638648030633
27.33886505149791
29.425398679513975
31.287287160953507
32.25060128917877
32.5547138909879
32.51556116552185
31.0968220822519
28.192196134302417
24.869085536616804
20.997802089294535
17.18362412129129
14.771756497154342
13.027556580932446
11.108122513713047
8.549887808778704
5.028463815600288
1.1661998251314656
-2.065401469510684
-4.219532164620375
-5.70743816752085
-6.857993804122089
-8.177732569807244
-9.7091058269695
-11.977817255452146
-15.791367147182518
-20.44459560668732
-25.49950093181864
-30.001846771353378
-32.86887101630223
-33.3492468757909
-30.85053973265603
-26.42970786387148
-21.75492293741323
-18.49529167626054
-17.112119754692973
-17.52973121769836
-19.64543760391413
-22.00770520034359
-23.69243794645217
-24.32081027468049
-23.340062080083527
-20.548394814748196
-16.0152559037733
-10.192616564047965
-3.9134068063756935
1.377750870183995
5.105267813493226
6.923476616649603
5.65146005083251
2.6256389388066386
-0.15138672901332367
-2.2594218609497823
-2.4928476014530103
-0.6167110299484871
1.9615865386652387
4.541776451532799
7.4808534440418075
10.614888759672812
13.331077940425184
15.791645999966475
17.454624973346643
17.771475159829823
16.479210358650207
13.124973078146745
8.931571261472712
5.354906714468556
3.5999817134213994
4.526691249123113
7.2575949823791825
10.397343457158067
12.579863507066001
13.301416005511744
13.109291059708674
12.75438363207921
12.757971774594228
12.380723739544399
11.490257828425724
10.540430861912665
9.124434980506974
7.701331079213063
6.4782299711821985
5.679076142790084
5.870127284046391
6.790904228977175
9.230557918842129
13.235018945623557
17.57225254832214
21.520983378521425
24.14771707202907
24.759426752554344
22.9435675583253
18.84146370418815
13.123566785340733
6.766398597275182
1.454864241866578
-2.2478638672213718
-4.900472973436157
-6.21299321946
-5.974890362833547
-4.807408667015164
-3.797117047911044
-4.149705417468195
-6.113023287542761
-9.188406097972686
-12.73275866048605
-15.834365729007015
-17.7715935253871
-18.99284090387168
-20.07420221391714
-20.845387807114328
-21.473636292130347
-21.922892836221486
-21.950716047838746
-20.736029209086045
-17.18112914131607
-12.159816234295592
-7.284055725584772
-3.4270373575567956
-0.4995628052443932
2.5206122084530778
6.149522266637768
9.711878924277316
11.789075951200816
11.227213357753788
8.060720412694002
3.74158930605146
-0.24856112166914854
-3.5025034244281605
-6.260147706263602
-9.004571379872825
-11.268895258733677
-12.231608132906382
-11.954346317074952
-10.21444646970102
-7.28699658950061
-4.754122036883373
-3.141714908393269
-1.9360022686328502
-1.6018507897796852
-2.2672911977499113
-2.8472090685264546
-2.5038134838426664
-0.9124567525537297
2.4008909166297796
7.691823405348662
13.048230851150914
17.382206646364832
21.945653832150704
25.62124928356435
27.74360874195614
29.154992494790626
29.21621880166948
28.491875249358408
27.662495843226786
26.286368282904107
24.223272383880612
21.394678126793252
18.041388947345457
13.84491377689236
8.83355430712453
4.153650743234536
0.6654342675549365
-0.9598097361995683
-1.1486634977655967
-0.0807310753087852
3.3691565540348134
8.370840234753267
12.97939450946787
15.919243112996186
16.033079243697376
12.984973167786952
6.735023227365456
-1.6195835683567406
-9.765179625131998
-16.780892922701145
-22.24791245037559
-25.409822473253723
-25.989987525322213
-24.179421331947914
-20.60562148320594
-16.109798128849246
-11.52707527526606
-7.676290813407589
-5.289756129650309
-4.067592106429793
-3.3253290369733848
-3.0320460646030116
-3.1294234173014432
-3.9251491988606335
-6.208949511143498
-10.08495504986575
-14.010913871848302
-16.042506740381597
-15.478283588220636
-12.081289505822292
-6.867460855162504
-1.5967860751707728
3.485462090390845
7.960041634902228
11.725345403035913
15.459583188956094
18.56312649811444
20.663742035978238
21.840701635027845
22.912641682887152
25.410347169989667
28.975120108132604
32.626976129586076
35.6255378250399
37.13182057992079
36.877468286203985
35.12848380029892
32.97746051926363
31.05765043538636
29.507082750827013
27.970581423018714
24.923913331916612
20.069022163502876
13.607934319172854
5.5297919017276325
-2.365113090940015
-8.145800218011441
-10.907457136985181
-10.67114461284717
-8.197329033984262
-4.809940337160901
-3.6948045546045103
-7.120112947819117
-13.72223815635352
-21.861511681388702
-30.42802660494867
-36.568280261264256
-38.919196248942214
-39.122259001010164
-37.850018070515496
-35.120154384192396
-32.21644365799939
-30.100888397647402
-29.02161789448964
-29.17742626149872
-29.50418847395049
-28.871031173638507
-26.872844091068306
-22.37291897308269
-16.3231608813853
-11.790950030265835
-10.296085270087506
-12.069559139521601
-15.880270578210745
-20.1701728838701
-24.135727180317296
-26.08340779806745
-25.63269762537276
-23.32069813016066
-18.687267784544748
-12.093186443063383
-4.815856540739625
1.3675012279621936
6.026716200697594
9.623517910313282
10.87335659264943
10.636220007055472
11.92735500655608
14.258307759511478
17.2245821450136
21.42102098428227
25.219515323755
28.35816716351643
30.082648039982367
29.558609026168323
28.14736979422967
26.172658660139717
24.341438612535992
23.49278432476878
24.057977624227163
25.740299064258735
27.31877633911979
28.596514667058955
28.353612452562945
25.826532570376816
21.001813974359873
13.679199708829575
5.968338133855578
-0.6277884278646826
-5.52308509703518
-7.976428041322072
-9.22760876854288
-10.351152312276046
-10.519660821212543
-9.284839823951858
-6.993407757308636
-3.4706622407262704
0.5259373900787073
2.762952214645626
1.8200023856257896
-2.132218537552351
-8.222155291338899
-14.615104811355069
-19.55251491492843
-22.889450279407136
-23.97769533422522
-22.590043989018024
-21.028426664435365
-19.932401830061764
-17.781312663407128
-15.218860120139954
-12.969868786609965
-10.958513367567367
-11.004496663548196
-12.982112315179577
-14.47365049066842
-14.044302004625214
-10.61797978430379
-5.627971737686874
-1.7480880990717482
0.2505659112156779
0.6584000061514337
0.2452598622804674
-0.23771434067095304
0.16509449123293812
1.3956863184501975
2.623591474075816
4.162470808238102
6.152166382886257
8.19377149982467
10.647347032840813
13.407651550176263
16.4569832413669
20.315939223037095
22.77403384695678
22.715143536054423
21.567630651371218
19.37692037423206
17.14783301730271
15.923004110925344
15.17604949889109
14.312322722437605
12.99330711290495
11.20329851734703
9.089545920154269
7.324248931725475
6.346570544419505
6.546581450616211
8.237181534102511
10.94497558115906
13.813768934381164
15.518898750251937
15.059644853548908
12.258239537911379
7.801755611975743
3.0296463116280807
-1.0383005470971198
-4.32075651736989
-7.413529360227651
-10.406678297023864
-12.887611093562624
-14.091453051172417
-13.215350194197715
-9.913593922762658
-4.183245734165819
2.170934976902699
7.003647598275724
9.424976983625744
8.731195196363938
5.8966113561894336
2.080956357274988
-3.0002822834719125
-8.772370525540003
-13.735538330197931
-16.453273140633563
-16.0776964911684
-13.081944309678502
-8.71057419298186
-4.041425213069648
-0.3586843247253652
2.486799471596976
5.6939602094441994
8.703733517240574
10.972365924474849
12.100715214439926
12.135716936803695
12.345939621994965
11.819681526032651
9.167637330970754
5.525742638076326
1.3569117629227874
-3.5932574898080096
-7.701446875004649
-9.930539853405941
-10.924978740126075
-10.395303415192352
-7.300854309026828
-1.8846487091556692
4.709070492549865
10.738426928754945
14.576041541539432
15.8696102758314
14.715362630387835
12.102714496455686
8.000388657443946
1.9295700502165631
-4.068510708674701
-8.617690607204706
-10.904812869675226
-9.071287418812434
-2.900632474997023
5.1446753330787685
12.535073517463903
18.425736190914765
22.349754937273303
24.807591371990867
26.350109649713442
26.442049473115127
24.87624584293036
20.496814586531368
13.874439031602659
7.6118152324354345
2.270283373959752
-0.6967604740403894
-0.6785033116820096
0.7878302447447665
3.9940088857724207
8.469333634144165
13.509592952714193
19.114656697905595
24.90432456179355
30.582839976390044
33.93727776713103
33.5717244756818
29.4342313543653
20.847224417327414
9.396003965987196
-1.255681708130018
-9.76371271339822
-16.54591570096235
-18.98875909383244
-16.69588753051735
-12.722931492653883
-7.3819396562939925
-3.069634168286771
-2.8187227320862216
-5.2705300477248205
-9.208023035922627
-13.26227674810623
-15.91383992521039
-17.268418533638037
-17.244968281672502
-16.519928516234444
-15.96445971034785
-15.617060093084097
-15.821314857024522
-17.218886284999204
-19.693184766150683
-21.794648925085035
-23.01515306414011
-23.0508791670384
-21.129576242158436
-18.722168088595847
-16.77542159546684
-15.561793579556268
-15.693518815588547
-16.242039868521008
-17.503849498049348
-19.589809796851483
-21.963224694723255
-24.666039434915064
-26.724028987365408
-27.8315489698897
-26.968127050347483
-22.891303063233828
-16.400162425586156
-9.168399239468362
-3.18450684430574
0.542853606193887
1.391636414600604
-0.8187587869132429
-4.449912690087639
-8.579247331171317
-12.562290583819905
-15.338909639029415
-17.46688292458825
-18.95370826078855
-19.287299055239032
-18.326129481808124
-15.381345957981377
-10.193753612846434
-3.670586342273266
2.702528596487524
8.574669324381546
13.643207509906693
17.126747485677853
19.33479029741666
20.57481783333831
20.40385737271922
18.36955258716764
14.859777883048318
11.134343069517971
8.591034795805637
8.792809371971622
12.274351984916938
18.353972037576753
26.648590730906918
35.69604079040145
43.25036449985698
48.56083948782136
51.46303143631049
51.51747448166107
48.94392680380149
45.519958587883565
42.93041856488899
40.5894424737874
38.45398007021287
36.952240899255976
34.49965114227257
30.874392012509006
26.927172393041793
22.922200985582787
19.685712958079588
17.79470592591542
17.37375663595521
17.850850951832033
18.6498219358066
19.223018827036935
18.594789625264905
16.44004803500273
12.271977177791742
5.4806488344755895
-3.138118275175046
-12.48088232449776
-22.088899899134915
-30.930731520722446
-38.58699746196098
-45.00849247616132
-49.21174644866524
-51.59116755185978
-52.15719453642286
-50.604113776690205
-49.1323021695157
-48.63407086606509
-48.781542426097204
-50.28150376439151
-52.953150657299
-56.15318763516418
-59.317537406794095
-61.73468037501056
-62.953011161878166
-62.77443010718235
-61.30192407388251
-58.90364693201517
-55.79764894047089
-51.80049875952607
-46.11513992593693
-38.05691623886597
-28.661480838150474
-19.162004658333917
-10.254673228470686
-2.7263330037576945
3.7893131832516573
9.793620230610815
14.927012958619317
18.38572014706705
19.86686502310539
19.5453166652343
17.844261801345148
16.294404530814365
15.654695745417627
16.186209064068503
17.66018069089658
19.097609378796715
21.234378860129418
23.889577077617325
26.784991371804377
31.056795950245384
35.7210431883813
40.06137573766963
44.30044712185581
47.21991689787369
47.79892457413695
46.16334757868402
42.793337297137974
38.107602047239055
33.11674851547277
28.772496479536926
25.006788652224866
22.181184291208254
20.969012134205308
20.971298056545503
22.064175173941333
24.585763429882576
27.46472806337631
29.249894997216106
29.146943396252603
26.262725092429047
20.48626673983839
13.202664427994387
5.636829435748618
-1.878703765830917
-8.998394865580593
-16.032254335696937
-23.158967582148392
-29.52941363777702
-34.186136303809626
-36.248217693702195
-36.8223440465183
-36.46703582544254
-34.66874237375165
-32.865938010573075
-30.14475496466353
-26.409927881306754
-24.135028490824926
-22.964639671973313
-22.63794043179137
-23.506107047839706
-25.085857270739282
-26.993572898927585
-29.05990358988223
-31.052039585707654
-32.432084444893
-32.66283739907923
-31.03471424171565
-28.265617969348934
-25.235251472381655
-21.68118820537064
-17.60299501253118
-13.150580497034637
-8.547797005492212
-4.142659870308715
-1.450111549824345
-1.357181592226762
-2.7918852324041534
-4.494685958964778
-4.981058505289573
-3.932411192762696
-2.2987108912152365
-0.38025565416853985
1.6500450555108206
4.449136374466554
8.861578532468922
13.257258833360096
16.978776536545716
20.521496425043882
23.321947731974866
26.374262167037077
30.363763545332827
35.13841597819611
39.165629403865395
40.672787397529
41.04353767662602
40.76645862303938
40.021141091229005
40.45982943564047
41.651444856441174
42.04681038549392
41.29014331541079
38.52207490075587
34.2880928147841
30.551079369613387
27.136634899909332
24.46491147333622
21.911548147105297
18.163712753552897
13.897896738822713
9.119870410952528
4.370202874319217
-0.058213820345061784
-4.287742174209124
-7.9151667723975825
-11.497482017946227
-15.241093854044397
-18.37247062014918
-20.594454777890128
-22.274285806350175
-23.368193126412322
-23.546820098899488
-22.34023065842005
-20.17340468374035
-17.488431637639845
-14.325763157591107
-12.231034577351116
-11.058493797087532
-10.333346213773243
-10.640106912726818
-11.23623226007536
-12.909713378020177
-15.791927684997908
-18.779939219947842
-22.711029472507445
-26.656081312087803
-28.638905702354343
-29.474681847353025
-29.10369513295647
-26.353671933498465
-22.48001828157272
-18.840342674995423
-16.062308041769633
-14.734002760077646
-14.676334331329267
-14.713978118800966
-13.268856450291207
-9.908465088158597
-4.864922535954991
0.9807375157250853
6.809310866823183
12.41630543574285
17.116064402154336
20.967500484791746
24.06589671184199
26.08225062337639
27.37892064327643
28.100773208852388
28.607874607521595
28.69933823593338
28.384198123559344
28.684980965858536
29.002993107324286
28.625549965013224
27.328446597877637
24.854988576014424
21.076770005214794
16.06573287121483
11.07521826467555
6.674020039612758
2.816708335580208
-0.1662921014354525
-2.2968186076715873
-3.60929132641529
-3.8210838109809973
-2.9244020929209364
-1.24119657024867
0.9097180237433482
3.0479919120464314
4.910444446901766
6.4163547650120165
7.634075677324049
8.496856957633787
8.549933782667338
7.701366285664262
6.271011931270167
4.555711895179775
2.7269397149401375
0.7025579120809857
-1.3990249068428948
-3.719876588781535
-6.777106985382815
-9.583303848360698
-11.415810140279188
-12.788970144692101
-13.53056063992162
-13.973282243362437
-14.733496959688388
-15.516898205470865
-16.102870129475924
-16.57956723554007
-16.805822620459235
-16.810159221148076
-17.148587295148317
-18.007227437115066
-19.18525616685946
-20.844770946818112
-22.880711230674624
-25.19876420284219
-28.493987548720458
-32.298025379793685
-35.48022740986216
-38.553830794284025
-41.85329749267421
-44.86867582207787
-47.7349610545787
-50.37710885878411
-51.391793383582154
-49.509541855324926
-44.74728292024779
-37.6687843132269
-29.19958200542
-20.453537065566298
-12.054386896808959
-3.970707794963589
3.384518073763994
9.229902362216105
13.553722034737607
16.10913990728293
17.295774514876953
18.474106132230943
19.438834461700253
20.36092278141818
22.484571708768392
25.88998373929106
29.859823895291335
33.38015952903275
36.12228267179003
37.533211519874186
36.74312841028023
33.914411276161765
29.41447783058782
23.42640880283397
16.04529715344487
8.254376603418132
0.9655529964019811
-5.071366467608712
-8.876406893016329
-10.851110576589317
-11.586322330872715
-11.324139227173687
-10.926642015798087
-11.206532301436598
-11.890437161289231
-13.02976727030445
-14.305201037282124
-14.472295136918055
-13.268211344609018
-10.474374335807711
-6.7527885444921045
-3.278317448414017
-1.278478871418059
-1.7717613829193006
-3.5245823417961057
-5.680904556669784
-7.831477440266023
-8.833683088685962
-8.72972813675299
-7.8715291065373325
-6.161816219930606
-3.701259567928691
-1.0006688493203413
0.7619281532766934
0.5265097673563424
-2.214147064536896
-7.428242238791313
-13.428013365296204
