AAD_Filtered_TADAS_FILE
AAD_BASELINE_CORRECTION: BASELINE REMOVED
AAD_FILTER_TYPE: BUTTERWORTH
AAD_FILTER_ORDER: 1
AAD_LOW_CUT_FREQUENCY_HZ: 0.025
AAD_HIGH_CUT_FREQUENCY_HZ: 40.0
EVENT_NAME: 202302061024
EVENT_ID: 13207
EVENT_DATE_YYYYMMDD: 2023/02/06
EVENT_TIME_HHMMSS: 10:24:47.00000
EVENT_LATITUDE_DEGREE: 38.089
EVENT_LONGITUDE_DEGREE: 37.239
EVENT_DEPTH_KM: 7.0
HYPOCENTER_REFERENCE: AFAD
MAGNITUDE_W: 7.6
MAGNITUDE_W_REFERENCE: AFAD
MAGNITUDE_L: 
MAGNITUDE_L_REFERENCE: 
FOCAL_MECHANISM: 
NETWORK: TK
STATION_CODE: 3142
STATION_NAME: 
STATION_LATITUDE_DEGREE: 36.49797
STATION_LONGITUDE_DEGREE: 36.36612
STATION_ELEVATION_M: 139.0
LOCATION: Kahramanmaras_Elbistan_Turkiye
SENSOR_DEPTH_M: 
VS30_M/S: 539
SITE_CLASSIFICATION_EC8: B
MORPHOLOGIC_CLASSIFICATION: 
EPICENTRAL_DISTANCE_KM: 193.03
EARTHQUAKE_BACKAZIMUTH_DEGREE: 
DATE_TIME_FIRST_SAMPLE_YYYYMMDD_HHMMSS: 2023/02/06 10:25:00.2831870
DATE_TIME_FIRST_SAMPLE_PRECISION: millisecond
SAMPLING_INTERVAL_S: 0.01
NDATA: 13501
DURATION_S: 
STREAM: HNZ
UNITS: cm/s^2
INSTRUMENT: sensor = GMS+/GEOSIG | digitizer = 
INSTRUMENT_ANALOG/DIGITAL: 
INSTRUMENTAL_FREQUENCY_HZ: 
INSTRUMENTAL_DAMPING: 
FULL_SCALE_G: 
N_BIT_DIGITAL_CONVERTER: 
PGA_CM/S^2: 6.943
TIME_PGA_S: 
BASELINE_CORRECTION: BASELINE REMOVED
FILTER_TYPE: BUTTERWORTH
FILTER_ORDER: 
LOW_CUT_FREQUENCY_HZ: 
HIGH_CUT_FREQUENCY_HZ: 
LATE/NORMAL_TRIGGERED: 
DATABASE_VERSION: 
HEADER_FORMAT: DYNA 1.2
DATA_TYPE: Acceleration
PROCESSING: Automatic Paolucci et al., 2011
DATA_TIMESTAMP_YYYYMMDD_HHMMSS: 
DATA_LICENSE: U (unknown license)
DATA_CITATION: Turkish Accelerometric Archive v 1.0 - Disaster And Emergency Management Presidency, Earthquake Department
DATA_CREATOR: AFAD
ORIGINAL_DATA_MEDIATOR_CITATION: : AFAD - Disaster And Emergency Management Presidency
ORIGINAL_DATA_MEDIATOR: AFAD PROCESS SERVICE
ORIGINAL_DATA_CREATOR_CITATION: AFAD PROCESS SERVICE
ORIGINAL_DATA_CREATOR: network: TK
USER1: GuestUser
USER2: 
USER3: 
USER4: 
[...]
-2.4094879215309355
-2.860282281885965
-2.7845330594145845
-2.3187810648883485
-1.9590030351731658
-2.0466031436404886
-2.2201786126464818
-2.060617890721657
-1.8331781106168736
-1.5581119959234746
-0.8212161692358653
0.07584351319203873
0.8650320671171958
1.4728689143482527
1.8150836955452052
2.166559494104489
2.4456788175102706
2.642196324035206
2.832641654677642
2.817444397852628
2.6533209493386716
2.4469769805388437
2.2496608376059557
2.1265943944687917
1.9754659293841808
1.793901721385366
1.6053218242710368
1.1758381840577004
0.6251577712911286
-0.02109541226909093
-0.8466547060307651
-1.2691047330713083
-1.184893532748491
-0.8616476168823359
-0.4790941788331958
-0.4610883751754626
-0.6972206523979737
-0.8129597167490222
-0.864250949705153
-1.031662770949595
-1.1468755012476692
-1.0066064030069415
-0.6652664574200107
-0.26514484431694213
-0.17879402992064763
-0.25696450097519585
-0.19916542271441315
-0.34310059703521595
-0.6501848226889279
-1.0675491117478975
-1.5075884856150799
-1.3501888670606965
-0.7010953470101242
-0.007330683123223879
0.6385606533406266
0.9498812983921584
0.868468938962408
0.619982417662221
0.18430703341917926
-0.5090007492731188
-1.274205805258914
-1.5656681109288413
-1.110235906788284
-0.534897083928254
-0.1945176520996975
-0.025639381178051538
-0.3150360949194354
-1.0272742554316787
-1.8805712842696702
-2.524329611606116
-2.671012713858994
-2.1361081029452276
-0.8726183098526706
0.38317410913283795
1.145756888568908
1.7194342393575872
2.077652249360085
1.8472578242185747
1.206086197485659
0.7778766638092666
0.7294759422948361
0.8887301964178127
1.1267731506859813
1.1343243214307868
0.8035232232802546
0.4245557512681277
0.05824505248924179
-0.35242887986448185
-0.5751793511925913
-0.5357787850732103
-0.7130577155793556
-1.4572688567917966
-2.366566715494214
-2.805137225225757
-2.7596385392999645
-2.762912441358039
-2.907136953266949
-2.92781023315847
-3.1049215672481187
-3.6364462670271345
-4.179279015844343
-4.692149351975133
-4.929841782281015
-4.609773385885276
-4.085443631068247
-3.4477639965620686
-2.785966381140466
-2.215592308157088
-1.7331172754186333
-1.4680710547740958
-1.332515210255025
-1.3610655403973635
-1.5637477299314384
-1.8893985356968326
-2.180154469230983
-2.2401087344423076
-2.243890228683242
-1.9053240327583654
-1.2620083757612313
-0.9303746412906008
-0.8471972567193774
-1.0577562113489978
-1.3900056749292635
-1.2502761179664912
-0.7887597975799722
-0.4024347386494309
-0.18922266084837278
0.12954459404806837
0.7910375972691889
1.3332985832541382
1.3947162836725626
1.1475871227870285
0.7718865247197509
0.47382424963607117
0.16128225480819983
-0.29951152548844057
-0.5049333802886
-0.21235129861986554
0.2489156991653183
0.5218126141810832
0.6304380273326486
0.4612358388608672
-0.004389000262736228
-0.7137602961715797
-1.7828271561484847
-2.455812350270302
-2.478267660652681
-2.529552114814819
-2.5053146259369368
-2.2462115339069717
-1.967067049814066
-1.9293912386867946
-2.1428523466484206
-2.0699756857599905
-1.7590491680478249
-1.520149288407365
-0.8695807312503987
0.13517319104623626
0.9247085223743626
1.2667356383058266
1.1427015350098622
1.080804596405721
1.1381287313677226
1.2013072052434708
1.3175925039864929
1.166575188033005
1.1242216240510112
1.2694724637298282
1.184367862732114
1.0488892895420496
1.0561261566798938
1.2578283409047533
1.6785537138691595
2.0064942106036283
2.039327348441174
2.11399950495896
2.2542137964213596
2.435024399376119
2.619645045297863
2.6453384038964494
2.955171339692829
3.590214685971754
4.181810487722252
4.46414333747863
4.306066123147871
4.1791367098185885
4.223981824417511
4.141788302306234
4.077564639255711
4.150130789700386
4.155705597348567
4.002926934950082
3.6900381346619464
3.2079287637325904
2.5780917862478474
1.8046420443006854
0.9738022167980015
0.16529921260591296
-0.4251667936007341
-0.5134045021546016
-0.36249161240552114
-0.2990688459896768
-0.39977819654884644
-0.7953277920883128
-1.1916567465233026
-1.3577982042028427
-1.3792272878975602
-1.0987864780860803
-0.42116194303630466
0.5470215851505705
1.572057550289884
2.5765286544664834
3.5538081049313766
4.125062631814307
4.304820753780617
4.486720704472529
4.702172281771198
4.74839703197552
4.494775600853477
4.178122083631205
3.9230749542438774
3.5448224069326444
3.1705570431022876
2.9950043217149043
2.828146996284525
2.3155525494787
1.2185908775999625
-0.1977518564450401
-1.3760217440851679
-2.116700574423949
-2.5240513105406737
-2.6614439009247883
-2.459869247821389
-2.0392808331200873
-1.4708636141614095
-1.1008416629759634
-1.3636012608356523
-1.9140859495133145
-2.5491305365490136
-2.9760620689262685
-3.035808024755432
-2.770946401695079
-1.8606171021971334
-0.8952861965296198
-0.19141724480452796
0.5457797225783931
1.108513152425436
1.341096600079614
1.0409472558238568
0.5139652332883606
0.20351194357006172
0.0017572704100543895
-0.2177648662350598
-0.3730656924439961
0.013431360497798212
0.41308056472892163
0.19808847763861945
-0.13841020856975603
-0.6876090853676058
-1.2592046229367622
-1.7855310373984012
-2.5575837619749224
-3.017687222184134
-2.8741317105553144
-2.4009150220586655
-1.9932076486122914
-1.6199665844065134
-1.4465902298756497
-1.7799717887478959
-2.329804382985603
-2.7751175507202155
-2.9662814404792983
-2.7186141024028685
-1.970520273341924
-1.2192669923733706
-0.5174460968535077
0.08989628380749261
0.28046020000176536
0.06532517472189821
-0.43635105800305235
-0.8438275421392692
-1.124252911753467
-1.1063404016805314
-1.0667835584767877
-1.0769263326573757
-0.46946071467152406
-0.04858654239923609
-0.37418483131323116
-0.7831805453933384
-0.8721358937137617
-0.7203992945462877
-0.7343333166267558
-1.2468900566240442
-1.7956268137544813
-1.6870931872539567
-1.6914603085679472
-2.226402560369954
-2.4469590110763124
-2.352511558385981
-2.219213353695718
-2.148309359733424
-2.0342837716166797
-1.532366220822564
-1.0821405977364285
-0.9930785976320236
-1.051299624546518
-1.0899331320104844
-0.9005722603131132
-0.9251788485029645
-1.2941136532201842
-1.3211141561764188
-1.2002119164633853
-0.8495434895561935
-0.04304963099861078
0.6069266272115198
1.5005221279422403
2.283392561756389
2.359509139559968
2.507811889203673
2.321624724165159
1.7873398169515313
1.4609271179685297
1.0346717982423874
0.614744436212569
0.1792709968507355
-0.18828829521422685
-0.3992611177654222
-1.119832278981907
-2.1432500599182216
-2.7896115925191007
-3.582493988605009
-4.201214603937574
-4.026898053866074
-3.7217723481838743
-3.3296907478572804
-3.3142807387554383
-3.890702808348843
-4.336233312715703
-4.750087265875875
-4.95491930916241
-4.824316461422763
-4.319709356653266
-3.638135638657995
-3.3718565611839906
-3.177357590722676
-2.850416805487851
-2.5772992523107385
-2.501410774630401
-2.402994799272483
-2.2039975770780784
-2.0840517343336664
-1.708662040153522
-1.0187046678061358
0.014180510972719473
0.9335123388858997
1.340004421885887
1.4959212165688662
1.89606468872097
2.175959764223427
1.638162669417675
1.2868513552014917
0.9900563271786372
0.6078525799124095
0.4571055544277943
-0.32100572019330864
-0.5503630735472633
-0.08757792847662402
-0.5960435754931681
-0.3858261865613813
0.5597656984266037
-0.03861943467040236
-0.8377328271462822
-1.1270932536519447
-1.397944060252502
-2.0402412801103877
-1.9393897305579273
-0.5798571959653648
-0.5568493613654941
-0.21494038633136855
0.6515204497061244
1.0344298525707
1.677617484200645
1.1216228064630587
1.160118982338038
1.7998546929257582
2.304353064914977
2.7996216605965505
1.3688454754658281
0.6854112068064095
1.6596993792646164
2.0580761380481043
2.731334197669064
2.845085216380753
2.968983239851889
4.788532482007898
4.978694998356117
3.9867193543391517
3.8880429624784627
3.8028251395313273
3.73643676561952
2.4858054038656716
1.2131822455637093
0.9130757987105053
1.4021005388407721
1.2145517362541765
-0.7722118618140952
-0.9348651514313369
-0.704159627810723
-1.4017396919971326
-1.1869016880767373
-1.1853821444545398
-0.881802263790414
-0.8026960922508654
-1.1670587589105372
-0.6849039711923222
-0.6057699201268943
-1.1230503856401892
-0.9752863422881957
-1.287159179094805
-2.4116258773820896
-3.564965315365227
-4.643480142501519
-3.913548170496776
-2.92195363132693
-2.439421510690877
-1.8623693434607027
-2.3326479789387813
-0.8214445897895499
0.8384550231925606
-0.5762553986951418
-0.9358426804950332
1.1372643760111485
2.2308962503846206
1.8489320361642811
2.020961672625044
3.2571244837994073
4.905171610746336
5.053935504502635
4.424740255228773
4.672892804968605
4.274832797807296
3.289559833481314
2.8946368078116818
1.9496396046806255
0.7624891264540591
0.41802532711814827
-0.035372788036050255
-0.48931657627517666
-1.1274569236048742
-1.8436197041178963
-2.9038117045491822
-4.0929820031607065
-3.992873602224924
-4.204390723967781
-4.296708368601003
-4.176878702782454
-4.263185853563889
-3.6417652883466585
-4.031638284452353
-4.038563128752038
-3.1610061374377687
-3.32508434739088
-3.497297108568219
-3.684753955771291
-4.096588412856419
-4.291652827968776
-4.493037214811823
-3.7949168402951807
-2.2495845907987997
-1.395232422313508
-0.787354617677972
0.3995807652719127
0.9340014914312116
0.1795826733138864
-0.5013157546529448
-0.7691019482384251
-1.728335401143732
-2.22923610263568
-1.5483593118830676
-0.5413428606938119
0.7794321143930282
1.0687444075546018
0.9567038726605898
1.5739403448224125
1.7016810400278626
1.7263429808915824
1.709904399300926
1.4587112162829277
1.2173790819651793
0.985123755684474
0.7909296713129992
0.47183999722347664
0.3183180782816798
-0.14142341082774734
-0.34559955550376154
0.4001478304530621
0.5815071510931966
-0.06483195035693552
-1.2948486804840764
-2.421650945327162
-2.3043182801075885
-2.074224104112896
-1.9227881800726956
-1.52480349445455
-1.2658762370122818
-1.065968584692397
-1.1180796702668447
-1.0109483169543603
-0.8243848027352383
-0.9233799811121064
-0.91473872963533
-0.18142737341317047
0.5973976869910572
0.8974477546066031
1.4786640357946574
1.5875243509244121
1.7503954545618907
2.5398353150014437
2.6964510633194765
2.362556585245459
1.7518313158321028
1.4065758310001777
1.7102882994718018
1.7183289509478967
1.754055887317856
2.2795618819718615
2.346669516018664
2.128091773505763
1.9269755674988969
2.0176285920760835
2.223419071836322
0.7354867933278473
-0.5625927785041611
-0.3815710120416868
-0.16726215689701326
0.3082301971029402
-0.056961614071690356
-0.5463046757500064
-0.6431627765719695
-1.4476388739058135
-2.0574901022750516
-2.581670773801096
-2.034679557178579
-1.0168134076136706
-1.2657505960408575
-0.7858270572998672
0.1379829156005318
0.49470802900210326
1.2453635608340299
1.5495817463655124
0.9961971609655292
0.7031217437809143
1.3995033313786869
2.5619149547361886
1.733509624285864
0.2657822767742367
1.1173488627452408
1.195191414074205
0.26166070779946693
-0.3259963048854312
-1.364614073827261
-1.5415091581612756
-2.0617620193657564
-3.737548825562975
-5.2043923330025414
-4.906560824720445
-3.485379148252565
-3.990387306366813
-5.0913475129518115
-4.753545111866937
-3.7076938781531883
-2.4599026511391195
-2.2774515277961793
-2.126972705323187
-0.9325223023253401
0.19569930354435033
1.0994279798298623
-0.08947927896948035
-0.09558995786187044
2.472723954302834
2.959069613776051
1.9907441965941173
1.3059800664759658
2.699557992889293
3.2143554211618306
1.5773178321901828
0.7143712198069443
-0.5329335531407519
-0.8694033310141348
-1.043824869551696
-2.616333736794175
-3.6157975631124226
-2.5809131178554803
-1.4918620729506469
-2.287459666659623
-3.1976567309014605
-3.287191427775903
-2.038275470252943
-2.4101272308621184
-4.629426998106477
-4.462480588915761
-3.3913693163384835
-4.055780647366564
-5.228744083067602
-4.110230907467209
-2.7195485538222233
-3.0476487931059646
-3.5015462951803453
-3.4493461393197036
-2.5350679070004936
-2.5635354137076565
-3.201128309942837
-3.3221084798529104
-2.284991338524202
0.983172254553668
2.243185852915211
1.4703355007127734
1.647674904127536
2.218391320378489
2.7391655011851817
1.097276169903557
-0.4233444333065595
0.08232281262012717
0.9529720893627122
1.4325709013413397
0.4869698074640927
1.0534865231953394
2.1724482986670224
1.905490260512509
2.468766121215962
2.377888114450293
1.7048717451021709
1.3067608304206249
0.15377485629431772
-0.7438733675205211
-0.32402758611238086
-0.7354452418036632
-2.6979858610454714
-3.418969653160961
-2.682328958121795
-1.3759271328880402
-1.2458360118259721
-3.154353480511676
-4.795582247672056
-5.630123962927961
-4.9484464912477435
-3.513106362691557
-4.386749344885629
-5.9919353153971855
-5.581522600802625
-5.177639609849774
-6.387266748908569
-6.2190029121873565
-3.6251202183394464
-1.8394531614239251
-2.154191516403977
-1.953566965666988
-0.009910786597934396
0.9530049254670686
0.44813562429288206
0.17851613001385433
0.8454022039609087
2.40110541816777
3.0869188709130397
3.3211909919535696
3.8284232238200455
2.68772874374435
0.6466929590856854
-0.028389049933445026
0.4107930658742538
0.7078604273845475
0.7853353556621588
0.6672672488269575
0.16456941302832845
0.2440652826555062
0.16367614976926995
-0.8209622488189368
-1.1096730514142144
-1.0818999252940802
-0.7503787899184522
0.0023300834793145574
-0.08146042586524803
-0.5831607920994347
-1.1562343341620775
-1.2639285323354486
-1.4908603347814327
-2.3378824916972887
-2.752349224456148
-3.5611651648924605
-4.075237582032582
-4.127643609893298
-4.593587953036194
-4.130027456412696
-3.153329799793737
-2.050181542835756
-1.0123853601684794
-0.36056863949105794
0.8065367312469323
2.0389827194497703
2.7626851320347803
3.1005255783042194
3.1696210306300503
3.05114271938799
2.6919138505605713
2.2905980923902067
1.7787922663510367
0.7798852694949647
0.3002688229832417
0.7501691074762582
0.7235672876687006
0.22222669301880368
-0.008681664345972898
0.06154254097335473
-0.10049794150973022
-0.6642460319907122
-1.2700366475595557
-1.7971690012070771
-2.114607887277193
-2.4329106258426005
-2.672624907106279
-2.4125240615606214
-1.880933085869788
-1.3926561994808888
-0.5510095233142558
0.13362877677310342
-0.3911934313987231
-1.1020704627828894
-0.8743230772057504
-0.4400399165112083
-0.4972210211095219
-0.9585649557064249
-1.3623906092547278
-1.1242166913923761
-0.8122045127186455
-1.2256249986214032
-1.9688392030739201
-2.570793835837607
-2.753125108313576
-2.815328637062495
-2.9772691129405047
-2.5461505434582907
-1.762048853514172
-0.985908715136177
-0.08176862329835102
0.4014737512117545
0.3924434315272663
0.2995086254795627
0.0758639772586981
-0.36370890138426465
-0.6211126681538404
-0.5334158422375168
-0.4448851418896177
-0.26705466494653823
0.47273073594503773
1.5564863635228703
1.5475408134292448
0.3269636781711822
-0.32922708776747006
-0.4426576595119206
-1.5701143277062548
-3.0229244340129706
-2.8961071402627407
-1.7550071162541967
-0.8089232594720114
-0.38956890436773073
-0.35247887852667403
-0.11246009668581419
-0.22406473256862822
-0.7716301309257495
-1.4580868341525366
-1.392392292550529
-0.9381505240849383
-1.0342783410891043
0.10468982566517356
-0.10699763265662261
-0.008891180767282082
2.7237069069922035
2.1139098407227603
1.608420809839048
3.2414390235443493
3.024222579386257
2.299104174911168
1.5300957189447077
1.6242226330723941
1.7943029987693377
1.3824200071513661
1.0368476373133917
0.3176420847262992
0.5350913349656411
0.5163105493189151
-0.28574911015076937
-1.1354896713945726
-1.8194630009858677
-1.8249070802621714
-2.220851908575818
-2.0706654644632443
-1.3056885856695788
-0.8296973805410918
0.1007229511114251
0.6990931087877955
0.9311783881624706
1.4442076837509952
1.47849392878391
1.125834860314715
0.5230772356784841
-0.16032562758485025
0.07492613280163807
0.7080898486242833
1.1209419290090716
1.3088239572063207
1.406893796105162
1.7759256568098591
2.054096530002115
1.9177588392965874
2.1118615362688096
2.1952642420786503
1.4356199057987789
1.3249633314939073
0.9683953426612658
0.5637373556481191
1.3128816120235192
1.237594688389243
1.2649129772812238
1.770774895657728
2.0344319454506055
2.6598706473231553
2.203838879381124
1.415777575270259
1.4354166211925348
0.9200412682086613
0.7508490418881525
1.0649398277312294
0.7537775972722726
0.9337388501537679
1.088452676110199
0.4963925937794101
0.1702876872106075
-0.002660300437628602
-0.06361508305572952
0.06628369636939384
0.01006005813812909
-0.44454877199682624
-1.1183136095138175
-1.5959552748943056
-1.9390382050149184
-2.283119017808936
-2.643706975487396
-2.464258898121713
-1.6473964643916112
-1.3484381330793012
-0.7950443000122811
0.3241960154815482
0.7527351842281291
1.2814926211452982
1.8383654825117068
2.6656852568168823
3.951896374051886
4.357462529684922
4.9471589558629585
5.77843705938499
6.218420835788788
6.333006970962673
5.885292779204284
5.784546059313393
5.510727229404216
5.202720209140749
5.343101509633622
5.305483179163453
5.340839290921307
4.634616689951728
3.6950878428993645
3.2263696210402935
2.4801514507467957
1.5815466831340592
0.2956535240103736
-0.7473311775322132
-1.233242199593729
-1.767347725403332
-2.407934305199378
-2.648007634081734
-2.25043187462012
-2.44022734086124
-2.6279100988063875
-2.2987589137338134
-1.9242278189608386
-1.533495490044625
-1.5573164699026913
-0.6492257442997483
0.44976242289431123
0.351637267029829
0.8021730649489448
2.1688080833530075
3.0063779277059886
2.7045923511430154
2.5295330167323815
3.1776366538138014
3.4197027755485343
2.8691963195531787
2.3907410886888827
2.3813115254154553
2.719036956617402
2.882554890791632
2.6242587823711183
1.9423359384367236
1.1978593641933386
1.0865185195112281
0.8999554936317794
0.3247541819931818
0.062390173000582784
0.7438879581691713
1.6579649202014586
2.0846141064878396
2.580021514341292
2.5198663140538544
2.123028293442551
1.733956626683515
1.547002042088033
1.6652506260204971
1.042558743321849
0.7618902045227105
1.002347732964239
0.50972367588601
-0.5278673163166258
-1.8266428255396179
-2.561401456688148
-2.514181443247185
-2.9875887601700075
-3.9120411840382916
-4.238140195811461
-4.251927776697236
-3.8970476687255142
-3.252213462243962
