AAD_Filtered_TADAS_FILE
AAD_BASELINE_CORRECTION: BASELINE REMOVED
AAD_FILTER_TYPE: BUTTERWORTH
AAD_FILTER_ORDER: 1
AAD_LOW_CUT_FREQUENCY_HZ: 0.025
AAD_HIGH_CUT_FREQUENCY_HZ: 40.0
EVENT_NAME: 202302060117
EVENT_ID: 13194
EVENT_DATE_YYYYMMDD: 2023/02/06
EVENT_TIME_HHMMSS: 01:17:32.00000
EVENT_LATITUDE_DEGREE: 37.288
EVENT_LONGITUDE_DEGREE: 37.043
EVENT_DEPTH_KM: 8.6
HYPOCENTER_REFERENCE: AFAD
MAGNITUDE_W: 7.7
MAGNITUDE_W_REFERENCE: AFAD
MAGNITUDE_L: 
MAGNITUDE_L_REFERENCE: 
FOCAL_MECHANISM: 
NETWORK: TK
STATION_CODE: 4615
STATION_NAME: 
STATION_LATITUDE_DEGREE: 37.38676
STATION_LONGITUDE_DEGREE: 37.13803
STATION_ELEVATION_M: 581.0
LOCATION: Kahramanmaras_Pazarck_Turkiye
SENSOR_DEPTH_M: 
VS30_M/S: 484
SITE_CLASSIFICATION_EC8: B
MORPHOLOGIC_CLASSIFICATION: 
EPICENTRAL_DISTANCE_KM: 13.83
EARTHQUAKE_BACKAZIMUTH_DEGREE: 
DATE_TIME_FIRST_SAMPLE_YYYYMMDD_HHMMSS: 2023/02/06 01:17:04.8060700
DATE_TIME_FIRST_SAMPLE_PRECISION: millisecond
SAMPLING_INTERVAL_S: 0.01
NDATA: 10501
DURATION_S: 
STREAM: HNN
UNITS: cm/s^2
INSTRUMENT: sensor = GMS+/GEOSIG | digitizer = 
INSTRUMENT_ANALOG/DIGITAL: 
INSTRUMENTAL_FREQUENCY_HZ: 
INSTRUMENTAL_DAMPING: 
FULL_SCALE_G: 
N_BIT_DIGITAL_CONVERTER: 
PGA_CM/S^2: 583.648
TIME_PGA_S: 
BASELINE_CORRECTION: BASELINE REMOVED
FILTER_TYPE: BUTTERWORTH
FILTER_ORDER: 
LOW_CUT_FREQUENCY_HZ: 
HIGH_CUT_FREQUENCY_HZ: 
LATE/NORMAL_TRIGGERED: 
DATABASE_VERSION: 
HEADER_FORMAT: DYNA 1.2
DATA_TYPE: Acceleration
PROCESSING: Manual Paolucci et al., 2011
DATA_TIMESTAMP_YYYYMMDD_HHMMSS: 
DATA_LICENSE: U (unknown license)
DATA_CITATION: Turkish Accelerometric Archive v 1.0 - Disaster And Emergency Management Presidency, Earthquake Department
DATA_CREATOR: AFAD
ORIGINAL_DATA_MEDIATOR_CITATION: : AFAD - Disaster And Emergency Management Presidency
ORIGINAL_DATA_MEDIATOR: AFAD PROCESS SERVICE
ORIGINAL_DATA_CREATOR_CITATION: AFAD PROCESS SERVICE
ORIGINAL_DATA_CREATOR: network: TK
USER1: GuestUser
USER2: 
USER3: 
USER4: 
[...]
-0.0060335888589252585
-0.005342599775514632
-0.004919357262196878
-0.005340013787208638
-0.006114219065425332
-0.006315346183748963
-0.004848607635855149
-0.0030576265344673874
-0.0028070539028415315
-0.004712364932375018
-0.0043416789433017786
-0.003954163812084317
-0.006122549657307912
-0.005026452514962886
-0.004810146347403067
-0.0063019060256262515
-0.0051580513604396975
-0.005357228644667393
-0.005265187074821409
-0.004733898671541779
-0.006189982115575381
-0.005848292953216197
-0.005441866812500303
-0.005461559170800635
-0.004873057354735541
-0.004986719171521799
-0.004742296013219625
-0.005856470284706247
-0.005690301134839026
-0.0038238333500749556
-0.0036101527751718878
-0.003928504521576057
-0.005542173594351835
-0.005905741315570121
-0.0043577744028279845
-0.004764616493961822
-0.0049601017659399
-0.005067265444123007
-0.006198144660877571
-0.006805761257865209
-0.006894365669353385
-0.005679341826522426
-0.0053262647662949605
-0.005515502182894417
-0.00444872441435957
-0.005982054021149165
-0.006581733760374795
-0.004911528067447481
-0.004595725119842901
-0.00437636096533244
-0.004695309378193844
-0.004152189782602548
-0.00424487489436438
-0.005189174925569079
-0.00413155882111299
-0.005857236518238744
-0.007730801418756704
-0.005018735435315206
-0.00562486754954643
-0.006893206776685755
-0.0050785241140961345
-0.0062072462104205035
-0.0062286981782592584
-0.006029516453900065
-0.006922061908101161
-0.006670502523035541
-0.007197482822132655
-0.003995709790807355
-0.003089212762353719
-0.005132934850847572
-0.0037119442462091546
-0.0046438442553446545
-0.004769238668500039
-0.005108378252177666
-0.007885949561008842
-0.007065111890921124
-0.0063126775888801105
-0.005527255664136851
-0.0039768005933399995
-0.005562356007749015
-0.007312116903616339
-0.0054480364019902335
-0.003466570169963679
-0.004684248864052696
-0.0050566128645795055
-0.004878187775458424
-0.005371761768200841
-0.0039550748893592775
-0.00233804791259108
-0.0012182136854622574
0.00015179242031652246
0.000999095717687031
0.00387442313525255
0.007475075704718354
0.010109995812785447
0.014797135765458243
0.01980078258390356
0.02619896931253048
0.032853350684779986
0.03857797614530202
0.04711213327945739
0.05380583335115227
0.06024444309845811
0.0695400196223794
0.07657699237572513
0.08219869007135139
0.08578424825463582
0.08863326548390164
0.09439648306316015
0.09592152923376503
0.09372019856063485
0.09479032946205
0.09732899054092338
0.09931092838771707
0.09804506399978993
0.09666957804934392
0.09946761772147532
0.10581927775612036
0.12053737846863881
0.13508047223447373
0.14575890074989745
0.17405253134487628
0.21330695797090443
0.24552234950886861
0.285943084264943
0.3485467160239351
0.43636122560069485
0.534266760261527
0.6346461703678341
0.7584136542323165
0.8964447582865734
1.024151839377232
1.1280038681473155
1.2268912982860893
1.338257665641834
1.426554419012089
1.5028615672577457
1.5511889275203719
1.5205613098491073
1.4621687753371473
1.3715975774598237
1.2035561073553565
1.0030097496740984
0.7442296229904155
0.3503072970279374
0.006645864663429986
-0.12957714879140067
-0.330408803062421
-0.6368267172731539
-0.8253409105929594
-0.9685414638524704
-1.0321682349134749
-0.9854370036848857
-1.0492117547879922
-1.0840695047929838
-0.7651925304514419
-0.49117579011418855
-0.5856898440867558
-0.3687372784193903
0.004372028447211037
-0.07019211200012403
-0.0621088175373863
-0.06844735370734636
-0.14600671599618265
0.1911861485364172
0.40934005919704713
0.3708820365001837
0.48632839383910936
0.706630153522164
0.5639018088044279
0.05358961460864813
-0.11340308956541688
-0.5923327170074664
-1.4618763776922012
-1.6187398495817615
-1.5896260046297692
-1.390253899379705
-0.8698046102779462
-1.2145308172982974
-2.0277996149236075
-2.102412346421984
-2.3904439039521255
-3.2062448360497853
-2.8077086422645214
-1.8020805894626655
-1.4573081344045815
-1.0751042189549194
-1.0316276922163825
-2.462242275899641
-4.945374038301073
-5.274638872236307
-1.8994152282230918
1.1441694572443117
1.521853066474854
0.7312980863691109
0.21596309352879026
1.2087217489230726
2.1508952948675226
2.600663938798044
4.651330641926864
5.786229423885408
5.096209450817377
4.502748635237326
4.024412954373453
7.834105511217863
13.529395076322773
11.627542570831142
6.245482629257833
3.674648683583557
0.3823314227965455
-5.575012294555099
-11.99535415827156
-14.991668776938766
-13.436930688860818
-9.221358084332197
-4.769298206445963
-4.5499449661091305
-7.874643917191756
-8.775711318648497
-9.342413419732171
-14.318032489806725
-14.050582666736942
-1.3815045925613936
12.436744966625294
22.50916149238381
28.41801125306254
21.694520615247985
8.609383069882371
2.9457730454168547
1.7873667549035428
-3.0095408435615028
-8.505243181973027
-9.329439066994402
-7.841142479331161
-4.566692213842673
1.8324339490519044
8.667844070833818
13.12107332856326
11.584958090225932
2.8491354138574745
-7.551137197158114
-12.924942297142799
-14.06712282993755
-14.679908042428561
-10.41795543541051
-2.050317239460373
-0.47912115838697217
-6.053713412876029
-12.429699012051604
-14.026819093264319
-7.770863442472742
-3.0233800507710393
-3.5644258275591576
-2.6372154318780163
0.10827232572599169
2.9106904270986678
5.492944082175222
7.48743039922717
9.395977781897463
12.256172328141895
11.186397918992549
4.14961546517117
4.639689957681842
13.100304682956535
12.672067224299797
4.691262665498004
-0.09761400591486806
-3.6167402446093613
-7.048086413880252
-5.732780655988807
-0.41189462910831987
6.3799497711605575
10.651105693496637
7.074807861163632
0.06021792314659325
-3.129191292190185
-0.14439235929257
4.345403169047065
2.5902819453378743
-0.7045862193744306
-0.017831125125622013
1.8936396749586832
2.7275097536368453
1.3145494501224793
1.6527757125238212
2.040340586754554
-3.019421189469337
-5.510985877889253
-2.55330415914875
-1.9419340129925973
-1.981985634650068
3.5278544060855075
11.957893559139572
14.505742823808168
6.363011664083556
-6.897877171433053
-14.307904706041136
-14.635463528097661
-10.944431430684556
-3.542525385268172
-3.791650902494244
-13.105735181790632
-17.122682100984115
-18.64338233972963
-24.241965553662997
-27.203733519355104
-19.955709436687858
-5.950205038854342
1.499705201549842
4.4189244075481815
8.05993147147005
2.9735361626569237
0.21327163721450312
11.956497638760675
19.267097291848273
18.20426543163235
19.678510603899053
18.463029935279575
13.156770247901209
4.745251212863957
-4.024972401306532
-5.014416188432899
-3.2360017335848283
-0.693700650310276
8.552628641779702
18.884290130055845
23.149441355884314
14.10331045691996
-14.35308206491529
-35.513183398868435
-40.812195092073765
-52.747590701378414
-30.826506275846615
18.999480395656313
18.188845208054314
-3.840330529030434
0.7752445313284924
-2.183360997556621
-26.348740379336714
-28.045658443214933
11.420954744954944
37.77858534495435
42.669554762177654
53.27579076823903
33.67478779243091
9.122153186825711
19.03044924810829
1.40108291675396
-24.482507043995717
5.346063742804852
30.418448460887156
13.6713318658791
-11.904494918717377
-45.21057915411243
-63.495268643374196
-38.08415274873921
-13.188382317004445
-22.77175437518869
-45.346686671556455
-52.865822250279976
-21.25316175584781
8.085558755258106
-0.07704224610666251
0.6046789852528822
1.0573241314906892
-8.15606282227631
2.1819046735209118
2.1587663076287233
-14.81685908409968
6.955071931610365
54.293878298609755
51.36722008142718
23.980336772026714
3.530387843452078
-30.613634191341973
-27.2827601707628
7.172713648479512
0.3210761160039952
-24.2942037115715
-26.68162855563994
-32.0945118209231
-41.89851260250292
-27.510559247018996
-15.668344131938913
-23.65549362367681
-8.413502179893406
18.747550746987372
12.35404934735869
-9.595074159000333
-19.09721340310444
-8.126613842160758
26.70815559816111
46.971969966587594
12.956364153816043
-29.623468934142224
-31.997106095654775
-29.88932734498759
-38.51852338490193
-23.48301016505373
10.201335043574115
28.923444186611427
18.24831197496216
-7.225596546955102
-18.11403303358355
-16.099774012749595
-25.097735792455957
-27.732249195693317
-3.26214966276563
21.52568181452733
32.143023366206336
40.186214865451724
34.182015395402935
-5.837276412795879
-61.06752693573698
-87.14754693888361
-70.61415035070948
-34.52049898814981
-9.160360052014587
9.064894908269803
62.04263417674415
124.27087803246279
129.9318157848668
99.4093953472316
62.60059037247448
16.648335125253716
-3.295322340536395
16.837804589374198
30.684680305944553
9.661659994761774
-18.47751275131774
-16.089091356938354
-17.1717307696579
-65.43544280417258
-101.37164236102277
-70.69015776709634
-25.39474268363973
18.163221457723733
105.63770263207262
167.60034705612003
143.04407635323264
101.64988515661038
63.64879996852958
4.1442922266192905
-61.71209706887152
-83.99367054106206
-38.61002366598037
-8.774764265805329
-33.91898393432825
-49.47277922189004
-30.61714994893179
2.5711711765618994
7.897753583233064
-12.406861592796723
-19.63130175243701
-25.976269545189574
-39.37681831935251
-50.2268002394763
-52.88957061498715
-38.146911886708345
8.906933910618106
51.79150124213266
54.144690075483076
72.78735117538851
94.5826307600143
56.42187444990484
11.977463837991692
27.342411603368056
70.18124481900789
100.98067232430489
119.68719871902952
99.49502333682875
39.88205173377857
-11.355612333857586
-43.82112074361986
-84.12876829844356
-128.80587910997156
-139.08466858228508
-120.50666476379685
-95.19747663416123
-52.30247180971441
-11.649706396395542
25.104708020301615
107.38559167303549
185.3701139568808
177.74813287843799
164.3132884446457
193.40988307974177
180.88118240692617
128.32820812244907
89.899438570619
59.55814035426825
39.67750217870382
52.37815839063232
81.66696034892547
116.39161303687831
149.36725855296314
127.22422636470363
81.26259179157627
94.67930637755408
117.89546504139028
84.61312642329767
49.622826449753966
55.30292513942019
53.62680339870214
15.877515205163201
-40.63578289629251
-77.56903741956125
-78.60745149920449
-85.62134455822626
-109.18136754126841
-119.0885688070734
-98.89162125327783
-66.51239344080034
-60.10824007487884
-50.67939442157995
-15.40097352042911
-20.70430408695507
-81.34417835555973
-114.21869958236134
-83.12555547960224
-72.0689481220537
-100.04922397051358
-81.29646317275841
-58.652750526057496
-97.96802876213235
-140.4599245321342
-151.2825535299304
-138.0231859820129
-109.39719814306618
-102.0317734222859
-121.55556704010682
-110.52030615554703
-62.01207299694267
-46.898482975924146
-80.21506750109637
-86.08755083831846
-38.182120089185396
-20.753117097711527
-67.48961996165613
-121.81035997433295
-156.54614554286076
-194.31722520842217
-240.27899558391675
-253.49137129187278
-250.87598905478
-272.47688543613043
-285.7424902079474
-269.27838695402727
-254.21361028609132
-262.57094076944867
-256.4189644193334
-228.8574854536073
-222.14002288803158
-219.75876927979638
-207.48485942464788
-218.35892296568014
-249.03303203018845
-265.21113309131897
-277.2102991922902
-301.49751297454264
-315.4231757901228
-310.8458064314154
-289.35708916522753
-262.0654367161214
-257.48287280315026
-267.27141059578076
-276.2680335977149
-283.95395809427606
-273.98339624063993
-234.24407215753928
-169.00065798461935
-101.70552418306336
-49.74760558467359
-1.649938753870483
38.58099154033603
29.410310374488112
-33.328761724556024
-94.83571212329218
-125.36006653973239
-137.0937301345396
-146.94605788448956
-138.62303415245654
-97.82240287963575
-50.54244716560058
-1.9057673168011056
44.72343350972886
53.422854021796155
9.828319055490718
-47.117574137346914
-77.55477428749363
-98.6081704451985
-116.18831206203221
-87.34622415208496
-17.851988333168205
46.75860868864675
99.4707954551666
145.44614739610836
185.1202166545051
227.82003859964018
272.0501707018587
300.3477012274961
302.95403482215465
282.93723817361865
261.09082148868197
240.13021400356652
195.24294107879405
153.1285754914326
149.35932561987894
165.67812191307848
181.2508569543761
205.1504199864849
242.1715572357242
277.90068437265995
301.49618621625706
295.576015428464
266.1432376288561
199.85133778853037
62.08491244401844
-70.79699551112692
-111.63132729808746
-94.44192596157532
-75.03865715139985
-61.22161929123705
-47.77968279370902
-23.136758470416687
25.067003551361942
81.79964100754098
110.22118953272424
104.51637659398251
92.94310323123138
74.02683050682968
44.01891684453445
8.476764548727271
-25.492673322005
-47.44699489245169
-72.4057635971281
-84.02769126748841
-69.23259799887117
-61.40097309493366
-89.002666727562
-164.51178456896565
-289.0421539067577
-433.13873988659276
-527.4281279588208
-566.2434880063921
-574.1732498085914
-561.0580098805316
-549.7527498813195
-522.6061823258
-508.6059588025843
-533.7955810814254
-548.4886741454461
-537.9885529791214
-527.0341511439057
-525.635989239949
-530.7195971786182
-539.8291669429369
-510.5938574694145
-414.3746345095586
-297.394094777066
-190.98811878535153
-6.016352970141736
246.0320321665065
330.03461317618286
358.24252355993457
457.84716436083664
298.0123604547626
118.69924260182644
187.2662355934627
246.40815687377088
247.64250879235445
102.7339916129879
202.80240496585589
426.31278226485927
217.53539038754005
183.1044288588632
315.88688744897865
254.87886045185056
272.8337669364259
299.1947290597897
149.96169628376043
-18.7649302792355
-98.16267150555163
-141.50395798230147
-89.0604153227611
-119.76256330448193
-195.28203900742545
-117.9477212397028
-69.4540488047797
-0.3487300509084786
105.4784301419763
100.68233033917129
192.3517283062125
362.91673810050264
314.51510650410046
178.2841852463016
201.13138123633576
273.0602389208442
220.27909264232855
249.69151215593462
302.5304386540207
186.77534015505614
190.53625019295274
237.7564593658359
171.71109284758535
125.23447412601307
103.48672313705904
80.17322239154855
40.117067483756486
44.17758765787628
87.34936818962204
95.012856668293
97.46015131929383
103.81021169359266
82.98408879883506
57.09874649081563
61.308195512791265
69.40006908615709
32.909649851102756
-49.81997996344748
-135.99731269126886
-178.91896727343044
-171.43588003901652
-135.6071059291022
-82.93811886470245
-11.278528437909296
48.53841273727781
74.67403596026712
132.0458916297539
193.65311937581103
173.001686755276
127.32060349500756
99.48280953110664
80.10774622465358
47.4508328707766
-3.0705681233916953
-8.230471348420796
19.41348865862721
44.4282340011605
43.53303692783964
11.486279696018903
-10.743827594092261
-55.238308189112516
-107.50315440643521
-139.21802586603508
-169.70233968051747
-142.10006063913713
-36.995242544356636
50.32114364227513
60.33336015939258
105.79019015962713
207.42713876148568
252.99491155334636
259.08436679121246
251.5581028619213
247.48005746622843
255.67353771567784
249.44757322424297
244.35158462469425
251.92235616917642
269.5078627632237
283.8576317490574
280.7728514454651
262.3082988453183
247.86777906389426
240.30781101534544
220.08681676544143
173.15865546087218
104.6832619612162
59.043052446505165
64.26255049026855
99.54285987555224
123.18253537504978
129.5446070222692
148.21079123940078
195.35072114042822
251.91058100269302
274.7087254068443
250.97388329871742
223.82500447773958
227.22829093261328
216.02769243143442
195.52881316143151
189.87141866283784
159.60781322182098
122.30623548783278
106.87368652983646
123.26112176378076
131.2384396717159
86.59953946156814
48.89793678790129
27.05680576691388
-19.46968250893482
-53.964180656337525
-54.310594760890005
-45.58896906317704
-28.982352544730986
-4.612392244650131
15.905279531026856
29.769239816056903
36.26460364095269
43.5319824796178
58.89604307418151
82.08587301749245
101.11761023187518
104.68419192309938
127.2162174016213
181.14849976044843
231.28986504910966
262.88709598925914
244.11400853268174
181.67259702035025
143.28154642490972
128.8315949533157
98.59364447264404
66.55379482100865
52.850358083276554
57.46735038464839
65.15455980578534
44.16602989284975
46.070515902300826
86.95651217943328
130.18868488435058
174.3561846815782
203.4537828195689
223.36831623983326
190.79413363757976
219.7360611452694
287.27430097064314
203.2170040406452
197.72438686999382
280.7281505471899
263.64904829757364
236.13046069539018
234.5424465229307
224.50807696204714
186.7786087714308
161.478914702177
123.052443727877
72.5347608921025
76.72069739805325
100.95966242790324
113.74631641235395
100.32358792541503
106.09466727083145
135.9590196442109
146.54714209936586
154.05422947879225
135.36089488308335
103.74012666686286
90.95884742527608
85.71946168560517
75.61459819943035
42.45317452007607
44.72694200056888
73.8617157651616
49.674713283124
25.964811950041494
20.013948650315626
11.004248827057825
12.814849139202293
7.1700685160897395
-7.6833941800439485
-33.262272446523866
-69.0672594939701
-82.91749498325413
-54.18635310848518
-22.972702625989935
-17.869660384771112
-29.500077471332705
-42.15457475087107
-53.169487159352904
-77.04226087734123
-110.20575209397748
-146.16862790980326
-158.3656678215576
-162.51532247646173
-150.83939014821948
-118.1597643714419
-124.31716423435856
-108.62380623821736
-73.6971351485632
-65.39003387790902
-54.35885654240327
-64.72680900101963
-66.43179250841696
-41.16138340021597
-16.39093630615301
-16.362148902841643
-58.60997324533776
-89.45372559645608
-84.24636622047797
-73.35914374912747
-73.89715657060665
-79.3723306458233
-65.64975599841176
-33.17673726021959
9.208528812579543
56.79676981078531
80.63622030307317
74.00922602047065
48.59874792243538
18.111165297309665
7.121656337060138
3.682663675019016
-3.8036150828817155
5.130030697299891
33.085608465303686
63.02141283571473
91.32671003249509
122.3646047762884
147.7190701570629
157.66175912531529
144.30703746513763
107.35855547354102
60.66038712918805
13.680586586754888
-23.040412070653126
-53.78753441259332
-96.35713769626173
-132.68220655139046
-152.29049623977278
-175.7230740911703
-202.70380043404697
-225.17736537513787
-241.69710197897388
-255.46022534175188
-269.4449760530784
-270.45152335787566
-252.58582781371803
-218.96480107419984
-182.10707209642237
-169.6172583739362
-180.85781271824072
