AAD_Filtered_TADAS_FILE
AAD_BASELINE_CORRECTION: BASELINE REMOVED
AAD_FILTER_TYPE: BUTTERWORTH
AAD_FILTER_ORDER: 1
AAD_LOW_CUT_FREQUENCY_HZ: 0.025
AAD_HIGH_CUT_FREQUENCY_HZ: 40.0
EVENT_NAME: 202302061024
EVENT_ID: 13207
EVENT_DATE_YYYYMMDD: 2023/02/06
EVENT_TIME_HHMMSS: 10:24:47.00000
EVENT_LATITUDE_DEGREE: 38.089
EVENT_LONGITUDE_DEGREE: 37.239
EVENT_DEPTH_KM: 7.0
HYPOCENTER_REFERENCE: AFAD
MAGNITUDE_W: 7.6
MAGNITUDE_W_REFERENCE: AFAD
MAGNITUDE_L: 
MAGNITUDE_L_REFERENCE: 
FOCAL_MECHANISM: 
NETWORK: TK
STATION_CODE: 3134
STATION_NAME: 
STATION_LATITUDE_DEGREE: 36.82763
STATION_LONGITUDE_DEGREE: 36.20485
STATION_ELEVATION_M: 29.0
LOCATION: Kahramanmaras_Elbistan_Turkiye
SENSOR_DEPTH_M: 
VS30_M/S: 374
SITE_CLASSIFICATION_EC8: B
MORPHOLOGIC_CLASSIFICATION: 
EPICENTRAL_DISTANCE_KM: 167.34
EARTHQUAKE_BACKAZIMUTH_DEGREE: 
DATE_TIME_FIRST_SAMPLE_YYYYMMDD_HHMMSS: 2023/02/06 10:24:55.8608700
DATE_TIME_FIRST_SAMPLE_PRECISION: millisecond
SAMPLING_INTERVAL_S: 0.01
NDATA: 13501
DURATION_S: 
STREAM: HNZ
UNITS: cm/s^2
INSTRUMENT: sensor = GMS+/GEOSIG | digitizer = 
INSTRUMENT_ANALOG/DIGITAL: 
INSTRUMENTAL_FREQUENCY_HZ: 
INSTRUMENTAL_DAMPING: 
FULL_SCALE_G: 
N_BIT_DIGITAL_CONVERTER: 
PGA_CM/S^2: 18.014
TIME_PGA_S: 
BASELINE_CORRECTION: BASELINE REMOVED
FILTER_TYPE: BUTTERWORTH
FILTER_ORDER: 
LOW_CUT_FREQUENCY_HZ: 
HIGH_CUT_FREQUENCY_HZ: 
LATE/NORMAL_TRIGGERED: 
DATABASE_VERSION: 
HEADER_FORMAT: DYNA 1.2
DATA_TYPE: Acceleration
PROCESSING: Automatic Paolucci et al., 2011
DATA_TIMESTAMP_YYYYMMDD_HHMMSS: 
DATA_LICENSE: U (unknown license)
DATA_CITATION: Turkish Accelerometric Archive v 1.0 - Disaster And Emergency Management Presidency, Earthquake Department
DATA_CREATOR: AFAD
ORIGINAL_DATA_MEDIATOR_CITATION: : AFAD - Disaster And Emergency Management Presidency
ORIGINAL_DATA_MEDIATOR: AFAD PROCESS SERVICE
ORIGINAL_DATA_CREATOR_CITATION: AFAD PROCESS SERVICE
ORIGINAL_DATA_CREATOR: network: TK
USER1: GuestUser
USER2: 
USER3: 
USER4: 
[...]
-4.0910892797182505
-5.516502826152353
-6.0039286524749516
-5.136974282893491
-2.885878331486526
-0.3030026776560193
1.7284423803379116
2.7184212582999763
2.1041038405429306
0.7934903566563765
-0.02414208335386432
0.0893837666287271
1.159827433198839
2.6729715074311624
4.439399078338702
6.110259707296712
7.246772444388921
8.049631793655694
8.546884371947787
8.573338622711935
7.994278857647242
6.904922143457794
5.771797804010703
4.91206280668159
4.592095245991563
4.925557008378912
5.459661970402342
5.7921077472686004
5.690434661228534
4.340257918352702
1.614766242974345
-0.9184126052650288
-1.7503863723327946
-0.7625801422248693
0.7977321761826074
1.6548783056287528
1.6572902138555825
1.5151769977728724
2.0885823630976468
3.1931631223544366
3.7197377484078107
3.0410805514995993
1.6598632546280176
0.6388049979183099
0.29168024266442166
0.09954849569567502
-0.28243435234325465
-0.785627970159811
-0.9493292394677371
-0.4147495501571688
0.26603440904625
0.36357972432183105
-0.007828563566982638
-0.33502756677388196
-0.2517019059042305
0.1309148401545199
0.014599790233814232
-0.6745592366883716
-1.0284507229031439
-0.8883690919151055
-0.611871768181596
-0.39325392090506567
-0.295610868303453
-0.08710712641546547
0.1280079412597757
0.34434536864290766
1.172628228324308
2.2159917395561375
2.442140601087351
1.839347186291866
0.928498429424975
0.2940262269238179
-0.34762552517409234
-1.5156766841649028
-2.430703910164435
-2.887564703972783
-3.26969980995284
-3.510629196074957
-3.5114549745042094
-2.696440869335002
-1.0707127846387674
0.8550258187458222
3.0817294908314463
4.77194976701216
5.117266779490378
4.661687774139705
3.802520278803325
2.540489012624594
0.6716227452987924
-1.5114030344420766
-2.5654936396673165
-2.00749949591448
-0.8152290522149802
-0.012407026302895858
-0.11655117189417276
-0.4181517935185657
0.05637095264384362
0.7458106425253771
1.1101667229981074
1.2988327875608048
1.2141131198198098
1.156938651050659
1.2688947887049082
1.7003577181274574
2.642136637543431
3.1089909264573024
2.277580361848819
0.982318993021204
0.24342694133741602
-0.18903898541053366
-0.4179445898534957
-0.10304573919098037
0.6025038113287305
1.083229814256573
0.4615678843390327
-0.8808008313750653
-1.9097143220133037
-2.5695084919378317
-3.000656233007863
-3.5041468064713865
-4.1938039473582425
-4.326119540274142
-3.276154645729608
-1.4842317562390324
-0.2633380263676626
-0.21407481256902505
-0.6048220839063666
-0.9370342683661884
-1.2259258858537407
-1.206992644277584
-0.49076149383562323
0.870200724839684
2.0562278008598387
2.4063365859172774
2.2870519819620863
2.6136609010294514
3.3303291018781898
3.4190172140673365
3.0374249963879763
3.0545998162955392
3.803358743756011
5.281417770523224
7.058721153340514
8.862050521105003
10.222104874076752
10.303300692289405
9.313560262004868
7.769035134364816
5.813751254580168
3.8952550441534313
2.5059240326959586
2.1182880058453564
2.1291549579317044
1.2237477152348324
-0.39170958291314006
-1.5064681331553316
-1.2138382496135536
0.22435738941479028
1.5333059233284643
1.9518525930111794
1.7145902859307582
1.2118328643896548
0.7428076724734679
0.9634960969510917
1.7890786169313726
2.148738293474335
1.4955955513534263
0.23007200926580149
-0.7282832335362632
-0.5844352638521447
0.5670182678692403
1.5432848108283126
1.67681217569361
1.3600150391378296
0.7519855545903845
0.22394240767964763
0.027770957629296513
-0.23089942896941193
-0.5173258596580614
-0.981170129233982
-2.079238026784378
-3.3529858690270267
-4.162295205852506
-4.391369897683275
-3.94901396725705
-3.1592680801118576
-2.54922969379693
-2.2366121624153474
-2.157714255065931
-2.0112870165520067
-1.8578143101891418
-2.071942851756638
-2.3631365185759274
-2.639921956611089
-3.514513596393808
-4.648884817027982
-4.795752105455737
-3.7813594686378664
-2.46018233833577
-1.2811013370856363
-0.01766241100711931
1.3676026606881155
2.6466805846696335
3.600336444391853
3.6977723210744986
2.724638585884137
1.2160879707899628
0.26083523922635293
0.7691177767061924
2.1317411867687155
2.678322076985452
2.039767163061905
1.4383751200642954
1.04405171751954
0.43602978705987366
0.29295971870773085
0.7561068021613302
1.1134488071429414
1.1487304181902054
1.1807717220476408
1.5568792619686738
2.3899938877369715
3.5937751537621434
5.158741880191708
6.742445964704712
7.56655244069965
7.54589125756993
7.021244776295455
5.688839930555628
3.6411965276703344
1.8739604684464788
0.8694189321288424
0.441440097016288
0.342777445668129
0.40036689102068185
0.40285253555892964
0.3093279904757112
0.4952689601760962
1.0214337684542432
1.5392915691745983
2.0164531033482014
2.79552142930399
3.998199449640648
4.867395908619132
4.570196311792217
3.5489993891831664
2.4093495529947133
1.303443852994047
0.27097408867986644
-0.9192440538554937
-1.8214735572788263
-2.060570132766587
-2.04166523818471
-1.8773487598866658
-1.5559699038864871
-1.2774087474749811
-0.9373710701886475
-0.37997796115068516
0.11278104062897898
0.48147243986225485
0.7307520565131335
0.5597341535613586
0.048950781836829715
-0.2088766861371255
-0.12429174013255553
-0.14957372015646345
0.008040794609941506
0.25625480429728603
0.26442049867555295
0.4187398053132685
0.3808078829882275
0.14408798288134606
-0.038592320405506024
-0.36000373735867097
-0.4800020291364538
-0.7899213131322477
-1.8176129527853224
-2.9706300509039796
-4.028379947666975
-4.7488213744524295
-4.6844945052283515
-4.310120503243208
-3.6883267883328616
-2.6440358880071626
-1.6399513698579944
-0.8885818824900814
-0.766002598109133
-1.8687000193371215
-3.427636906798799
-4.436193428254398
-5.1203366281191665
-5.219560192580292
-4.8828136038659204
-4.439009493780612
-3.274407048016237
-1.4514395497587025
0.545557288041918
1.7913715788848366
2.094265501963135
2.617709877989751
3.5814669722255497
4.402100514398143
3.8369937655915964
0.965821293209437
-2.2053297011264203
-4.0092600380442365
-4.555429621368262
-3.3548095415634984
-1.530178770249426
-0.5148861986977082
-0.14925327186297976
-0.19552759553248908
0.229546454738768
1.1956938165247712
1.5632591496653052
0.7119412948037412
-1.2223401879071794
-3.2857100855975623
-5.051454885565546
-6.829172694759374
-8.710426167218454
-10.085682838637112
-10.045438484821952
-8.94133336191866
-7.662168594617662
-6.6039855088898864
-5.498045006621043
-4.518546201342818
-4.462815960060204
-4.896352763173931
-5.328105764911745
-5.546761326204361
-5.097168159208218
-3.9176868992824
-2.366252976857107
-0.7206027106525704
1.1279494538305834
3.1499073446251358
5.334388195734637
6.507406310314592
6.4117474480622105
6.300204106833329
5.336066093451239
3.450744812511213
1.392938989315629
-0.5121225701380699
-1.0222060850117272
-0.7535300316570892
-1.1366256030704067
-1.927603858682747
-1.8389922650757013
-0.34180449409869545
1.2658938451352084
2.301016919398493
2.4241747534563607
1.6518054703811353
0.9606754133767786
-0.6400792790956594
-2.968880230370041
-4.130543527576473
-4.897041554562758
-5.120674177365908
-3.9916265949605116
-3.21202005703224
-2.998758542242295
-2.5612814854752415
-2.24395746544713
-1.7563645982121734
-1.2246511625347103
-1.5276090811383314
-2.5467075672111665
-3.241332809878904
-2.9958138593750054
-2.052190051722421
-1.1495763742107394
-0.5125487439498608
-0.07858639013592429
-0.08179467010070005
-0.7298844713041907
-2.8283633223313496
-4.9339393743316835
-4.902280762078484
-4.160641676771109
-3.932485586133348
-4.516879835242013
-4.978815312738954
-3.4383469572175915
-1.8433600809788073
-1.8067971337750486
-2.1044302013208673
-2.8607495192060806
-3.3373444341305123
-2.272960092212545
-1.736108765288408
-2.8677026527490117
-4.200122495346217
-5.821674326253206
-7.517869491409139
-8.340929338695277
-9.188719173106625
-10.258808959599957
-10.60258600250819
-10.47395299546187
-9.85385057133444
-9.139715083575181
-9.586433384840696
-10.191794631168838
-10.086682514145028
-9.844859125872718
-9.70154185559721
-9.786697253719028
-9.61282444114997
-8.642750750215994
-6.710485200454418
-4.811858518506185
-3.4850988178345466
-1.550315735324063
0.6077365097670377
2.7913417427293825
5.132138086164098
6.005325383923201
5.284882900743316
4.310486486144522
3.3703607542077227
2.3836857702342265
2.3057076253422943
2.9845214868463583
3.3309487981266344
4.074437494559335
4.834278128905112
5.05478271360085
5.732431798310627
6.112909259142007
5.667656050930174
4.821622769833051
3.727229472088718
2.9053504819139317
1.913526791408622
0.727547220982648
0.49033606206554686
1.486808038693748
2.8175438092690017
3.439650360434934
3.3584841543416672
3.126111918514633
3.4343743575392836
4.694112324186691
6.532497309941505
8.586981995297474
10.43618053004449
11.443925998418376
10.9525261839496
9.0860338835665
6.846784308601205
4.481853989447776
2.3962887856752766
0.6442341768437136
-1.2135101007824738
-2.1409979809022386
-2.342783444679632
-1.6472038904570867
0.5996944256112705
2.323343259809448
2.983892126200214
3.0615777734088807
2.8141776587947573
3.4913415467583473
4.81805951313012
6.334457036813876
8.350361702019693
10.500123067854442
12.228737867206153
13.051184554685019
12.443886882411164
10.813449823742951
9.600788453422004
8.943084019850003
8.31038076653612
8.016989707209092
7.627960204442305
6.76808631206063
6.680871179532444
7.754895375185297
9.166139166895166
10.353370482253373
9.767402395325044
8.179877859945384
7.321756217701505
6.321045094608943
5.168129525149752
4.1025981566896395
3.980117747185243
3.3238815282987417
0.8748956532490516
-0.03745296339696254
0.33117829043693026
1.0986997290066718
0.12052509466335543
-2.6444396887182724
-2.835812044948644
-3.1877114935966175
-3.053516673108306
-3.281654355720874
-6.529700621281099
-7.1737197414640335
-6.885442896878903
-8.569093185469884
-11.468246665326525
-13.00176738734208
-9.79697312231853
-6.3525074363030924
-5.674584757223082
-5.6992452117846115
-6.289410527618085
-6.690328753630153
-4.796915838752979
-3.46616812608255
-4.2205062257956
-4.328095623437018
-5.373878214899444
-9.04662170399721
-11.709997989848677
-11.582192363229275
-9.901387061442756
-7.323014138402221
-7.336224722542935
-7.593481363838444
-5.691436048197904
-4.3970509499649335
-1.328381587198641
1.2002586192234075
0.7890990310509712
-0.3730699073610361
-2.782312566453823
-4.973313305272015
-4.926922244858808
-3.5136074950870873
-3.105802672298631
-4.039796497853066
-3.336196655027329
-0.951043125672582
0.4963238505163754
0.9523504022318312
0.1815214157945647
-0.822556970770305
0.41887989749132665
3.9560613134190845
7.216924686384126
8.007388968596887
9.237375318569983
11.914019512920834
13.292578709607854
13.796568522881747
13.638455035164997
11.885895122606696
9.175898576752234
6.805211819394941
5.884053678476401
6.397133937108674
6.654973050871127
6.91993347632119
8.153459684702993
8.536869225420672
8.973140026340497
9.40030483407817
8.089228273117591
7.6618876488359575
5.946959571528633
1.9105178998800108
0.6595187192744908
0.8570042834169217
1.6707345410819763
2.494992509074348
0.11879587591983996
-1.4201078368253455
-0.7681728979392652
-1.2885291267253902
-2.023256948201603
-1.530595948871889
-0.08129809948814691
1.246828748783026
2.1739612518378104
2.371343492879603
2.4947862942953205
3.3603143775659077
2.5446233906462687
1.5397309235631944
0.8217301518736495
-1.125158065012778
-1.7308635617820016
-2.2181518100417974
-3.5274740926551686
-5.101233458052685
-5.6644860669212465
-4.74939140433925
-5.122572404969185
-5.552935770184729
-5.867968955682137
-6.7848192227999915
-7.4087333673666
-8.234607665935286
-8.960130239569041
-9.817258623609918
-11.929359963556957
-13.819319045488323
-13.897214168234706
-13.735708362767504
-12.593804986911318
-9.986971494748218
-8.706551059736604
-9.303159122792053
-10.121970486107708
-11.162066730199093
-12.100685784394058
-11.578419646863498
-11.380025861089935
-11.342260956678118
-10.036122892607944
-9.138662849308366
-8.889778213397715
-8.345555251034675
-8.563149080532378
-9.738887172366297
-9.401807665942778
-8.064384134612123
-7.868380769906564
-7.493857953947333
-5.660183413070086
-3.4582150563415994
-1.6092265098732357
0.020465995494776793
2.53273748650658
5.107106611862343
4.568208068802918
1.4625286576825236
-1.3442537445605143
-1.6692912816015966
-1.3397674157440913
-2.7926334032309663
-4.163273821502601
-4.92080150599987
-4.5728912361967256
-3.607651266327455
-3.2315703293365643
-1.9056807224687897
-0.7401075562477191
-0.3992245127306553
-0.04103885976520224
-0.24053064358983314
-0.6030729223313631
-1.4976618498134904
-2.161298913414022
-1.1105845522759898
1.24658154380578
3.6271953664971317
5.338956094598551
7.478492982084169
9.091328867736792
10.212468464275414
13.334219693001739
16.93165572926263
18.287573258751827
17.372082277992465
15.900602941453876
15.117998222370497
13.752199973349395
11.947735754158266
11.146332254576919
9.186428494315205
5.941687791561918
4.414307664858437
4.3217908718180125
4.4534275095777485
5.517053461036181
7.585082281722197
10.211744211932125
13.142364922673057
14.167253864190277
14.767907767190248
16.518856811975073
16.573853488209743
15.864132427097463
14.224771889632617
11.804347995919898
11.963302881951437
14.027420231684877
15.679154057536236
15.120417535975289
12.612503124962894
10.100534920072187
8.395799488973108
8.285287075878008
8.581265942846771
7.2124659019091935
5.522213196743012
5.157998517464611
5.464225047463879
5.701326935512436
5.707527377219575
5.379309394661256
5.068516689483599
4.224298905040161
2.2363481843570976
0.5827669505672823
-2.2702936548735093
-6.310387309698048
-8.132941882398004
-8.816614538327931
-8.088505332023487
-8.714892949628798
-13.442958957556819
-16.293216559822433
-16.335192250767545
-15.377943358387943
-13.468453419813883
-11.812420618536363
-9.83822925715018
-7.782263097105205
-7.3369027158749756
-7.640043569726735
-6.54943096944888
-6.005397450737342
-5.767799386409972
-6.087740768545111
-8.897634075167451
-10.397996463142606
-10.97152035106294
-12.195668646775538
-12.742183541126247
-12.816523515234277
-11.509446251594193
-10.678920291011273
-10.733271956598488
-8.778450032759343
-6.7169091792819025
-5.494541058151222
-4.591696841462843
-4.544032425470636
-3.084464163879011
-1.9834891639437031
-2.403675576957493
-1.2761417240846102
-0.7886575797753496
-1.6753980493695417
-1.30258450181794
-1.120533446011917
-0.6980878590921086
0.9354219444594641
0.00826044745394991
-2.3399604032095445
-2.0627189893517537
-0.6938430221718422
0.4993130190061026
2.8235290870335725
5.252821827207753
5.62027266947269
5.302136188336368
5.061834725732616
4.500766980590238
5.40750793278296
5.1018876693643005
3.0483936769595608
4.18439165659016
7.009763679164082
8.648194035709283
8.924645523773673
7.412524386892435
6.321157770777028
7.839672409225809
8.848334562509653
8.37947110408475
7.913056383789541
5.813777338238159
5.394912292140919
5.549872936249304
3.7814977741021165
6.048650635061581
9.79836547811396
9.627375875013328
8.06309768778116
7.861176696175235
8.429186556468826
9.478965399772342
10.317702139885382
9.126084781311834
7.726791841171908
6.708383600449239
6.135287273492339
6.000135219061224
4.883149529309881
4.0453319539474855
3.845785488203126
4.632539193948804
4.410543207196652
2.3692608306916747
1.810134321307483
1.9790849260104038
1.9025830075697245
0.6967102108176696
-2.0521869426404153
-4.871017361402873
-7.1938178007281115
-8.544648602411915
-10.123419670038666
-12.148000145891796
-13.933626184412045
-16.31971218377489
-17.989005581411476
-17.02419159555698
-13.919640727657336
-9.331886553700967
-6.457985016209725
-7.126105653139064
-8.14158227035757
-8.616509122033365
-7.7918442645754
-7.628260433136294
-10.063786589594164
-10.928446545733436
-10.26885807615759
-9.580285273241786
-9.295446138248348
-9.697080200513222
-8.504284361994133
-6.79180646085547
-6.446858455367444
-6.541358621679595
-6.332218224853461
-6.803678409402877
-8.69857298412138
-10.498564979100546
-10.894789913578885
-10.322038963883802
-10.765180084453753
-11.54786720196744
-10.52349919581253
-8.715292430763567
-5.890239572329798
-2.6179343160072106
0.11057390872880202
3.1653886249572465
5.383393145164825
6.314902942346175
5.468059883075354
3.910727441816078
2.866915213781989
1.5252467446612201
1.5208900660093316
1.1109764203133625
-0.2506786711713601
0.5895134617180453
1.0635192675767553
0.33599051227063326
0.6575568449850623
0.3374854559177673
-0.3736321755117392
-0.1233876833392339
-0.24682656732587402
0.32811653795707074
2.6738077072926583
4.440464268637728
4.5266815778905425
3.8758777048424333
3.478960107626519
3.668446989125854
3.8994191972091166
4.483177987193432
4.417276262836553
3.5503837613129727
3.8372354917063647
3.297645780425687
2.9627110377868644
4.848281528581326
5.3203797029689515
5.437614378897934
6.261704588572136
6.015684278269704
6.207653372010976
6.707220721164625
8.047858138114636
10.417316612005884
11.355098449800312
10.481754961157682
8.458711569703189
6.501394666930019
5.028249425640121
3.507919403974574
1.4262086359189714
-1.8451762426375817
-4.26614531509913
-4.4818524716850305
-4.600770939801916
-4.960448358422256
-4.178761923587362
-2.8072718740683515
-2.0025015178537044
-2.498708027713942
-3.1152948569482817
-0.17274813035451247
5.034586861101574
7.264280096221176
7.686537266332277
8.763408607214187
9.402358176386894
10.053234371102365
10.24977150453243
9.117643311225256
7.730832206066524
6.389240332345707
6.122911791696032
7.041486449744703
7.169767320513127
7.773309810239532
9.46471793305839
9.542025228763858
8.679505840299242
7.468554928665626
4.585297667226528
2.265597190201159
1.1817319392277204
-1.2461320545839303
-4.691164469899273
-7.642309885524329
-9.741757261667605
-10.263956174166667
-9.061015712901376
-8.368690267586414
-9.258361747254323
-9.645512065921771
-9.753568868383853
-10.926738891945256
-12.333144179776072
-13.328408059272512
-13.796813938380014
-13.242589642013307
-12.116604266434274
-12.15145234834432
-12.32986251041116
-10.882648137721944
-8.96337188134563
-7.67939904679123
-7.214951291834466
-6.770996271175503
-5.424209764250992
-3.797342137364168
-2.0308928277738048
0.8128752195029469
3.9821860470313686
5.853377041188212
