AAD_Filtered_TADAS_FILE
AAD_BASELINE_CORRECTION: BASELINE REMOVED
AAD_FILTER_TYPE: BUTTERWORTH
AAD_FILTER_ORDER: 1
AAD_LOW_CUT_FREQUENCY_HZ: 0.025
AAD_HIGH_CUT_FREQUENCY_HZ: 40.0
EVENT_NAME: 202302061024
EVENT_ID: 13207
EVENT_DATE_YYYYMMDD: 2023/02/06
EVENT_TIME_HHMMSS: 10:24:47.00000
EVENT_LATITUDE_DEGREE: 38.089
EVENT_LONGITUDE_DEGREE: 37.239
EVENT_DEPTH_KM: 7.0
HYPOCENTER_REFERENCE: AFAD
MAGNITUDE_W: 7.6
MAGNITUDE_W_REFERENCE: AFAD
MAGNITUDE_L: 
MAGNITUDE_L_REFERENCE: 
FOCAL_MECHANISM: 
NETWORK: TK
STATION_CODE: 3124
STATION_NAME: 
STATION_LATITUDE_DEGREE: 36.2387
STATION_LONGITUDE_DEGREE: 36.1722
STATION_ELEVATION_M: 84.0
LOCATION: Kahramanmaras_Elbistan_Turkiye
SENSOR_DEPTH_M: 
VS30_M/S: 283
SITE_CLASSIFICATION_EC8: C
MORPHOLOGIC_CLASSIFICATION: 
EPICENTRAL_DISTANCE_KM: 226.42
EARTHQUAKE_BACKAZIMUTH_DEGREE: 
DATE_TIME_FIRST_SAMPLE_YYYYMMDD_HHMMSS: 2023/02/06 10:25:06.0326230
DATE_TIME_FIRST_SAMPLE_PRECISION: millisecond
SAMPLING_INTERVAL_S: 0.01
NDATA: 14501
DURATION_S: 
STREAM: HNN
UNITS: cm/s^2
INSTRUMENT: sensor = GMS+/GEOSIG | digitizer = 
INSTRUMENT_ANALOG/DIGITAL: 
INSTRUMENTAL_FREQUENCY_HZ: 
INSTRUMENTAL_DAMPING: 
FULL_SCALE_G: 
N_BIT_DIGITAL_CONVERTER: 
PGA_CM/S^2: 21.757
TIME_PGA_S: 
BASELINE_CORRECTION: BASELINE REMOVED
FILTER_TYPE: BUTTERWORTH
FILTER_ORDER: 
LOW_CUT_FREQUENCY_HZ: 
HIGH_CUT_FREQUENCY_HZ: 
LATE/NORMAL_TRIGGERED: 
DATABASE_VERSION: 
HEADER_FORMAT: DYNA 1.2
DATA_TYPE: Acceleration
PROCESSING: Automatic Paolucci et al., 2011
DATA_TIMESTAMP_YYYYMMDD_HHMMSS: 
DATA_LICENSE: U (unknown license)
DATA_CITATION: Turkish Accelerometric Archive v 1.0 - Disaster And Emergency Management Presidency, Earthquake Department
DATA_CREATOR: AFAD
ORIGINAL_DATA_MEDIATOR_CITATION: : AFAD - Disaster And Emergency Management Presidency
ORIGINAL_DATA_MEDIATOR: AFAD PROCESS SERVICE
ORIGINAL_DATA_CREATOR_CITATION: AFAD PROCESS SERVICE
ORIGINAL_DATA_CREATOR: network: TK
USER1: GuestUser
USER2: 
USER3: 
USER4: 
[...]
-1.8199422278717516
-1.654203557979433
-1.3450437839367984
-0.9326229441904019
-0.4904189247048909
-0.0038652477143340585
0.5408824886835841
1.1276332165100542
1.6381427263545225
1.9177831692905236
2.0463239945344838
1.969841291143106
1.6466861755396973
1.0030084746958094
0.10102692177496723
-0.8565375025380088
-2.0602259427447867
-3.3549529217204275
-4.6467512263057404
-5.972637329167312
-7.116007966183392
-8.187250302931915
-9.087489823038865
-9.831361383229826
-10.490166247890789
-10.787435800705238
-10.7823291737564
-10.502494374145362
-9.971946317663217
-9.282912177768596
-8.247009968950943
-7.02708722789764
-5.8867875223269515
-4.7970656384080925
-3.853493166152758
-3.0657068257293014
-2.6469037637525923
-2.7597490864601437
-2.9568022725571828
-3.231652833818568
-3.8444430372626472
-4.549614120657071
-5.155386820983692
-5.650388420630669
-6.089061782207937
-6.511059533242968
-6.737353182740821
-6.784013242097066
-6.799845189404305
-6.661049818913044
-6.273614968280724
-5.717287483186481
-5.1799808323703465
-4.73380966795301
-4.195326192828844
-3.5745702797983694
-3.204815012122771
-3.022768699973358
-2.704550920351121
-2.3207490374829067
-1.9747349596422155
-1.7715787842850532
-1.5879528124587896
-1.2615947910855334
-1.113812173584574
-1.0997166294017182
-1.0127715110109348
-0.882745796044747
-0.7261487434503744
-0.6902201281409993
-0.6506165801439311
-0.5393040903506218
-0.6698656707529529
-0.973173825503416
-1.1794899508027914
-1.3149251005509388
-1.4435667014866993
-1.5814315278265092
-1.4911101103548496
-1.0405310620057397
-0.6519610323196102
-0.42048307910092286
-0.14767806173422307
0.12638850700160875
0.335680949650869
0.38265848247605355
0.4062635075820078
0.4996940487121001
0.37439148530481003
0.01832219368985838
-0.4307683201703043
-1.0393758429724254
-1.834242573645338
-2.7727220292626855
-3.576772424435728
-4.161410709447171
-4.784726406585604
-5.345552882088924
-5.669181314819395
-5.717270825201657
-5.640072199459416
-5.636371224199116
-5.479701358480809
-5.1268838327877235
-4.730051546596433
-4.273662440696574
-3.741857112199698
-3.0139553405355715
-2.1613917899567086
-1.415586258696523
-0.7017067151129261
0.015940088484568342
0.5009229951148152
0.7474528374357754
0.9261710745399877
1.0889869099347642
1.199743872319365
1.270486651459758
1.5408863056135866
2.0069328063428893
2.3907988338602193
2.696223063485477
3.0954794908439474
3.5671597098577688
3.873926582458132
4.039485790581177
4.335046620638882
4.722306568915088
4.9856021161098045
5.135756580177353
5.337213512706555
5.586362993186728
5.6921277351706605
5.692649672043474
5.860724236138749
6.198889233159386
6.516960813550179
6.849786420960405
7.37123475834957
8.059841573794595
8.71412459422029
9.266163152156514
9.798547515813947
10.305572724746284
10.600534783620164
10.657989520946842
10.820807004817402
11.097769840047741
10.844217737684064
9.994630158582376
9.47112774551191
9.519166533927548
9.618738623148241
9.659343339882843
9.813307717455706
10.17651423719677
10.470855423474385
10.55695285918383
10.610023782862301
10.575330386566934
10.469357704525855
10.331699227106347
10.270044982505926
10.300378126953868
10.111633829356228
9.629356758014497
8.93521158157569
8.042836596347392
6.838002259712912
5.326049373751836
3.7922295698061492
2.3148997871568686
0.9404854759650623
-0.26023055562931546
-1.2762385785912365
-2.0843797770494477
-2.820364471415858
-3.3951688283549935
-3.7216020063555537
-3.9654850364661716
-4.061692823266876
-3.921430009071337
-3.512235119390482
-2.8089321870317128
-2.0137066971129753
-1.1924605950840277
-0.1549937465716567
1.0190901703135067
2.167549130037952
3.235012303608282
4.187128945077277
5.15979115021423
6.005274261760945
6.6939810560898465
7.419831982341999
8.080792517299322
8.693047589237315
9.147380647816355
9.442885316594554
9.638787638830635
9.554923166374001
9.267507788220081
8.789013321346053
8.229543926150308
7.648508739571635
6.963627976460608
6.397446471550581
5.896074512676432
5.305916243361493
4.627308923719262
3.8359941978022674
2.9776893519307666
1.8594287098268383
0.4251698472819998
-0.9268943418095933
-2.0444194843402617
-3.0226767406967814
-3.8501874280240416
-4.483378047766436
-4.849056968197327
-5.191789104585648
-5.755615364929546
-6.263667990239046
-6.673677608403322
-7.212514235670076
-7.875009429779097
-8.585516147703785
-9.323412887495568
-10.245485766149388
-11.43869829557966
-12.69281490115828
-13.870861907984432
-15.103806162672782
-16.41191115934542
-17.53781673861491
-18.308544890953684
-18.83328116630419
-19.284758898274642
-19.518097755282707
-19.407638531027068
-19.150550168848493
-18.808950541685757
-18.353214229646987
-17.731668175880905
-16.950801065756448
-16.15562165476259
-15.197770929375118
-14.034931098278783
-12.912670270742556
-11.812796684643764
-10.603433887066899
-9.217886999393079
-7.828037251485722
-6.589836527996672
-5.222002247255565
-3.751499037113477
-2.4842307718792522
-1.4222719637230874
-0.5011856069072171
0.3766943406993565
1.025627941809354
1.2690481527965434
1.378947025542258
1.4285401253009846
1.4069936773415421
1.3572133324820255
1.348163518929475
1.5247417209103973
1.685856316959826
1.7214127488666526
1.8117230710591408
1.9170806653157566
1.9343999770607823
1.8714425361781974
1.7652047085182738
1.6377312054148676
1.3802866577341244
1.0341710894151228
0.7994101687262084
0.5834245707557445
0.3037373760944301
0.046919035680638495
-0.18447625651047855
-0.34184417476382317
-0.4569350624217433
-0.6543845075414865
-0.8610144709799558
-1.0413250496865822
-1.3159057573615804
-1.6894352423136267
-2.192803554005936
-2.907569389049668
-3.826437368523071
-4.901691169625365
-5.926218138218636
-6.931791216046809
-8.109792301906896
-9.223178437260378
-10.130879730480787
-10.906298042864258
-11.619399515677417
-12.176559715906995
-12.242119248318577
-12.000868799317022
-11.756135893624165
-11.312921030733085
-10.582173538372903
-9.719780719764866
-8.845848956545494
-7.927345917614818
-6.954920069442211
-6.004775407670817
-5.040849878294771
-3.998633756617115
-2.9714671646824247
-2.1632316071655677
-1.5336006759333585
-0.796608861544789
0.15658423346752906
1.2058501733374212
2.203380364635215
3.2036947264113342
4.297014515049198
5.325163268201173
6.166333618257592
6.8025788986167255
7.304838650772643
7.702210102244291
7.899811514329518
8.004755122305017
7.989632957777993
7.8590672286991605
7.7888902561947955
7.647219752477235
7.449956636489874
7.256940108287588
7.0330275741204895
6.904318839028164
6.8121437938504235
6.751376638590542
6.798612696807781
6.871145805853365
7.026846425603917
7.320927528976076
7.609382646862142
7.844174345123258
8.10334754259478
8.409267486091474
8.656793093600921
8.713784749706283
8.74174473001601
8.802428367953215
8.708977010687533
8.491926195182687
8.194232238742392
7.879669095550402
7.562478753005861
7.226998936186426
7.019175398724271
6.903870182851663
6.824474470757967
6.779515545522652
6.67835578649561
6.4882596154689285
6.151825093938812
5.65411312063454
5.19413957819065
4.832058538762588
4.397541744327516
3.9283953364341397
3.4668021260645467
2.9458367321793886
2.4057487579614945
1.7377480800701424
0.9735566074220903
0.34767558049417185
-0.23439510163443644
-0.7615387234516889
-1.0882770160518738
-1.2814245062957415
-1.3905921752154509
-1.5175206984720608
-1.5929904450051313
-1.5972655280702726
-1.747067503731056
-1.9784724932055218
-2.141380206939582
-2.244098628590923
-2.564494757621686
-3.2387802192434134
-3.9679950959984738
-4.6704865922100565
-5.493058885387997
-6.493419950942064
-7.521693606740627
-8.438111357189545
-9.347128089141965
-10.322215976102385
-11.241996338114745
-11.87834204288844
-12.335199299382253
-12.762338079517177
-13.005291564879
-13.061735198396658
-12.927415156975298
-12.59005529639246
-12.092824465808373
-11.421790147309151
-10.696131726296619
-9.914348590934656
-8.892569819942052
-7.6218076279288125
-6.28650329209926
-4.96504590576064
-3.5348537792635537
-1.9748577145353305
-0.43264613609270286
0.9730974003394629
2.1704026424389484
3.1640351978174612
3.8956252554201165
4.218547629845192
4.316294386176891
4.327682627153143
4.085923459898275
3.670948596559121
3.2919456014817774
3.102258907597324
2.9913252106765618
2.7628194975235756
2.673607143285766
2.805517677023832
3.023932098159391
3.371435552239164
3.8389986522971276
4.483440007984261
5.166505566315073
5.720741839901531
6.343489503272907
6.9432439769304395
7.216458078842569
7.171123432883191
6.829402672930579
6.234414339590241
5.529024265166603
4.681204031924118
3.734030284043311
2.7363686140881036
1.5055653383878116
0.06746235616025621
-1.5069263480594848
-3.2042119093245147
-4.899832006065828
-6.663208446534013
-8.349349811696962
-9.671064401870346
-10.748812779553422
-11.624584086125386
-12.280051200539544
-12.760520486221223
-13.014760404587955
-13.074650713801725
-12.851159861255734
-12.347130394441525
-11.618799110745146
-10.56462289623311
-9.313034400709492
-7.957700576819889
-6.64148786617264
-5.461916993976316
-4.2287818648150175
-3.0822387292529747
-2.1726048818817336
-1.4132766339870042
-0.9078949012127782
-0.7808649774917851
-1.0344470699630985
-1.6172144952891527
-2.3094255570709747
-3.022322130288758
-3.919728093349414
-4.834035390561969
-5.546152631570576
-6.136233156006094
-6.659617749841593
-7.059323086287037
-7.233932122932144
-7.1981296370498455
-6.97903801940648
-6.559968882243635
-5.968888921056088
-5.27819435148228
-4.606877516398877
-4.009981949853979
-3.4515027619182623
-2.97493347560521
-2.7151016276755557
-2.435992612829714
-1.8904926075380974
-1.3097246115390306
-0.817432353901615
-0.3273588433958593
0.31864522956988767
1.0981742347451515
1.7603408582381719
2.3567905865048933
2.9646733830404233
3.5329717936547236
3.948805768156859
3.9464527502343607
3.615989254436028
3.0934297680466245
2.265975035054298
1.2896776451185314
0.22190289107503022
-1.0023572692976142
-2.3506527621905122
-3.8440891102470287
-5.237055684588083
-6.545166058584688
-7.950932635664784
-9.071915089514667
-9.689655207627553
-9.840024091145851
-9.673216878100128
-9.399474055099255
-8.743629824931505
-7.6439267621242
-6.40027276520888
-5.064266509444772
-3.6949232819854307
-2.3134493028025984
-0.9249604994684847
0.26524199618834376
1.243490490692911
2.0556414500320983
2.5420057024276916
2.75811253034773
2.77511565022818
2.6152984018302785
2.3414196387448207
1.8440483616452712
1.3762777575939504
1.097747633948556
0.7050289097963061
0.29783380105476615
0.06492197160950502
-0.0338763825582271
-0.10600563261987953
-0.208769459229507
-0.10545805161070149
0.20336884047982492
0.4365377899827389
0.5361859966239132
0.618461991475275
0.7471926225021318
0.7691145059021196
0.6922761458451436
0.7818359882816363
1.0046387884845511
1.2183269351763355
1.4935526005342026
1.9065120400656663
2.5068872258542756
3.0975266837454143
3.4940196936466053
3.9399066297430143
4.354915998719836
4.457041990112206
4.362220795851812
4.214361779685599
4.057577023704104
3.697424587471015
3.0381162515974327
2.416900906689791
1.8297086164008014
1.0657440908264137
0.3139358080668741
-0.26044549574659176
-0.6521275010369734
-0.9006683906254529
-1.0384098406179645
-0.9223976760827393
-0.5881155284696923
-0.30782287310635775
-0.03698680735829506
0.39946595996963874
0.8333464974761207
1.0882269605129369
1.185282086632103
1.2943773843442554
1.4893767166184633
1.4636912784599407
1.1827199623091738
0.9138921163765618
0.6336480406764675
0.17295176613622817
-0.4160963115538005
-0.8657847861243851
-1.195416214805818
-1.5216406414194033
-1.6834556368208713
-1.645370142058861
-1.5270078285298054
-1.4166366199548326
-1.4349157679322224
-1.586405459639282
-1.8596542945785515
-2.4020538763002777
-3.174064759362982
-3.9387708494188027
-4.608783056751254
-5.323991232244829
-6.1322775272622465
-6.888962577966668
-7.683222527366888
-8.597761624253337
-9.481295419600428
-10.25055660824005
-10.806305273808736
-11.175021256175471
-11.463397847275324
-11.551926960642334
-11.389193716891578
-11.03133006867252
-10.466711500278285
-9.758364737149162
-9.141834403310666
-8.794548924706078
-8.636416772616304
-8.459665893734991
-8.155649125706391
-7.960569436145569
-7.984666041867388
-7.973661293286069
-7.842007052774575
-7.722448267873
-7.683820053707163
-7.502632901854629
-7.221558206976251
-7.024667092710706
-6.654351709521988
-6.125445656439339
-5.559117883043403
-4.928910213806595
-4.158496091943345
-2.9449205332273087
-1.3833400645534097
0.33006698607792756
2.3013655501329158
4.508532787762398
6.767841668681119
8.767015380029692
10.624916908685972
12.679966145148999
14.662608586267496
16.307643770452977
17.74152791681142
19.08384893925819
20.216796279994835
20.921569686017556
21.26617036196995
21.44376384240611
21.43038123622212
21.154020268194856
20.722849165797022
20.31049157202361
19.929121963135145
19.455307691604354
18.903054946813914
18.394350289644738
17.87117191980807
17.202981239150528
16.595619073644144
16.36023356558473
16.356521284986478
16.394102818971948
16.488774264058637
16.6733166373892
16.975520382124966
17.148596173846865
17.07245246364024
16.88007148592222
16.51977762453874
15.933603821879847
15.06594004779159
13.959840304428804
12.761303583463313
11.457435092025092
9.977647248674865
8.355510864377202
6.6226874658740185
4.737082282549023
2.8094187970730453
0.9241705973972824
-0.980921409255927
-2.986224379052305
-5.081980807358551
-7.045457825724078
-8.803511622353708
-10.491400555331717
-12.107712415045826
-13.463474376130149
-14.576638365359546
-15.600492014489324
-16.519405620238352
-17.377039619108732
-18.023000599578427
-18.38614384212282
-18.646351266233875
-18.679865519332242
-18.44298205218939
-18.05340051999412
-17.511584303807048
-16.898774858262342
-16.268461980850848
-15.64756516816102
-15.16031011895163
-14.654839712968737
-14.003083042247075
-13.569511287353853
-13.3641959044459
-13.060924490027707
-12.68455098136802
-12.261992873900844
-11.77026613356724
-11.121884285738396
-10.252572874683734
-9.327404901465057
-8.47672423198725
-7.668162622482012
-6.78229805669235
-6.010731756249833
-5.39095163229399
-4.703485407317962
-4.025618794063776
-3.370144104943301
-2.8911695927656926
-2.503050183949546
-2.050053928915827
-1.839794194178304
-1.7207487980558678
-1.5309117819008586
-1.3804642253768276
-1.3018433166131982
-1.3497039066330685
-1.3282331257030073
-1.0867675514516664
-0.857039036065045
-0.7901944754007726
-0.557795397387914
-0.09017631748756333
0.34371148324859147
0.8225269587025231
1.3800304229913316
1.9502747907301876
2.486432269635892
2.900519700675865
3.200145292468355
3.4067907114301725
3.5867546212492005
3.55669062517771
3.279647338404014
2.8333891899913586
1.9346364344702822
0.9628572570104623
0.13377582464036686
-0.7643394028663061
-1.534503099444736
-2.321276737506714
-2.8694738307258443
-2.968702885649265
-2.8951311260518815
-2.6223688294776193
-2.3241912573755994
-1.9077808253052102
-1.318536989825756
-0.6818194694890088
0.10225708164482158
0.9843122766629512
2.041538647342689
3.091037775746206
4.017953119467262
4.926439954354763
5.676384046239784
6.3641023379044315
7.050485037798946
7.713387811442218
8.230108373602954
8.446295291611007
8.656486515016176
8.791050930562127
8.555231634342142
8.256157212159566
7.9711492629708145
7.5791489854527825
7.14412849705009
6.577227778554522
5.99213307837026
5.390443118071169
4.678510416898475
4.031772992760138
3.389074589036404
2.685497278250053
1.9228495967320656
0.992587275908156
0.10137268293639493
-0.7444959690548377
-1.8735808240476814
-2.9317903089829236
-3.6530219139461
-4.2278666811877486
-4.665749405407478
-5.098181346889159
-5.234148223639542
-5.095769604216832
-5.118590784796985
-5.112480105582398
-5.1134553230176065
-5.034997444808316
-4.9232531566336855
-5.041682302146059
-5.011037268369172
-4.8352603540559675
-4.7143074125906095
-4.550478928601688
-4.330664131630957
-4.07028431320367
-3.8889515283847977
-3.74837892956867
-3.3846189022368542
-2.928117566228156
-2.5964716038156643
-2.153525963366428
-1.483928332980607
-0.6018122791712481
0.34079807006046436
1.2439443369626735
2.3928916316453424
3.6584477545564433
4.827807581268115
6.022741694562744
7.213398777819124
8.439264434958387
9.7158356370968
10.870134851736868
11.926150611866689
12.88230158970935
13.677123945438233
14.465697198729258
15.234222916773334
15.950185396169354
16.588707846745546
17.02449090014158
17.466724371883462
17.908156345934792
18.125192927815498
18.162317672478295
18.050629828567267
17.919463134552927
17.658615889675712
17.11086825755567
16.56297494657997
15.993333758017188
15.26230911629148
14.446190790943547
13.569475105628076
12.806378202457502
12.127795427167493
11.426653211834438
10.92380368264796
10.505288808829395
10.003340343542122
9.63200567417126
9.336203072244242
9.015818055806468
8.657162623940595
8.224770985974878
7.93278681482329
7.6996055244797095
7.258577433658587
6.656840907336581
5.981117011680698
5.290150523841165
4.496107264217718
3.49381187286567
2.500064339896487
1.5964146686429408
0.6159764066153823
-0.39519247959619697
-1.351110125095513
-2.2685926440631268
-3.2155936915881758
-4.142790976872114
-4.851165461001564
-5.443227938883147
-6.048362960668773
-6.529422933116639
-6.79342801004368
-6.911884466969795
-7.081936155697627
-7.3099907079172395
-7.382610289756467
-7.3383634568689455
-7.463571098955101
-7.777792594673872
-8.100170161820108
-8.421554386961198
-8.86494512755832
-9.48917882077609
-10.042500706680956
-10.39427442781502
-10.720155422668022
-10.907170446579453
-10.795219468448888
-10.443307985739038
-9.976786220983998
-9.460125673960135
-8.743687146643518
-7.88660247287357
-7.142063360994672
-6.421017510797717
-5.4851782120948664
-4.304185917903736
-3.136431917960551
-2.1951327312966193
-1.250627474648345
-0.2745271079037476
0.4367066117224143
1.0953989364109253
1.8999449912866162
2.65447061522006
3.393066356870171
4.216779129769655
4.932162889431523
5.192098106119472
5.126379468445836
5.308911019196652
5.815807509177432
6.277246872311526
6.391764095452407
6.17398249869012
5.960921214229319
5.715007048615917
5.220500061631714
4.826543933789662
4.749961566756009
4.761589766950279
4.575698384288978
