AAD_Filtered_TADAS_FILE
AAD_BASELINE_CORRECTION: BASELINE REMOVED
AAD_FILTER_TYPE: BUTTERWORTH
AAD_FILTER_ORDER: 1
AAD_LOW_CUT_FREQUENCY_HZ: 0.025
AAD_HIGH_CUT_FREQUENCY_HZ: 40.0
EVENT_NAME: 202302060117
EVENT_ID: 13194
EVENT_DATE_YYYYMMDD: 2023/02/06
EVENT_TIME_HHMMSS: 01:17:32.00000
EVENT_LATITUDE_DEGREE: 37.288
EVENT_LONGITUDE_DEGREE: 37.043
EVENT_DEPTH_KM: 8.6
HYPOCENTER_REFERENCE: AFAD
MAGNITUDE_W: 7.7
MAGNITUDE_W_REFERENCE: AFAD
MAGNITUDE_L: 
MAGNITUDE_L_REFERENCE: 
FOCAL_MECHANISM: 
NETWORK: TK
STATION_CODE: 4615
STATION_NAME: 
STATION_LATITUDE_DEGREE: 37.38676
STATION_LONGITUDE_DEGREE: 37.13803
STATION_ELEVATION_M: 581.0
LOCATION: Kahramanmaras_Pazarck_Turkiye
SENSOR_DEPTH_M: 
VS30_M/S: 484
SITE_CLASSIFICATION_EC8: B
MORPHOLOGIC_CLASSIFICATION: 
EPICENTRAL_DISTANCE_KM: 13.83
EARTHQUAKE_BACKAZIMUTH_DEGREE: 
DATE_TIME_FIRST_SAMPLE_YYYYMMDD_HHMMSS: 2023/02/06 01:17:04.8060700
DATE_TIME_FIRST_SAMPLE_PRECISION: millisecond
SAMPLING_INTERVAL_S: 0.01
NDATA: 10501
DURATION_S: 
STREAM: HNE
UNITS: cm/s^2
INSTRUMENT: sensor = GMS+/GEOSIG | digitizer = 
INSTRUMENT_ANALOG/DIGITAL: 
INSTRUMENTAL_FREQUENCY_HZ: 
INSTRUMENTAL_DAMPING: 
FULL_SCALE_G: 
N_BIT_DIGITAL_CONVERTER: 
PGA_CM/S^2: 582.121
TIME_PGA_S: 
BASELINE_CORRECTION: BASELINE REMOVED
FILTER_TYPE: BUTTERWORTH
FILTER_ORDER: 
LOW_CUT_FREQUENCY_HZ: 
HIGH_CUT_FREQUENCY_HZ: 
LATE/NORMAL_TRIGGERED: 
DATABASE_VERSION: 
HEADER_FORMAT: DYNA 1.2
DATA_TYPE: Acceleration
PROCESSING: Manual Paolucci et al., 2011
DATA_TIMESTAMP_YYYYMMDD_HHMMSS: 
DATA_LICENSE: U (unknown license)
DATA_CITATION: Turkish Accelerometric Archive v 1.0 - Disaster And Emergency Management Presidency, Earthquake Department
DATA_CREATOR: AFAD
ORIGINAL_DATA_MEDIATOR_CITATION: : AFAD - Disaster And Emergency Management Presidency
ORIGINAL_DATA_MEDIATOR: AFAD PROCESS SERVICE
ORIGINAL_DATA_CREATOR_CITATION: AFAD PROCESS SERVICE
ORIGINAL_DATA_CREATOR: network: TK
USER1: GuestUser
USER2: 
USER3: 
USER4: 
[...]
0.01104565128301277
0.012012638901347107
0.01286869907111823
0.008880895918939837
0.0057984299599780605
0.00774863940573647
0.009094489276907999
0.008980982130708508
0.009021524362041594
0.007612344261523967
0.008511083687072145
0.00901768944501777
0.0081551124909187
0.010146531411678749
0.010094267287227402
0.008924934782464589
0.009306211639510523
0.009486345735112724
0.00996442429010421
0.009702252287989765
0.009424899866369426
0.009939582580168728
0.009070445310505274
0.0089070643299414
0.010148620171695287
0.008125580812556517
0.006788435444678405
0.007260574903730347
0.006419261556608892
0.008011333489733805
0.00953804399282698
0.009722333780341819
0.009805145238989049
0.007980504371596853
0.0073255262013255116
0.009016640916283077
0.01009822156959456
0.00952759324376255
0.009799253559239243
0.010033373880099922
0.007934948760066384
0.007615230148545906
0.009526444234105537
0.008731975554721414
0.007159602993347108
0.008141467509255599
0.008409630106482352
0.008256389094131547
0.008318537917966344
0.0067036095820875346
0.0051608982038649515
0.006132255586916913
0.00876217148535508
0.008191335330733903
0.007681401047707224
0.009296622261504687
0.00884822883146267
0.009450294867439136
0.009908929574532264
0.010047171011377639
0.009564304957837819
0.007439577770565724
0.008113640941313567
0.008146477217319618
0.007329391956409625
0.0061627480041608965
0.006352510066786597
0.009575081737178887
0.008504420232617698
0.008051411865178437
0.009049584738262726
0.007347797286505896
0.007805975607227143
0.007165373906135569
0.0064974585956574194
0.006628674306735355
0.006353164899720153
0.009419855253008333
0.010583509659365373
0.009577403565663077
0.008501153643857564
0.007071633345026341
0.007784714395789224
0.009169212379927731
0.010208961986165306
0.00985416806650772
0.00785831044286352
0.006505587753032841
0.006984685623246238
0.008294552673055951
0.008982702044356042
0.00978924998616827
0.0075942660024028285
0.005755696514682004
0.009422865407935285
0.009693117138282279
0.008359309360721521
0.008235824318646112
0.005929742369006328
0.007874523033088316
0.010199358081265694
0.008210851034330353
0.006853907267611127
0.006942459172861948
0.007470082736280142
0.008361474209191063
0.008478161857113035
0.006245237649718516
0.005408552403833695
0.006606304397204863
0.006962714753691207
0.006374846812042283
0.006072435731625499
0.007389028622748108
0.0094472751852669
0.010927348746041652
0.010346101069504069
0.008267297514400786
0.005975161783593921
0.0059526180426862545
0.007519204192335806
0.005922111327382527
0.0033904595644695893
0.0013407931856235242
-0.0015367240024537591
-0.001048580343147515
-0.0005097027846452966
-0.003720243225559557
-0.005604059705279905
-0.007178331060381684
-0.008123382385613439
-0.007426612930792273
-0.009917501817822822
-0.013132527004381736
-0.015188024183434243
-0.015281174596095359
-0.013237317107888655
-0.014244666355796033
-0.014677044842870683
-0.011286285501599165
-0.00886800056520861
-0.009684003669242963
-0.012967879217242226
-0.014205310014063915
-0.010407158435692546
-0.008786594211757346
-0.011156088738920905
-0.013450492130584133
-0.014798630456575052
-0.012705632617436537
-0.018049468793069786
-0.029983529441240928
-0.03481564674529891
-0.04011244222347431
-0.04927493756300806
-0.06663930309555482
-0.08566884588311227
-0.10282671348426146
-0.14068549202911895
-0.1871295560902281
-0.22086856650888842
-0.2368874851748934
-0.25404217505132964
-0.292916305228201
-0.3128155916287373
-0.3242908833923042
-0.37215624916356865
-0.38670709954283866
-0.3047194171854226
-0.21343469044418478
-0.2039006251030773
-0.19513797815155795
-0.12036589924269922
1.4266844721488696e-05
0.1002465496197112
0.05628682631491235
0.025998253566363975
0.1880940196243084
0.3485672117002165
0.3090444009130673
0.22809251469028813
0.3770704995477528
0.472249841356619
0.3923586533059231
0.46712838348763724
0.5385045079503288
0.60634362818225
0.6907113888835406
0.5197918059122345
0.48125595369859125
0.5988546825479311
0.3087794438849467
-0.05386916361833243
0.060141587670072195
0.12839793457411802
-0.35393618838143737
-0.6873881462512469
-0.7834419383305466
-1.0628891467612
-1.211575579773837
-1.3797736186292653
-1.359938261748969
-0.9749334955049462
-0.9728695133264473
-1.3656380735132694
-1.3797609856471265
-1.1014669165713544
-1.3612712386089174
-1.4847554191582069
-0.8100635932817848
-0.23760667660654752
-0.40844338566143457
-0.9928513397823213
-0.944494585043919
-0.675297436131803
-1.440721139699087
-1.7698845362740114
-0.3188454578963939
0.8463325600422479
0.46790614415682275
-0.21286614204153473
-0.5341063764900951
-0.8994820997106847
-1.142993122910983
-0.5899013920620657
-0.20418180503088032
-0.7409744410573674
-1.268593383372484
-1.8656570969040263
-3.02378729524097
-3.9216723919120073
-3.3137188373587656
-1.611403935989412
-0.31818957248259055
-0.17802166966551772
-1.5040396617012728
-2.5286244306798236
-1.398898490078837
-0.11596158886166276
0.016609722346840085
-0.8584909132588866
-3.0485223924761393
-4.961245062128529
-5.6555667892846255
-5.334728242807879
-4.150928529067668
-1.5044929461161725
2.214647514353911
3.5733368725724306
3.9147267615552073
5.762503874216836
6.3082778233178045
5.13740264038173
4.860699190475329
5.975246112307972
6.544038639846186
6.652500206000992
7.984270024599547
8.244055067720497
6.638958848780722
6.185489009061503
5.267753387720123
2.6148343959473768
-2.2729825950801494
-13.830481692165442
-27.785720162789
-34.74804852229708
-32.035797073136365
-22.48632439598954
-11.43287793806248
-1.4269344814870009
6.388202221308392
11.315568090266463
13.269120652002135
11.88212769151427
10.08856191456932
11.244974978105905
13.490103852258718
14.779883978529186
16.164289573623368
15.038509222756716
10.68444068820481
5.919201699083787
0.8159390335951145
-0.8288701179690453
0.8316785855865216
-2.863439717040539
-12.095867534889015
-19.846748687969853
-23.879083410283123
-23.000213437835868
-14.864581055608536
-3.647659457510211
1.9404525779858113
2.722409835500259
4.743383861121532
7.0023714494512275
9.953973261693239
11.817482904373623
7.4666355552043955
1.7306504447907844
-1.0483994801939145
-2.234094381583371
-3.9817521976334103
-7.007358597148372
-7.5997622360756125
-6.675448085516073
-6.058697817916653
-1.2748468450169634
3.831644556659997
0.8985106556779986
-5.246416714143168
-7.342089028184096
-4.165598099952383
4.633434568818572
13.342649819458456
15.502112510773262
13.12810860123726
9.131188304627276
4.392954438672392
0.6652248645870105
-2.201293958458048
-5.882616153539084
-9.779407031991783
-7.971877600803949
0.12082913835079521
5.2896639336437
4.911431328086659
0.19337112272377438
-5.045124528996497
-2.3523534602188136
6.0933166563558965
11.636710371430574
11.018079514746745
7.668441180697354
4.181978000653981
-0.1549794296135256
-1.0086349904931675
0.512364993774903
-3.6684666887833424
-10.37091390790519
-11.832934792773884
-9.396740273019253
-8.679099411684959
-11.861005189474058
-16.734116201968597
-21.167673852510703
-20.664695830552038
-13.181066796631391
-8.602636733533888
-9.433202437890834
-9.907409175538822
-12.289466078397165
-13.666862261789852
-12.34209899034376
-11.112426068282321
-9.607282396353998
-7.753997463461064
0.6762271794151355
10.252273368532013
13.940335388761579
7.83544115055101
-10.041235574213319
-16.464315530656684
-2.014159915561096
15.339158308412843
12.05959132998728
5.905675150961814
9.839582745772683
-14.361737062016486
-34.962360060074126
-23.05647256499259
-9.513489472592262
2.2757199034776967
2.693114279227842
-11.514879989974226
-24.985733744489583
-31.600489612323912
-37.06639513413764
-37.748094234081336
-28.615397985140014
-23.274065456897745
-10.590347335746635
8.98652062434379
10.60782114575998
-5.628374245729445
-24.078348236790625
-13.597600334317601
19.701369536402208
31.513332955421305
28.542674371158473
19.676601153468752
-9.03345752035034
-24.988136868751152
-2.834849361283103
24.751338157626325
33.7573382493272
27.340297962986313
-5.006705343330288
-49.4893290900142
-70.38722092093266
-65.026909703812
-34.39188534716191
5.713141299796203
25.16215126326964
22.79131527850917
3.6372529193367655
-12.32806239502501
5.719502625268736
38.2700227563524
60.88561640335422
67.4964626093656
34.10221783898639
-9.257512906327102
-16.66081101738009
-2.2436770637213246
14.519774720736137
31.37599884994653
32.98386154541191
-3.2683974754969336
-45.27287344655044
-50.74108157258442
-30.64539594278714
-13.792747547706993
-5.502202489042876
3.9806307319616465
-8.039826577446195
-28.929486531248354
-17.814549320687455
-0.3130096199193778
14.082621279967054
38.10453422638928
51.12373071571486
50.4526536452493
42.366895652588006
25.640056847042366
2.2909656221649546
-23.35759423699757
-44.35987610501758
-59.8042876007078
-63.00068059602938
-50.445748772135374
-28.191163151919493
1.0717970370036383
28.55806064239545
45.02766213468298
50.716904858591874
43.783237879359326
22.9773686884266
4.7641346631273
-1.4727281640284298
-3.517860271610229
-1.6265941877767263
1.9923149853100777
-1.883233954779241
-22.992750668947888
-55.83286382247475
-83.35681594945468
-69.65019186283666
-5.849971348884275
23.659588272349175
0.42829537767727893
-11.290131538962163
-21.645281023412213
-48.48736349413129
-61.07822684136031
-45.25049748311602
-26.915819960128633
-14.499432851674587
12.79258319819861
49.94502587146113
72.07445668119942
78.9518611299727
63.38308588345648
-6.6980500251874755
-86.81941639359053
-116.9541115592787
-107.41238491189638
-74.41750047196858
-39.58658447134114
-14.421843885493908
-19.55868871972979
-62.28108933901851
-84.31007759152163
-73.3975450576109
-57.811521403009415
-34.18772704950253
-16.53040284847331
-29.53176450149097
-64.01285507778073
-87.21409431640676
-90.48358256436411
-97.45311954271503
-102.0660400423438
-76.7161655515771
-32.062855528987775
11.898010752456074
38.49483113164837
38.84141273133991
29.769158088711944
-0.3308553671930744
-47.16479353232816
-68.23147203399087
-53.44984011652433
-3.9595334816341863
55.64160655373391
88.51959627982717
85.93821993688113
55.26271547531332
18.29352888088658
-19.429010823387728
-49.994327836632955
-61.99941411200485
-66.30460422498838
-56.66248245494066
-47.28821053814347
-64.65573667007726
-87.20009294467049
-95.85250887542844
-89.33448798369685
-64.3823015573998
-25.066062456076242
22.515167383876133
59.040024334579485
63.858590774918156
54.29073919670337
52.7303099099076
37.76248082748769
-13.082725434856457
-77.67890186211227
-136.5243525061236
-150.0334137159029
-102.89233975035606
-70.62015905314196
-49.05014543229055
-18.151505922136117
-22.862560287568684
-42.726465544806814
-46.814180410293574
-29.319627257494
-4.844329460675036
-4.328352230829585
-17.925216794021683
-19.14184951991761
-18.041440168453548
-17.969894972008824
-1.9762078095281983
18.260166735529936
22.710389344773063
4.370890148127469
-32.7830077975927
-95.16936289353153
-147.69883455441652
-116.72220789739924
-29.58632503093827
31.17596443936966
57.76195332853648
76.17999092395469
81.46249112274324
86.48118081976912
107.71385844414151
137.00704134577987
169.75104436077342
179.38210188437654
156.4189767704444
109.00241516988702
36.67628127525498
-38.78633617049548
-95.90252554732301
-112.285478215696
-91.95388178208721
-53.6827619503736
13.058866423241962
67.73721871249698
71.29680583251508
56.86480117591674
28.294472899147785
-16.72814623346432
-35.36942100825243
-13.182147847746498
25.795671328902806
71.88095331015057
120.98863030032628
153.6341683888143
169.11456660489404
179.9724352745028
174.66787437641293
150.0470454848828
122.94137821461275
97.8046859985841
72.60915952608012
47.63513525654733
31.631238743398143
39.57334134125008
74.27141482753045
116.63107878462759
136.2296723522521
124.54785473163385
95.67995996867535
69.04251322515408
59.79666905938716
68.96006654217929
81.79764854744302
84.09934866408435
91.75249442110831
116.51369225705342
137.32162636764988
140.46364499897126
140.381714057399
154.30765533966616
170.38103299026938
171.98326635638955
164.20563284980156
158.05052542145435
154.48925951687602
153.4812033241526
160.17857201776474
174.18509372378085
192.3146894122264
196.87022256260312
180.4874957845705
156.5624892072756
133.93475585904847
130.62515170636289
149.41972776850628
173.4705645236778
188.61592468248065
192.82409421762787
206.41163938866686
235.2681865039392
275.72253266795815
333.37294096610356
392.4578409212325
447.9881171588114
505.0157388841685
536.0953106462581
538.1059332669493
523.7172840442138
502.5282047522412
492.8642831140285
481.4888844647409
476.40703383134746
490.751904132127
521.4192332734492
531.5081426907744
520.225864050467
552.5608241008439
475.4435170164164
226.89462161319463
72.80543313039807
31.805172765393472
-121.7894396787653
-291.49756893556724
-307.61393552081364
-328.3155809710822
-375.67213588623144
-357.71325848837733
-338.7597108986297
-325.8352482879465
-321.5760419241421
-337.190370235541
-355.13662957221015
-382.159470794372
-378.8946063884287
-324.185201108921
-295.4181345563446
-321.7246368285214
-349.83602874441686
-348.05649545801657
-307.97145288559176
-263.36629792657163
-229.6236175792754
-133.1135093240104
22.992587653731412
133.67511361121018
166.6184270522037
154.94326626439965
88.35010808895876
-41.00370211590804
-142.83001512249425
-183.69303855759742
-220.09231175185366
-261.0106370260221
-300.3150660917501
-317.95525007921935
-322.2165881869362
-322.6425887011303
-346.93857487693583
-388.8149993557607
-334.2330585840006
-205.26256117793864
-53.24643875214935
57.17226790986088
95.05610838806818
190.80349024259434
278.53547086823176
253.5564437659806
176.8116046992621
97.23186050373003
133.96160038755792
95.07710664297142
-133.338649545731
-106.7546112551764
-100.89810617990815
-244.54522677620838
-143.79001931117187
-150.14842069833696
-276.19868009326365
-245.57314041708185
-167.32663798388626
-192.52441836821686
-270.7816830585927
-271.1150656922698
-212.15971245297655
-212.46940810043452
-263.5834915383305
-180.2650108156662
-125.56385171798269
-165.6931697606275
-261.62916827848096
-384.4500814981534
-376.6049023786915
-393.7062772282615
-343.08828314037703
-208.23204492537437
-260.7778584825421
-285.1930888638848
-243.8253707241566
-297.47423562158457
-270.93256811403234
-260.28036279832344
-291.523254084991
-207.03141430328702
-146.3457417150668
-128.1447193546681
-98.94977435899047
-5.603305167503246
109.93442221040556
99.86278038509563
91.58830477244739
123.15669298818837
73.3338843771858
2.0285163837235367
-32.96089424999054
-63.492512463250534
-81.44151540192888
-63.5635217151508
-28.40252839876048
3.8760087314801144
17.535020914627456
8.276062128649873
-0.6064670246659487
7.976907138233775
28.030196853625014
35.51720560755343
50.69336717171129
62.691014451338674
43.1179978696981
45.088688253680694
48.24003893816523
19.356564725177545
-4.832738877690496
1.0790500345648422
-1.142226139327435
-69.31830908690648
-131.2224454461919
-147.675139004846
-146.10819136479722
-122.08944552504579
-118.20961727657969
-98.64278660111283
-30.921349452223414
11.179163452317237
43.89641395674355
87.1717837818773
101.00650338401809
103.23562866947641
96.92408713147815
61.90911644707881
12.02281338582622
-19.36174700166181
-49.374859831168685
-119.83270487660356
-181.66096681648264
-204.61923651720915
-224.43411976795417
-254.1708945001893
-271.9526373063332
-254.99250287739326
-228.80043172378203
-208.71011426394082
-188.42255007883045
-163.11697231386594
-110.31687081552111
-35.31267969257406
37.50788264475012
103.78237783178277
169.36153935386028
229.21615275331135
253.35591818143263
239.07027999521836
217.40291869552544
169.43032842115332
106.7083484619249
76.6237771196252
57.22167020789631
34.45419237377526
0.5623323950646196
-29.791996618969684
-31.53109107432343
-33.937550006905674
-39.981103376821125
-36.9607242369571
-14.31697905751117
21.130283043333
44.19025002183221
41.39418541057792
27.792042127223382
45.27475587330963
76.3094242490606
106.24417525412947
130.9509272111286
130.13523968789858
128.66802971256075
116.00309976228866
70.99095840669204
20.769445475354107
-21.197509035467263
-53.117623506893274
-56.663810778648255
-48.66824838785937
-43.16823287678213
-17.838742973667088
5.629249585911693
17.48879975060506
23.81467131805768
22.178697293238745
33.128838768110555
61.2379703107897
98.54640355661338
137.67731463505237
164.67291373547602
170.57455450244586
173.74911389209498
166.9320953867834
132.089555943565
98.09110529299235
84.10689392884585
88.95620712559676
100.95950343649103
105.05371255441156
94.10425594117247
67.20304433842138
36.402972609311746
7.308285105021543
-36.290128306091084
-22.729502134494734
73.52363353006135
107.85303255188964
93.68134137566838
101.57739376594114
106.96117243425095
95.9233349274393
70.69783119991912
67.47410441999469
62.57567072097499
59.86070480249903
45.71310293652839
2.219155984116868
-39.94580774924252
-89.54888937740905
-126.67656833579632
-150.61862828506327
-137.2221648880251
-109.46151518773647
-103.70201821646613
-107.03938248770888
-118.34840434525648
-84.8464245255437
-41.611092457531406
-27.12806804231014
-0.4279939305883813
43.119017392163045
80.08223422508287
110.03582680334472
133.09128461241008
120.7904799356268
108.29115725203745
119.52314110101378
130.95869631441445
128.721791757202
104.3031376528614
80.08821034204725
62.42576375102717
38.100772544219055
25.294289572793396
34.84323823663724
49.28043086445493
67.26369131961359
76.74884406534103
69.14860386812717
56.7534552897766
38.84428060543246
28.335748580631336
30.386670733199416
32.436592999015474
29.973707398917572
25.94285607234354
9.75725848658565
-30.467431275519054
-75.67854359245737
-114.3593740026649
-140.3350203580498
-136.24924805762885
-108.80845050400976
-85.68164335308914
-73.2013536176814
-67.62258668282982
-74.3463650852857
-80.90696089207981
-72.19585053902178
-41.88747713462263
3.1026725200785794
48.029359418036194
79.66349124083897
84.46658696713187
82.62949704199906
92.40906635901382
112.10692202897322
148.57471319597929
190.9613997882794
230.65557515457206
267.76577746583536
