AAD_Filtered_TADAS_FILE
AAD_BASELINE_CORRECTION: BASELINE REMOVED
AAD_FILTER_TYPE: BUTTERWORTH
AAD_FILTER_ORDER: 1
AAD_LOW_CUT_FREQUENCY_HZ: 0.025
AAD_HIGH_CUT_FREQUENCY_HZ: 40.0
EVENT_NAME: 202302061024
EVENT_ID: 13207
EVENT_DATE_YYYYMMDD: 2023/02/06
EVENT_TIME_HHMMSS: 10:24:47.00000
EVENT_LATITUDE_DEGREE: 38.089
EVENT_LONGITUDE_DEGREE: 37.239
EVENT_DEPTH_KM: 7.0
HYPOCENTER_REFERENCE: AFAD
MAGNITUDE_W: 7.6
MAGNITUDE_W_REFERENCE: AFAD
MAGNITUDE_L: 
MAGNITUDE_L_REFERENCE: 
FOCAL_MECHANISM: 
NETWORK: TK
STATION_CODE: 4624
STATION_NAME: 
STATION_LATITUDE_DEGREE: 37.5361
STATION_LONGITUDE_DEGREE: 36.91765
STATION_ELEVATION_M: 466.0
LOCATION: Kahramanmaras_Elbistan_Turkiye
SENSOR_DEPTH_M: 
VS30_M/S: 280
SITE_CLASSIFICATION_EC8: C
MORPHOLOGIC_CLASSIFICATION: 
EPICENTRAL_DISTANCE_KM: 67.65
EARTHQUAKE_BACKAZIMUTH_DEGREE: 
DATE_TIME_FIRST_SAMPLE_YYYYMMDD_HHMMSS: 2023/02/06 10:24:33.7197830
DATE_TIME_FIRST_SAMPLE_PRECISION: millisecond
SAMPLING_INTERVAL_S: 0.01
NDATA: 10501
DURATION_S: 
STREAM: HNZ
UNITS: cm/s^2
INSTRUMENT: sensor = GMS+/GEOSIG | digitizer = 
INSTRUMENT_ANALOG/DIGITAL: 
INSTRUMENTAL_FREQUENCY_HZ: 
INSTRUMENTAL_DAMPING: 
FULL_SCALE_G: 
N_BIT_DIGITAL_CONVERTER: 
PGA_CM/S^2: 38.611
TIME_PGA_S: 
BASELINE_CORRECTION: BASELINE REMOVED
FILTER_TYPE: BUTTERWORTH
FILTER_ORDER: 
LOW_CUT_FREQUENCY_HZ: 
HIGH_CUT_FREQUENCY_HZ: 
LATE/NORMAL_TRIGGERED: 
DATABASE_VERSION: 
HEADER_FORMAT: DYNA 1.2
DATA_TYPE: Acceleration
PROCESSING: Automatic Paolucci et al., 2011
DATA_TIMESTAMP_YYYYMMDD_HHMMSS: 
DATA_LICENSE: U (unknown license)
DATA_CITATION: Turkish Accelerometric Archive v 1.0 - Disaster And Emergency Management Presidency, Earthquake Department
DATA_CREATOR: AFAD
ORIGINAL_DATA_MEDIATOR_CITATION: : AFAD - Disaster And Emergency Management Presidency
ORIGINAL_DATA_MEDIATOR: AFAD PROCESS SERVICE
ORIGINAL_DATA_CREATOR_CITATION: AFAD PROCESS SERVICE
ORIGINAL_DATA_CREATOR: network: TK
USER1: GuestUser
USER2: 
USER3: 
USER4: 
[...]
6.1267492482328105
5.040957186261716
5.59703547568779
7.254050724300376
10.688887865105555
16.27140807353643
21.73857902573986
24.910227875666134
25.31988693270975
22.869804740560575
18.12472429566273
12.66917046087983
7.675627832018291
2.957624899608236
-2.4812362043666134
-8.53126949463437
-12.65262970856966
-12.858998278139245
-10.45407119328772
-7.895834929488259
-6.120525246045038
-4.573761426499303
-3.45913844503844
-4.404550456860566
-6.978546326018677
-7.800880919770762
-5.309053913836458
-1.6071045816201925
1.3354831266972946
4.135289935209501
6.776920998025267
6.932254457952479
4.422318354699463
2.016796594621783
1.5034357795120599
1.8522307553761521
0.9701853932965384
-1.4062066389979213
-4.682481702308427
-8.785164708341224
-12.982186155229195
-16.00073524688058
-17.687934809493193
-19.419420235366243
-22.126291406787455
-24.4637675358314
-23.9698821467138
-20.19969391296853
-14.799339119538118
-9.312445265331107
-5.24489848404788
-3.9226659668867607
-4.910641615329684
-5.960149614096702
-4.648369648302014
-0.16958862768956662
5.838278612324318
10.398711810260222
11.968312439769948
11.849452767298063
12.06970328688993
13.514192156221664
15.926419995093001
18.117655391652256
18.881715632150666
17.012982328163584
12.079214791585695
6.172982739186265
1.683832753667291
-0.7798706283080212
-1.0761675429242679
0.5293197561260969
3.190427092151694
5.993197544691128
7.1923239872561515
5.226253780076486
1.2220428332690991
-1.9284206980572327
-2.309686742852079
0.019672079084868503
3.264351324688396
5.434346970689684
5.848184579521304
4.596772053663954
2.128838444793162
0.10592390575713159
0.4017897130538259
1.7290881717581197
0.1982718588578385
-4.880807931042951
-9.576493565905144
-10.759515769258076
-9.469957950439428
-8.609502485865523
-9.389158153878029
-10.987186445462298
-12.70623022995838
-14.960786401523634
-18.00296801764233
-20.556285682487893
-21.16670127958262
-20.639774812835334
-20.89997195571558
-21.510876211593164
-20.279479035963355
-16.892109976454645
-12.80597402082331
-8.529200623847075
-3.697642037453689
1.1032801515846338
4.721430505717948
6.402579224628648
5.85987539243803
4.235305677087426
3.566616932655329
4.692525561384078
7.336656503711305
10.34455198180355
11.715311695248287
10.766890862947214
9.36934183368579
10.300004870614258
14.543533720473164
20.336773892817565
25.049578118100783
27.33733753595434
27.73381428683344
26.861399957261447
23.162212735610808
15.003642783043459
4.738138122509463
-2.3227367681968243
-3.151909831453627
0.2176079252763585
3.850617144682935
6.290222800987273
8.123585721324151
9.869225604675266
11.12004544363466
10.08727503474476
5.929622300236359
0.4856060722637933
-3.884387462187698
-6.458579492345952
-8.774089472830173
-12.375006275973872
-16.336099074590848
-18.288325644291405
-16.829774912231482
-12.64520627622053
-7.348674929134013
-3.0577002099152852
-1.646778834269826
-3.667470978181401
-9.152095644139678
-16.73542130283783
-24.462997219407647
-31.13157119408343
-34.96318702918739
-35.08591651040551
-32.29072837832532
-28.11676498417607
-24.48574105517686
-21.78104827856929
-18.95144404190087
-15.135785282423296
-10.195147369216718
-5.112766325693095
-1.2364359184341787
0.9923459717641377
1.865681284968334
1.910685714547622
1.598176035323524
0.762067081023121
-0.763519880149328
-2.335160820056893
-2.947791252737287
-2.29128238337512
-1.063802740751097
0.5046488180488773
2.4967215914786647
3.7815522352867292
3.4403324799358677
2.23101221144016
1.1466460898121098
-0.18345992209515666
-2.257550936067907
-4.089846885780238
-4.770909420567688
-3.54978200947442
-0.34183512050400616
1.9196531391765155
0.28617852137692834
-5.61477338879585
-13.808286358755783
-20.300044223657686
-22.075707020386623
-18.564631056749775
-11.379952323529048
-4.140514709785196
-0.09514546700371158
0.3987254617198561
-0.42707815915706876
-0.31962028692922173
1.2823247059860998
4.026524706125783
7.9851576198883825
13.300074591628041
18.45698122545572
20.01549220544822
15.84302324308743
8.008512919572318
0.9854417630820482
-1.836218273144824
0.19985823544298076
5.380570964104878
11.167039110385598
14.529168492612651
13.147434362817366
8.592953375548165
4.99360851597666
4.392171197969062
5.440188410225382
5.600281054841094
3.923607594770079
1.0518293099049159
-2.1390165281454117
-4.21602838030599
-3.5550028019857485
0.11687219957314891
4.975936348529852
8.464230299519404
9.717997549443213
8.959792166117847
6.626099273991429
3.9730941475172084
1.9470502733124007
0.5995808115334511
-0.42869029582970564
-1.0494220024215595
0.19882178620727672
3.978167574752741
7.300781329656504
6.4006551923710955
1.8811746138713739
-3.021851123152014
-6.714239400726559
-8.559838835260662
-8.233875152533436
-6.124533685689045
-2.2257523492381095
2.7194088173687065
6.392828985759722
7.783862327370963
7.963033105570309
7.647694267223526
6.27083681751197
3.0233442429395345
-2.155593206340876
-8.169880410493144
-12.775425366303347
-13.899913753954282
-10.773847534730532
-4.0980064650354695
3.813794351449579
10.647451177747211
15.47171719396511
18.03311214770693
18.224708859805812
16.330452681200487
13.768571825606305
12.926560548826405
15.275614416283506
19.828222061355387
23.860376313301064
25.25290401018161
24.188437812418663
22.663496991669934
22.276659023935675
22.597498370869328
22.18640138104461
21.05851036497477
20.458474569973742
20.57443196230834
20.090100860680725
17.586049404661313
13.158771452984006
8.372771193599428
4.742577918773822
2.743754400573653
2.1190322329567244
2.742249047983614
4.561943863605158
6.633925008765065
6.783226243181919
3.7966693927656716
-0.20991208103590459
-1.659178007406783
0.6715624066303543
4.734372147779876
7.563062109726604
8.1939253615263
7.917942582081409
7.405466910575152
5.709154880504173
2.3092094469138726
-2.301846710140469
-7.08529777775362
-11.10140897906495
-13.909778554667707
-15.315186224554836
-15.444138218429842
-14.028419860942805
-11.312718385613552
-9.23632845867152
-8.561621265448606
-6.935881502150708
-2.0715393577847547
5.041458643269954
11.469607380563291
15.125813913278007
15.975486108796272
14.978651844368555
12.240654762375367
7.781019472989744
2.876485581917556
-0.9151316200642063
-2.9405231395367255
-2.972990471789873
-0.6423126170170987
3.6376032282976696
8.290402619379938
11.853397184467239
13.833125242075656
14.539341330044566
14.25232077015669
12.988831867909985
11.033428408892815
8.825362110627593
6.88209893999988
5.2122090741268465
3.0855320415289187
0.7173240803130696
-0.2759072529097978
1.2825877105052381
4.992503708492442
9.23717222352969
12.164911814483878
12.904176601208896
11.791096841644324
9.891556806277668
8.438784103335392
7.850870779304576
7.656282020462465
7.572886297851
7.662581871078717
7.725173528224322
7.394639872245661
6.23477948148985
4.011678832936051
1.1738268753006644
-1.3354671706129977
-2.615936327852303
-2.1094507693445026
0.12849797685668918
3.4578062506206986
7.14531694660577
9.680869228917182
9.500406460027875
6.764648260780506
2.260032210473212
-2.8906877370968562
-6.648658528705084
-7.151239773850236
-3.921477314511623
1.2066688364413596
5.394881851806381
7.538100064406639
8.232328734837637
7.555086681946962
4.976055126798245
1.5886314154476129
-0.06886283535555213
0.9566013302266179
2.475064626074073
2.1123742276080892
0.7131515244079009
0.5896960515469275
2.360011845597009
4.754656676228177
6.132718408874817
5.726561459669757
4.262699037748449
3.0937023377824535
3.1668998764348157
5.562330279780607
10.216849885830623
14.734678831464766
16.78257835949438
16.405350888912228
15.640335658628416
16.285409912386186
17.618684566993412
17.28390663597682
14.69085906174487
10.883519024607915
6.5900028732553935
2.0360466188891513
-3.0686739846426025
-8.124954085039596
-11.049182024038753
-9.860591427144692
-3.9576059027552484
4.575933928513306
11.81499747359258
15.406965095006468
15.365590467280265
11.969542158221502
5.592726852679327
-2.0900838635803423
-8.262518453437865
-10.114087369636877
-6.807703677174649
-0.6459924193742379
4.453288997766752
6.157567992096414
5.441446909424852
4.829301363262082
5.758680335622551
7.821114732220493
9.231336906738797
7.877061527802881
3.3363907263766976
-2.1089057952264962
-6.36629497661526
-9.743279386120657
-13.12147473034455
-16.51730256951822
-18.45658326552374
-17.089253864472127
-12.291821709823337
-5.696033778175534
0.28073507942627424
4.190848521264522
5.260805719373648
3.2019815848809703
0.4063382878818483
0.4790197094672707
4.449148095242934
10.234883692877403
15.26229620755874
18.559283968183813
19.836249491126566
18.155855100756963
13.138686722311823
6.285235042787677
0.48608224955360557
-1.4678942307282459
1.1198403213473092
6.577814776374376
12.355640738680703
16.351039606264756
17.449710541490536
15.34327956044932
10.865475638926624
5.599215152888443
0.4495550076162077
-4.146851667944146
-7.598476934558454
-9.596356255493522
-10.263631295855431
-9.922906159580142
-8.97719849208054
-7.8938731710544126
-6.880748113532029
-5.388573549473666
-2.480259415584694
1.7753626184637523
5.688621007360533
7.86751386577919
8.69819570929904
8.938751930874398
8.67315470100365
7.5951933585878555
5.77061943004394
4.229926824647475
3.9081131403332803
5.0672461865450575
7.497264571949701
10.19827952905664
12.136906712238543
12.857855166592866
12.036345231039943
9.7138369832199
6.1929608491244315
1.328341991361081
-4.4688377865373905
-9.189839985834698
-10.449860598324939
-7.498955342701119
-2.3298524592871397
1.8555154053661436
4.063626800884926
6.298411999099457
9.65898605813201
11.82189648184572
11.005482069966247
9.145426892236795
9.219288341735913
11.82124550264358
14.866015267485034
15.663781876162199
13.14815738210765
8.448083232413019
2.9132220290960134
-3.131149677447308
-8.979876431523332
-12.642957088987632
-12.46266110606994
-9.493318890095422
-6.6024912054007
-5.434751455208408
-5.443786626930652
-5.089488595004395
-3.675437509174233
-2.299129624636935
-2.8460557341933534
-6.119363982491463
-10.809328383949998
-14.634518958056375
-16.84191529368643
-18.007171143049636
-18.265780455560364
-17.741830489340046
-17.064938403629643
-16.74467449803791
-16.908422646524308
-17.324494517349333
-17.26230442777876
-15.592283861087662
-11.765458888084867
-6.607482646696619
-1.6261056906149514
1.8109325138537782
3.1674693902453273
3.273629877233822
3.341385189440636
4.193439438193176
6.419602225565072
9.960223326738399
14.124616521018062
18.337535066769565
22.139596878284582
24.983020567884903
26.53321505097754
26.181421782039124
22.781422239615264
16.598476496839854
9.927214705539438
4.327930418772609
-0.3333199648285219
-3.848591713156641
-5.185225112579305
-3.850554358152024
-0.592265506904471
3.2305020357666643
6.743631268265765
9.42818182840784
10.726112423187491
10.752854997472195
10.28230840943044
9.724840581225042
8.862566232311133
7.61754051835811
6.0663602025352015
3.626688406952559
0.018568179262423545
-2.994442817045138
-2.8495984973424733
0.3528514963463548
3.2624635510273223
2.9461770299541
0.22331210520526465
-1.7551844764240978
-1.5517569432001703
-0.10013019501067874
1.1813885499691485
1.619997244293448
1.9648349956762006
3.0668041094411502
4.604254006500584
5.885840605903633
6.509394353963236
6.62711168728562
6.427110061786919
5.38831937992692
2.6981116704337254
-1.4765574851258267
-5.628825755892277
-8.482812687712284
-9.67529008215173
-8.999514397475908
-6.690645148906947
-4.434585452499947
-4.330520731246796
-6.91152259512507
-10.986498339181571
-14.353598628407905
-15.310215317321587
-13.568750543774314
-9.705071766964004
-4.918701036016999
-0.6565908390870904
1.279211473449533
-0.4992475038513619
-5.29105402628143
-11.719125548392567
-18.720975241641746
-24.488846892703325
-27.123514984446224
-26.29859628809654
-23.5362998203623
-20.279417671348575
-17.25610216214155
-15.191566531426307
-14.383074569713328
-14.832052046857406
-16.396658258521963
-18.290146084324817
-18.93288594411171
-17.24213342262608
-14.222334590326167
-11.898298509487814
-10.961734851231881
-10.733911700428816
-10.800826213131291
-11.45010155366606
-12.98513162783323
-14.775564534745195
-15.433780546011326
-14.800127786117166
-14.501255731819773
-15.674188178573818
-17.732321025911723
-19.84308596847192
-21.65267232154754
-22.560136260842704
-22.048528125670103
-20.539476209030365
-18.673835200227277
-16.584255070776614
-14.897026289178552
-14.992828819348231
-17.47415430577091
-20.8304280107235
-22.411047762138594
-21.326461978580895
-19.10849167214019
-17.235652598208677
-15.85909464345563
-14.736974098877635
-14.020672856790592
-14.2604125017102
-15.95962250927902
-19.515799008864313
-24.93106987392601
-31.025906875338478
-35.917998349944675
-38.12293768081148
-36.961849105321235
-32.698990073366396
-26.718768336360636
-20.589763690281792
-14.991996938039476
-10.445404519169864
-7.624749195121409
-6.575061105920787
-6.61560564641994
-6.832467131849224
-6.328044935514551
-4.593769498409526
-1.9797451995597142
0.45461515912738826
1.442949570532329
0.9306430919425228
0.32664294239129094
0.955129183137786
2.6505883988914674
3.5168966867776272
2.5109572696595577
0.5107410290792946
-1.1101879422762142
-1.7960787054046077
-1.9646119037834064
-1.2584397717400013
0.8236280355365564
3.658234019848247
5.710186691744678
5.182954472553368
1.865709234133557
-2.5696499423798205
-6.000520478276931
-7.315215131435466
-6.979454192320955
-6.092669868555048
-5.172747584600403
-3.976583421889554
-2.952340645816734
-3.6368799384844235
-6.741933197742712
-11.36335283629992
-15.799311953067496
-18.403221422202563
-18.16283948560235
-15.383749781809227
-11.636287969655207
-8.200495752848488
-5.362822673269977
-3.0610203442780106
-1.4855533293735212
-0.8771999893361411
-1.1027982903676472
-1.7911553199713175
-2.022320582983169
-0.4678972584892915
2.921026089994226
6.520710967374575
9.236031726954105
11.366186694054074
13.17461521885824
13.968914174387956
13.120987121372044
11.393226203806028
9.764893417593333
8.360247368085188
7.341480227939321
7.419319790055161
9.041102191876568
11.724492509602024
14.76981330810257
17.400103725070913
18.69086117091147
18.29208545564254
16.269972239556758
12.81905128878741
8.356739659445605
3.4435791332157737
-1.0227349787543385
-3.888798194533126
-4.73628088081638
-4.620715063271256
-4.848412808766113
-5.637723742121117
-7.043997806254992
-9.586829049515314
-13.473062019054307
-18.100766099565217
-21.756355188030156
-22.65178104485653
-21.064714475868488
-18.877373912114905
-16.891930814526468
-14.281457584409129
-10.591934057915541
-6.5288096546681595
-3.076377091571063
-1.0677386737060763
-0.635202598234555
-1.076643550753229
-1.7620829181225697
-2.0880662982012264
-1.3507125090355527
0.37204714890568685
1.9863763457421584
2.175847691005966
0.38086073123179215
-2.4615426048352678
-4.1983082843307855
-3.5502755459162967
-1.1743805388253592
1.9898959713402722
5.861208852335296
10.368741408083862
14.506976489791851
17.002382634630855
17.15826510562285
14.865787892093996
10.860899774256795
6.769585725217696
4.575273653882906
5.4281370169596315
8.806779643441942
13.047264934635374
16.265723692025716
17.429743216933797
16.50668454864594
14.364921660714625
13.087423484792902
14.064998091680616
16.38144675003905
18.469046761661673
19.686835448386454
19.89630642992126
18.903227452977656
16.562540327054947
13.260391680729152
10.031985822805014
7.4616576609586875
5.354732506976424
3.5471470327599985
1.9809438546812852
0.6969749203711273
0.1438444864518834
1.0560794734690748
3.694831354219252
7.1087032441443325
9.535834009858059
9.836028163285059
8.63804667060387
7.673210387526155
7.771429736219354
8.059062241637697
7.190270665374188
5.349434562288135
4.495355208562824
6.22531510977099
10.011286700248526
13.915005376808256
16.768352305512366
18.92136162819016
21.069793480086744
23.402969736096157
25.953493208021058
28.593958035698027
30.75117380884558
31.593696490076983
30.970826023320427
29.964095310984643
29.17219953801304
28.40753601741449
27.77524021588583
27.38788175489696
27.34163930272744
27.207071944849663
26.08261689715886
23.74665796443252
20.674109808737988
17.755358670966555
15.82610500509749
14.716868899952503
13.294943463451155
10.73772666597406
7.683523691663116
5.488268177743992
4.444170014442072
3.6418300172794846
2.4359112860574377
1.3510903252642519
0.8499239554248964
0.08762015249071589
-2.2439271871936928
-6.433507237820305
-11.288855885628125
-15.249626190038894
-17.545521215339537
-18.230109814047264
-17.696134656490873
-16.217591596700025
-14.159366945115726
-12.536004285035471
-12.397430923944922
-13.97524558349289
-17.099010672465496
-20.99275765219262
-23.662198594848547
-23.600764571034368
-21.67355451592332
-19.64932158757493
-18.3332559856534
-17.83500565197583
-17.980682460466618
-18.191010600896334
-17.302861940044952
-14.711604110683956
-11.789738432164098
-10.374888214297593
-10.556268385938816
-11.131064121926247
-11.11471746192411
-10.405050070538705
-9.152849621735323
-7.071112534253259
-4.565607927392007
-3.017473666625717
-3.0083925154514
-3.577043015923527
-3.4663200128581773
-2.459119413222808
-1.1562409536133373
-0.2654476547909779
0.3427616260995718
1.708468375733755
4.005735435221725
5.8784913734546995
5.270936753718721
1.1574917139997893
-4.874333876411712
-9.943530531386706
-12.399374184691279
-12.555158292494085
-11.87993991312216
-11.355588360747813
-10.52200834004773
-9.029043160588085
-7.958405402240047
-8.19442221565417
-9.058763703434755
-9.358570850545354
-8.691358997425054
-7.807622547877161
-7.969916264514505
-9.790234327194367
-12.29351841730297
-13.295182576635664
-11.535586150657972
-7.569563241360991
-2.9815703490578156
0.9248078242292829
4.056036015033349
6.0132189970940475
5.626922774776
2.8629641351422532
-0.7238194083736915
-3.4077398184396666
-5.071596879925634
-7.014147938528912
-9.74654457293364
-12.27594314235384
-12.982614959318873
-10.574556452613962
-5.417969940559265
0.5934763523291395
6.0983425953581625
10.9362869134382
14.685115267657306
16.247387401672196
15.05269635083687
11.765615486400623
7.978985109945329
4.9755757766444155
3.096544389192149
2.323265621551267
2.64397643542461
4.034439197690742
