AAD_Filtered_TADAS_FILE
AAD_BASELINE_CORRECTION: BASELINE REMOVED
AAD_FILTER_TYPE: BUTTERWORTH
AAD_FILTER_ORDER: 1
AAD_LOW_CUT_FREQUENCY_HZ: 0.025
AAD_HIGH_CUT_FREQUENCY_HZ: 40.0
EVENT_NAME: 202302060117
EVENT_ID: 13194
EVENT_DATE_YYYYMMDD: 2023/02/06
EVENT_TIME_HHMMSS: 01:17:32.00000
EVENT_LATITUDE_DEGREE: 37.288
EVENT_LONGITUDE_DEGREE: 37.043
EVENT_DEPTH_KM: 8.6
HYPOCENTER_REFERENCE: AFAD
MAGNITUDE_W: 7.7
MAGNITUDE_W_REFERENCE: AFAD
MAGNITUDE_L: 
MAGNITUDE_L_REFERENCE: 
FOCAL_MECHANISM: 
NETWORK: TK
STATION_CODE: 3135
STATION_NAME: 
STATION_LATITUDE_DEGREE: 36.40886
STATION_LONGITUDE_DEGREE: 35.8831
STATION_ELEVATION_M: 3.0
LOCATION: Kahramanmaras_Pazarck_Turkiye
SENSOR_DEPTH_M: 
VS30_M/S: 460
SITE_CLASSIFICATION_EC8: B
MORPHOLOGIC_CLASSIFICATION: 
EPICENTRAL_DISTANCE_KM: 142.15
EARTHQUAKE_BACKAZIMUTH_DEGREE: 
DATE_TIME_FIRST_SAMPLE_YYYYMMDD_HHMMSS: 2023/02/06 01:17:36.5370290
DATE_TIME_FIRST_SAMPLE_PRECISION: millisecond
SAMPLING_INTERVAL_S: 0.01
NDATA: 12501
DURATION_S: 
STREAM: HNZ
UNITS: cm/s^2
INSTRUMENT: sensor = GMS+/GEOSIG | digitizer = 
INSTRUMENT_ANALOG/DIGITAL: 
INSTRUMENTAL_FREQUENCY_HZ: 
INSTRUMENTAL_DAMPING: 
FULL_SCALE_G: 
N_BIT_DIGITAL_CONVERTER: 
PGA_CM/S^2: 588.966
TIME_PGA_S: 
BASELINE_CORRECTION: BASELINE REMOVED
FILTER_TYPE: BUTTERWORTH
FILTER_ORDER: 
LOW_CUT_FREQUENCY_HZ: 
HIGH_CUT_FREQUENCY_HZ: 
LATE/NORMAL_TRIGGERED: 
DATABASE_VERSION: 
HEADER_FORMAT: DYNA 1.2
DATA_TYPE: Acceleration
PROCESSING: Automatic Paolucci et al., 2011
DATA_TIMESTAMP_YYYYMMDD_HHMMSS: 
DATA_LICENSE: U (unknown license)
DATA_CITATION: Turkish Accelerometric Archive v 1.0 - Disaster And Emergency Management Presidency, Earthquake Department
DATA_CREATOR: AFAD
ORIGINAL_DATA_MEDIATOR_CITATION: : AFAD - Disaster And Emergency Management Presidency
ORIGINAL_DATA_MEDIATOR: AFAD PROCESS SERVICE
ORIGINAL_DATA_CREATOR_CITATION: AFAD PROCESS SERVICE
ORIGINAL_DATA_CREATOR: network: TK
USER1: GuestUser
USER2: 
USER3: 
USER4: 
[...]
1.670942857521364
-26.34523375344383
-61.541195007606575
-80.83774911207747
-87.52561308661825
-99.12285337209013
-106.40908436820638
-93.79615095091623
-92.72154639124568
-122.62538901255304
-144.42960151307645
-117.16262006337443
-56.81855594647663
-14.208840854778657
-3.2077097981938505
-5.939628375412641
-21.42036320692119
-51.18492633790545
-67.96218070461636
-56.1317551808554
-36.066311090281005
-14.844307464725912
4.4023807161248545
1.398916833094704
-9.094887772834985
-4.860150482635203
-6.779576637700813
-23.076304176482044
-42.450666868961065
-55.32936643533525
-57.196594422515524
-57.8294368468229
-33.031349556993334
25.637694972298725
68.13297303698283
86.76202457562596
97.14888266764491
90.64488801908816
70.06726702223625
30.912521199740947
-30.44095171202583
-90.25327436739198
-127.23948153541366
-124.7756805339223
-66.2804107070079
17.826881680776776
61.61690920066639
51.7467454332022
23.558675341057658
-9.001678958710555
-43.581556416639074
-60.82221985424243
-41.93865948116805
2.684520365494747
23.220191207301244
-13.251489735421432
-70.58369311797018
-107.33594303715043
-119.72379561239192
-85.74633537751413
-2.2634961699051894
59.18647203361139
49.60160989476364
-14.380896828081665
-98.39757864753014
-140.19213040062283
-106.8422702472344
-42.260645630751206
15.64031620819459
44.73943073600814
39.729728013057404
18.85557494841557
-12.082426726308919
-13.245728640414693
36.16635165759824
89.5600111923245
122.2077432306253
121.59670622309379
74.08291665710122
3.704134431429302
-41.57442120795579
-31.125693892991535
7.425133837546437
22.024193155224744
15.0750879916948
17.329819897993655
29.924168753404906
48.662012444197025
63.038792973975156
45.81188492924485
-6.381170331159911
-68.90549536216359
-114.80641988438498
-138.2196749049203
-147.26447889183524
-120.68718320079056
-60.00304092820367
-16.00084326431904
8.178380947083415
18.306113179576556
-8.439052452720183
-46.649359438315884
-64.15303288049272
-55.672249219934876
-30.93214921582791
-28.758896491937364
-58.337335474191875
-77.227265564774
-55.443671168205924
-18.50651829389876
-13.072719829505454
-38.3095012431073
-59.9244479800312
-65.57909757450226
-76.86521893275871
-91.31947371934558
-65.67480056550006
-8.438308903561706
40.492702902341414
73.3165983533596
74.23115019737884
32.12562950637612
-15.304551274663556
-20.338656676696303
2.2396245291253685
6.455024507438655
-2.7329301472129055
2.138945517646202
5.4593378046165695
-13.861187886412695
-35.67756161288772
-39.054377517513856
-28.789807131865363
-22.845900750815037
-12.210707138705416
11.9401396654341
22.431555438044068
23.69685746163623
33.422326874120216
41.23909954806999
30.548928215782485
18.683924584727116
31.87382298387991
43.48213195864957
45.39098639219754
42.7481304985244
18.645067208571966
2.6737307143501776
23.946995681165557
45.00249315921703
38.92544231572994
21.733678887183647
-1.8197858035602097
-11.75004152806294
14.875420162929789
45.76633790325676
44.765274642827
33.022443544969136
38.95520671430709
38.98255788798023
22.974378525205317
28.54662180668824
69.5512891777316
110.56424057867154
121.36883584783874
105.873946571211
57.63193153971087
-19.680377711037522
-69.37541419187265
-49.44814759698899
21.185160880056138
97.98749765632003
149.37741566736744
159.54398871547275
123.18698008663533
59.40086113976512
-4.324870991492193
-52.10364386742022
-68.2402123821424
-45.76573225010657
-14.930226061092336
-8.693841128799836
-16.596090641995158
-21.58507421538892
-21.213058949057395
-24.956386832664446
-46.785779756193776
-73.67100390977083
-82.84739016439791
-72.8900080636359
-53.42822105045113
-24.47310966792824
10.29683277447685
28.95101864505977
23.446220210692253
11.017630311750331
8.38922862893371
22.14763120346983
34.765031347430515
12.602212863154808
-38.7190134626234
-79.2697691390445
-89.37022630849165
-67.35535992621296
-19.695711292615748
23.532677305141448
39.863764252861365
40.595852097189386
35.16136329035042
17.478548735173565
-5.171075073946247
-14.131516960674915
-10.22258401832655
-4.358607596065478
8.660290337272428
27.55984553252886
29.69375547109229
17.634036435732575
11.649778679108616
7.593108113549144
1.5373427899945433
6.994266624480237
23.96852732013857
38.63881457603935
54.935626421410376
54.17050598967639
16.1437890563842
-24.89636404123298
-48.23760873323664
-59.959744340561805
-45.67720766572681
3.996560735271601
50.05735658364389
51.479143615494195
18.360507322448083
-26.246527294193093
-72.25311478784494
-96.39887701790838
-75.49363682424331
-31.923456052870627
-4.7188266035449375
-5.193168435343017
-20.636565506607763
-42.776993325601104
-66.0529479625595
-66.38597699990757
-42.116255548163245
-15.879647535084622
-2.804427913401602
-7.052303349574383
-11.178028786675883
-5.509590745510053
-5.165819619972189
-13.664838682072043
-18.781097691362866
-10.174257324079013
7.35749090496894
4.7810220575318265
-16.894610232736664
-18.12192471288982
4.273723692337757
31.836390704523705
50.270831020688405
45.030433478729705
27.5731132545879
6.937624701281766
-20.539243517032503
-41.25425442855753
-37.549805895958926
-8.254526632777939
19.59420218715674
13.742857137805785
-17.144384735322465
-30.91951579493216
-13.14559369888786
10.708054579380924
32.34134786257267
49.313570288816095
36.74789469944106
12.861859723971062
29.34430029898862
94.67673049672976
166.1970749119319
173.518330319712
108.06909445273058
43.01076783095324
21.76352348978897
20.08546100573399
12.83338650079613
30.99516659178622
67.24038572372511
49.706835798398096
-2.365768407544126
-29.91461254922349
-53.47141662491111
-74.17112685661384
-44.0898543435337
41.28285372483628
123.27269253025395
123.29466005856276
39.78933722035721
-39.67480571476745
-56.9138808385416
-21.408082895547487
28.200388618244112
44.90775208779144
20.161348972692316
-5.195767665176968
-25.445882932277048
-43.27247205522836
-23.07018590976849
23.16339571592726
56.90498012644242
75.66011618447828
60.32663604856842
-16.875889950078903
-111.76010359171781
-168.50101326378802
-162.18430188202822
-69.67427135762053
53.369130111787555
127.48843015370161
165.76263285683203
168.10353937214245
82.82643491683322
-39.59620862970822
-106.70944147508054
-127.80982531543962
-122.69674938640118
-61.51074430152907
54.982724611947496
134.2949663738613
102.68527512982874
9.50025882818245
-79.7440716737049
-143.68641850646333
-149.74088468334563
-73.46735419862566
33.632002987362036
104.40092790186996
153.30556463461397
211.33249508837895
224.68311838370002
133.35055661535966
-13.161596429522412
-124.75551994227797
-163.5605209284093
-140.95934667126102
-82.82196226741377
-4.792374368475649
59.98832125669425
65.05811998797947
44.55837287263825
52.35045552517685
41.28480756344916
9.790997840846856
21.83094381242069
42.03630271008587
1.5655327157374004
-87.44085795379011
-164.37846611451792
-183.06137169903013
-120.51298450835512
-29.935649045527743
-0.03872885199206047
-14.683320997286945
-33.60106704658213
-36.71167274222166
9.239607242619524
84.25721419983918
145.14100010090309
154.1994622102425
80.24800885571243
-36.30694792154025
-121.11230320307492
-160.53394295786603
-177.7853313878406
-176.7569615926309
-128.80878151840966
-43.60411323575004
3.1921311140442947
-8.082824004246387
-34.156406188291854
-38.88479515109539
-23.100572560465867
-37.37570587741325
-82.40457302284639
-80.19747354196457
-24.54345536740892
16.394015370330255
32.884650288345455
49.16461225730185
60.20877885302843
31.95992263039173
-24.73289971530318
-46.05198683703813
-19.046027114527647
37.30969858531687
77.09478426659727
46.5422121969888
-43.93234759964927
-141.0972307267555
-167.62202605444483
-98.61457813181511
-3.0606969900862313
88.30967310968876
187.41373272470997
241.34736382588437
203.29487427001905
88.7588177549257
-56.26292313313919
-164.73538673013388
-189.63802237929292
-130.85795306061448
-23.46538756945363
104.58107006457074
219.6435455893101
248.79065814317843
164.70328170843948
50.51688544071164
-30.580945818778876
-85.89775059076445
-70.11453690231977
6.810555861437283
59.48430698386582
76.3797311713947
66.2673352656463
26.74033544380696
-52.75833115521802
-146.62729778320417
-184.07279880170296
-132.6406886136644
-58.19322128419354
-52.718401852884234
-49.91337623974069
31.25462720621721
102.89409027633513
53.435743395754926
-69.95537831209334
-121.36525213956754
-66.23250226450985
15.506454873270807
50.23076775864874
43.26499186177648
20.670943033186397
-26.364873535827282
-74.94992504870369
-77.68005014806525
-38.15913637708113
-6.744643106850741
10.388699376903816
10.52345093293489
-34.33562076047569
-91.18386357082028
-117.72240918306737
-109.95003095458877
-66.6178413248731
14.810225607400557
92.5265934892365
108.44836074367555
64.94715029593078
-17.26704608020884
-100.19645762398969
-127.90157795144135
-82.83912117043349
5.558230108622902
80.21754030387042
126.71850576562105
147.85606535465269
114.58460917095908
47.31941465912095
-3.993879175061344
-32.226545392798016
-40.50479520742173
-43.0810173542481
-47.44614408279563
-15.196796293357503
67.82947164408804
157.52070188163398
187.50622095049985
123.72264007132691
3.360867180138
-115.4310274907142
-188.24694334647396
-189.1125008460501
-110.18076716059547
28.016741892460168
145.7846358233237
186.3928938359242
179.3621532892686
144.8169203595405
72.73531588687541
8.599515286183552
29.947869505712486
120.63219508932656
166.32554829228832
110.1690198677424
4.154645608141447
-74.89961427103742
-93.58992206393819
-63.848082148255315
-0.7108300599837016
51.22453798216472
38.7484379654155
-6.122535831694276
-17.581799276131964
9.820738112175176
53.64183575251491
85.01765644670262
49.4463917268995
-44.6499076447215
-106.21273393277508
-102.58748175885995
-77.66560185174937
-38.67807320717444
41.30366592635873
122.01751418943944
125.59333251362592
61.23560841663563
14.398932180512316
22.02422122123271
45.24024033792359
48.764306443929776
23.966526992642535
-13.54710150611649
-36.44125668374556
-59.65948809767439
-104.79850400035185
-133.26051831080355
-108.56933406921387
-55.023740302407866
1.8620318094488353
42.544909981248864
55.302093830438444
68.77857551085798
65.77559316110968
25.144873860357634
13.244059420173288
49.043792899847006
74.5367886376598
69.71165648249506
49.20728353104565
19.55776641990712
-10.247257952901963
-8.713279642037575
40.062119054487475
100.00496254541805
128.15043542377748
118.87564498959178
100.17565090503396
95.66852979268839
94.77891038052691
80.61623480175207
54.04476555790173
16.90275579145368
-20.04224160940768
-38.214032168083996
-44.7874470552608
-49.70136470637009
-35.256282731636865
9.731718910898332
62.17826923395868
87.9830594326041
76.50831399131232
37.945314690355616
-14.322846464467727
-56.96724471964789
-67.73679425402085
-39.50415790901265
19.562268644266855
86.21416134476056
148.96383874581434
190.4898462445184
182.74932646587496
125.07502377016256
34.8467117232976
-51.51827203576154
-100.29715698937825
-109.26159033743853
-89.48446672236186
-55.572064874510694
-29.939762227137507
-33.79868566204507
-51.602016378915486
-51.94242654884203
-38.125932384876556
-31.33673801421054
-35.74074460466162
-40.01297681227698
-38.350020424354284
-27.245663042199855
-11.190409350215237
-12.366822780828755
-38.24962799621547
-72.75570927624238
-105.25001154844631
-130.09862154044117
-137.07256583584444
-133.6402690749705
-120.88937309392624
-77.99688254740134
-27.997357203174893
-12.083360482258293
-32.45247473651243
-75.63485364229024
-108.36395786356367
-101.87475505028866
-91.52959987397426
-117.21076914337709
-140.8805144303878
-122.22918717991888
-75.04455112764187
-15.666750832663396
24.599793456722637
10.847531470792571
-28.123316180091116
-47.96178176746055
-49.462510924816094
-41.83842821672762
-15.168340303897631
44.69477808207004
122.17857004973452
174.5239987818991
181.1923199450576
160.7617883642819
139.76511598923992
116.91007791652932
85.14270443002684
58.70136708779111
57.80902546613537
88.44942300876852
121.85407646712163
127.11338546927581
90.22065463465638
10.977094457023622
-84.01460136626206
-180.04251108570497
-265.7951989370533
-339.2567780458415
-398.07266134502174
-420.42794098545204
-451.5712529915117
-497.01788818807427
-506.0210274396385
-436.2915214404935
-219.47428105883026
51.52653739426555
318.0967933715095
552.3575283565314
528.5994070254474
342.0374892974035
225.85279488191458
94.0520462929658
-96.4425302772548
-274.71908113162596
-408.4862305564765
-503.26751875973616
-539.2546534600987
-484.01445285357295
-381.64141612717464
-265.72729245863
-143.73140802724652
-37.08614781422517
66.63626093496006
181.57913663208046
332.11384670779273
510.6491069268179
594.1169584809646
526.7607308742088
384.0312598610827
222.02362410541014
66.11721728885018
-60.21194089479334
-117.96762496230807
-113.36446319681562
-100.09966745681191
-66.00881629279104
-5.128037778773307
53.263568900448035
112.23947962944294
155.6652370412338
165.0777392220841
165.3478236399804
166.94797561861725
160.87405774181093
147.07189797865442
106.30993448831968
31.255992261306908
-19.59479071986621
-5.569963588350773
24.824161575829628
29.78161452386811
18.25534706117647
-1.8993116969528132
-38.57121251024825
-83.03855017153859
-117.3162060543274
-118.99053170054924
-85.27036949887565
-87.76856863430443
-86.46058620956026
-25.96788901921203
-7.982850060061253
-29.288309718115627
-44.56979324157311
-57.8210016451086
-46.98324443380536
-24.315056074259157
-7.05336787893555
-7.936716290647979
-25.361848249320207
-41.7692997584921
-52.26654753685355
-58.27328284143521
-58.027582064642885
-49.97521377290948
-37.54255605826919
-11.99602271122066
25.317115620469952
56.9354355930464
65.44601335600473
56.69470168249528
46.18566740712423
26.26573032516088
13.625432995639166
9.549254538362609
-1.095700546338784
8.796168029930932
31.760068199172768
44.58641409046021
52.90101902781608
64.1927276730105
97.04577992130088
131.54516006552632
133.33808509643788
120.96511038705127
104.20308108719615
73.05499498193599
25.004979089271714
-34.966255080241
-82.7802777457767
-104.1699389387736
-98.10739741917281
-72.55382984182587
-47.027671265999096
-25.22537950921328
-8.113503941722527
0.03997978299112152
10.028456203784984
29.01867384734621
49.80694664984085
58.53186912199407
49.43694991251101
41.233206796050716
42.06817642021113
31.256684028159807
14.991831812295132
30.921131645153697
85.30601618883915
142.77432338845588
175.14966087570036
180.47045694653247
160.55016923059722
117.20111958153707
66.7953462865066
35.34842053100349
26.905185566978975
55.56580455147879
140.2342619116719
214.57751868556798
220.04073421532266
176.21203974156907
106.52708306459253
34.0440459658919
-27.750739615630177
-69.61841237659041
-83.2862090969081
-73.4310097721033
-50.99655086305515
-35.001503286685505
-28.102800488767805
-22.574553183554077
-15.20294113994145
-10.00728348098896
-4.374357467871308
0.8226042354055338
-12.179113189271392
-26.05786574326438
-45.360055384783266
-76.68113416421303
-85.79160799275046
-95.98208575382432
-102.91096354097957
-77.24874260253455
-41.8287069747069
-6.904636857196994
13.887206118009448
15.670211384315708
4.045739946284994
-21.506572529755363
-55.55560034876896
-101.73267443905807
-136.87388189634936
-134.67460073958537
-106.63066330672756
-70.84543791378118
-46.24356397207535
-32.170222659425846
-24.230436625257692
-22.264656551189535
-23.903607630075616
-42.572872487198914
-36.92488112470812
-16.33907767557187
-34.9716049714774
-32.37790311737501
-2.3762192074849557
12.58479706814663
18.72231571868522
19.19234585225213
32.070711658707395
46.8071526091823
51.2942909086745
56.18880805947683
55.550221247776186
51.741127709638086
54.25326663488625
68.0720608635852
84.46016650124585
81.81522653927371
57.91021611559553
32.55046707694051
13.347663801664522
-16.033688470700255
-53.012168569370616
-74.35168804199475
-88.42728580892314
-107.65514185594851
-122.04439583922516
-116.50537272900273
-79.03519105760714
-25.783182756666726
16.005871128941852
36.5518567222119
40.65295281034383
30.04955931982995
-1.1885255697196189
-43.65857456403789
-80.97130214502384
-98.27324603374505
-89.0235824821962
-64.61366012856398
-31.718552721500824
1.3541282638368197
18.36565852820004
18.819520230030943
7.662668506630021
-18.512212985927135
-53.779050110687244
-78.29000597417446
-69.73006838139457
-25.048790603595208
14.101007372493786
15.779278497382766
-2.053871446006088
-24.611903814108704
-49.28661390723942
-69.12679269390746
-74.93681619374087
-59.04611714609888
-26.350515858406755
2.9625449698400876
8.583294413536528
-2.9320220163526862
-14.765553726143999
-26.42175385970211
-39.698970530449195
-45.69155723999868
-29.32100321663621
8.077419303147327
46.59287466405415
76.99269345223054
102.51489346828563
121.3304093779844
126.90586853413105
114.2806221481232
77.36584909152076
23.85472908311118
-10.790205610317537
2.2414677441886406
43.67537173702326
70.16798546923883
77.60432842709115
80.58245717599448
67.33836774083548
32.53342586960187
-4.974454231061711
-21.081554300567124
-13.274935449691649
2.19331183675006
21.9659694832558
37.93376637061787
38.30636055382376
32.45291164626017
31.386171659507884
40.753012460964186
56.06137057718498
67.52842306457644
71.34817539822865
59.49979242326421
43.12512511560379
30.805870051410086
12.238933431674116
5.746097090334192
18.84495867321236
29.377562692665197
28.370034449294106
14.369664244003427
-7.325749644925581
-29.355337142395946
-51.06656727595704
-62.57089962119434
-56.789521478757315
-45.583680340874665
-33.719384849087945
-13.92884460881556
9.53792287453114
18.000344239651167
-1.134345047026465
-33.10195748461988
-46.37175978254923
-30.913322230154932
-9.221690780470293
0.9792968580446707
-2.0186878836990383
-12.159592152272337
-21.130631517516328
-33.563795542734276
-47.56323602970691
-47.43528925496462
-35.45296270977165
-35.20325918441117
-49.07862835616528
-53.58859074092204
-42.57264475554093
-28.612937220008117
-21.059359552274305
-20.36715156981836
-27.992000368858204
-45.94208952278401
-62.97879538743578
-63.32980760217064
-36.495752005048395
9.292871567568472
47.72310374629375
