AAD_Filtered_TADAS_FILE
AAD_BASELINE_CORRECTION: BASELINE REMOVED
AAD_FILTER_TYPE: BUTTERWORTH
AAD_FILTER_ORDER: 1
AAD_LOW_CUT_FREQUENCY_HZ: 0.025
AAD_HIGH_CUT_FREQUENCY_HZ: 40.0
EVENT_NAME: 202302060117
EVENT_ID: 13194
EVENT_DATE_YYYYMMDD: 2023/02/06
EVENT_TIME_HHMMSS: 01:17:32.00000
EVENT_LATITUDE_DEGREE: 37.288
EVENT_LONGITUDE_DEGREE: 37.043
EVENT_DEPTH_KM: 8.6
HYPOCENTER_REFERENCE: AFAD
MAGNITUDE_W: 7.7
MAGNITUDE_W_REFERENCE: AFAD
MAGNITUDE_L: 
MAGNITUDE_L_REFERENCE: 
FOCAL_MECHANISM: 
NETWORK: TK
STATION_CODE: 4618
STATION_NAME: 
STATION_LATITUDE_DEGREE: 37.60011
STATION_LONGITUDE_DEGREE: 36.87231
STATION_ELEVATION_M: 831.0
LOCATION: Kahramanmaras_Pazarck_Turkiye
SENSOR_DEPTH_M: 
VS30_M/S: 715
SITE_CLASSIFICATION_EC8: B
MORPHOLOGIC_CLASSIFICATION: 
EPICENTRAL_DISTANCE_KM: 37.84
EARTHQUAKE_BACKAZIMUTH_DEGREE: 
DATE_TIME_FIRST_SAMPLE_YYYYMMDD_HHMMSS: 2023/02/06 01:17:08.6857060
DATE_TIME_FIRST_SAMPLE_PRECISION: millisecond
SAMPLING_INTERVAL_S: 0.01
NDATA: 5666
DURATION_S: 
STREAM: HNZ
UNITS: cm/s^2
INSTRUMENT: sensor = GMS+/GEOSIG | digitizer = 
INSTRUMENT_ANALOG/DIGITAL: 
INSTRUMENTAL_FREQUENCY_HZ: 
INSTRUMENTAL_DAMPING: 
FULL_SCALE_G: 
N_BIT_DIGITAL_CONVERTER: 
PGA_CM/S^2: 74.355
TIME_PGA_S: 
BASELINE_CORRECTION: BASELINE REMOVED
FILTER_TYPE: BUTTERWORTH
FILTER_ORDER: 
LOW_CUT_FREQUENCY_HZ: 
HIGH_CUT_FREQUENCY_HZ: 
LATE/NORMAL_TRIGGERED: 
DATABASE_VERSION: 
HEADER_FORMAT: DYNA 1.2
DATA_TYPE: Acceleration
PROCESSING: Automatic Paolucci et al., 2011
DATA_TIMESTAMP_YYYYMMDD_HHMMSS: 
DATA_LICENSE: U (unknown license)
DATA_CITATION: Turkish Accelerometric Archive v 1.0 - Disaster And Emergency Management Presidency, Earthquake Department
DATA_CREATOR: AFAD
ORIGINAL_DATA_MEDIATOR_CITATION: : AFAD - Disaster And Emergency Management Presidency
ORIGINAL_DATA_MEDIATOR: AFAD PROCESS SERVICE
ORIGINAL_DATA_CREATOR_CITATION: AFAD PROCESS SERVICE
ORIGINAL_DATA_CREATOR: network: TK
USER1: GuestUser
USER2: 
USER3: 
USER4: 
[...]
20.454077511176433
28.733892118099003
30.223744445437404
23.581309144598016
19.934168314140635
19.28757453565918
21.034535502967834
14.685188812399932
4.769297451042149
8.143990958987876
15.077500683204217
8.05427422237838
-6.470544302724341
-10.27388785711201
-0.2936025008678071
8.168914208777108
1.2103715142906033
-13.41282496990967
-23.918837806990258
-30.293333830104366
-30.363432423710872
-18.99561358568111
-4.040217054040345
-7.057567811624797
-22.323058343909867
-23.309030707848287
-10.237411015622467
6.012710124104663
17.1085372241705
19.066250493619656
21.513356369269776
23.446958642334852
11.607600404646824
-4.56209195207211
-4.022918423411129
6.349166862324977
8.90087197615528
2.1737859287718964
-0.8472117554381842
6.484121677342271
14.542268463004435
21.805728000006624
27.410540916130117
24.228488641331413
10.364716253673482
-8.681242090137742
-14.647296537901235
-4.672480452233808
0.018129500066164633
-5.034487618907897
-7.670431716531594
-11.623535050449657
-22.766379023495237
-28.314243519114097
-20.302899892311604
-7.933774702881553
-1.5876795085511761
-0.8483260733114494
-1.0708140892680282
-1.2781971563318901
0.4434569150720844
6.922889930170911
16.209105667459603
17.414158335752607
10.458058071390255
9.71268056482786
11.65738191888576
5.79262351782478
-4.515950124435463
-11.408724757325075
-12.11762648644689
-13.717695602216844
-15.133718295074553
-11.45260838038222
-17.233150771457705
-33.64568444662965
-33.15234074561306
-14.75274801962564
-3.2163853100037096
-2.1998469838755925
-9.518320019318026
-21.848500481243658
-24.735658216614524
-16.46861863889156
-10.995029252426018
-15.829169153631085
-12.190394700382294
9.41756093555133
15.89224442218098
1.0586690468335915
-7.959226554336423
-8.865651725021054
-2.2481569516161883
6.71233934480425
14.125439478614195
21.231802695219447
5.621134170679705
-20.357515198579947
-25.93804502479073
-28.229725324917574
-36.86210430004059
-37.957204130322744
-29.087515760661727
-13.18206614725484
1.5747564093289095
-0.42893477641972766
-16.671959635892062
-22.21816205898163
-5.282396354170387
16.06906298871041
16.783316734666652
6.19761755556326
7.474666350413303
13.594341266304044
12.190952762062699
9.044848441560411
15.103789469932332
19.791496058878746
11.93511994616727
9.401983112611862
7.755940854617601
-3.438290004007961
-3.418755774716017
-2.6615040053759356
-12.667506187665232
-16.352182636734188
-16.054690305466675
-17.46360766981974
-24.802111630033338
-28.99906671615567
-18.673131351458416
-9.22404025296253
-5.956984761098297
-3.362264573686056
-6.477548503781027
-19.4296067112959
-27.83746374251001
-22.3824477732474
-12.818334332875764
-6.9095023148219195
-1.8946057800621554
11.3854999010437
13.347732758841527
-3.438024797289303
-16.658884048395603
-25.196813840092574
-17.889304008773305
2.800493144820062
9.866521689896318
4.141968201129246
-4.208811101973589
-10.096254475061956
-9.434427473156871
-7.0954456558210355
-13.734436510033126
-17.626993162893637
-3.3001916335967607
5.416501154782355
-4.550698670518597
-12.971096314990945
-5.635947590272796
6.79971577969877
0.688884198969331
-10.454879533859295
-3.488109029408721
4.906621317641948
3.7995499569815596
3.9254442606943787
5.79366616048689
-0.29554978940242066
-14.35956125083049
-22.13441699108756
-19.54629957327267
-20.0537099610227
-21.477626635556273
-17.441633766334206
-17.39696456496865
-20.08407703242031
-19.90453235583629
-16.23742858050368
-13.011199044275813
-17.733015231435076
-20.534908843300183
-14.753128248244982
-14.15565132287664
-14.943958288927966
-0.12895511950572872
12.969727265263414
4.469381341323986
-2.990005363560117
2.055060730853889
-1.0065870143481777
-13.864477412443186
-14.215054632426467
8.033726161818516
25.851954304746627
23.331902532743708
20.53661120323363
9.777785362213251
-10.303806770847148
-13.673227624447668
-4.503740602107042
4.895599572973125
6.919904349948871
2.929594329601679
0.0284523678400642
-9.241894104475422
-24.192382471951806
-36.56587644735651
-34.272433444105594
-16.593977898924464
-7.636912320800955
-7.425885979736179
4.211319941629602
14.428640404948
7.581542268182538
2.299077946545241
8.834413531476827
16.584850886337023
21.708297920622844
27.94410803664742
32.032178721587194
22.837615946821995
11.901877453030227
11.891536549017935
13.12281842676939
11.269216332283172
4.718286242928537
0.40353410382116184
-1.0234678895128337
2.175016237081316
18.14807891369074
21.531188349151915
14.647423246917459
20.190682853354936
17.33742699004701
4.625551860112862
4.1051688892799465
9.087420192573244
7.348322817911356
1.5572738779549702
8.37220285240348
28.19690572577069
25.189162997260055
8.97142371054065
11.744053351436145
14.38562518652575
8.83187526177646
2.486478875368057
-8.174687376223853
-19.850151799969048
-25.835126978906466
-23.66038473599948
-19.47013162501994
-18.003924852567824
-22.900039077148733
-35.525141645260746
-41.8296179349577
-37.86467321184777
-33.66355269941301
-26.64230464043735
-16.879029468339315
-12.457692657857738
-16.631190684908887
-19.146717624962903
-8.208335626570097
2.5887542404724497
3.0454107170922615
3.67575094015219
7.837929411450962
13.762928535108896
14.603428524670237
1.182496277847944
-5.541578148131409
14.203764242705692
32.08897852230071
24.37698857673684
14.195490672473506
17.146441960721226
20.868755625586154
19.774003925582235
12.63733956330315
16.297216059528587
33.781258338610236
32.37988332665542
25.33419757010241
37.07839350485236
45.72955304957235
38.50160285728953
29.05737541830105
26.659049772549977
22.75394848313905
12.283464013158605
4.9755042102010965
10.415304364613048
23.459754322227333
25.27926138483504
12.77136565392429
8.853483032179142
17.76374685910403
19.74841379627335
17.521651216774238
20.36635369582792
27.21829523732026
33.848549606841736
26.021207121826272
12.82182459095676
9.116551277519777
0.38485552332851003
-7.19505780384505
-3.042144254474602
-3.91986823662563
-5.946684353606258
-3.711349585907505
-9.875577670462299
-14.917272373709098
-7.511132372454239
0.004695087684237979
-5.633085131813858
-19.939882401003775
-18.441611870608163
2.402230229076254
10.037252734266605
6.458016208211463
14.753053700278137
17.94687261673611
9.955027571758924
5.455206124496359
7.233347932588653
14.169945291546641
12.65639526579458
2.066003452824281
1.667056544753339
10.167572063025395
14.872667506475798
16.549174144810692
16.104341965391356
17.33576725305305
27.3953210225676
27.795184891518616
13.506665309953473
5.082598239108357
7.260574166236471
16.155328510266276
14.839809788560363
-0.9638937002123249
-10.372411352194067
-11.102491192558894
-11.027381128471244
-8.052972847285568
-5.382054774322831
-5.6404811625881
4.727231094470474
14.597286069128339
-0.00936226258087164
-18.73465912364564
-23.263855798583727
-25.65429255922138
-30.49706848664406
-24.36172477812978
-8.212993146531995
-5.273098518251781
-3.726658692149825
9.482190491190885
8.514799770260417
2.6600664369354914
10.408221808746706
15.52454404354361
11.400756629854989
-0.4003358990487613
-12.724235045295911
-22.276638836900446
-27.538599026762498
-16.466057934761647
-6.892445729621166
-13.629697544151835
-22.917951367118732
-26.291851950690496
-23.789186141028996
-28.181176926462086
-35.233609961580484
-32.232765508543025
-25.17234423881344
-12.836536804890963
2.5566032279147546
9.599921867617134
3.5485813228812524
-9.974417778336292
-25.742668576819913
-42.90790176667653
-43.50990610749597
-29.60286106864257
-22.276201978714163
-9.691368769388133
-0.17458013129722774
-3.4901823254042355
7.6224147587690645
18.948592023768988
18.95379039483162
25.974009425192303
15.172795743047235
-10.381301693377655
-13.168113869896022
-12.598247716071484
-20.77156504499201
-16.150882131738534
2.3782372970452434
11.573294108684296
-8.26706491909272
-21.06892938742745
-8.19298588329737
-13.068322722029501
-29.05485463502651
-28.850163147645844
-37.924312928119875
-55.720606401404794
-56.51190968583206
-54.585566963632935
-51.62288396246359
-31.16158565740667
-7.422711752884406
2.994381547288939
4.901610218825779
2.4858849967858823
-7.365329705809482
-16.95153684775567
-23.40217201355287
-26.414574886454304
-17.1999228784334
-7.036367714854179
1.6551751482720052
22.768660171210048
33.48824053221065
13.774277033321072
-10.371556813530841
-17.543226667486145
-12.589604777871537
-3.5849110429987703
1.1556087613735266
1.8428391951457455
12.473707312513477
22.909481731751725
18.390757857277464
13.821707944487967
6.396104666347132
-12.974493702811309
-24.75755428287146
-14.459254477029805
-2.144080789061754
-7.4915674505375
-11.694983499284527
2.122005465160612
16.72488799863328
19.709158793087834
30.414882179377162
44.26299292435427
35.848730203857755
19.187265824641983
12.364791549381803
7.932923798745361
1.981374151990372
6.559793157046325
13.795816847509062
11.081260591514889
13.681817350337262
13.346781059860943
3.129426094822497
4.983715831671306
14.090794466265066
12.008367644852726
2.7341309135848904
2.1737173193791097
9.633809319839246
15.491355181449848
21.078012180659734
19.530000311147887
16.628926322785077
25.284058172279888
23.314215036857174
7.422877983632848
-0.9205410675262059
-8.570983550492546
-13.963284290553203
-8.90886386114941
-7.249789853631887
-6.550532753438723
-2.9362207381162064
-5.159306232003582
-3.903277352740803
4.568434218315591
12.452078531585087
19.686576438221863
22.119362160441234
19.72845450177828
16.00451042947943
0.7317566105399674
-14.670906002589517
-10.955926253568597
-7.847288724582636
-9.707924078529752
-3.515259643021534
-5.441690716209395
-15.470037617086684
-12.317398613664087
-0.35780457196944065
10.925307755610513
18.180252582558072
15.321263940675816
10.376879675922027
3.910147061159891
-6.9509327508738865
-13.116702834309843
-18.537098817683503
-21.36096848898044
-12.18794550402714
2.4249760664227415
11.656610458377388
14.922449472312335
15.262465173804188
8.838164567699799
2.8002630285137804
6.227608168580996
10.303707166818018
1.9259784755988818
-21.29723398868506
-32.87477788378674
-10.849239988418374
20.393812885525353
31.275637308462798
22.611346792475633
12.643415434334356
9.275172436807546
2.1394301634051156
-9.756617099088439
-13.74101945937167
-6.622976417616738
-6.931608164315604
-17.688220430649288
-12.522548575475989
-2.420654678873018
-14.138219136575099
-24.89044934671728
-12.44310795248007
-3.722178904329638
-11.483830570618569
-1.6291062118573019
23.043485780573825
31.702269356223383
27.25128108118867
18.1579052486143
5.796148690277383
-12.852285883524212
-28.849277374673633
-30.83383137694439
-28.128769909882507
-21.595797194990517
-13.215187018774591
-5.057905203704597
5.438044373292595
14.23468353522482
23.12302931494871
17.767796132684836
7.484632498712079
17.162813971730184
23.188472880976033
19.987568292176483
16.664146536033087
9.14129319078241
9.81622414831918
16.842180287647203
14.837175108534034
1.5209697495588028
-6.623614784374423
-1.0006718739183442
13.69937790730034
29.616202226297293
27.085655341528508
22.461473725776308
28.265493106508007
19.383037779528863
10.591358823079114
5.745363118733399
-5.663300615370722
2.5144551771644315
12.359364650948692
3.080441522544804
1.857370561587654
8.712555067829074
12.656043344645113
10.242121791112083
-2.6283513072034714
-16.979888085055656
-16.365223427227416
8.919717784591413
22.183072411960477
-1.954403156004746
-26.822016975220503
-35.43472135262554
-36.571426886440626
-22.43595238570347
8.01794214691754
30.838836375824346
21.302079067940227
-10.946122327917832
-29.15809608405408
-24.851659560509916
-13.606636577120552
-0.44080830526136605
-0.6533238212634058
-22.19739794560863
-41.95662909538354
-49.77156795309218
-51.448293327451424
-34.91623349092632
-8.773532106839705
3.3286680384221774
8.349173296138531
-0.21792763139410543
-25.33339146337431
-32.168915029057636
-21.06441809174687
-17.35323435931975
-15.460520720282346
-17.27551213054563
-27.32817147426955
-30.208059299564546
-25.746597626132896
-23.144555005633862
-19.674613180449747
-1.2845485802008925
27.353149438548677
25.723338656929933
-3.511676330346911
-5.826385655384668
28.813952332517285
58.204492337957966
61.11073322816213
58.3588159971557
47.17674805888592
15.104946725143117
-8.44310771235234
-15.523635671498779
-26.078635798486907
-27.31939652502842
-18.84875777656964
-37.74212709619114
-70.45473834593699
-70.93869315742471
-53.01725881466199
-43.59368023933232
-35.80465325165353
-35.03495639683634
-43.31236256161036
-40.876189561488715
-29.95328304280384
-17.147234676687834
6.002697875186237
22.76222699110604
5.592167835877305
-32.37853922455522
-60.18295184363471
-61.787494645981845
-44.51563852317025
-33.124856078908415
-23.118710504760095
-5.435314561249357
-0.6669055952313184
-14.601370454919419
-28.532948578224037
-27.76569338653346
-5.649825430997462
39.34875524342139
66.54901419266899
41.14402269769929
8.10032814975123
2.226607607304007
1.4374007086275336
-11.85498695706791
-17.097976337718062
-0.6389044219150233
11.352957826284603
14.403203639415558
17.385170021114845
20.524500352663004
22.4003644623997
21.507388249482304
22.198575142351146
6.298607543454555
-19.76690919947794
-35.74152026943709
-51.96243825488942
-63.122264745524525
-64.8734542990349
-66.31846811645134
-70.4887727428642
-70.95654422758088
-70.65625978966152
-71.40796308615944
-51.2837127688139
-26.178939992225846
-21.391288987953725
-15.020499121536062
2.688834285433673
15.403062106841183
11.88776123193147
-2.8312280990281216
-8.991290607749486
-1.4197897222792903
12.374787760118036
26.94673939984985
26.913737427087614
15.56896684348385
10.561750811959296
15.429024134679505
23.25755483113695
12.364629646258793
-12.776243143783637
-19.964049302571198
-6.548172712332626
3.618540670311921
4.038877935561626
16.97122064862268
45.512390356405646
60.40435348470165
44.103812617238766
10.07263540665857
-6.790261457448969
4.06724629326942
12.164433447048038
18.265494918536223
43.69532235348377
62.93963778388272
61.35145479078104
50.21413686170279
24.157552400181796
-1.2911935600263031
-1.6193001040368447
10.148991513320546
5.425102806120217
-12.356346838397853
-20.493458682917474
-16.071911783001923
1.249051341209159
16.64296196830819
13.632398425039606
14.688872356666474
23.56029467535366
20.011702790931576
10.561030913119719
4.8614924352169115
-3.624215802145431
-17.809667733714697
-29.39625472403989
-31.202571394482945
-23.903262053203644
-15.170571853640846
-10.699047707048473
-5.993087181844607
-7.7567720692785755
-23.111485522161356
-32.206393109001155
-25.208581297957846
-6.776670929853181
31.64518896093992
69.2358000601025
60.350841142540865
18.950710724509058
-7.6140362501032275
-10.505556187750004
-0.5418858048318176
6.598680340337686
13.042858957409916
22.29722657084099
2.4677085238604484
-37.43995867088669
-53.807959199226865
-48.25023227065418
-45.88547985276131
-43.94187614620842
-22.526564817825545
1.5462698845866556
8.381034185128975
14.305422605116766
26.27560412851137
32.075549187273765
27.53059424224707
22.986724199254525
27.838539580453055
27.70389193802723
19.763537029105738
31.5714969465345
44.78364603586766
25.895163510867537
2.113548581522116
1.3960957201300812
8.791526034860027
6.478400824695793
4.9691846380305105
16.948654034980382
35.68180248953017
43.997812285553096
29.8488205124538
22.342544298889507
48.091881304780564
65.1289035779982
50.891452354695346
42.853613203093744
42.74652829254055
28.47091641206458
13.037965261058478
3.2398010200802734
-4.750320277951914
7.856996693034449
28.870715449547557
24.459847849449805
10.327154619869036
4.661851927970175
-3.956199646513073
-11.508184013144588
-8.384578639344436
-7.441065651883954
-4.723583047785853
21.57599255079159
50.83476453262774
52.83855811215086
41.06038175606417
36.590714966225846
35.501171934140494
29.915373546047768
25.049503895469826
23.410938535831836
24.409370848955813
28.555054405145054
26.329597386383554
12.835510563471832
-0.665966911451225
-8.307329894763418
-16.940932768199026
-20.07842260117101
-8.88855330532856
-0.01231000027642961
-2.4762780727899307
-16.328043168961244
-37.47173490271237
-32.505653058742396
-0.165415132445335
11.592045482495099
2.7140763565722827
9.976501375473633
10.445623474468231
-15.29898037810253
-29.202749608800904
-31.58555288263035
-48.06490540100957
-62.89564696176432
-35.866596920436145
9.587662640669567
5.682567744642568
-12.461409798791033
-2.2053104382134197
1.5430295799536657
-0.8198287402038121
0.38369461492414575
-0.22927005112466264
0.08296867443527825
-0.07603241175816863
0.004986028780480744
-0.036246266838948896
-0.015211871048625383
-0.025892223991034687
-0.020419158238227368
-0.02317367323813122
-0.021737638686860385
-0.022436060140248345
-0.022047382020279754
-0.02221245972266149
-0.02209554579691594
-0.02212231674292649
-0.022075959941065128
-0.02206690585983194
-0.022038908155091456
-0.02202061504869471
-0.021997434870960664
-0.021976799602552197
-0.021954923777735027
-0.021933735384552074
-0.02191225234126894
-0.02189097477071986
-0.021869647855153412
-0.021848401295666463
-0.02182716894405065
-0.02180598440541168
-0.02178483047699846
-0.021763715834485955
-0.0217426359728606
-0.02172159310064846
-0.021700586007060676
-0.02167961522302481
-0.021658680392483573
-0.02163778161128781
-0.02161691874524938
-0.021596091777481424
-0.021575300631485127
-0.02155454526125785
-0.021533825605397558
-0.021513141610478917
-0.02149249321914678
-0.021471880376180388
-0.021451303025404465
-0.02143076111126228
-0.02141025457801423
-0.02138978337014583
-0.02136934743215969
-0.021348946708681267
-0.0213285811444048
-0.021308250684120626
-0.02128795527270108
-0.021267694855107464
-0.02124746937638628
-0.021227278781670966
-0.021207123016180787
-0.0211870020252212
-0.021166915754183478
-0.021146864148544685
-0.02112684715386748
-0.02110686471580003
-0.02108691678007584
-0.02106700329251364
-0.021047124199017248
-0.02102727944557542
-0.02100746897826174
-0.020987692743234476
-0.020967950686736438
-0.020948242755094867
-0.020928568894721278
-0.020908929052111346
-0.020889323173844773
-0.020869751206585133
-0.020850213097079778
-0.020830708792159668
