AAD_Filtered_TADAS_FILE
AAD_BASELINE_CORRECTION: BASELINE REMOVED
AAD_FILTER_TYPE: BUTTERWORTH
AAD_FILTER_ORDER: 1
AAD_LOW_CUT_FREQUENCY_HZ: 0.025
AAD_HIGH_CUT_FREQUENCY_HZ: 40.0
EVENT_NAME: 202302060117
EVENT_ID: 13194
EVENT_DATE_YYYYMMDD: 2023/02/06
EVENT_TIME_HHMMSS: 01:17:32.00000
EVENT_LATITUDE_DEGREE: 37.288
EVENT_LONGITUDE_DEGREE: 37.043
EVENT_DEPTH_KM: 8.6
HYPOCENTER_REFERENCE: AFAD
MAGNITUDE_W: 7.7
MAGNITUDE_W_REFERENCE: AFAD
MAGNITUDE_L: 
MAGNITUDE_L_REFERENCE: 
FOCAL_MECHANISM: 
NETWORK: TK
STATION_CODE: 2717
STATION_NAME: 
STATION_LATITUDE_DEGREE: 36.85548
STATION_LONGITUDE_DEGREE: 36.690996
STATION_ELEVATION_M: 41.0
LOCATION: Kahramanmaras_Pazarck_Turkiye
SENSOR_DEPTH_M: 
VS30_M/S: None
SITE_CLASSIFICATION_EC8: unknown
MORPHOLOGIC_CLASSIFICATION: 
EPICENTRAL_DISTANCE_KM: 57.34
EARTHQUAKE_BACKAZIMUTH_DEGREE: 
DATE_TIME_FIRST_SAMPLE_YYYYMMDD_HHMMSS: 2023/02/06 01:17:16.9908280
DATE_TIME_FIRST_SAMPLE_PRECISION: millisecond
SAMPLING_INTERVAL_S: 0.01
NDATA: 10501
DURATION_S: 
STREAM: HNE
UNITS: cm/s^2
INSTRUMENT: sensor = ACEBOX/SARA | digitizer = 
INSTRUMENT_ANALOG/DIGITAL: 
INSTRUMENTAL_FREQUENCY_HZ: 
INSTRUMENTAL_DAMPING: 
FULL_SCALE_G: 
N_BIT_DIGITAL_CONVERTER: 
PGA_CM/S^2: 180.240
TIME_PGA_S: 
BASELINE_CORRECTION: BASELINE REMOVED
FILTER_TYPE: BUTTERWORTH
FILTER_ORDER: 
LOW_CUT_FREQUENCY_HZ: 
HIGH_CUT_FREQUENCY_HZ: 
LATE/NORMAL_TRIGGERED: 
DATABASE_VERSION: 
HEADER_FORMAT: DYNA 1.2
DATA_TYPE: Acceleration
PROCESSING: Automatic Paolucci et al., 2011
DATA_TIMESTAMP_YYYYMMDD_HHMMSS: 
DATA_LICENSE: U (unknown license)
DATA_CITATION: Turkish Accelerometric Archive v 1.0 - Disaster And Emergency Management Presidency, Earthquake Department
DATA_CREATOR: AFAD
ORIGINAL_DATA_MEDIATOR_CITATION: : AFAD - Disaster And Emergency Management Presidency
ORIGINAL_DATA_MEDIATOR: AFAD PROCESS SERVICE
ORIGINAL_DATA_CREATOR_CITATION: AFAD PROCESS SERVICE
ORIGINAL_DATA_CREATOR: network: TK
USER1: GuestUser
USER2: 
USER3: 
USER4: 
[...]
12.684755549994925
11.435601924765695
2.5940246741592627
-5.140020448475135
-4.638342138008802
-2.6577339241522164
0.11705179133656742
4.981270513527435
7.9787328624025875
5.062430162157231
-1.2527644159405062
-1.6818132835369413
-2.1211575177306066
-12.46609590313091
-17.495043521281254
-12.93313410803867
-11.909234679411641
-8.329562491010547
0.5150366270354904
7.612297917350075
13.4159712507476
15.230766799697179
16.359315888878335
18.41205637188469
11.426062045412104
2.9006228496878217
1.9476427236631195
-1.1405738724999164
-6.134033706402479
-8.50217093464674
-9.383524553824271
-4.389150551106646
-0.4292615302097061
-4.651473040585511
-4.948958739077434
0.4513052399374675
-0.4698020606544951
-3.0634431619549107
5.339494855971935
14.010077119716456
10.122302099093412
5.7170154449715636
3.844334289298193
-0.3850714644379919
-1.5104302807443457
-4.863241107501161
-9.190985012791389
-6.418581560013191
-3.721704422753096
0.024351630233962987
5.166729191075452
3.0054336994108795
2.1108283938197783
6.903766974494183
5.615444508153547
1.0800877611484385
2.8663036298217985
3.2996264709017717
-4.133562118793257
-11.888947283124208
-14.70023502051926
-12.834078544614128
-11.271525718118426
-12.774654816404155
-11.38468067077502
-7.895071895581463
-3.281207494117737
-1.425230727537561
-10.288948539730507
-11.239497979717797
-0.9095175559541264
-0.8259396368739291
-0.7871731820382637
0.6407937009636151
-2.6677639771236117
7.704131167987647
15.188477768527859
5.446542661783139
10.393890761032793
25.402009156892838
22.719213126641215
17.42564348402477
19.61777141819149
16.67853238833198
10.724848307677572
4.5611209815021345
1.3630999281764418
6.441808966897867
9.833021395910555
7.9085926842523975
4.1906951252382205
0.9723644440171167
1.5967216497832935
-0.16906483803956157
-4.096269826017828
-7.701685413685787
-12.21448843007992
-14.59715165032027
-21.44079281257164
-27.849510646957444
-25.984622629082317
-26.602161722504263
-25.300883736417475
-17.30672857735777
-10.882756578095814
-5.814414133820762
-2.166156214860336
3.540785998552484
8.8464667986524
0.5823021671782254
-10.222996254431726
-12.882665881888073
-18.98869289359542
-21.027921677561288
-13.470974004922992
-12.687559084776455
-17.950053405623798
-24.747709961009264
-30.149521912982163
-26.29082343768243
-24.905871967905544
-27.993397017313807
-26.8558547701434
-28.20113944047888
-26.956623237524745
-23.694367751261368
-29.150914101511663
-31.417691303782924
-27.37605062136075
-30.054984761460684
-35.47249436124351
-34.6199960263353
-31.06368657072862
-30.149021182100302
-31.03792644112043
-31.896679200740657
-31.79477223893234
-31.594934355494306
-33.437550989510726
-35.021700943524046
-31.73571736357988
-26.60240271817646
-29.87694611893737
-35.30482608207786
-30.097176156872187
-30.363152207670748
-43.71714468666303
-50.64950437519939
-49.214989527421295
-44.52710751433999
-38.42544211277483
-39.12614230254691
-40.5019459449526
-35.35906826264029
-26.71208241336901
-15.740889197414893
-11.433256252762334
-16.12770694365448
-17.26494132987488
-12.794699085590501
-10.019425884010142
-9.638301965960736
-4.006304802697267
6.645927363627397
15.344202640125388
29.660999116222257
43.53396667555026
42.60894674505678
47.57794432278597
59.89992424579771
55.38762082453993
48.29756963829171
52.77666518435821
56.602456571288066
47.70005170918533
32.59636201687952
36.87377506166513
41.76070033242411
24.850508036166946
23.120981960909262
27.682431195873573
14.131241566670957
16.460415716506883
26.519493796882045
27.00382420012187
33.18652813665882
28.067445232042807
13.932377073988853
2.079011399820485
-12.28261512454758
-9.545533644336249
-8.104260275863407
-22.96185685773144
-25.67213614165518
-27.49951160839345
-33.05457578161349
-31.239905076863746
-26.76820098714655
-18.569658910805703
-23.066157175280658
-28.883891076473525
-23.012487277011445
-31.99406224406486
-39.69784739468202
-34.65222885341259
-28.711629021487823
-9.231148605081483
5.890344413360453
3.8570825753561166
17.070908756495516
43.943370090556805
41.08635089812708
21.273262874908262
34.11542294598226
48.71186719406256
37.12534346430307
34.14268816951665
24.646826269427645
10.445538890706286
23.912585230487633
11.589678002852676
-17.65673770574951
7.15146976002071
17.611788365246305
-12.090122295775265
-3.2245133330469358
3.9867840535584897
-15.670557568147784
-2.2985807676216035
15.5663577750789
10.790132635616681
22.113676083777044
43.5995321633794
39.710927986525576
18.634730624807016
12.76394073190762
12.345479881882913
-3.9487821882047887
-14.363007917627684
-9.357648982114522
-8.870347386527257
-8.299391320443512
0.9807731239093747
-1.2334386472573282
-10.949295206740837
-0.27914398388708417
15.486615008870261
18.001686942696494
24.041348743164924
33.18783704504325
36.313660293004
38.233286862338225
33.69857778821107
23.064172753774756
17.941087776385622
11.669747704148559
-2.1565016982183636
-12.708314666704572
-19.948320163162567
-28.195453790942366
-30.413119683414653
-27.16470698942806
-22.36893730916984
-16.044890757965817
-13.674546456801675
-15.725790648188466
-9.33389398432138
10.179055326382608
16.900045042931964
3.74428545260727
1.2751381751208428
3.593731572354504
-3.5433028165546503
-12.073549235079858
-23.698607905209162
-20.020744248889745
-12.352379509520308
-26.801956465302588
-27.588128987132148
-16.644165417324327
-23.063711709835005
-31.123235295452638
-28.300173093373928
-13.197187892935226
-6.41528812316979
-14.362192870209396
-13.481412072010269
-5.35257572981689
6.484143597854321
8.819580070967982
1.259701551912032
8.779541965680423
7.61749790505892
-8.605371290132693
-13.48362314385977
-14.289947264077364
-10.971817686118895
-7.74952702393729
-4.9851956248366
7.941328009560518
5.720109834117969
-5.282764422400665
-3.5853952994013945
-5.964099728744262
-4.885661869444937
-5.629583603982862
-13.457279960221168
-0.47633944671522055
9.34707862671692
5.970736844283225
16.586932287051127
23.248113334282124
21.52981901784357
19.0406055314239
5.245081749235042
-6.125697012804474
0.6982699930235274
9.49118544918702
-7.094560037952493
-27.025671020017114
-16.2720608802025
-9.907956556641732
-22.862245199877453
-18.941391356076277
-15.089014907352569
-29.09682521559111
-23.75940564679121
-11.302278836929874
-20.6950831947526
-20.765208195581607
-13.771674771522541
-19.360557359926883
-21.71744385015047
-26.613459489635538
-31.194166891978856
-23.26449409829019
-18.638190283315307
-22.19241272842731
-28.362316240043068
-28.841383141547084
-23.335709646886915
-32.843322529499105
-46.70133833282003
-40.8957830318081
-39.57078068750377
-49.68128500585372
-43.863000084240696
-39.78062399845758
-45.73655113574216
-34.312189744713805
-22.369702557257575
-20.19971313219097
-5.846477089138867
7.011822026276993
-2.0238888408704563
-14.044747700955025
-8.554995439089486
-6.374537185017827
-14.408586482584672
-15.404316162712469
-23.27247970554188
-25.820446955329086
-16.095596905910174
-27.847271892788086
-34.38443892495437
-22.83371369173371
-27.18252900640018
-29.162195213360636
-24.27220573551964
-25.89644287386785
-12.839851857413285
-0.4923930044025569
-12.08459025551678
-16.11619234844277
-5.221817458092617
-10.652333095423788
-19.94467958363177
-13.855887889311502
-9.767937425969997
1.7286500173077042
14.065676306599277
-2.4061144081780146
19.756242479858503
84.36947106619147
64.97753670559341
24.06314285189698
69.07859646432229
88.6394368659496
65.28681360748506
86.28259446230453
100.9299776217857
90.23827598580421
102.61722765107503
117.42847009639704
118.64006486733354
116.626757855869
111.94249058654485
117.41791949178706
117.45015731298072
97.9884788365118
94.71447987851896
102.51391844607969
106.31633646019415
118.07658688844846
114.39662438009594
111.00659288721728
115.72679094186509
83.95780713632755
58.513027498548325
74.33540147709878
87.28569706757351
90.33686729850794
88.79079639675122
86.52171667748652
93.38144054928473
92.29707612798634
87.07163504580362
100.0487970634672
117.5582073401584
119.85881193409023
114.0636253572516
112.1575866048227
113.93775969407976
106.55111781127385
91.68494978619339
84.50620245430763
71.7300475873024
52.381697367664756
52.47135010327111
64.27804750162002
63.0055846824631
47.590371726176805
43.08449246113038
58.081199996682024
65.46892530007612
62.20396229194087
66.08832929254109
71.63086710375717
69.20552748885498
69.11058499332604
71.27657459570192
55.630915361282476
32.87949617170303
15.66851076192032
-10.956852930410664
-33.33112894729627
-25.99100903722208
-6.436365239965998
-11.786236620769875
-29.26725988538852
-25.784444486932813
-16.475194142371777
-8.099003339311958
0.5115728629644323
-10.263663544813033
-21.134025995649395
-13.533848847089946
-12.03497032081649
-24.734852420048952
-29.333352822134394
-16.574044602636643
-7.813376963303196
-13.368588356210628
-16.594268021002282
-17.495430417673877
-27.55144862122529
-31.381323558884546
-16.809354743920515
-3.2854254732080856
9.62914180923378
38.187820886864515
53.36229312805564
39.99178245011423
38.67753867161984
50.63886893241497
49.60771664756383
47.181116683947046
45.646779553843196
50.23297674014336
66.14521507693406
64.46813771676086
61.88757869294427
85.09514950804189
99.50053632830044
89.20826888029619
74.97503832272864
69.33197385567875
64.45548329377901
56.05488670439139
52.77934822149073
39.86256979931431
13.655395113454727
2.2057875478413376
13.352402384957076
30.748437509076478
42.17806583285484
50.17564623186961
50.50335656716719
41.28609143171037
38.57689963593526
46.10207813525232
52.602958070846995
39.411373887799314
24.392909096487433
35.59727045184561
33.710325012266516
23.119010267210385
34.66995290744816
33.67708296182355
36.1117596713831
47.85822138083317
34.46822144916442
30.264804694726866
36.79216224491531
31.467217542439002
30.077182338298584
22.714913359658958
17.201693398327738
34.92590482290578
49.12283635876374
47.17300459738036
67.71738510989849
90.77368776179237
73.9168140993049
63.587559147917965
49.130372129306465
21.708981612135542
40.48121754272867
46.166833087405045
23.935851476602057
10.839789389731349
-27.728684813632785
-35.096050626621405
-16.69100280093535
-34.889439066685384
-26.516129951537668
-12.298311783532702
-36.93851069356011
-22.05716816416875
19.097754690990023
12.699876500654618
11.738063806895314
32.506063868961164
13.726850103538448
3.0882015849286066
21.917418274420143
18.921032192172394
8.0712154368647
-6.957271104921052
-27.79966671593068
-34.12756939538671
-20.747067535920547
-8.808345022832928
-24.32010268176164
-21.700387904555033
4.761330406043268
21.344694692032157
45.469624647428475
60.91107098803187
86.58735072995121
105.5336098497282
67.69773915021764
63.74174173101738
90.54456162955144
72.66172119713183
51.31270046943588
34.27049092361587
14.796526927180983
10.44427456063647
26.918526665948505
34.65576578390176
2.2731447358566004
-1.0013526788183704
18.078386082103666
-6.299908453463187
-22.092353182496083
-10.739023629352623
7.314902344132302
7.773837684273093
-19.128821040974685
-6.426763755206413
14.524464296621321
-12.341740692898766
-30.08532794743713
-32.705462884193025
-25.831484312331057
2.078616385685987
4.899472188671971
-7.883621878126022
-12.019485679801646
-26.81383817846333
-6.541425841510731
33.82963641928434
12.046541564463004
-4.55682699065605
24.770167536825607
20.436856313567233
10.430673939412229
20.290840649361225
-2.235618055431538
-9.992484992259488
21.55047157739053
25.292038008215435
4.501574876411619
-15.81001024030227
-34.31457236539946
-47.420179145113806
-63.405701547288956
-68.72039473056479
-55.28749866142901
-22.76795314944317
-8.86296863326093
-24.580427532611488
8.075164241078877
25.915151774423066
-7.900152157536882
-15.654499660826458
-36.87672147040877
-34.196291905917434
-18.589744302101128
-48.890854747143365
-51.874534394858394
-65.4189348713296
-52.46358280610226
-31.360816326721178
-87.78245937723595
-38.94396452429283
25.54648592470538
-38.674565134640716
-43.57015920782084
7.570134535019782
3.54634161606351
-49.09437120035929
-33.16293717931415
23.19159949043379
-45.80039021977357
-73.40792970669956
-14.144174359508396
-32.55393413393026
-60.39853733080593
-47.832440041855016
9.257448521392988
10.393571498290555
-73.267245338903
-43.04068995307845
6.886441344266522
-27.648599455723424
-33.128619946515734
-21.02336459178444
4.36987533505814
-0.2566746134873298
-40.295834074455676
-3.1476883961721662
59.85349669140153
69.65706825918059
23.240275332727073
-30.618474439638668
-49.24832854253034
-125.7252254462219
-165.58019483458355
-49.24133971588297
-9.49299776263098
-60.981367517482816
-15.727900807669371
29.222769574763863
90.4364113158454
170.2187394128634
23.778128568376243
-118.94923716168262
-2.8205792027669867
8.57456260177501
-96.88171213944368
-74.83955453876474
-105.82446854145068
-158.6298850974699
-97.62776564427436
-60.10907059670507
-45.82783289959322
-36.639646987480184
-36.69735056167685
9.536891498272118
21.177084066219393
-3.819814159840445
-13.908607643479025
-46.85968556277896
-52.7004274643904
-25.884173870337477
-42.31707538328961
-69.0153478788719
-57.278413187732205
-59.904337953913824
-98.19936529147805
-102.03512105337316
-83.76155095531935
-94.96141823034068
-96.31793845884141
-81.75932776639914
-80.61532208020397
-80.76094647640757
-83.4935787709093
-91.04186388269676
-85.48525860307937
-80.71495263464918
-90.51022016838664
-90.44968395390688
-80.08322062770141
-74.20158581543608
-71.37654494416029
-65.22130617130378
-47.60802621061586
-49.0134367719563
-68.24618742385228
-52.94177654735172
-26.889099531294445
-27.022447152547038
-30.541879315789192
-21.207654273298584
-16.140317138009685
-19.308594322709613
1.6370135408337907
12.241731280645599
-23.39108945302421
-39.35601959750249
-27.719403034551153
-26.17351371773268
-19.90714410008755
-6.796595311449578
4.085103045637186
9.177398363525857
5.247790280688022
-2.8148912932154313
1.6297752041268008
13.721548221743802
1.2543686572117823
-9.652443605669603
-8.595795106856494
-37.10966282692658
-65.6205181360522
-72.64177529597325
-76.4376948791127
-70.1390545739831
-67.28917386717015
-62.26970320321852
-38.39304319044161
-22.467684607144673
-13.81227574886837
6.327894054875181
18.478746184747944
8.476122306974474
-9.994026273302978
-24.453287480410413
-33.66397273788142
-41.521337844489466
-48.48851285083814
-54.49997039852603
-56.720565063394226
-45.16996523907496
-36.21815068961139
-48.02102369875089
-49.70519410003376
-26.040903779796793
-15.988145540574992
-38.84821272493445
-55.24212390826124
-47.07077507516945
-55.67693371742396
-75.36630062580427
-75.2592946785321
-78.42529168033082
-75.1077465248767
-53.47817843215487
-45.49300584839359
-41.08860013178226
-44.05442444135975
-59.30402002751252
-43.42147598953793
-24.108412075701555
-32.6612261703263
-42.3020849501023
-56.030424643744794
-55.8258947250721
-39.23893955256952
-44.55002808243059
-53.47695405720069
-43.9688355355236
-30.924588335831896
-34.210958819535
-47.29395746215134
-43.06617120788416
-28.247002872419678
-11.582028539759145
-6.586004564915177
-14.657008511357805
-5.040265899660143
0.8470768258404123
0.5027998392236352
12.305936577059063
6.427986828054559
-1.2639001327337012
-0.5062953364758459
-6.9417257789372275
-5.10752734963679
-8.177535132124282
-13.071709280054309
-12.101993819528216
-32.8104739463033
-50.878751301605746
-44.088756379322106
-33.63538571072029
-17.338220283535758
-1.44913008890984
4.4025692440818
14.756489605689014
23.255529632394047
29.272814180483138
37.76932275759175
31.389356398439006
28.260628591161012
34.61177930585186
28.140836665123526
28.352983557139353
32.56462267524659
36.12834506679232
45.84451491437946
30.25316980579499
15.407589749890784
19.308621311592162
7.284054636210875
-5.334094276863711
-11.74710264052289
-4.299475527404264
10.20257764419073
10.74578218676026
36.58076877183299
53.287159614637616
41.257991876779634
51.810213359965495
52.25132715356017
59.330086684377655
72.32411734772117
37.639555585844604
21.15813670687132
33.8332656282278
30.06812426031366
18.530919817021488
0.9472956053359874
-5.602073154476463
-1.6043647302882005
8.227778535115338
11.740184671780572
2.2145129177224856
18.954944662673142
32.461589127739686
43.627220361851286
71.95232869815393
46.09618297185643
27.459894851448
63.856608835554006
48.29824223936306
9.137629058598412
13.123418194915844
12.475047864278835
-7.631420748424816
-16.095809654571344
-3.6535208429437596
-1.193953558441366
-8.403152604221635
10.480161702344228
8.818659942757721
-20.01203391128164
-9.81711858705724
-10.41614760474095
-28.82715952846707
0.2786932825739221
11.244774709915285
-4.393546121851351
16.567747995020806
30.711563625153683
15.987521397579055
2.4935709460168605
13.534989833028074
25.942002952249055
-0.2689254552061193
5.382244947229492
45.45839567329
23.666859765511894
-10.037976980770198
1.224488012302315
14.835417732584945
28.727739684685645
47.960310319239056
40.82645682415852
27.949183651819943
52.34360241987401
58.410582006165995
24.598554225813647
15.728947824501237
0.11157660002441395
-26.21990813494739
-11.989079083078842
-24.495219994377326
-60.453825063612825
-40.966780058278225
-25.584370764987682
-48.811657694823296
-44.4660842619185
-17.269351938200938
-11.52499896700588
-14.906899458855214
-7.068751109744371
-4.582719603875045
-8.774777204041756
-0.8518295991044615
-2.367455822043874
-10.717398835062166
3.6549382694665837
0.24130652575950418
-23.88536585888451
-11.594252161600748
11.101651076532816
12.328184358095731
23.434267226220832
36.86011249760866
26.105404162130174
19.728325043974404
28.07555005817782
15.780199037205477
-3.9740192843832363
-2.826847806054204
-3.340977717589147
-9.199502227883885
-9.47286816920158
-21.89514086712819
-22.3484126546419
8.72393710987789
13.859603487858713
0.7758788865809787
22.014337779892088
38.97201902625174
29.899948888462415
30.257993139186937
46.79808762163214
45.16834727388245
12.829576427383175
3.352578787494546
6.655690762999737
-24.66282298383864
-38.245017305251785
-21.712184691223765
-17.569284970421958
-8.864542147105887
-0.8669801799743712
