AAD_Filtered_TADAS_FILE
AAD_BASELINE_CORRECTION: BASELINE REMOVED
AAD_FILTER_TYPE: BUTTERWORTH
AAD_FILTER_ORDER: 1
AAD_LOW_CUT_FREQUENCY_HZ: 0.025
AAD_HIGH_CUT_FREQUENCY_HZ: 40.0
EVENT_NAME: 202302060117
EVENT_ID: 13194
EVENT_DATE_YYYYMMDD: 2023/02/06
EVENT_TIME_HHMMSS: 01:17:32.00000
EVENT_LATITUDE_DEGREE: 37.288
EVENT_LONGITUDE_DEGREE: 37.043
EVENT_DEPTH_KM: 8.6
HYPOCENTER_REFERENCE: AFAD
MAGNITUDE_W: 7.7
MAGNITUDE_W_REFERENCE: AFAD
MAGNITUDE_L: 
MAGNITUDE_L_REFERENCE: 
FOCAL_MECHANISM: 
NETWORK: TK
STATION_CODE: 3121
STATION_NAME: 
STATION_LATITUDE_DEGREE: 36.66408
STATION_LONGITUDE_DEGREE: 36.21825
STATION_ELEVATION_M: 5.0
LOCATION: Kahramanmaras_Pazarck_Turkiye
SENSOR_DEPTH_M: 
VS30_M/S: 271
SITE_CLASSIFICATION_EC8: C
MORPHOLOGIC_CLASSIFICATION: 
EPICENTRAL_DISTANCE_KM: 100.90
EARTHQUAKE_BACKAZIMUTH_DEGREE: 
DATE_TIME_FIRST_SAMPLE_YYYYMMDD_HHMMSS: 2023/02/06 01:17:29.4475900
DATE_TIME_FIRST_SAMPLE_PRECISION: millisecond
SAMPLING_INTERVAL_S: 0.01
NDATA: 12501
DURATION_S: 
STREAM: HNZ
UNITS: cm/s^2
INSTRUMENT: sensor = CMG-5T/GURALP | digitizer = 
INSTRUMENT_ANALOG/DIGITAL: 
INSTRUMENTAL_FREQUENCY_HZ: 
INSTRUMENTAL_DAMPING: 
FULL_SCALE_G: 
N_BIT_DIGITAL_CONVERTER: 
PGA_CM/S^2: 0.146
TIME_PGA_S: 
BASELINE_CORRECTION: BASELINE REMOVED
FILTER_TYPE: BUTTERWORTH
FILTER_ORDER: 
LOW_CUT_FREQUENCY_HZ: 
HIGH_CUT_FREQUENCY_HZ: 
LATE/NORMAL_TRIGGERED: 
DATABASE_VERSION: 
HEADER_FORMAT: DYNA 1.2
DATA_TYPE: Acceleration
PROCESSING: Automatic Paolucci et al., 2011
DATA_TIMESTAMP_YYYYMMDD_HHMMSS: 
DATA_LICENSE: U (unknown license)
DATA_CITATION: Turkish Accelerometric Archive v 1.0 - Disaster And Emergency Management Presidency, Earthquake Department
DATA_CREATOR: AFAD
ORIGINAL_DATA_MEDIATOR_CITATION: : AFAD - Disaster And Emergency Management Presidency
ORIGINAL_DATA_MEDIATOR: AFAD PROCESS SERVICE
ORIGINAL_DATA_CREATOR_CITATION: AFAD PROCESS SERVICE
ORIGINAL_DATA_CREATOR: network: TK
USER1: GuestUser
USER2: 
USER3: 
USER4: 
[...]
0.006062448635792028
-0.0010512479386175918
-0.0028536450964872107
-0.003963078416253462
-0.0036150527847785973
5.648281981272467e-05
0.0020291898569515764
0.0055399790387751875
0.0037414547346846967
-0.0007752613481805461
-0.002090990948073815
-0.0036760004966771907
-0.002183948144604029
0.0033877301457923537
0.0032571099716902576
-0.003913120722799801
-0.00861635111560187
-0.005301333544399115
-0.0029083442205614144
0.00356306612476888
0.004330658196821523
-0.002847838250841459
-0.005968443743493131
-0.0007529303195969572
0.005858960977924515
0.009260511860405883
0.009090421667706398
0.0003447363964707896
-0.006052723526721978
-0.0059484647022255465
-0.004180186647383944
0.0019338397751831429
0.002434475487529934
-0.003247594980733742
-0.003965593185810135
-0.006754495029110634
-0.0035130284786341745
0.0059165068144819265
0.007658766106747217
0.0011066216365722562
0.0014988547373389113
-0.00209236402126212
-0.002972007069658166
0.004484966306762746
0.005200231314118385
-0.00217924176931383
-0.008361120186285802
-0.008360266467982064
-0.0031455132665716154
0.0003097891280164168
0.001940806614413019
0.007658320676190677
0.0031508754222503293
-0.0002123810021389472
0.004435553854221117
0.0020613679648337443
-0.0014805330023548219
-0.001709372944376841
-0.0015889758143283336
-0.005487197890006052
-0.007784372316422918
-0.004790525662426974
0.0038643483829270344
0.010975289361397538
0.00801040737610914
0.003173850353447598
-0.002054847929581371
-0.002779948455658207
-0.003760067104390772
-0.0014455297483312929
0.00099529548776621
-0.008833421564383968
-0.015110172014742828
-0.006234467588791618
0.0034989497404110522
0.007351438155577482
0.01305556878369997
0.011027451286994897
0.004577470620461544
-0.002093857165782712
-0.003666181478634969
-0.0017287953942610689
-0.006776217161113116
-0.009615065500586625
-0.009956626165157375
-0.0059186241955084444
-5.1100510096998964e-05
0.0021605428442226953
0.005548760002310333
0.008330615618333329
0.012092321853126383
0.0069880212327567085
-0.0024061003083037324
-0.008692811701118122
-0.012253067406443
-0.0034101512938833844
7.952526457035739e-06
0.0021096555184368575
0.003972955859439559
0.0014350093155560044
0.0022704127404619035
0.007713658097083678
0.011478078735857744
0.003210452703518885
-0.0018552082530135757
-0.004244638034681666
-0.00889297909579935
-0.008993390582782307
-0.009147318971696137
-0.008143773328082917
-0.0020832633012484677
0.002068563781778915
0.007632991908999538
0.010884925643046803
0.009431652503496358
0.009018419234928899
0.005818233674936285
0.004947267988601474
-0.0018512284376573564
-0.008556365639894961
-0.01077426560519038
-0.011201818261764925
-0.00666532750875785
-0.002631233658976272
0.0018750662298522656
0.010423091974403649
0.013054757784245016
0.010781122684850392
0.008071034984591025
-0.0007359708584749972
-0.00642235082137309
-0.008937103458682228
-0.01373687116742672
-0.013523268961884011
-0.009759133047425497
-0.0023878147067077386
0.009908748426503303
0.016509606585712558
0.02102066556163048
0.02161314374344444
0.009061057761100146
-0.0028765534123687078
-0.010127724915751278
-0.017485901970877335
-0.01528428175880209
-0.011849618581477896
-0.011082896659368489
-0.002635952650876741
0.005047943615566945
0.014231558993798002
0.022404464844774978
0.019776060301674697
0.010447965941899399
-0.002228082183898161
-0.017238543093083036
-0.022667490849296288
-0.014656817883096546
-0.010788829983015256
-7.971009027060506e-05
0.007576868036804303
0.01134670145969757
0.018213290933220865
0.02100347759254346
0.020664650885991415
0.011751062889234299
-0.003850459710081023
-0.017821171048443243
-0.02558471507797293
-0.026997734417324674
-0.014468224055155283
-0.0004736156373573571
0.010258207058868265
0.017427684758606874
0.015999443674140086
0.01578344090638076
0.013596816825683117
0.009481142087841572
0.003418340211892393
-0.007965199964046599
-0.020682229138558546
-0.025236555054390333
-0.014050116035794182
-0.0011807243300642064
0.007639674434421824
0.01533558104200748
0.018839990414525335
0.012268842373966683
0.0033826251629303873
-0.007920440391087937
-0.016160432813396196
-0.013513518089471623
-0.008954079628308399
-0.0015373021417551059
0.0014717140816277385
0.006715106008330288
0.009906194927614735
0.010971498799199677
0.010403722639443433
0.00388991842623234
-0.0029728472099877627
-0.005801907228557104
-0.009093847916261161
-0.011464507085849875
-0.006842864995727345
-0.003755264874352925
0.0025904473669329663
0.007038723668073419
0.007018937548990562
0.0029453233692823978
0.0011691647210813816
0.0009404702991901932
-0.0032380252967691057
-0.0015572646824726123
-0.00014929354172905262
-0.0013175305921698391
-0.0009466221650701693
-0.0011330240922037677
0.0028051625347811707
0.004862037055413867
0.0051599121584054
0.0027371431775864803
-0.00010356315541242812
-0.003403087162913647
-0.006235938822936736
-0.003198874170802062
-0.004961301719314414
-0.008120323059384737
-0.004010063645713016
-0.0011201730801259934
-0.00236163168583244
0.003696948403907851
0.010547653175057967
0.01517131496421185
0.009395102608479094
0.0012405833470426188
-0.004104205706531171
-0.013802297619744469
-0.010645000677033951
0.002007646879669454
0.003023717546182971
0.00024002918697067378
0.004140356796250416
0.0039542862686743115
0.004038758524998983
0.00669779839704306
0.00804127408682068
0.004627389061213252
-0.004717913539892375
-0.010798442721674429
-0.017621202964659504
-0.01433536485445709
-0.0001583917164325052
0.010027385172796706
0.015441588381990643
0.013103450632704027
0.0052252628628069705
-0.0020767217864823117
-0.004684545885585874
-0.00492823936414362
-0.003889042348535451
-0.006668106263113408
-0.005916403141694073
-0.0053810594661724605
-0.002477924488546831
0.004636655672727922
0.00733291128326176
0.010687955155683247
0.0098600492092994
0.00348057462075667
-6.135799482829785e-05
-0.0059415026531650745
-0.007229716500943829
-0.004072186927605427
-0.0040865777304245525
-0.00519949141722113
-0.003943901435887863
-0.004798617241393879
-0.0036745261705425905
0.0041205645249827545
0.010086432711715542
0.012902881067621533
0.0066956602099605255
0.0019293704777857954
-0.002880301092862886
-0.008334598645645688
-0.010059979406366213
-0.0096113008412074
-0.006427786026840764
-0.0021572670095379404
-3.135192600486904e-05
0.002727572823067117
0.004254436423008
0.007985929741688097
0.005843850714096071
0.0012713404554454335
-0.004991489532688594
-0.010830938359210335
-0.007835717343638688
-0.004144948225895182
0.0027985692162494735
0.008749574871344309
0.00773526205906682
0.007329106000126036
0.0020965757478676986
-0.006769686427422351
-0.0020193198711845528
-0.0008150843696437594
-0.0032328005166292876
-0.005159065730416273
-0.003263671510156041
-0.001508996456029917
-0.00036500666924883855
0.004476509032226007
0.003585488251210756
0.004707416030410385
0.005932920590299172
0.0005512736736544531
-0.002135726791444151
-8.691716324676864e-05
-0.0029358558153800207
-0.002383744491749563
0.0014073736737520443
-0.0014275208802981437
-0.0015634594185645933
-0.0012643667226113564
-0.0018652993788463193
0.0016073416626952743
0.0011922096946195705
-0.000859317214371882
0.003123093467809329
-0.00026495349038333345
-0.00644839720358518
-0.0032886291385148887
0.002341192121103556
0.00014998301423417462
0.00036030100891274065
0.004319484144258181
0.0036512538408990164
0.0021744151076696816
0.002693984312769027
-0.001416623640126577
-0.0033891547634072815
-0.0019269880780763329
-0.004473235579327016
-0.001586095475760765
-0.0066650287676714316
-0.0058736576877433805
0.0014185139912869901
0.005839313737048574
0.006061872019112721
0.0032234621570474942
0.0035300946681876763
-0.0013785763974855322
-0.00023451306027268243
0.005735796285077697
0.0047188110778311285
-0.0013267962232048915
-0.0036709421770319437
0.001369799755186882
-0.0011976253192075102
-0.00011470602535296157
0.008145446932041885
0.009799015356969181
0.0030613800934670417
-0.005719099818834364
-0.0030475987245928544
-0.002817253132917051
-0.005413051230996145
-0.003854659209340553
-0.0012491172403400095
-0.0046046995591239774
-0.0028881258863360454
0.008219011307389312
0.010458117299017158
0.008617306897571184
0.008403839509562902
0.003296300183493646
-0.0033773332806418532
0.0004762426292670776
0.001452528052617318
-0.001080921059603504
-0.0018235370764282724
-0.000989783037541804
0.002654806627516341
-0.00010852841319360711
-0.005254610689209955
-0.0026252073968347283
0.0019180864181808747
0.00479848697624355
0.0064849493977267095
0.004934595968314641
0.004807675885422048
0.006893555155937509
0.0010721007092516191
-0.005684261135786164
-0.0011058137114541271
-4.334941273752331e-05
-0.0003580443147516116
0.002288130219224521
0.005004023038762777
-0.0015851443070537602
-0.005460238048240545
0.0005895690444922991
0.004063176027629294
0.002513348023942969
-0.0019006408848880124
-0.005073917691104285
-0.0032226597724635216
0.00036159150564443775
0.00802668483663602
0.011564845732190937
-0.0008797056490424402
-0.0029079340713658777
-0.0036776160920019875
-0.004181122967726521
0.003314478583461367
0.000398427048512832
0.0016540993967728858
0.005755949422443582
0.0011710304709961436
-0.00011537563763008371
-0.0008163592572295786
-0.0024914772882127355
-5.203414439473397e-05
0.00480728925541777
6.494225358859514e-05
-0.0009125036905095352
0.003652964963181999
0.0024524714974829714
0.0071241465761586655
0.0045052415176201925
0.002437423395430165
0.004838606038891255
-0.004979054374718446
-0.0044927021091677255
0.0013703648826472177
-0.001614488250220008
-0.0009963893011909655
-0.0004047613803549555
0.0015543458469922374
0.005297956086034024
-0.0015890128719503913
-0.003730953151046594
-0.0028584024454215984
-0.005554405941777679
0.00012154084081814474
0.00830444648856364
0.009545870202600582
0.0027921466097761876
0.0010238687479549216
-0.0012419919920443397
-0.003927530250149055
-0.003004354500792949
0.001503150536198641
0.0010145625642772084
-0.0023538518001732815
0.0032046479984337945
0.00353297801560899
0.00448750931487212
0.012123958597673585
0.00775998122512897
-0.002238725426531591
-0.011155494058207868
-0.020149526394127093
-0.015980555398960546
-0.0049596245603562945
0.0007434856218162288
0.015462678133268192
0.023076661786813116
0.011468487579702967
0.00627482385162236
-0.00013503552345007456
-0.010655569675730784
-0.014091620219047852
-0.012988970621685775
-0.00877459479384023
-0.004119881411401817
0.0032369922592346773
0.010557701448313457
0.012005962967496899
0.015759813160728695
0.0063582810397259945
-0.007175089752258708
-0.009990111171452593
-0.011020225617177484
-0.014085482755855487
-0.008878868752663699
1.585003481511505e-05
-0.003152077341876493
0.0032107276983423675
0.006292672144659645
0.0006441952776756188
0.0021596849593247505
0.006579263781411979
0.008608672716280246
0.00416804646353559
0.004382860596990543
0.0015516168483001094
-0.008985544609462506
-0.008575609099152054
-0.009893664296950547
-0.01304068915767738
-0.010732090029528966
-0.000359231966948628
0.009955084421568188
0.014400483017327197
0.01707555684955091
0.011382150668683998
0.004536236637102442
-0.0003519386840022563
-0.007805810236956136
-0.011678230766222854
-0.011263004041903961
-0.014158326397493464
-0.011522516982816098
0.0016229370325465749
0.008940888544608047
0.011975331596587202
0.020795356555151075
0.011064588278982835
-0.0032161215485735253
-0.003853249888460133
-0.010297233999695442
-0.0094811596641011
-0.0042265041021903845
-0.006210603293768176
-0.002249794931164003
0.002518402533457738
0.008671938307544319
0.01410714804434353
0.007921515700700193
-0.004088315115488914
-0.009718934989568759
-0.013835923557714059
-0.01826108412409108
-0.013030344527469696
-0.006397087232776204
0.004025283320822506
0.020854849125668325
0.02896455208279662
0.033582407990672095
0.028669128818463903
0.004667916551962837
-0.01815457774079664
-0.03858527844732151
-0.054084101032704425
-0.05285206673194997
-0.03505480176057496
-0.008328056011979806
0.02418668273655968
0.050970108643586726
0.07066413271853839
0.07426197512807749
0.05350519593677854
0.018525480503714085
-0.026307851506483
-0.06805825653447893
-0.0920745694472072
-0.09342366112404836
-0.06969881467642296
-0.019020717202983272
0.03861516597150364
0.0896390311216165
0.11430918766076577
0.11188486409007402
0.08009539492960611
0.0260378308583796
-0.0375776081524886
-0.09392194881768695
-0.12559055671250974
-0.1313282918959585
-0.09059772300732472
-0.02186001832214389
0.04331547227028563
0.11037503414200397
0.14333413447159277
0.1323324900803763
0.10078942255301458
0.03526233790835186
-0.04106712330791151
-0.1065253560759306
-0.14392165210731972
-0.13472994526117116
-0.09593551957330018
-0.030718630361217726
0.045078928230194236
0.10334291917930577
0.13740262920123136
0.13760382628949977
0.09989940381207088
0.0332151623287066
-0.03687302907779442
-0.09512356230959007
-0.1321460011253226
-0.13153037160481293
-0.0949338548466997
-0.0356057577424263
0.03393639044859453
0.08998697047020555
0.11887788943826871
0.11949172564229427
0.08930110458812629
0.03282770270492267
-0.020312118619813673
-0.06666243398805197
-0.10257511996695784
-0.105757330411463
-0.08558910881108452
-0.044359840841487023
0.014300443263342927
0.06599013452847778
0.0899259411342831
0.08883646896831099
0.0717842370821038
0.04007269973236204
0.0012070231941974459
-0.040479966539909804
-0.07046738073801148
-0.07651262978038967
-0.0678346322115415
-0.04475151040321753
-0.006683069695455063
0.02480445244515787
0.05052709201291461
0.06601726860295884
0.06227524154646702
0.0504756206918365
0.02721384021457008
-0.003041500127712358
-0.026957808031602016
-0.040937156226648314
-0.05067426319811423
-0.04831409210373781
-0.034942014394965124
-0.01816394578901985
0.004071191585417704
0.026641155024520715
0.044921091404082285
0.05020268037887452
0.042427917204935724
0.030015292424242043
0.01479445616442627
-0.0034802923035721603
-0.028743781294484138
-0.04135722665730011
-0.047044356069000356
-0.043137142131566684
-0.021075367584782664
-0.004682933732060211
0.01252020630935134
0.034466451735409055
0.04604164326706215
0.04411234985465249
0.037533705540306016
0.021813570987938638
-0.00029016284807349663
-0.024517647284628383
-0.045123143020034964
-0.05487037129266776
-0.0561088063107073
-0.03885396877506068
-0.007324305089183088
0.0191303894293022
0.04087428097284314
0.05072996240263893
0.05011655161250177
0.04104727513146003
0.016193082133259512
-0.006222955133405137
-0.030503840157270506
-0.05061543002166771
-0.050434027338491505
-0.045662407704892854
-0.024937842568974886
0.0009536198900971758
0.023027018473455608
0.04179432365717862
0.04322178027171415
0.03877819694840714
0.02422763580020231
0.00355616274296044
-0.01214562614286921
-0.02469025795143185
-0.03926249278967046
-0.03605072187140325
-0.018848238890424657
-0.013319384695171705
-0.008192461906727386
0.008873679903943261
0.022087629964195374
0.02051163851184989
0.0232972071263566
0.026795281345073647
0.006428026859387922
0.0029897862744587586
0.005634767547124388
-0.012893083020603355
-0.02399878729265888
-0.032301027124903875
-0.03319864532569382
-0.02543459541488377
-0.006053453600311703
0.010988488659013501
0.016528264697409464
0.02880779558433591
0.03153179654013881
0.024198302028071352
0.01928519900362507
0.0027613295648708496
-0.011433329358657084
-0.02677958689190264
-0.043311067372372225
-0.04745290724629673
-0.03981249302680527
-0.028918726301535472
0.0024340536264545044
0.041606913335018286
0.055474459903582574
0.05981225120201431
0.047750320922804144
0.017625014634086004
-0.013409783585133414
-0.03848683260259472
-0.056819201600303654
-0.058431505969956846
-0.046177189905211954
-0.027674927715310375
0.00048303927553055177
0.026601107912694714
0.049402093408240026
0.06118455208692721
0.05775854520381499
0.04309808375388348
0.014078972050130237
-0.028353322133960662
-0.06431575611646163
-0.07208141523216134
-0.06253978136199607
-0.03403415669214149
0.00034772946755772443
0.026011868850549996
0.046560531102565986
0.05452524012254159
0.05057116867492943
0.03190374241195107
0.008563305450861217
-0.01528177944891529
-0.0392655212721389
-0.05160121089147813
-0.052660959599039145
-0.033472408119175685
-0.010167769600932484
0.014377378738114057
0.034392771342001985
0.039268580463702754
0.034888736187128795
0.024382750389527547
0.008657477570769677
-0.01318693254892291
-0.029156921722226038
-0.0295515876263854
-0.02634449129071377
-0.017069629851113943
-0.005028190749161237
0.006029608492842962
0.017561415272806403
0.01865881134716562
0.026415305633778658
0.018115678896173458
0.006253874260387358
-0.004671931151627786
-0.014693164097575633
-0.012273784819349395
-0.013926858169557623
-0.011245988908463954
-0.0008356947574537476
0.005168177384557962
0.008654298302348162
0.010701684739785678
0.008505993875764178
-0.0012417082026629752
-0.0035113789216480273
-0.006867682087421887
-0.01711787112172262
-0.003957723292664754
-0.0007010265737533543
0.0005815912790432213
0.010545774140622285
0.009971679232010104
0.00911083787584451
0.0059125440013642755
0.002328810229527824
-0.008280080443913897
-0.013935856708618908
-0.015996545484091754
-0.01762154987301827
-0.0036502754777571972
-0.0030658282401065332
0.01065021831387161
0.019238311679929496
0.01708437217361013
0.022882813941995653
0.010391901949187541
-0.00045006727173387055
-0.01165307970653454
-0.023097741669382537
-0.026711675939868153
-0.023229614451365142
-0.009809424200642982
0.00010675631664930798
0.009522316958119503
0.021429177748307465
0.022100398075830804
0.017866681065685425
0.014555638186272172
0.003101761587637621
-0.007798491948806264
-0.019180727629391024
-0.02712823261441865
-0.020085984424725704
-0.014809023798859292
-0.006613350154315717
0.007759339632414456
0.01150153710751867
0.015896511206322603
0.02469345498019474
0.012480630743956075
0.0012660129536690918
0.00018818618262886748
-0.011689221131727677
-0.019628195683148247
-0.01192997479737764
-0.009038684489931927
-0.006195061217371912
0.0032168824663093886
0.00971809362211326
0.008874256007251146
0.005442350472387936
