AAD_Filtered_TADAS_FILE
AAD_BASELINE_CORRECTION: BASELINE REMOVED
AAD_FILTER_TYPE: BUTTERWORTH
AAD_FILTER_ORDER: 1
AAD_LOW_CUT_FREQUENCY_HZ: 0.025
AAD_HIGH_CUT_FREQUENCY_HZ: 40.0
EVENT_NAME: 202302060117
EVENT_ID: 13194
EVENT_DATE_YYYYMMDD: 2023/02/06
EVENT_TIME_HHMMSS: 01:17:32.00000
EVENT_LATITUDE_DEGREE: 37.288
EVENT_LONGITUDE_DEGREE: 37.043
EVENT_DEPTH_KM: 8.6
HYPOCENTER_REFERENCE: AFAD
MAGNITUDE_W: 7.7
MAGNITUDE_W_REFERENCE: AFAD
MAGNITUDE_L: 
MAGNITUDE_L_REFERENCE: 
FOCAL_MECHANISM: 
NETWORK: TK
STATION_CODE: 0138
STATION_NAME: 
STATION_LATITUDE_DEGREE: 37.704858
STATION_LONGITUDE_DEGREE: 35.723358
STATION_ELEVATION_M: 477.0
LOCATION: Kahramanmaras_Pazarck_Turkiye
SENSOR_DEPTH_M: 
VS30_M/S: None
SITE_CLASSIFICATION_EC8: unknown
MORPHOLOGIC_CLASSIFICATION: 
EPICENTRAL_DISTANCE_KM: 125.31
EARTHQUAKE_BACKAZIMUTH_DEGREE: 
DATE_TIME_FIRST_SAMPLE_YYYYMMDD_HHMMSS: 2023/02/06 01:17:33.6406190
DATE_TIME_FIRST_SAMPLE_PRECISION: millisecond
SAMPLING_INTERVAL_S: 0.01
NDATA: 12501
DURATION_S: 
STREAM: HNZ
UNITS: cm/s^2
INSTRUMENT: sensor = ACEBOX/SARA | digitizer = 
INSTRUMENT_ANALOG/DIGITAL: 
INSTRUMENTAL_FREQUENCY_HZ: 
INSTRUMENTAL_DAMPING: 
FULL_SCALE_G: 
N_BIT_DIGITAL_CONVERTER: 
PGA_CM/S^2: 12.110
TIME_PGA_S: 
BASELINE_CORRECTION: BASELINE REMOVED
FILTER_TYPE: BUTTERWORTH
FILTER_ORDER: 
LOW_CUT_FREQUENCY_HZ: 
HIGH_CUT_FREQUENCY_HZ: 
LATE/NORMAL_TRIGGERED: 
DATABASE_VERSION: 
HEADER_FORMAT: DYNA 1.2
DATA_TYPE: Acceleration
PROCESSING: Automatic Paolucci et al., 2011
DATA_TIMESTAMP_YYYYMMDD_HHMMSS: 
DATA_LICENSE: U (unknown license)
DATA_CITATION: Turkish Accelerometric Archive v 1.0 - Disaster And Emergency Management Presidency, Earthquake Department
DATA_CREATOR: AFAD
ORIGINAL_DATA_MEDIATOR_CITATION: : AFAD - Disaster And Emergency Management Presidency
ORIGINAL_DATA_MEDIATOR: AFAD PROCESS SERVICE
ORIGINAL_DATA_CREATOR_CITATION: AFAD PROCESS SERVICE
ORIGINAL_DATA_CREATOR: network: TK
USER1: GuestUser
USER2: 
USER3: 
USER4: 
[...]
9.649814688092487
9.3470024258104
8.144609881329227
6.687101182742202
4.820343401595392
2.944814716257245
1.4116612975657945
0.12526549286720937
-0.8853770138657304
-2.023626837773961
-3.345049816929923
-4.161597346224388
-4.336591477090404
-4.13186353894899
-3.5054524364331567
-2.6272991554565146
-1.6976105272562116
-0.23996140235091182
1.9911229409881281
4.307492342430393
5.697327545747688
5.965816130492868
6.323724266286273
6.947090783374807
6.505171010647802
5.569827216886034
5.488082416915801
5.72791038285082
5.625705009553538
5.355214896541879
4.899019815926391
4.077022740863838
3.0899533373341224
2.194635743035022
1.2979855776018616
0.33924334267657036
-0.5877661083518594
-1.1578607802370169
-0.9507270125965469
-0.29093306146488734
0.10747664566015837
0.0023145073291948085
-0.6942078913902642
-1.9737835903524652
-3.3177999510128613
-4.171064419774193
-4.621332707650015
-4.878340753889361
-4.782984613435257
-4.716621585237419
-5.485834717192507
-6.6982178318733805
-7.227387608125458
-6.881018320037704
-6.293317253824111
-6.060747196719229
-5.947743234194146
-5.015740627365803
-3.094668481160157
-1.0623297638012743
0.3705771418259757
1.3376398327849126
2.404228794456724
3.7573186951633
5.094469966686325
6.053358078699183
6.348996427438038
5.923674826992758
5.159378435281771
4.2680757231833475
2.832257680188824
0.7481110226505001
-1.3673143904543872
-2.8670042071238706
-3.5476503732339473
-3.7932097143509687
-3.798829538681145
-3.3296996261658944
-2.8294199802587565
-2.873794129467571
-3.1158096169676184
-3.3366281861845404
-3.9389113810330647
-4.857533518894717
-5.447519377336857
-5.357652676923211
-4.541193308904809
-2.9933011131358254
-1.2211089236931676
0.29667942176676654
1.939537948758238
3.5452311901771503
4.095422946084678
3.606479368427087
2.8906094472557395
2.415807405497085
2.5409701209566316
3.5068043426531887
4.92791666307255
6.020319211744819
7.065854725138673
8.816790843435955
10.318069050452175
10.439401153015567
9.247270571241472
7.024524524153104
4.955888172799202
4.2804531317415675
4.545548965934678
4.778934593581372
4.461822806341184
3.7108576632590684
2.9497022559182398
1.9601108550172917
0.4674141612094398
-1.218223487691074
-2.483797065486297
-2.9410629764428653
-2.9701274927200347
-2.879881918684577
-2.4955387377875065
-1.7608438463649672
-0.46981421406074364
1.2051769242142178
2.386266523216104
2.7564142285834294
2.5979778318436244
2.0826937151141975
1.3328669817897767
0.622970942674361
0.2557842588822328
-0.0747840834543004
-0.6328659398292692
-0.823515056507451
-0.5516124597851407
-0.3124279335808104
-0.08380067680896186
0.11667683447112735
0.042669265628591295
-0.4377209773862016
-1.3684346036738297
-2.5839244830626433
-3.8867834807871913
-5.083047486479498
-5.937608703082022
-6.138967313935057
-5.404099584096111
-4.117218401408678
-2.828602291711175
-1.7453101107953544
-1.475230248382485
-2.3280381487741417
-3.5020444023991044
-4.354037765172909
-5.06286465869465
-5.623971206133135
-5.5674177055952265
-4.95553975998179
-4.392269152678983
-4.14031928919738
-4.134656584200691
-4.316951569091955
-4.72665004332351
-5.213891411622672
-5.3655177653080175
-5.173056076028404
-4.78323707438411
-4.188744802780588
-3.7186142142920353
-3.545396221362083
-3.4665427355064513
-3.4610374094492116
-3.355642153900938
-2.6117823078917213
-1.2080650747888184
0.12815898973181572
1.0908247115490914
1.9248132879600195
2.922073734713039
4.530858991981217
6.2290335917071005
6.827056865995358
6.596698028844921
6.236714301789562
5.356095268838539
3.923728016505814
2.6963370943393574
1.4774803361422253
-0.34786973945368954
-1.9066720403723496
-2.35655989266384
-2.1890214201948557
-1.6907902894694775
-0.789843652055039
0.19690502671242127
0.6539654172389112
0.4448521572136512
0.33200255985525656
0.6610617907421882
1.1404073414975318
1.4912262590868808
1.35373020557665
1.1035530849062336
1.4247907939760251
2.340114287708985
3.779802871192476
5.202653031212791
5.639806183770442
4.969617945199856
4.004103200255055
3.3629974555956252
2.6834664512519892
1.7279442492752666
0.8420320647540648
-0.2768034467505452
-1.858418392367947
-3.4448301825932712
-5.107572999908879
-7.025053126929167
-8.63509699636498
-9.55402879413391
-10.026918198637722
-10.31339549773159
-10.510415078361682
-10.550720590810275
-10.216534781588052
-9.478063138739007
-8.41684073229928
-7.044367367763162
-5.4382382196716135
-3.8933696625746643
-2.7888549728397063
-1.8178299744707624
-0.5184674888780351
0.5686966226842735
0.9947961417044539
0.894435681612649
0.4155531454387084
0.02695869117778206
-0.2408639635536472
-0.7481065763779681
-1.235203656376981
-1.522597427612433
-1.4844612431676882
-0.895466319119398
0.10838950643444153
1.6963306090505077
3.7156678283996984
5.193238364824202
5.766588598494915
5.697128990344412
5.355326664439692
5.211554262961819
5.202132642841588
5.077679627144757
4.929137245153194
4.6642882898341
4.342472107680541
4.577486368399249
5.66479500614621
6.988333941715563
7.430140561860761
6.644889204299988
5.638160921128107
5.0986112361167395
4.632249838879994
4.208071715100782
4.23905261413681
4.36156100924201
3.6983444610909846
2.0514256322158544
0.06431440654703205
-1.6547970001765875
-3.1264484518462803
-4.368997630664812
-4.971406014833689
-5.161501530408593
-5.466830254511458
-5.33951066041605
-4.457494124437649
-3.5802756418755153
-2.8501218696964994
-1.6473109177528045
-0.24861328167297164
0.38515120561431543
0.28555603272565605
0.07930029662663074
-0.07028655181855545
-0.0169712896401846
0.3793666824415265
1.129362645297618
1.9772406339064874
2.4925899654093087
3.199627755537115
4.555039526260904
5.768499059518756
6.505127312873934
7.1104061452876675
7.438405627654627
7.170919584318083
6.241929627896267
4.68110948709617
2.6633793168278825
0.67081954991053
-1.0354959893736952
-2.608410365905909
-3.91178917359756
-4.605849192891807
-4.6660854282961965
-4.585241188977175
-5.022841104667227
-6.010826609500488
-7.2193412385182505
-8.338237511654675
-9.018808681000836
-9.19342070488821
-8.653780582367979
-7.169980596908387
-5.378397200133698
-3.7839064110929583
-2.0379460051702205
-0.16682691946141803
1.3619914590367006
2.4444006964732816
3.0187189398441507
3.439172635093962
4.585652579404836
5.902467318939885
5.954018396153061
4.998458902824087
4.191928144762948
4.128709544378031
4.812196813385808
5.440576736873306
5.285886958197629
4.472237419841906
3.1502202928652974
1.5022753305500647
0.27686231025012054
-0.42533311911390626
-1.4580699347574804
-2.7330911756787897
-3.423910043621157
-3.542558565324789
-3.5508841430727465
-3.5519852368438043
-3.121183546795296
-1.8829449782508825
-0.16594252780208169
1.516370564730521
2.9114918499512066
3.863532625495796
4.315973556995925
4.501892546930198
4.665077890254183
4.816512110875207
5.338598949629707
6.48408854625958
7.770102805833253
8.902957201146757
9.69236783854324
9.954644655203305
9.874739861863512
9.353059357672793
8.203408058629426
6.333447876391805
3.7114285826361595
1.1333179030526428
-0.6357127799953642
-1.5952109047436227
-1.850135159350416
-2.0151913065553346
-2.5639644385981373
-2.605934182000108
-1.3871942310525291
0.729508077405226
3.1858616864024967
5.35239394442633
6.819125048842915
7.793204416265728
8.423336438043842
8.622548376667897
8.332221642969564
7.59373061726533
6.567499272238391
5.375249508633819
4.402511492583267
4.136577399959805
4.61735015223827
5.770569422791908
7.189248716126083
8.118641481353405
8.441842575759864
8.299976887929434
7.535617589276254
6.232413137734852
4.729833652754483
3.4522974177946213
2.5156728803783355
1.4096657617906527
-0.1015273022153387
-1.7711205511776238
-3.431680086666114
-4.994144394149632
-6.61178348313865
-8.176368285549882
-8.990419408922325
-8.783676713690912
-7.979560237795633
-7.182934613914146
-6.60534916868238
-5.762911120264737
-4.322852753597228
-2.6713102974710288
-1.1760219511980734
0.1923860814171614
1.2931888743887074
2.042341574407658
2.5193931245215184
2.251076551515864
1.096102626981308
-0.2644167899189361
-1.3357237440787644
-2.1364482507900724
-3.163870859911226
-4.329628460061361
-5.078046897965196
-5.933056376162221
-7.052078069435867
-7.479579406517188
-6.954006047318076
-5.9724886306718465
-5.0641579879789544
-4.487913524778536
-3.9779921553966617
-3.124654375236245
-2.0961678910012584
-1.5757182191152486
-1.5726581603998466
-1.4322280862316643
-1.2286708618512663
-1.513905669315096
-2.0722326120120407
-2.4626719463823297
-2.970010708546663
-3.610679791757345
-3.749802631835939
-3.385363301049139
-2.9103631405017834
-2.3197178519127637
-1.6367435997025006
-0.998284336151007
-0.6959773709228232
-1.1236867901269862
-1.8993389043860116
-2.3466697569609654
-2.80313205813325
-3.6737488002196854
-4.277550970307575
-4.006379420787611
-3.193270420839116
-2.3037576015355623
-1.5137535506948452
-0.970220628217132
-0.5135464187820035
0.4119146607705738
1.9610584609147548
3.695477513375448
5.218704478100361
6.272949010764144
6.832059884946382
7.319454925817177
7.955379020242502
8.330687315455295
8.02785855561697
7.243543089448837
6.4368361384213175
5.659299453247712
5.020076253668387
4.7751151994278604
4.517164579998854
3.784301238239272
2.8405947916128818
2.0791771868366578
1.2952857013718921
0.14271652242658758
-0.8108173497382386
-1.026194545995508
-0.819886083771308
-0.12612400802289453
1.1404059841708118
2.476285810251744
3.7707349353554958
5.085124949444208
6.179934108102416
6.790938757116783
6.6951409916391675
5.958242755499092
5.072275544531796
4.734528704361471
5.104741617030839
5.417192551738505
5.274207977579517
5.006949630237927
4.444306003314781
3.4167044712334484
2.5680291173235044
2.284793794167941
2.2535962454432417
2.3686967234510856
2.8605718973489274
3.570034159230944
4.112143762665211
4.449043074059979
4.530460048103091
4.351528772681989
4.293779842005407
4.515418598263619
4.803776198233735
4.930552365244573
4.870975032761268
4.884087241423982
4.882952569119476
4.532494371731375
4.010639502929218
3.691984150344368
3.808604826324123
4.29453056912125
4.494685340029181
3.862558012273874
2.792667543571495
2.1357397686889334
2.1430983389974134
2.5148350161645516
3.3274760815336744
4.7202282200090435
6.155725277935845
7.290453316892504
8.155211580344435
8.2655457303442
7.427330129307223
6.274978695287715
5.318084735428282
4.528051670126991
3.5248933297187177
2.5325066107034573
2.5389914196547325
3.569061784051379
4.5374810403196095
4.958658108970099
5.1580709662781254
4.993653024184601
4.0401578364894775
2.8165564827527443
2.022421751962469
1.6116982043305157
1.3127529341760356
0.8744378758278106
0.40893002137357526
0.28141921820525817
0.2114003272525975
-0.4269549521314332
-1.5644540145639072
-2.405393585491816
-2.4000315839660558
-1.8258814052015693
-1.3984438638226597
-1.613727964891027
-2.2888622760090813
-3.107512748419409
-4.097770711175585
-4.692629500243374
-4.075328257636265
-2.6342909069127476
-1.255823039985659
-0.3704343781509993
-0.1063104235149002
-0.019586599122418037
0.3721118247664674
0.7724984127246316
0.7391733260056342
0.3177389232904831
-0.07991024659950322
-0.13937170562481502
0.22608139097423813
1.0891374928936441
2.0758891682273606
2.643824504340784
2.967014288721936
3.3317233294284208
3.6682816974955164
4.164901009428533
4.9177063744582314
5.369861716310556
5.315713675667717
5.166475677559857
4.8552153737342225
4.225194847883173
3.4822586016740686
2.6919925548227357
1.941246874839249
1.237078048006248
0.42395374732904095
-0.7527729500098589
-2.5593447643717555
-4.508123337531194
-5.952679376057921
-6.861607941919952
-7.319161353246792
-7.541557771975075
-7.421163211554728
-6.619216394845552
-5.621737283283036
-4.950193819895491
-4.4033464436817225
-3.8192479001508
-3.3611081176644775
-3.0757732908435003
-2.781535458233436
-2.58369320303514
-2.7871576212388463
-2.9784541477551243
-2.4320103852571027
-1.6261264905620423
-1.395128521214372
-1.1424898640369383
-0.2604379393537206
0.6128104779622324
0.7945452432143153
0.07298458705644813
-1.056539539408485
-1.5156593268136476
-0.8445969289265661
0.6542018312226889
2.290880520091582
3.1208456369651643
2.8874815886522214
2.2055831310527867
1.2019628345553592
-0.4426297961296192
-2.2301494377913014
-3.500237147749474
-4.302139663652921
-4.696214658704686
-4.515538567914617
-3.786580118271176
-2.9137065981214576
-2.3652643380372727
-2.0179960226135183
-1.3108998137341243
-0.13016625511692445
0.9776090413717322
1.5202844751730968
1.6232084399067277
1.6946984160792369
1.6054821203820473
0.7907151197244945
-0.7364445792116979
-2.493403059399395
-4.164429187756323
-5.59321797055568
-6.988561328429764
-8.595466058781367
-10.169625969089982
-11.426410389315791
-12.207825509765602
-12.222373105780994
-11.265829260380764
-9.73673252439134
-8.25377658244113
-6.676276406271164
-4.8560971744443515
-3.378784763716985
-2.4003751468991092
-1.575464716278544
-1.027140868135637
-0.9337479857027143
-0.7002223664398098
0.32664038206005036
1.6230325737460656
2.430474356826748
2.7678062338670064
2.591996281673267
2.1236522233682873
2.1120248897236173
2.3905040291354767
2.1494082683669733
1.3469265703955584
0.31655004538597803
-0.7996997528072267
-1.6689527367757377
-2.0949770332139503
-2.262730263316471
-2.3817300395078376
-2.864177910531439
-3.6613004520015986
-4.1034113644797605
-4.310951428945267
-4.581033346173522
-4.661898651314007
-4.727168671762322
-4.856645341170913
-4.5184713478900465
-3.3756539597631714
-1.8365426850733058
-0.9764512376205633
-1.3106512688122633
-2.092325057782352
-2.3828922089395466
-1.9561402742176108
-1.232651651746982
-0.6702436965392332
-0.3344479699691927
-0.07677751907517344
0.10574011392153158
0.14916794115783344
0.46902039475455265
1.2961432745526265
1.8702175689828717
1.7799990208855478
1.4719693332058568
1.184616239442292
1.0429670898338448
1.2028214493163294
1.4689050374694874
1.4369793920358969
0.8306623577429151
-0.30212659797712077
-1.6829580058720794
-2.791008852281287
-3.1590651463785164
-3.0800865902203056
-3.08772845710073
-3.1668089405076794
-3.192973538207656
-3.2061310003382837
-2.89010935841506
-1.6827504116913135
0.06517669250911055
1.2358607115261755
1.4643085273845138
1.0355328775639032
0.21492178238179674
-0.33200325647477247
-0.08570486081821643
0.3345115516683798
0.25352042405177744
-0.042181065993050625
-0.4583018897144506
-1.18428837778852
-1.6546907493632432
-1.3579394031166496
-0.5921543066700233
0.040689896194490975
0.26438630474095437
0.4822403891989398
0.9584278726865332
1.2869494007203985
1.084389718611439
0.253549248511809
-0.7942013305034268
-1.2944694558334755
-1.2909309311901052
-1.5480135842224825
-2.2179187874854684
-2.7694107142707485
-2.929249306907219
-2.843135354472528
-2.5592354434879323
-1.8235693760559513
-0.671844261851095
0.17563310748301006
0.38649847680850924
0.33443171895732565
0.025945087586944842
-0.5943924911644187
-1.3331215832653172
-2.3126792340334528
-3.4608847793058657
-4.295764635866094
-4.751559323082076
-5.3473827039206565
-6.308097461750945
-7.258731419506133
-8.062873901979868
-8.886703044580898
-9.883907707528298
-11.00201898914612
-11.686374563121364
-11.89700190619346
-12.088104466484861
-12.09258696490416
-12.010853850724347
-12.163788242229543
-12.132656907011498
-11.713426717105047
-11.063680226456253
-10.120931860987108
-9.105812811822082
-8.128492462291671
-6.768525631761964
-5.084916852577087
-3.6786877970622753
-2.7621728882710017
-1.9714118571393247
-0.9097811259539709
0.0964089247050436
0.4403061104621819
0.278842786239908
0.2848197659087471
0.9143661625200655
1.9664950384406594
2.9504204999473758
3.917496862204363
5.125389153814907
6.358906497386871
7.104744214661649
7.241187193310724
7.091333579358417
6.623814173787036
5.767689830282691
4.860274718927817
3.844073226983515
2.66464005938522
1.9409855351724064
1.7642461717213926
1.3798082900325495
0.4945693436091216
-0.6165542882708668
-1.9452317418960638
-3.5694242811326866
-5.082161913885981
-5.87965454212796
-5.950754813504909
-6.1382038689168175
-6.965781732272757
-7.773239525614332
-8.018360027354994
-7.636278668071479
-6.489354591273209
-5.350018489700151
-5.160733316529945
-5.513683528413903
-5.540145258929875
-4.74239257064313
-3.1437736050441667
-1.33618232162386
-0.364278619205957
-0.9791620461449518
-2.378052460320703
-3.3832189067883522
-3.827762411862125
-3.6693300206845856
-2.9758569033451487
-2.0618175799772107
-0.9903621692702113
0.03959059960072112
0.6665650229774271
0.9631831740972214
1.1865611180900235
1.1888377395251017
0.9459175550130059
0.5709754743768055
-0.3736066502647431
-1.8954753350046487
-3.314499008851781
-4.2368454601172285
-4.5063404768460815
-4.516084552542443
-4.743249867529239
-4.72863765442234
-4.257716647979568
-3.8993412001122145
-3.892293064721684
-3.922093302289068
-3.669800033463847
-3.415016597722865
-3.747571705326883
-4.775245686196237
-6.102291246842472
-7.009431931128722
-7.1268440898195
-7.025198118398072
-7.299005758550705
-7.839203110054681
-8.383199264183457
-8.839857451319327
-9.04623153742862
-9.038694369494955
-9.151242871966915
-9.22873234815324
-8.983519989717932
-8.871781381711054
-9.094499319733776
-9.000238726155654
-8.468173567550604
-8.304260679220908
-8.787633280751765
-9.333765948837376
-9.459785715921484
-8.941050972505689
-8.108999333649301
-7.794295454571365
-7.908875047717493
-7.663094659169393
-6.775854571166851
-5.3463036930646135
-3.724024093812063
-2.2305801641455414
-0.89841271944497
0.126767770632724
0.7545519862147693
1.1999152879120623
1.5699911660679884
1.454081996820336
0.5805926164379673
-0.15298200403790965
0.13896236162060502
0.8719014605765998
1.1060346373422862
0.7757345980192843
0.26664088392615026
-0.28963640353209213
-0.8805581649827329
-1.3753977474193628
-1.8390994411679278
-2.4390388777969583
-3.1105852731194137
-3.7000397353433057
-4.12210777288959
-4.3135202649984015
-4.436789286557278
-4.930710842909979
-5.7879917882386565
-6.695644208052386
-7.744116821724717
-8.661532798042378
-8.737355879355608
-7.841675064504086
-6.327128401739994
-4.894936475426182
-4.176902328291942
-3.8406929369013154
-3.310050351208557
-2.6007394394037857
-1.9882013147717341
-1.8077393469647325
