AAD_Filtered_TADAS_FILE
AAD_BASELINE_CORRECTION: BASELINE REMOVED
AAD_FILTER_TYPE: BUTTERWORTH
AAD_FILTER_ORDER: 1
AAD_LOW_CUT_FREQUENCY_HZ: 0.025
AAD_HIGH_CUT_FREQUENCY_HZ: 40.0
EVENT_NAME: 202302060117
EVENT_ID: 13194
EVENT_DATE_YYYYMMDD: 2023/02/06
EVENT_TIME_HHMMSS: 01:17:32.00000
EVENT_LATITUDE_DEGREE: 37.288
EVENT_LONGITUDE_DEGREE: 37.043
EVENT_DEPTH_KM: 8.6
HYPOCENTER_REFERENCE: AFAD
MAGNITUDE_W: 7.7
MAGNITUDE_W_REFERENCE: AFAD
MAGNITUDE_L: 
MAGNITUDE_L_REFERENCE: 
FOCAL_MECHANISM: 
NETWORK: TK
STATION_CODE: 3132
STATION_NAME: 
STATION_LATITUDE_DEGREE: 36.20673
STATION_LONGITUDE_DEGREE: 36.17159
STATION_ELEVATION_M: 104.0
LOCATION: Kahramanmaras_Pazarck_Turkiye
SENSOR_DEPTH_M: 
VS30_M/S: 377
SITE_CLASSIFICATION_EC8: B
MORPHOLOGIC_CLASSIFICATION: 
EPICENTRAL_DISTANCE_KM: 143.12
EARTHQUAKE_BACKAZIMUTH_DEGREE: 
DATE_TIME_FIRST_SAMPLE_YYYYMMDD_HHMMSS: 2023/02/06 01:17:36.7032280
DATE_TIME_FIRST_SAMPLE_PRECISION: millisecond
SAMPLING_INTERVAL_S: 0.01
NDATA: 12501
DURATION_S: 
STREAM: HNE
UNITS: cm/s^2
INSTRUMENT: sensor = GMS+/GEOSIG | digitizer = 
INSTRUMENT_ANALOG/DIGITAL: 
INSTRUMENTAL_FREQUENCY_HZ: 
INSTRUMENTAL_DAMPING: 
FULL_SCALE_G: 
N_BIT_DIGITAL_CONVERTER: 
PGA_CM/S^2: 514.634
TIME_PGA_S: 
BASELINE_CORRECTION: BASELINE REMOVED
FILTER_TYPE: BUTTERWORTH
FILTER_ORDER: 
LOW_CUT_FREQUENCY_HZ: 
HIGH_CUT_FREQUENCY_HZ: 
LATE/NORMAL_TRIGGERED: 
DATABASE_VERSION: 
HEADER_FORMAT: DYNA 1.2
DATA_TYPE: Acceleration
PROCESSING: Automatic Paolucci et al., 2011
DATA_TIMESTAMP_YYYYMMDD_HHMMSS: 
DATA_LICENSE: U (unknown license)
DATA_CITATION: Turkish Accelerometric Archive v 1.0 - Disaster And Emergency Management Presidency, Earthquake Department
DATA_CREATOR: AFAD
ORIGINAL_DATA_MEDIATOR_CITATION: : AFAD - Disaster And Emergency Management Presidency
ORIGINAL_DATA_MEDIATOR: AFAD PROCESS SERVICE
ORIGINAL_DATA_CREATOR_CITATION: AFAD PROCESS SERVICE
ORIGINAL_DATA_CREATOR: network: TK
USER1: GuestUser
USER2: 
USER3: 
USER4: 
[...]
2.0871484035664185
1.8643099164001276
-16.298588882783484
-25.71985275662895
-22.525157506302076
-17.261312906432842
-15.23823396074081
-12.992624020283046
-6.787904917403062
-2.1490344644803283
-0.8167679779545209
1.2373164589436971
-0.48235710507710544
-9.08788911886573
-5.5917247024193
14.723963323165599
19.689577181312576
9.95423212420138
16.53597844141546
24.624925865475358
17.601488110315465
22.397661432052676
48.003844921388975
65.38785064761866
60.31497017675024
47.929384035210305
41.900410782005835
30.87779323654408
8.90008156148861
2.422008114555866
7.109862053264888
4.990710506346924
11.210893314483515
16.328849810141087
3.389042517895709
-7.343098649043788
-8.31456403248057
-18.091822453279317
-30.405421650566517
-26.736651706579597
-17.576350232440728
-20.597455346571074
-30.853911208758845
-40.28646520371714
-50.13876615223645
-56.292876102832665
-59.76091401041984
-67.90348087340962
-67.27327675288521
-47.32661730691058
-28.352571574477132
-19.791900352233597
-14.657987129578053
-11.626289931603939
-14.238785278662595
-19.861864389393638
-8.639886852847258
15.648375496076518
24.189452265662656
14.357248847306264
11.534739805870643
24.138152829585962
27.50314615262324
21.819100104129
34.811352184643894
47.689696325870464
34.05236401751701
31.50567767128272
52.19404792573529
50.98506237722199
38.86856261895576
47.32469017267479
54.11453203750476
51.161639219912345
46.3245189927505
48.94739889142341
61.590830056987606
57.49679913459331
51.42080757083925
61.3898221208657
62.5720604196594
49.916457416403254
38.332885569758474
32.89161826887265
22.436546896546076
17.821603250778843
31.390406068686186
37.71198629956385
24.81477232590217
4.603164194585161
-18.247378642010425
-45.68110575526347
-66.83880165498111
-71.52820785727926
-75.94540375461474
-84.08243419535823
-79.60243838668447
-60.777654325276
-40.76878674073762
-41.31352054467505
-64.6117195104128
-82.61144027413917
-78.93688974696087
-61.47886169415869
-49.693410623735325
-56.218006242316
-52.30701463978787
-33.261878028901954
-37.303950435539264
-39.7388998684717
-13.010092720109427
7.8502573151853206
2.0640518920777016
-8.316136274736097
-7.84840584512058
-18.859465038769084
-46.20840261843059
-69.35281579609926
-76.69560659111795
-61.39213125905854
-32.23805684752066
-2.3368944618986838
9.140580628181555
-15.499036632437006
-37.86448525441599
-34.64045289481089
-44.37768463409896
-52.83272672233027
-21.14614938607521
14.634398540463025
2.5770020315050224
-13.724864864121963
19.130241518523086
25.630098449540192
-7.202993555416417
-2.115187441258473
6.045282330784981
-11.869557368194563
-22.394800683143202
-20.495221406805737
-33.43061229103114
-62.21952334667522
-22.832347383613637
46.17205688136767
30.318425603909805
9.733877710346123
18.905504601487184
-0.6534169954084222
1.5897048707608166
32.80118380280463
30.55834781586046
-11.328395162012736
-38.71224034704259
-24.72293022484928
1.9477202812506742
46.18347035428745
67.66586032867806
33.64780365245647
15.019542142710584
-0.8311352676503291
-26.633592693946973
-31.138071334855177
-49.03412086928795
-51.09012554223145
-24.209904097308844
-13.961869397026861
-24.071087642630072
-57.3800919824758
-78.53868316875435
-72.84573638063436
-63.740271302189036
-54.38481984987688
-70.6593902123661
-83.86777302022767
-56.50578354401859
-32.46839788842377
-35.58579314407753
-36.84684679141459
-23.12845136128701
-37.82140969660087
-86.88882453238303
-103.58226880971564
-90.47477393993888
-97.53563715277514
-109.68783359516314
-116.09909378693851
-119.28991063600012
-112.47960692067933
-86.44138468690723
-25.220317648074747
14.782292998161822
23.318044120573173
25.072309658465528
-9.77545525028239
-34.86980954285877
-18.81607715957216
-5.570000146939711
-22.430100863094033
-19.433257851219597
5.27849245114846
-9.802263955628302
-14.245049258494033
-21.0749973683171
-39.09137633621146
-12.289720738805766
-19.407632090599638
-35.019456956366945
-6.888998195321468
-0.05717424578038353
2.7103097173791615
-20.675125672606768
-44.47022286615614
-4.028303737245106
32.35649925689777
46.47015870804473
41.58024045518813
18.270065721122947
-1.5954537580019903
-10.760798952737053
-27.03813767109465
-63.29050018346837
-45.36838783859981
-14.123762345500793
-51.45015663315394
-79.78600374746416
-73.86553559543444
-56.53104650603562
-37.43296738761016
-70.0638674609484
-87.43730476439693
-33.56861917386071
-28.466949093851856
-78.41527040719882
-110.57485464662062
-125.01186024728146
-111.19571369624498
-86.25076304786336
-64.37099318719565
-63.49604844715878
-80.11255568643368
-47.88743971398947
-18.55084628142099
-24.21796775855749
17.45852583866408
48.30597970851636
20.832676151104096
34.03802361165356
73.53708335432917
79.16480541786636
99.17842741595665
108.24521083432536
75.02990674203994
55.05653153638362
65.26552552097897
102.78037340463564
123.94476651727062
112.73184712350707
118.5284062366117
121.3759169311963
110.06295807037972
125.23929068712533
149.69628109900248
136.19714697843256
118.2785290385874
135.7780979241865
133.39001485730952
120.24571867164343
142.38830150306205
134.80665094948012
76.916442862642
35.362698472574436
67.78966136687875
128.51886838756266
109.71732107827707
65.0985656404715
54.214620269969
51.546809594988105
75.220616462221
67.60474071697392
21.34399433446105
29.308375490670237
61.680862598026316
108.35514171534712
165.45842835547535
150.8020754283484
145.06703218527255
164.11785816277572
107.10846618241698
34.21803412886472
6.184896859632511
14.708423738786374
9.170167587821386
4.952020396071737
42.15893014602918
77.4358252491537
113.38957549889933
152.35079349757245
179.91487931040868
140.58100248523567
68.9336514596303
77.93956098474246
81.02754613825607
37.93729863549048
11.795215115126977
1.3834191341785005
27.77853526577711
61.07459046082586
50.39981359650183
41.1404179022995
102.54418142534995
157.64262771925578
132.45027459967383
137.99373057962308
157.16523409045482
131.39251346342598
126.007535108504
88.60839490549358
36.98796424910087
86.3068101594842
142.532093609369
144.6887280921497
159.6257492878317
153.46150295841207
136.7406116543288
112.32681443536022
88.93458190242946
125.63915946264109
116.88892201323213
98.07411552889937
149.14560693249672
125.55864474734248
55.48182087750685
23.049403998720443
-5.290999444011069
-29.672882998271696
-73.47956652150764
-123.19509071102884
-145.26629752618084
-144.8608828135468
-173.6980566078521
-230.79642253831102
-219.24046147135067
-197.9320270391961
-224.00250751574296
-237.55952978366707
-236.00624770371815
-219.74604000499156
-222.74574857754564
-235.28312333501592
-206.43260465193183
-199.394859560612
-225.42352787557144
-226.10946913034996
-198.95391222003116
-156.57274063004587
-140.70718378670776
-165.22421376802143
-182.54630255653436
-203.09925364345574
-235.11083273665872
-246.0575870518949
-258.1190222207764
-267.5855002100103
-259.6546487265206
-250.3517931867898
-234.73366631357356
-217.32799349739642
-185.48742417016737
-140.8603646693196
-94.9537350875031
-49.36949185541206
-10.078022899459683
16.15247864103779
17.12966754772062
29.084217250234428
47.81307599143263
73.63087878294375
124.77437076161713
151.87276414668278
143.56120642932362
100.30604761789884
63.905318925871704
75.2601634168502
110.51942745966278
180.46207555904272
235.35445118561654
228.50055786984308
227.85124646374163
250.69239789032724
264.0545479804325
280.708896572537
307.71934057547384
332.64418609525893
342.4051613769829
324.89297021640056
295.32877279493306
269.3883643472947
254.1447123236076
242.98916452601813
217.04809412511426
197.8022553956944
175.7025793026144
135.08066580184897
111.77325464715423
108.68203651510748
123.60926730567901
165.89439923177466
209.17678354860828
226.05052142003836
258.7871148070212
299.1880700692157
252.2097675382641
205.88467501838002
249.91448371811163
224.36097327427763
111.2764496706665
41.34250234518912
13.065116298758944
16.10299603199569
-5.038761790600784
-117.69740226169237
-254.3536738168842
-306.6158721371238
-277.17769743035274
-295.43442506983075
-363.7791065442933
-365.5910276389967
-298.01713922570053
-231.22112478035498
-203.41652801457187
-197.1854214617563
-199.48231463804942
-228.45146863213176
-283.51154994237504
-342.4692690317897
-369.8757625031739
-378.27732307496734
-376.97002723968654
-304.9402092494359
-211.88195891454447
-172.62810932061026
-159.66395833276368
-174.06062295829759
-188.12508460276837
-151.86079371249886
-96.59414527513422
-79.69954789383061
-103.11225742365666
-132.1703605835962
-156.57525242677545
-166.92220162300603
-188.99591367221763
-265.94679796673233
-338.8472779967971
-345.46357804170924
-325.11818543180954
-320.48255192705795
-278.5698238025976
-164.27517873563772
-58.250046741028335
-3.8195308383729336
26.768323641688315
84.53881696058308
177.19279477133745
203.99159449169701
155.23031305321956
144.87741294030684
183.17835859813158
194.6810387337705
189.16877145558826
237.0218552029055
313.1664632682419
328.93790002332946
306.59829131151633
336.022893078731
385.19109246800383
365.11203235717886
305.72042200594234
252.84261726375905
182.8664683685726
113.98857366987019
70.84743825631921
70.5158187829361
126.63759796008908
151.31709888458462
145.9384458559972
170.23433278687543
148.68867817708832
96.99407189602198
57.071635127087255
14.124944494575157
-19.35990475587865
-101.83363519155957
-220.63575024226745
-312.5657648703505
-330.92010982916867
-238.20575721062067
-126.96882961366789
-65.08978121806386
-71.845912454473
-122.10206763151342
-168.80678861752548
-207.15872395908093
-185.0764040182441
-123.22708794819775
-43.72640521058934
56.07139708521678
155.11814653103528
222.25323590747377
183.88427355395964
131.8499368932622
134.44378199021355
108.1334401728549
81.50672835603632
123.77168091704452
180.44304885629046
144.47991483891738
100.71059190263495
159.29990024480483
167.3325066792883
18.985053918178817
-116.51663969365279
-94.12714023929351
-34.112257808960514
-40.43819685394625
-55.47145935091396
-54.210756645476785
-20.66731210471579
34.38238438705247
77.05290773697178
95.8803732628381
62.332228931845705
13.672919370214762
-4.161016176617817
-13.408826085276152
-28.385157734750678
-31.29383267185168
-19.155051685163297
-31.65478455429044
-73.12425333690695
-113.74378981204124
-151.10857253664813
-187.4014973649987
-233.01678095083932
-260.0213214654236
-195.22660860426328
-96.42040703124773
-62.030872442627995
-74.32777475642517
-57.21555438243362
65.45695951382423
191.05472972369014
203.04766443109946
151.99808478951752
95.1501190226561
71.36731841006976
109.73991971988282
179.45761874209538
189.03068127320523
162.59798318452818
117.0725273345757
89.66629088676109
164.12105975801555
167.1265372550049
100.27990477318191
97.34511875973782
91.81130022132292
78.33479292396717
43.45708020735949
9.720380054427578
24.443560071600587
39.03609815127976
32.39451562104461
9.929678611989537
-10.346558711978906
-24.040976237867437
-40.917970762459674
-57.693599929353674
-93.15555282107611
-125.47898580733772
-101.24602687682396
-72.7841712479863
-94.49436400072405
-99.33240115730199
-49.632430402519255
17.662029225196267
50.89216835938568
21.20236032907329
-27.47233876609556
-56.190512085130365
-56.76904185835699
-37.36844867601938
-44.236679058410694
-75.16506219331696
-102.71086948013271
-132.01363283251513
-157.32059268106536
-173.84923229054633
-184.83481043323405
-191.90831454911577
-197.74840573241573
-223.13564859916022
-252.67581686177724
-255.6393998689646
-264.4632044537399
-257.36582747105945
-214.19085827568793
-175.6155490514633
-129.03385939922492
-58.94520973557127
16.325768065851822
88.48021509742401
186.65732247685307
296.7852968699615
352.78866896508384
348.5661474835062
338.745713830141
365.5346674724104
385.61844300986746
372.3466726658451
342.80836982698145
270.4961714264404
151.9615641136883
46.23645088326773
5.628607708017997
-6.106623552905114
0.1337550106827916
46.56600677602345
72.04769743305258
62.642754147514395
71.47284607834321
127.491510393339
194.49433117603317
202.03092426195317
172.53856028801394
153.2973358613704
137.54620846322902
121.87663008566277
96.37718444253856
72.9411825658114
80.21166763098307
94.51899851977286
104.30537542261023
135.8590149583814
178.45488731520567
200.25215041126452
205.66943665738796
231.52343682169064
246.23796223837613
196.90531719224367
177.49274128490822
222.0640386266208
213.75620249110764
148.78210197242754
81.41756199649778
27.41128990101788
4.125373135595743
-20.472936896530786
-67.6580505463891
-124.17270015699916
-210.01644456177092
-311.25432412642743
-385.6446027221235
-444.9301597520309
-483.9578732477572
-499.6973524716238
-515.3251071914783
-507.820404709984
-484.1537663856634
-432.31360097219556
-307.0825215629935
-195.46881403886476
-195.80301220949548
-242.5288678261929
-250.86936133432232
-243.90774040584785
-202.6616447457227
-140.7170480413278
-140.37687532601143
-140.50373228701739
-95.26941693197334
-30.39781029412014
31.519466205587833
54.946697919808855
70.62905356245872
97.56249818151059
121.01294374852858
155.2490517406062
190.03344868770353
200.17595454898978
183.47086514926633
142.38588942064575
99.91869402018739
96.93962811804091
136.00913105966106
144.02433305684136
93.83783364195932
90.99485271948521
151.6059486758406
169.09311205325383
151.6882212603578
148.44857498271585
154.52271680185314
174.03173956361962
182.2368168239546
173.2608586753217
167.19862770048994
176.80900432062313
185.29695876457598
173.5469154249434
164.63746033613157
148.01683932208488
138.4929575010833
116.33071013578252
51.2292155131193
8.724816415822263
2.743192722982276
22.67485953750373
33.47097792250997
9.701502546963868
-1.1691163894597032
-34.60527884205074
-123.48078041374238
-202.5753129195819
-248.02807392311902
-279.6169501680549
-310.42497513117746
-349.96991817475
-381.4060037852471
-398.3348423272321
-408.33148827553856
-416.253803289861
-428.00232463516267
-415.6036956409722
-378.7299680970728
-326.8846114581422
-243.94150269164848
-178.85209552344273
-141.14401222519012
-70.35972194887657
-4.685124195528222
31.45279432441531
86.10271907441673
122.6181269020419
138.04298761241836
169.66608982836564
199.2069768788471
243.3978836621385
282.1208779565045
303.24251067464945
333.52423791018566
326.34623177069494
285.08681069382703
232.01866763197617
147.22316599868213
69.0953584932824
5.495427370553459
-56.1950910740292
-105.10351580049746
-158.8306606551857
-215.2602094278545
-263.87734279572095
-291.0565805059171
-264.2295443900387
-177.76752998212277
-78.59951576479757
-7.343433339590978
32.55951746590549
38.4637673476448
43.6564071207472
72.39043062108202
98.29362523204325
119.68148335953975
121.3754654094911
85.61079985058572
52.86103483258053
45.12354584015701
60.63934543064443
92.38281310185081
108.96369383432568
109.37839231755555
122.26811938665524
135.95959159051336
145.87412872511297
158.59109352536154
157.41876286246463
162.52182905940796
170.32249627878136
160.76495152217288
131.12366787209422
98.8072252143397
91.9819151727102
69.33701171893226
47.050026824815426
59.34858313657102
51.54395692968145
12.010447801450288
-39.07015726449947
-72.9898803807817
-70.95689747833299
-74.04381440181051
-92.34883669671372
-100.66097404265089
-99.3725793923401
-98.61226480831503
-119.76285706727326
-157.1471733669714
-164.79587651258313
-107.17430891697474
-28.899076613309184
-18.660253372943586
-35.599634014702346
-13.652582597283129
18.619081172179186
36.44697026080081
32.38018887922869
48.01140390703247
103.90170798241695
144.4038666992055
141.82626143259316
118.31402821710566
100.57383007586527
60.05850272887076
-28.545751031701933
-107.59060437485039
-157.49147158862414
-207.32998886955437
-222.86365784950522
-206.28543714229792
-189.61101122349976
-146.57423816655168
-78.41853289661874
-25.900009623478404
-17.405655106278488
-17.222991539618544
18.99544878668564
35.4082634633886
1.8063441974428636
-23.574808477541332
-21.51696517337805
9.721212113191232
75.48589489734724
146.24025316508389
192.3073655214901
208.1131409332344
205.1204016434229
193.28975251670644
189.95392560490507
198.11918382937407
209.50205437083721
229.07934247905092
222.68197149758439
164.37562556077287
110.33475817020239
105.10395657897868
136.90887627576086
177.1537435820199
195.09512712909066
197.99407231710168
195.6944122048893
189.78318229225815
198.47812306850633
210.53812377505346
219.4965376377093
219.15326645411133
186.60383761653316
150.1972110069886
143.15248256354798
147.49121012617073
141.27130042740063
128.29664745387726
103.9602265978767
62.07043996356168
35.83082539987126
33.96183520862532
19.994884521238745
5.937112355532731
11.252732785462767
1.1230637046702487
-9.6659570515565
-23.161850546620393
-62.86464066699766
-77.55975982769225
-94.5524323467635
-129.104631546019
-147.74778463700514
-184.44189895309097
-234.1644847455213
-284.5330494636841
-325.0020328208771
-337.4872701127041
-337.3841081409687
-318.86066889170985
-268.20389474655707
-206.63197029078182
-151.7401331447884
-98.95562532781656
-63.9177251668553
-48.246915190615
-39.015591264995926
-32.05071772314729
-25.467294178342826
-39.02215895882903
-52.82847215473234
-39.645048653430266
-9.57943854414345
39.557204500339736
93.11489778245462
136.90123900320515
159.9009200203915
143.8708556032448
112.35023839292609
105.47450137309588
132.52640520349507
173.31815830496853
203.03462535976735
202.0324008868896
176.75751312680916
141.13236669286846
106.58827407569348
105.1871381132181
140.54637555720856
165.5488880571513
150.81521517497347
124.71891145212516
86.19734906136328
37.92019588075096
18.46112767145262
22.786537448024724
44.93936361254474
48.42765551980381
11.509206977069992
-29.94516416937984
-67.20767252585384
-86.72985352500565
-89.81287375909666
-83.67688066572033
-62.10507553250148
-42.47550463824036
-31.56943758469931
-29.701957528903325
-33.37247254419092
-43.36836154495916
-62.93976730580258
-87.83679122186093
-117.59093950715129
-123.27915263434087
-117.53337161582984
-129.9626387423131
-120.29897864350026
-87.06980964216574
-49.27806781194035
-11.485745895517713
-0.5340638939900569
