AAD_Filtered_TADAS_FILE
AAD_BASELINE_CORRECTION: BASELINE REMOVED
AAD_FILTER_TYPE: BUTTERWORTH
AAD_FILTER_ORDER: 1
AAD_LOW_CUT_FREQUENCY_HZ: 0.025
AAD_HIGH_CUT_FREQUENCY_HZ: 40.0
EVENT_NAME: 202302060117
EVENT_ID: 13194
EVENT_DATE_YYYYMMDD: 2023/02/06
EVENT_TIME_HHMMSS: 01:17:32.00000
EVENT_LATITUDE_DEGREE: 37.288
EVENT_LONGITUDE_DEGREE: 37.043
EVENT_DEPTH_KM: 8.6
HYPOCENTER_REFERENCE: AFAD
MAGNITUDE_W: 7.7
MAGNITUDE_W_REFERENCE: AFAD
MAGNITUDE_L: 
MAGNITUDE_L_REFERENCE: 
FOCAL_MECHANISM: 
NETWORK: TK
STATION_CODE: 4617
STATION_NAME: 
STATION_LATITUDE_DEGREE: 37.58551
STATION_LONGITUDE_DEGREE: 36.8303
STATION_ELEVATION_M: 544.0
LOCATION: Kahramanmaras_Pazarck_Turkiye
SENSOR_DEPTH_M: 
VS30_M/S: 574
SITE_CLASSIFICATION_EC8: B
MORPHOLOGIC_CLASSIFICATION: 
EPICENTRAL_DISTANCE_KM: 38.04
EARTHQUAKE_BACKAZIMUTH_DEGREE: 
DATE_TIME_FIRST_SAMPLE_YYYYMMDD_HHMMSS: 2023/02/06 01:17:08.7199070
DATE_TIME_FIRST_SAMPLE_PRECISION: millisecond
SAMPLING_INTERVAL_S: 0.01
NDATA: 10501
DURATION_S: 
STREAM: HNZ
UNITS: cm/s^2
INSTRUMENT: sensor = GMS+/GEOSIG | digitizer = 
INSTRUMENT_ANALOG/DIGITAL: 
INSTRUMENTAL_FREQUENCY_HZ: 
INSTRUMENTAL_DAMPING: 
FULL_SCALE_G: 
N_BIT_DIGITAL_CONVERTER: 
PGA_CM/S^2: 110.590
TIME_PGA_S: 
BASELINE_CORRECTION: BASELINE REMOVED
FILTER_TYPE: BUTTERWORTH
FILTER_ORDER: 
LOW_CUT_FREQUENCY_HZ: 
HIGH_CUT_FREQUENCY_HZ: 
LATE/NORMAL_TRIGGERED: 
DATABASE_VERSION: 
HEADER_FORMAT: DYNA 1.2
DATA_TYPE: Acceleration
PROCESSING: Automatic Paolucci et al., 2011
DATA_TIMESTAMP_YYYYMMDD_HHMMSS: 
DATA_LICENSE: U (unknown license)
DATA_CITATION: Turkish Accelerometric Archive v 1.0 - Disaster And Emergency Management Presidency, Earthquake Department
DATA_CREATOR: AFAD
ORIGINAL_DATA_MEDIATOR_CITATION: : AFAD - Disaster And Emergency Management Presidency
ORIGINAL_DATA_MEDIATOR: AFAD PROCESS SERVICE
ORIGINAL_DATA_CREATOR_CITATION: AFAD PROCESS SERVICE
ORIGINAL_DATA_CREATOR: network: TK
USER1: GuestUser
USER2: 
USER3: 
USER4: 
[...]
-19.338385238993173
-0.06167553836842165
19.41019262667977
19.5150768437536
-3.3501387995076137
-31.507925044367365
-49.82329078809805
-62.13263972255174
-72.44508931775056
-56.337522575595564
-32.50530681552672
-26.496713188598687
-24.847189467958525
-18.609316996545147
-1.3869998966878179
9.322097427480116
-6.727388488005894
-35.82095040210967
-60.9174357993739
-71.68415374535294
-62.010922242217354
-52.30960445903753
-46.09519080353108
-35.61314863636337
-26.883383347424644
-1.3421607096221435
21.573129005735243
20.578554973143007
20.959956229157534
15.360670649844618
2.803987086538845
-8.668707624639692
-21.165874609413763
-6.799779853821366
32.9696923508446
46.23585994502165
28.11705544471752
21.719253264417546
20.133067744787095
9.878129666488043
2.646321499278993
-9.786743079536715
-24.41252368612703
-30.922299280016276
-27.435064875903077
-4.138011440127277
30.1264876314685
41.03913026124651
35.595595571085816
22.783212830296858
-5.636076682843314
-17.756428469699205
-15.892975088896254
-7.9352963159719
24.381288026742677
60.95710368906653
78.53253761328173
65.10751989758279
30.275103707494946
11.815179478503143
15.502637406924954
22.552965657838627
35.6724866751457
36.85156540036071
0.8276254260987418
-29.010080393470197
-12.557241846466052
18.149590291769016
32.67224937457577
35.57095553343904
32.77720882669295
21.7311259223201
12.347168451759154
20.66347562979041
32.781003136705316
23.88641058501227
-16.305366567253664
-61.39901284368506
-80.4895780397592
-75.41619678213037
-41.69802787047191
-18.97839427500206
-30.62586621917514
-23.989962034788476
-1.1929051716471297
8.491210104529044
11.748214644956285
15.91568352222882
7.30341565889334
-12.459847951418071
-14.117020445666936
-2.5556936481518644
3.9398075191730824
-4.0304594448773
-22.56250152217086
-34.796884690545845
-24.73354428204334
2.66215798887356
-0.5368519443557768
-26.062738613735853
-34.38578783958464
-42.39342629231034
-48.2198728687276
-43.9411190448942
-27.621430580929633
7.429629654814811
24.83458702725595
3.025728228155331
-27.8206414949372
-37.403107972973785
-40.978461150200644
-59.57178687646647
-75.06853028320819
-84.77335121139248
-84.91659451176646
-71.90590978739387
-57.26693014489296
-27.839823354316234
13.104392050092535
44.812000325629505
56.41170905347416
49.641658746811196
37.02148477725121
18.558597010943352
-3.5444150099631493
-19.35496431963637
-22.892642140508965
-2.716478911196612
23.00642072221517
20.989985714477108
18.339533369911155
29.436372092416033
36.893431909932374
52.69605889794732
61.479016798185135
52.311000764014985
40.376496456200165
23.268066977207432
21.72597620931196
40.72610588536055
47.84575023369934
42.732592756116055
37.141226561748766
40.5898563050044
58.088478315306105
64.04545415098305
43.694390263007804
10.871904816319558
-17.02324062273982
-23.009979990462078
-9.880645679276004
9.182488197967102
34.447656772446436
56.72508883975311
66.80852493457385
52.118719918756696
10.68914435135062
-27.35984979501486
-48.614068830277205
-46.534757369495374
-28.672691433064806
-30.33693882420541
-45.693596209418864
-24.039054204101557
25.868241756309672
46.19448726660376
33.35073647183685
-0.3279133941380995
-42.58573824169694
-67.58271180376408
-77.303067400832
-72.94060482575401
-47.85606234048231
-20.6486337990691
3.99127743103834
33.380796404997
43.83913521203164
30.86940608480752
8.104707770080871
-13.668046172117714
-8.310533643421863
17.13993342457945
31.12745458510824
25.388107878893532
17.57054145471978
22.3759623747158
29.73160647093108
36.25983275306796
50.58401491736803
68.98516536831211
66.9687204636966
32.5119578613549
-8.030794268276104
-16.395140331066635
14.412190340576139
52.11948632098812
59.541628895974675
13.24816989132309
-40.997187251884355
-44.6510539936079
-26.530289578787468
-12.401680930989398
-2.9033066692721397
-3.0816400495197334
7.8533372788823135
35.068098667850016
55.472090977870494
73.3077924749649
90.44069325384095
79.8274412876176
43.124862667472826
-4.633283946104594
-43.31009636260147
-51.69759373608346
-35.9415473435146
-15.488885890081233
-1.6494506322225841
22.216710333217147
48.10561111436998
62.472752423753796
64.94905323690895
51.08596561558534
40.22255710164611
16.778364265227044
-18.62112644192266
-40.96167283414764
-68.87821537727466
-78.15375294866409
-44.996570030156064
-20.292527021450475
-11.33227547128891
8.818915516596666
-0.7751650763266899
-32.348202606242396
-26.882336673527764
-15.940943528024706
-9.03908770310485
25.8277208416169
42.31563684229709
26.15021964758433
9.13371752542956
-3.7766235026384494
17.3488310510193
50.94702234504009
36.049285658693265
9.018573501154115
-2.715049330300824
-24.7677137649442
-36.24495738471888
-39.5278237851902
-47.84039123652805
-38.7953306386069
-32.31526732834869
-47.2975181693478
-65.30884785108157
-63.614501559199766
-19.906537477445216
40.94384970032098
57.380500311251254
31.56839864435187
5.227331480587766
-17.97965309301384
-39.13041775040856
-52.51568927994092
-55.10533853200616
-46.25926919354932
-38.06286459802216
-35.9363183065271
-38.53410610320365
-35.1552697856573
-19.779711311320867
-27.664688378938173
-52.65913808949594
-54.795072024484355
-45.639101056312484
-19.69529050492398
11.794324522393055
11.324496566197455
5.290017416641184
15.372483278083497
14.736436406945852
5.6291408195691925
8.859222270089539
9.341518770678622
-5.161883132956661
-20.880293831965886
-12.302678288442808
-0.23499860484769014
-18.143414447095807
-34.387999208534474
-27.259506236764576
-11.328966195500946
-4.019726648903273
-6.031954858739968
-2.4848016420429433
9.385080504214997
4.131891210664411
-24.75720792016573
-32.88760831226556
-13.838060134184008
-7.742996634980163
-22.78304912370408
-23.822421685273124
3.738140522010787
36.19143077918873
48.98417025756679
45.45809681365016
62.73639720723852
81.66299863594836
68.0305391750445
58.95473093182312
70.7197675794653
78.86344892773957
68.26293744077653
48.87056890856158
34.89076310371172
17.975295104718267
1.8006476003287482
-2.754698366277559
-7.821450373967751
-22.00903780517455
-32.47206314887415
-34.43158234615873
-42.556897185236984
-53.91959409977657
-64.6753093202939
-68.18815551962109
-47.98701070409316
-37.21357496314777
-54.826039059487734
-69.96895715695537
-71.53269297784132
-73.074684443041
-72.94100010702114
-56.56643125655803
-33.50035996345072
-7.345067093849816
7.204369418097387
7.596796026849678
27.810743045183568
49.46636336680004
46.76578274458448
25.722324418774768
-3.7166648505500595
-31.152964972833736
-58.8212447353762
-76.57918832189878
-69.97614994854808
-49.25646949215386
-42.04757014766701
-45.53353083986116
-13.526698946019549
31.815926742565377
18.15600240482794
-18.37699535216863
-25.03590734174113
-22.322637950815768
-9.178735269252627
5.3004492693533525
6.560938987578386
14.692479016726178
29.71097602912946
31.844346251795184
24.78754607278652
32.85120087836266
34.51587156207145
4.045690246050649
-21.47074464643077
-13.413468820007397
5.1594291025037595
13.607337079806008
26.107488527911
53.26736306276749
80.64081329484883
77.28436306273453
46.26059667215727
28.46225017211457
26.248459504090295
17.62349313140238
24.124910195772166
61.73620307655893
81.13070968479786
61.084724795273324
33.630425464348704
18.007826440764003
9.554582662477571
-6.747876370903483
-16.46783764686775
-4.056168244678145
9.295314005244641
7.608858818007237
-4.478702490697263
-16.89883196007291
-19.659496201078586
-19.210780629383507
-27.293096924175043
-24.26189105198751
-6.290102773046389
-7.067653413371572
-15.837935040216678
-14.983954911010509
-17.688445839373404
-10.114689975168677
-0.6935015529430804
-9.839647070327596
-10.190475542840238
4.9766336894702805
20.212450546439833
33.24074333506573
19.572519704232498
-0.09140016114465563
27.821414483938984
63.012582814733214
55.740737937129914
32.71635484376032
35.64005040821425
72.95145775814966
103.2138086512093
92.95810009122454
73.88419587670818
62.65195579475929
46.08780605669514
40.114126954011404
32.467037126722374
14.897567329534647
12.705732556006941
23.329164745691006
27.990939863772716
8.522322221245897
-9.391461250376688
-4.219194516479791
-10.048269954067175
-20.108001723423282
-28.159382625308506
-48.1518380972071
-36.85720927700842
-0.6489633208369927
2.235535039236588
-9.535714015966315
-0.8154278330878157
3.905828471613343
-8.521879496217155
-9.750856836667724
-0.7743310322758448
13.320724823754883
34.3318170109637
45.28081640901439
60.62269103817441
75.08442103843433
63.562940645663524
44.5138857124352
25.226926273024816
-0.9397357416514266
-26.18523372217437
-35.02383188709858
-18.361565264199246
-3.2574686968506428
-4.224441333450069
-13.539765640956425
-24.789098382245072
-12.237717462698653
4.025229358958011
1.997892410884869
6.675409245319245
8.278981230311523
-0.19929916727575728
-9.177136245271845
-14.520938265317005
-2.2586893537709565
13.818062768326568
6.562951868908731
-19.882750206491
-46.3370899742065
-61.44672531297753
-52.47122514800152
-24.065091163456604
0.20336222236393758
14.028598685134241
20.858866134334615
27.586148081290897
24.654811547575243
19.92417005996071
42.561533680803755
48.54271868459996
21.059773057141904
1.9527540380941422
-11.420641503232211
-5.832747853209032
8.132439451510415
-12.025517468363917
-39.10929868286399
-35.12857564874095
-4.690041454188843
27.717667325368346
35.65667764536839
12.60057573864398
-13.549564955768286
-24.020868764515
-21.127033838584
-7.316973170623918
-11.898216556733315
-29.533623401540947
-31.220609133619742
-23.245220671631138
-11.102610270296683
-8.355590074004374
-15.234949429145717
-5.129924334085559
34.19951173096787
54.83502536905843
37.15419617677407
34.95428759081761
43.039154370077
44.90107452657097
42.82015229928199
32.06217902403878
27.34093359004329
28.50187423484518
33.092475586813286
42.88102767679078
52.86269806077534
50.79046981335926
42.644702270536996
24.107937309748223
-21.993228591655953
-50.34047574568111
-36.240291297373474
-20.224313112899093
-20.834583112683553
-24.04945392506059
-16.35762518659341
1.0692741686025269
17.338670902365212
37.81996203080613
59.245173846145335
54.32871507098657
33.94628160676464
34.822480629955635
70.4954913379174
102.14899316232525
92.16450541810272
60.03697436853428
23.557451735347378
9.64933627241966
21.70424087584221
21.555889712175208
11.94812499933187
0.6138925057275809
-17.20028244191687
-21.963092764011304
-0.16899213716275566
27.978981051959323
27.764701690029582
6.811534666684144
-4.487344496020102
-8.607064995002196
-7.974238746342308
-3.5609697710045407
-17.68631622689902
-42.374558436956946
-37.75684674350143
-26.838202394863668
-44.00107038589187
-63.788783981210166
-80.22033290971366
-82.25106257507572
-59.63181138050965
-41.3545015494371
-27.23333024904013
-22.475059807631414
-23.083974142103536
-9.600957253244431
-7.156676750003829
2.103936753218226
23.231256566131893
29.475790488986448
41.75018076110973
37.27066303712445
2.3852013959299714
-32.31514614231438
-56.673018334621474
-62.919981183218425
-62.059841997493436
-58.00723120165633
-21.963947891053444
39.131968337339586
71.96339218227087
57.09051577010611
17.303271333715646
-11.738517684018618
-11.145938760615667
-3.7000260284219055
7.498921005618545
21.61665967704722
9.60624657514855
-9.584916746003731
-14.525680902009363
-4.229832194346224
21.379833758305935
23.844933555985833
2.3743529252964395
-22.2912715545039
-40.31844798163193
-39.65043907024053
-28.580118100420087
-4.795687835811541
29.455493071504435
49.26469018016546
27.567796399083615
14.472825481095475
28.849789423626724
17.36128632858244
9.104180648400648
10.657132576644653
-0.24865727668456472
-7.980534039700465
-5.166257408420393
13.435272577784971
38.15508485919352
42.187393930455755
34.22093004195776
52.36442161405251
73.00308828302505
69.98033945091598
65.50068331610079
51.00866641342256
18.129506458010535
-13.280447866279758
-30.46755550167811
-16.130458093285075
16.729995903094864
20.21126585572285
-4.934941778791133
-14.200237918875
-0.5391857332056014
8.013223110166352
19.220882869615906
29.511152306030947
18.541439167801123
-10.716880544859169
-44.35103033560943
-24.313753447674767
18.766757486743824
5.962490079568895
-6.574244977940147
6.971512683195844
2.8577980126519362
-4.593694828587294
-5.970204752167945
-20.157826582524326
-38.16204396646795
-49.545718344833794
-43.28459211507641
-20.814912853366685
-4.325185430196978
32.607609744099314
75.8121763332655
59.61685616559871
18.479966557207504
10.73229996809307
8.317591550235548
5.569959547718646
17.866648095186264
11.204818712926853
17.549970808447167
43.25805993559458
33.341240210254384
32.66690282552268
59.8722831658556
83.34781006933672
104.7104993235983
109.7824564247418
85.44662214527297
47.948778465314376
36.820963426675334
43.643866162371644
31.040523623367445
5.818220730385802
-36.20159282905597
-84.18424387669414
-92.27858218075514
-49.91929513068048
6.622584598661671
32.286715698981475
29.8328160029198
34.68890980790634
55.40055285509545
65.3993371855655
56.79169471242199
49.28735477735597
36.87293510476306
7.368499941790771
-12.587447884929109
9.899174354564906
35.55403786421572
28.91586075880512
21.06149980677496
16.175069088409696
7.193217063022094
2.3140547760696912
5.6688014197937715
2.1436557924081474
-19.114366531946015
-34.991286446982315
-29.899913450600557
-7.286200525532308
2.0735646417766915
-10.986971406018624
-22.76677781837212
-32.698636897150486
-42.041141671028086
-34.256918597571236
-19.1462159096219
-34.15601102268567
-58.51336400561895
-63.02259698042713
-64.08319040044603
-66.68773065941195
-64.45312807831192
-56.858483986018896
-49.650914847431636
-50.389391138592245
-50.88482866968098
-33.9363564511745
-22.88936442965736
-30.442394641984972
-47.55790263757763
-76.72988606079844
-81.05073964330992
-58.87246704055441
-37.0839373569637
-13.995580852302544
-9.503959220970636
-12.193666944958922
3.4863342243569515
15.614992483589736
-1.3106106310968808
-31.946488659135774
-25.620894628490788
7.747653333991191
8.462509073816305
-19.72025764179703
-20.619521149988213
3.802094733753233
1.243458185925049
-25.392114842905812
-48.32463388498298
-34.45074805179193
4.2879161007297855
23.246456506838353
29.53013103933115
17.678839171933554
6.948207574297771
16.854241681448407
24.64770045942473
11.06718844397431
-18.02682227499679
-9.966659314285453
1.924440275914645
-25.79203453550056
-33.75156611239229
-9.235440319562747
19.966825506855262
29.415180301463252
15.039398326846415
9.60979754312818
12.766724421067163
23.46557048734716
43.14135800777562
38.143457199929124
20.16125982694214
12.625218462950343
-3.2061492552497652
-25.835368778894644
-35.7462406629874
-37.00929989607055
-51.064463918865755
-70.57226460869593
-77.73951600923115
-87.80747138192335
-107.00120449253251
-101.39654354063616
-60.62483953136678
-27.88315175923351
-23.675170904668352
-42.286022207523295
-60.57063904516695
-32.1874368038138
3.333504913590735
-14.950253092868188
-47.83879037990989
-52.46342102483099
-30.427470355902866
-19.617300639355864
-32.763076081332045
-32.282334177353874
-12.275055266531563
4.809277363333313
1.0243427544475208
1.6743300815812219
23.849815397362462
29.81496211714691
-3.009714853400111
-49.85867326046085
-62.063654307256186
-38.40977908115801
-15.374393025678085
-10.105074741989643
0.16351832399932031
30.062117528584245
26.25325333958147
-1.462634448364002
2.902943609576801
14.945184961277393
18.004607716985454
4.679058601735292
-1.3576432043902171
24.586170458985453
24.852483972090273
9.41818891022433
-2.0917933611031256
-8.89543949935117
22.732780246266987
22.061133014453272
-28.951536529474104
-31.591230661339058
8.712246921753076
11.42605754964729
-13.715804510815406
-2.9093629101000182
31.110569958443126
52.62384632081934
38.99564905757919
-19.959218243845577
-48.763305189373504
-13.337071016078578
11.26780257969858
14.217881786940723
23.908900208603963
27.76617358394721
30.8129566555072
36.362162689
31.156314153132403
8.991937664809607
8.577673770784793
46.37438481987362
53.83286527463437
26.367904510609847
12.256853784467808
22.254283910653882
39.48150339646492
34.78012745734582
25.15220882305644
19.08697212969733
3.5213805604259556
6.150068216043183
18.947778462131946
6.9043207728464795
-7.291396894136965
-13.469900870806162
-27.191586515900173
-34.22252201360925
-26.211428915575517
-0.06629999208420473
24.327357923150597
6.388881833898551
-26.972699413366193
-21.359674470509763
0.2753025701213837
-6.704360593015958
-14.809672598912986
2.5972035130046667
5.203780288208308
-15.014322746427954
-17.525485555876106
1.896888151656915
38.83560817230669
76.31952624018628
73.6549606445546
44.76691916587397
23.38961991868548
5.346136008154701
-23.086285152428616
-44.1564998786053
-30.55768933782381
-12.95257050756905
-11.856732628738467
-13.55167608804964
-28.738329416965346
-39.006116466630374
-23.389637779027627
-17.090430410126785
-27.761086754803728
-19.519474449048154
-6.591169812269681
-17.30266387761933
-21.858432605359127
-5.936419204967423
10.065841611460318
33.84242760103768
47.9983437030713
31.43554273303379
32.55818187908671
53.06639314519149
59.825640380484366
43.378543560013235
-16.59963842345512
-65.25400515219786
-58.668834410781116
-36.255961241221044
-13.028776511117385
10.245144629437956
24.89522615584313
9.044040448443567
-26.649467255346025
-39.28355390036831
-33.19793805407135
-31.66358382190416
-35.96867906331528
-36.05960817040939
-27.652753790964493
-19.833541726582975
-29.423205457519472
-41.38119580527824
-43.50963185860546
-38.214152096659966
-18.69349469746292
-5.833778721524008
-10.214651130501906
-32.6474012070184
-47.96499541841547
-49.94975433961273
-57.003451394599814
-23.60712413765335
23.40733890903372
29.33629821273519
14.273635062099993
-14.02016775448156
-28.43926952754978
-17.736900167785617
-27.67521521454572
-58.482758753917246
-67.64353684606753
-50.57434852930013
-20.419222018395608
10.633768227208915
30.417181870098602
40.22285260732634
47.090091318413315
54.64945857710979
55.61311130141673
50.10506394574847
23.908570654873586
-4.981927960987801
-3.8223880566416373
-4.6398420840325425
5.302664638775741
