AAD_Filtered_TADAS_FILE
AAD_BASELINE_CORRECTION: BASELINE REMOVED
AAD_FILTER_TYPE: BUTTERWORTH
AAD_FILTER_ORDER: 1
AAD_LOW_CUT_FREQUENCY_HZ: 0.025
AAD_HIGH_CUT_FREQUENCY_HZ: 40.0
EVENT_NAME: 202302060117
EVENT_ID: 13194
EVENT_DATE_YYYYMMDD: 2023/02/06
EVENT_TIME_HHMMSS: 01:17:32.00000
EVENT_LATITUDE_DEGREE: 37.288
EVENT_LONGITUDE_DEGREE: 37.043
EVENT_DEPTH_KM: 8.6
HYPOCENTER_REFERENCE: AFAD
MAGNITUDE_W: 7.7
MAGNITUDE_W_REFERENCE: AFAD
MAGNITUDE_L: 
MAGNITUDE_L_REFERENCE: 
FOCAL_MECHANISM: 
NETWORK: TK
STATION_CODE: 3125
STATION_NAME: 
STATION_LATITUDE_DEGREE: 36.23808
STATION_LONGITUDE_DEGREE: 36.13264
STATION_ELEVATION_M: 156.0
LOCATION: Kahramanmaras_Pazarck_Turkiye
SENSOR_DEPTH_M: 
VS30_M/S: 448
SITE_CLASSIFICATION_EC8: B
MORPHOLOGIC_CLASSIFICATION: 
EPICENTRAL_DISTANCE_KM: 142.15
EARTHQUAKE_BACKAZIMUTH_DEGREE: 
DATE_TIME_FIRST_SAMPLE_YYYYMMDD_HHMMSS: 2023/02/06 01:17:36.5357130
DATE_TIME_FIRST_SAMPLE_PRECISION: millisecond
SAMPLING_INTERVAL_S: 0.01
NDATA: 12501
DURATION_S: 
STREAM: HNZ
UNITS: cm/s^2
INSTRUMENT: sensor = GMS+/GEOSIG | digitizer = 
INSTRUMENT_ANALOG/DIGITAL: 
INSTRUMENTAL_FREQUENCY_HZ: 
INSTRUMENTAL_DAMPING: 
FULL_SCALE_G: 
N_BIT_DIGITAL_CONVERTER: 
PGA_CM/S^2: 1151.556
TIME_PGA_S: 
BASELINE_CORRECTION: BASELINE REMOVED
FILTER_TYPE: BUTTERWORTH
FILTER_ORDER: 
LOW_CUT_FREQUENCY_HZ: 
HIGH_CUT_FREQUENCY_HZ: 
LATE/NORMAL_TRIGGERED: 
DATABASE_VERSION: 
HEADER_FORMAT: DYNA 1.2
DATA_TYPE: Acceleration
PROCESSING: Automatic Paolucci et al., 2011
DATA_TIMESTAMP_YYYYMMDD_HHMMSS: 
DATA_LICENSE: U (unknown license)
DATA_CITATION: Turkish Accelerometric Archive v 1.0 - Disaster And Emergency Management Presidency, Earthquake Department
DATA_CREATOR: AFAD
ORIGINAL_DATA_MEDIATOR_CITATION: : AFAD - Disaster And Emergency Management Presidency
ORIGINAL_DATA_MEDIATOR: AFAD PROCESS SERVICE
ORIGINAL_DATA_CREATOR_CITATION: AFAD PROCESS SERVICE
ORIGINAL_DATA_CREATOR: network: TK
USER1: GuestUser
USER2: 
USER3: 
USER4: 
[...]
0.9478832065522668
-7.39285321923732
-19.488074875661482
-25.80952219231765
-17.87084379149705
-10.328212074637406
-10.693764594336082
-17.819528290888666
-36.92906716797721
-37.216467383995784
-16.199933798590266
-4.912791225977193
-2.7805992430525976
5.668982657498164
19.723548265643768
14.028011007358577
-7.885416931218562
-13.639006636249665
4.957526967036066
17.428511157131485
12.109923309507051
10.837403877517929
5.7138017009923905
-5.768424058654892
2.984568641356696
28.962933890518645
29.093660493856476
6.729394354625198
9.636574536551253
26.347420753638527
15.158003380921492
-15.185640730454304
-15.028190650751007
19.837205589050896
37.13762048549322
28.039078315414006
25.117366272445476
22.86491919014871
7.944943595116874
-4.380017842769736
-2.5933909096400676
8.40993101845786
4.124178483787187
-13.658594258338066
-22.36257444797377
-19.827379182145588
-12.036873989922224
-16.813440396386742
-31.28214260650147
-35.21242395009718
-16.091630186386904
13.948416335105083
26.600894591429185
21.315416860026325
13.773516971085312
24.10333852510058
38.67281131021824
33.00164073076158
19.8945435263197
8.302032022743495
3.697573747828925
6.8305052368541865
7.00916918415117
-10.609609866334097
-39.7012855466316
-35.55222311388768
-1.9907151289916791
13.77811991159448
7.735315856111409
9.029653861369166
25.337731362005275
29.940176028809837
27.842942654177563
26.271201270447065
9.733208589548612
-7.99684050526905
-16.755159441314
-10.406448047195441
6.513494760864555
16.666309496845653
14.705824090673845
3.448834469640304
3.529152016010228
14.853522972838366
16.38267893588427
5.128934439366265
-7.012909196897959
-3.9880573887435444
4.530446417142252
-8.233964827594896
-33.905199345228056
-35.33903343658931
-18.879395173859255
-16.76365123832579
-15.916955503617732
-7.380705498492525
3.0429777215210407
12.044994963601765
9.496260287752493
7.904295292482506
11.86747478708871
11.31593049699259
-4.955972007991688
-22.301778877277123
-9.429540107131979
12.66283584415033
16.078020858865344
5.374580817091377
-12.366930758856636
-34.35503268958798
-39.76044446032497
-22.949793843633028
-18.695186480463338
-24.883512018538273
-17.506522256819554
-10.808678382610132
-20.394643337797365
-29.344096076381287
-24.91410235326366
-24.432217319108965
-28.368023437539513
-19.120077601061304
0.05539079204904984
10.193518878644678
-0.8727544156466724
-19.006862713613195
-21.716109374201565
-11.422054402762466
-12.338560515545769
-26.38339463292156
-23.88043168248055
-8.269059139984378
-7.72152380072859
-8.324782565637033
9.3532761476337
21.791670149974742
22.11361194927766
29.675264989581592
24.273545151708436
-1.4140804345793645
-11.615503538175231
-0.5268742399268924
8.78537806399406
5.845995370064905
13.543893068554858
43.10055359509142
61.36106405869374
57.4555937681383
47.055415491119156
37.87599477491734
29.423617203433285
17.72778548508035
4.245944453062282
-7.622655711619886
-4.262523756108558
12.61908417104668
19.36922647768129
6.316432965988949
-10.21200583162821
-6.6172129053767135
5.456242624301409
7.347774420188246
-2.1988373580256573
-12.721499276637665
-8.701580137104044
-6.691756871969754
-13.293309159483739
-7.457484197678398
-3.8564992332988353
-19.14874750307209
-31.72098713666044
-30.96741902159231
-23.775718194378676
-18.48532403564692
-11.942568625772225
5.346308993947097
11.897759484102979
2.0494916804356413
10.345875182169655
35.31636130924238
43.412818246887866
31.654539272930485
23.84786931484437
27.137232622363154
23.659624808941643
22.915565594112877
30.176858383647378
23.075502667598773
10.931822734037752
4.541754398408708
7.674730659797675
13.429238873972125
3.61073088065167
-6.805850455727732
-10.99047868952746
-24.538637281505018
-37.7495217921169
-38.27962196690291
-34.6041381567558
-27.300688855290243
-19.803755681124347
-15.995266346327835
-9.136258572484376
0.46673482427092355
-2.875484581075031
-11.543025528101454
10.488169014088902
28.21816575582052
4.558527913008197
-25.802179666006918
-24.317720458161286
5.068204566208708
7.220375454105553
-8.28224565189447
-19.853149209467226
-35.861495902693335
-27.987603989043492
-22.905025266287954
-30.30677916213436
-37.77478633691487
-47.265369042643705
-23.968576437503142
-7.309747397797122
-26.905517920482257
-40.10311030904264
-37.297035951174365
-19.235972706733218
2.6313424356736035
25.901075686776426
37.42699562554422
16.454974483056144
4.033371402310894
17.52436299782861
27.650223441462632
13.826691624563331
-4.271468516636021
7.171146638301182
14.436885422909288
-2.352292589864779
-3.512510660069054
12.04285721595032
9.595459439641454
-4.428997548933039
-2.7229929081898496
-0.6723565184084146
-0.28016651189031105
10.51549993149464
12.439795970203742
14.987129224471698
14.971661968898006
-0.206843127629477
2.000790691143802
23.970522740526334
41.87263326047454
29.96615954686072
2.3589272987630756
2.484747787628942
9.888373193455449
6.943578316583325
3.151623579073917
2.9645974712472762
15.231746916567364
31.960438488140447
31.401022651893523
6.175973310305121
-18.234322671601067
-21.390867272962492
0.9243686012084107
30.32511431905837
33.21929057725631
19.170438482607114
12.694176695111889
19.3426297303306
27.140472021421516
15.224246089433521
-9.88371386966022
-26.329387388009497
-21.86284984586479
-1.7874480236562076
16.60258069822805
33.27305171490294
43.40760095800823
40.70626964535871
39.991406674736346
47.8343621851134
51.644360196696866
32.85058681919773
11.269849578998409
13.834234638225322
26.145545930781974
30.55177848274273
25.221005752637158
21.981303718393953
16.901371854374695
9.817157417587563
14.824600524135713
10.819687149178177
-5.139698143904852
-9.063371452924669
0.30448147164457967
16.50875810265782
15.849024325830083
-0.8513961005665844
-11.536299263164194
-23.58621102992157
-29.060639455973433
-25.73643226575299
-20.69966397814973
-6.170208006351183
11.082651198436253
19.58700024916932
2.376555112961342
-21.84103108031208
-23.26738152275605
-30.245541824138186
-39.42722397295292
-34.77627405576845
-31.47825547130175
-18.786430826190053
-7.269936662623179
-13.783513328809844
-23.126829895521666
-28.41166397681511
-35.39164933827617
-37.331587852543834
-28.137470575190836
-26.787987705864055
-33.707939969013644
-31.55993145938509
-17.902193972161353
-11.669992846331034
-19.26860014175704
-5.3737698756471035
19.7277433693273
25.606707502596873
30.131731248610087
48.035240848142024
75.75730832621304
82.39311537058379
71.22155858167898
70.44415474453129
49.75606557087332
5.2837039700222
-20.73325392336433
3.6708121064428547
56.308892591533215
68.20501210678671
21.82983089656029
-25.76453539088281
-45.43838970976032
-75.83437622391008
-86.04392781339206
-49.985096600686695
15.059930000300115
105.85435303515278
133.3500485977551
60.82977090282089
-42.329870274390956
-71.84833307508539
-25.430753328457698
-18.831976850036927
-31.836968615215387
-13.934494899433503
20.5348458917471
53.20369021777991
38.65479571337634
-12.473391995039401
-29.527199835233322
7.598135832032734
25.942002519557583
-13.287534602174066
-26.11863104442169
11.043144966495
56.1414540253237
113.86200613474898
124.8710389754614
33.633647819498606
-75.81233975286426
-79.49879874913623
-35.69789581916612
-31.92319966839147
-0.8949836045149377
57.232139631109966
96.92989542544716
89.49381030385793
85.22696079500359
119.33354221012348
59.33494382105298
-39.018256661028005
-14.485954295678155
46.611569100554746
4.413906689284454
-75.46732711113722
-47.487932717433736
39.73385951306197
78.84346647849868
50.936377866609334
-26.340314074995916
-87.73696886108222
-85.26125283361557
-57.58221813992934
-90.90617961295288
-128.5799572676168
-92.27027684893054
-26.802334452939547
45.64902526346829
90.34222343214519
95.31024057592282
76.57626806116501
25.56042422622647
-22.481765638953984
-17.348995664788806
18.523293750683155
-4.284213283137604
-119.83021542495179
-201.00107097285132
-150.17182935180315
-15.471183613159623
146.05849399118563
258.3595538884786
238.61735103748248
47.41779093047833
-160.61823902643582
-227.64816946919672
-163.9118389845542
-36.319772497969375
38.71396032163074
139.50649648346717
239.71364254103105
151.71044823276577
-17.88367843176598
-62.37352801203659
22.911755936978732
76.42071910344669
3.772657504637047
-102.19965180867229
-143.6545852066911
-122.0203919442547
7.007438326848706
166.9732681626495
214.49750474575882
145.64189360396992
41.07947989516816
19.66973728293479
63.85605623336141
85.68483743294472
39.82965266820862
-45.11425027443121
-259.7677212090711
-432.70259885587654
-126.47760884611543
183.82076017100007
126.74198019311054
44.774870923737716
-88.80169661937435
-123.76921395881475
-71.44659936912875
-237.19835764237664
-350.73924008389827
-285.1010978791086
-141.47824468657134
29.789830053067103
14.546426171540011
-57.06904963731487
21.047323442104346
19.850146781910627
-25.184098303150282
24.410713228484543
-64.14095628508352
-255.07635511138605
-231.91048686549235
61.93466949013714
240.8172609428084
129.06292772589276
97.82291662035317
99.69017029176005
-68.66211679422413
-111.85739791170494
30.067246148374956
118.34040240402089
3.174424069129757
-149.69566214799553
-71.54874820088793
24.240550112665023
49.40489365819293
69.82278553754095
51.855134939925165
118.6840431618244
76.62386485224214
-24.644300004963505
-5.865869280237378
-80.36935683706756
-156.04144176564972
-245.4269130870959
-179.152149374038
6.166397082328708
-84.49156248628385
-59.710313037406294
17.65977275582383
72.0925568573644
203.28254459856186
162.22581975531781
289.6738163814023
412.79940851889756
286.3706290759231
102.85245700541883
-60.03299995836851
-111.36490222341632
-274.3928057415728
-256.1308950118247
-8.58728130362169
34.628146893043144
79.43525919431983
101.62540366239502
110.07749260101158
73.11133779329847
-136.69088440386906
-120.53446519433528
50.58312739441392
-1.909221098648709
-77.56478753744074
27.92988315950118
55.08466150578872
7.014408943091496
-21.68760583966892
-28.73959497509031
115.73216462393096
85.46655590478979
-294.41155738299454
-498.8880930391894
-163.95610498054478
269.5871734122864
422.4155635559663
433.2921180414746
278.3234145714528
-0.11376192048955694
-145.9548490419282
-130.94467778950468
-21.377043405730127
27.965054842942752
-77.42957269069245
-53.652550004155955
29.500181171380067
-66.8504926382845
-207.912943764926
-116.84389023849825
122.47469153419102
182.36438181459934
214.11534815780865
216.14306886765686
18.198135298120743
-63.21907613668533
80.3224804937133
15.458454700485927
-143.41041629661964
-284.65835961433675
-411.444435201623
14.458146691606972
229.43511187343344
56.85440677759163
299.1499442422324
124.42786513440285
-57.28490206131113
115.8336249212239
-2.8499014742269497
197.52881758168445
284.47064624916214
172.20307350723797
139.42364600856024
-170.73174156630998
-118.82501916585304
202.10965335366816
169.21369848453097
191.33575841901916
317.898557316068
60.377499624713806
-25.531720713045615
66.27442083652419
143.8292650088856
439.5862414879524
192.26668157146267
-153.98662559321764
77.94909114137744
297.1224090318222
293.1052720877854
40.17029409339256
-277.9651342631003
-326.5165044573003
-239.45825775505736
-191.000245689884
-116.4585527532016
-71.23580916009892
-122.36934700407534
141.64797422744934
399.60472320938527
-74.90056950748762
-325.74414140686514
4.609302537291609
320.4430843722893
444.88045746991054
42.27549747023499
-33.94075965969866
20.29514304898846
-540.0780453704377
-575.3456172708773
-309.7528872649834
-45.9992753534511
380.2923042477569
268.23052369142806
77.80678324109239
-59.647730035074986
-50.11783109259243
415.46843943093
275.99843298480016
-156.13870220185999
-305.7420756645708
-301.3300678682597
56.146893094610625
14.785074418831368
-258.7048924668722
-296.47467207660304
189.05531922868886
828.3127396546912
396.52108688935925
85.79842033687119
223.60803255653732
63.18853115955248
130.16771506548525
-41.47974793628315
-231.21663122508457
-15.761485389305529
13.2761934175052
199.25950337820603
291.8564901566224
-90.44867541034492
-372.7171782971086
-243.8883139464216
391.5678289545168
268.10299405250885
-405.96097505249867
-105.57553848140259
127.28009861866865
-285.6077086454693
-707.2368845086241
-429.6677622917492
221.4480921416324
124.75383545577972
-121.8784452969215
-331.49798070230196
-521.0635140359218
24.000341748192685
588.7751745170617
215.5620560460231
-316.29192116554526
-335.70582821891986
-400.90243160656144
26.35009291105808
764.2880351684661
482.34729046270047
-335.6936445784468
-746.6665078293148
-567.6623055694017
-244.93898178510415
-156.908822716883
-390.5384209665045
-100.50932043421432
972.8137002719976
996.1441221229774
208.5161674998037
-89.01702672629506
6.622981590178384
142.51876024942104
220.88785371200413
220.86111516148128
-268.4598541343996
-409.52343560643203
-153.41019683240253
-195.02979883390333
-110.80135226491258
-148.1981624947356
-60.642062640284706
0.2659773562394252
-253.43919482008155
-240.84178949961787
-10.87373066451007
453.33482324761684
322.73080507430285
-499.8899775270239
-781.2391049809911
-369.91929085477886
419.30671901797547
675.814164536219
381.7142385132425
119.95068723428042
-299.15382744962017
80.8665804492886
630.5542978893533
94.76010507952385
0.638278502634628
39.73519008489578
-321.54323026405484
198.23989950186
320.1820863820195
-541.555180256801
-833.8056322451132
-733.9172457175719
-579.6937624121668
76.91314662362458
608.1644803794561
543.1499165277947
322.3100843981666
-69.99662521038196
-687.8918725635381
-682.7132169950349
-230.75932931327034
-273.05368144313525
-101.4277530440793
245.85105819285295
274.10813706153994
221.42411663971978
-196.15204145906145
-375.5808088852815
82.64434534246915
502.0530916599302
268.4240242558013
-397.59630711523
-337.3989859633928
-9.657869647425859
-216.00991350587628
5.308122897492267
191.38243927603557
-155.39707481251568
-26.689205419561507
243.49539102186998
236.84412044695753
230.22871231655157
140.70097630744976
-300.6336137755344
-644.159758863494
-368.713528123845
-288.1811839306184
-253.35121970951735
84.53553357193533
20.003607336074037
41.95818398857028
171.39489357535084
-177.40760076516335
-435.3142106349339
-182.2897006000645
-52.058705540148026
-436.8476281394688
-399.850760406037
-51.46599683150292
-8.846083227800953
175.70998919880986
172.1673393771279
-59.1063772880851
-198.92565771742713
-188.84333287375958
176.61253765813754
12.133572773684097
-409.61134741339765
-40.114747644867336
60.004987963783336
79.12042777122937
275.51826480036976
-116.06502184297885
-118.61564019054292
35.898397132141994
58.58641813538426
222.07094422150743
-402.32038163162207
-901.4953565114032
-150.6537362463569
333.6170457385406
-302.58786620036904
-661.8580220975923
-528.4739121355404
-475.9811640713523
-56.694618922855724
454.52880637197933
443.5976542657467
39.972117972201566
-434.8980387081337
-586.8243997833672
-6.250841603987467
707.304005811442
410.43777080962565
-219.77720384813082
-161.4701983942819
-85.6031431033264
18.59669834162832
396.81445235426554
288.02297918490456
136.34957499108646
180.79235120090186
-64.53156442288885
44.68060676323171
391.7036490786928
442.04755784140616
382.1592990921542
531.7284341588313
718.6080052468069
464.923180768878
361.7812127340028
226.51377519261476
62.60578122285518
164.25055813102387
-164.64934231642022
-127.80379702915624
173.53563630671985
152.84776418712153
114.62245260396841
-214.87336156555986
-38.739753425783036
462.4322971881481
47.75909952193219
-570.3092822465586
-476.2142896769963
-220.50897733861
33.05458086469868
399.02518207868536
-80.55449506286519
-489.2752673846692
-67.84004085471935
-95.81342816347399
33.67336099465525
255.23992690137086
-47.301341665600894
-144.58618337881308
-217.1424316850021
-148.61547371701622
95.71981216596342
124.21235606965017
118.75940306666318
-7.28383068650543
-47.85007187732881
185.82788968360458
248.03597662502997
239.57826422672824
272.5562491349845
334.5322266885005
476.15933742519667
192.53370671799502
24.05939074915139
212.89058460719576
-54.347766739900706
-233.34841496663918
-38.811544355011186
265.6801395446049
393.82482745894197
-18.68531824683936
-239.4732232886847
-282.05195260179255
-333.9534416041813
27.29974422706507
167.5019918932561
99.84518228071707
119.65439239952757
-148.95058355507882
-449.6123019948238
-486.11281562065943
-202.16402686939128
34.183701489247795
-120.3495706567935
-274.79543164991986
-25.59044101123478
319.13747200000284
177.66300996892963
-101.65054458065038
-131.6047086164993
145.05117290628863
441.2773414515783
241.8265450132666
2.8147696708745515
176.05106108415748
365.6558780219817
246.8192775097545
240.3464097269944
247.9256069998614
-88.867670246453
-216.63979066149687
92.93511734846992
317.3465393791924
297.53200286193686
216.3846608452756
-194.53897195565565
-226.91595096671696
289.7907500600652
193.28223941707205
12.982264268099986
59.64142984175406
-6.270751325759024
184.44359976752733
325.92983957484836
175.37050665761961
13.669688201514582
-38.594519700862215
80.4550558228844
297.64331012962754
202.35681009847337
-157.3214692331183
-203.93964913266902
-99.64449617434005
-27.87410799526193
23.790408721240652
-109.64839356915105
-163.60304097678218
-117.31780466973426
-213.90764444564076
-295.6773806241393
-232.58798861298197
-286.5566898603636
-274.94898778083115
-191.2810019657247
-231.47591902284447
100.07251605934135
314.0852348734315
112.5842977982315
-99.08176286693832
-245.91470146108094
135.1637012462054
472.83913821911983
244.05890616452407
-40.08863243825693
-230.11780481551426
-193.8152966912079
-83.533369027189
-19.251841029789936
111.2600475874294
38.89494368388713
-229.59154308431985
-336.3437442220101
-176.8589074069704
6.027736732640625
-17.571273622602416
-107.30072126782603
-68.88594259989296
52.93506382308296
13.33459384000837
-215.09449342431373
-243.2782310878017
-59.55577253293066
176.25238846858275
238.77887504446014
-14.691736274592909
-1.827059024195999
33.982045390423444
-164.62827060960277
-74.09013419492244
-11.350697267287352
33.0210122910155
129.5185137026217
46.09199285242992
