AAD_Filtered_TADAS_FILE
AAD_BASELINE_CORRECTION: BASELINE REMOVED
AAD_FILTER_TYPE: BUTTERWORTH
AAD_FILTER_ORDER: 1
AAD_LOW_CUT_FREQUENCY_HZ: 0.025
AAD_HIGH_CUT_FREQUENCY_HZ: 40.0
EVENT_NAME: 202302060117
EVENT_ID: 13194
EVENT_DATE_YYYYMMDD: 2023/02/06
EVENT_TIME_HHMMSS: 01:17:32.00000
EVENT_LATITUDE_DEGREE: 37.288
EVENT_LONGITUDE_DEGREE: 37.043
EVENT_DEPTH_KM: 8.6
HYPOCENTER_REFERENCE: AFAD
MAGNITUDE_W: 7.7
MAGNITUDE_W_REFERENCE: AFAD
MAGNITUDE_L: 
MAGNITUDE_L_REFERENCE: 
FOCAL_MECHANISM: 
NETWORK: TK
STATION_CODE: 3136
STATION_NAME: 
STATION_LATITUDE_DEGREE: 36.11593
STATION_LONGITUDE_DEGREE: 36.24722
STATION_ELEVATION_M: 269.0
LOCATION: Kahramanmaras_Pazarck_Turkiye
SENSOR_DEPTH_M: 
VS30_M/S: 344
SITE_CLASSIFICATION_EC8: C
MORPHOLOGIC_CLASSIFICATION: 
EPICENTRAL_DISTANCE_KM: 148.38
EARTHQUAKE_BACKAZIMUTH_DEGREE: 
DATE_TIME_FIRST_SAMPLE_YYYYMMDD_HHMMSS: 2023/02/06 01:17:37.6087370
DATE_TIME_FIRST_SAMPLE_PRECISION: millisecond
SAMPLING_INTERVAL_S: 0.01
NDATA: 12501
DURATION_S: 
STREAM: HNE
UNITS: cm/s^2
INSTRUMENT: sensor = GMS+/GEOSIG | digitizer = 
INSTRUMENT_ANALOG/DIGITAL: 
INSTRUMENTAL_FREQUENCY_HZ: 
INSTRUMENTAL_DAMPING: 
FULL_SCALE_G: 
N_BIT_DIGITAL_CONVERTER: 
PGA_CM/S^2: 401.969
TIME_PGA_S: 
BASELINE_CORRECTION: BASELINE REMOVED
FILTER_TYPE: BUTTERWORTH
FILTER_ORDER: 
LOW_CUT_FREQUENCY_HZ: 
HIGH_CUT_FREQUENCY_HZ: 
LATE/NORMAL_TRIGGERED: 
DATABASE_VERSION: 
HEADER_FORMAT: DYNA 1.2
DATA_TYPE: Acceleration
PROCESSING: Automatic Paolucci et al., 2011
DATA_TIMESTAMP_YYYYMMDD_HHMMSS: 
DATA_LICENSE: U (unknown license)
DATA_CITATION: Turkish Accelerometric Archive v 1.0 - Disaster And Emergency Management Presidency, Earthquake Department
DATA_CREATOR: AFAD
ORIGINAL_DATA_MEDIATOR_CITATION: : AFAD - Disaster And Emergency Management Presidency
ORIGINAL_DATA_MEDIATOR: AFAD PROCESS SERVICE
ORIGINAL_DATA_CREATOR_CITATION: AFAD PROCESS SERVICE
ORIGINAL_DATA_CREATOR: network: TK
USER1: GuestUser
USER2: 
USER3: 
USER4: 
[...]
9.601581353802198
40.28120150119676
49.1026801266448
27.721755911170742
-14.42234265881682
-40.436633003004296
-28.065794055234676
8.466555267364905
46.15635895273201
54.99437952437838
27.584701086079637
-4.079256848689277
-13.89928578540043
-3.825239751075935
4.8751630645169906
-4.1486950838422825
-24.843522036343288
-42.384264662454456
-41.666840835708186
-20.34975012087387
-7.569151281362301
-22.878077176573285
-45.83906988403783
-59.91379118872904
-66.86442629596917
-71.62530448305274
-73.48278177855812
-63.99527307402191
-48.48394525538149
-42.134738574209656
-45.45786376073837
-46.66427790493875
-45.16369744172906
-51.62942842493605
-65.01571196200632
-78.96221165003618
-91.71395733821458
-99.74713431147804
-90.73273433111139
-56.50290896106241
-21.1509987262704
-1.863569156631853
8.653247217214775
5.453727255037788
-15.120182412526571
-45.33348190333508
-71.70725702139238
-91.080327093642
-96.12617075776929
-76.80114609005115
-56.435487664627004
-47.62277942590712
-41.203732492672074
-28.30630969039363
-6.476664740461912
15.437211164707449
29.685198771634347
24.752744116621137
13.629602182848128
28.17745410177493
71.65281561740512
126.58398926930816
173.49352607329067
183.60754525276354
141.50441201746972
87.45822538846977
56.504952778815
48.021705447102455
75.83047227839295
122.4810837597913
144.03771405334015
133.85470980495992
110.80574446101376
95.34819842022557
79.04223977684956
56.16918829147948
47.29002514807782
46.69324258322944
45.171806269615516
46.36510173747634
39.94979078701482
19.327113190542775
-5.328914101241495
-27.336183635487302
-45.82534233301266
-47.86213327105489
-41.034735170672754
-33.41204933535035
-7.243424858857898
21.011824590410818
31.14516918709549
34.01809678686373
36.92065337088231
43.215621169537485
56.434343452545406
68.24525859879263
56.93470335812236
22.142193363287504
-16.567469299986854
-47.49480196187297
-67.25159159778433
-74.32307091785933
-51.20305059692807
-10.547046084142162
8.207496835031455
20.380208065660852
50.88231486645179
89.43404448252392
114.81413046764757
112.16677123103524
91.10498734068155
62.75155123459051
44.22424660498853
52.22121095993423
82.74168052687045
123.79332927101187
142.9995070350338
139.87740716428118
131.79844209768078
105.1240934059292
69.67772075682969
34.19765520364558
2.7273247407614902
-9.198582977165056
-1.0055406871988852
26.910363668165555
45.765624602554624
43.78014527035406
55.627828797387885
52.99682957251624
15.63628012602427
-3.4211516023598483
16.93033387383729
69.38422596722363
133.81886544725927
179.06605909055435
190.79969782446017
167.85591941683174
127.92492896952005
106.99143648948298
107.31850281615385
84.66391047478722
18.78466118256868
-74.69161986045357
-155.51910405628703
-185.81726492442226
-163.66767451656472
-96.80967913617835
-28.579691570910946
-5.339112813034329
1.375572391232104
5.418633159653863
1.2604812956772307
9.950168365689787
12.969132633876667
-8.272244139061003
-44.45419305224959
-72.22250447079887
-63.13886212141724
-16.767841918359842
55.372891144157585
121.6325663682168
133.09330023354823
83.22542671687968
33.767232038101106
28.552072185124846
56.916201509861466
107.19540983419833
143.99617659530315
129.37060776401967
60.48539757911927
-16.888706554242347
-38.32749053424335
-16.87310369221137
5.933794324838163
14.374317905623577
5.634687717617169
-2.935505710327498
-9.0845517355456
-13.018664296726243
-17.228091270837684
-27.91404581365314
-29.371926562544022
-35.699815569478204
-63.449175693928616
-92.16766841179503
-92.42650250915723
-40.0780785559883
36.144758689403304
92.57669347975727
106.45933520383558
67.72883714475356
9.488671688134136
-42.157767266143665
-74.49735920703965
-75.04429803030087
-62.814191849100645
-41.89829720207673
-16.798697251071196
-7.041015899526098
2.0532251223249034
10.45050765550346
12.95218053332274
15.686121439020145
-0.27346297543864084
-25.79564763411287
-37.001297428719944
-14.452910749453507
33.6390316039651
66.41916613236542
63.7724097730809
4.7899881662561885
-63.76026118996268
-77.88377685093984
-49.261866041159124
5.4063539232304025
58.831580343249506
78.83736756280686
37.48739761616937
-23.145814479018895
-38.48167527161625
-35.91341190673231
-26.596986842811827
-23.64180608971845
-47.91048403665228
-74.58397838110166
-83.93562624730612
-70.05699483895486
-77.02202536649826
-123.61314368969592
-177.37788244628348
-239.56152800652717
-295.8071787294255
-316.4533159259409
-277.33067067828927
-173.9709280544054
-68.8230454355646
-15.159744196401785
-0.3367896833820206
-4.706142878123857
9.785044673688793
61.999016509209206
115.81263602603102
166.39768872901848
186.0179316589346
153.6531564142678
108.6293247354134
57.498690130982446
2.903019577677945
-49.8391609670784
-78.58807903494291
-63.167295505386406
-46.81568587070952
-31.636883502776
-9.406717658284581
-10.640574472308572
-29.139930351046274
-71.45724013480952
-126.44937838751434
-170.5277619155219
-206.04199121417727
-200.36469618697868
-171.36661765740897
-162.3004780023925
-153.83792388578178
-120.58488888664016
-64.31666548781382
-13.1604144305474
16.521780298052356
32.23589460200014
53.2477322628097
84.35567486933974
123.50984581642363
184.7650323139352
231.87023827264022
231.24684462522757
199.9248337326149
146.1154518681697
89.98532721822369
48.01939087715331
39.5769751741142
79.72261959902048
134.21421553258727
165.51082178016046
157.7659853767345
119.95112227161856
79.586043549115
73.46373251785036
103.17632157520788
131.67495359881778
151.41530469912092
153.80304902825776
115.21413573308465
31.340836072340814
-70.31579741732519
-154.5488803505649
-193.8636969966787
-165.12765391776594
-90.94170853008694
-13.220486969604188
34.63817317413707
51.098789173826425
66.29280177914261
99.54799548804424
151.6385919033224
172.84159608663094
148.00648309212022
118.35892968959637
97.98223043675202
96.98652213325751
101.58413531827749
84.71009947484995
51.193463350510775
32.56772686649468
61.420671488485
126.4447209870098
186.95551596233958
194.2478747543061
131.08877290227193
46.32718311469653
-27.413022054215695
-96.15087800719654
-134.6884901577483
-130.3045864024594
-135.57912859364302
-171.160123458278
-208.9118845962364
-244.95807909717146
-268.1551979092357
-269.13437510926127
-260.8429930747398
-255.04634344262527
-250.7355052805583
-220.72093673907324
-171.43864858083546
-118.94466775809207
-57.213495101361254
1.8407537274562638
46.01482282968257
43.00825214102837
20.318637106596494
24.42909091053699
23.99568904338997
40.174912325543005
92.37481598650784
137.66744742196366
170.33355701901564
214.21540112381976
260.863336139497
269.87779622241675
216.35545122386372
107.36005487948414
-31.918730137927287
-163.74483848198722
-241.30414109070722
-254.89878633845376
-237.92054586390975
-222.1244659722536
-201.913361898183
-177.93137993973147
-181.6606765519976
-185.16091691749142
-166.98669595674326
-122.36924316406362
-0.8888647556413246
164.55875845835564
278.5925858018826
321.6672699037779
304.6123463603794
224.005420684078
122.34500413317654
23.441747029587894
-61.85082973319737
-96.08809576077334
-85.22232396854291
-51.296334924816804
-23.187017380707783
8.436346169500423
50.70855727714143
84.55698773380098
63.21804796639966
-84.42361873902264
-259.9352301608453
-333.155231794326
-306.81726182156444
-218.34922858586702
-100.38478723418505
9.438541527117073
81.50275152804141
105.07542088158273
54.60469413422177
-19.811477485839667
-29.961037993214426
20.490381770675516
96.30213052878379
126.8388028061245
74.98851674205441
6.608893233720637
-73.18979099357371
-147.54584117927567
-159.6237611243551
-159.55646736432354
-162.81457225295662
-157.69406135969635
-163.68757953682018
-133.8034386274506
-64.85751615997422
-14.811357188225758
15.105994524148146
21.36759670336396
-15.196581483743888
-51.82933456247629
-55.25210994406389
-15.929390519382805
54.50854242248379
83.66544005698752
77.48075182487936
64.73807798748658
54.57488445860596
72.51579302396324
98.53107126082901
143.006290626801
154.64507495317744
92.64830023279852
31.927562492555662
16.06659571068485
65.58298021669795
149.30056770870195
232.24874786753443
300.5101583418605
308.17697057326285
269.4736473552643
208.9414436847359
131.77238110815156
72.47813911430171
51.61595539729564
64.91485203801511
85.2241211392229
95.97380072179193
98.41923708734817
84.16997333026055
56.503384384871765
27.263543386508594
6.8003998678239554
17.476406329327258
60.38349422085076
104.52284577634882
142.2735074341263
144.20785140620728
85.76720215575301
23.17421822697881
-10.948019834255986
-31.482051055325805
-43.22566019684744
-36.77534853113786
-11.90859332868926
11.54007185985459
30.533555750860014
63.917931948952464
113.7080128313286
142.16505462344088
131.52613980384572
95.99917917619649
46.362210342334265
13.183976815697397
-0.6492885408573983
-16.443143427214665
-31.406892043676553
-43.77675456971103
-49.96108208506584
-68.45723469008063
-101.2312794196767
-115.51891106170442
-121.53467323213822
-112.79329263851423
-62.80177983740772
4.9776766602041205
57.38753624405141
86.48956236643299
113.340301029003
135.0205713568481
112.28545628293872
57.82566022138735
15.377105544772078
-19.581246195462274
-55.21115913914051
-79.34185869836895
-107.95331059390568
-128.44275383677015
-102.13599792686172
-45.57592575125521
15.667605656605355
53.75234301009068
9.644337911140934
-111.31340872022142
-229.56548784511136
-304.64451298214584
-310.4795859330107
-255.41126813374402
-183.56235492008693
-105.9222313904285
-63.64184471033103
-43.466697941613084
-0.5960935647636746
65.19509371074356
129.8988746300383
109.68075034874819
22.87151170824522
-82.15548186522547
-205.489130506798
-285.221868418885
-290.5811186834815
-212.44534488435858
-92.02106944611374
18.45364489513437
79.7119275578877
19.31027818978831
-55.03455672583695
-17.863149447095747
84.75804079389374
221.74964386902556
305.91774411579087
230.4635231372434
84.87422976223807
-31.339460264886487
-99.91667306874307
-83.98293570981437
-36.06457451813844
0.5903233595223076
16.174054727814216
-29.518556354430007
-80.51673766224872
-84.71156543513662
-23.552470897726057
81.02223794182292
130.60011226948836
105.91798655255468
1.9863212147566565
-176.0857445160918
-320.58537754383536
-360.94595019311527
-290.1763420553062
-135.92516524112793
48.857287200821055
203.71279750963018
223.44924342410397
84.0627131012717
-91.13732891432143
-183.12308594976264
-160.4627164280354
-61.525973247111786
46.19501371427408
90.66689475156461
60.373270081172365
31.349059544436738
31.316801643279636
29.16032727858378
23.480429191702445
9.067436003492551
-30.43664814010308
-99.72726058764586
-161.27309964187305
-185.59968691124826
-195.86286734675394
-170.72193158144512
-93.37504705369837
-15.051037688269323
-6.404258594789436
-78.15431011460134
-130.83344616963115
-125.39269460158627
-99.44981210840744
-29.325584589337726
60.18162633707487
92.89929682446909
56.55253144851834
-24.95596730717904
-113.68749589518211
-183.3076885488844
-209.27130075412842
-176.45134873232442
-139.26032224938675
-153.64180786424873
-198.44935256840404
-237.41000789381843
-260.5749828110099
-234.67212747419003
-145.45314937796343
-31.305869809179523
59.14002879098621
103.78097208481817
114.23345341810602
93.42957314941121
71.24506655367526
89.28080082195049
140.06401233496436
214.70297988244292
297.82120619441827
349.5846148511385
367.16708353178166
353.63430768088864
294.8073897332232
222.9919208948292
175.96547165770707
168.84259278363177
201.13019287979404
248.1883170346417
287.20523217391445
294.31016113175343
261.885589419872
195.76311670533207
98.28300361893484
-2.8442279537693054
-82.93018740278353
-122.2841715679609
-93.83794785207834
-31.942223139995214
14.33027877486746
39.22931539865559
19.85461712690563
-36.48019492898086
-66.0475443928813
-47.371585073099034
11.195801124666373
79.87141082711956
98.97612115985007
53.758629263098065
-22.770729832270924
-54.15500739791386
-17.94585756331376
32.437084889509386
59.09709780903942
9.125071406909198
-87.49385825039549
-166.48964085125928
-207.79565771930137
-173.8491909278214
-95.37222718891138
-18.380549382790672
25.556670796353764
9.104526537975905
-29.61188810515831
-36.79556970940191
19.049144389703596
119.61421079042314
224.11257513155948
288.8045031615283
269.93274882603475
188.05539268737914
99.35101578041939
59.32880424698716
90.00699764717278
133.7627170628171
126.99251313320894
67.98275577972747
-15.66453457109311
-99.5639756265432
-163.9047514369471
-195.30439617961017
-199.16774058468798
-199.14472940402115
-195.0668647040537
-176.17662171259985
-146.30289331526888
-79.11248894671566
47.575652879309864
198.9560195473502
330.71854169191965
397.58278739912504
346.41472500162945
210.80166990747946
56.858202176947444
-95.51882521363123
-173.77322581385584
-141.72346358225542
-59.15946548918114
22.123045233389433
58.033104039807576
62.078502634835786
62.27022672426387
48.2675898680739
55.27091336280182
82.9241080223751
120.61797760582738
190.33327096346133
251.9607736874388
286.2071597337066
284.76438035705957
253.54530572299134
252.67714488804612
263.2918472740167
238.24320625378502
172.06533201265128
70.14033940057259
-37.99177911773205
-126.02329289760179
-172.32051438782793
-180.32460050896998
-173.96895924381886
-160.69264564292365
-143.8018815656163
-125.87783817087278
-105.38776388808782
-63.115990076116184
-3.399058179506083
40.57937379451125
60.98555046043493
59.809224282613506
51.581462704804885
28.400376117407752
-36.49935056175922
-109.18115890171963
-165.38972927511008
-193.4513650202838
-176.180996917944
-137.57184286533234
-83.72907249751326
-26.112845482359106
17.94435579652691
36.25978660993256
48.98160184800016
99.19081763454126
136.51837835465966
148.64325086710906
166.3636971565618
156.45414993640955
125.57211194589043
98.026919599643
82.39037069251896
104.54178783865521
153.20937801449924
190.87115273978068
216.0149186110716
225.27632846380055
197.32496752159955
148.87934581628286
122.89756816544086
126.81812340102783
139.17482337839695
140.9906320712699
111.5921367279467
55.519571356598135
-1.0947094055075315
-40.36585962518892
-41.34705328639784
-20.008222263508486
-14.399302509473616
-33.78358399831757
-81.13464070193322
-117.46106664796906
-106.05178813476748
-56.35904724013298
25.52899524654905
100.66286803291426
154.033518867451
191.0689935773063
178.85176151431045
139.48604886566156
104.49250638103645
79.60696357138798
65.93875063244296
40.68324311154446
20.388141059535045
21.385670706485616
17.74017723398778
-6.070174300963585
-35.50508912100039
-62.147291760966965
-104.59124049024071
-141.68109518069355
-151.58178727093724
-176.43975075906138
-225.7732128296808
-263.43181909766275
-270.893717378388
-232.88964232787384
-154.60333012363765
-71.28288873708553
-24.725616323322132
-33.71909277389463
-84.26769994653323
-140.4519214188444
-172.278216970654
-181.63913091687024
-146.29270047088585
-90.62172024235382
-45.68102063747946
3.902183650971713
-15.193671800880066
-103.69130326972497
-179.10390184282585
-219.67502728297256
-194.17601631195737
-105.46150712845417
-16.15765325656298
45.67656544787571
66.85134632669252
35.42646361337592
3.6385837117378257
-5.152112054548451
0.22318360929466244
22.731207621009002
41.301095833570905
54.669026296675135
64.27788120677326
82.29394394553422
129.5075437137369
194.83500030915224
246.7774376327449
269.25436369174025
262.43082913165745
221.7544987375544
173.06991010804265
137.89088124234868
111.80042086605324
81.65054429421892
39.32875176640928
-3.8421380372730773
-40.390432155190645
-51.801757580463494
-52.06408989720312
-73.00367688662706
-99.85777712688862
-121.9199788361904
-138.2140965859257
-146.32453140013337
-143.39524844174508
-116.68583100612246
-62.44484169480989
3.3845765433261517
38.78584560001127
13.650766921831504
-55.46901697755912
-120.94603165515412
-133.35815173172037
-87.89381342535837
-12.82722727370191
65.24893555822793
120.32360814019896
136.4855949248439
112.6359491424022
60.22808682815108
5.377130653345005
-24.609039990880632
-29.858119406388532
-28.01536355144506
-32.916820818596655
-56.908492608660666
-101.06347004208595
-151.20037914903995
-183.5512676975622
-189.13320242268202
-174.14623680091148
-132.27538764814383
-79.03326945898684
-45.03732684728056
-28.716060326760438
-37.1818852847737
-77.26122828868999
-121.76834398943471
-154.3029847000007
-171.6378455824709
-175.15076705488875
-171.8327191252383
-157.74894169553252
-129.80438371420115
-94.52282528010832
-70.10653946184341
-71.90537838779366
-90.33897251229854
-112.05320339106044
-135.9357710154194
-152.4490993964147
-141.18038556532994
-103.54922736632903
-61.15927230279191
-26.783038067422563
-13.132330799323332
-34.734056413986856
-80.79022649319454
-129.08746717700035
-171.64405406652367
-191.93946333907937
-171.73830685184035
-110.71664937018592
-30.10726125297885
36.619783874435036
78.44520982178655
82.49416510441036
47.19542290248717
13.368062223944344
8.324945749212167
32.4444084976262
70.09228827287228
94.7942525682288
98.19743096263296
94.67344198215112
109.24454615959208
157.64397754975874
219.7284999670116
265.42291805878415
282.6824596555917
255.45937616263842
190.89334169308648
118.07637943184581
50.49766198756318
-1.8837823909403886
-40.25431652785275
-55.485019485096565
-41.04744096181791
-16.350302381746612
17.672188065929323
50.139946044248425
67.34369575934369
79.7975353597805
93.0381404778187
110.52814390504275
116.35697068044824
88.44649973773711
36.817920657562325
-18.33151705276158
-60.48415310253836
-69.20043137922113
-52.85893091983258
-33.72332636938016
-33.67340896067537
-77.30181702625123
-133.15063468389548
-173.53551733801268
-188.26317470387036
-147.8004538759929
-69.48799313862004
13.630936061160803
73.48078178622194
104.78852253405368
131.90748481465886
155.1451110131853
173.75665354676752
173.1853212522897
138.02365506073133
91.8570119158164
50.38559512882734
17.399425458926153
8.582994509365166
18.97944528905975
40.85029747233666
82.51943500764621
126.14394078661165
170.4174282965877
192.39943205224364
145.28472401252546
65.81653999280061
-19.44116387420827
-94.39354481904358
