AAD_Filtered_TADAS_FILE
AAD_BASELINE_CORRECTION: BASELINE REMOVED
AAD_FILTER_TYPE: BUTTERWORTH
AAD_FILTER_ORDER: 1
AAD_LOW_CUT_FREQUENCY_HZ: 0.025
AAD_HIGH_CUT_FREQUENCY_HZ: 40.0
EVENT_NAME: 202302061024
EVENT_ID: 13207
EVENT_DATE_YYYYMMDD: 2023/02/06
EVENT_TIME_HHMMSS: 10:24:47.00000
EVENT_LATITUDE_DEGREE: 38.089
EVENT_LONGITUDE_DEGREE: 37.239
EVENT_DEPTH_KM: 7.0
HYPOCENTER_REFERENCE: AFAD
MAGNITUDE_W: 7.6
MAGNITUDE_W_REFERENCE: AFAD
MAGNITUDE_L: 
MAGNITUDE_L_REFERENCE: 
FOCAL_MECHANISM: 
NETWORK: TK
STATION_CODE: 0124
STATION_NAME: 
STATION_LATITUDE_DEGREE: 37.4087
STATION_LONGITUDE_DEGREE: 34.87911
STATION_ELEVATION_M: 791.0
LOCATION: Kahramanmaras_Elbistan_Turkiye
SENSOR_DEPTH_M: 
VS30_M/S: 583
SITE_CLASSIFICATION_EC8: B
MORPHOLOGIC_CLASSIFICATION: 
EPICENTRAL_DISTANCE_KM: 220.84
EARTHQUAKE_BACKAZIMUTH_DEGREE: 
DATE_TIME_FIRST_SAMPLE_YYYYMMDD_HHMMSS: 2023/02/06 10:25:05.0718050
DATE_TIME_FIRST_SAMPLE_PRECISION: millisecond
SAMPLING_INTERVAL_S: 0.01
NDATA: 14501
DURATION_S: 
STREAM: HNZ
UNITS: cm/s^2
INSTRUMENT: sensor = CMG-5T/GURALP | digitizer = 
INSTRUMENT_ANALOG/DIGITAL: 
INSTRUMENTAL_FREQUENCY_HZ: 
INSTRUMENTAL_DAMPING: 
FULL_SCALE_G: 
N_BIT_DIGITAL_CONVERTER: 
PGA_CM/S^2: 16.094
TIME_PGA_S: 
BASELINE_CORRECTION: BASELINE REMOVED
FILTER_TYPE: BUTTERWORTH
FILTER_ORDER: 
LOW_CUT_FREQUENCY_HZ: 
HIGH_CUT_FREQUENCY_HZ: 
LATE/NORMAL_TRIGGERED: 
DATABASE_VERSION: 
HEADER_FORMAT: DYNA 1.2
DATA_TYPE: Acceleration
PROCESSING: Automatic Paolucci et al., 2011
DATA_TIMESTAMP_YYYYMMDD_HHMMSS: 
DATA_LICENSE: U (unknown license)
DATA_CITATION: Turkish Accelerometric Archive v 1.0 - Disaster And Emergency Management Presidency, Earthquake Department
DATA_CREATOR: AFAD
ORIGINAL_DATA_MEDIATOR_CITATION: : AFAD - Disaster And Emergency Management Presidency
ORIGINAL_DATA_MEDIATOR: AFAD PROCESS SERVICE
ORIGINAL_DATA_CREATOR_CITATION: AFAD PROCESS SERVICE
ORIGINAL_DATA_CREATOR: network: TK
USER1: GuestUser
USER2: 
USER3: 
USER4: 
[...]
10.613731393011847
9.801808244822888
8.907421935151914
7.8189263079855635
6.736409970041008
6.027710035493496
6.126616151964434
6.524679922097053
6.434102696607491
5.476080104659495
3.877771516757495
2.234800345032988
1.7264703391092937
2.4820284177693313
2.812906698299091
2.120369928360773
0.5735713116761323
-1.00335048403598
-1.8951887252219195
-2.334860397627712
-2.765500007151327
-3.743293576362017
-4.879514970648771
-5.69918176591304
-5.680468904666437
-5.1809411190233705
-5.582932717840597
-6.4171840019893756
-7.032884458618669
-6.7123824316055485
-5.296891709591496
-4.716171778953733
-5.8472196125340385
-8.00577078023583
-9.58798264851921
-9.008778290400636
-7.166546687132192
-5.604105505525462
-4.1922674189233975
-3.102120355033076
-2.218532522360119
-1.31269823790202
-0.9066257483930396
-0.7287999335420398
-0.17466455101781891
0.58867871556752
1.4636679108047994
2.2767923551116187
2.9640745198699316
3.6508766949801745
3.8940555426903454
3.729624727517463
3.6135500057221535
3.9664178283990505
4.4918355081943595
4.812308532841157
5.434057460515425
6.299300374679059
6.898365451801168
6.9569971100063865
6.310527720858861
5.186988844302657
4.707130795515134
5.361602257172874
6.208985440212422
6.711135386016666
7.4433155520832
8.33761747773124
8.099846717139554
7.2380071334807
6.063170946559882
5.156270305948135
5.380529609850491
5.851350119649915
6.543756569160782
6.936082922224189
6.381554204989025
6.282021516098048
7.015084161245449
7.391879394773695
7.366414792780732
6.128876781290244
3.4455558296960094
1.3120435953480114
0.35060378940796394
0.47020857794982146
1.6791043514129207
2.796388490974703
3.5854073057569695
3.643647977910331
2.8299116919544347
2.0081652343507863
1.280794939467768
1.5226602551323736
2.2995528807057877
1.8449931752728932
0.9811411513346809
0.6440250316180977
0.8396778652373741
1.8865798334214594
2.227941551754821
1.068580829241473
-0.29004180646051125
-1.1361941690882782
-1.2488678097822279
-1.3530264542824917
-1.7439583493521345
-1.5788192625530435
-0.8007787710440888
-0.11108666357044246
-0.34676237330672777
-2.0643870790228123
-4.322278377369212
-5.371531491248865
-5.299224580069046
-4.500406605740104
-3.1873002439540503
-1.868209954988589
-0.7394204463258578
0.6214513186651593
1.8710474066521916
1.7515414714091628
1.3740420193032834
1.7958229446794431
2.5044606654191908
3.536305324164585
3.5544297300994434
2.682690430887875
2.9350506638733056
3.563187994545648
3.444491728162057
2.710771140322104
1.7539993018093714
1.1842518177621424
0.9013985678617503
0.04081984795378633
-1.6567736998820248
-3.780414355421031
-5.464603763014215
-6.1102025767171035
-6.083259044075305
-5.650966936490165
-4.835408649869171
-4.027918297580739
-3.4262564093659122
-3.2533354550043185
-4.240764368946816
-6.4179508413854665
-8.585339272300452
-9.547371675489039
-8.627593086130558
-7.3843061348874155
-7.552412040334465
-8.126410121917635
-7.763996202537153
-6.310974350202889
-4.754621266006551
-4.81382318060788
-6.0387291898492
-6.511162418403409
-6.214662460387853
-5.553889787199215
-4.624703476621431
-3.9385744609442948
-3.7004868319703124
-3.018288600031012
-1.8212301105656732
-1.9099052176877604
-3.1640421892035415
-4.172932528639212
-4.429176899357856
-3.714405369910069
-2.5568439990995473
-0.7244008161160722
1.5621876572650146
2.879127713478943
2.549521272100871
0.9866641651297425
-0.8636730713570068
-1.8102083663714312
-1.2781866511875848
0.604038362209525
3.1191113181136885
4.815224764501677
4.887908717872799
3.7542875518539542
2.637796869605543
2.4178090025312353
2.5190825050435386
1.7839913396199272
1.4374689039229718
2.491053405630588
3.627187026339404
4.199880915261181
3.781118628300293
2.5693445804299215
1.7495718511714449
2.0737247598225643
3.2339352167828777
4.497520648467395
5.336582545144853
5.426678751191541
4.665103018838777
4.041601687697902
4.167053981884679
3.94821179926639
2.985244802902101
1.915282385926185
2.1359935288676404
4.227109821836888
6.38572311354381
7.212497397218629
6.914566029143045
6.014703692549837
5.099108577111618
4.158203528346925
3.541295134264986
3.3433942415293676
3.60725721243468
4.943606855323218
6.101971458614189
5.489628364278978
3.7616464585769904
2.209939173964862
1.2185828090619872
0.8184294976763661
0.37019187531042874
0.007300122753981991
0.11437344156317593
0.11716657247928296
-0.0018718542190400062
-0.2903435712486157
-0.8528104700693082
-1.7961585055596263
-2.543114755408884
-2.3021692059507446
-1.4665797922967294
-0.40407830341263096
0.063486098732354
-0.8870746861054926
-2.550623600357949
-3.8910149348074934
-4.452198570298836
-4.131910765629258
-3.3135486099278033
-2.5567763837173207
-1.8029431037420474
-1.5271230934105897
-2.084438070217982
-3.1023916823177338
-4.138311359188659
-5.520465664946436
-7.547687743099861
-8.767821938739624
-9.360976668397983
-9.065669752718053
-7.78414897384497
-7.270401666662182
-7.384791240955409
-7.953109466211855
-9.349040316553054
-10.646847095867015
-11.642463215745273
-12.914390339288351
-13.667104806879918
-13.565922688380184
-12.629546159509802
-11.144730129188877
-10.848381610648866
-11.872923123836005
-12.761331946916885
-13.017674161497927
-12.295482434385615
-10.775123650267362
-10.24912592283377
-10.9862733373848
-11.366182908886922
-11.334579648302263
-10.96201401753684
-10.79271055337502
-11.171858383266638
-11.376716877497966
-11.62635640935558
-11.876052986170505
-11.286334126966128
-10.617714199605887
-10.606738587616716
-10.999733186363587
-11.400409693790902
-10.489918040343547
-8.740988658316576
-8.20154459846156
-8.450168257324052
-8.355184397580471
-7.822474301963919
-7.271287773509169
-7.742597929521501
-8.87900047130736
-9.22830359964045
-8.258178843094138
-6.460683128309333
-4.526295020259513
-3.029731791023605
-2.566343447502275
-3.6609071439394345
-5.453364233546948
-7.139211123421644
-8.573338515682751
-10.02470369131885
-11.37852336304609
-10.847215493479306
-8.34479550592357
-5.62531187430171
-3.8807007912598106
-3.537495050218632
-4.437382642818581
-6.280153881153213
-8.17963405065675
-9.73131225863714
-10.468969957011613
-10.152049123934619
-9.386349337037375
-7.785784077977683
-6.005289428922513
-5.204763899900408
-5.439739229547018
-6.570294803113535
-7.78562229128642
-8.686183625140902
-9.17999532658702
-8.91522934570064
-7.61134492292499
-5.448255558876259
-4.371689913900643
-5.086204365486575
-6.012463368312084
-6.4200012626411675
-6.000415529977299
-4.994825942212591
-4.5920269305382995
-3.7041483777045836
-1.889072274435249
-0.7629321270143025
-0.5163442477232387
-1.1885036883316304
-2.5274857266227033
-3.386903051054086
-3.168396750781693
-1.9116570865621543
0.1292490473980599
1.543913695406444
1.5756945546233379
1.1059078733361172
0.8004671936920754
0.5573462774786476
0.20727635506819075
-0.3069567845181701
-0.46423269169030945
0.1483741268753674
1.0479558534518103
1.8595312933771049
2.2359848936812727
2.1292265572589377
1.79536834167485
1.8052878998467665
2.160056506332494
2.1164514552332157
1.3435174342690417
0.5511580180996843
0.9328546839757592
2.2497098492235836
3.3548027323192686
3.581925827064369
3.6499547761942153
3.865284303383875
3.6974595537391592
2.908579733660005
1.51488734280864
0.1797573108281639
-0.1824857663346176
0.9865937534430099
2.4228362854871053
3.095760316694627
2.5753065242108124
0.7168282182666884
-1.072746212547543
-2.1790872836782884
-3.4166728504816475
-4.847561107295329
-6.025091129232807
-6.927479047558181
-7.4154858423779055
-7.9133955139165035
-8.639775106679886
-8.945149542584108
-8.886921431470673
-8.712957709950526
-8.372388173692332
-8.885878716449515
-10.541238688454682
-12.004837565808636
-12.3820958151819
-11.820692948805783
-11.211543028196646
-10.573156774571933
-10.018171879490529
-10.470524935915101
-11.5363563786328
-12.677746937888871
-12.829291219268615
-11.651580072057584
-10.116026318603145
-8.427509230435822
-7.838606417109998
-8.632473215573594
-9.990940598701707
-11.292827149904436
-11.665886946796165
-11.496522729045013
-11.288708826880125
-10.63110458565394
-8.854579861256154
-6.1042494634792765
-3.125853884962183
-1.4270001522158293
-2.274789401536834
-3.7825409453069785
-3.8031822184207225
-2.3474899618637655
-0.00947489189024033
1.8276929295025626
2.1133158314951155
1.6453525486640141
1.5267068938648989
1.9827644678623482
2.4928753269404567
2.456216867290201
2.2299478137806146
2.625668533414301
3.7300874022746617
4.741425681686516
5.045638968799174
4.3379485954501105
3.1542110038802775
2.2684715387351155
1.9187954389853308
2.6532801108085593
3.0751726366496808
2.0082833200734043
0.667428550774772
-0.264933205799043
-0.4506228842226374
-0.3082772096384145
-1.2915438783057356
-3.5397547190591014
-6.043558404270034
-8.019763768305653
-8.528892433780157
-7.773665698924608
-6.9665622837547065
-6.461630885489012
-6.156028275998836
-5.536664778987106
-5.385368164767981
-6.80316092701814
-9.074748574148428
-10.912563487574547
-11.314300289802066
-10.767097717376966
-10.293061141674517
-10.189003888658636
-9.699231622402946
-8.31566477132646
-7.00888660782692
-6.918666665903081
-8.470591059286955
-10.560557039175078
-11.329086136237777
-9.790384219896591
-6.966521935236752
-4.678139536982318
-3.5926741053764744
-3.5359884983938854
-3.9998299605582797
-3.8119775633721438
-2.6482777459233677
-1.9831263391996883
-2.5279403869241137
-3.4505538580118635
-3.879467793513031
-3.5037322712769585
-3.211562010565598
-3.686235507149473
-3.446309435881561
-1.9280120682962998
-0.6874974189755673
-0.12820680350918665
-0.23305788787004383
-1.5715300928075975
-2.953167648303283
-2.877111439114194
-1.3533581795127085
1.1130361062703935
2.8648652509646686
2.360981426632794
0.8825600879175409
-0.387576519618061
-1.12497551575953
-0.5413813162187184
0.7001821878000312
2.142681153908663
4.451949049286829
6.732154654778363
7.772007444751234
8.016273023439831
7.513143737015908
6.445582261683458
5.857514803316611
5.64873373570393
6.242895928822166
8.289972748086383
9.779324101336126
9.493873115664234
8.48415157659254
7.727102121464473
6.829440812110216
4.43589050964701
0.9794732117548016
-1.6042754068510066
-1.761909063060814
-0.36684897673139866
0.09801638502060192
-0.9152582088855234
-2.549862451766333
-4.292485955514419
-4.833226812518045
-2.999057618191962
-0.552579463164426
1.0083230949382989
1.5289075626352864
1.0750278209558055
0.12685157267885142
-1.9906689901342043
-4.691687879295002
-6.050646955094658
-5.039109150576702
-2.0140827711047424
1.5697707761968602
3.4233761000480687
2.768779914920154
1.1088542257881546
-0.9298784716620649
-2.4891472302718056
-2.681685943970253
-1.4359847422945258
1.3039582940697783
4.1974911610925
5.0724492462253785
3.6118038657030906
1.08478023700703
-0.43873571308420467
-0.13809924893483402
0.647628457306037
1.6363227495330512
2.3673293368604695
2.199850783599837
1.6903104675999698
1.352913966714957
1.829720535716542
2.199545009243524
1.1612090399557555
-0.40156724217956236
-1.4367602532536656
-1.045132531556183
0.2590700608584177
0.4444551849429041
-0.920078145562968
-2.2791074560243763
-2.85202499679659
-2.6925898844454097
-1.8927755650059395
-1.3022424269296655
-0.09858109212439478
2.6553967459378893
5.73269264887902
7.603290617589153
8.243183584453057
8.381758931996528
9.107725057376738
11.112987463273479
12.559863610610206
12.15584531811321
11.12079970072488
10.641938362072953
11.2632842449541
12.167559047591977
12.125280273479053
11.092336060296477
9.72358800465941
9.261203440124335
10.01217937015073
10.721544744985952
10.55501022140544
10.202128695804008
10.74839320803797
12.010705396886527
11.97711571497068
9.468675921740823
6.4891681203785785
4.935275164739289
4.879403985162
5.286548426930932
4.832751461328665
4.381639569282445
4.7302981377295215
4.6962317249381496
3.9533799731728037
4.0750348772246285
6.073252034782459
8.864231139366769
10.336385150112623
9.426653719094977
7.009663421150193
4.90688906993172
4.653649659802666
6.106240414047645
7.91328869515148
8.70233888272812
8.241495481736544
7.085771210539804
5.462901145690051
4.0056064620268454
3.259514747270744
3.147456497004929
3.3215180819368624
3.329024916561289
3.12878257360584
2.9159290028613376
2.599375243439652
2.635693545142312
3.0896293560358687
3.2600809170751663
3.310151859789652
3.7225647487341456
4.58723903120836
6.429481124342696
8.029263853346645
7.835118161259577
7.263399903377647
6.629025661270581
5.096924985826569
3.9510052855866395
4.216418956930576
6.452872448935561
10.660942429731115
13.867763175500498
14.606863210665598
13.719360182075627
12.027388415265902
10.963967358702536
10.686126819607363
10.697041639995112
11.318948036508589
13.004784539636795
15.199115705302605
16.183723101336682
14.774556782618653
11.54881269182569
8.433804743350517
6.848897098530943
7.40837021374388
8.97590716715963
10.348741592661561
11.214850106467575
11.039095337195642
10.46179437162981
9.27237097232467
7.151268454642682
5.597572820181755
5.570410518856013
6.769037208695358
8.18373768331464
8.181442601827504
6.669763398091423
4.676038002907565
2.5177646769103728
0.772718205141256
0.18572336021262115
0.5327265001998573
1.4532979749604034
2.587180802874953
3.3295273978165505
3.8654809940927866
4.324470121044827
4.802958612131311
5.158851129915248
4.514358614601755
2.5963253142125873
0.3984595435421807
-1.1254713656919515
-1.4737167902039787
-0.7040896151139602
0.34237714812879383
1.1059745142237336
1.2212846008130502
1.4116010585960368
2.1166443463184095
2.2873961154069984
1.1218960648153267
-0.6112684264672542
-1.653005499248618
-1.8282512114051366
-1.1123666567274244
0.6205399715444144
3.152604601590503
5.222638826448666
5.909374058077379
4.992124218643657
3.2088823610569377
1.6705866067371613
0.8742859656308621
0.9794011216267475
1.6091344133182297
1.767672853673001
0.9444835618925783
-0.46351392450989265
-2.1067065495534996
-1.9947267912563755
-0.2812286377851102
1.8825216384889667
3.6252600049289834
3.6601251749474395
3.1669012164386463
2.767849017732733
2.911118929882699
3.7606018097358316
4.303433527771425
3.999794489498524
3.1136866370645895
2.4458789808815617
2.1846256619738487
2.7093268560478263
4.509063806479353
6.609951722655076
7.945590470197424
7.119065579901501
4.1666389103567445
1.9175807467473853
1.713119179263923
2.890925436600332
4.435559988460757
5.928434537253148
6.523204119310592
5.504240067716514
3.7930766264932467
2.257093596129078
1.9461508345860747
2.5145427311688686
2.8271253850770264
4.299865677298387
6.501678768945771
7.278150031058548
5.905494703143771
2.800244320000642
-0.16235967741656981
-2.203038308191971
-3.3680056743349804
-3.135853270824314
-1.6760252414872958
0.0725074864381219
1.2470875535237704
1.5962316059910109
1.8346441939373248
2.711576004386201
3.466953833768936
3.3797879282709498
2.3463372716322555
0.38380069998481614
-1.3972870414651208
-2.827433406694907
-3.6736363770794944
-3.6033267644071425
-2.6936474352974074
-0.3245845921914197
2.331698278113969
3.663350889093884
3.5621062832602743
1.974176523632531
-0.25882719981749036
-1.8563233676598105
-2.916096936648313
-3.4309747917016495
-3.3771390085546344
-2.9387301925928653
-1.886891822871115
-0.7116647530966853
-0.5757327270781386
-1.4011195381445374
-1.7558601706949943
-1.214396178730406
-0.5947358339185351
-1.170261928173798
-2.96008429284556
-4.809946287269687
-5.929876909389502
-5.8145054632884
-5.108023574774616
-4.2574037795313595
-3.340174141688447
-2.9211752313658845
-2.5273897286085782
-1.759250512370936
-1.46599518645858
-2.334955044795745
-3.7863444424321817
-4.280197290590227
-3.746651162181912
-3.093307689336155
-2.667550216509292
-2.9429022527628064
-3.709827857082416
-3.9689312824870413
-3.8393523332522745
-4.350907009982082
-5.668289216119944
-7.326442179448711
-8.014725146739227
-6.795781882610473
-4.5100308149617065
-1.8415799452447423
0.5391975044644443
1.8802361009341844
1.7026121751064602
-0.06353594975183853
-2.3789485327870747
-4.4223074836534755
-5.196156537385068
-4.642119895149535
-3.494771426261268
-1.9981275322262475
-1.2364457583535648
-1.8842963269068107
-2.942487620113362
-3.4720214815966566
-3.6740769912943683
-3.798226256730873
-4.071389651092896
-4.506755067050958
-4.910549374854109
-5.083624128074035
-5.475191518538074
-6.092602844055277
-6.12896678078295
-5.4269018638766235
-3.7799376160826355
-2.0067915712513416
-1.8216790628853141
-3.3077850364417967
-5.3316819499284485
-7.003317578994976
-7.516452023247445
-7.090657978607203
-6.559883855251433
-6.098595719378623
-5.661040843880517
-5.3144912451284805
-4.79284895149881
-4.476276934424996
-5.157015020238761
-6.0768596506248285
-6.600674998086352
-6.312849083876932
-5.494376244031861
-4.8767343951938384
-4.4448267755905135
-4.945663156086144
-5.483252911297689
-5.118717538690024
-4.874766950981629
-5.1526138036101665
-5.686695332899637
-6.17292326861031
-6.3479299579002735
-6.521471921892866
-6.465298614069654
-5.645075876125457
-5.0131242152272675
-4.99376907938434
-5.408966023298197
-5.589439326861775
-4.7112445527079805
-3.5595205056349246
-2.822808306632798
-2.3533561109649397
-1.955267019128717
-1.6864814636901915
-2.0450416955686688
-2.961014740420678
-4.006458968458325
-4.738926217422745
-5.113295597090547
-5.18513353830754
-4.680385814939179
-4.171820705707445
-4.086148048851604
-4.731556060683966
-5.927556288848476
-6.693931299154379
-6.760023372347747
-6.612987371394078
-6.494444984946974
-5.887681924201865
-5.134080036433773
-4.637127415626722
-4.409479239516099
-5.092230705782311
-6.043903227974504
-6.365160384694184
-6.340218917917092
-5.891225233542961
-4.901312514350737
-4.173749893603033
-3.878023028920051
-3.8202425668195428
-4.23990509817026
-4.465171250582597
-4.4909971421431205
-4.8159981235164695
-5.142071184560936
-5.32536468523243
-5.006175733377595
-3.993397580036473
-3.347794618343096
-3.5359838683595086
-3.9114738550296533
-4.034753652952944
-3.8831838861754884
-3.481450563225211
-2.926587668969227
-3.0033055465852887
-3.680475828436655
-4.098925293087928
-3.8026638464387563
-3.16650307523491
-2.460970132215453
-1.5043636046400202
-0.6009449069517024
0.09849171485594804
0.2557755473052502
-0.21719169291862286
