AAD_Filtered_TADAS_FILE
AAD_BASELINE_CORRECTION: BASELINE REMOVED
AAD_FILTER_TYPE: BUTTERWORTH
AAD_FILTER_ORDER: 1
AAD_LOW_CUT_FREQUENCY_HZ: 0.025
AAD_HIGH_CUT_FREQUENCY_HZ: 40.0
EVENT_NAME: 202302061024
EVENT_ID: 13207
EVENT_DATE_YYYYMMDD: 2023/02/06
EVENT_TIME_HHMMSS: 10:24:47.00000
EVENT_LATITUDE_DEGREE: 38.089
EVENT_LONGITUDE_DEGREE: 37.239
EVENT_DEPTH_KM: 7.0
HYPOCENTER_REFERENCE: AFAD
MAGNITUDE_W: 7.6
MAGNITUDE_W_REFERENCE: AFAD
MAGNITUDE_L: 
MAGNITUDE_L_REFERENCE: 
FOCAL_MECHANISM: 
NETWORK: TK
STATION_CODE: 4414
STATION_NAME: 
STATION_LATITUDE_DEGREE: 38.406947
STATION_LONGITUDE_DEGREE: 38.754133
STATION_ELEVATION_M: 725.0
LOCATION: Kahramanmaras_Elbistan_Turkiye
SENSOR_DEPTH_M: 
VS30_M/S: None
SITE_CLASSIFICATION_EC8: unknown
MORPHOLOGIC_CLASSIFICATION: 
EPICENTRAL_DISTANCE_KM: 136.95
EARTHQUAKE_BACKAZIMUTH_DEGREE: 
DATE_TIME_FIRST_SAMPLE_YYYYMMDD_HHMMSS: 2023/02/06 10:24:50.6295040
DATE_TIME_FIRST_SAMPLE_PRECISION: millisecond
SAMPLING_INTERVAL_S: 0.005
NDATA: 8637
DURATION_S: 
STREAM: HNN
UNITS: cm/s^2
INSTRUMENT: sensor = GEO-A200,/GEObit | digitizer = 
INSTRUMENT_ANALOG/DIGITAL: 
INSTRUMENTAL_FREQUENCY_HZ: 
INSTRUMENTAL_DAMPING: 
FULL_SCALE_G: 
N_BIT_DIGITAL_CONVERTER: 
PGA_CM/S^2: 81.409
TIME_PGA_S: 
BASELINE_CORRECTION: BASELINE REMOVED
FILTER_TYPE: BUTTERWORTH
FILTER_ORDER: 
LOW_CUT_FREQUENCY_HZ: 
HIGH_CUT_FREQUENCY_HZ: 
LATE/NORMAL_TRIGGERED: 
DATABASE_VERSION: 
HEADER_FORMAT: DYNA 1.2
DATA_TYPE: Acceleration
PROCESSING: Automatic Paolucci et al., 2011
DATA_TIMESTAMP_YYYYMMDD_HHMMSS: 
DATA_LICENSE: U (unknown license)
DATA_CITATION: Turkish Accelerometric Archive v 1.0 - Disaster And Emergency Management Presidency, Earthquake Department
DATA_CREATOR: AFAD
ORIGINAL_DATA_MEDIATOR_CITATION: : AFAD - Disaster And Emergency Management Presidency
ORIGINAL_DATA_MEDIATOR: AFAD PROCESS SERVICE
ORIGINAL_DATA_CREATOR_CITATION: AFAD PROCESS SERVICE
ORIGINAL_DATA_CREATOR: network: TK
USER1: GuestUser
USER2: 
USER3: 
USER4: 
[...]
-3.118174246395766
-6.11441477680683
-8.502534761006661
-9.996202521789671
-10.459397021197717
-9.910462168161445
-7.361055981435167
-2.8721256494168514
3.113771392826289
9.060410445050538
12.75231561663368
13.401984202416047
11.520978670128805
8.236084509191556
4.339910607559534
1.0695999740912177
-0.24743485847820768
0.985488797542333
4.45800503574911
8.077660272722014
9.965734755920886
9.291858523255057
6.718942014965382
4.815281155855393
3.861197185133056
2.880163239931997
1.8024046696652307
0.04268233638319932
-1.7996839791910675
-2.9486025709312775
-3.4891136018296303
-2.7975268014234413
-1.4000861356601653
-1.6064577500047235
-3.395493542022977
-4.994266283612363
-6.370469368141414
-7.806877138348111
-8.701067611296597
-8.178084952775935
-7.285877698372009
-7.473692392828116
-8.469330263575502
-10.711339565411455
-13.483486768825733
-15.395273916857201
-16.134673557675278
-15.303983175641717
-13.53834912242384
-10.765231772750585
-6.09754147596539
-0.6477061004768532
3.7996327410510062
6.798151593857884
8.028508575607415
7.035452487937078
4.031439249907076
-0.771625545622298
-6.4867721265619585
-12.267899557487729
-17.806625156347987
-21.77766483853228
-22.85857694768939
-21.434848122156776
-18.777222740439687
-15.208902175909811
-11.288784581923824
-7.964198304387237
-5.689533171313679
-5.562800711087341
-7.744648792295391
-11.70168442030566
-17.492485949255414
-24.31867124950325
-31.00611166314836
-35.44557165612497
-35.05623895726879
-29.738621038422803
-21.10444185372961
-11.624265411643023
-3.762861009978938
2.310639728902889
7.400302494703785
10.940463086188084
11.554569542951167
8.868201848690122
4.256501771706485
-0.13030086781281672
-2.845583608571222
-2.580381342225876
1.1338071925937379
6.434344298589757
11.539393614441277
15.247829938745197
17.13288334592668
17.644963698276833
15.839307590806067
12.137754526108475
8.97371386849134
7.044799816860031
6.824690615361875
9.117517562902012
13.136214975361469
17.465229919930486
20.42529142344489
21.204132541389317
19.790633993077176
16.362026154912414
12.219399519108917
7.982517626293786
4.377151222864697
2.092086291870074
1.0535874347163388
0.9668112366138647
1.019691515119356
1.1772171886508114
0.2677796130435631
-1.5835023198537295
-3.5011803376705153
-6.451986420793744
-10.04857169951753
-13.536225804047875
-14.452608217168478
-12.467846425306504
-9.572546021755041
-6.351473516197106
-5.719143570139346
-8.846701792727307
-15.157010609309873
-22.172195020981718
-26.675814113422554
-29.338562211225092
-28.992184669252257
-26.36842647258732
-23.665340280227454
-19.933835086356986
-17.048811392736518
-15.745420572700775
-14.939880324974716
-14.262889843731202
-13.110887424752773
-12.650999943946141
-11.715761486564258
-9.927288172262736
-8.359258982736021
-5.833718278210541
-3.5739846798583326
-2.939149990578492
-3.7944387189397553
-4.37893665820426
-4.209436178829298
-3.5842372815164083
0.44057919758789377
6.042376110507736
11.821897499607298
18.833885228299398
23.38332666162082
24.643130654055554
22.26111571484706
15.147417697865738
7.014504347151244
0.7761414086329775
-2.52749789305824
-2.761309846643392
-0.5499568998084041
3.288214642317088
6.695377344875617
9.483345702468757
11.928450901621567
13.086249255972751
12.316610837250966
8.568340539622376
3.4568163663435185
-0.6069793363757726
-3.3833031863601617
-3.2361937295605387
-0.2880446044372715
3.001157245830708
5.348250954190482
6.8721074140781395
7.64988885934757
7.1529737454037505
7.3038685501305824
7.341779702239909
6.248246674548701
5.655622555431434
4.331307994989033
3.3507939434037732
3.0856020182971156
3.198790723232209
4.76178373280545
6.131231639487965
7.762061322424577
9.183477820221828
9.048657866667813
8.541609861658172
8.127570467271589
8.883725060993791
10.31153831688115
11.201743781885602
11.509846452813173
9.988475364084112
6.837176797629536
2.7312859259302718
-1.726954172931614
-5.153067603733067
-7.78229577379131
-9.762005810568763
-10.670764188803174
-10.952354297529443
-11.565887702288132
-12.56920742629456
-12.750267480850935
-11.939167076582052
-10.603053874280969
-8.728634158001224
-6.826457301111951
-5.601322762158068
-4.7445261698304755
-3.498955401095267
-2.2487763218316847
-1.6264529357387247
-1.644822402852828
-2.7534284064709165
-5.502548424337028
-9.604373525452603
-14.527305564254707
-19.7215074707555
-23.295905125927224
-24.268997503372166
-23.241609720471
-19.602556638668204
-13.958093523220265
-7.522156595042064
-1.3017196722305553
3.510460229237508
7.480955580688008
10.23148053742139
11.73125597345087
12.314081048582892
11.605514439051587
10.834069695653797
10.383199683145063
9.952913199182191
9.25535199199854
7.9016397057804335
6.060192302821113
4.180818899047873
3.1751987125879286
3.288438358007048
3.892857152331341
4.244463142634258
4.627736578225426
4.86348561132606
4.433598713537807
4.309493150685225
4.541928283239174
4.567461978171415
4.298094119887121
4.294750195737274
4.753820909128776
4.962089028790065
5.239873863751349
5.563328848186033
5.864390413468181
6.117351307637763
5.5040313040299775
4.0488927809941115
2.036784022574792
-0.09536459178776446
-1.3192156733543055
-1.2251581027363108
-0.6517828395342524
-0.019877532209082283
0.602783088508609
0.7819106390901595
1.0403835683520113
1.43652632102211
1.9932674156277055
3.0901000827299008
3.9304521726191726
4.369205697961701
4.485015932273276
3.9708787210488197
2.7997402394316775
0.8297690616909545
-1.8108554695058676
-5.54334886156519
-9.579687424788535
-12.288524686500647
-13.468635842043234
-11.703515630125027
-6.943102206707902
-1.5766207894799138
3.3542247393827305
7.1233938096070055
9.2750417828158
10.086189302723877
10.186049077499622
10.22850723604012
10.71414120062925
12.463039090196729
15.360043196630528
18.581861311940777
21.68484385091866
24.1267294003189
25.412961944285637
25.802930573256333
25.435154572474552
24.305266578555724
22.51246975351206
19.776871872918996
17.188408907604508
15.449810723404125
13.532272476681577
11.32353614289755
8.477947530789969
3.9303586775813604
-1.0506555373773336
-4.068529204222637
-4.946543225827924
-4.358860607468173
-3.784403184727876
-4.49034311628833
-5.7947940553034485
-7.82948974054368
-9.937072433598397
-10.921567032259219
-11.119670350261394
-10.425059373062462
-8.818275856339707
-6.16985597485334
-2.195813400213857
2.494796413129826
6.233861372790472
7.1487678841772695
4.362461657273542
-2.0335728665269643
-10.660141589226125
-19.53970445960381
-27.081465011965047
-33.43222994966323
-37.693058402362084
-37.96884825757349
-35.558432667942085
-31.09254775207965
-26.276377134154956
-23.593045788376482
-21.696077515622143
-20.181986334707126
-18.83848030655508
-17.170452213972393
-16.3861152908868
-15.533886580793707
-13.452684553230656
-10.410394185182119
-6.148591034639516
-2.6967538102292794
-1.886294407354739
-3.314798103929187
-6.126853803450867
-8.457897181944503
-9.750612038284105
-8.591915970520615
-4.523984041217188
-0.5436122923886062
3.0829812726317787
6.584884538161361
8.901238095288607
10.668269767966112
10.914730100935074
8.368863989922554
4.892720582846991
1.5775652994634426
-0.1055395319755762
1.9215101569282758
7.33375900960951
15.206519449246079
23.163839135589427
29.811357606809228
34.326374955841786
35.11942098808866
33.22336458825871
28.64492618609449
21.107201160375425
12.763813695743593
5.7885287050836105
1.6207480105043388
0.19818041643909215
0.034194017020413164
-0.10516107103066283
-1.0150999837649597
-3.4636489366139758
-6.15259967129033
-8.5991034660711
-11.89520965287556
-15.013716252903553
-18.05018811296339
-20.761430165651916
-21.731672549178047
-21.978529974435716
-21.55923130128008
-20.659333279194943
-21.783946910592928
-24.879899200214407
-28.75020647700682
-33.29165478117859
-36.50033816592296
-37.565274206046745
-37.757167644241235
-36.8980008761322
-34.78372427817725
-32.645787691201356
-31.736133419842258
-31.470237508660933
-30.975791706928938
-29.32825294787221
-25.065928735428155
-18.378117755294944
-9.971044737313756
-0.8100309492091894
8.102121510507349
16.413522352804414
23.666901244188544
30.060727107647956
35.34464319711815
39.59088671983144
43.13754002637863
44.539935965153234
43.18085884328724
39.652052276552155
34.77161120020363
29.330612282317723
24.13004264107022
20.09872296234702
16.634582672874775
14.208654587565226
13.699387942527743
14.099732225191813
15.03803377386212
15.606962765810955
14.962445604250293
13.918191788065956
12.955575035597803
12.05369430058237
11.298855127091302
10.855284137837316
10.942899826293578
11.269618717164917
11.347187690779746
11.66260905269673
12.182871413820507
12.358549152231744
12.464889876447604
12.237076564028087
11.178433964012791
8.931435968054572
5.931792878340298
2.7131307129628848
-1.6151088139511225
-6.966397851756013
-12.842332723004418
-19.32341948205152
-25.813274984186055
-31.209897427965043
-35.020830302177245
-37.66859646835198
-38.927589190669565
-39.33772938053739
-39.55921628896528
-38.7700519124733
-37.047056658501035
-34.764443565537384
-31.48056118503515
-27.17396264341698
-22.48088266653388
-16.72231276792881
-9.433888215161177
-2.0282098507242274
5.020087438765726
11.420164187230075
16.853570106733528
21.64399534815534
25.809652315399994
29.486765819738906
32.1542457225343
33.443434181690456
33.92648787560882
33.9816507925679
33.65517017830245
32.55296261172282
30.652118189971933
28.819744291274933
27.60767553194898
26.888830051160376
26.711570914667032
27.22989569807759
27.69725623284548
27.48555123583627
27.21624584593028
27.109513154487722
27.133794458826898
27.60580365074942
28.19508586593419
28.85224636807018
29.64947708771891
30.78980456280273
32.28565232604773
33.47499287153869
35.13505130647055
37.056975653039544
37.95884668539537
37.99619937666674
36.6482485564591
33.69320892635658
29.782684826100525
25.370468333149997
20.61069986922859
15.824988005716941
11.40349779941116
6.541450346480492
2.0941306643253856
-0.9952264924756515
-3.971802054502236
-6.654551851008358
-8.585783199272026
-9.870584043897068
-11.5460625573341
-15.137800844286376
-20.072840091772097
-26.30802815277791
-33.409077045390234
-38.9794043212577
-42.14059535025323
-42.95335284207529
-40.643219949555714
-35.609308131162805
-30.546962283973656
-27.828143500204025
-27.86953494131912
-29.689335494823297
-31.676669043188994
-32.15551466093069
-30.301805820848266
-26.9421497670415
-22.896865252975644
-17.814694039059713
-10.97929755009318
-2.850031366563802
4.598257513116466
9.86297918341196
13.139534704717141
15.359071962436449
16.610086015566253
16.544632210523098
15.572012145078922
14.153527033277593
12.385031834719927
10.789665397004761
10.201896277535207
11.112821164440929
12.901228740300812
15.080299616223108
17.97515716504859
20.777041539823923
23.051529337414543
25.09004014443475
27.083912224577233
29.320558570495592
30.417023692887817
29.816793197209456
28.280288858612604
25.447177741216862
22.490159313748137
21.098805507122513
20.73709692054891
20.762664023458857
21.206850526730737
21.981698366321414
22.554772052693455
22.171685893789725
20.65119099072475
18.41061668347824
16.16527511524558
13.74301067489482
10.205631523983321
5.3552894050785165
-0.9660232149963104
-8.723297797423037
-17.08482897342185
-25.137012114005667
-31.886824440571147
-36.75652074852754
-39.354161130571676
-39.64064597520133
-38.67974696725353
-37.738599644614474
-38.14021185930592
-40.06145579291082
-42.551314866585514
-45.50059196894809
-48.43404702775464
-50.398371060006234
-50.96050208865469
-49.68752612308885
-46.415961804385944
-41.70920711105914
-36.72297933691091
-32.39018766400933
-29.050073523362894
-26.362808925393765
-23.1302662638311
-18.57179312035596
-13.095690481958805
-6.801912640959867
0.2492290372183506
6.7154392598090755
11.28343994085419
13.818893233638654
15.07501311262282
15.692272486977082
16.32096765510298
18.435338317748542
22.664339119391556
27.811436114020477
32.91821548907059
37.35739649540854
40.18652388359673
41.622159270929615
42.01648673954112
41.46206673431576
40.813098267056766
40.58024742050144
40.850154963585446
41.75655787188029
43.26935770159001
45.54056906650708
48.71695426622412
52.05497126378044
55.03013801665859
57.75892349006153
59.514677306821
59.599747992761664
58.35405467576716
55.846540727247216
51.51367927721449
45.58404484650452
38.47823858869732
30.037894902811665
21.323151871854115
14.365464168623358
10.122739671250978
8.60339356182917
9.550761512263554
11.786534467246168
12.991224464048553
11.473612802658863
7.349800299292393
0.9932600051461744
-6.72198675529699
-13.67561257132232
-18.909042789712238
-22.870852703626444
-26.80228669254718
-31.82194262140245
-37.29926242228891
-43.14382102688176
-49.26098841717392
-53.82278112436794
-55.88045001786422
-55.46534759689179
-52.65937095341095
-47.37664294011003
-39.95542973235193
-32.568221519975296
-27.38767425321897
-25.571744047253745
-27.813439319283145
-32.542734750950416
-37.508121085747575
-41.741679900040054
-42.702395793114434
-39.46833121852566
-34.19787220608169
-27.076707458395035
-17.955310184869788
-8.626738419828822
-1.5063607106960153
3.3958589945106525
6.859642610974601
7.638496532418094
6.490221093945006
5.434362730332934
5.911512458385222
7.926963180424792
10.391575280588217
13.60813640813413
16.411596309376737
17.34646138850747
16.480269409416536
14.057996055155163
11.059485845574253
8.339989287946647
6.721093303912289
6.88240786843127
8.527198437109764
11.165562678461152
14.626642020267873
18.190108424921803
20.957402022962267
22.50307743860655
22.343042342223903
20.631809918089758
17.8543496749736
14.584614029115174
11.34941143585637
7.808667240057829
4.103727896607284
0.7275880683778659
-2.335960731258511
-4.987615563422137
-7.367812539181979
-9.933506498099346
-13.193931681773744
-16.85527281239712
-19.511396487643875
-20.439689171088798
-19.581833915177317
-16.771423868853134
-13.048225505912017
-10.229347690482518
-8.8046764187125
-8.555165357337781
-9.046954717807216
-9.219374289538026
-8.703961700636249
-7.223966951710476
-4.42522579250432
-0.49434323373549766
4.591286641262962
10.304262977585097
16.23050945856299
21.366070082120718
23.537313848393197
22.15909878053896
17.60257118717408
11.058048847796595
4.824944848135516
0.16265491916252445
-2.8103439031670114
-4.857564227375464
-6.056552357147684
-5.197943093838435
-2.63225096178789
0.978921159740217
5.517991245877906
9.471443346227224
11.46214086529951
10.599090413268401
7.024846303930496
2.0145027070742945
-4.034295952914878
-10.101066424944058
-15.124019485374392
-19.185334831445843
-21.92374913221486
-23.107410176507077
-22.662940588210162
-20.916510195644758
-19.69301733401929
-20.36428349572508
-23.38415621905122
-28.785994073721433
-34.715409039809344
-39.47428932531189
-42.40490412241675
-42.7060885160095
-40.48501763340982
-36.59129864638552
-32.25886464332605
-28.608513328635617
-26.890142374246565
-27.539608142242944
-28.82974251480663
-29.167046535816766
-27.043687329871062
-22.04489582404781
-16.01918664040283
-9.543779166140753
-3.1515322765878584
1.7952920109872426
5.831116278850098
10.457200441014912
16.933494638220736
24.738290889644112
32.47474166498621
39.60435207341776
45.02945776727096
47.92319701567417
48.74455372526083
48.797075364104224
49.21932230273656
50.891728798045584
54.42029839457053
59.18988268593268
64.34002263634463
69.24785086114039
73.55629371238473
77.38123527855467
80.0118002927311
80.68104852893224
80.25330909268281
78.59172703213473
75.43766107154487
71.95570894039814
67.47148379242311
61.670295917463164
55.62000056403868
49.10948424282442
41.97658560723186
35.5668572990497
30.08126737794009
24.31167113502837
19.46620106042211
16.83943787728276
15.563935652412574
14.754213649636915
14.752039019301106
16.00690959057815
16.96793751615111
16.130873667332423
13.315672531653215
8.63953524908449
3.00631009600122
-2.117971357471435
-5.704731599178656
-7.2547042891307925
-7.403053936924258
-7.107335479023212
-5.935097974862071
-3.9344983476118474
-1.7891933490843515
-0.48592072688569937
-1.9056149614439195
-6.296126496742472
-12.899337148500447
-20.94081631842544
-27.640526218842215
-31.91951894106104
-35.05739946578541
-36.105879915277654
-35.723682055861914
-35.49427128454749
-34.980486442052495
-35.33310015974677
-36.83581384231938
-38.74571480616327
-40.52463484881354
-41.27479931677743
-41.06703625773458
-39.35691640432878
-35.503290316775235
-29.681027732743296
-22.9579205996316
-16.11046088523904
-9.610594808186972
-5.513435667688116
-4.457913690429714
-5.328120417942889
-6.428322149203267
-5.496028506291324
-1.02488922076167
6.846718006183924
15.42242534521134
22.48971154363039
26.288996886354262
24.963271905655986
19.425537948656906
10.97087103324618
1.61287001281403
-1.6073017051692606
-1.0160244823527296
-1.3150251176480763
-1.160578350764169
-1.237092347839073
-1.195973119552962
-1.2147722641008607
-1.2030562861469967
-1.2068862501612947
-1.2028015744369984
-1.202751581484521
-1.2006500410803382
-1.1995968863093918
-1.1980132030185011
-1.1967031842191282
-1.1952572197338336
-1.1938839335266542
-1.1924770604250483
-1.1910907197606515
-1.1896973412093796
-1.1883109619698444
-1.1869244270237336
-1.1855413753283943
-1.1841599480849987
-1.1827810867103894
-1.1814043063780526
-1.1800298487074834
-1.1786575853211447
-1.1772875763027937
-1.1759197857543204
-1.1745542266729885
-1.173190887160171
-1.1718297680059133
-1.1704708635457344
-1.169114171410942
-1.1677596875624294
-1.1664074088201297
-1.1650573315746606
-1.1637094524435176
-1.162363767936837
-1.1610202746276235
-1.1596789690650335
-1.1583398478185303
-1.1570029074553816
-1.1556681445521078
-1.1543355556886383
-1.1530051374512753
-1.1516768864311715
-1.1503507992250923
-1.1490268724350154
-1.147705102668322
-1.1463854865376863
-1.1450680206611197
-1.1437527016619353
-1.1424395261687539
-1.1411284908154877
-1.1398195922413366
-1.1385128270907772
-1.1372081920135557
-1.1359056836646797
-1.1346052987044093
-1.1333070337982496
-1.1320108856169417
-1.1307168508364551
-1.1294249261379794
-1.1281351082079154
-1.1268473937378678
-1.1255617794246366
-1.1242782619702092
-1.122996838081752
