AAD_Filtered_TADAS_FILE
AAD_BASELINE_CORRECTION: BASELINE REMOVED
AAD_FILTER_TYPE: BUTTERWORTH
AAD_FILTER_ORDER: 1
AAD_LOW_CUT_FREQUENCY_HZ: 0.025
AAD_HIGH_CUT_FREQUENCY_HZ: 40.0
EVENT_NAME: 202302060117
EVENT_ID: 13194
EVENT_DATE_YYYYMMDD: 2023/02/06
EVENT_TIME_HHMMSS: 01:17:32.00000
EVENT_LATITUDE_DEGREE: 37.288
EVENT_LONGITUDE_DEGREE: 37.043
EVENT_DEPTH_KM: 8.6
HYPOCENTER_REFERENCE: AFAD
MAGNITUDE_W: 7.7
MAGNITUDE_W_REFERENCE: AFAD
MAGNITUDE_L: 
MAGNITUDE_L_REFERENCE: 
FOCAL_MECHANISM: 
NETWORK: TK
STATION_CODE: 0216
STATION_NAME: 
STATION_LATITUDE_DEGREE: 38.030907
STATION_LONGITUDE_DEGREE: 38.557087
STATION_ELEVATION_M: 864.0
LOCATION: Kahramanmaras_Pazarck_Turkiye
SENSOR_DEPTH_M: 
VS30_M/S: None
SITE_CLASSIFICATION_EC8: unknown
MORPHOLOGIC_CLASSIFICATION: 
EPICENTRAL_DISTANCE_KM: 156.80
EARTHQUAKE_BACKAZIMUTH_DEGREE: 
DATE_TIME_FIRST_SAMPLE_YYYYMMDD_HHMMSS: 2023/02/06 01:17:39.0566870
DATE_TIME_FIRST_SAMPLE_PRECISION: millisecond
SAMPLING_INTERVAL_S: 0.01
NDATA: 4195
DURATION_S: 
STREAM: HNE
UNITS: cm/s^2
INSTRUMENT: sensor = ACEBOX/SARA | digitizer = 
INSTRUMENT_ANALOG/DIGITAL: 
INSTRUMENTAL_FREQUENCY_HZ: 
INSTRUMENTAL_DAMPING: 
FULL_SCALE_G: 
N_BIT_DIGITAL_CONVERTER: 
PGA_CM/S^2: 38.581
TIME_PGA_S: 
BASELINE_CORRECTION: BASELINE REMOVED
FILTER_TYPE: BUTTERWORTH
FILTER_ORDER: 
LOW_CUT_FREQUENCY_HZ: 
HIGH_CUT_FREQUENCY_HZ: 
LATE/NORMAL_TRIGGERED: 
DATABASE_VERSION: 
HEADER_FORMAT: DYNA 1.2
DATA_TYPE: Acceleration
PROCESSING: Automatic Paolucci et al., 2011
DATA_TIMESTAMP_YYYYMMDD_HHMMSS: 
DATA_LICENSE: U (unknown license)
DATA_CITATION: Turkish Accelerometric Archive v 1.0 - Disaster And Emergency Management Presidency, Earthquake Department
DATA_CREATOR: AFAD
ORIGINAL_DATA_MEDIATOR_CITATION: : AFAD - Disaster And Emergency Management Presidency
ORIGINAL_DATA_MEDIATOR: AFAD PROCESS SERVICE
ORIGINAL_DATA_CREATOR_CITATION: AFAD PROCESS SERVICE
ORIGINAL_DATA_CREATOR: network: TK
USER1: GuestUser
USER2: 
USER3: 
USER4: 
[...]
-1.3696800979492139
-3.0856118720581476
-1.895934139418786
0.32236360211473725
0.6348746140727297
0.6602248838770289
1.8633464701267997
3.496476321200881
4.52139160984309
3.7759989758700554
2.061257425159234
1.8143134117759154
4.128891971587459
7.943135282605717
10.080872825098773
8.642648746993471
5.324488488401464
2.0080652543785305
0.38078301290608824
0.5842914149021163
-0.5288465326829148
-2.852803612050662
-2.7749426026870716
-0.31399348374678404
1.1122825067015354
-0.18976505647352918
-1.7926078267766878
-2.0176677432298775
-2.6855580523706273
-3.5179813511249742
-2.6795882349823708
-1.5536595969440345
-2.14486573730562
-4.380016067030553
-7.3648554279028815
-9.53303225847092
-9.012976116448483
-5.601758896297777
-1.4823760534897596
1.3837980022998635
3.6596389567602916
5.628246676962255
5.998900087758411
5.44463936156816
5.435757259633443
5.275461901511774
3.043595262330511
-1.1979301829902895
-4.326121696759454
-4.486505124309282
-2.948898134085325
-1.6874906290179914
-1.4507354799358494
-1.0087744373757073
0.2624176919809232
1.8139328080091193
3.000546760862274
2.3888446393784237
0.1667706520416283
-2.0269525348909867
-2.9912395848140654
-1.794306878077157
-0.250588897998757
-0.12906322251938654
-0.4437106997043384
-1.6550687451305175
-3.0207001132924476
-2.7201739083679093
-3.3486049241979225
-5.2549583324684175
-4.677863321097313
-1.7945853330040127
1.305033210483955
4.037229792481774
6.0112852588600045
6.826527649752931
5.378682719157004
1.6273429621966593
-1.7786924998119598
-1.7346960195627594
0.9935304052469746
1.8917619198025657
1.335169363089873
3.0266027951918955
4.772091719020222
3.6540154754714864
0.49646769173938754
-2.781919273082634
-3.0746770486984416
-0.8578330583081202
0.30678226908050427
1.3896976151954519
3.352410332681499
3.1260551237203904
0.12679516670817212
-2.896860291296531
-3.868557489075371
-3.370811177552215
-3.577952974037256
-3.4734027298221073
-0.8734261424670138
1.4690643031338657
-0.41703609512012746
-5.141858747063663
-7.111513584183701
-4.674238574290443
-2.1550017412813376
-0.7316157883267913
1.2350949285588597
2.2131679147419807
1.76651378991832
1.1995125481410296
0.8073876856963457
0.5508677076932551
-0.4652792115190292
-1.4309516903377764
-0.5345138688808304
0.9865593227036729
1.6091968224710995
0.9772193280391394
-0.6795945538362844
-1.6363796118841063
-1.5283612926080488
-2.182875417222112
-3.4758060165942335
-3.2524426783879132
-2.2880056707956
-2.892876126653074
-3.2743842428273275
-1.664593803494986
0.43172859461105684
2.8736520510529724
4.311559259480194
1.914825371982136
-1.6219235393227753
-3.21621421771158
-4.141119293476154
-4.142837242933739
-2.8191763780103254
-0.9440553437034906
1.2339440424790706
1.427047683779397
0.04843962405107814
-0.24423971757657936
-1.205201008200955
-2.577388504489622
-1.7697087399008566
0.9370327240291345
5.048934091911876
8.227191859123181
8.957358824180266
8.606675959434567
5.622375301209269
0.2818814724481348
-2.599568080621394
-1.2777310227189411
0.9690439725581768
0.20692030995216087
-2.565697409999343
-3.23926702840528
-1.035237148600915
2.516624490147656
5.894866000377056
6.713847222640623
3.9094931484543247
0.07218794176637174
-1.8996700252778818
-1.8818129886291823
-1.2522244107633231
-0.36209283405075304
0.8207193918544485
-0.2977663300342422
-3.3891412308673634
-4.609863472928547
-4.775346436290052
-2.589754727041638
3.34543102419656
4.6329075035430725
-1.4714168899663846
-6.108346912720079
-4.3042917429887195
0.18808401243465273
2.0714561236603144
1.3402164932829457
0.41459039486716537
0.8410084194877167
3.155265518326362
5.591702938953568
6.609951729065512
5.079475668526797
2.7158435541099206
2.8355800964842928
4.378955184395146
7.81996071217559
10.8268841628935
5.970787278012856
-3.4653257640327575
-8.654250224324258
-7.782884817329165
-4.4691376888863585
-2.5826884432498796
-1.6598622318752105
-2.5011232075150938
-5.343470901580464
-5.808177298466243
-5.620804131832263
-7.231797849596448
-5.980753527401035
-1.5421172832311525
1.145781541048615
-0.05429637281954837
-3.010415179586939
-3.059171035805769
0.6079559593836161
3.697030121336144
4.470231256273417
3.657200183170168
1.868308998041241
1.8443185543262164
4.365845047356151
6.901917420503514
7.93939640268239
6.369182147484003
2.5599093719319326
-0.6534781150725371
-0.9568399842045235
1.1841814575847704
2.5509110177655145
0.7343318561121956
-3.9215450431421783
-8.050255239257911
-8.185388048869356
-5.848089323702052
-2.3250901434080924
2.479306747729677
4.192396320343916
1.8520907581433275
0.6141955861083056
1.608410103051105
2.0548599369924143
0.24278039870100798
-3.4906970869127845
-5.814289507711752
-3.143682823433678
2.4747400045188925
5.462741406063949
5.2060326534040415
3.251354620703279
-0.8667729189327035
-4.1816124714892995
-4.552344445354394
-3.5902671281569605
-1.8456395504209218
-2.0653513574672138
-4.265144088575674
-3.6917885541902704
-1.6654777803679321
-1.5001784908511517
-3.409506705525459
-6.494998624355062
-6.938965283696523
-3.0755995761481416
1.7999598134810662
4.081218032997492
3.618647874209305
2.371465094163405
-0.39680897733228854
-4.100836926365
-5.700307309316624
-4.105186392594337
0.149437172002108
2.2091696108999885
-0.6169681416678906
-3.7914610158651625
-5.88350161052406
-7.227023858817556
-6.838209218437585
-6.159984001118667
-4.140949181430572
1.0698243638162042
6.052018979932157
6.6705698288032105
3.520666734292103
0.776112006129319
1.1355912380548006
2.577643824286152
1.105889939840601
-2.5917968826645765
-4.50597064039051
-5.027623774423238
-4.891094636356349
-1.9929663911092532
1.170262399205236
1.229099358131143
0.4099948056294541
1.3199207669813842
3.86522313510603
5.0748434858996125
1.8896618873049493
-3.387105518050087
-6.166194764258905
-3.8614646751499246
1.8228607067117186
5.550576891647766
5.8785667553778636
3.8713025832674828
0.1332493499423389
-2.8016547626288193
-4.261536806284293
-3.8992317974712183
-1.2399502973686818
1.1867953999555767
3.1672016719417178
4.721646202128556
4.102710906401512
2.451763172957971
1.0010123597447256
0.16062642572401836
0.09125239024874436
0.4554299230874905
1.7529804276500598
2.7907650156009987
2.3881822939837183
1.5128268777383798
0.13490740536766394
-2.607965779528718
-5.640391309836272
-5.003985409333998
-0.43022241740052103
2.4314321583406726
2.3096359467216647
1.4893595734563827
-1.096092341227686
-5.519761284260378
-7.767427109270514
-4.31133284591498
0.3646087800190827
-0.5975047942544474
-2.9067864859733734
-1.337706606294184
-0.6410622991323849
-2.909229297115661
-3.966209645563734
-1.999484608204439
1.2164692590536352
2.8055119350346076
2.1975039832734864
1.1650148533914466
0.384342376704109
0.1615088322998461
0.4808203322507836
0.8724856877236911
2.1651171581353514
3.668564307277922
3.7368833359386198
3.2291914008873137
3.268152077455826
4.146177983929591
4.626111735786473
2.7679723414254997
-0.8489741118035344
-4.120887971927481
-4.219988580814269
-0.8696331358951703
2.5538379520082835
3.9273131227726767
1.8846531537040014
-1.4011192094667908
-1.1506314486977103
0.6449918715177668
0.07689058269807122
-3.340427421379618
-7.4260355160565235
-5.6311988260600625
1.686819865421236
5.658004249289907
6.474016492764691
7.9481057889623905
7.0054564819242735
4.023530999116995
0.9846154524727715
-2.0724299074664416
-2.0802132967727287
-1.0072071731446943
-1.569305285100121
-0.0011840739950061269
2.571740346110342
2.8002907902001777
1.8809189829139485
1.4877055494872644
2.221338236336621
3.0510093255229624
3.4600774103944874
2.4887831931857343
-0.365061629978783
-2.318457564764156
-3.5859408139411895
-4.495611722320966
-2.1571001460485633
1.5048229959738744
2.5993972099891254
1.1639143738235203
-1.600275419968059
-4.470483725864941
-5.927755129554729
-4.947391759910016
-1.1842369664388055
2.5816624724890094
2.408254391985968
-0.28526184379603214
-2.8393677860430535
-3.444445408872997
-1.1210120290658947
-1.4445849925759737
-5.227598465689263
-6.358018563163759
-5.438454844494244
-2.8136255625740203
1.6039655215979367
2.5616080677450777
0.7385829926111033
1.929879706032594
5.935030113601967
7.695955462056352
5.22283529733532
0.8289828113554577
-2.2387563698302593
-1.8442874834306753
0.432245825625965
2.8794829532807364
4.644762868300442
3.735733508147781
1.8035883945899716
-0.6495923396633956
-5.3421004829313565
-8.928087667726864
-8.473237962583111
-4.014606482815474
0.7498417812348763
-0.4867484274555996
-4.700747420004533
-4.808933874607238
-2.422119530821178
-2.5136748602783765
-5.649802722750868
-6.63364308452476
-1.8032600836751786
4.628931583787759
6.869266105101122
3.0301012456345653
-2.963599212895042
-4.766847868649889
-2.970870533258163
-1.3125119518605624
1.248661119136242
5.8205455729975455
9.14534166103255
7.660938849392849
3.8619016236464856
1.4871881696621667
-1.7266628401618473
-4.460313882798342
-1.5115780871188291
2.839425921996683
2.5537222804209145
-0.14846267129340968
-2.426917561960324
-3.564820864872694
-3.6662989922524245
-4.317345508480045
-5.170384176813726
-4.819869447711866
-4.257996270915495
-4.971114134598095
-6.915243284504249
-7.97763329291724
-6.206928005337196
-2.474855619040503
2.6848704382123065
9.713978797476258
16.03183109284253
17.653269613372217
14.202555023743793
8.353038544690994
2.598247461285324
-0.5598184229794957
-1.5528597608942256
-3.229599756548795
-2.9345908283557667
1.1779557541017247
3.668282332213393
1.4444601813810065
-3.750385069306763
-9.07599113312558
-11.91130092074384
-10.804271092754096
-6.713572169333522
-4.602906315477155
-5.244022382311899
-4.206316599795604
-2.004417701151945
-0.4068265291644946
0.6608798515752546
1.9117574670384674
4.719763028462391
5.953334653988196
4.105912256088246
3.3191453858856255
4.563338430370565
5.680475016291075
4.686290507205867
0.5041032790394558
-4.818054171429603
-6.701305310550634
-2.5693328400976734
5.346861655606793
11.973239326583471
13.034747758152024
10.745931919476297
8.327015568776943
4.070520945243587
0.9649155108784605
1.159951731516884
0.059757371992517544
-3.8348306189968344
-8.03296915114821
-8.491554641812264
-7.687107913143614
-10.251233254753531
-10.914426590574068
-7.004599892057095
0.5568248538699277
8.84904240693008
10.248099011501493
9.075559927817412
12.371022874135088
14.646523283544411
9.82105712682012
0.6118513532994392
-2.5087729568829045
1.8279202619059438
5.263081892353543
7.757723356998056
10.940763958460884
12.046988489197338
8.661708756785103
1.6750678816605618
-3.6762622744965125
-5.803442434342881
-5.405709223534234
-5.345247280988008
-10.554918005608194
-13.819539664148328
-9.433245910009607
-4.573153869518881
-0.11788881041260704
3.3485235835380207
1.2025540836934345
-1.4072894532593605
-1.4086648579566026
-1.4783111395397426
2.9423039935444577
11.395563500698842
13.452981877529446
11.239183427249943
11.692414332097195
6.4618205080575
-4.126513605748247
-8.333477806650933
-8.772936009013204
-8.512410674736167
-6.543283623686348
-5.568860148851948
-2.422142017703144
-0.7684813297961017
-4.921824736202142
-4.673090453981608
-0.7492762895613123
-1.3453366164983571
-3.329030705605871
-4.608708572462901
-5.8040938719833655
-7.4077222021333835
-8.090504110263533
-3.629861322437324
0.5732677194769408
-2.233860987651224
-6.286780481637054
-5.223902915539277
-1.131746461203259
0.21105931022226326
-0.6830149184719634
1.386157256952426
5.289139727284334
8.679184826151262
11.692486810314303
11.36825541378329
8.0648287740855
7.110618205033966
7.173797303903529
3.983793389897062
-0.018596387022542363
-2.9540042545293663
-5.8305917820668265
-9.005902830517128
-11.467873065384966
-9.715530308262306
-7.300402291132299
-8.355719200501657
-5.457351229628558
1.7968693811689547
3.449169045801704
-3.2532157118847977
-10.251532383179896
-7.015360031287045
3.4585478512666654
8.084903639258162
2.993486086013467
-5.170755357643305
-8.38426787116115
-5.47424942701975
-2.6832327890142484
-3.919663419902237
-4.9993657361725425
-0.6986600340751571
6.33936891221429
11.370345840375414
13.581765107912053
11.78169731668627
5.52665723888185
-2.8877243700292965
-9.661016859672166
-11.011752073617933
-8.894138143796138
-7.941870447313039
-7.4183412043233625
-4.56116835270342
-0.4962094652833012
0.332699880621125
-2.485081926263214
-4.917194650344178
-5.511691964485428
-3.7158610228455466
-2.6698947742050274
-6.096525453821608
-6.794399701535353
0.07267112522745348
9.475476348339175
15.752587487036052
13.70358794200015
8.336980451876828
7.944254924750051
7.503892236850239
7.049826145915693
11.363380218858879
12.691825850362923
9.437119171758154
8.382572052341084
8.624603193634549
8.222750194854196
4.269151165495353
-6.913487285355417
-23.143143246309982
-36.96736192127018
-36.78405176474086
-22.91852704914641
-7.523445955576899
3.981309105531068
6.692591161395919
0.7223132224164419
-3.207351689193757
0.08949730904755893
8.214918463142949
15.78104321507449
20.80023506084042
23.14254065928463
18.910844343329543
11.848730668490548
9.175534739687732
10.067946796484135
8.865846138794849
4.19258890388589
2.042090288700745
3.2015871329977315
8.143919917408445
17.774907677467322
22.800563520162715
19.85768901765202
9.821790678370071
-6.456687010394275
-18.55333415585459
-19.896013515619906
-13.829990472616709
-9.220468755467563
-9.482990389139236
-9.822705523454934
-11.377942724380414
-13.501691297884193
-13.133675731364365
-11.76164483709901
-10.856888832353736
-9.915040938886671
-3.2223120026119325
4.8584304537061715
6.608305834423215
8.666801498267223
10.341277181266936
8.052892821829735
4.566174355177984
-0.29453317686057406
-3.2049324641943913
-4.341305809881931
-4.741005977686703
-1.1203739234051202
3.6088952996918424
6.456801772584654
3.4167132490030236
-6.765146662042167
-11.877433295947254
-7.576139073397891
-3.550858379719754
1.4106158756563751
10.271550169008368
11.915151934183454
6.537341654671655
2.4135692732883602
-1.8939373705551914
-0.5106327940950819
4.925374129156548
2.530561941485457
-0.4817646283591761
3.0989943549729824
8.889558620597464
12.188647986856564
9.031263932979007
4.802800802602772
4.141735061431156
3.562920686638069
3.0914280412706403
4.984706652071578
7.592213825945899
8.294885675874568
11.346944932755047
16.246922574434254
14.300486211921623
6.702072711484518
-2.0715114442988645
-9.454640647459488
-14.332509660265002
-15.745354591699599
-7.548806217655491
1.1462350601760865
0.5437242327038712
-1.224808240144562
-4.834518765323993
-8.562733203328728
-5.934059785462082
-1.5835412948876637
3.431477439459001
5.904884241187427
5.340577486698688
6.41162719958708
1.8220908646097513
-7.634525384914601
-12.078948380642483
-10.026640517959414
-3.4869475970005817
0.8913848767947482
0.4344828961592051
-1.5268738356274865
-4.51424109488022
-6.012208560187589
-6.993996153490091
-10.894190639696054
-14.07430173799829
-12.84502437671789
-7.373055564784121
-3.0410551804539923
-8.206486252489313
-20.4168292008772
-28.947037608295812
-31.29913028629302
-29.544040076451935
-21.738992231736468
-9.422918764454513
4.66998246189915
16.936057407164128
17.538482129382484
9.835881437980193
5.577334045296484
3.357955181117432
3.172618061417561
3.44451639614908
-2.5262648077810548
-6.963975066801889
-2.6872623558427478
4.143175110096841
3.6042777836186266
-5.782327032044189
-8.041262020790029
-0.16437054400565732
2.9868032342458086
2.913917705415296
4.665213866618336
6.6330610795114024
9.750519371190242
8.005225391185954
-1.003684069738003
-5.761160078115115
-0.6660352363396193
3.0169346190616637
-3.464002280803012
-11.996154353523053
-12.31713936989092
-5.005805120464096
-0.3352385385079589
0.6538484920475647
8.036734609564792
11.028904683007756
-0.4615951148600113
-10.38865291814791
-9.62229886375351
1.5519214146246936
15.774309617883615
16.586601287809696
4.858124842142185
-10.099064977247018
-22.0277214964488
-23.979644704586182
-21.877751890795835
-19.57437032231098
-7.934533406169208
9.220801124106274
17.600659236991515
17.81034414035327
17.24108855487667
15.202680942984472
11.138598335943362
5.3893813980733
1.0069812136879837
3.877748554529386
8.232488096196851
6.127162026804367
0.02398397083003695
-3.4012375130633865
-2.472393026836007
-3.6065314354378337
-3.7142735600098726
2.745383060845652
8.362895802224301
10.179983147308349
5.519187064480759
-6.991254673574311
-15.843132425592447
-16.252698055691756
-11.760372461187483
-8.048057218141198
-11.764584152305472
-16.680996928543703
-15.35542842752553
-10.149386373750536
-0.9660881052223672
11.335740910299954
18.564559541696468
15.420381712134315
6.597397548178384
0.030902877926297062
-0.1633134719310674
5.8954440193722215
14.374298648635682
19.912954442376694
18.86885598113158
11.925111109017097
0.8838648554058735
-12.219472812310158
-18.266918904647635
-13.722523214714728
-8.097701425071836
-5.52847361404652
-8.213466710150705
-16.011974241085724
-16.69653233173077
-11.073661088700737
-9.345493668503325
-8.74010101717687
-9.844441869420649
-12.172397757662512
-8.15950624208031
-0.027056487921877065
7.2116621862161905
7.286329462989746
-1.204775484258145
-3.8902860645476127
1.2215540205153328
4.30906996062714
5.551326519121075
0.6915865367857672
-9.872955205343509
-13.34642080954298
-8.268201002538857
1.3967506854039953
11.592173333620268
14.54475831672567
12.516245427274242
7.947907649537784
-2.367258015586413
-13.275644986041181
-17.963024027503398
-13.125752452315066
-1.8324025179421806
7.168191129433446
12.46706441813017
9.81161015554614
-3.298870085733664
-11.094842672555767
-8.902569050173838
-7.247978021237119
-5.589101681906714
-0.45297634053273755
8.183519434371517
13.767246104516397
8.33294727166954
2.258022765361122
3.0595381129431476
2.4789115496689993
-0.21441836297321737
-1.957649462069583
-1.1312416866731636
3.6736538022502256
5.307052406272136
2.6465756673146705
2.924585872868329
2.3154738347481625
-1.9426891543992086
-4.864121481395309
-8.723983004289467
-11.697341653488495
-6.759734282473915
0.8541727266247747
5.534548078788601
7.4160766217945655
4.546119946166039
-0.9392848596306193
-5.663225615683001
-7.9446659426027955
-5.1393900422425824
-1.356893491136316
0.03684004287647079
4.086844953781186
