AAD_Filtered_TADAS_FILE
AAD_BASELINE_CORRECTION: BASELINE REMOVED
AAD_FILTER_TYPE: BUTTERWORTH
AAD_FILTER_ORDER: 1
AAD_LOW_CUT_FREQUENCY_HZ: 0.025
AAD_HIGH_CUT_FREQUENCY_HZ: 40.0
EVENT_NAME: 202302061024
EVENT_ID: 13207
EVENT_DATE_YYYYMMDD: 2023/02/06
EVENT_TIME_HHMMSS: 10:24:47.00000
EVENT_LATITUDE_DEGREE: 38.089
EVENT_LONGITUDE_DEGREE: 37.239
EVENT_DEPTH_KM: 7.0
HYPOCENTER_REFERENCE: AFAD
MAGNITUDE_W: 7.6
MAGNITUDE_W_REFERENCE: AFAD
MAGNITUDE_L: 
MAGNITUDE_L_REFERENCE: 
FOCAL_MECHANISM: 
NETWORK: TK
STATION_CODE: 4408
STATION_NAME: 
STATION_LATITUDE_DEGREE: 38.09616
STATION_LONGITUDE_DEGREE: 37.88732
STATION_ELEVATION_M: 1215.0
LOCATION: Kahramanmaras_Elbistan_Turkiye
SENSOR_DEPTH_M: 
VS30_M/S: 654
SITE_CLASSIFICATION_EC8: unknown
MORPHOLOGIC_CLASSIFICATION: 
EPICENTRAL_DISTANCE_KM: 56.74
EARTHQUAKE_BACKAZIMUTH_DEGREE: 
DATE_TIME_FIRST_SAMPLE_YYYYMMDD_HHMMSS: 2023/02/06 10:24:31.8517900
DATE_TIME_FIRST_SAMPLE_PRECISION: millisecond
SAMPLING_INTERVAL_S: 0.01
NDATA: 2886
DURATION_S: 
STREAM: HNE
UNITS: cm/s^2
INSTRUMENT: sensor = GMS+/GEOSIG | digitizer = 
INSTRUMENT_ANALOG/DIGITAL: 
INSTRUMENTAL_FREQUENCY_HZ: 
INSTRUMENTAL_DAMPING: 
FULL_SCALE_G: 
N_BIT_DIGITAL_CONVERTER: 
PGA_CM/S^2: 142.286
TIME_PGA_S: 
BASELINE_CORRECTION: BASELINE REMOVED
FILTER_TYPE: BUTTERWORTH
FILTER_ORDER: 
LOW_CUT_FREQUENCY_HZ: 
HIGH_CUT_FREQUENCY_HZ: 
LATE/NORMAL_TRIGGERED: 
DATABASE_VERSION: 
HEADER_FORMAT: DYNA 1.2
DATA_TYPE: Acceleration
PROCESSING: Automatic Paolucci et al., 2011
DATA_TIMESTAMP_YYYYMMDD_HHMMSS: 
DATA_LICENSE: U (unknown license)
DATA_CITATION: Turkish Accelerometric Archive v 1.0 - Disaster And Emergency Management Presidency, Earthquake Department
DATA_CREATOR: AFAD
ORIGINAL_DATA_MEDIATOR_CITATION: : AFAD - Disaster And Emergency Management Presidency
ORIGINAL_DATA_MEDIATOR: AFAD PROCESS SERVICE
ORIGINAL_DATA_CREATOR_CITATION: AFAD PROCESS SERVICE
ORIGINAL_DATA_CREATOR: network: TK
USER1: GuestUser
USER2: 
USER3: 
USER4: 
[...]
0.4385836659769735
0.44170996485817776
0.43339381027352697
0.4238635214914861
0.4249662108119308
0.42986830156459904
0.43302316025560106
0.43235662159311056
0.43696624330769446
0.43653117632616756
0.43063000364616966
0.4402587639074134
0.448041697596942
0.44283354200170977
0.4399339429488135
0.44409670967985804
0.44485466008448327
0.4326480446794858
0.4247119201763168
0.43402083406417147
0.43982880094865606
0.43251300864045106
0.4295378248823676
0.43278792310371617
0.43776241006126665
0.4383216449573009
0.4317210662010563
0.44053359602951125
0.4508924920685041
0.4441788393200208
0.4365624451074218
0.4337334809182679
0.43749055634189266
0.4392611562459616
0.44262574148321626
0.4465441777877315
0.4370447997021458
0.44026981038728197
0.4483805778586941
0.44183970208976064
0.4429617469871129
0.44880595520217365
0.45223533044853714
0.44199425558309213
0.43226344741571643
0.44130192333733514
0.44136285019930077
0.44246325190172564
0.4442079960905474
0.4418982766205258
0.45243251705999166
0.4520999346210838
0.4418163894574632
0.4364219485395926
0.4416824563187718
0.44856639332692677
0.44069712850246257
0.44152461937716925
0.4483127080495359
0.4508780331311882
0.45499754412172844
0.4524393296751454
0.45171608832612087
0.4492781372402105
0.43831339772812283
0.43523820055035595
0.44422449747979154
0.4496041143369238
0.4483803440409931
0.4485583606953065
0.4533139448271175
0.455926918276635
0.4437523929221769
0.43599237998901175
0.4469718715580696
0.45740802552899534
0.4524217133336999
0.4476490271730005
0.45747408275715384
0.4614209011394486
0.4587477482461032
0.4549410873191989
0.449760701905304
0.4452915958354897
0.4390997685974225
0.44379239593938036
0.44803349740521575
0.44935908241852585
0.45725891173692107
0.45396033761875937
0.4489194087284871
0.45378964219956075
0.45164896660937004
0.4507272715080891
0.4582017823897794
0.45629563753879115
0.45132722692901683
0.4506707976212698
0.44899943999609504
0.44647732390215594
0.4406711709739056
0.44791305002205295
0.466136812789776
0.46717318832979216
0.4636245388381599
0.4686865969671396
0.4681823048658572
0.46463229955247365
0.45989745717233776
0.45322886372597054
0.4604918004996147
0.46555146015806126
0.4521263590287358
0.4497017899595034
0.45383669723173337
0.45815344056068086
0.4615842089344812
0.4484113450002676
0.4523349553090499
0.4669530127066738
0.4655174414005496
0.4665676383187074
0.4673314481963754
0.467259703118989
0.46898546395354734
0.46352321642388383
0.4583988434529005
0.4544864661192608
0.4495752100060485
0.45067127428503134
0.45106126455572787
0.4578831746776526
0.46474930948392407
0.45747001239261353
0.46053658840253264
0.4681314893922831
0.46537377895138904
0.4612260003691441
0.46288893862598113
0.4755043548990747
0.477034753170217
0.46715260951890825
0.4687798977898204
0.47082176036565193
0.4663781366111902
0.4624995356523107
0.45912764369525516
0.4541352157064643
0.457815981603757
0.471184878407846
0.47528508798250196
0.47468524020547476
0.47001178913182035
0.4662454986664556
0.4747630421985849
0.4732909623256476
0.46534220199265913
0.4659975141605627
0.4675666371072915
0.4639641294257478
0.460454125567198
0.4694455212492824
0.474605762516528
0.4707301260473728
0.47067472233044194
0.46907010738149024
0.4706085920812909
0.46995713160680536
0.4690500343066035
0.47434962172607564
0.47354135020000626
0.4754500103410667
0.47401331018833415
0.46095827016031715
0.46246422171948387
0.476547311297407
0.47773591071091137
0.47607369865748
0.47665001885437486
0.47079657157716087
0.4670512773356512
0.4687095409066713
0.4746702959541135
0.4735311420996754
0.471302046116408
0.47492335826712895
0.4763457914601673
0.47790368065475236
0.4778220351730935
0.4787701136339656
0.4758618556477951
0.47355073077782117
0.475252474565685
0.4778492896044532
0.4770458013938119
0.47346705480009643
0.4720922072716498
0.46587795292299006
0.4736997700657205
0.477696452902992
0.47481265315742177
0.4854276231756913
0.48072729653458457
0.47344214476511104
0.473172561443968
0.4746260391912781
0.4818619413959265
0.4820259970637952
0.4750093828563581
0.4734256776717465
0.484170179045063
0.4847011038383884
0.48082483224569206
0.486253297176471
0.4792952624567767
0.47375490095084516
0.4771082251050247
0.4749514541619644
0.47364345687943965
0.4805278711282376
0.4855812930715598
0.4888117560546054
0.49374569979496796
0.4889846823784607
0.4903415074974105
0.48544964285638104
0.4755176505806903
0.4838471489076859
0.4832629003942822
0.4813354016883602
0.4861700974103407
0.48383260862289845
0.48142532155272766
0.4851330150067237
0.49042550370724747
0.4845159221422125
0.47647906538506846
0.4856101349483501
0.4926519073299158
0.47938277871986623
0.4792176214804059
0.4911993611950766
0.4928606846249248
0.4919291892346546
0.4811511604098955
0.4795209449268374
0.49146462057435636
0.4927552652388352
0.4933865956195878
0.49200107246190017
0.48988140943640784
0.4914713677417828
0.4884282174366559
0.48461405778194866
0.4788503823521861
0.48310493128478105
0.4934236247981477
0.48926987330255634
0.4869995984761336
0.4943581749269973
0.4995463726052922
0.4974012251337356
0.49507242408302077
0.49597768791799635
0.48857488016785366
0.4816919200883646
0.48886451341786286
0.49651424714772047
0.4943025368836608
0.48966600301750374
0.48666620126746934
0.4908752945925752
0.49493504071072636
0.48926433394829105
0.48385441633522447
0.4822435358635744
0.49026485148044185
0.4968962012706735
0.49030736942246544
0.4935930048269669
0.502429857831172
0.4949036757585873
0.4894474673944712
0.49607923076364246
0.5036016743477074
0.5030122645053748
0.492051292512677
0.4948162069410633
0.5045058344811679
0.4975241525302725
0.49237570301255706
0.4988473123812874
0.49430044181880906
0.48655066354246934
0.49377261015819873
0.49238438716274036
0.49714117704648364
0.5022898530804909
0.49449162911175054
0.5036802833067824
0.5024463968338363
0.4988745975251345
0.4984594245900643
0.48840667610686817
0.498562209487219
0.5080185147789013
0.5050733358194828
0.502171924996496
0.49964701030387454
0.49968030349604153
0.5052707943542201
0.5090022026104393
0.5066166728524257
0.5059758814773168
0.5005313336515793
0.49793520739501884
0.49311343494616655
0.4953133378209543
0.5029504111890519
0.49683245428617406
0.5051697275480231
0.5086845567954694
0.5050427749839759
0.5062245848290751
0.4982893351652793
0.5065695788296034
0.5099160402395707
0.5008732258270922
0.504226024067173
0.5075371429696875
0.5063560222791665
0.5027604723262485
0.503731776159395
0.5066894205750481
0.5074551896540562
0.5077668345843682
0.5012551743368846
0.497445575033142
0.49912912731626174
0.5011503714844614
0.5098533149935145
0.5159218387901372
0.5141072279211927
0.5098406041370586
0.5042835247383702
0.5089973531019025
0.5172946845098075
0.5151291325419256
0.5124118709423371
0.5131167649143844
0.5109049586456447
0.5088100411390027
0.5086206474329871
0.5076591955346661
0.5098363276342949
0.5113924209435877
0.5099294555917421
0.5113769307966319
0.510949856208625
0.5104984423776031
0.5108438179968005
0.5068651664183459
0.5097981452485822
0.5141072311955179
0.506734374034972
0.506104537718329
0.5155670378822058
0.5157599119698562
0.510870247843848
0.5115166247670813
0.5158121897296737
0.5172624449866129
0.5129073460798497
0.5115152160592562
0.5137143472736388
0.516237334605556
0.5199613206221663
0.5166013065732419
0.5107780186227133
0.514449922107918
0.5221022783176394
0.5185038414746034
0.5073123899844039
0.5131372409314406
0.5181321331116941
0.5078624591239335
0.5120425794407057
0.5231681444233001
0.5230942468352855
0.5191151912036629
0.5181116884735518
0.5179496069803949
0.5155961943603563
0.516910307379554
0.5202758244468878
0.5233742469875553
0.5264054548399056
0.5228023734834432
0.5165078999404645
0.5117935382932122
0.513340380283542
0.5228683670241249
0.5222421101843722
0.5146333084981336
0.5160796252812307
0.5231067227995
0.5227735466601137
0.5185430481285594
0.5217907124149337
0.5241675550786542
0.5244348564355119
0.5175448936032513
0.5141160479851159
0.5226512507676162
0.52018350671477
0.5186145612627076
0.5244310301349269
0.5223638378957611
0.5203919088165941
0.5217074691579631
0.5229158839492325
0.5263320323390243
0.5248947139783582
0.5218148457920393
0.5244762039547705
0.524015932624959
0.524557051570264
0.5285072339872445
0.527383983240301
0.5241409699692225
0.5200244426993277
0.5194970368341142
0.5273355033686585
0.5314890258828506
0.5302570173899526
0.5260851770927388
0.5228310734966177
0.5320503213291913
0.5335329602362655
0.5260149154641933
0.5279912506815523
0.5247428545187403
0.5196527832935476
0.523153993453602
0.5279602390025543
0.5275850932737345
0.5269075459908628
0.5316754819162194
0.5299402330726968
0.530341465919539
0.5380808569903115
0.5379560606761766
0.5320347621576276
0.5253525750083328
0.5280863289451313
0.532099787209228
0.5297714650692635
0.5320461142652191
0.5302107710828665
0.5292943667777814
0.5320285198789073
0.5299615330703361
0.5319087816671054
0.5371001245128062
0.5337720268217578
0.529102773019802
0.5312011472613467
0.5253466204518942
0.5235507225599807
0.5338026113375395
0.5349652436452017
0.5315388896573457
0.5312384204582224
0.5342476665887583
0.5371344500928509
0.5353749712712708
0.5332395949086355
0.5361990672757577
0.5395004034068666
0.5363509982276451
0.5347256736489239
0.5405586292422421
0.5425861173949466
0.5320451318840533
0.5334068636711287
0.5390975783590459
0.5310138549579237
0.533872932142001
0.5368427332553792
0.5370063260920641
0.5401651260226464
0.536111775418537
0.5367151260773553
0.537888738999948
0.5385738729063478
0.5357831357845356
0.5300649239694977
0.5376054303144531
0.53740613851982
0.5313472646136078
0.538079411111553
0.5416221600292103
0.5424682055839735
0.5409617157639601
0.5381083945385949
0.5390818998540763
0.5369322782872838
0.5357880583178842
0.5374665272691964
0.5400570432763725
0.5392393924152337
0.539569693620425
0.5432342716842233
0.5391208515452068
0.5421077279870086
0.5473559431760006
0.5439960208636664
0.5534472030179701
0.5530313863159037
0.5407835888624104
0.5445747735746775
0.5450999478872163
0.5429745315378564
0.5406343629918212
0.5403689510899217
0.5478668864427237
0.5433658046071683
0.5398834137502426
0.5458849472817937
0.5464621704445047
0.5466614039559792
0.5447009899640609
0.5430602091511696
0.54753141597151
0.5445743787596629
0.5420714468509582
0.5467885577645321
0.5529175720647885
0.5532201385823239
0.5472764998839236
0.5527536052340115
0.5528017398594387
0.5501252089085036
0.5498208200429007
0.5436083806680947
0.5502119736311625
0.5453846873784861
0.5442273298130595
0.5606043513777363
0.5525470015581164
0.543415427268954
0.5473926550601692
0.549788136361198
0.5523951524253292
0.5476395554367592
0.5472266203692061
0.5542077542386858
0.5542786140645646
0.5513975025680958
0.5504162820818165
0.5527822781039111
0.5552043751677376
0.5517146009223712
0.5518282416764663
0.5538318704330136
0.5495795961833692
0.5506748663780969
0.554338213816787
0.5517891107108219
0.549663199852044
0.550658379457867
0.5498683136121401
0.5511642988216016
0.5574701588525142
0.5561194519776571
0.5496532506965709
0.5485474768647678
0.5562786778809372
0.5632203552472752
0.5536978937230301
0.5533547151061081
0.563235524958317
0.5594688784970282
0.5530507208584594
0.5450579483820522
0.5478778273524927
0.5565566116492855
0.5555740722044107
0.5569609997332876
0.5565517617975347
0.555097732292594
0.5584902729249264
0.5635243052966329
0.5651648951099306
0.5628465489521879
0.5551012366378582
0.5569923117269581
0.5622086821823317
0.5516134781420912
0.5520239455129852
0.5517360379508779
0.5488649901515328
0.5539764775721137
0.5373828125231568
0.5146249343747276
0.4991706698547813
0.471025786521318
0.4288282461324679
0.3799664542940448
0.3169758642239935
0.23584835733767073
0.14709112756579035
0.05262748494698985
-0.04909469355341395
-0.1562883436490236
-0.2680865593535172
-0.39060193742319754
-0.5257941707526188
-0.6457937378137371
-0.7465877056593577
-0.8488753967871354
-0.9434989228056466
-1.013776464175331
-1.041406141559761
-1.0420656916714564
-1.0437027424242482
-1.0266175479259507
-0.9746156916898194
-0.9058125766973093
-0.8623711796228639
-0.8596246645004818
-0.8612688329476816
-0.8369677093384777
-0.7928047705770835
-0.7416047359792541
-0.6621670377330285
-0.5390845442120367
-0.4057674317444814
-0.3046166100692997
-0.2208527418887299
-0.040078799231911766
0.2992130300872044
0.6636768525060167
0.9178802321645048
1.0894192985816704
1.2990638132623253
1.5511409101815834
1.727943446740408
1.8485589984662663
1.9929554599705521
2.1325581135017924
2.2274401263294736
2.3446436309530356
2.5630766006311716
2.8251289395893058
3.005599155837613
3.007682711226199
2.844586330390914
2.6346011005459022
2.4977462648878817
2.377321070781337
1.9905848025579402
1.3034558273484618
0.7272194296286177
0.58657690224814
0.7349669500480034
0.7589457882832844
0.5255869195463179
0.24808975115776166
0.12458030679841448
0.30748052548139293
0.9046888417724068
1.5425465508190126
1.7140378079452847
1.5626972679056184
0.9285195219463638
0.05683922203564701
-0.033067865068697855
0.24617553350274635
-0.05797329410337465
-1.1933090091446896
-2.088030732064041
-1.5870451434651198
-0.011658739683603592
2.1279032755006195
3.388470734339417
3.391553671204834
3.0552171825288172
1.9079095638421628
0.2985305023343222
-0.579669302385308
-0.999598681441997
-2.8581455835142506
-6.0205736485744525
-7.792765986851717
-7.987650474194914
-8.055265438232539
-7.33845617623394
-4.828372584926239
-2.3919008879824206
-1.5345485057960206
-0.8648744906674395
0.4923355171689559
1.9708543396016451
3.079696947686544
3.708706648500094
1.6788376751028484
-3.1104746418649287
-5.925959189247732
-5.707961538931294
-5.412540424233571
-5.947983973692892
-4.515863782816528
-1.3632436091631053
0.055043350948878134
0.9590412301595961
2.2057036208657568
3.2075566235162265
3.7178625705900425
2.6186843064619834
-0.2600475462639961
-2.5761430668592715
-0.39852952470189223
2.897383349572437
1.3675533750874522
-2.7540166865236633
-4.379268912741822
-3.3283230980707077
-2.672306985279893
-1.7605793435830415
0.3336710996386894
2.1529272448229895
2.429143684533677
1.0611790590954722
-0.3724389981995438
-2.8124275378258354
-6.693615491713767
-9.66772466320998
-10.739756171916286
-9.680557307534407
-7.378992967649512
-5.631008214160139
-4.1334989391481685
-2.398128679322033
-1.9003492410233607
-3.2312143170406857
-5.867154108519939
-8.022244527070555
-8.124908080911014
-7.561139553067134
-8.97347046869324
-12.395908872424005
-14.607566186415333
-16.567399279355087
-20.402108521813517
-23.091673885426893
-24.044202603383333
-25.430108813065083
-26.301574029551755
-24.807648013148683
-22.701485127648244
-22.934097074237886
-25.260670118307935
-29.704141744547425
-36.45042712389293
-42.37546734253723
-44.355326058642795
-43.13939667917641
-43.29857176875084
-44.54696277784861
-44.354430850605574
-43.64897210872255
-38.28081666456708
-28.56108413326138
-21.8271671903876
-20.131115204172065
-20.176147674579035
-14.7727401117824
-5.636473561269223
-1.9395362263300162
0.15949966581710018
6.927241575381132
10.744166144025257
4.6680530160096305
-2.848125297898761
2.0564916807279903
17.216969000000358
20.36177971922124
4.1519429583543825
-5.50331055726875
6.536850248856348
20.848331541683123
11.709525668129313
-11.380352259067209
-14.2265560130295
2.549162845014836
30.23326596095555
71.86675681997444
102.16945719239521
97.94431058138777
76.66168293090132
88.02062150687605
132.64817578674996
145.6613703904859
112.37749037221103
73.85330976556556
66.96884282132712
67.46295170110653
28.09226055273831
-6.082062187889584
-12.657698246111439
-35.356049074288066
-64.34662594796478
-67.82380302129398
-49.08010566296261
-34.67884206069382
-41.23998277764057
-47.30109650308085
-22.839985129118343
-0.42432881806272416
4.352050078726451
0.066231084097775
-12.431558716132287
0.4680717148216329
1.1612649764794956
-18.90880506768017
-21.679297009947245
-23.14809358223726
-21.910384952267513
-22.6679847835712
-21.870085315503797
-9.898392830394906
-13.408816922457026
-34.77372150470216
-32.15648054349356
-5.1651286853292975
9.610277272722374
0.7710460134164854
-18.135647361945725
-45.314077848794426
-72.73633655914448
-53.9731469016692
-16.667183353003512
-4.537638676465438
-12.551919957680003
-29.19731715629636
-14.524335713271068
12.033176336976744
15.050145289899815
6.0687683469646005
-9.063464537597193
-20.369441215075767
-14.909098142344828
-3.1474961535604375
-0.037744950593688154
-7.740703167419541
-23.59299513309179
-31.191368299419423
-37.88797644144403
-47.57013277070921
-50.200611317324096
-38.36510884669217
-7.959256689746102
25.248653874261255
59.866454321198724
74.40642412123307
80.31113994801814
88.63072065000243
57.357721725253015
13.72015216138394
-1.6237856412119915
8.918625479305787
15.43203800495547
-10.541065671040485
-27.814283866800814
-11.003302535724034
2.260121593047724
14.147697362919432
36.248394581437914
53.604947838909716
58.05022273691666
45.19851166277496
44.13104621017389
51.033738900067405
24.961491276862503
-3.1142198739151943
-2.438570690431523
-0.8452750068957564
-12.441709668892985
-44.010860796838536
-73.65987966381077
-60.23655839491643
-28.535469223123467
-18.881797788065185
-22.00249122717348
-11.334115899953703
-7.364893502916767
-24.468403455707353
-30.601942271660704
-24.260258036821668
-25.157849632110473
-32.32614397649856
-30.618803850106993
-24.90867724848141
-20.414925654167533
-13.338819909767672
-13.891419624351133
-18.989601227383666
-19.975220424637484
-9.182221139459546
8.195115884475884
18.362358068519253
23.975955096686356
31.500072590875874
39.1188933056761
31.56826136846267
15.15466654275107
13.117552775747946
16.72460530725829
5.672465601031238
1.6935170776958863
16.03624666645327
16.30434088592595
15.248427933536359
24.680734375008466
23.7007516760456
23.714219414221866
29.01251626472585
32.30688239269384
30.047524480683133
19.6924750446309
17.052577574691988
17.059509982530045
12.498857660477624
9.788427892046611
1.4162009800055162
-12.212340763019128
-32.6681673277591
-46.55621226255593
-40.639425655393445
-34.962425312069584
