AAD_Filtered_TADAS_FILE
AAD_BASELINE_CORRECTION: BASELINE REMOVED
AAD_FILTER_TYPE: BUTTERWORTH
AAD_FILTER_ORDER: 1
AAD_LOW_CUT_FREQUENCY_HZ: 0.025
AAD_HIGH_CUT_FREQUENCY_HZ: 40.0
EVENT_NAME: 202302060117
EVENT_ID: 13194
EVENT_DATE_YYYYMMDD: 2023/02/06
EVENT_TIME_HHMMSS: 01:17:32.00000
EVENT_LATITUDE_DEGREE: 37.288
EVENT_LONGITUDE_DEGREE: 37.043
EVENT_DEPTH_KM: 8.6
HYPOCENTER_REFERENCE: AFAD
MAGNITUDE_W: 7.7
MAGNITUDE_W_REFERENCE: AFAD
MAGNITUDE_L: 
MAGNITUDE_L_REFERENCE: 
FOCAL_MECHANISM: 
NETWORK: TK
STATION_CODE: 3116
STATION_NAME: 
STATION_LATITUDE_DEGREE: 36.61618
STATION_LONGITUDE_DEGREE: 36.20661
STATION_ELEVATION_M: 33.0
LOCATION: Kahramanmaras_Pazarck_Turkiye
SENSOR_DEPTH_M: 
VS30_M/S: 870
SITE_CLASSIFICATION_EC8: A
MORPHOLOGIC_CLASSIFICATION: 
EPICENTRAL_DISTANCE_KM: 105.38
EARTHQUAKE_BACKAZIMUTH_DEGREE: 
DATE_TIME_FIRST_SAMPLE_YYYYMMDD_HHMMSS: 2023/02/06 01:17:30.2162110
DATE_TIME_FIRST_SAMPLE_PRECISION: millisecond
SAMPLING_INTERVAL_S: 0.01
NDATA: 12501
DURATION_S: 
STREAM: HNZ
UNITS: cm/s^2
INSTRUMENT: sensor = CMG-5T/GURALP | digitizer = 
INSTRUMENT_ANALOG/DIGITAL: 
INSTRUMENTAL_FREQUENCY_HZ: 
INSTRUMENTAL_DAMPING: 
FULL_SCALE_G: 
N_BIT_DIGITAL_CONVERTER: 
PGA_CM/S^2: 165.838
TIME_PGA_S: 
BASELINE_CORRECTION: BASELINE REMOVED
FILTER_TYPE: BUTTERWORTH
FILTER_ORDER: 
LOW_CUT_FREQUENCY_HZ: 
HIGH_CUT_FREQUENCY_HZ: 
LATE/NORMAL_TRIGGERED: 
DATABASE_VERSION: 
HEADER_FORMAT: DYNA 1.2
DATA_TYPE: Acceleration
PROCESSING: Automatic Paolucci et al., 2011
DATA_TIMESTAMP_YYYYMMDD_HHMMSS: 
DATA_LICENSE: U (unknown license)
DATA_CITATION: Turkish Accelerometric Archive v 1.0 - Disaster And Emergency Management Presidency, Earthquake Department
DATA_CREATOR: AFAD
ORIGINAL_DATA_MEDIATOR_CITATION: : AFAD - Disaster And Emergency Management Presidency
ORIGINAL_DATA_MEDIATOR: AFAD PROCESS SERVICE
ORIGINAL_DATA_CREATOR_CITATION: AFAD PROCESS SERVICE
ORIGINAL_DATA_CREATOR: network: TK
USER1: GuestUser
USER2: 
USER3: 
USER4: 
[...]
-6.253576667559397
-3.832384559141978
-0.6617632438137193
5.291527713779748
6.591527102112899
2.1115572713707973
-2.119575609840342
-6.1448135461449525
-10.299285472496745
-11.314061353060737
-8.147241958433142
0.9419711263631394
12.074759889943374
17.02128588155396
15.040334653568774
6.740049613629663
-2.446521769588703
-7.284480471384286
-11.62016518679382
-16.72082395230813
-19.25105124911509
-20.3001092417895
-20.08062166881976
-13.969452645604223
-4.909862271292696
2.1478554706776447
6.198754362081583
4.479387171845961
-0.8424269671593632
-3.7905744139534527
-4.076237653475773
-3.5027776490196305
-0.8582410605908002
1.5279817405019054
-0.09906479138293789
-5.070264375006777
-7.760272483202045
-5.694342365900141
-2.993840679817967
0.6247777238609021
5.739831025640381
10.296783482431024
10.703720537690563
5.324599649159778
-0.23680474179797203
-4.114803170671444
-9.664319604307504
-13.704257181505625
-12.812642273341817
-9.71783954954928
-6.926362221745002
-4.585815409078052
-2.0582781456565606
-0.08260931954531792
0.5560743900797227
1.6633239602533614
2.7412965850625666
3.3499065042961087
4.1019046090978195
5.5011825014331786
6.08560497133984
1.4021715380123687
-2.7635203571199156
-1.689263938191692
-0.5204604043499026
0.5207815680581033
1.724825947010812
0.8654518925638113
1.1738574620745692
4.156888600648929
4.89956051944735
5.047475901948017
8.93005940622178
10.454567370852219
6.774501817775195
4.196038990820616
3.378782043959097
-0.3176206719163976
-6.543813137757346
-12.761778665280847
-18.277217509969187
-19.040793441030257
-12.431037549060298
-4.104247666746227
-1.3826407224445383
-6.1706879001688595
-9.738862193847671
-5.150257225546629
3.334266490893407
5.833036381479834
-0.007869839746459047
-3.8794199133019376
-1.234916637948091
2.3710087212846997
2.9866078554520294
5.068643051789884
7.619701853299152
8.024909156756348
9.115639976938121
12.332917408445795
15.202299383164164
10.045294296637294
-0.17541468951677078
-4.9677867169724355
-2.165139700958754
4.251616755036946
6.987068027683436
1.1388078819380045
-8.573214274695989
-11.279141040472132
-6.257414259435793
-0.089681078769984
4.093768800248949
3.378934973368745
0.20893288295168483
-3.052408277469166
-5.160807162778451
-2.2285532417404146
6.435487308383377
14.796687768035042
17.08282236053041
14.273350524873912
9.9352727915358
5.781298397651865
-0.3493945554999718
-7.265046975158907
-11.117265488727988
-12.76302377272614
-14.09223740421883
-16.097295178697674
-14.1040743222292
-7.108642064617062
-4.90564425492387
-5.2943657739663035
-2.6271436004683464
-1.7398298631493256
-4.227427717615602
-4.873285642595736
0.9975312655110755
7.163000601141051
5.838400085685716
2.180735154634104
2.3775563226642067
3.861320296934117
6.3512739578117365
11.038737436254761
10.285099796051494
3.0487508477382534
0.43844742129999376
3.2582195554008693
8.54991159647884
14.337014526188828
15.234636578511324
7.716968872730008
-2.671080422818801
-8.918378377472436
-10.444033728810716
-6.511833117761778
1.1198103152098942
8.214123199157797
7.951143786474284
-0.6128374742659501
-9.739258075050268
-14.586232755417152
-15.965176718170811
-14.932556758404905
-7.4622274289222865
3.6909116769917194
4.514076571878057
-2.6614526507761576
-6.27848819404162
-8.308458175774765
-9.551665484363282
-6.011365259801686
-1.4172105214113018
1.9180781933383264
3.8543957451288122
2.612171846945093
2.6944133237983316
4.0249660962784946
0.5636870161681463
-1.7200924513137403
2.873877649103609
8.106245513571157
7.9456725810608475
2.449482622149877
-1.6097350205620813
-0.23294874835355675
2.651868551220286
3.819421026428658
1.2097520478039656
-1.5575931188389196
-1.2176107845857038
2.8919244501282755
9.374605123021269
9.185043199662896
2.865417178902446
-3.233252654663907
-9.15457653918949
-11.801613995981867
-8.75749021369841
-9.584906082670205
-13.300466713169984
-13.650290014443508
-10.237599476876069
-0.6112387074799367
10.38699318029415
14.861754558553544
9.960852027996955
4.49881275301916
5.902613481056213
9.460824328553736
7.607492987487498
1.159636272986867
-2.6523999528233815
-1.4566011616267005
-1.1007909432249015
-3.0339812137937576
-2.5714080913263837
-3.4313723182398097
-9.108525480541159
-14.048264248811368
-15.915574818072802
-11.902702269173869
-2.7628417505479366
4.955605737584664
7.969615621256215
7.704475857260293
7.588440943086951
9.63115832069323
13.936558912560907
12.925200959912674
9.48086188922345
12.057617876012053
16.377188153476837
15.370437438358215
6.3458533799605705
-5.635753906890755
-10.201973456504408
-3.32121163859482
6.8925329925502306
7.404959168575069
1.2214810036669452
-3.2961878123092205
-6.492005222833477
-7.160629625313363
-2.080528377548275
2.8461990831826496
-1.303051814619742
-11.037377175998483
-16.256434657356913
-11.901682164521763
-3.5951663515741594
4.106827061885043
11.53010432753239
12.269930992598052
7.676916703384964
10.353401383324394
13.768042173062536
9.448777631158524
-0.17629141714136823
-6.421093923108599
-3.710951840655418
-0.6981628947766515
-0.5087233755362192
-2.7797159252274097
-8.33265221220043
-12.206145617823605
-9.518355191404071
-9.257576699290926
-13.146906289753506
-16.83880727805519
-18.069481316846293
-7.688142430677096
2.834632301002956
1.2199449358611805
-1.1261158257643682
-1.3267375704521671
-2.8924957299428575
-1.3374008257886656
3.572503172964485
4.146646390974836
-1.1841905756157205
-1.0772513231693017
2.81180796879998
5.621368470505751
10.766677595974533
13.88395635263916
4.2506982131036715
-14.258523816119057
-24.132063835101455
-22.701382133271164
-16.303103970605992
-10.122095728311933
-6.3760134800029915
-6.415163885209133
-8.031120844401133
-11.199777124224118
-16.592804235546826
-17.63650928219658
-16.23185678484138
-12.760145238834179
-1.8521639065976254
11.557324935778135
17.535118078310244
19.029184674031022
17.77464206048642
11.795969377836656
6.470649482381619
5.015437948217181
9.325508580432459
15.42473144794055
14.380918632301496
10.231263486690784
8.97721128104943
8.239507869754306
11.294661870153217
6.10840119735625
-7.8775913456087645
-15.6662409878736
-20.65558647447158
-14.541583529183452
1.8629408461543189
19.310320205501686
29.988043267379137
24.789062821486993
7.839888768825599
-2.597799069580486
1.4481080128885202
6.305337757408767
2.401854946237185
-5.82485692667437
-9.757406770635844
-9.94143106907456
-6.246416377489367
-5.870260472255703
-12.222362639540068
-17.05402396050439
-13.865675283908935
-7.564534732768567
-8.109865854848644
-8.598695182659862
-3.377840463341298
1.6653915021694747
9.196605668602311
18.86308925827148
13.8453192117686
0.10253237833641568
-2.936620266729815
-1.6187768562997091
-2.5619387235436926
-3.129190515892832
-1.542309042089657
6.674602914769643
24.746276986710658
33.470537488809725
21.68291443678588
5.284746338648811
-1.5764565513261377
3.072754567181117
9.071414059980185
2.3872259368475564
-5.1990078552255765
-3.6463577355395955
-0.15474570065176038
2.951953458621705
-3.0958408240685116
-15.538023008621856
-20.92004687294289
-15.329961262429416
-5.660568495104547
-2.8353637452014966
-7.195015952824447
-6.456088544940593
4.09030984963894
14.38548615213524
8.98483781036914
-6.317413238653158
-11.894230420029139
-2.619737170248407
9.618539836844473
12.724711064210325
11.454737975587733
11.239309434810714
6.429686868659933
0.7750488150180692
-3.5691857726785203
-6.220595056296949
-0.2905320076655845
11.996648691146314
15.195953664152713
8.867183630952947
7.717361951693226
6.850898705065981
-1.1059901339505311
-9.425864499359513
-13.063572214475926
-14.791691954469474
-15.346817609587683
-10.145293882146373
0.7260463516912927
9.852954109039645
14.189977412645858
18.580848549273718
28.495656409771662
32.5615434628246
19.671401770170085
0.8684010103923462
-8.321232164478428
-6.243610475936391
4.584225006024793
8.086802050419791
-6.00660981484496
-17.49282034614059
-17.19019763136196
-14.211688330843197
-15.313863818179597
-19.92569771764993
-23.95834771084948
-21.306161198449963
-17.736437992500242
-13.736820726443097
-0.7929952553978978
11.878304768212994
17.26395605370443
14.009315136104696
-2.5453019895525895
-21.432460096651695
-30.7759722571555
-24.540934163564
-3.7356625484682837
11.231193790102473
8.439226426853303
-1.310127790320576
-3.826569409509114
1.5337249491188019
8.411262187983775
12.236615194019636
12.812229564582893
8.017158330789016
-1.471751181180734
-9.911662163676768
-11.756228452720304
-10.505822817138478
-10.236201837718198
3.360451970060957
25.10273365546778
34.166062860275446
25.100179566472196
5.714456591985636
-5.03295547512945
4.525649730622705
9.156865675943347
-4.955758209738418
-13.644011414877214
-14.800673873879886
-23.10624305660121
-27.747846684224136
-18.870304780468686
-9.496611799831014
1.522343377707062
14.148353818636435
18.051292057150505
10.869917369451612
5.0253534041198735
5.236458974895709
2.162898921872758
6.387384904922673
11.427050459851422
2.3882577705915424
2.711130364263352
17.912149427103024
28.432594417411224
31.951711408127125
29.433445857513895
17.429829669807884
4.3285194157356806
-4.49623247628884
-17.068850721320747
-26.85967196179309
-26.542821384133322
-31.12114469880879
-31.824095147116655
-18.663126376321518
-12.594717491370686
-12.052698734490619
-8.183572442502808
-4.531226903595975
3.614597213961641
13.713440982058383
13.27676328569833
2.354968212113667
-1.24193071781533
4.63100602924273
6.387446192782149
9.298373152611424
15.387196123581324
15.94117862124995
8.92779854628678
-1.5711104978482813
-5.369243996175629
4.432828081518121
16.045637594313682
15.613489154125629
7.018780237655653
-2.1985437252679167
-18.61757675054688
-34.63819389492749
-46.416662633679366
-49.088461895221585
-31.128564138619627
-3.56696025314038
20.98524016475431
34.613919672704434
32.13636529750812
19.569343537935293
8.46462860689197
0.659288211301949
-3.776814005451443
0.8757878889739663
14.682985614300865
23.7383860730037
25.202223443200168
24.433728594522655
22.369205172150547
19.00554460937287
10.602360891043435
-11.06648669745705
-26.714479244970345
-17.040243076098125
-2.5628151139426376
-3.8045417699383344
-11.721773434353203
-9.856058033907534
-3.6909545273253292
-0.07498983294244337
-3.206450694190056
-18.015632490034765
-27.32631913343653
-18.079096514807148
-5.348095972131842
1.1727363866815441
4.079153980503793
11.947882064496037
24.736106387137962
30.9313645880045
27.777033390080234
15.868643765931933
-1.6771830780159476
-15.62824696003635
-14.024907990557624
-10.75761078785425
-13.10389362170145
-10.110805889937602
-5.3004037376897495
3.605724199912438
13.822882712933932
8.185055439939799
-5.9645103230595
-11.018076076656472
-8.432635228323049
-1.682319289825713
1.696937952511774
-3.72028544124768
-9.54951972242428
-5.955134122859332
5.180498534467156
19.673635677658364
40.4247705913776
46.23942582617442
22.831762125164325
1.8995785498830438
-7.6002193772397915
-3.2362842161547807
15.5789376093591
31.653942491741326
37.309980630317376
24.68380678134533
4.75392418160619
-9.348526282300687
-16.16838068887757
-14.429629397890812
-9.06587422716867
-3.6425501970084224
-3.8173330637858514
-13.834108711154983
-40.06864632927971
-58.368430127918685
-40.99956143135029
-7.140293754118481
15.230361446077627
16.395090224969618
20.691669164431506
42.805086145215625
37.02101087612169
1.0691624991847186
-19.054681061815863
-11.23391623327265
12.249909067925422
33.38150491107047
33.24601801559579
0.6685107868580675
-31.078632108236974
-38.17175948508232
-26.77221553222037
-2.678814372444091
23.698839310195954
31.482862179299772
13.984635625890615
-4.961361805918356
-13.733248741045642
-13.893026714525732
-29.597644807566557
-46.81672931716495
-25.738962195206994
0.6563768744373675
16.704861278179326
43.98348343767847
55.82213507879387
41.76015413024288
29.88482976804756
6.380914765889712
-28.254500272728663
-48.18456871726902
-49.05706158937958
-39.19933551394985
-12.061716100235921
6.14199874928004
-3.0695656879004893
8.677683343305997
36.302440046289675
32.03834726693603
14.746829335042476
7.9939636343437614
6.789333051161124
24.388475504036514
42.27191637347892
36.61279260167498
17.48818826377654
3.2332534213371615
6.092108400717795
2.4175179084358187
-23.40296092112026
-35.313075935481926
-34.79889503762596
-46.9643343394731
-51.16628709047565
-29.758316614903645
-16.650802140907857
-2.911277893481957
6.505872466318847
8.66544214345062
-13.673880321765333
-53.216563088354754
-65.14550500259757
-53.95057036111382
1.817378999045975
70.63041476027045
94.21545179808771
49.95930626189839
-8.16821454822243
-70.20813764841336
-87.52339345260093
-51.06848925676303
8.837004501114645
106.55910621623727
163.16560350463936
129.95450344847129
74.24121274590013
20.466081423709312
-14.75971807690728
-14.851370626592967
-59.39242906693189
-87.08647110675669
-80.43719661967717
-79.16068423137872
-43.994070837481715
8.615689316552825
7.044031448273101
-12.729760848077445
-0.052880236903730525
7.380886038388065
13.969867739973523
12.84695079320259
1.5211340188907665
14.60567518426597
23.690780220383292
14.184256159378283
40.260905333980595
41.84074315187985
-10.050533224261319
-36.91750898664814
-38.62633136226353
-19.478420316840147
22.347674813404506
30.284433344365453
0.8311957323015788
-5.996515161129762
-0.44281052292192996
-20.920681757818688
-41.934541052746056
-49.318579338317605
-37.88997451654662
-12.465130328488744
17.952178458525747
47.66479432492542
56.99325543053546
34.975185713891086
9.461212603846292
4.659192211976217
16.393547737910055
27.449090323595634
32.613023664829235
40.34973905267674
36.923462209112316
22.023790003314012
20.569900751958127
29.710156374774034
15.715275730966251
-5.452072740573059
-15.937534743043289
-23.317226295809412
-34.72528824754518
-29.456595331069778
-8.458250573639395
-3.6721159754236923
-15.764640810262904
-34.24828414511083
-45.73040719005537
-44.26416972137332
-42.356067957963276
-51.69505810844962
-56.19821448425631
-56.69426660803791
-50.98459918185839
-25.919877765493293
3.2159286518642247
-4.584345982524212
-26.234555712346243
-5.511377039192868
10.665629524616367
10.697575902801843
40.11637472488835
75.8495724736736
74.80605379458999
56.03462405481703
42.11676695749929
31.13927131888768
19.588670833329846
13.214239072034127
11.073106404146507
7.874902373247871
-6.099484210653744
-35.113406049957746
-56.91894979722711
-62.954273392497946
-61.26962472919961
-72.64361736138024
-72.73527482473521
-45.173523556755015
-21.94124613435145
-19.550631879968968
-26.269544621253917
-31.82964954003865
-31.79158953621545
-16.16721399157444
23.69490095909208
51.31477146332299
68.86965952671407
95.81879012052809
86.01476401596761
67.8480191352319
49.45274869238188
-1.1319228214386374
-45.8127909857639
-59.16797965663357
-51.44014777910775
-40.15375621281253
-30.84884634227259
-32.26569208315432
-38.879137657770556
-37.59131924513112
-36.80475659121481
-46.4578997767263
-45.99043381613174
-20.998075827821797
-1.0665220376066613
10.923135895028002
9.608460478843758
8.083801549950294
26.161421321329417
45.689376046552276
57.16812187421723
67.32272003266198
61.98383189526804
53.19677895059105
50.906046059287284
38.1237235713022
33.33122555947237
40.34616244436919
43.37819986114302
25.602877939790368
-8.564597617619283
-24.37364157956075
-21.69642653602054
-4.977713520096261
14.185653897016309
8.0906687329008
-1.2161239518770957
-1.0687989000188907
0.33414268437321365
-4.1269389909112615
-21.57121481738035
-31.362973574311628
-10.001439145040829
7.240563902965511
-0.5516050449090812
14.346699243920122
46.32794636149893
39.94175324693824
8.2835358791432
-11.397074983182913
-6.352881989935651
1.5102336364957811
-4.424444660506423
-7.512021861734502
-0.8415502217152184
9.151976550944719
10.669451717517834
9.177347621408325
13.953193662676137
11.291087634224576
5.320247457677712
-3.1354463922504525
-15.692302210696665
-17.285714619658286
-4.091503263905634
12.253161929924541
27.399854925326945
23.5203593382178
-5.739867521235356
-17.132748530928243
-4.9332802176516335
-14.442502146434755
-36.110880759621146
-48.60809702209548
-54.48615239379821
-38.51474697219859
-33.04988376503255
-31.532004876132355
-27.246141320913
-20.52764771769835
-16.451745801133317
-29.358282046349412
-33.31104966656702
-29.986924375300482
-7.680089904655043
8.294825501882874
-1.476269130139618
-9.082500252039447
-2.1754939979338177
9.976950305348637
6.052548920075346
-11.898601213159633
-20.676686320474435
-12.204309953564852
-21.688010639372585
-37.48565559917422
-26.321327231845824
-3.515660371188084
23.720315223465768
47.47186218765521
39.14454247870965
26.39128148001147
17.177277634727055
-1.874733104382865
-7.09413505455605
4.323280447754669
26.025134700732462
55.706054021437886
69.72963364065545
58.91546833119034
42.21648784296257
25.180791770011087
16.844709418007398
23.486993773044357
30.557393433817005
13.632962265439149
-5.150277414017456
0.7408284198650252
-0.5287479989482062
0.3006644553371559
28.223557431146574
51.62097341718029
49.451829642405535
33.89783086982852
25.46647681541661
20.449498190937028
22.092520025984843
35.423120552495256
39.002382385515205
33.479634666225934
31.346949923589904
28.750916967760208
37.235390851117614
35.93383304294382
31.39307521632904
35.80774430652418
24.029397569723894
-2.430815002258077
-28.73707074154916
-47.644984948376326
-38.595570598637735
-5.310164044597982
18.309345111617414
11.309785507969805
-0.1354072766791312
-19.316269469682297
-32.309442716398166
-7.371892381926683
8.339776695665703
-6.95223682498452
-5.878355215979815
12.70750665564119
-19.21716823596113
-26.84421218112819
-0.06707425125679013
-5.484849916880867
-11.990312576839829
-9.584974239403625
-30.950576558359444
-62.47640023915495
-50.89032642381797
-39.885307406207296
-37.2565945425791
-22.914596452452034
-9.08520281704633
-7.083170499956638
-12.630923850694524
-12.830107651069179
-9.43910919530552
9.914242445704218
14.06452641401724
19.116736694241844
30.115583423109033
30.292841430232563
24.295503560153865
16.97927120118317
7.823028304311298
-2.0456049152130027
-5.735358368224569
-10.08351469271358
