AAD_Filtered_TADAS_FILE
AAD_BASELINE_CORRECTION: BASELINE REMOVED
AAD_FILTER_TYPE: BUTTERWORTH
AAD_FILTER_ORDER: 1
AAD_LOW_CUT_FREQUENCY_HZ: 0.025
AAD_HIGH_CUT_FREQUENCY_HZ: 40.0
EVENT_NAME: 202302060117
EVENT_ID: 13194
EVENT_DATE_YYYYMMDD: 2023/02/06
EVENT_TIME_HHMMSS: 01:17:32.00000
EVENT_LATITUDE_DEGREE: 37.288
EVENT_LONGITUDE_DEGREE: 37.043
EVENT_DEPTH_KM: 8.6
HYPOCENTER_REFERENCE: AFAD
MAGNITUDE_W: 7.7
MAGNITUDE_W_REFERENCE: AFAD
MAGNITUDE_L: 
MAGNITUDE_L_REFERENCE: 
FOCAL_MECHANISM: 
NETWORK: TK
STATION_CODE: 0213
STATION_NAME: 
STATION_LATITUDE_DEGREE: 37.79667
STATION_LONGITUDE_DEGREE: 37.92957
STATION_ELEVATION_M: 602.0
LOCATION: Kahramanmaras_Pazarck_Turkiye
SENSOR_DEPTH_M: 
VS30_M/S: None
SITE_CLASSIFICATION_EC8: unknown
MORPHOLOGIC_CLASSIFICATION: 
EPICENTRAL_DISTANCE_KM: 96.48
EARTHQUAKE_BACKAZIMUTH_DEGREE: 
DATE_TIME_FIRST_SAMPLE_YYYYMMDD_HHMMSS: 2023/02/06 01:17:26.1896220
DATE_TIME_FIRST_SAMPLE_PRECISION: millisecond
SAMPLING_INTERVAL_S: 0.01
NDATA: 4104
DURATION_S: 
STREAM: HNZ
UNITS: cm/s^2
INSTRUMENT: sensor = ACEBOX/SARA | digitizer = 
INSTRUMENT_ANALOG/DIGITAL: 
INSTRUMENTAL_FREQUENCY_HZ: 
INSTRUMENTAL_DAMPING: 
FULL_SCALE_G: 
N_BIT_DIGITAL_CONVERTER: 
PGA_CM/S^2: 291.291
TIME_PGA_S: 
BASELINE_CORRECTION: BASELINE REMOVED
FILTER_TYPE: BUTTERWORTH
FILTER_ORDER: 
LOW_CUT_FREQUENCY_HZ: 
HIGH_CUT_FREQUENCY_HZ: 
LATE/NORMAL_TRIGGERED: 
DATABASE_VERSION: 
HEADER_FORMAT: DYNA 1.2
DATA_TYPE: Acceleration
PROCESSING: Automatic Paolucci et al., 2011
DATA_TIMESTAMP_YYYYMMDD_HHMMSS: 
DATA_LICENSE: U (unknown license)
DATA_CITATION: Turkish Accelerometric Archive v 1.0 - Disaster And Emergency Management Presidency, Earthquake Department
DATA_CREATOR: AFAD
ORIGINAL_DATA_MEDIATOR_CITATION: : AFAD - Disaster And Emergency Management Presidency
ORIGINAL_DATA_MEDIATOR: AFAD PROCESS SERVICE
ORIGINAL_DATA_CREATOR_CITATION: AFAD PROCESS SERVICE
ORIGINAL_DATA_CREATOR: network: TK
USER1: GuestUser
USER2: 
USER3: 
USER4: 
[...]
-11.845502892877697
-5.990610399534513
8.055846973492178
8.51676268056658
-0.6402163368232072
-1.8093213809788982
6.370146393972436
8.544007807268374
2.2887877865952815
-1.596626213193316
0.9329466340899252
8.155930528986834
8.689113193799955
0.3319106564419735
-3.3267446539425647
-1.3432569724378483
2.3262447498787626
3.904926998264047
-2.3325380228527215
-6.099465415032287
1.2654787410212471
6.235210298836224
-0.19310444695679832
-2.975035252995466
6.607902804927077
13.651119430003954
10.125795414516375
1.677134669184748
-6.858958393518105
-8.266117049256087
-1.1147029422112071
2.604514945321669
-0.37342684857961234
2.295389431161932
6.762107819951344
-1.3962551294714236
-11.211885862176072
-7.296158709347806
4.829813924433311
14.909426536149766
15.94191522012661
10.529795941662002
11.91763384434333
20.916735855321505
26.152810890553233
25.694013329986227
19.080168316704437
5.47817515069552
-0.8991293433533694
4.282076178972408
1.9983073274970353
-13.165449317819085
-24.57931408881959
-22.969917758830025
-16.445833491872435
-10.608862741592816
-2.711113688802766
4.805391103089971
10.623753061017597
15.707424505821027
18.52387546524718
18.594661689494945
12.324376178523595
4.74054496923916
3.705470054928415
2.1251276184570216
-2.784510082155609
-8.87005221556436
-16.35563961648573
-18.77111010450884
-13.461654921719221
-7.923846165156562
-9.735594248509262
-14.310224292517585
-14.337082415179873
-13.63126867813671
-13.10379885326865
-12.601156733830303
-12.5399363133834
-5.511974319541804
6.130646140650134
13.594753817551029
18.26667951385029
23.436983886781608
26.491192216954943
23.683705738225047
19.57026674390728
17.966285290738057
15.870108501497354
13.27602608475392
5.899038146066037
-8.587363269010865
-18.111489614200732
-11.643150138800914
6.439831533971181
19.19016470014304
19.52762292164118
12.21520377249125
3.75293547219157
7.672017290101115
13.351324738862331
-1.8577782684537654
-21.896593162255048
-27.639932605430378
-21.40432974248034
-12.27031143828435
-10.420269999566113
-8.661352444485436
-1.0313281303715236
9.033621898101604
21.601979313208307
25.99104269015566
18.451191767379857
5.701606308686761
-10.6734893499677
-19.423894967961527
-16.085096017831106
-13.630330502743702
-15.093206052272707
-10.33863064825656
3.5273028337296477
15.185702468361672
16.61203412142303
9.702232963975048
1.97333254216281
2.3656803179419255
4.079583543689984
-0.8889743520668261
-3.554755912374194
-1.6843569859657543
-2.150774786965456
-3.033888337181913
-1.293591256918734
-1.1350530815671227
0.30362539781562714
8.012468233431543
9.211297680492528
-3.4453480039198623
-15.133542469670115
-11.20784032675637
1.89291363929063
4.320757993248352
-0.11824945925422048
1.0819159936477527
3.3369705430054073
7.932073588294283
8.294017787201815
-1.6672380929341661
-6.682987079787812
-6.592142848635926
-6.498007014157213
-3.386726717398903
-3.832782637662678
-7.677826867200707
-8.33586118611902
-1.6141182131401661
7.372656639426031
3.9874356766608825
-5.503200359994164
-10.047154470370826
-12.796242438039805
-11.100002429810507
-11.118018858042248
-14.935985175835706
-6.802039589128344
4.996267195887225
7.525188869678106
12.972380009938064
24.572497108574346
30.869120492065058
27.83092732811308
23.754069068579373
20.69543903783808
10.397246823584226
0.7648424444281389
-2.749859799475871
-11.321219164386438
-18.843440384910323
-16.674106901954072
-12.022376556946456
-7.125899791234422
-3.4062851128765526
-1.2357319709496362
2.5806431813221313
2.3423991140820286
-1.3965410403198633
-0.7433465740915124
2.9349593965018497
5.950365540790718
1.5456846639518325
-6.053353342878017
4.839209655807125
28.990076288785648
42.04681653737653
42.84648676078791
41.18922209579244
45.26010215221825
50.500643959661495
41.764640769323734
25.501528043583644
12.889806620857986
3.1831763804386797
-4.314912547808381
-16.039851411939555
-27.75284415177936
-32.53491905616563
-30.51757814218699
-10.02658010084044
10.871470764441915
3.7788975294251195
-8.11395855803257
-2.212522670576867
15.317771892534488
30.57579949692033
26.96262630501385
13.417530846607303
11.050503055375358
14.301345352390797
11.961812284756881
12.899959737826793
19.49887840804072
17.870396177922064
7.565982750514919
-1.820432547431917
-2.95952516684069
2.2269317615008086
0.9646000003297456
-1.201746694935037
-0.2569881653535908
-7.7772420733528165
-10.901544098563084
-1.9008011274983814
5.8380961065702355
10.621581867333937
6.426658074730937
-4.638730864605984
-5.438604837459732
7.200242975718174
26.221094978614957
25.143504394358477
-3.3464720560357546
-20.67970553028344
-8.3288588695199
24.81874976774443
37.531207314226414
-0.23535426322075395
-28.19157622624538
-18.18261075116821
-7.489152521936744
1.4525512348505396
-4.29051722965471
-29.512161883575235
-35.722092828160946
-13.271320129853539
11.21396815549656
12.008755690120276
-8.839263503446062
-37.75236381260832
-56.01589256655555
-42.44726185829007
-20.99565637787211
-5.133301061787276
12.659119744299225
15.680289364334913
19.345458764221373
29.518073938828692
35.983627083855616
55.54997020580343
68.4472080744823
60.68864162518303
43.315938319888225
10.615644436847852
-9.975617662774381
19.521938491822695
67.79700180095362
72.43856354674297
49.99014224566727
36.30775502033007
25.46910160156541
41.86055425585849
65.52080676793803
45.1257409898036
-3.15340767301672
-51.218737394974575
-76.98011995795571
-90.30359193801392
-109.4802810391053
-121.40317045303102
-113.10956952945972
-66.827136017129
-37.05176557029761
-72.26972589006533
-102.82764725593545
-96.2468918553696
-68.73916277855109
-37.278427115618214
-32.97342270179624
-35.30619163662906
-19.423844117551074
10.121564937426509
56.39868642596536
97.07717945162058
99.76711911139694
63.48641534395232
12.758762078659368
2.432144989426332
45.53717575761093
55.34746986089871
13.366339662483275
-2.996758309598752
6.677266662931685
21.702073320240792
41.02420942868987
36.19946491048971
19.656944032156066
0.9591985034900884
-33.253204108920364
-49.15841004337412
-40.686713322642596
-41.11019236761601
-47.02276856588052
-53.46339046953301
-59.011470673870996
-37.34150132592104
-6.188565943622112
-18.203893053711344
-46.1967249837937
-46.55240562176058
-54.12534540310638
-69.69635897309172
-52.536930125111255
-29.145421113558548
-33.90966770786491
-49.65795690962022
-55.696669966406795
-65.5117921573043
-86.3419840962976
-79.22865301245379
-53.637558185380925
-50.66090257273796
-37.83104978522136
-9.335786630873402
0.2758236987322487
1.8720658121910247
9.973852330106931
28.378076848109988
30.672053084020583
2.6624077117595326
3.420307847373378
27.590331873363915
15.874244277938447
2.0012488548778156
25.522821822523166
52.039001669019704
62.846631446649376
72.7117261814266
61.87548155169538
37.28214999423044
45.25028448249994
34.37920219788996
-35.81716334460348
-79.86769986566377
-59.46467950476335
-17.07465841705921
19.8728598949454
31.781239382163278
16.19314452940829
27.672259425695042
91.57472649752239
117.19929912190449
66.22527667441592
15.879037999872736
-1.0019909632578736
3.133130822362994
-0.6935525912989944
-26.74382638660021
-32.424159189520424
-5.97205065986833
35.22904127332598
72.22691547971218
73.30467723159349
52.327738345216936
33.772043755177
10.779513591408248
-12.737163595869912
-24.929864535026983
-26.297501887986584
-16.601084878110964
9.388060126365422
24.575775410330213
16.975097827236073
41.51911015303231
90.32284790369002
89.85135098009545
53.91715384167378
27.63443164009576
-0.585827442024174
-34.1148619224187
-59.20895504720586
-79.69388634321454
-81.51195918543912
-51.40879143771842
-31.02657239163279
-41.014497921735355
-47.047513915365656
-40.44091761487834
-22.636221625840903
2.593733133717899
15.19597236865916
26.13063748550079
20.675699246190547
-23.058677634252813
-47.75158641733167
-39.4796093956282
-43.587732490393805
-50.39548567219322
-45.68370253729244
-35.25685702231412
-21.91905785482964
-16.64409474375179
-8.066302800275027
9.702845271179461
10.132898834577503
-11.053743590175351
-32.033389699438914
-25.3016851188527
-2.2541008642021123
-24.76610788594209
-51.675328591604924
12.980415058231111
97.92579749501347
111.49098273327684
84.62129437773355
34.3163033123172
-14.696500473376028
-9.876657661457571
11.072760374612919
-21.453849910186076
-85.60307779628346
-118.10637403738676
-107.69025225289545
-74.41665166314775
-42.25462324486765
-34.43287202196886
-29.704574910083245
4.041113293572891
43.83134968557929
42.202925747171186
9.359831189062703
10.6387063186063
43.31697347066138
57.40237991939417
65.41068855646324
73.24550135471817
51.072775633704275
4.786184294183426
-26.654842045373623
-15.36290033843582
14.299559696368636
13.918754801549284
-16.34557746584324
-21.059113517417632
27.099783041796154
69.87273887917821
66.04361776962341
53.21239001240822
56.98663675514849
54.070200486861125
23.277261322720733
-17.944134754609422
-39.298749469635936
-27.95650018399153
-3.7383360539213966
6.544031838246337
21.78719969474623
31.422117373350268
5.381961455977009
-24.713475176853926
-45.85091300326465
-42.37196576664966
-13.420942268809581
-15.041431192314374
-30.95947248944133
-41.157657240707636
-46.80409785772206
-14.304668484863512
19.843808719411086
19.203759638643312
-10.489120279533891
-47.009219597443774
-52.607104569037524
-57.78644255771067
-52.836716516876024
-17.53719212795122
-21.264864747176578
-40.04196498228425
-17.168625455884744
19.495367476978757
39.100803603992134
33.05268226117475
29.82796625815846
32.45464545610261
31.223894213181744
44.900255346868946
47.495900065975626
35.59152057677816
41.592131715046136
67.12726305005866
86.50743164044785
63.138871015269515
49.75881071346988
81.251813983873
73.7422669296864
35.87149175024773
28.684376957145904
41.17035918855728
62.17102121174805
69.57075695872544
53.01587318778947
12.050935699927441
-38.18944529036655
-37.48663242412255
-2.113632218203883
30.668066859739245
56.8888254714891
32.643570442974514
-9.562862190208984
-1.5312261747012545
40.861091984867436
60.77861724006809
19.672693037823382
-22.230036074048087
-13.694854216120007
22.394753582565556
63.08204788050181
45.116282592418706
-21.199821950806893
-45.07593317065249
-27.93121496352334
-11.999943716650877
-8.520957869956415
-4.623245520412643
-6.65531940530204
-18.025735404781678
-4.766943402681529
21.038756203930486
43.80726202669333
52.723883570307756
22.09820175399196
-35.39578996429194
-90.64664047570525
-55.30510337595805
46.45615119877416
51.63325657494986
3.6663332267119055
-11.013448837375147
-23.10858810561002
-21.89523785957996
-19.96038730732912
-21.351354014058977
-36.66209219623188
-81.23833240039812
-57.10486738128425
21.745603879297462
34.81911998822121
11.080661076155238
-3.010723208185845
-32.881589720142706
-61.91613764696224
-54.36235595676446
-30.09203704650818
-13.216507978707412
9.34403641273096
21.210021637585168
8.15849478439672
6.053668331533589
34.185771620209486
65.26871996733045
58.85661257277247
44.486964223339626
71.94702227895976
85.5772789399455
70.05658209086833
86.89544437179521
96.89049102397337
60.10124200684427
12.95193097603895
-14.951963231721479
-1.274531790888375
-7.00057416685844
-77.49974948802729
-94.37254119525876
-26.446085175780564
14.78735390868489
18.128239926955526
17.903160107143425
1.3419925405764137
27.852191560415793
106.93494043773272
73.88768647857052
-12.281368299228394
38.61385128473716
70.26294376574731
40.505152479534964
114.36409320381465
155.74559731551474
84.57866893048346
33.76373581667339
26.42158753455954
28.768100085115435
10.992813789058886
-11.306792186689416
-17.10171146149954
-8.176588627773025
25.349695990517834
11.471374533141766
-15.979345198054373
8.11023812426441
-27.825820763340747
-55.651086379137375
1.9518473061386004
2.338239287709228
-35.519716941134114
-83.63909859143823
-159.4306563357965
-110.92092119187484
16.81760930416073
48.35761184150702
37.0526474817439
2.8683800298615045
-50.86708107113894
12.704470131176654
111.82011767534776
98.80143548595484
93.21058669877733
142.50794467130703
146.70252114782684
77.17651397223894
7.388961891166029
45.85911404565452
102.37249632175076
73.20001418024077
40.91878458498696
-0.6635049560510069
-34.86822734013005
14.506648503032048
50.423705918332715
22.624741216189033
-4.122599374658991
-74.32387214761322
-143.69374123601983
-38.18603763446445
74.36536437408331
-0.6968882628019857
-63.97167501397862
-88.93948513289654
-153.67451726870962
-143.21997366100004
-88.95972624894056
-74.75428783230574
-96.22786036133616
-92.23412800264747
-47.384746292558766
-52.62942086080591
-70.32076366095787
-62.53668949001503
-53.827899656758774
-110.37883970937051
-264.175612026535
-228.32240323206395
18.016140929118112
178.96289590309843
187.1756089477776
-10.225008888591095
-146.31410761177426
10.493744417708042
52.14848788740507
-81.41042299393702
-95.76770110111893
-47.36193275907863
-41.25399784363002
-94.9576255018099
-136.98695887355814
-77.88772393979548
-20.072704823135037
-55.59873556452156
-102.8367222155509
-94.80787909012074
-70.4778678180874
-45.65751520350417
-28.390870139571888
-27.296570628258213
-5.6344866477345406
14.35506214857186
28.96226909837574
28.092828853945218
-35.93481152265497
-55.9702017834038
-24.160642455591216
-67.15261865770515
-132.24383165119835
-164.9294760833717
-149.5178613445964
-117.14431208694295
-193.54671292226396
-237.59352205913467
-120.44350941264845
-77.17503349793989
-143.82275982747646
-150.0672459334202
-134.82004484412911
-120.49574714788527
-56.66307415570617
-24.539591939112974
-58.466192444999656
-24.95820405389983
74.24962902361396
50.92159408230637
-74.25767543711703
-94.29257589578812
-3.2261113478267034
49.32958541121439
45.547869876129845
40.64328543386064
11.510717249435316
-39.003981087414175
-107.17450321556319
-178.61392103727047
-116.98595289020798
45.35811341798992
106.77422552030045
49.02992063718163
-15.351969628348229
-9.255748933886219
-5.404738083421668
-51.306563462455095
-34.58701242374163
-25.880938463026563
-87.17044856741718
-80.30595133022992
-43.02109963047836
-22.766088324560855
20.41820116838562
15.16087758901146
-31.684629395474754
-63.435572332273814
-72.48994409816984
-34.53763999662096
8.635138508445015
0.4706763887097803
-23.131761518759365
4.556949575474408
32.95813915876937
1.9830886197374635
14.044236385350704
34.64995046457651
-21.31781850268171
-26.603141229089314
-26.681186929156674
-88.3408664783743
-63.876315852531725
-6.407080250499714
-1.2144342544001105
17.322404837900923
-1.1808641266649413
-72.87411191647644
-93.65296694492822
-43.922903569257684
9.147120577558876
41.162172689136014
62.638420772337135
35.56693106472637
-9.20013123813071
9.063793363175682
43.63463305599073
47.051746549704546
44.54231290784022
37.27725184415694
8.126199530731556
-28.110177670800535
-9.494824934525232
57.92148975336434
103.23132159927748
102.62059814711571
51.57696859594456
2.8152047284113144
18.07916805188407
64.81398061437666
90.31497713068316
75.62995556843775
69.08199300969974
79.5822312648218
58.995022975265506
58.439819367572625
57.52438709049524
24.563934188748643
68.99086630016708
141.89524990688912
169.70030835596071
192.04609441225833
147.43967217005456
75.85703475094793
43.91106555028755
-29.992994094236742
-63.21410498339279
38.769197859867155
128.11276650353426
97.69173876896912
29.531722233462787
16.35259774600418
20.93965546155474
18.64097189172972
20.832340125804457
-44.07811757515327
-102.40417106411127
-40.3083634865116
8.92520243248271
0.5937831786836463
38.803339422416336
58.852466582109386
-19.56242515823769
-88.2731627106774
-56.41875741838067
4.313620938235114
38.03422107794262
24.03507874040841
-53.9533210674112
-97.71194248650748
-70.64897652690189
-27.26769967248503
21.696171106091057
20.675708770233456
-14.953192480971087
-9.762294478000374
0.770000181292281
-5.627223674376358
8.416400564463133
64.02757335640865
90.21814185890673
24.4266231709873
-18.451714196210034
15.620850817938512
23.553886302395895
-23.45907626518831
-50.88950990387546
-32.355455404713155
-37.665475423313005
-37.505140304104835
5.21851347617655
3.595237815770231
15.380078829272874
80.15050401605721
106.09301109548085
98.38575530309059
42.90745325953309
24.94306384528524
115.74772138915174
81.50822656701894
-35.25360225523204
34.66231199950142
137.23822287297443
116.87817959907115
71.16888347790027
-28.502219151709742
-147.7876099176837
-108.44798036733695
33.906214683572024
123.8063148931711
155.11125784669684
159.72039189731805
181.50878043446124
182.86124948973477
71.55654357229807
-53.99538936642689
-59.63392314554124
17.024467065681414
63.55986112863288
40.97130750013283
8.272750698911615
-22.96704404705285
-34.19454855345932
-20.9980541425048
-99.52503062769294
-154.39528269200844
-8.711352635198233
98.1013157405828
8.89783503214636
-85.1975494668086
-90.94635511389097
-42.31993185150073
12.995310066802118
17.0628012238128
4.41866314791134
13.70366647496352
-16.88698329180793
-84.37599635921686
-86.95464183253586
-29.179324151239545
53.13716521649597
168.3238377113803
174.58741823753252
30.75691305827578
-36.88243035645656
22.67617928627806
54.26527555131046
-15.933626720181799
-125.74806484057073
-134.32885256578422
-31.76902678915496
66.9151225197905
92.06359182825287
10.99985959343987
-87.99710236981909
-74.26119037247362
-8.767859546753245
23.401836352823494
32.75828373851822
11.970142120445125
11.732240107507579
48.14809598166248
42.67677422552644
55.980906316990804
114.62154044196299
109.4251322534414
58.26922198118901
6.321883562896783
-14.347786309356719
43.72960852604001
70.11234801641473
-21.61965725033228
-114.68558167922731
-94.74298569239691
-30.469127402998303
-27.586369791608156
-16.733387282610046
11.519999249854802
-47.2062259793617
-89.55161987257283
-44.55643514087869
-51.72678040494758
-87.51162696359357
-64.5909537751054
-64.40017484700411
-68.61704452210498
-20.272406582625845
-28.27975560411065
-80.41987704700871
-51.89579257141019
21.805559606692885
59.73597762325764
46.00207606190351
14.1834365421261
-6.502587537852916
-35.7540119648582
-21.41757335292562
58.6964024183056
