AAD_Filtered_TADAS_FILE
AAD_BASELINE_CORRECTION: BASELINE REMOVED
AAD_FILTER_TYPE: BUTTERWORTH
AAD_FILTER_ORDER: 1
AAD_LOW_CUT_FREQUENCY_HZ: 0.025
AAD_HIGH_CUT_FREQUENCY_HZ: 40.0
EVENT_NAME: 202302060117
EVENT_ID: 13194
EVENT_DATE_YYYYMMDD: 2023/02/06
EVENT_TIME_HHMMSS: 01:17:32.00000
EVENT_LATITUDE_DEGREE: 37.288
EVENT_LONGITUDE_DEGREE: 37.043
EVENT_DEPTH_KM: 8.6
HYPOCENTER_REFERENCE: AFAD
MAGNITUDE_W: 7.7
MAGNITUDE_W_REFERENCE: AFAD
MAGNITUDE_L: 
MAGNITUDE_L_REFERENCE: 
FOCAL_MECHANISM: 
NETWORK: TK
STATION_CODE: 6306
STATION_NAME: 
STATION_LATITUDE_DEGREE: 36.727695
STATION_LONGITUDE_DEGREE: 38.947
STATION_ELEVATION_M: 362.0
LOCATION: Kahramanmaras_Pazarck_Turkiye
SENSOR_DEPTH_M: 
VS30_M/S: None
SITE_CLASSIFICATION_EC8: unknown
MORPHOLOGIC_CLASSIFICATION: 
EPICENTRAL_DISTANCE_KM: 180.18
EARTHQUAKE_BACKAZIMUTH_DEGREE: 
DATE_TIME_FIRST_SAMPLE_YYYYMMDD_HHMMSS: 2023/02/06 01:17:43.0781870
DATE_TIME_FIRST_SAMPLE_PRECISION: millisecond
SAMPLING_INTERVAL_S: 0.005
NDATA: 27001
DURATION_S: 
STREAM: HNN
UNITS: cm/s^2
INSTRUMENT: sensor = GEO-A200,/GEObit | digitizer = 
INSTRUMENT_ANALOG/DIGITAL: 
INSTRUMENTAL_FREQUENCY_HZ: 
INSTRUMENTAL_DAMPING: 
FULL_SCALE_G: 
N_BIT_DIGITAL_CONVERTER: 
PGA_CM/S^2: 65.897
TIME_PGA_S: 
BASELINE_CORRECTION: BASELINE REMOVED
FILTER_TYPE: BUTTERWORTH
FILTER_ORDER: 
LOW_CUT_FREQUENCY_HZ: 
HIGH_CUT_FREQUENCY_HZ: 
LATE/NORMAL_TRIGGERED: 
DATABASE_VERSION: 
HEADER_FORMAT: DYNA 1.2
DATA_TYPE: Acceleration
PROCESSING: Automatic Paolucci et al., 2011
DATA_TIMESTAMP_YYYYMMDD_HHMMSS: 
DATA_LICENSE: U (unknown license)
DATA_CITATION: Turkish Accelerometric Archive v 1.0 - Disaster And Emergency Management Presidency, Earthquake Department
DATA_CREATOR: AFAD
ORIGINAL_DATA_MEDIATOR_CITATION: : AFAD - Disaster And Emergency Management Presidency
ORIGINAL_DATA_MEDIATOR: AFAD PROCESS SERVICE
ORIGINAL_DATA_CREATOR_CITATION: AFAD PROCESS SERVICE
ORIGINAL_DATA_CREATOR: network: TK
USER1: GuestUser
USER2: 
USER3: 
USER4: 
[...]
3.7561191361409287
3.2935305285810648
3.0020855245277387
2.9888431694389377
3.1511130882502045
3.237949118191808
2.9500975087664796
2.2220423794824957
0.9491100535312368
-0.9631553955985581
-3.2748534117126695
-5.869273502722569
-8.122885592809219
-9.707065003081604
-10.412120060626428
-9.646269339851212
-7.837352033981609
-5.665737365308929
-3.9850449200756812
-3.392743388250126
-3.5653726839785707
-4.056201493615583
-4.29793077077354
-4.046942771479173
-3.473928603446561
-2.8955708029288414
-2.8582633425454307
-3.63367446557508
-5.37399981355602
-8.324503115388103
-12.19777983691221
-16.537621976792263
-20.916504749300554
-24.582766301435104
-27.04014457565891
-28.23224105343988
-28.448741184359246
-28.18210700286563
-27.37588492333844
-25.77702191549315
-23.35112419222687
-20.049633897546663
-16.464159643092188
-13.3609858754576
-11.182962678730986
-10.323465149010497
-10.588733497940419
-11.53394530594087
-12.689588077673443
-13.223021742349786
-12.53458866244531
-10.815294322371061
-8.69332292805564
-6.702672420750847
-5.241078750429634
-4.334440650999308
-3.767621863288131
-3.3626290673533954
-2.8029672755060413
-2.1185520316113906
-1.6002356779862472
-1.3609170745322499
-1.2137854962153776
-0.6543345049582034
0.5943746615635596
2.3760249620846796
4.396843293644909
6.698406222566921
9.674944415783852
13.86785052451285
19.514754803268904
26.232474524910128
33.12733557744354
39.07126334933155
43.380520730788824
45.82302569925675
46.53205557610361
45.64406060352061
43.27384503195593
39.84028748211544
35.871038244078576
31.961479220416237
28.3841901008249
25.353835215034326
22.977116444908095
21.12932786591052
19.65120731179899
18.108812768141803
16.262542460332146
14.436678368652146
13.229266341572535
13.329086840578501
15.273624849323923
18.697281609234093
23.108072069887157
27.69768248449707
31.26852318981947
33.619480936227795
34.25092787232552
33.375739140695636
32.15208727639608
31.18791436053355
31.52650383421115
33.22622718646494
35.56113140197654
38.065563740213136
39.92401751580938
40.81956664191893
40.881568220794726
39.98406643194474
37.76225643482423
34.75655426132705
31.556083748734814
28.054729017617248
24.57795763587412
20.80234290228669
16.436008770044737
11.800670674927831
7.206578002243131
3.3551049090347203
0.5185344620969443
-1.1600755541792864
-1.7425472384434182
-1.555351517745924
-0.5443810017191493
0.9022114715957477
2.311711881996207
3.3586941346655133
3.7052183451546856
3.4399239807224804
2.790505628191035
1.5673279490371157
-0.5217489589776068
-3.546115395449811
-7.470219826072598
-11.636497906890053
-15.30786556765054
-17.655184326746852
-18.017773713134453
-16.65588068283476
-13.966845046319552
-10.527717656679286
-6.708438144690127
-2.7928647666594175
0.8717984478633722
4.015244001870543
6.214880550080191
7.62339151020284
8.449467882454071
8.8813488632862
8.742029288721573
7.403730847668741
4.544331349352704
0.2996401694124706
-4.328947581035517
-8.842608657896394
-12.761401138086569
-15.758150451082743
-18.04315064117738
-19.052668297842246
-18.962763792781356
-17.8889358465403
-16.1721750250428
-14.630889932501253
-13.207513965558348
-12.128318980350006
-10.95371689925459
-9.417041651615076
-8.098499910422198
-7.238592657751247
-6.910496132958511
-6.662537567900007
-6.040410826020177
-4.940610936329806
-3.734216246783985
-2.9725165909642723
-3.0122827470657727
-4.111259060961158
-6.294074859848154
-9.339303201675662
-12.545668899286518
-15.428458513419953
-17.73224008047749
-19.274522697062636
-20.015319166448748
-19.58053461971797
-17.976929791780027
-15.386552405064384
-11.914486446041465
-7.7528265097718565
-2.882762307437616
2.248001776879428
7.109200320177164
11.479448999243665
15.113275484742882
17.926840189980418
20.05812308645358
21.96576927568707
23.80984868837074
25.313255019157076
26.256010347365404
26.58599510469998
26.80136440911641
27.61786388358363
29.114535480338642
30.823234009594337
32.2796030519208
33.1136381776904
33.18114966202516
32.83943222037744
32.5168141810913
32.40987066567725
32.46784244052574
32.378774891646046
32.19387418117842
31.729470967858358
30.487089216724257
28.49122840937521
25.660544401153373
22.21452965451866
18.636095539096964
15.01469041714
11.775481656645528
9.456540970568364
7.783300281316328
6.112209590013476
4.078553957888231
1.4327365291997813
-1.4108018541214729
-3.5941086195948677
-4.5372362671089475
-3.907687172031427
-1.8914162076997265
1.1999562221482587
4.975979185921535
8.848920939841024
12.6756485951975
16.012872730177964
18.12494807515411
18.981187677179783
18.43752315620673
17.002555835108566
15.799805135794813
14.959292025802593
14.484885931578964
14.32101442915225
14.311242851885023
14.418452036537335
14.451712981884095
14.278524100008424
13.676434990462404
12.778407650661965
11.94936944957507
11.387655895122162
11.213376536540256
10.96891323562428
10.155394525358457
8.944408299401275
7.540492067056349
6.214576477599552
5.1554218874240805
4.219703957686818
3.412894956739439
2.2491031452180446
0.27843066167824426
-2.39413817837573
-5.835775509160087
-9.76794291006903
-13.82221913066459
-17.502925633781892
-19.493150147521167
-19.258787699480184
-17.196048163629804
-13.80011177150428
-10.380291767405136
-7.7252606026914155
-5.862025972285245
-4.735379931554288
-3.9321736887434535
-3.227057831861151
-2.153755773030988
-0.49479925901326477
1.4417994628943855
3.7667368194281328
6.166393986234368
8.15373745269207
9.840513855819916
10.906922199813117
11.48634429613179
12.148149141809947
12.824199794210426
13.469207695202417
13.489055810821624
12.266138866536874
9.66041941676584
5.79362293893496
1.393812957232767
-3.0457296802753087
-6.945105345294819
-9.563149344722119
-10.595819462718769
-9.991607255175683
-7.930807224918968
-4.898015994022227
-1.488816338075277
1.8560140274862746
4.557644196803335
6.141848205811203
6.5440019478653655
6.019066052307776
4.883676174193065
3.4164928069416045
1.758569731196566
-0.09957853408917339
-2.124421438174593
-4.120955644817213
-5.772729786782041
-7.221601065098843
-8.521628495398636
-9.905631689500106
-11.351787699953718
-12.094370149385837
-11.697518056781952
-9.67566983081405
-6.416153331123268
-2.827976657382469
0.4725152850205742
2.6338893900594984
3.3275824590458942
2.4931453272024386
0.5619813763310131
-1.3953363733076534
-2.626400988976589
-2.883067095893776
-2.6867901268919243
-2.6826066844209593
-3.0768688025800692
-3.9902691780257453
-4.986777561346508
-5.46402442366745
-5.302696856145818
-4.3671742708184995
-2.753296877929945
-1.1151442958288387
0.31163490116654874
1.5864719694674985
2.42292011405697
2.7533632506509824
2.4596140483263196
1.5966848736406778
0.6362012758564846
-0.12519279404212072
-0.36081428903435175
-0.024071107279149864
0.8562572384873792
2.105474165862587
3.440076101005394
5.153188388077437
7.320004042178284
9.900676027740682
12.731592876125065
15.220965814889489
16.954955916804135
17.692122500600245
17.470247287802422
16.761232043403858
15.999939628095587
15.542796962899445
15.370656960558561
14.891517535078169
13.821544885085096
12.072446418433318
9.996324359821514
8.43661670824713
7.806267540685937
7.952384289179752
8.394205412377252
8.634528479826223
8.386697542406292
7.883407972691844
7.2729261293412835
6.627666983639628
6.4151752330644625
6.5939389215545425
6.641141800811803
6.325956873192443
5.416821549214489
3.6610760585187694
1.4630214506063592
-1.1349000626866657
-4.342788022055027
-7.572034594915513
-10.608217309248452
-12.881109982224862
-13.544476230979354
-12.881542505918715
-11.38853070488559
-9.994104063980979
-9.473532343116226
-9.596693578054328
-10.048310474256175
-10.419543624214654
-10.482210988295149
-10.413277971669539
-10.096961665485079
-9.011551733814631
-6.928768162651345
-3.9008313685488405
-0.27205457914672326
3.261867354605057
6.631981283575252
10.134941503110458
13.874026745343691
17.814267824786405
21.344562263163887
23.94652462996231
25.676090512447615
26.498003136243177
26.76456969929708
26.559857517601355
25.611573308836796
24.07291267934211
21.776809668713625
18.938932973202395
15.806557448694178
12.534654914266982
9.74294170517262
7.920928132159576
7.286158145104896
7.646171535739346
8.672986764766208
9.574552495737908
9.814800397557322
9.233224971723745
7.806679376398901
6.247307587458926
4.591733511188671
2.7377492990014827
0.6852412202660779
-1.9562644584333766
-4.722581350635211
-7.327068443204322
-9.523099831105723
-10.4764243450716
-10.25572718602649
-9.265499701897818
-7.665522570090354
-6.207710792388584
-5.559303899404092
-6.046718868009188
-8.32784178467308
-12.063684062066933
-16.270244502801198
-20.225149071099963
-22.849000554717172
-23.55743865834509
-22.040100522640863
-18.58136984560053
-13.929949747699535
-8.892650412564223
-4.431087454070151
-0.714008218829364
1.9707901309186635
3.4951061766125826
3.649348828125597
2.2372243620517827
-0.09970497090848525
-2.4879940345728992
-3.8682418107504346
-4.082678228656312
-3.5669466768135107
-2.885372255538237
-2.2792736858743186
-1.6827527390297035
-1.308107471073734
-1.0076076006974772
-0.8558491285419959
-0.530970768561852
0.45318832037250206
1.9327127594694333
3.6870334191671836
5.1735099306174215
5.7437855015978165
5.271088637393244
4.331087643175556
3.4970709899886403
3.17863812118189
3.279735285971632
3.1919283920234935
2.825195548000502
2.4882431550051964
2.519068578476876
2.746514390221381
2.574055076418042
1.2416576285903715
-1.296284647277971
-4.162821843803371
-6.574374349543379
-7.675456623409268
-7.754176844580446
-7.94350535005107
-8.771488380323639
-10.369204264387946
-11.906764540919948
-12.290808018948118
-11.285293069852196
-9.33689856027748
-7.107475855647402
-5.019325523370169
-3.2602566330972906
-1.916342366423121
-1.1832518821149565
-1.5769002290436274
-3.1953802558974327
-5.341869321527355
-7.327690934338849
-8.718065760268422
-9.427250446846605
-9.815465981077784
-10.51709450851077
-11.774693035737416
-13.39114798231301
-15.090826811883803
-16.432879463768316
-17.002036074264886
-16.11495264916201
-13.426878537434918
-9.19304407055308
-4.07198661932112
0.6949512549519711
4.278856286005001
6.392556393262784
7.2745344301469945
8.25661969464165
10.600321677896885
14.61974991005829
19.725568088293656
24.696172825108658
28.764718630306795
31.471524156465048
32.861100810618794
33.206919219756315
32.42476592430179
30.75102425493961
28.435870892765873
26.387752207185542
25.451304326119207
25.65550403008006
26.846541044665084
28.226665540991345
29.478239411164985
30.380797813325152
30.492030844354403
29.756057934701055
27.736303021764645
24.536369279601534
20.91536218543975
17.798156695353107
15.819290254234172
14.795432887392666
14.157179337633481
13.26326203760265
11.798846043581182
9.838025508521273
7.462024376629724
4.376600726194336
0.49584012136685257
-4.201447257352954
-9.269819776968612
-13.29012009473928
-15.496740296892613
-15.899063604554032
-15.031249635562634
-13.688826323614487
-12.521334896187263
-11.67516747782205
-10.4831081451566
-8.853971714024887
-6.675531809824782
-3.7273817930881967
-0.448556698822042
3.177981242978168
7.270592023671388
11.463097039515283
15.212918700959248
18.52961229079585
21.275991326294445
23.33974518224629
25.202926125610247
26.836788968858723
28.486621717803008
30.269672928842937
32.05657203042013
33.642133214439106
34.30300669800878
33.80000169441228
32.09965781402681
29.61584877118213
26.867631389436283
24.197530701063737
21.868166414515276
19.57151948420811
17.140624522798504
14.301489725434724
11.165118754821398
8.340221990120336
6.091649062554112
4.5044189985824366
3.332899788031744
2.051480085994229
0.7204935886413614
-0.12383223352815692
-0.35634930236875567
0.19738815139679444
1.1365950705293257
1.7465062517969852
1.8556673812443725
1.0961094896663772
-0.3664215956620716
-2.040296656496112
-3.6327374702847894
-4.726208592920519
-5.240174741477854
-5.324570772924174
-4.889428347803133
-3.827603136282362
-2.307822878874924
-0.30964829902615615
1.7761110516845007
3.222509644796788
3.737529013949125
2.971141197934402
1.1317298972580279
-1.2196770387998614
-3.5123622843489755
-5.444156061065249
-7.0101228023111455
-7.713255675912784
-7.864457440968186
-7.899471206918203
-7.6926894151281955
-7.763310301171627
-8.477895220183242
-10.060817434898059
-12.8867116228268
-16.820535842374774
-21.62345505179655
-26.914483335047212
-32.160493586018546
-37.017970184377916
-41.04228344819697
-44.14580527436776
-46.475960707099084
-48.223119910356296
-49.66811898651948
-51.05382440075662
-52.71801098343314
-54.63296400436966
-56.660541182996695
-58.66332784478408
-60.58554622219418
-62.49517188053228
-64.13908192552795
-65.28563560561271
-65.91211044630145
-66.19465603704833
-66.00029536088024
-65.23868238857379
-64.43618164018577
-63.65513288484246
-62.96783679702398
-62.47545087928948
-61.62071640433864
-60.36044550479782
-58.713477632909665
-56.56460839789586
-54.15597400247367
-51.342682685239176
-47.84548496400229
-43.51413768227717
-38.55895416514203
-33.556849037776
-29.30481294401846
-26.381797708353503
-24.603344429007077
-23.64415054770853
-22.97590195910332
-22.30866195308743
-21.53026825214924
-20.41178490987945
-18.990180880914505
-17.065900630915284
-14.786363854776068
-12.669452855541413
-11.061893913808756
-10.005983736399555
-9.147212135172495
-7.944649171908177
-6.1681266081384045
-4.155704272394964
-2.261267773473434
-0.9315622140344899
-0.1996181988220998
0.26245376055760156
0.37342658420468766
-0.22799080196986185
-1.9565574682841698
-4.844612369571616
-8.224841637597699
-11.165651739240715
-13.304606323648239
-14.624959578823637
-15.40227556796088
-15.777551095128407
-15.615758310508927
-15.023060508231632
-13.958387427662602
-12.564134499056463
-10.938956237691025
-9.168358473810555
-7.52669266084807
-5.917284133734832
-4.280725087802953
-2.529032964088533
-0.2949120529689434
2.620629401637281
6.236946771278652
10.247953665940843
13.99529213454701
17.117614293525158
19.31078563133349
20.3584260600155
20.717590256379676
20.98281195027984
21.88416744187011
24.006673225119528
27.287695359746493
31.355038675791096
35.48359750040775
39.177219755929706
41.991943372270725
43.72431149664343
44.67461355919819
44.69998654305842
43.66467831544444
41.11588259839197
37.14007647308983
32.60651668533425
27.938339103941875
24.109670522633284
21.3824164066655
19.505005036057018
18.656980976219423
18.453033973377348
19.10338520426066
20.63121549482252
22.500787572703803
24.436471812002367
26.010065578763747
27.24557050845963
28.23439352466215
28.630902919359357
27.785873778250902
25.20618397043257
21.032007264255288
15.791932378897481
10.485197130798658
5.709518832247661
1.7593209470798237
-0.7356064649120221
-1.988537965273964
-2.3904361603439623
-2.0291383761798922
-1.407447615573843
-0.6092630668500576
0.4795769460616797
1.346290303949834
1.547586564986459
0.7909119451252774
-1.0607014881226864
-3.4909109997031322
-5.949266818222862
-7.981564630499102
-9.341783800163627
-9.934136740517085
-9.889948389384838
-9.7412776596482
-9.84940618979698
-10.575841716462687
-11.832584714546956
-13.156175707575711
-14.296141639620725
-15.158157419587289
-15.585405028379776
-15.390358112510338
-14.68122020398742
-13.607853383059613
-12.574340865996456
-11.772137891600575
-11.082025389323512
-10.485169029731987
-9.708595564049178
-8.855856611751376
-8.080095500459416
-7.549180722397927
-7.452393398823032
-7.439948588397443
-7.081002284567133
-5.587074072120166
-2.564195554548826
1.8509600873115724
7.162597671479463
12.394623035492078
17.158255645607667
20.983953912350437
23.468153253107342
24.634057607555295
24.141651312460063
22.202580256379
19.534777228478635
16.907216642708505
15.467546295374394
15.472417680440723
16.61795815196326
18.5911245638491
20.35962961627304
21.32065408914794
20.939758358034577
18.75216180602573
15.141800507080276
10.771607385505561
6.642981820603886
3.35642820245886
1.4114348616534955
1.015862579090656
1.660098234857575
2.9997698440140286
4.645823048327334
6.622608082246636
8.896183247091994
11.153185722973317
13.503115635833769
16.00193494853927
18.806743348369597
22.027454319220787
25.228970550576566
28.02763050182521
30.033345523621172
30.76966328340212
30.523259064230498
29.597078873392118
28.12473632839833
26.491309054864203
24.739823777594093
23.032106386588925
21.60697748448033
20.331663479782673
19.177266650426443
18.082374635620962
16.673224085342085
14.764901737649641
11.983671655277334
7.8048234848241
2.0916994761778724
-5.110802126160639
-13.305086554128337
-21.75883751343955
-29.334710407033242
-34.99606588672467
-38.23300398049013
-38.87944238666818
-37.67835950214758
-35.285124595272286
-32.316958063679905
-29.346869524254604
-26.503235597880085
-24.287265742233128
-22.853832592467377
-22.127117861677245
-21.93678272667982
-21.612986367012418
-21.367239146236344
-21.382471457580962
-21.336331726414638
-21.097777214751112
-19.620027021745774
-16.55690372244033
-12.378884989500673
-7.617157359001373
-3.46257619661367
-0.5271053026393039
0.7396368516333441
0.03329160564422322
-2.3288313826064564
-5.7686894183722615
-9.519385151430793
-13.222088607724585
-16.78540525274437
-19.806366718181632
-21.652890391443712
-21.899687449530223
-20.50082876412832
-17.983244083254295
-15.080081596446673
-12.201604034917867
-9.608959793737657
-7.344459157789591
-5.567104708282468
-4.703612242554744
-4.786071706536256
-5.8003609549997694
-7.488477350364313
-9.035194154170082
-10.199664299926942
-10.933566417717213
-11.166253366040298
-11.257124284541963
-11.248546054739931
-11.007697508701133
-10.546385569341595
-9.637169250411084
-8.099703673113257
-6.031450742504451
-3.5371685013534377
-1.1564247551189515
0.35573136486284407
0.9490470778919207
0.8188773956838897
0.1582688569165891
-0.46719002137722543
-1.0053415034118987
-1.9165356650187046
-3.143173046690003
-4.705274180706161
-6.474845595769194
-7.913645790374452
-8.76773539178323
-8.613096686570657
-7.209449638117201
-4.800204542210052
-1.7330933287268464
1.4288360751507614
4.215786606192921
6.7331386234353765
9.335280177197419
12.100861055986917
14.954871389165994
17.412134640319813
19.146603614902645
