AAD_Filtered_TADAS_FILE
AAD_BASELINE_CORRECTION: BASELINE REMOVED
AAD_FILTER_TYPE: BUTTERWORTH
AAD_FILTER_ORDER: 1
AAD_LOW_CUT_FREQUENCY_HZ: 0.025
AAD_HIGH_CUT_FREQUENCY_HZ: 40.0
EVENT_NAME: 202302060117
EVENT_ID: 13194
EVENT_DATE_YYYYMMDD: 2023/02/06
EVENT_TIME_HHMMSS: 01:17:32.00000
EVENT_LATITUDE_DEGREE: 37.288
EVENT_LONGITUDE_DEGREE: 37.043
EVENT_DEPTH_KM: 8.6
HYPOCENTER_REFERENCE: AFAD
MAGNITUDE_W: 7.7
MAGNITUDE_W_REFERENCE: AFAD
MAGNITUDE_L: 
MAGNITUDE_L_REFERENCE: 
FOCAL_MECHANISM: 
NETWORK: TK
STATION_CODE: 2711
STATION_NAME: 
STATION_LATITUDE_DEGREE: 37.31736
STATION_LONGITUDE_DEGREE: 37.56036
STATION_ELEVATION_M: 574.0
LOCATION: Kahramanmaras_Pazarck_Turkiye
SENSOR_DEPTH_M: 
VS30_M/S: None
SITE_CLASSIFICATION_EC8: unknown
MORPHOLOGIC_CLASSIFICATION: 
EPICENTRAL_DISTANCE_KM: 45.88
EARTHQUAKE_BACKAZIMUTH_DEGREE: 
DATE_TIME_FIRST_SAMPLE_YYYYMMDD_HHMMSS: 2023/02/06 01:17:10.0424400
DATE_TIME_FIRST_SAMPLE_PRECISION: millisecond
SAMPLING_INTERVAL_S: 0.01
NDATA: 10501
DURATION_S: 
STREAM: HNN
UNITS: cm/s^2
INSTRUMENT: sensor = ACEBOX/SARA | digitizer = 
INSTRUMENT_ANALOG/DIGITAL: 
INSTRUMENTAL_FREQUENCY_HZ: 
INSTRUMENTAL_DAMPING: 
FULL_SCALE_G: 
N_BIT_DIGITAL_CONVERTER: 
PGA_CM/S^2: 142.644
TIME_PGA_S: 
BASELINE_CORRECTION: BASELINE REMOVED
FILTER_TYPE: BUTTERWORTH
FILTER_ORDER: 
LOW_CUT_FREQUENCY_HZ: 
HIGH_CUT_FREQUENCY_HZ: 
LATE/NORMAL_TRIGGERED: 
DATABASE_VERSION: 
HEADER_FORMAT: DYNA 1.2
DATA_TYPE: Acceleration
PROCESSING: Automatic Paolucci et al., 2011
DATA_TIMESTAMP_YYYYMMDD_HHMMSS: 
DATA_LICENSE: U (unknown license)
DATA_CITATION: Turkish Accelerometric Archive v 1.0 - Disaster And Emergency Management Presidency, Earthquake Department
DATA_CREATOR: AFAD
ORIGINAL_DATA_MEDIATOR_CITATION: : AFAD - Disaster And Emergency Management Presidency
ORIGINAL_DATA_MEDIATOR: AFAD PROCESS SERVICE
ORIGINAL_DATA_CREATOR_CITATION: AFAD PROCESS SERVICE
ORIGINAL_DATA_CREATOR: network: TK
USER1: GuestUser
USER2: 
USER3: 
USER4: 
[...]
-6.48681366117433
14.082257490117744
11.995323619842269
-22.650664396338463
-38.637551969278654
-11.503506949327004
9.174782275020915
-17.855744491949995
-42.97919918104775
-28.647178194152406
-2.556975358239276
34.82513392595162
65.56122210667033
42.99877017128238
18.965711612090875
44.81452634461576
49.98995564327397
13.106230886922868
1.1515732201813167
4.540344742622889
-19.273129526692102
-46.75364227227008
-46.157926714029266
-20.67146865552556
2.043693858944086
12.061849002777953
26.125076072254256
25.80730258051901
8.810634154131822
19.129962026770873
21.815793611673325
-25.52223479099068
-30.367026022526414
39.21079886513433
39.39052435923053
-55.73127977295715
-81.10656052426442
-9.21919165343581
26.435288571808773
8.18828224991761
13.337682696531273
27.866657102198978
-0.176831065881721
-28.0273857587728
4.953615007586257
49.10083506857687
29.24933847006566
-8.31666058945425
9.599984851880011
23.539567550531313
-19.444326908173238
-35.90606147625074
11.405056872289355
46.883974788757094
43.128794270906425
49.39228472489093
81.62297032371623
80.16666279525798
11.753293534391089
-50.73597823803933
-44.95677508166043
-8.540930024284432
21.84569764704627
43.599192805760374
25.603868162647082
-19.650939296529188
-10.219544421898707
43.24579136178314
52.88207745394792
25.479789985852126
-1.7489517162257158
-33.444091592722344
-39.64368322902074
-32.12803553023116
-61.20455518701961
-72.20962713981437
-27.3387267894017
10.51763465563827
17.0377480030646
5.905309456285274
-11.532888243975504
-17.264791279409618
-31.317914436335183
-65.30461625064201
-58.6040660679404
6.340570331831101
35.001515396462054
1.5726181056652204
0.04391051093766533
20.421330760679545
-17.67940195598929
-40.47892148402863
33.96442169047884
85.49969330112944
25.07128164051371
-11.933647358270619
34.40776864657746
36.71941643244933
6.731480298695551
42.348406484324926
67.75465551236059
29.00002297021471
19.524716293773874
51.764945885703476
42.77528172683064
1.2470451610184492
-3.2137991169862925
12.801057771257428
-16.922198097331066
-54.115188366281245
-3.7357571810667602
75.30998129448432
50.3866527380865
-21.489766148382145
3.5726886956762316
74.51877033707225
42.25345490354551
-38.20964404349642
-26.269520065875795
6.801626566866341
-26.90710955472591
-42.978043246457524
-11.664478638389427
7.251673221495308
12.454065952651938
19.262098812231
-2.4858639778154696
-51.92814635796591
-44.69077020567807
30.041401368903355
62.84606525966482
28.329698558095853
-13.34655062993008
-15.243329803749461
45.29983926579176
80.62155622860452
21.814172543040165
-24.273073120388286
-14.412688723217627
-11.383633448419598
8.13730373826693
35.89257682408121
18.277803084413396
-7.199454821619855
-8.198702485771488
10.982908914740522
33.346809935076976
30.149114091472022
46.6559714743149
83.16736623985051
46.27308178138225
-22.81787091304485
-20.319701532173706
26.03332476270738
51.953287583264036
41.53495839594205
11.80541886437653
-17.26719735256644
-38.97149111376281
-24.90114336357478
7.002695841864623
-17.347098391962643
-52.76939754436594
-23.249797364497443
-11.741574399887364
-63.94366341511399
-77.61348661643784
-28.859258302465282
0.9218568675778732
-11.059545936573429
-30.630432806847082
-27.987175532073334
-2.966239293926985
-1.8334349417904616
-38.414474233445326
-58.424153415555246
-35.82543487454604
8.310843022741693
36.81422640534465
17.48312242495673
-12.114078699559407
-4.3157973812091415
-4.934479886369563
-43.54446263460861
-47.86836985847255
15.378660434448468
69.27451754770604
53.16759457971696
5.970840209955771
-6.90451132912372
7.30154793873176
1.7584879646976432
-12.554616618865456
10.217981077508314
64.00085673265094
85.69238000696272
43.57399016313669
-6.22891131858685
-12.361425539689465
-8.444139592905321
-32.752016062688135
-47.68942048988392
-18.864182241133857
-5.099540744778978
-35.72980708195162
-36.84360413831282
-5.250006462262542
-15.497185922225775
-49.604512312797
-54.10072092698008
-52.72522800051276
-59.40027313292224
-38.95060542292131
-2.429414416222398
4.276972710480227
-30.637584709458867
-61.502627461429526
-28.065607792541726
14.144232629533695
10.855446273490704
30.656797130821705
29.885425120937285
-34.56569537637759
-25.00790766383152
31.727104362024715
7.2912363462597085
-19.61584034964581
0.2914391890185254
-11.80668706935864
-55.44161738311729
-60.09236961270396
-13.544263526287686
2.0480720393229928
-46.08252374427308
-57.40804366532847
-4.731521702882801
22.026461863832676
16.2607704347883
16.689314446527554
14.150775939039658
6.720478844116656
-19.423913206406212
-46.907108790635064
-18.625307137572058
12.3928222106236
-5.534859660645843
-11.759487199809628
-5.199386481220015
-7.586029577523819
14.62055715773994
31.922069563077134
-3.83210794130823
-56.07821097790004
-50.98356436854356
-0.6797637171771808
-9.91099597045651
-45.40666037831354
24.343179845667375
100.02234616528229
38.34398677500145
-27.76274809329698
24.99958633516713
89.83397964863296
76.45207877609378
41.29335626891068
45.14504711458072
55.845153495293985
37.67358085088394
16.651872021825778
16.616486020918636
46.77579053794254
84.61757452574506
90.777426308278
81.64083202086854
60.59257801592403
26.60937217804492
23.261298237245455
45.68777312619914
76.39251128124108
90.98221883787008
41.6441804091149
-7.29205841364127
9.685384751406529
33.39563102988338
25.818000381692922
-4.3839005436255
-23.97779244505011
14.629953980339575
68.29170848186281
70.95015328286938
53.87193827117331
56.41185542508001
63.640132948090404
67.30830657982126
61.39457443394898
27.57062919022562
-12.895283826580503
-20.673264010855142
9.32783565620104
37.68177972442297
19.225223379566863
3.462637983076729
42.450527469714416
70.11111413555419
57.081353491056404
39.73212896099318
32.31125132634472
45.554213762518195
43.042746309027066
12.683891121995488
16.319547186535
33.33396720151658
7.4618441636238835
-25.47088279958298
-7.457005167061057
32.58720448025463
5.196213238099699
-44.107496805129976
-4.721165199706611
39.768814707704585
-0.5160555935645587
-37.19808615314807
-22.94396280889997
-12.255284772634518
-24.781274145732677
-32.871716131637086
-7.578872602903043
47.84797797665438
81.53706719214226
55.27462420139456
10.559691618321473
5.849219231647974
39.303453768959606
65.40777925337318
43.123224554969326
-9.638174571923651
-30.333969828472043
-5.2896827692271104
15.085607664283755
2.9533628121097775
-13.966227966556017
-5.506494091748709
23.908028148112013
19.97755466222246
-40.589864722179684
-64.28467057821284
-21.75997596807029
-9.807610957009786
-17.007259121437475
18.181752062814258
36.72916983883816
2.969024831023786
-12.739573596698111
34.831259343629796
78.22778338862089
38.42280803292674
-19.26294234029095
-3.415478347630563
26.8754058829465
8.456693647685379
3.9357333385989324
48.32768094085653
65.11391352413098
26.900559238802305
9.584439076347829
21.999954748531486
2.3679011709154256
-24.88090053915412
8.543502348729366
71.97732893539877
72.10385148658364
17.38512615540383
-2.799581447845313
10.143513042877721
7.981860166093914
5.232322428079834
26.610648566255694
50.76942787605982
31.90020069455228
0.4485951671346369
24.305241802644172
47.7406760326468
7.744271782160408
-36.47546727632776
-28.88367022212118
3.09264800934607
-7.907847808906408
-41.53139429150205
-4.073092191789825
60.437297539025394
49.73769559609207
8.234223749832283
2.249338273581693
-0.013612689479047185
-15.797122612881012
-3.102189279314663
22.89306494954285
-1.4729063717410424
-46.04309806965234
-54.99109453724129
-55.88309558329414
-44.487926104270116
12.376396300023655
51.44517297248
11.90067745817826
-45.86313832332256
-36.00109228757269
18.64445783277036
18.090105331381057
-34.87178285626503
-35.05691252553051
16.500787778100932
26.812052824073735
-9.384617976121483
-15.222017330489086
19.02912010731885
7.828436991576141
-38.59891553328422
-18.88515069741836
24.56104527072553
20.998507177593563
18.06659962484352
11.966608944187248
-22.198837126738223
-45.24411918654233
-54.41150695982511
-51.05870825090644
-42.302512575567285
-67.38121688202088
-66.97154223431323
0.8129200265888707
18.171672858609508
-38.993759968523676
-54.96495610083377
-21.6730587314953
5.8289308353773
21.50269340990027
21.218554245413586
13.417556990287611
13.108005754264905
7.810818351883587
-4.835887564522221
8.068708724648479
59.898673902178494
82.77820714970107
29.272853153900737
-30.04297120681655
-36.76079272604296
-17.439200303503107
-2.942207482581933
-0.33073761311810035
-10.656401613045027
-28.27781433717149
-21.637576315676753
8.207013312928714
-2.4842391152344265
-34.27531915888872
-24.526047719882676
-27.357083181877837
-58.14855675488203
-48.68051072389667
-28.350169016677686
-29.591924446977917
-24.38592480448334
-31.713823299247732
-46.36094518687439
-35.93721582918562
-25.065753134943385
-27.603853211096194
-14.485813644000055
17.725609556426004
7.686610280678007
-49.82321499097529
-57.32034108440102
-28.57471178343155
-27.59813065008777
-9.792380525225274
4.102836716029958
-20.478987643539202
-27.147707621325644
-24.527444128293574
-23.125604390126718
-6.807411501141593
-20.13389041201025
-34.15891104134731
9.076436393109248
44.454441878153055
12.8660019807231
-41.1991739700016
-59.712345535765905
-51.33966753386712
-50.800885749581624
-48.26221524409344
-32.207038461546006
-21.766882329298046
-25.8793211258176
-35.43216223047598
-35.40146448063713
-23.165498608253724
-20.95326904045512
-44.4938534579077
-54.77993719790662
-12.880052706943324
7.055918434141204
-44.84006104676388
-61.37753691204585
-10.054947471033797
18.75339748007734
10.325634559145776
-3.7623494868107046
8.819682695831444
39.43631565851033
24.214011356441635
4.47256480121903
20.049559861334345
-1.6924178919225668
-42.43501949631876
-35.75141835964999
8.985163835330653
42.248614605813195
7.232448418794616
-30.069923890463983
6.196587149538534
8.188627771342281
-66.68918457097617
-87.24162934617446
-5.907129832156997
55.495669239953415
5.807922142613044
-49.262838513976064
-15.558197304626777
15.61047413284765
-22.12990971325607
-74.07452649249741
-66.49984785991667
-6.617335822257106
7.981793217443227
-38.16731307654018
-70.07830475988764
-52.75709260966932
10.776971810276985
48.43262737696637
-1.6408508013539715
-47.8654926376675
-4.529498482950546
45.79216674887677
10.249048006513995
-41.70659893050971
-8.546470211496901
47.63721271254583
16.727870032254152
-40.52744712691071
-0.7285933131636597
67.61211372020857
39.81717355497909
2.3278497552423882
47.38831789287925
63.127721065039964
-5.895992997867105
-42.41617311688888
-11.197157382582063
1.9827010846237805
-19.108461348444713
-21.801217678261352
6.23973578777383
31.319476094498455
32.245176625332626
3.844146743864071
-65.36462880585988
-116.92958534346506
-62.41654874900242
48.8236697707639
94.73676050245537
51.69688959422978
1.9433852017046147
-12.953396443658637
-46.12449179523826
-78.00450537985363
-49.880840326535406
-15.86445959201179
-22.54258333282413
-34.03859184379799
-14.579541639614105
6.546320857128912
-19.937602822134465
-40.31740910951403
-10.406692397586884
8.166205564485807
6.255430561048241
17.967086572944297
29.190258122746467
19.614286191873543
-5.102364126691798
-6.020071131332723
15.396115334669085
6.860114918853382
-3.7681922557292724
20.95653056512804
30.86512347820583
13.56297963410167
-13.123869562911581
-48.73861788630134
-53.10550156615028
-35.09042507652898
-22.835511658562066
15.629885505146898
28.46105601641562
-13.404418511492228
-6.1161481637917925
38.258742768437294
19.057459644009793
-34.089418425510324
-28.238240777336163
35.730887355927436
53.84089418896855
8.379385216749585
1.5288193440152646
16.54319108090893
-35.05862228164823
-85.00813243576509
-29.426719664430028
61.15452267347721
53.425934089612575
-24.145245193640033
-32.36191634307219
27.151219049316975
15.485803436519172
-63.591237046898605
-66.29045148436889
18.65917801567238
83.95070177165597
74.92662509633294
25.378367277367552
19.729538891531888
48.8020021894879
30.848471398151815
29.823490048723926
104.15076795922266
114.90576375614847
36.06237585195416
28.202715468705208
77.25544494268645
54.45849914732053
-30.862123819048595
-92.19157595963362
-41.618666166321304
78.56119023089707
81.10283848988857
-28.908174367067318
-62.681374804240996
-9.584224727854403
9.862144881866788
-3.905538051932269
13.811024770407258
45.54379026876769
49.32526629438867
40.456497566703824
48.59968781762915
61.15847159614883
34.17676731715095
-19.620908492871255
-2.131562927941335
88.55812300080855
83.67133937652409
-28.945680368943364
-39.38893007132614
34.25609163072191
4.819376416044277
-49.054620269724865
23.523355492565788
130.80023894242245
118.08263737773242
7.289487793821804
-50.22886598559571
0.15654390906902066
45.09001216853626
-3.9584447632717716
-57.84703404782787
-14.286019231629464
24.30357137289162
-32.57860712817336
-47.806870578885615
42.42363839438816
102.17541083889286
72.78114400706785
10.955736309174371
-15.368406197303207
27.416725185750657
56.80986828902366
5.444370498800466
-29.296520043554395
22.24805561880115
65.49571717977345
33.56006841572361
9.109728904222463
43.71301582790335
67.19915924221254
35.06288049527341
-19.879532624311352
-28.636692775998867
21.81641948193561
33.512333005321864
-8.095694474284084
-13.67022661578676
9.227073973353768
30.14625545312175
52.12037677676612
40.87754674277305
8.97850522203094
-5.899986809716246
-19.025064319088685
-20.054754295209822
13.96937799360043
48.34415622451283
50.0067427981446
40.745458865915886
36.232135793633816
19.945918632894653
7.671027951668249
22.774420716848535
51.535977618646584
58.443302109581
10.547306506959673
-23.01748902516263
33.86155642670148
78.62343798557032
48.32250288582514
44.85000001959098
71.77217049453778
27.54542653893163
-59.1533731960919
-63.914677965704676
19.166144480615685
76.97749041815406
61.70612352549701
35.030149919277285
37.914067184923965
19.142191339717982
-42.70919705629508
-55.67140000993015
-3.522962289631559
-12.483375974372724
-82.67992462103616
-60.49594747351672
58.34494473929615
106.82344554143336
40.48750117521391
-4.392050684739031
20.994188519361806
17.137371550029055
-41.39082957623431
-76.66377207039888
-33.03960422701815
50.76717054355332
63.13803263006772
10.707559108185473
0.2370388167415708
7.721509144677035
-16.3093561543835
-26.91726962388571
-20.620809065537387
-20.463218700394144
-20.208141200129536
-20.469503297120696
-6.980509574932568
23.385872245314207
39.11286116882624
23.437748730795015
-12.806812649805746
-41.97687147418853
-48.942694177254296
-35.292404590214524
-5.234558845524911
4.419151907707013
-26.424156053126474
-55.17412562821609
-50.873925278848915
-23.28620824762032
-5.610198056200398
-17.896008805357734
-31.237709827066134
-25.326633597288183
-4.596959955448956
12.244873638218184
-8.320098749867539
-21.97211792839014
30.9441846180166
81.58451073286297
53.847866634539756
-6.3496379998333445
-16.090369206811012
12.734582679971355
3.5636966936655097
-45.92821503675517
-81.3742183113504
-60.68111827365107
15.997205647415209
76.49813727905394
76.34743268958944
45.125098722547975
16.25862519476236
8.571690999386853
7.544268114691643
-4.387241089560037
-22.375882187385674
-47.99571259949269
-47.87526307484636
9.78648224027258
57.75018272291047
29.549758750706008
-8.840110159099746
7.186252734537836
11.440478423764086
-32.83908616160797
-74.58046229439944
-92.61645050363902
-71.9531438822008
-17.19312434986199
16.003808416170298
7.810297594823363
-20.310890208698236
-21.01218222294256
20.697075150985132
15.462920383168532
-54.391905507125244
-86.97048765143664
-67.2385952573013
-36.3886775700788
-1.5579635966489445
24.217787236755658
53.68265219041879
72.54216625571244
7.218690212629955
-80.2042211606747
-37.96704700611112
55.0865924298517
15.36494708848223
-83.28478540128216
-89.93602735230732
-42.07361761453593
-13.391251434872956
-18.569433394603344
-25.106220053359795
11.136687677310091
22.24504218476075
-42.04938621689098
-90.45988724844828
-81.39301800206998
-60.715178364321936
-47.444218331348345
-34.035323922375724
-13.810837296150497
-12.554157285947056
-49.375409579577585
-67.2726411911594
-22.946854307290405
18.303441102186582
-1.8531542582619165
-9.766981195845794
52.72233809268932
88.70094179005748
37.341010022005726
-27.68759448598367
-59.77814261347663
-59.282382533925535
-36.41367258403914
-19.764374905438125
-9.866579862419275
-13.524211567277337
-42.455986031622395
-64.429848757818
-55.72385283837681
-8.219284629167625
41.78486367348997
27.080091658690446
-6.558285038230046
13.667089924698374
28.22115016580217
-36.19634319657336
-109.3999766047566
-71.04370997085812
18.084844743077554
5.598630311811855
-68.28875461112113
-61.358519230432414
22.635459299682683
44.31777999036301
-40.324191534354554
-82.73665154089349
-27.83848688526209
-2.5916315242511327
-30.78982886140173
-42.35086594803975
-31.041246643280676
-21.465487173584048
-28.62718816681408
-27.319026931352923
-2.976836060491748
0.5897928185127862
-21.201496387187486
-31.544647636401024
-17.313385622914613
12.55258986267643
27.052148598008905
20.379085892583607
24.972960494310318
31.457487346198608
2.3851667441345072
-41.138759221683976
-50.79445069988011
-16.167331163372047
44.08764490624938
73.93775887136927
52.70765023406131
59.84924575673449
96.60570246134587
69.99231764005705
2.990121034625544
-30.867235813082452
-38.21120664075485
-32.719869096300464
-10.013749033151376
0.4138968709833791
-21.010251493022533
-24.46609388221156
2.8942259726509514
0.9159371513563341
-9.495269515109309
30.872898596354123
72.25217105661726
42.14895624018189
-13.982221334954525
-4.635571500606632
21.17419880378938
-23.30843336037972
-48.26018703584676
17.75612203495278
67.91681769939302
37.08386223268988
-14.064933547398924
-14.460653047807774
37.07402141754979
45.22590624791469
-17.790046177902617
-21.953232080437626
47.34143164118406
46.44848656926719
-13.854992793906511
-21.275105176000487
7.870902435372052
10.758989814660316
-16.21244919389722
-14.907220007913812
39.05677795964793
39.61041293153598
-35.23942382400531
-43.68949967608327
