AAD_Filtered_TADAS_FILE
AAD_BASELINE_CORRECTION: BASELINE REMOVED
AAD_FILTER_TYPE: BUTTERWORTH
AAD_FILTER_ORDER: 1
AAD_LOW_CUT_FREQUENCY_HZ: 0.025
AAD_HIGH_CUT_FREQUENCY_HZ: 40.0
EVENT_NAME: 202302060117
EVENT_ID: 13194
EVENT_DATE_YYYYMMDD: 2023/02/06
EVENT_TIME_HHMMSS: 01:17:32.00000
EVENT_LATITUDE_DEGREE: 37.288
EVENT_LONGITUDE_DEGREE: 37.043
EVENT_DEPTH_KM: 8.6
HYPOCENTER_REFERENCE: AFAD
MAGNITUDE_W: 7.7
MAGNITUDE_W_REFERENCE: AFAD
MAGNITUDE_L: 
MAGNITUDE_L_REFERENCE: 
FOCAL_MECHANISM: 
NETWORK: TK
STATION_CODE: 2108
STATION_NAME: 
STATION_LATITUDE_DEGREE: 38.48776
STATION_LONGITUDE_DEGREE: 41.002003
STATION_ELEVATION_M: 920.0
LOCATION: Kahramanmaras_Pazarck_Turkiye
SENSOR_DEPTH_M: 
VS30_M/S: None
SITE_CLASSIFICATION_EC8: unknown
MORPHOLOGIC_CLASSIFICATION: 
EPICENTRAL_DISTANCE_KM: 372.12
EARTHQUAKE_BACKAZIMUTH_DEGREE: 
DATE_TIME_FIRST_SAMPLE_YYYYMMDD_HHMMSS: 2023/02/06 01:17:59.5119070
DATE_TIME_FIRST_SAMPLE_PRECISION: millisecond
SAMPLING_INTERVAL_S: 0.005
NDATA: 42001
DURATION_S: 
STREAM: HNZ
UNITS: cm/s^2
INSTRUMENT: sensor = GEO-A200,/GEObit | digitizer = 
INSTRUMENT_ANALOG/DIGITAL: 
INSTRUMENTAL_FREQUENCY_HZ: 
INSTRUMENTAL_DAMPING: 
FULL_SCALE_G: 
N_BIT_DIGITAL_CONVERTER: 
PGA_CM/S^2: 12.280
TIME_PGA_S: 
BASELINE_CORRECTION: BASELINE REMOVED
FILTER_TYPE: BUTTERWORTH
FILTER_ORDER: 
LOW_CUT_FREQUENCY_HZ: 
HIGH_CUT_FREQUENCY_HZ: 
LATE/NORMAL_TRIGGERED: 
DATABASE_VERSION: 
HEADER_FORMAT: DYNA 1.2
DATA_TYPE: Acceleration
PROCESSING: Automatic Paolucci et al., 2011
DATA_TIMESTAMP_YYYYMMDD_HHMMSS: 
DATA_LICENSE: U (unknown license)
DATA_CITATION: Turkish Accelerometric Archive v 1.0 - Disaster And Emergency Management Presidency, Earthquake Department
DATA_CREATOR: AFAD
ORIGINAL_DATA_MEDIATOR_CITATION: : AFAD - Disaster And Emergency Management Presidency
ORIGINAL_DATA_MEDIATOR: AFAD PROCESS SERVICE
ORIGINAL_DATA_CREATOR_CITATION: AFAD PROCESS SERVICE
ORIGINAL_DATA_CREATOR: network: TK
USER1: GuestUser
USER2: 
USER3: 
USER4: 
[...]
0.004645398467232163
0.10110727484824833
0.19794801411745244
0.25565675246848596
0.2818121191794793
0.3237735269889834
0.410512463852501
0.5174242259621736
0.5823943608644957
0.5616436988246784
0.47692895731432533
0.3784213204134888
0.3095344635675116
0.2820356574289713
0.26356400989764506
0.23237753236861475
0.1986751836519562
0.19420988384064033
0.24005357532928823
0.3360259561319802
0.4998568845954776
0.7378166550942168
1.0190176436833012
1.2914130153081171
1.5051375358409709
1.6405863357139927
1.7061391898633231
1.735698871523749
1.7650255835271722
1.797064579454032
1.8106018773191965
1.7734987516356497
1.6320795405544848
1.3549346767148411
0.9825089326862194
0.5914118801007133
0.24411925671826207
-0.04116959685980773
-0.25396963504409703
-0.3655145213774807
-0.368477132629399
-0.2785592532972197
-0.14162230968357034
-0.014005947411769307
0.07614291073629915
0.132572015818604
0.1777813283769029
0.22042118832316895
0.27651897676560366
0.36257345299937577
0.4658625298971207
0.577544088640472
0.6967673810379741
0.8386855701929979
1.0351357487455617
1.2928827198724628
1.5811730588265989
1.8367337206316008
2.030203516230103
2.1791469198125726
2.2887651725485347
2.3595250436778925
2.366776598836636
2.2903558666587718
2.1490612627152896
1.9714861516344182
1.7634180525752166
1.5033420721392705
1.2238079211651545
0.98040120930749
0.7900484717708969
0.6406423558368285
0.50166384663386
0.3452823390930653
0.1507120162984582
-0.049901681289924074
-0.216958797093538
-0.3348069103551267
-0.3651779792044351
-0.30927329019572075
-0.21995587926355034
-0.16879533252347043
-0.19441549476202805
-0.2615438203215467
-0.3256941173261152
-0.3773569275466236
-0.44767721684600936
-0.5431462695357473
-0.6353654871930678
-0.7027385712555656
-0.7158230783197905
-0.6934478359008225
-0.6761953519288718
-0.6863879680488207
-0.7339162315723607
-0.7925318730727727
-0.8233516474505774
-0.8176267117732794
-0.7974725216224243
-0.7610877652136495
-0.6968193510790972
-0.6074628032482875
-0.5184694425262711
-0.46483828127114585
-0.4185657009161205
-0.322670690063325
-0.17819278250783843
-0.01916592094506477
0.12835699035243958
0.26504372363044343
0.40141242296501733
0.5118726838906682
0.6055924610372322
0.737079299826161
0.8803009073954252
0.9776179147926854
1.0350119644811533
1.0880683473880375
1.1570547111797178
1.203571450564839
1.195882783933355
1.1570029238497683
1.1271513871358914
1.1288258526755026
1.1446507951603928
1.1656710266698205
1.1674862457259911
1.1060843858196767
0.9952950358140703
0.8972760286279575
0.8697042437712468
0.9367066084086106
1.080640902634834
1.279399404008333
1.5204778586061811
1.7733785821970593
2.0129201379308026
2.237024969897754
2.4544216371850203
2.6523405155634157
2.8160135133522712
2.9855273004741316
3.210976409161024
3.4875289259704876
3.7353071965563145
3.8827778318715174
3.9592749728466576
4.023917867812918
4.100474534208702
4.186594585495373
4.258412676598992
4.2954279760597505
4.315606600441326
4.37768186654211
4.538339034513352
4.788227702531197
5.0759578763185385
5.382650089688517
5.712000386938081
6.058345633469545
6.383862856037127
6.638229646557467
6.7935807271318565
6.854022518838925
6.842372877752625
6.7512833246439055
6.567987916344557
6.295290793250158
5.934641169512354
5.52510735407909
5.128263509256635
4.7761585680998575
4.462154701967238
4.1417716349037645
3.777093938691377
3.377208448459887
2.986408954254771
2.6528208294713584
2.3898334871299425
2.17964004466253
2.0013395098534743
1.8482599836731488
1.7324365845981076
1.664174659809906
1.6372315507320092
1.62733945547887
1.6123515917041842
1.6019434368796157
1.6092960462801564
1.6328136643718292
1.6855218105278296
1.7807923890617177
1.9040882041062055
1.9950836954627869
2.003207214197608
1.9698208843069753
1.963127611349187
1.9927721621663825
2.0212690606729535
2.002160476710149
1.9289996876558315
1.8183333101543229
1.6565075299566456
1.4440181466770206
1.1940504720385432
0.9008758983158954
0.5430053736359534
0.12051090941098017
-0.2821464015259354
-0.6033782910424982
-0.8551643540315848
-1.054306249942323
-1.1929185205475077
-1.2602375137680464
-1.3245871219825798
-1.463274984693387
-1.6558096540665177
-1.8103833815703454
-1.8580011006645991
-1.8054138018613843
-1.715657409338671
-1.6585109691428277
-1.6797379532937875
-1.8004484061358101
-1.998307496252089
-2.2676212333327377
-2.63544251740952
-3.118145808808581
-3.6671782112953646
-4.17247652269974
-4.598315079601998
-4.9863116571846575
-5.391566850620552
-5.8028882970098
-6.138945481328106
-6.35142789809622
-6.441934469354245
-6.467294998225042
-6.439605226869137
-6.306139248575484
-6.057559084388368
-5.709718329201482
-5.31729406792063
-4.9514908584224715
-4.632323507509994
-4.335298837649009
-4.028428337028045
-3.731021251219701
-3.4795801983877674
-3.241937946180162
-2.94350729261098
-2.572465527856573
-2.1811635335791464
-1.8399791294771595
-1.6152826108643852
-1.5462033904575994
-1.654024262713589
-1.8916351395253757
-2.181827102305824
-2.495731235064526
-2.80606659711449
-3.1032753616708795
-3.38923056409608
-3.67579197223836
-3.9997211886025683
-4.357327179216548
-4.704061889020382
-4.966009278646437
-5.09856908709913
-5.137690952873575
-5.133676989076686
-5.122309888660846
-5.101391709214816
-5.01062540924006
-4.8014666336851
-4.469405771963842
-4.0459717201787475
-3.597560434889295
-3.1648666151432376
-2.75059790645
-2.345520989988021
-1.941345950541369
-1.5618189064955588
-1.2320959370728692
-0.9500967487221013
-0.7137475497760356
-0.5181355831276808
-0.35891492558184
-0.2531242837138872
-0.21754190668404788
-0.2525262867899069
-0.3405026350969875
-0.4407416776058457
-0.5108909653791108
-0.5326067493500712
-0.5114259384319172
-0.4744650418977252
-0.45360721920079333
-0.4840952001697827
-0.5780708847234957
-0.6906773992076811
-0.7812902215144805
-0.8342187943036894
-0.8605517491013156
-0.9056745302741869
-1.0032829824405416
-1.1593787687148718
-1.3391643391812598
-1.4970656545283156
-1.6227502369863371
-1.713736932992761
-1.7750980891208652
-1.8135566941458907
-1.8060398707288448
-1.7134278557402696
-1.5101806784599063
-1.2516329740685856
-1.0679884279364007
-1.0359740507230932
-1.1155014376305947
-1.1869485931319121
-1.1671596639801176
-1.0805264450293954
-0.9755316535565597
-0.8769274181553126
-0.7912885007464447
-0.7120440751680037
-0.6636505617536269
-0.6675127724989728
-0.7234545222098692
-0.8262925786081847
-0.9211963369776311
-0.9442659781008126
-0.8924774452822452
-0.8121149693309454
-0.7581929301979681
-0.7651757847562304
-0.812018897879312
-0.835462003736302
-0.7869372762457967
-0.6346705242260462
-0.38796378530235387
-0.10410314985669093
0.15397614560089268
0.3501534698623176
0.49104788533538957
0.596686022462565
0.6981615342402414
0.8189150977769764
0.919635337168941
0.9285582611529929
0.8190050922935068
0.6135250157797347
0.3488211136383018
0.0646104791184685
-0.17899731351972092
-0.3189116247103928
-0.3672198279046566
-0.3581222667589808
-0.30703476482640873
-0.21420805547577443
-0.06256709931524361
0.1083463361331625
0.25431550845418927
0.3455037014617341
0.36578496770945046
0.32796611954452204
0.2473354733321216
0.14871522011295618
0.030001039784858297
-0.1178108431185403
-0.2902507194070138
-0.4495796356677638
-0.5665449912586219
-0.6889731049289246
-0.8635560240517978
-1.0481367755962692
-1.1666453754163422
-1.227025703979127
-1.29249736320409
-1.3964205839366384
-1.5078879488573775
-1.5951895957183961
-1.6437893421758476
-1.6363119260446528
-1.5833245121863977
-1.478140137875452
-1.3200214699982629
-1.1044975525448086
-0.8073426169728221
-0.4408918271739226
-0.03863487721364397
0.34303885681062407
0.6735476141843232
0.974779780088034
1.2484577953405722
1.4921727504661841
1.6860906112984668
1.7732956678073797
1.7382376049061745
1.6072263592715124
1.4091926854319587
1.181076989560856
0.9212114887752806
0.5907447364852642
0.20143423596866564
-0.21100928456322213
-0.6210107754318535
-1.0419363782424238
-1.4868500663672952
-1.8870807938903782
-2.201480389550744
-2.433066150151092
-2.578369148229047
-2.647703192517193
-2.706674562439803
-2.840737356338685
-3.049227723413563
-3.2635892361955845
-3.395972344915103
-3.449695685703887
-3.490023615568308
-3.5333381596845364
-3.564021937575848
-3.5587960524425344
-3.5290505197679116
-3.4415279678626396
-3.2763436747314914
-3.1047002314784944
-2.9846911333700126
-2.939921527596359
-2.921453507929653
-2.8635509819990967
-2.752327090847638
-2.6168107846230098
-2.528239440644296
-2.516152770728241
-2.555758454682959
-2.6249163323608355
-2.7067596767686903
-2.79527537303576
-2.910907972534137
-3.0911384466827267
-3.319771822942401
-3.5236039065668194
-3.6749304729093764
-3.7794421044882482
-3.8435896455025245
-3.883719299908682
-3.911108638487643
-3.919165027815527
-3.8933518950642094
-3.8509089164584336
-3.8134723264015546
-3.7924005483163423
-3.7866727499156863
-3.7946416396835794
-3.822616357125851
-3.8316498358630695
-3.7776694953389134
-3.6631721647293594
-3.5477592002145566
-3.501448527212871
-3.5424504024352492
-3.6506432565182125
-3.745895934925871
-3.76031828195988
-3.719037495057129
-3.6534439486698647
-3.586697178919867
-3.552479934681686
-3.5426419503275106
-3.5420921247435206
-3.5543992110429374
-3.5654663147314407
-3.5449983929506734
-3.458224711609726
-3.333460650227028
-3.2142839215121017
-3.077632649110789
-2.88768851868775
-2.632784204050229
-2.376181979745275
-2.1588734342043097
-1.9535272888408866
-1.7500419900101865
-1.5581670123999265
-1.4325794932975258
-1.3728402443561336
-1.338886445572493
-1.3336286647870672
-1.336340731232571
-1.3168811674091918
-1.270743530267428
-1.2618989185667813
-1.3514820905032747
-1.5282355375400174
-1.7474266415564805
-1.9651139216024114
-2.1915732187142476
-2.4261757310462158
-2.623762931685164
-2.7500342650041625
-2.807508942426686
-2.869291176142015
-3.0260438193043644
-3.3013970431792377
-3.644342377677718
-3.9943626991913983
-4.317049891532735
-4.55645327581695
-4.700737867474121
-4.816342773831118
-4.9522955042122065
-5.146297506070991
-5.400523204150502
-5.664182986858439
-5.870038595754941
-5.958486596867191
-5.9347233537448645
-5.80578404922772
-5.556443251530008
-5.186383047394638
-4.735471560275726
-4.278446599923269
-3.8192221399569575
-3.3678865672658755
-2.9775324490486335
-2.6622116060686243
-2.453310131409621
-2.4102588700969996
-2.573290384704038
-2.8996151412559255
-3.278319555714549
-3.64440580115822
-3.988163390903957
-4.328432505628136
-4.680145915263122
-4.994842025335215
-5.177749818384641
-5.17811749845875
-5.077054603672387
-5.028344917039768
-5.104059261835367
-5.2748875373721456
-5.468678951835597
-5.620679388180076
-5.716330195128134
-5.749673171366706
-5.741465693211073
-5.721025188300459
-5.681283624608381
-5.6360041367472995
-5.576069231695814
-5.498692019576585
-5.365733501887578
-5.126049326677798
-4.831116416435161
-4.52182988935397
-4.2457902092693764
-4.0122716570395935
-3.811485755777915
-3.6300432234058535
-3.365859451220354
-2.9819048830079438
-2.5042192201691402
-2.045678911093361
-1.7406072236902113
-1.5943778767349732
-1.5660603743200552
-1.6181248135493167
-1.7454953538691116
-1.9148835341158328
-2.090735739741073
-2.2687438564552016
-2.4354674320545127
-2.593683811689116
-2.7123482290924334
-2.744482619567733
-2.678134905060125
-2.534710993886274
-2.3397316198701184
-2.1313021359908735
-1.9122723097297083
-1.624219510396781
-1.2781946148757173
-0.9223399572298123
-0.5970102182057319
-0.3057591161940172
0.015804512629693183
0.4302166477346866
0.9466512580639221
1.4827823808122458
1.9497400453151386
2.295219179034134
2.5404248494450674
2.7504544761014853
2.934016154666467
3.0803518112201873
3.1682063158714446
3.20835079271153
3.22969174747381
3.259479370565805
3.3026579344127316
3.37248327677727
3.5338896166784544
3.7953668482659824
4.123949338158051
4.466991383538589
4.810212358857775
5.173303646849693
5.532177235920686
5.831617425973431
5.997743517506757
6.024228076589462
5.951376061410551
5.845223717819103
5.76495789544827
5.68574595863053
5.584700499108072
5.477063445434244
5.388837008938407
5.365526954284437
5.460546400783483
5.680012772156923
5.970801067948551
6.230668246717192
6.379038565417746
6.442591610144279
6.477390511240621
6.563307703894376
6.7693409572703525
7.079294954895601
7.420721107525519
7.709286786618049
7.9350893239624245
8.127106742651467
8.349344620599165
8.680162924356527
9.115677614225548
9.614289790181912
10.108399056386324
10.546982281041439
10.918830193305663
11.206718421740828
11.444996123536933
11.694797715113095
11.962296312398943
12.190684503384059
12.30293726138899
12.304584973993267
12.270495489559538
12.28786487242481
12.381835662290602
12.460601260640862
12.443746011629159
12.303139977795398
12.08658672772142
11.900645457072965
11.740240197923775
11.507034003468243
11.1340136797377
10.619898053175616
10.009176249592178
9.355984729756692
8.705518507673911
8.05645114660617
7.341978541403861
6.498210882978617
5.54214225581658
4.5941322153385205
3.807276741091591
3.2290566269123078
2.830215522722173
2.5889824521762828
2.4572803417908666
2.3730011875493062
2.318785448945468
2.3289595245832713
2.4077559153675456
2.507935372378865
2.570367836525585
2.5927179405709984
2.666828019260247
2.885614998421629
3.294884597051503
3.8252567104426416
4.289590087218423
4.524849907006572
4.509369688465876
4.326675381079718
4.046732362764781
3.723329851914329
3.3549640208184215
2.8807127650751636
2.287416466842292
1.6655069558760491
1.1379289877833212
0.696095046369268
0.203003887663132
-0.48463364572774337
-1.4151219668335249
-2.4665460270756565
-3.4456317716767177
-4.198515983755264
-4.695663935915688
-5.047343830513291
-5.318392567159852
-5.5213095585770375
-5.66055467669954
-5.735962875600042
-5.772983828083067
-5.748467652280389
-5.619287020734162
-5.345829912492196
-4.913067731620653
-4.3316839759567625
-3.6836065771817146
-3.1253166361548326
-2.682677599197894
-2.3170484077894375
-2.0125602085940346
-1.8044839727420086
-1.8206153221356294
-2.0783568392655822
-2.4477177335595557
-2.771337706894156
-2.955155659475504
-3.0714858652785075
-3.2660740278276923
-3.57683993929217
-3.915152516991237
-4.172776946286443
-4.336937989104195
-4.492306720317826
-4.704337329180185
-4.924872774447451
-5.061721348086302
-5.077618962843086
-4.975466505703322
-4.789404532991562
-4.629941426374085
-4.609326910863477
-4.676541222574991
-4.6479706729282215
-4.379276602158098
-3.9138885598968187
-3.433678258992328
-3.0326377302971075
-2.6450247128955433
-2.2062218067261283
-1.7623515137268713
-1.3787542766981777
-1.0607682806222578
-0.7314783432338116
-0.28637429152147237
0.2774109069429303
0.8714868688702601
1.3958358495352499
1.7333292261294442
1.7738662099593365
1.4589000464050221
0.7943638415860353
-0.12018478738624758
-1.1520649820473028
-2.186466018989448
-3.094790301295606
-3.798726073459431
-4.29916184581037
-4.630755063757268
-4.855119724539582
-5.0415022358937955
-5.234329460676068
-5.408861123829601
-5.4694067369329735
-5.305799265866985
-4.866632528270715
-4.165740233565812
-3.2703975266426433
-2.336493817737582
-1.566111681210131
-1.091728308120656
-0.8800760731529141
-0.7578081514411669
-0.5656929202530109
-0.3005272448008286
-0.07349339452468122
0.027676836387191654
-0.02881324306684891
-0.2550069331450302
-0.6271538265194146
-1.0820531521515868
-1.544575764337016
-1.9382019001335624
-2.2244103431175466
-2.4107928081565877
-2.571855363962933
-2.7365345299321677
-2.7777053983979028
-2.550958195064432
-1.9842276201732683
-1.1369851890523666
-0.171958310437072
0.7766955483854449
1.6488589384633816
2.487714664827363
3.32571686267582
4.094690784734533
4.721687473813151
5.213598825378159
5.693312409595513
6.284810383110199
6.985149214253829
7.650319133922169
8.054083857141721
8.051620559780977
7.720202352746153
7.292458594199328
6.937620113573797
6.656639164188592
6.340541245924228
5.913426787632068
5.390894993857832
4.809808970264281
4.162393312890135
3.473889385278625
2.872546999160534
2.4735252485777943
2.2719384455100538
2.1183400755276147
1.8806847669054807
1.5597325833578137
1.2021737173788603
0.8741997018981961
0.6230495459596033
0.43197660319804115
0.3097100200973544
0.35570119219419094
0.6509087249784914
1.1404329150432408
1.661733781765863
2.0606973556251726
2.2716252739488625
2.3550072058600375
2.4309603384281346
2.5671553003737784
2.7704094415342406
2.9642942181879737
3.07796307135697
3.143016563495233
3.201030940534287
3.2338991820910232
3.1583764591983687
2.93164390523488
2.6204038355355284
2.3434648699175047
2.1656903407951096
1.9993466019269843
1.6748765115200828
1.0620724843553986
0.19764592282239632
-0.7196667297845241
-1.4724267202581882
-1.9334824113430709
-2.182925613782869
-2.429832047168136
-2.8363646088857286
-3.38786579821049
-3.84320789857268
-3.9956771381545932
-3.9349542070209584
-3.937155719007516
-4.181692827788392
-4.572493911959755
-4.880530689293002
-4.999266266898901
-4.976934807980605
-4.895882229678469
-4.771727118839479
-4.6095903612776405
-4.419563909492568
-4.17989204717102
-3.84280392148168
-3.406188178267011
-2.9814451537649385
-2.660341595225208
-2.46344195052732
-2.353535834706532
-2.2330324821821774
-2.0622703124129966
-1.9137429823672725
-1.9035942689744596
-2.0644120754493325
-2.2861740101572336
-2.42705416547141
-2.429567386680459
-2.3307323847010215
-2.2161948326883203
-2.113465928940051
-1.9881061755593976
-1.8072540874989758
-1.5994730339378704
-1.476549994248209
-1.4847798774959455
-1.6033292609064895
-1.7910358175477805
-2.00456593458067
-2.2332240002974975
-2.4041058899483123
-2.4771806058762595
-2.537672707825096
-2.674736810074495
-2.840899486655877
-2.8459106730810504
-2.57595221769087
-2.1121076583948835
-1.6273924027030238
-1.1824952984628438
-0.6127518432299024
0.20538027102699555
1.1596559591220776
2.0259226359685183
2.6182900331979875
2.9978456639564497
3.341960855469176
3.7197971296373575
4.1665973118050355
4.608342160459161
4.8973048624757025
4.991956355351219
4.928968397080313
4.79003641383144
4.6671484210907375
4.575457050681472
4.579097647219869
4.761357739223643
5.003993159989012
5.146099543896129
5.147575100901218
