AAD_Filtered_TADAS_FILE
AAD_BASELINE_CORRECTION: BASELINE REMOVED
AAD_FILTER_TYPE: BUTTERWORTH
AAD_FILTER_ORDER: 1
AAD_LOW_CUT_FREQUENCY_HZ: 0.025
AAD_HIGH_CUT_FREQUENCY_HZ: 40.0
EVENT_NAME: 202302060117
EVENT_ID: 13194
EVENT_DATE_YYYYMMDD: 2023/02/06
EVENT_TIME_HHMMSS: 01:17:32.00000
EVENT_LATITUDE_DEGREE: 37.288
EVENT_LONGITUDE_DEGREE: 37.043
EVENT_DEPTH_KM: 8.6
HYPOCENTER_REFERENCE: AFAD
MAGNITUDE_W: 7.7
MAGNITUDE_W_REFERENCE: AFAD
MAGNITUDE_L: 
MAGNITUDE_L_REFERENCE: 
FOCAL_MECHANISM: 
NETWORK: TK
STATION_CODE: 3129
STATION_NAME: 
STATION_LATITUDE_DEGREE: 36.19117
STATION_LONGITUDE_DEGREE: 36.1343
STATION_ELEVATION_M: 106.0
LOCATION: Kahramanmaras_Pazarck_Turkiye
SENSOR_DEPTH_M: 
VS30_M/S: 447
SITE_CLASSIFICATION_EC8: B
MORPHOLOGIC_CLASSIFICATION: 
EPICENTRAL_DISTANCE_KM: 146.39
EARTHQUAKE_BACKAZIMUTH_DEGREE: 
DATE_TIME_FIRST_SAMPLE_YYYYMMDD_HHMMSS: 2023/02/06 01:17:37.2659430
DATE_TIME_FIRST_SAMPLE_PRECISION: millisecond
SAMPLING_INTERVAL_S: 0.01
NDATA: 12501
DURATION_S: 
STREAM: HNE
UNITS: cm/s^2
INSTRUMENT: sensor = GMS+/GEOSIG | digitizer = 
INSTRUMENT_ANALOG/DIGITAL: 
INSTRUMENTAL_FREQUENCY_HZ: 
INSTRUMENTAL_DAMPING: 
FULL_SCALE_G: 
N_BIT_DIGITAL_CONVERTER: 
PGA_CM/S^2: 1209.572
TIME_PGA_S: 
BASELINE_CORRECTION: BASELINE REMOVED
FILTER_TYPE: BUTTERWORTH
FILTER_ORDER: 
LOW_CUT_FREQUENCY_HZ: 
HIGH_CUT_FREQUENCY_HZ: 
LATE/NORMAL_TRIGGERED: 
DATABASE_VERSION: 
HEADER_FORMAT: DYNA 1.2
DATA_TYPE: Acceleration
PROCESSING: Automatic Paolucci et al., 2011
DATA_TIMESTAMP_YYYYMMDD_HHMMSS: 
DATA_LICENSE: U (unknown license)
DATA_CITATION: Turkish Accelerometric Archive v 1.0 - Disaster And Emergency Management Presidency, Earthquake Department
DATA_CREATOR: AFAD
ORIGINAL_DATA_MEDIATOR_CITATION: : AFAD - Disaster And Emergency Management Presidency
ORIGINAL_DATA_MEDIATOR: AFAD PROCESS SERVICE
ORIGINAL_DATA_CREATOR_CITATION: AFAD PROCESS SERVICE
ORIGINAL_DATA_CREATOR: network: TK
USER1: GuestUser
USER2: 
USER3: 
USER4: 
[...]
7.434101765639835
3.9022466830146483
-0.25441847138111723
-4.955794146099773
-12.855678494618775
-17.317281641679536
-9.988098671990958
4.590095748662885
14.141641049647628
10.046689662049088
0.8725587979344608
14.256719361768774
50.268874669881725
76.14998762994658
66.67574553145235
27.892860621263413
-2.8600435097384755
-3.211583183026524
11.036436528552048
17.433426665696306
16.527828732256808
19.078788531661626
17.483742302361673
5.347800987446368
0.7980700424699341
14.349079602332859
32.33560231549875
37.6383535997552
18.238990651649758
-8.889114472895828
-13.279458457227772
-5.458438144791106
-8.322807000637969
-17.656367300766725
-24.742693335951103
-28.443431721990446
-31.091279359030313
-34.74597311298126
-32.171429194290944
-21.364443494743192
-18.23506774334543
-30.32180211414276
-42.883933067775395
-42.587492236156415
-34.24150939639884
-31.172058758320922
-35.738225982395214
-39.24928116554943
-42.71037347958594
-47.03412876755877
-46.10129079460029
-46.59161476827074
-47.31301234422759
-39.312481948927356
-26.898916672963495
-9.959637189855135
5.526958055052386
5.923840113228395
-7.198454201036817
-25.85395629076064
-40.14015819876397
-41.68304794635645
-33.98660212769209
-26.05214168998768
-24.234906651879864
-25.818921525214236
-22.582962763391638
-19.66384841022747
-26.71388406133456
-32.83565890648527
-21.60196692739598
4.4565476519653835
26.926684494255024
28.483847565503147
20.483611580557714
24.465257339603212
26.43379007843205
10.094203312125803
-9.91362082560407
-15.390590919351379
-3.899163286823184
11.977979083027632
20.016378079947966
16.940329516566106
5.192226691493156
-8.858911188126712
-17.214352432862476
-13.157870708580495
-3.3411949817434596
-3.830876709542174
-15.557717864742216
-20.533586823535398
-4.431298974498867
23.25761676319793
41.021590463759786
41.821672689080714
32.51036111939047
21.048889806610315
11.588746021999716
6.183298019379888
7.027515879385194
10.7024330850805
9.51045701515174
-2.178691427034581
-12.718061167483208
0.16760318003143435
28.54580021726461
45.67965598839857
48.03077372452132
45.927756896052735
32.88352624495165
3.0988394628297495
-22.39073619946744
-25.076128564112434
-15.145163772099316
-13.30240732915886
-20.18949033082428
-24.731218808748583
-26.819117012942808
-28.022862121054175
-29.045603030931552
-28.3557599443689
-22.510336348984794
-15.97829982734066
-10.069351306897786
-4.95869843305333
-5.880462471274718
-9.991079651718039
-11.119531647577226
-2.852596138361013
11.76572718277697
16.91776424242989
19.923109950297352
34.780594793393654
41.87255457803129
25.642437287031363
5.033445149302549
-5.050638700138028
-11.994039842887863
-17.709803986678377
-16.65741717597636
-10.698443609684565
-0.6291197608889711
1.6253547396797703
-22.383318359365617
-45.547547467525284
-31.563632641834594
-3.361108241981532
6.976933911176591
10.448466142221355
20.763334021773602
22.170375972474766
0.7488095107223334
-32.10566543771586
-56.73345838491485
-58.70726729580653
-36.169283081073246
-7.060530483558582
7.530018471045072
2.113989553591943
-12.930002672550923
-19.936993155088345
-11.338917846059944
-8.723709424939841
-32.521375155133406
-51.934633861158474
-36.184396481480434
-10.802838356898183
-7.36333019847321
-12.821875066389964
-1.587491587954529
13.450498151421668
20.318218218733318
31.34726943997546
50.35715325832718
81.77700783227466
111.71218495182572
111.3564972591968
80.20367411996384
39.923807843667966
10.138585289400806
-1.8134244789932399
5.8982928852216965
18.083730400153534
16.833988923365826
1.114921532789896
-18.507282529194043
-15.020806300762866
8.733676753797518
21.8434721375581
25.611306149515823
35.13019759758815
42.23465088611855
24.875008354293822
-5.846976982214039
-7.974881870563198
21.25177288609224
45.22945531268765
34.48953255367764
0.9632550719781555
-8.344875412662406
12.26913865938908
25.633086632858756
29.340478907663105
44.62215508659892
56.09031389539141
39.85605366305795
8.635593420628908
-10.101193321532415
-7.337859512348938
7.585245260142305
27.399964614806358
42.01387466606888
51.65684239631823
51.57559635343028
15.643508413684247
-36.81403898747999
-63.29801177765662
-58.92392483235876
-34.36545303798123
-6.075877971727767
-5.944679797175742
-38.118459262547205
-62.485848122944155
-61.633940457456845
-43.95995068649468
-21.275222031046255
-4.7772253757059815
7.4691264415588305
15.52026989494012
13.895180977776981
-9.56649305145617
-41.51520838816771
-45.25558042113243
-26.9379736379647
-28.029799962334508
-52.48366410929857
-45.898815208459695
0.39930609726890937
31.74164558725777
30.438456294857783
6.51759213000931
-11.086305901828895
5.750150405637064
28.408120183296116
24.670261203063397
0.4174465689291179
-14.44447204024587
-14.126097950099192
-28.548161226466792
-44.18612293839828
-26.22795172516623
23.332537381993724
67.44419684859673
63.36659606490196
29.243115211287265
14.342794392256106
18.250581381395623
10.168033109600717
-1.785214247300906
-8.863260911190842
-44.60531265250171
-94.40312334194103
-111.93278861210152
-90.62524630356285
-55.34135884038687
-37.51125147141027
-14.051248237466611
33.7760088090971
59.582892875638954
31.566191044938442
-23.13412480394435
-41.852327219744566
-8.866680543134555
26.376877721490747
24.39350599020492
-13.080848406130093
-52.79395220567331
-66.39151763070737
-65.27473865383742
-66.88785755758431
-69.14916870872622
-64.10295853184685
-37.59842322122977
-13.987333426515839
-6.759100869158531
2.6422956277100553
-15.048598859051419
-39.32537004011025
-20.920134861941026
0.9981738566094074
-15.275327577151597
-45.1758200738901
-43.356496494521295
-18.241683510634246
-5.1470396115518415
-6.483140847656368
-21.251687633689958
-32.5967174784985
-36.73865565424563
-63.483832264040956
-73.48700460412388
-37.88595211303052
-28.42800506840668
-75.12564488497478
-121.90747921553707
-124.06137713047734
-111.84621212288641
-138.01676958795463
-144.67294052716522
-67.30875923668411
-0.9599404334047786
-22.25857640758273
-93.21171771911303
-159.72800594383605
-162.68306408029764
-92.22129945220381
-5.673931585923425
18.320859673262575
-42.36847893489467
-99.12763426433979
-81.23722306229666
-21.70535982600121
8.241147609037203
7.8322213984352755
23.331942630808797
40.25720258293173
53.75191178216195
82.3601500449534
89.10632482439426
49.37875504190399
32.5383858174704
64.8982761511186
54.856383837623476
18.07032778466314
29.243765304557567
41.481696921154686
34.64286331886044
42.72863187398397
64.18523862215797
100.31857876381504
128.25623176091636
99.14464375345683
23.58281146628278
-61.28908577804657
-143.690953251948
-172.04462484250942
-56.56690159298341
155.5014334246313
270.1231315331119
215.5775940106708
110.65000540135418
71.53136462692761
73.72283573489402
31.183319259221125
-43.277263326086924
-59.69827965791404
37.742179821905424
194.24515081522426
267.65822049989055
146.58703072653296
-86.6680225975206
-210.3301289829746
-190.1050126022358
-129.0943547297443
-88.76076873428163
-104.62514183596817
-112.47435973360336
-70.53165025770554
-27.58600602140886
-64.95783025122435
-194.93757221141135
-265.9712316425907
-214.11595124405642
-68.86879054538353
47.93630023522083
-24.110336816299238
-160.77199511461976
-206.1744156195155
-138.07647562029845
-28.273251639454827
-39.674607192816225
-132.91240161317464
-144.10364261398794
-69.44422004220974
8.268785981875041
38.65563063162341
-41.73771866298153
-184.64075535297442
-178.80549527936884
-32.11116073926239
54.01296426540519
63.834716456303745
45.3120315254419
-50.75096549917363
-200.03527305783712
-264.5320630177566
-179.6052486390231
-63.11946425681322
-60.495547511663844
-95.0669393089195
-33.61458196545473
96.35689447659597
238.1351138914293
222.0076436718619
-3.2394349257584945
-148.93781529533706
-53.403795522361754
150.93793351193233
220.2056741478051
110.34272988178719
-28.461974187909842
-126.25466976157442
-163.07506554686978
-186.00848390319166
-175.2594300681023
-84.8152737117848
-1.4917486406028169
29.857981280092435
9.485959375198904
3.9887290580936874
27.38146096311104
-8.192574021694279
-37.40206632405532
18.44478552839319
123.53725475708096
151.92926591393805
31.95499228297485
-113.33209641590015
-172.94019398793586
-97.60796567380827
23.85421710461566
41.308813407649396
28.969615667027448
67.30995445661225
120.49167300029036
134.09963117188337
82.75908737326807
107.48704310841865
240.24275995893552
272.3792698201514
166.16163254116822
66.59218433071783
70.76889094189507
156.17908123257646
180.19572984240702
88.20348898955635
11.92713234621437
78.6478582703255
202.68804707080704
243.32673562348597
249.81535494054103
213.39778693891392
48.81402541925992
-143.56082447600883
-232.95940543474342
-220.29876676813646
-150.5936246164442
-26.55632622434105
124.57869097497048
241.4222461651048
251.47804603939142
61.00319066387639
-197.5097510672913
-276.1391749359806
-100.96291556010782
244.86889736621467
448.8912909033493
321.83784755626044
67.32771570344839
-69.8751669530261
-70.81507680695351
-70.29034407906288
-111.59546304977677
-160.010368872192
-161.12219251069868
-96.76749214383099
-24.90826878431269
16.346971400678672
-0.8140133861213376
-19.917429143449738
39.19757244508484
155.6904388015646
254.9751540810101
266.42384399623427
223.84795619924478
199.78565049401809
187.47045417241713
140.08237215680813
60.14753448927214
18.743271493397103
28.863979861951123
27.06532520427988
-13.510622702081774
-39.65089633698146
-0.30013190838172377
30.236703681068597
6.120613218535528
24.86877719830714
99.17415786844114
143.4981537964651
125.70764903191689
66.55015551819649
17.84697701400784
-4.663528640011495
-12.844775517242452
-5.95193186591905
-6.654940996303912
-17.90020203349573
-24.559257517431984
-31.358732373834204
-21.537124392075256
30.980846858191654
102.8150193160489
149.08676811266395
154.3838605266772
121.98275211418337
83.62646842850222
57.56044080074345
23.75650358439157
-7.2698248473039415
-7.6915035571842685
36.54104278641626
103.47176455829424
157.21404544925846
167.74208064247227
102.954300836804
27.178762885101424
27.00261256586685
85.22764947989413
117.59909239100999
54.631026007337994
-45.03216422211745
-81.66265634508856
-40.76519553307354
54.073716188748044
187.75433162830032
304.4416494563065
332.5418931742682
276.0789544044771
145.8716008071535
-12.792479777550513
-127.86421430357036
-173.22164837039364
-115.78282666184045
-16.74162614915345
75.62358366700559
246.83777547841012
392.11239166773834
312.28570078683003
113.11231031071215
-6.296365764693747
-7.947690142723539
69.64265495913139
156.69713329647752
221.38847262104767
270.8242562189738
304.7874371330687
343.2532655486819
375.4800102677059
381.8224707112874
381.5343748991072
365.9425419432938
297.9253473073238
180.98161619303912
87.77076886137252
52.57605330129545
21.370063743901806
0.5650720364828238
17.878299458274153
6.640716180182076
-60.06797530225016
-94.69062625698665
-45.725481488961506
20.141119454599938
44.23826647117533
-3.3803002606758974
-145.2995376664088
-333.61328839910607
-494.6462388056786
-573.1674894732023
-616.3643008619681
-637.9698670355217
-533.3247888774251
-379.92874943728543
-315.586749539861
-295.7865905980973
-266.0260699165318
-244.67712818535398
-207.3964462364193
-170.49760909074246
-198.0891719446966
-225.8263808690047
-242.37658932568047
-346.7243480653649
-468.93322819503777
-439.20928388936704
-358.75547947250897
-387.44386810988266
-431.41772344848204
-424.7194472241848
-350.8319187429955
-237.55042642296314
-160.45983396616091
-105.68704522052896
-81.55277916544571
-70.67751965977365
-17.750286465650362
89.7644362262877
263.3479301858697
476.627347477725
649.6299630180912
730.0127114888079
704.775059484746
583.4919001342568
419.0498902850993
247.75553394859656
80.84678088517866
-56.61092488479972
-107.77949263639421
-30.9994080752872
107.29208203874305
238.69098198707385
355.34888606674434
397.64646554534175
282.411369245302
43.52372799878119
-184.92677865501628
-369.44272895219706
-571.1471247783787
-765.2583523096748
-917.4470884407788
-1017.8131032223913
-1003.2374701753744
-862.7826740934053
-651.4208226819176
-420.48406795814617
-237.30856960910754
-125.713787078661
-18.493949090644314
70.44182557687398
88.2347522722948
110.12794001935171
129.20460157446558
109.04482098652535
58.586611133089335
-76.36156026382925
-233.6776396629321
-287.2428494470933
-155.28847410613764
67.71303749970043
203.06102148098924
301.599159908284
436.4844977309243
587.133246272505
716.9209536604299
814.7804195800682
889.249004337573
836.5261386041049
553.6541429143318
189.60480901414277
-85.20396851049455
-341.44657386676096
-630.9850707533582
-940.7126838722987
-1181.5245033176388
-1201.0858073271527
-1037.4369097739063
-777.3866740693575
-423.7638218829666
-68.1531657004026
174.67707929569096
313.58809734028097
358.9723502591703
341.6616111759042
351.6376058603541
398.62121253522093
499.01008463674333
699.7940370568365
921.5414030033878
1025.5794832203167
969.8164949431132
813.1039247165162
621.9378460124202
393.98336055427836
156.34786129836047
8.020603095135982
-30.019081847791643
-27.836995501265946
-73.50442530303404
-180.661272503729
-260.77966209084167
-304.7989393285494
-380.10635091330676
-520.4810468859463
-726.2492900888085
-973.4269374831409
-1146.2683952824455
-948.4992025705587
-435.8315327841205
-11.597512647718073
244.23870367930903
399.155884609231
493.3891811843668
636.6691226499939
854.7271879744662
1021.8181539121362
1127.595214900368
1074.8683339346217
890.629712885844
757.5309130897585
459.19622586293684
203.4974353470482
84.90675674112532
-120.27611567726484
-187.7028177181253
-229.3149398338929
-347.46891175744656
-459.985450703368
-632.0523275103737
-885.3265484942608
-1037.6874332369016
-777.0235084458809
-337.77095812633
-83.9330764504851
53.47644381218336
182.25179955908993
309.51976243464713
450.6659362734564
581.6533887949568
656.6273800147112
627.0536631384014
395.92072886571896
102.1354450221986
-91.31339254845953
-222.62368949457047
-322.0529284143709
-359.2214755726388
-268.364562817189
-146.42228582118764
-80.66767162009423
-17.881230201707996
65.3622016660847
115.355737861825
93.82748561210944
42.33138453925766
-27.305789124251866
-114.45904663860458
-198.8160779176973
-289.18163777459273
-331.2847742677988
-178.33077075182402
56.58307924617138
167.7938475609682
210.00023070764013
230.22569719121526
252.29872213883624
280.38317258562245
312.81325351878905
355.9944441091094
366.4697817465577
365.09603192588145
311.5235529196116
224.32058109929025
184.40189997331726
155.62003069690653
122.77922844723557
72.60995905398038
19.87548748495789
-24.100555875734553
-91.08109458463458
-166.9059260022118
-258.52876321180963
-307.7951982546241
-193.0108908990712
-10.18065720902391
99.88751412501136
201.75052737142224
329.43278870989775
428.80467056121927
457.38666953342175
403.46547593008574
307.0825432416905
178.61702411817203
-5.14471082645722
-183.5936950481963
-280.51253176062716
-341.6217728671916
-438.02480688096404
-570.7850802133353
-684.8594561946572
-703.4243158206345
-594.9428673231416
-406.9795702828632
-201.73935003294747
-43.00618669259906
26.922127295321097
63.6735319665978
131.47981494463966
244.53912099708708
365.75927888904414
493.7516480650313
658.2307476772039
768.2469025060354
736.8166948423882
520.6385977595263
203.24414979525187
-13.753484190344304
-174.28308721946132
-383.4057512411245
-591.4883814484897
-769.1419967964497
-918.0513217218339
-993.359088945558
-916.3574756130905
-735.0361447940002
-522.2163290532094
-275.15846402361245
-74.43276926496304
56.55234871006402
189.24579872642744
306.78094569487905
434.688412370368
539.9277997487022
532.6821595553323
526.6874965911462
537.7016669283398
539.6476609765509
571.7357313385692
512.08363090977
404.7828786974661
354.0737836146244
261.12415212203416
146.64093245588813
48.54706406834791
-37.31791675826378
-59.49189797333896
-82.29127542320388
-118.91424202208951
-138.86820012580506
-184.0495366343494
-249.47784949269038
-326.4403932981595
-416.4078277788022
-542.9851274116726
-731.8414744507571
-918.3601156460268
-991.9864850617155
-937.4782867530392
-770.8037056910665
-486.6322253369619
-192.87691741489968
12.229150258008463
128.51067531723277
180.38709589833596
171.46301237152528
69.47424505069367
-112.83649407039267
-292.55596343460036
-417.1126479456674
-507.2986399442115
-479.7811813949782
-278.56995774661544
-53.602158389768995
92.11237336269971
165.7316166969765
195.11533848711747
211.03504267585748
239.805996927481
305.7358352818641
427.37947894743763
617.6762341896879
809.8755230847484
900.4940464067381
916.8359693672495
886.564573361227
754.3877758803521
584.0370550011942
463.41569890204937
392.2646461694053
356.5439879181139
334.0122214777059
310.4813065372644
267.14215282733966
181.85422993079735
86.8440644435134
29.10417080986802
-31.01598400597112
-58.31549045664025
-75.31093764472331
-108.58188950363704
-159.9173241711441
-293.8156728609496
-380.97404214422096
-527.3004611246822
-575.8811002151243
-631.9892607871159
-603.9938293812407
-270.9775183951323
-520.8695979692417
-463.08560408303515
-44.14192360119737
-246.55907409904708
-187.94639270862103
-112.20392541391094
-80.95931947600502
108.22580415099725
157.0790608021489
211.4008173297454
170.39186021776527
135.48119924795512
125.90265335996992
100.32915748235655
91.08432556875302
45.14186107124249
-14.48169927724528
-120.07296915335431
-248.9417309009313
-365.1052588076653
-496.4379403782612
-596.9513997781835
-661.8822354852412
-747.343905272979
-755.0398069517904
-651.9252684738755
-522.934436285736
-402.27391099948034
-309.36064292407144
-229.96503885656236
-136.95572987131985
-32.460271303429785
60.49802858283149
136.63954279659018
192.8127360727021
258.64394883365406
337.15289060600173
410.8338077898405
524.3702977801062
590.7991591702679
557.7524392225818
490.678043862746
373.93540592653557
253.15359661264284
190.36189775348748
155.4115008373119
111.91666512958504
52.42272691134868
-3.1404895465973213
-1.0222536897975212
51.95057803175534
82.81535148775738
102.62974909342763
151.23496474078664
237.55393109782784
342.5876149206655
