AAD_Filtered_TADAS_FILE
AAD_BASELINE_CORRECTION: BASELINE REMOVED
AAD_FILTER_TYPE: BUTTERWORTH
AAD_FILTER_ORDER: 1
AAD_LOW_CUT_FREQUENCY_HZ: 0.025
AAD_HIGH_CUT_FREQUENCY_HZ: 40.0
EVENT_NAME: 202302060117
EVENT_ID: 13194
EVENT_DATE_YYYYMMDD: 2023/02/06
EVENT_TIME_HHMMSS: 01:17:32.00000
EVENT_LATITUDE_DEGREE: 37.288
EVENT_LONGITUDE_DEGREE: 37.043
EVENT_DEPTH_KM: 8.6
HYPOCENTER_REFERENCE: AFAD
MAGNITUDE_W: 7.7
MAGNITUDE_W_REFERENCE: AFAD
MAGNITUDE_L: 
MAGNITUDE_L_REFERENCE: 
FOCAL_MECHANISM: 
NETWORK: TK
STATION_CODE: 0210
STATION_NAME: 
STATION_LATITUDE_DEGREE: 37.7672
STATION_LONGITUDE_DEGREE: 38.2866
STATION_ELEVATION_M: 741.0
LOCATION: Kahramanmaras_Pazarck_Turkiye
SENSOR_DEPTH_M: 
VS30_M/S: None
SITE_CLASSIFICATION_EC8: unknown
MORPHOLOGIC_CLASSIFICATION: 
EPICENTRAL_DISTANCE_KM: 121.92
EARTHQUAKE_BACKAZIMUTH_DEGREE: 
DATE_TIME_FIRST_SAMPLE_YYYYMMDD_HHMMSS: 2023/02/06 01:17:33.0591560
DATE_TIME_FIRST_SAMPLE_PRECISION: millisecond
SAMPLING_INTERVAL_S: 0.01
NDATA: 3540
DURATION_S: 
STREAM: HNN
UNITS: cm/s^2
INSTRUMENT: sensor = ACEBOX/SARA | digitizer = 
INSTRUMENT_ANALOG/DIGITAL: 
INSTRUMENTAL_FREQUENCY_HZ: 
INSTRUMENTAL_DAMPING: 
FULL_SCALE_G: 
N_BIT_DIGITAL_CONVERTER: 
PGA_CM/S^2: 65.910
TIME_PGA_S: 
BASELINE_CORRECTION: BASELINE REMOVED
FILTER_TYPE: BUTTERWORTH
FILTER_ORDER: 
LOW_CUT_FREQUENCY_HZ: 
HIGH_CUT_FREQUENCY_HZ: 
LATE/NORMAL_TRIGGERED: 
DATABASE_VERSION: 
HEADER_FORMAT: DYNA 1.2
DATA_TYPE: Acceleration
PROCESSING: Automatic Paolucci et al., 2011
DATA_TIMESTAMP_YYYYMMDD_HHMMSS: 
DATA_LICENSE: U (unknown license)
DATA_CITATION: Turkish Accelerometric Archive v 1.0 - Disaster And Emergency Management Presidency, Earthquake Department
DATA_CREATOR: AFAD
ORIGINAL_DATA_MEDIATOR_CITATION: : AFAD - Disaster And Emergency Management Presidency
ORIGINAL_DATA_MEDIATOR: AFAD PROCESS SERVICE
ORIGINAL_DATA_CREATOR_CITATION: AFAD PROCESS SERVICE
ORIGINAL_DATA_CREATOR: network: TK
USER1: GuestUser
USER2: 
USER3: 
USER4: 
[...]
-0.06514721924326047
-1.3435404454569215
-2.0714204198642663
-1.6318479736272398
0.8028051137023593
3.9151512130114168
4.949238621597184
3.7506578966381454
1.1003207729454854
-1.7046507287837764
-2.1609382729047986
-0.738062674612319
0.31516547873314904
0.8536077276825993
0.03970174179880253
-2.020129757725549
-1.5967257957556793
1.8598781422986623
4.771848928521065
5.558930908308417
4.028485622589323
0.30566103871193934
-3.245702968896313
-3.952734175028617
-1.7794780623091155
1.8129693120699173
4.860178455849558
4.517203190545415
0.5684906070461145
-3.3653901567643447
-4.457439295639124
-2.395268075566658
1.090246044768365
2.771140522292456
1.0174296715365267
-2.9009081090798916
-6.974095792581754
-8.78101196673952
-5.421710895012871
2.159273593773578
8.393478005452925
9.461803522682896
5.494346786208657
-1.069585041846413
-5.577888853649609
-5.327730472222975
-2.289289984093547
1.6963857330178778
4.404937580485059
2.3296669935322982
-2.1278214444726586
-3.987626995176033
-2.932621804709445
-0.20792992613958897
2.0671550326668697
2.2435435604641167
1.21473694024874
-0.3069028555979555
-1.2152716876642686
-0.8204996271506909
0.5663535373400094
2.8574115234017325
4.103568824503584
3.332942745278846
1.4566722217224408
-0.8868068642542486
-1.2298521783587215
0.5712691494179932
1.703431976846075
2.02050527786145
0.8954662831927773
-2.477488798016183
-4.954473834444076
-4.078675284502175
-1.552340395797191
0.685019340449409
3.01747472173572
4.105002631947566
2.3319252881270955
1.0626828132397892
0.8972116159808371
-1.2441744635354703
-3.0434817388904136
-2.8197989012791567
-2.0432364629988715
-0.7326643757301874
-0.9177806403323161
-2.703997778046534
-2.615980482999866
-0.20072770873838447
2.968118783659582
4.5578302672228
4.127227251868262
3.3994567481934626
1.209556558658359
-1.0200494602621117
0.1909349823858557
2.706691859987613
4.66793821652049
5.578993033569877
2.690542493649135
-2.194032429363549
-3.5446427238296705
-1.631250205184686
-0.22348808492277072
0.5669198812527049
1.2862015323896872
1.3962862234933775
1.846064483809761
1.8107797007790933
0.014905297030003248
-1.2277318130388428
-1.4924769499684658
-3.039156404661875
-4.469525136803919
-3.6735597076228
-2.157200963107244
-0.4965580454537156
1.3599354744297416
0.9943405519013754
-1.007770685590776
-1.456767452932933
-0.9707342127384672
-1.4776903519805789
-2.327050278224471
-1.6399411486808617
0.6720158777124845
3.239194850305972
6.032360273703465
7.734257113971504
6.577422136389214
4.5597383438225325
2.339360542394076
-1.1250742366596358
-4.270656144984978
-5.8154075745337535
-4.456029758138495
-0.7944644440274824
1.6973755396751598
4.395310385847711
8.33567393042723
8.696074097424034
4.983742252417094
1.6362027294762318
-0.5807799772147119
-2.919519056077861
-2.880665959501883
0.10000702724275348
1.1086885098308714
0.8089129941120831
3.5284055080156627
5.464859810741097
1.1278200405155574
-5.769857839500647
-7.828793510825856
-6.2310260663984
-6.604713122591356
-8.66264502424462
-9.1453506683999
-6.458779669042631
-1.6510320264944174
4.58343201350742
11.81017954303241
15.63722153712542
14.478515784935889
9.461926808405233
0.5173359141409872
-7.5842195439341245
-11.90495642100433
-13.029397774650404
-8.703198434487781
-2.5213828470088315
-0.20440101060154459
0.21881188899527815
0.819333125518298
-0.3165145976043571
-4.962259535011395
-9.69122313429062
-8.696081636836707
-2.45998340519454
6.79349861520331
17.884550236278677
25.44548257326912
23.899093492127562
12.622641841539917
-2.9570749944846746
-15.388678537256988
-20.31910606588164
-16.04308355923148
-7.211082308745899
-2.512272977305558
-4.651465942096675
-10.562554121441833
-13.554301244242527
-9.387363570097943
-2.99931912909353
4.731957047478271
16.188636284393407
19.4709624701316
9.240017080218678
-0.794595077065685
-4.394929694938552
-2.1648158594908913
6.1655414787236
14.739165179411556
15.11962757346907
3.441538310303678
-10.68692003795694
-18.638135614708542
-21.792166507898266
-17.175951368702414
-6.686441812140368
5.897514237625257
12.674403867682724
2.539375222256865
-6.607607635818576
-1.9894439995870277
5.962670685775961
16.28819849556131
22.151453303198686
21.481138438645235
15.407966642385936
-4.432157985539852
-19.268107096145624
-17.72546891383466
-15.505382384060368
-11.439030508103908
-6.832321595091487
-9.560748885528366
-13.792994134625985
-13.281092541935982
-5.525043319570486
6.59952918378064
17.641219778644313
18.805311223058755
6.7231548021732275
-1.3573270926241885
-2.9093448581235615
-6.895564629778432
-0.8573698745893626
12.215787968620589
16.01778190270884
12.81929911852352
3.5883028316152457
-10.759315323613801
-19.429500025543376
-17.338837512805533
-10.482541811577638
-3.940852354559658
2.289819532674165
4.501595725711195
2.941112159982748
-0.445924439169854
-4.600622955408978
0.9101213131279
10.039704241106406
7.2769607279587625
-1.2022862566008807
-11.147336747377103
-20.55194409578313
-17.266191583553198
-4.996310586661127
7.863649527993935
28.542698912278432
38.67164573525128
11.940017284898229
-22.61505453500601
-36.01809884205988
-30.871483322350972
-9.613499677162748
7.947956173476213
20.15534158165357
32.70566695636394
21.25944028302455
1.1801653746402492
-4.5109816583338
-7.2062251811506695
-1.446777562483379
6.569440872164345
-0.07973836081280845
-11.881453947130861
-17.708355452850718
-12.054528741357904
4.94001432099366
22.117223754773743
32.08900531320007
33.28486337057618
18.607205177598768
-9.01733263195172
-28.524529798133656
-31.866482682249522
-25.411810880007987
-11.693933765315997
8.715102018249194
26.998128391819748
26.75939660197009
16.549407507452788
13.876403949428152
8.436036264221485
-2.859807926234517
-11.646334268319208
-21.593945719397134
-28.374037371335962
-25.9887629320827
-21.176024826848586
-12.457027270810283
5.562654948318345
27.242923211341903
39.51979586453583
24.044237175936846
-6.468165633062815
-18.957751080422035
-23.568617800008816
-22.860407141986066
0.287922634030808
17.814748558666846
18.76954531935201
16.216765787771962
0.7140749401042558
-8.58853969849119
-3.7613373744529417
-6.586958994056021
-1.316582463095129
10.55377803581765
7.001067336234338
0.22122135330999543
-8.460451401268818
-19.263023849599218
-16.48302711920356
-5.42042399744264
5.04990063269762
16.32070313076023
26.189228130822993
21.20575910986263
-2.0303269798474783
-15.089104396683375
-11.474424519294551
-11.171271205574744
-6.003876909622827
9.377700970190896
19.101072911514244
16.814081244004804
5.73705456229601
-6.293984702830114
-16.68115759223508
-26.694102951533576
-28.481853921531776
-19.445555825822364
-5.577426461001997
7.8550988460348625
13.698162454462393
7.889621725904044
-2.475109397519583
-3.1148604326589457
5.269577275846436
8.487583137409132
7.95390447641311
4.1938152126538055
-8.717974232892475
-15.755028474889313
-11.303265625114658
-1.6338972299524246
19.10342871047693
32.69717926999959
26.453351100580424
16.418693911628747
-4.487921817900827
-29.579760893200078
-37.449422517100956
-36.64702964807488
-22.132473073875477
5.590657748808973
28.038440565491015
45.09463291611921
43.67854889092952
18.58227950884256
-11.194045048861577
-30.812618298316167
-20.518468856028488
7.108356670344181
16.658612294427414
10.021350862219919
-0.7348404103855696
-12.065299053447719
-16.057772440903033
-8.276553436722642
3.6576254089810365
9.288412668524828
9.686787768098403
3.8972914623332455
-5.476423932361778
-7.651179286085626
-5.4015468437065834
-3.0681579187681423
-1.1772024942975146
-1.6074083783852116
-2.674325259792516
-3.8584323285030364
-7.126794701513639
-14.302207254817132
-13.848479011203056
-1.8339741401114567
5.980885632457951
11.148912192707181
10.338343695039491
-3.357527600726303
-7.73775012969095
1.5773844356919096
5.582017927451606
0.19346658661583965
-7.948199693191548
-13.381950304747072
-13.671675556650708
-7.79549685182011
3.1107925930115146
19.69098454987428
26.974410144443254
6.184740584760264
-20.554470875293482
-30.228630259876216
-25.065444180023135
-3.3431209115473584
25.433513449231
32.004391666684185
5.048999853656461
-22.269925007179374
-29.419023827166004
-27.314999983974925
-9.54122320772856
15.5790396964296
33.32310251235888
33.47024488842681
0.6945074535262035
-21.488710863742064
-18.461520395752466
-24.49922783468723
-7.306011327908889
26.822904398676176
44.09880561121792
60.47245179110172
36.237843753953356
-21.907087535512204
-32.79692810330687
-20.20813000301835
-19.8089962363826
-1.114416636036634
22.55352682526996
24.931229612283758
18.916399028346444
4.520161755604125
-24.84654509770129
-40.54631856988044
-24.351464042424144
2.1790816834540276
28.839049904128924
51.49904415744152
40.39239293763014
-1.4402866783616384
-14.607893941894414
3.8495212591404546
-2.2567359706275796
-13.509744132242597
6.026735298362264
16.854792838722854
-3.0157299878239057
-27.470017996062396
-37.91960683192316
-33.48517031663802
-16.965284010568794
4.0310716810698
16.504420459268175
17.727702023353988
6.185992158042309
-8.597816213980092
-15.496656097079168
-19.580577912621717
-4.549423360535283
22.264272532456605
39.3189465702358
49.10187613999842
18.48244739467422
-26.08494067997562
-30.39832269507606
-34.85089911153635
-25.095069767498977
18.917609768326752
32.4486272818141
18.740289531211385
6.762718212627815
-5.979682585576859
-7.533849672257481
-6.166693581280178
-7.481885704599576
1.6230022026417787
18.37367616312866
23.096214815083766
5.5811184644570195
-12.043295907654835
-15.282979893774941
-13.722239781742903
-7.70509488000184
5.506430598745551
13.812308397576686
5.076474336795572
-7.568352769457396
-14.960807070178648
-27.21073368077718
-35.31594028896224
-25.525459573844255
-3.5264134389375945
13.34324771106901
17.08891508270384
13.738761877904983
-2.6194437663432897
-17.036826726865804
-4.175278834175491
7.503806961636836
-3.6470281790949732
-4.795428355843814
20.554774645833014
30.84593199615981
5.032943142278897
-13.430813390831558
-16.735905878619306
-20.44294405062754
-3.8099100095845397
13.60572059229304
12.787561591246442
22.92323219507617
27.623344531987616
-1.7683258433027202
-27.32358170589973
-11.885084219161863
17.17400644629334
34.96390942034721
53.37320237564746
42.541601183593166
-11.348390171641118
-42.073810356255635
-34.40781206653252
-20.43323597164737
-1.337075065456158
9.375777521107809
12.532622485764879
17.355966706573266
2.552088639008496
-26.073093449765324
-47.24768719786033
-48.667135389231056
-27.984756869181584
-6.629623051490323
23.06436294848545
50.95605236902517
24.727105883247518
-25.755979391766846
-44.59092852869284
-34.780081883148235
-9.471439853880021
6.256356196826086
14.916620862467413
27.984219680259116
9.371766468040814
-18.75007235717776
-6.186695264482742
8.355165591966465
-2.759161739574591
2.736755268795643
27.60804214272512
18.26031142826505
-17.13836366368093
-20.075985995041023
-2.6474113242777833
-2.2175508315442847
-1.7811333035167927
11.948098448823739
16.487837316875105
7.025210611630014
2.248876711525977
-5.590916054889699
-19.367284628954515
-16.41341573570627
-6.261893038855402
3.0788545643997196
20.822750135802437
23.78004013997583
6.950806213323211
-5.166027104718024
-9.61384466852177
-7.558680209536005
-5.200124335811712
-15.594655455411264
-25.80907338342603
-22.963689012272635
-15.77303436618248
0.4856232835809126
19.955303134940984
9.303442846880314
-14.330996789483615
-11.7022274479497
-4.195861835504598
-7.382338796945051
-3.3119619670774285
7.8604578007132755
20.493788732093535
31.173083985709354
31.010707504208124
14.625182673104108
-1.3151283567081156
6.337407875572252
16.675582192907545
11.517426846818266
3.2093458788730445
-11.881482646855751
-19.831441887045617
-16.46274679818764
-26.247053348076847
-27.170789068160893
-7.361227530556983
13.637292707492435
25.720667679531275
8.783262384086383
-17.235921000634427
-25.336381372851026
-17.87258394209585
12.625567084045857
42.105650862282296
53.43156668901283
33.86887683575936
-19.65805998645813
-39.33546522402231
-33.10077776541452
-35.4218056681771
-9.051767740928472
14.295498323583276
12.745920947223757
6.207162997015467
-14.548525690625954
-24.920973572765547
-18.069934671963683
-10.698011847813927
1.4958804156894032
7.792022598437721
-2.0568303427719083
-19.13455375819698
-19.6985890469043
-2.95369451816454
7.041632390778421
13.640130653898336
25.307671992813088
23.590272081213094
2.704932057084432
-4.096339930147133
-1.39123942121125
-13.74595487008575
0.20832124501009625
30.48323275816901
21.575774137237264
0.8139409336287129
-10.891641558208981
-25.437906466908206
-29.214674273171568
-17.342462990995955
-4.371129807541435
5.12796553822607
36.71074203108555
65.34885945150677
20.448413805226302
-40.71712007853994
-37.62125688839714
-24.98034110933452
-23.25318912715237
7.818142809916855
42.934714362533406
49.094691313262786
30.023217622991133
3.19824091711681
-15.919598026058756
-30.35024516240592
-32.18445689625858
-15.545251725358835
2.5653361632923883
14.438657002744263
10.265404647553721
-7.4058319035495295
-11.203893812566196
-9.451938648091422
-18.461380283164203
-10.776296399758
21.590849048172434
37.09407291099158
18.523023178991902
-3.4763427721155016
-17.040719281914182
-21.392973448531034
-6.412593269540768
8.274217452093655
20.899576121500857
29.976504799286737
3.290100421519365
-23.56541534303736
-25.841733895140045
-30.677104415001814
-9.481244120377646
27.283782122677273
28.767881849643018
14.29378524921643
10.90548019532697
7.646602442606773
-14.492116146494078
-30.745254241029983
-15.376063803285938
4.149542946661227
28.279101365696437
46.85941903186417
27.96357259696915
3.0454596684306576
-13.266516836772135
-34.97567570021476
-47.91411671382871
-39.07042563001337
-8.65593081395408
13.72856728543591
12.153060334588684
16.315094967432355
25.786100463962292
18.775465967125236
12.394400126568838
14.50266830078928
-1.5919087402333298
-23.922482546619
-21.187932097379072
-7.473946327158066
2.5360321037137363
12.459050140524473
19.357807351689793
14.560685014523072
-1.8670791080270763
-10.205574734159892
-9.754167523963929
-15.911304799753577
-21.82682768036652
-16.36261948817806
-0.0010641543888928184
11.53953253765975
5.142811207837093
-4.416560899462656
5.875101984184221
29.383242145716
46.480871752966735
51.67259469932439
16.902903858724258
-34.22394722766854
-29.903064076563457
-20.071588115713528
-34.18087675330041
-19.221718321108224
-8.716360729246434
0.3248722800866198
18.693150510751455
-6.613040291569717
-24.37053918710849
-10.700530247604359
-10.67804419806376
5.332781652206537
34.34638148042605
42.79300173107111
25.35106284774921
-10.338538690563537
-22.883397454141285
-14.298130613004043
-11.557899596109083
0.9243404610613215
23.016152642830843
30.160274531002344
12.40053678265538
-5.500967018517866
-12.174808302505431
-23.81649231439811
-25.720628214611093
-15.673455042791117
-3.454331299473447
15.440261978922361
12.073956607926213
-13.462725061142079
-19.44248339120173
-14.194621458293888
-11.20400889004825
0.9749521651283687
5.594221089522215
19.909010316544265
50.41150114898891
15.917636802500356
-37.693783899877204
-15.848621002188759
-8.990420050814796
-33.66472793867938
-13.009620956112844
11.497566902159834
19.10820819258541
21.72703476351902
1.8739193470296553
-21.435716444714703
-30.179710283776465
-21.296538477465585
-2.436008565192201
3.418721368709005
7.905840294372189
28.202283455088295
32.916124919305666
6.574912946130971
-13.037133207332063
-15.601402522772455
-9.80828576917547
12.449462419132479
28.27694084315847
27.144802198547517
21.41364017974997
2.9731333182891615
-14.067122683444103
-12.81166077351503
-0.5030283172928827
11.072011622414625
14.697365877745373
15.458535144118102
-1.6719318068635056
-27.954013943224787
-28.956358025981675
-21.845002999761167
-10.257888075885317
13.187482362081361
33.046276151513226
40.61109290419728
9.569219324744946
-26.290055094933145
-23.272274360802754
-25.446836593595965
-24.49979096637837
1.2649980588530456
17.523977965464628
28.895850181159634
30.617606202248066
4.767040542707704
-21.64553921312942
-27.59587883490486
-18.564917028731532
-5.49081000956705
3.6698076199375214
4.333443230047538
2.1985080401666908
6.360365109281044
5.331431102323598
-5.217049117141572
-10.641848716655266
-8.816625447929948
2.014977051532874
14.935628017938662
4.874719647526306
-13.228409000999148
-14.178722386201134
-14.057307087130347
-9.52587430752589
0.6499883219283931
-3.981535485212814
-1.3179868809938953
14.366775741513406
19.830941897677732
17.287975395527788
-2.7520780862843046
-18.39538971863354
4.84206331703279
19.290165899073777
5.659785571174802
3.4910739715030514
1.7654511810532094
-10.513689015435322
-13.64405934266471
-6.788783290344048
2.7617275974386706
5.354206739035042
3.826601939736902
9.687148639120718
8.211299010346833
-4.945148071912302
-12.52259412666648
-15.013267702246328
-12.98816147403423
1.154095097914111
22.632717886881988
33.36801644688145
16.90420874289943
-4.666120226220781
-0.44942432722413644
7.158951077249045
1.1266209762627528
-5.29747905534752
-13.813550538526346
-13.696227747460167
-8.39928949981925
-11.217061873864974
1.2057911763403537
16.884155391594163
25.483327461740075
25.585099898794954
-15.832883770769948
-34.52092915384416
-2.312239599227896
-2.5326945027220105
0.25502139764907616
39.901091020058495
52.955972372897534
24.849216970885685
-18.07421444197511
-28.0538690702369
-14.044019812148592
-19.713650077975682
-0.5469392340556425
41.7305500425883
50.23713056699825
33.2662070482904
-0.42288017974939796
-25.80189212015728
-12.103019702559298
-2.0216690819819085
-10.663397533145064
-11.809413914065765
-10.041724495262397
3.589430748884329
9.279127797795768
-20.807224169877593
-29.04795733959543
0.07556953268405105
14.405891105629543
23.51747308743477
36.71252950602838
9.633238660767327
-5.1217418813230555
2.393651628166101
-1.4340670569437624
0.5156737641594267
-0.4772560727168929
0.028623040780143744
-0.22889607962933906
-0.09758899547296859
-0.16432554089121126
-0.13019155339169713
-0.14743489260402853
-0.13851018303731802
-0.14291410575338667
-0.1405295633899275
