AAD_Filtered_TADAS_FILE
AAD_BASELINE_CORRECTION: BASELINE REMOVED
AAD_FILTER_TYPE: BUTTERWORTH
AAD_FILTER_ORDER: 1
AAD_LOW_CUT_FREQUENCY_HZ: 0.025
AAD_HIGH_CUT_FREQUENCY_HZ: 40.0
EVENT_NAME: 202302060117
EVENT_ID: 13194
EVENT_DATE_YYYYMMDD: 2023/02/06
EVENT_TIME_HHMMSS: 01:17:32.00000
EVENT_LATITUDE_DEGREE: 37.288
EVENT_LONGITUDE_DEGREE: 37.043
EVENT_DEPTH_KM: 8.6
HYPOCENTER_REFERENCE: AFAD
MAGNITUDE_W: 7.7
MAGNITUDE_W_REFERENCE: AFAD
MAGNITUDE_L: 
MAGNITUDE_L_REFERENCE: 
FOCAL_MECHANISM: 
NETWORK: TK
STATION_CODE: 4406
STATION_NAME: 
STATION_LATITUDE_DEGREE: 38.34388
STATION_LONGITUDE_DEGREE: 37.97378
STATION_ELEVATION_M: 1050.0
LOCATION: Kahramanmaras_Pazarck_Turkiye
SENSOR_DEPTH_M: 
VS30_M/S: 815
SITE_CLASSIFICATION_EC8: A
MORPHOLOGIC_CLASSIFICATION: 
EPICENTRAL_DISTANCE_KM: 143.07
EARTHQUAKE_BACKAZIMUTH_DEGREE: 
DATE_TIME_FIRST_SAMPLE_YYYYMMDD_HHMMSS: 2023/02/06 01:17:36.6947250
DATE_TIME_FIRST_SAMPLE_PRECISION: millisecond
SAMPLING_INTERVAL_S: 0.01
NDATA: 12501
DURATION_S: 
STREAM: HNZ
UNITS: cm/s^2
INSTRUMENT: sensor = CMG-5T/GURALP | digitizer = 
INSTRUMENT_ANALOG/DIGITAL: 
INSTRUMENTAL_FREQUENCY_HZ: 
INSTRUMENTAL_DAMPING: 
FULL_SCALE_G: 
N_BIT_DIGITAL_CONVERTER: 
PGA_CM/S^2: 49.998
TIME_PGA_S: 
BASELINE_CORRECTION: BASELINE REMOVED
FILTER_TYPE: BUTTERWORTH
FILTER_ORDER: 
LOW_CUT_FREQUENCY_HZ: 
HIGH_CUT_FREQUENCY_HZ: 
LATE/NORMAL_TRIGGERED: 
DATABASE_VERSION: 
HEADER_FORMAT: DYNA 1.2
DATA_TYPE: Acceleration
PROCESSING: Automatic Paolucci et al., 2011
DATA_TIMESTAMP_YYYYMMDD_HHMMSS: 
DATA_LICENSE: U (unknown license)
DATA_CITATION: Turkish Accelerometric Archive v 1.0 - Disaster And Emergency Management Presidency, Earthquake Department
DATA_CREATOR: AFAD
ORIGINAL_DATA_MEDIATOR_CITATION: : AFAD - Disaster And Emergency Management Presidency
ORIGINAL_DATA_MEDIATOR: AFAD PROCESS SERVICE
ORIGINAL_DATA_CREATOR_CITATION: AFAD PROCESS SERVICE
ORIGINAL_DATA_CREATOR: network: TK
USER1: GuestUser
USER2: 
USER3: 
USER4: 
[...]
1.3877323655572806
18.086316312724307
6.19053176969115
-11.617668373059528
-3.5656046170201487
2.5316695895768357
-6.816787592720603
-7.1656465666090705
-1.9527528688970728
-7.91317078804544
-14.024031916793495
-11.527643377393483
-19.779748669398312
-26.38186767679375
-12.588059467359978
-10.783247937693233
-13.190554641225622
-5.1097478995560675
-5.2371182353806445
-0.9159577437684568
-0.4673249243262079
-3.436243218553942
-3.1748570127157545
-17.716464371055814
-33.05360305373682
-37.751850406864435
-30.555856553014785
-17.976450938047112
-24.50112423021098
-35.38849131531245
-25.434309787635925
-4.092946401997107
5.699942939344463
7.306996291360788
9.870823827997608
14.052199309672575
28.447715538708994
25.94405984650055
0.7139662449397666
-9.004276155791013
2.1976301261693787
22.983694316272004
27.92011936979023
4.960854096891195
-5.667304025201242
8.635228528046907
16.034058066838792
8.07403260342357
4.160953091903567
9.12135621776829
5.785675792399812
-8.44953553791201
-2.3796672269930292
14.015489175972254
10.044746926159307
3.6575683593293444
6.943526516127012
15.490620236449965
23.033613291418064
15.88781209315845
3.039818081466682
9.234154018139208
16.042324810916988
11.01878277642374
19.091538130343235
25.952229183424908
18.688284401756302
21.147978400233498
22.934268465703237
10.767435468420915
0.3444969346309901
2.5545237669167355
9.60470241583845
0.8289865279699573
-9.64811639153384
7.933719844232821
19.015785747220278
5.091954206419661
-6.290594793158894
-15.952520677486993
-16.896966683416334
-7.180970121535506
1.490777228034737
3.8755348918113546
-1.8663042515741277
6.333394829344193
15.176940466061628
-1.8079787944225847
-12.002755353450386
-1.517854546402403
2.3076663551514653
2.510876482820881
4.952742009901769
5.613479860721114
13.747856937940053
21.586777378495412
25.705977340506596
12.496578162576181
0.9071432832975975
6.329829221812781
5.257101305892471
2.3592111602229613
1.6630724712361007
18.68047899591685
35.67147554720571
26.6480079099504
17.35015872805805
4.974840527269527
-13.32644294771351
-14.062496311618885
-9.564086153720366
-6.44580189613078
1.5790331090539296
2.4673109980163868
-5.725371580368074
-9.54408408499658
-0.08917537378014503
7.458253237719342
-5.284911174831224
-9.260995481222608
10.765154560676685
6.1935452486663225
-17.363525516930927
-14.621949725406294
-4.29368951996963
-5.296792802908776
0.669766582324351
13.604676496164771
3.9719962209134008
-17.340336250735113
-14.769413511108485
-7.50949346762828
-12.47300344793215
-19.595584732312307
-20.935851723181514
-11.862129531651343
-4.351439967865826
0.5697926412252861
-5.641566469392859
-15.35694680988216
-5.505890919549406
-7.818873035168727
-13.768348530837635
-3.5739530035053724
-4.069719202778422
-11.990884895974405
-14.653825346964117
0.6076795198868377
6.857289930035324
-3.1898225588749654
20.130233439982774
33.20966569554349
4.574231777421316
-14.825455293469412
-10.524068915140573
2.120376680420147
0.2813715546067221
-17.341344491584476
-21.357625719270096
-4.395579794452905
12.441491822168446
22.013013526541634
19.043271218126204
11.3214478735479
6.94810271580086
-10.728763452271664
-25.52274001667997
-21.633602779754266
-11.573207249308117
-6.463155620171603
-2.2421552424400706
9.45614771091899
5.467906197543723
-21.410925793559233
-25.236078007722075
-4.448795781403534
4.778528083940699
7.699424020641187
10.336843548759369
17.073095142036554
28.75289961027029
27.464786088565614
28.267681222120682
40.0958298521849
41.22065950330815
39.59701397451097
36.53388172827306
28.46423382977783
20.030621916945503
1.44216543838728
-5.820041788670755
2.3916771350800783
-0.9733943926508597
-2.3057553636730037
6.7292320033969
3.4951621141292613
-18.018362136388248
-25.258932564372813
-10.601577969563964
-7.295920084531481
-13.23786062902734
-7.289214715190633
9.935103534139634
22.146285133220793
15.24234788819617
7.611247723873187
6.571089097041953
-4.722750629892704
-7.916238505905455
-1.7773779998642554
-0.7357718268355719
0.6802770402794143
5.134509117334534
12.72942239306424
15.462589067671617
4.8585579311349845
-16.75886122002139
-24.270866090040606
-8.847053873965516
6.6088996168397225
9.649653359660597
-2.1807902689680967
-9.623568470804678
-9.100424791283233
-26.4420838001914
-41.4332554062194
-30.866433598084793
-14.428180155366494
-11.299580806590216
-15.318393578057067
-12.570772739801686
-13.446747395493036
-31.946618564574415
-43.55396716037715
-30.25027020771876
-18.939816551801325
-10.546803803316564
0.10524153948792757
-7.048442345700313
-4.675882476078875
9.699956992300796
-3.668650955938147
-18.52703953190794
-7.696541513372272
-1.5081229559915525
-9.103278880547153
-6.091064226876359
10.128260687333638
13.041348426400827
-5.139708204503349
-9.989466531235088
-6.798388915813529
-18.307710917704394
-18.425374831820985
-7.274750605320975
3.6569426369048577
12.356615880402336
8.113569288783362
2.220236776231096
-1.903966011527307
-6.8979964002998235
-4.977711969872542
-1.9692384426492917
-10.219718895694731
-23.285631638625073
-25.778992120204162
-28.516126083809407
-38.34236195311131
-38.22622503837051
-29.935249892399963
-21.929135960309505
-14.50060792610186
-6.142773225758435
7.353982402068666
11.443117125333071
5.952782335183203
0.7637806426367768
-6.669258481760936
-6.339838460538581
-1.7273644806214767
-2.491962353092186
-1.647989764664126
-11.231619322950808
-26.813962835924407
-18.771912464063355
-6.722214245615876
-16.824652783804062
-31.525818118499032
-24.620877828499456
-9.915615402886006
-10.163928684375293
-13.434125020390065
-11.656164944912891
-5.2453771339358575
-2.8782624113463555
-12.713972412299716
-24.209823325801114
-27.575675961761497
-13.376465972477668
10.033808243013493
12.556682397025499
4.374246603963199
12.016348899091396
21.763580536904957
19.568834390986694
4.653705100398553
-8.027697747156076
-2.920851501347526
2.1443964124392467
-5.045225280979812
-10.171651764912696
-8.526126626457692
-10.757687758589526
-11.925417124486563
-12.348129637434257
-10.475279307021525
-0.019119813555574534
6.530790332915955
11.642639649439488
3.0657244542515865
-14.851589546602952
0.3757774656137189
19.280298583652577
8.863911524573899
-3.1004665519371333
-1.871947652655383
9.483300234351368
10.769386858562346
1.5429006347226162
-4.905787826189298
-9.390009919457118
-7.902011363024236
4.1466908865193615
13.917575002540154
17.499283515642073
23.206500319773646
22.25525326994214
9.391110383578088
-1.9810455249023977
5.868131207599671
11.596991296351051
15.29525416020713
30.6124270144883
24.553832805275334
5.025900605497684
1.0657303916086809
7.773371035804677
22.522016323656544
25.679133917962698
6.7276607062063984
-5.151977150542796
0.5228271976872706
14.742395895349631
22.968255361048826
15.323557914552355
14.71418304403404
28.831315130534453
27.792168572154004
5.507110729321829
-3.594625357760311
7.786830308969791
17.299188880472556
21.584362477951046
22.48473224736581
20.093560702441305
23.643124413195352
28.928626187888664
24.23623430507915
14.46698763982804
10.429807291234107
8.789000497395993
-1.8663644921678777
-10.861157658298579
-15.631564155962025
-24.569308661429613
-20.79802178887718
0.8237437952480886
14.993406035734266
11.814991608148835
4.460746080628841
4.615126869583801
18.512741464520996
27.348286133003253
6.943510442650537
-5.094625947135944
19.936955661464538
29.064417236934897
-1.4909128350778542
-18.41787409297461
0.2183484334869476
17.217625254417868
12.032671853288791
4.1010959731735515
11.438281606762322
8.393812258034721
-13.775410568645041
-21.54454609017728
-7.193517423463089
14.223870095115181
23.57987949711659
21.27643693150919
13.97486058447559
3.1900190876297474
1.3284198532563904
8.686078753744512
18.234825900612027
19.658713327358928
16.54910344754126
25.133276536475332
27.653601161967927
15.725746668152
5.270327488266463
-1.6323177778741103
3.623256093594076
9.55837778635405
3.320249460737841
-2.162569645308936
2.118930696007615
18.01136284941143
29.569614015317313
17.460935586424608
-5.774747104669694
-9.80861967482494
3.769664896000111
4.667293912153813
7.338240439136413
28.94652226555088
40.08409790509436
34.53604171481428
27.877387728879498
21.777341227268327
5.324661751008784
-6.497820650395641
1.795501194371873
1.833344112963025
-12.012750403333344
-15.562851517934067
-11.523546820611424
-6.501238067987919
-4.420773931688481
-6.083933592365619
-5.697034685792855
-9.941053629711845
-7.875386389068005
-2.4680480732940087
-5.8467938852172825
-5.34861837786613
0.7773854520764962
3.786599363383675
1.4307930404305051
-1.1093491681557246
-5.809102067374506
-13.334431843242722
-14.319480502657292
-17.606479802502516
-29.830422002582818
-37.1085912921488
-36.8450323122216
-24.81797033257046
-7.102707257907318
-4.144904672987755
-10.51937986682819
-4.21014871909037
6.491782330984034
7.672922396312854
7.914784031461981
0.4609441989123698
-8.400043134840153
-2.4963156774779556
0.2857350389868458
-4.7008886456594725
-9.478462622188113
-12.092829695779809
-16.06829511408228
-22.954190641630554
-16.436852533669274
-8.999585368929427
-8.62923853908535
2.9246681591775796
14.456869582915813
14.143824994927368
6.727248480477488
-1.040570680716537
3.597892760243117
10.651405847724213
9.483176171019672
13.57994703398527
22.087074595646435
15.559653923512908
-8.667076747877438
-34.233568112383495
-42.16230642644333
-34.181042630916075
-35.16760840421896
-45.89568965826833
-48.69078811663303
-46.35134110925292
-45.987628513249426
-42.412843168823855
-41.13738990463874
-45.487002577363796
-44.42263232732994
-38.787733248446294
-36.34313582434256
-39.599472970795006
-44.72595729801022
-42.57641786772193
-35.79666350939421
-28.637461712912675
-25.99778333330855
-34.5002079471812
-44.09749902044182
-48.41923389022233
-36.22504412746851
-13.834170630419743
-9.971235847960086
-18.448422327364725
-20.54135344306346
-13.289231990297491
-4.605188364599428
-18.51389728216519
-40.545679290837576
-33.597212357511
-10.934369018892216
7.72579126761012
8.090094057581142
-6.1707875401699255
-6.872325877273793
-8.545238249005068
-18.73621478714982
-19.90028349986066
-27.362863769958004
-37.73461755344961
-33.38464905505995
-17.644247367212863
-6.756298346407271
-7.142556756085095
1.0674914032242049
7.600576229788839
-6.874190293082293
-15.553331366740972
-9.560587490901101
-3.528126143254166
-4.49830981030014
-17.74832008986109
-19.13642815660967
0.5620809625853989
6.236909323895242
-8.122759004744
-8.76235219437378
5.411156186663814
11.588665747517489
8.749737101470915
8.208652636950509
11.802555634091894
11.389077565139
8.113782563779402
3.7027563533076693
-2.073215190974226
0.34871646363301023
7.310292072527563
12.832741626373503
18.384641589741868
13.937753856348184
2.092918584105862
-0.32638617634165284
5.807997014925698
21.409227148872464
37.853350695335976
35.12576494726977
28.006346705407562
25.82102729971439
24.96918076910594
28.971278164108334
36.64071065906496
40.55075101453819
29.419789364733294
19.27593289033145
26.937800965474764
30.219134893834216
27.411594766028823
24.574785214506957
15.040482346806531
10.971698161801081
11.538246808283473
10.715732549675709
7.624076281941462
5.426701185943645
9.388382969480016
6.344431004804113
-0.8168874069816118
-0.08689154559738106
1.14426438947724
4.869210905379144
6.579680193872446
-1.9457285995240445
-13.005994211447666
-16.170918195188282
-5.27456772113687
8.318205587837923
7.887764326152267
-5.0438160249187325
-11.706200428421207
-13.163218695548146
-16.06941679506268
-13.8124045465743
-20.025947635305844
-31.20206117208694
-28.957507124179404
-18.843443103182988
-11.277521027337851
-10.002641232487026
-4.115408265415171
9.883193427431097
12.800863028995893
4.979150347257474
4.560325683646712
1.4231482654868108
-11.701571658342639
-14.5453987478852
-5.43724503459885
-0.5366422504003666
-8.152925547247287
-16.81622578496077
-13.555323297495827
-12.776211452308749
-20.36734874843072
-22.843762098052697
-24.137590804689435
-19.04459540634246
-7.407141685657885
-7.982267532602768
-9.705032070021057
-0.07154622928808513
7.870614560944484
4.044434250429257
-11.774028975714742
-14.636111463570108
-8.080701672863093
-15.85752860186719
-20.603527971890596
-24.434409696364266
-25.605531757304266
-10.904147675843525
2.150780422366832
7.116197334223373
7.882924344099895
5.557735077712505
9.23756139912004
4.485375460048253
-10.23033597631524
-11.57997259161266
-3.527404644501215
4.690798881356493
9.064851306493651
10.700146515438716
24.75443307959054
40.44147042638321
31.3908884139398
15.429129940309334
20.963989060164277
35.146315755325226
33.24769578319281
18.950757660523646
20.374376642371914
40.506581377623334
50.779863944823816
43.721584953199745
35.375811242813505
29.08553383715614
21.26724675153203
13.602444403595875
2.2751775287436775
-6.463993186092054
3.5371389851914996
18.543473047355533
15.562639742147656
7.6911157653625075
2.639545647896373
0.6530110007017057
7.700699319018808
16.90565369378151
28.506504457871372
34.18313384439681
24.4648525370563
21.15848711308653
32.06590659514252
33.701837500511225
24.44114730063574
14.757616512757462
10.446940460497654
8.141850142783552
-9.278053004892032
-18.421619389257476
-2.0528345321406216
6.32168371702635
-5.3229125244264255
-14.815154857640115
-9.143175220300442
0.12001860465932868
-1.6783652119322126
0.43323743639487783
17.87032957587043
26.868903176916614
19.776889273216135
6.750688103199989
0.7654336910047217
6.537672290958995
6.778384355676768
4.516283342674072
12.378121519093488
8.814392208425595
-0.9261842792812393
0.8593528435344491
0.6518437030205099
3.1207290541315613
8.12604296010822
15.009886400774981
28.564462249141815
32.76017685115008
27.742060083563928
20.85810795982948
13.385305577005862
8.91537211256005
5.786760511110567
5.427632952647362
3.2776045956201547
-0.27025738091547313
1.6011817689645809
5.118651227726021
9.389580928157164
9.367678210900237
3.4897157962171
9.669287040185914
16.760132984704626
7.384237243165279
2.226872520572192
3.758417844143493
5.513795612891418
7.914146254739935
7.933193406554124
12.175829096960337
13.78559700447606
6.051377860170876
2.8729028761827267
5.2626683738764335
4.816532372154669
4.87100807083316
3.0353210600122
4.970354949588506
17.684462455430282
21.68348807308447
16.74514386057799
14.015351562823303
5.846560472400663
1.9545154122074402
4.965464075253089
11.011763119207382
21.482016950199316
25.640301918065667
18.539180656176157
7.8597071526303806
11.35892588116361
22.466908725551324
23.86779608681296
19.846338491695203
12.46718160433821
1.5476105857902418
-3.1720830495715373
3.0697422820316573
2.443206495362307
-1.1836359668696403
7.305706979703113
15.985492376296847
19.5185056997465
17.823599772546668
10.704204416164922
2.30063607087722
0.5556838293536835
7.874032729293652
12.942948918944582
10.327944496126005
0.6860509425529585
-6.621323487900635
-4.893974195071599
-2.949256142412284
-2.5986310158491186
-4.374351952209648
-9.232491588835249
-3.4965304409511373
4.629889347768479
0.13248479802242497
3.8500630574967887
22.951659157812205
35.27785901473901
32.9328885973994
27.062199351476114
22.906316509641393
15.3725048903259
2.9737530857099013
3.9593044916430977
21.780323840247178
34.05279924349869
32.56900053579169
19.486896718244523
11.066532064730756
10.961086374311783
3.8798977854802734
-6.7523044863201545
-10.317105220011207
-6.162600197500818
2.8303141382531347
11.594640852221747
14.721851227712328
11.626458661438937
3.3865107628327933
-5.704146964747142
-10.572580597833163
-13.062370868995911
-18.671077368155746
-22.37470375268228
-15.216013309670975
-2.172186346703335
5.299602062949804
-2.7039485285512725
-13.427724667633692
-11.756782696373671
-13.79814819086921
-15.080885622860201
-18.55132092532333
-30.876852069951482
-32.95868729598979
-25.940086775552484
-13.75117567908103
-4.202033524651031
-8.748348266583603
-14.127622411879315
-14.90307470247567
-19.236464805906888
-17.456467742430803
-10.357821885128638
-8.881959638926684
-6.691308927094531
-6.109865196489551
-12.859694739786196
-17.35794045410971
-18.392001734978006
-17.1431452387298
-10.57327110152057
-11.101063551708771
-17.762448025703296
-13.577135970409165
8.625962088091722
29.658570617407104
26.8393073584657
22.60051262208256
30.35746155287428
29.345927221213753
11.83194912334007
2.469718303347816
8.371241825627605
11.743131565694883
18.853703648828414
25.373084143039083
24.43379748819266
28.42993310590683
33.33653524132908
32.286849998393855
25.186299895193137
14.542479566712844
7.1730800446185405
7.5560690845666825
10.263052133355394
12.565280863264157
17.99012715310082
17.29989012268476
7.077894133534332
0.3277494497821944
4.741707943326139
10.842973516591474
8.561567864605596
1.0065052561478163
-7.537073764247843
-10.333128772627092
-11.318428537801278
-16.883823476181075
-11.970685425246591
-2.8056679262001896
-2.5854946821610105
-5.448553370313452
-6.474621764232375
-4.608899637138402
-7.065590310576992
-10.92352854658946
-3.434005405812317
0.964202001437297
-9.742115552918206
-12.119351073536482
1.4165453664540892
5.85347513057315
-9.68449194287711
-31.863070879528234
-36.87479242600608
-19.445523911139286
-2.1704068697949563
2.8410755281401263
0.4628798263479644
-1.5933404989557687
-5.187747749762927
-11.216050657370793
-11.205191195050759
-5.245471008883586
2.771305681568214
13.893305605382382
21.611250005190676
13.931567521679757
-1.66332940350883
-8.453789269962849
-13.649772587845439
-26.019209235183464
-30.57409974949327
-17.884622161806355
0.3304835608376123
10.122492526258592
3.0635053418529403
-3.628693986331595
-1.7264854231201157
-4.191329813119761
-4.023731161357702
2.415729815201687
13.331520529186054
9.869421597687058
-9.30960618410259
-14.729757540163236
-9.800688309030813
-9.388256222683527
-9.145855898217812
-1.3914484110647847
5.261144325083343
1.8641836938293614
-8.638047624133586
-14.631255462202951
-16.307621287265693
-24.51249721542768
-24.911837505361365
-15.429260314913986
-14.540398745306515
-18.25009583205685
-14.27197940233412
-5.055887794988185
-1.8517262229164868
-6.765844401197914
-11.230975457945814
