AAD_Filtered_TADAS_FILE
AAD_BASELINE_CORRECTION: BASELINE REMOVED
AAD_FILTER_TYPE: BUTTERWORTH
AAD_FILTER_ORDER: 1
AAD_LOW_CUT_FREQUENCY_HZ: 0.025
AAD_HIGH_CUT_FREQUENCY_HZ: 40.0
EVENT_NAME: 202302061024
EVENT_ID: 13207
EVENT_DATE_YYYYMMDD: 2023/02/06
EVENT_TIME_HHMMSS: 10:24:47.00000
EVENT_LATITUDE_DEGREE: 38.089
EVENT_LONGITUDE_DEGREE: 37.239
EVENT_DEPTH_KM: 7.0
HYPOCENTER_REFERENCE: AFAD
MAGNITUDE_W: 7.6
MAGNITUDE_W_REFERENCE: AFAD
MAGNITUDE_L: 
MAGNITUDE_L_REFERENCE: 
FOCAL_MECHANISM: 
NETWORK: TK
STATION_CODE: 3146
STATION_NAME: 
STATION_LATITUDE_DEGREE: 36.490758
STATION_LONGITUDE_DEGREE: 36.226952
STATION_ELEVATION_M: 698.0
LOCATION: Kahramanmaras_Elbistan_Turkiye
SENSOR_DEPTH_M: 
VS30_M/S: None
SITE_CLASSIFICATION_EC8: unknown
MORPHOLOGIC_CLASSIFICATION: 
EPICENTRAL_DISTANCE_KM: 198.99
EARTHQUAKE_BACKAZIMUTH_DEGREE: 
DATE_TIME_FIRST_SAMPLE_YYYYMMDD_HHMMSS: 2023/02/06 10:25:01.3098710
DATE_TIME_FIRST_SAMPLE_PRECISION: millisecond
SAMPLING_INTERVAL_S: 0.01
NDATA: 13501
DURATION_S: 
STREAM: HNE
UNITS: cm/s^2
INSTRUMENT: sensor = ACEBOX/SARA | digitizer = 
INSTRUMENT_ANALOG/DIGITAL: 
INSTRUMENTAL_FREQUENCY_HZ: 
INSTRUMENTAL_DAMPING: 
FULL_SCALE_G: 
N_BIT_DIGITAL_CONVERTER: 
PGA_CM/S^2: 18.288
TIME_PGA_S: 
BASELINE_CORRECTION: BASELINE REMOVED
FILTER_TYPE: BUTTERWORTH
FILTER_ORDER: 
LOW_CUT_FREQUENCY_HZ: 
HIGH_CUT_FREQUENCY_HZ: 
LATE/NORMAL_TRIGGERED: 
DATABASE_VERSION: 
HEADER_FORMAT: DYNA 1.2
DATA_TYPE: Acceleration
PROCESSING: Automatic Paolucci et al., 2011
DATA_TIMESTAMP_YYYYMMDD_HHMMSS: 
DATA_LICENSE: U (unknown license)
DATA_CITATION: Turkish Accelerometric Archive v 1.0 - Disaster And Emergency Management Presidency, Earthquake Department
DATA_CREATOR: AFAD
ORIGINAL_DATA_MEDIATOR_CITATION: : AFAD - Disaster And Emergency Management Presidency
ORIGINAL_DATA_MEDIATOR: AFAD PROCESS SERVICE
ORIGINAL_DATA_CREATOR_CITATION: AFAD PROCESS SERVICE
ORIGINAL_DATA_CREATOR: network: TK
USER1: GuestUser
USER2: 
USER3: 
USER4: 
[...]
-2.7194563544575514
-1.358614237790124
-1.2785623423842754
-2.081756869791543
-2.5306979223981116
-1.8156756414310462
-0.6437739519487642
0.11772203630871322
0.7411865037400838
1.4296646014724106
1.6029070034320554
0.9574595135833123
0.2995919496871701
0.5979879961497485
1.4415338089364105
1.824039069230801
1.7049076439856794
1.5251479211205838
1.3881085879670094
1.0982914955544325
0.5422744881510903
-0.31139236084783617
-1.8456093845206518
-3.9090134444611535
-5.468108336840583
-6.344628820231848
-7.2468233303058
-8.283540994793261
-8.845735762728117
-8.440823048540969
-7.4529693014110645
-6.719993309423116
-6.594326762757704
-6.900066004163885
-7.228523342470098
-7.095672503451667
-6.1350679525431895
-4.6547626732947585
-3.4722319847516148
-2.9711342891525643
-3.210628098351924
-3.9516679991020913
-4.473811765527744
-4.388659875850702
-3.9570638614794964
-3.5046334100729823
-2.8644237506868673
-1.9720597498176053
-1.4987178585938712
-1.5967377952074173
-1.6028856785251555
-1.2150512583850777
-0.5821590227418407
-0.005378808834851743
0.48711865081270034
1.2754248946305682
2.476092672353687
3.765411886384925
4.67400409039617
4.908550846434456
4.3933853640208325
3.4322245737121504
3.218249954879011
4.582426834214809
6.4761135489680735
7.20213906923314
6.286822868711884
4.710652401411336
3.6439310746129774
3.4543924140051665
3.9494236640627327
4.445376124001738
4.31224578907416
3.75622089756207
3.294540438560839
3.2695169386077896
3.614136465955485
4.137114336639324
5.006017969704781
5.867825706380367
6.056500299095868
5.645353154295511
5.028279353491363
4.591983493433511
4.3326596380549915
3.854515988881381
3.212272526314824
2.53737996583151
1.8563545913519595
1.5525039843379818
1.7814663386262
2.1787381848112033
2.3484000587632647
2.2877696331785935
2.2766782693877703
2.301965292489729
2.2083523342823073
2.1115887504616464
2.2402633271888854
2.6440667564715796
2.9431498283415376
2.674570494487706
1.9253794566841942
1.2432046440572677
1.0045233871041088
1.0769668248450623
1.165426716483932
0.9296964812698142
0.07976299571168027
-1.1134048773626744
-2.0687111807415133
-2.2574584985161517
-1.6602363780677603
-1.3824759476728423
-2.369907015153639
-4.187615555543098
-5.802395908503998
-6.524776797462124
-6.640306027220612
-7.016554488161799
-7.855198592413535
-8.67414427382554
-9.111088869269564
-9.307977458994486
-9.627006127970073
-10.16919879675475
-10.859021693817748
-11.36297573991796
-11.015042862819842
-9.758982698214952
-8.41663434770107
-7.598892929009214
-7.135634591628944
-6.296228002428408
-4.790057554957434
-3.4833382816165352
-2.971127415775982
-2.7791114640452577
-2.4390033915720877
-1.9265406457432264
-1.6724101875669768
-1.9971262517181476
-2.622932991570695
-3.2345124133853087
-3.4704408912047664
-3.2427756511735426
-3.0135141921679605
-3.179035704165225
-3.9955062273664304
-5.062714261534559
-5.7538820204874215
-6.350724650494446
-6.995177896329847
-7.364716372675529
-7.358605515848956
-6.8527937397338805
-5.889683213444998
-4.7231892785727965
-3.5318633764621548
-2.542209666386163
-1.97450427506202
-1.6756981106498585
-1.309454284713281
-0.9942436056188565
-0.8143021661708859
-0.41575140360350327
0.2835092387707993
0.7259102394090522
-0.03740575452271224
-1.9446350327117725
-3.360496194199713
-3.2424924586986537
-2.268304909681708
-1.5046935861941089
-1.1660781883308127
-0.6324201838001297
0.6796947354497257
2.573838509193531
4.251273579796085
5.334844121748022
5.990422064802779
6.289500813918045
6.466906383339826
6.900981158935467
7.720724290892792
8.69773530025025
9.215955085692698
8.958442380964977
8.217296768516547
7.588419441670292
7.450436186697857
7.087125121370944
5.644343267186346
3.626022816435636
2.17198045956858
1.6894818343306768
1.370420311716571
0.4745279052805235
-0.40770212335521944
-0.6543004871149443
-0.5592624171686174
-0.26838684849830446
0.4228558353501044
1.0830880043434434
1.0976385833806133
0.7979032264243419
0.7008511930766522
0.564794058896533
-0.1580873774048454
-1.518464718356165
-2.6930332855276258
-2.93138861114269
-2.7289849902057237
-2.9665203306275636
-3.1428879410364576
-2.1495580257628637
-0.382502936412721
1.2087394595484935
2.7082128078136645
4.191724961587345
4.980273522188828
4.671685857953706
3.9225880684969674
3.3809412630251714
2.7927471867152436
1.8113251959712753
0.24375824205147692
-1.9746368230849851
-4.444389491602725
-6.313675829702552
-6.568068838835473
-5.338780463732781
-3.946386368515597
-3.134887643301211
-2.7335257258275263
-2.2307058054782245
-1.3514473623574144
-0.08729129351386453
1.4383967509847149
2.231421596388503
1.5946616556083142
0.20731855649378544
-1.3286594565902596
-2.5960145845626856
-3.4728708304354234
-4.800346183818735
-7.132760944383956
-10.154452191636265
-12.66151172660339
-13.30272017272133
-12.752010382123913
-12.960574826437618
-14.789870944866774
-17.255887347484606
-18.27740495250862
-17.194382135386288
-15.094639780321375
-12.840979551709504
-11.05572077288416
-10.063180009775179
-9.50997723782024
-9.145375126174708
-8.802467985517554
-8.240195149819868
-7.58536742276528
-7.114945708739018
-6.824669314220768
-6.2784101580208835
-4.965845475232895
-3.1178022111683794
-1.478555671751846
-0.22178872974268707
1.0896596366768962
2.5010410467634205
3.3006519419245555
3.191630687994315
2.71082387223353
1.821529563008449
0.23018994541806104
-1.321488113230173
-2.1512977207754966
-2.6925232404303276
-3.588015021840431
-4.519366622455876
-4.59316061252552
-3.7788742660187165
-2.642218200841368
-1.363234939452611
-0.0974111998397135
0.7915496295379497
0.9798585506265333
0.6354217736479805
0.5685404674961584
1.2222968782492585
2.260677469545462
3.132038062539028
3.4136858420265037
3.295168862786999
3.3501005632141445
3.7159433383186413
4.309359014643621
5.046278700916708
5.537419480182593
5.194649309294404
3.6944142695475706
1.6277560159295275
-0.22231451422172258
-2.2592620512927453
-4.830840541435099
-7.1260314542336
-8.398800679628804
-8.541245486414992
-7.930103429446872
-6.870930980797845
-5.544990210540327
-4.767328532812167
-4.792103078210551
-4.6312991190660195
-3.3518138770958568
-0.9675554646766605
1.152372383640468
1.9311494900464652
1.9110926761450115
1.7793915297261844
1.7222360607611968
1.5214988636514535
0.8618658214748209
-0.008463910053261685
-0.8734510768553436
-1.8983452944163814
-3.3856354999796316
-5.332055989614671
-6.826823304231844
-7.097990026867237
-6.436448065566019
-5.286178726947064
-4.1184196776086335
-3.8715620940486155
-4.609714849919501
-4.85349292725105
-3.6065089246369193
-1.6701424650516192
-0.5488523232118044
-0.7753026769510295
-1.531569092361075
-1.9735834251141267
-1.944275476925014
-1.5673140606194966
-1.159246333086702
-0.9756997934227237
-1.1723557131068851
-1.7209894551978588
-1.7715545016299985
-0.8639656810917754
-0.19519675990278837
-0.8633572997578424
-2.61139904790551
-4.644839574438968
-6.5323811663671485
-8.49528650957796
-10.55593796509129
-12.166983708477115
-12.846727564930585
-12.40570545115517
-11.212556786242732
-9.973201581758264
-9.240647175214294
-9.089921670565257
-8.695341795224877
-7.414539247992805
-5.710127977411447
-4.39429227624211
-3.9348163044060738
-3.9447117080652503
-3.748691268450254
-3.2713007467196142
-2.7471457186223
-2.569669948266377
-2.7250734800963903
-2.5341287244020987
-1.741553280206661
-0.8281109257996517
-0.5805202254253939
-1.2049911232978738
-1.669129079250854
-1.1558031244166704
-0.12889721636336046
0.715695571243338
1.0620041120786365
0.7594072604853561
-0.015030004269028136
-0.6444969456016381
-0.506788320773518
0.4715270054125228
1.6540075312520612
2.02588771211513
1.0472344843643777
-0.7433592478405324
-2.235840817137664
-2.6576602657611863
-2.3661331166240096
-2.7022256286594017
-4.311286371645559
-6.452286918486788
-8.237288720194146
-9.48383903879564
-10.378050410303032
-11.128899592512761
-12.11364133779581
-13.29770257107703
-13.795831230652743
-13.173521143045837
-12.320449111164056
-12.219832170310495
-12.450827087582383
-12.046555771914415
-10.965888610945846
-9.236105656495901
-6.690571130618744
-3.899674932222121
-1.7429304049364547
-0.6723456329795214
-0.09115237480565637
1.037148756714604
2.3672090089050726
2.664641340556234
1.7431423885011745
0.7949223747736679
0.9587044906953928
1.8795512631943436
2.2922478308100893
1.6351996452941018
0.42966281407000234
-0.5226580312944866
-0.8253929533389703
-0.7073963981364318
-0.6533903809639082
-0.77788084342149
-1.1040380321035432
-1.5762200521552792
-1.8012634748041358
-1.7199341170659996
-1.2962459358642235
-0.21495857138484428
1.2573083249077324
2.5607636133490277
3.3202434922169273
3.1060256646707143
1.6786854473417165
-0.48992122281093836
-2.1198316149674072
-2.3159719614003182
-1.927171442223011
-2.561537175127455
-4.378288453615463
-6.22288263964734
-7.537189676795728
-8.445292144257731
-8.826858245649046
-8.575919095381755
-8.067225380444027
-7.887087662750835
-7.977103754921201
-7.766050840758336
-7.464539646156665
-7.878271262345819
-9.047090867189949
-9.957530518142542
-9.740920523431905
-8.619133393325482
-7.1025744476798085
-5.541717649753789
-4.156805210198162
-2.543919849127563
-0.7000378287736985
0.3905090473465202
0.2912094086903973
-0.3719468242707759
-0.9569935602160033
-1.4507616852440766
-1.8460559363869216
-2.0194467785589336
-2.450405923299441
-3.462326758820496
-4.450802624180617
-4.598343050826478
-3.944578232763327
-3.4242267350483333
-3.2624334939021886
-2.9564220624503337
-2.882657531316819
-3.6786753480748944
-4.935674101515469
-5.84593289333323
-6.204524974973834
-6.08963597029695
-5.69029093689052
-5.3557831809304615
-4.996150068430532
-4.480501027683696
-3.863601386628384
-3.256449068782185
-3.054725111944916
-2.927694322549339
-2.507807687818054
-2.5536796781762465
-3.570380095164601
-5.290297022193367
-6.775848083615356
-7.485104755920541
-8.143591664662745
-8.74327683238357
-8.536622346635944
-7.538714096922192
-6.269971808424331
-5.152017087947618
-4.1577143177463185
-3.3160889398479245
-2.3903527104935844
-0.9327566940106964
0.6124238474122734
1.917538083262473
2.9963562584290484
3.528163541592549
3.3169004445301953
2.492423780374916
1.8357292935635465
1.7070111910501289
1.4430675666751067
0.9381480936539541
0.4465772166268459
-0.179525000985198
-0.9759115209483294
-1.4940671480393366
-1.3123736687601517
-0.7301331536767335
0.15579224682421025
1.2747308417232526
1.720911630755442
1.6562304071170386
2.2472145566593924
3.503073053932104
4.5488666981048915
4.557872516899205
3.5999239504039364
2.7406105028243783
2.569946512373514
2.3982957342589866
1.5087683935683256
0.6379560134322368
0.29472381155060406
-0.07527676097776241
-0.28794735007124
-0.16888353377917892
-0.1359182211355314
-0.5747054463475179
-1.785656745216243
-3.5603855668300857
-5.556843357880555
-7.346228152575944
-8.585783881402719
-9.353068900197588
-10.118342553251782
-10.783365876176363
-9.996032956753002
-8.540492098510681
-7.688671742346818
-6.690567305715425
-6.024392112269661
-4.8860961060566925
-3.038497818000864
-2.432775710296412
-0.7583775630382463
3.0569834846035144
4.921734558326822
3.69937527489566
2.5692217180260144
2.731910534438727
2.7735537966536583
3.224055326101601
3.967450006875977
3.4796653738836447
0.8177057607572756
-3.6959656509656993
-5.538432463325229
-4.782321235548245
-5.555269355358744
-6.588714797451527
-8.339694246998539
-10.18348101989881
-9.158400349256704
-8.208417942850366
-9.814428266201151
-12.007420646197028
-10.95667518489308
-7.221282330891187
-5.148662524899877
-3.850349510810153
-2.1966200521009442
-0.45474500678551505
1.8187062987621794
4.5186525270518025
6.8831551449969295
3.774508288474772
-2.1756071589875416
-1.7961324290386151
3.855373075261399
8.91062540236956
5.317788686547032
-3.687071089360016
-4.706651468029815
-3.8793270901126355
-6.496411543247691
-4.242123087697476
0.06463734829329724
0.9538691099993358
0.20772863425575003
2.2907088155213113
5.875192757629431
2.6594048742183642
-4.109316517144019
-6.243362908272823
-4.134622662778037
-0.28631211936503165
1.1760037407134483
-0.3533976146455386
-1.1455138501713222
-1.1459238275353132
-1.4184484427041302
-2.2150075225672152
-2.034806305444872
1.5692995295087333
6.430025881378255
8.449978294556585
5.627283812780872
-0.41391747860000444
-3.9293963924447963
-3.1972827125392858
-1.6209689745878593
-0.08303618630482809
1.1468218337951437
1.476941845762779
2.1650757360213095
3.340335268233929
6.083213203481495
11.36979603698021
10.851875471098626
-0.8069291561001268
-9.05164728618927
-2.499985883069792
10.344746082947385
18.47870653083722
14.947799888588953
2.178304053966119
-6.672015836385854
-4.89660809055893
5.403930654810646
17.275402035573467
20.399108250812674
9.563689435738695
-8.467486770325712
-16.006775173448155
-5.976655708807052
8.822824141306693
16.034223590587278
10.732502499787342
-3.33961909316942
-11.571387605447653
-4.766047470683487
10.065557400002184
18.462293050323797
12.013823544129336
-1.8874699586948267
-6.856689165630935
0.3356007265642322
8.62434509662328
11.796537779858387
9.445259410234026
3.1817286581268447
-0.3454208278658536
1.9634855953402588
6.285604138016901
9.122417521004461
8.26850786939765
4.581176043767735
2.672896534647314
3.6493383329097444
4.006818977601679
2.7301242718415724
2.0802869417059053
2.210786473309637
2.7756182853950766
4.527416540572259
3.8399190597990014
0.03595801581239192
0.2610084116863859
4.444905893506568
6.258971852712472
5.30839477133718
4.302145873519022
5.1461295896205606
6.746118862861281
5.813845776480314
3.3207228532145985
2.555190844993739
2.9061670738720857
3.6975772198694092
6.266071586963546
7.16506756795146
3.876259340408141
1.0831174619857389
1.2806538641032446
3.199501196430418
3.9702293792287175
1.4742431786923353
0.5147434272830469
3.8111849684639085
4.647892489936966
-0.6647566061277662
-4.037675077757886
-0.22050572353615477
3.4332462268213826
3.4278469844269672
2.1325009789997122
0.9327847089366432
2.947739670843551
4.961747306095766
4.7699614108545285
7.271950837103881
9.536967835007076
7.752189516123146
5.728033705291493
5.9661319612462
6.027890208459882
3.5383982079019307
1.555128008944789
1.9151140318223308
1.567389644455749
-0.5747371708411368
-1.51323387126375
-0.6029816672666319
-1.0233572301468319
-0.3699912624514643
0.6111704139502406
-1.680200288390308
0.9401811811782959
7.546779669058186
9.0389890012211
5.907152345644848
-2.0791913518637712
-5.833145681121122
2.7887321836868373
10.373584674331829
9.217074401125082
4.440961064234864
0.8277087162778954
0.9690663303849992
2.5497168391643816
5.0475770029736236
5.797572955597153
1.1309850339925278
-1.7896431681440133
0.4096399504531306
2.1521732968037317
1.484539939418237
-0.44497539585656937
-1.365636566534609
-0.9848487639953716
-1.369607653129028
-2.0407843396765535
-1.8290014970258088
-0.3872207166205608
2.033389292958171
4.051009079735264
4.625944161046707
3.941523769925311
3.157795663824882
3.3883941162866464
5.5585922766507005
7.951430394187711
6.584011333366804
3.560704601166712
3.2455048582460893
3.6850213368373703
3.448371239676594
3.7444744847952816
3.6421588645081537
1.4219848074936807
-2.8423537601943303
-4.40345743913956
0.35100846377335093
5.965971718403096
5.071493527338954
-1.604554437580627
-5.30771045841778
-2.0195100763991363
3.184249939735304
7.775572694720362
9.147773244201845
4.907183048635151
1.4045735914650483
2.2356511780302135
4.293669529216526
6.171313669883726
7.087681453669067
6.134740327656293
3.3660405781458116
0.42670813393313356
-1.5752460124578969
-3.006942076926033
-3.026149931375523
-2.0005082733380277
-1.1340826953171144
-1.216134606761963
-2.918404906566364
-4.588196029169517
-5.903747092361531
-7.112231156747574
-6.3000571403050065
-3.930745774268038
-1.4041752319337342
0.3709054092468812
0.01682952420872637
-1.3350633082292176
-0.8338041438864376
1.9009180214710661
4.294323526267151
5.612566890124652
6.250075239096617
5.1832889748170325
4.3686928724451315
4.980504972730615
4.924562052923608
4.963914208096583
5.9413673739933275
6.375607631369354
5.411187852927417
4.084084696067192
4.275975776970351
5.024066707182942
5.516457465993161
7.258392261431609
8.986963581545385
8.221880969872487
5.442989579610288
3.4023993207946055
3.617335215080097
4.547838114518536
5.091081806256847
5.730514035065568
6.073160713707746
4.370062565599226
0.18389067016062272
-3.247904981078889
-3.082122526406021
-0.7696348245870654
0.3014436948948067
-1.4060686494180332
-3.861870681509041
-4.061876696389949
-1.7105904330310613
0.5872838735770158
1.0940381518784246
0.8566704081603698
0.25498107888767846
-0.35981166441207424
0.8137275001044677
3.315174711285149
4.926786174256201
4.443125921313161
2.2372243304859745
-0.08591906680286372
-1.1043993214543648
0.2716093385174019
3.3548947570246415
5.2792718813815664
4.633784182852886
2.5978990806149076
1.5550027647097517
2.768362309297677
4.784134237609513
5.926633804418797
5.6174440039699185
3.7922893625471126
2.0563983687934435
2.2528908376032373
3.933485237167982
5.737281759885735
6.703342260417039
6.63246019072924
6.692291020758937
7.5966864556109766
8.799694919200936
10.12133187299523
11.349177960089543
11.312265899652614
9.380646888620134
6.93812172428546
5.682607639829719
5.779989471494996
6.619308529107591
7.310702546145325
7.190779339716898
6.355816197621318
5.345779941077031
5.225134056169019
6.059373449128492
6.039418808601632
4.1827420104816
1.9334475370392978
1.2567070954717348
1.8560491484310195
1.7579516118559433
0.3971397767985637
-1.0474998883124629
-1.566473364846373
-1.0956901421751444
0.3170391402918952
1.8706118292476712
1.8032067739535615
0.6520495179480471
0.4257796980822937
1.1566982188856094
1.9140489585654652
1.9490160004991306
1.3584319415213904
1.0875390318302036
1.5487869693897556
2.7574759989170157
3.985620054176591
4.592742517434216
5.316907238716855
6.390015412185168
7.1570423434095485
7.286817635676855
7.067592055881507
6.863245466418701
6.3564369600006545
5.541558875416565
4.649678905030472
3.6588760616832188
2.8275930089513928
2.096679003766425
1.5910263356242185
1.4460361826315802
1.2132059883779602
0.9952661330606813
0.917696066092608
