AAD_Filtered_TADAS_FILE
AAD_BASELINE_CORRECTION: BASELINE REMOVED
AAD_FILTER_TYPE: BUTTERWORTH
AAD_FILTER_ORDER: 1
AAD_LOW_CUT_FREQUENCY_HZ: 0.025
AAD_HIGH_CUT_FREQUENCY_HZ: 40.0
EVENT_NAME: 202302060117
EVENT_ID: 13194
EVENT_DATE_YYYYMMDD: 2023/02/06
EVENT_TIME_HHMMSS: 01:17:32.00000
EVENT_LATITUDE_DEGREE: 37.288
EVENT_LONGITUDE_DEGREE: 37.043
EVENT_DEPTH_KM: 8.6
HYPOCENTER_REFERENCE: AFAD
MAGNITUDE_W: 7.7
MAGNITUDE_W_REFERENCE: AFAD
MAGNITUDE_L: 
MAGNITUDE_L_REFERENCE: 
FOCAL_MECHANISM: 
NETWORK: TK
STATION_CODE: 3125
STATION_NAME: 
STATION_LATITUDE_DEGREE: 36.23808
STATION_LONGITUDE_DEGREE: 36.13264
STATION_ELEVATION_M: 156.0
LOCATION: Kahramanmaras_Pazarck_Turkiye
SENSOR_DEPTH_M: 
VS30_M/S: 448
SITE_CLASSIFICATION_EC8: B
MORPHOLOGIC_CLASSIFICATION: 
EPICENTRAL_DISTANCE_KM: 142.15
EARTHQUAKE_BACKAZIMUTH_DEGREE: 
DATE_TIME_FIRST_SAMPLE_YYYYMMDD_HHMMSS: 2023/02/06 01:17:36.5357130
DATE_TIME_FIRST_SAMPLE_PRECISION: millisecond
SAMPLING_INTERVAL_S: 0.01
NDATA: 12501
DURATION_S: 
STREAM: HNE
UNITS: cm/s^2
INSTRUMENT: sensor = GMS+/GEOSIG | digitizer = 
INSTRUMENT_ANALOG/DIGITAL: 
INSTRUMENTAL_FREQUENCY_HZ: 
INSTRUMENTAL_DAMPING: 
FULL_SCALE_G: 
N_BIT_DIGITAL_CONVERTER: 
PGA_CM/S^2: 1121.948
TIME_PGA_S: 
BASELINE_CORRECTION: BASELINE REMOVED
FILTER_TYPE: BUTTERWORTH
FILTER_ORDER: 
LOW_CUT_FREQUENCY_HZ: 
HIGH_CUT_FREQUENCY_HZ: 
LATE/NORMAL_TRIGGERED: 
DATABASE_VERSION: 
HEADER_FORMAT: DYNA 1.2
DATA_TYPE: Acceleration
PROCESSING: Automatic Paolucci et al., 2011
DATA_TIMESTAMP_YYYYMMDD_HHMMSS: 
DATA_LICENSE: U (unknown license)
DATA_CITATION: Turkish Accelerometric Archive v 1.0 - Disaster And Emergency Management Presidency, Earthquake Department
DATA_CREATOR: AFAD
ORIGINAL_DATA_MEDIATOR_CITATION: : AFAD - Disaster And Emergency Management Presidency
ORIGINAL_DATA_MEDIATOR: AFAD PROCESS SERVICE
ORIGINAL_DATA_CREATOR_CITATION: AFAD PROCESS SERVICE
ORIGINAL_DATA_CREATOR: network: TK
USER1: GuestUser
USER2: 
USER3: 
USER4: 
[...]
14.680303561204582
7.908037211460498
9.711219453651795
14.620384436539288
17.850042418097793
26.502582706364986
40.740549144551
40.4205938545649
25.585416650870705
18.589553582911925
20.078283816055414
17.214862891964536
14.229645406271294
25.32943484241711
42.5370871308653
35.831938389114484
10.077886302243021
-0.18874048168797472
4.860559473567216
8.459623372637786
7.677285858126357
3.9404726057285533
4.684954128709329
11.880990803862161
20.79328485854348
25.389675589057106
19.603498049225315
14.015669069002929
18.759240627280935
20.09944515536541
11.950143734255196
8.669431254901307
10.652222552060856
5.190065537048646
-9.28195569364076
-14.705591204944241
-3.200256799927901
-2.468056177740947
-15.827450129946845
-16.379282525560296
-9.251564640971628
-5.057973900998724
7.4400374723353195
25.93897948510381
31.740799446006392
25.536802722647014
21.019884120365347
14.739147669536178
-0.6708014003818333
-19.00356133279223
-19.28627926848
0.6729464667127996
8.163833784398163
-4.5114284822863
-17.64844167222281
-17.477498746262462
-7.289013108669836
-2.2687302222292205
4.546123144497071
12.882775002035212
9.46460200259518
5.018806002897321
2.5730948813111354
-14.646977524861315
-40.88489318200117
-52.93269649963194
-46.83221061403519
-34.20917041428352
-30.350208921463597
-30.948380335891443
-24.98970431569804
-22.70813000766821
-17.98617149355413
-7.11303678173944
-1.3656581012968005
11.656396342739871
28.137187613897922
27.26045478939598
13.114043972460985
3.2246604475088594
6.901360887674876
13.952171030820862
21.750747753425216
28.756156923542463
31.00679479508357
38.690798430556924
38.26566742968155
24.806549839208323
17.862208751009437
18.944587655854008
21.115392042748795
12.160592507735279
-1.213876191609509
5.457885866875566
16.926624467673914
2.5666632344188027
-20.256791384893447
-17.03727600468769
0.03131931158291155
-3.7586902479591613
-23.26734996081806
-40.8631401962343
-47.89587103949659
-34.68554945241343
-26.863707710845667
-33.86984172154495
-36.440826392709
-23.18696009229492
9.984498437620509
23.936493991481345
11.325261961188788
-1.225859327742799
-6.8029156687208525
7.999922019642459
12.99998172197645
-5.9660981727734566
-10.858172270169764
-5.449967483043004
-5.728799832542701
-4.117307222231656
0.9091868480958477
-10.788762563768818
-36.9144073812703
-35.18867048607919
-21.198681730873652
-35.50780744338933
-54.62091535466269
-48.81825053889076
-39.8401822160877
-57.860774109816326
-66.20760518241212
-49.52234525446701
-50.24903874874778
-55.88615863367128
-36.20265603263843
-7.222294590305831
-0.6562755067015762
-9.670077630660952
-14.48529086460027
-17.368965385295432
-12.402575855895549
-12.239416379652784
-19.159195360196936
-10.775094234467428
4.13682453618127
9.109967071334
1.3770044809148958
-2.078416264838132
14.212403475739471
32.642785231714925
39.33803990241839
34.68413189066494
24.594281436173585
20.808769396873068
22.270441099461852
24.197178670724067
20.917469049691597
6.952791412250182
4.065499565778237
27.49209203845443
45.68654874732862
38.67980301972749
21.672342660718495
4.162306318309857
3.0502848215941123
24.971055528335093
37.97045332300593
35.989590222888346
35.011777851636715
30.4267039407808
27.665173383622356
23.893895188049523
6.373362072171742
-14.130219148373298
-18.504191591384977
-2.7779081402455215
11.65163487280108
3.4058615048500522
-17.262338730835612
-16.381900697119843
0.38378155297760186
2.058966355906715
0.9626933783984725
3.0308461331730547
-1.2014944951738793
3.02441953224673
18.538131526042864
24.462121660086588
15.797768280494736
5.519102572746337
-6.861709544410615
-14.891641833133422
-4.178324441640709
5.063021870666585
5.082627178432659
13.994185535214605
21.20692734555998
23.852416256805675
22.053717666358597
5.113847400193424
-5.094900439118827
-3.671538699491697
-8.228230706983448
-10.296162836658933
-6.028429974229546
-11.604155094124597
-22.901263501331872
-19.958980973871853
-20.656784841706056
-27.739696756329405
-25.409350197798336
-33.611419845183924
-36.26727032041542
-28.422734544826874
-39.9097058195783
-45.85354661593055
-38.17815269375116
-44.96327661447471
-58.04173150224411
-58.99963342643738
-52.21509093215118
-51.55196256430521
-54.58147169719549
-45.85868720422969
-23.502153752348534
-12.611721473165394
-23.302355437826716
-25.933281397102274
-14.894363250071816
-1.8225792440448174
8.572284212241971
23.03064473433369
44.628971786601106
41.06583030752294
16.849438685454615
-3.9631372551891064
-8.388445422952946
2.9598479652515617
2.6953466477473906
0.12165681304505441
1.0623477330798703
0.17697865937898186
-0.49087577901268803
-12.356098595186808
-32.5251085150346
-28.259110488624238
9.329467716536897
6.435697781104235
-37.560770740310474
-41.0730608425045
-11.168633657667872
-1.8571004466706174
-19.366880903912623
-27.832923706913054
-26.198151761196968
-14.527569843228699
12.455209580362617
17.510293053473255
8.480580069410657
15.472342414042004
26.402913254886816
31.031016647847547
27.651011112033505
16.68685213751288
3.359688513741698
16.74004190190827
56.68295223352262
59.496690941506515
29.339607195525453
8.358255796545203
14.711707277729424
35.95900434500696
35.765932112613385
51.992286807390094
65.95169542537312
23.10411831230328
-10.976089325932177
7.5423934701280935
15.364662470616972
-23.89407277810098
-22.571638857586137
37.87939320339556
64.73684558333589
47.196510654742006
25.94065197375961
20.35046798880242
29.317707201671514
57.85287118354094
68.50477350888396
29.47626731957146
29.60817057275325
93.6933474953244
111.84005621909327
53.19073994254174
15.34770358029404
7.852280101609401
-23.129778213803753
-43.504145098429895
-16.05479897664937
61.8280271088344
92.33479065403125
13.077098743106383
-38.80014612755929
11.371335106073289
47.08868326344901
15.25259477959384
-11.249968095305869
-29.301718425501285
-43.09251488410354
-21.33766404172762
11.202075107848362
25.101733073024217
17.942534561495748
14.730946059283355
39.02899528360711
43.3321985363368
-8.258038853608099
-61.58717889334529
-34.76955547992641
50.242549169882665
44.28401187474291
-35.957325031974406
-74.15633705660537
-80.08043502767973
-59.371502041684856
-24.11812444969237
-11.820588491708197
-5.382142200464282
-20.209268506694197
-98.14503156507585
-124.45642973435801
-74.14356465975925
-60.30046119614737
-59.728881506008214
-37.837742105131014
-35.80506045419735
-83.89133514878421
-58.4634219724217
15.872304953059437
-11.130861015973608
-45.31296481348269
-59.00441528234027
-37.30684794014875
4.537998432346942
-36.05770557852176
-53.69564365540667
5.545883579444739
64.65817341505313
88.66843743928143
33.45754211721661
-86.12798149410094
-130.41931978757154
-74.58404065545857
-44.321561394707665
-30.50749562008716
12.50275000939226
-4.549845617662892
-62.825983043619836
29.87265037101741
143.08973128543735
29.275321755673296
-84.02786265848535
-46.30717127187418
-29.02669031614864
-31.058655376679752
41.24678140095521
111.93598096196752
69.11231588320582
-19.819343305696965
-20.749815171202577
13.67800229225257
-4.169509583498233
1.6825199564081945
19.00858250169058
25.160735061016773
1.899126884966378
-107.32216804467623
-127.41720293122526
-100.61324312966555
-103.95182396713753
-28.157961059480332
18.462147688748743
28.641288540660437
-66.38746054950867
-160.09556863400627
-97.0953095175633
-111.85116958602269
-111.01243861955288
-80.86480547561736
-64.3291791585876
-3.843811633714369
-35.270346446146924
-27.09614834348971
-6.786962199667707
4.08986900200454
67.12442472100723
32.98228217612315
24.64595366844124
72.929940322334
52.346278424758005
-31.63876376749602
-59.61697468372917
35.41500101461261
26.05531456925146
-50.81124432511562
-0.3322349682117079
56.267328356918995
16.925660257018617
-59.91232323573542
-48.257593119358454
23.044673821590496
10.99845845194831
-56.04200083120139
-75.42169993571578
-64.21582710994204
-89.11122412686787
-177.35215384266604
-187.8822652805374
-26.149387035114934
61.9842391956956
5.270238081707976
-81.35726459280322
-142.91696096088896
-83.71235805157552
54.06900664013695
106.26806937085236
34.363890773419485
-6.928978260326947
67.84687967878524
94.13755032357892
-66.46952234715067
-182.98981308635524
-92.65067116948441
-6.929875332643017
-65.66219845083808
-152.13461934207
-131.880275447437
-146.91059892662363
-339.09547618976376
-322.07897819709666
-45.83268388598571
-66.71800100714343
-238.10437198813625
-172.80151657250542
58.16307471993435
50.97591760764565
-216.53552236362336
-207.6587614404263
-129.8206391621842
-120.79255015269078
-36.19283375775675
-46.115728173082836
88.94300523010214
149.43609313920197
-7.063056027580104
20.793000820867686
-45.71674738544245
-65.94000910820449
83.06746986836022
20.97027982971699
-39.423561345281215
-35.12629848844795
-64.97786657581769
-132.96747483888552
-170.69410239879386
-77.06362557130598
46.38537477059522
37.500369881370545
-131.97520594216445
-127.03007253382582
58.593286801763234
33.70660239414675
-156.79055745759598
-204.59566514401476
-115.09976622012312
-112.29909349618842
-191.99471273035707
-224.03957042281215
-195.0721235205303
-149.35306756306096
-120.48887100269826
-60.08142280051142
-39.77873730191078
-169.86967889403294
-152.18565507435918
124.92594453604818
249.099611520581
79.87946624974279
-15.630680853739396
127.75424041027736
107.18745591995567
-53.580909137699265
-29.586878457507584
10.982687013333074
32.912679762581085
14.59584040995322
-34.7749315461585
-119.53252513267522
-241.39904633683182
-31.177767591113106
102.63767255237843
-53.01573684063608
-14.804564589378385
44.912809444264866
133.1029389262558
180.60269672058652
26.09686498304394
15.878368996075944
141.45431024123582
236.1920401643253
166.37198325922668
-24.659102317921583
-67.26892411735906
21.194345614939916
109.19749572132349
-62.9632853497401
-318.6274791348586
-180.81741476681626
-50.94260075821179
-126.68452932642755
-63.136687571218964
-70.97036983540208
-176.72787716892685
-138.3494212233779
53.665482982374925
191.43609901868587
-2.3478887668484343
-66.31124384305897
145.36815149526055
116.30070038438221
-63.73103960560194
-88.82400145505632
173.49993116842762
286.91989718923554
54.30705156531561
-48.088586930767946
-57.96192493782757
-2.2095860142886927
51.14865301847106
-56.01549987014351
-196.65521185116324
-267.11521252735696
-160.16668506385503
-90.79681573664224
-142.78048614935977
-199.256442068181
-267.24186915983876
-432.4944666725123
-471.4524443553817
-102.73039730570433
-11.260263589507723
-313.0230670213565
-367.15135514985514
-143.98706425110817
88.46579598098215
7.078309661667903
-270.16159127799983
-110.59373246970588
522.5712028470907
849.1550280099447
726.9880107548805
614.3223039030497
677.7238815060626
791.9920987141719
783.6097863676181
651.0069016257896
264.59627495010994
-38.86013219548031
60.349120831440416
85.21599888622147
-45.87286274448467
-101.83401814768834
51.06369293295619
285.17339615281134
258.1015981982132
84.41462640277915
-161.2595776334981
-21.52113668955625
545.9095744943141
511.7405489985575
197.86056692984928
256.02701659477816
389.8860967915666
429.5401876921744
229.16164925210944
23.880037257604815
-5.385612249990645
-34.708013534878624
66.00439544591778
222.08036611998926
186.81654147929427
66.05667397942935
-48.855017920718176
-160.85169211413717
-103.09640440551685
122.51976739034053
209.73277352207555
36.62339615139923
-199.8424612456794
-335.53941811515904
-450.3103535315018
-398.87905672431987
-124.63432293375438
-28.31283248951305
70.18700293504276
192.7064132880059
-1.7415554665193222
-144.0441118107558
-215.56776627244056
-319.02997233796054
-137.34308890214749
46.118201230756064
-134.8484125296759
-283.6381411342351
-90.72524083117725
104.50107131489567
175.22989390046004
351.947247733332
643.7714402988626
803.1151788199694
799.387235469952
861.0639957861683
777.7737615316332
308.20208817085063
-176.4433820770826
-257.8027545916146
-15.27093764104165
227.09576924117562
303.0096058072096
247.0389957671972
177.23345421980218
95.99299767184279
-5.69944014053184
-52.065004876949864
2.5979406486740695
1.6439240160905062
-147.80509193070193
-182.48779149563902
-5.377108197367891
230.73004709098768
316.6799180889904
241.6738052021245
197.6184702598161
155.380641727767
148.51367530387978
260.1549060462225
436.61049401478004
509.79785928720815
358.68055183205286
195.06518210006033
116.78509671312305
149.48212025589615
268.128088367919
269.7633247205757
236.07475208246933
192.20037891745244
133.35039706525114
188.90848715223896
209.23257180818499
167.8712883308817
293.88388333073533
494.25486667196225
487.4684923191543
233.09361087613064
-270.46671623925505
-871.1036507305901
-1136.3822228361705
-826.8369836312581
-298.2380428222696
-164.04271038650634
-213.527323923688
-63.62100862772281
-23.68546974225359
-120.40472098667267
-198.58342324586576
-354.27470431251294
-450.54456547246326
-313.37450932171174
-192.27959634179115
-139.80000223708674
-22.30515482653038
-61.165308079393256
-119.94380354170114
-75.3160191867689
-76.40029898076021
-98.16294241335687
-190.87967619003055
-211.0148302737665
-142.69006622964312
-63.79282872997625
-58.069095772794995
-236.0770322886264
-265.8449528015872
-232.61218558487784
-276.5170395380384
-239.89623964971645
-229.3871493922152
-149.51967902251644
-76.0278431134902
-91.56157528410172
-91.82977467670023
-215.5596657250417
-191.12000626011712
129.82594261221948
240.6821973650591
226.43550347354883
318.81341774870555
410.30626807123963
532.6500845214879
448.71839467665257
300.9070514140664
281.48305876566724
229.3139590469976
272.57818896523474
311.07753416294537
321.58667484666677
378.43255761156075
330.1069925544133
193.05546482615554
120.42760450803495
166.27614556668178
164.41069010057205
104.93403085049597
64.99301014591002
30.023167305818948
91.02834168569498
215.43969785106495
282.8732685664245
231.6579173931099
84.0976661551996
-29.83130908231423
-157.81364719015284
-307.5884628240088
-312.1267077179958
-226.85431239970248
-102.23520413999796
-14.836536593570361
-77.50501784322248
-164.64609468375818
-234.76940647668982
-218.2475106169808
-135.46171381090517
-141.39580943867895
-130.53010234977276
-136.4893673336354
-190.23744419552276
-187.7138328795258
-207.31051630636736
-258.95586058624764
-297.58544039473725
-258.921389645972
-161.65750362189914
-160.44686114893122
-229.12677805671524
-252.03017763843712
-212.33716033790128
-236.5741756430518
-374.8378037089604
-404.13535069865884
-197.51818773571614
-48.388000703493276
-194.60647087760032
-321.3940608450336
-186.61488090390654
-8.14029849270145
23.312379274271834
5.499996481684921
34.54636350249394
36.49899884037535
22.358048733749683
28.501038774598797
11.754537077323734
-63.11680557013215
-176.3064735972993
-325.2285348210436
-367.3940557107617
-173.81055025154726
-79.12331437880277
-144.80142248283715
-115.93066114218777
-46.712449873669975
-3.217853141323498
-64.7046939538943
-199.64614092478112
-218.28146948423722
-114.17173820728442
-7.444262762786198
-3.2316395593653224
-87.08185408306721
-147.41480226884246
-101.47958273010478
6.7651830979070695
57.36830057056261
11.622924974421844
-41.29679484719962
6.96509388049502
82.67812005277484
91.13153500400037
48.421295064905365
-41.406185616152236
-122.34360804884491
-102.1907754995785
-21.51260909546561
21.84494100018004
64.9771437508553
117.07808309035342
147.8903114904897
173.76044236285313
211.17268741407048
313.925350054464
385.1248733527042
326.67635338717866
219.081849428647
114.76728497232952
44.062968143284216
75.85757242220254
258.55985043490375
410.7506326400254
319.59025510279145
109.96752460090995
25.573440498916465
149.24371295721085
246.23387959612046
131.878550657156
21.98674429359557
22.867121923709707
20.919362837021012
-0.22415516260198348
-50.78919100003904
-191.60362500103872
-387.0610701214415
-517.6698044742668
-522.0532690165678
-431.1856140647433
-227.42815768097162
14.924433878826418
39.55672764338773
-71.81400697082101
-86.66362546016515
-5.5113177173878976
90.14136844150467
62.56269591593148
62.943332650633174
241.48675191133796
386.1911814451847
412.0221344275152
344.7700691084456
251.3009268198176
222.85046448806366
241.05306482716705
288.84721867967005
307.6945228591724
251.9374916521552
145.37860395145825
24.816488636196393
-52.579260997421514
-100.33252218403612
-167.8931358697009
-167.30588697417332
-60.41695255411144
23.711118750881585
-43.677755027583295
-276.21427514404115
-362.07493834884156
-188.97116744115533
-51.84794152884205
20.229966152025394
101.54016553629769
168.15615284954566
237.18430816725802
287.70512561662457
241.03185114487454
125.16618127051055
33.227911822374885
-48.263106594368814
-77.55093092756226
54.49840395364331
340.01592068299897
588.4406131560095
571.726854237366
221.84941658467795
-170.2618626620561
-347.3317299161431
-350.1850485377862
-144.56676037225014
93.66198671234312
232.55080249472607
316.4845560085523
200.60452420006288
20.704446266997994
72.6894363778039
322.5919140964143
502.26790762431244
400.29110044020837
86.01281849618725
-138.50438539797483
-150.91530203779243
-68.09505041155265
43.70462030634008
149.4646537148852
211.1495944351964
183.88175040469898
98.10768078830294
-5.058741267650911
-105.66198748018034
-101.74711425691663
-4.256912883150773
152.65315659874446
317.79076576604206
276.4030612544196
47.16207778036294
-170.52682702747657
-275.0966223820234
-201.90206508416153
-86.65775271125831
-51.19014991816882
-95.14712357224128
-233.14288310147262
-330.7503785669684
-315.3128614495051
-230.54525354274543
-94.633484753197
-11.319536502801338
-26.69503996440043
-15.029705621060646
61.86014403470377
117.95537105894792
181.96255767559262
256.08834133629836
268.4124211968225
249.84944522485915
244.20817145533815
258.6195899675021
240.77489141664645
192.39526791620779
169.9160135564964
139.88819927765323
76.64260881425125
-17.828353637145337
-77.18676854894471
-152.07798846275395
-359.3941461560122
-558.2112982327512
-536.473880399566
-223.26710678190574
75.60102029994395
21.10339793932148
-174.063298797362
-232.2228697924264
-250.21055004789048
-300.04684606666393
