AAD_Filtered_TADAS_FILE
AAD_BASELINE_CORRECTION: BASELINE REMOVED
AAD_FILTER_TYPE: BUTTERWORTH
AAD_FILTER_ORDER: 1
AAD_LOW_CUT_FREQUENCY_HZ: 0.025
AAD_HIGH_CUT_FREQUENCY_HZ: 40.0
EVENT_NAME: 202302061024
EVENT_ID: 13207
EVENT_DATE_YYYYMMDD: 2023/02/06
EVENT_TIME_HHMMSS: 10:24:47.00000
EVENT_LATITUDE_DEGREE: 38.089
EVENT_LONGITUDE_DEGREE: 37.239
EVENT_DEPTH_KM: 7.0
HYPOCENTER_REFERENCE: AFAD
MAGNITUDE_W: 7.6
MAGNITUDE_W_REFERENCE: AFAD
MAGNITUDE_L: 
MAGNITUDE_L_REFERENCE: 
FOCAL_MECHANISM: 
NETWORK: TK
STATION_CODE: 0205
STATION_NAME: 
STATION_LATITUDE_DEGREE: 37.79177
STATION_LONGITUDE_DEGREE: 38.61597
STATION_ELEVATION_M: 723.0
LOCATION: Kahramanmaras_Elbistan_Turkiye
SENSOR_DEPTH_M: 
VS30_M/S: 660
SITE_CLASSIFICATION_EC8: B
MORPHOLOGIC_CLASSIFICATION: 
EPICENTRAL_DISTANCE_KM: 125.19
EARTHQUAKE_BACKAZIMUTH_DEGREE: 
DATE_TIME_FIRST_SAMPLE_YYYYMMDD_HHMMSS: 2023/02/06 10:24:48.6063430
DATE_TIME_FIRST_SAMPLE_PRECISION: millisecond
SAMPLING_INTERVAL_S: 0.01
NDATA: 12501
DURATION_S: 
STREAM: HNN
UNITS: cm/s^2
INSTRUMENT: sensor = CMG-5T/GURALP | digitizer = 
INSTRUMENT_ANALOG/DIGITAL: 
INSTRUMENTAL_FREQUENCY_HZ: 
INSTRUMENTAL_DAMPING: 
FULL_SCALE_G: 
N_BIT_DIGITAL_CONVERTER: 
PGA_CM/S^2: 44.878
TIME_PGA_S: 
BASELINE_CORRECTION: BASELINE REMOVED
FILTER_TYPE: BUTTERWORTH
FILTER_ORDER: 
LOW_CUT_FREQUENCY_HZ: 
HIGH_CUT_FREQUENCY_HZ: 
LATE/NORMAL_TRIGGERED: 
DATABASE_VERSION: 
HEADER_FORMAT: DYNA 1.2
DATA_TYPE: Acceleration
PROCESSING: Automatic Paolucci et al., 2011
DATA_TIMESTAMP_YYYYMMDD_HHMMSS: 
DATA_LICENSE: U (unknown license)
DATA_CITATION: Turkish Accelerometric Archive v 1.0 - Disaster And Emergency Management Presidency, Earthquake Department
DATA_CREATOR: AFAD
ORIGINAL_DATA_MEDIATOR_CITATION: : AFAD - Disaster And Emergency Management Presidency
ORIGINAL_DATA_MEDIATOR: AFAD PROCESS SERVICE
ORIGINAL_DATA_CREATOR_CITATION: AFAD PROCESS SERVICE
ORIGINAL_DATA_CREATOR: network: TK
USER1: GuestUser
USER2: 
USER3: 
USER4: 
[...]
4.293828820288689
3.444522651527463
3.466104471095424
4.266829014786999
4.55719725460654
4.15228837561473
3.8278210026822403
3.1874690930813183
1.1564005967441366
-1.1803087847668214
-1.634704319109243
0.001426883768544803
1.6366936250927622
1.2083443583997995
-0.7417771704964208
-2.063677840700091
-2.158733225769852
-2.4738824503024555
-2.7919022815466588
-1.134245545931508
2.5231744518808914
5.905181703343377
5.921485462587755
2.59706087595745
0.12427834865353354
0.6723910641712939
2.03378034238425
2.74963768207272
3.380227803869436
3.745512811740151
3.818352897411952
4.227822097684779
5.492505540435005
7.048227441002902
7.381408514762724
5.287650284036036
1.5401893811310752
-0.5238029615564328
-0.21724585119212908
-0.5514936858955791
-2.9299717800035117
-5.582669220542603
-5.841129286945001
-3.3705530815133895
-1.148603981369833
-1.3940013529008934
-3.00260575204206
-4.383421062535204
-5.094695065479366
-5.457885967352943
-6.089380223360437
-7.615506279507369
-10.632896905130211
-15.072074958951498
-19.989848699805815
-23.61906715431446
-24.642007909353968
-23.365879085453724
-21.12330848211809
-19.066099653290944
-16.68038245554424
-13.854450965004077
-11.404634478274179
-8.792277045744482
-5.935606141623825
-3.2824879589119855
-0.5619159434838047
2.288503900621464
4.60679420953589
5.778859239897421
7.071940190126686
9.56100194304509
12.020535644955617
13.004906409544645
12.077244011687558
10.065828853237514
7.1165078962546096
3.3678662692791965
1.5149264263893976
1.80667315752459
1.7409821824381542
0.8962415550284111
-0.7109602405414136
-2.178021436206188
-1.8811805319107497
-1.0140059637917964
-0.6761539915097071
0.34405044052564043
2.461617199554025
5.164230770009116
8.101180316103502
10.681857937964889
13.226120406451653
16.045857073002566
17.7545372127678
17.410618081455546
15.746346542814885
14.679729224155318
15.287064180724073
16.822346878154068
17.962669253431184
17.40399823943602
14.797477479399188
9.751192357465928
2.626887032807955
-4.696184530704973
-11.72029694231805
-18.09650364670509
-22.094835186006467
-23.208481351328675
-22.755376021291212
-21.848251068575404
-19.546858132131135
-14.546091987001194
-7.691368793612755
-1.1589066467461258
2.8405775318303585
3.385407874534566
1.0198188112178748
-2.24400070883973
-4.505985452487187
-5.58593959747077
-5.22765295838457
-4.072368549535443
-4.343518305975462
-6.721231666017262
-9.778596790439492
-12.379121482038634
-14.02035444601965
-15.127847090268592
-16.15065714629046
-16.494379051444376
-16.65594525071498
-16.7162432498877
-16.185433821713108
-15.504466621372293
-14.04682787348512
-11.590212518973633
-9.425090501342105
-8.181807580947678
-8.033352688128463
-8.718798363901607
-9.1094529780301
-8.963391414953032
-8.697908322698717
-7.795321710005157
-6.508588506831451
-6.712979997043955
-8.823431475116248
-10.377334078746749
-8.884141317316386
-4.253291916656044
1.1111475047704034
4.406511231204582
6.712076497749806
10.5941724070687
14.487382771211172
15.177031365190123
11.567877962464074
6.032307763977068
3.5024338946286133
5.647129371913249
8.797188926270113
9.789400078848473
9.131193708003943
8.789526021538705
10.153649272551403
11.995567582544338
11.238623572582567
7.650941041270229
3.6609379536713624
0.17656495593545019
-3.1703528135254206
-5.9249622564483495
-7.130038538200437
-6.872462421477408
-5.841642046028019
-3.76844903053555
-0.4531463995977494
3.530484755985629
6.635995962534624
7.141588228883582
7.235448960252963
10.733767650875997
17.012658830718433
22.175015402119797
22.95053533907527
19.437363487859354
14.627780407185343
10.977036485099756
8.197612777069054
4.831636653946113
0.9652410728338613
-1.6231318259845964
-2.433120587258794
-2.8823761752039276
-2.7311971144122587
-0.9942475802776821
2.2496588411117227
5.7204418436902
8.218173949431524
9.517497852573856
9.139470110494509
8.548264381084444
9.435674817132771
10.496947854888717
10.143614018686637
8.064461514869402
4.504071528885859
0.39635800686940864
-3.021126104035766
-5.40609516893279
-6.934588292180451
-7.938048112477622
-9.376254105479491
-11.32363538207974
-12.583096529181804
-12.555249613243276
-11.994773702689498
-12.46142258863384
-13.798251152231334
-13.368788412839706
-9.329279994573543
-3.4129688310073387
1.3829636454976084
4.877473183971495
8.10116988915167
11.107839531105336
12.334783812433638
11.122314558721694
10.024983128284546
10.434498664589062
11.379403013445339
11.424825328039503
10.00655207545856
8.306483859501714
7.785137652990337
7.244269498043505
4.353638861981329
-0.06430656514199223
-3.8888400741545697
-6.028600822347382
-7.686931473770572
-10.441749231004652
-12.991116198944717
-13.612764456633055
-12.239355913909447
-10.81763841905937
-10.04127365659472
-7.220289929005598
-1.465750075517916
3.337420575013767
3.0801343751336754
-1.1879401347688423
-5.5222102432073985
-8.55030278748458
-12.294292330273372
-17.402997350465963
-21.35546054462801
-22.392818396679182
-20.58233571566288
-18.52075097702537
-18.84119241274679
-19.923935806994677
-19.982970943738902
-20.574981574194464
-23.024672228132545
-26.3087648940065
-28.81459029973661
-29.003831294512896
-25.720813982902378
-20.57088610768064
-17.090470844121782
-15.946637480838582
-14.536904458574046
-11.415610472060683
-8.177813624643166
-6.723793382549496
-7.434516237641548
-8.971981500221684
-9.55774666832301
-9.758926806840048
-11.631050695154586
-16.864111114988393
-24.620491331604995
-30.68423432378853
-32.0763792487728
-29.641459519590203
-25.35525054279241
-19.34966890196225
-12.197079184946451
-5.93182620304057
0.13775448159225798
6.335695445315401
10.942383496487656
13.211844141394657
12.840906997164959
11.789087277805727
12.839021980307296
16.16039118212758
20.63084139360438
24.86786378595195
28.589045415858877
32.786785425543655
36.335976745052754
36.65187582874194
32.950091037917204
26.364199505095996
20.190450852271535
17.456301125695774
18.214392163888064
21.42947586797381
24.270234763039348
24.95018582957738
25.083058871888756
24.88184530548634
24.505552812214464
24.908433576261594
24.692011977129308
23.145779983062045
21.54840082500565
19.426017474926308
16.857101556192166
15.0088113309894
13.172715918850125
11.49119183977588
10.469897790985545
9.486479668707101
8.910265263591365
9.991928115696062
12.351440321208232
14.421534822282897
15.37000658403545
13.558524584204728
9.607508357877943
6.669060938774358
4.9002821917438055
2.950833432004287
1.073545359890821
-0.8092891486228873
-3.420163693738928
-5.722192864719988
-7.723099508258774
-10.506115754664997
-13.221984898930803
-15.426357595627477
-16.67488979040139
-14.767025384710784
-9.581481405406025
-4.195627277688187
-0.775233298970203
-0.16528428681063922
-3.0676040627569847
-7.6458459500898055
-10.878944614017264
-12.121471765717638
-12.75122776891812
-13.718989165381839
-13.338461852198588
-9.48986927131999
-3.023837716403021
2.4388918435455684
3.8213158868013246
1.2284096354947793
-1.960945262704947
-2.4030771709038303
-1.2864652022389769
-1.6213446923497208
-3.235178097806753
-4.436984852508098
-4.1435042831517155
-2.139336888960417
0.2960871088335819
1.055867679724451
-0.7523795285537794
-3.699748494480908
-5.67191941388225
-6.037117746776417
-5.38483701299298
-4.322922291897272
-3.2386239105472905
-1.2032857242847683
2.0138972696537785
4.677971316862311
6.187711684213493
7.528085751833266
9.104053078601648
10.565692903866667
10.875057379496605
9.477449741433206
8.392867603185127
9.48358061563582
11.316794534547393
9.87238581400843
4.311777231126472
-1.0218343029324408
-2.6592294158054806
-1.4960628333220758
-1.4058849376507176
-5.177006037820492
-9.994842887802008
-10.341180082575645
-5.544773150819873
-1.0062390824536118
-1.607528838221121
-4.395414259441017
-3.7746413016667466
0.4262559796281089
4.4021370666998365
5.482660414939731
5.250038023033744
5.397480329585673
4.655670204161752
2.953189701153571
3.1442213599586304
5.690993889316769
8.040801948098244
8.530879925503072
7.011249229592724
5.814515893251588
6.572594305082668
6.850359009433073
3.87444896968082
-1.2624341735485483
-4.843753189648952
-5.177782648152423
-4.037499862268815
-3.255063727432128
-2.555490974793635
-1.4525015048007361
-1.0494619213137264
-2.37074678082597
-4.2677783158080995
-5.956841185063697
-7.9430693219022395
-8.820763832450998
-7.048740564304506
-3.6946662202833
-0.3752182773402536
1.1114109496180227
0.6509678133807872
1.3686758763602915
4.585861757136732
8.008932688730571
8.679400548811948
6.080716229903914
3.05292489248882
1.7873324219705609
1.8218063877615758
2.1009888034522763
2.162206081735248
2.08058629134501
1.1571336541804051
-1.0902163359037038
-2.09237557969291
-0.7812574429672878
0.8406245936664211
1.9124087709342725
2.0695698689081983
2.3876139634977296
3.8116087200994797
5.023768966536529
5.390675245746185
5.9405799887260455
7.851878823982597
10.630544710810613
13.123865829908185
15.374073313880954
17.789364504619233
20.45570470768489
22.39757786124904
22.066075942620945
19.246265574851993
14.651150416423809
9.565485611835902
4.655092777765006
-0.5655358965924739
-5.14179775957354
-7.59193369203151
-9.002949541730349
-10.640149337528923
-11.304979203995078
-10.18421024354299
-8.177183331057153
-6.9493203774167105
-7.392095209347949
-8.292320902810268
-8.997478020646533
-10.198069195646992
-11.596593031997617
-11.38907436873558
-9.061741185737596
-6.933980063936697
-7.224330938597412
-10.472469444608265
-14.278160671025542
-15.631876149261323
-13.410716023005767
-8.224197670912385
-3.0660545113630993
2.0042669062117002
8.394755042884494
13.987689432994996
17.1358637887215
18.042873418577777
17.839183381294212
18.493094003921772
20.226290643766447
21.867281216988204
23.227324793544966
23.438310789130185
22.063554202691186
21.163882795631224
22.588451438288764
25.08374345861208
25.469366361924394
22.568382909490314
17.16431321845589
11.128736883425601
7.289599849807928
5.502448796413378
3.45505998653483
0.2623027865196668
-3.0915791240027826
-3.7613872786435594
-1.1040391152197135
1.8632270385887
2.2413227727604124
0.8615985920340694
1.5042550952772238
4.560332979661571
6.38870688035583
4.6073195245125405
0.5899116759437787
-2.927827675082407
-4.820177920464175
-6.473450727300186
-9.421562739670629
-12.415908406095358
-14.758685689879776
-16.712253858493654
-17.69021031974591
-18.418390664555307
-19.363780481972345
-20.248689317316174
-21.129177577112152
-21.334285395771023
-21.398211472082984
-21.85442229985621
-22.663443172723372
-24.34685712014169
-25.612100924207915
-25.80609244749492
-24.788552846507816
-21.462654432371952
-17.824249064617288
-16.85258947248494
-17.84479023791175
-17.81302456678032
-15.0977805886915
-13.137384174161433
-15.109755525717874
-17.64521810292252
-16.96522133791751
-12.034470553552547
-5.3362872344337395
-1.7634787265062817
-1.4838844666317637
-0.15899038353868925
4.756984162937831
10.840435780996394
13.97298597449787
14.200283920618057
16.360738257416713
23.169837123552867
31.31911855963014
36.44414920014992
36.290875039429494
32.98661338502898
31.140408226962727
31.04897853389527
30.53773446813611
29.775709269143206
30.02531409189318
31.7160900870276
33.87266773812866
34.402619266156144
33.32240199967692
32.68882561194749
33.029479031653096
32.646112852815754
30.61916007291421
29.711889818540616
31.729916964517113
34.13874154125659
34.477642254205485
32.84697960427706
30.785865091456273
29.44568287184491
28.354274432390017
26.46812551812801
24.34365001189213
22.77450341841854
20.04414165718345
15.355572600056174
11.449464660064478
10.655994125917305
12.68352738635706
15.145893846485968
15.563072909663422
14.024151847172025
12.667966321213703
12.740914934805243
13.325536302541552
13.273345637542214
12.74694588601851
11.688399690080272
9.053093209642793
5.346216286036095
3.173410058955592
4.192632693836173
6.966959745727236
9.12004951517224
9.74517854461202
8.965162889473834
8.247523109888084
9.405512861745919
12.303667131612535
14.315449424346848
12.599927256364309
6.856701803419563
-0.3977971044191208
-5.345825961559854
-7.091553492035508
-6.683412506938606
-4.917490602816271
-2.9327532807563297
-0.3140223660241968
1.8295949455422877
1.6533622004271311
0.6682182198775165
1.2269280298055871
3.073328348624641
2.292013227709007
-3.128257778355919
-9.960963795925784
-14.373770246126321
-16.974699080966346
-20.395646552228236
-23.632015385404966
-24.89770609753751
-24.80371290172284
-25.10296218425794
-25.820358133769858
-24.91916093610059
-21.70273234351965
-18.093387709878858
-17.27998175640625
-20.53134357460082
-25.808426849524675
-30.152013433929934
-32.559354279963564
-34.11796594649326
-35.98776790138205
-39.195776925454
-43.322637981216246
-45.62845098116421
-45.29686936195303
-43.57180007215864
-41.81090426942926
-41.57163690893779
-42.021509069732744
-40.95095390732119
-38.33627061568691
-35.328764196079625
-32.80602278609353
-31.43257591303947
-31.282917250194895
-31.802340458300574
-32.52326560032633
-32.630577353714216
-31.37842700923921
-29.263691011468616
-25.909556270429896
-20.477067911987415
-14.765416181950236
-11.50077100472074
-10.23635717963273
-8.702051662007047
-6.092230900768847
-4.0669605966860285
-5.171359342671034
-8.434050617906543
-11.209563116764706
-12.658250521412388
-12.988374475487488
-12.756861416658632
-11.745622614732191
-10.305825158879687
-9.74968896005252
-10.13911310596664
-10.694186905046575
-11.000195882168358
-9.76939142227667
-6.0074612945289765
-1.413387091509869
2.6360400081768636
6.282262133249695
9.04340449985907
11.280032172670396
14.425990298199055
16.785913289515577
16.007254592570398
13.981638503906758
13.540328705098355
16.05653710771167
21.214560713232846
26.253385462191698
29.315910649536413
31.026803504725727
31.650030291499384
31.372681760370877
30.501310773983327
28.82637791494334
27.48820786884632
27.390691926224203
26.629172384524104
23.37169241788192
18.651954927615076
14.765934682347263
14.018894203729646
16.348009707952748
17.780446897053608
17.056172978088227
17.15770738850075
18.502267048629776
19.147482453455616
18.722949042546293
18.183008282644654
17.535982323944328
16.46433977106655
13.372357995653475
6.085870527450211
-2.212034031821529
-7.497757984702899
-9.698246960962422
-9.16962581670135
-6.692330181347489
-3.727528265997983
-1.2648239177919969
-1.4903691786365978
-6.056037229809821
-11.703037858519972
-15.218997353300344
-16.708132757712534
-17.86533445427771
-20.177452286838285
-21.797296181772296
-21.104764025719966
-17.926891022222676
-12.995736636097526
-9.392247956964503
-8.280807900369854
-7.659366969390215
-6.4256266177679775
-6.0404300551718375
-7.322144673387783
-9.107528877130001
-10.398150545396868
-10.023872142306914
-7.614687570351934
-4.316759471889853
-0.9672829700729481
1.9688002749042222
3.6098586512337865
3.9916768232306614
4.6528591758133855
6.534960261315898
8.676138108245219
9.06523823496714
7.965718054155741
7.359290542559071
7.83572658562247
9.348437856061548
10.374056641207734
9.110305725056266
6.576485609328109
4.238279589949016
1.7182400404266087
-1.3148669158441408
-3.505222911184863
-3.2669811310739303
-0.8665387182900112
1.5852767220710298
2.6720296099627725
2.702581565408155
2.7999670407979886
3.2749814782608544
3.3096770511630473
2.516971356910713
-0.012275116854767539
-4.99730132680862
-11.166748577355879
-16.16610515330759
-18.169382145997226
-17.240129730971056
-14.853871556469572
-12.395006002338091
-11.340137276137945
-12.207431204027191
-13.405386489156507
-14.994238115537463
-18.448516830746183
-23.169187381343935
-27.765124215686008
-31.342278200189213
-34.184521868360335
-36.7427886056189
-38.40825174806712
-39.03400596610174
-39.70309261019769
-41.23935562657761
-42.541517859939056
-41.90253493493585
-39.99567595133904
-39.05306753745577
-38.955227493274876
-38.94100085767497
-38.42494638465567
-36.015108228022655
-32.60199589619573
-29.534921934177923
-26.49998720309312
-22.575262792489326
-17.30379668372186
-11.670185353233215
-6.951928050990941
-3.6094003889935498
-1.5618815262581034
-0.016804096045522444
2.03223819758518
3.136798629654429
2.284823988775215
1.1366438327505919
0.06998520519208253
-0.5727172589271703
-0.2204166284071356
-0.13535238614480083
-1.2229070778602238
-3.663525510570526
-7.741950086876066
-12.320637664386506
-15.406091102093177
-15.76404432533973
-13.386168398285232
-10.005474269392684
-6.930341990699508
-4.629570848219791
-2.362705225140495
0.6853780089546941
1.7597814956665985
-1.019410908612658
-5.640310698438228
-8.62845237948478
-7.95747861848843
-5.193693364842648
-1.7907261194389117
1.9508898665990162
5.399421641445319
9.138865771809666
13.666652740796808
18.247817683284026
20.841618565916065
20.124150423601183
17.351399378838135
13.604252146781523
10.08670145873007
7.132728593891253
3.831815520259937
1.7900243084785905
2.6899007372875876
5.81155303112629
8.886413618590955
8.772322305858902
6.014996957959932
5.395693376173412
8.74924800538546
13.036831180007123
14.654324799201504
13.046831277115382
10.411483303389565
9.123106761629028
10.262090429126825
13.096758214856147
16.36267298038614
19.356175025162617
20.744646305387413
19.70254125829569
17.699354268994174
15.603198860148824
13.155004088066738
11.240630828871726
11.23812246068114
13.197570017781581
15.401057961994653
16.255982023479607
16.2557409543887
16.31421601582225
16.85614320767584
17.995419900249647
18.27578482376843
16.84088667902307
15.248147010338478
14.455871252479273
14.12794149197646
15.233541541039514
18.210684905679262
21.78331486231172
24.43266865100385
25.091193443866675
25.14767713655066
26.482741119365656
28.22394298660732
29.063817287398027
28.386595937318642
26.36606189559683
24.04269256963334
21.79329739571995
18.802992982147494
14.342181060621527
9.520933825897778
6.673407531112083
7.552991683708431
10.696356889080707
13.129527590727726
13.998974586271967
13.465526931510833
11.62935417405866
9.099717408085215
5.6246639818401905
0.7922852125502396
-3.845460689204962
-6.823146703651896
-8.255028411754918
-8.241434861250921
-6.0634821863936255
-2.6296663319428726
-0.3563277681279561
-0.660214733292851
-2.8123880420746015
-4.188956801838518
