AAD_Filtered_TADAS_FILE
AAD_BASELINE_CORRECTION: BASELINE REMOVED
AAD_FILTER_TYPE: BUTTERWORTH
AAD_FILTER_ORDER: 1
AAD_LOW_CUT_FREQUENCY_HZ: 0.025
AAD_HIGH_CUT_FREQUENCY_HZ: 40.0
EVENT_NAME: 202302060117
EVENT_ID: 13194
EVENT_DATE_YYYYMMDD: 2023/02/06
EVENT_TIME_HHMMSS: 01:17:32.00000
EVENT_LATITUDE_DEGREE: 37.288
EVENT_LONGITUDE_DEGREE: 37.043
EVENT_DEPTH_KM: 8.6
HYPOCENTER_REFERENCE: AFAD
MAGNITUDE_W: 7.7
MAGNITUDE_W_REFERENCE: AFAD
MAGNITUDE_L: 
MAGNITUDE_L_REFERENCE: 
FOCAL_MECHANISM: 
NETWORK: TK
STATION_CODE: 3132
STATION_NAME: 
STATION_LATITUDE_DEGREE: 36.20673
STATION_LONGITUDE_DEGREE: 36.17159
STATION_ELEVATION_M: 104.0
LOCATION: Kahramanmaras_Pazarck_Turkiye
SENSOR_DEPTH_M: 
VS30_M/S: 377
SITE_CLASSIFICATION_EC8: B
MORPHOLOGIC_CLASSIFICATION: 
EPICENTRAL_DISTANCE_KM: 143.12
EARTHQUAKE_BACKAZIMUTH_DEGREE: 
DATE_TIME_FIRST_SAMPLE_YYYYMMDD_HHMMSS: 2023/02/06 01:17:36.7032280
DATE_TIME_FIRST_SAMPLE_PRECISION: millisecond
SAMPLING_INTERVAL_S: 0.01
NDATA: 12501
DURATION_S: 
STREAM: HNN
UNITS: cm/s^2
INSTRUMENT: sensor = GMS+/GEOSIG | digitizer = 
INSTRUMENT_ANALOG/DIGITAL: 
INSTRUMENTAL_FREQUENCY_HZ: 
INSTRUMENTAL_DAMPING: 
FULL_SCALE_G: 
N_BIT_DIGITAL_CONVERTER: 
PGA_CM/S^2: 515.309
TIME_PGA_S: 
BASELINE_CORRECTION: BASELINE REMOVED
FILTER_TYPE: BUTTERWORTH
FILTER_ORDER: 
LOW_CUT_FREQUENCY_HZ: 
HIGH_CUT_FREQUENCY_HZ: 
LATE/NORMAL_TRIGGERED: 
DATABASE_VERSION: 
HEADER_FORMAT: DYNA 1.2
DATA_TYPE: Acceleration
PROCESSING: Automatic Paolucci et al., 2011
DATA_TIMESTAMP_YYYYMMDD_HHMMSS: 
DATA_LICENSE: U (unknown license)
DATA_CITATION: Turkish Accelerometric Archive v 1.0 - Disaster And Emergency Management Presidency, Earthquake Department
DATA_CREATOR: AFAD
ORIGINAL_DATA_MEDIATOR_CITATION: : AFAD - Disaster And Emergency Management Presidency
ORIGINAL_DATA_MEDIATOR: AFAD PROCESS SERVICE
ORIGINAL_DATA_CREATOR_CITATION: AFAD PROCESS SERVICE
ORIGINAL_DATA_CREATOR: network: TK
USER1: GuestUser
USER2: 
USER3: 
USER4: 
[...]
-20.383071976375554
-10.417131105601575
-16.504152210057608
-14.204362052001853
-4.783183219937302
-1.8464827523644418
-4.931337206932131
-9.600539700038425
-10.620152124898713
-5.274620974205855
-0.8270601348322714
-5.198946139345255
-14.43604350095747
-1.6165562375652356
26.052706213903
26.531248430872573
14.14649407411141
22.860521565897006
45.950274842670964
52.973454220968414
44.8986609878873
45.43216936681272
38.36443533883537
17.627524089154942
8.047990262123067
18.739193392194803
33.82897578457712
36.87684939870717
36.83290644058943
43.50485141762067
51.58451098321843
47.80632414731824
30.128925949443385
13.847836133369572
1.0351660544393155
-3.268662423539892
7.650828852313766
16.450446378753433
11.009442678037676
-7.970163471648876
-22.80237838253366
-20.48812741143737
-16.825570881504007
-21.210983409939526
-22.839386903254464
-4.745972460654425
6.645759796138687
-14.249215790981804
-18.855563163326607
7.442592258847475
11.479259829368265
-15.146384073494735
-30.96618196037395
-27.929329971847476
-40.62113940025244
-57.40988269712343
-41.67200913590069
-29.25037442918906
-37.21107662920878
-31.990779315753823
-14.204528124982529
1.4879011918413763
-0.2162113368092726
-1.136530356593734
16.742075352251153
7.15519298031827
-16.70122769876171
-5.030120852917256
3.4512251840971175
-14.096328882222513
-27.97173459161226
-22.12670175443811
-10.450045373097094
-17.302713115285734
-19.69676446533291
-5.481059543992042
-1.1313672843939282
-6.049384089645761
-8.196048152524721
-4.304378312897628
4.333573704795696
12.323926705520957
14.856742980014891
12.476900904709899
10.87536900215816
4.092210001773886
-16.82182843279423
-33.61696067278172
-27.063965249569684
-7.6936871987207125
-1.598140665871788
-8.768546408166351
3.7583062224524544
30.394502137773458
43.3593240915705
43.066102291585686
40.12384168621975
55.335521717379066
72.40555244832002
50.673314899919596
21.070146986567824
30.89837273217868
54.66173590872029
42.27823088716217
2.1044820402306077
-10.826337435308567
12.429840378177696
17.316459699467494
-22.81645480735636
-51.82440563952358
-25.883694825189785
10.696917153977433
23.931375093940524
28.784612824846135
29.771517774144428
33.78951072741523
46.620134827890844
52.9240072961468
39.92606377672642
23.21925579446989
33.2089884628051
31.544900291009508
-15.656782150843481
-29.59834495564199
3.618448537520751
8.304317491151275
-17.333728647075016
-41.34747446621331
-33.487009729212
-0.20277319367026575
11.608296940033181
7.423534510217586
-10.991019539734621
-25.442732747738006
-4.811060909614387
1.1842177131096514
-19.508899386691322
-47.25127245203189
-67.16810931100261
-40.90799011006054
-10.832656642881574
-14.557621614573858
-15.460995509313372
-5.135809307200782
3.164597901755725
-2.059234956255853
-18.90659371297112
-29.029091159789917
-20.59608581453565
-6.902760109162511
-21.908869038247666
-37.66106645571874
-23.419192212301628
-23.391805010864275
-38.8513901084524
-45.11331016327906
-46.42106539745332
-53.356734315046005
-82.20225130606462
-89.38373577291694
-45.20442541683417
-2.3081413018944357
9.603636636430856
1.382789173115342
4.4178902290580035
20.417630087774036
6.444557125118454
-32.39838281167894
-45.7294295320478
-11.920800204685577
23.07536465425112
9.924196757808337
-19.60818044418244
-13.572789506176381
23.126581994676098
45.381365756577004
28.644327128386607
8.952858795762427
5.981722635690243
0.791496619306126
-5.287626084268296
-26.854286601887328
-47.008679942224795
-42.50422950528344
-40.01477387489065
-27.962396325172328
0.4566472117839445
14.139351127575894
-14.014363860455681
-44.465914890595215
-40.273415865363255
-31.075809586581148
-4.953307068480605
-3.250251508405801
-33.641383493060616
-16.4620888611652
-8.229750637621953
-22.369101373690597
-15.034910811991843
-17.36637184848893
1.5980767576031847
0.430891966412619
-44.28835618342272
-37.81541431282256
-5.459792456956565
15.729448376244106
12.328165111189632
-25.247197389173856
-41.9503637880658
-9.07998359845499
29.85952409253897
10.13420313875914
-11.341873632903269
17.044840538022587
51.11420533284626
62.57895380455486
39.47204571735018
41.70422562357702
86.95679739736737
78.55946632525917
13.778716233111922
-2.939767422701845
45.584589632086825
84.62946849889535
81.8905048725926
53.9015420513905
45.34036891543907
79.67007138144086
135.38743121905347
155.7247906359137
87.65633567678302
42.75330001564993
76.46862452233995
98.18157789854985
121.83874461259187
109.62158577460528
38.90937734059057
11.924646657224033
24.298384653584833
11.480958580519017
-6.072370396474514
-17.253102491130743
-44.95944326526324
-50.43006239998655
-46.39849155239012
-57.80170024432131
-66.52570324913601
-92.25981328202705
-105.62260665064372
-91.29538814986341
-78.9870905842093
-66.35019249076943
-56.46318490243518
-80.32973632199354
-124.02311494455013
-129.87388581128022
-111.34673403334027
-69.6976278596043
6.2744479890648
43.957317411996286
18.198969105917502
-34.426064012142966
-56.153283531175376
-44.46453517377124
-96.13724933028963
-158.2378274270303
-157.41062334886757
-118.1606665932835
-32.37596498901941
-30.19480220249545
-105.12540953079053
-100.52233587281023
-102.24981265437629
-133.0801650173426
-145.90731465947658
-188.5700384658414
-184.34862514328128
-108.6856917085191
-51.45813487049887
-44.13385151836202
-71.68725862046203
-46.90998855800612
8.915132644135712
11.456572920267456
-4.834682643413955
-27.93737616830056
-42.19966356801583
-10.415572375751502
61.56216152638285
68.5816922789688
-23.320109165266874
-48.917019089547495
-2.194164706165865
19.96950295484648
16.064793729013417
-10.019897704623611
13.450301887467614
69.2315822724765
57.267808447510106
34.514081874742054
84.41704052248863
132.18418148497864
54.37727095889168
-6.149569759272455
61.64726567837257
116.67495933722356
179.44576959958493
176.36858479183994
69.53078215551602
100.81141770717599
187.90202332980837
159.84221589364233
117.7266987550595
123.24745481990227
134.64315189885647
136.56601324298168
149.43553150164604
161.9887993915604
148.73785001459225
129.78178410894657
151.403910714559
134.31271427624782
61.50940866679328
71.92879397435973
112.10508591759096
104.26792305989932
109.07752101172298
122.04562958966629
148.8759634857681
214.13592648259325
225.53124581294122
179.54111917145772
190.9986076123656
225.37254545767172
202.74926197206312
172.36686195712204
203.32903957004845
221.014162787239
173.0803325516227
163.65194936305994
218.0390135491166
237.64668684103538
192.34424754304982
153.45186051877107
135.70407629110136
139.29968901850938
172.69109628047585
157.3942774110072
102.22893198210949
95.15451651836933
128.30677105343122
139.6718894260704
110.82487753446489
77.04875273880857
55.25928573412917
39.33002037422588
31.743242798818773
53.19288315500343
82.34575080857115
53.86914383971613
-1.1971231161041085
-13.612329206144707
18.240964687316552
49.423277183148166
43.454269901052996
18.43633199877818
-13.261220611308334
-12.376797459287504
63.47925303783879
131.14192183401633
92.04269157201075
1.9630079697484035
-22.22102478217134
-18.499759641075755
-55.014765699421346
-58.66691704054525
-38.62965225182082
-90.52527142669831
-170.64642445360695
-201.3963689002083
-201.15257341537398
-206.4582971448343
-215.28033897876392
-229.43726947925418
-254.8236816176181
-291.6372929332701
-345.3365714927984
-398.3261130969127
-423.59561000623904
-420.74534200870147
-424.85107107807835
-426.380742516172
-410.4301966115914
-407.1869547300385
-413.4007364809909
-426.32914279203646
-441.81395054537654
-430.5265721866136
-367.00302520992744
-319.93568602057235
-315.79005471772916
-252.6519098560993
-188.9489325704246
-183.96770259550695
-153.70355850732727
-97.17855312176216
-69.44659149861047
-77.51364113021019
-89.01273472901894
-78.27191444884778
-47.59204824684868
-64.15394064398116
-134.80959452258557
-160.041751640697
-120.46393590216348
-55.6346624250461
-12.789820866654612
-29.291649298555633
-80.61670239417111
-121.102956292545
-116.5288684525314
-48.27300347757827
66.08887381735242
140.57299164360754
116.36641769019094
55.823063484284816
27.066839320620172
32.51891568032742
33.96853433608788
7.34846865418363
-20.012197021427657
-21.47986380001087
10.001056805286728
50.5674956560227
63.74821241624858
71.4967411681388
113.30620138167055
140.20232162940394
83.9142264697709
2.7858152771644598
7.635693125217688
109.0026016742146
215.35501327841905
243.25828379436885
202.28843053375016
163.1283466577118
168.17281158341632
215.2512989497336
281.28073912475105
282.4301661531207
196.34676008366753
124.6792170887683
88.6916711320399
66.02750578604852
93.55948875749202
136.8016947120312
90.65574171247792
-4.849547077886115
-50.790122790991965
-72.7536681880946
-93.70486325298053
-97.83507373509939
-56.33383078496377
-5.173924770390846
-16.295263142693912
-38.60276922984931
-11.10761885911493
36.21213524508786
84.60228617295522
156.2249007175816
197.02388000999605
141.0539065058917
14.366978186216107
-99.56948814864633
-127.85540405717383
-121.2777954440608
-102.160702270846
-8.489224741274151
119.9803569109336
168.71108974171528
92.12880882654919
23.306850391125366
55.25334406696775
126.65602918038539
201.27441638229837
238.5614022151573
209.16912723600072
111.00328168571201
-15.877950402885663
-78.40836660978202
-58.4350252231683
-5.646555005226221
44.77242953040539
81.48498660013291
88.95077882335288
37.84696201224872
-46.14448717215643
-87.4010337104271
-80.45367516374125
-76.38818966611149
-132.3689420729205
-221.61028926799528
-237.86314059018085
-199.0790250059765
-207.6921514364192
-241.94121052792434
-167.10268312032673
-44.310601949369705
-36.40364322199888
-68.74173875932453
-44.99259096437523
-21.441789061353383
-56.96806210258665
-82.83285425098614
-40.18200413020411
-3.321240908126973
-17.443292053680494
-52.92876826806824
-75.49632174838801
-92.06801445840993
-111.40482152776218
-114.12605230922634
-120.76319344631995
-150.90783666265108
-181.51607209406913
-197.52942727551766
-200.2042161271532
-204.89205281603594
-184.48134906963801
-108.01306738104711
-46.98993653942907
-35.91590066469867
-52.14402023189385
-80.5813433279539
-89.03504284568041
-104.65779852767794
-145.21464947829375
-181.98848443982553
-206.56239287946144
-204.94392605986397
-159.03094894879288
-53.517594296076425
66.16134427782822
114.47681729565303
110.30374397682263
112.25917430492717
128.2139791395237
189.98272104411208
290.3679429099221
385.85576406288453
384.55101751851515
206.00471381416858
100.73808561935654
191.0956984538928
216.2061131190515
170.54968527850423
180.04345160903628
188.99040283117355
172.7783574269052
157.46540826977434
157.9077038396478
184.65440449899307
216.59532900527367
233.97856370064682
243.50174279625358
260.3434929420758
289.32405639327806
324.16088832805207
354.00079688156023
362.2450248165007
352.12145914049285
348.919669206378
353.822852876187
300.902320497962
199.8573045747095
163.23551955857877
211.60559521099802
279.5351833779792
280.15821164614795
209.01653514771806
168.69470126214094
199.2169299907789
241.3795105233838
264.8666019855511
270.54635766576854
229.81058167377373
180.14712992448622
137.420944633099
82.70543727229376
46.61615780456242
25.916830704491133
29.86113572547796
21.286241287595846
-37.21016177670201
-98.12266460684701
-150.9721225391714
-178.1460666246951
-181.41862290129419
-188.577349020429
-183.0698931930636
-163.06090310508677
-126.86278697848445
-111.23150074751344
-129.54103088340506
-112.37113497778066
-65.08850245206746
-36.0636033174847
-61.88068588818079
-136.7613228903559
-189.04338378388022
-196.91444788209125
-215.74488714729958
-262.7160209043462
-286.14037664016075
-276.2017278904298
-256.45514956158803
-280.4550600380496
-342.8070994711131
-371.70076577808095
-382.1294745309287
-379.4196864806236
-382.90279573523463
-402.5424018797703
-369.2201178998445
-295.6641017460061
-259.5151537124883
-277.1200164430376
-297.22937630288993
-289.1477430156061
-276.95025859152884
-277.8600202239687
-286.51506906890353
-295.76103403545267
-302.48051174516553
-299.2169314632624
-264.602799609953
-227.24287106732547
-214.26378050402425
-173.55405807227947
-102.65052817411546
-67.44941592305192
-83.2411689276078
-98.51763396818535
-82.47346615937903
-60.00575011729654
-62.688157167205254
-77.26633723419445
-88.39212767099555
-107.98070560813578
-132.01453044667676
-158.02531690939412
-185.81681011195636
-207.35428092677066
-184.8127915379588
-117.5286195653581
-46.858074613577514
15.463100491255641
43.339029942986826
51.056671979684886
63.11451070280251
90.21884578922545
167.5369072538357
260.4366818340974
320.8569124910696
374.58690761616884
452.7010018269817
515.9478884379881
506.2825413984493
422.29997738198904
293.3182121871979
229.77843423368938
295.14859603448525
357.16853941161565
353.4441668196501
326.4289206627641
287.9389238467667
243.52574630894944
174.40216910697845
111.50020830912062
81.22335365861922
46.24755126341678
-1.1975497242354904
-46.553155553517804
-98.93037370088481
-136.40190399033378
-141.85604104123368
-186.9805303522386
-256.6582159560641
-277.22169307108993
-210.10168093113623
-70.57813044749709
34.03401675062771
79.91080344420278
86.488197136764
84.66716467339081
106.0733349983821
105.61755530215208
62.660181151828496
18.8685056949447
8.140836554066775
7.784219219586804
22.09897321117111
35.91511001164858
35.82066612531274
44.63051530044164
23.260126638751
-14.70113511013204
-41.788449732218055
-39.3873943666635
-2.0473225394880568
-9.545297105622929
-69.09976998623311
-128.13229495120711
-157.0946366811737
-152.44711701744626
-152.244486999068
-164.40083214539405
-161.4876390146273
-149.34029954130716
-149.72036033842863
-164.26714668195189
-192.9116620010854
-219.02013493723283
-217.06788022655851
-160.9323368989426
-52.1799944191301
69.942686235156
185.5798868982767
235.06283329495298
183.37131760362814
114.04145411124834
87.22117855214017
115.45354012774669
170.7875338507462
199.10683420721028
239.01242212761653
270.7451357722852
236.57978247530363
234.64092669871403
269.60118994696774
270.3725479964154
272.72585949983926
263.4801634923734
243.74517388852885
196.75744074838173
91.99919064600432
31.88585794321568
-3.459362191336339
-41.02267207924884
-43.37449432858243
-101.58216905309611
-169.5351297623087
-197.62570126921466
-229.71012417610143
-224.90260587408324
-191.2342845788279
-145.66111419232286
-93.67962645086955
-47.44004617252073
-18.164607604825267
-23.31778660058871
-34.09493585557305
-39.47544724013957
-14.614134221570636
41.438307235735216
84.63533006301417
113.62883143647754
104.9794826882437
72.38012364143778
51.5213959004383
34.86002747044984
39.04053851820996
68.98207530089168
108.49436241722242
125.46176040445977
86.15154566104387
7.152726252580386
-56.089027076214315
-61.86596715419468
-40.44707742802299
-48.78424535115884
-81.15243597164965
-104.50712004145812
-104.5529183494076
-87.81107719684627
-57.49210207758709
-17.200322114420985
-2.3021127384217737
-16.861855995387238
-20.371382181073958
14.20199709564805
64.08354194817883
96.88588566410144
113.53815727920328
117.2001707639063
116.12803330982298
108.18253974427408
73.89744481147633
19.803854939162516
-12.832709515819356
-15.79351280378173
-18.342618641557493
-28.702798460274867
-31.00252073163596
20.69528279322819
119.48155205613564
175.31888665216255
153.95067416412562
99.96261920653896
45.42808212921038
7.014672250339863
-17.602724055325908
-40.563083557643736
-13.650416457132348
46.07093779649633
40.98191441272752
-22.64751242380985
-98.12398236168885
-152.47647483178056
-163.65485215146745
-171.8710019367602
-182.36526311169138
-142.86234677855617
-57.28841826674429
9.728597437944655
19.983453011215225
28.131749289067265
74.97477419821706
113.89019015231042
136.89254785654555
133.8068097996224
106.69543743658346
105.1607998515058
111.53109129180758
101.65314066113285
59.96025644427535
2.527166987898864
-38.71495507374477
-67.74814292998762
-73.02940731832832
-72.36126717272528
-69.57201611141159
-62.30094587131526
-67.43592087980996
-72.69252254657061
-80.25953509400976
-84.90691112062508
-79.71670278227452
-73.33220101654231
-56.79435322381788
-35.99305366984001
-17.775184989552837
10.136897615170307
34.089063569660766
44.25956943796546
34.83766778075889
-21.733397983719108
-85.48838865462918
-97.3856004029384
-79.10843137119932
-60.73699063079506
-51.38636718890921
-61.98780059078395
-96.74100937638154
-128.13964662222494
-130.22052681305857
-129.2703511730392
-131.3296179455474
-110.11248223681258
-75.09726062795893
-34.88029843640461
-0.11194796369220184
-2.2708333425041944
-15.85398514531104
-15.365047591267516
-9.340006949307528
24.4541722162173
70.71510660363082
82.20423199065418
54.9523878099402
18.608679568349526
13.292216859232827
26.003704461005622
8.615073683183754
-17.884644937014617
-25.092664788512906
-29.947749948256032
-40.45107777378613
-58.565150269319716
-78.86049556814491
-96.84324922668277
-108.29719518811638
-104.31884559906982
-103.45501664044305
-124.85914745411979
-148.79435236681343
-146.38617834126845
-128.42093797171
-107.71530299684986
-95.47992541432319
-124.62771584367414
-159.04515425997525
-164.10130789051925
-140.85062955570754
-68.75125776504385
13.345294580132258
66.70759386899091
75.98369940782088
58.489404728128505
54.966736407946634
57.24258139883675
82.29520531806737
143.29659631692675
209.11881207644865
229.7198079525121
195.32265850180022
136.20235568162332
86.56462704853242
67.18431529614483
40.64908870038115
24.17572388233856
22.238624157078544
-14.00185277145167
-67.42781752883816
-113.79186969869403
-127.13737899618299
-114.54469328539584
-111.86029395384104
-104.75092940048015
-88.57032281619172
-75.49951150734314
-64.54535052028544
-56.20062342793416
-38.298067800541915
-15.242297311020145
6.000144786828567
34.2730009106024
51.28509307235798
48.275368407472634
40.65291178160042
56.8526419506519
104.52164100594214
152.59696722908757
173.25315943568492
134.75505974385797
66.85501023886258
30.149792080583225
33.408932948385
76.19055792652529
131.90373180982735
168.1868439284333
155.07513643851942
94.95768423331849
