AAD_Filtered_TADAS_FILE
AAD_BASELINE_CORRECTION: BASELINE REMOVED
AAD_FILTER_TYPE: BUTTERWORTH
AAD_FILTER_ORDER: 1
AAD_LOW_CUT_FREQUENCY_HZ: 0.025
AAD_HIGH_CUT_FREQUENCY_HZ: 40.0
EVENT_NAME: 202302061024
EVENT_ID: 13207
EVENT_DATE_YYYYMMDD: 2023/02/06
EVENT_TIME_HHMMSS: 10:24:47.00000
EVENT_LATITUDE_DEGREE: 38.089
EVENT_LONGITUDE_DEGREE: 37.239
EVENT_DEPTH_KM: 7.0
HYPOCENTER_REFERENCE: AFAD
MAGNITUDE_W: 7.6
MAGNITUDE_W_REFERENCE: AFAD
MAGNITUDE_L: 
MAGNITUDE_L_REFERENCE: 
FOCAL_MECHANISM: 
NETWORK: TK
STATION_CODE: 0132
STATION_NAME: 
STATION_LATITUDE_DEGREE: 37.855892
STATION_LONGITUDE_DEGREE: 36.114868
STATION_ELEVATION_M: 761.0
LOCATION: Kahramanmaras_Elbistan_Turkiye
SENSOR_DEPTH_M: 
VS30_M/S: None
SITE_CLASSIFICATION_EC8: unknown
MORPHOLOGIC_CLASSIFICATION: 
EPICENTRAL_DISTANCE_KM: 101.89
EARTHQUAKE_BACKAZIMUTH_DEGREE: 
DATE_TIME_FIRST_SAMPLE_YYYYMMDD_HHMMSS: 2023/02/06 10:24:44.5985200
DATE_TIME_FIRST_SAMPLE_PRECISION: millisecond
SAMPLING_INTERVAL_S: 0.01
NDATA: 12501
DURATION_S: 
STREAM: HNZ
UNITS: cm/s^2
INSTRUMENT: sensor = ACEBOX/SARA | digitizer = 
INSTRUMENT_ANALOG/DIGITAL: 
INSTRUMENTAL_FREQUENCY_HZ: 
INSTRUMENTAL_DAMPING: 
FULL_SCALE_G: 
N_BIT_DIGITAL_CONVERTER: 
PGA_CM/S^2: 53.717
TIME_PGA_S: 
BASELINE_CORRECTION: BASELINE REMOVED
FILTER_TYPE: BUTTERWORTH
FILTER_ORDER: 
LOW_CUT_FREQUENCY_HZ: 
HIGH_CUT_FREQUENCY_HZ: 
LATE/NORMAL_TRIGGERED: 
DATABASE_VERSION: 
HEADER_FORMAT: DYNA 1.2
DATA_TYPE: Acceleration
PROCESSING: Automatic Paolucci et al., 2011
DATA_TIMESTAMP_YYYYMMDD_HHMMSS: 
DATA_LICENSE: U (unknown license)
DATA_CITATION: Turkish Accelerometric Archive v 1.0 - Disaster And Emergency Management Presidency, Earthquake Department
DATA_CREATOR: AFAD
ORIGINAL_DATA_MEDIATOR_CITATION: : AFAD - Disaster And Emergency Management Presidency
ORIGINAL_DATA_MEDIATOR: AFAD PROCESS SERVICE
ORIGINAL_DATA_CREATOR_CITATION: AFAD PROCESS SERVICE
ORIGINAL_DATA_CREATOR: network: TK
USER1: GuestUser
USER2: 
USER3: 
USER4: 
[...]
1.7407405264081222
4.134358921424147
2.8290192467250734
-4.393182454684495
-11.037534696265734
-11.68402311813018
-8.281015531722902
-5.3909016623613555
-2.2295309739167126
1.1350382174190818
0.3520953915166883
-1.4316296449839119
0.4409957000413671
1.066476938496439
-0.868400403372141
-0.12204031726425288
3.961305802538572
7.8048393109305065
6.2186659939189
0.08915518605951878
-2.8641530891405127
-1.5563575176680011
0.4013586168062882
-0.13066752248788135
-3.4845920111729285
-2.548248803037156
3.832310528592306
7.910764036031489
6.293751940394261
1.4102877272481156
0.6521265546565632
2.77966499368857
-2.409424487752675
-8.29789579210363
-7.372718329612832
-7.253839657990864
-7.279818533663829
-5.106750664172379
-3.7726831741618634
-1.0691958057696584
0.15450363447736956
-1.9727415207327923
-1.873291002859967
0.09091815504247266
2.0406856854284112
3.00458142047075
0.7854427373393527
-1.647799769366585
-1.446236475530709
-1.0180362831263752
-2.0006593218817215
-1.980287025348425
-0.288095150614161
1.2484097425363339
2.7467024160626785
1.0656659965570723
-3.3342763117093335
-3.0792574822963417
-1.789467773838008
-4.148864724523876
-4.316981294980114
-0.7560594351930364
4.500875807651302
7.212342275883079
3.817663510528933
1.6235817563447912
3.5239472934495524
4.274205139356609
6.148232599977183
10.25887997715692
10.855114848842243
7.141925184504197
3.020528578783767
0.7937143184349397
0.7714767366746343
0.8700120933495823
0.29285946945919783
0.4029737905649533
-1.9778643667650917
-8.275648582994775
-12.77891600430464
-12.810122534623877
-9.449469131889098
-5.306974713041009
-4.147953574452157
-3.6310080626268197
-0.9884542331252504
1.691444105692549
4.104405841047257
4.949361744731854
3.8092576381076486
3.5700571938430987
2.8131472305995024
0.6678861001670182
-2.4008121358389634
-5.8918227451118454
-5.7139999877472585
-4.493156521245203
-3.5910081510453806
-0.008242327296374977
0.30253692331273785
-0.4720228769264964
2.8852456163157183
7.043254268253481
13.310356504114424
12.981361258002611
1.8331746266289122
-2.817966747918117
1.4251934467672358
4.560913985289786
3.348020859088073
-1.9847346795684007
-5.446759070742149
-7.042194941768446
-7.895094772327925
-2.5730358812110614
1.8537956916549063
-1.9204947493463689
-5.909102014189982
-5.355278930861241
-1.6310493133281605
4.222609828696642
8.570554932843892
10.611658895828056
10.939547688216923
6.600984195459646
-0.27569465734573523
-4.408130957763251
-5.4552478795211305
-5.537964309060878
-6.288321475513447
-6.214193153128256
-5.235516720495855
-6.012829148420007
-6.334239223284149
-3.6146332702116815
2.1102468540660544
8.32512375003208
9.796021907107887
6.846044459974571
2.2044388956209815
-0.9908456853365638
0.3184709002065888
0.3089452606060837
-2.9532213460708268
-3.7392037863123218
-2.455788342049576
-0.0610177357223139
2.4686484381725755
1.6091222216077914
-1.5277131186038955
-3.7801132562414392
-5.570173108373186
-8.513043151395394
-7.924768672259948
-0.9687915608905395
3.4447489908738738
1.8014124002075729
-0.9422199314979963
-3.871747779070777
-5.474898883811842
-4.770103025144971
-2.142609266041364
3.0646674039228303
4.361928742535067
-0.36283437510951894
-1.3093019110732123
1.2556426460107524
1.1832486482453717
2.8632719067872636
7.362693674562817
8.548593339862526
4.781717131222767
-0.5348562022981939
-1.4458889931049157
2.7500179084485
5.4278497640064485
5.201044474992955
3.8559031577811824
1.4929071850711495
3.382490857233922
9.195460493050469
9.384200371140198
3.7959043530220997
-0.6109426407149015
-1.4091829948667762
-1.5650972928383855
-4.418611217016164
-5.763918755534858
-4.9506123283853025
-6.110408846360757
-1.996491517521024
8.680429085620911
13.122018936489567
8.302525032425903
0.8243315601954819
-2.593581514846178
1.9374933028529884
7.75187970510435
6.735881248867079
2.327295368188917
1.2290057868691149
3.6427699606509933
4.402530941932858
-0.5034342222650431
-7.147736796186582
-10.45006857043729
-11.230656592801422
-8.729020881042073
-5.648039246155719
-8.803369184851524
-11.906793443843931
-8.871613087855392
-5.80909292188812
-3.2784333150050657
-0.5097528036941329
0.564842839694375
2.2245297732814615
1.7293485654008875
-1.3098426164669439
-0.9615849675751424
-0.06281423060706905
-1.346256024603875
-2.074173618536423
-3.383187445775128
-3.4723598862304765
0.8808828731359282
3.9594437717337465
0.5889449084104237
-3.2064156099213124
-0.27643868135555827
5.268123385053324
6.933020400821615
6.4245583054957525
5.660438544491492
5.033784607834804
4.907424836595595
0.6279393965666753
-4.5812284310563705
-2.000673275334102
1.365103797251889
-0.01875131278479253
-0.06602303635728192
0.3237375539221515
-0.2529700134460128
-0.3837342300211379
-1.9469967106860657
-2.4058101264870437
-1.1981166582505829
-1.9237052468216973
-1.7848732824053664
0.22223082728984628
-0.4027326079536374
-3.1527316543627086
-5.353585988348975
-8.091768121471684
-12.115984315517794
-15.625149947923331
-15.341841103113824
-10.741468891649372
-7.179622347400754
-6.627829298638883
-5.417770086203559
-3.673653696125295
-1.831935245740745
1.3533251750105204
4.247042690204314
7.899548394964138
12.984821724144112
14.161725977242781
10.965591811665078
6.434288514225555
-1.9540177253187985
-10.901100879195253
-11.280838992839062
-5.617017321437085
-2.8396619753434886
-3.816092387225497
-3.3672802060306575
1.192847185062151
4.93256465796754
1.7259460407745528
-5.277123534751818
-8.772298556925252
-8.70738508379359
-7.858308322358467
-5.346067947199516
-2.887948531779721
-1.2226747376786689
2.8033379895468755
5.283523683111235
3.105786795331503
0.8036435567700859
-1.8873955236711322
-5.466398088904284
-5.901019849749784
-4.700342578283028
-4.365685855790065
-2.6194012623851424
0.4573698431709035
3.536938459061023
7.618951228907281
10.91011300439029
10.416431197380497
7.685477627362732
6.048119284514038
5.534323829742406
3.4772971699215476
1.6391038206049804
4.186922650451678
6.949814835870961
6.1026688809841305
7.174134207763564
11.052816129964437
11.516131479289058
6.590815061700525
-1.0056751346792112
-7.036023079974257
-9.80332109464869
-10.299744161884949
-8.521826372120445
-6.932513581849096
-6.468370334015138
-3.25438443937389
1.5017384759152086
4.089326120804247
4.531088998033235
3.285764277079938
2.6752608585637376
4.003247605101422
4.9133011360697605
5.436977533928504
4.710392730290416
-0.11214181486217936
-3.869812615498657
-1.1390660310444636
2.7462793993664025
4.855506773272526
7.056526081923594
6.82427468001188
4.996102921677221
3.0703764593203937
-1.3857006232999685
-5.632318222900661
-7.739498745186539
-7.681552236038435
-3.8130282444178
-0.18657881785833688
1.1834082693483146
2.8940330305360984
5.79070739853061
9.94063689532416
11.533754534897344
11.043659715053186
12.53340704456197
11.63201363926594
8.902540767112912
10.479857341426833
13.495999722854458
13.953584773925774
12.633970875600372
11.436868392017917
11.584014625518673
12.136501087275445
12.204684500536963
12.188520019617181
12.782944860130302
13.888460053958514
14.330260580134087
13.387578254634677
11.383146356181953
10.362504131024153
9.993587170306457
6.170680766840863
0.7595700485947133
-2.0049936582884285
-3.93505590664913
-5.070247383992248
-4.550071180304934
-4.526952464945953
-4.472078030319106
-3.9319545440042796
-4.676615354513095
-7.408870582751673
-10.843257272853478
-10.942957182890058
-3.8756171437844618
8.619489394129896
18.144889678640148
20.90581170843017
23.380158505731647
28.026231485560963
32.668398000543945
37.4551458728672
39.158261529262894
35.062511615147066
27.02516755920148
18.956006704438778
15.663386020210348
15.376568998374617
13.065633915912537
10.105586936601052
9.327583396945743
10.636104207208147
11.512296426208193
8.999994006529397
5.1817315909152235
5.846599239463809
12.421849470573024
19.348484989271057
23.63356491446434
29.4195198663469
35.658170522988044
35.09316743343208
28.27434045498563
23.670255643571963
24.017809005246324
23.19461440382381
20.49107942615749
20.93333506509862
22.901053184996503
24.988247321254633
27.390113940033643
25.809435402596957
20.971806041992632
16.481443538380375
12.545146211704582
10.697863608964708
10.357393733502645
9.232063987302281
7.407780225444353
5.913461409143506
6.737305791538672
8.18628413402398
6.1077806216380495
0.2832152398217918
-7.353131889536162
-14.008581797534848
-19.375332226923536
-23.50856884388235
-23.174539431278397
-20.476407709244082
-17.668365668145576
-13.268925288421801
-10.680259968624199
-9.166242712266257
-6.7061899596914385
-8.74916233127934
-14.528367628086611
-21.047339824541435
-30.01735750786679
-38.057194926762776
-42.30160051014095
-43.20989653633882
-39.087095031813405
-31.602227655397705
-22.6448625096598
-10.932922383969657
-0.8243027261399846
4.56348550681803
10.246169656768522
17.365581343949206
24.877918816477187
33.41410915211748
36.76921131568283
30.700715399716607
19.361387007678783
5.724827432032255
-6.806411762590028
-14.035466246422711
-17.403778044992375
-20.1598394116131
-22.364208456805116
-20.160691386947448
-10.307262559299184
1.7570435675148084
10.338385225071875
17.59530696827623
21.623469004962953
19.040914433384465
14.026961251421259
8.681817451305806
2.5335802099769196
-4.379018741553359
-14.207649927598297
-25.281071397799614
-32.11222990046111
-30.70517862242549
-22.84524648298752
-15.21405390728208
-8.089315757218733
0.4447302622006786
8.135879756320183
15.492205132224283
20.743256790630962
21.840216241792827
22.414768557557572
21.79982741284113
18.015855935717294
13.29258457997249
8.864372726263964
6.166579461314069
6.290527153754975
8.537881495803108
10.164397754469801
8.302701716997136
6.033318368551883
6.383228807036153
9.020683873491572
14.30577034916808
18.385333919858265
18.219298733708005
15.77760025744497
11.296330012760025
6.868993123345619
3.6185839666343678
-2.1435675438379533
-9.46784771177419
-15.20673946484024
-18.161257930271375
-15.449379724477394
-5.6453810274210525
9.351536645100737
23.950507414428618
31.291146866091424
32.28889263519707
33.357860371614166
36.117852463459556
38.2760497245189
37.63659373986287
32.58484347369953
24.67678887010768
16.779869700339223
10.746931925677583
8.654766556738162
8.976235736033418
8.234757634165769
6.853890527747915
7.088597286865845
9.128722504197514
9.97766936434824
9.566033862680445
11.282845357775562
13.31637793850726
13.10120580732136
11.694214630005948
10.509739190635598
13.814190574465313
23.38591422339372
32.67727119044007
37.8780430508432
41.785548592145076
43.264759420197
40.73063820638096
38.46129826686644
36.52012726175783
31.081619113290706
22.22491559207264
10.551129295107053
-2.022257680482344
-11.642166252381811
-16.95602388882166
-18.11149265659812
-14.836483701123628
-6.80955188509715
3.2566044702741337
10.373393856531743
12.185270531433504
7.565402039182585
-1.670740848410217
-9.636611390565182
-14.254744911002229
-15.643271922095279
-11.906430175335743
-4.3408522000568075
2.8166982777581757
6.042696352738057
5.040492419802463
3.069008400980088
1.134319263695949
-1.322371779715578
-4.819619862712228
-11.81456339157803
-21.490055448411443
-30.14872630726885
-34.98737144636637
-34.86151812288177
-31.285465043570177
-24.702108645155906
-16.377474756383695
-8.18021419898526
1.305100908630637
13.24516616076515
27.29761489423222
35.786978238384826
32.14470252800417
25.865088033600635
21.708997343492886
14.683788069336225
10.2484347079308
10.375347137623374
4.4719163405464935
-6.86273382172553
-13.482496040032789
-16.366646602310535
-18.134313575492904
-17.734847621331145
-20.866854254294058
-28.83956128354338
-34.56870671658513
-34.51632805695551
-31.62092761110877
-31.898952702546154
-33.815567911630566
-30.139720978800426
-20.976103773136654
-10.536711931925838
-0.7260501896604619
7.204630508829588
9.770127827840112
6.653292287858587
4.634614787392135
6.611814817113444
11.950048754286447
19.012043313279474
20.25818653051408
17.51656508559721
18.856388160192925
18.78282549989631
13.320632614731968
8.836427949871325
7.7015605821460555
5.738682081770695
0.27518945889577334
-4.903450216395472
-9.209678224288389
-16.93435891536178
-26.355350465736493
-34.05778911023148
-38.247479339312704
-37.23806372747791
-32.19587610294648
-26.652558590682258
-24.19910932460941
-23.854859784366976
-23.464800887691517
-21.69859908381896
-15.54494534017622
-7.658342091407754
0.7861513307267326
11.641061337407098
17.950846796267772
19.436016808796587
21.38127275273918
18.193115272619266
9.90156371651839
2.9582347688208297
-3.6175210447824764
-10.764214577081049
-18.049957719374866
-25.676416989353136
-32.96393135094972
-39.88226337106769
-45.91580472478038
-51.99015463779346
-55.144159866506726
-50.44639048903251
-43.627120218983784
-37.35778898919417
-27.370272205444294
-15.555907240534076
-1.6058105011864865
14.249631847622114
27.020495984493863
34.68129653230486
33.727629114856065
24.852460909832956
14.405677707271488
3.614764316372314
-6.165789423391937
-11.112379608574662
-11.161745735281809
-11.811688891671261
-16.615169079898724
-21.1838795161739
-23.833524674266947
-25.184644323776457
-22.88724873260394
-19.07597127318474
-15.463060719994406
-10.978916676862893
-6.437581617800975
-1.0238572545079738
5.0249744228390485
9.507187395083022
10.303504687882953
6.718417046932161
1.6671974647967902
-6.168021532764187
-16.29244660790798
-22.284459369219835
-26.561207047598902
-28.31901373264372
-25.297910100602984
-28.02052622915906
-31.992726547708212
-26.168407885879056
-18.28330210321055
-12.75977939071861
-7.947289536661968
-5.048547265083934
-8.284560645335215
-19.957036532344684
-28.589222328906615
-31.377376482883168
-33.01896926049114
-28.121187086681182
-26.415921035990355
-35.4122937020585
-44.689459395885905
-50.6334370478229
-47.608494602635695
-38.80553363447904
-36.144637635229266
-32.97897181502131
-27.634407131677158
-23.70241267734294
-17.859421031805855
-15.430549130496125
-13.995596723555662
-9.498059410662574
-10.433943245055415
-15.421694095004405
-19.720181092849344
-23.15913810206121
-23.260651604665906
-23.427584068564737
-27.22496751983577
-32.398319093381026
-35.994878414569776
-36.61960873493064
-37.004967442941556
-37.07080695428799
-34.273764448075944
-32.57366572322523
-33.688495419599676
-33.418566936226966
-31.752317025166917
-30.610172198284456
-28.308724018211258
-25.627438421475116
-25.330065607297165
-24.374993045383167
-20.22779162767482
-15.831594926405822
-12.264422130152663
-7.265012904553862
0.05732931256144884
5.045000445851446
4.780837730768617
3.7699383251117835
1.528142724409561
-5.019538652203373
-13.633803267370663
-24.34706285806812
-35.99090590292966
-43.96656744602739
-45.81048988776445
-41.4340926185558
-36.12088217309742
-34.41869613991194
-32.92752630430964
-28.579822020728326
-21.5765181707329
-12.319725942640456
-3.6829489335448047
2.077605828194885
7.130638051298982
11.54907224220825
12.773641152720405
11.891376968717301
9.235678795974296
3.1565472488591
-4.255756412689423
-10.792474754236665
-15.579332168890945
-15.98237531714016
-13.492003618275637
-13.489932831802186
-15.737047607918793
-17.353147811617585
-17.09785942281833
-13.485658171031483
-9.259250319681177
-6.526495309690705
-2.3051014086092945
1.9183040159940994
3.9279397529208815
4.218016181245064
0.356006870272185
-7.286070669629614
-16.045569571015527
-24.203536177994845
-27.84387753013862
-25.28015168627822
-17.853936123233943
-8.981507611797365
-3.0444909318109463
-0.14129606092204122
-0.7421371347450898
-4.5398074976853655
-6.896576774483404
-8.23151209703996
-10.062290244083398
-9.960760477002562
-9.05009453500861
-9.6146640450522
-12.008329438410117
-15.01588713367295
-16.691551616835213
-18.52369092108046
-21.6659282379352
-24.972833144542435
-27.09234749415094
-25.241196291799508
-19.871463918836376
-14.0730097218129
-8.387286449731821
-3.251116459138749
2.1271309647826087
9.308800614911798
15.262902324440283
16.71048010924106
15.40886287723966
13.360857081966289
10.458089284312248
7.079528489613051
2.9574009883782777
-1.6560864506074267
-5.367394323823116
-8.671655805357025
-10.373887056696459
-8.989707259232924
-7.7575429063396255
-8.766943437314277
-11.73137236524062
-16.75681780784274
-21.191329870486204
-21.32820479227239
-16.78829014113989
-9.729749099832553
-1.9300182512873951
5.547663633147029
10.377019379294484
11.340377545965586
11.645190726894612
13.51648102915997
15.651325003933163
17.132328124102905
15.992056885855767
13.24693447487519
12.037939594353773
9.635868717015992
6.698201844223086
5.663660500644155
4.972248851495337
6.0089899749259414
5.73486655582408
4.054188718427392
7.247134535998401
10.71373271848809
11.192372516523381
11.96023318481061
13.673421268677897
18.0943801179233
23.352639117707824
25.082882084190622
21.783325405428787
16.68292653847279
13.419650223971368
9.055634664057546
5.849665898321126
6.125395438819374
4.566945614292414
2.6406825807993557
1.3329648417023277
-1.7925523699330783
-4.479484149893292
-5.94392511122919
-5.742015367474158
-2.351956746757479
5.733597318054748
18.386987001021772
31.36757865614442
42.73988965493096
51.45908044529328
54.79509079801923
53.720846690137435
50.28453617527168
42.88164060707937
31.487530056414517
23.747092682127217
22.458757424840567
21.482571783935274
20.88887303162996
19.46934365401203
14.880097990912493
14.438389698144512
17.004699898093904
16.41744324550653
14.29473947009376
8.538141541182071
0.6633823355663938
-3.5121557269135772
-5.91656269298338
-7.654765096157685
-6.721292585559484
-4.155382901705609
-2.1236282483852467
1.562966880967686
8.125464997236179
12.306133557661987
13.90199504669633
14.822006907151023
15.247300039010572
18.214077297070638
20.70580184666868
19.911222634027734
17.479015029510453
15.525267916067843
16.570370583636752
16.128001958848674
15.352240531242844
18.8076941348151
20.039039625748053
18.322096380361888
17.634341084224467
17.6224007865146
16.72366735361272
13.816595490764755
14.255088522746139
20.881795220991098
29.262208687284406
34.915101859675204
35.05021989558094
33.89555150321819
34.95771573764339
32.05085441253883
24.148772438417545
16.760412028540696
