AAD_Filtered_TADAS_FILE
AAD_BASELINE_CORRECTION: BASELINE REMOVED
AAD_FILTER_TYPE: BUTTERWORTH
AAD_FILTER_ORDER: 1
AAD_LOW_CUT_FREQUENCY_HZ: 0.025
AAD_HIGH_CUT_FREQUENCY_HZ: 40.0
EVENT_NAME: 202302060117
EVENT_ID: 13194
EVENT_DATE_YYYYMMDD: 2023/02/06
EVENT_TIME_HHMMSS: 01:17:32.00000
EVENT_LATITUDE_DEGREE: 37.288
EVENT_LONGITUDE_DEGREE: 37.043
EVENT_DEPTH_KM: 8.6
HYPOCENTER_REFERENCE: AFAD
MAGNITUDE_W: 7.7
MAGNITUDE_W_REFERENCE: AFAD
MAGNITUDE_L: 
MAGNITUDE_L_REFERENCE: 
FOCAL_MECHANISM: 
NETWORK: TK
STATION_CODE: 2717
STATION_NAME: 
STATION_LATITUDE_DEGREE: 36.85548
STATION_LONGITUDE_DEGREE: 36.690996
STATION_ELEVATION_M: 41.0
LOCATION: Kahramanmaras_Pazarck_Turkiye
SENSOR_DEPTH_M: 
VS30_M/S: None
SITE_CLASSIFICATION_EC8: unknown
MORPHOLOGIC_CLASSIFICATION: 
EPICENTRAL_DISTANCE_KM: 57.34
EARTHQUAKE_BACKAZIMUTH_DEGREE: 
DATE_TIME_FIRST_SAMPLE_YYYYMMDD_HHMMSS: 2023/02/06 01:17:16.9908280
DATE_TIME_FIRST_SAMPLE_PRECISION: millisecond
SAMPLING_INTERVAL_S: 0.01
NDATA: 10501
DURATION_S: 
STREAM: HNN
UNITS: cm/s^2
INSTRUMENT: sensor = ACEBOX/SARA | digitizer = 
INSTRUMENT_ANALOG/DIGITAL: 
INSTRUMENTAL_FREQUENCY_HZ: 
INSTRUMENTAL_DAMPING: 
FULL_SCALE_G: 
N_BIT_DIGITAL_CONVERTER: 
PGA_CM/S^2: 208.188
TIME_PGA_S: 
BASELINE_CORRECTION: BASELINE REMOVED
FILTER_TYPE: BUTTERWORTH
FILTER_ORDER: 
LOW_CUT_FREQUENCY_HZ: 
HIGH_CUT_FREQUENCY_HZ: 
LATE/NORMAL_TRIGGERED: 
DATABASE_VERSION: 
HEADER_FORMAT: DYNA 1.2
DATA_TYPE: Acceleration
PROCESSING: Automatic Paolucci et al., 2011
DATA_TIMESTAMP_YYYYMMDD_HHMMSS: 
DATA_LICENSE: U (unknown license)
DATA_CITATION: Turkish Accelerometric Archive v 1.0 - Disaster And Emergency Management Presidency, Earthquake Department
DATA_CREATOR: AFAD
ORIGINAL_DATA_MEDIATOR_CITATION: : AFAD - Disaster And Emergency Management Presidency
ORIGINAL_DATA_MEDIATOR: AFAD PROCESS SERVICE
ORIGINAL_DATA_CREATOR_CITATION: AFAD PROCESS SERVICE
ORIGINAL_DATA_CREATOR: network: TK
USER1: GuestUser
USER2: 
USER3: 
USER4: 
[...]
8.399232528039025
8.503671459337223
7.154305885959216
1.0241227432469364
-3.2380185530222256
-8.584629033228431
-11.390943904143814
-9.516307335326117
-12.559050669371738
-9.334221499396502
1.8636571331115375
-2.967552757778699
-6.4945538730777574
7.854342322204218
7.323987255262706
-2.4168946864038894
3.4119288251312803
9.378053966415834
15.005219756980093
20.735166353315964
16.484393949356576
16.37933399277859
15.577220786454683
6.043501224141207
5.312767051733226
5.968333386003274
-0.9451380301596266
-3.687836906635446
-4.728018259916456
-5.037712444943656
-2.528408826939401
-3.7094945287105374
-1.1257698349912877
10.084180481634075
16.574321268686827
16.4674503550081
19.24163663507094
20.504800096581366
11.964443891293445
4.322330287676769
4.375140002200091
0.44254941905501866
-0.6269357180368947
8.507991890350871
11.227332520336565
9.780391618057145
10.11506245020033
7.0063664070262135
7.5781097244320845
3.0171063326359326
-6.744187834057451
-2.860277882460726
-1.3784627021338078
-5.206401926664087
3.852737156484626
11.05939618745707
9.539266840547475
6.37387718244096
2.3636238980940636
-0.06228904753565272
-9.180038987283359
-20.295946051013523
-24.557187058793723
-30.488923381903184
-30.318738420483367
-23.19288676232312
-22.246748722674734
-18.680111125214616
-10.62155512886501
-7.536280133648693
-3.3779043503821184
1.2893283705166332
-3.9144238224345735
-6.628111369608178
0.3561228579677317
-4.052327543326882
-8.03563379726292
4.2679279255589595
3.9171672632976042
-1.7951146128838107
6.326942557522247
6.327765399113402
6.712593112932059
16.829852277231875
15.629438768202236
12.425811103934455
16.066663103412758
17.23555641100894
20.06982239062757
17.990809540828966
8.342960062202817
9.060768319945222
14.727623310245143
11.31073418277465
6.2011247731841115
2.7789774092557797
2.6847906058017044
9.497414824994838
12.224801968642598
7.213273207729452
3.443645912960839
0.21792905403271198
-4.694208233515395
-9.299815908928336
-14.29427546904312
-17.59379084031499
-17.92918573898539
-19.007571829654697
-15.438523325782038
-6.423912439989744
-6.594412287016504
-7.957572821373073
-0.35113916083218133
1.4374223821108882
6.461969391115627
18.05869902384377
15.095897269841599
12.306937500158945
14.103704568556807
1.7779513855958462
-5.8177788981869965
0.5990934396099588
5.281423345966585
7.285596404742473
6.403020306153781
4.9655740183288595
4.2455779162793545
-4.780178934768604
-17.40762176843783
-23.571447522909114
-23.45375994370604
-18.910473458399995
-15.015498415607935
-14.526782575207234
-14.373086093403629
-14.459564471007955
-14.139607317573136
-10.191044320424586
-3.0585646383387033
3.7590546646997627
9.54669869043633
14.272104721241686
14.631665125194592
12.151908273458119
9.127277419340194
2.752416218192996
-2.112767204147844
-0.9527660708412158
-0.607780113132079
-3.40075177062534
-4.874020548718968
-8.068757795212338
-16.630894917035995
-21.45391923852218
-18.41788302506726
-16.15853309692479
-13.481702286362767
-5.153318981135323
2.814158053159773
5.112410891943842
3.4514715711841237
-2.4361916049547596
-12.03435965276268
-16.233847817267968
-15.125674658776674
-15.47814507124697
-9.019457834902763
1.5439517557380733
1.9295688408939233
-1.0360946192932756
0.004308585010761326
0.46692142648594537
3.6168656528637713
14.904657161064353
24.830319277491277
22.887838865995644
22.906643297225866
28.03575675079089
16.761042911886136
3.993208995971269
10.661048926787657
16.156691081484723
19.644892001875114
28.846181171891512
25.84667157859149
16.56895097406845
8.778436195324645
-6.766537068891698
-17.535919911046935
-18.495154302828997
-18.618875357879794
-18.45105148400018
-20.198520225301706
-16.204925766665518
-7.647930448388322
-5.166701862552841
-1.3338506278768332
-1.6756791132546016
-3.1935036069912695
6.2495671384073805
3.4735714994493008
-1.9645434123356096
10.739444786506425
11.205214266061368
8.186855987152157
22.465012503810257
14.60071541590685
-15.760923086549264
-16.90933839472454
6.829574531263451
20.697389427005373
30.280059388492024
36.92612430075572
39.38064205167173
52.484397729204616
56.45117706298577
47.498929196366184
42.42779108006295
21.1448298154426
4.199946265115492
15.822887136635073
5.257542164224302
-22.124960006203775
-6.866779832884907
11.498270541375684
-3.8635757379120608
4.30691956494008
20.91836808632244
5.259260359839363
9.261223074255273
23.00800314701311
0.38074536730559294
-27.171219643757127
-45.09577328561251
-62.958621010468
-80.25149290363592
-87.6979592548022
-68.17363845343087
-46.53692389927708
-29.804285797764923
1.9856811988183378
15.188304175031016
12.814599567213762
23.072208186067577
12.65602229367252
-5.590984887395854
5.072033073039397
11.075205349465598
3.3625705938275186
8.508115748404078
10.353723214717133
-0.3786477737288801
-2.1928679466636622
-9.051865316169087
-30.176000754416496
-31.216644240365916
-18.182540319244257
-14.875881798115422
-2.017620698940154
20.51405510533511
25.220601762414432
16.84966998102451
12.907246807716755
-2.949226884058671
-22.323057680908413
-14.366179197116946
-15.806199229023793
-32.52489262129587
-17.078892567386134
-2.358271001668928
-15.366456651920611
-16.164339367070966
-1.3227573408460152
2.9127294221663282
1.1174262244359179
8.14442344928669
14.010585675697296
13.858187767422883
10.456448858841462
2.671633278490958
2.571319311119298
-7.883459167215057
-30.750665778186537
-23.645313500568406
-14.088000057002226
-25.04117182721124
-14.57304195334773
-0.462713255441828
-7.231880142585897
-13.776183070712385
-25.869823351128506
-38.43211651736513
-41.55438400799481
-46.08771170297661
-33.60559053514728
-14.408393645231838
-14.130919865567995
-7.938818241872246
-3.037833630338946
-10.43249636638396
-9.676999982600819
-7.353636516577704
1.6109901602738248
7.087988789604867
-2.0283696242729374
11.045585987545982
28.02473134480299
22.9837845329991
25.302295013573694
30.119985615428774
23.80412457723499
15.360688037629668
7.95449560513139
1.1156780832583446
-2.6535305039458597
1.3685186688538662
1.2838142770340353
-3.631184357622153
0.7836411508681538
4.359382149286018
8.394971276255646
21.24409204692514
26.184862509243697
21.263889810881512
17.44911632781227
8.630225401082567
-3.3588126213556384
-3.7361743837626977
-2.011148329389164
-8.913832233423308
-6.815842258672833
2.4010802802087796
3.572916074843853
7.755015996786811
15.419763114422611
14.681085666060666
12.440868960545087
11.270925037534663
5.7264279581850275
0.47265769640257194
-4.076040716970034
-8.934951530517385
-7.295361879517177
-6.279340699651379
-11.902290466964287
-13.25790424287375
-15.20880636637514
-19.655552113119157
-17.387551620562945
-21.834819586118456
-29.686638762710107
-26.636157988803433
-27.76233349743566
-31.545767708753235
-27.42137557967194
-24.332415073789196
-19.964699494908913
-11.931513026872524
-5.638728997132628
0.24762991977343904
-2.4200354125843484
-12.43841642910392
-10.172678234145636
-8.894779992965887
-21.72728332064141
-24.91432500173976
-22.944170373107276
-24.70823086264567
-19.53180576086958
-22.12609033493269
-32.058546730188894
-38.99313787485078
-45.678177719715926
-41.38917794639615
-35.57654675647996
-42.307200702565396
-49.66774348684103
-47.263069731560634
-39.714690160266194
-37.86256268497586
-36.01349523547745
-44.727902456218615
-57.36944438544073
-22.76620801872246
10.676672200630419
-22.199950059194965
-48.396512820415055
-27.83964266161418
-17.208275031395214
-21.555772719077854
-2.186221175730421
11.305322639105823
-9.65311935261523
-11.217452349146775
6.266980971381163
-0.8452698623029105
-11.010215334158937
-11.79341672916257
-9.690018469908864
-2.6643644125638293
4.115117462526418
7.877811625052116
6.637939801555489
9.004303031977203
5.1584832203202975
-18.254312210181006
-33.652742163591675
-22.188305531682296
7.97165639093496
31.507978530031956
34.48670263983889
41.64162096193009
53.62537390429368
42.04752246976894
21.694573606422356
27.07413622945488
39.37451395580065
37.0649553673354
44.251511008980216
57.52888253268848
59.408523910945895
62.343398810125
48.60151578825182
-9.329602521892145
-59.19640136349559
-51.42899951386948
-42.87505165813536
-58.651925028522555
-44.472055581282206
-12.922860368402272
-7.521833481542346
0.16729230063869163
44.32991913454274
76.46419585302101
52.514633096778816
24.460691996254273
20.084011672523157
0.4662233886447909
-29.957835829983043
-27.99801400804949
-2.4516170406084505
-12.484238074901162
-44.094596980447434
-28.708861447375842
-3.321592705454197
-17.552201032789014
-13.862872757943526
-0.3022534248470849
-21.74638393211135
-2.211086647050251
41.531241694210294
13.690757989747379
-14.207779492673717
-4.623407173813908
-24.288285826662822
-44.737427751013854
-48.716489274373
-84.80549278685383
-121.28511100441024
-102.47364610060643
-75.1565331709271
-75.66508293464544
-67.99930440879925
-80.90862873170695
-118.19990830965865
-98.86678499165093
-56.53960789413484
-53.802058361733835
-54.893928640480546
-51.0218847727084
-50.41553804583892
-49.46667655929124
-47.729280543807114
-23.882748688815518
-2.574827230513157
-17.23664418614302
-41.187721367613165
-47.94300006853972
-42.97877435048771
-61.00912997453843
-86.95638283543275
-77.66037540922625
-72.30332174423673
-83.74339862566785
-78.51977858998156
-64.65769241676357
-52.07260558013956
-52.51605824152387
-64.8387066063429
-71.20206453485756
-70.82064210801238
-67.96991120823469
-65.17352531733262
-39.47349243365289
-0.7315742944188655
0.23491131312379276
-12.990259419312867
-6.68655913876575
-3.7755789488224467
-4.759617990173451
2.175588860561659
-0.35938258506754456
-9.896404029860248
-2.7365910759640903
6.309478468600025
0.9283278424345576
-6.477492068768471
-1.8884130559848018
6.482770937721563
-13.527349366015322
-32.745605643662486
-20.597440603906964
-20.11720813178005
-27.820324551517977
-27.822906241251395
-36.65306970143897
-49.76117553007114
-66.24741896561478
-74.96787134857286
-59.621938477629385
-28.77830517960736
-13.590301025300718
-9.1407534278963
26.70614668754039
59.183646199842705
59.85116914228831
70.29193757799493
96.9560170297617
101.45037543907917
68.23659613032015
53.05578194461101
23.685398325503858
-60.40036832818195
-55.474434739691446
-4.906009737701705
-43.982472839279275
-40.39218895639692
11.337819222832147
-3.450358947226613
-8.499965812334585
15.226599507433406
8.316413680164137
7.605395592148348
18.59452542949435
-0.06060287526754467
-25.15619456415489
-23.21162512074973
-10.76073482762386
-3.6271845213095895
6.663657899525914
17.795116160438937
22.08810404712055
14.310342101165546
-13.34433004079904
-27.870467622163197
-4.071026429027963
20.7453852764339
26.543736740609837
26.95548229457881
41.88173757439932
49.49602913003011
15.574081500420458
19.41252057622927
62.42620480083805
30.746384575439034
0.8670276974497546
34.52411808980612
22.555366595635295
-13.290583537516452
-1.8207257222762978
11.8386594943113
-9.326317280085288
-34.07039933380535
-24.067327645054846
-24.490244216512462
-53.81332382341544
-48.60174130501075
-22.987157856234106
-14.660347754539963
-15.552965483402462
-10.902595664663158
-6.967674004889313
-25.88077722623941
-23.239815519095536
-10.85538007356637
-40.7528891099044
-45.44472016250664
-26.51902535770743
-35.77874278465164
-40.92395751640436
-40.817067144683215
-45.160646937973944
-41.20673071756826
-29.510879920529465
-23.9174715780749
-27.162392705578252
-18.205572912449547
-7.79709156751496
-7.279870800720214
-20.565958590895892
-42.74044162856331
-27.64071721138254
-13.408838479773227
-25.217536650661554
1.2912707076336134
24.551924871530574
45.01400608666005
99.34707418440985
123.08456381300259
146.97191329483726
152.6218880662405
104.36893017441102
75.40642507903897
39.01103409202135
29.087930263453792
31.087753035386843
4.42563137031008
17.175945879050964
-28.704999007243376
5.465957616503316
124.28035545264987
30.518624693737493
30.73206779872497
162.35838507032784
103.9181813199512
43.71767924776024
58.29071123615831
108.82547756403116
64.62994566767979
-77.93429111930853
37.96109709211703
159.02016544785874
53.10944186889393
42.11257157571777
101.8496876148966
106.17828082688698
57.18198298190736
36.4020712923953
95.30798987405964
68.91640895321193
55.006232840273874
110.58104533391078
57.96961779284718
34.004464221469696
72.3244116332792
48.64108175137518
58.291877496780515
59.63363707360571
-1.4501365890664444
-23.070644463786298
-45.00970547718158
-52.0776076099128
9.00676191755744
1.444835981124194
-48.58944858284683
-3.2521962003935774
62.084513335940365
82.43512731605745
58.70666798493881
48.770526786471734
156.95877996233276
168.75060362901627
-14.834101233622233
14.413831289149114
193.8519638203749
94.03689624962436
-40.591014713692815
6.083991920604587
-31.35917282623228
-45.14736734973363
85.47325388505105
71.31535791213166
-3.9891136456750806
48.31932307772526
28.061229332550347
-15.814569388567408
48.25307801009829
57.82958674066621
21.873920870750833
35.41015510929427
57.0128068094757
64.98871163344624
39.11747385856039
3.3009052853212553
9.737897615582204
44.507317033337195
68.1692702318653
57.37554742716446
42.86312539779746
41.65649918260822
25.984344493799856
18.98691425296343
35.26437860322531
23.946775996190972
-10.27211207329407
-9.472345400787226
9.140887340378484
13.14392358865787
12.896368673011375
2.7824299705407105
-2.202123170686175
8.927306133529854
11.127073541487894
6.803156232382339
5.889549351999367
5.35752186697079
-3.572311709991685
-10.160244330965583
6.123721389163896
17.12496510250092
15.639892731160128
13.302773195076664
-0.8328540174446147
-7.895446349312169
-11.405005871949607
-0.6083078775303296
36.0352761241526
26.178334776039502
-0.4987997941320292
14.122451693759679
-4.444860815116004
-33.51005561185331
-7.512335937160372
16.202612686446514
7.897066178048067
-5.060557451229099
-3.4487388346150234
1.3506677396610944
-13.236102395958234
-22.68453243838401
-22.024583937842024
-19.9675990524489
2.5549677986104617
5.565527854857634
-17.772242043043455
-6.492164660098776
6.140367424946634
-6.071750251170948
2.061116156684392
7.559716936286989
-6.470461670602951
-6.535529753281386
3.312869698380544
7.847213048273412
-1.9395886338032418
-11.746480646249092
1.3512643661075747
7.292686158871328
0.828556609036847
11.2545396467472
20.074732120411085
17.18911119738158
19.503994928518416
26.245152117970537
30.467411516457123
25.18094457
15.270476965880711
14.577369220545632
24.114753934229633
32.505832914861394
24.124635794619373
4.833911254921635
-6.775085866991349
-13.49544251201228
-27.618669159623924
-50.12064885361629
-65.9252542843984
-64.73595586297289
-56.396551148605184
-51.928497376889744
-50.444932344484585
-42.925654172233564
-35.453729253666005
-35.060833555911806
-31.180198993986306
-34.145999530860315
-45.898366359640946
-43.455566509971256
-43.715280218033506
-64.51984172348132
-71.22454036437942
-52.4614218260174
-53.974002311179156
-77.78017636893206
-70.64117571077135
-41.975452472937384
-34.670832780713994
-34.93342511038742
-24.46194378956611
-16.021098471581336
-15.275565686928285
-13.9462749065159
-20.36373012448493
-46.47110028047819
-56.846197754925534
-29.98840988219771
-17.683589632855345
-32.57418167984568
-28.904057562426107
-22.074645520464827
-39.471693655122834
-40.69980668114237
-10.232147455810626
8.521554230131215
-0.1468758006078938
-7.376332059616072
0.2004803228690461
-0.17067563780883988
-15.042239313531235
-25.71564925676543
-47.665309979912024
-83.54261547281907
-89.48750441646818
-76.56754217678723
-68.15181986970828
-45.61168119435125
-29.667966854865067
-22.488974720868647
-4.3610668895602736
2.3397114078829855
8.103716932631471
13.531067200555889
-6.149550107906732
-22.952290430043085
-29.029186346402142
-43.67506654009563
-63.01763334705761
-75.86661231283347
-65.26267742412803
-45.352575513325945
-38.41927511260678
-31.403162024701455
-25.681271246869457
-27.62402426387068
-25.59441142109603
-26.522571603698296
-34.315358256058495
-24.53165240491971
0.4889307520946733
0.8125293210325869
-15.290054462682992
-6.333828500643041
3.452350956292997
-2.7958768543311483
13.672967104564284
20.666818431455898
-10.961283332999528
-8.44900725039712
26.51144937060879
22.44459571083081
-3.0268562294443675
-12.412433481202218
-23.374792586337946
-45.6807084552033
-37.06883337116533
0.21867983308802572
8.75045978576278
23.196975055381753
47.39263717041812
28.29093515795128
34.233574791058956
44.338792491350354
-9.842456988877911
-10.400627947940729
40.87580917005093
28.235336742197337
9.805251811670042
31.85438530654323
42.10648960059352
38.00189588798255
32.079922164737106
13.866016407174278
-3.5173694682434693
-8.415884261528046
-0.36115235383877986
12.572165228026664
-10.541097102670264
-36.797933627447065
-10.322037040493889
-0.8086065310186448
-14.48138177315391
10.642616645497622
34.22752093877871
38.75972954924378
39.671770723874005
28.237728923429607
16.95951342407826
13.33474770771397
26.841826247462222
44.47514778341852
49.48227604604175
46.625511675016014
23.302198939648246
25.80769878094192
47.4122671691282
6.810617534638285
-35.4894891827144
-42.449452414202966
-34.95406759731814
11.077422381568873
14.030791514827676
-20.104260017679977
7.398567266866992
21.173292642556014
-1.9718909011681343
10.01643494224985
29.321134722574556
31.983189116324812
32.354576103653095
27.04387151788958
24.026030329427503
32.42015250753768
26.853498599088102
11.23268705944166
14.840731601499911
-2.039900921731241
-14.425299123734405
19.82808433250546
0.12038312202970693
-32.377698910180655
22.93317086620623
33.10565978100796
-26.63189815527545
-23.273315136726335
10.3854819708633
12.039886449967865
25.23935062637919
51.18237408833909
50.109058900038896
47.46849883258
59.830743216024565
54.159961822483794
33.24053173233526
8.002812809499812
-0.9893862964740593
15.266189897090046
7.8068387098392495
-1.452815600153017
17.25035258421639
22.056931345963722
20.150838461415425
-0.6945785837762238
-40.76551041320434
-27.60078949868348
7.508585917942438
4.676146347976515
1.6847483240345211
17.4520714717967
34.10054233196128
34.25930411956114
3.628782213474381
