AAD_Filtered_TADAS_FILE
AAD_BASELINE_CORRECTION: BASELINE REMOVED
AAD_FILTER_TYPE: BUTTERWORTH
AAD_FILTER_ORDER: 1
AAD_LOW_CUT_FREQUENCY_HZ: 0.025
AAD_HIGH_CUT_FREQUENCY_HZ: 40.0
EVENT_NAME: 202302060117
EVENT_ID: 13194
EVENT_DATE_YYYYMMDD: 2023/02/06
EVENT_TIME_HHMMSS: 01:17:32.00000
EVENT_LATITUDE_DEGREE: 37.288
EVENT_LONGITUDE_DEGREE: 37.043
EVENT_DEPTH_KM: 8.6
HYPOCENTER_REFERENCE: AFAD
MAGNITUDE_W: 7.7
MAGNITUDE_W_REFERENCE: AFAD
MAGNITUDE_L: 
MAGNITUDE_L_REFERENCE: 
FOCAL_MECHANISM: 
NETWORK: TK
STATION_CODE: 0124
STATION_NAME: 
STATION_LATITUDE_DEGREE: 37.4087
STATION_LONGITUDE_DEGREE: 34.87911
STATION_ELEVATION_M: 791.0
LOCATION: Kahramanmaras_Pazarck_Turkiye
SENSOR_DEPTH_M: 
VS30_M/S: 583
SITE_CLASSIFICATION_EC8: B
MORPHOLOGIC_CLASSIFICATION: 
EPICENTRAL_DISTANCE_KM: 191.74
EARTHQUAKE_BACKAZIMUTH_DEGREE: 
DATE_TIME_FIRST_SAMPLE_YYYYMMDD_HHMMSS: 2023/02/06 01:17:45.0691670
DATE_TIME_FIRST_SAMPLE_PRECISION: millisecond
SAMPLING_INTERVAL_S: 0.01
NDATA: 13501
DURATION_S: 
STREAM: HNE
UNITS: cm/s^2
INSTRUMENT: sensor = CMG-5T/GURALP | digitizer = 
INSTRUMENT_ANALOG/DIGITAL: 
INSTRUMENTAL_FREQUENCY_HZ: 
INSTRUMENTAL_DAMPING: 
FULL_SCALE_G: 
N_BIT_DIGITAL_CONVERTER: 
PGA_CM/S^2: 8.765
TIME_PGA_S: 
BASELINE_CORRECTION: BASELINE REMOVED
FILTER_TYPE: BUTTERWORTH
FILTER_ORDER: 
LOW_CUT_FREQUENCY_HZ: 
HIGH_CUT_FREQUENCY_HZ: 
LATE/NORMAL_TRIGGERED: 
DATABASE_VERSION: 
HEADER_FORMAT: DYNA 1.2
DATA_TYPE: Acceleration
PROCESSING: Automatic Paolucci et al., 2011
DATA_TIMESTAMP_YYYYMMDD_HHMMSS: 
DATA_LICENSE: U (unknown license)
DATA_CITATION: Turkish Accelerometric Archive v 1.0 - Disaster And Emergency Management Presidency, Earthquake Department
DATA_CREATOR: AFAD
ORIGINAL_DATA_MEDIATOR_CITATION: : AFAD - Disaster And Emergency Management Presidency
ORIGINAL_DATA_MEDIATOR: AFAD PROCESS SERVICE
ORIGINAL_DATA_CREATOR_CITATION: AFAD PROCESS SERVICE
ORIGINAL_DATA_CREATOR: network: TK
USER1: GuestUser
USER2: 
USER3: 
USER4: 
[...]
-0.9296374230274562
-0.9391103204735956
-1.1928436531121167
-1.2766391456722277
-1.066950945971295
-0.7221710987218897
-0.39692816819914156
-0.1141196345360839
0.1780290575726768
0.5843616770321297
1.2271445724550263
2.07025023118122
2.8444253212830826
3.248744236171258
3.1569068801080644
2.6558359809928804
1.932064833819742
1.1654553983155742
0.5328191435472311
0.1209336011453322
-0.014895351787045177
0.15902744575244246
0.5283450906807373
0.9059423017120117
1.1777814901345023
1.2836349511655591
1.1994542137264361
0.9536540154065298
0.5654872965660119
-0.03095781687915741
-0.9932569774246183
-2.3278742512475694
-3.7305316925018404
-4.7162528761591895
-4.884773268403137
-4.1555845566328715
-2.8885244559921435
-1.7175134990534895
-1.082832779494149
-0.9141097797134573
-0.8311508674632392
-0.607129105712045
-0.4326983703872201
-0.8191010016906658
-2.0860328815089755
-3.8256432815497874
-5.11042617033356
-5.334638298825175
-4.56402995553302
-3.1810102524861823
-1.6647384547792667
-0.45953960715504166
0.2373788436900629
0.39261020436812427
-0.026708706599138907
-0.9282296509031969
-1.979686894478405
-2.8045476857061957
-3.192448766236721
-3.1549164747917646
-2.897427583476724
-2.6498999067528697
-2.333105408468124
-1.6633269363068575
-0.729684799858121
0.08306332250855436
0.5751962819543875
0.7553277076801137
0.7028850824068046
0.5548072411586334
0.5230479052951628
0.6698453616090952
0.7680668947440088
0.63831597668497
0.41123536424856527
0.39384465101018773
0.7023214020781601
1.2245192865852548
1.7265719805866742
1.8445546457533273
1.3815016692066402
0.450292599745498
-0.6136295406137088
-1.4196553080458
-1.8039892343770074
-1.8548610621543564
-1.798683525793699
-1.721182428877847
-1.4950521170987114
-1.0761709301012738
-0.5658725791733656
-0.1715317275383726
-0.04564269710173751
-0.13778714328800626
-0.37498017774089615
-0.7143955571507914
-1.0118976940351652
-1.1361070976378709
-1.108894646096067
-1.0069612946541622
-0.775050191458675
-0.3797889338098638
0.06960414783398071
0.4533815583097927
0.6074562783556796
0.36730898374017873
-0.14220051642605283
-0.5887223950524827
-0.7619448565873544
-0.541551176276476
0.06610404951438247
0.8446751193664451
1.3824633517516556
1.3960869363201436
0.9547729798744717
0.36221920241876027
-0.12494692690939378
-0.45075072899792046
-0.6352480852168714
-0.7981505192774326
-0.9809035203410872
-1.0124455197629207
-0.701536991876959
-0.03679682302481643
0.5454646128987695
0.5664542362116135
0.11988962796942151
-0.41595406063927387
-0.6885476847451677
-0.48952352793087434
0.07843385402915033
0.5890873109085615
0.6771629519415261
0.31584794439442204
-0.373257831481338
-1.2466691845545066
-2.1064263274437525
-2.7147135463075083
-2.99222132033876
-3.0939079202587934
-3.113076188117893
-2.840272184056659
-2.026599298026011
-0.7964421360859149
0.354825171233731
0.931465814185598
0.753786913095701
0.05193715724061169
-0.6676826716949433
-1.0216135399849986
-1.083553289825876
-1.2813399310860196
-1.885072930503742
-2.811505295902785
-3.746334232237065
-4.330142804986705
-4.475124510929446
-4.322302735628561
-4.012617929160104
-3.698056819672614
-3.463771831896918
-3.2718240063507205
-3.133539324397861
-3.058995759996408
-2.931158039667433
-2.5634737683781568
-1.9361505790030296
-1.2426636650463363
-0.7027054730396425
-0.42169428624824473
-0.28547766530301305
-0.07571826438927685
0.3365549599313674
0.9320152607975027
1.588398522406074
2.196278869001346
2.748249860120556
3.4194361445123955
4.374328757868662
5.4059705840801495
6.1446206334267375
6.364587071744631
6.037487537627594
5.375267508155203
4.710803633954346
4.286457921436366
4.075594244330506
3.808960359854868
3.2358090450998276
2.280992497142914
1.0493456153691074
-0.2908143818233633
-1.6584598165749553
-2.968856525882934
-4.112053064644782
-4.9439788881485285
-5.223026928306051
-4.783908863993331
-3.7089109081097535
-2.451242583870272
-1.6307448346347746
-1.572340727939424
-2.1369856182141773
-2.799019137768491
-3.123964939721524
-3.159796996719211
-3.1822176296170985
-3.2801274577856017
-3.3859251416273417
-3.3935174419350003
-3.205532782776439
-2.6993366788020037
-1.8591442253896318
-0.8407057240146
0.18833558635923195
1.0149500024783675
1.48486419701471
1.6179122468205271
1.531836333250512
1.3329516327727147
1.1141602723930766
0.9043913423128012
0.5884901886609702
0.056124810969595346
-0.5780059683031845
-1.1709136336220034
-1.7102614327475616
-2.257751444310514
-2.8726896302527147
-3.4932888030077045
-3.9112403252758177
-3.9071652198420073
-3.3432655087786887
-2.233560179356254
-0.9030961433548435
0.10925678533653374
0.5241161302928512
0.48335561571286084
0.23105555196348274
-0.044730707249834
-0.15474139841869963
0.08644340716723022
0.6862020425780274
1.347923533374242
1.6644258808287782
1.4761539728381132
0.9325450493516242
0.2962702180744647
-0.17035695342441778
-0.28876344706649437
-0.038363982142364694
0.3658789266058786
0.613183232882162
0.5981852588335317
0.4498246681401118
0.3564455970311307
0.32672544446222984
0.24249040101531416
0.001531443836900721
-0.3824448531754698
-0.7198537001158695
-0.7254282941389805
-0.2358929287477441
0.5430700502671233
1.0991902657261068
1.0446968723471253
0.4463422019945314
-0.3326288412850786
-0.9593617574837405
-1.4179156998817377
-1.852619141524941
-2.2653328568449065
-2.5309090647039207
-2.5393350756601167
-2.3559583676500884
-2.157638770585519
-2.0481424626507856
-2.0772243761391094
-2.268077635619226
-2.5483630660838785
-2.8234598939430846
-3.0496384684462496
-3.092835724319263
-2.7937455981970847
-2.20110409717058
-1.5268372724740724
-0.980133480623908
-0.6981932869286713
-0.6631411160456911
-0.6581113408978096
-0.5061669675090935
-0.2828265927544336
-0.1155282369841088
-0.009673728902796414
0.04364563729643933
0.059229157162227423
0.09442891743958473
0.2190659528696664
0.4703081823543513
0.8280287928965098
1.251536623073077
1.790291857230574
2.488054280967149
3.2046499048069754
3.688763910936242
3.7994167380466606
3.6369537040947653
3.409682770322139
3.189992551293252
2.9544727642991795
2.662541687589306
2.2766608532055703
1.9311413823848658
1.854685735089504
2.1490127244093054
2.674283150010608
3.245843478918782
3.7962109305635976
4.237582101672957
4.488066536261263
4.474760698910078
4.043314414990104
3.145255890982587
2.068500288718507
1.2420503197129988
0.9430103928299954
1.2191804616872188
1.8003138764513589
2.225216436686701
2.3009595149445934
2.1813202702452434
2.00999631101956
1.7637839279993317
1.3292491251556766
0.6222195747753086
-0.2610968546212512
-1.0316144127702258
-1.4164143047544209
-1.234036283991807
-0.4693526937118879
0.5594324965786758
1.4322687560307883
1.943864674297705
2.0129780492920997
1.6167212918878746
0.9582674670578896
0.28569786522582863
-0.35056465534801284
-0.932977908170402
-1.4331062541031718
-1.8487149578263653
-2.07979202817823
-1.9002026572417439
-1.2061023758345448
-0.26208016655916994
0.4339086172563409
0.5463403895596386
0.13176242898181256
-0.4856262547542891
-0.9266855307183496
-0.9327419870102569
-0.5484449932994169
-0.010935373877333355
0.5093981811024321
0.9928066910059071
1.4984745913776825
2.011060223444505
2.407153824384436
2.586662771230432
2.519783826756665
2.2701538066104754
1.9921100182867415
1.787715713755906
1.6194711777412034
1.3515622258292392
0.9799419871743962
0.7371448455814091
0.7720948631298896
0.9815597565615072
1.214234838133026
1.3792530057679888
1.4651382745402417
1.492955027301787
1.5058094087767766
1.5262414799909074
1.4185172058971944
1.0386288228486338
0.475724788391049
-0.01360024686159849
-0.19164040721513703
0.13281864692648612
0.8849467078005622
1.5999074741528696
1.9250668751792743
1.8632013346450418
1.5440874514665694
1.1501544099390173
0.914597980682559
0.9313298325545012
0.9916453362412604
0.91257195200555
0.8682425078429162
1.1335300265272301
1.7583477846178146
2.6472779006211136
3.6249287990629155
4.37396870607043
4.592848861461158
4.300117999732442
3.775400648954267
3.2544394701959036
2.8327623293570072
2.5335147019202
2.4503799704009084
2.578473832131893
2.759659637395102
2.8956002290302467
3.0091071285848825
3.1765595772986286
3.507538950954742
4.235857915160393
5.431870957314499
6.742850174652863
7.725933010426701
8.058259099464951
7.5337187471674785
6.185809154151338
4.366888361575291
2.6048454760007322
1.3583413941534066
0.8697944688869427
1.09581005725277
1.6219876952254317
1.9109756844191026
1.7766034041129308
1.5269613760974923
1.4853116096021877
1.5087522145210186
1.3157778987126727
0.7372238191334719
-0.2665380937183423
-1.4492084130420089
-2.410137007875341
-2.971577416727862
-3.2123711190033313
-3.186433018871378
-2.864664286581899
-2.275520741285847
-1.4951743889730478
-0.5820627463606056
0.28520124239916694
0.8828722064494422
1.0925971038705093
0.868351309394285
0.2299404380535608
-0.729916108520557
-1.7436163189909766
-2.426730191280588
-2.469033267333878
-1.871305958993961
-0.9979443693305844
-0.32790885981934254
-0.1942264904858122
-0.6328960752028432
-1.386621334302914
-2.106762991475725
-2.550035764437682
-2.5964708945890536
-2.2466999831306604
-1.6679391792962417
-1.1195356946128894
-0.7529787779262406
-0.5386963852469122
-0.41824804714144487
-0.403776267278997
-0.45599751772340924
-0.48389714313491794
-0.478284821913402
-0.4702918687909725
-0.36865965374815696
-0.0015899207963046772
0.6921657878844185
1.4691990610454484
1.990553898933179
2.2133249322457336
2.1949772759098174
1.8830267060215726
1.2632100832663906
0.343048075669883
-0.8847377936321607
-2.3037262843034774
-3.560336596339948
-4.188964651890931
-4.0055962340432245
-3.2554403106512946
-2.4072597530345856
-1.8754130346552376
-1.7793163575326463
-1.9172209802110836
-2.053344941952429
-2.145162271668292
-2.182241996603287
-2.0577960907931336
-1.6902265461574255
-1.0707003741903398
-0.21795740940828753
0.7561947165403786
1.5910963552435786
2.197733579106448
2.7929076292994672
3.510970334782594
4.192836146671138
4.474535243808916
4.1399578624869955
3.3360990695596913
2.3405626744044885
1.3877085575779258
0.6798825232956927
0.24572421532616937
-0.07274495732122468
-0.40046916889601697
-0.7301139784541376
-0.9971456491855256
-1.1336462151544813
-1.0400290873617914
-0.7480471278723667
-0.501637625784689
-0.4320910830544024
-0.3724951911018145
-0.14462161715454327
0.2178783866047244
0.5758446023750154
0.9112045385629312
1.3000719528960512
1.8308757998252732
2.623752262519185
3.60680466720088
4.402657493349369
4.657129193159612
4.317685434530061
3.542258364371272
2.5252963218843596
1.4225493996061336
0.454893765851339
-0.12842702009077378
-0.24890846942898276
-0.04984199893125402
0.2051425160803892
0.3702319301142072
0.4332519191135402
0.42562515977276366
0.46875147872164286
0.7360939648794715
1.2388682619781854
1.7648786876365485
2.088552119625523
2.1170644395838134
1.919606656646431
1.5693538770826077
1.0053926205682795
0.19650005885015728
-0.7096694057231123
-1.5073013450442365
-2.0287442312024693
-2.18567515632541
-1.981067283346984
-1.4871520244757708
-0.8895516713952919
-0.32874196648520687
0.3093775216093017
1.1510133804145073
2.0660200173080843
2.808500039396812
3.1635398350393173
3.0400424848234846
2.505368948541017
1.7007035584238586
0.796917708082131
-0.023545460039241323
-0.6710985964732537
-1.0885117445286268
-1.233240629357372
-1.1419130707293637
-0.9584328013903282
-0.9078636610130257
-1.0910895225498793
-1.444220265055213
-1.7114990274214883
-1.5442223573172378
-0.9113442073566916
-0.14698635003315144
0.39644626871307903
0.493529861858137
0.09289723253384832
-0.6346895141016173
-1.412480600614464
-2.0583113347886743
-2.5591564468629544
-2.9039345232540015
-2.9931399619463996
-2.796070241235451
-2.3736737004540496
-1.8016962059968902
-1.0845481817126654
-0.18076344536030606
0.819637235526417
1.6468245353825461
2.045302455457612
1.906068356183521
1.2555175283368456
0.2797360582761872
-0.8187312075196669
-1.9704430067796534
-3.155285117216812
-4.278820991521626
-5.159685978712027
-5.520005195608837
-5.167505308418688
-4.181523198304153
-2.8099022119655483
-1.3396187454618094
0.023787457648645143
1.1164555104648866
1.770375703676425
1.931807058101597
1.7023641391470001
1.228440270363465
0.5317313408006048
-0.4732374955039317
-1.685116099773951
-2.7391526028183644
-3.293882218465033
-3.1592395974459477
-2.384690841043852
-1.283034177607119
-0.17563816771517388
0.7529069470652788
1.5367340184429437
2.4043297560605406
3.405669213123791
4.23619994714328
4.5384505314613195
4.330713862833661
3.91240902298198
3.4987474711289535
3.270201702650596
3.394866898585679
3.8954060467048963
4.631908569333917
5.460702100372664
6.361381107232437
7.265249669909367
7.986030358043863
8.424057759945097
8.585333675681326
8.518829861603713
8.194166231771643
7.451088574289877
6.3443168631497855
5.1354245619595815
4.010021250003121
3.0998153538809587
2.4851752091891455
2.0713103668626625
1.6687787478823728
1.1783702888724559
0.6014590674254063
0.0041917006313144795
-0.5368817736236103
-0.9791440814305391
-1.3840685178935033
-1.9511743613265355
-2.7745989057743654
-3.6938716320808505
-4.506227819675464
-5.055186470860792
-5.241624688324136
-5.194093172698647
-5.230948068546221
-5.521669961210536
-5.884371163516576
-5.965265635723613
-5.5883669457127745
-4.86762518496479
-4.076097535083595
-3.5614655193103837
-3.5609072197177776
-3.9734157987959255
-4.407661775638422
-4.492925789145268
-4.09554395483746
-3.3584459073644264
-2.568168871620307
-1.930831241087309
-1.5016031823350753
-1.1707187958003507
-0.7535848202826771
-0.16402835271837346
0.4498261930616879
0.8855844039032389
1.1845827034160803
1.4994331343541825
1.920937793406396
2.391560348671027
2.7574182487914953
2.938977403362351
2.9493537525467515
2.868128635365987
2.741124733974173
2.53450305707381
2.2517783715938493
2.000557944642652
1.930127243195324
2.0516048368514017
2.2239830461606145
2.302503524087225
2.2267997060687246
2.132984190917532
2.1814168257528275
2.3547694315849745
2.440582975553387
2.2166888409963392
1.6651436793068364
0.9388453822892051
0.23534026925507534
-0.3554543420647124
-0.8753660175241103
-1.3271245332825898
-1.6268987915171342
-1.7554379856789395
-1.7308039811189362
-1.5578262131964655
-1.292248194147935
-1.053334110192653
-0.9721900379436765
-1.1310138442819395
-1.5399596071153865
-2.1280212799946203
-2.7200903990151364
-3.062291271405506
-2.9784299696779746
-2.523714311432234
-1.9710563664181553
-1.6203797835988831
-1.4915280347457813
-1.3172776261888506
-0.932596081275702
-0.4501357013312697
-0.1469624185172871
-0.18556334202177885
-0.4776380119832716
-0.8268486580491392
-1.0675049359631499
-1.1737524154087244
-1.246057915602863
-1.3414688182596015
-1.4026904359967638
-1.2830871248220816
-0.9023969716235823
-0.33699262913593864
0.2374921942955498
0.6097815085521332
0.7461890415357878
0.7854186301440336
0.8300104909481062
0.8474740120073262
0.8236220111776763
0.7444801562855824
0.49812061862106016
0.0661969713798252
-0.41888691561354097
-0.9239154787074949
-1.5404701988625666
-2.2966839465485513
-3.0309884027418916
-3.3959156392789094
-3.127786060684667
-2.255290674898188
-1.0112369042476925
0.18807944625819642
0.888304602716966
1.0479462693995305
0.9656624907550087
0.8062212531288488
0.47421361196661305
-0.18551484574394042
-1.170104870539218
-2.180827680575447
-2.738777486910464
-2.5519828566715637
-1.7001140225754687
-0.4984847785092286
0.7757974113383582
1.9441676862394335
2.8771727531614437
3.5831243044850947
4.103454033228369
4.312019291805733
4.033066177969652
3.3319070261166637
2.4819892729091153
1.7701264300370636
1.429842317280771
1.5344758308320832
1.9901446667701368
2.6264878789914654
3.2689388285454477
3.7676980935691162
4.102101792505073
4.313591160748181
4.2936889018705315
4.002544604597163
3.5911054269434364
3.256624336933838
3.103154072188001
3.195820880024281
3.582138877848095
4.162048839111583
4.723352293854609
5.001935549629543
4.777369721303507
4.031285239770886
2.94247822908997
1.7609731733044325
0.7157160210624631
-0.05181678518611379
-0.5367148095832794
-0.7648206587925664
-0.6011976645266643
0.05559959281320567
1.051927839740546
2.104154420373388
2.9232300197329395
3.321419604526336
3.255433273819831
2.775457915027631
1.9522848693018011
0.798624392425956
-0.6058221609745598
-1.8828763870043852
-2.6351238721727253
-2.756313578548694
-2.402857162107128
-1.8540616324771464
-1.327001446217681
-0.9780224969404843
-0.8195182851731924
-0.7445453434185231
-0.6753997507141722
-0.5881829588717197
-0.4180403187012992
-0.15210277151512824
0.19452885756338956
0.5920885638843303
0.9077373003206445
1.1092640744995514
1.2746365767575674
1.382339965916543
1.1963310987368907
0.5897594186031838
-0.18051375678007645
-0.8085606164546898
-1.1434755076837801
-1.2173431195859186
-1.2065154765417283
-1.2082415454491169
-1.2378247910334266
-1.2670538343388669
-1.262380751047984
-1.287454423480024
-1.5104470325166157
-2.0235364948114216
-2.720619111791138
-3.34214980034443
-3.643136012796539
-3.5434549501631847
-3.1155757944972984
-2.5175560301112716
-1.82167374098208
-1.0645220924470087
-0.30746532643904634
0.46797597293958165
1.2021491332983425
1.723256894803549
1.8384979307937397
1.499718485175431
0.8687698517292556
0.18728342853166227
-0.188761551752656
-0.0389673004598809
0.4416597923815533
0.8813258063801134
1.1091629947736348
1.2086316663989822
1.2724913278326602
1.3054858337744635
1.2053165148165017
0.7924731188278056
0.006963010330898596
-1.00528567368485
-2.0182994122078433
-2.8903855936100795
-3.5257164524187505
-3.8553459745999725
-3.9777663967952814
-4.026640474167313
-4.04546618618052
-4.0904030101870665
-4.182809235089569
-4.203885211432946
-3.996016981427646
-3.6301809015095627
-3.294638789460326
-3.0379666319567
-2.7489684334966724
-2.3366419003594068
-1.7878600218046352
-1.0920375339721322
-0.24912146396668325
0.7159868198799307
1.6273126219936354
2.2669600699040564
2.5820969568667476
2.7359513388637042
2.9834919423613395
3.4299238685816866
3.8761945797274597
4.00749819670997
3.6815560235821283
2.99401894549115
2.2675511037988656
1.8212919842980324
1.7599980430656106
1.9170312434868246
1.9911249615868758
1.7846685519028984
