AAD_Filtered_TADAS_FILE
AAD_BASELINE_CORRECTION: BASELINE REMOVED
AAD_FILTER_TYPE: BUTTERWORTH
AAD_FILTER_ORDER: 1
AAD_LOW_CUT_FREQUENCY_HZ: 0.025
AAD_HIGH_CUT_FREQUENCY_HZ: 40.0
EVENT_NAME: 202302061024
EVENT_ID: 13207
EVENT_DATE_YYYYMMDD: 2023/02/06
EVENT_TIME_HHMMSS: 10:24:47.00000
EVENT_LATITUDE_DEGREE: 38.089
EVENT_LONGITUDE_DEGREE: 37.239
EVENT_DEPTH_KM: 7.0
HYPOCENTER_REFERENCE: AFAD
MAGNITUDE_W: 7.6
MAGNITUDE_W_REFERENCE: AFAD
MAGNITUDE_L: 
MAGNITUDE_L_REFERENCE: 
FOCAL_MECHANISM: 
NETWORK: TK
STATION_CODE: 3123
STATION_NAME: 
STATION_LATITUDE_DEGREE: 36.21423
STATION_LONGITUDE_DEGREE: 36.15973
STATION_ELEVATION_M: 85.0
LOCATION: Kahramanmaras_Elbistan_Turkiye
SENSOR_DEPTH_M: 
VS30_M/S: 470
SITE_CLASSIFICATION_EC8: B
MORPHOLOGIC_CLASSIFICATION: 
EPICENTRAL_DISTANCE_KM: 229.36
EARTHQUAKE_BACKAZIMUTH_DEGREE: 
DATE_TIME_FIRST_SAMPLE_YYYYMMDD_HHMMSS: 2023/02/06 10:25:06.5389320
DATE_TIME_FIRST_SAMPLE_PRECISION: millisecond
SAMPLING_INTERVAL_S: 0.01
NDATA: 14501
DURATION_S: 
STREAM: HNE
UNITS: cm/s^2
INSTRUMENT: sensor = GMS+/GEOSIG | digitizer = 
INSTRUMENT_ANALOG/DIGITAL: 
INSTRUMENTAL_FREQUENCY_HZ: 
INSTRUMENTAL_DAMPING: 
FULL_SCALE_G: 
N_BIT_DIGITAL_CONVERTER: 
PGA_CM/S^2: 24.322
TIME_PGA_S: 
BASELINE_CORRECTION: BASELINE REMOVED
FILTER_TYPE: BUTTERWORTH
FILTER_ORDER: 
LOW_CUT_FREQUENCY_HZ: 
HIGH_CUT_FREQUENCY_HZ: 
LATE/NORMAL_TRIGGERED: 
DATABASE_VERSION: 
HEADER_FORMAT: DYNA 1.2
DATA_TYPE: Acceleration
PROCESSING: Automatic Paolucci et al., 2011
DATA_TIMESTAMP_YYYYMMDD_HHMMSS: 
DATA_LICENSE: U (unknown license)
DATA_CITATION: Turkish Accelerometric Archive v 1.0 - Disaster And Emergency Management Presidency, Earthquake Department
DATA_CREATOR: AFAD
ORIGINAL_DATA_MEDIATOR_CITATION: : AFAD - Disaster And Emergency Management Presidency
ORIGINAL_DATA_MEDIATOR: AFAD PROCESS SERVICE
ORIGINAL_DATA_CREATOR_CITATION: AFAD PROCESS SERVICE
ORIGINAL_DATA_CREATOR: network: TK
USER1: GuestUser
USER2: 
USER3: 
USER4: 
[...]
2.5418570887490053
3.463458387779809
4.431221683975421
5.127514743161059
5.4029716723355365
5.370795072320125
5.0915120911149065
4.6254501539553825
3.929833555591194
2.704254768771394
1.416037778624333
0.3741410552926608
-0.5374014868499767
-0.9717048297119293
-1.177429828033741
-1.4387555081956362
-1.4619278956218122
-1.3712306081373393
-1.2332416585317703
-1.0181349632887662
-0.7998457320251676
-0.5249114389915648
-0.23064804755342833
0.29643941449472244
1.0922213456818817
1.9665711611319459
2.6752588227847736
3.3107450558554214
4.496474765320701
5.855906689806436
6.627480071166573
6.925365109898727
7.1103582073284235
7.524940583704346
8.506773005608778
9.324384668074126
9.403388417423379
9.461242405897343
9.342205118671705
9.121389323943662
9.105487980682472
8.580617151378561
7.955104743042485
7.820168686578779
7.841268623503723
8.172879238699004
8.78430000509452
8.961014385313275
8.577574348271536
8.062560983444941
7.773796927920188
7.515457395537897
6.754773114987256
5.768373391379426
4.92260825139528
4.172502617699864
3.3700427511917423
2.255378798655401
1.1449843015851866
0.3009338427918993
-0.38246421258676133
-0.7436865494023855
-0.7555209206788657
-0.511792063355816
-0.2528289614052398
-0.07433033948086397
0.09293737620806908
0.01139265464236303
-0.4738239787423028
-1.4501363073551559
-2.68558770899508
-4.035166764441922
-5.451453963225268
-6.646477348795289
-7.9286575043914045
-9.198744290222068
-10.14142838663613
-10.831817627414562
-11.065378008967082
-11.443311705989682
-12.212471672280012
-12.724034413711804
-13.205303883745586
-13.728856675620806
-14.03431872995368
-14.039285168410837
-13.599255247493325
-13.054847811780006
-12.566573987416287
-11.891029227599068
-11.003330741644294
-9.960916014091557
-8.93577642785413
-8.269503565387614
-7.80654108640597
-7.150959268892026
-6.763781033732402
-6.746539558221884
-6.472439152251145
-6.045700971716399
-5.68584010304166
-5.287336067319881
-4.769335515058379
-4.104856599387549
-3.2805357770241774
-2.2473163028472714
-1.1636798044076317
-0.04986122676445296
1.0522381636681348
2.014064769430673
3.1043139460812723
4.143521795052884
4.622533898589438
4.829423605560703
4.886574469007063
4.389219815327655
3.5313852991218795
2.555201890311805
1.3531013916804902
-0.08531630030891582
-1.8310101242444095
-3.664162218428121
-5.184569121774778
-6.520076780927704
-7.894720058714238
-9.34416987035941
-10.765857933006188
-11.856976446422678
-12.496421124296402
-12.823067292267655
-13.006661182991344
-13.003540936113334
-12.84007582296073
-12.513425566342281
-11.882584796891923
-11.193774108485828
-10.453195353350484
-9.63195425932915
-8.923628748496263
-8.125271372970579
-7.354017335274332
-6.805538834240329
-6.374510189447351
-6.0291787727576525
-5.580345967977103
-5.150335364647728
-4.927299824252509
-4.8185938792712655
-4.737041009702888
-4.5744709312322716
-4.585350577755932
-4.755855985311012
-4.863395550856822
-5.0469822306194185
-5.221047199851767
-5.206545597097333
-4.871218519672129
-4.504491276538123
-4.446739284773918
-4.51630077683968
-4.80721447545856
-5.43003605372042
-6.283868612612789
-7.3665715001433885
-8.63460612784869
-10.129071701272435
-11.7907150896616
-13.189021700559353
-14.133065501173146
-15.008844072813703
-15.74346825214306
-15.931331252081828
-15.972205823071969
-16.248790642497063
-16.51849519830149
-16.642933135013266
-16.559979293000435
-16.189250714588468
-15.796849050957087
-15.656419241717405
-15.757130421816287
-16.10587851637166
-16.575717351255367
-17.05771029013802
-17.57783672265933
-17.94919768972895
-18.116123635074025
-18.149143534001727
-17.987824900112482
-17.633382091687814
-17.097412087383017
-16.48730504739487
-15.89655573590565
-15.247595882769447
-14.647214308024363
-14.216743412120348
-14.009484574289385
-13.986046256511587
-13.919343626690681
-13.808770418693301
-13.588316550839863
-13.2032493471838
-12.902807476559103
-12.587865327256875
-12.046900596092806
-11.447973364275683
-10.82272899998253
-10.060500522525203
-9.333296125346118
-8.723043668224584
-8.064364374301691
-7.369369901568539
-6.727995649471134
-6.022274059822523
-5.143648821895652
-4.118345295682153
-2.9290639422492615
-1.5520730951315387
0.0314635674773789
1.6947002083480525
3.3069979452938125
4.914143383046093
6.366290813071928
7.762346532533726
9.152464458388845
10.202164549951256
10.956362809024435
11.463650469862696
11.726550641878854
11.834879970795953
11.843255990133057
11.750788896407695
11.396524481542452
10.859994973294269
10.192296152617066
9.436528273105704
8.81237351508215
8.227789357420287
7.685991098193452
7.441720595579878
7.525786006443401
7.8365097176205225
8.185434024848101
8.577391796818256
9.232993224242838
9.939105883658588
10.405464460550176
10.822179024119885
11.230626133647174
11.358988183126083
11.212922008420259
10.798235065383324
10.0528508168924
9.097879037066944
7.973526729341288
6.6903138435676945
5.053994070367696
3.096196706071227
1.2205083511557664
-0.6846520526265071
-2.543074841641123
-4.123039992788475
-5.565577864878049
-6.708185524745122
-7.572296930154579
-8.29305592558227
-8.713710403028971
-8.695630502379702
-8.230805562529152
-7.568698297990899
-6.688915739607306
-5.547875664371199
-4.440904740779686
-3.2970913621053968
-2.102424401755484
-1.0890829218381108
-0.1873539397117032
0.6106811677507418
1.3080990745930818
2.032499984955373
2.8404092531621234
3.5367305064532095
4.035587981793162
4.670712171122057
5.138046801675559
5.315757618231911
5.591935409516123
5.675723921839503
5.529155758273631
5.28905815335533
4.8294467145784905
4.133007937182481
3.1462122871856804
1.992389911654512
0.8572727559186311
-0.3898828674048184
-1.700741937639117
-2.535245247792311
-2.870752809882035
-3.107520241647401
-3.28539194046442
-3.222206470668049
-2.9139879939297764
-2.6774224915483504
-2.4304504201308528
-2.027905467356475
-1.653506798461107
-1.403620429554079
-1.345918277544205
-1.3140584516449194
-1.3208593288073374
-1.4992163502814304
-1.5899072971943224
-1.5605756836257607
-1.4334469910946872
-1.121819315599021
-0.7938554203117683
-0.44480192252622436
-0.005218666345248896
0.42451191369867736
0.7976907906495273
1.346674636289462
2.1995668270210778
3.143158498195467
4.243533289421753
5.452018237431204
6.808392062857284
8.338708695212574
9.646841174048836
10.851488432205022
11.889790486668234
12.610321693117015
13.115724019140496
13.164645645164601
12.814287018175829
12.288478365768716
11.819437286804705
11.481738116548462
11.12017384875576
10.881913826667166
10.908332986119603
11.161002586654229
11.463973065964897
11.745347723241347
12.236499455523273
12.86786094432272
13.216578466984323
13.205240063713994
13.035515568040061
12.640100518421082
11.873497069615368
10.822919587482142
9.75191499320232
8.743800329329606
7.666122349450754
6.690445506399613
5.942065601630389
5.346537744120317
4.765212566307295
4.111228084909229
3.663071984704772
3.3333015917360203
3.0024972799863305
2.797617761175691
2.4643322496829683
1.9606418139730488
1.3371123376464507
0.5048295211314637
-0.4710981586764244
-1.7204278591117583
-3.268418561683758
-4.81584418818904
-6.374192635608231
-7.935637164431919
-9.238071172255047
-10.299992537084218
-11.071026923423878
-11.351373230445095
-11.173459856636038
-10.640225885170445
-9.896296084782865
-9.087678214378773
-8.171232749681476
-7.181889109025386
-6.322679151751933
-5.625045003261862
-4.940553919101157
-4.130893314184078
-3.1881277616947195
-2.304704607410477
-1.5305475540920372
-0.6280081618830622
0.3579744144176032
1.3215222517681429
2.3083022514907046
3.0830346312405896
3.5697402397035765
3.874945992951954
3.890634371673576
3.5529026066981233
3.0304764259655523
2.5313042067628646
1.8917803968095839
1.1938704457744025
0.8259104309350628
0.6348958369765021
0.6329706939939023
0.7576688858159344
0.7837821155347292
0.9330515854311199
1.0775303661269882
1.1682614531776434
1.3407757560550866
1.4567921189865456
1.5101552009059107
1.685775290396546
2.150314092745182
2.813825735264307
3.607742189307636
4.53370669491171
5.576463543486199
6.638276591176396
7.611663345443313
8.529939708850286
9.224836127200287
9.507753296139224
9.416012765710578
9.157435579664847
8.695310651547924
7.841881505701676
6.7057048890967845
5.439936685194361
4.183898336567032
2.829881291051791
1.2951493044999673
-0.3858285985480922
-2.259233141346538
-4.140063988627572
-5.861594714598974
-7.389273422683104
-8.791876899879163
-9.949690640241643
-10.738428697332779
-11.256261975073526
-11.465665861694664
-11.389980239904531
-11.007233908771246
-10.429647767994451
-9.896476929906797
-9.39821596808102
-9.116153993217136
-9.186045993322718
-9.43515428438661
-9.869978102525147
-10.356671446812141
-10.603243910228498
-10.705654952843803
-10.666586009692338
-10.28006129803242
-9.816431791652224
-9.558284465353298
-9.250920143599789
-8.830590968750125
-8.460474988845771
-8.130752121387255
-7.923126126721138
-7.832789062589742
-7.792547696531902
-7.852520928280753
-7.881962639019242
-7.827717668415357
-7.655884532295281
-7.242321450037812
-6.792784102329176
-6.3071571949607375
-5.649017839918438
-4.886191362889478
-3.9540658882756143
-3.0011086345177547
-2.0649222252818453
-1.0076084446743958
-0.022431362724229156
0.6158053990167593
0.8401771696947198
1.0023290434450665
1.144403692689492
1.0518253744790524
0.9455598930941008
0.9630871722366947
1.1966311500051945
1.5425476163348775
1.74565858400579
1.8864985986953167
2.1113786147297695
2.470113032630776
2.792256020383289
3.1218595380828282
3.637140740129888
4.180411113328016
4.609605358536645
4.714505565815296
4.628646974180951
4.627067784319525
4.395123605719481
3.783987388379542
3.0718593082133387
2.481159142994392
1.9408109821297672
1.2932572267255193
0.7115534702927597
0.5887534018276639
0.8539878759874099
1.1303267513129256
1.5590707556853844
2.353282927684096
3.355938903994389
4.297828768215952
5.156313493496351
6.199581906213015
7.391326755535081
8.446548682949851
9.323385746615157
10.146415435925892
10.93940811932288
11.534969888443747
11.948746793089045
12.386978021551966
12.842495964031093
13.268353579307949
13.55545610826485
13.779989167229434
14.03933511017573
14.212569100982181
14.415664823391321
14.58918166867054
14.769100123890425
15.050945562334066
15.316928715918454
15.631494081906377
15.974098482877421
16.362763908790434
16.739624119972586
17.089461147864352
17.452602738382257
17.664693647134726
17.78596513784025
17.801088792477767
17.670302724164436
17.51782317946603
17.226258947811242
16.771189533813455
16.381734019774097
16.061720342701566
15.68501067023338
15.387793246914924
15.239932538748922
14.998051228832082
14.508302953055102
13.961978385658718
13.404572998742232
12.504184795137283
11.206457446556907
9.606984102516074
7.734869847791631
5.715465587398746
3.4712678338137084
1.0343851487352407
-1.3581027334699172
-3.6920619210761845
-5.904281079487293
-7.699395828935129
-9.074986361637862
-10.247433217601674
-11.072304621244484
-11.571362586559433
-12.057800139681541
-12.506593099188043
-13.034794013831297
-13.727483788906143
-14.167554757602952
-14.444870234648443
-14.826044094781608
-15.05455152712926
-15.1416867821016
-15.07067608789874
-14.651943943424829
-14.09028905262966
-13.432378313083953
-12.429188623388315
-11.106094554930387
-9.58986630162334
-7.872728826504854
-5.962050846043891
-3.991893819675527
-2.2241782295590524
-0.6022298495631471
0.9753797571445026
2.368809316460484
3.5692771838609123
4.495887370553073
5.256653051691647
5.867770173776183
6.060961168817139
6.19936184560784
6.481094144721469
6.497449846543972
6.430253471112597
6.459587566127172
6.343755077984873
6.302411877176758
6.299504206255567
6.158908227107234
6.186240949405735
6.1837571556378235
6.128648412723056
6.204472755285222
6.073439864122216
5.944654955523669
5.957672548058325
5.926174124229166
5.824123115523267
5.45351419310077
5.043818723656112
4.882451031953905
4.619086343434986
3.961679978411182
3.3265436679265004
2.8230529119587495
2.1017635685422937
1.3181686165525295
0.4148950869708315
-0.7496485558085273
-1.9515776173743176
-3.132625790634845
-4.350098943890791
-5.425663353440427
-6.24108643299022
-6.897276656821237
-7.25943549243769
-7.437368349186481
-7.522427532628647
-7.309081761968168
-6.953305656065135
-6.4899567041122
-5.693284453993726
-4.409078036925074
-2.9059933351496126
-1.426081708757463
0.5662466721722855
3.1073790806439634
5.4407955371581975
7.506934793388447
9.759351021979445
11.995167994736999
14.001748209480363
15.876992715083146
17.36569534659434
18.63303834152576
19.821653672709335
20.653462419347505
21.464111932079792
22.40488436314027
23.180266375558627
23.835712657860316
24.257675513156304
24.424704977777935
24.55737618741924
24.532823830144583
24.385491036858888
24.04505500850333
23.356111035951386
22.641276881703064
21.93033080479907
20.97574227028775
19.893385455098624
18.869163928691513
17.886775647051532
16.981254541059602
16.3078080257465
15.860432928479812
15.41965227028935
14.95422670277973
14.484999207992562
13.821705888320055
12.91618067298549
11.903803644257048
10.90603833766368
9.943569760499484
8.90841536469223
7.76984136722191
6.852515805363375
6.273541648499196
5.7593892146238455
5.248760052598813
4.812983853850044
4.5110304169951645
4.2385311462791
3.9160381942679723
3.6851758180295016
3.4999610478932466
3.14795936634701
2.547344705341411
1.7318919446487273
0.6390870921383908
-0.7411399227189677
-2.1986276675339105
-3.6370791094371704
-5.097476971713608
-6.496031855834064
-7.7260028336751745
-8.732543851271327
-9.36636255944664
-9.715039988466323
-9.99883293211026
-10.040248617693361
-9.98694513735586
-9.923743595279307
-9.62746861882816
-9.534282527780809
-9.510853354399138
-9.132827338210104
-8.695807179866609
-8.233395201851033
-7.7044624450029335
-7.045438170725524
-6.316389995391771
-5.872928820719655
-5.619160386591241
-5.507196916199031
-5.54302797498593
-5.5269311202950515
-5.584500617398307
-5.628572002584008
-5.576144632340863
-5.464562515711626
-5.013403128565366
-4.362157263568021
-3.6897882054163738
-2.950596517733591
-2.14250877803336
-1.1866069714015643
-0.21467907133945444
0.706825125996396
1.420193167652833
1.9038421479796008
2.5233457724942356
3.192598281506711
3.895118299095391
4.802616806149889
5.708353630691746
6.6553576601142455
7.9529744820063835
9.488712375964587
10.635401023018499
11.329849453140351
12.148004257275467
12.884851771550188
13.238865050830492
13.558068779239129
13.893433425825885
14.043247535200305
14.010603086759533
13.894873196612965
13.695683418143089
13.343081946507402
12.845573465820811
12.369640368600523
12.090575215001358
12.044754143519286
12.226644471392394
12.471780747821631
12.808200481000393
13.406977698989076
14.243780798243886
15.392923820469482
16.582907224546666
17.595491668734482
18.48428072871889
19.00580026628473
19.34782780786982
19.647675038968313
19.66475858510419
19.526013271244864
19.26581240233118
18.803481536807944
18.331590516371165
18.00302966203534
17.812793005754187
17.80287323676944
17.90113244514351
18.031532308265856
18.201512123732844
18.305112256103346
18.373058445158684
18.206611095847222
17.350741377528944
16.05396124811438
14.670194371150489
12.9767549929487
11.019630449474347
8.927321202359995
6.823290619580299
4.887151381098048
2.9019634385954896
0.9160540151928647
-1.0749701362181028
-3.170748569925267
-5.15675732783023
-7.048105547334782
-8.765425125153325
-10.42982422317159
-12.28647830845123
-14.196730752819166
-16.06932075464497
-17.807715142030823
-19.30712153525347
-20.526368389411825
-21.53369036656598
-22.252959426158288
-22.58602535089795
-22.636815473145994
-22.3067122271217
-21.663814754563493
-20.794928532797407
-19.742265334648895
-18.445216556071244
-16.569175961411098
-14.52706762778853
-12.711993232999129
-10.729532164296513
-8.428956740094707
-6.160019663027129
-4.14703819941126
-2.152873682299074
-0.32354607521186957
0.855022644526961
1.5264634519742935
2.0983888823807146
2.5796680361593824
2.8153321178898176
2.9737244568390806
3.201015278418032
3.5312566330575286
4.019774246105786
4.493653910060496
5.046742280464545
5.770240630997718
6.402425061280304
6.847953254137109
7.002335264075043
6.790472556981868
6.183827544405719
5.223710700075088
4.1015611500885365
2.775075501410217
1.3687242735806466
-0.05970918732595396
-1.5871691611195822
-2.868633789901532
-3.910855140760086
-4.900827235586701
-5.770620385545994
-6.488641796501062
-7.055837441811151
-7.439558945866951
-7.567107267952593
-7.44647278377392
-6.923701557252778
-6.009266020956418
-4.856300077981406
-3.6843364336082485
-2.7518999084807763
-1.8025346398929707
-0.8898923011761247
-0.2951980558233758
0.18331066001665755
0.7660102223686014
1.4162154702732692
2.089526731984003
2.8850791255061545
3.687901655280228
4.510203625957854
5.4840605279436625
6.519807139964029
7.571393019624414
8.618504950659851
9.759066919062642
10.858220162212527
11.795957948403174
12.79396513990024
13.711737447713578
14.420279741944855
15.054459351651289
15.723580714072666
16.292229941739937
16.574008759007317
16.690251302818506
16.48520666412272
16.047658785935496
15.574008142701706
14.851800697807024
14.158954195585826
13.665996113344617
13.161314405311249
12.636947145022289
12.19260700227986
11.745654887808454
11.076353185516695
10.451566835022804
10.09031620884877
9.850423815064454
9.68399239837881
9.418485391777448
9.068796967575318
8.838377947217769
8.734968835786065
8.673608210224291
8.589247113506842
8.402944619346957
8.114135963014828
7.932217999157966
7.800414906172903
7.689875504987851
7.662832951285892
7.630228749126454
7.739056783341825
7.857016556406789
7.870713530960684
7.836884947887211
7.614519922709518
7.333967065654852
7.135788253574552
6.949679405568975
6.792358055758316
6.723244236789954
6.619822252640478
6.55936713953621
6.592807274051909
6.420104115439983
6.221364329699829
6.149782656973642
5.9827486756418935
5.6867430918337565
5.337113822825025
5.104536734294526
4.899393063410076
4.63885496522565
4.417097041528661
4.041732242117754
3.2996204241002913
2.1857902478736353
0.9430835290881046
-0.4243307622506313
-1.9560931108377284
-3.3973170126335575
-4.794171219448363
