AAD_Filtered_TADAS_FILE
AAD_BASELINE_CORRECTION: BASELINE REMOVED
AAD_FILTER_TYPE: BUTTERWORTH
AAD_FILTER_ORDER: 1
AAD_LOW_CUT_FREQUENCY_HZ: 0.025
AAD_HIGH_CUT_FREQUENCY_HZ: 40.0
EVENT_NAME: 202302061024
EVENT_ID: 13207
EVENT_DATE_YYYYMMDD: 2023/02/06
EVENT_TIME_HHMMSS: 10:24:47.00000
EVENT_LATITUDE_DEGREE: 38.089
EVENT_LONGITUDE_DEGREE: 37.239
EVENT_DEPTH_KM: 7.0
HYPOCENTER_REFERENCE: AFAD
MAGNITUDE_W: 7.6
MAGNITUDE_W_REFERENCE: AFAD
MAGNITUDE_L: 
MAGNITUDE_L_REFERENCE: 
FOCAL_MECHANISM: 
NETWORK: TK
STATION_CODE: 0129
STATION_NAME: 
STATION_LATITUDE_DEGREE: 38.259195
STATION_LONGITUDE_DEGREE: 36.210863
STATION_ELEVATION_M: 1456.0
LOCATION: Kahramanmaras_Elbistan_Turkiye
SENSOR_DEPTH_M: 
VS30_M/S: 965
SITE_CLASSIFICATION_EC8: A
MORPHOLOGIC_CLASSIFICATION: 
EPICENTRAL_DISTANCE_KM: 91.84
EARTHQUAKE_BACKAZIMUTH_DEGREE: 
DATE_TIME_FIRST_SAMPLE_YYYYMMDD_HHMMSS: 2023/02/06 10:24:40.3723390
DATE_TIME_FIRST_SAMPLE_PRECISION: millisecond
SAMPLING_INTERVAL_S: 0.01
NDATA: 11251
DURATION_S: 
STREAM: HNE
UNITS: cm/s^2
INSTRUMENT: sensor = ACEBOX/SARA | digitizer = 
INSTRUMENT_ANALOG/DIGITAL: 
INSTRUMENTAL_FREQUENCY_HZ: 
INSTRUMENTAL_DAMPING: 
FULL_SCALE_G: 
N_BIT_DIGITAL_CONVERTER: 
PGA_CM/S^2: 172.179
TIME_PGA_S: 
BASELINE_CORRECTION: BASELINE REMOVED
FILTER_TYPE: BUTTERWORTH
FILTER_ORDER: 
LOW_CUT_FREQUENCY_HZ: 
HIGH_CUT_FREQUENCY_HZ: 
LATE/NORMAL_TRIGGERED: 
DATABASE_VERSION: 
HEADER_FORMAT: DYNA 1.2
DATA_TYPE: Acceleration
PROCESSING: Automatic Paolucci et al., 2011
DATA_TIMESTAMP_YYYYMMDD_HHMMSS: 
DATA_LICENSE: U (unknown license)
DATA_CITATION: Turkish Accelerometric Archive v 1.0 - Disaster And Emergency Management Presidency, Earthquake Department
DATA_CREATOR: AFAD
ORIGINAL_DATA_MEDIATOR_CITATION: : AFAD - Disaster And Emergency Management Presidency
ORIGINAL_DATA_MEDIATOR: AFAD PROCESS SERVICE
ORIGINAL_DATA_CREATOR_CITATION: AFAD PROCESS SERVICE
ORIGINAL_DATA_CREATOR: network: TK
USER1: GuestUser
USER2: 
USER3: 
USER4: 
[...]
-32.05652355015281
-24.972234733675453
-11.167110582175688
23.642263637348353
67.35167735509825
77.12933825728595
50.81872197005475
19.23166685819916
1.8858545714207406
-3.551494116310247
-4.420761064794218
7.346828090615701
20.619768896607994
12.226073278908972
-6.171744510698429
-17.456366638277686
-12.803021445042042
7.052292466648388
13.28392351320365
3.046521721816153
6.241929377005306
17.843435608504816
17.40669569169955
7.233919463054303
-2.084112315236064
-1.1748997716697387
2.8092581755326447
1.8825525272475203
15.723777847803158
42.693425293281294
47.107112273994524
24.54399580085547
-0.38876942983381235
-14.869413168441499
-21.2978632426561
-24.66989984482974
-17.537118254423696
4.085457009429788
22.073985786885707
18.439494803722187
-6.211343989612979
-29.323014892566135
-27.087425145997784
-13.188160823775522
-10.70832778586945
-7.8981280092311295
6.9756334334532735
21.653800697709038
25.530036442626248
19.55063989437795
10.414564172173096
1.600823796480476
-7.187887712610406
-8.671481697632986
9.791553192416012
32.404155724162294
15.93847578555457
-24.207256263071663
-30.00172737237021
-9.228885309709526
9.743894287540067
24.34504534911614
21.20164445412986
7.925941791093844
-5.7372966775741485
-31.400306380292946
-45.19149907530824
-23.471561492678376
12.060844798390205
29.5731335462799
15.658835301398714
-7.577935201221066
-23.832652019859818
-34.07802903658031
-10.485580895354186
31.086778911096136
29.65839215754081
2.2756687604181827
-12.884216845835569
-24.159343059089114
-23.426393610471056
-9.169318338751886
-5.180114505243536
-0.815768485302442
23.675904483258606
41.47026640357464
30.971376758387457
20.698323180157114
21.50293215835149
12.127453165505074
-0.47713084464207917
2.5771495654938503
19.956492701214124
30.987134434396896
19.743843795433918
8.52267899186829
14.780565718253325
16.75302825205791
-0.13265956860459405
-18.983888002283162
-18.182694595075525
-0.6332907796138427
22.260370988569917
43.74340964217182
45.248249038357336
16.839330877934277
-27.466726871618853
-55.17673392732304
-35.3069242615364
11.75080728021816
37.58663162849403
28.621893058282485
-1.603551801885962
-30.356736155466102
-32.863512785562286
-9.690675197048643
18.524256252661313
48.201386927882815
71.23530568316835
56.59447308401241
9.932084572899344
-24.449722421980297
-23.181266054772095
1.9853470229397914
20.83764028861416
21.25412078562417
16.10981513749285
13.13386400349332
14.921546558505808
22.26568702258464
29.381614952320746
28.778613702457925
11.217759239966066
-26.323581556687962
-60.41079852010898
-59.341644788788706
-33.82767348690846
-12.963863103543645
1.1512721137657094
6.4973868867275
5.656542364398424
16.39984352146815
27.387185144380258
13.938558251023085
-9.70111895118865
-11.12683881125672
8.538541741456491
18.05439302693313
2.049076105898355
-10.08956299766451
18.356322173899816
56.36830670323834
51.83313171994464
24.90875660161129
9.490002698247192
-1.3899700762169276
-17.908152845782126
-34.49666571058764
-31.996836698566685
-7.905664411684581
11.960835681098274
11.99404488180459
3.44903625728857
0.640425806093458
-4.008100191006567
-11.49644304902743
-4.492867209405712
11.040711090080217
15.234345124096869
-2.123399470470455
-31.02456981988042
-39.020864343211606
-21.753121654920175
-3.111668810384058
16.612903196867446
41.353006911589986
49.0332287291874
30.057209157715405
12.240639286181313
10.552469521757535
9.060658993584301
4.723649095761666
4.370314243182295
6.389333174369987
12.677085582155994
21.759310718931836
24.569686305190668
19.46312819342162
9.395617683938173
-4.6759247546696905
-13.369493081073257
-5.334692085547726
11.532682433332434
18.042453366372946
7.814920029446451
-4.720876783658426
-2.9185324381200495
7.538200711312895
15.445749256428527
25.65107020837148
35.083051711231576
24.229323336315037
-10.034722928961836
-37.1363184067801
-24.561757451085214
9.955353228737263
26.75205801013476
34.98088941362304
47.35472352446029
37.292700736117816
2.6046029786986358
-28.661757335313155
-34.60541242068575
-15.035762561289927
-3.937045465948397
-7.486701708669928
5.9612473535380754
15.948670699052668
-10.114107700775389
-30.117482661785214
-3.809069744091738
26.741870819844276
22.1134003525749
9.074584734879826
-1.5407897158394805
-27.02245604917182
-47.72672110968113
-43.19775057223511
-20.659652909568283
10.937567223539528
23.77619280874144
-5.326496570400753
-35.87377092895839
-16.332227060844467
25.802211629625848
31.035666904263298
10.619210300327644
7.255790850084365
9.860548434406889
1.499818471880185
0.22202847332046363
13.511073039535896
34.268249435715234
47.15014051432142
25.57214137541063
-22.29874832580576
-49.492483269624806
-42.400906056018655
-27.21054330103398
-7.519658349217679
19.53366292297307
28.906018380110467
7.940084934361215
-19.521426131386885
-22.16901294090977
-8.120782501305138
0.0005862097349276158
8.551604513275903
-0.286124430211385
-32.06512679441546
-38.275051201382176
-23.928381325323926
-14.92442945129128
4.6117824233982425
12.473204360954965
-10.314380026384397
-28.315900427546886
-24.97513437867224
-4.808261578638995
26.53113348903372
43.20597183602136
33.435054852868745
22.037197438605354
25.24357656816795
17.855097873405672
-20.001858106493376
-45.98789002597535
-28.740873652671965
-14.397200156858442
-18.14119553525549
4.657603356777806
34.1991464653109
18.670494946339687
-16.753024861019785
-35.54239566838383
-45.0369474869656
-35.28057546245442
-1.865095243192524
15.447191227571226
9.320436260993025
12.77800322555974
20.454783484183075
8.528020674393167
-9.517603185782972
-9.024906974807669
3.5181331960731645
1.4338645717413954
-13.837291109544744
-12.906516570558372
-0.5915150753803269
-3.663347513139718
-12.166986033495112
-9.426770516502605
-4.211583217570418
-13.06778742016035
-39.68689672875052
-46.09016255540097
-7.510999394367051
22.958124288465882
17.88963509597848
27.120069747698146
58.35185189568234
60.14268261353156
22.78563864357337
-12.894073067061605
-18.615875491994846
-0.27124300710725585
12.94436395182781
6.341725704103224
6.431857089450793
15.780947357262624
6.583542829828567
0.888540721414867
19.802340545593427
34.80042793750618
34.208365257376705
27.70606844147934
21.21347090598011
15.811447948968889
2.350889961547617
-9.313288723574175
0.7854587390380373
11.227821299979725
-4.817714052371068
-29.108826527588338
-37.36857752628653
-19.52408879965671
18.85908121800801
36.98165981913954
23.96963703104972
21.998831972851118
36.137473058891544
40.653877328871665
38.426706106730265
44.752078439157394
57.11088166462101
62.09472628013136
58.28006217574996
38.91273876324878
1.7394598370837278
-23.30978112345111
-29.800729780679834
-31.162684293886258
-15.575052107532938
6.998732523083726
9.957975187618427
-3.5181159097827064
-22.470372953174298
-37.723140979984656
-33.98264479022512
-14.369260204809136
-6.469646906221993
-17.01680486153061
-17.761151730477238
-0.6202912463178267
5.1831578516793675
-12.638940316043493
-30.52424009214199
-33.10419286816237
-21.2530662950749
11.963447199800054
51.71343572917721
55.20651329502689
21.09837644519443
-4.047376238136864
-5.405704769849114
-10.560868826999082
-25.070581322210035
-33.062699473019094
-34.24745550180771
-28.69646587429378
-15.50207938409495
-2.185828844627851
22.68788126988045
58.64050381512844
57.719737942796
11.860552236607644
-24.155124670076116
-31.105846799727228
-18.487734513643908
7.332840310105956
23.41778637886014
36.83971229222344
53.648020300737784
34.397589204803324
-5.058028252748943
-26.445967965905293
-46.84286446999271
-48.987923673928854
-11.858435210788896
14.557541581549751
-2.950885504004685
-40.85862823398177
-68.10803925500046
-78.75284086602625
-82.4597357299896
-78.44609128640407
-67.49429799672811
-49.813333089194394
-15.543664803603061
23.456445334885295
37.58110591312047
29.35633109871152
26.355030633761395
33.85356872523344
50.37226073759794
75.75465099378489
91.25412418412932
87.37926982430974
59.63207275396631
20.567298260603867
16.797629484147166
40.591271568207176
46.977220650149484
39.25788560989864
21.571270024887287
-8.709822125379215
-32.79724905773894
-49.10450869601521
-62.88364548885366
-70.44875343245582
-83.64863970788842
-90.28622372072331
-54.026583198953325
-3.228641726213893
12.526112135812838
5.642091969143817
-6.07363109054519
-16.220252591771327
-7.773762951025731
19.59775472563312
54.74456413329911
76.48567503104339
67.512698666791
48.031485041209194
37.14359168159704
26.53598171707633
10.366300923704468
-7.62822022154277
-16.28853743206773
-7.966407177691471
7.161631775940124
30.386795692981813
69.85073055143043
94.7160671975184
77.93599499045575
40.70567363388157
7.972296704006294
-12.736247022788591
-23.49698305051852
-26.839433684995118
-18.118684024770015
-6.642955639641351
-0.8071033357074379
10.9062745608992
27.82825278661818
39.42410577211824
45.03413293633176
51.17587720989539
65.60342913545176
76.33616920305576
64.97165109084148
35.333225350544225
-1.5070494916160708
-32.57420994988499
-47.84812218721629
-51.30323147138844
-44.053966597239224
-28.51558611628718
-17.92062936304312
-16.955008406200477
-15.846621703908934
-6.586224445191981
6.886230663808525
16.51036474138157
10.289862410476275
-12.001126049122158
-19.781707436477287
-4.643982778466331
5.870126151115311
7.858444860560642
5.229408523224426
-13.787517583599433
-38.27044195270555
-44.77321022690626
-31.892181133241497
-2.9938455669042425
40.11421976239115
78.56717016953705
81.18634793826621
33.154458177586775
-35.85952765258272
-93.09138576127661
-130.43379748932378
-124.66267840522147
-80.10887382341524
-25.804945428601805
37.29180606237716
69.38672203988564
35.17665701149369
-22.98250128196614
-66.81871109502569
-79.04749050888898
-59.85874099456773
-28.985149746560275
21.410974243571896
81.5196336509928
102.83478173535703
75.7005129375653
36.14505573322873
4.963416453613452
-20.215736711747805
-28.004758095224982
-11.718869989047723
8.877828016160251
12.307942282689458
-8.926917992525782
-30.184894780685823
-26.54047646919403
-10.663324004030828
7.28439549341217
20.09512077742138
16.40862058613973
6.005344069824736
-2.5455432145970107
-9.282164393003052
-14.124537673197217
-13.923145088902505
6.617512986005205
46.8488889021907
81.05474705393411
85.74530074820203
60.47267781435519
29.272516101178706
3.761247569670517
-19.708717757500906
-29.86036358789799
-10.8331527915359
31.267833093016385
56.093492467042715
40.02648039561986
13.001161064859735
-4.144521672793191
-15.939502017387436
-28.911860454701042
-48.72033368677004
-55.426864496265964
-40.32338515153475
-24.797648010726334
-12.005864213373776
-4.377647379850812
-0.3379125843662387
15.425642797085715
26.32939104605787
17.072908525516276
6.478558001100974
17.532331422745262
55.22486577440608
81.56213497835483
66.62066647415772
35.131817507526044
8.145547374526977
-1.1228261020314148
14.003723140279748
27.999532564407673
29.937456066833114
21.91216084837755
5.133630567100814
-1.664145224824435
-2.0098821696422173
-10.382422190055202
-21.037443684269856
-29.005076595050888
-31.71401488357469
-29.830612091863685
-18.202594064135326
-3.7483298639385407
-10.643103714760661
-24.87477193475589
-29.673872616358278
-30.899433776362155
-17.66740485451448
0.6758584374510155
2.8439667519467884
-1.8403927730679253
-3.4151164886354106
-1.0554287910318323
8.228910396377925
21.29203815653317
28.504249432562254
25.922144731756138
12.676055716876142
-6.150453802723365
-11.941555344762039
-5.259355286434723
2.861008975338909
15.153109902747214
22.246985795135835
24.15982213709015
25.100832043817245
5.038670772214718
-24.58964539967077
-26.85532990622216
-0.8581353921766404
29.142221773311338
42.81677380506724
37.01933455436075
29.90391898201896
43.07733078782666
65.71119221031365
61.822858674612306
24.64140012169646
-21.58419625832464
-47.219246149699764
-40.71796863084124
-30.71417373014389
-29.28251955565221
-9.206588931242194
28.783403935994606
57.55011979424212
55.4682902516824
26.013233329151518
10.735380556560804
22.06157458299282
25.05639222288799
7.830391609559029
-14.713808631551379
-36.98038040124758
-71.21789641001313
-118.86927843311486
-140.65043402242048
-101.86126478034494
-31.318332514661723
20.697366790282896
57.663303312188766
91.7175648614229
90.72922664858142
41.991758849674156
-31.385917516134946
-93.18942778043997
-94.32172141823507
-39.52823889875397
8.264638312227978
21.264934413385348
16.487665525945914
15.352322594263509
30.047877724439623
45.46472376827057
41.68381333179102
33.59481928304863
32.31932399812617
20.67094442809239
-1.7699215919731095
-16.89095312062151
-24.255464822514078
-46.12157432902682
-96.24767078206439
-151.28529238734592
-173.8052079628512
-149.1185894312332
-90.08251826159324
-15.488255622331236
61.18010566960824
112.28948916764206
109.9333903705407
52.34532760862132
-37.32076350065058
-103.66898701256832
-110.67101429638025
-83.36428533716648
-36.11508544563852
25.388314557798402
59.399548372057566
57.24352892847409
52.18293912849739
56.44752780253714
60.56473390766092
40.085692277085386
-8.731147329472948
-46.21633359664983
-57.67477109945762
-56.17117119588045
-34.532123343520794
5.497444213681095
41.15846605539159
55.02551403628478
50.101833231603244
49.83295133228694
57.733707293482
48.66446403998586
18.685549089000407
-12.989794926648141
-37.237132231124725
-47.762218319911625
-35.59794347028293
-5.671026496681062
26.751330085973198
38.61105537876414
13.941086291251848
-18.686679630689916
-18.14400134852835
5.51701750443555
18.640238412598745
16.34641196678868
6.506158499133825
-4.112091111912273
-3.9686130638574277
4.829212211985664
11.891939136857697
11.431690746683973
5.182983052533877
9.504521753848906
26.951309336927014
42.71798475448191
42.540190155056976
16.201342735987904
-14.118189641386598
-17.341864093263624
5.157815279152096
28.90267034534148
23.610078960209187
-6.3963729678577
-28.872365297479178
-32.62516008583034
-27.93901086216493
-32.70901064600287
-48.33940538663203
-62.591181798788135
-72.6681511927315
-67.1236357264849
-36.589308002572444
8.469630907419699
51.17736720016634
67.05800454377685
41.90085765082016
-10.637396849289843
-57.31192385808835
-64.128787757716
-34.37006167645951
0.16399353799365657
17.554587093875046
11.07511697845168
-1.564065471240504
-4.253476515904998
-9.62536555791526
-17.439153000910586
-12.761510637847758
8.123732235964136
40.25396806333564
56.74857751389077
38.42219207105176
6.345273701593374
-21.050337873623196
-40.491601646026034
-44.504896800876196
-34.010110723291405
-17.125549910788912
-8.355442075411288
-27.93361153383437
-63.28303389821668
-73.99528319028916
-47.848664738982734
-5.945193780301973
25.412801447468755
33.56914755939231
29.463640530086263
23.815150130897706
9.643421720470183
-8.13505122431848
-15.23968181042979
-22.033441147695
-32.292248867760115
-23.61041810347393
4.723984068751047
27.948968602790714
25.687584543420748
2.860145099174974
-8.03659984064667
-5.341422019190029
-22.417413470069558
-53.67557371843041
-66.8732926461211
-56.71670533712414
-33.99095690356616
-7.001114666185317
16.427013228372452
28.109481956105046
20.661152358079264
-0.21724368106613848
-14.179265161740053
-17.05096639640002
-19.461357446531835
-15.735072631320435
-0.5042827319323212
20.34598466494795
48.50272237906788
75.76301537658614
77.82855011350611
48.424725568377454
12.098413706570398
-2.5578242123420254
0.11244996205198118
-7.52788961664324
-32.760513793626735
-56.95414084102869
-58.00273153177445
-27.92544841742705
17.386468262556715
43.60262701224022
28.232718349180416
-8.688909481241303
-32.98154302778195
-42.04958488883827
-48.74083049056426
-49.154188470147574
-34.12216631784776
-16.972685774682454
-14.023052037260435
-19.50872857426337
-35.31680732128743
-61.258839135671764
-70.61635014892268
-54.388151404795416
-21.596983961797743
20.617732802587682
39.80917375143769
16.537997957957526
-13.186703883058469
-13.639960252781025
10.68314699546051
36.42643074351889
47.005657536440395
46.73839533976431
43.235910098538874
29.272347430124046
6.089381420036083
-14.634970021122657
-29.142507170320467
-33.28297307127273
-29.655817187995392
-28.744493194242402
-33.75159698796807
-48.30632364104632
-61.747860154796555
-47.24148627520072
-8.1580778561425
21.970096911972917
26.49984813070711
17.162899199762933
3.0957421976953405
-19.14279105972502
-43.329581697872676
-53.98775813796549
-43.57292636362386
-17.15914705403599
15.053429975305335
42.4746518372489
53.54235000732334
42.27736846619212
8.696024639796441
-32.350027987039304
-54.15427728357689
-48.67418927028554
-21.762566095010456
6.542400911600799
4.187261586239414
-19.237222792854904
-26.257228075899217
-12.38941725914973
4.642826123120965
18.775706989084778
32.935757528410605
37.67282461263384
19.542562169394753
-14.328818182331132
-38.577776285394464
-33.64479073684687
-15.645387499446459
-12.14604868870131
-16.903317508749126
-16.564562637502846
-14.079712112004138
-15.870400605676608
-28.15919873809437
-40.41554122273918
-33.95944707433439
-11.571505808683343
12.3645223961215
23.321848226494396
14.551539030578924
-3.3849901122933734
-13.9114444240057
-0.3935431991339309
34.851492319776014
63.09396724733598
65.35329161764862
38.825463646359545
-5.009058302341132
-39.31962324770657
-55.83292548306063
-61.4365590197637
-54.58777488180237
-35.22736748333786
-14.024242473538207
-11.237077029995156
-30.779270072091354
-44.70998885559538
-32.32123293956848
-12.431637262989932
-15.198400007336694
-37.7816135499343
-60.16341732701451
-75.42208076423648
-77.30900859546816
-60.82710166007947
-33.30586775775981
-11.673442140871062
-10.550557271683699
-22.215532795750864
-23.412314699872393
3.131249504769845
46.63983972771758
65.17404751956053
40.139478747915476
-4.163390205572015
-46.87538454559893
-75.68860898437825
-73.48651943320954
-44.432574786739615
-17.196652495099286
-1.6821496404141945
19.526924209374044
45.558394864769745
51.800784440240704
34.6829495413106
11.04120188202894
-10.047752362753508
-20.954700809328017
-16.734649839359395
-5.337522852823701
0.768338755133364
-4.32171711148204
-7.993848734915638
3.446934801652254
