AAD_Filtered_TADAS_FILE
AAD_BASELINE_CORRECTION: BASELINE REMOVED
AAD_FILTER_TYPE: BUTTERWORTH
AAD_FILTER_ORDER: 1
AAD_LOW_CUT_FREQUENCY_HZ: 0.025
AAD_HIGH_CUT_FREQUENCY_HZ: 40.0
EVENT_NAME: 202302060117
EVENT_ID: 13194
EVENT_DATE_YYYYMMDD: 2023/02/06
EVENT_TIME_HHMMSS: 01:17:32.00000
EVENT_LATITUDE_DEGREE: 37.288
EVENT_LONGITUDE_DEGREE: 37.043
EVENT_DEPTH_KM: 8.6
HYPOCENTER_REFERENCE: AFAD
MAGNITUDE_W: 7.7
MAGNITUDE_W_REFERENCE: AFAD
MAGNITUDE_L: 
MAGNITUDE_L_REFERENCE: 
FOCAL_MECHANISM: 
NETWORK: TK
STATION_CODE: 0125
STATION_NAME: 
STATION_LATITUDE_DEGREE: 37.01519
STATION_LONGITUDE_DEGREE: 35.79577
STATION_ELEVATION_M: 25.0
LOCATION: Kahramanmaras_Pazarck_Turkiye
SENSOR_DEPTH_M: 
VS30_M/S: 208
SITE_CLASSIFICATION_EC8: C
MORPHOLOGIC_CLASSIFICATION: 
EPICENTRAL_DISTANCE_KM: 114.62
EARTHQUAKE_BACKAZIMUTH_DEGREE: 
DATE_TIME_FIRST_SAMPLE_YYYYMMDD_HHMMSS: 2023/02/06 01:17:31.8047210
DATE_TIME_FIRST_SAMPLE_PRECISION: millisecond
SAMPLING_INTERVAL_S: 0.01
NDATA: 12501
DURATION_S: 
STREAM: HNZ
UNITS: cm/s^2
INSTRUMENT: sensor = CMG-5T/GURALP | digitizer = 
INSTRUMENT_ANALOG/DIGITAL: 
INSTRUMENTAL_FREQUENCY_HZ: 
INSTRUMENTAL_DAMPING: 
FULL_SCALE_G: 
N_BIT_DIGITAL_CONVERTER: 
PGA_CM/S^2: 35.149
TIME_PGA_S: 
BASELINE_CORRECTION: BASELINE REMOVED
FILTER_TYPE: BUTTERWORTH
FILTER_ORDER: 
LOW_CUT_FREQUENCY_HZ: 
HIGH_CUT_FREQUENCY_HZ: 
LATE/NORMAL_TRIGGERED: 
DATABASE_VERSION: 
HEADER_FORMAT: DYNA 1.2
DATA_TYPE: Acceleration
PROCESSING: Automatic Paolucci et al., 2011
DATA_TIMESTAMP_YYYYMMDD_HHMMSS: 
DATA_LICENSE: U (unknown license)
DATA_CITATION: Turkish Accelerometric Archive v 1.0 - Disaster And Emergency Management Presidency, Earthquake Department
DATA_CREATOR: AFAD
ORIGINAL_DATA_MEDIATOR_CITATION: : AFAD - Disaster And Emergency Management Presidency
ORIGINAL_DATA_MEDIATOR: AFAD PROCESS SERVICE
ORIGINAL_DATA_CREATOR_CITATION: AFAD PROCESS SERVICE
ORIGINAL_DATA_CREATOR: network: TK
USER1: GuestUser
USER2: 
USER3: 
USER4: 
[...]
7.573248908036442
3.510910427376949
-0.3086669613489154
-2.4941181917611353
-3.194755774994978
-2.9622112621236774
-2.417131996134159
-2.650781521191418
-3.8429300283301364
-5.747369901071742
-7.870320750852112
-8.909249445565504
-8.504138150213581
-7.665999763989819
-7.020663456549043
-6.580229764690458
-6.294931155667528
-5.740589298744103
-4.631186013605985
-3.391777150921049
-2.2590052339259676
-1.1329973976326917
-0.46979344565830605
-0.6744024677661297
-1.614942990661996
-3.004718740360925
-4.266353440529197
-4.60904096948638
-3.6971760615950187
-1.8547488595485149
0.30809098545484503
2.274672129057459
3.8798087805912114
4.981875007593168
5.351941878442667
4.8534851845903635
3.473179624624141
1.578656454100778
-0.060961829736461415
-1.0777110694006147
-1.7247644770353687
-2.3636054025279076
-2.9733040167031235
-3.49108537243027
-4.156542370372036
-5.249136377460182
-6.813433051473363
-8.252929159501065
-9.17782917030007
-10.29861894794359
-12.478241365679546
-15.556288068077372
-17.98896800872732
-18.77050825945015
-18.530260066504894
-17.99653193594384
-17.529465897425702
-17.104541087020536
-16.105264501468145
-14.529183017016624
-13.26871628597857
-13.325068233678683
-14.965179355433085
-17.36044882870258
-19.751524174545875
-21.448039148186606
-22.309747844309218
-22.946770122798902
-23.54812189014189
-23.96572319465053
-24.001843108398113
-23.07871989133821
-20.902610617113826
-17.72248288601224
-14.259817786272475
-11.560795824118278
-10.288592385964284
-10.596510026540473
-11.86915502686183
-12.97128962380512
-12.947986401999415
-11.77504305776667
-9.950342348821861
-7.786767324691387
-5.753185054701694
-3.966724211589198
-1.7653581904820512
0.9486496407654996
3.5957511374601956
6.262410654955594
9.271568346534343
12.577211346402608
15.967357641534965
18.696186179508985
20.249195826865215
20.70239842585023
20.296349701734027
19.825134698034983
19.83560794234448
20.08370978456
20.522161305287824
20.924936852248358
19.87610989135136
16.65712587748737
12.401606593861716
8.564022679099685
5.8896300028208355
4.400502615694576
4.181150879587868
5.337383534675338
6.853660471253554
7.331031039834564
6.380818268223547
4.593668233876032
2.826522810191858
1.5140772437740218
0.20505697797597972
-2.1670907836969797
-6.040753389389578
-10.463715220963245
-13.95016346774115
-16.23799471462576
-17.815598222362386
-18.42954666226522
-18.261599734859704
-18.547090093376855
-20.093476488159148
-22.167897968662718
-23.36627824862962
-23.376853829201636
-22.54650904670371
-21.124171289809624
-19.371127763137984
-17.49092326636702
-15.421309012698547
-13.154634507967225
-10.774286594532635
-8.43473852185673
-6.741858624225154
-6.000413788769757
-6.097738053611974
-6.883372226398194
-7.843334083653547
-8.403961162203306
-8.411460311504122
-7.64585997470375
-6.057255346359576
-4.250515735086399
-2.4365884505398614
-0.4043707200832055
0.8400303758915311
0.9567037376781256
1.3008377617506708
2.626703937592301
5.0351059173085515
7.8664837937912795
10.317511605531411
12.838090031594085
15.823065020706709
18.244588332455038
19.22030786516967
19.324758403237063
19.605067779610415
20.186333254384113
20.398012017083015
19.990699410826757
19.32400012821721
18.1891541177364
15.992769165451241
13.220552394142263
11.088190437319906
10.301375249900307
10.74236400101719
11.560248819296522
11.36965969524861
9.708440457224224
7.049056778579334
3.5685125765386623
0.14347748674454627
-2.045389660549463
-3.0335225819318254
-3.779641773826151
-4.991133106362401
-6.444498396838705
-7.564205339320899
-8.225688142302175
-8.907320069332814
-9.893930017493178
-10.737324722773675
-11.185566673368747
-11.323859492565633
-10.999497568919416
-10.239190118356708
-9.381442366922846
-8.543716504617402
-7.192295087122404
-4.9931155746654
-2.547431520756142
-1.1439067945564467
-1.308734615909218
-2.1641556147791396
-3.021989433176436
-3.6134531101807896
-3.457844442470557
-2.593694982247854
-1.6437580990184852
-1.0640085203181897
-1.1611605375340188
-2.0959212062795487
-3.2961880847481946
-4.115237129151028
-4.781177090171926
-5.367510298683939
-5.568153950184253
-5.347884936393997
-5.014263316980228
-4.683418941000695
-4.26858015436593
-4.083928666893408
-3.8942132239038765
-3.074082127182368
-2.2728958607562424
-2.208490022210122
-2.641530414617582
-2.6644435575747654
-1.389971238262827
0.3859503604476427
1.2198243331187049
1.376187561773218
2.0752553776935163
3.6274280867146613
5.541537253885578
7.09116308981623
8.137226158671242
8.896695036795403
9.219675366918532
9.697359723812633
11.097804304540785
13.085100106365987
15.833497192847341
19.333535437556453
22.052230330167635
22.78130329722674
21.852960342398145
20.727835985600546
20.03650482648309
19.409802353978804
18.694133878930856
18.062509620799105
17.936824540018712
17.878940483578425
16.98075981615587
15.14684395909276
12.508661316029228
9.361231687001029
6.208930822209448
3.8995194828591733
2.956186825326098
2.7568938057555115
2.723992346853511
3.2481845608041304
4.833500739520595
6.89535233001474
8.178219076526645
7.7582214626315915
6.606287938446635
5.945194212480356
4.518752348768903
2.078754317249117
-0.2399958981097425
-2.870309657107531
-5.21716239404473
-6.001783753704557
-6.03406866699882
-6.615359537708974
-7.890940084518145
-9.150155542305953
-9.73669387884843
-10.202757243932538
-11.10894903885966
-12.011321691393116
-12.773751409594011
-13.665775220148161
-14.655791340905276
-15.571943791004983
-16.59360090958582
-17.444254146370632
-17.592690972509747
-17.189522454165246
-16.237771403603144
-14.511676914935462
-11.948621108829563
-9.367665994857461
-7.882320476797635
-7.248519449827677
-6.943837607604129
-6.644542303439168
-6.16780979457637
-6.0990401300040284
-7.0455161306455185
-8.2524290705694
-8.427730620830356
-7.0845111330703725
-4.394228613952894
-1.6968587508983188
-0.2517911309580706
0.5561988249291261
1.0766649049857293
0.8152048002075383
0.8903206504531155
3.0454719191167072
5.925058869832693
7.4420323790584035
8.357856398944445
10.037659271707737
12.114299923592798
13.600148387364172
14.295296604226571
14.172928118224624
13.480646522889495
12.51674277153992
11.116676463856063
9.530442780787105
8.742100327148808
9.020828456542468
9.459323864195023
9.234137178304339
8.756919968826676
8.801256298168795
8.176196989184339
5.892719426825113
3.5966476095267046
2.114041569076189
0.9510896932819041
0.36345658342502635
0.4098680876610398
0.8565643422910459
1.2918799028977337
1.5471471458894739
1.3681139123550798
0.25022039228000137
-1.2253384602275295
-2.4673253499967327
-3.369765672978786
-3.76761520868625
-3.4734943933119276
-3.1491046429446254
-3.909460557378546
-5.675765492737723
-7.313036178294733
-7.6972179499456965
-7.244121242805819
-7.318840214995988
-7.953572957345231
-8.141544720181228
-7.794402239770243
-7.1537507306972055
-6.059351361431974
-5.2115443053287205
-5.587219001821061
-6.944501213036607
-8.514501823714427
-9.794067811656602
-9.989727319663904
-9.130964789174369
-7.742589262937619
-6.148558829118154
-4.762158867923245
-3.2233406840506014
-1.4551040657966596
0.40767622497971184
2.210253044683155
3.684504786150825
4.440133423316799
4.3814447290017045
5.009512578725562
7.401129052806635
10.328679048307631
12.16236037402054
13.046168261065995
13.442575209425254
13.25778132558515
12.731692460854228
12.076341071691028
11.218179527492433
10.390254841337343
9.752996062193947
9.296648766308941
8.7527560921198
7.860248349755182
6.717778355718316
5.929690431788246
5.50248511715163
3.760578241836942
0.569867601924831
-2.228769853077975
-4.0636296599986625
-5.34241753926803
-6.628209391703369
-7.751742584119051
-8.170374451356645
-8.368218619403724
-8.177914799841655
-8.076302335848704
-9.24128246516647
-10.766776841615384
-10.836031374642754
-9.162028934603814
-6.732138617132279
-4.873352465179423
-4.596337704136675
-5.242431611600595
-5.604772054875295
-5.63661726795805
-5.593586049440211
-5.149976375543205
-4.930642119800081
-5.906820899040829
-7.169756266013833
-8.20050575668661
-9.128592873544578
-9.336150717933927
-8.310972542321714
-6.608962028640934
-4.970384512341553
-3.507752734764653
-2.279567512909543
-1.023976573296614
0.7657382610113425
2.8585764589659175
4.522930790171402
5.507099419867503
5.71107448433706
5.721011551833048
6.205471966172597
6.651310378777038
6.174608096541136
5.106584209064736
4.731165754041728
5.675363759682426
7.712123887827022
9.694429957701352
11.150378491679122
13.143055483408022
15.579929036587934
16.616320878229367
15.536669268320143
13.543300906132782
11.773312511331296
9.917776212410574
7.880763892520937
6.6244232784952075
6.039271200594166
6.3350415324430465
8.238821544960892
11.24718182226493
14.645647029505572
17.914293872221663
20.493563411913076
21.77285475225871
21.739043138488068
20.946206615878882
20.343667396670757
20.887364576530103
22.197597761232508
23.452475295482824
24.347502075633166
24.1266470856189
22.038808885229564
18.47953120864044
14.664768130845635
11.553018346398853
9.255856051020999
7.372713206542735
6.238588767616355
6.472605781637089
7.152630340159727
7.2440220941330615
6.774370981404502
5.031759050898454
2.1557165844547046
-0.040018243820151914
-1.2518044940408533
-2.4502920920397253
-3.621378625653367
-4.862173960547163
-6.8064432127541705
-9.40706988936805
-12.046272794149449
-14.422515181003453
-16.909020266140658
-19.121769727133106
-20.655065228057367
-21.234701367072834
-20.910822866755396
-20.630109601691817
-21.339109154299003
-22.951677610969817
-24.506674950431677
-25.956913262067147
-27.485178026132452
-28.364891432022254
-28.249794043798882
-27.346519370534
-26.228183089659886
-25.200902320685223
-23.781829290039585
-21.56183140040927
-18.694967066842615
-16.0744624353986
-14.062535430618063
-12.408969637720105
-11.304972620866334
-10.63297179332233
-9.637826434690465
-8.481929151863293
-8.15310673882916
-8.807960793324746
-9.87107080608255
-10.911742335093713
-11.617049666963826
-11.522879499369436
-10.230813696644331
-7.78053164007366
-4.895502013138553
-2.3159795750815366
-0.17776165904878144
1.1883258338471887
2.2330495038064564
3.9254273841641463
5.919805821709697
7.449157911594701
8.088089820544702
8.12515561070864
8.063178991423952
7.769811955022825
7.492168404108635
7.872191349278493
8.316831946019427
7.990030168110945
8.130761927184082
9.02247421481669
8.622778882227337
7.320892112808687
7.601034108184217
9.723236704393665
11.783820306580497
12.766611930475431
13.758348956894178
14.535011265200268
13.327095181574606
10.853876609036258
9.290191416023015
9.723376114420349
12.049924712788023
14.537897913985812
15.504752947977826
15.594325736256675
15.997779372582377
16.678210141264913
17.414230912021022
17.595221634572493
15.894606458071385
13.349981556479426
11.716942283844018
11.06190753690019
10.777506803157994
10.094955666868534
9.984416340553313
10.801219126189821
11.852389894573108
12.84187897888298
13.218277047967112
13.161047328238217
11.749903639116704
8.936339972183953
6.974663769072325
5.088233975561773
1.5621221740058953
-2.3171136428104644
-3.9988337622271874
-1.7417440831164885
1.749341623371668
0.9128870214286723
-3.341357709605917
-4.231682227056083
-0.04223533936474429
3.8545588087445233
2.814988921277736
-1.9789720693250883
-6.991903041616305
-9.525895325316775
-8.965725159460971
-7.586123987160176
-6.716857925197952
-6.902786509997315
-9.34829850508151
-12.544313854565006
-14.521768584136279
-16.185622679797582
-18.321850673495604
-20.282188655342594
-20.583379285266908
-18.297764042490797
-17.23161449564174
-21.02810514018614
-25.97546939868849
-27.44271821563358
-25.645840242522222
-25.13607295169151
-27.70976169586201
-26.76922413412369
-21.20242984886294
-19.20713112820691
-21.925071318119436
-25.44161116520534
-28.31552603060282
-28.556185025997095
-25.93284654957626
-22.583443677442144
-19.428333759155255
-17.222532320500807
-18.12347406693208
-19.62316534039409
-16.82455357212717
-13.07555460769987
-12.682359354641841
-12.945996926128197
-11.741588682070484
-10.70133824987925
-9.816198377275182
-7.755575225102291
-5.413831729443515
-3.1786748882225577
-2.2530512979143635
-3.1875573209976102
-2.201939305727623
0.75186677142234
1.0918892167892529
-2.409851058648245
-5.646096837502905
-6.083911500203347
-5.9678167410060885
-5.049676147715202
-3.271086602741485
-3.215619037519156
-2.296542352598885
1.8119542992935416
3.492459121586513
1.5513454724290818
2.230708792538991
4.884246187944249
6.05747412555935
8.231053606099932
11.315704657238085
13.663247513311964
17.282405295745498
21.462363367210127
24.816187813379656
28.81204161477477
31.93149277940884
31.745938307116607
30.527554311262808
31.437634263897866
34.34433906080563
35.41730078735662
33.3075826451761
31.75086291045696
30.714617541760443
27.84134225060142
23.49048494462412
17.737432578680917
13.18140529476733
13.069425929762437
14.601755530335428
14.07846223727905
11.051950568285482
7.114450858569717
4.77090482816027
2.5636965713156257
-1.5619127940857793
-6.356002303328436
-11.781831393139742
-15.725200988757559
-16.704990965969262
-17.443913191590006
-16.360124181658847
-11.948832461310428
-9.626868011155297
-13.137682365561373
-16.687472427222822
-15.076694195407308
-13.41237164712525
-14.243591818599675
-13.407656384661466
-11.248443835221408
-10.78840242850097
-11.892382640666508
-12.251150388349364
-10.16875800801421
-7.3639716679398015
-5.4618266628363115
-2.5654519004588696
1.054495462212605
1.9927947429218456
1.2114024743620468
2.703137724707885
5.532745802534781
6.3821467175481645
3.603443182190666
-1.0912816639074525
-2.2816898521018416
-1.0615862238939278
-4.900725329770126
-12.750164721118246
-17.669882320373745
-16.950824736845785
-12.970432692650306
-11.822221495023129
-15.572792262731566
-19.661094029223673
-21.683297907492435
-21.42637758218562
-18.3927926270633
-15.19929049959996
-14.241727880958141
-14.42099185389988
-14.362647609725437
-13.492341566882802
-11.366792108149504
-9.250936658477508
-8.250010431669162
-7.982917772883116
-8.095020732755911
-8.611322170114438
-10.027502021388804
-11.505792238936051
-11.047951298397598
-9.038655293462805
-7.400478337261386
-7.188403173177668
-8.621525006372229
-9.277975589036027
-6.656100253675847
-3.44199827413996
-2.59795289799556
-2.856234607230639
-3.220502692195058
-3.9208192184798145
-3.2301326917650552
0.17871867378221928
3.6746686532297512
4.159497042578679
2.802921308126353
2.080707230619667
2.615546385177705
4.235978398545453
5.681919858383107
5.787988104584955
4.592457057917029
4.02167464351522
6.842172697466425
10.566833760448969
12.198668357318521
14.23241507132788
16.791590555118784
18.035662191999904
19.473073241822878
21.79590199627653
23.148062694995563
22.691797927399175
21.506525700214485
20.496493372142517
20.57674762052561
21.591150124415144
20.16778442025842
15.031763788197997
9.24410668998558
5.304312631544344
2.710583001159131
1.1402604339004128
1.3643492405224342
1.923710713590231
1.4378279444304807
1.8106379663818686
3.4156249331843314
3.3664324093073197
1.4838549714894105
-0.7160269270168634
-3.1854410907694795
-4.746217159056661
-6.051935846598056
-9.162195824362385
-11.60112186590936
-11.282192818559698
-10.439185020448496
-10.864603120015806
-12.076380218379612
-13.869646587283977
-16.244324018470753
-18.088807914893952
-19.711837611499085
-21.51134332891838
-21.384465254828026
-20.501045789935866
-20.79281564075596
-20.10726325859028
-19.08619381753659
-19.922361525606835
-20.28528721138114
-17.938144259121348
-14.675892733276275
-12.745943164374374
-12.240215025312395
-11.495231750141567
-7.69371407958791
-2.4057051134221115
-1.4191168423777727
-4.027668194110292
-4.8184016829847485
-3.687351183153913
-2.5484122378473657
-0.13195666223481478
3.815668629045919
7.305856127003826
9.464623895294485
10.321301469153777
8.937150968055278
5.38381708631826
1.5243045438525844
-0.8680586332742464
-0.6840243930221549
1.4346470444637476
3.7935145559099537
6.091142635164149
7.703202919906606
7.022231190934499
5.166753671197402
3.950540584605732
2.412844190578931
0.4375106896900718
-0.055754022397389066
1.1787344267055837
2.5645956421213034
3.50130953952961
4.337250839825353
4.720813111990936
3.9839943092830357
3.0886181142693894
3.7696036854117736
4.974695143056119
4.4500456226702
3.0746164682548307
3.306566022153424
5.116013721274598
6.289786132227594
6.1475529705651635
5.948209172496019
6.369414761216645
7.297352635773101
8.411144609295347
9.271652542532662
10.131706420769907
11.168732374235717
11.860555078238217
12.56413087141704
14.22335325971692
16.62942484925327
18.600599417990313
19.522828543363865
20.228170351863493
20.41953755281865
18.4941967015602
16.16057243554849
16.915283505059616
20.713425094103528
23.509038600086704
22.070420305048938
18.20886347931315
15.473682015648748
15.12566421369351
17.05553944070857
18.52600289666842
16.859184804007928
14.67119670090384
14.515929514306611
15.144753269833007
15.006631496418064
13.841629081117143
12.405998909385678
10.243517159129249
7.374679203235604
5.636844409002105
4.283071945195399
1.7160798890124302
-0.8408212466777616
-2.3826633118458878
-4.478728652965369
-8.433341553980386
-13.405322372765578
-18.07126385953291
-21.583575475224855
-23.48670081277941
-24.621852036996113
-26.733961770314412
-29.015514853074418
-28.50234918330768
-25.707835646836415
-23.07439689015363
-21.02113510251875
-20.349845171435092
-21.385351031537976
-22.52962782991523
-23.307229620003874
-24.324632963913235
-25.112866897456893
-24.47132631858796
-21.906335857634335
-18.18261944100456
-14.243317363729544
-10.848732927195774
-8.71903080464529
-7.38740020253764
-5.674280549058413
-3.949120293609453
-3.2789023142228135
-2.754220095374608
-1.1050534971610306
0.9617718548498772
2.8823821260048827
5.616347486313496
9.584528223295218
13.16720461298878
14.244650121440102
12.622315577172408
10.644862095316611
10.225581517980103
10.217454863430058
9.663663175162606
8.606091192581983
6.476727306676253
4.298470250986566
3.082208677033088
2.13979649072303
1.1803453440410436
0.29881602119408934
-0.19233474421068403
-0.42859294138035636
-1.0416029794295634
-1.5550542525246676
