AAD_Filtered_TADAS_FILE
AAD_BASELINE_CORRECTION: BASELINE REMOVED
AAD_FILTER_TYPE: BUTTERWORTH
AAD_FILTER_ORDER: 1
AAD_LOW_CUT_FREQUENCY_HZ: 0.025
AAD_HIGH_CUT_FREQUENCY_HZ: 40.0
EVENT_NAME: 202302060117
EVENT_ID: 13194
EVENT_DATE_YYYYMMDD: 2023/02/06
EVENT_TIME_HHMMSS: 01:17:32.00000
EVENT_LATITUDE_DEGREE: 37.288
EVENT_LONGITUDE_DEGREE: 37.043
EVENT_DEPTH_KM: 8.6
HYPOCENTER_REFERENCE: AFAD
MAGNITUDE_W: 7.7
MAGNITUDE_W_REFERENCE: AFAD
MAGNITUDE_L: 
MAGNITUDE_L_REFERENCE: 
FOCAL_MECHANISM: 
NETWORK: TK
STATION_CODE: 2703
STATION_NAME: 
STATION_LATITUDE_DEGREE: 37.058
STATION_LONGITUDE_DEGREE: 37.35
STATION_ELEVATION_M: 840.0
LOCATION: Kahramanmaras_Pazarck_Turkiye
SENSOR_DEPTH_M: 
VS30_M/S: 758
SITE_CLASSIFICATION_EC8: A
MORPHOLOGIC_CLASSIFICATION: 
EPICENTRAL_DISTANCE_KM: 37.34
EARTHQUAKE_BACKAZIMUTH_DEGREE: 
DATE_TIME_FIRST_SAMPLE_YYYYMMDD_HHMMSS: 2023/02/06 01:17:08.6017760
DATE_TIME_FIRST_SAMPLE_PRECISION: millisecond
SAMPLING_INTERVAL_S: 0.01
NDATA: 10501
DURATION_S: 
STREAM: HNZ
UNITS: cm/s^2
INSTRUMENT: sensor = CMG-5T/GURALP | digitizer = 
INSTRUMENT_ANALOG/DIGITAL: 
INSTRUMENTAL_FREQUENCY_HZ: 
INSTRUMENTAL_DAMPING: 
FULL_SCALE_G: 
N_BIT_DIGITAL_CONVERTER: 
PGA_CM/S^2: 80.105
TIME_PGA_S: 
BASELINE_CORRECTION: BASELINE REMOVED
FILTER_TYPE: BUTTERWORTH
FILTER_ORDER: 
LOW_CUT_FREQUENCY_HZ: 
HIGH_CUT_FREQUENCY_HZ: 
LATE/NORMAL_TRIGGERED: 
DATABASE_VERSION: 
HEADER_FORMAT: DYNA 1.2
DATA_TYPE: Acceleration
PROCESSING: Automatic Paolucci et al., 2011
DATA_TIMESTAMP_YYYYMMDD_HHMMSS: 
DATA_LICENSE: U (unknown license)
DATA_CITATION: Turkish Accelerometric Archive v 1.0 - Disaster And Emergency Management Presidency, Earthquake Department
DATA_CREATOR: AFAD
ORIGINAL_DATA_MEDIATOR_CITATION: : AFAD - Disaster And Emergency Management Presidency
ORIGINAL_DATA_MEDIATOR: AFAD PROCESS SERVICE
ORIGINAL_DATA_CREATOR_CITATION: AFAD PROCESS SERVICE
ORIGINAL_DATA_CREATOR: network: TK
USER1: GuestUser
USER2: 
USER3: 
USER4: 
[...]
20.338740839637556
-16.57059039892674
-29.239139916253706
-15.706038618584921
-8.188240841912231
4.292326542562153
-10.229010773608453
-37.53001221080366
-31.260081741063775
-20.5339410305891
-19.67092687808156
-13.874430955473496
-6.01821190894446
-6.289339010801935
-9.21705522070052
12.842335770986683
24.547466813106535
31.748244838602922
35.716275919186664
26.337408431473516
15.689872421043734
3.2086868857371145
7.257512994819902
13.950814717952607
3.3410645789985463
-4.352016722519483
-14.493493359417268
-13.717192829604025
9.684740512441595
15.05920959886713
1.2456956284175802
-17.362315935577133
-30.10497340138949
-34.33408514519642
-13.66025912002752
13.338632103983565
1.0476697493326772
-25.999190130429376
-29.902978642742124
-13.083539609587918
-17.729660050905665
-18.56398941579332
-5.770138977445756
-38.86532042798124
-57.74286969888945
-40.537620343863054
-24.60982544985063
-15.693304560411839
1.259241210752958
42.31544101665849
36.44309339879815
24.805660027642215
29.11999072184267
10.43163773703375
11.935153680794825
7.95384628089243
20.702770567601462
14.300203255752555
-9.254663361270127
3.6047838237752097
-6.994374615589248
-7.4297931863152105
-23.662720149472495
-50.26572682367198
-24.956302656188047
-30.413534059127485
-45.516971893215654
-29.459765928485524
-17.734941742364903
5.068372509233984
-4.4457371699670665
-36.79381281426423
-45.06678112792138
-22.681467602366787
-8.70364750318553
-18.63767623803086
7.392795496756083
20.86475825797189
9.664219130631038
8.916226871121147
-2.5176058804925034
6.613628525289826
17.46941950152191
6.462773645813382
3.84868487302012
-16.298361004354362
-18.690346599896007
-1.9581497723223915
-19.684729122557748
-34.083804719826034
-33.66316783425761
-38.498557628745736
-29.707993204389698
3.159708225575653
18.36429590216339
22.30101266785608
39.742143651284344
19.531665850736907
4.940001703656283
26.911092688940567
32.722910237516025
48.05919555667766
49.39450437664334
21.39355196559597
19.589425521944793
7.0106341122822675
-5.615751275115212
26.90028506907919
20.76194972146372
-10.216420285448425
-14.811692977471015
-22.174415541305947
-12.613259676054003
-2.073243779036344
8.391797984962599
26.384917704213592
19.923934267610324
31.15648174824946
40.06707633407131
38.44617782396809
29.221221100178436
-3.8954509101860935
14.894018323986943
18.751711400957817
1.5047238893853714
22.87080866017717
18.332332278267394
15.637377810487097
20.168174206035665
18.763815505315236
25.915263982415322
13.432160814193526
11.936514968946325
14.120693544815452
-4.818973874315721
-11.855093586159068
4.286627322142272
17.042054391786657
2.8953190112883567
-9.519909719390872
-0.3870648497682912
21.549895952609035
33.00956041085157
34.797207898359666
32.64578827983475
8.075354648844703
-14.366499906954964
-13.138170672020513
-14.533446192805197
4.180405873888975
36.74397677469604
26.858864999546924
16.11157579505229
6.58652358286871
-1.6959154433700807
-0.6430722717942006
-5.556106105303899
0.5299267550934106
-0.3056917168180439
-23.633140042464753
-30.55631663239229
-16.891757060105114
-32.70436543286809
-22.912622269506482
-7.764325754414597
1.79410653699204
1.5339427745283971
-21.828266007374378
-10.702963301401805
-10.987385588763305
-18.90837992267268
-22.7032268698277
-8.912828878777477
3.3849461789001922
-18.387284348667496
-28.66492828309932
-32.32503203556358
-29.768107418081808
0.1885742429436618
-2.697416283429048
-10.81016009497482
8.086921004367682
-3.7241727350090965
-8.252156147393716
-5.437562659345042
-18.13264619047823
-21.52323339441375
-12.221293043376859
-15.557446291838737
-17.2242658568674
-9.02188678792198
1.6446498103455218
5.8568845529626
-4.776059394655841
14.732263642678111
20.035362764281736
1.835862060521512
1.0468518365672572
5.09551756593332
13.961050200954535
-10.36759270378123
-25.553574901604797
-6.9673626877240515
1.8666366521019704
-0.6112385942168084
-1.427156533650027
7.101012674722441
5.294048396580099
1.2757172527877432
-5.757962896325869
-4.713037320818361
0.4194252225372294
-16.752401855905106
-39.16640910818795
-35.13403346078078
-24.42102214460698
-20.211584670067758
-10.966185075635057
-21.900658805827824
-28.334020391891347
-12.621178167127646
0.3526646821724777
16.05521533069741
21.994506521971882
28.746621215680072
42.76211840298179
27.936351801470003
11.783089533448889
24.5095014144815
21.577638453702903
-11.889807602763707
-0.2587138470970507
20.24371170851142
6.193634192950517
5.204329614929901
8.489172949389399
15.67741790003891
32.68447183764155
41.96152322702489
58.87998316736591
67.21766622084829
41.137566410629546
17.844534034617315
7.317389797745561
14.041935463563387
10.639251789480477
-0.8206743197498781
-1.1262343440656275
-0.2104708529233234
22.59221765934455
38.26106066354251
20.69566082753065
14.16808564727248
29.369655638036654
17.179454621505304
8.815216652398256
25.35329312441498
38.18857796607918
45.016850807059534
28.751426500882477
22.71120365685532
15.664663723645633
1.6240104700516516
-2.3264839826183117
-14.137191324481313
-5.882338952110101
4.721907890213021
-2.665189975246224
-25.038721566817017
-39.933096064356505
-47.164531593126014
-55.96810399807608
-40.95003149386673
-9.796139961742654
-3.806332744025774
-7.941430267167553
-15.93692104273397
-31.60747120953829
2.782375746683648
26.27074091766911
5.823007579003384
-1.2316354773590246
1.319203788658617
-0.8971963691207306
5.273150669392705
5.637097333121589
-1.1477471509086838
-3.622650833536885
-18.53420106733714
-13.640019281381342
10.070158428895958
14.194460399602871
0.6952183604300471
-9.857637800654086
0.7558186835506678
8.21171229427863
-7.500346965161807
-9.992518965727838
4.167269215374115
0.25340767510850676
-20.418642849191777
-20.8380788772994
-4.444990479032235
-12.075478811034099
-28.84348740925419
-25.236805126329923
-12.309306175164652
-8.212393642650856
-11.272906847597408
-26.268978527864522
-35.149187676420986
-13.104821807527383
-5.977711925690738
1.1940169576347262
6.250392899351577
-26.82000133848913
-27.074767643624185
-9.76866146121228
-15.793394778667496
4.029929529797954
23.32597558523011
20.258980666119207
30.81325320043667
23.482269339502526
2.8969750448202967
4.91652703657293
14.385031424080877
15.837028459316834
-6.111753277398506
-25.26991952525215
-23.443571758566385
-23.90674224413839
-0.8441452948526073
8.665694465341803
-16.527141613327437
-8.959983151817072
1.6173862268531325
2.96792090514135
11.790057301060608
8.836252392944523
-0.24563508240456067
-8.877118590255165
-12.719030321930088
-13.247126114483317
-16.580072710678966
-9.210687272321255
1.202535944354705
-13.062488747653724
-27.879289719916578
-24.8986455621005
-35.707378783797395
-50.96761114234081
-36.71306064719341
-6.338758777656707
12.024429476004018
-1.9239280903352642
-5.7195822711713395
16.515397643629242
14.120917081911264
-4.994854973560776
11.271881018762054
29.96518647046002
-4.716134323833342
-17.271526714661153
-2.1645082987906568
-1.7416872435513162
4.542197299060409
9.907232688082901
9.162326892678044
9.23503814061995
12.439588547916454
-6.725529154425911
-19.764145910497607
-2.8817507756426006
-4.258502036120244
-1.2569004547338753
5.378985757795564
-0.8675549455954237
10.056713665698338
12.157545965255407
16.09035859607644
30.38807908685639
20.664264223799584
-10.516009824489528
-26.9781052479882
-28.95322474425278
-17.968485672040703
3.1386878528417124
-3.1654201336494414
-0.9635055980087558
-14.128242561954053
-29.539921257563808
-10.11116539645532
-14.670244066391763
-14.078740170216163
4.164023052733496
23.41148617944361
28.340301622935808
-6.444380306962257
-30.557362841609773
-30.88310133921748
-30.545690349806083
-20.9686773985696
-15.030948596848992
-13.884034279367825
-19.130430239145934
-24.546879531239014
-31.54371424393116
-20.325178136848773
14.114349707051522
29.930990544460858
30.46051836302243
22.434450952984943
25.17303563674251
23.379987249210817
18.13921391197857
26.012854252710028
31.31828648789861
31.660121632314013
14.248188861715272
-2.722357100591323
-0.6494409325164494
8.98712499401376
14.49647858888537
11.84867393274961
12.165342375625139
12.555671360589464
1.7586749642334163
1.6080876381222236
10.726072510314344
11.10681681813732
4.034678546744882
-0.11817479290447962
2.814649236355983
14.82643517900217
31.307699838696855
42.99260139212716
26.74755743075492
5.301812832378097
17.343655085069738
10.441446782318966
0.7455346157291494
-1.756847548165198
-5.185652987374831
-6.824017011953349
-16.949790246804913
-11.116895391416712
-10.222029768755313
12.432303694504327
33.02984781449523
29.868979210192368
44.5349290688766
35.09090029685635
21.39457038939897
24.610249663811736
18.904334815398688
7.463596102176143
-16.775331266308136
-12.748661783139783
-5.364735443055068
-19.61374682035699
-13.865096763673792
-13.43020571068824
-8.734871600563695
-6.265302767590352
-21.540020399674805
-24.363087347973067
-5.158536249620983
-0.42466687656694857
-8.470222110668718
-10.313630892676057
-17.916296837224042
-30.43340106430571
-44.18933901173846
-29.89125598812012
-15.867797710449443
-10.271574425257946
1.7978081938390882
13.021448701497691
7.4600934953172
1.4186847153712538
7.867224839162356
1.00452420751214
-6.274997521850621
-9.9777271744094
0.8612178377166786
24.39119010835474
30.890978521553095
24.02054227317709
28.70865969498939
21.339423316213285
19.716906285408584
13.428189902881282
-3.015897072866696
3.7505207917475074
-4.480361610126574
-9.233901319404573
5.3041679386622596
12.389629108966854
8.340599219058683
11.244835575299362
16.25545873849556
1.5266722010824048
-13.735704840940745
-13.221537090752557
-13.075486831134597
-9.244484405836563
2.4101327804765043
7.676134264702095
-4.465953551682437
-15.934833619328023
-10.558797856914664
-10.299874243356854
-0.0291830801980379
10.274975691699195
21.982846597180576
30.8642336958062
18.067873587955095
-6.707469369875155
-27.067186971463563
-23.015897652456445
-23.970619607296097
-8.535477551225156
7.218095095607888
-3.261209964088521
1.2745805112740904
9.145742785943364
6.946656387364927
12.34336721006139
12.236203235680698
7.992136447107975
6.924341714043585
-0.008087615517850158
-0.2720159795069498
12.38841125566225
7.644114194533533
-10.421093520199031
-10.1741114337639
-6.27682008730245
0.479006011196336
4.5299293740061986
-0.7493841878953802
-27.69601387842471
-33.27626862602477
-13.504759684062723
1.980526823502053
1.8700509375022838
-13.008199174203325
-7.685363729585434
-14.44877903080183
-17.057836430870495
-12.439256344138489
-7.28220762390553
5.31726169176787
12.479462935286591
17.463764076637283
16.173648582496366
7.931459471111481
0.07460118803053632
-5.111172293426941
-5.2117550919622
2.7571270760267383
0.8981504167868402
-11.392113779050256
-13.23229375293685
-2.2781711179513593
0.3555167330837222
0.431969619009687
-12.594333942428406
-16.43904945394336
3.8991438429471845
6.881954336369206
2.128643341879976
2.980047157779954
17.76772936389312
15.523557584951968
-1.206027514635473
0.3175800928091894
0.8031425364373602
-2.8298355269598092
-13.833984194806826
2.5079043602185966
25.30740436484426
17.336800494829518
12.463093109752279
1.3478799490519644
-7.789631200318437
-9.776840746423959
-9.193153177973505
-2.42431736583553
-11.178339993384037
-20.58067321611682
-29.277908535875106
-39.18170542323306
-24.97498610522029
-4.92190613288947
1.1350993791365274
1.3246132406187598
-1.7174090385037841
17.43594440039702
38.821688397756745
31.90745394638489
27.561613658726657
1.9145297070361584
-22.384043686695126
-8.874327781903684
4.799665202181661
7.041671365230529
12.489438210840701
9.997472053908778
-6.755125889003593
-1.8145979239774455
8.788607529055332
15.586680979424035
21.134811643394105
0.9866331873090736
1.4199585232206071
9.485975907728424
-6.535581624759778
-2.8449355860931163
-2.883501290893271
-1.9992268153016317
-0.9260160005200252
-16.46514566745803
-20.048819592032434
-12.68405315414862
16.463568928862504
31.728258983891106
11.159142137636572
4.4558231122094565
0.4483693553710257
1.3601845880634131
-0.5273999672490411
-9.838186748429965
0.6986015451581779
13.944894658609133
27.57710981497282
22.786157258755377
22.63286658291434
28.12524942148833
20.124976128275375
20.162054738841796
9.36076311436428
-9.355035548260295
-6.9142357891799655
9.4653507234593
21.312903379251015
9.887245164858815
-4.960465156443076
-9.65316967694991
-15.120168329939855
-4.30269019114891
7.81204290568245
17.64977901456199
23.640067438049115
27.071115069705986
25.877370992647965
3.3369509777794506
-21.64239320486872
-16.657499221606216
0.6364250792138161
14.919351617717565
4.890866534087117
-26.7235664497979
-47.75349823160155
-71.34919111609219
-81.32521390921613
-53.83063954544169
-17.186902909095373
-9.513532722287104
5.850965629876251
10.970069524404206
-9.615577819557
-15.58884851252404
-14.18084980291824
-6.715517313390712
8.399280630335944
20.032701117699663
4.1030453707855115
-28.058251171840805
-30.148903125630124
-13.389882384745343
-5.4838151456813655
5.836727609271217
7.947223945338686
-1.5839868445805776
5.279079557685546
2.603507190103965
0.9799551948229605
6.437526804861078
-11.538951541760476
-12.816752146897045
-31.945436522404307
-40.733011766933664
-12.362507482176522
-7.343967716046819
2.145138996318432
13.05509529305333
-0.8870952778085984
-21.73789011911286
-18.42508329318843
-0.22742245634084818
3.08001047384299
7.096695159713026
29.481665616420706
34.29470849841422
18.92639326188859
17.653536108082655
34.969490900628436
23.799345603750606
-1.476225900696777
6.496379108743756
5.955831254286385
-4.421952443334649
-14.788455845613848
-26.856298554807875
-25.437906063096296
-35.98838702960983
-56.99800658753618
-41.07018874163094
-16.044471033513613
7.384433728188763
35.23882295147649
21.222378057671097
-6.441154099376189
-25.10340890451289
-21.666746727812548
0.02956597459777112
14.119105315825289
15.762510080080691
5.213431598885038
7.871199910530362
6.921420553777185
11.14112115187151
14.423662913050956
1.3415372517955166
3.622608417998014
5.375199946933946
7.199259811794868
13.963062051276086
-0.9126979252226246
-12.349123543203671
3.4564425845936837
11.232321586508313
9.271296915367936
3.303742771199643
-14.58541684078569
-17.57607831244828
-7.809488900312468
-6.0832251275962115
-1.73657787883849
-5.164747887902394
-17.82532449481866
-5.003293180289968
17.362177050967954
15.14713952847388
19.98059654223503
45.397177434874074
51.004927935931754
44.07420148458881
47.97577649117902
46.52066013631813
33.46506966718785
27.093270606533764
24.946810690803737
19.823120155420746
4.472424988516157
-18.93313889373467
-23.72625833459938
-20.776594585838087
-29.061321180958952
-32.920247388509914
-22.07316240128669
-12.955394767775543
-10.176713790735272
-5.307548030585685
-11.327563438751627
-12.909095216490558
-5.387738138711214
-6.89615861991317
-2.5470664388861963
13.505202848084561
24.641974994817406
26.693429589680274
31.082214888748325
8.31079899990005
-2.4431425637403543
7.39799801308557
-1.4865861044331712
0.045470604957378535
-12.349776959823398
-20.27702875500372
-18.573804926784497
-30.247022921085676
-17.87872238653027
1.8290581668497066
4.049359325798674
-9.702024984862287
-35.925331279403295
-32.13923819305308
-29.769773732761543
-26.68835777373559
-4.979123807201796
1.4154071314400098
8.722763996114814
2.97177780854104
3.96169127453556
1.4923897401177637
3.309406233233667
18.722855203940806
7.964652450842795
1.5779669289940297
-11.581696826145198
-26.274199264064805
-6.845425447351007
4.039259245780118
0.849716194394524
-9.373778420083887
-45.14382938638666
-49.55722509661452
-20.858728863983092
-2.0940982705821085
2.214360304534204
-5.854707309324143
0.5911314168926732
1.7429768587094205
5.327959778658957
14.222843252331709
5.468863906180416
6.856481190519045
24.78962531854322
28.829772483793548
6.904635881807843
7.564414861891343
8.143112185089358
6.707781024445186
22.932350233698067
32.74121487670917
23.782444406492758
-7.530370102738811
-29.53642393238892
-41.24499673185567
-34.484039860400564
-22.98317956195596
-20.289700110574646
-31.856772743894886
-31.900312448592725
-25.071098181160895
-31.85404927972679
-19.61576744201844
-13.361041173486615
2.4450278068764226
18.744632213445065
22.643112700932164
25.350530519508055
20.40309439214599
30.586019155998862
40.32451992461126
45.37949571315575
48.890531825690935
46.34243229158394
33.17967957257592
10.591223702845326
9.256832515070444
14.897076847329464
-0.7467538266870233
-10.21812441976161
1.3796575876219968
7.538044209213665
7.669350873829118
22.69259664652018
34.428638305481925
33.09261450729395
28.11947266098313
26.80482035846758
17.763910373962457
-4.20586908878829
-2.2989894400870075
-12.758420843478701
-28.19741815206062
-23.407821091098466
-30.670811119088096
-25.213918114721515
-26.062395982931022
-32.95455661000369
-24.57419901247074
-20.351358984496418
-14.648633700179444
-10.370911443944047
-8.306601848578339
4.187424699681449
9.302575949803241
13.762451924874167
24.932921199305408
28.82589265594238
34.06811083870472
33.5885146859831
17.37244130146912
-10.152684441729413
-30.29091024190495
-35.55208333128968
-26.164993425328575
-12.256632587982596
-3.7958571398170404
-13.825956249308202
-26.083718236456853
-31.003709348708295
-46.92471746023028
-36.762958070794404
-3.176347546368191
9.202978918756148
-8.707483931393465
-17.710489419522045
-12.067120792299285
-28.50161476628056
-37.814929638876436
-19.351891938581105
-13.731327467617685
-16.283331716340665
-14.041307574814386
-15.600120195461962
-9.133838736235921
10.284906868547386
28.355128595468386
34.28130598105198
44.92349990101721
37.164798269909205
3.319405789381835
-11.533072186912085
0.4607342176622871
13.963536449897202
34.79494131878102
39.46570975632939
25.378041127189398
14.46145438323453
-6.469489961750428
-2.113804643310538
26.50972200260304
45.49321393043121
35.75536724402854
27.60503475846873
19.161367217359565
14.26948282956991
28.45961518767158
25.403373168296458
28.12702668499318
24.32755294789798
-1.2694821628381383
-11.904798724467085
-13.031094631740949
-20.64478355882028
-17.37641938184333
