AAD_Filtered_TADAS_FILE
AAD_BASELINE_CORRECTION: BASELINE REMOVED
AAD_FILTER_TYPE: BUTTERWORTH
AAD_FILTER_ORDER: 1
AAD_LOW_CUT_FREQUENCY_HZ: 0.025
AAD_HIGH_CUT_FREQUENCY_HZ: 40.0
EVENT_NAME: 202302060117
EVENT_ID: 13194
EVENT_DATE_YYYYMMDD: 2023/02/06
EVENT_TIME_HHMMSS: 01:17:32.00000
EVENT_LATITUDE_DEGREE: 37.288
EVENT_LONGITUDE_DEGREE: 37.043
EVENT_DEPTH_KM: 8.6
HYPOCENTER_REFERENCE: AFAD
MAGNITUDE_W: 7.7
MAGNITUDE_W_REFERENCE: AFAD
MAGNITUDE_L: 
MAGNITUDE_L_REFERENCE: 
FOCAL_MECHANISM: 
NETWORK: TK
STATION_CODE: 3117
STATION_NAME: 
STATION_LATITUDE_DEGREE: 36.55712
STATION_LONGITUDE_DEGREE: 36.17471
STATION_ELEVATION_M: 193.0
LOCATION: Kahramanmaras_Pazarck_Turkiye
SENSOR_DEPTH_M: 
VS30_M/S: 597
SITE_CLASSIFICATION_EC8: B
MORPHOLOGIC_CLASSIFICATION: 
EPICENTRAL_DISTANCE_KM: 112.08
EARTHQUAKE_BACKAZIMUTH_DEGREE: 
DATE_TIME_FIRST_SAMPLE_YYYYMMDD_HHMMSS: 2023/02/06 01:17:31.3679700
DATE_TIME_FIRST_SAMPLE_PRECISION: millisecond
SAMPLING_INTERVAL_S: 0.01
NDATA: 12501
DURATION_S: 
STREAM: HNN
UNITS: cm/s^2
INSTRUMENT: sensor = CMG-5T/GURALP | digitizer = 
INSTRUMENT_ANALOG/DIGITAL: 
INSTRUMENTAL_FREQUENCY_HZ: 
INSTRUMENTAL_DAMPING: 
FULL_SCALE_G: 
N_BIT_DIGITAL_CONVERTER: 
PGA_CM/S^2: 968.904
TIME_PGA_S: 
BASELINE_CORRECTION: BASELINE REMOVED
FILTER_TYPE: BUTTERWORTH
FILTER_ORDER: 
LOW_CUT_FREQUENCY_HZ: 
HIGH_CUT_FREQUENCY_HZ: 
LATE/NORMAL_TRIGGERED: 
DATABASE_VERSION: 
HEADER_FORMAT: DYNA 1.2
DATA_TYPE: Acceleration
PROCESSING: Automatic Paolucci et al., 2011
DATA_TIMESTAMP_YYYYMMDD_HHMMSS: 
DATA_LICENSE: U (unknown license)
DATA_CITATION: Turkish Accelerometric Archive v 1.0 - Disaster And Emergency Management Presidency, Earthquake Department
DATA_CREATOR: AFAD
ORIGINAL_DATA_MEDIATOR_CITATION: : AFAD - Disaster And Emergency Management Presidency
ORIGINAL_DATA_MEDIATOR: AFAD PROCESS SERVICE
ORIGINAL_DATA_CREATOR_CITATION: AFAD PROCESS SERVICE
ORIGINAL_DATA_CREATOR: network: TK
USER1: GuestUser
USER2: 
USER3: 
USER4: 
[...]
-429.2734441317902
-123.25198430606395
-128.594885269362
-130.49699448006274
-166.55600384320866
427.1586623761392
366.8531823384231
-215.953121600132
-71.45626172426823
-63.93285975494967
-3.0315512278165437
-56.773636040203584
34.39795821324693
141.46017019220903
246.38162970812695
53.76992926260719
-235.69050868681177
186.95996061661657
70.71834488928772
31.367302106267516
212.095658161328
110.00462180466907
211.23686652159193
168.86361995062558
243.58729089112663
69.31665114602082
455.40175887311597
100.36751247253275
-164.41812775368385
130.09966999761477
-53.286898148801704
-13.22999126097232
-227.54434261436185
-97.99854767443331
-152.5968755111436
-435.2333339789757
-77.96631976022563
193.05157820407658
7.243669137198261
213.65332272648465
116.0235959000728
-181.20989153880282
221.49125011986354
23.541478087003703
-162.3712168629202
373.98712831042803
466.10747020150353
-114.01056231950675
-8.079309830763636
79.30597792948315
-246.94120142062906
-102.82603670510267
-216.90181128045407
-213.36446293175248
216.85409557288935
87.03459130220466
121.61908424230141
-108.01027169070122
3.218212055737648
253.0277444052274
-195.60071970953356
-30.94368439861884
296.344483610046
168.36979263693254
142.32872662831375
294.03246772583117
123.18673887678204
-137.42695013688223
-220.7657288446734
-171.4563022888391
22.26407503843278
159.47035937614368
-257.6602012018727
-92.78561079702244
242.34533487420174
201.75429882671136
24.91354929177037
71.16732427678306
135.4079903625394
102.61790358157621
-196.70369226743313
-304.3737407794178
324.9130360982738
494.5687781462268
-132.57952448895148
-31.103310288543963
101.89996936988902
-348.59867259589123
-153.2487476371024
56.648687313596795
623.2521345538684
462.8832968544224
-47.611620968690126
180.28222608446606
-262.8076772130997
-29.06965117381293
396.4124075812954
17.790983868361014
-41.65231750278572
-166.28764847265555
-139.5897794809417
50.97498167356331
59.66302004040909
57.90414657869987
109.63962312993215
215.0094543116029
377.86280153093526
-211.55415350083203
-140.70120424894586
-15.55174131996501
-327.7525371274068
-5.866189140682128
-86.37455229265198
-22.8295738674013
280.1950714586927
224.35919368259152
-1.914504977652549
102.41260629494678
201.75709040006848
-18.40774337472006
-82.67300026891705
92.41012333657469
45.54476616776664
-284.88995370467086
37.818118705525706
210.74326748849734
208.76115282573227
-84.88372956662201
-376.30558113159515
57.506868707279736
-164.0385076054669
35.60490485691539
39.02896283162594
-6.5796486569753805
-566.538829303677
-276.81429196487113
-45.92131174871747
-336.94383728047933
488.7984607523473
114.9166789560536
-63.53093891342453
-258.3460095317926
-146.76642305718747
-47.60116650478447
-120.68218023207683
140.83023015700275
305.2571799363156
669.3775375612515
667.2008451896729
133.06952515292593
-111.23004309302253
343.7463507351263
-139.30592172991754
-185.77953383323882
194.14483841811503
-264.1280878482323
78.59775470008891
345.6302865805303
-99.88479717202797
-279.0174643464024
119.62733823850866
127.72635324981856
280.25654461749696
419.2910030173101
-148.59048727395174
-126.78806015143425
159.7207305330355
68.130697640066
167.9029317947223
134.4856951013128
-268.39393714251565
5.013392712120448
-343.299992241165
-385.5764394511104
237.16672102853067
376.05112545672654
-74.03448022010501
-413.20487387950203
-17.275630241891047
153.52978487815355
104.99410777314492
-84.99542437950437
-102.4936861260227
-298.6271839395289
-546.6870243914133
-16.304730209228744
21.55264639581438
-243.96336199756897
-2.2398246297374076
94.57818047418829
277.461067220022
265.47278071436034
-75.83441762152056
-154.88021419569495
2.719627679359252
66.72792290475871
126.56903338852949
-230.44732468750294
234.77825735392483
530.229521247188
-60.36704257375452
190.62608989626756
230.92692387350502
26.036906562904182
263.29624900267817
55.31897724466529
307.4954909000708
434.2551663868834
-245.28446186471757
-51.79316667275952
-118.99459324974093
-185.64029241210324
-296.4311148825917
-254.7998461455565
57.37841158602457
-68.58371446402487
312.1996730630276
-141.32377122413763
175.2423016120105
184.7026889777011
-0.12240921402577445
274.43629140775585
41.76242787536453
71.27286936668014
-345.6497148382542
-241.3546782068915
257.7756084392526
493.564258943835
45.76690984095046
-109.21313391993743
-231.84538530543395
253.23759984225748
321.0433710160164
84.82532155901657
142.94432755400993
-149.1396376528611
34.96883078235127
135.72051102621407
407.79415962385866
280.19470735259597
-193.904594803804
-159.08171426807627
-227.30512887432363
120.18109838014468
193.8380839296859
-296.2027112545485
-570.1325752924195
22.026185104396173
232.41026579457622
-411.9823678868119
-275.84516466047353
-403.19942411259404
-288.55013810297305
-38.53405371348919
-49.97181411580859
-216.84094160781987
180.22617929204722
321.8745310737587
114.60706799867184
-26.994572256790377
299.43089263751926
527.3613155844396
187.29939353777004
145.20339363224525
6.365893362119993
139.44087434196922
300.900577873372
24.952400612999945
-276.88108159626876
77.70197278239675
249.382386045113
-197.2800594333959
-406.5398976236119
-105.77158895636558
-95.79758187416233
-316.0342856357387
-351.20726304285006
-303.7465011237791
-286.5083328850794
-97.8224882180666
122.60546984700645
315.4039804619132
391.26245354665645
217.03025610690887
272.3853876155167
-169.797909159628
-175.7247269123773
356.7123794324833
-1.134666175495684
139.3583749356651
267.0101312152316
-305.80440347420074
-189.44701869101402
255.78237780946557
-161.6129720025431
-176.40609752089568
-233.21227990054334
116.43435139046693
481.5940937947784
-111.57026785614413
-204.73777265492424
-34.49496208953858
-29.136633935803385
-291.2499563185871
-65.53396285372254
361.4102986392818
49.37704498580069
-55.53468946250208
90.88888380202283
-118.34773146348206
64.62927927704851
34.75479297548153
-368.58769938024847
-131.21792671498855
23.2561296570035
-121.90982697906651
-198.291021449405
-40.273310459972414
218.8721690021126
132.54609590788067
-66.4184852915569
-193.91687799894092
-119.36862911355998
-151.7245976525217
-353.80039928464254
-107.22431846563606
354.5758168134567
208.7381349799103
-296.9365843864093
-445.1052708840559
-167.3633313837002
-163.47502543652288
-362.31431195553847
-251.03756290756195
-280.19344739110653
-768.423634056662
-202.69830291652445
87.83011457080997
-140.09569598553318
173.99630082624358
338.99977341721313
211.35894105082457
228.78350069453265
-95.15210269241722
-212.29123856710697
-16.886087806321616
8.660323381134807
-94.02198018584096
-332.40532482005693
-26.000540203328786
181.9745591984525
53.083882412372425
539.0628667545003
298.16274849231985
-310.2600445713885
112.56773675783002
34.95771453087388
-116.69831031686576
-55.2445516860701
104.06940655520977
138.3393429853136
34.50603606498512
134.52715938661166
366.50981617909736
438.4299729599181
210.37684374180483
-56.61247951516473
377.19777962707275
36.41198956400783
-272.20365936536086
-37.70088441890262
-85.382746202701
-156.6484885637857
-210.4848759441982
85.30770930734688
230.61826213316937
221.60054344825383
-237.8068109875942
-399.49836309009146
-38.64311232105074
115.8047480686467
-295.1934170731601
-14.54003501618692
525.321792697058
225.07340450039706
381.1861040807714
440.51764417976125
249.46295023434857
-186.80629642042842
-100.79044058511344
337.36202616350414
221.9372428779538
-65.67024746895765
-395.0344295866532
-477.59801032033386
-267.65531364818514
-219.66183552875998
-356.517256169423
344.1662247646351
75.17343951242077
-589.9757865470909
-257.57696478786175
-46.08083378415601
225.4352583189325
73.63365521505223
30.462853921521255
-314.7714627777174
-214.55258467977896
164.32417685717667
-331.41167614922045
-168.485226623795
-41.21818047364977
95.58148672943238
0.2837303377904048
120.84070174002659
-65.05071070361033
-242.56035581986387
56.02922550460152
100.87923283373524
147.07181199006976
-8.532191149888108
104.08326837013414
130.58421916155376
-150.50171641581557
-331.74942457525
80.8137168960121
589.4928510748673
266.1541674979168
68.7642031518307
-181.27672816622515
156.1759744063468
413.5718893497207
-260.5178175941967
-306.05245099764556
23.470674024702767
194.75867903419493
273.40554433210855
264.40058309843874
-289.8539853054864
-84.27956377897834
-166.10154146210107
-318.31650402135983
-154.652842292961
-321.8153386744714
-85.37184216825457
126.65503487542277
-331.336536899286
-175.89368263884302
382.43242424288167
-5.061100568446303
-148.18682303908417
-127.00949759022724
-352.41216121793985
-162.377956001516
-120.7812065839188
-235.40790831358498
-76.23593521592504
-104.52961435861637
450.98079314691915
218.43563160189478
-208.92744746308642
-23.531959379170992
144.27506483154698
109.2542880464559
-208.80429343897862
244.82521420139057
204.7021267113434
-134.95003718916368
169.15705688585064
-37.658043059272224
-32.5155310001018
-44.47140205103787
-272.75663317914325
86.2339630357444
170.68549878447317
167.56485044451858
-28.341411426123127
-141.0703429022581
-23.099528997173213
221.03853224072733
-5.066910543373923
-101.10490665335503
165.51439510335692
74.00373593485435
-203.95291557932984
-142.45314240927473
136.42243568263896
244.0377925788445
150.70946541561344
183.90475526336675
-29.45936776927441
-151.67088311977275
195.42105026341167
-24.50149727046394
-270.17384604142114
6.91363079005369
63.76458033704827
-87.44596911856878
-73.21533077162326
-135.01732082771235
439.958257274343
27.918869727433435
-291.68351354769976
177.6093964503224
-274.71137843631664
10.045321991302899
229.34991382488298
-103.59608075989088
-110.93503890799758
-188.46878185087849
-131.80864755325567
89.23093043132964
203.6000337588199
-164.08555161126887
-187.49545447854518
-182.4468345008366
73.69908730499064
211.52537133767146
136.9960507662726
128.07729654856232
17.18993493115192
445.6783250071428
379.2328723777639
5.0337623375166
-101.85596095377649
37.11615211586025
-305.60899821608376
-14.061392934480821
429.12701262325965
-584.5046336835878
-238.49146356740843
423.3725151419467
107.45657922738394
124.59238539631855
-190.74625818706892
124.41336860907175
-65.55032269813374
-416.50715981566293
225.78393553371205
99.07478027683395
76.56005930688266
235.31981440960826
-73.59907367612936
158.59585090967047
112.09536466530432
-404.87493672908215
3.484867242153101
-121.60642980366863
-195.15596031046607
339.9369061960399
-296.1290375237147
-99.68578710418662
330.57188547522236
23.689221224050986
-412.7295757361033
-253.61071254068793
69.64665545934335
441.4435069449499
305.97466390026307
-664.2960161015052
66.71155892517484
349.1879034230248
-55.87074925441324
-218.00073989261992
-156.10021310941025
50.06408530375802
139.9462592709677
353.0467090155699
116.12298773558533
-146.39897675979523
-17.41525317675103
298.1378877937903
-4.010776938703162
-175.14593213867605
152.09490056868398
36.20997675451181
-157.456941233583
-103.35023188361662
145.88335716109106
230.5754224736943
-113.86272587007645
-428.4789439216979
18.181575094207695
-381.4959894199822
9.864438786933363
31.829062992398047
-310.5060191619194
636.9706833017904
398.314010971132
-124.23541559618009
-251.8963183906755
340.66979826276975
693.7489948171635
113.46137889598488
122.73178998280706
28.790647160031888
184.82261235783403
448.9991335797171
224.5523668888935
204.6282275033926
-174.97776664215266
-91.0928204486475
-58.61222531555289
-27.795390376672163
366.5323717809109
231.9032786520882
141.07444585767428
90.23362296430639
-242.5951711341314
-108.49079187812997
-138.15140742069477
-61.790785006614605
131.7078633101353
26.539763031041044
-52.97274531645185
162.4968753520502
75.94770266002071
-236.9936883843452
-234.67632198960166
-262.4511032100364
263.91302096717334
178.55281558628354
-113.35094756940698
191.46580031392097
21.307248634435776
-162.22982782329294
-62.83118621892544
187.98677829667722
119.03568912376141
156.74766998350927
143.4991336300919
230.49698732191283
-95.90502406086041
-150.7818555213689
-74.03822316282816
-334.3711777078691
90.51274446706174
-149.47957663961105
-107.42426288774547
204.51954075561315
-145.0930956248811
120.52906651054519
-175.61599042668493
-518.2004925057121
234.855339240302
-69.8231284913943
-361.6316410423481
-461.59278238534046
-300.33727730184137
335.84212880685266
534.7132443011448
107.76479385470124
-0.2174698981529498
149.36885001366826
-204.41749540380022
-204.94308853511492
-133.5121293117917
267.0663863322028
-63.982494290531854
8.687776935801839
9.895844528481005
-598.5674379152929
-297.13003997174627
484.5511729131672
-71.04216121144454
365.99567788404977
1087.3729352040834
-93.34613903591541
-190.11571365866234
-32.88022915659251
-261.1032019688634
-106.72235039451964
-182.27302393391983
-8.444064633559396
90.60023453192552
-137.04591648584687
200.24154339150166
-46.038681653798726
276.18275365284893
186.75948073586673
-194.146189734255
-168.68854898552854
-52.99826795671059
93.88331297197617
-182.8934616677745
150.94263329130735
84.17450898652346
-216.809899691456
-312.66560078458286
-338.7585127742681
-63.631493236045166
-567.8315266065358
-263.0130867055103
132.1197475774662
-13.94159706850891
-59.204624394625014
374.0115169341372
252.87091554443313
-499.76001488233584
-185.43002864401478
286.5768101556263
198.65382292076538
-366.3672748970994
-2.479718187782477
75.82510838461158
209.92224356445425
100.4337695634466
172.81739918307036
23.339198819059003
-198.74620967363688
-7.115932342800263
-512.6698484761918
-151.5504463806639
437.79788251408104
416.3218018309746
435.84656303364284
-50.74301069799333
-177.86181011011004
-148.05183825647072
-219.22789098659848
-92.62733982244215
-279.4254728819524
72.94296404661154
-193.39467864058204
-221.16373220886805
65.49055632644055
54.39168825222579
319.0798913279888
-43.332040498786334
-358.80865348282714
92.32261217354332
269.23222280579176
337.2955411655096
249.99693454771716
-372.094135817704
-223.42519756243416
-83.36105219811823
-290.36733712099846
47.607380613658876
-254.3491071751542
-162.74319308317953
223.40501645425232
22.321025824751867
-298.731019657631
42.70626285380404
311.5499220513466
98.63136967899055
380.81460033747067
84.15513621439825
-108.74024870218112
376.16098188927884
-98.38963494687616
-329.8378287159355
-243.9156771873689
-16.207215096540352
94.63629049925203
-339.224372739968
-406.1348409015196
-46.948794198324876
96.31448608399027
236.15702162341685
300.5469857347002
-219.4840867527447
2.044071241494539
53.68681857625043
-566.6403325016266
146.83754095721474
88.11954875942185
-434.8726477529094
227.15329867599928
-227.74206614401896
-220.3496880372957
-63.826936716047534
187.35259455151237
416.5253153097815
99.85123724912863
378.7364793838064
241.77456370889345
-319.9959613889226
67.88461676321236
108.52999228393901
155.78897873108903
139.1322176969848
-337.3932409707173
-103.59477986001961
252.72762772719324
-45.20216496015644
-387.68641400404204
-143.5140408781656
-52.60673388241359
-38.613785659779275
272.32423298348124
69.28248844122201
-49.127930508005925
234.2788543353075
17.424328311844228
-287.0549882105514
-22.717113355777265
264.0101237323443
63.532645221728295
278.23936721836037
281.12366004952713
-100.48760066510765
122.28968493423294
-126.03566469781651
-289.71776995701913
218.87738535486793
280.3884375806202
42.531601187461305
-11.49267420948557
157.33866285593916
13.907313483476303
40.20942895409889
-187.77468826762774
-17.388473641944017
-107.70539155537202
-146.07286895447774
276.56861068178466
466.41881592369185
161.78322334647268
1.437005227907025
251.63248175227918
105.85116150586524
127.83644809309602
251.76922263322174
116.62364331511326
-156.60383931948124
-252.56281952505506
209.31380494911426
107.05142645727848
-224.65325115272435
188.17733519381864
-141.73024627241213
256.0315296139775
13.92244746429439
-151.29668453249272
96.11707149927898
-244.0225088546241
-16.242764463608175
52.86095275798388
342.60242647507147
296.3054371547631
197.23479813957903
182.36233177491627
-19.702400765631868
23.704587251014193
-337.47819953256385
-424.52970360596817
13.128205366592208
-20.498238903482726
-128.1602301558198
29.03205590592636
30.20025481090817
0.3539676938661064
94.49449233906283
301.41293574580357
-22.54940341777345
-154.16870564708387
367.7936406491737
138.35161056961624
-58.856191081246905
81.06887544512932
135.15639641280455
20.422455005695937
253.19635552768779
-27.415781076738796
-618.0141895903034
-203.94111172226548
494.71413772622515
184.7607914058095
-160.15674336237402
-122.53290031971886
-102.4164411212967
15.752378869813976
-185.1277625480246
-535.7778931710623
134.2859700361746
-265.4988476620387
-396.0015797877201
255.19002922681412
138.87396967975263
575.915112369132
348.03026503138165
454.2390804628637
66.70886671857471
-425.97519384273664
-66.03512887058817
-330.23189580292546
-142.305920251727
411.1382662381498
-170.52709877820362
-274.34466645360203
-236.0764989265661
-415.2889111367501
-515.7579664354815
-523.9613435164587
-193.3953651562307
-85.60072883314837
-200.34018886079204
191.9015847647549
355.7397425152198
-227.43555209128985
54.2713730720577
-219.96970846784325
-459.01069958019366
247.11640916476495
168.97679067074282
-138.29943277973535
19.6544900107687
656.5629037225322
-222.02721992157913
-285.3308654707541
254.2634797481609
143.93604845958484
-161.40186788693276
-84.44739064284823
582.691222938335
-97.212819699164
-285.394682702206
391.1652082888389
370.73808216085513
23.879247040120415
491.6567066935483
433.68768635063503
-34.556172606702724
-104.79022961214828
-208.93784822514337
-241.91959830045727
-186.42369439411473
-57.786355147394076
-17.580383748978644
-323.19914293277594
-100.00074184389324
94.87876114593855
-230.27774701597065
-175.9485261525346
-221.90736843627803
-368.3624315795387
234.5710444827572
259.04761115771856
-57.45603978147317
-115.25089174459185
146.6808747964315
44.22213554520681
-10.449586960202312
155.09504086995165
-467.7843681018015
-423.57987618828344
-155.44478069352832
-236.43170490262253
-90.17129043889216
