AAD_Filtered_TADAS_FILE
AAD_BASELINE_CORRECTION: BASELINE REMOVED
AAD_FILTER_TYPE: BUTTERWORTH
AAD_FILTER_ORDER: 1
AAD_LOW_CUT_FREQUENCY_HZ: 0.025
AAD_HIGH_CUT_FREQUENCY_HZ: 40.0
EVENT_NAME: 202302060117
EVENT_ID: 13194
EVENT_DATE_YYYYMMDD: 2023/02/06
EVENT_TIME_HHMMSS: 01:17:32.00000
EVENT_LATITUDE_DEGREE: 37.288
EVENT_LONGITUDE_DEGREE: 37.043
EVENT_DEPTH_KM: 8.6
HYPOCENTER_REFERENCE: AFAD
MAGNITUDE_W: 7.7
MAGNITUDE_W_REFERENCE: AFAD
MAGNITUDE_L: 
MAGNITUDE_L_REFERENCE: 
FOCAL_MECHANISM: 
NETWORK: TK
STATION_CODE: 3117
STATION_NAME: 
STATION_LATITUDE_DEGREE: 36.55712
STATION_LONGITUDE_DEGREE: 36.17471
STATION_ELEVATION_M: 193.0
LOCATION: Kahramanmaras_Pazarck_Turkiye
SENSOR_DEPTH_M: 
VS30_M/S: 597
SITE_CLASSIFICATION_EC8: B
MORPHOLOGIC_CLASSIFICATION: 
EPICENTRAL_DISTANCE_KM: 112.08
EARTHQUAKE_BACKAZIMUTH_DEGREE: 
DATE_TIME_FIRST_SAMPLE_YYYYMMDD_HHMMSS: 2023/02/06 01:17:31.3679700
DATE_TIME_FIRST_SAMPLE_PRECISION: millisecond
SAMPLING_INTERVAL_S: 0.01
NDATA: 12501
DURATION_S: 
STREAM: HNZ
UNITS: cm/s^2
INSTRUMENT: sensor = CMG-5T/GURALP | digitizer = 
INSTRUMENT_ANALOG/DIGITAL: 
INSTRUMENTAL_FREQUENCY_HZ: 
INSTRUMENTAL_DAMPING: 
FULL_SCALE_G: 
N_BIT_DIGITAL_CONVERTER: 
PGA_CM/S^2: 1111.024
TIME_PGA_S: 
BASELINE_CORRECTION: BASELINE REMOVED
FILTER_TYPE: BUTTERWORTH
FILTER_ORDER: 
LOW_CUT_FREQUENCY_HZ: 
HIGH_CUT_FREQUENCY_HZ: 
LATE/NORMAL_TRIGGERED: 
DATABASE_VERSION: 
HEADER_FORMAT: DYNA 1.2
DATA_TYPE: Acceleration
PROCESSING: Automatic Paolucci et al., 2011
DATA_TIMESTAMP_YYYYMMDD_HHMMSS: 
DATA_LICENSE: U (unknown license)
DATA_CITATION: Turkish Accelerometric Archive v 1.0 - Disaster And Emergency Management Presidency, Earthquake Department
DATA_CREATOR: AFAD
ORIGINAL_DATA_MEDIATOR_CITATION: : AFAD - Disaster And Emergency Management Presidency
ORIGINAL_DATA_MEDIATOR: AFAD PROCESS SERVICE
ORIGINAL_DATA_CREATOR_CITATION: AFAD PROCESS SERVICE
ORIGINAL_DATA_CREATOR: network: TK
USER1: GuestUser
USER2: 
USER3: 
USER4: 
[...]
-35.258180599394095
-54.30959676536837
106.39960325238785
-2.0089803239329918
-23.43375310736832
289.20931472112454
234.94011225153167
334.81148373697806
231.45898158816888
198.3457143417431
497.4996728191554
84.82872805201698
-69.2641540019678
300.44427373119953
-118.4042271337629
-260.5279974153223
-33.75231070462364
-169.99268108947473
180.75962288690303
216.79413273178423
-262.9447251644227
-23.968645125666303
340.5757851169415
-304.749071427595
123.52038335272823
87.75266565298938
-180.9665364686931
-119.76974085267551
-269.7019571257593
-45.497198192389355
-126.66175416474006
107.12977856666659
-299.59091959987205
-641.7995457438543
-494.53011172764303
-104.69045336044697
200.23842715469632
-141.1996877872816
-46.574756535010835
354.97831436023307
86.25261370474698
211.54211936652655
118.76206933110015
-125.62092088324387
114.33585595559191
-29.11898745602139
207.8620706301643
326.64109847473213
31.922318296986408
-456.757529826718
-150.87937072862013
246.3610244950971
133.48513384708713
195.24813739583325
-149.67418789352894
12.078469707951024
-48.81176712121419
343.3195671580607
161.62165406943612
25.06883564923758
349.8785504332141
-369.59202190001315
-315.00786597338026
-137.80675541942844
53.07123333414336
283.8465851400422
-144.63332385318816
12.801788147779385
27.582057873245123
-119.99482421118655
-262.2862680246904
-421.2049758473469
-47.210245720568096
-353.3244227471726
-302.5807314933704
-131.19143102431153
-62.39777529382268
-195.88651769186433
-7.9447837460802315
-131.00082506137346
-273.2018853763747
263.70881622464844
348.364184708999
123.50081229220466
-313.06452989737045
-280.48460492022446
-0.4463000803602151
81.74199498398879
438.2533443141073
257.2596824491622
-30.53604832424666
121.53488573986682
80.9090034779464
65.51783634744187
25.82408363413599
-36.938048972523724
3.1625629887559246
49.35094130787388
-135.39555254714648
57.24218064576511
-183.97340107814705
-77.62220093154792
-11.131139547465535
-96.51730323396039
-305.62821933920384
-330.58806682078637
-79.12360612405261
-107.1019471126006
22.364670079070926
-234.79147666188547
-206.95464979627428
-87.35389707830838
359.4356121483804
380.03257860577065
189.64083153585156
412.80302592105187
-165.6297556727572
-355.8142879388564
114.30390291523948
216.6098081702945
33.60690436368195
-406.27393591697427
-328.7571053987427
-302.6919252922186
65.20800002740052
17.014516808362337
-250.19825909971635
88.07032040725765
-129.4963844038046
-185.4952073597235
-299.4687113649059
326.34356441058975
225.86619399881164
-274.94462611910217
-126.95792376647698
-486.325339788414
-152.27186922022972
64.96107623518823
-235.82784280901396
134.41123340958606
83.80352780497203
-481.8772923696624
-87.46306748552156
270.13579631051937
-63.32060558715958
-185.7641402304536
-121.81774284047003
146.15082471571904
240.97895961191875
102.81455015228032
-58.62111051483755
-102.32256452082629
144.62066733708113
43.31017490848852
-104.91015217279208
8.272638163142286
104.71709090582956
-54.613662562005565
179.81991733212033
101.65318751651564
-217.54260814221848
-158.47811905065345
113.52128210215842
-68.80801362510974
-68.66169897892105
-388.19227255929496
-248.88953497377864
544.4522885346877
305.227390089561
-268.3951616275362
-194.91338631513622
114.36752372939857
-0.4105278658347159
411.2526110018995
423.5953669672555
149.57618092316284
-41.15018312783128
-80.71351020760687
17.05376768476745
108.102760331511
-86.03673701600442
-13.576319080816639
417.786364454207
355.71232880553265
-128.18873005938616
-222.59345908942697
-106.93233597367836
-388.2224630812822
-100.70857334171468
-192.65125468539597
189.231944854057
369.79150385988453
-138.25530022857996
-200.82624789206216
-574.8718992107835
-457.2956155952083
-55.162627712724465
283.16330762438076
22.093453597366917
104.93424867123525
-213.28527645958204
-37.77501412066699
289.59890764335523
-214.65346301165087
-192.9865806096397
-14.884313770426068
234.94941493263113
-209.05226792041793
-160.29067063691573
-123.45977836347339
-217.04671939419683
38.66100011662717
-16.74374768722946
43.69470775248076
-29.35347074269933
-191.35314293956267
11.238205892599595
15.092563897557703
-114.28983115008283
447.91291563187383
339.40304937433933
-196.07221924616644
-418.62478061028094
-130.24911330033487
-169.93683022897113
-333.1608659160636
-33.67971330269586
-434.743243450045
-550.6102542904032
-514.0831885877311
-218.28920143620238
121.77058204080079
-77.99333292588402
195.9993438323547
529.0093196283278
126.11758317990628
189.1404259268685
129.12738961898643
71.00185223821224
-45.60405696681456
-160.57285522102808
88.58689111976469
-39.64071726071862
-127.0826899407754
127.62753877535118
260.339477907949
-102.93053835920047
-395.36505240939516
-158.77339392248487
24.883805183326004
-103.36668962711174
134.91312780970705
-249.08692542677045
-448.11834880978057
28.381932741091404
74.17512790867553
100.33509952991433
434.0907150140998
529.9101789617768
227.61627111668972
-113.12307480894235
-23.60599740012891
350.04641315713167
-48.60883706412357
-320.22393966846283
263.6335092142128
41.80879995222196
-176.59139391238654
-122.97323148879178
321.41424217557125
397.78417800132195
-200.15199409236573
38.596946539676225
37.7654306267766
-248.26702834709488
131.31955173709903
-213.36829300342714
-410.6836380041413
96.8419221155537
47.31860598013962
-96.47060503497009
-194.32862256381918
-14.52982804719259
-78.37785358164427
106.19022716974419
-38.886403988521245
-303.61011713656285
-165.21882473957766
63.645853537876945
144.9672771483901
-282.34663413578056
-290.23403062157576
88.3686326524636
278.85515912293704
162.46942116892825
-15.501360732977973
-64.51938355028587
-236.43730302770075
-218.4926267620395
-339.14382661626706
21.4459396373264
-40.60688743355235
-243.60871179179375
-375.81292540200167
-403.7379532690694
69.39081286375615
-23.706273700304024
-340.1084465040585
127.63572353804082
453.44328780702284
167.7501293684003
24.656536766159693
-94.44978975710215
4.10819593209541
-345.384108169611
41.46015875362637
307.5717524127536
-0.07553575646770072
116.47671244346054
-177.85419095216602
3.7743212059112605
255.01423907256896
-214.9983489107292
193.13826118458303
224.2694069277882
-181.29422022892228
67.49057036253106
-5.4485394511179415
-227.1325705364034
102.43886638552372
107.93554197773973
42.32502629679111
369.95819468738193
-197.52426234580494
-511.81972227928725
-120.83012131432977
212.83064053507022
350.43790541776235
-9.200954424705191
-216.1456021805694
-83.63212464942421
-171.59371637087193
138.10935945765226
43.59449563088667
-268.32464110228995
97.77808542652404
-255.67130924804314
-376.0226020374503
193.78128395107368
112.40162458212879
-161.10178581512545
-76.48202430669787
36.446238155338214
215.41468780552816
-72.58801055966724
-327.3838853554121
-113.51371570175313
-100.00889418706912
-3.1788266337012208
-412.55458313383474
61.18407808265308
331.5834715593507
-404.47051783517367
229.41492952701762
103.89640549134012
-38.00237777682314
169.0834903881615
33.199700859193
-78.22090028627127
281.5176228882535
243.66620781929976
42.12286449915314
348.83018525361285
6.459166156008485
-283.52627161285073
-205.22847294184373
16.10804925288012
-134.19358568116317
136.99309604051518
28.320146899110686
-163.3105629071988
-95.88074021853355
-129.668743621721
465.5015192417432
396.4704212112549
323.7325524484347
302.60793807545963
50.82194565293425
-110.91780017883315
-249.2859824714254
-37.11068158904218
219.3418563478388
-57.56857210439919
-297.86652608589173
281.4944615433035
636.1783435234936
107.97724908167953
-45.27107228578868
-137.3622692918593
36.52720848376532
13.461681695511595
14.637402961642055
498.0003194524242
48.65191763014495
26.12765791640165
-195.3605838715649
113.33140361165975
-59.873884701548235
-568.8767859769423
-157.5590600435159
-71.73597250445465
202.32418625976467
241.65206254257984
125.50460732641585
-266.15680628906085
-255.29555360586886
-58.06070660751937
-394.69595128487
-48.20255508085389
-131.8359086835347
-226.1434942504273
-159.2091499599989
-82.26982462859165
-13.028797340223177
-269.64134460181555
283.3993487236193
293.14567130451655
-65.186560575936
34.43309443419023
-134.9694198745699
439.35729880755366
171.4459085135843
-62.58470438631637
38.67372481138797
20.255191378221475
8.612122004720876
-86.7236555712773
50.122162296232446
-183.16640891629064
180.0338055903769
128.4681099162634
-48.86372025631267
126.26909786979557
76.89934933256555
83.38857236101458
-76.34034669738229
-127.4553960055311
266.01554418046686
-310.64481120413734
-375.4124760762006
239.78059904613326
-27.797846977816675
-151.3152903068469
322.8910887005235
243.48514081385113
200.7819336949891
114.01406213687609
-112.89346325904471
303.8692094572876
190.9491662361478
-23.367277702637224
-202.88252558117034
73.89617356958188
-50.097365601089734
96.8022058662564
-10.877722010624991
-765.89092901418
-230.67877332346504
-211.43342447905644
-71.15692459138839
286.16741837841033
324.74803977415155
-62.20341101825077
16.96708975528729
237.25645888497502
-59.614551816991735
-186.77504709136906
-32.09439193758318
367.3588444486398
168.88127858994505
199.35544646545267
349.04426263393304
240.49194658102056
303.1496627872074
70.5742865363584
-226.40869675635278
-362.23850195074914
-182.96801108131186
-64.69721940143785
-397.27513794102555
27.154239036950933
249.12366439096544
117.38327130359926
133.330738166531
28.024809100627095
66.70730458090313
113.50495574465863
540.2069710334662
-15.705673349783403
-460.21237416718344
177.5246301513204
209.3064374968366
-355.20927424141524
-247.50900369984393
-18.942136454654296
53.62709234005443
-113.1958367387785
-403.5912005519656
-32.228275548318514
-170.54444320785979
323.6742183892984
176.27528415513638
-32.67859258837465
-65.5632207248433
-89.81889535565523
326.85756847299353
-168.14388322468957
-173.05625789994963
-51.80799501993556
172.83438617339843
81.69966721583118
-119.9901069168411
286.3544677534833
160.08129192546997
-149.70655784053554
85.05743355068957
-487.7388965413943
-392.54175935191944
15.619642753439884
278.2239890823957
297.9417030640117
-308.9500329974021
28.778736649098796
267.9212278441983
392.43669966669404
113.30486304620472
-293.3360978777601
-65.29576619764073
186.88931521579104
-80.32478547806915
-439.90768195635366
-458.82941766437614
179.2059409251199
49.84809470555646
121.0088134440994
204.76605493380416
-258.13979612187603
-122.29952407052045
-296.0267467189214
290.6720624528651
345.96947965171483
-80.21372820044915
134.2077976315569
-106.82946470207861
51.19704376053023
116.58037586234951
-208.89732399251093
-296.5291910534943
-430.7045044781384
-82.54483787728924
-121.13953897938691
-491.273534857399
47.23740888744366
441.56556000188255
-540.8459396275204
-456.73025972386125
324.0482134946719
81.34383097002808
-270.3963038773223
-252.66588727265926
-181.2496371161447
-25.43334237542239
221.51658078098455
47.87506911033145
-156.0137441243026
-243.28615453833453
-36.285956055226514
220.5935731013329
210.66550498031484
200.87433527130722
-171.99629848118258
-647.3565387406998
-139.17825765571857
-44.7022271304518
238.09205281998143
368.2836830154061
-114.72830744719927
306.80265112690705
410.57375203040095
19.906317704379294
-218.69352861467806
-20.049867144087184
59.785616473389936
-55.95720790283642
160.85776627916772
-200.06677976870563
-273.83883515135534
-134.44896275504217
-323.85052740440295
51.88270059522621
-89.1035064802013
91.23973331701117
442.6269680746579
149.12376280689475
-132.9970024916397
-387.6706462746154
187.9628920188961
488.0424642209473
158.0837250896147
70.56555886369033
115.50278859792819
181.5312944162553
250.92639337955677
442.44819794860155
92.25536467857542
-164.36264631136652
-76.46931503490008
-126.55257469459455
467.9360347662809
48.62855602918731
-265.90143395361224
-79.58652354879347
-149.65784227044568
150.03932462375008
124.15337909185617
62.48901463054728
314.1828300788982
277.2767828970432
250.94565723002546
496.40738512258514
6.086473774253354
-46.091528458136345
-27.458638470855416
108.5397939285962
-66.74929121680776
-213.570063189327
-139.06259009759458
-318.9176848822126
40.63657709435552
-78.00451272542709
-178.71864369287584
254.8670804520015
-86.52858904982237
-147.2433009822303
-86.55208473628466
178.430224817978
249.65702347758068
-418.46276978483405
72.18207771163486
84.52488977521618
-216.7717576189164
-324.2990927562547
106.56307428843671
217.5977088663975
145.53538565453303
244.77924760756008
-129.73666662673205
-38.40157666477336
-416.77697475563576
-363.1244126115505
294.3573334305433
272.63751433520946
-6.324248895920153
-390.89474279281893
-927.4780422347136
-690.1359949844074
-101.62190826636981
-341.25354129611696
-132.2722206053464
316.1540858732207
314.35124104743613
286.86374051972183
172.14033181659468
-49.239130726174196
-182.95209483097358
275.02355952991763
120.89648237758
45.57591640636259
-71.46688698325313
-165.98996197527836
36.710804635581624
343.6932332320931
466.4888619317033
-67.812328590868
-231.3594094479278
-355.21992303909104
67.71816724969618
18.898331714204
-33.38057526513384
371.17324441583673
-93.78190537726209
-556.2101724295948
-22.476213669127514
305.92459376404173
-45.571913619520295
-309.28777634763685
-97.47549285910777
181.85465348720865
-57.17820605805635
-408.93865559385455
-363.3232937603246
46.09146401484221
318.88058028325486
-133.68818519462764
-153.5536699642903
202.92105108687562
-105.66907834757531
-40.50350933937356
12.238546837111464
-271.42098739025425
-207.0876963798043
301.4603084689513
56.971927518378706
-122.43219556507142
256.40170499376916
353.4870523636304
-78.70313570731533
260.8223098091869
377.6510130684716
-381.7380304014262
-120.58578149497478
75.68009958258467
10.769797390443527
-342.9940576323823
-166.62098170427643
143.00473777923767
126.59746407852845
-140.50209168570916
-361.4786550371445
237.6814484207533
191.82008899041463
167.04050784450598
375.7583234310237
300.46510526093084
378.6142451517578
-55.94719062070394
-352.9369560250589
-103.78725358710632
257.9272231694064
78.12710078473658
22.4116463049528
241.66803232532368
52.52048285597864
-175.08228863977192
-147.93656001436324
180.18542621620531
-2.54468963395181
-31.498362608110845
-111.57669181830018
16.028510551160263
-70.19401839152668
-345.2305737278643
16.554260461258306
66.09948559879773
130.86164369117128
272.82008974485984
216.77990450231619
331.1080357429292
225.76282179938013
130.5321208365591
-404.31177471376475
-656.8615820211025
-157.15430917650053
229.11929789168803
178.3889069265227
160.67655409695823
243.4489716286259
169.65003912783908
173.99411859374166
19.70172277496958
-219.0978201509393
131.28742291703676
-339.0721678077257
-317.9445948734862
419.4308469798346
216.34273987984204
45.07663649758166
-2.2664789578161106
414.9551223144274
353.97595497009695
141.66691051047627
285.91687737006487
-91.18235889835225
-302.0876166458611
226.92509073868857
-272.66786993724804
-340.27622313871393
-127.09843484383677
6.893814514675442
180.75304260753552
37.19356808613519
533.0078998169108
258.0451819355884
363.3093271567198
167.14236057701441
-99.00878466772005
105.48551716463089
-282.2067280085328
75.1381796588419
-8.429183598217215
242.35520310572437
-97.36651413582128
-124.47008981791976
504.47567078709017
133.77195811166075
33.769259574213024
288.9846350639277
494.88969870444345
369.19577773336124
383.0546341363663
-39.26408633914731
-104.44164791669758
107.21190233913958
-348.30616764317597
-150.07375766311122
-258.36213815729246
-159.6950331298634
-28.155978395099588
-340.79194846647744
115.60744894872262
357.88916636943964
543.7939987773125
398.10402477540435
319.8259815798541
123.27026115380689
-270.1278366885454
-208.21294925329582
-190.27193956606467
15.746070388742666
-133.89687081560146
-260.36487003312214
-5.850123239986999
-93.42318151818493
25.549227779550485
-85.4222707697135
-227.94546095305617
-261.26870869901774
-114.13304643617026
-57.853733821897514
-107.88230850063943
-210.97513537035638
-88.91627436771599
110.13631285588599
-186.4501424469147
-177.4878877375524
-253.17050022092627
-79.99336064827284
270.7770526507734
230.08094472765117
231.1477433282079
218.1898703473513
424.4455277855035
322.9226353616782
429.58048774427226
209.5684516417177
-307.23733849864783
176.01357292001882
264.96304873346617
127.97174339547502
-12.365465906471641
-16.66729710058121
-44.87185956409632
148.87315409739043
9.611344638045487
-50.82053823500026
40.452902200423416
-187.32130620575205
-88.47270132904657
-104.87917712794332
218.86857216108933
-61.06346083744913
-530.0161769057862
-153.59584812792056
107.85732728644533
-131.46150850300947
-308.13945441119034
-69.37725765043965
301.8035739305656
111.0682122627215
91.13345104543258
63.73485303257102
18.03480926592504
53.770987934185555
-111.3873098024425
104.67485647668538
19.48590531281762
145.1694459982538
486.4985724131978
128.49977174063102
-353.09510329836365
-469.2961666673999
-86.60191285608798
-43.621178176533505
-338.80490938352193
374.13890394251524
225.88007842916952
115.81616087960505
42.261809103708124
-295.0822389271065
315.0314292525004
-39.751300689002974
-270.134181656345
84.70724813462554
-183.17485096282223
142.32292349413984
281.9163107496392
-198.29730437559914
-182.60918668068254
-166.7919504001104
-129.89459228338563
-68.1321586873398
-21.922461331951133
15.563623681203495
-329.7134616591912
-133.94596652089422
237.7361750501033
14.427323735060837
233.5888463286017
34.42987378144717
-26.782914256253626
50.58891487623851
-142.74446051415327
-70.76889274110275
50.02981214713689
16.169611506061845
310.65233176032854
295.08447904993136
-317.542282891762
170.24296230119427
-55.56013990493732
-295.6191153430505
555.5800200564192
-3.8923365438845554
-462.4803368814582
280.65554283814134
-10.755562819531386
-166.9744542752558
324.90979645298466
159.37868470217302
93.7277256728622
-110.42251377748698
-104.14122264127613
-197.9978248250025
-356.4351681658717
-407.86926196851397
-92.46276616696579
-85.97081123881918
80.67472604897371
341.454344294042
-248.59598747415075
