AAD_Filtered_TADAS_FILE
AAD_BASELINE_CORRECTION: BASELINE REMOVED
AAD_FILTER_TYPE: BUTTERWORTH
AAD_FILTER_ORDER: 1
AAD_LOW_CUT_FREQUENCY_HZ: 0.025
AAD_HIGH_CUT_FREQUENCY_HZ: 40.0
EVENT_NAME: 202302060117
EVENT_ID: 13194
EVENT_DATE_YYYYMMDD: 2023/02/06
EVENT_TIME_HHMMSS: 01:17:32.00000
EVENT_LATITUDE_DEGREE: 37.288
EVENT_LONGITUDE_DEGREE: 37.043
EVENT_DEPTH_KM: 8.6
HYPOCENTER_REFERENCE: AFAD
MAGNITUDE_W: 7.7
MAGNITUDE_W_REFERENCE: AFAD
MAGNITUDE_L: 
MAGNITUDE_L_REFERENCE: 
FOCAL_MECHANISM: 
NETWORK: TK
STATION_CODE: 0143
STATION_NAME: 
STATION_LATITUDE_DEGREE: 37.621415
STATION_LONGITUDE_DEGREE: 35.611477
STATION_ELEVATION_M: 449.0
LOCATION: Kahramanmaras_Pazarck_Turkiye
SENSOR_DEPTH_M: 
VS30_M/S: None
SITE_CLASSIFICATION_EC8: unknown
MORPHOLOGIC_CLASSIFICATION: 
EPICENTRAL_DISTANCE_KM: 131.69
EARTHQUAKE_BACKAZIMUTH_DEGREE: 
DATE_TIME_FIRST_SAMPLE_YYYYMMDD_HHMMSS: 2023/02/06 01:17:34.7371460
DATE_TIME_FIRST_SAMPLE_PRECISION: millisecond
SAMPLING_INTERVAL_S: 0.01
NDATA: 12501
DURATION_S: 
STREAM: HNE
UNITS: cm/s^2
INSTRUMENT: sensor = ACEBOX/SARA | digitizer = 
INSTRUMENT_ANALOG/DIGITAL: 
INSTRUMENTAL_FREQUENCY_HZ: 
INSTRUMENTAL_DAMPING: 
FULL_SCALE_G: 
N_BIT_DIGITAL_CONVERTER: 
PGA_CM/S^2: 17.733
TIME_PGA_S: 
BASELINE_CORRECTION: BASELINE REMOVED
FILTER_TYPE: BUTTERWORTH
FILTER_ORDER: 
LOW_CUT_FREQUENCY_HZ: 
HIGH_CUT_FREQUENCY_HZ: 
LATE/NORMAL_TRIGGERED: 
DATABASE_VERSION: 
HEADER_FORMAT: DYNA 1.2
DATA_TYPE: Acceleration
PROCESSING: Automatic Paolucci et al., 2011
DATA_TIMESTAMP_YYYYMMDD_HHMMSS: 
DATA_LICENSE: U (unknown license)
DATA_CITATION: Turkish Accelerometric Archive v 1.0 - Disaster And Emergency Management Presidency, Earthquake Department
DATA_CREATOR: AFAD
ORIGINAL_DATA_MEDIATOR_CITATION: : AFAD - Disaster And Emergency Management Presidency
ORIGINAL_DATA_MEDIATOR: AFAD PROCESS SERVICE
ORIGINAL_DATA_CREATOR_CITATION: AFAD PROCESS SERVICE
ORIGINAL_DATA_CREATOR: network: TK
USER1: GuestUser
USER2: 
USER3: 
USER4: 
[...]
-4.731365981258254
-4.0346326017769485
-2.7755123865718683
-1.5755927801446925
-0.8659866742406822
-0.45962411515246654
0.06154216383532535
0.7735023189328151
1.4482938446954043
1.7741179277153893
1.4892480201164284
0.6642151146237932
-0.1478060341719233
-0.5157192912105609
-0.49386414128289385
-0.12818569447522535
0.5264508052649045
1.0682125356929355
1.0566393454742535
0.33259964723064156
-0.8576453297060104
-2.1016022707421755
-3.167694269361136
-3.880669956657122
-4.274586178965282
-4.447327410717232
-4.231488451190035
-3.5346613514920064
-2.4125601234922476
-1.0408352453063963
0.43576407488977503
1.9375328473459175
3.0803025919546125
3.6926062767291437
4.045240561142516
4.248171491019919
4.127504043575024
3.333336142523936
1.787736414156698
-0.18467048860386864
-2.1979342131814175
-3.8176157558463664
-4.868797045158818
-5.576152932744501
-6.152307123930799
-6.473396612216576
-6.21046796553537
-5.389350716587293
-4.148832093783997
-2.303291911684277
0.15760064241247768
2.960675369190776
5.713590795169102
7.8873241668602985
8.991871425169267
8.786418325266084
7.700377591045461
6.328124721864697
4.643176178932467
2.6604477130334145
0.7405635593527433
-0.771154605457167
-1.7268065070893461
-2.4891321920456067
-3.498387415462865
-4.587589581367355
-5.25952384245408
-5.4250397027582
-5.396250115093931
-5.267069292885147
-5.015723322216885
-4.740159308766665
-4.521298178515233
-4.393683137907183
-4.091412620777674
-3.240657544647048
-1.84131270533887
-0.2699954263026286
0.8694432743735412
1.4012133277532928
1.645577998755606
1.7214475896509909
1.6925455149461441
1.5002637405744716
0.8293321805408788
-0.22862223291220118
-1.1489755775047141
-1.5696413831312512
-1.6935730083303595
-2.0294790815462775
-2.7212872259505727
-3.400640663292986
-3.4535752869391705
-2.697385659292145
-1.5998740497626402
-0.6189339278988963
0.09360463564755284
0.7000579434820419
1.3978170978156546
2.0256238240777993
2.2579374779516788
2.003955570465166
1.7003800009251484
1.7108927448492912
1.695325104257672
1.3930937540197081
0.9349248165111699
0.5361557947126778
0.486915424146225
0.849391943727432
1.63983242808671
2.969051104973969
4.633050606175057
6.212970985757708
7.264599155053914
7.426443592479914
6.620102553529505
5.2065739624803715
3.909604607088963
3.1346733645787466
2.833229434150792
2.8554914569629397
2.9169404969950308
2.822882469578779
2.607094041620056
2.4933989667026313
2.6541185614927985
2.897632194237016
3.1194508648038277
3.3717034772293983
3.5560352922399328
3.67095539039994
3.7089213261831095
3.5963595290440376
3.5313409865791408
3.820384341555178
4.455257451065294
5.186447973743394
5.996890958918833
6.973727282578189
7.903485237408044
8.45555778280595
8.219316741052987
6.845374143284213
4.507403719659365
1.8393909461784619
-0.45871630284393894
-2.0593449605653773
-3.046084824271978
-3.6088952328811534
-3.92287076527109
-4.098654364597286
-4.431588431499954
-5.150075090672982
-5.942363982248893
-6.611126341142712
-7.118396484630898
-7.168911106039652
-6.68765241940899
-5.693044872419163
-4.063898043825443
-1.9227744796128259
0.29749446126481255
2.0925803392549986
3.3439908231887094
4.2067351082286715
4.526725478468969
4.1838072232892785
3.446450700041696
2.566319484100467
1.4161240995401296
-0.2992144711198242
-2.427240018032205
-4.320251774499694
-5.380607526131509
-5.695534587837516
-5.8020898829998035
-5.827960235876718
-5.556216269436166
-4.6116944189253894
-2.887338992843203
-1.0252598931387928
0.48673968922603655
1.7587699030268262
3.010681485643158
4.325935930998882
5.38630989154955
5.815675319897038
5.770476381505285
5.780320108716742
6.127184974240636
6.500405784530232
6.585650520839644
6.326721128530537
5.483203587301785
3.859381096311109
1.5337063028980444
-1.1959377754872114
-3.9905420992342036
-6.756421082647495
-9.196881936047935
-10.909320665551368
-12.064579097754928
-12.822044158601935
-12.630231456499676
-10.704418588503234
-7.058404886459398
-2.598312345673429
1.6736997049286242
4.874755451810624
6.67727288836528
7.592735211380724
8.078749052699079
8.097426552262611
7.621176574074957
6.983331784185669
6.484723777759059
5.9447062551601775
5.085798239482018
3.9636308020394635
2.835159868216387
1.960335021969413
1.5147905536134976
1.5644346708034835
1.8985835249007108
2.212993582569693
2.470919606935466
2.5952494082674935
2.541925994117017
2.6182209099945117
3.1017317293053557
3.875895203126956
4.433757042084288
4.305150343174549
3.4068523236687223
2.0156088805503334
0.6043014842808491
-0.564207525291487
-1.2067581837447778
-0.7644456579987666
0.8698917482498469
3.2077676584963135
5.695141453967424
7.869581004404991
9.305871000732987
9.762794731631326
9.384915782970573
8.353928186479811
6.795535329132102
4.987938965891561
3.0470137102658685
1.0238363047226997
-0.9477800794017693
-2.944823182140229
-5.038474853358945
-6.903099963427006
-7.926448190832126
-7.839395104140646
-6.87683506319604
-5.319756115850985
-3.606499582887567
-2.2049168751323704
-1.0948431366135705
0.020470874701388666
1.3981700735702032
3.0855020920887917
4.816113006266185
6.140764366970712
6.6661946765764055
6.391665504670292
5.531768171537224
4.185969139151951
2.380490872924716
0.13888539896841048
-2.0660746216335366
-3.462319465501731
-3.8934869025019156
-3.5341386796484446
-2.358216735450559
-0.4826587867988192
1.6399977751958152
3.3021976833504048
3.926690395521819
3.397720618372975
2.047226141779288
0.4613482303232562
-0.9797314870532157
-2.0175418228122726
-2.2764281740755425
-1.6494839053337371
-0.6114660900891434
0.17995315748790047
0.7161096998716241
1.3596441065287475
2.2821049185526183
3.5742309545424154
4.841952633479703
5.584928387364144
5.866097477325103
5.7624720430464675
5.312864229944409
4.70591397463708
4.077431176968455
3.5682543408269405
3.127462903344579
2.4912306797697377
1.6390014991343411
0.9885713158809813
1.0835208476386755
1.864321135047197
2.4542604526619276
1.9408854782002452
0.07803760537348489
-2.7905852849694788
-6.083681165946299
-9.062999259008501
-11.176248778912445
-12.480620967911527
-12.97892759009986
-12.267464845295882
-10.197827000858428
-7.027869576767828
-3.3663741213620906
-0.0007310318151658548
2.532546826381526
4.097206100023993
4.879280569105082
5.219831510208167
5.518706276243819
5.803502919247774
5.772599594585222
5.581893787089074
5.50588200743074
5.383363404539619
5.021324237478346
4.45888297353832
4.039364889210141
4.2235637390096805
5.294174980625384
7.103044438860094
8.684735417978825
9.194925041218063
8.93714179787969
8.359837997590532
7.312780172201024
5.728171917328987
3.811231775983989
1.6001691396426427
-0.8916548625695216
-3.5021358859622107
-5.977489651706642
-7.845050153189747
-8.828522066089391
-9.232216218170988
-9.408160134149263
-9.303962778617983
-8.671478162132715
-7.684175944244465
-6.83521308260309
-6.017899883266213
-4.732338253753333
-2.8778119569131295
-0.7825159286113574
1.0240160122775679
2.1280642054478487
2.628471091621021
3.0810917648746963
3.9256805566096955
5.075755130693667
5.9857520777976
6.051950312545399
5.188172730382437
3.9003583288417834
2.494590278395723
0.8345389497917988
-1.0068661374577508
-2.603550946083652
-3.7319059619641184
-4.739531074367988
-5.959054401828483
-7.169680758318836
-7.852925130469535
-7.532523628897499
-6.222921675560376
-4.441806913373113
-2.642468611424539
-1.092789903410075
0.08411565007807277
0.9221139491144524
1.2397259295260312
0.688727486951041
-0.7263200875765061
-2.572936030134797
-4.241380777322329
-5.395138650308977
-6.033034634930227
-6.125675839675506
-5.644687023513493
-4.711312657950609
-3.5603474990973507
-2.2510139528379347
-0.9720632894945608
-0.29173195797348017
-0.21606858726077965
-0.4062135077722357
-0.8719728873423719
-1.402615844246816
-1.5006408670656821
-0.8622881543963111
0.2564123985490144
1.2861918422199585
2.0208718869619466
2.722067577570875
3.8272946990164654
5.237780375134786
6.230283605711208
6.377563503312229
5.814421279027771
4.84943024357555
3.7837108932568357
2.919167058804449
2.2518619967337368
1.463615478165166
0.6422800705972761
0.02223614932423009
-0.38374844296354593
-0.37105949679140315
0.0016360427479912446
0.34361714991579234
0.5519233620051835
0.7656404019659635
1.1094177137222765
1.5255523996834408
1.9710915949033034
2.4665754774525106
2.925258387017401
3.2730127899303163
3.2816923232806983
2.5230358846038663
0.881943604509984
-1.018062880606004
-2.3692490020677335
-2.9989165619688225
-2.9197104558068614
-2.079091541662208
-0.8214188629664217
0.5431942315861442
1.8387271872521027
2.5194821499651865
2.2484481258124784
1.26027923765331
-0.2298906467838293
-2.0849780205758095
-3.97017420876875
-5.623622410405568
-7.108321510367257
-8.313632185200497
-8.718241377344604
-8.002274863132278
-6.350278900590861
-4.303704302077491
-2.4845044026394776
-1.0209525098399992
0.5930095410432832
2.8205786370454056
5.3827765987112315
7.475114339231588
8.64019640915599
8.918842448205018
8.47050510927117
7.398513574807178
5.639455015637929
3.188762874219237
0.399387343706818
-2.100222715850527
-3.8478970945338777
-5.113776576610195
-6.601385956839461
-8.461365840564529
-10.080665226247794
-10.742459613488721
-10.20586088769951
-8.815232058639527
-7.247992856310606
-6.0104078633238
-5.120046670926543
-4.307747334011197
-3.253114679342425
-1.6216546406580823
0.7973033385917835
3.834272765477198
6.7733698926855155
8.882007738270406
10.04181475450803
10.412931970372101
10.124585460337697
9.281913852255391
7.871735711032377
5.9562377467424374
3.813070562828075
1.872938783535317
0.5046206530613535
-0.25064383076790653
-0.46007124631757934
-0.21985948141517975
0.16303807126036426
0.3506128408678395
0.2307708601401461
0.06033904021137543
0.13982106469176614
0.6205326168918216
1.6294867143056164
2.9953870577384514
4.349524924737938
5.27809042868278
5.338287975243897
4.426173932131438
2.7073052124629045
0.2545876700437876
-2.857275167033827
-5.918415558225604
-7.7377515591616275
-7.880671304188634
-6.820283831980692
-5.121927985681722
-3.050170639258375
-0.6923170444861476
1.6738736586272276
3.810137386845849
5.715977054763689
7.394306569894681
8.895677245349829
10.226719690943646
11.403334487878126
12.506680837210364
13.586125408845765
14.62966894036391
15.179003592140733
14.668462507778916
13.031648808395527
10.391053964862476
7.045276257210052
3.466640355157339
-0.09037427475018753
-3.658418392517619
-7.330019455656891
-10.61136970420108
-12.547426964876076
-12.73104032694998
-11.467231208078857
-9.364542001722466
-7.085044242789454
-5.150921011256679
-3.824490006896851
-3.1366782736632626
-3.0169864898887107
-3.0982045890749204
-2.5616022766819637
-0.9090570403422746
1.5077182434695489
3.8508993089215506
5.3214733628635225
5.754889166046638
5.477820716747424
4.658767148633731
3.241012037954762
1.1437183700206681
-1.4905830643992963
-4.154687164495418
-6.379910479143679
-8.152755403758293
-9.540763490831095
-10.131356029490453
-9.401753614795254
-7.525006206769097
-5.428585050871945
-4.018617720562387
-3.350077564120497
-2.841465578649897
-2.0959581431868095
-0.9939091315844117
0.45131113031129055
2.0541775770537947
3.4372896615705537
4.149604343685035
4.194596865960766
3.8075030924586466
2.8184052368435295
1.0627893225573826
-1.37809942672822
-4.28737048119971
-7.142362922814399
-9.16802741224494
-9.786689083964069
-9.34041957471735
-8.576020438015211
-7.450055848578975
-5.575642847875184
-3.261163991794761
-1.4492967622065682
-0.8143527290828804
-1.2247142263083275
-1.9248272679767884
-2.1049002906650482
-1.542776527197117
-0.49497128956223085
0.7204212116495798
1.8930296979278425
3.1248231205409076
4.554435498221273
5.993275390888495
7.015772247817258
7.218592414855019
6.567195718040294
5.264042604707261
3.571696017895118
1.7851955153544907
-0.1371746697364135
-2.30807716266578
-4.355205555695991
-5.777968068535756
-6.46649411759544
-6.505908384675752
-5.686050386021898
-3.6742597880495746
-0.5704070160299318
3.145728535971148
6.826133029797856
9.616620905598927
10.791038053198521
10.53186005407776
9.779726376387263
8.917141443501972
7.55304815532128
5.508182012316697
3.2571071090744868
1.5720865168738127
0.8083476936198231
0.7497320127537954
0.9682253526257885
0.8989134907591401
0.13618957926285777
-1.0732404025467688
-2.1473342901705426
-2.605247535110455
-2.0307894890687774
-0.5137299569685301
1.2164237812333873
2.591635130254433
3.6323321835639844
4.577390432182274
5.447871963789019
6.2166653914051
6.896740629763318
7.35421454646586
7.685914886260026
8.15432536770537
8.729155173595524
9.103371871392378
8.64267603486778
6.756200873698089
3.4568320844965865
-0.8041907101197185
-5.568427905311157
-10.306534840279538
-14.24379616928295
-16.771793289459545
-17.69503981233642
-17.01887896229275
-14.952825727035368
-12.00307868671758
-8.792162506644882
-5.770343094435797
-3.189619375478718
-1.2673143392696677
0.1345727325205817
1.6099803220789686
3.4876597676956607
5.638977315017141
7.757491499150473
9.481540883215091
10.573631249478971
10.888694378128935
10.298311892629414
8.80063240268626
6.427491546779687
3.127212205765644
-0.8528819911264262
-4.8241744736325085
-8.309635855648333
-11.178974211941526
-13.293759026800817
-14.640119750246342
-15.099080654566222
-14.267695333859743
-12.089768528592922
-9.127694633465214
-6.02279717232668
-2.947102066162596
0.14532310771865922
3.2319628739089716
6.258679158378741
8.792177898078837
10.256714686260494
10.56017734227263
9.907169182955533
8.490935735121981
6.736996650684701
5.2883881453574135
4.284342822634358
3.3791371035322384
2.5076386495356457
1.749267435029067
1.0483777920719963
0.3606544490066439
-0.567555845687037
-1.8823196230069994
-3.254150267408493
-4.311908888730306
-4.733673897979118
-4.391045352303478
-3.5082557283781286
-2.276221809867975
-0.8140019181540944
0.5910014758433584
1.5239475538743419
1.7181375782069181
1.248345097340403
0.46625696261815897
-0.34015025973047675
-1.2241556437391061
-2.088294738044029
-2.3760782980051576
-1.8096766846278356
-0.6964023246953129
0.6239002841526434
1.9893897558167697
3.3671071101325443
4.9711151215114056
6.994628103944035
9.092921611149222
10.528534193698286
10.775699827763251
9.843438966011716
8.092879816520941
5.896923206915738
3.76972854213198
2.422916711846459
2.2445161646603973
2.888591596088089
3.599066834415902
3.941680065911113
3.9321678856861326
3.667054547337828
3.163107745524252
2.4033726850861825
1.429172639864965
0.36742629271356897
-0.5855612231825712
-1.2242691472133007
-1.3728625395715373
-1.077129345522251
-0.8659183365702037
-1.3920270799643095
-2.767890763219856
-4.368424345044637
-5.444964285738991
-5.919564021690457
-6.270097777969857
-6.787641783064552
-7.280044059569941
-7.452711654537882
-7.1715898015462205
-6.469599509894622
-5.388485608612565
-3.880760499629244
-2.22675724760865
-0.9875298688496247
-0.42204082960216144
-0.4581928735018501
-0.7882303836897825
-0.930296582326066
-0.49626778766003327
0.6440013163138453
2.229552922714004
3.8381367689464807
5.170908536690079
5.8310017276275135
5.412380821477891
4.173463160573931
2.982190287169995
2.2114346314488587
1.6370748714910723
1.2363027485735514
0.9330156981712266
0.3682000555811492
-0.5244827801373273
-1.5770259221107519
-2.663050119098641
-3.333400809592977
-2.9891780492111177
-1.6839406030747193
0.0297376560914637
1.779589375910949
3.1471528231578776
3.656976595490602
3.4470708838617425
3.096501455117985
3.011570804403255
3.3241426263949396
3.8796310231468705
4.317324761455087
4.504925876737199
4.543105600666501
4.320361067047864
3.587876876693722
2.1952957390281322
0.24057141230401405
-1.76011721258633
-3.2258715149505797
-3.7975373496779037
-3.3327545229137394
-2.218507800730316
-1.153261060147209
-0.38057466012836155
0.5385284439084399
2.2429733765675524
4.773310586981705
7.519199864082518
9.901551894438287
11.600268956218379
12.339064015808697
11.835545385573043
10.053392513343933
7.39289837548461
4.487225825309682
1.9762293887700486
0.42078168683938755
0.04867654045789596
0.6024823356939739
1.3782132235195452
1.7481016522179942
1.71298982851458
1.3361886516056896
0.6150557460734437
-0.3844115102180097
-1.8508281358780831
-3.4711465459627453
-4.53498990092531
-4.978877541433882
-4.922088360940405
-4.197581422145075
-2.9144580091064767
-1.6669834838639823
-0.8667154871478795
-0.48652577707303735
-0.5938814842737059
-1.2393742527129534
-2.0494817439743103
-2.6743206832098636
-3.0952807136780742
-3.2535341821742456
-3.126010906464619
-3.042013260010368
-3.235868024752218
-3.374022688426836
-3.098252666014069
-2.7285532138476722
-2.9100821142382287
-3.668255080919898
-4.367160890746558
-4.558458010021409
-4.2667863050535155
-3.825693155536807
-3.6702495318134494
-3.84622096948492
-4.049864314300673
-4.071248039949986
-3.6458246461478026
-2.4764328608136235
-0.6639307740653232
1.4422003137905308
3.368976650328905
4.5308204142283
4.781530412076157
4.669515273017128
4.74557583889271
4.81786516855884
4.532154982997438
4.0343402638594
3.394275608269091
2.5228119478355047
1.7663269970839586
1.5827194953404518
1.8920755295735245
2.4238494901362646
3.14122034463751
3.827579559113815
4.00909616182528
3.6159715484868586
2.9171346334540833
2.0296060889974967
1.1360932460636513
0.22746144262537538
-1.0381273180459947
-2.506798612718285
-3.616540198191548
-4.115444699595812
-4.039248901061933
-3.451027756774953
-2.437010806895807
-1.0730382539225174
0.5881617664340187
2.398469764391907
4.086513853915431
5.206528516057411
5.279048287909855
4.1128675954802345
1.8340808859641904
-1.1645320023272068
-4.29256517345784
-6.904564801518062
-8.534848027965557
-9.206533781691896
-9.15596390857368
-8.57943910929398
-7.783269626976512
-6.9119945632281405
-6.0383035421676725
-5.531360642806961
-5.608511108714035
-5.979556880063562
-6.269923363302401
-6.21954724921873
-5.613380235408405
-4.694887758223937
-3.7201432836568675
-1.9758820877249046
1.1201527731908911
4.663086553506591
7.186500195072217
8.003789112245496
7.414904080929335
6.218500863287117
5.073944905349363
4.079964744331057
2.9154826246485768
1.4505669250823436
-0.16405578731395729
-1.8055854986027993
-3.1743685173667306
-3.8577191192098765
-3.7024442647649445
