AAD_Filtered_TADAS_FILE
AAD_BASELINE_CORRECTION: BASELINE REMOVED
AAD_FILTER_TYPE: BUTTERWORTH
AAD_FILTER_ORDER: 1
AAD_LOW_CUT_FREQUENCY_HZ: 0.025
AAD_HIGH_CUT_FREQUENCY_HZ: 40.0
EVENT_NAME: 202302060117
EVENT_ID: 13194
EVENT_DATE_YYYYMMDD: 2023/02/06
EVENT_TIME_HHMMSS: 01:17:32.00000
EVENT_LATITUDE_DEGREE: 37.288
EVENT_LONGITUDE_DEGREE: 37.043
EVENT_DEPTH_KM: 8.6
HYPOCENTER_REFERENCE: AFAD
MAGNITUDE_W: 7.7
MAGNITUDE_W_REFERENCE: AFAD
MAGNITUDE_L: 
MAGNITUDE_L_REFERENCE: 
FOCAL_MECHANISM: 
NETWORK: TK
STATION_CODE: 3119
STATION_NAME: 
STATION_LATITUDE_DEGREE: 36.57527
STATION_LONGITUDE_DEGREE: 36.16811
STATION_ELEVATION_M: 5.0
LOCATION: Kahramanmaras_Pazarck_Turkiye
SENSOR_DEPTH_M: 
VS30_M/S: 374
SITE_CLASSIFICATION_EC8: B
MORPHOLOGIC_CLASSIFICATION: 
EPICENTRAL_DISTANCE_KM: 111.03
EARTHQUAKE_BACKAZIMUTH_DEGREE: 
DATE_TIME_FIRST_SAMPLE_YYYYMMDD_HHMMSS: 2023/02/06 01:17:31.1874370
DATE_TIME_FIRST_SAMPLE_PRECISION: millisecond
SAMPLING_INTERVAL_S: 0.01
NDATA: 12501
DURATION_S: 
STREAM: HNZ
UNITS: cm/s^2
INSTRUMENT: sensor = CMG-5T/GURALP | digitizer = 
INSTRUMENT_ANALOG/DIGITAL: 
INSTRUMENTAL_FREQUENCY_HZ: 
INSTRUMENTAL_DAMPING: 
FULL_SCALE_G: 
N_BIT_DIGITAL_CONVERTER: 
PGA_CM/S^2: 0.032
TIME_PGA_S: 
BASELINE_CORRECTION: BASELINE REMOVED
FILTER_TYPE: BUTTERWORTH
FILTER_ORDER: 
LOW_CUT_FREQUENCY_HZ: 
HIGH_CUT_FREQUENCY_HZ: 
LATE/NORMAL_TRIGGERED: 
DATABASE_VERSION: 
HEADER_FORMAT: DYNA 1.2
DATA_TYPE: Acceleration
PROCESSING: Automatic Paolucci et al., 2011
DATA_TIMESTAMP_YYYYMMDD_HHMMSS: 
DATA_LICENSE: U (unknown license)
DATA_CITATION: Turkish Accelerometric Archive v 1.0 - Disaster And Emergency Management Presidency, Earthquake Department
DATA_CREATOR: AFAD
ORIGINAL_DATA_MEDIATOR_CITATION: : AFAD - Disaster And Emergency Management Presidency
ORIGINAL_DATA_MEDIATOR: AFAD PROCESS SERVICE
ORIGINAL_DATA_CREATOR_CITATION: AFAD PROCESS SERVICE
ORIGINAL_DATA_CREATOR: network: TK
USER1: GuestUser
USER2: 
USER3: 
USER4: 
[...]
0.0009800406762117953
0.0035763444027906845
0.002927910879131081
-0.0024191028481746466
-0.00581735853620596
-0.0004466398454214917
0.00181270513964363
0.0011127728372329114
0.004414519601305035
-0.00045046362529414894
-0.006593635038037916
-0.006175371104500626
0.001110421510423344
0.006020975437527895
0.006004636154213171
-0.0060212977971125965
-0.007375994884006637
0.0003609436433135459
0.002775765054449091
0.0008608193050505487
-0.0015691427292264077
0.0014850787170059884
0.00423751846736256
-0.003069102623986373
-0.005696320694921124
0.0020034100056866263
0.001711859950562999
0.0009486898324944617
0.0011075145947668076
-0.002604655101434975
-0.0004836646355771243
0.002521742922708078
-0.0042291049171105715
-0.003281139510796863
0.0021414399195434385
0.0032346119917868736
0.0010833007434261324
-0.0025884425482401285
-0.0023028183675097174
0.0027739169173004114
0.00018564480860345928
-0.002580656080040062
-0.0027547466829973507
0.003690506702217155
0.0017648205360324255
0.0022866121182633027
0.0002010808247546556
-0.0028216730637183086
0.0030313383338233645
0.0016354259219527642
-0.0006070046197421856
-0.0008259000254411796
0.004050585922669928
0.0020144370319952745
-0.003985408133937091
-0.00818238276568703
0.006445422752067025
0.0080637187398598
-0.0029851070000256985
-0.005070930963965781
-0.0008227168108169259
0.0035968424936898506
0.005196637041289059
0.00074123482146805
-0.006520433418369752
-0.0021310429103815463
0.000404300276500179
0.00410351972735989
0.002892962989585849
-0.004890262648730658
-0.001146889777118736
0.0033031332629139595
-0.003957172103577886
0.0026927802047568435
0.004067111544878947
-0.0025382877455325244
-0.005297080977114881
-2.6505813972837237e-05
0.003417188676166012
0.002792271842583855
-0.002339345609432366
-0.0028996476791102043
0.0010209514285048126
-0.0016555787569834616
0.0035645314403658437
0.0027162429815864777
-0.004342651644651837
0.0022057894504211107
0.002045162350260658
-0.0019608469996275696
0.0012154297614740154
-0.004484796263032123
0.0025067142650885984
0.0005330764099377199
-0.0025466125435195967
0.0006125457374406471
0.000592288593855759
0.00037491319196840514
0.003433010000413765
-0.0017590581867709322
-0.002743309697626778
0.002753212388700535
-0.0025436077221462966
0.001970070314365315
0.005566907307141491
-0.0017182029975466918
-0.0039062477001839424
0.0006174688413819291
0.0019443220953201071
0.004213402247176242
-0.0014866566845723908
-0.0051616567871589835
-0.0012394935222928862
0.0031198270839149617
0.00407103526715141
0.0024432496842399136
-0.006033364919478759
-0.0037494390230941714
0.002355564656314741
-0.0023423635338719996
5.2263696345236706e-05
-3.118899735084058e-05
-0.0022567538765881612
0.005230567896588196
0.00027693552402206247
-0.006503229929270005
0.0008152182395094146
-0.001321424807649835
0.005892179500606696
0.0022098394609553337
-0.0036336713322414464
0.0016146717566953613
0.0016632773473827759
0.0009542743540316694
-0.0016358612088177792
-0.0032632329631480553
0.0032419211821688855
0.0012868354795609604
-0.0002163402724474626
-0.00035803120650366706
-0.0014195401181215503
0.0011646974398697419
-0.0012859006679608895
-0.005253146582779519
-4.848394105840824e-05
0.0063772154864356004
-0.000307345865053802
0.0010516832609664092
-0.0016829685165756067
-0.0002883023218635312
0.0033122837573944675
-0.0026094439910889613
-0.00412800667774379
0.003458283064034018
0.0036750415805934574
0.001741338647001693
-0.0034033274224254265
-0.0023667380805542713
0.00346191934596182
-0.0020047298834822377
-0.0012610305720744017
0.00017778195650118862
0.0012604479819196392
0.004335676558528425
-0.0006409635210038712
-0.011263072962998886
0.0005162992106847137
0.0033701449167358464
0.0021371592423103263
0.00026475344116903837
-0.006721599998169143
-0.00020441109327753226
0.0028320358427483985
-0.001894283764354839
0.0007407536352012676
7.934160861119227e-05
-0.0013985029201069221
0.0050261909026869155
-0.0009750615000737133
-0.004271072322537005
-0.001904450560839754
0.003473775546138204
0.0007305239184997824
-0.0012779073234626046
-0.00025351128638450383
0.0008138879146195653
-0.002679280925486094
-0.0033916394910221566
0.0015148355573431646
0.0028719490095502473
-0.0007734281950448882
-0.0030006352727790344
-0.0002731658799139466
0.0037840241846760284
0.0021659016716679943
-0.002686185818852843
-0.004068168288448904
-0.0015417157958673322
0.0039814053439048555
2.960070244535207e-05
0.0011317891533151317
0.00011454022300005749
0.0008586179866572569
0.0034266330547840485
0.0027929379093160197
-0.0021071836933993643
-0.0009717463539334054
-0.0006402178448518958
-0.0028483385285382897
0.000549413549678118
0.0013153558190966102
0.004778554064059417
0.0018716516696248603
-0.003004696904361147
-0.0025588175288368386
0.00039522269963545507
-0.0024686453518347013
-0.0007793717607612478
-0.002997275744737431
0.0010861543800890407
0.004676847162261963
-0.0030570997707402283
-0.004786687742588454
0.0001870765615237068
-0.0014353170383800311
0.005516287215375445
0.0008336541422208457
-0.00563232982033348
-0.0005160154675339435
0.00028588488691766553
0.0046398674412739494
0.00037291244158850544
-0.0008598128927508269
0.0029445862434615455
-0.0008118326168728389
-0.0023013761760459052
0.003905125880295618
0.0027806925955684686
0.0028926077930650487
-0.002840990040371875
-0.0015062411703808483
0.0023547355481244674
0.001519377575289635
0.0010332074361558761
0.001732069067792323
-0.0006684771672886001
0.00032684374518785093
0.004355332853873554
-0.0011053683146414635
0.000767592990176295
0.0020813947575681452
0.0011813161429236644
4.851000806805112e-05
-0.00028291072008908226
0.00011258552447590724
0.0014989347349810018
-0.0007966021054324732
-0.0030290939077922342
0.0012881101119238062
0.0024913565116508347
5.95470996868586e-05
0.0028838102041024126
-0.004002814588598683
-0.00026418640253623814
0.00463947033992758
-0.00013329399735481322
0.003427817753448302
-0.002020041508704032
-0.001966212494304332
-0.00017490550200283526
0.0018630041411624423
0.005585446504599914
0.005493984764342733
0.0012183453076884802
-0.0006930722407074935
-0.0015341678865822528
0.0016193558850467198
0.00023887573347764144
0.001393654767988631
0.00601962891705604
0.00025113967894054863
-0.00520795143961006
0.0009822950739773637
-0.0005802597054975514
-0.0009186823279062696
0.007873869995285984
0.0047453326222784385
-0.0032005879540752493
-0.0027809902864418547
-0.0004926548039122226
0.005375350484339498
0.006914689270963123
0.0011260105858156963
0.0020252973615273416
-0.0025196721639658935
0.001612357737194812
0.001322022544938613
0.0005591555657986079
0.002306481106834323
0.003907559960525659
0.00013566157456150005
-0.0020293608361611746
-0.0025112874138518764
-0.001352868030540094
0.00509253388171632
0.002029780920038269
0.0019947620752732344
-0.0027553566519870685
-0.0005602466235691716
0.0021806120482399786
0.00032830653118132326
0.0019498484137204413
0.004976437964826691
-0.00020326829883809424
-0.003465580963271391
-0.0036123718336352538
9.962837495940958e-05
0.0056955592137541795
0.006238079052027818
-0.002443827275719238
-0.005053497908620055
0.0010480475915003364
0.00021079421214341665
0.0019975276307420495
0.004939243835109902
-0.0004242479579690671
-0.004499205795513018
0.0007591974956151899
0.0010317472909007188
0.0029317550528231654
0.003772602786776304
0.002201644428748988
-0.0022211987944263244
-0.0001930324004183672
-0.000543616873715734
0.003037711273942333
0.0014363144968388628
-0.0018348162608617191
0.003461811531642543
0.0028011321547816025
-0.002086042198002495
-0.0011835211272814901
0.003576843147767561
0.001827900709535659
-0.0004624954444072967
-0.0038328138537209173
0.0008386400840907964
0.0034505365100645394
0.0014337678415539399
-0.001626125229359997
0.0012952552758079253
0.001167261021151906
9.516918736996591e-05
0.00018683079480609466
-8.725553851045918e-05
0.00027937345279304267
0.0025873909831629722
0.004355231961956453
0.0016318866902981027
-0.001976540784141747
-0.0021786384888046917
0.003145823222742557
0.0054201726557556
-5.83943088096563e-05
-0.00044691513733505634
0.005421560185655504
-0.0030191739449197132
0.00014674305998445188
0.0008044998120152209
0.0009214192171513975
0.00017943182981803576
-0.004660180801294495
0.0018948431634448412
0.007856260588282591
-0.0015448935686701254
-0.00243023171534374
0.0034693136386462157
0.0036356756501546863
0.00490316139015162
-0.0009695380788627344
-2.180349184007183e-05
0.001991414176155594
0.0032309882516594057
0.002365930860547468
0.002573205839038698
-0.001167080585425558
5.741215239076251e-05
0.0026100503428171514
0.0006254083279486877
-0.001768556810299643
-9.362685503931819e-05
0.0022295512296651404
0.004445354039779308
-0.0012281643930433172
-0.006051696673824882
0.005034617158525197
0.003240711787889682
-0.00016383354241395715
0.001794929270168624
0.0014749264342355547
-0.0026757212202955178
0.0005750460185889603
0.004364107200359163
0.004014625953578891
0.00146143846597722
-0.0006453822692120036
-2.6522807687500155e-05
0.003967965966988799
-0.00011382849565060908
-0.0034813672681028606
0.0009615589150447142
0.00618449743337712
0.004647452853057848
0.0020163347042641833
-0.003907990172139403
-0.0031540725792144923
0.00599566641667648
0.0013284825883930374
0.0023380711792321167
0.0011387705728835792
-0.0016565407665901435
0.0004492572968998085
0.004820875066283041
-0.00013582926479485007
-0.003284672900767333
0.001953202900247334
0.006088425663419442
0.0017037561951594843
0.0012080863560606943
-0.0008107918556440848
0.00044484165255456574
0.001846305354774435
0.002943252550802891
0.0035121075315807824
-0.0015479466990071752
-0.0005580320866950055
0.0007539015985294108
0.0048474019255042855
-0.0013278782614210849
-0.0011328063797379192
0.0026265003847009125
0.0016159184261584831
-0.0035438248583029475
-0.0029525536610916637
0.0008358648902357542
0.005484557262903165
-0.0005212534187647398
-0.006538179037312099
0.002887332421422926
0.004211179360482551
-0.0007811577675916945
0.002666113500857947
0.0029477841928825205
-0.002872273714200833
0.0014557039354234017
-0.0007486778080090669
0.0006003892395251591
0.0019539695980029686
0.0017150660481315245
0.0022865650026830642
0.0035775010295983917
-0.005252417279798337
0.0008381062080487854
0.004543123324475805
-0.0014338780431548122
0.00024834747370285277
0.0025677583677370087
0.002062520266670927
-0.0004075872623707076
0.002663537168457635
0.0013224829812836312
-0.000493038495886575
-0.00024895766762579407
0.002348911495199176
0.005558405230370435
0.0018720390012316695
-0.003969381853027537
0.00286567065983376
0.0005174270335213701
0.0014840909491209311
-0.0037742116282583884
0.0011768608462642126
0.005233492559698968
-0.0016050584645315778
0.0016501215379396766
-0.00023544502826675196
-0.0029047890980142678
-0.0031281768270738806
0.004930760734050749
0.0044495971913266295
-0.003254176354214634
-0.001369859868793303
0.0028909112546179243
0.005933069418155155
0.003918645908415301
-0.005725550429098643
0.0028212341785192334
0.0009633172992946703
-0.0037639790448877313
0.0022777328609146544
0.0035090403708179225
0.00015240700852278864
0.002312334583201869
0.0005281046153252649
-0.002647898025620773
0.0003341942321043705
-0.0016364132008151735
0.0011843635896192032
0.0006537215604903808
0.00024167575409897207
0.003172800234520967
0.002808364077999804
-0.002909829847517799
0.0006853303432108671
0.0002161383005395136
0.00340266468475411
0.002454487211468597
-0.005460379393023261
-0.005731570211059686
0.00757436657534704
0.010542550030511393
-0.0025585691000995165
-0.00632314302381965
0.0010490700257557743
0.005915815637524721
0.0020661785437956224
-0.0016508696127805473
-0.004519149187933494
0.0010322895680847275
0.004329885719476895
0.004457446826187161
-0.0019681698051009274
-0.0007368913887780272
0.0036281922446865836
0.006842590460817234
-0.0009314142326330177
-0.008769577344886578
0.0002266878460803697
0.007899031579315798
0.003978644479521183
0.0009726378976066631
3.879704154034017e-06
-0.0026781933110027268
-0.0015341913874810976
0.006505949833750747
0.004669156524063873
-0.00552122020570308
0.004210216940720546
0.0028802334095261286
0.0019620194859739917
0.001063616766489255
-0.0084610005637655
0.0004847719352931352
0.015212715731664531
0.0026974784026269705
-0.00818175021794512
-0.00013475074583765877
-0.004679937672713506
0.011477339278849762
0.004140956725651641
-0.016859180009237727
0.014272126913701123
-0.0015931060992480566
0.0023958686724700434
0.011475041386483179
-0.02038475365178696
-0.007082999992181627
0.022457209049223114
0.015546661080781555
-0.007738112052634635
-0.02445557299265712
-0.002515447130273615
0.03282701184077895
0.0038899210603204515
-0.029259033481676643
-0.0003114531722122101
0.028514554746400536
-0.00979958459103426
-0.00820985831544563
0.004155607503912035
0.002167357456170334
0.0034003548788115352
0.006394057678535821
0.008485281736741148
-0.01709315423810182
0.0009444160919201087
0.01195514333894712
0.008142221309492756
-0.01239187758921092
0.0035226351715251262
0.014926553834187844
-0.017444044862984783
-0.008879738154440327
0.02035324848285369
0.011335836171281245
-0.019939877988179908
-0.0024000361981222507
0.005695507432278376
0.00269954934590686
0.0028560068095984026
0.001862290145211693
-0.00602801543602004
-0.002681567307853389
0.012859537663941404
0.0026577550453067847
-0.007356052039940632
-0.0015658781515914052
0.0077403738820418675
0.007298594612028428
-0.004060745999806692
-0.004851699067265019
0.0032729151762017077
0.006845134847586334
-0.007234746149258123
0.0019835872695418743
0.009311801353404963
-0.005550321399929955
-0.003195751250753192
0.0026449744812188708
-0.0005585503705581453
0.00039153450021040583
0.013969278507219072
0.0031763257232650865
-0.011301283193473833
-0.01116967142505103
0.004439433207989563
0.008511131319091989
-0.0001568670323297813
0.0024374849336680935
-2.203327129884892e-05
-0.008523913521205361
-0.003045772388770134
0.010278486488689275
0.007787387761121326
-0.007067127229584118
-0.008568650371051187
0.010359163135068914
0.008193730259094787
-0.0027445067219610867
-0.007608545873635803
-0.004890688598249336
0.006212863571205687
0.01189200046943825
-0.004631987363324152
-0.01232082901335702
0.003412170829120267
0.011959467688939492
-0.000580444403659056
-0.006676152555167872
0.005057832147537074
0.011326493370643355
-0.006403333577556237
-0.016196917795095193
0.003564042287167597
0.020949722350239765
0.00207984533368013
-0.022349577329241335
-0.004203514270402601
0.01606286057752585
0.013203201137810221
-0.008961328232625956
-0.020348706463253912
-0.005664272728997253
0.024076813930008583
0.023637491798975466
-0.016792857129039516
-0.03225430971086175
0.0056232706662515805
0.02581112547009141
0.006411347956500489
-0.0111808940599436
-0.011506713361013254
0.003655460033916208
0.01249246605128016
-0.00269115680340389
-0.011066223552990438
0.0007036381624340147
0.008098039871167558
0.01134905775115488
-0.00393961061360948
-0.013618998805966207
-0.0009527566664189825
0.009618513442480913
0.003765769679257137
0.0001559595615654526
-0.003224454057609309
-0.0035387967455141403
0.004113296239484634
0.007696028482026157
-0.000721381593515886
-0.009593549083018394
-0.0034712535445207177
7.830652344748336e-07
0.010709213083260127
0.011362106786762267
-0.006460416736548576
-0.015525622306931905
7.519597840308729e-06
0.012973655309592505
-0.0006813827680959738
-0.013013269764515197
0.003267759448016679
0.01992869379575114
0.007099630572691349
-0.024722799788032292
-0.017099601532803228
0.014445469856361923
0.021276537424425507
0.0021027024861119434
-0.015594981906136804
-0.00769176398755188
0.005317650529167581
0.009121568824472476
-0.004855255664107025
-0.012024125096338469
0.004578165310451055
0.01903157056118693
-0.0003843960481779932
-0.016365318082135226
-0.00797261084215551
0.0050148265119773225
0.011325758097076486
-0.0007549750636867189
-0.010032214333912165
-0.002342185673312221
0.002370974796244388
0.0031432562213782296
0.0007020230758835219
-0.00372801891024445
0.001709125224203572
0.003929572637850945
-0.0035591042554479146
-0.00291711747581248
0.00787595765428816
0.002821932308021448
-0.0018721687806186387
6.607556704161683e-05
-0.0022804489045752953
-0.001989134871760882
0.0028569207494257413
0.00038575302292591515
0.0011882027161240311
0.0005502768146444985
-3.4003434011195146e-05
-0.000417144852612293
-0.0015820145846488234
0.0028699334441112537
0.0035475875857303414
0.0027404977297050517
-0.0038860976505524928
-0.0007333013090685486
0.0033349592437783406
0.005340295437177961
0.00022575119885318294
-0.002843685831263058
-0.0015030595651761704
0.005756664822867754
0.005226654556307845
-0.002000808234131551
-0.0028568063962622296
0.0030288252295738887
0.0038836525666787825
-0.0006431176951654104
-0.0006068957965735029
0.0020982765919489174
0.001851289303150263
-0.0005226161619835785
0.0004588053292352597
-0.0018553861870809194
0.0034087164082954205
0.0014039982891921581
0.00037909280377798285
0.0008993959610868234
-4.7679166007828397e-05
0.00338249060273819
0.00503185637754826
-0.003303437266047581
-0.00223227569109773
0.006073594217315849
0.00478379453464945
-0.0022832728994600557
0.0013160006796611862
0.004472757902524717
0.0021764798066142566
-0.003692226755518065
-0.00410077391229811
0.005642360584348011
0.005436696552463442
0.00031187836074339146
-0.007288707914205815
0.001583982208321476
0.004099429073980118
0.002130165496780921
-0.0007292607992430099
-0.0001807947184829875
-0.0006863164609005189
0.0016134359985060219
0.004295922566194897
-0.002748237224359467
-0.0023349805869707107
0.0017695318181377617
0.0017198467787642234
-0.0005270482016638164
0.00016275916404074193
0.0016263500299780473
0.004506989875834441
-0.0008244232671820911
-0.004008120750538127
0.0014762246445730633
0.0027665891579622026
-0.00220605529399476
0.00010090954714127316
0.001649647975827864
-4.923752739040227e-05
-0.0025876803201690547
0.0005241127190699567
0.001888843953229597
0.0002829658432133067
0.001325976882148815
-0.0019289758565405688
-0.0009494920940146835
0.0019564042586944063
