AAD_Filtered_TADAS_FILE
AAD_BASELINE_CORRECTION: BASELINE REMOVED
AAD_FILTER_TYPE: BUTTERWORTH
AAD_FILTER_ORDER: 1
AAD_LOW_CUT_FREQUENCY_HZ: 0.025
AAD_HIGH_CUT_FREQUENCY_HZ: 40.0
EVENT_NAME: 202302061024
EVENT_ID: 13207
EVENT_DATE_YYYYMMDD: 2023/02/06
EVENT_TIME_HHMMSS: 10:24:47.00000
EVENT_LATITUDE_DEGREE: 38.089
EVENT_LONGITUDE_DEGREE: 37.239
EVENT_DEPTH_KM: 7.0
HYPOCENTER_REFERENCE: AFAD
MAGNITUDE_W: 7.6
MAGNITUDE_W_REFERENCE: AFAD
MAGNITUDE_L: 
MAGNITUDE_L_REFERENCE: 
FOCAL_MECHANISM: 
NETWORK: TK
STATION_CODE: 4412
STATION_NAME: 
STATION_LATITUDE_DEGREE: 38.59685
STATION_LONGITUDE_DEGREE: 38.18385
STATION_ELEVATION_M: 820.0
LOCATION: Kahramanmaras_Elbistan_Turkiye
SENSOR_DEPTH_M: 
VS30_M/S: None
SITE_CLASSIFICATION_EC8: unknown
MORPHOLOGIC_CLASSIFICATION: 
EPICENTRAL_DISTANCE_KM: 99.89
EARTHQUAKE_BACKAZIMUTH_DEGREE: 
DATE_TIME_FIRST_SAMPLE_YYYYMMDD_HHMMSS: 2023/02/06 10:24:41.7557220
DATE_TIME_FIRST_SAMPLE_PRECISION: millisecond
SAMPLING_INTERVAL_S: 0.01
NDATA: 11251
DURATION_S: 
STREAM: HNZ
UNITS: cm/s^2
INSTRUMENT: sensor = ACEBOX/SARA | digitizer = 
INSTRUMENT_ANALOG/DIGITAL: 
INSTRUMENTAL_FREQUENCY_HZ: 
INSTRUMENTAL_DAMPING: 
FULL_SCALE_G: 
N_BIT_DIGITAL_CONVERTER: 
PGA_CM/S^2: 79.902
TIME_PGA_S: 
BASELINE_CORRECTION: BASELINE REMOVED
FILTER_TYPE: BUTTERWORTH
FILTER_ORDER: 
LOW_CUT_FREQUENCY_HZ: 
HIGH_CUT_FREQUENCY_HZ: 
LATE/NORMAL_TRIGGERED: 
DATABASE_VERSION: 
HEADER_FORMAT: DYNA 1.2
DATA_TYPE: Acceleration
PROCESSING: Automatic Paolucci et al., 2011
DATA_TIMESTAMP_YYYYMMDD_HHMMSS: 
DATA_LICENSE: U (unknown license)
DATA_CITATION: Turkish Accelerometric Archive v 1.0 - Disaster And Emergency Management Presidency, Earthquake Department
DATA_CREATOR: AFAD
ORIGINAL_DATA_MEDIATOR_CITATION: : AFAD - Disaster And Emergency Management Presidency
ORIGINAL_DATA_MEDIATOR: AFAD PROCESS SERVICE
ORIGINAL_DATA_CREATOR_CITATION: AFAD PROCESS SERVICE
ORIGINAL_DATA_CREATOR: network: TK
USER1: GuestUser
USER2: 
USER3: 
USER4: 
[...]
13.593503311171633
26.42412434943845
30.909768241069596
29.904091050838062
25.508532762759664
17.6138548006157
12.9007519620868
7.556770881003031
-6.506433431750726
-13.099620431920425
-3.2660159655360945
1.5747336801924592
-6.284581929634841
-11.939858126985346
-7.5031931848925915
-0.5333583918267054
-5.68901053095856
-21.5363165678227
-28.48714948973188
-17.5197864141388
1.837950291389406
13.784596716593631
13.237161209757348
14.32958512118987
22.5736056638721
25.744828453514952
25.797203759495318
30.915864861860957
39.10705711772113
50.38086413878269
54.87170410821647
42.4552060642598
29.734042310433704
30.442067844020915
30.812765499019232
17.607086472892675
1.9585417310154698
-0.5578916412207072
6.787669003027534
15.0521304991015
18.64907812405608
15.062325505216458
9.734893109035681
5.089440435023573
-1.558105661920727
-8.947913463964067
-12.620383040927612
-7.836979422613193
-1.143904721620414
-4.162896154150043
-10.71273643986096
-13.912692539539275
-19.000819573079905
-17.90619149648104
-4.115579563692419
5.352382554257102
7.543991280969284
17.97812766778074
31.499093899085775
33.26883785149227
21.45091188379157
-0.22453290183132235
-25.038068596238897
-40.59098373906301
-34.18746923412332
-13.807455361522248
-5.084181989987377
-6.251296865372847
-0.8049055564403662
1.0895501686442848
-2.815229736152323
0.7962037483337235
3.3618374407847593
1.09018751133206
4.778150714993078
7.364379645217607
4.452561031303349
5.773061953751456
9.386291653937308
10.785990686473752
11.665195598303036
9.045373720470897
4.126797509473046
4.576741065657964
11.440650060372471
18.004683801099475
14.884074066695437
0.6199906996851058
-10.987502155139792
-12.434461512984575
-14.969640908967197
-21.334836727942623
-23.241772201302528
-23.568799427482045
-26.01667824106654
-29.319852545023338
-33.850420328937446
-35.9487580737188
-35.63287262777096
-38.12481065168758
-45.0612750126667
-54.25141899893264
-54.19917714484405
-37.77875822349139
-19.069433051238246
-13.611103914278003
-20.268593406488364
-27.463334646317453
-27.65114978435292
-23.748035443719075
-22.061527679967828
-22.664965895037003
-16.301556357897468
-2.552807534072285
0.6793396912629915
-14.24177507124898
-34.944929470842304
-47.37460671461413
-44.16232486239768
-32.26388139234697
-23.326038932250754
-17.878346766041336
-17.890060725940895
-23.22712089064656
-19.38190900819529
1.4431133802210454
28.07549573473191
41.116918806037475
31.348460271879798
13.25051458424214
5.368349078131694
11.025178133332169
23.444686431828508
30.830971658484316
30.446269674582474
33.87887635535843
41.65183380564692
39.00681806874858
25.602647253352593
15.392597534389493
13.214960324712164
19.696581572715054
30.996992189524835
31.09661109681207
19.423890290102854
13.234876524193078
11.15446953414985
3.084966870657915
-2.607308216335242
0.5341431442316547
1.9023595812143916
-1.1285184047709005
4.158238485857886
17.01834560475697
18.791859849815783
8.369836146369162
6.296538157630186
14.920250186504616
18.10239473512099
13.097387327115921
5.041407677765585
-1.6262880688965826
2.6022791300709622
16.73004225920693
27.15583830929313
27.169364240519542
18.171820253525723
5.187900725805293
-5.915959191830076
-11.960874368622736
-8.305085372615165
2.8874616966825037
10.00491649491347
13.339022967840254
16.70688210401964
10.56236417268168
-2.7647457472673542
-8.949162850713133
-10.95552028848168
-15.892127159544257
-18.530868997055773
-15.583502023871924
-10.380235620046607
-6.204249910892172
-6.595395445392483
-13.496577063732252
-17.087385979170044
-8.589512013565667
-2.423266014412448
-6.474684820344155
-3.676901180886896
5.149095848834028
2.3661641017160497
-4.7410152119184055
-3.259348372884983
-4.194670190903113
-11.066402105398906
-8.911438092296123
-3.0115331301967663
-6.445747884016051
-8.195615200934105
-2.5635940125977874
-1.6144693622246846
-8.605400528788964
-16.35161118820016
-18.725771618110386
-16.209104904334104
-14.025154651232814
-14.81931310347608
-15.773985503663525
-10.186100699600644
-0.3407278084334961
1.2365217557481436
-4.944924256992066
-5.244674979264185
2.364283626054217
7.153124244657819
6.018531920042226
6.112527610475729
12.082508577010437
23.751796084737443
32.87884799268704
26.19940069970763
10.272851591632776
10.393484712864447
29.911702004110186
41.857622906019145
33.23738716677644
18.906793763168174
8.70742477973365
4.937042058335753
11.360352049601827
21.294646474853927
27.11897042413323
28.582582969564292
24.10166598304866
13.84537610247757
2.9668599155182567
1.2224517242471253
8.074023078236378
5.752311250058481
-6.84425930547879
-17.314913371272176
-28.736048776922495
-35.92515580146787
-27.06475494973171
-11.855689320542124
0.05934994694847289
8.285408348024967
8.33016754570852
-1.0011743151729935
-15.32209701908377
-24.8573171781023
-23.231359331940826
-19.497865012868687
-19.692258927350387
-20.184387922559278
-19.718569840524186
-18.734777612412604
-20.620825099137274
-22.913484720861558
-17.122383401952288
-8.843631156140072
-7.446603614339714
-10.47191373532536
-14.112749145602272
-18.131677864264642
-22.558434139837413
-26.008310603500327
-26.55830311912014
-23.82669883900491
-21.88759439001445
-25.58021794372035
-25.201702652521224
-8.416006105078159
11.733708867880226
13.647005255382425
-3.0571530280463333
-22.07241035462677
-28.293740109357
-20.42447311497407
-11.699657326761557
-12.791213079930637
-17.204845152455555
-15.636941766153342
-13.698411738167163
-18.468756661446363
-23.72832017537714
-21.37494950326689
-14.616351941948647
-10.707395742797335
-8.363315208795969
-1.706310165312961
10.766078826405765
25.25891156175228
34.770813717900005
34.00984438061723
25.465422429479833
19.30754850841986
20.584339844082677
22.231485213987355
19.35198305710244
14.147255530438224
7.801449555431431
2.1913353954566945
0.425711626005173
2.51398586616816
6.497849742331241
13.483129826867623
23.868321945511603
29.55564911121506
25.99293114172155
20.264625802761437
16.284436062476434
12.552431679558005
10.938068620281877
11.957071271506974
11.686870857231833
11.285886326595914
12.29223608948729
5.90635801215453
-4.844232999499884
-1.2635107904933072
13.73596184389489
20.609351517378638
16.438054123446094
11.526655767738404
10.367592975521557
7.704617639759234
-1.9642807468416124
-17.862199372684145
-29.688364187336877
-25.9139069402216
-11.798697030360625
2.544207848216424
11.206413870197288
6.509410165754014
-2.819195784787991
-4.331140938148481
-4.1445113202544634
-5.1804461495261105
-8.935195532672838
-19.986460365708425
-31.100358111831703
-39.95508954784187
-48.31073557699394
-48.1162404820403
-42.02739222157854
-38.59654373790651
-31.23725893282783
-17.313062769718858
-8.942824341351757
-7.638112444215408
-2.470783513239583
5.0829886519202345
9.1831292869801
11.344573999381305
6.902157485482876
-3.0955830520653964
-7.249836303706626
-8.013715957963377
-9.240980595672522
-2.3964047256090506
9.417574723137186
11.201657068784458
3.6852038295859235
0.5021682959307797
0.09716401904572941
-7.2022035115046386
-13.858491466675629
-12.657339133884115
-15.391697814944884
-27.469078569813718
-35.604030812998424
-34.641938561314255
-31.999181003914053
-28.158529204969764
-24.07170553878911
-23.759358260667856
-23.57866558224844
-20.857846816592197
-13.830599560647288
-2.425935376730938
4.245668274128091
3.0690474142450754
1.602178637904982
4.1501260395986925
4.298719694865357
-1.8005980440618854
0.20447493788734855
10.197319586783928
6.461636811741443
-6.625351822321253
-16.781527792750165
-31.909812806345037
-45.62316334394288
-44.28609949222767
-37.88941467418648
-38.12820653473116
-36.274613826936225
-23.852229182274534
-12.65662411324681
-10.156413602741148
-4.850240878177321
3.8084424957029483
7.472100294753195
7.780273766239742
0.6084235546878092
-14.30203299555677
-18.818210381371212
-9.829954818733935
-4.436713248999983
-6.110952535539136
-7.485699887608416
-7.854073835488125
-6.581580308911817
0.4796523062158267
14.199147976681187
28.159860621559897
33.06305329679775
29.285035100463077
23.54537749379265
15.907183388121497
7.731761612300039
4.877595110896031
3.137091383716355
-7.057102694698515
-21.69586352432307
-26.19918896106457
-17.409297586545065
-7.761553150272138
-4.495676828767569
-4.049255378160492
-6.069985239231577
-12.318996419616953
-18.557377782527627
-20.320595187508093
-21.060043112418406
-28.84368901462532
-43.24307438456835
-53.72605679363392
-55.21522599715244
-51.00822164853277
-43.54232075049097
-34.23063880632991
-24.01340596894528
-15.149046541414585
-12.933067998150523
-14.134414891608893
-8.023255992993567
5.5564070225532864
19.459173658406876
30.540122183956175
35.046980274375414
29.817329263624902
20.820737775294294
16.493223363031543
14.757240519084297
12.556942247806063
19.121304762564407
35.508259168671785
44.355351573166274
40.396935562659664
34.43735181994474
30.401341647392393
29.66796284427386
29.985589476165494
22.170128131965203
12.972784624470064
11.20164966454048
3.8929926514349686
-10.866975614213334
-18.597962815557043
-21.00187371489569
-23.398839677688763
-19.211017328300212
-3.1881205244794404
21.981007153392127
38.23114495900858
27.635390980948902
6.3493982008299925
-4.610129568217108
-14.16375713204969
-22.114550424834285
-14.718898254030783
-2.306672800692904
1.2672136476047218
-3.8598961224417656
-13.542306961704659
-12.464363926249591
4.993533268990399
16.202921658812862
5.045561404390844
-15.456018933953237
-24.125514164397227
-18.557055318288512
-13.51912876581593
-17.068503529219193
-21.126408121307943
-14.82857640676302
-3.930401815721504
-2.6800550980093756
-7.712898857959433
-11.367993820800839
-18.740626450519578
-29.047209264967115
-36.55742459995916
-41.16940768817984
-38.30393385905606
-29.441219359164123
-30.2282619323145
-40.159715149623324
-39.00912943355269
-25.470113990110228
-19.419281640169203
-26.106318376397475
-32.501388769705294
-32.77179121296081
-30.66405479837618
-25.325710843918948
-15.775875143836629
-8.654009888753396
-4.6000459516100305
4.710534270879247
15.134053113622853
15.523574976103799
11.67308244338255
10.135167662625928
2.297082775316641
-10.315489211730636
-16.713822099463194
-22.306128848267
-29.63988797093619
-24.724756318434462
-9.341512882346581
1.2794878263847251
7.869987916280491
15.571353946954774
20.205365388356533
18.11869240051849
8.101180189158706
-7.383201244765166
-20.13895187676798
-25.078741888625686
-25.351864176529283
-30.20483178184825
-44.30725653645475
-55.326163770035535
-51.15128479502109
-39.9210057163812
-30.79663440886791
-19.51039263674201
-3.050688394867325
12.354789288981362
17.16559446330232
8.159820097995835
-7.842909404537115
-21.540176906363776
-29.687534973355074
-36.312678612971425
-43.55937630987244
-47.82480523895753
-47.49234890094766
-41.277277413358036
-26.774214551796916
-8.820659956088189
3.768515085767297
9.214853808895276
11.263170030128103
10.858955916049101
7.04701734637004
-0.08899692565069016
-8.77249880897653
-12.116376927321681
-8.202946994781897
-4.179094468628282
2.5681524636290165
15.949308729420114
26.200792013648062
34.26618419775336
49.2132490890468
57.5053934745275
43.09506190677813
15.805458834422224
-7.335197230014483
-21.148652396033935
-28.660848030308724
-31.51544238666113
-26.98078751260755
-19.126891725147555
-17.296512457042198
-20.38729623173804
-21.262307964934866
-16.622272217940584
-8.083646075863257
-2.8619623715950455
-6.700393751562608
-19.16625494470972
-36.32294041827142
-52.3157891800148
-62.327383731986394
-65.23768096742278
-66.88361632807205
-70.99997599110374
-68.77451562690092
-59.09317068357272
-53.49440815492332
-51.77880304811323
-47.151378974867384
-38.833061381423306
-26.041977645474795
-12.87531899741893
-9.147578689095665
-13.171237858370784
-11.677186514749767
-2.093930965759966
6.583787783188974
11.034972374889305
10.091282327698618
3.8962116961001647
4.482857574468002
19.640851258799398
36.498327098870774
42.42016453546755
42.73755438923685
42.32355605608597
35.27078894436381
24.803314813485887
20.92568088579595
21.11964310001836
22.991349476687592
31.586357724017315
40.03344555785677
36.083248521486205
23.473888361438092
13.011415009968442
9.956975337994674
17.30062371714955
32.195729252675804
46.12292864307443
56.13331091348519
63.30074414583921
66.6959639243592
67.50656473078071
67.45280449435074
62.702127722264
51.225190395690966
38.37100679150109
24.18142558727623
5.527413487300003
-4.689153741780819
6.150128814905981
22.63399609260544
24.379035723648627
14.560119522938392
3.2728549567280263
-2.523166275375004
5.669369685343157
20.3499251809598
27.865705048760045
35.904768705792485
50.25453326739863
62.7906994154968
73.05825726055158
80.78451007356107
80.54092281925205
74.62221988165643
68.58256827751549
62.725957210705715
57.47577761353174
56.641963138017104
57.741169926581506
58.115222579283326
62.40347125917737
65.87644087604498
63.77800586136201
59.09534869344522
46.47557156112319
30.994980086252156
25.25307652043982
24.778672828788437
28.843984621284395
37.18797188266975
37.716352403059034
33.11009137539002
32.8285213548044
33.457685199824674
32.033515413798575
25.708241639577487
9.908355560354485
-6.981924421176807
-12.505050158443412
-7.164168099756311
5.5268425135236825
22.57051407875136
35.165500677991005
39.4174922235589
36.8367734078577
27.409688479158266
14.439617832524622
3.6104560302827884
-0.7918312805461507
-1.6862994635113238
-4.483651601561622
-5.100481939678778
-6.646086645067669
-16.4233178024344
-22.242584773357624
-19.418003407086367
-21.237952785584234
-24.451368080530532
-20.085333887708437
-17.445177008335833
-19.455523479312347
-12.19344839475749
3.070159444874352
10.247157706703325
9.752803655069405
6.089667865436666
-7.0982258961172855
-23.50721214617075
-31.078563024536106
-32.20583542348578
-28.04077860544501
-20.587173882227535
-21.019318634335896
-22.751078132578787
-7.391391298070658
18.770392136829383
37.864916967667725
45.79172793599636
45.3400476827004
41.631172080408795
40.29957447076308
43.003375939886524
47.97544241001567
48.570970452403394
42.169239473304565
34.88160995600996
28.338275651605432
22.506248124797093
23.34276684128465
31.646892177953212
39.49493630951911
43.65201516054521
48.43810777315829
51.0836713029707
47.92149245314729
46.878030606989896
46.78510520947335
40.125613877634386
35.64854633582226
35.21237747350404
24.484300385083667
4.35089354905485
-9.069876311014173
-10.463356190828067
-6.578611944080565
0.4938893531217734
8.347295979020267
7.979548732553086
3.5192823535001385
3.4926565318948377
4.485815774349483
10.298833766869857
19.63288370345757
16.557437137971817
4.5989488696915775
-5.615979238265898
-18.424017879379576
-29.238287461024857
-30.456374306649437
-28.962715561762085
-28.956016347498583
-29.068363622611628
-28.906702893618597
-21.50345987930685
-6.458689471656831
2.1767139747739668
3.5119136772862194
7.569538014166056
9.749199251857407
7.55041724404826
9.403510392792397
11.246819131031042
5.27367545358824
-1.5351814959919976
-3.043698865615644
-4.00052779113225
-7.662867305036591
-11.464126744865155
-13.750098552478397
-13.02002407192888
-7.78419310956925
-3.8000349593399845
-3.6383577537724867
-0.8479118683744754
0.919515843405175
-3.122353035736921
-6.525875418365032
-13.144373916435795
-28.662319578945702
-43.94672830592124
-53.486852148000054
-55.927614910392755
-47.809658927928915
-33.978760586457476
-21.80349777812762
-13.707328742692296
-10.61351843497599
-9.836550121292309
-4.610597836404954
7.9457036025967
19.569024582613235
22.313200033937974
21.51975630434168
19.714132673318264
12.584475205118771
8.054505516170723
15.146442316604725
27.577084084352382
37.49329133506329
41.95700993055372
37.40656136423181
29.728746741843683
32.86829070734149
40.97484426296444
39.1972919118745
36.20103684918082
37.757803136759186
33.14957539424739
26.309727600680073
22.08885463350497
14.963966609441494
12.306836854918663
18.56942841372328
21.09800613878431
14.270546893993481
6.839842589071094
8.163736374227224
17.991763382337908
29.377127919901636
38.67826246503454
44.263502323449046
44.10403355131343
38.76324505231879
30.36698034809625
22.013226503674836
14.369738789890695
4.478813026928003
-6.0649482327864765
-12.766428412915692
-15.138809537483343
-13.306776034873415
-7.419685259969539
0.5832246475505602
6.525878331517508
3.106220701216861
-5.651164666642017
-1.7263986903021509
14.623900083091906
24.576929435809507
24.485707605338945
17.993711661077707
2.3815417306331437
-14.01499763580867
-18.843195894933526
-16.600852133707264
-18.581599826382252
-22.628601905809706
-17.830810364127878
-8.38094743053792
-7.595380338941914
-11.19534798332543
-8.991570008202846
-5.09189881498216
-5.486591778931893
-6.026389264814209
-0.4927119397339585
9.488455317662305
18.917733671260244
25.270794103482075
26.907421438257558
24.417907737037787
17.80563899456298
10.110227683002849
10.021131801706318
12.116170263555821
5.875579221748482
-0.7348597964395208
-2.579129288573856
-4.6056753651140045
-3.6613448468472036
3.3665753317915144
14.96996813538597
29.244038643333052
39.321887640897266
43.20618441274883
48.300992606650226
53.35272232063896
49.03296253069243
37.851594771291865
28.43446360464808
18.657579871955775
7.616621901429438
2.5852954733901616
1.3694548014792793
-1.0488084733927228
-0.11474028188988887
2.3324070130710735
1.6171038261940027
2.7802922681082873
6.69293764083098
11.3324236101074
20.08175931806708
30.37458668467251
35.72490196421055
33.897947332331455
24.95984107112901
14.464404026388465
8.52521692017551
5.103148967672219
3.78052500804393
9.255419040516859
19.03369951462242
27.0673386217575
33.51476805087712
37.87735989530077
38.34279771215155
37.25535896029597
33.40329604963974
23.17161311935729
12.472564359218431
10.68754492317036
16.597589091439435
22.16093149423944
23.563573364633605
18.516991157974367
7.728720580676539
0.6762599565698123
-3.783799025115218
-17.51557208238684
-31.2225113147563
-30.121051377498972
-24.761096252600325
-26.60054101823718
-29.049444060288906
-28.711829410402423
-32.3467835320473
-39.86333336741972
-44.14031041661894
-43.19614830373182
-36.60682474870687
