AAD_Filtered_TADAS_FILE
AAD_BASELINE_CORRECTION: BASELINE REMOVED
AAD_FILTER_TYPE: BUTTERWORTH
AAD_FILTER_ORDER: 1
AAD_LOW_CUT_FREQUENCY_HZ: 0.025
AAD_HIGH_CUT_FREQUENCY_HZ: 40.0
EVENT_NAME: 202302060117
EVENT_ID: 13194
EVENT_DATE_YYYYMMDD: 2023/02/06
EVENT_TIME_HHMMSS: 01:17:32.00000
EVENT_LATITUDE_DEGREE: 37.288
EVENT_LONGITUDE_DEGREE: 37.043
EVENT_DEPTH_KM: 8.6
HYPOCENTER_REFERENCE: AFAD
MAGNITUDE_W: 7.7
MAGNITUDE_W_REFERENCE: AFAD
MAGNITUDE_L: 
MAGNITUDE_L_REFERENCE: 
FOCAL_MECHANISM: 
NETWORK: TK
STATION_CODE: 8004
STATION_NAME: 
STATION_LATITUDE_DEGREE: 37.379888
STATION_LONGITUDE_DEGREE: 36.097633
STATION_ELEVATION_M: 819.0
LOCATION: Kahramanmaras_Pazarck_Turkiye
SENSOR_DEPTH_M: 
VS30_M/S: 426
SITE_CLASSIFICATION_EC8: B
MORPHOLOGIC_CLASSIFICATION: 
EPICENTRAL_DISTANCE_KM: 84.20
EARTHQUAKE_BACKAZIMUTH_DEGREE: 
DATE_TIME_FIRST_SAMPLE_YYYYMMDD_HHMMSS: 2023/02/06 01:17:24.0836510
DATE_TIME_FIRST_SAMPLE_PRECISION: millisecond
SAMPLING_INTERVAL_S: 0.01
NDATA: 11251
DURATION_S: 
STREAM: HNZ
UNITS: cm/s^2
INSTRUMENT: sensor = ACEBOX/SARA | digitizer = 
INSTRUMENT_ANALOG/DIGITAL: 
INSTRUMENTAL_FREQUENCY_HZ: 
INSTRUMENTAL_DAMPING: 
FULL_SCALE_G: 
N_BIT_DIGITAL_CONVERTER: 
PGA_CM/S^2: 71.798
TIME_PGA_S: 
BASELINE_CORRECTION: BASELINE REMOVED
FILTER_TYPE: BUTTERWORTH
FILTER_ORDER: 
LOW_CUT_FREQUENCY_HZ: 
HIGH_CUT_FREQUENCY_HZ: 
LATE/NORMAL_TRIGGERED: 
DATABASE_VERSION: 
HEADER_FORMAT: DYNA 1.2
DATA_TYPE: Acceleration
PROCESSING: Automatic Paolucci et al., 2011
DATA_TIMESTAMP_YYYYMMDD_HHMMSS: 
DATA_LICENSE: U (unknown license)
DATA_CITATION: Turkish Accelerometric Archive v 1.0 - Disaster And Emergency Management Presidency, Earthquake Department
DATA_CREATOR: AFAD
ORIGINAL_DATA_MEDIATOR_CITATION: : AFAD - Disaster And Emergency Management Presidency
ORIGINAL_DATA_MEDIATOR: AFAD PROCESS SERVICE
ORIGINAL_DATA_CREATOR_CITATION: AFAD PROCESS SERVICE
ORIGINAL_DATA_CREATOR: network: TK
USER1: GuestUser
USER2: 
USER3: 
USER4: 
[...]
24.311414815720855
26.202966653597443
15.716241674120528
-0.06883978238361836
-6.542458858181914
-0.3124524576853152
11.404950726366355
19.871991538202252
17.3811501927091
7.200433919920954
-3.6536628915259612
-13.417458162406092
-21.81861531476929
-29.09955049395836
-29.27666960805941
-15.675219301680878
4.023794731776338
15.931568023835592
14.040084934288497
3.125684098143528
-5.614285998845512
-4.77691837174848
3.6013767043117664
11.072949351175069
13.339380238966763
14.45248124178448
14.125533096464371
7.753472080285986
-0.8898869850348536
-5.811287590456586
-7.732697922360157
-10.15517463001526
-15.553397892194194
-22.15538376023265
-19.661260859795636
-1.2400001272250192
18.129931254855226
21.32893476595149
12.83371043205201
4.76442394136454
5.732891212502421
14.651277260431991
23.31530000665396
28.84425868967756
25.280016223382766
14.39166853647169
9.810365379978187
8.09303668104701
2.735067171925639
-4.936437926129184
-18.60780029849158
-28.430094561586543
-22.46744443653322
-10.889924929850052
-5.644713957208854
-9.54898424423065
-19.217252215006567
-25.689454263835128
-26.059850782177822
-25.96999819285525
-28.940706564738644
-28.59720513093203
-15.275875176613942
2.9300941673346332
3.8972405001726838
-12.894632472351647
-24.653562527335986
-19.68444407127929
-5.737067525479962
2.9593517101675726
1.7519295590959183
1.244844448992557
7.320966052670499
19.844652047721482
36.95289589638984
43.12811262389051
35.84674180176896
31.131420774992602
24.002549471286283
8.622081877789293
-1.067488297573043
-4.572056027726119
-7.922121468764504
-7.69016463926075
-9.572199612659054
-17.97858857449347
-23.820809781796584
-22.355061840923575
-16.789276563330617
-12.199260473278004
-10.364616981684758
-7.905862156769424
-5.53313357148727
-1.857000100519597
7.468004017160353
12.986187576516393
5.625080412008453
-7.226284506740057
-16.01495198691766
-16.50295969180689
-8.731003433981464
3.958341128170029
18.793453727569823
31.42173059990969
34.47799280316956
24.617128706842433
9.258724708809439
-0.2548844097012646
-3.059773520733113
-7.504068412448264
-14.040114100964301
-13.103164780291163
-6.440583428823094
-4.260681737165346
-2.7987534791230466
1.5284085280338249
4.031666163278881
8.91260033434165
12.908240545360032
1.2946720202199526
-20.488748695662988
-35.97061767483123
-41.75734114875889
-39.609127703068445
-34.767797406998746
-32.85898102171295
-25.594546776681106
-5.584517658989612
17.00192559623868
28.012268030421147
19.93220837740671
-1.5221927317661255
-17.982381765530665
-23.00174450277404
-24.39878129389551
-21.59915519831771
-12.113680823447663
-1.1167068997234975
9.133338074602815
14.886420978115568
11.688676431782026
8.636220380493814
14.590285523142311
27.236756883103094
43.945853511151114
56.78289635958319
54.157666784673424
37.59450805137842
18.75173627072832
5.550813013968968
-0.5210162981218368
2.994923200601089
15.250574439557216
25.255553577270348
28.09487628498886
30.23494600571584
32.93697776286021
30.091191943535296
20.41865861520805
10.826469514841945
9.33812020319144
17.94743921694779
21.947462018625895
4.593460702787676
-22.60067209309041
-44.01437482925195
-58.250002572984926
-56.05079569477974
-39.11938056960856
-26.072778431355992
-20.027025835216577
-19.223433957135107
-28.013364964836175
-40.27159311323644
-47.20462620085081
-47.08000186343735
-42.156153526933224
-39.379125392797334
-37.38303500111724
-26.642977337172137
-13.182207732416696
-7.037985231094918
-2.832425596052274
3.783620657552342
11.258091586451071
17.240862934865834
15.477161235078263
8.185645002250636
2.492317971621472
-4.709515640116437
-9.342352319540552
-4.21868873036726
-1.0323834544101989
-4.064381860672381
-3.2579027990241274
-0.10409029581062479
4.787522104833458
14.055489148670667
20.40019642265421
21.143041159132697
18.76004154098673
14.276263268882678
10.602508402729038
6.829202257666569
2.616053523395068
2.4807305697350897
9.535100422381483
23.360258908849218
35.65754784352814
36.98889294001626
30.541110137025008
25.392236175329394
22.775773571969612
17.492668980445163
7.580295679195353
-4.63235822849948
-14.034663429500721
-14.913459883985565
-10.971986795118138
-10.74830888834327
-15.796637055709223
-22.36895040272913
-22.219113610053498
-12.27449578449968
-1.0914573579652427
6.100592063843402
6.567750373347133
-1.9533339126543716
-12.351562219351937
-21.246095675922124
-28.233575409598718
-27.909675294016985
-25.516976565080384
-24.80838854885955
-20.591042882959204
-18.898273292613002
-18.684078030563207
-9.434282032884084
1.1928290663931598
7.3281175082934045
12.312892041708638
7.70988189523123
-9.009041535626244
-24.49743754295137
-29.48696860688649
-26.150151218903993
-20.339540336242
-12.582757338958157
-2.0020625758887096
9.1359457335229
19.227896058411257
25.50688277371884
25.677640500683495
23.182098563474252
24.32518418045134
28.249730951377153
29.18313840594282
30.01605333866739
29.760491195427786
22.07077432278828
17.685173164674573
21.12151848954369
18.161149394329126
8.414336592501687
-0.955205890258171
-7.7904856290828635
-4.43091066937648
9.707184976781457
24.9059063024031
33.30651955094575
27.264072358943324
4.716239623595596
-22.802186056410406
-35.736846735384894
-24.256072092050246
0.789189425918049
21.938414880934058
28.357103909900207
22.31569588448693
16.650247262325337
15.204045495895611
13.389317051748348
9.270829002901976
1.0072987034395893
-10.108570574125666
-15.625842895565821
-9.489434691216198
-0.7070847287373104
2.081046490869658
2.894867239019688
2.7321670357273224
7.076554046181807
19.256396021807387
25.578705388290427
21.97127224489158
9.477124410186107
-7.51737851731751
-9.45453795901118
-2.4598688662449297
-4.183409529215243
-3.3694637552289275
2.3113807390560255
-0.1380685567158233
-7.701086477363687
-10.012545389365803
-5.562215032346138
-3.444603810815574
-10.101344619333954
-21.17881744881291
-29.838913751800078
-27.30716705508137
-10.971675115145462
7.482779637827764
18.552647922348186
20.582230961162068
14.019820368797545
6.496910909579419
5.382047916727036
8.18449832852459
10.799986610668844
12.444691030027267
15.292495281449195
20.076098896715237
22.133633909805468
22.00794238733149
21.44095565309426
15.241694709704813
7.524336933973248
4.612144557967589
3.1680789640601743
4.284679845031837
2.0723439074297634
-12.34408781370521
-23.87298438931459
-23.93075246418774
-23.855562863927798
-20.7585859192931
-13.965521337369951
-16.572022201490128
-23.49335522721596
-22.375803215605583
-14.927985085180245
-3.903163481506703
6.929379170808315
9.559880108908095
3.0313730499677525
-3.9896695888749836
1.9587701946718625
23.804500717382787
41.38453838524996
36.36160119124371
17.05583673646329
1.1384735699817639
-2.595215588300277
5.925646130384329
16.959519059021968
21.437701346995446
21.667316405788377
20.060765285413673
16.406244012896
11.61604554157037
1.4360802984663195
-9.473332012037735
-6.417533265593414
5.66766969417653
15.978668457591928
27.018286692313993
31.78377799617762
25.15079066757469
17.783933419769927
11.342770253102296
7.490911894635889
14.048551792746268
21.804024088461773
23.5871055815796
26.740551491127203
27.970739887345182
21.360353427481904
14.157810017543765
15.087709000793296
24.73995839735182
34.73171415642971
38.528202060408766
37.11940951472131
32.376205357073644
29.958006429292503
32.62717054551223
33.441258166737185
28.218961110113426
18.837473503066494
11.67602865052043
7.971001675128974
-1.6579464384418685
-13.064197015799099
-17.15869074586347
-21.25674837767844
-24.96131515153411
-22.49429520348399
-17.438596172556522
-8.113393940262544
-0.390029549083954
-8.870648117266128
-28.5044102907166
-45.27630613222769
-52.614486493420856
-48.93736431671813
-43.46076512807739
-45.49294446074461
-50.41583450471011
-49.564589840760796
-37.54158400982059
-17.961648734569824
-2.258575927734699
9.915079555137277
26.01618976487439
42.96425632630584
53.998352421673864
54.007848478046164
41.60153984559569
23.450371167683578
9.136431747259971
5.429483394696114
10.249909348832853
17.34527344903852
26.789262635147047
35.52085569018848
35.478009536163896
27.67873521906323
16.91921253491295
7.490610520751196
10.511971189473073
23.22386692194981
23.07452574013068
8.226675435777965
-3.530833191688318
-9.12976700206316
-11.399028432575557
-8.493143142859521
-5.4678475665619475
-7.270021662819903
-7.155066049566268
-0.2774343615425303
6.315173665777115
7.3062134474664955
5.545760257138512
4.758606538410464
5.844745656227316
11.585234317150656
22.150525110937537
22.087361576015656
4.226598886834235
-16.03479428163467
-32.38163872980834
-41.345736672353425
-33.02679000022306
-16.220266458592715
-3.1053497732228483
5.323771468226904
6.389809410712593
1.654232652370576
-7.534249096556767
-21.600537155701694
-29.770804974040043
-28.398612179781868
-26.774151492603597
-24.71716899351149
-21.844926685830014
-25.106453155656467
-31.111733725924772
-32.08974590742803
-27.110656789653326
-17.006725121703685
-7.627141932956064
-4.651598899596108
-2.3806232105833827
2.5387613359261243
5.736400281203255
9.773992304506168
15.734552103454066
15.158946688762706
9.134143178762216
7.988138287035181
11.627840956400433
12.806164314404652
9.164806296445242
3.516222356143662
1.5012884269582443
6.117057587151259
11.247528396722766
11.842873069138385
15.933418175311083
28.82340149367375
42.71474895662227
51.48406228428732
51.28473894770039
42.673885029817875
38.48921431803675
40.71317424991043
40.31738416616016
42.27651845630535
47.126607587670634
46.54084166918901
43.769180014741565
38.74396335456893
29.631794239981975
23.810626940516613
18.99777472022759
7.784795549898255
-9.099809972695745
-25.15850581403406
-29.66934780412789
-20.082296600398145
-4.201565897429666
5.734930194660432
-0.7163752711278437
-12.33021320141963
-9.86503462740768
4.897193687853057
19.753772377722957
24.63785769475306
15.882028363144297
1.5067135265328322
-10.765962206899847
-21.874671824245347
-34.00394313794954
-44.29091670284115
-45.6822034370165
-35.905189777755545
-20.95629492865837
-6.11273250011963
4.514796149193306
3.957434229566023
-6.516054850473718
-15.26199694474596
-17.01357788959659
-13.233791610497187
-1.9839695372645882
12.911647141825009
17.72949408477373
8.264202017342498
-4.569796907490866
-10.087736549841194
-4.792058344087634
4.363319600421212
5.0367367687401075
-5.750781523330017
-22.86816275167565
-35.473773915909206
-35.612502404367994
-31.17072640643574
-26.005176321001766
-19.73915878120059
-23.446502049921794
-35.145052795574195
-41.15436116834513
-39.52975620181582
-34.85614796723622
-33.48520910971925
-36.281035599554585
-37.0893615502183
-32.55574550648572
-23.36161408812387
-16.643962556423507
-18.658915025887808
-26.771609683238154
-33.198723807284885
-28.475736471801813
-14.762907009836805
-1.0655471885281527
11.496587067541814
16.903462653623134
13.596255814447783
16.830007217518755
29.802648246903964
42.03060990973972
45.966986072254585
32.72108714441944
10.111458939837396
3.2862843442695784
16.081419688140038
31.929286758245077
37.787458961256405
29.501810613052474
16.598465553550618
11.709103884220264
15.397809307009368
21.27028646161118
21.051359247248012
12.535183453218059
5.387560177577211
7.214444412339147
15.977937692310899
23.07863012782323
19.776090029036233
9.207512205509182
-0.5755413806527605
-5.534964475983914
-2.9334643487270435
-0.3603106340374706
-5.2067048748792475
-8.9218009226828
-7.752018229292375
-7.825379500142685
-8.848029007010934
-6.820380000374815
0.27958675329288
10.877602199761414
19.926080031938284
22.629608359026108
15.290923610147823
0.1485508635507992
-12.530733494271077
-15.645107076258952
-10.304913838132313
-2.36019712566318
-2.398052247118547
-10.810358806978073
-11.823748059275358
-4.617298656650962
-3.5134350576659603
-8.673823473428724
-14.424994468396735
-18.02651519780115
-13.985494943750988
-1.7167862903916222
13.567356082112926
25.158256515566272
28.398047976173267
25.572763914339728
20.120650423148227
10.195592582326881
-5.474243070353465
-19.10691580543489
-22.432953812671016
-17.926592147327234
-12.669210680925294
-13.444869749157261
-18.351222927405928
-17.90745222616604
-15.82954797598546
-16.76739583217884
-15.95002698357465
-17.801226278996875
-19.57477120300587
-10.337474927930641
0.5067529954996216
4.938034373596769
11.231835068112897
18.14185405379542
15.758113056042104
5.19207889485889
-3.647941307988448
-7.695509921182091
-6.365553952119654
2.8567095136376515
7.838673938619676
-2.1714080963465765
-16.9760192002985
-29.090088350007427
-34.463869017937846
-25.779014015366975
-14.003214274215512
-14.56611698704205
-26.033675801935857
-45.42209457716317
-65.68724607487212
-72.68384366288309
-69.95656938009569
-70.13438650404152
-68.38810630435768
-59.90683839904519
-53.126599658095394
-46.567287076875594
-31.34164469503597
-11.51586683010181
4.338056583585001
10.123112326399182
2.4366313523482375
-11.43662760932844
-19.469389877765174
-17.57891312585687
-15.568962642128525
-23.986086636381053
-32.881080124929966
-28.84029216399474
-15.24416959448192
0.5407765849931812
12.975649913533879
18.280089054337118
17.61628922164214
13.795863751538237
10.085876313826832
5.877074397501291
-2.558734172502108
-10.754007135015893
-9.276973058361111
2.7036920031408607
18.528022508246863
32.41010711067281
36.357105838143575
25.38351866292853
10.041431366134393
0.2520959444147658
-5.163005967794338
-6.1928082145280845
-7.28314017557315
-14.828400367187855
-22.229447658433237
-20.6889478043753
-11.35622775187228
1.629106076718262
15.384059625419711
20.30298124020213
8.441491827637861
-7.875048389060468
-14.402358034160208
-14.160616838610396
-13.032291644422646
-10.484531616475488
-2.339647487244029
10.109987951852965
16.110101180689036
8.820814552587704
-8.74040319797656
-26.90989672881059
-34.90012098326471
-31.35662518770232
-23.675339486021386
-18.878291384954075
-16.917425707417582
-12.756915558521495
-6.490506604988245
1.8400130807533996
14.184986467732626
20.135027021118002
12.370364914316092
3.245736415827549
2.959463282272324
11.253876807592883
22.39063323054867
25.888389805486003
21.187989639160236
16.16427257885463
17.376124941868298
28.855171771845264
39.223546488563706
35.42721009326165
25.06982851929966
16.59169341649923
6.574708160810301
-7.85175414366913
-20.801371263867946
-23.21005426306842
-15.471795324218842
-3.938610045919741
4.798855886383374
5.852174811179959
2.1330403028369056
-3.629144273166247
-11.692275153128298
-18.80512710148195
-23.984481603841346
-30.33937538479402
-37.537665540890195
-39.888933011523186
-37.03693594972654
-36.29248758956103
-39.004130552886785
-39.49911747158785
-30.015330604761782
-8.399779331645847
13.256605826998173
24.408097931544095
24.37530320191716
15.248718945013952
7.306974929173313
6.374442975351386
3.664300691502771
-2.5405572165975925
-8.673242572568094
-14.514552024254042
-13.288402725725659
-8.022210698956624
-9.43251388897123
-10.023467239261546
-4.581780145768502
0.215056528920604
3.9093990255181357
2.539909786814425
-5.994474521263272
-8.378190283799581
2.6612010792557177
17.935326891703415
25.34615684039543
18.5461794509602
5.033199918802505
1.7246873079569822
7.722542547380107
6.197340869048366
-3.0278120184154953
-8.632638765991471
-7.246898789163434
-2.701682798603598
-3.987909244552241
-11.58102531491556
-19.739767330065803
-27.42047397582489
-26.589899956521105
-20.344191558564006
-25.238571319463535
-32.47535940485011
-26.175278881420144
-14.354084670402054
-11.896744628171053
-21.034331194898805
-29.005984291790462
-27.451629603961678
-21.80331335067099
-18.27623654236534
-19.56045441012623
-22.139790867484326
-19.66391539195332
-11.975471810151179
-3.3151964578075934
2.5956862505285248
6.976962345851312
14.991158816390564
28.008264050888144
36.271248164836784
29.915092757926697
17.5695799613499
10.601331452414557
9.256575411025722
11.472304258601111
9.471725887874642
1.7948643393412798
0.8845937366167416
7.286346999136617
12.721185387832415
14.368518433127072
6.279807235026715
-5.912826698034831
-3.946379553327881
7.579139896865652
10.497069932211303
4.552363446980105
-3.671350703362672
-13.04314416914713
-18.378781378466336
-11.831447193181553
0.6616589929004928
8.034032811727803
16.45016164335286
28.561610867726305
34.58769121968578
38.221755306612685
41.798352339094436
39.643471356922916
37.09870489295312
32.61405098202838
22.15804712479687
14.57778481444672
8.233349883884307
1.2878328108221888
-0.24479701298716183
-4.032500510324763
-7.527651497298693
1.4741811195606802
12.973404504650182
18.045633647440997
15.614459495198803
2.6133925506240794
-6.659260252558619
-2.1811969092239836
2.9566192585983706
0.22806740501627715
-10.33460053252659
-22.804879054808172
-23.565320614074036
-12.758525895230955
-4.178841019466764
-1.372348950678759
1.4182185726207894
3.9603877968313386
2.862098977771861
-1.535987633607761
-9.864843002522353
-17.776943945937088
-16.6991919681367
-10.974890482209066
-6.466741262721678
1.082223744749906
12.31798070694435
22.329406618961645
22.128309058628922
9.239129684304329
-0.9559369533327263
1.2483841993725358
10.175484138017884
19.053425371330587
20.938977937839915
15.044842792511087
9.682012490789353
9.940371137549876
11.382971256669212
7.012429008036055
-0.9026001474357489
-5.549627044982086
-5.888635448933935
-5.6380613495752865
-9.834677766651724
-15.977805190438735
-17.43281153011547
-15.334941403068092
-11.157916037114163
-7.091088348663678
-9.371632579825043
-12.561264516276259
-6.953098711812198
1.2833278410747024
1.801989091107672
-5.767258709166501
-15.822417825592888
-21.454138260295856
-19.04314310551606
-11.722952004447007
-6.465876664595573
-5.275364704478684
-3.331516120585574
-0.20095821751406573
1.0645236742962296
0.5676747617845769
-3.4099265182365253
-9.036702634737429
-10.675517090470478
-11.7491853835187
-15.456281254351719
-17.504851295399774
-18.50332166009904
-19.050487643532446
-12.504334752947258
0.6404491548828292
8.892791256796697
3.5756085806693796
-13.175571356170089
-28.854941860339014
-31.83918893717781
-22.60220815105909
-9.281773464857107
-2.8613424933206058
-7.704375365718256
