AAD_Filtered_TADAS_FILE
AAD_BASELINE_CORRECTION: BASELINE REMOVED
AAD_FILTER_TYPE: BUTTERWORTH
AAD_FILTER_ORDER: 1
AAD_LOW_CUT_FREQUENCY_HZ: 0.025
AAD_HIGH_CUT_FREQUENCY_HZ: 40.0
EVENT_NAME: 202302060117
EVENT_ID: 13194
EVENT_DATE_YYYYMMDD: 2023/02/06
EVENT_TIME_HHMMSS: 01:17:32.00000
EVENT_LATITUDE_DEGREE: 37.288
EVENT_LONGITUDE_DEGREE: 37.043
EVENT_DEPTH_KM: 8.6
HYPOCENTER_REFERENCE: AFAD
MAGNITUDE_W: 7.7
MAGNITUDE_W_REFERENCE: AFAD
MAGNITUDE_L: 
MAGNITUDE_L_REFERENCE: 
FOCAL_MECHANISM: 
NETWORK: TK
STATION_CODE: 3131
STATION_NAME: 
STATION_LATITUDE_DEGREE: 36.19121
STATION_LONGITUDE_DEGREE: 36.16328
STATION_ELEVATION_M: 203.0
LOCATION: Kahramanmaras_Pazarck_Turkiye
SENSOR_DEPTH_M: 
VS30_M/S: 567
SITE_CLASSIFICATION_EC8: B
MORPHOLOGIC_CLASSIFICATION: 
EPICENTRAL_DISTANCE_KM: 144.98
EARTHQUAKE_BACKAZIMUTH_DEGREE: 
DATE_TIME_FIRST_SAMPLE_YYYYMMDD_HHMMSS: 2023/02/06 01:17:37.0224140
DATE_TIME_FIRST_SAMPLE_PRECISION: millisecond
SAMPLING_INTERVAL_S: 0.01
NDATA: 12501
DURATION_S: 
STREAM: HNE
UNITS: cm/s^2
INSTRUMENT: sensor = GMS+/GEOSIG | digitizer = 
INSTRUMENT_ANALOG/DIGITAL: 
INSTRUMENTAL_FREQUENCY_HZ: 
INSTRUMENTAL_DAMPING: 
FULL_SCALE_G: 
N_BIT_DIGITAL_CONVERTER: 
PGA_CM/S^2: 366.051
TIME_PGA_S: 
BASELINE_CORRECTION: BASELINE REMOVED
FILTER_TYPE: BUTTERWORTH
FILTER_ORDER: 
LOW_CUT_FREQUENCY_HZ: 
HIGH_CUT_FREQUENCY_HZ: 
LATE/NORMAL_TRIGGERED: 
DATABASE_VERSION: 
HEADER_FORMAT: DYNA 1.2
DATA_TYPE: Acceleration
PROCESSING: Automatic Paolucci et al., 2011
DATA_TIMESTAMP_YYYYMMDD_HHMMSS: 
DATA_LICENSE: U (unknown license)
DATA_CITATION: Turkish Accelerometric Archive v 1.0 - Disaster And Emergency Management Presidency, Earthquake Department
DATA_CREATOR: AFAD
ORIGINAL_DATA_MEDIATOR_CITATION: : AFAD - Disaster And Emergency Management Presidency
ORIGINAL_DATA_MEDIATOR: AFAD PROCESS SERVICE
ORIGINAL_DATA_CREATOR_CITATION: AFAD PROCESS SERVICE
ORIGINAL_DATA_CREATOR: network: TK
USER1: GuestUser
USER2: 
USER3: 
USER4: 
[...]
-13.214652608232065
-13.922981916661373
-20.277325605053836
-22.807464121562884
-18.71224319056551
-17.73027894349805
-17.260411867625926
-12.641738579778044
-10.57528106406028
-13.681279091746795
-12.990186780051998
-8.924604303149804
-10.240067185798305
-14.204746649272163
-12.625092994179912
-7.196906538867581
-2.2987817961578183
5.113085294877062
10.143772207822225
9.544149166461917
10.95038379974422
9.541018117766345
2.5165110870569682
-1.8509787166112512
-1.2643167470427126
1.350016017772802
2.70109443370706
4.488393609438753
7.136863843845207
7.53675689100956
4.30660836901782
-0.3976298918139795
-2.041992413402569
-2.8982720364313597
-4.403694522184639
-4.328899773563475
-4.225158518856327
-4.501410111232526
-4.249697471456046
-1.978357352107938
-0.9581182707867676
-4.764766144796932
-5.278940233629426
0.3170712970061464
5.7723417249689595
9.536556804349324
9.868093045683567
7.308475759095391
5.632872265055069
5.7510235155124025
7.819506747855185
8.325609438175256
5.386189012971506
1.8139390721306996
-0.8796060167683329
1.2642723220024752
6.147089071364551
6.784821213512497
5.300412039030097
3.708012219231042
1.1015617181367816
-0.9726443357639111
0.22813608549020614
4.860408179096541
6.906094886805766
5.382160964993111
5.587578687745778
5.698965778010955
2.2017656755195767
-0.37470400541640003
0.3749095581583967
0.6892122600627584
1.060340076185651
3.0904520198260617
5.316430079262055
6.335002553615325
5.118435505073739
2.9609673070484956
-0.5319628342013775
-7.3619814642590695
-10.24159697516977
-6.376198896330002
-7.448360943265134
-12.655508158821366
-11.92131014126924
-8.23658584822205
-9.869036797238085
-15.790664487401836
-17.683692120835218
-16.761155389650956
-16.510044571558844
-13.687563678612761
-11.106273858819437
-12.739584386690057
-16.29844399976023
-16.644426084714915
-13.60576174486869
-14.171982398642246
-17.377814505107732
-15.809945984194576
-10.786340782277604
-8.989177296518765
-8.130092283930244
-0.8736741409811575
6.1604235928582245
6.464346301845039
7.01535837905458
11.070864502274116
13.109858459827228
11.12926472139205
13.941342240585728
19.482378215855988
16.129178513492526
11.714406904364779
17.80891642194139
26.23212489183185
25.766581020039382
23.005044053502917
24.10646068758282
23.493177509577
23.623823090152623
23.65074016133445
17.606012171213585
15.146832293545724
17.517575365130025
14.149890923497317
9.363928676963505
8.777424426442082
8.084656642360189
6.423615141978777
1.4769819581475574
-8.047392958709944
-10.57386920008694
-7.676100149338617
-6.678966396745288
-3.9764325928437354
-3.8504310743387387
-3.9321773158730466
-1.9001433777137002
-8.163743406675719
-20.448695890879243
-22.878394303230362
-14.80820933300844
-13.720242476259832
-18.348521996900597
-15.63274668378642
-11.373377342178769
-13.571981937235812
-17.32378637135804
-17.846073315474438
-18.739008771782984
-20.179034186902385
-19.82285596743184
-19.65874149325294
-19.54018108882844
-18.633610558746472
-16.981548026957416
-15.925883824703725
-17.319570458499832
-18.617837105713985
-16.648099627253075
-13.17647033356171
-12.292563011638022
-15.56921453320285
-16.423111643414373
-11.937549857129854
-13.051507070743314
-17.006383963021882
-14.39661118298773
-13.643067706036803
-15.968909130632316
-15.699695636671679
-13.983614957861397
-11.533369111133412
-12.535712672432897
-15.252071905594338
-14.22735521737285
-14.647681862054576
-18.672696498491426
-19.544056449010597
-15.181917630789565
-12.529308234412653
-12.524972960350205
-8.884799127199138
-1.8870166573975629
3.693351644883822
4.352880235118407
2.4808850476089295
0.7049094890043676
-1.932733636443066
-2.5672748411726856
-1.2429103512097284
-2.4790678485185493
-5.173052001035289
-5.290045809839901
-2.271301685564814
-1.2119311699939594
-4.094057540744352
-4.198068753140862
-2.8390688360964145
-3.6489868024085803
-1.9573883239200893
2.7725698504721885
6.0551398341001255
6.701584477423674
12.217610253653689
22.114652883116243
25.16252663140828
23.156211349148354
25.320778898379384
29.419916955381765
27.337188947210564
22.747446399715553
21.192599934115584
20.715967380874343
21.940700272354103
23.314419874650902
24.913012993633973
29.294274680489767
30.303648300027902
26.619272149976144
26.151341894038975
29.739960522806623
32.79741300710407
35.33536832263848
37.97317659207818
36.14287607932274
31.413886444390133
29.583864080464448
25.992593495092457
20.34531242524698
19.591807235766815
20.585573213232195
20.77562368450572
24.679948533494063
29.985127271750713
27.273440378848658
16.60270740553642
11.199933548823124
12.771786877654614
8.121492601463036
-1.2060650761793765
-3.502039058913722
-2.5657310612591453
-4.264649929400978
-4.222469725394414
-3.438956198005633
-7.8958261352439045
-17.031614905491256
-22.872102578085357
-22.168587102374286
-22.60405414805267
-28.145103652681524
-33.38240407061134
-30.886946548338006
-26.325570918876167
-30.757626231781042
-33.46692280663066
-29.554124483219276
-31.69190244116215
-36.38980985278954
-31.421182449588677
-22.309320871183793
-24.09451202001078
-23.59270823105994
-9.836671356113092
-5.509004320861824
-8.81761740385883
-3.6245206146043834
1.7183704043034689
0.16114324855125783
-0.599672919067181
4.1911578268525975
2.340210410103247
-5.460937331566892
-2.58330015171356
2.7623412077989817
-2.7358703153200326
-4.922967224150042
0.7966173816879348
-0.39255286334014594
-2.4435148233349753
2.2973130744609698
5.086430958088295
3.2867189845937133
3.136346222787652
7.315163077787282
8.837947119624488
7.740134220836194
8.938652671498621
10.124535763528993
10.688610968275924
15.174914884946828
17.147733327658
11.285854939717657
10.868490222980483
8.734765701518475
2.139318074695156
4.890330493598165
6.5465684606555286
3.369564925285115
0.7991391982388739
1.7733213554762668
1.6419222830082794
-3.7771554834197154
-3.529918736402528
-5.183359449209449
-15.363468162663226
-23.739880937783976
-26.965376824522508
-28.48445235316413
-32.26883319153038
-37.366909094373675
-41.94766190676266
-40.37357034508397
-36.94016818975157
-36.55340580792458
-25.24334535220219
-13.270353044106054
-15.257009678558479
-14.024372038344774
-5.453272441716155
-0.23524541698814713
-4.565004214504992
-9.490781735264473
-3.127092936603264
-2.4839332902669264
-7.43931327739319
-4.61576988026195
0.28294252748181886
6.8705664175701955
5.903113532703859
-0.5135883442840014
2.6700813278283135
6.1267487544954005
1.3364539465470535
-3.9061687509684653
-1.4484778157505922
-0.8596955119577421
-4.64133136858777
0.404263610429839
2.3898335965846687
-3.056382518146142
0.015590432795786324
3.7675350020788585
0.267110230186828
5.626544221093482
14.589990839979928
3.0148916243270807
-15.512644585762459
-15.2579295430621
-0.3589098358344972
7.5090653374917915
1.2590563279588336
-3.4846117454409367
2.6444835406707754
9.125528690826041
4.733400161048354
9.952806983444841
23.247409441756187
18.195568490123698
17.26583754235329
25.38115032054204
28.029880104378563
28.13305346701971
22.10280152772676
26.440019015734638
35.15488803768375
28.953179719127675
20.248030273550654
19.846364927870198
21.85267353292794
16.872534580757875
12.756495727987383
4.332651098527318
-11.660632096682642
-19.490984346360634
-16.90420613209261
-14.031817894449025
-16.536080025905427
-21.57121817753453
-31.967983480393677
-25.148839544607025
-11.310007426611143
-24.918801954034844
-29.370928170257802
-14.241480799741709
-10.483848047361015
-15.894118140206242
-15.286414915452308
-10.46878749709448
-12.631505856232481
-15.608680529007477
-6.110911537980517
7.206634506685155
4.172626761489192
4.347080931231192
19.007678187637588
16.16969089050214
5.8316828236413984
8.859537380518118
10.452580931450324
3.953265373610979
1.6949258924789028
15.27185717705415
23.497083138502283
12.975184510145448
4.966990487485007
7.911488872068528
15.865515913649414
17.78492170860658
8.837646465241368
1.2068643710975702
1.299129240451417
1.8048530159160312
0.803402441592481
-6.940377802852818
-8.205188908979649
12.818264126184607
14.681038786079304
-4.047584218214588
-1.573080909161121
0.9350543915937246
-12.229750446474352
-14.426245752863268
-10.911049898629553
-24.580477450911513
-37.34390278249531
-29.55712355051469
-17.652971709830997
-21.98581010025181
-35.58919510027249
-37.41970683002466
-35.81012050144386
-36.05525912849684
-29.68509485849119
-30.924186994280447
-36.664614185910594
-30.86480410645066
-25.98963870432712
-31.248238269567107
-28.05927363727688
-19.4234641212307
-21.151114374846596
-21.401490610223682
-25.726162110384077
-41.41212718910656
-44.80528641629066
-29.46418424266868
-30.51208200515139
-54.78836699653439
-52.50148463309594
-32.79027449064435
-36.07459293421681
-37.433025665308634
-29.37211023890717
-29.996168503294676
-34.39277909025426
-35.51245752933764
-42.74089641377451
-71.3247761484924
-88.81218435018009
-77.97285622955216
-74.76918901428698
-82.79568839821555
-80.65487931461536
-62.60211972075889
-53.60955379340175
-50.75867911516416
-26.75040292694209
-14.33091455874868
-23.538158943721278
-22.560865408355937
-12.609403616209585
-16.4590510694992
-29.076873801275767
-17.69624159850333
-11.199907631688099
-20.92337871708961
-7.16444087160423
7.898324796162954
9.627690937379358
2.853120182712601
1.986255147472565
17.072079101919975
13.41817478598269
12.324749032873736
19.999139237594015
4.989548784455353
-0.09135362617794117
11.118766453090567
9.892331241510213
0.8199166701048736
9.515939894361653
30.114783227949285
25.537932410940098
10.261154481163539
27.211482966666615
51.5472699946245
45.53220483462297
41.26243607015221
44.253388679459434
38.4711811200188
45.15436842325228
39.16273280171814
18.997221851527886
30.465832039005512
53.08054764560625
57.18636932030165
47.09241795692937
35.57593193027663
40.54802035526357
39.348119954414415
13.030671295385403
6.8769447022557095
16.8025468076542
1.3336440301934527
-5.377758752088873
8.620279594453034
9.808024547020766
-11.207556839773487
-35.41949999847504
-35.30226038280121
-37.73968041303406
-57.56416005868443
-69.81520202076263
-72.80954330231938
-59.48722226233175
-41.69309483280457
-37.78653570869098
-39.77935988347687
-42.05460479867179
-36.39517366994462
-37.99207267115206
-52.87752280717038
-47.64269439976148
-27.100129755769675
-9.024931051548664
0.9930885522639675
-5.211750109005623
-4.488828520720825
-1.7793884408410174
-11.25251405842087
-13.521571756333795
-26.78634181515362
-42.03648638377686
-31.63850403467727
-40.133511451374574
-57.24154092129044
-45.70871200096034
-48.30691167318706
-62.98612190820583
-53.69466126479451
-30.022338927348912
-38.0479430750615
-80.0135304030118
-74.84725838083779
-49.810142188651426
-73.57868201573847
-76.0060875213243
-31.193880805280063
-17.866541758587644
-41.432564908449045
-26.857832657525783
16.8037374478729
30.27543767923692
33.564606847661075
40.286619440688426
44.797695510755524
59.696403270545794
70.21387428725397
75.76871213611432
83.89343341196812
98.32700483930834
120.33720636620983
131.87216414799198
153.3882938072576
170.93306170941761
154.44263785108257
157.05814781096223
181.68203884863482
194.38070074612315
193.16497879325172
180.35886556204196
178.85878500458816
182.5688099772064
178.50700869633408
163.35911152729872
122.6087258512458
91.51922306957601
105.25798556237352
135.39369661630937
144.9410140828531
139.220007623816
151.767406134975
155.77434081106207
140.76087124264313
150.51745002887301
162.3285665305391
168.1222720492067
168.92292239494876
163.5180240878326
172.83085957185486
170.9016207028266
160.80552044589155
160.32799704331214
160.0709680514564
155.73395774768323
145.46283084179476
146.67502218262365
168.5491336358659
159.46647029727487
109.69821820350296
93.33800981781825
94.02634924824545
73.88353942521357
56.545659945769025
47.86705814489048
52.769740496482484
45.68833192525958
31.549872280924276
47.37476088640488
52.7552582564077
21.504331431475727
10.605664006955823
32.25190616939792
31.81646794146259
26.742064193849206
32.065041118479506
25.45967845234396
28.759438092926906
37.49167230557844
36.54506711719229
40.24844063305854
49.212948642592615
17.44098649454451
-33.40906727827305
-25.51355677080462
-2.6098458469594776
-4.868644275127663
-15.267143127766754
-23.391057736315705
-33.17243681159278
-62.91717753956628
-56.70505810668765
3.149676412088823
52.25755169634317
45.427394397151424
-0.32002498371964694
-32.68867459156613
-69.82034346456777
-100.50413414139618
-97.22046745795616
-97.68095227619801
-113.26538483436742
-137.23527271705376
-154.47188501520165
-167.58667641621687
-181.91259582949306
-187.27769541589694
-189.35762772530725
-196.3847720230964
-237.3230812089114
-310.76880232854126
-364.349592158304
-353.1773034162519
-303.9090009240899
-230.28187550928678
-151.15946715891252
-183.0401041042357
-257.2178943203614
-253.68856898738267
-225.67088646814548
-223.3349465773201
-244.6716148466953
-202.97512580252308
-126.3468311720698
-129.16757607738006
-190.28354854723102
-212.87209432368024
-142.04628805104653
-91.1045261235863
-93.1245839688467
-42.71180886403168
47.72786864387943
101.56215806676532
72.41590921747914
16.342060082914458
-1.7133514599041675
-16.263710567935497
-34.36521568433093
-42.583038619034106
-48.87660337975917
-39.622389182963225
-31.029897481599065
-25.661017802077836
-3.2676175532755103
13.540469143158376
26.923423233384618
17.109242189407826
-8.082389764411735
26.220762956154687
74.22072230400276
69.80562524130389
38.24347912792678
18.28954561772984
40.24525594036235
76.95651167703828
79.8911306289462
48.481080045059386
28.0462054320271
61.821525862601085
110.38524819567574
89.62886594441156
29.3397546265698
37.688547993429154
86.575156885055
80.35183913429964
26.129168813595026
0.8271092277680259
35.346147807649295
49.735134636438225
-6.33943355505491
-85.90928085722673
-113.79074770805394
-60.51993049048546
-18.295365168156465
-45.92542363662326
-83.27116877776473
-87.02151135684628
-98.77450276009257
-163.50695172804438
-218.02179630677978
-219.93066327122136
-213.34096158525463
-209.92270410463826
-201.99991991037655
-183.1332155401701
-154.12169898221606
-131.75847976018633
-120.09785647316717
-106.39189457964181
-72.52980710190413
-26.471689734147667
5.545117578753466
14.2991961946397
10.75447254179711
7.799251902886375
6.131072878836298
11.81529317478041
51.890665609127495
106.4934349789103
139.6728030020041
190.2035142084591
238.13600942331055
257.0610914871824
278.7431773674143
273.668632594684
263.8369076339651
272.5094327813741
270.7937825792356
270.01639031691786
242.91756316938145
186.5563759705094
169.1110475410897
195.88353820097595
205.07000487370635
176.54223941381616
129.28176102623198
82.341306305815
58.84311256821898
42.90041614669663
12.832009107755061
-25.83496258589254
-28.041660155097457
37.47691941035224
45.976660565363744
-49.352710879257394
-101.6239998559847
-82.11604019888684
-63.85709355461968
-68.65204705183321
-87.47494718556143
-105.40470339319167
-99.39891961526023
-81.95895170945505
-127.7697818198691
-199.77830555768614
-214.42036254582186
-214.48625664702865
-247.26535815933153
-301.5875470197899
-309.90154446059273
-253.20790967589437
-205.70795384787633
-196.7881232637711
-209.04227846035778
-202.87837096195761
-184.87599589626183
-190.99745214521369
-172.37568984235446
-120.79962691947736
-81.77196364952447
-53.790806336332324
-35.252713320226945
-15.733449974447426
7.466506926457913
12.904657130709632
20.83174652329736
69.10869161820993
132.5110932317207
166.12727094859645
162.82615114624457
135.65969948387647
137.04732937037292
174.96048766596613
199.66815452681118
207.45003342566253
208.97409294130406
216.008101264483
215.83057105301424
201.21818956575046
210.1658863130399
232.70538030196536
233.91712004886696
206.00046741362797
180.66009505987205
181.06004847034194
173.35158151768275
155.05032820998505
149.65241691331315
166.71145661284078
189.72749756675032
190.4660653312992
191.05452520098274
206.42164871771365
217.16706242422984
205.29424010455844
156.06859720217696
94.48171668134177
68.23417696884097
71.31344133376582
65.02268163930324
54.094426838393744
59.36478668715278
69.82775474736276
87.53488552421625
116.33349162988384
108.99828573742256
75.67230940062736
67.56540188168191
39.717781502792725
4.055048131392073
30.218934226413253
69.96369843206583
82.97118764862624
94.01337564757704
112.77210770684493
125.07013969490217
100.21220890048275
42.5482905988943
-8.585027686764622
-18.167691519425
-1.050384345021199
-4.833865293847245
-18.64381816154132
-34.602751706246906
-70.78575118593643
-95.46385179618285
-88.81644721401955
-65.9652127068328
-56.54696391294321
-84.34875265913593
-120.88929786558279
-150.35876787115185
-174.56113151125982
-176.87928950893073
-173.90742119417246
-184.73266564071335
-187.50352120929588
-174.03984485448524
-155.72905851771029
-154.70693994763292
-169.55997708239622
-152.28977925243387
-144.92659028363647
-158.52900983598067
-122.30141315101413
-92.4828412946188
-131.05321610864124
-202.41269249246295
-198.39896120026327
-108.69124882033574
-73.15608805582835
-82.81489737906917
-66.63187283600848
-52.44339753037577
-64.94316950805184
-105.6914509079194
-133.1874517027232
-117.4132066329569
-101.35663880796136
-118.14107552578476
-145.5745914738439
-155.81622870786026
-150.23507626138968
-157.5961160337314
-173.45744651047107
-156.86085003990152
-133.43619049520908
-109.9757114918717
-60.740368765814665
-37.727492368506034
-29.24818527549965
5.795247414949588
22.07489812867139
9.740306744624817
8.10271701091906
27.81248644978967
40.974080701766034
56.82001455691466
97.72585441146128
114.78501195901609
102.53434474934544
115.83181061684759
145.42820767750203
161.15852017370364
168.1815503381624
173.2270626471721
178.95942283825173
177.94809952257023
151.37788800606774
110.02360977101067
98.39623156460084
99.51172180849835
65.88155660177823
44.41972993932154
52.75358448303844
35.87305539686485
10.483590828246632
9.155408743175366
14.363114292344818
16.033514351707364
13.88782152326761
1.4713084445985316
-2.335149721768857
17.95055727949335
18.941959731543157
-19.085820445688242
-44.82106475137512
