AAD_Filtered_TADAS_FILE
AAD_BASELINE_CORRECTION: BASELINE REMOVED
AAD_FILTER_TYPE: BUTTERWORTH
AAD_FILTER_ORDER: 1
AAD_LOW_CUT_FREQUENCY_HZ: 0.025
AAD_HIGH_CUT_FREQUENCY_HZ: 40.0
EVENT_NAME: 202302060117
EVENT_ID: 13194
EVENT_DATE_YYYYMMDD: 2023/02/06
EVENT_TIME_HHMMSS: 01:17:32.00000
EVENT_LATITUDE_DEGREE: 37.288
EVENT_LONGITUDE_DEGREE: 37.043
EVENT_DEPTH_KM: 8.6
HYPOCENTER_REFERENCE: AFAD
MAGNITUDE_W: 7.7
MAGNITUDE_W_REFERENCE: AFAD
MAGNITUDE_L: 
MAGNITUDE_L_REFERENCE: 
FOCAL_MECHANISM: 
NETWORK: TK
STATION_CODE: 2716
STATION_NAME: 
STATION_LATITUDE_DEGREE: 36.85643
STATION_LONGITUDE_DEGREE: 36.68833
STATION_ELEVATION_M: 415.0
LOCATION: Kahramanmaras_Pazarck_Turkiye
SENSOR_DEPTH_M: 
VS30_M/S: None
SITE_CLASSIFICATION_EC8: unknown
MORPHOLOGIC_CLASSIFICATION: 
EPICENTRAL_DISTANCE_KM: 57.38
EARTHQUAKE_BACKAZIMUTH_DEGREE: 
DATE_TIME_FIRST_SAMPLE_YYYYMMDD_HHMMSS: 2023/02/06 01:17:16.9977600
DATE_TIME_FIRST_SAMPLE_PRECISION: millisecond
SAMPLING_INTERVAL_S: 0.01
NDATA: 10501
DURATION_S: 
STREAM: HNZ
UNITS: cm/s^2
INSTRUMENT: sensor = ACEBOX/SARA | digitizer = 
INSTRUMENT_ANALOG/DIGITAL: 
INSTRUMENTAL_FREQUENCY_HZ: 
INSTRUMENTAL_DAMPING: 
FULL_SCALE_G: 
N_BIT_DIGITAL_CONVERTER: 
PGA_CM/S^2: 164.621
TIME_PGA_S: 
BASELINE_CORRECTION: BASELINE REMOVED
FILTER_TYPE: BUTTERWORTH
FILTER_ORDER: 
LOW_CUT_FREQUENCY_HZ: 
HIGH_CUT_FREQUENCY_HZ: 
LATE/NORMAL_TRIGGERED: 
DATABASE_VERSION: 
HEADER_FORMAT: DYNA 1.2
DATA_TYPE: Acceleration
PROCESSING: Automatic Paolucci et al., 2011
DATA_TIMESTAMP_YYYYMMDD_HHMMSS: 
DATA_LICENSE: U (unknown license)
DATA_CITATION: Turkish Accelerometric Archive v 1.0 - Disaster And Emergency Management Presidency, Earthquake Department
DATA_CREATOR: AFAD
ORIGINAL_DATA_MEDIATOR_CITATION: : AFAD - Disaster And Emergency Management Presidency
ORIGINAL_DATA_MEDIATOR: AFAD PROCESS SERVICE
ORIGINAL_DATA_CREATOR_CITATION: AFAD PROCESS SERVICE
ORIGINAL_DATA_CREATOR: network: TK
USER1: GuestUser
USER2: 
USER3: 
USER4: 
[...]
-43.82043768062997
-44.19044524611866
-40.394239202058195
-34.64611766942775
-24.845759427982223
-14.750081975523292
-13.96358225100159
-20.585244763257936
-25.72097235009969
-28.15261749693106
-29.972554849452933
-30.486571443025177
-27.7798126513827
-19.517502487893523
-7.070302674116227
3.629229749094709
9.890493610353102
11.030264233696919
4.646902315776281
-4.561768630040247
-6.207804282571736
1.7860025964681316
13.107051283964166
22.56340490086325
28.323585845378968
30.711575410251186
33.37985642642149
38.97950786903972
44.14753702610445
44.414250121466765
36.82926270336576
22.16156414402039
9.034226145447578
2.7987362169384564
-1.7806058749882008
-8.720399789670315
-14.084329683452973
-11.26815640687725
-0.2801481463815482
9.76455489194968
10.583767285134739
1.693192237484029
-11.312405262246216
-21.280360556205217
-24.771979789573788
-23.217140691477134
-20.077410850240714
-18.58697627386983
-20.082409391438695
-21.7159955062232
-21.15560095108182
-24.681565307023643
-36.69692297545586
-47.93058500858168
-49.507763526281224
-43.4621527791567
-34.712355195711034
-26.631223904240777
-20.243957714584866
-14.834030509519152
-10.718361042647308
-6.976546347702099
-2.3295817940555885
1.8823937736301921
5.815176191211689
9.784684652285124
11.558993444985475
13.743580335217729
22.05838972071338
35.04640731070593
46.31013109326072
50.900050816229914
46.59841168004807
35.62275348586893
22.611127639617404
9.427405700425847
-3.266166556226405
-12.833983552678852
-17.592898393841864
-17.293101134009735
-11.982095798374285
-4.358036839285033
3.566386249422071
13.183256329574098
24.411955712101495
34.8596138530287
40.63955635446691
36.84300486307541
22.961268227036886
4.764645207487181
-9.433580459647791
-13.948571218645878
-11.531282942061699
-11.106776093333893
-18.13024248002754
-32.744611426344804
-52.28261740652464
-67.78598570126245
-70.06931999839829
-63.29262542823463
-57.69937032472141
-55.193303126905306
-53.09830205634982
-48.704764742277085
-37.80343804027299
-21.77932145573807
-10.079063824110698
-7.6841107171369485
-9.05503360189744
-4.963069794334422
9.46847887894287
29.97290359172924
47.55823655965572
57.268943099679646
59.745219709893526
57.198808320812134
50.90405561425028
44.506470067057364
40.106976517879275
30.3474759878778
12.804611001838243
-2.3753905593733293
-12.572010852728436
-21.851765619773435
-26.086139103381534
-23.2840799060423
-18.95661863739024
-14.227976868676446
-5.254594506374087
9.750282054734146
26.865318686786015
37.81773692263477
39.17345135153648
35.22648592686811
29.69075476856392
24.247957768706385
22.21395412642512
24.18128186137005
26.32631986722187
26.64700625563438
25.414377915031267
21.39829409574929
11.235808285245144
-7.366722188422804
-29.199561212487694
-46.42433591750935
-60.42920659711479
-73.65747613031147
-76.57122748782096
-59.22694519291381
-27.19589749588701
4.842132266663881
26.66572566595061
35.11092972750596
33.36375893513699
29.15633427195349
28.105552881670672
31.189581863880534
35.82965268513234
36.066791346059865
29.676279159557925
22.080152644863748
15.862130384474476
6.866568299925342
-7.089316396244284
-23.881569014711285
-39.96384208612696
-49.81656424305827
-48.14244128007759
-36.72220931427882
-24.620539900086207
-20.20803464905307
-25.707174821811236
-37.11856127333432
-48.82836257505612
-57.67978458300785
-62.35707637924899
-63.28494871641055
-60.05439145560351
-49.850638233984064
-33.10164362752294
-13.665654072052941
5.388397286324454
20.042851497631684
24.91599253086749
19.144952588097244
9.95521429796878
6.145113775276249
11.090004037597442
24.57750549317529
43.067587144478985
58.54291615824575
65.56506719632485
65.10052989229476
59.9199665274231
52.99718498986373
45.369048055027264
33.95151976820526
17.50162718465624
-1.7200419270763039
-21.730780164748914
-37.679668093330065
-42.58383403925111
-35.723306407937706
-23.327033709276282
-12.357450733150666
-7.370441416506715
-9.916893584676007
-17.113796331617213
-23.388508044787336
-27.059124701356133
-29.841171845066608
-31.059033831185864
-30.19730957424689
-28.183268096504946
-24.91312536478506
-21.569839218084237
-19.268027144936244
-17.183224934099794
-14.309313791579177
-9.02320556162336
-0.4712097666020561
10.607480975392656
22.309334523860514
30.853129767297233
32.73073377021175
28.825844459606405
26.003317106067094
27.814926021112903
28.32474635101474
23.017477135757936
14.119865875627545
7.169857262220638
6.183869795880766
8.476246116245362
9.966640670641915
7.70134126452466
1.3105915560069807
-1.5310850134002985
3.7431279212300606
13.14911620607794
21.927065362105846
23.885036648161737
18.73569837405148
15.207662768239945
15.595914863722767
14.757541735930662
10.254268577726661
0.5248386077187146
-16.012833158956386
-34.20612556441486
-44.53229094430141
-44.9453503254882
-44.63756435204195
-54.53471478083628
-73.61270173321323
-90.14202931996044
-98.01022139043734
-98.85239885143388
-91.11692306998631
-71.9578918837047
-46.042721926772494
-21.031202288703632
0.8488961371862145
17.834010793707886
26.186395127241713
25.80971863979294
20.952525083970563
20.418089428331726
29.667931419241878
44.29373168761879
59.488339713024104
69.91710868222067
69.5197048284938
60.547530281967504
49.04374284938059
40.439636945467676
35.83852938462382
28.68062052008045
16.691605652665647
5.885134652401046
4.018356978756627
14.396381545106658
28.718843288845854
33.39496523904854
22.05531039160121
1.2901162077902633
-16.545276754399183
-27.64215584334454
-31.89805066769443
-26.898160657713067
-14.166303300306739
3.4794052651153686
22.476016535137664
35.622532622862664
35.171458925603936
18.526553534646744
-4.030769877822531
-19.561929079612867
-27.79570532260578
-31.425113255810096
-31.381597697459434
-31.31698372803658
-28.426905575701205
-19.717725362426332
-14.363325085603645
-17.484924404985797
-21.97345396615699
-21.569760144691944
-15.528704576466021
-5.910810053849902
7.115680016638149
22.26226915606126
34.46963074293219
45.685559826457386
56.89060601359897
58.27297315020433
47.44647937221364
32.244097321471074
18.05222677635694
7.166786032934023
-2.5130832295521826
-14.43932595042637
-26.147028948586772
-31.6616168026722
-29.730396442294392
-27.64518555049658
-29.17455326199877
-28.984887530244094
-26.157405789199412
-18.901842547536482
-0.7077182707601712
20.122676433796183
28.9614985208308
23.82029857898601
8.12072920185645
-12.627153067039483
-32.26636355046459
-46.734612764917586
-49.907428322265076
-39.19397946477858
-17.615059117603355
10.106289993374922
33.32256730503748
42.47392849264167
41.0319529126378
36.79328526411845
29.463965864440866
18.538453287748922
11.751664305622127
11.719132457917496
9.594941221943417
1.7381628466255137
-6.214385111668364
-11.920099103340094
-16.294862441371528
-18.457953073061244
-19.260151759011272
-19.71048469746018
-18.167869564013227
-16.13287680798543
-15.115442134880796
-10.357940734578564
-1.411757521297686
4.660987906221004
4.48926292161567
-1.896578111673524
-12.935522742236534
-23.519013088027922
-28.442712759248444
-20.446647177707302
5.464961668292482
39.05041325554638
64.37532702874462
77.04758506944323
77.79898918714457
66.73109454714579
51.72232996719092
41.72534946931415
36.510983954622255
33.512093906550554
29.868738245861604
25.022605405775224
23.90030407623909
26.37360691542914
29.48403885979879
32.54560165684913
29.58473697863067
15.376523027918843
-6.215916170503736
-26.630286732102874
-41.390985687096936
-50.29565436635786
-50.14789281896231
-42.86586392305303
-31.23202238168676
-6.31896388307649
29.052156963364528
55.75309169297372
64.64375265891073
57.2073967750125
39.48600531386164
19.92173102520427
2.160656460327076
-12.86128167296348
-22.461124723469997
-26.695453114084884
-29.31284316892667
-26.508067112506698
-13.777989436237984
-0.8558962326339714
2.405193706627281
-6.89940907283883
-23.72246171849425
-29.004840917047723
-16.499100636657268
1.434654753316847
23.392965700135374
47.214559590349644
58.80896459759489
57.51464940848266
51.814717409551534
40.88882723066671
24.629917905575574
6.615238876799928
-9.58160998749254
-17.92250934177188
-21.96364749345928
-29.80699599391991
-35.17814660985698
-32.88160254637943
-29.673094303826495
-26.13764046509709
-15.178263710033262
-2.516973279294666
-6.176502767001826
-25.13592703814218
-40.40234741422397
-47.46736112498677
-44.132343482027295
-17.46445277704296
24.679814822843884
55.574737328880865
63.61823419668118
49.5642866515017
13.773824800732918
-31.8384639260023
-64.0742656260322
-75.15387361217185
-76.72917204767238
-71.99954811962927
-55.72938669820341
-33.55951266977709
-8.816972243282187
21.72761636554829
48.687240043382
63.17458584532515
69.77471391949575
68.75705662444882
59.0768374718108
49.29093946427644
42.69148480231883
35.28203992357922
29.711775152806393
31.135941225833665
38.24191827532186
43.10047260135496
38.986847697734454
35.698480876046055
47.216881950627496
64.14667400841734
74.06978254142906
83.60777237333635
92.56900375413007
89.71872632716153
74.77018714723835
51.14970394516077
15.653588566892314
-31.32398428586188
-78.79550039836326
-113.65767799523945
-130.55542375289377
-128.84898638849668
-112.87416885773396
-92.64061386793998
-70.75647380175042
-46.95104687799655
-30.608658179702136
-25.124263006291407
-23.459347448182722
-24.82351950477981
-27.376182810518074
-23.086871626743193
-14.90634127545817
-10.707741879348792
-9.171886697916204
-7.048264779059624
0.28804972846444465
15.045053664779111
29.409032189832306
38.78847565082401
40.56336774497782
28.967493715564547
12.736322610008534
4.629788852670198
4.864691201557819
15.237940036660886
32.70949267694697
43.47187393633718
44.19010332703757
35.81507990768961
18.057785620166012
4.355343933020114
-0.3180116158818781
-6.414261513757445
-6.178777777725292
13.950057736636406
45.61986413448607
73.74319961131259
91.11739518136221
90.7995616704167
65.70823475361671
24.422484150239892
-16.20805309397725
-49.205876905041585
-69.91703034629332
-79.51491280819192
-85.41743943650187
-86.12819145117884
-80.70408291189281
-69.96989696849887
-50.21283166594793
-25.92195552373848
-4.520125346655278
14.821211948037163
29.289403281578902
29.556013282440357
19.90372581843991
12.403617431248716
5.052780886382422
1.0296503033809838
13.441039362647999
37.811360922168454
57.362490373277865
62.29552482150499
57.74283857738209
49.9558981453467
33.49898853327668
11.774482282968105
-6.131713092038409
-17.563258132365892
-19.21952785110409
-16.22681679107582
-14.458598286335189
-16.908156804517905
-31.154386333319774
-47.185928360809534
-47.09260624283179
-32.8546272816522
-18.14332796040427
-14.869586682491748
-24.903961079095602
-42.63070261652533
-56.33180586253386
-53.70500466375161
-41.16665279379873
-28.11423733554187
-13.771475202544403
-5.835499856533606
-10.070761608205945
-17.406418094536203
-19.684413799179165
-18.336982881104348
-19.248881447203388
-28.434295083227834
-48.625776066041446
-72.17398639364693
-88.73035595638552
-95.34790043536454
-88.148234391052
-69.25315010294891
-53.44086841945294
-52.46729939944051
-65.14255015124762
-73.06896742126692
-60.76779037230697
-40.95208763297869
-27.521217854151008
-11.507813902168909
15.570128314201908
45.106639277593686
67.268917221302
83.73055703329564
93.30376290293452
88.51762231201035
69.7955783552165
44.58880954935314
27.218337805995386
27.777052348271635
34.91051972016888
39.4570310411811
46.611347436247726
56.77810831522404
73.72258624081365
102.86667853258737
130.45658233577976
142.53387960198364
143.62114134962877
136.70932823022017
114.74219748991194
77.38147689580457
36.23520043171969
2.8842240947467133
-17.613502034154795
-26.420907611158423
-29.194204211158212
-27.619792496571947
-23.227345907559627
-24.924920989641894
-30.166009397031225
-25.860961669261915
-13.729418522131597
0.04184546575517302
14.492811644295331
20.686503708916
11.502946870059356
-9.186912479438366
-37.48991658333397
-68.79771579153545
-88.94654983925945
-81.15793274180815
-50.004578336199316
-23.80154692420805
-20.181492580669868
-37.1810485802595
-69.60025323651905
-100.9252186379205
-111.82871191167665
-100.96297495339287
-72.4913890339322
-33.89040148155734
-1.801944447102151
13.895374576199117
16.543080077746232
15.017238853254844
13.289649809502741
10.114262825448447
9.124993248748403
14.06836691499984
23.956712127252864
36.26576664533046
45.9839212583076
50.28664986652315
48.92671475111103
42.11433418055587
37.946264365065865
39.66276880353003
29.41338099612528
3.6833557070892677
-8.38832248182824
1.160717438047505
11.059276666590442
13.36103803556118
7.984576535873434
-6.5390673854545565
-36.889690623533895
-91.71942737505255
-144.54402784550544
-164.11831713661323
-163.3781516500272
-154.93725583051497
-130.9764067795216
-99.43068315690475
-77.96750626484324
-66.62340480085648
-58.0990092490087
-51.61057241305084
-36.41876590601151
-4.175106366123751
27.019369566278623
41.872809355658326
47.428721672580544
50.80553376224754
47.898716196271465
38.570520495120604
35.26189065293728
42.42548521952482
51.44926165780928
58.31975320338569
61.87215316229014
60.76898483846048
56.88136769170226
51.340136982126694
44.62868956937159
37.0776260890002
27.70415652911445
13.144415848102774
-11.220758457133428
-41.21773961572576
-64.87669512455281
-72.3323334007094
-57.20230476534353
-25.362213748181393
6.966616838066441
33.96540847110493
57.83416486670032
76.17948902048185
85.35070154854444
85.26385064449512
80.54458212243608
72.32363844293859
54.69524896264399
30.547109377673163
8.90658462937286
-10.63074476105054
-26.821996816279086
-36.67248841133097
-49.38114851100043
-67.95471171537272
-82.91802929441481
-90.03782003971727
-83.36366793543476
-61.982434327131855
-43.3615168832165
-35.61306706214449
-32.93521668543119
-37.42118313180353
-52.55739549586839
-78.77006151086968
-107.37785894282801
-119.47660519053395
-115.51770064020616
-104.71876069194091
-79.17167573023023
-43.545236671193244
-13.35186022650997
15.811787837812998
46.28030590008972
72.46354394136213
98.15279067670879
117.61725218320616
120.27949367978964
109.16551518000975
84.54564681842399
47.48483475375391
11.339899246463247
-16.168734744701556
-37.66435647539961
-44.98636989026946
-24.352390608054666
9.338888642099558
34.02493214100043
52.906024140802465
58.85060047887478
38.07149860149932
1.018948223414736
-42.40647797088238
-84.51064736170615
-107.30005257958676
-101.61093452919151
-72.71986364189159
-36.527339942895836
-14.30687237627391
-13.306949789454478
-19.3333152518076
-18.253290662045316
-9.090900366287832
8.888494636090622
32.55387034810318
47.36703741317326
46.921599760873484
40.40367692329473
39.514556391797804
48.41737842120218
60.601092387431734
65.96445166616436
57.36035072540406
36.05074972507951
18.6358957988132
24.481344149191564
53.83045924094904
89.01167376484071
114.04592061750878
121.80564359156809
110.02872021616756
89.17192489032414
74.76098765868214
64.1355761733947
49.90870961686691
35.141677480839164
17.589294666975086
-5.345312917669394
-20.554345914861457
-13.673973698622005
10.683561656530038
36.31659480067064
54.85810193814462
63.41154602876325
59.11714742741856
51.556228227695016
52.36088186360027
51.84206004952436
35.49170767261428
3.097208877285846
-37.616999728570306
-67.22844695240742
-63.74516123491967
-33.389693457452566
-5.028084998843167
9.284504544270531
17.11804507724619
14.734748821362587
4.67772466733166
9.91151717134078
27.571315905556027
34.040594682485114
22.82443908329802
4.639631772873026
0.4965811922631271
12.770419033215127
29.887402441731158
54.73759971749255
76.49969527369463
75.87165125488653
57.02970756194701
33.895592966947774
17.863008187660515
14.210164267425924
21.45198162555316
33.135640731204354
38.5244267680144
35.194563847688514
27.868548753655965
8.785441121093488
-30.413271349307177
-74.35337049663566
-105.83859605023159
-116.58669480566164
-106.55192855068613
-90.13350580333268
-62.29748473004941
-26.461283220725612
-8.839694491638127
-1.6226080641605254
-6.43390796088748
-34.2076483393111
-53.606348592228024
-38.39007592033064
2.7396417099889856
41.19444169454921
71.14124549937613
90.34177761869137
83.1811504185092
85.04469015305547
105.1948641253595
116.34613956181938
130.70649505302612
122.0274082843391
78.00782472166794
41.63418149563464
18.3565003484223
10.504047331224085
14.451973750915164
10.793336496703555
6.242489352161996
-2.1054250027709553
-11.942584099331128
-15.721765475906658
-32.09007817979123
-50.45712095426764
-44.94152239884274
-24.564656777947896
7.7485334524547245
58.417276311842166
102.47115145303155
105.48431611232643
65.7924143015014
3.301641394151296
-65.69875266134524
-112.4704860909428
-114.93023570734626
-91.17148470771961
-55.76840725651793
-21.218335089760384
-13.756490050008649
-21.320324894211353
-21.716600459571
-14.564760719055094
2.662605118871215
12.238713245500756
-3.8210049874933047
-33.64750721257108
-67.82732049490717
-94.37519545036236
-94.3141984761696
-75.5085240728154
-51.26181099336271
-19.3305554679477
4.253291862323676
15.635560138218455
38.132071420900836
56.00514497134869
49.4773464002788
34.01174640253922
12.518505734425517
-13.242293152554351
-31.40173962541262
-35.353051305310395
-27.91533678319545
-29.068666766567368
-39.0784582774102
-38.474642008288725
-27.66340800529439
-11.18845674964711
3.1362818637771213
1.6899042460841174
-9.272744106026227
-13.502887623684664
-3.8985171881152176
15.552070656009604
31.910713674633968
34.77704903274016
24.489191187263327
4.18852488191318
-29.85561231871428
-73.12911945823727
-107.7858784629042
-130.32815277525944
-142.10117959053832
-130.3689841160326
-97.5501907511825
-60.45174485941636
-24.299228366076242
6.462025344718103
24.811630049587233
32.925840022117875
38.000766359957495
41.71964760423558
38.919110878556324
26.830963970963857
6.075167207123199
-20.332291236678426
-43.39448881982232
-54.049680592711596
-50.469076595709545
-42.75149342294105
-39.4060042145003
-33.67648769633836
-23.296543468639367
-9.390416914842
12.25050060228398
30.23417537667584
32.67751934710923
25.782559698073317
15.853386875928615
8.707365634532731
6.797079566478471
