AAD_Filtered_TADAS_FILE
AAD_BASELINE_CORRECTION: BASELINE REMOVED
AAD_FILTER_TYPE: BUTTERWORTH
AAD_FILTER_ORDER: 1
AAD_LOW_CUT_FREQUENCY_HZ: 0.025
AAD_HIGH_CUT_FREQUENCY_HZ: 40.0
EVENT_NAME: 202302060117
EVENT_ID: 13194
EVENT_DATE_YYYYMMDD: 2023/02/06
EVENT_TIME_HHMMSS: 01:17:32.00000
EVENT_LATITUDE_DEGREE: 37.288
EVENT_LONGITUDE_DEGREE: 37.043
EVENT_DEPTH_KM: 8.6
HYPOCENTER_REFERENCE: AFAD
MAGNITUDE_W: 7.7
MAGNITUDE_W_REFERENCE: AFAD
MAGNITUDE_L: 
MAGNITUDE_L_REFERENCE: 
FOCAL_MECHANISM: 
NETWORK: TK
STATION_CODE: 6304
STATION_NAME: 
STATION_LATITUDE_DEGREE: 37.36509
STATION_LONGITUDE_DEGREE: 38.51316
STATION_ELEVATION_M: 617.0
LOCATION: Kahramanmaras_Pazarck_Turkiye
SENSOR_DEPTH_M: 
VS30_M/S: 376
SITE_CLASSIFICATION_EC8: B
MORPHOLOGIC_CLASSIFICATION: 
EPICENTRAL_DISTANCE_KM: 130.27
EARTHQUAKE_BACKAZIMUTH_DEGREE: 
DATE_TIME_FIRST_SAMPLE_YYYYMMDD_HHMMSS: 2023/02/06 01:17:34.4945500
DATE_TIME_FIRST_SAMPLE_PRECISION: millisecond
SAMPLING_INTERVAL_S: 0.01
NDATA: 12501
DURATION_S: 
STREAM: HNN
UNITS: cm/s^2
INSTRUMENT: sensor = CMG-5T/GURALP | digitizer = 
INSTRUMENT_ANALOG/DIGITAL: 
INSTRUMENTAL_FREQUENCY_HZ: 
INSTRUMENTAL_DAMPING: 
FULL_SCALE_G: 
N_BIT_DIGITAL_CONVERTER: 
PGA_CM/S^2: 210.897
TIME_PGA_S: 
BASELINE_CORRECTION: BASELINE REMOVED
FILTER_TYPE: BUTTERWORTH
FILTER_ORDER: 
LOW_CUT_FREQUENCY_HZ: 
HIGH_CUT_FREQUENCY_HZ: 
LATE/NORMAL_TRIGGERED: 
DATABASE_VERSION: 
HEADER_FORMAT: DYNA 1.2
DATA_TYPE: Acceleration
PROCESSING: Automatic Paolucci et al., 2011
DATA_TIMESTAMP_YYYYMMDD_HHMMSS: 
DATA_LICENSE: U (unknown license)
DATA_CITATION: Turkish Accelerometric Archive v 1.0 - Disaster And Emergency Management Presidency, Earthquake Department
DATA_CREATOR: AFAD
ORIGINAL_DATA_MEDIATOR_CITATION: : AFAD - Disaster And Emergency Management Presidency
ORIGINAL_DATA_MEDIATOR: AFAD PROCESS SERVICE
ORIGINAL_DATA_CREATOR_CITATION: AFAD PROCESS SERVICE
ORIGINAL_DATA_CREATOR: network: TK
USER1: GuestUser
USER2: 
USER3: 
USER4: 
[...]
-69.2274864803189
-67.70935762389072
-78.53758563110907
-77.30006492504657
-51.16715319378248
-10.141356601320224
30.583227127011995
51.42733763193452
48.93085069670668
26.626221752681754
2.156352894975563
-5.426630345056142
-6.057318698366032
-22.06443039559994
-46.256732223475915
-47.448209686087516
-23.12522425874881
7.923816091656018
42.38607521409603
69.71824368713251
66.51302207110541
28.217441359566124
-11.512558570968901
-38.41476423461981
-57.30208239722796
-51.76079034562266
-20.316515620678818
17.13603158555232
46.799690310049456
59.85711426006484
51.383605915886825
30.489899115608807
11.018477716110802
-2.52341876519782
-9.002776674804949
-3.90523359299948
12.81227130701925
33.44552299680559
48.40270199876164
58.68607548517752
72.95311101975835
82.03711331621994
77.85159935434767
70.73112689448142
62.533278685276045
43.851474326076236
12.32221639368957
-12.156812438285188
-11.216718108981418
17.73480142463056
62.20033134287207
99.67165632025767
106.06818790174094
85.81553662693979
58.62392613006689
40.19037327209317
39.566416562591016
55.14533215968001
75.41235448560074
84.03694907119801
73.23381194965954
40.27874648501525
-9.11620194970632
-63.597845091662315
-104.71873660123224
-115.22550427665635
-90.68652124301278
-47.135855429100395
-12.481512073303453
1.1827721980116481
10.17692244203487
6.5193539364490976
-18.267094060398446
-44.32888524463269
-52.864911551513025
-40.38979898686943
-19.67364766286688
-4.4326442123327
8.409251266667225
29.007866313753627
46.639023600086844
50.41368054019208
40.81729342931668
24.163960967653853
12.31541542788651
10.869765768914906
14.57603466950759
10.850512867959642
-5.186092842600719
-23.546672260383335
-32.13160553028347
-25.79855709411836
-7.762267611181792
13.00987737920533
30.944338223294004
38.63411913377448
36.05791018533135
40.04582469918061
53.9530187830615
65.84894151467789
60.73225295363355
36.53088029554884
7.236973286854685
-13.768590712653351
-22.46833014112376
-28.46387276331618
-40.53908386314109
-59.27821507649235
-73.42194637925577
-60.490225039149834
-21.01586831322559
15.164751892304313
39.276536762364124
64.4080999217876
78.65292758853005
78.2659843531808
72.05006198771216
58.525278719821074
43.41791107380678
26.930050971001425
4.954862520603122
-12.316288792283792
-6.084801573557008
20.51828353204107
57.76195681609921
65.5058396259045
26.476380418272562
-12.613053242791624
-37.50665345209913
-61.85857017780494
-78.01220024406561
-61.74009164243161
-30.24656867637142
-4.352055848222624
16.441470192638157
34.10670693157156
55.16525204848351
75.9481206396841
78.14721317798723
56.913577819328694
35.13507216424561
33.56285661462086
44.212991948265106
46.47575708958197
37.09541104217305
21.595256823414793
4.086085156204615
-12.269289910200905
-19.87579050739576
-9.92028161284952
3.273385014671411
-1.6281479917740669
-15.681425302942536
-26.762760664062903
-30.840581069975578
-22.150941692622744
-2.297404684438005
11.07466448417526
22.027694664671515
45.89115759125684
65.38362525013196
61.960085039688366
45.516912975792366
32.414313598617
28.50649046399438
25.566523710669916
16.011730101346203
5.61556008230145
-3.5345378076216534
-9.555170037810484
-0.13505830864690918
24.853123432689614
40.86234803364755
36.247837217051895
19.691198030977382
1.8118807831429333
-12.155285277383996
-27.71241189253282
-47.254417161960134
-60.08498196348987
-55.396070421409256
-31.866926421426292
8.510225558659835
55.88775028577385
92.41290265467822
107.34055657462844
99.20999333734675
68.20207046348874
31.748702691119654
13.370820381966
10.537637503607009
8.862644662931983
3.5626672825753674
-6.6521282921745115
-12.010636837113198
6.8433298158712494
40.03581165553736
60.02799037905214
67.43406130107165
74.0270319268878
75.35157374698953
61.35024751414012
38.295111325764864
24.571226740614414
17.02628012500503
11.142711606982159
10.497557246997092
10.93145747769349
6.119794653530649
-7.453481989170491
-26.74559370811719
-42.85714894560307
-48.299341661616765
-41.630254176391944
-25.157519956457005
-8.138025577405928
-3.3615408227667585
-4.094180566943663
6.016973188865559
26.178147955413134
38.063139907552035
30.410111500560614
11.095652912377007
-12.189509852083445
-27.096343858741662
-30.983104689798566
-34.211736475030044
-42.46825697519384
-45.46320565880315
-30.87071230847322
-13.651442542975131
-10.951964721919722
-19.089328614813404
-26.702512240445923
-28.164627437233975
-24.751351765625408
-23.98674776822534
-23.97035079072133
-9.148633491839387
12.936099050766963
22.118656977681148
15.150437780220182
-0.7086169282060668
-8.606726523651961
-3.257730217294347
-2.112726061170899
-3.9229586212951637
11.622739636852296
38.769060165761886
61.1837423098957
73.0669955641328
71.4764359291019
56.90882445942569
39.04203923442819
16.443213430739434
-19.27420150394023
-52.72464548949717
-66.99428562605341
-70.93357973382602
-76.59745923146119
-80.0270045777184
-81.22962668511656
-87.59499994155303
-87.28911840071504
-66.97300998465774
-34.877759195496495
-4.0928853565937535
11.97078551698011
7.528442347451276
-3.688250752093107
-0.3362802779675137
8.552501584979156
8.43829854842647
2.92969044932783
-9.298329672193006
-21.48764456211728
-21.740478387709764
-21.803074042853567
-32.861187485580594
-42.46983078823682
-41.530369953014066
-30.646719992767103
-20.784758114302864
-24.913183674105547
-29.282706563808574
-13.744131172980694
12.407696168608604
33.303763547103294
49.10849182095781
63.080060098175686
69.66487995644772
67.83014749900919
63.62075881277066
54.136309542924806
33.57589744984713
15.7416284415872
12.579374999173536
20.81500558439948
30.296166064054816
31.400391092449404
24.326313452565962
13.732697452471358
4.557705840467808
-4.129995876054835
-15.212738742557448
-28.390854483606773
-37.576340195103
-38.031110090373794
-40.20001969515038
-57.53637667338588
-84.44322876441129
-87.75477534291173
-55.99183534469372
-17.300607327330958
7.249137188121884
6.309148453269395
-6.450939210104886
-12.708929611284885
-17.83234695467401
-33.30366175880442
-51.91061743173432
-54.375429236141485
-30.050187241441566
-0.7265519781698152
8.833765627257792
8.466587549280051
15.803538221187464
24.524679152666216
28.574647521731038
24.37166356654358
6.204188512196685
-16.173293268009953
-26.979182692683942
-15.786492754204765
4.486959703677958
18.418630027195952
19.447393811860554
5.261336821797244
-8.90596573017052
-8.706799834653788
-11.045625933645537
-24.1010951952848
-37.73189813218426
-45.66488905694665
-45.87516345084466
-46.568237859569834
-57.428546586185185
-65.43746825152168
-51.94710760644793
-23.93707377749035
3.211604468824434
24.935091411387802
41.47281732536868
55.682728832752865
65.51071483055964
66.53975211978884
57.37983273108018
37.02780962404155
20.664819613969204
24.473405485792863
33.68491087002584
31.814863618335764
31.017792119691883
38.945374048577975
44.777794385351804
37.08753311272357
12.996500177535316
-10.258525333101945
-12.948951780080604
7.338251207308266
37.83271741012897
57.87730838018463
59.564677162908815
39.53831939418438
4.483335023560042
-20.1408111594323
-16.701276398462493
6.208648185437309
18.84226045010428
9.646393932932247
-9.227904746423516
-16.72977455851283
-7.248582571260635
0.8677822901485118
-6.709780269172088
-27.56247630201948
-51.64838429783406
-71.9047018039048
-82.60930879939062
-79.34081734739098
-58.51393070863508
-30.26202715094994
-18.18402367514591
-38.02975812331554
-70.58120655189937
-77.8334144432006
-61.05852369294615
-53.843173176740294
-65.03930976531659
-79.12015142827205
-93.28993060526614
-112.06005927142002
-121.59805671765034
-104.77412485915352
-73.06870805295387
-44.90366525349412
-20.66306659674614
5.866539323080218
37.3137706336746
67.20655043589448
81.53000936003657
71.40286764735252
45.75278695356847
16.69621262756521
-9.993886217068354
-24.426198460023418
-17.9265960955233
-1.8816204612260945
8.378278470215383
8.978376132098356
4.209043089780112
-2.490364777871617
-15.44675806220815
-32.63727829285859
-45.3886381144714
-50.94721298986696
-49.83918094716294
-45.101265797585526
-45.60181944569693
-48.84270269714916
-48.61793170494936
-46.06608709144454
-32.73567970456601
-9.053457139275215
6.98118925970135
15.987022829877695
32.07041766657683
48.44066415477119
55.78039714874339
58.90034546896779
55.03792859392035
38.67838694706175
14.91498696161118
-2.5611816120230357
-8.171247249346512
-11.936663214288098
-20.11137014275826
-27.721458975562772
-27.81424790285735
-23.085323691490093
-19.781151052259773
-9.11311665006148
6.238237025226307
7.67843542685301
-11.128989744905624
-39.50217378999932
-66.49603124195556
-84.8285603770001
-92.00007810023264
-78.71881320051742
-35.68817480443116
17.358964521990508
47.50506196251164
45.15731615602644
31.83359952465128
20.68976578277132
10.862797439711654
-11.956543656755379
-40.968841365708165
-52.06721153149656
-46.38925936765046
-33.47652831202614
-9.168420774032004
26.53234589667131
55.733224021971026
59.38759743290931
41.00239042031672
19.9365449416986
8.232697040264117
9.606430286777163
19.46752963606943
21.564419514563557
7.1146126359548765
-11.475562353031497
-23.835287872626925
-22.97598083784374
-8.716403688839598
11.897555544713734
30.029602294925613
37.1146152301441
30.692525551664566
16.774722400449125
2.0047503336854686
-12.640843336070098
-20.136288403993063
-12.468823707622366
1.1772961221520466
4.985193070692986
-9.835490062438701
-37.01403792771117
-61.352330102811734
-73.36717624433335
-75.73141622892138
-73.681356089375
-73.09923941376677
-75.51802994929402
-79.69135049006469
-81.60851809573013
-69.21863334903136
-33.74078832887341
14.849030895723079
53.57360514846751
58.491110109417235
33.52217105325366
6.7410138632324985
-11.143345563017887
-24.7911030497536
-31.332823879130036
-25.29126500997768
-16.70370691978287
-12.113481879047013
-11.448712033801854
-9.830165334686345
-6.013661034589465
0.5112766963905162
14.15610896135172
30.780806174854213
41.49168987599518
40.41572046735404
28.50331621685177
16.147550346176867
5.717786134586046
-8.29470600270573
-20.867861840356706
-28.870043053609436
-34.39518828869111
-33.4916376056389
-25.15819802904882
-7.4876680882730104
14.341737226261149
25.71643041235954
30.05671297683994
35.17999204257429
34.103231310820085
20.8483155854567
6.463194925646051
-5.409932390948279
-25.403695514921406
-55.32276279758301
-82.60714957992965
-94.8300044749348
-95.12890150495471
-88.34648620171383
-67.79812816995373
-42.274539390948036
-31.923037527786366
-33.561391638644
-33.279238920732965
-18.37992442980394
13.585767217202694
50.88757944745259
77.0716128780044
84.92582057008183
81.10695678391436
70.41124929796554
53.469413134488356
31.186342669058916
6.0168551585535575
-15.489841637498106
-35.91529716089396
-61.4295108680818
-86.50375656893792
-92.15809344965987
-67.90512979034955
-26.10974337070307
19.57760891250724
55.3185153329488
72.19203284796946
72.67194232547737
63.46987598861512
45.76129771202098
26.827071819811998
15.070762162333054
6.545584967384067
1.0510765204760681
3.5783517462799015
11.471159110568031
9.410041042642057
-8.310362548199064
-28.243624751537002
-40.79058778932445
-40.77263864454958
-21.87706459349274
6.4879160307000285
31.253274796323492
51.89445371203897
65.61257514822306
69.37166874032185
63.838411204718774
44.0585791712649
21.312098565714468
15.20703796639253
19.120354366851252
20.030498968801815
23.945558418761724
39.5620962922647
56.20889163977729
58.37269488476231
46.07478898528748
25.642033673997666
4.437233499202167
-10.834613422381919
-23.983721412413164
-35.78456193500926
-37.491920107912435
-25.87495905709631
-14.300984416339178
-14.25367418880766
-26.67040343551465
-46.19462722869435
-62.88739030497852
-78.62102046012349
-89.7453212774379
-82.56409238456033
-61.709156203788396
-36.51138753477199
-11.68254135751232
15.139162191259707
38.00321765016055
41.10522113077936
27.0091592235627
6.360145407473211
-16.347691430791023
-29.93980569666716
-11.398009486694008
31.7501227793696
62.142227828406625
62.70045416493889
50.093412751092195
41.90845218736812
40.06537582752249
35.15152604765552
22.29808011541459
13.819298726232157
18.86106831220627
25.25163944375271
18.055672309803143
-4.8555357067134635
-34.41696384874449
-50.958157733588564
-39.351563072005355
-6.127417778449487
26.512103687291784
45.22174288506875
51.100779046959005
49.33558557806835
50.68550085406219
58.752252843007945
62.145093038763925
57.01192129715074
59.713116150665584
75.73802832862877
87.25579717460757
95.24835801224737
106.66302189652465
115.5975600484323
110.70607574289278
77.15181631856406
11.866741267889454
-76.4290548357783
-157.88297228929488
-206.32934507294127
-212.56240334923936
-184.0890656591044
-129.67552264229124
-55.64249678457391
-9.574856563868028
0.6393822846029497
-0.5509898668198345
-1.2440679905198846
16.2049997115049
39.48008529538283
52.53736235056393
49.70394748168405
39.40474618681515
42.735202922218875
61.55889686449234
79.12891147517857
77.3495014038204
58.552702726996536
34.78936474309889
7.151055768235786
-26.692928631617633
-58.6691241021321
-71.38795029565706
-53.816108170359875
-46.86120872227682
-66.94493237714907
-76.01610100107106
-67.08438467544975
-46.4136275499768
-22.902499095242863
-3.722747155075941
10.774930244462523
25.58737913054843
44.37228657065765
66.09133387874255
79.82935059865608
67.14237073387629
29.836726268645286
-11.642690753266525
-35.53242811990748
-33.67711196940517
-21.049724157286228
-15.406010259391687
-15.779490085006914
-3.717886357661611
20.537178310148732
35.151898830837425
27.24310616253865
25.76055486844012
49.22158083943565
75.83373969154088
94.40897039108354
102.6180454498701
85.81665940533973
32.31779181301909
-35.10518300774441
-84.39815260478919
-106.3555958726112
-103.65682281745326
-75.6367900063618
-35.08622682779922
2.2006062960356085
29.16719113023333
37.794506379669
32.826154072599756
25.907019320815053
18.058710648959863
7.338049958863539
-8.089748528265913
-36.81718085954044
-57.36783251972163
-37.91906178124635
9.13405716666929
43.68497594815615
48.538365227995904
46.10445766163722
49.12309177525088
57.104032348816204
62.689828220859894
59.59488478958781
39.30493743679665
6.898060265577978
-22.769050625199093
-44.09754011120434
-43.231285251398404
-21.862803550296345
8.48029333999171
46.30043867675494
77.21031233764336
83.99277277215612
76.29967234947372
55.51991123169181
18.14457279304585
-15.804457055381913
-18.40503721684357
5.765628983583175
31.717344264116733
46.64008869154
45.59449466807252
25.265576961377217
-8.760420945950095
-36.364642295827124
-53.969328472191236
-62.27040996176005
-63.0055097290574
-63.00177650765629
-68.639431122741
-81.53735698239826
-84.9052874872279
-78.28873250121205
-68.40354043522204
-57.17318614112092
-41.89793578612667
-9.153586636995596
35.887595412841755
67.19661710158032
65.03812105244053
49.84073656413322
39.01646467034759
18.583618421771014
-13.38641425814724
-41.51826130802618
-55.09951875253177
-58.995458704515485
-66.08321943007522
-71.34902426202366
-53.965287932565104
-20.730972488282426
4.444244204275032
16.96612393233552
23.23508950757946
27.277785322366004
25.07150769038433
17.807023633007567
20.2451586427421
41.3638603297852
72.88554983651268
103.28218305233086
125.9993462165131
139.7268344689661
141.3982558673592
126.58525119301692
101.68263393519624
72.69795028397388
39.88492864396359
10.853355574213339
-10.39469950027267
-30.648213103287464
-44.38473041530618
-50.24162658066764
-55.44388999330886
-49.376452026021205
-33.565072964191835
-33.18482447251272
-43.67869275755402
-38.764103736028126
-20.33828587658499
-14.491941301766705
-18.0277207259926
-15.070530897362739
-12.00431077348472
-15.455353779359253
-23.44965022714188
-17.934592208658007
11.276957448972219
38.03176051649071
37.7335970545885
15.46959399208941
-8.888899039783702
-24.5160407719456
-43.396510608246
-65.99049431840392
-72.73418499465025
-56.153077250103884
-45.217105548316155
-56.78853226982302
-59.24857711678885
-41.96223568251019
-26.232187658010616
-19.435602300035864
-2.5632357750135646
26.66359335531869
44.253753887832524
38.84556931082489
19.989203499152886
-3.257103822207516
-19.987480387558055
-26.16787926111722
-28.494628628731675
-17.475677454583963
3.3693593998877085
22.44620291799559
42.9461574130906
61.75442687548626
65.475850981368
57.78845418590004
50.58359007446333
46.17568722737524
30.53520029271552
-2.10822909327489
-30.131186449655928
-37.54057601892934
-29.08953044492544
-7.413696741018923
17.737879989089272
28.040144032598132
16.48982656703063
-14.30530850542851
-51.95109196063126
-74.18359055663029
-73.49645724117858
-59.42707870863253
-35.810297387409406
-7.162287636284407
20.977186326823567
39.498746052802964
41.10288523223174
29.05868950149872
14.511853996373635
-0.25130028929895565
-20.358813859684147
-45.21028363433567
-54.91751034511942
-39.8237935383101
-26.850584587061885
-34.988237756377075
-48.848910951746774
-47.80148745217049
-35.35941810718179
-20.06240653887019
-4.22547909239391
7.432785147927916
12.57013923113495
5.480358679145311
-5.746886595528324
-7.884627558802723
-4.4576269628046346
-5.690052406160032
-19.834065030933985
-42.60179041303188
-56.856933209642065
-56.496543540894685
-52.5136888065853
-49.540417072211106
-43.063476016055304
-34.14463832693429
-27.72246553450344
-25.260178648144834
-22.826674479939015
-11.126978075479734
11.234182017253564
35.35207526087573
44.85438464429003
34.26546775671859
13.033086169773133
-10.730804012773937
-29.341093292821288
-30.68760547807235
-11.411804123115864
13.581746256732645
28.425105272979927
23.803565907342637
8.163721819538823
1.5401662963943552
-3.3007018110860953
-21.39446013174527
-35.85058676676217
-29.75003239111892
-21.696078242881896
-29.70692937465518
-42.66060757791094
-43.365489659104085
-22.871609481341206
12.853090129223737
37.550302520579116
32.9758908480222
6.297405340585366
-19.322534762924484
-25.784255179018388
-19.70974489685027
-8.490655652371329
-0.7590287004439917
-2.6272287656854765
-3.2201761674450577
3.190445860765563
9.931599096823398
15.950406668368288
24.41972738330657
