AAD_Filtered_TADAS_FILE
AAD_BASELINE_CORRECTION: BASELINE REMOVED
AAD_FILTER_TYPE: BUTTERWORTH
AAD_FILTER_ORDER: 1
AAD_LOW_CUT_FREQUENCY_HZ: 0.025
AAD_HIGH_CUT_FREQUENCY_HZ: 40.0
EVENT_NAME: 202302060117
EVENT_ID: 13194
EVENT_DATE_YYYYMMDD: 2023/02/06
EVENT_TIME_HHMMSS: 01:17:32.00000
EVENT_LATITUDE_DEGREE: 37.288
EVENT_LONGITUDE_DEGREE: 37.043
EVENT_DEPTH_KM: 8.6
HYPOCENTER_REFERENCE: AFAD
MAGNITUDE_W: 7.7
MAGNITUDE_W_REFERENCE: AFAD
MAGNITUDE_L: 
MAGNITUDE_L_REFERENCE: 
FOCAL_MECHANISM: 
NETWORK: TK
STATION_CODE: 3112
STATION_NAME: 
STATION_LATITUDE_DEGREE: 36.58801
STATION_LONGITUDE_DEGREE: 36.14766
STATION_ELEVATION_M: 1.0
LOCATION: Kahramanmaras_Pazarck_Turkiye
SENSOR_DEPTH_M: 
VS30_M/S: 233
SITE_CLASSIFICATION_EC8: C
MORPHOLOGIC_CLASSIFICATION: 
EPICENTRAL_DISTANCE_KM: 111.31
EARTHQUAKE_BACKAZIMUTH_DEGREE: 
DATE_TIME_FIRST_SAMPLE_YYYYMMDD_HHMMSS: 2023/02/06 01:17:31.2356490
DATE_TIME_FIRST_SAMPLE_PRECISION: millisecond
SAMPLING_INTERVAL_S: 0.01
NDATA: 6576
DURATION_S: 
STREAM: HNN
UNITS: cm/s^2
INSTRUMENT: sensor = CMG-5T/GURALP | digitizer = 
INSTRUMENT_ANALOG/DIGITAL: 
INSTRUMENTAL_FREQUENCY_HZ: 
INSTRUMENTAL_DAMPING: 
FULL_SCALE_G: 
N_BIT_DIGITAL_CONVERTER: 
PGA_CM/S^2: 171.859
TIME_PGA_S: 
BASELINE_CORRECTION: BASELINE REMOVED
FILTER_TYPE: BUTTERWORTH
FILTER_ORDER: 
LOW_CUT_FREQUENCY_HZ: 
HIGH_CUT_FREQUENCY_HZ: 
LATE/NORMAL_TRIGGERED: 
DATABASE_VERSION: 
HEADER_FORMAT: DYNA 1.2
DATA_TYPE: Acceleration
PROCESSING: Automatic Paolucci et al., 2011
DATA_TIMESTAMP_YYYYMMDD_HHMMSS: 
DATA_LICENSE: U (unknown license)
DATA_CITATION: Turkish Accelerometric Archive v 1.0 - Disaster And Emergency Management Presidency, Earthquake Department
DATA_CREATOR: AFAD
ORIGINAL_DATA_MEDIATOR_CITATION: : AFAD - Disaster And Emergency Management Presidency
ORIGINAL_DATA_MEDIATOR: AFAD PROCESS SERVICE
ORIGINAL_DATA_CREATOR_CITATION: AFAD PROCESS SERVICE
ORIGINAL_DATA_CREATOR: network: TK
USER1: GuestUser
USER2: 
USER3: 
USER4: 
[...]
-1.3596296036624778
-8.64327027903441
-13.428530681311361
-17.963666642175955
-23.804113940516
-26.533554220318592
-25.05596539636245
-21.132545129783864
-15.9625404362346
-11.563400818539884
-9.28030901304549
-8.195713892014009
-7.175513986076207
-6.826720415510271
-8.073110526878503
-7.331007729261866
-3.608576818729813
-1.3883197415103767
0.7085327029723261
5.131209046391218
10.08568042712579
13.956084908860024
14.903527529794859
12.453666112692598
8.271734738429558
2.844671230125933
-3.880527984877506
-11.912211986706502
-17.970313543157342
-18.102077478786754
-15.161491219912152
-13.763252257975488
-12.423799367859138
-9.084590147275733
-8.115578553870742
-11.482247805665748
-14.731073433381543
-17.30381991480562
-20.479983796709483
-21.050785804891273
-20.103241033897937
-20.95429239266775
-20.357263124685957
-18.074677985134606
-18.68447946625891
-19.361000824139374
-17.26522011080298
-16.206784710153613
-14.861783457440827
-10.295550834895595
-6.790749990112719
-5.44401282642111
-1.633606045638063
3.3010326098245786
4.7776433620890435
2.7546720276206864
-1.5777513635060532
-7.055954135561591
-11.188166789752238
-12.714852539823328
-12.547278425002743
-12.703470406652123
-13.195170744308534
-13.710165119629774
-17.03584165123122
-20.775383815706654
-19.998884661472015
-17.514545658135056
-13.183721158640559
-5.016510347282386
1.2771439665469915
2.3034011966706287
1.0253835104884872
-0.34273790160300255
-2.002444032400173
-5.716882126210578
-11.195226401405574
-14.091445128957478
-16.121021773244877
-21.066200790456474
-24.26761235064163
-23.54597144040899
-21.681867968214092
-15.15036767166585
-4.0797828702876116
4.529324286286023
10.60561307821274
11.67987760242968
5.7716869556430765
-0.23159236879806394
-6.370771359060041
-13.464358336575222
-17.259738947923132
-18.762321804212004
-16.938022120535987
-10.379807880937049
-2.48124998956922
5.619691194602019
13.152036054756907
19.577870844126224
23.57708795664047
20.762682452880505
14.30196216022005
11.638228135321175
12.26409407532045
15.220030112815143
19.246621182719185
22.08514157727402
25.593782353886258
28.12131067977839
27.507515534987277
25.302593940333498
20.143110861667314
12.710121780653719
7.312752010664124
3.9390669816584447
1.6174471259639003
3.4277488186379825
8.38600681762713
13.616810794496319
21.31733897059875
27.576299080685367
28.190201747405684
26.845697584495717
24.662843948362763
22.1831900533093
19.79153627567549
17.6539842006741
16.5475318760881
13.19725933961176
8.735221852791557
8.17363513875783
11.025501680454122
15.416096011981358
19.096448616448694
19.488411383292988
19.088597370141485
18.147192214490254
14.50003867302868
11.74651384958044
9.303583053524063
3.2234346885356957
-2.5221562085638536
-4.66940955982271
-4.99765653885862
-5.191421843261422
-6.307916712886545
-7.992181865777314
-9.869034130489561
-10.63949510831036
-11.092805655599742
-12.635613601382362
-11.839123126646392
-10.30697758522114
-10.209490024219019
-4.897680132759207
5.863203587168002
14.073250514435653
15.867146220215771
11.663310886956973
6.503715219165892
1.783342482255486
-6.943118571969976
-15.214063353997831
-16.714439379826395
-15.023051604564111
-13.614375254409458
-12.119771914214951
-11.149769987963337
-10.271379557030167
-10.386552372805948
-12.923267127876892
-15.54878364343712
-16.929513245049638
-16.150760673927834
-12.445792056929895
-9.753290961443208
-9.190957471193979
-8.971734409023956
-12.595245375123021
-18.111682899123075
-18.765624839721905
-15.211792637818608
-7.251433277084195
5.362523867842939
15.128586387047537
18.438972722868762
18.446765668950835
16.961230439771448
14.892159187634537
14.190062606424322
16.30201656848883
19.453750204939396
21.986129691641803
23.645194261169706
22.673834969738497
19.224229482151223
15.090709349732064
10.514940380176057
4.873412581385736
1.1920683395091372
5.772819345953048
13.964693723752626
20.422715983583952
26.964348943794075
28.94186048299488
27.388137246156557
25.83954958924189
19.57290455475239
11.116667992584185
5.92869203449887
1.8368361943521416
-0.6952596963449778
-2.6235679270082928
-5.285386965753512
-4.35465688701666
-2.4999552420883875
-1.7376855794329247
2.3423404760454165
5.274848265514082
5.8948075922381955
8.131247904190529
5.348101471397248
1.1354291783763657
2.4022151410959642
0.5263546151605107
-5.119388383511963
-6.700577642542057
-5.1839418485421485
-1.4914040539088094
6.622981777339321
14.180427724200939
14.962209507840674
9.1320967969912
-1.104487494437706
-10.155585607882267
-14.852551972554972
-16.28612151612579
-13.74538625414158
-8.51331681691005
-0.8268155482918781
10.269493019384395
20.48617924474244
26.00738640567377
27.46098744134661
25.326950182513
19.894067973823226
12.88005888429212
5.962516465934195
2.668152175655724
4.392470312779828
6.386310380197279
11.197008266632253
22.026527440452792
31.659051132505326
36.31012880412271
34.02680282718362
27.124024092148275
22.72665973931356
16.765626084569508
8.493338251717091
3.812816949673295
-1.0952791368630124
-5.877373942277894
-3.6651029086781794
4.263842530807612
14.851674299074729
23.294221254220982
23.51777663644315
19.102889563057907
11.890556515428957
-2.1371249722021184
-16.40647788006877
-22.63332623292182
-19.29871300652641
-9.267980113140048
1.9134343162424088
13.529655580824421
20.862134343240047
20.130770451126146
15.04223640471656
4.050038416473248
-9.961749074198389
-22.53351881432961
-36.87356733715567
-47.12735036996079
-47.683155940505344
-42.75352718692218
-36.82507901632619
-33.51247099622233
-32.485158619479904
-32.0649543365296
-35.20018875003882
-42.1133681498864
-47.02398855745987
-49.04319130222704
-51.55011103086208
-53.59050187702862
-53.41040786769016
-49.84907152677188
-41.97937159865529
-31.52795083392832
-18.171765882088728
-4.410654547543735
0.19715202793789371
-5.918731032286504
-12.879854283142096
-16.36082768125984
-19.675717350983295
-23.243438250957002
-23.313064881361335
-17.15051920025834
-9.66190941935257
-7.541368817420271
-8.319872597993381
-7.236873627295229
-7.940625338764153
-10.932315563579712
-11.545019987018469
-10.871618276239653
-9.013889221244932
-8.822707549158078
-9.548583097535918
-7.205871297947907
-8.39882987748504
-10.460717905413757
-9.156252351551334
-9.807290729908653
-8.471734449475708
-4.305722439840427
1.2261430150158352
11.844059394764775
18.20753250026212
17.52672405530196
18.848969383115964
20.905610880187137
20.54183635669139
17.16735953951415
11.672460443563311
9.320281982282733
11.963631704135743
15.328488740236303
19.731239894342032
25.69005526586646
24.880040370782442
16.552304236453573
10.103164048407416
3.9369027439912516
-1.9448230748688662
1.9328541949175952
10.089658027409712
13.61176682366969
15.991473953275996
14.211027178676346
5.721465059661642
-1.9407429731503563
-9.209547253371301
-17.54959406508725
-24.18461647863502
-28.640116160635507
-27.790821958782633
-21.408204423695004
-16.50723389663616
-15.893059373006917
-13.940387096789966
-12.175444471697345
-15.434167166232209
-18.536561193432583
-19.170544745673865
-22.263516724443175
-23.659462392825525
-17.266490125642914
-9.728538718947476
-0.5458445432815731
7.639234546162458
0.8363531232490338
-10.308629045740247
-14.309426826148004
-23.00459185026839
-32.6336507263374
-30.126600400401667
-17.3283858234214
-0.6859086177943182
11.086420445138
13.095476186359761
15.353357301124337
16.552105536187398
5.191412952276673
-5.702457103372536
-9.081995988535882
-15.01103209026316
-21.272789776189512
-24.215175743488413
-21.149948495925827
-12.026783514247379
-3.3986012437687934
9.240455552789657
25.025432959975085
33.247715328869
31.462684233155866
18.320601824363628
0.457746254015023
-9.719051351137448
-17.5807944386837
-24.957678080918782
-16.075354674877307
1.9362319529254177
8.576771080259322
6.030379273637807
-0.6679207444255308
-8.70515833742918
-12.150198824714293
-6.0301102219360585
9.900015605776423
27.01886518114446
30.697874934025755
17.160076648258933
-3.695661135422519
-26.736196458100654
-37.63537879662096
-25.975472144696376
-9.156933983017494
7.144019769538627
25.14841577978007
20.536394810569615
-5.006775508875969
-23.686980882983
-35.326684709747305
-38.46133431982633
-27.418519196601693
-6.048484793055367
20.441381132753598
31.03791543737463
18.044981767795168
-6.947890914901217
-31.62941311127573
-35.01191524148093
-25.326694327439977
-26.13986814286329
-21.147197838369138
-10.791580648912394
-15.985242436066656
-17.713535833066928
-4.343353034031961
12.250918212595062
32.344828389042846
46.75822992418348
41.92994190354093
25.946960029141792
5.462472626906372
-22.107071177714392
-42.75052466706741
-36.37396194996521
-13.94394427017753
6.239118048315886
26.16962406501138
46.31190684777294
59.11016143782108
57.60202588413389
45.294802914701386
32.215341388682766
23.765238645147452
17.602203747365746
5.324290982546736
-12.967877222855288
-32.87279375125992
-37.93971748154957
-14.202190225583799
12.125451849496427
31.533444709684865
52.13857263428358
60.94528255087509
53.30843147689817
27.254838696851788
-1.6050085151812594
-8.98261796189834
-8.390778851068763
-4.704250594836076
15.100550055220099
31.24726183191423
31.79385133243392
30.78123152512594
14.121282129169296
-18.315793932087296
-39.49061601407124
-44.25441919932382
-30.07272692812456
-5.892583577363358
19.718368447287542
45.366503230070855
54.2670105733733
52.77629189842422
50.52646143535209
34.454784957977004
9.062428399357163
-14.656988851696635
-25.257719252698642
-18.098331335024323
-7.468752820767836
-1.592046804457557
-13.311502488472494
-36.40522515544568
-41.79655847883231
-29.924333285538857
-14.466834362101759
-3.1154512812876587
4.671895284634811
16.423839322656384
22.03969007095447
11.872567217130834
4.856783904057667
8.336268280526708
4.379605310988025
-10.023414002912098
-19.727627402336193
-20.568311028437726
-23.250106236125735
-30.989907873266908
-35.977033692064865
-31.208203007305887
-20.669474215079457
-7.925697800488497
16.070897001166124
40.890138934106915
54.09800159819167
59.22550174083337
49.34167548686565
37.789039750406
28.30470656022812
-1.9286372698015737
-25.205657868511373
-17.215733391464255
-10.143201693078261
-10.133111952095682
2.908740009942396
24.419387269279362
43.77158487138894
50.92706549145827
38.78211006668066
22.649684179453036
9.343597455727968
-11.730424329107505
-35.94352709742236
-50.49925442830896
-51.23954919259686
-40.057103248296926
-28.08980006324807
-21.14306621016751
-14.03215622916841
-9.864187986030508
-9.928084285096567
-5.929414055491119
5.895556349848932
16.050523125579197
16.419707181138122
11.998735566411883
11.972494463784892
19.45806665747709
26.606595354252363
26.00403808192084
21.070042518270938
16.024716557155788
3.3136557260338226
-15.209699058729221
-25.700645910616654
-23.606736009980935
-10.382430264699614
7.769691426247129
26.121392957412915
37.275545967399
29.797562263494438
12.246261547755163
-2.1363082027520117
-15.483656625037638
-20.2034790221055
-10.47711178993025
1.3732040814125708
9.42715626846351
17.172262455895304
29.282155205411556
45.31419674275055
50.296038654424564
34.8249911934511
11.306027283208293
-6.74644966406707
-16.074362510134048
-8.180755446191945
17.906187052714774
44.46569742404098
54.836593712657326
46.75558456151646
36.2521551606948
25.166008568100896
0.7887989833463454
-22.065316578073176
-27.52390213059979
-28.205772149137715
-18.398227056400028
9.09895834072232
30.80809158781933
45.56628324490006
61.939154930831634
63.953333730519475
46.87757812512315
27.4701510648921
10.346386133468233
-1.8327580542290134
5.410225513176079
22.38507087344804
31.930724358156702
34.2810564816345
21.470435593809775
-1.5123511575867017
-18.764494829577977
-30.016551836384178
-32.414791675364
-32.17393301209919
-31.56498682878258
-16.069615148687586
1.614877951350588
5.55270669400726
11.58221631419144
14.875915921768721
1.313616201893097
-6.50382227249128
-6.520802564253513
-14.033450602471673
-11.862541321332198
-0.8472149586408071
0.3933110128616189
2.682921165321033
13.441940837671176
23.736177074301413
22.74866899816591
0.14979257634130633
-31.679153183085553
-56.69698348553757
-74.8216428155837
-78.75977775638633
-65.91152993468471
-48.500726017947706
-31.93757436244833
-21.816025058622277
-20.549093160239256
-22.02490751802592
-34.29333566752053
-58.327383624381426
-75.51751502363933
-75.70292893372671
-59.84545324110608
-41.398802481600164
-33.80484551317524
-33.01616097881843
-34.20990644297058
-40.59384800038709
-50.03842587339489
-55.69813318329569
-49.8941786277955
-32.44432783129837
-14.76044295507224
-6.539914091208295
-7.977848481415243
-12.380572063267174
-14.802328373824528
-15.352482681953793
-10.929008633876833
4.0097195309595355
22.922352926280304
28.50653766207554
17.343028459800692
7.2219426920236
2.32671304082145
-2.5097038241752565
2.6241540298082406
21.146914917463047
41.832627896975545
63.015156873831366
77.95664703081123
79.00046442381709
76.98725488528797
78.2509774859469
74.52507812493147
70.4028940042959
74.91442478335571
77.76465182133933
82.18739487659084
89.79487085254345
88.96360330373493
96.19215204413251
107.55763243374327
101.19818963817936
94.28628750078101
94.24441145941195
86.30234718095133
69.9543448300855
48.01694114853153
32.16446202792492
29.24745769020273
20.965328279021033
14.390851994226571
27.605031514536716
43.02000026724188
45.16511170482153
36.50427522235165
26.628882217159884
27.129819749716955
21.599994712186785
6.39535400198201
6.414346524253938
13.85491713202666
9.220728097856547
-0.39758894902652464
-11.074366477206029
-18.07313775548886
-16.278187107861797
-24.283072271266974
-40.26343297802447
-48.33233539250079
-61.450260862427015
-83.0503202190318
-105.13790340773247
-132.86475639369868
-161.46361287578864
-173.1921663840449
-165.87933637040254
-159.111357620075
-158.95958127119158
-147.99564619587167
-127.2988870825924
-121.26487588563525
-129.4411453025576
-127.82876115332571
-123.85143515571968
-132.40003773405306
-134.19649050002542
-123.84341278390947
-118.2589968193276
-114.8317815782325
-105.64561140144225
-103.27394168265795
-105.81674467195688
-100.5788231040964
-98.67285932733682
-101.98011643236804
-101.4282038107059
-95.87727467375612
-83.82157120338827
-79.7469861948376
-89.61323824875225
-90.87918143627522
-91.76637567762067
-101.08163374046886
-97.9716365051477
-90.650770648078
-88.3123852684391
-79.09727791279303
-69.5808178627927
-65.86086179413485
-57.3570370025153
-46.71874065140277
-35.647523979451314
-20.221679634302166
-13.141085912707014
-11.262103159061567
-0.5209886071520529
4.743671299874195
1.8937077920005945
11.708053807599743
24.307478233315376
28.100221865715078
30.24399458052215
27.85194807849471
22.99381217140433
16.225990374858466
7.484893491437634
13.151392052558075
32.77092324685469
50.931249403603125
65.23930010061395
75.71527585665304
88.2094182668494
101.03089500568223
107.72369571544438
111.76441926723157
112.16850571294033
105.72310760014695
92.8567453604503
75.87298272574792
62.60961042842619
57.999947501716385
62.53285548926479
74.04405528144714
84.83547802047477
88.75151426159579
81.68845093656053
63.389194429472205
46.41503596872278
37.535797792444
32.42593370067463
32.14797936017688
38.299862801886086
42.322610057546264
45.089212395489774
52.40301165200616
52.88209850722974
42.38022222472637
37.95709943223216
45.595922817366734
49.65504931682257
52.190922459521325
56.443780868695065
52.98068333712299
43.13594140814637
30.836484719607895
15.416267620663776
10.196012862827885
10.886231222331965
2.162206859469464
-2.6997476286032924
-2.0203710912252353
-3.1111492085893913
1.9593228583365656
9.296323896199363
10.49598654394955
13.917734977767253
23.321140340956365
21.319929877449106
14.707461881290097
22.33089057624528
24.22038344285031
16.879242048457048
9.661308298090466
0.47361788710596825
3.143606797477791
8.508250150165392
8.680263072625442
14.422769127338626
15.262256856917855
10.777508831995835
8.340109260169998
1.5991536878865922
-3.961979161478613
-0.7111963029031476
0.47271101945640565
-1.1326236839300947
-2.501178769032987
-13.164196210521984
-22.738699280560283
-23.933603980687984
-31.42635664313345
-44.05953837003729
-50.33606731911217
-53.72089427700247
-12.998219189129093
8.376207243216108
-2.5124621015591098
3.031640408163076
0.20593739738159444
1.6432840548033094
0.9093075331561307
1.281268057865948
1.089937735554572
1.1855150686339186
1.1349630171891933
1.1588430984499865
1.1448153008184334
1.1500984752306462
1.1455489738946047
1.146010712257785
1.1439231391618383
1.1431371135705533
1.1416912480323766
1.1405845437035094
1.1393081681047783
1.1381212833033931
1.1368918838052595
1.1356871999969553
1.1344729841886343
1.1332666751749905
1.1320593859508685
1.1308556382064676
1.1296531241030303
1.1284530143369171
1.1272547078674637
1.126058506071623
1.1248642506996844
1.1236720176139774
1.122481763442494
1.121293505551045
1.1201072303768798
1.1189229401176988
1.1177406289512275
1.1165602951474418
1.1153819348993594
1.1142055454652307
1.113031123568094
1.1118586662109307
1.1106881702614635
1.1095196326636239
1.1083530503298318
1.10718842019585
1.1060257391928334
1.1048650042615544
1.103706212345145
1.1025493603927832
1.101394445357803
1.1002414641986467
1.099090413878367
1.0979412913648714
1.096794093630785
1.0956488176535084
1.0945054604151787
1.0933640189026774
1.0922244901076148
1.0910868710263268
1.0899511586598654
1.0888173500139926
1.0876854420991724
1.0865554319305633
1.0854273165280108
1.084301092916041
1.083176758123852
1.0820543091853077
1.080933743138929
1.0798150570278882
1.0786982479000011
1.0775833128077186
1.0764702488081208
1.0753590529629096
1.0742497223384007
1.0731422540055164
1.07203664503978
1.0709328925213057
1.069830993534794
1.0687309451695233
1.0676327445193425
1.0665363886826649
1.0654418747624599
1.0643491998662462
1.063258361106085
1.0621693555985727
1.0610821804648332
1.059996832830512
1.0589133098257677
1.0578316085852664
1.0567517262481727
1.0556736599581449
1.054597406863326
1.0535229641163377
1.0524503288742735
1.0513794982986906
1.050310469555604
1.0492432398154792
