AAD_Filtered_TADAS_FILE
AAD_BASELINE_CORRECTION: BASELINE REMOVED
AAD_FILTER_TYPE: BUTTERWORTH
AAD_FILTER_ORDER: 1
AAD_LOW_CUT_FREQUENCY_HZ: 0.025
AAD_HIGH_CUT_FREQUENCY_HZ: 40.0
EVENT_NAME: 202302060117
EVENT_ID: 13194
EVENT_DATE_YYYYMMDD: 2023/02/06
EVENT_TIME_HHMMSS: 01:17:32.00000
EVENT_LATITUDE_DEGREE: 37.288
EVENT_LONGITUDE_DEGREE: 37.043
EVENT_DEPTH_KM: 8.6
HYPOCENTER_REFERENCE: AFAD
MAGNITUDE_W: 7.7
MAGNITUDE_W_REFERENCE: AFAD
MAGNITUDE_L: 
MAGNITUDE_L_REFERENCE: 
FOCAL_MECHANISM: 
NETWORK: TK
STATION_CODE: 8002
STATION_NAME: 
STATION_LATITUDE_DEGREE: 37.19156
STATION_LONGITUDE_DEGREE: 36.56195
STATION_ELEVATION_M: 593.0
LOCATION: Kahramanmaras_Pazarck_Turkiye
SENSOR_DEPTH_M: 
VS30_M/S: 430
SITE_CLASSIFICATION_EC8: unknown
MORPHOLOGIC_CLASSIFICATION: 
EPICENTRAL_DISTANCE_KM: 43.91
EARTHQUAKE_BACKAZIMUTH_DEGREE: 
DATE_TIME_FIRST_SAMPLE_YYYYMMDD_HHMMSS: 2023/02/06 01:17:09.7103280
DATE_TIME_FIRST_SAMPLE_PRECISION: millisecond
SAMPLING_INTERVAL_S: 0.01
NDATA: 10501
DURATION_S: 
STREAM: HNN
UNITS: cm/s^2
INSTRUMENT: sensor = CMG-5T/GURALP | digitizer = 
INSTRUMENT_ANALOG/DIGITAL: 
INSTRUMENTAL_FREQUENCY_HZ: 
INSTRUMENTAL_DAMPING: 
FULL_SCALE_G: 
N_BIT_DIGITAL_CONVERTER: 
PGA_CM/S^2: 242.951
TIME_PGA_S: 
BASELINE_CORRECTION: BASELINE REMOVED
FILTER_TYPE: BUTTERWORTH
FILTER_ORDER: 
LOW_CUT_FREQUENCY_HZ: 
HIGH_CUT_FREQUENCY_HZ: 
LATE/NORMAL_TRIGGERED: 
DATABASE_VERSION: 
HEADER_FORMAT: DYNA 1.2
DATA_TYPE: Acceleration
PROCESSING: Automatic Paolucci et al., 2011
DATA_TIMESTAMP_YYYYMMDD_HHMMSS: 
DATA_LICENSE: U (unknown license)
DATA_CITATION: Turkish Accelerometric Archive v 1.0 - Disaster And Emergency Management Presidency, Earthquake Department
DATA_CREATOR: AFAD
ORIGINAL_DATA_MEDIATOR_CITATION: : AFAD - Disaster And Emergency Management Presidency
ORIGINAL_DATA_MEDIATOR: AFAD PROCESS SERVICE
ORIGINAL_DATA_CREATOR_CITATION: AFAD PROCESS SERVICE
ORIGINAL_DATA_CREATOR: network: TK
USER1: GuestUser
USER2: 
USER3: 
USER4: 
[...]
-14.84517503812184
-22.875261032725916
-16.871598232502066
-6.083723004082986
-5.6367232988922185
-25.51214992470407
-34.32778959067251
-32.66086095107646
-24.791388992337144
-16.189541915620616
-8.342679160330636
3.6880119228912216
5.310004137355748
6.568439280623614
15.88947800240409
16.38970635112027
16.04610704890417
22.607301457619823
10.306417128363979
7.490581286480801
23.840682758627846
31.311081834365613
33.07826910107034
27.204009987940097
18.339893524397556
18.458484302671074
22.36981760910616
15.722510965759152
-5.030835221797059
-25.083224019219646
-17.10455485158807
1.200135018658894
1.6872484070524545
6.280909797124529
11.43976243956941
6.2434275717286365
-6.791691453492533
-17.58469749522368
-5.328717905961454
14.863945892324615
16.92534737991428
-2.534293205197966
-9.427764269783768
-7.682744386620003
-13.719080934890291
-10.944524965579614
-7.381340914592777
-2.6615304182461283
-0.9270290196120882
4.975743670151082
25.338090010342555
39.413082126964426
37.218256443983705
29.290818118540372
23.52700062553145
13.210539440047741
11.871927844553614
21.831618070016965
26.03297666070741
20.878119018603588
2.643261951380581
1.937980930158633
22.121800549665547
28.347126241886137
24.239691210482526
4.914595128487652
-15.615829773648612
-12.350776788933176
-2.097389253927356
10.09911660882902
13.764748380117064
0.7177147184635783
-9.267212548029198
-8.497375919232123
-3.323148491226807
4.073744934121655
3.1739743349881047
3.3840604289264933
3.3072465412577112
-11.03885999141902
-14.313366416609961
-16.236060635312743
-24.679184452556594
-24.28881382540516
-13.088248898237346
-1.4244318636110134
-7.304797053021035
-18.97016340823541
-23.562413700572513
-24.683613739437863
-29.723707871874332
-43.264826711388345
-40.540946437352815
-13.165738083538239
14.589176315465084
23.465786792011862
15.489145278355089
14.757997670417389
8.316896156699704
-8.4939333899068
-8.72659503444276
9.329957716448098
17.434025554972326
11.584320619758898
4.805158710119345
-10.454575805067199
-13.376487771261967
-5.618304452220255
-17.762926529969487
-26.850967854860006
-12.342104541044451
-2.7808657407010013
-0.16597123588235443
2.729253880772592
7.461486444757179
16.83078793225572
20.142164567450575
26.10298511417194
30.78814980786082
28.929243404282424
21.763582368127192
9.144004886580253
2.1310281846460946
-2.189569573984859
-9.214661500072246
-12.918783837029501
-13.193752916734589
-7.906365658205829
2.9956813589381257
10.512397966397643
22.717114471056323
29.657958836754148
16.26057823250763
-4.6886317621134035
-25.218323075254794
-45.21627564553522
-49.95619345054524
-39.94665759142594
-29.763511909595685
-22.44679252655324
-21.86664046698559
-11.54464987860459
1.8194449863185367
3.4556911755774737
-3.324270351652106
-14.202130226149624
-19.97065917669366
-6.629817313591691
9.06738513315303
-2.0403545432504586
-10.060409325372236
-24.643468737434404
-36.64825011356285
-16.52765934064152
-2.7453642083499354
8.82281795703268
20.41346691698332
19.204846461423813
25.002289854406786
35.507382851746975
46.38326288084357
45.63424994852017
21.164912832568778
3.6949612726497465
0.15884313005808262
-7.25964057139416
-22.47344662955346
-29.51579545214454
-21.15036970725666
1.1214010681754583
28.692007403545237
25.512486365898983
9.739721880104723
0.37324383095508673
-3.994985396477235
-3.323154407316762
-10.412881268639879
-10.97766233626015
-21.053303554309093
-48.49194887599872
-56.62475929340545
-34.45891232527046
0.7554384528693936
26.08747929828099
22.597274858570707
8.960240674126124
10.289082236014211
13.98870039688217
14.398846651025169
12.0172241395635
5.9574300084888225
8.173661851391344
9.224293232446232
-0.5763385058011853
1.0755833088943887
10.970966911100723
14.252802488843471
17.728305551102576
6.764448819830766
-9.161321728137564
-7.150183384091599
-2.432863860165948
5.305379382268662
9.942061727723697
-0.9406834857893824
-6.391133116477701
8.705082385741342
10.434893475557436
-3.8695851407216257
-11.89195405702054
-22.71388608599167
-32.559042077372986
-35.269685003952794
-22.63182826696929
-13.481183220332547
-12.504847254174265
-20.03923222167244
-23.21450759092989
-4.292640857160532
8.208164804469417
9.265493923568455
10.303857714895035
20.535009156149982
15.814348958814422
-3.846746661090894
-21.201758081144487
-32.16390600526575
-32.17966200743012
-28.233406478359562
-16.169035070138424
-4.936719831785454
7.55258098071389
16.575792960918193
5.933017584864626
-2.375956047591153
19.689669730284425
39.4626146800073
34.88846767519895
14.127797209614547
-2.5101810510539093
6.158181225880041
4.820582771557053
-6.117878745847153
-10.676700885955835
-18.251513982769122
-19.69140263001915
-16.74547588315079
-7.439425269028805
2.4357949432762522
2.6501572816008196
10.241565366027215
11.034079756183504
5.727347626667534
9.226804396666916
1.6891894110723242
-7.677253985097987
8.261954656267719
29.36103284225699
33.713517674456355
36.15613494963165
22.37472944481872
3.934100724701331
2.9833729414376653
4.69800336092399
5.164951931216139
2.06808960078881
2.5054702890894545
5.791577680824651
-5.4779119961609
-23.842280598142395
-38.919164932837454
-34.83927798404508
-19.16190029089725
-21.20963560276963
-31.664515564539123
-37.00371185742357
-32.71462935141071
-25.04757740080299
-11.561567226775932
-6.058867072683231
-21.800845674636157
-34.44753890756364
-26.865149983622864
2.6733539391859127
41.28198984274837
50.22613383822519
30.362223438694926
20.78610122030939
24.102206948608153
36.62018322673567
43.76000358257672
44.8809629053998
56.748591325324966
48.72229861199371
21.63370856405648
23.99467633649716
27.297920147579184
23.593666483666635
33.0643671956292
51.38000237706544
87.05862477018454
87.92257278295564
53.72774475478497
31.75307648102367
19.169002630508135
21.775204549185858
31.283749831321447
27.322558933954568
20.04119922271981
8.31830649380494
-11.31100368341295
-17.500728047921434
-8.704979496435254
-14.81421682948198
-34.87169494111049
-46.069848998613075
-49.27170829883106
-35.18236157083935
-19.617520430937734
-8.313267400581115
-3.1786677079311394
-2.500171878276081
14.153015103573148
15.724912967714078
3.631831393657137
-1.327188391858825
-3.518771644060272
-0.5487564059655562
9.266201614147626
25.270610820111987
48.39422410533805
65.43615141844555
60.761200791463885
52.817741135577165
50.77988279635023
40.66469062567663
25.765451199884357
21.469217517831787
39.071856899124505
62.76316975082831
68.02521828628038
62.04467829278598
46.781180433672866
18.827205153489913
-5.825934040735426
-9.681177547024468
1.4224081164329774
4.971756792541675
-4.299973773072622
-22.391641626013698
-36.99365211447049
-35.36136764427614
-47.021064156334816
-76.94682159883286
-93.29870930552025
-78.72854296817393
-54.20118984306442
-47.71526788063428
-48.64081700009441
-60.428735531495846
-66.33621299590234
-72.38123877570321
-85.38939955840566
-70.10375413434193
-43.61919774681321
-31.078597142217163
-22.169096391266297
-7.897932370099837
14.541587367235088
36.19323287328096
32.30280981004617
16.65184069220956
23.132035764632942
39.6994823405168
42.08086913472035
34.89212510871209
33.89657353889507
53.30927233004271
71.33665793986647
62.29192159596079
44.93378918114405
37.905162809537146
45.67049576611602
47.58721578631553
30.151307840805945
18.128722951182755
19.072723658933864
20.257050820177838
13.49404198220085
0.0784567442941513
-8.336278287894231
-12.064605482958113
-22.71838367207727
-23.697703594059334
-12.173853408637878
-3.993230895503438
1.2858729431897982
-4.9992697705960945
-13.633189175071385
-13.640273024373482
-7.728047124538721
-3.5114795390052347
3.037940749593581
15.591529115955051
31.525066692400607
58.812957566533434
91.09676399724444
114.19142374839217
122.54880174805555
125.18382437576392
120.91554017670636
111.60076098886037
103.48154680780753
77.47230190295238
37.38361656692902
-1.581993556325146
-37.273599044971725
-49.63636821687858
-52.273929828889905
-59.42133318541709
-60.843885358536845
-55.27106153239574
-34.54966671369244
-12.096815611470221
-3.0359508728969513
-3.9736105605301666
-12.255269420242625
-27.268149660458686
-43.30939016620428
-53.851592194781574
-48.21489115278276
-38.21854482090915
-38.40060579008172
-43.617467007154914
-60.32496572870249
-79.41642920759853
-90.48680700527339
-90.05823514507915
-82.50920629851288
-72.12823945191292
-56.77663716839312
-34.003605090185985
-11.769180271648672
-4.381851326366039
0.20259170258012021
3.979424253109146
10.342294376083911
25.56503750931748
47.015346461608
70.45187042705248
82.35189710074843
82.40785699530231
79.25181322778487
71.75303835193426
54.18367290692386
33.3575290839399
19.200054552603127
10.53527024758211
9.714767201929215
8.132243975850061
2.240269227863558
1.7803308009218834
0.5372480703259414
6.497874892407995
16.028662835515743
23.38444041657924
30.444761170726007
29.14373915726818
28.33467580501788
39.81858554613908
53.90285016710051
55.00449904225883
41.50977646366285
19.65688507181669
16.980440228217535
34.13830065077522
47.48479311924357
48.19862569619181
38.91020235456259
36.36308830284201
35.216270271414125
29.95621517294249
19.037615358022556
-6.386846357208625
-29.646842121786065
-50.18640743408998
-60.32134637925076
-39.48118656315393
-10.602417230446836
13.236094939308522
30.165879067466683
33.1779968012952
36.33731314533979
49.249977587918934
62.18202389256827
69.31923215822323
70.70361825414624
72.5132012968683
72.52551147605672
59.54913783184812
39.73894758572449
12.766134566215541
-22.61885162807411
-52.981109770250775
-72.20432059811675
-85.15401508162012
-73.88948234780965
-42.39707702030857
-22.889962344088367
-11.34479122452178
-7.0557468533213505
6.179074729146547
25.18950549602408
19.71314255113324
11.501746545666188
16.43154872556193
16.272482507472066
8.325104443250886
-8.277878206822374
-23.8160116167478
-20.9117622558895
-24.2016882365867
-31.855471664411624
-31.84690148465466
-43.10857532253503
-60.163909903930694
-66.22228246393973
-68.56785121575723
-74.39658809472552
-86.47998968188257
-86.94261505267374
-66.77956280668155
-55.31263905993296
-47.64121320861434
-44.86221825360049
-43.292903837684534
-18.30663211794044
8.300029675038266
23.417988878081786
35.442973630213366
41.48859886514359
55.95940960200793
76.05016747636144
94.94094743853371
103.94639296614571
99.31448342712456
102.72102775268922
115.68866923405139
117.06302357831524
90.48291412412344
64.7924887169103
54.48019950551432
45.14344912689016
31.90547540347346
8.359515808501461
-0.9098876920328971
-5.994859716097824
-34.87858494143296
-53.69924941901699
-59.266207492485336
-49.771426241634394
-51.83192875635522
-96.58596889556898
-138.37332836499377
-159.15626896384137
-165.83886127048632
-167.48218754829537
-164.69784779549175
-148.1807892647295
-121.27360512089248
-69.17572444599463
0.7595998386000576
53.11153167041443
80.70266796047581
77.30267269442292
51.11434173911228
19.474779082898714
13.766815992042769
25.772601992206987
2.7686384315778505
-27.831144802294617
-19.161905789172508
23.390318322812522
77.67832832186669
102.38987931008847
88.15806024283812
72.00700279423332
64.28334409980185
60.95717908761954
45.85721304321525
13.041174280314236
-18.99166500402653
-45.31737147129856
-62.19940257797795
-54.077236834573554
-29.597668257055734
-2.2056458264963474
27.783186329582907
36.050149392669056
24.141145691748143
25.21525314678387
36.49188471198809
47.47517799258463
40.03145018305625
9.765689663644935
-11.837716873445576
-19.46520101818438
-6.347057354332541
10.330293657217972
0.972307764751093
-10.781207771188157
-6.920791951187699
-2.509249054410348
-7.008814192987732
-7.1544974972840585
-14.774208197940341
-18.732008771277734
-21.07827288741867
-60.033686755020284
-87.86488826219737
-80.45797209880124
-68.64394338939462
-59.73121474664673
-51.26362859362848
-65.34679108908603
-88.27025685093561
-109.79279067964553
-141.35334955676217
-145.94728098627928
-143.58645209174128
-140.19466888864017
-130.39393217714095
-127.78653330448059
-101.04454812323262
-48.79477128460677
4.947934221314735
48.28489048555602
85.05466728067788
117.70590661697621
139.84169458781363
151.38037360688438
147.92213679310274
141.52722228388956
146.2136936541362
152.68082911291913
167.3640112589106
195.72154110945658
206.9577335275622
200.79311877060843
185.3756858869451
157.1918239034701
128.6358538896028
97.0251386704592
82.72264956886586
66.75515877867497
61.49491786525944
83.74732338096945
86.46008585284653
63.912081575226054
3.002917639901348
-54.71874787231821
-89.51960176263145
-116.0671088103668
-120.9347099103938
-140.33501261283328
-182.74850580846348
-203.5253302881593
-234.4011406591883
-248.0634484873619
-201.5064517404252
-175.4918188206124
-153.02566802552107
-135.6279972168515
-142.62465931173463
-141.42867321594656
-135.24289029048828
-152.70918251406607
-173.0439393496991
-163.6173614154135
-131.87544372912598
-71.0955381176435
3.1578626694380145
53.64081826479497
65.34389991924951
73.66049777269875
71.31677939871192
64.32839808373234
78.38952073056721
98.91085543584578
105.48864721577901
114.6291029307551
144.2540260875648
158.23443551466872
169.51179128694403
164.12891144752703
128.09639015899796
126.94331280641069
134.3031552471436
121.76729671563672
110.23507910880687
89.06564235742132
66.41873079577537
47.047412830053176
32.52472937988357
19.892062374406553
0.057105243304080656
-9.297617806451408
-7.154658409505412
-15.912224051421552
-34.71039474051529
-76.47081226142448
-84.74103380458592
-67.26822019087513
-72.51911762339738
-50.84550487817811
-61.38443828906147
-69.55616924741705
-26.157696640283774
-13.119848175393544
-16.918654667470083
-1.8220828358271506
20.828407444499977
53.75281867245847
109.3913673014108
141.96464708221777
126.63097696169619
104.77205794501288
80.17742596726093
48.177410658560106
38.720368300393716
39.03945897054985
46.92041443476794
48.06098626601929
34.556543388807505
28.823109698988247
-6.698383007587166
-23.744261838076586
-11.428233813141128
-26.893180172573718
-34.749067596077076
-65.12914254115444
-87.54460277075947
-60.42792005361765
-79.10927842223299
-99.09489831623245
-82.6262323895057
-64.86379990537131
-46.34425572603727
-51.55816577693367
-58.48948111594114
-54.614465981665305
-51.125149697573
-37.54678860473551
-13.780704951657643
-3.7731163647843977
-7.840699112219537
-0.5363774243176552
6.315568206078421
2.0194647762982836
7.666593289806035
14.72815772974521
26.10403819881831
19.585262823862166
-10.474306716054539
-48.57824130540304
-77.33151876478813
-78.6393164806362
-64.70033668321477
-36.20954542433133
-67.46259174345049
-98.00168940766801
-91.66992254553321
-89.7000269843256
-61.05990017069761
-34.68149228639831
-36.385888990578835
-57.4476854455598
-66.0684579365606
-58.189057491813735
-40.42323647985254
-16.564552758799543
-19.606516717233852
-48.87946076717401
-38.41132076793835
-32.08896997044922
-32.526080633378605
-41.15370747682535
-74.48957383394406
-90.27074879350765
-98.90042176991679
-100.77625968616
-108.90998121034691
-126.51449494632264
-135.29267307436854
-119.33217849451262
-118.80029907336939
-129.76480505596712
-133.9560882096224
-111.62186053209655
-75.71074927033887
-40.279011384413266
-9.945848209531954
25.463898169180588
17.371539820771268
-64.47858110856863
-120.07574398116138
-152.2452739627965
-84.58238175389225
29.10182981435464
82.97085083657367
112.96305981984499
119.03194533925279
119.82575563942895
129.94177367142132
144.72387801185363
120.13745711000891
90.893023240595
90.60713400609527
67.83364725219566
45.77619578170259
68.05956839844691
93.08582587441376
109.78803025544258
139.78518037371103
157.31342305012126
142.31595349039878
114.88649992632554
82.1459289895859
51.49878486842777
5.57433924860793
-48.79976486716069
-52.02642595750886
-39.74621801265544
-20.282134152466387
-0.3287628927646106
-5.0698457636256435
14.901485532239342
42.196588841502134
60.31892837532927
93.61851433348967
104.10682633101833
91.46122271718609
73.76546235182983
47.88532339995646
30.94702800648803
47.61655666964453
79.44237711832714
66.37096579241391
45.245247431521626
38.08039964686579
12.204881616326023
-22.070913753760404
-25.952333973777066
-10.467768031306488
33.15617620113392
80.55222387875715
73.1642186860139
55.172546536077405
18.495767362503695
-3.5220538615902193
11.528345561814156
13.9860748752985
16.769530572394892
48.49516856164042
80.05581838912236
104.782399355715
111.13579111627746
89.58462120424838
87.55348811418149
97.41529516963962
86.24026678014297
33.74001141333402
-32.875441752352195
-76.26300997860946
-81.10685812682173
-81.5521571609877
-70.38094207275705
-82.53427092222869
-113.6720316982107
-81.40039913652608
-87.22070999864883
-152.29244416449237
-174.91802930480193
-154.3913175957731
-142.96833456505624
-163.52641040879385
-178.3206458270528
-158.92645494379803
-155.1523276673966
-160.59258381486057
-165.2249219741415
-175.97766155173483
-170.73871898672837
-145.45703110808907
-126.5839502627299
-147.78384720634978
-167.71143717313348
-179.48226140924723
-159.2926857194276
-101.18677436498479
-77.28150553102063
-93.59006636713012
-132.80316817232375
-153.54938100310642
-128.09765706872693
-75.86280355383643
-25.735644624537606
-30.72932478784322
-46.44215240340183
-56.357455146487816
-80.51303414515483
-88.15024871238644
-79.86671745767335
-56.78555773846885
-73.50773165550044
-89.510281156845
-69.64899969188194
-36.17559624397057
-5.418186491866289
-28.225948966503946
-58.37050802542772
-85.23360433178048
-88.23303532945711
-55.652821504644784
-39.3401620182244
-41.865254029547984
-64.09568645120481
-59.49543785096326
2.3661700286567617
57.72603604927988
38.38399926558127
-13.049921221083242
-38.63989433228097
-12.866713293957016
64.803809902837
105.2638352059772
128.506514414328
134.95595787064525
97.33903001488682
68.59291653946676
48.27882782418652
59.3406568799671
73.8202319078951
77.0300281494635
106.07155239104183
137.4654998855202
153.19039019818385
137.16028522000397
114.64102128254135
126.5466448341504
160.03049097490975
181.77114791115446
136.30541306959387
48.75903280427268
-5.1948297961970455
