AAD_Filtered_TADAS_FILE
AAD_BASELINE_CORRECTION: BASELINE REMOVED
AAD_FILTER_TYPE: BUTTERWORTH
AAD_FILTER_ORDER: 1
AAD_LOW_CUT_FREQUENCY_HZ: 0.025
AAD_HIGH_CUT_FREQUENCY_HZ: 40.0
EVENT_NAME: 202302061024
EVENT_ID: 13207
EVENT_DATE_YYYYMMDD: 2023/02/06
EVENT_TIME_HHMMSS: 10:24:47.00000
EVENT_LATITUDE_DEGREE: 38.089
EVENT_LONGITUDE_DEGREE: 37.239
EVENT_DEPTH_KM: 7.0
HYPOCENTER_REFERENCE: AFAD
MAGNITUDE_W: 7.6
MAGNITUDE_W_REFERENCE: AFAD
MAGNITUDE_L: 
MAGNITUDE_L_REFERENCE: 
FOCAL_MECHANISM: 
NETWORK: TK
STATION_CODE: 6306
STATION_NAME: 
STATION_LATITUDE_DEGREE: 36.727695
STATION_LONGITUDE_DEGREE: 38.947
STATION_ELEVATION_M: 362.0
LOCATION: Kahramanmaras_Elbistan_Turkiye
SENSOR_DEPTH_M: 
VS30_M/S: None
SITE_CLASSIFICATION_EC8: unknown
MORPHOLOGIC_CLASSIFICATION: 
EPICENTRAL_DISTANCE_KM: 213.70
EARTHQUAKE_BACKAZIMUTH_DEGREE: 
DATE_TIME_FIRST_SAMPLE_YYYYMMDD_HHMMSS: 2023/02/06 10:25:03.8427890
DATE_TIME_FIRST_SAMPLE_PRECISION: millisecond
SAMPLING_INTERVAL_S: 0.005
NDATA: 29001
DURATION_S: 
STREAM: HNZ
UNITS: cm/s^2
INSTRUMENT: sensor = GEO-A200,/GEObit | digitizer = 
INSTRUMENT_ANALOG/DIGITAL: 
INSTRUMENTAL_FREQUENCY_HZ: 
INSTRUMENTAL_DAMPING: 
FULL_SCALE_G: 
N_BIT_DIGITAL_CONVERTER: 
PGA_CM/S^2: 13.544
TIME_PGA_S: 
BASELINE_CORRECTION: BASELINE REMOVED
FILTER_TYPE: BUTTERWORTH
FILTER_ORDER: 
LOW_CUT_FREQUENCY_HZ: 
HIGH_CUT_FREQUENCY_HZ: 
LATE/NORMAL_TRIGGERED: 
DATABASE_VERSION: 
HEADER_FORMAT: DYNA 1.2
DATA_TYPE: Acceleration
PROCESSING: Automatic Paolucci et al., 2011
DATA_TIMESTAMP_YYYYMMDD_HHMMSS: 
DATA_LICENSE: U (unknown license)
DATA_CITATION: Turkish Accelerometric Archive v 1.0 - Disaster And Emergency Management Presidency, Earthquake Department
DATA_CREATOR: AFAD
ORIGINAL_DATA_MEDIATOR_CITATION: : AFAD - Disaster And Emergency Management Presidency
ORIGINAL_DATA_MEDIATOR: AFAD PROCESS SERVICE
ORIGINAL_DATA_CREATOR_CITATION: AFAD PROCESS SERVICE
ORIGINAL_DATA_CREATOR: network: TK
USER1: GuestUser
USER2: 
USER3: 
USER4: 
[...]
-3.0539917685232854
-2.695572359733012
-2.46464755946503
-2.353215667628359
-2.2357946129118944
-2.0417926610377175
-1.6881425679978663
-1.1581573482493668
-0.5388710195969177
0.07686051731102331
0.568643760242039
0.8898590545228968
1.0926734883407123
1.235183366727067
1.349425697716206
1.4101189927856455
1.3313425536768084
1.1617368896557054
1.077610261585557
1.1418085183803197
1.3669449065044574
1.720831985051787
2.0916853600573075
2.4750495982371024
2.8987304913126075
3.3563056841717134
3.8733339480137614
4.420340855195911
5.0145522345744915
5.694684532038568
6.432855405625524
7.233694722118916
8.035746633851627
8.691274458646253
9.09872068489301
9.290075971988713
9.361807131868767
9.372568212452508
9.325703143547441
9.181471466322709
8.955342053429392
8.677996319951545
8.39965206778791
8.196521094776731
8.083471355519423
8.102802048202793
8.219725860911737
8.263481992264122
8.135169174829803
7.783743892459069
7.282215728704372
6.806536435469928
6.418276955258182
6.102433714305096
5.729915225587944
5.190001012980077
4.471918670857666
3.630222731772177
2.8567576612781793
2.2544515078601446
1.806603149978534
1.5035826373482137
1.2451790333875068
0.9259895234862875
0.5592732623105683
0.14070894867538258
-0.33182261017601783
-0.9006197447776836
-1.643025473264858
-2.5118383511006215
-3.481222086304027
-4.441733935526254
-5.3059319282007875
-6.128809810602886
-6.839527772567276
-7.384527852235046
-7.7262717462949135
-7.810463812999812
-7.697997706549424
-7.470773203094915
-7.176373183422287
-6.868711351174593
-6.602615784206497
-6.358629111989798
-6.051417882386324
-5.552997473354831
-4.775665788801086
-3.737692891802141
-2.4937980387107075
-1.1597611993886334
0.11532968077031443
1.2550785990938365
2.2111161278596243
2.967634713228356
3.5885462259472334
4.102398962615734
4.502742287830493
4.78673320285217
4.989474906898689
5.173746903581768
5.3145929893947255
5.394264649170958
5.351616742238199
5.097110949209536
4.664707844349796
4.077689731806928
3.32547019844694
2.4651417803032407
1.625251599008681
0.8731986484099109
0.16935200349905508
-0.5356777070109532
-1.257611988660708
-1.9798925824987634
-2.7038362031666625
-3.3920130642467634
-3.990918388352543
-4.501514679848032
-4.90967115266811
-5.222817385982784
-5.423017219710815
-5.458931151884955
-5.35439402036919
-5.151597800629088
-4.939765974678161
-4.815599409811068
-4.789909529850641
-4.8729463565116635
-5.0066799981223955
-5.091765121581275
-5.074250173562269
-4.895339325299886
-4.565783169505651
-4.138002755981225
-3.691580757282195
-3.2857061170019644
-2.9175274762405854
-2.606162491472168
-2.280139054585781
-1.8900725056351022
-1.4530605733943636
-0.8795505178139509
-0.10229588458005735
0.9349381014928319
2.265262984078895
3.780585934893516
5.334077410994493
6.703779087757648
7.673259307074533
8.225503605563539
8.398918925086498
8.298281439379394
8.143522088951228
8.065839084747244
8.094216254700294
8.190933758197962
8.280546973346315
8.257964438164281
8.014243764465142
7.581516888874048
7.022375408112041
6.347726986963466
5.597579442054468
4.825987791796846
4.041560391648195
3.202483988051255
2.3013846404159084
1.3810470836719795
0.5452997263826063
-0.09034814757912465
-0.5028992833052721
-0.7787989177854031
-1.0828735380946348
-1.5182146505176337
-2.0628036572904227
-2.60346101840184
-2.9608770510193057
-3.012525788193185
-2.7999555624622428
-2.540070475526343
-2.4334216996594504
-2.5394210690772696
-2.8692571110163096
-3.317449314686047
-3.737240667591901
-4.068201874476268
-4.274153161341964
-4.3475101042088236
-4.308424618037746
-4.186867311533994
-3.9821764063072496
-3.661325072346035
-3.242093750608722
-2.8151110673735316
-2.467482541231313
-2.2838152530716593
-2.2844410166840734
-2.4101082353528924
-2.6260173801640936
-2.860334713609979
-3.0605867765247923
-3.1993810118424846
-3.2499518396375717
-3.262876644810409
-3.3178215671041382
-3.4739665761278196
-3.7098543668244233
-4.016675224726844
-4.403358715759594
-4.792903569400505
-5.121828434121455
-5.299683243411533
-5.192059820623704
-4.739606047275915
-4.012031012369626
-3.1901032924453183
-2.4126000974937587
-1.7887192383055357
-1.4001802582004328
-1.1824933595024165
-1.0957795457023667
-1.1259153843969685
-1.1851628789868018
-1.2314191587311458
-1.2461737820845178
-1.2216894260060696
-1.2138437161845634
-1.3882621700221893
-1.8984026144566142
-2.700767119412734
-3.6548419417725215
-4.585260677644542
-5.336928746260139
-5.853301896032255
-6.162626862358116
-6.344430181389158
-6.403141668384504
-6.322239959036897
-6.144727862278339
-5.903656348943538
-5.655702928675881
-5.444154289587296
-5.251705411068851
-5.048934723744955
-4.7787364284850575
-4.3923578569064405
-3.877223627404852
-3.240033958910968
-2.5144270893235183
-1.7467200279880264
-1.0176902475547
-0.4047824979258369
0.03985994847626325
0.29876097027720366
0.46967620930579784
0.6357437409695379
0.7747621045901092
0.8302550749835929
0.7515904373225185
0.6214792977503061
0.6060898713271712
0.8289327829501885
1.3104457333792578
1.8602799357026
2.2463965976370575
2.3758794844867515
2.277410902058853
2.0869894669103464
1.928332587705643
1.8267002944137734
1.741056015825629
1.6112605083640734
1.4253860196825625
1.2073873960534873
0.9847564394007251
0.7653641354567315
0.5361436249025066
0.34815488303493514
0.1906059882409533
-0.029281536792373365
-0.3444396227956546
-0.7954271808370672
-1.3422965604015937
-1.8744455409443308
-2.2831958127968597
-2.5202296765766286
-2.6975325599830122
-2.871408934119399
-3.104680016146422
-3.4945261485377617
-3.9572415415151556
-4.38624314352793
-4.711337609887432
-4.905075380512704
-5.044586111951889
-5.1939408818049495
-5.400794051548673
-5.649121332062018
-5.815929050815011
-5.854930741765251
-5.802575285596104
-5.736785244481017
-5.764457711725192
-5.911625521857011
-6.147721089528242
-6.345669504700983
-6.375925397565897
-6.20337378522634
-5.788998810765907
-5.2325870397367975
-4.717940117837678
-4.386233325819556
-4.308003640844971
-4.369538041842055
-4.430345360996062
-4.4137814448999055
-4.264540719801332
-3.9332876984802776
-3.3688351115611224
-2.617120057461962
-1.7809433583636554
-0.9678598140059632
-0.31098398688748763
0.13291734279159673
0.38948860329512175
0.48324343036813006
0.4534190495463958
0.3607937461901303
0.24865189160414472
0.1328500877181046
0.01847420966102205
-0.10523420106476863
-0.25266899236457974
-0.40686587179868827
-0.5054085940602495
-0.4963594937738667
-0.44083321894152944
-0.46962353475283963
-0.6745854942045248
-1.1067835431808575
-1.7292349157484719
-2.3500570556689873
-2.773314144126347
-2.981566036975504
-3.086115563761004
-3.2079950224366707
-3.434237274029843
-3.7389810781719626
-3.9499894782610925
-3.945899756291294
-3.758574539208648
-3.488906742642329
-3.280219076266181
-3.211657301350933
-3.292714386074362
-3.5006284506059275
-3.706397514615876
-3.78314640885098
-3.6483205949187023
-3.271600820889286
-2.687623631048309
-1.9888252953372276
-1.3809703436764633
-0.949734112295092
-0.6580538754602784
-0.429270773365642
-0.036402596596315985
0.6041419106668342
1.394041989513234
2.2195824040674093
2.952061720978183
3.5314322324221186
3.929286686406369
4.212883862682307
4.466372479728932
4.67828204564233
4.859694419547854
5.00842095206591
5.0908486770404915
5.044144478618201
4.829363682899216
4.457831718885442
3.9948318908572156
3.5794434662726577
3.291049037964231
3.157519766323233
3.1163715307572106
3.0354446363643204
2.847090739262256
2.4462205733276265
1.833863888174389
1.2173971698008819
0.7733487976731863
0.6068612668690332
0.6918629074161252
0.8907952109810822
1.0583088333739405
0.9979583503330347
0.6704387333446504
0.18142633422685772
-0.36617762127408615
-0.8068663839403196
-1.0915299747133016
-1.340688258342073
-1.7323188747453786
-2.367702460738568
-3.149122380988589
-3.8862102250429547
-4.397455806950972
-4.630626040445202
-4.712024644234229
-4.79388066067346
-4.979896134755374
-5.326470383473165
-5.843784050588484
-6.477600389412331
-7.143181097233424
-7.791030897384715
-8.292234039753279
-8.531046049658906
-8.519004835693492
-8.316182801769202
-8.057976372959363
-7.788772107531738
-7.445182521535474
-7.006349333329199
-6.510806745205081
-6.053623477489146
-5.713144628856175
-5.545849114500286
-5.541249618761467
-5.634509555046903
-5.7250156277482365
-5.6673738186787315
-5.3801479676738
-4.8406607436107745
-4.106676295030902
-3.3133526464487013
-2.5794314888566023
-1.9832438000137547
-1.5730578617511926
-1.3219330709532617
-1.0849804049336806
-0.7208148025289889
-0.18621761589770908
0.4903910171195394
1.2650613439994565
2.0986515870454365
2.9393689328578096
3.7345163743319745
4.410852305712114
4.882674280696475
5.126751787961288
5.12791418992971
4.8442012089443995
4.334560648316994
3.7037910329241024
3.0297533922678426
2.4388013466241594
2.032329531488121
1.7966931084800084
1.5949521672762137
1.2702671697712218
0.7894008326973062
0.20851276671533747
-0.37660055457004105
-0.8983377107756615
-1.356068756690717
-1.771219322942459
-2.1164806684422546
-2.286048183993026
-2.226716398113037
-1.9479725325947532
-1.4943426146223744
-0.9819225528816814
-0.543052874889828
-0.3132177630015411
-0.41390652960021984
-0.8711609198945727
-1.5913429620860642
-2.386348406965809
-3.051392644362558
-3.4771343684561917
-3.6881372141295086
-3.791920390864481
-3.870610295358931
-3.9780339779401004
-4.10770237542912
-4.176387340076504
-4.157307091424899
-4.081335628426805
-3.9961217080409606
-3.895566838084114
-3.7314920440439145
-3.4687095315244694
-3.065328902859067
-2.5749483211013438
-2.049890528518056
-1.4977218624242454
-0.9812463795770542
-0.514609328334865
-0.08712536349030746
0.3100703160653086
0.7116064869364859
1.1391044239864396
1.645609627388073
2.2914988794583433
3.102026788968513
4.127174706046386
5.352912912510935
6.608689032601322
7.775186143428939
8.759876212537948
9.406397011776471
9.731673503281083
9.83404602882595
9.79472306053272
9.706627851671763
9.609272980167365
9.544735492074237
9.456381935005835
9.272388454951956
8.988311677106445
8.588891454605609
8.129571804409833
7.667354453604502
7.2577798488064
6.931252961207656
6.683480225694784
6.526579939182082
6.398772359254972
6.248837547621268
6.039661445515498
5.745511357125882
5.41909502749676
5.093524993205642
4.751249792702602
4.330917920641541
3.7690932971355284
3.0671192571292956
2.2773825324586676
1.4739530473840627
0.7518385945636289
0.18736064204547448
-0.15638867380936555
-0.26247533436486964
-0.23240872194778267
-0.14930846654336377
-0.05910529716391638
0.04769228528218387
0.28874000404627065
0.7258744766949978
1.3335771804075134
1.9729570767379367
2.431884081247613
2.545741899118974
2.232680797094773
1.5955313765343129
0.8098765897890047
0.02471803837574405
-0.6780384311465082
-1.3374004250964433
-2.018155043912941
-2.817105492859694
-3.740500674817817
-4.672468284864207
-5.511037689120766
-6.1573539562992385
-6.5385572552777855
-6.649889695896487
-6.557446951846177
-6.307649604997123
-5.913487035848216
-5.407939669416353
-4.799713439377114
-4.080362060660004
-3.2645664479350462
-2.4301444743105547
-1.692582008379408
-1.1291136303460663
-0.7829751024150385
-0.5956178615571293
-0.36666765732897577
0.06716299135158262
0.7557039455952359
1.7055065690560336
2.8362654319211984
4.004785893020427
5.12097049422351
6.1389583868075395
7.04412619217102
7.83103924089125
8.496526378903377
9.068235006204134
9.555767325030455
9.961009456731505
10.280177948721665
10.462485901040631
10.423106188408065
10.11318943797313
9.601722501491665
8.947501045704627
8.17334535215939
7.368437973161093
6.583562062530632
5.868311855381562
5.297627066189515
4.870521474857881
4.4898504106218065
4.053440063114505
3.5926068515529974
3.1690799766651
2.8414059041047866
2.720216990463161
2.8737696157142683
3.278244288728217
3.8830114192210012
4.654568422523136
5.523969685288045
6.439214805178788
7.360939444005722
8.24415643133122
9.034238555761029
9.684430971242993
10.229317825524392
10.67837414034205
11.062521872357179
11.416441538590547
11.707298314403857
11.913761337422857
12.015804571511937
12.023860238885986
11.910116069093858
11.637510414168284
11.181408574198858
10.453381360421998
9.426240793269095
8.153054464058027
6.765631038885867
5.4459822587127125
4.272561503342483
3.2525368118987954
2.3323582994010255
1.3831179024555258
0.33921740507143516
-0.782984208692342
-1.9363974927588414
-3.0639244741083957
-4.135355554612737
-5.1185988383593
-5.978333341140465
-6.7413370473271454
-7.464538305170414
-8.200583767445286
-8.987837514004102
-9.764762997220044
-10.449036451283916
-11.061433291325338
-11.654949790532688
-12.238549385299532
-12.810005406702572
-13.318807077800603
-13.619614328205294
-13.598788787999833
-13.174248738726746
-12.326366680030583
-11.179592652654017
-9.903604248556054
-8.673800077979328
-7.576309328899889
-6.632540327481614
-5.848289022060783
-5.175305652512774
-4.605012610806943
-4.105304792771882
-3.5966331686040425
-3.0099143523215366
-2.3254190142407696
-1.5633555089378428
-0.8167975538629507
-0.3290539006812952
-0.23413847058914963
-0.5354166697180055
-1.1601008605078291
-1.8313874188286547
-2.2902280487538076
-2.426129235605097
-2.22555173652949
-1.7894005547091945
-1.2430659455277038
-0.658172209049937
-0.12321705493359175
0.29097080247980434
0.5763048916845058
0.7558484010153395
0.8955424518970128
1.0475340924263399
1.2096036639430965
1.3411276735563502
1.3760056878259397
1.2482893087486773
0.971480784536891
0.6102715415339091
0.232466902877033
-0.06621874853953065
-0.26202248220837515
-0.3734883931849023
-0.44252466431057413
-0.5528613649377567
-0.7037271951987164
-0.8606148801301204
-1.0018160416498985
-1.1218941683924888
-1.273914851914399
-1.5279459773436106
-1.9518127433018009
-2.5471992515368393
-3.209321479544991
-3.7974049926176012
-4.195881137400179
-4.320319059902052
-4.194061410853919
-3.9478846524857745
-3.6592203089224333
-3.3615950528044953
-3.0603536906003623
-2.756515866161948
-2.468924485624036
-2.172509058115782
-1.8509197240841175
-1.4260560574085206
-0.7812650051447722
0.07492646026539934
1.0131784380506599
1.8613077862578655
2.530588495890342
3.039930926684151
3.4537873041958327
3.840109359927429
4.202406452788981
4.509475594160604
4.786547789504532
5.068806803711364
5.397300212340007
5.832725457719867
6.355326027240181
6.9064010936417
7.442222187922044
7.934989381919321
8.390774030666975
8.76271709311261
8.975232123969501
9.047069671862978
8.969916360644284
8.721363003780805
8.378023755337829
7.937739666100303
7.413558240593828
6.88338849546343
6.315615005954759
5.6733115559742044
4.953238029266417
4.17338440962429
3.3874250261363668
2.64336778902614
1.9408475034017811
1.247635563092621
0.5829399037141572
-0.03413146507337519
-0.6087916679076786
-1.1670791940541427
-1.6753702676089743
-2.0502025804359403
-2.341261028500869
-2.590419651493212
-2.859762795519156
-3.28351745938861
-3.8513006545231843
-4.453165514695138
-4.954590837597378
-5.284124335897077
-5.461107805150629
-5.548690777268093
-5.677977730234428
-5.89388893589708
-6.145142461131433
-6.447432986806989
-6.821425263425511
-7.231226127953901
-7.669432488694324
-8.120565999067454
-8.503151400707745
-8.787757132928572
-8.961526689544343
-8.986158553074329
-8.850587595408141
-8.554961396792592
-8.196890912938091
-7.846031890813613
-7.511691710118911
-7.24467633268521
-7.013662853833131
-6.7984498110556215
-6.642299326535077
-6.55947127208642
-6.512532383334429
-6.4137168861292135
-6.194491764971824
-5.867974605067617
-5.533756819592665
-5.2903673383578536
-5.136138638412745
-4.908878214589731
-4.458094906241819
-3.791065372155147
-3.010786847284842
-2.324574435566311
-1.8093160758099132
-1.3836006077650171
-1.0527486270473625
-0.8299882592536865
-0.7632040563233066
-0.9155709136037674
-1.23490936883011
-1.6417077166833882
-2.033607146886216
-2.3826124891416223
-2.772136358426551
-3.175823043550211
-3.515061819237755
-3.731610199033653
-3.803705515372865
-3.7717000461250123
-3.610525794808043
-3.256883087802122
-2.6335048316935765
-1.7233249520129164
-0.6758012485471944
0.3015260588974641
1.0465946201583602
1.5072408950642529
1.7376560719543013
1.8477318640242562
1.9651182711484998
2.092359361142664
2.1201773442589555
2.046137290472249
1.8740269364344306
1.620086763457773
1.3778208583565874
1.1101273374786464
0.8110749595840985
0.4564090626972828
-0.017048212024047077
-0.5253924049181866
-1.059182148081484
-1.5198146063156788
-1.739909414015868
-1.7369698766543955
-1.5226886063398442
-1.147553924597889
-0.7395120903453428
-0.34242420637223137
0.029106409642297992
0.33409058688136745
0.5686721261613827
0.7411933309541315
0.9425567571438505
1.2850350813247506
1.7596736317266521
2.3680496175628645
2.9989532504012675
3.477515846813593
3.769615999571657
3.7992928541836313
3.5757879617118635
3.294587168390489
3.0971960637510185
3.063452362925378
3.200843859164227
3.414597398185347
3.659328066770635
3.902286064638421
4.1127205314052295
4.282019076336669
4.324631717403196
4.224169639465136
3.9953441884551637
3.5752220904026393
2.998390681642353
2.4150785194163844
1.9465361172326139
1.640744610768432
1.5254785157258566
1.5277423045764413
1.4936713730974136
1.2963295401810677
0.8499021421393497
0.17677961855970187
-0.6040873083215876
-1.3341713611879722
-1.9043906664956016
-2.2894483040949467
-2.542244375701464
-2.7377597452173013
-2.928736635056857
-3.2160341654049027
-3.6283936660511813
-4.129949879104211
-4.728076144691476
-5.411514515595673
-6.197861434111948
-7.108821642750556
-8.04640952526919
-8.850507037225006
-9.420850767379203
-9.737600683276765
-9.864362173195518
-9.956216201341732
-10.156696461406058
-10.505308167636535
-10.977703262739094
-11.459188294305093
-11.785042469428195
-11.88420900306429
-11.775958440941164
-11.525737402395798
-11.2069635298962
-10.850826858627999
-10.43090063416047
-9.946569132813192
-9.445176653944294
-8.970163414605466
-8.55992483816766
-8.195846946005062
-7.863670830682775
-7.540918750980436
-7.1351220506126625
-6.621053786092769
-6.005584235769252
-5.304459972051664
-4.6370150127147
-4.133899761056313
-3.896972544434298
-3.934354908088763
-4.118567495751244
