AAD_Filtered_TADAS_FILE
AAD_BASELINE_CORRECTION: BASELINE REMOVED
AAD_FILTER_TYPE: BUTTERWORTH
AAD_FILTER_ORDER: 1
AAD_LOW_CUT_FREQUENCY_HZ: 0.025
AAD_HIGH_CUT_FREQUENCY_HZ: 40.0
EVENT_NAME: 202302061024
EVENT_ID: 13207
EVENT_DATE_YYYYMMDD: 2023/02/06
EVENT_TIME_HHMMSS: 10:24:47.00000
EVENT_LATITUDE_DEGREE: 38.089
EVENT_LONGITUDE_DEGREE: 37.239
EVENT_DEPTH_KM: 7.0
HYPOCENTER_REFERENCE: AFAD
MAGNITUDE_W: 7.6
MAGNITUDE_W_REFERENCE: AFAD
MAGNITUDE_L: 
MAGNITUDE_L_REFERENCE: 
FOCAL_MECHANISM: 
NETWORK: TK
STATION_CODE: 3136
STATION_NAME: 
STATION_LATITUDE_DEGREE: 36.11593
STATION_LONGITUDE_DEGREE: 36.24722
STATION_ELEVATION_M: 269.0
LOCATION: Kahramanmaras_Elbistan_Turkiye
SENSOR_DEPTH_M: 
VS30_M/S: 344
SITE_CLASSIFICATION_EC8: C
MORPHOLOGIC_CLASSIFICATION: 
EPICENTRAL_DISTANCE_KM: 236.36
EARTHQUAKE_BACKAZIMUTH_DEGREE: 
DATE_TIME_FIRST_SAMPLE_YYYYMMDD_HHMMSS: 2023/02/06 10:25:07.7457460
DATE_TIME_FIRST_SAMPLE_PRECISION: millisecond
SAMPLING_INTERVAL_S: 0.01
NDATA: 14501
DURATION_S: 
STREAM: HNZ
UNITS: cm/s^2
INSTRUMENT: sensor = GMS+/GEOSIG | digitizer = 
INSTRUMENT_ANALOG/DIGITAL: 
INSTRUMENTAL_FREQUENCY_HZ: 
INSTRUMENTAL_DAMPING: 
FULL_SCALE_G: 
N_BIT_DIGITAL_CONVERTER: 
PGA_CM/S^2: 10.143
TIME_PGA_S: 
BASELINE_CORRECTION: BASELINE REMOVED
FILTER_TYPE: BUTTERWORTH
FILTER_ORDER: 
LOW_CUT_FREQUENCY_HZ: 
HIGH_CUT_FREQUENCY_HZ: 
LATE/NORMAL_TRIGGERED: 
DATABASE_VERSION: 
HEADER_FORMAT: DYNA 1.2
DATA_TYPE: Acceleration
PROCESSING: Automatic Paolucci et al., 2011
DATA_TIMESTAMP_YYYYMMDD_HHMMSS: 
DATA_LICENSE: U (unknown license)
DATA_CITATION: Turkish Accelerometric Archive v 1.0 - Disaster And Emergency Management Presidency, Earthquake Department
DATA_CREATOR: AFAD
ORIGINAL_DATA_MEDIATOR_CITATION: : AFAD - Disaster And Emergency Management Presidency
ORIGINAL_DATA_MEDIATOR: AFAD PROCESS SERVICE
ORIGINAL_DATA_CREATOR_CITATION: AFAD PROCESS SERVICE
ORIGINAL_DATA_CREATOR: network: TK
USER1: GuestUser
USER2: 
USER3: 
USER4: 
[...]
-1.9693441737310684
-1.430493964076985
-0.8492048954313249
-0.33417634694068105
0.06108586425028317
0.5750969073386866
1.287703705014775
1.8404147656550711
2.4235573461999693
3.4299117436715374
4.667352254583628
5.382481972060556
5.30838147083237
5.2517770923272655
5.380581495994337
5.27665903637116
4.734290805235419
3.575810327939397
2.163220286423218
1.0038981246090417
0.5761346233610888
0.5965639255558888
0.09159328718230755
-0.7913844474316222
-1.4110701352145318
-1.5160079285633197
-1.5288022968567405
-2.084335662554207
-2.6917206544946874
-2.77734613518881
-2.5502907088507736
-2.5378401775601915
-2.8114850945368435
-2.8506258798090487
-2.908217159987803
-3.2068887850939154
-3.3516891170646095
-3.5712606786683447
-4.171391792561057
-4.988622753406991
-5.213081569521975
-4.457629453368781
-3.7547742817702234
-3.606608125632825
-3.6338287540326033
-3.1642503041761025
-1.7877082949724399
-0.23396690257392075
0.9606844279323594
1.679908909995089
2.090974289688746
2.6419049650926927
2.9107535849789468
2.599219329056786
2.1052923909679295
1.8659554379064236
2.091204391168085
2.232293519233994
1.9150373414043973
1.4820716912021046
1.3054970910622925
1.424330154604834
1.4955223192061193
1.662092718262397
1.9574773863811583
1.9001999176967945
1.731436281557226
1.5844986108789976
1.2259769335136999
0.5466106857786023
-0.291863911689265
-0.6161873623563372
-0.6823712467647809
-1.1010773103788332
-1.824067760068833
-2.6760818050963078
-2.966707105856588
-2.5483493736584735
-2.053613190637509
-1.7558352399012644
-1.7700650199133112
-1.7686256313936473
-1.3695736180556422
-0.8433218706624697
-0.4950783770854519
-0.21799863108925494
0.5664251427226858
1.7015185827786692
2.2217932251337205
2.170807072186445
2.1094934547360964
2.212284152350421
2.3199405824919035
2.1221486590034178
1.581895116148694
0.698633055915506
-0.10195596910017529
-0.3409744388448254
-0.3894718223546923
-0.8066986514626779
-1.8467897937732147
-2.9759940917199614
-3.5093712998826274
-3.5736770291798785
-3.2901334171700922
-2.7146971292461415
-1.9181582037885672
-0.922254135734424
0.1995404378830849
1.548166122680243
2.649906135318399
3.002675948625365
3.0140563837681724
3.314032663080109
4.023187141904184
4.470851744886952
4.3205753132549845
4.116561121280923
4.16725104823781
4.210557592631291
3.954601318987755
3.3049764656037808
2.2171627532573788
0.8921606525239797
-0.17486670201121565
-0.8905148537754104
-1.6559938473604783
-2.574577248833348
-3.3435678716683945
-3.725775561705217
-3.985571965266559
-4.337373067310058
-4.430727050794171
-4.21874624797449
-3.9146847011463213
-3.4984841310564354
-2.735887603406327
-1.5779478551535797
-0.35380127061829775
0.9182223565300177
2.242825673242159
3.2322847630463096
3.6258816553509763
3.5188190039800546
3.385252111479394
3.5493890163018422
3.6077879287095436
3.34166690430038
3.0683927146255874
2.8452520849126954
2.5693229041349626
2.33264866597356
2.135744414170205
1.75077495297622
1.4627482012777449
1.5988956612844738
1.8323119935109355
2.056464173205316
2.3874664686036704
2.6382676108016305
2.4917364024486615
2.1959080516414122
2.0868195540443315
1.7015901178061037
0.5781507908845669
-0.976821944150769
-1.8897500301508479
-1.8824401072766928
-1.9675146705236484
-2.384736512919518
-2.440044839874769
-1.7863934501243688
-1.0665105283704015
-0.9139778183871006
-0.7716964658304315
-0.3553249737499617
-0.1281135561796989
-0.21337741144469055
-0.29157872192238576
-0.06537313031947553
-0.08600751997408373
-0.6194211918650597
-1.002094332361515
-1.3445246429336246
-2.086721767526283
-2.973018249987635
-3.57624344897787
-4.038082129929816
-4.768816827220511
-5.384979595182472
-5.410969313821446
-5.135306743098746
-4.921805505221197
-4.75870824693441
-4.2792056760459225
-3.4805276756586436
-2.8823029493992522
-2.3751824426343835
-1.5335387043863522
-0.44764575962876196
0.4826612562229375
1.1328907160511106
1.806448415965222
2.3901322164640177
2.5065504996723194
2.3622484706993307
2.2156799836631795
1.9626515450926778
1.6775619285975845
1.6224335383932984
1.937781864175535
2.2992991694615705
2.520487352256494
2.8460191109717825
2.9586174547068937
2.9691915000058215
3.4009608320156874
3.972742261839499
4.375764035043265
4.337370133640473
4.040955606826734
4.103349509412629
4.207278000458135
3.9732077965549646
3.498154339509603
2.8899050637087433
2.2738306680085163
1.6635873221897208
1.4094055643214793
1.371916653903783
0.8420511736479798
-0.012215191439398282
-0.5237335027754075
-0.6079953278814505
-0.7860900618690122
-0.9808994595789841
-0.7795796880751897
-0.5172392914777157
-0.5698739339869271
-0.7588529177615949
-0.7722429195970035
-0.984225784462876
-1.7450211992611786
-2.5779966187479344
-3.091517440480065
-3.2413665801758533
-3.2748455830921124
-3.261814828759675
-2.868449105195875
-2.2209352684190504
-1.5739029510166263
-0.9959529974353953
-0.48769592701182557
0.19097268568312456
0.8885484567789455
1.5397838804935224
2.409563835980648
3.3115272969409792
4.364274398495574
5.580610784193745
6.348981186290523
6.48259668182627
6.196490813507451
5.930139337061524
5.670832227198495
4.927341042295621
4.03232637055542
3.5629018449653547
3.242208638726593
2.555088390358907
1.756941833858532
1.1678221253951597
0.5627555915363481
-0.05451583592318529
-0.5632115570528609
-0.8723765403344103
-0.7818596330781709
-0.4762945608848337
-0.16031395601626036
0.3118558383490202
0.823585997875274
1.3531726125121724
1.934926530990822
2.3085122791592854
2.4925839573575717
2.5835172242170805
2.756868076397063
2.9509864665310728
2.90836666032343
2.969779008510576
3.075521449691109
2.8102935183089923
2.1557508037582913
1.1327264962241275
-0.05845937864207087
-1.4783283176998192
-3.067149878375415
-4.158546937427673
-4.60293482296454
-4.766919522602022
-4.999831385935831
-5.188126466087919
-4.835156720012541
-4.051343872000942
-3.255521970853474
-2.527061831923018
-1.7325670269084417
-0.9284711149634793
-0.2879110987666109
0.2920456737854556
0.8103364643998416
1.0746532527436463
1.0662248787785884
1.0969818603707644
1.3379617982752783
1.5325964425919207
1.5034607522864345
1.0401600596387401
0.17057957121279477
-0.42978810032339054
-0.42324124079272535
-0.4079331714402347
-1.074658621576787
-2.2092294222597784
-2.9870056016000204
-3.2217742852481615
-3.225242309158092
-2.971895358330027
-2.3945922919381215
-1.5435276611899513
-0.5219664571019444
0.6183565908711633
1.822939540797541
2.7844941928605773
3.407500021464814
3.732909205253389
3.685544372770141
3.3235255690010947
2.649195965217598
1.8454977570876951
1.1674895866119108
0.5043690632867065
-0.12830665819585868
-0.5588491377103908
-0.572327782429808
-0.2886322626982324
-0.24803952048355288
-0.39427661949375514
-0.4684732448002306
-0.46764233724341003
-0.29375065125699423
0.07504241046768963
0.4772792036836803
0.6299609504032901
0.6005911210553947
0.5821654275999432
0.29468638507843137
-0.45308463922267755
-1.3267037689650618
-1.9594801137352178
-2.5341495965130862
-3.4626497135181338
-4.5628722087292255
-5.112516893688356
-4.779542368745504
-4.13910968772294
-3.59247811011088
-2.888933784111194
-2.195728390965611
-1.6313600856043702
-1.0449369665044401
-0.5214751755420585
0.045695967495064195
0.8228488843005237
1.8681590278738547
2.8220401391729046
3.32346064857356
3.91094965509712
5.092416239976077
6.482958969624427
7.414335433835648
7.731549369409904
7.838561403391681
7.968551708587129
8.065387622689695
8.16161090808208
8.328258464672967
8.633080015277594
8.694489839734091
8.097758415014622
6.984226311086938
5.606730676614477
4.494288649884203
3.779696338762969
3.111354680882707
2.4800532213749897
1.6615362378630516
0.8333812243889426
0.42551238475636566
-0.0034957273433284582
-0.7356039353490251
-1.5177674791820124
-2.1715200450459897
-2.9331102275948733
-3.8477055336964523
-4.415657338671807
-4.759228964086484
-5.25488680836657
-5.832890479762888
-6.326306100842789
-6.680917315901643
-7.204417671435109
-7.799301907611191
-7.94991065601552
-7.838410794560245
-7.68451810359956
-7.3064548726936485
-6.6774755814683004
-5.66031971312059
-4.378416074560303
-3.3196116477220983
-2.56524427802359
-2.0120979384670834
-1.3209021144390656
-0.3510212080716181
0.2516694497428423
0.33958716811711437
0.45689472427898287
0.792924540755328
1.0514140250795274
1.1396601281591838
1.3611007962241954
1.5613064010642657
1.1930455066901466
0.24361790977342823
-0.550459910089584
-0.7725243118347
-0.7128230231150965
-0.607670545767822
-0.7372947461313617
-1.2155028750128274
-1.976148187430167
-3.025356386091379
-3.8883006594033636
-4.292757395428914
-4.573792255835326
-4.658879803190863
-4.371405290917086
-3.9960419935606275
-3.755609138573456
-3.5388262467686267
-3.257039861961974
-3.10968942965066
-3.1002499604101197
-2.9313532516987486
-2.5833537972620593
-2.2569186693324266
-2.076450944436578
-1.822769536099129
-1.306357400942121
-1.0560533135787684
-1.2868399171880367
-1.6742893777017562
-2.02778434987756
-2.2239145934198876
-2.5822893248226544
-3.197646048876889
-3.8695450023518414
-4.515995842921662
-4.633076328855198
-4.042936636021253
-3.353592275116901
-3.1699200345177085
-3.106116165693602
-2.3504007628978103
-1.5488286054487226
-1.7529329103713678
-2.5441277470237655
-2.830138893510532
-2.217341359848662
-1.574020128199702
-1.6299908217099996
-1.8756956424135722
-1.8007700091385823
-1.3428082946437423
-0.6334010913298268
0.07205016725586555
0.5666233571880419
0.9292021119606007
1.6576302714608846
2.7135926529297194
3.4868464779095167
3.9549124731444674
4.519463242223351
5.114334682183159
5.182163524582951
4.6582863883416
4.048211747454794
3.4260088255405066
2.6568565208166883
1.9958021612935704
1.6244240698506045
1.117587594315245
0.11243195557651925
-1.044668582779186
-1.9693201530529465
-2.7809402545067075
-3.8383701368502594
-4.956192236064727
-5.600779042744479
-5.954100823644141
-6.38495160074943
-6.6248768146005705
-6.320227366594148
-5.613930043834028
-5.084170106705946
-5.065645761634793
-5.188261723948741
-5.0369992831949
-4.655839167883051
-4.364868020911116
-4.239351564971594
-4.0393978233276355
-3.67223700663427
-3.1817184362808457
-2.991391587527806
-3.230587551532277
-3.2170878174578337
-2.7568612601750173
-2.1963198092625857
-2.0069061991966044
-2.1235531233722456
-1.681438741519987
-0.9153614190751661
-0.5433273768614216
-0.3658141903500919
-0.11899473669639901
0.33338567178971973
0.7620592983932666
1.031114167474578
1.470049385784693
2.136812362931938
2.9970848351396864
3.8682024069674115
4.39375250585978
4.403709079030832
3.9510781514116706
3.2586414159460375
2.4583962168577145
1.6092634377089128
0.7852416769463864
0.06659214280362753
-0.6792517148288579
-1.7206424185112292
-2.6308216524062806
-2.756780751951642
-2.4628263562223114
-2.3801706682615853
-2.2870500069826867
-1.8989080441188395
-1.4698949448923067
-1.3250395416353682
-1.3890973897907717
-1.4486499425281107
-1.7770194726002213
-2.395044284069249
-2.911720272126443
-3.3638942312206392
-4.089384930106101
-5.0337045882611005
-5.63447655625059
-5.853447754481753
-6.269978767272641
-7.219296936831127
-8.33705942575084
-8.996000076627901
-9.23855479481322
-9.241436313615973
-9.013315206086055
-8.682585355155904
-8.337614395731508
-8.038518453396984
-7.695052982511456
-7.261323293931746
-6.658409080409647
-5.8222153730501045
-4.92794182504007
-4.178181758131186
-3.3637623096846787
-1.8758509457512065
-0.26508947942481287
0.35241333451480533
0.38553566650577786
0.8824983757448343
1.9523970092038716
2.657473287128462
2.562811660589785
2.4659582588223645
2.7442922815178914
3.0002619393549366
2.9442941177072575
2.6162298943919806
2.185725859631217
1.625333766249312
1.1029334349602522
0.880256759043036
0.6998587227859969
0.3972859151457845
0.21261766280505967
0.1804297668361458
0.11133559727133273
-0.0485500212704971
-0.13621891254823795
-0.015878623831185545
0.21078905798714
0.5205903341497721
0.9331567663123836
1.3438209911929855
1.9333667414367863
2.9870019818735907
4.3511426683143055
5.427964396134136
5.99333643717321
6.4873092737466855
7.170621493395541
7.780715325289203
7.683025339315131
6.759508261544912
5.687777014697672
4.6816147161893795
3.4256345444010976
1.923281644414518
0.3818624595257069
-1.2314560681225857
-2.781266664841119
-3.778362050302691
-4.412679914649942
-5.24624196402096
-6.1769468610736915
-6.842280950747763
-6.9027065022813385
-6.6302920000611225
-6.559721735112892
-6.239331029632192
-5.46050638259126
-4.599635399041752
-3.5997209444318123
-2.259659309255672
-0.6382437172660494
0.905219548509929
2.381604382307932
3.967366928245702
5.516868907187831
6.894412921186254
8.053810705679524
9.153283738222765
9.985939644972053
10.187379142404845
10.235175345575906
10.361579066864346
9.99803853623545
9.075891877145933
7.749136539016169
6.066795847186536
4.303975793589329
2.656013909946919
1.286244884575102
-0.21195230039411522
-1.988091532663575
-3.34025420781925
-4.078759267289048
-4.555647515819817
-5.302581577095453
-5.860845064453324
-5.501532627205303
-4.908834943927724
-4.5686780216992275
-4.249811795708099
-3.820360462107751
-3.621761446291322
-3.769229559391454
-3.645919938255443
-3.2563890842258396
-3.021974667708913
-2.978644535121545
-2.9029019014756123
-2.483889440890602
-1.897941767487366
-1.3097131595353027
-0.5935457780385198
0.1426615253485633
0.9151328364585124
1.7637316668728258
2.609616864781984
3.1472593642622266
3.0141230707430733
2.6067916466611902
2.339276352631083
1.9801317635569873
1.1401955511754318
-0.08807735447538458
-0.9574446102989862
-1.449834253198312
-2.249932510044647
-3.211027071760768
-3.88674668977833
-4.291977232475852
-4.641000852084959
-4.974871673617963
-5.020774967608276
-4.91969690664547
-4.673961645426665
-3.888508804510272
-2.887783383325681
-2.0849191098247473
-1.5556140621908503
-0.9348852406899294
0.1749371062077074
1.3486655035660757
2.3781743907593955
3.283432942386979
3.8149518353245293
3.9915531367081623
3.95831448972542
3.718565495409427
3.0408801149299975
1.931910487425773
0.8622817848372728
-0.0872718727119343
-1.30097716969187
-2.7797285017709337
-4.012620827960917
-4.844277732765581
-5.723218393805516
-6.7174955409158414
-7.201484082946311
-6.971205988883472
-6.635637018772816
-6.482352693941807
-6.093505278943404
-5.137445346917152
-3.917212510120591
-2.8506723442473687
-1.8623106390915167
-0.9196108151216666
-0.0489938134801221
0.9334149968492387
1.9857659957175369
2.6363991818333297
2.8431947659682693
3.2395475466554404
3.6194842898335335
3.510762279304301
3.055549887386612
2.7164875305248506
3.1113265038790257
3.6296877285943525
3.2773412321440385
2.396977229427717
1.9782518599124939
2.2068769350737454
2.383986454653009
2.3247134612535145
2.207489381123
2.0959130122665623
2.1615971273908334
2.354861565212687
2.40147553272717
2.185352965130515
1.905851653022648
1.5898822235262176
0.9228907728751172
-0.220589951278229
-1.2912747784571825
-1.5143433447457042
-1.4316043147436093
-1.9146668658879222
-2.4723121747289474
-2.8780449005626876
-3.4503956976710772
-3.948415304930447
-4.288491127092367
-4.611484210251608
-5.0141117395004065
-5.649596445125887
-6.2131624308031705
-6.346034067420493
-6.363545397305307
-6.43066664748546
-6.007251402053255
-5.0568266635062855
-4.191500441300026
-3.3547019845297354
-2.41564119016369
-1.8396039612227568
-1.6297220238036108
-1.0946285151834807
0.04795270286365479
1.0965801502074708
1.7292705344225427
2.3656602268284024
2.955946851379793
3.127035545938403
2.818070612637688
2.7012560458236066
3.118108939625941
3.341937192181017
3.1598432477884857
2.9312643026595113
2.9606157053466893
3.209257854218413
3.1108681605999933
2.6464502758134545
2.1190629818517546
1.4576203240873236
0.482669240502912
-0.7898114474705875
-2.043950143015187
-3.11242825841084
-4.0112163529720295
-4.847608103442329
-5.720017729633926
-6.564010199370268
-7.228045590837036
-7.390299124875036
-7.063966611737155
-6.7113870167963015
-6.421973645226176
-6.219077137431505
-6.316137955672851
-6.60272695896026
-6.8978643043443135
-6.928537218320174
-6.754659851771511
-6.814925155687327
-6.860410481403274
-6.640955231314259
-6.3081113362472205
-5.946330606881183
-5.475704750992077
-4.563480132863738
-3.457706242162402
-2.390281594745967
-1.1054442157949875
0.23801211111422457
1.665447720831708
3.0930338920648675
4.1478233089943055
4.745068608772241
4.852731834475527
4.9820219492654845
5.379606507766409
5.519703007343157
5.237677975521629
4.75638774014096
4.565276840920824
4.662419535792501
4.487150531234573
4.190234601402236
3.9509861134140203
3.5953960781367242
3.2318230520943794
3.06028877726358
3.1075460376504895
2.980337027588529
2.723095903748969
2.8035682423938875
2.8896279997413314
2.6777604356433544
2.488584185965716
2.586725854840371
2.7718817812065444
2.7556014128455923
2.7485328321932334
2.7381669804424735
2.4796858120173715
2.1344249597117035
2.062180431773314
2.4543556258169112
2.767350293058515
2.6457068366737926
2.499287469761203
2.3456334015184885
1.9089783019358164
1.1962103040645073
0.5526572544858362
0.1554231550156022
-0.3604497013936188
-1.0467549631176543
-1.579123743410052
-2.073107716197677
-2.5070671675946947
-2.3625372233238164
-1.5789041016084302
-0.7524069453713413
-0.47104935143699933
-0.3498731678522014
0.2596264088433641
1.0172939425047138
1.452506909034885
1.7101334846063714
2.3752650121031165
3.315547767566757
3.8617050341239496
4.119313805544423
4.434290926232315
4.965441184022849
5.414399162598933
5.527700367058544
5.4797086252775715
5.126883442927076
4.651490427346698
4.447245200995037
4.163788070269228
3.2588292192669512
1.9330064063289714
0.9019408443705211
0.19170797503443107
-0.6392420194964742
-1.5500614212371233
-2.360892721122638
-3.1266008284487508
-4.006313892206384
-4.590844905233454
-4.282511895025757
-3.521982485545196
-2.688535712362423
-1.5034511550918774
0.02804744700718813
1.5241557825112415
2.4569035369062244
3.1339341861176977
4.2505463380136606
5.442511505803961
6.189313938840694
6.327026040456556
5.946137312811318
5.633159645441499
5.687662282730417
5.8502373724772845
5.765060531709164
5.298212575525871
4.657032236434936
4.2733551528919484
4.0686259091008745
3.278253061288889
